keywords,city,Aggdata Store Number,store_number,address,state,zip_code
Albertsons,Helena,101,#101 #0101 #00101,1650 W State St,ID,83702
Albertsons,Bozeman,102,#102 #0102 #00102,715 12th Ave South,ID,83651
Albertsons,Butte,103,#103 #0103 #00103,415 Cleveland Blvd,ID,83605
Albertsons,Helena,119,#119 #0119 #00119,1219 Broadway Avenue,ID,83706
Albertsons,Belgrade,126,#126 #0126 #00126,640 Highway 16,ID,83617
Albertsons,Glasgow,130,#130 #0130 #00130,911 Main Street North,ID,83333
Albertsons,Malta,138,#138 #0138 #00138,590 East 17th Street,ID,83404
Albertsons,Shelby,154,#154 #0154 #00154,1520 North Cole Road,ID,83704
Albertsons,Wolf Point,156,#156 #0156 #00156,7100 W State St,ID,83703
Albertsons,Lewistown,159,#159 #0159 #00159,330 E Benton,ID,83201
Albertsons,Anaconda,160,#160 #0160 #00160,10500 Overland Road,ID,83709
Albertsons,Glendive,161,#161 #0161 #00161,10700 Ustick Rd,ID,83713
Albertsons,Billings,162,#162 #0162 #00162,5100 Overland Rd,ID,83705
Albertsons,Billings,164,#164 #0164 #00164,20 East Fairview,ID,83642
Albertsons,Williston,165,#165 #0165 #00165,528 North Main Street,ID,83647
Albertsons,Billings,166,#166 #0166 #00166,2500 Blaine Street,ID,83605
Albertsons,Harlem,168,#168 #0168 #00168,405 South 8th,ID,83661
Albertsons,Cut Bank,169,#169 #0169 #00169,909 East Parkcenter Blvd,ID,83706
Albertsons,Great Falls,171,#171 #0171 #00171,490 N 2nd E,ID,83440
Albertsons,Great Falls,174,#174 #0174 #00174,1901 South 25th East,ID,83406
Albertsons,Billings,176,#176 #0176 #00176,2400 12th Avenue Road,ID,83686
Albertsons,Miles City,177,#177 #0177 #00177,4700 North Eagle Road,ID,83713
Albertsons,Billings,180,#180 #0180 #00180,3301 W Cherry Lane,ID,83642
Albertsons,Livingston,182,#182 #0182 #00182,250 South Eagle Road,ID,83616
Albertsons,Billings,183,#183 #0183 #00183,105 Buffalo Way,WY,83001
Albertsons,Casper,184,#184 #0184 #00184,6560 South Federal Way,ID,83716
Albertsons,Cody,189,#189 #0189 #00189,3614 West State Street,ID,83703
Albertsons,Casper,193,#193 #0193 #00193,1653 South Vista Avenue,ID,83705
Albertsons,Laramie,206,#206 #0206 #00206,9001 N Indian Trail Rd,WA,99208
Albertsons,Sheridan,213,#213 #0213 #00213,1320 Lee Boulevard,WA,99352
Albertsons,Cheyenne,225,#225 #0225 #00225,450 North Wilbur Avenue,WA,99362
Albertsons,Cheyenne,238,#238 #0238 #00238,1024 21st Street,ID,83501
Albertsons,Gillette,239,#239 #0239 #00239,401 S 40th Ave,WA,98908
Albertsons,Spokane,240,#240 #0240 #00240,510 East 37th Ave,WA,99203
Albertsons,Lewiston,241,#241 #0241 #00241,400 Bridge Street,WA,99403
Albertsons,Spokane,242,#242 #0242 #00242,12312 N Division St,WA,99218
Albertsons,Clarkston,244,#244 #0244 #00244,1128 North Miller,WA,98801
Albertsons,Spokane,246,#246 #0246 #00246,8851 E Trent Avenue,WA,99212
Albertsons,Coeur D'Alene,248,#248 #0248 #00248,1304 N Liberty Lake Rd,WA,99019
Albertsons,Millwood,249,#249 #0249 #00249,1610 West Lincoln,WA,98902
Albertsons,Liberty Lake,252,#252 #0252 #00252,690 Gage Blvd,WA,99352
Albertsons,Hayden,253,#253 #0253 #00253,5204 West Clearwater,WA,99336
Albertsons,Spokane,254,#254 #0254 #00254,161 West Prairie Avenue,ID,83835
Albertsons,Spokane,258,#258 #0258 #00258,13606 East 32nd Avenue,WA,99206
Albertsons,Spokane,261,#261 #0261 #00261,1120 Campbell Street,OR,97814
Albertsons,Missoula,265,#265 #0265 #00265,6520 North Nevada,WA,99208
Albertsons,Kalispell,268,#268 #0268 #00268,3010 East 57th Ave,WA,99223
Albertsons,Missoula,301,#301 #0301 #00301,915 Redcliffs Drive,UT,84780
Albertsons,Missoula,329,#329 #0329 #00329,745 North Dixie Drive,UT,84770
Albertsons,Hamilton,339,#339 #0339 #00339,740 N Main,UT,84074
Albertsons,Missoula,342,#342 #0342 #00342,1323 Dewar Drive,WY,82901
Albertsons,Boise,401,#401 #0401 #00401,17520 SR 9 Southeast,WA,98296
Albertsons,Nampa,402,#402 #0402 #00402,1450 SW Erie Stree,WA,98277
Albertsons,Caldwell,403,#403 #0403 #00403,3925 236th Ave NE,WA,98053
Albertsons,Boise,404,#404 #0404 #00404,114 East Lauridsen Blvd,WA,98362
Albertsons,Emmett,406,#406 #0406 #00406,11330 NW 51st Avenue,WA,98332
Albertsons,Hailey,407,#407 #0407 #00407,705 Trosper Road Southwest,WA,98511
Albertsons,Ontario,413,#413 #0413 #00413,3322 132nd Street Southeast,WA,98012
Albertsons,Idaho Falls,414,#414 #0414 #00414,4301 212th Street SW,WA,98043
Albertsons,Twin Falls,415,#415 #0415 #00415,3520 Pacific Ave Southeast,WA,98501
Albertsons,Idaho Falls,419,#419 #0419 #00419,370 SW Sedgwick Rd,WA,98367
Albertsons,Boise,443,#443 #0443 #00443,2900 Wheaton Way,WA,98310
Albertsons,Elko,450,#450 #0450 #00450,2755 77th Ave SE,WA,98040
Albertsons,Boise,461,#461 #0461 #00461,520 128th St SW,WA,98204
Albertsons,Pocatello,465,#465 #0465 #00465,8611 Steilacoom Blvd SW,WA,98498
Albertsons,Boise,468,#468 #0468 #00468,11012 Canyon Rd East,WA,98373
Albertsons,Boise,469,#469 #0469 #00469,12811 Beverly Park Rd,WA,98087
Albertsons,Boise,470,#470 #0470 #00470,14215 SE Petrovitsky Rd,WA,98058
Albertsons,Meridian,471,#471 #0471 #00471,301 Marysville Mall #60,WA,98270
Albertsons,Mountain Home,472,#472 #0472 #00472,2800 Milton Way,WA,98354
Albertsons,Caldwell,473,#473 #0473 #00473,12739 First Ave S,WA,98168
Albertsons,Payette,475,#475 #0475 #00475,1434 Olney Ave SE,WA,98366
Albertsons,Boise,476,#476 #0476 #00476,19881 SR2,WA,98272
Albertsons,Rexburg,478,#478 #0478 #00478,6727 Evergreen Way,WA,98203
Albertsons,Ammon,485,#485 #0485 #00485,19500 Highway 99 Suite 110,WA,98036
Albertsons,Nampa,486,#486 #0486 #00486,8196 Northeast Highway 104,WA,98346
Albertsons,Boise,492,#492 #0492 #00492,2222 NW Bucklin Hill Rd,WA,98383
Albertsons,Meridian,493,#493 #0493 #00493,104 Military Rd,WA,98444
Albertsons,Eagle,496,#496 #0496 #00496,31009 Pacific Hwy South,WA,98003
Albertsons,Jackson,501,#501 #0501 #00501,2630 Parkway Drive,TX,79403
Albertsons,Boise,502,#502 #0502 #00502,3405 50th Street,TX,79413
Albertsons,Boise,503,#503 #0503 #00503,14800 S E SUNNYSIDE RD,OR,97015
Albertsons,Boise,503,#503 #0503 #00503,112 N. University,TX,79415
Albertsons,Baker City,505,#505 #0505 #00505,5415 SW Beaverton Hwy,OR,97221
Albertsons,Washington,505,#505 #0505 #00505,401 Slide Road,TX,79416
Albertsons,Saint George,506,#506 #0506 #00506,1855 BLANKENSHIP RD,OR,97068
Albertsons,Tooele,506,#506 #0506 #00506,1701 50th Street,TX,79412
Albertsons,Rock Springs,507,#507 #0507 #00507,1675 W. 18TH AVENUE,OR,97402
Albertsons,Snohomish,507,#507 #0507 #00507,3501 Olton Road,TX,79072
Albertsons,Oak Harbor,508,#508 #0508 #00508,910 NORTH PHOENIX ROAD,OR,97504
Albertsons,Seattle,508,#508 #0508 #00508,2403 N. Columbia Ave.,TX,79072
Albertsons,Seattle,509,#509 #0509 #00509,511 College Ave,TX,79336
Albertsons,Mill Creek,511,#511 #0511 #00511,615 S Highway 84,TX,79364
Albertsons,Mountlake Terrace,512,#512 #0512 #00512,123 N. Broadway,TX,79356
Albertsons,Bellingham,513,#513 #0513 #00513,4740 ROYAL AVENUE,OR,97402
Albertsons,Seattle,513,#513 #0513 #00513,2900 Wilbarger Ave,TX,76384
Albertsons,Mill Creek,514,#514 #0514 #00514,1000 W. 11th St.,TX,79252
Albertsons,Everett,515,#515 #0515 #00515,3013 NORTHWEST STEWART PARKWAY,OR,97471
Albertsons,Lynnwood,515,#515 #0515 #00515,311 South Ave D,TX,76354
Albertsons,Marysville,516,#516 #0516 #00516,4516 Jacksboro Highway,TX,76302
Albertsons,Monroe,517,#517 #0517 #00517,4590 Kell Blvd,TX,76309
Albertsons,Lake Stevens,518,#518 #0518 #00518,30299 SW Boones Ferry Rd.,OR,97070
Albertsons,Everett,518,#518 #0518 #00518,2105 Ave F NW,TX,79201
Albertsons,Lynnwood,520,#520 #0520 #00520,1229 Highway 16 South,TX,76450
Albertsons,Grants Pass,521,#521 #0521 #00521,16199 SOUTHWEST BOONES FERRY ROAD,OR,97035
Albertsons,Portland,521,#521 #0521 #00521,2522 Iowa Park Rd.,TX,76306
Albertsons,West Linn,522,#522 #0522 #00522,4701 S. Washington,TX,79110
Albertsons,Eugene,523,#523 #0523 #00523,5601 Amarillo Blvd. West,TX,79106
Albertsons,Medford,524,#524 #0524 #00524,3300 I-40 East,TX,79103
Albertsons,Eugene,525,#525 #0525 #00525,2802 Highway 83 South,TX,79070
Albertsons,Roseburg,526,#526 #0526 #00526,2530 S. Georgia,TX,79109
Albertsons,Wilsonville,527,#527 #0527 #00527,1501 Amarillo Blvd. East,TX,79107
Albertsons,McMinnville,528,#528 #0528 #00528,615 SW Keck Dr.,OR,97128
Albertsons,Grants Pass,528,#528 #0528 #00528,1420 N. Hobart,TX,79065
Albertsons,Aloha,529,#529 #0529 #00529,"5807 SW 45th ,100",TX,79109
Albertsons,Beaverton,532,#532 #0532 #00532,201 N. 23rd Street,TX,79015
Albertsons,Eugene,533,#533 #0533 #00533,3400 River Road,TX,79107
Albertsons,Keizer,534,#534 #0534 #00534,1601 Tennessee,TX,79022
Albertsons,Tigard,535,#535 #0535 #00535,701 Marshall Howard Blvd.,TX,79339
Albertsons,Eugene,536,#536 #0536 #00536,25691 SOUTHEAST STARK,OR,97060
Albertsons,Springfield,536,#536 #0536 #00536,1401 Tahoka Road/Rt. 1,TX,79316
Albertsons,Eugene,537,#537 #0537 #00537,1690 ALLEN CREEK ROAD,OR,97527
Albertsons,Ashland,537,#537 #0537 #00537,2703 82nd Street,TX,79423
Albertsons,Springfield,539,#539 #0539 #00539,1414 West Wilson,TX,79007
Albertsons,Tigard,540,#540 #0540 #00540,2302 Lubbock Highway,TX,79331
Albertsons,Klamath Falls,542,#542 #0542 #00542,1420 Guylane Plaza,TX,79029
Albertsons,Sherwood,543,#543 #0543 #00543,4205 98th Street,TX,79423
Albertsons,Portland,545,#545 #0545 #00545,1095 Judge Ely Blvd,TX,79601
Albertsons,Bend,546,#546 #0546 #00546,4209 Buffalo Gap Rd.,TX,79606
Albertsons,Bend,547,#547 #0547 #00547,920 N. Willis,TX,79603
Albertsons,Redmond,548,#548 #0548 #00548,3301 South 14th,TX,79605
Albertsons,Hillsboro,549,#549 #0549 #00549,3500 College Avenue,TX,79549
Albertsons,Hillsboro,550,#550 #0550 #00550,104 W. 9th St.,TX,79347
Albertsons,Medford,551,#551 #0551 #00551,8010 Frankford Avenue,TX,79424
Albertsons,Central Point,553,#553 #0553 #00553,4425 19th Street,TX,79407
Albertsons,Portland,559,#559 #0559 #00559,8155 S.W. HALL BLVD,OR,97005
Albertsons,Richland,560,#560 #0560 #00560,55 DIVISION AVE.,OR,97404
Albertsons,Walla Walla,560,#560 #0560 #00560,5605 Colleyville Blvd.,TX,76034
Albertsons,Pasco,561,#561 #0561 #00561,6100 West Eldorado Parkway,TX,75070
Albertsons,Yakima,562,#562 #0562 #00562,11999 Dallas Pkwy,TX,75034
Albertsons,Wenatchee,563,#563 #0563 #00563,985 W. Bethany Dr.,TX,75013
Albertsons,Yakima,564,#564 #0564 #00564,451 NORTHEAST 181ST ST.,OR,97230
Albertsons,Richland,564,#564 #0564 #00564,700 N. Denton Tap Rd.,TX,75019
Albertsons,Kennewick,565,#565 #0565 #00565,3800 Long Prairie Road,TX,75028
Albertsons,Redmond,566,#566 #0566 #00566,10830 SE OAK,OR,97222
Albertsons,Burien,566,#566 #0566 #00566,1929 Preston Road,TX,75093
Albertsons,Bellevue,568,#568 #0568 #00568,3075 HILYARD STREET,OR,97405
Albertsons,Renton,569,#569 #0569 #00569,11 SOUTH STATE STREET,OR,97034
Albertsons,Woodinville,570,#570 #0570 #00570,2000 MARCOLA ROAD,OR,97477
Albertsons,Burien,571,#571 #0571 #00571,19007 SOUTH BEAVERCREEK RD.,OR,97045
Albertsons,Port Angeles,572,#572 #0572 #00572,311 COBURG RD.,OR,97401
Albertsons,Gig Harbor,574,#574 #0574 #00574,5755 S. MAIN STREET,OR,97478
Albertsons,Tumwater,575,#575 #0575 #00575,5850 N.E. PRESCOTT,OR,97218
Albertsons,Olympia,576,#576 #0576 #00576,14300 SOUTHWEST BARROWS ROAD,OR,97223
Albertsons,Port Orchard,577,#577 #0577 #00577,5500 SOUTH 6TH ST.,OR,97603
Albertsons,Bremerton,579,#579 #0579 #00579,16030 SOUTH WEST TUALATIN SHERWOOD RD,OR,97140
Albertsons,Lakewood,580,#580 #0580 #00580,14300 NORTHEAST. 20TH AVE.,WA,98686
Albertsons,Poulsbo,588,#588 #0588 #00588,61155 S. HWY 97,OR,97702
Albertsons,Puyallup,590,#590 #0590 #00590,7500 SOUTHWEST BASELINE ROAD,OR,97123
Albertsons,Renton,591,#591 #0591 #00591,888 NORTHEAST 25TH AVENUE,OR,97124
Albertsons,Milton,592,#592 #0592 #00592,2108 WEST MAIN STREET,WA,98604
Albertsons,Port Orchard,593,#593 #0593 #00593,113 Ross Lane,OR,97501
Albertsons,Auburn,595,#595 #0595 #00595,1360 PLAZA BLVD,OR,97502
Albertsons,Kingston,2060,#2060 #02060 #002060,1076 CY AVE,WY,82604
Albertsons,Silverdale,2064,#2064 #02064 #002064,1865 COFFEEN AVENUE,WY,82801
Albertsons,Tacoma,6002,#6002 #06002 #006002,201 SOUTH STEPHANIE STREET,NV,89012
Albertsons,Federal Way,6004,#6004 #06004 #006004,4055 SOUTH DURANGO DRIVE,NV,89147
Albertsons,Tacoma,6005,#6005 #06005 #006005,3010 WEST ANN ROAD,NV,89031
Albertsons,Clackamas,6009,#6009 #06009 #006009,8410 FARM ROAD,NV,89131
Albertsons,Lake Oswego,6014,#6014 #06014 #006014,575 COLLEGE DRIVE,NV,89015
Albertsons,Troutdale,6016,#6016 #06016 #006016,10250 WEST CHARLESTON BLVD,NV,89135
Albertsons,Portland,6018,#6018 #06018 #006018,7151 WEST CRAIG ROAD,NV,89129
Albertsons,Milwaukie,6019,#6019 #06019 #006019,190 NORTH BOULDER HIGHWAY,NV,89015
Albertsons,Lake Oswego,6021,#6021 #06021 #006021,10140 WEST FLAMINGO ROAD,NV,89147
Albertsons,Oregon City,6032,#6032 #06032 #006032,4800 Blue Diamond Road,NV,89139
Albertsons,Portland,6043,#6043 #06043 #006043,2851 NORTH GREEN VALLEY PARKWAY,NV,89014
Albertsons,Vancouver,6046,#6046 #06046 #006046,1001 S. Rainbow Blvd.,NV,89145
Albertsons,Battle Ground,6060,#6060 #06060 #006060,11720 W. Charleston Blvd.,NV,89135
Albertsons,Mercer Island,6061,#6061 #06061 #006061,4850 WEST CRAIG ROAD,NV,89032
Albertsons,Las Vegas,6062,#6062 #06062 #006062,2885 EAST DESERT INN ROAD,NV,89121
Albertsons,Las Vegas,6076,#6076 #06076 #006076,7350 SOUTH RAINBOW BLVD.,NV,89139
Albertsons,Las Vegas,6090,#6090 #06090 #006090,7075 WEST ANN ROAD,NV,89130
Albertsons,Las Vegas,6091,#6091 #06091 #006091,5881 E. CHARLESTON BLVD.,NV,89142
Albertsons,Las Vegas,6093,#6093 #06093 #006093,1008 NEVADA HIGHWAY,NV,89005
Albertsons,Hawthorne,6102,#6102 #06102 #006102,16600 Bolsa Chica St.,CA,92649
Albertsons,Gardena,6103,#6103 #06103 #006103,12630 SOUTH HAWTHORNE BOULEVARD,CA,90250
Albertsons,Los Angeles,6104,#6104 #06104 #006104,13401 WASHINGTON BOULEVARD,CA,90292
Albertsons,Long Beach,6105,#6105 #06105 #006105,8880 VALLEY VIEW STREET,CA,90620
Albertsons,Downey,6108,#6108 #06108 #006108,1735 WEST ARTESIA BLVD,CA,90247
Albertsons,La Mirada,6110,#6110 #06110 #006110,7201 YORKTOWN AVENUE,CA,92648
Albertsons,Los Angeles,6119,#6119 #06119 #006119,1930 N Placentia Ave,CA,92831
Albertsons,Montebello,6124,#6124 #06124 #006124,19640 BEACH BOULEVARD,CA,92648
Albertsons,Lakewood,6131,#6131 #06131 #006131,3901 CRENSHAW BLVD,CA,90008
Albertsons,Anaheim,6135,#6135 #06135 #006135,110 EAST CARSON STREET,CA,90745
Albertsons,Vista,6140,#6140 #06140 #006140,7676 FIRESTONE BLVD,CA,90241
Albertsons,Oxnard,6141,#6141 #06141 #006141,2500 East Imperial Hwy,CA,92821
Albertsons,Reseda,6145,#6145 #06145 #006145,6755 WESTMINSTER BOULEVARD,CA,92683
Albertsons,Bakersfield,6153,#6153 #06153 #006153,21035 HAWTHORNE BOULEVARD,CA,90503
Albertsons,Palmdale,6154,#6154 #06154 #006154,6235 EAST SPRING STREET,CA,90808
Albertsons,Bakersfield,6159,#6159 #06159 #006159,200 E SEPULVEDA BLVD,CA,90745
Albertsons,Rosamond,6160,#6160 #06160 #006160,1636 WEST 25TH STREET,CA,90732
Albertsons,Lompoc,6165,#6165 #06165 #006165,2291 WEST MALVERN AVE,CA,92833
Albertsons,Santa Maria,6168,#6168 #06168 #006168,3443 SOUTH SEPULVEDA BLVD,CA,90034
Albertsons,Bakersfield,6170,#6170 #06170 #006170,18579 BROOKHURST,CA,92708
Albertsons,Highland,6189,#6189 #06189 #006189,2115 ARTESIA BOULEVARD,CA,90278
Albertsons,Apple Valley,6194,#6194 #06194 #006194,810 South State College Blvd,CA,92806
Albertsons,Chino Hills,6301,#6301 #06301 #006301,23850 Copperhill Dr,CA,91354
Albertsons,Rancho Cucamonga,6304,#6304 #06304 #006304,1132 W Branch Street,CA,93420
Albertsons,Chino,6305,#6305 #06305 #006305,19307 SATICOY STREET,CA,91335
Albertsons,Costa Mesa,6314,#6314 #06314 #006314,189 NIBLICK ROAD,CA,93446
Albertsons,Orange,6317,#6317 #06317 #006317,5135 LOS ANGELES AVENUE,CA,93063
Albertsons,Alhambra,6322,#6322 #06322 #006322,43543 20TH STREET WEST,CA,93536
Albertsons,West Covina,6323,#6323 #06323 #006323,3500 PANAMA LANE,CA,93313
Albertsons,Arcadia,6329,#6329 #06329 #006329,5038 W Avenue N,CA,93551
Albertsons,Palm Springs,6331,#6331 #06331 #006331,927 SOUTH CHINA LAKE BOULEVARD,CA,93555
Albertsons,Riverside,6333,#6333 #06333 #006333,38727 Tierra Subida Ave,CA,93551
Albertsons,Tustin,6335,#6335 #06335 #006335,26521 AGOURA ROAD,CA,91302
Albertsons,Orange,6336,#6336 #06336 #006336,1520 BRUNDAGE LANE,CA,93304
Albertsons,Blythe,6339,#6339 #06339 #006339,1500 NORTH H STREET,CA,93436
Albertsons,Chino Hills,6347,#6347 #06347 #006347,775 S TUCKER ROAD,CA,93561
Albertsons,San Dimas,6348,#6348 #06348 #006348,2320 SOUTH BROADWAY,CA,93454
Albertsons,Santa Ana,6363,#6363 #06363 #006363,2800 COCHRAN,CA,93065
Albertsons,Glendora,6369,#6369 #06369 #006369,1736 E Avenida De Los Arboles,CA,91362
Albertsons,Murrieta,6377,#6377 #06377 #006377,13045 Rosedale Hwy,CA,93312
Albertsons,Escondido,6387,#6387 #06387 #006387,2035 HILLHURST AVE.,CA,90027
Albertsons,Lemon Grove,6388,#6388 #06388 #006388,5770 LINDERO CANYON RD,CA,91362
Albertsons,San Marcos,6390,#6390 #06390 #006390,8200 EL CAMINO REAL,CA,93422
Albertsons,Escondido,6391,#6391 #06391 #006391,541 SOUTH REINO ROAD,CA,91320
Albertsons,San Diego,6393,#6393 #06393 #006393,1268 MADERA ROAD,CA,93065
Albertsons,Chula Vista,6394,#6394 #06394 #006394,1120 EAST CLARK AVE.,CA,93455
Albertsons,Spring Valley,6397,#6397 #06397 #006397,6240 FOOTHILL BLVD,CA,91042
Albertsons,San Diego,6398,#6398 #06398 #006398,6045 COFFEE RD,CA,93308
Albertsons,El Cajon,6503,#6503 #06503 #006503,7201 BOULDER AVENUE,CA,92346
Albertsons,Corona,6507,#6507 #06507 #006507,4541 CAMPUS DR,CA,92612
Albertsons,Lake Elsinore,6509,#6509 #06509 #006509,804 Avenida Pico,CA,92672
Albertsons,Las Vegas,6510,#6510 #06510 #006510,21500 YORBA LINDA BLVD.,CA,92887
Albertsons,Henderson,6513,#6513 #06513 #006513,20261 HIGHWAY 18,CA,92307
Albertsons,Las Vegas,6514,#6514 #06514 #006514,8938 TRAUTWEIN ROAD,CA,92508
Albertsons,North Las Vegas,6515,#6515 #06515 #006515,3255 GRAND AVENUE,CA,91709
Albertsons,Las Vegas,6517,#6517 #06517 #006517,25872 MUIRLANDS BLVD,CA,92691
Albertsons,Las Vegas,6519,#6519 #06519 #006519,450 EAST CYPRESS AVENUE,CA,92373
Albertsons,Las Vegas,6523,#6523 #06523 #006523,8850 FOOTHILL BLVD.,CA,91730
Albertsons,Las Vegas,6534,#6534 #06534 #006534,940 TUSTIN AVE,CA,92867
Albertsons,Las Vegas,6543,#6543 #06543 #006543,2400 WEST COMMONWEALTH AVE.,CA,91803
Albertsons,Henderson,6549,#6549 #06549 #006549,23072 Alicia Pkwy,CA,92692
Albertsons,Las Vegas,6551,#6551 #06551 #006551,8440 EAST CHAPMAN AVENUE,CA,92867
Albertsons,Las Vegas,6552,#6552 #06552 #006552,27702 CROWN VALLEY PARKWAY SUITE B,CA,92694
Albertsons,Henderson,6554,#6554 #06554 #006554,1235 S. Diamond Bar Bl.,CA,91765
Albertsons,Las Vegas,6557,#6557 #06557 #006557,2630 EAST WORKMAN AVENUE,CA,91791
Albertsons,Henderson,6558,#6558 #06558 #006558,33601 DEL OBISPO,CA,92629
Albertsons,Las Vegas,6559,#6559 #06559 #006559,74590 Highway 111,CA,92260
Albertsons,Las Vegas,6561,#6561 #06561 #006561,298 E. LIVE OAK AVE.,CA,91006
Albertsons,Pahrump,6563,#6563 #06563 #006563,989 AVENDIA PICO,CA,92673
Albertsons,Henderson,6569,#6569 #06569 #006569,1751 N. Sunrise Way (#1),CA,92262
Albertsons,Las Vegas,6572,#6572 #06572 #006572,2975 VAN BUREN BLVD,CA,92503
Albertsons,Las Vegas,6574,#6574 #06574 #006574,13270 NEWPORT AVENUE,CA,92780
Albertsons,Las Vegas,6585,#6585 #06585 #006585,4550 EAST CHAPMAN AVENUE,CA,92869
Albertsons,Las Vegas,6586,#6586 #06586 #006586,40101 MONTEREY AVE.,CA,92270
Albertsons,Las Vegas,6589,#6589 #06589 #006589,1910 N. Campus Ave.,CA,91784
Albertsons,Las Vegas,6591,#6591 #06591 #006591,14201 JEFFREY ROAD,CA,92620
Albertsons,Las Vegas,6592,#6592 #06592 #006592,15970 LOS SERRANOS COUNTRY CLUB DRIVE,CA,91709
Albertsons,Boulder City,6594,#6594 #06594 #006594,220 EAST BONITA AVENUE,CA,91773
Albertsons,Huntington Beach,6598,#6598 #06598 #006598,2000 EAST 17TH STREET,CA,92705
Albertsons,Buena Park,6601,#6601 #06601 #006601,133 WEST ROUTE 66,CA,91740
Albertsons,Huntington Beach,6609,#6609 #06609 #006609,28047 SCOTT ROAD,CA,92562
Albertsons,Fullerton,6641,#6641 #06641 #006641,7070 ARCHIBALD AVE.,CA,92880
Albertsons,Huntington Beach,6702,#6702 #06702 #006702,2707 VIA DE LA VALLE,CA,92014
Albertsons,Brea,6704,#6704 #06704 #006704,2955 ALPINE BLVD.,CA,91901
Albertsons,Westminster,6706,#6706 #06706 #006706,30530 RANCHO CALIFORNIA ROAD,CA,92591
Albertsons,Long Beach,6710,#6710 #06710 #006710,8920 FLETCHER PARKWAY,CA,91941
Albertsons,Fountain Valley,6713,#6713 #06713 #006713,1509 EAST VALLEY PARKWAY,CA,92027
Albertsons,La Habra,6720,#6720 #06720 #006720,7660 EL CAMINO REAL,CA,92009
Albertsons,Fullerton,6723,#6723 #06723 #006723,9831 CAMPO ROAD,CA,91977
Albertsons,Fountain Valley,6725,#6725 #06725 #006725,1459 MAIN STREET,CA,92065
Albertsons,Irvine,6727,#6727 #06727 #006727,9870 Magnolia Ave,CA,92071
Albertsons,Laguna Niguel,6728,#6728 #06728 #006728,260 WEST FOOTHILL PKWY,CA,92882
Albertsons,San Clemente,6733,#6733 #06733 #006733,3450 Marron Road,CA,92056
Albertsons,Yorba Linda,6734,#6734 #06734 #006734,39140 WINCHESTER ROAD,CA,92563
Albertsons,Banning,6735,#6735 #06735 #006735,23893 CLINTON KEITH ROAD,CA,92595
Albertsons,Mission Viejo,6741,#6741 #06741 #006741,14837 POMERADO ROAD,CA,92064
Albertsons,Redlands,6742,#6742 #06742 #006742,7895 HIGHLAND VILLAGE PLACE,CA,92129
Albertsons,Rancho Cucamonga,6743,#6743 #06743 #006743,41000 CALIFORNIA OAKS RD,CA,92562
Albertsons,Trabuco Canyon,6745,#6745 #06745 #006745,655 14TH STREET,CA,92101
Albertsons,Irvine,6750,#6750 #06750 #006750,1571 San Elijo Road S.,CA,92078
Albertsons,Lake Forest,6753,#6753 #06753 #006753,31960 Temecula Pkwy,CA,92589
Albertsons,Irvine,6757,#6757 #06757 #006757,720 - 3RD AVENUE,CA,91910
Albertsons,Mission Viejo,6758,#6758 #06758 #006758,543 SWEETWATER ROAD,CA,91979
Albertsons,Orange,6763,#6763 #06763 #006763,12475 RANCHO BERNARDO ROAD,CA,92128
Albertsons,Ladera Ranch,6767,#6767 #06767 #006767,3925 MISSION AVE.,CA,92058
Albertsons,Diamond Bar,6770,#6770 #06770 #006770,10740 WESTVIEW PKWY,CA,92126
Albertsons,Laguna Niguel,6771,#6771 #06771 #006771,1608 BROADWAY ST,CA,92021
Albertsons,Dana Point,6772,#6772 #06772 #006772,14340 PENASQUITOS DRIVE,CA,92129
Albertsons,Palm Desert,6781,#6781 #06781 #006781,5950 Balboa Ave,CA,92111
Albertsons,San Clemente,6783,#6783 #06783 #006783,2899 Jamacha Rd,CA,92019
Albertsons,Palm Desert,6786,#6786 #06786 #006786,1133 SOUTH MISSION ROAD,CA,92028
Albertsons,Rancho Mirage,6796,#6796 #06796 #006796,1260 EAST ONTARIO AVENUE,CA,92881
Albertsons,Upland,6798,#6798 #06798 #006798,30901 RIVERSIDE DRIVE,CA,92530
Albertsons,Irvine,7703,#7703 #07703 #007703,400 SIMPSON DRIVE,PA,19425
Albertsons,Irvine,7704,#7704 #07704 #007704,6601 ROOSEVELT BLVD,PA,19149
Albertsons,Eastvale,7705,#7705 #07705 #007705,808 EAST STREET ROAD,PA,18974
Albertsons,Marina del Rey,7711,#7711 #07711 #007711,121 EAST CITY AVENUE,PA,19004
Albertsons,Lomita,7714,#7714 #07714 #007714,7010 GERMANTOWN AVENUE,PA,19119
Albertsons,Redondo Beach,7715,#7715 #07715 #007715,1901 JOHNSTON STREET,PA,19145
Albertsons,Carson,7719,#7719 #07719 #007719,2301 PASQUALONE BLVD,PA,19020
Albertsons,Redondo Beach,7721,#7721 #07721 #007721,785 STARR STREET,PA,19460
Albertsons,Torrance,7723,#7723 #07723 #007723,1640 BETHLEHEM PIKE,PA,19031
Albertsons,Carson,7725,#7725 #07725 #007725,8200 ROOSEVELT BLVD,PA,19152
Albertsons,San Pedro,7726,#7726 #07726 #007726,1400 EAST PASSYUNK AVENUE,PA,19147
Albertsons,Santa Monica,7727,#7727 #07727 #007727,2761 W RIDGE PIKE,PA,19403
Albertsons,San Pedro,7730,#7730 #07730 #007730,851 Gap Newport Pike,PA,19311
Albertsons,Los Angeles,7735,#7735 #07735 #007735,101 Byers Dr.,PA,19342
Albertsons,Redondo Beach,7739,#7739 #07739 #007739,105 EAST STREET ROAD,PA,19053
Albertsons,Valencia,7746,#7746 #07746 #007746,505 WEST BUTLER AVENUE,PA,18914
Albertsons,Arroyo Grande,7747,#7747 #07747 #007747,920 RED LION ROAD,PA,19115
Albertsons,Paso Robles,7749,#7749 #07749 #007749,1150 WELSH ROAD,PA,19446
Albertsons,Burbank,7753,#7753 #07753 #007753,700 WEST LANCASTER AVENUE,PA,19087
Albertsons,Simi Valley,7756,#7756 #07756 #007756,320 WEST DEKALB PIKE,PA,19406
Albertsons,Ventura,7762,#7762 #07762 #007762,5927-59 RIDGE AVENUE,PA,19128
Albertsons,Lancaster,7767,#7767 #07767 #007767,3951 LINCOLN HIGHWAY,PA,19335
Albertsons,Buellton,7769,#7769 #07769 #007769,323 OLD YORK ROAD,PA,19046
Albertsons,Palmdale,7770,#7770 #07770 #007770,503 SOUTH MAC DADE BLVD,PA,19043
Albertsons,Ridgecrest,7779,#7779 #07779 #007779,1336 BRISTOL PIKE SUITE 100,PA,19020
Albertsons,Calabasas,7784,#7784 #07784 #007784,480 NORTH MAIN STREET,PA,18901
Albertsons,Morro Bay,7787,#7787 #07787 #007787,6640 OXFORD AVENUE,PA,19111
Albertsons,Tehachapi,7789,#7789 #07789 #007789,7901 LANSDOWNE AVENUE,PA,19082
Albertsons,Santa Barbara,7792,#7792 #07792 #007792,39 LEOPARD ROAD,PA,19301
Albertsons,Goleta,7796,#7796 #07796 #007796,5300 BALTIMORE PIKE,PA,19018
Albertsons,Northridge,7798,#7798 #07798 #007798,1991 N Sproul Rd,PA,19008
Albertsons,Saugus,7806,#7806 #07806 #007806,100 SUBURBAN DRIVE,DE,19711
Albertsons,Simi Valley,7809,#7809 #07809 #007809,527 EAST BALTIMORE PIKE,PA,19065
Albertsons,Thousand Oaks,7816,#7816 #07816 #007816,460 EAST MAIN STREET,DE,19709
Albertsons,San Luis Obispo,7817,#7817 #07817 #007817,146 FOX HUNT DRIVE,DE,19701
Albertsons,Ridgecrest,7822,#7822 #07822 #007822,1001 NORTH DUPONT HIGHWAY,DE,19901
Albertsons,Bakersfield,7828,#7828 #07828 #007828,128 LANTANA DRIVE,DE,19707
Albertsons,Bakersfield,7831,#7831 #07831 #007831,212 NEW ROAD,NJ,8244
Albertsons,Taft,7833,#7833 #07833 #007833,301 SOUTH MAIN STREET,NJ,8360
Albertsons,Camarillo,7835,#7835 #07835 #007835,2087 SHORE ROAD,NJ,8230
Albertsons,Los Angeles,7836,#7836 #07836 #007836,236 EAST GLENWOOD AVE,DE,19977
Albertsons,Westlake Village,7852,#7852 #07852 #007852,4454 BLACK HORSE PIKE,NJ,8330
Albertsons,Atascadero,7855,#7855 #07855 #007855,3845 BAYSHORE ROAD,NJ,8204
Albertsons,Newbury Park,7858,#7858 #07858 #007858,425 US Hwy 9,NJ,8087
Albertsons,Simi Valley,7862,#7862 #07862 #007862,101 BIG ELK MALL,MD,21921
Albertsons,Orcutt,7872,#7872 #07872 #007872,1308 CENTERVILLE ROAD,DE,19808
Albertsons,Tujunga,7876,#7876 #07876 #007876,1067 WEST BALTIMORE PIKE,PA,19063
Albertsons,Bakersfield,7882,#7882 #07882 #007882,907 PAOLI PIKE,PA,19380
Albertsons,Riverside,7890,#7890 #07890 #007890,11 COURT HOUSE SOUTH DENNIS ROAD,NJ,8210
Albertsons,Del Mar,7893,#7893 #07893 #007893,124 MORTON AVE.,PA,19033
Albertsons,Alpine,7908,#7908 #07908 #007908,18 BROADWAY,NJ,8015
Albertsons,Temecula,7913,#7913 #07913 #007913,48 WEST ROAD,PA,18940
Albertsons,San Diego,7914,#7914 #07914 #007914,4400 SOUTH BROAD STREET,NJ,8620
Albertsons,La Mesa,7917,#7917 #07917 #007917,29 CORNWELL DRIVE,NJ,8302
Albertsons,San Marcos,7919,#7919 #07919 #007919,953 ROUTE #33,NJ,8690
Albertsons,San Diego,7920,#7920 #07920 #007920,857 ROUTE 45,NJ,8098
Albertsons,San Diego,7924,#7924 #07924 #007924,329 SPEEDWELL AVE,NJ,7950
Albertsons,Carlsbad,7926,#7926 #07926 #007926,2091 ROUTE 130 NORTH,NJ,8046
Albertsons,Spring Valley,7927,#7927 #07927 #007927,690 MILLBROOK AVE,NJ,7869
Albertsons,Ramona,7931,#7931 #07931 #007931,100 N BLACKHORSE PIKE,NJ,8106
Albertsons,Santee,7932,#7932 #07932 #007932,616 NEWMAN SPRINGS ROAD,NJ,7738
Albertsons,Corona,7943,#7943 #07943 #007943,1619 CENTER SQUARE ROAD,NJ,8085
Albertsons,Oceanside,7956,#7956 #07956 #007956,515 CROSS KEYS ROAD,NJ,8081
Albertsons,Murrieta,7961,#7961 #07961 #007961,260 DUNNS MILLS ROAD,NJ,8505
Albertsons,Wildomar,7963,#7963 #07963 #007963,300 SOUTH LENOLA ROAD,NJ,8052
Albertsons,Lakeside,7964,#7964 #07964 #007964,175 ROUTE 70,NJ,8055
Albertsons,Oceanside,7970,#7970 #07970 #007970,631 MANTUA AVE,NJ,8096
Albertsons,Poway,7973,#7973 #07973 #007973,2200 MOUNT HOLLY ROAD,NJ,8016
Albertsons,San Diego,7977,#7977 #07977 #007977,6800 NEW FALLS ROAD,PA,19057
Albertsons,Murrieta,7982,#7982 #07982 #007982,531 HIGH STREET,NJ,8060
Albertsons,Coronado,7992,#7992 #07992 #007992,700 HADDONFIELD -BERLIN ROAD,NJ,8043
Albertsons,San Marcos,7994,#7994 #07994 #007994,415 EGG HARBOR ROAD,NJ,8080
Albertsons,Temecula,7995,#7995 #07995 #007995,251 NORTH BROADWAY,NJ,8070
Albertsons,San Diego,7998,#7998 #07998 #007998,501 EAST EVESHAM ROAD,NJ,8078
Albertsons,San Diego,73036,#73036 #073036 #0073036,808 East Street Road,PA,18974
Albertsons,Oceanside,73037,#73037 #073037 #0073037,7010 Germantown Avenue,PA,19119
Albertsons,El Cajon,73038,#73038 #073038 #0073038,2301 Pasqualone Blvd,PA,19020
Albertsons,San Diego,73039,#73039 #073039 #0073039,1825 Limekiln Pike,PA,19025
Albertsons,Laguna Beach,73040,#73040 #073040 #0073040,1640 Bethlehem Pike,PA,19031
Albertsons,San Diego,73041,#73041 #073041 #0073041,8600 Ridge Avenue,PA,19128
Albertsons,San Diego,73042,#73042 #073042 #0073042,105 East Street Road,PA,19053
Albertsons,Fallbrook,73043,#73043 #073043 #0073043,3200-09 Red Lion Road,PA,19114
Albertsons,San Diego,73044,#73044 #073044 #0073044,505 West Butler Avenue,PA,18914
Albertsons,Vista,73045,#73045 #073045 #0073045,920 Red Lion Road,PA,19115
Albertsons,Carpinteria,73046,#73046 #073046 #0073046,1150 Welsh Road,PA,19446
Albertsons,Carlsbad,73047,#73047 #073047 #0073047,5927-59 Ridge Avenue,PA,19128
Albertsons,Pasadena,73048,#73048 #073048 #0073048,323 Old York Road,PA,19046
Albertsons,Corona del Mar,73049,#73049 #073049 #0073049,200 Blair Mill Road,PA,19044
Albertsons,Goleta,73050,#73050 #073050 #0073050,1336 Bristol Pike Suite 100,PA,19020
Albertsons,Santa Barbara,73051,#73051 #073051 #0073051,480 North Main Street,PA,18901
Albertsons,Bakersfield,73052,#73052 #073052 #0073052,6601 Roosevelt Blvd,PA,19149
Albertsons,Baton Rouge,73053,#73053 #073053 #0073053,121 East City Avenue,PA,19004
Albertsons,Baton Rouge,73054,#73054 #073054 #0073054,1901 Johnston Street,PA,19145
Albertsons,Baton Rouge,73056,#73056 #073056 #0073056,8200 Roosevelt Blvd,PA,19152
Albertsons,Baton Rouge,73057,#73057 #073057 #0073057,1400 East Passyunk Avenue,PA,19147
Albertsons,Hammond,73058,#73058 #073058 #0073058,700 West Lancaster Avenue,PA,19087
Albertsons,Alexandria,73059,#73059 #073059 #0073059,320 West Dekalb Pike,PA,19406
Albertsons,Lake Charles,73060,#73060 #073060 #0073060,503 South Mac Dade Blvd,PA,19043
Albertsons,Lafayette,73061,#73061 #073061 #0073061,6640 Oxford Avenue,PA,19111
Albertsons,Lafayette,73062,#73062 #073062 #0073062,7901 Lansdowne Avenue,PA,19082
Albertsons,Baton Rouge,73063,#73063 #073063 #0073063,39 Leopard Road,PA,19301
Albertsons,Baton Rouge,73064,#73064 #073064 #0073064,5300 Baltimore Pike,PA,19018
Albertsons,Broussard,73065,#73065 #073065 #0073065,1991 N Sproul Rd,PA,19008
Albertsons,Lafayette,73066,#73066 #073066 #0073066,400 Simpson Drive,PA,19425
Albertsons,Baton Rouge,73067,#73067 #073067 #0073067,785 Starr Street,PA,19460
Albertsons,Lake Charles,73068,#73068 #073068 #0073068,2761 W Ridge Pike,PA,19403
Albertsons,Mandeville,73069,#73069 #073069 #0073069,851 Gap Newport Pike,PA,19311
Albertsons,Fort Worth,73070,#73070 #073070 #0073070,101 Byers Dr.,PA,19342
Albertsons,Denham Springs,73071,#73071 #073071 #0073071,3951 Lincoln Highway,PA,19335
Albertsons,Murphy,73072,#73072 #073072 #0073072,3590 West Chester Pike,PA,19073
Albertsons,Saginaw,73075,#73075 #073075 #0073075,1401 North Dupont St,DE,19806
Albertsons,Dallas,73076,#73076 #073076 #0073076,527 East Baltimore Pike,PA,19065
Albertsons,Euless,73077,#73077 #073077 #0073077,2098 Naamans Road,DE,19810
Albertsons,Texarkana,73078,#73078 #073078 #0073078,2176 Baltimore Pike,PA,19363
Albertsons,Longview,73079,#73079 #073079 #0073079,1901 Concord Pike,DE,19803
Albertsons,Denison,73080,#73080 #073080 #0073080,1067 West Baltimore Pike,PA,19063
Albertsons,Plano,73081,#73081 #073081 #0073081,907 Paoli Pike,PA,19380
Albertsons,Fort Worth,73082,#73082 #073082 #0073082,124 Morton Ave.,PA,19033
Albertsons,Sherman,73083,#73083 #073083 #0073083,100 Suburban Drive,DE,19711
Albertsons,Mesquite,73084,#73084 #073084 #0073084,114 S Talbot St,MD,21663
Albertsons,Dallas,73085,#73085 #073085 #0073085,460 East Main Street,DE,19709
Albertsons,Cedar Hill,73086,#73086 #073086 #0073086,146 Fox Hunt Drive,DE,19701
Albertsons,Dallas,73087,#73087 #073087 #0073087,611 Railroad Avenue,MD,21617
Albertsons,Texarkana,73088,#73088 #073088 #0073088,1001 North Dupont Highway,DE,19901
Albertsons,Dallas,73089,#73089 #073089 #0073089,4720 Limestone Road,DE,19808
Albertsons,Arlington,73090,#73090 #073090 #0073090,128 Lantana Drive,DE,19707
Albertsons,Roanoke,73091,#73091 #073091 #0073091,236 East Glenwood Ave,DE,19977
Albertsons,Lake Worth,73092,#73092 #073092 #0073092,200 W Marlboro Ave.,MD,21601
Albertsons,Fort Worth,73093,#73093 #073093 #0073093,711 Washington Ave.,MD,21620
Albertsons,Denton,73095,#73095 #073095 #0073095,101 Big Elk Mall,MD,21921
Albertsons,Midland,73096,#73096 #073096 #0073096,1 University Plaza,DE,19702
Albertsons,Odessa,73097,#73097 #073097 #0073097,1308 Centerville Road,DE,19808
Albertsons,San Angelo,73098,#73098 #073098 #0073098,857 Route 45,NJ,8098
Albertsons,Abilene,73099,#73099 #073099 #0073099,251 North Broadway,NJ,8070
Albertsons,Arlington,73100,#73100 #073100 #0073100,829 Montgomery Avenue,PA,19072
Albertsons,Desoto,73101,#73101 #073101 #0073101,48 West Road,PA,18940
Albertsons,Dallas,73102,#73102 #073102 #0073102,4400 South Broad Street,NJ,8620
Albertsons,Weatherford,73103,#73103 #073103 #0073103,300 Ryder Lane,NJ,8850
Albertsons,Dallas,73104,#73104 #073104 #0073104,953 Route #33,NJ,8690
Albertsons,Mesquite,73105,#73105 #073105 #0073105,329 Speedwell Ave,NJ,7950
Albertsons,Corinth,73106,#73106 #073106 #0073106,690 Millbrook Ave,NJ,7869
Albertsons,Watauga,73107,#73107 #073107 #0073107,616 Newman Springs Road,NJ,7738
Albertsons,Rowlett,73108,#73108 #073108 #0073108,71 Taylor Ave,NJ,8736
Albertsons,Fort Worth,73109,#73109 #073109 #0073109,125 Bound Brook Road,NJ,8846
Albertsons,Midland,73110,#73110 #073110 #0073110,1080 Broad Street,NJ,7702
Albertsons,Midland,73111,#73111 #073111 #0073111,467 Allwood Road,NJ,7012
Albertsons,Odessa,73112,#73112 #073112 #0073112,576 River Road,NJ,7704
Albertsons,Odessa,73114,#73114 #073114 #0073114,3241 Us Hwy 9,NJ,7728
Albertsons,Shreveport,73115,#73115 #073115 #0073115,260 Dunns Mills Road,NJ,8505
Albertsons,Bossier City,73116,#73116 #073116 #0073116,6800 New Falls Road,PA,19057
Albertsons,Fort Worth,73117,#73117 #073117 #0073117,2497 Brunswick Ave,NJ,8648
Albertsons,Grand Prairie,73118,#73118 #073118 #0073118,18 Broadway,NJ,8015
Albertsons,Mc Kinney,73119,#73119 #073119 #0073119,41 W Main St,NJ,8052
Albertsons,Wylie,73121,#73121 #073121 #0073121,23 Levitt Parkway,NJ,8046
Albertsons,Arlington,73122,#73122 #073122 #0073122,100 N Blackhorse Pike,NJ,8106
Albertsons,Texarkana,73123,#73123 #073123 #0073123,1619 Center Square Road,NJ,8085
Albertsons,Richardson,73124,#73124 #073124 #0073124,40 Walnut St,NJ,8033
Albertsons,Bedford,73125,#73125 #073125 #0073125,515 Cross Keys Road,NJ,8081
Albertsons,Garland,73126,#73126 #073126 #0073126,300 South Lenola Road,NJ,8052
Albertsons,Watauga,73127,#73127 #073127 #0073127,175 Route 70,NJ,8055
Albertsons,Carrollton,73128,#73128 #073128 #0073128,631 Mantua Ave,NJ,8096
Albertsons,Colleyville,73129,#73129 #073129 #0073129,2200 Mount Holly Road,NJ,8016
Albertsons,Fort Worth,73130,#73130 #073130 #0073130,400 N Cuthbert Blvd,NJ,8108
Albertsons,Fort Worth,73131,#73131 #073131 #0073131,531 High Street,NJ,8060
Albertsons,Grand Prairie,73132,#73132 #073132 #0073132,700 Haddonfield -berlin Road,NJ,8043
Albertsons,Burleson,73133,#73133 #073133 #0073133,415 Egg Harbor Road,NJ,8080
Albertsons,Lewisville,73134,#73134 #073134 #0073134,501 East Evesham Road,NJ,8078
Albertsons,Fort Worth,73135,#73135 #073135 #0073135,9600 Long Beach Blvd,NJ,8008
Albertsons,Dallas,73136,#73136 #073136 #0073136,5300 Park Blvd,NJ,8260
Albertsons,Azle,73137,#73137 #073137 #0073137,3428 Simpson Avenue,NJ,8226
Albertsons,Cleburne,73138,#73138 #073138 #0073138,6212 Landis Ave,NJ,8243
Albertsons,Mc Kinney,73139,#73139 #073139 #0073139,212 New Road,NJ,8244
Albertsons,Dallas,73140,#73140 #073140 #0073140,301 South Main Street,NJ,8360
Albertsons,Clearwater,73141,#73141 #073141 #0073141,2087 Shore Road,NJ,8230
Albertsons,Altamonte Springs,73142,#73142 #073142 #0073142,Lafayette & Ocean Streets,NJ,8204
Albertsons,Oakland Park,73143,#73143 #073143 #0073143,4454 Black Horse Pike,NJ,8330
Albertsons,East Largo,73144,#73144 #073144 #0073144,3845 Bayshore Road,NJ,8204
Albertsons,Durango,73145,#73145 #073145 #0073145,425 Us Hwy 9,NJ,8087
Albertsons,Colorado Springs,73146,#73146 #073146 #0073146,15 Avalon Blvd,NJ,8210
Albertsons,Loveland,73147,#73147 #073147 #0073147,11 Court House South Dennis Road,NJ,8210
Albertsons,Louisville,73148,#73148 #073148 #0073148,29 Cornwell Drive,NJ,8302
Albertsons,Pueblo,73149,#73149 #073149 #0073149,20 South Delsea Dr,NJ,8312
Albertsons,Denver,73151,#73151 #073151 #0073151,4236 Harbor Beach Blvd.,NJ,8203
Albertsons,Littleton,73195,#73195 #073195 #0073195,3795 Orchard Rd.,IL,60543
Albertsons,Colorado Springs,73196,#73196 #073196 #0073196,446 S Washington Ave,IL,60901
Albertsons,Aurora,73197,#73197 #073197 #0073197,1250 West Main Street,IL,60118
Albertsons,Colorado Springs,73198,#73198 #073198 #0073198,1501 East Algonquin Road,IL,60102
Albertsons,Fort Collins,73199,#73199 #073199 #0073199,16625 West 159th Street,IL,60441
Albertsons,Fort Collins,73201,#73201 #073201 #0073201,1276 N Main St,IN,46307
Albertsons,Colorado Springs,73202,#73202 #073202 #0073202,1312 John Deere Expressway,IL,61282
Albertsons,Northglenn,73203,#73203 #073203 #0073203,234 East Veterans Parkway,IL,60560
Albertsons,Denver,73204,#73204 #073204 #0073204,2540 Us Hwy 30,IL,60543
Albertsons,Grand Junction,73205,#73205 #073205 #0073205,5545 Brainard Ave.,IL,60525
Albertsons,Thornton,73206,#73206 #073206 #0073206,2128 South Mannheim Road,IL,60154
Albertsons,Centennial,73207,#73207 #073207 #0073207,507 East Woodlawn,IL,60525
Albertsons,Grand Junction,73208,#73208 #073208 #0073208,1300 South Milwaukee Avenue,IL,60048
Albertsons,Aurora,73209,#73209 #073209 #0073209,1500 S Lee Street,IL,60018
Albertsons,Gallup,73210,#73210 #073210 #0073210,1860 South Arlington Heights Road,IL,60005
Albertsons,Rio Rancho,73211,#73211 #073211 #0073211,819 South Elmhurst Road,IL,60016
Albertsons,Albuquerque,73212,#73212 #073212 #0073212,1501 South Lake Street,IL,60060
Albertsons,Albuquerque,73213,#73213 #073213 #0073213,107 Avenue Of The Cities,IL,61244
Albertsons,Carlsbad,73214,#73214 #073214 #0073214,655 Main St Nw,IL,60914
Albertsons,Las Cruces,73215,#73215 #073215 #0073215,303 Holmes Ave,IL,60514
Albertsons,Albuquerque,73216,#73216 #073216 #0073216,9528 S Roberts Rd,IL,60457
Albertsons,Rio Rancho,73217,#73217 #073217 #0073217,7530 South Stony Island,IL,60649
Albertsons,Las Cruces,73218,#73218 #073218 #0073218,443 East 34th Street,IL,60616
Albertsons,Silver City,73219,#73219 #073219 #0073219,6215 Main Street,IL,60515
Albertsons,Albuquerque,73220,#73220 #073220 #0073220,7910 So. Cicero,IL,60459
Albertsons,Clovis,73221,#73221 #073221 #0073221,2317 75th Street,IL,60517
Albertsons,Albuquerque,73222,#73222 #073222 #0073222,763 East 162nd St,IL,60473
Albertsons,Los Lunas,73223,#73223 #073223 #0073223,4 East Ogden Ave,IL,60559
Albertsons,Taos,73224,#73224 #073224 #0073224,901 South Cottage Ave,IL,61761
Albertsons,Albuquerque,73225,#73225 #073225 #0073225,8801 S. Ridgeland,IL,60453
Albertsons,Rio Rancho,73226,#73226 #073226 #0073226,1655 E. 95th Street,IL,60617
Albertsons,Albuquerque,73227,#73227 #073227 #0073227,1148 Ogden Avenue,IL,60515
Albertsons,Las Cruces,73228,#73228 #073228 #0073228,2203 East Oakland Ave,IL,61701
Albertsons,Litchfield Park,73229,#73229 #073229 #0073229,7329 South Cass Avenue,IL,60561
Albertsons,Santa Fe,73231,#73231 #073231 #0073231,3153 West 183rd,IL,60430
Albertsons,Albuquerque,73232,#73232 #073232 #0073232,5320 South Pulaski,IL,60632
Albertsons,Gilbert,73233,#73233 #073233 #0073233,101 West 87th Street,IL,60620
Albertsons,Hobbs,73234,#73234 #073234 #0073234,17705 South Halsted Street,IL,60430
Albertsons,Yuma,73235,#73235 #073235 #0073235,2501 Schaumburg Road,IL,60194
Albertsons,El Paso,73236,#73236 #073236 #0073236,119 S Randall Rd,IL,60510
Albertsons,El Paso,73237,#73237 #073237 #0073237,7525 West Lake Street,IL,60305
Albertsons,El Paso,73238,#73238 #073238 #0073238,944 South York Road,IL,60126
Albertsons,El Paso,73239,#73239 #073239 #0073239,1952 West Galena Blvd,IL,60506
Albertsons,Albuquerque,73240,#73240 #073240 #0073240,10203 West Grand Avenue,IL,60131
Albertsons,Albuquerque,73241,#73241 #073241 #0073241,652 Kirk Road,IL,60174
Albertsons,Albuquerque,73242,#73242 #073242 #0073242,217 Irving Park Road,IL,60107
Albertsons,Tempe,73244,#73244 #073244 #0073244,1320 Sycamore Road,IL,60115
Albertsons,Glendale,73245,#73245 #073245 #0073245,438 West Madison Street,IL,60302
Albertsons,Mesa,73246,#73246 #073246 #0073246,800 West North Avenue,IL,60160
Albertsons,Yuma,73247,#73247 #073247 #0073247,1040 Summit Avenue,IL,60120
Albertsons,Phoenix,73248,#73248 #073248 #0073248,3644 South Archer Avenue,IL,60609
Albertsons,Prescott,73249,#73249 #073249 #0073249,1660 Larkin Avenue,IL,60120
Albertsons,Scottsdale,73250,#73250 #073250 #0073250,2073 Prairie Street,IL,60174
Albertsons,Mesa,73251,#73251 #073251 #0073251,375 Randall Road,IL,60177
Albertsons,Tucson,73252,#73252 #073252 #0073252,153 Schiller Street,IL,60126
Albertsons,Tucson,73253,#73253 #073253 #0073253,800 N. Main Street,IL,60119
Albertsons,Tucson,73254,#73254 #073254 #0073254,465 North Route 47,IL,60554
Albertsons,Tucson,73255,#73255 #073255 #0073255,220 West Peace Road,IL,60178
Albertsons,Tucson,73256,#73256 #073256 #0073256,122 N Vail Ave,IL,60005
Albertsons,Prescott Valley,73257,#73257 #073257 #0073257,2502 North Waukegan Road,IL,60025
Albertsons,Scottsdale,73258,#73258 #073258 #0073258,45 South Plum Grove Road,IL,60067
Albertsons,Flagstaff,73259,#73259 #073259 #0073259,423 East Dundee Road,IL,60067
Albertsons,Scottsdale,73260,#73260 #073260 #0073260,333 E. Euclid Ave.,IL,60056
Albertsons,Phoenix,73261,#73261 #073261 #0073261,440 East Rand Road,IL,60004
Albertsons,Peoria,73262,#73262 #073262 #0073262,79 Mchenry Road,IL,60089
Albertsons,Tucson,73263,#73263 #073263 #0073263,890 N. Western Ave.,IL,60045
Albertsons,Glendale,73264,#73264 #073264 #0073264,3000 Kirchoff Road,IL,60008
Albertsons,Surprise,73265,#73265 #073265 #0073265,2775 Pfingsten Road,IL,60025
Albertsons,Scottsdale,73266,#73266 #073266 #0073266,1414 North Division,IL,60450
Albertsons,Mesa,73267,#73267 #073267 #0073267,2103 North Veterans Parkway,IL,61704
Albertsons,Chandler,73268,#73268 #073268 #0073268,1200 West Boughton,IL,60440
Albertsons,Scottsdale,73270,#73270 #073270 #0073270,9350 West 159th St,IL,60462
Albertsons,Phoenix,73271,#73271 #073271 #0073271,21164 S. Lagrange Road,IL,60423
Albertsons,Santa Fe,73272,#73272 #073272 #0073272,1156 Maple Ave,IL,60532
Albertsons,Santa Fe,73274,#73274 #073274 #0073274,2855 West 95th St,IL,60564
Albertsons,Tucson,73275,#73275 #073275 #0073275,1759 West Ogden Ave.,IL,60540
Albertsons,Mesa,73276,#73276 #073276 #0073276,1401 West Jefferson St,IL,60435
Albertsons,Roswell,73277,#73277 #073277 #0073277,12003 S Pulaski Rd,IL,60803
Albertsons,Peoria,73278,#73278 #073278 #0073278,7122 W. 40th St,IL,60402
Albertsons,El Paso,73279,#73279 #073279 #0073279,9424 S Pulaski Road,IL,60453
Albertsons,Chandler,73280,#73280 #073280 #0073280,1227 Naper Blvd,IL,60540
Albertsons,El Paso,73281,#73281 #073281 #0073281,3128 W 103rd Street,IL,60655
Albertsons,Mesa,73282,#73282 #073282 #0073282,1307 North 2nd Street,IA,52732
Albertsons,Phoenix,73283,#73283 #073283 #0073283,1537 North Larkin,IL,60431
Albertsons,El Paso,73284,#73284 #073284 #0073284,4650 West 103rd Street,IL,60453
Albertsons,El Paso,73285,#73285 #073285 #0073285,9652 W. 131st Street,IL,60464
Albertsons,Chandler,73286,#73286 #073286 #0073286,5616 West 159th Street,IL,60452
Albertsons,Gilbert,73287,#73287 #073287 #0073287,17117 South Harlem,IL,60477
Albertsons,Phoenix,73288,#73288 #073288 #0073288,475 N.nelson Rd,IL,60451
Albertsons,Surprise,73289,#73289 #073289 #0073289,127 East Ogden Avenue,IL,60563
Albertsons,Lake Havasu City,73290,#73290 #073290 #0073290,20 South Weber Road,IL,60446
Albertsons,Farmington,73291,#73291 #073291 #0073291,17930 Wolf Road,IL,60467
Albertsons,Pueblo,73292,#73292 #073292 #0073292,1210 North Clark,IL,60610
Albertsons,San Luis Obispo,73293,#73293 #073293 #0073293,20 W Biesterfield,IL,60007
