keywords,city,Aggdata Store Number,store_number,address,state,zip_code
Bahama Breeze,Orlando,3001,3001 #3001 0003001X,8849 International Drive,FL,32819
Bahama Breeze,Altamonte Springs,3002,3002 #3002 0003002X,499 E. Altamonte Drive,FL,32701
Bahama Breeze,Memphis,3003,3003 #3003 0003003X,2830 N Germantown Pkwy,TN,38133
Bahama Breeze,Tampa,3004,3004 #3004 0003004X,3045 N Rocky Point Dr. East,FL,33607
Bahama Breeze,Raleigh,3005,3005 #3005 0003005X,3309 Wake Forest Dr.,NC,27609
Bahama Breeze,Duluth,3006,3006 #3006 0003006X,3590 Breckinridge Blvd,GA,30096
Bahama Breeze,Kennesaw,3009,3009 #3009 0003009X,755 Ernest W Barrett Pkwy NW,GA,30144
Bahama Breeze,Miami,3012,3012 #3012 0003012X,12395 SW 88th Sreet,FL,33186
Bahama Breeze,Fort Myers,3013,3013 #3013 0003013X,14701 S. Tamiami Trail,FL,33912
Bahama Breeze,Alpharetta,3014,3014 #3014 0003014X,10845 Haynes Bridge Rd.,GA,30022
Bahama Breeze,Orlando,3016,3016 #3016 0003016X,8735 Vineland Ave.,FL,32821
Bahama Breeze,Pembroke Pines,3017,3017 #3017 0003017X,11000 Pines Blvd,FL,33025
Bahama Breeze,Livonia,3019,3019 #3019 0003019X,19600 Haggerty Rd,MI,48152
Bahama Breeze,Las Vegas,3020,3020 #3020 0003020X,375 Hughes Center Drive,NV,89109
Bahama Breeze,Troy,3026,3026 #3026 0003026X,539 E. Big Beaver Rd,MI,48083
Bahama Breeze,Schaumburg,3029,3029 #3029 0003029X,406 E. Golf Road,IL,60173
Bahama Breeze,Sunrise,3031,3031 #3031 0003031X,2750 Sawgrass Mills Circle,FL,33323
Bahama Breeze,Towson,3033,3033 #3033 0003033X,100 E. Joppa Road,MD,21286
Bahama Breeze,Beachwood,3034,3034 #3034 0003034X,3900 Orange Place,OH,44122
Bahama Breeze,Tukwila,3035,3035 #3035 0003035X,15700 Southcenter Pkwy,WA,98188
Bahama Breeze,Cherry Hill,3036,3036 #3036 0003036X,2000 Route 38,NJ,8002
Bahama Breeze,King of Prussia,3039,3039 #3039 0003039X,320 Goddard Blvd,PA,19406
Bahama Breeze,Pittsburgh,3041,3041 #3041 0003041X,6100 Robinson Center Drive,PA,15205
Bahama Breeze,Woodbridge,3042,3042 #3042 0003042X,520 Woodbridge Center Drive,NJ,7095
Bahama Breeze,Wayne,3043,3043 #3043 0003043X,101 Route 23 South,NJ,7470
Bahama Breeze,Jacksonville,3044,3044 #3044 0003044X,10205 River Coast Drive,FL,32246
Bahama Breeze,Orlando,3045,3045 #3045 0003045X,1200 N Alafaya Trail,FL,32828
Bahama Breeze,Kissimmee,3046,3046 #3046 0003046X,8160 Irlo Bronson Memorial Hwy,FL,34747
Bahama Breeze,Paramus,3047,3047 #3047 0003047X,1600 Bergen Town Center,NJ,7652
Bahama Breeze,Tyngsboro,3048,3048 #3048 0003048X,413 Middlesex Road,MA,1879
Bahama Breeze,Newark,3049,3049 #3049 0003049X,500 Center Blvd,DE,19702
Bahama Breeze,Virginia Beach,3050,3050 #3050 0003050X,4554 Virginia Beach Blvd,VA,23462
Bahama Breeze,Woodbridge,3051,3051 #3051 0003051X,2714 Potomac Mills Circle,VA,22192
Bahama Breeze,Toms River,3052,3052 #3052 0003052X,1201 Hooper Avenue,NJ,8753
Bahama Breeze,Lake Grove,3053,3053 #3053 0003053X,612 Smith Haven Mall,NY,11755
Bahama Breeze,Brandon,3054,3054 #3054 0003054X,805 Brandon Town Center Drive,FL,33511
Bahama Breeze,Daytona Beach,3056,3056 #3056 0003056X,1786 W. International Speedway Blvd.,FL,32114
