keywords,city,Aggdata Store Number,store_number,address,state,zip_code
Bealls Outlet Stores,Bradenton,103,#103,4902 Cortez Rd W,FL,34210
Bealls Outlet Stores,Inverness,104,#104,223 E Highland Blvd,FL,34452
Bealls Outlet Stores,Cape Coral,105,#105,2301 Del Prado Blvd S,FL,33990
Bealls Outlet Stores,Bradenton,106,#106,7212 Manatee Ave W,FL,34209
Bealls Outlet Stores,Bradenton,107,#107,5838 14th St W,FL,34207
Bealls Outlet Stores,Hudson,108,#108,8840 State Road 52,FL,34667
Bealls Outlet Stores,Brooksville,109,#109,1266 S Broad St,FL,34601
Bealls Outlet Stores,Spring Hill,110,#110,1460 Pinehurst Dr,FL,34606
Bealls Outlet Stores,Melbourne,111,#111,1401 S Babcock St,FL,32901
Bealls Outlet Stores,New Port Richey,113,#113,5107 US Hwy 19,FL,34652
Bealls Outlet Stores,Auburndale,116,#116,460 Havendale Blvd,FL,33823
Bealls Outlet Stores,Clearwater,117,#117,1271 S Missouri Ave,FL,33756
Bealls Outlet Stores,Tarpon Springs,118,#118,41318 US Highway 19 N,FL,34689
Bealls Outlet Stores,St Petersburg,119,#119,3635 49th St N,FL,33710
Bealls Outlet Stores,Lakeland,120,#120,1421 US Highway 98 S,FL,33801
Bealls Outlet Stores,Naples,121,#121,2710 Tamiami Trl E,FL,34112
Bealls Outlet Stores,Seffner,124,#124,11770 Dr Martin L King Jr,FL,33584
Bealls Outlet Stores,Leesburg,125,#125,931 N 14th St,FL,34748
Bealls Outlet Stores,Lehigh Acres,126,#126,1209 Homestead Rd N,FL,33936
Bealls Outlet Stores,Sarasota,127,#127,3750 S Tuttle Ave,FL,34239
Bealls Outlet Stores,Bradenton,128,#128,3905 Manatee Ave W,FL,34205
Bealls Outlet Stores,Ruskin,129,#129,3840 State Road 674,FL,33573
Bealls Outlet Stores,Hollywood,130,#130,6651 Taft St,FL,33024
Bealls Outlet Stores,Eustis,132,#132,100 W Ardice Ave,FL,32726
Bealls Outlet Stores,New Smyrna Beach,133,#133,1998-1 State Road 44,FL,32168
Bealls Outlet Stores,Fort Myers,134,#134,15600 San Carlos Blvd,FL,33908
Bealls Outlet Stores,Bonita Springs,135,#135,8951 Bonita Beach Rd,FL,34135
Bealls Outlet Stores,Orange City,136,#136,2550 Enterprise Rd,FL,32763
Bealls Outlet Stores,South Daytona,137,#137,2400 S Ridgewood Ave,FL,32119
Bealls Outlet Stores,North Fort Myers,139,#139,15201 N Cleveland Ave,FL,33903
Bealls Outlet Stores,La Fayette,140,#140,2569 N Highway 27,GA,30728
Bealls Outlet Stores,St Petersburg,143,#143,1035 62nd Ave N,FL,33702
Bealls Outlet Stores,Port St Lucie,145,#145,9300 S US Highway 1,FL,34952
Bealls Outlet Stores,Venice,147,#147,515 Tamiami Trl S,FL,34285
Bealls Outlet Stores,Dunedin,148,#148,914 Patricia Ave,FL,34698
Bealls Outlet Stores,Stuart,149,#149,3532 S Federal Hwy,FL,34997
Bealls Outlet Stores,Panama City Beach,157,#157,7038 W Highway 98,FL,32407
Bealls Outlet Stores,Pensacola,160,#160,400 N Navy Blvd,FL,32507
Bealls Outlet Stores,Daytona Beach,161,#161,2617 N Atlantic Ave,FL,32118
Bealls Outlet Stores,South Pasadena,162,#162,6864 Gulfport Blvd S,FL,33707
Bealls Outlet Stores,Coconut Creek,163,#163,4871 Coconut Creek Pkwy,FL,33063
Bealls Outlet Stores,Ellenton,164,#164,6242 Highway 301 N,FL,34222
Bealls Outlet Stores,Titusville,165,#165,3550 S Washington Ave,FL,32780
Bealls Outlet Stores,Palm Harbor,166,#166,33255 US Highway 19 N,FL,34684
Bealls Outlet Stores,Sebring,168,#168,2802 US Highway 27 S,FL,33870
Bealls Outlet Stores,Griffin,170,#170,1617 N Expressway,GA,30223
Bealls Outlet Stores,Sun City,171,#171,10729 Grand Ave,AZ,85351
Bealls Outlet Stores,Englewood,172,#172,425 S Indiana Ave,FL,34223
Bealls Outlet Stores,Chiefland,175,#175,2202 N Young Blvd,FL,32626
Bealls Outlet Stores,Palm Bay,176,#176,1155 Malabar Rd NE,FL,32907
Bealls Outlet Stores,Ocala,179,#179,8585 SW Highway 200,FL,34481
Bealls Outlet Stores,Belleview,181,#181,10305 SE US Highway 441,FL,34420
Bealls Outlet Stores,Apache Junction,182,#182,725 W Apache Trl,AZ,85120
Bealls Outlet Stores,Seminole,183,#183,11173 Park Blvd,FL,33772
Bealls Outlet Stores,Mesa,184,#184,6036 E Main St,AZ,85205
Bealls Outlet Stores,Okeechobee,185,#185,3280 US Highway 441 S,FL,34974
Bealls Outlet Stores,Fort Pierce,186,#186,4884 N Kings Hwy,FL,34951
Bealls Outlet Stores,Tampa,187,#187,3848A Britton Plz,FL,33611
Bealls Outlet Stores,Zephyrhills,188,#188,4810 S Allen Rd,FL,33541
Bealls Outlet Stores,Largo,189,#189,12030 Indian Rocks Rd,FL,33774
Bealls Outlet Stores,Douglas,190,#190,1322 Peterson Ave S,GA,31533
Bealls Outlet Stores,Crystal River,191,#191,420 N Suncoast Blvd,FL,34429
Bealls Outlet Stores,Tampa,192,#192,8865 N Florida Ave,FL,33604
Bealls Outlet Stores,Tequesta,193,#193,151 N US Highway 1,FL,33469
Bealls Outlet Stores,Cocoa Beach,194,#194,140 Canaveral Plaza Blvd,FL,32931
Bealls Outlet Stores,Indian Harbour Beach,195,#195,287 E Eau Gallie Blvd,FL,32937
Bealls Outlet Stores,Pensacola,198,#198,312 E Nine Mile Rd,FL,32514
Bealls Outlet Stores,Land O Lakes,199,#199,21701 Village Lakes SC Dr,FL,34639
Bealls Outlet Stores,Plant City,200,#200,1407 S Collins St,FL,33563
Bealls Outlet Stores,Deland,201,#201,1468 N Woodland Blvd,FL,32720
Bealls Outlet Stores,Arcadia,202,#202,1407 E Oak St,FL,34266
Bealls Outlet Stores,Thomasville,203,#203,15089 US Highway 19 S,GA,31792
Bealls Outlet Stores,Saint Cloud,204,#204,3431 13th St,FL,34769
Bealls Outlet Stores,Bartow,206,#206,345 E Van Fleet Dr,FL,33830
Bealls Outlet Stores,Milton,207,#207,6548 Caroline St,FL,32570
Bealls Outlet Stores,Pompano Beach,208,#208,1241 S Federal Hwy,FL,33062
Bealls Outlet Stores,West Palm Beach,210,#210,816 S Military Trl,FL,33415
Bealls Outlet Stores,Daytona Beach,212,#212,2455 W Intl Speedway Blvd,FL,32114
Bealls Outlet Stores,Dunnellon,213,#213,11352 N Williams St,FL,34432
Bealls Outlet Stores,St Augustine,214,#214,316 State Road 312,FL,32086
Bealls Outlet Stores,Hallandale Beach,215,#215,917 E Hallandale Bch Blvd,FL,33009
Bealls Outlet Stores,Sebastian,216,#216,13600 US Highway 1,FL,32958
Bealls Outlet Stores,Winter Haven,218,#218,700 Cypress Gardens Blvd,FL,33880
Bealls Outlet Stores,Jacksonville,219,#219,3000 Dunn Ave,FL,32218
Bealls Outlet Stores,Key Largo,221,#221,101445 Overseas Hwy,FL,33037
Bealls Outlet Stores,Green Valley,224,#224,100 W Duval Mine Rd,AZ,85614
Bealls Outlet Stores,Brandon,225,#225,2530 W Brandon Blvd,FL,33511
Bealls Outlet Stores,Marco Island,227,#227,684 Bald Eagle Dr,FL,34145
Bealls Outlet Stores,Vidalia,228,#228,2313 E 1st St,GA,30474
Bealls Outlet Stores,Marathon,230,#230,10996 Overseas Hwy,FL,33050
Bealls Outlet Stores,Big Pine Key,232,#232,279 Key Deer Blvd,FL,33043
Bealls Outlet Stores,Orlando,235,#235,4410 Curry Ford Rd,FL,32812
Bealls Outlet Stores,Madison,238,#238,771 W Base St,FL,32340
Bealls Outlet Stores,Orlando,240,#240,350 E Michigan St,FL,32806
Bealls Outlet Stores,Lakeland,241,#241,3159 US Highway 98 N,FL,33805
Bealls Outlet Stores,Gulf Breeze,243,#243,1151 Gulf Breeze Pkwy,FL,32561
Bealls Outlet Stores,Tifton,245,#245,458 Virginia Ave N,GA,31794
Bealls Outlet Stores,Lake Worth,247,#247,6490 Lake Worth Rd,FL,33463
Bealls Outlet Stores,Perry,249,#249,2057 S Byron Butler Pkwy,FL,32348
Bealls Outlet Stores,Fort Myers,260,#260,9370 6 Mile Cypress Pkwy,FL,33966
Bealls Outlet Stores,West Palm Beach,264,#264,2925 N Military Trl,FL,33409
Bealls Outlet Stores,Toccoa,273,#273,942 Big A Rd,GA,30577
Bealls Outlet Stores,Miami,276,#276,2466 E Highway 60,AZ,85539
Bealls Outlet Stores,Wellington,278,#278,13841 Wellington Trce,FL,33414
Bealls Outlet Stores,Jesup,279,#279,972 Sunset Blvd,GA,31545
Bealls Outlet Stores,Haines City,282,#282,605 US Highway 17-92 W,FL,33844
Bealls Outlet Stores,Tampa,284,#284,2738 W Hillsborough Ave,FL,33614
Bealls Outlet Stores,Panama City,287,#287,123 S Tyndall Pkwy,FL,32404
Bealls Outlet Stores,Orlando,288,#288,12413 S Orange Blossom Tr,FL,32837
Bealls Outlet Stores,Crestview,292,#292,2501 S Ferndon Blvd,FL,32536
Bealls Outlet Stores,West Palm Beach,293,#293,7711 S Dixie Hwy,FL,33405
Bealls Outlet Stores,Fort Pierce,294,#294,2313 S Federal Hwy,FL,34982
Bealls Outlet Stores,Ormond Beach,296,#296,1250 Ocean Shore Blvd,FL,32176
Bealls Outlet Stores,Edgewater,301,#301,1828 S Ridgewood Ave,FL,32141
Bealls Outlet Stores,Valdosta,303,#303,3200 N Ashley St,GA,31602
Bealls Outlet Stores,Augusta,306,#306,594 Bobby Jones Expy,GA,30907
Bealls Outlet Stores,Orange Park,308,#308,950 Blanding Blvd,FL,32065
Bealls Outlet Stores,Delray Beach,311,#311,14555 S Military Trl,FL,33484
Bealls Outlet Stores,Sedona,313,#313,180 Coffee Pot Dr,AZ,86336
Bealls Outlet Stores,Sun Lakes,314,#314,9666 E Riggs Rd,AZ,85248
Bealls Outlet Stores,Neptune Beach,318,#318,572 Atlantic Blvd,FL,32266
Bealls Outlet Stores,Vero Beach,319,#319,2110 58th Ave,FL,32966
Bealls Outlet Stores,Surprise,322,#322,14273 W Grand Ave,AZ,85374
Bealls Outlet Stores,Key West,324,#324,2506 N Roosevelt Blvd,FL,33040
Bealls Outlet Stores,Valrico,325,#325,1961 State Road 60 E,FL,33594
Bealls Outlet Stores,Lakeland,330,#330,4241 S Florida Ave,FL,33813
Bealls Outlet Stores,Sunrise,333,#333,10153 W Oakland Park Blvd,FL,33351
Bealls Outlet Stores,Riverview,335,#335,9624 US Hwy 301 S,FL,33578
Bealls Outlet Stores,Marianna,337,#337,4743 Highway 90,FL,32446
Bealls Outlet Stores,Winder,339,#339,17 Monroe Hwy,GA,30680
Bealls Outlet Stores,Tampa,340,#340,7039 W Waters Ave,FL,33634
Bealls Outlet Stores,DeFuniak Springs,342,#342,1030 N Freeport Rd,FL,32433
Bealls Outlet Stores,Lake Wales,343,#343,126 State Road 60 E,FL,33853
Bealls Outlet Stores,The Villages,351,#351,305 Colony Blvd,FL,32162
Bealls Outlet Stores,Fort Oglethorpe,353,#353,2625 Battlefield Pkwy,GA,30742
Bealls Outlet Stores,Hinesville,362,#362,517 W Oglethorpe Hwy,GA,31313
Bealls Outlet Stores,Orlando,365,#365,1728 W Sand Lake Rd,FL,32809
Bealls Outlet Stores,Statesboro,368,#368,718 Northside Dr E,GA,30458
Bealls Outlet Stores,Buckeye,369,#369,500 S Watson Rd,AZ,85326
Bealls Outlet Stores,Brooksville,381,#381,13019 Cortez Blvd,FL,34613
Bealls Outlet Stores,St Petersburg,384,#384,5123 34th St S,FL,33711
Bealls Outlet Stores,Wauchula,386,#386,1105 US Highway 17 S,FL,33873
Bealls Outlet Stores,Lake Placid,387,#387,362 US Highway 27 N,FL,33852
Bealls Outlet Stores,Gainesville,390,#390,2607 NW 13th St,FL,32609
Bealls Outlet Stores,Dade City,391,#391,12810 US Highway 301,FL,33525
Bealls Outlet Stores,Vero Beach,394,#394,1671 94th Dr,FL,32966
Bealls Outlet Stores,Chipley,396,#396,1377 Brickyard Rd,FL,32428
Bealls Outlet Stores,Punta Gorda,397,#397,3941 Tamiami Trl,FL,33950
Bealls Outlet Stores,Lady Lake,399,#399,640 N US Highway 441,FL,32159
Bealls Outlet Stores,Lake Park,400,#400,5165 Mill Store Rd,GA,31636
Bealls Outlet Stores,Dublin,401,#401,1943 Veterans Blvd,GA,31021
Bealls Outlet Stores,Albany,410,#410,2800 Old Dawson Rd,GA,31707
Bealls Outlet Stores,Apopka,413,#413,771 S Orange Blossom Trl,FL,32703
Bealls Outlet Stores,Niceville,420,#420,599 W John Sims Pkwy,FL,32578
Bealls Outlet Stores,Kissimmee,421,#421,3227 S John Young Pkwy,FL,34746
Bealls Outlet Stores,High Springs,424,#424,20201 N US Hwy 441,FL,32643
Bealls Outlet Stores,Kissimmee,427,#427,2505 Old Vineland Rd,FL,34746
Bealls Outlet Stores,Port St Lucie,429,#429,1169 SE Port StLucie Blvd,FL,34952
Bealls Outlet Stores,New Port Richey,430,#430,7201 State Road 54,FL,34653
Bealls Outlet Stores,Palm Springs,432,#432,1688 Congress Ave,FL,33461
Bealls Outlet Stores,Tallahassee,434,#434,1141-C Apalachee Pkwy,FL,32301
Bealls Outlet Stores,Savannah,436,#436,11 Gateway Blvd S,GA,31419
Bealls Outlet Stores,Jacksonville,437,#437,5960-B Normandy Blvd,FL,32205
Bealls Outlet Stores,Avon Park,438,#438,910 US Highway 27 S,FL,33825
Bealls Outlet Stores,Longwood,440,#440,949 W State Road 434,FL,32750
Bealls Outlet Stores,Winter Garden,441,#441,13367 W Colonial Dr,FL,34787
Bealls Outlet Stores,East Ellijay,442,#442,91 Highland Dr,GA,30540
Bealls Outlet Stores,Hobe Sound,444,#444,8857 SE Bridge Rd,FL,33455
Bealls Outlet Stores,Ft Lauderdale,446,#446,919 W State Road 84,FL,33315
Bealls Outlet Stores,Thatcher,447,#447,2281 W US Highway 70,AZ,85552
Bealls Outlet Stores,Saint Marys,448,#448,141 City Smitty Dr,GA,31558
Bealls Outlet Stores,St Petersburg,450,#450,900 58th St N,FL,33710
Bealls Outlet Stores,Venice,453,#453,4321 Tamiami Trl S,FL,34293
Bealls Outlet Stores,Ft Lauderdale,461,#461,3278 Davie Blvd,FL,33312
Bealls Outlet Stores,Largo,462,#462,10801 Starkey Rd,FL,33777
Bealls Outlet Stores,Wesley Chapel,466,#466,5351 Village Market,FL,33543
Bealls Outlet Stores,Rockledge,467,#467,224 Barton Blvd,FL,32955
Bealls Outlet Stores,Payson,472,#472,305 S Beeline Hwy,AZ,85541
Bealls Outlet Stores,Pensacola,475,#475,6235 N Davis Hwy,FL,32504
Bealls Outlet Stores,Jacksonville,477,#477,1100 Dunn Ave,FL,32218
Bealls Outlet Stores,Winter Haven,478,#478,1384 6th St NW,FL,33881
Bealls Outlet Stores,University Park,479,#479,8213 Cooper Creek Blvd,FL,34201
Bealls Outlet Stores,St Petersburg,481,#481,2010 34th St N,FL,33713
Bealls Outlet Stores,Helena,486,#486,128 Eighth St,GA,31037
Bealls Outlet Stores,Sun City West,488,#488,13567 W Camino Del Sol,AZ,85375
Bealls Outlet Stores,Pompano Beach,496,#496,3359 N Federal Hwy,FL,33064
Bealls Outlet Stores,Largo,500,#500,2158 E Bay Dr,FL,33771
Bealls Outlet Stores,Jacksonville,501,#501,9742 Old St Augustine Rd,FL,32257
Bealls Outlet Stores,Port St Lucie,512,#512,3215 SW Port StLucie Blvd,FL,34953
Bealls Outlet Stores,Crescent City,518,#518,917 N Summit St,FL,32112
Bealls Outlet Stores,Palatka,521,#521,121 Town And Country Dr,FL,32177
Bealls Outlet Stores,Lady Lake,536,#536,8750 SE 165th Mulberry Ln,FL,32162
Bealls Outlet Stores,Northport,537,#537,18529 Tamiami Trl,FL,34287
Bealls Outlet Stores,Clewiston,539,#539,900 W Sugarland Hwy,FL,33440
Bealls Outlet Stores,Cordele,541,#541,1407 E 16th Ave,GA,31015
Bealls Outlet Stores,Zephyrhills,542,#542,6030 Gall Blvd,FL,33542
Bealls Outlet Stores,Lake City,543,#543,879 SW Main Blvd,FL,32025
Bealls Outlet Stores,Kingman,544,#544,3320 N Stockton Hill Rd,AZ,86409
Bealls Outlet Stores,Port Charlotte,548,#548,3280 Tamiami Trl,FL,33952
Bealls Outlet Stores,Live Oak,553,#553,1522 Ohio Ave S,FL,32064
Bealls Outlet Stores,Florida City,556,#556,250 E Palm Dr,FL,33034
Bealls Outlet Stores,Palm Bay,557,#557,5270 Babcock St NE,FL,32905
Bealls Outlet Stores,Plantation,558,#558,7053 W Broward Blvd,FL,33317
Bealls Outlet Stores,Homestead,562,#562,150 NE 8th St,FL,33030
Bealls Outlet Stores,Parker,565,#565,200 W Riverside Dr,AZ,85344
Bealls Outlet Stores,Waycross,568,#568,2475 Memorial Dr,GA,31503
Bealls Outlet Stores,Quartzsite,570,#570,510 Main St,AZ,85346
Bealls Outlet Stores,Show Low,571,#571,4421 S White Mountain Rd,AZ,85901
Bealls Outlet Stores,Canton,572,#572,1439 Riverstone Pkwy,GA,30114
Bealls Outlet Stores,Perry,578,#578,1355 Sam Nunn Blvd,GA,31069
Bealls Outlet Stores,Covington,580,#580,3101 Highway 278 NE,GA,30014
Bealls Outlet Stores,Willcox,584,#584,668 N Bisbee Ave,AZ,85643
Bealls Outlet Stores,Fort Myers,609,#609,13300 S Cleveland Ave,FL,33907
Bealls Outlet Stores,Keystone Heights,610,#610,7380 State Road 100,FL,32656
Bealls Outlet Stores,Mary Ester,618,#618,419 Mary Ester Cut Off NW,FL,32548
Bealls Outlet Stores,Chatsworth,622,#622,1009 N 3rd Ave,GA,30705
Bealls Outlet Stores,Melbourne,623,#623,7777 N Wickham Rd,FL,32940
Bealls Outlet Stores,Tallahassee,626,#626,4300 W Tennessee St,FL,32304
Bealls Outlet Stores,Inverness,627,#627,1430 Highway 41 N,FL,34450
Bealls Outlet Stores,Cornelia,629,#629,225 Habersham Cty Shop Ct,GA,30531
Bealls Outlet Stores,Jacksonville,632,#632,9400 Atlantic Blvd,FL,32225
Bealls Outlet Stores,Jasper,634,#634,934 E Church St,GA,30143
Bealls Outlet Stores,St Augustine,636,#636,2700 State Road 16,FL,32092
Bealls Outlet Stores,Palm Coast,640,#640,9 Old Kings Rd N,FL,32137
Bealls Outlet Stores,Gainesville,641,#641,1103 NW 76th Blvd,FL,32606
Bealls Outlet Stores,Clermont,642,#642,612 E Highway 50,FL,34711
Bealls Outlet Stores,Naples,644,#644,5056 Airport Pulling Rd N,FL,34105
Bealls Outlet Stores,Pembroke Pines,645,#645,10004 Pines Blvd,FL,33024
Bealls Outlet Stores,Fitzgerald,646,#646,262 Ocilla Hwy,GA,31750
Bealls Outlet Stores,Port Orange,649,#649,3813 S Nova Rd,FL,32127
Bealls Outlet Stores,Lake Wales,651,#651,24125 Hwy 27,FL,33859
Bealls Outlet Stores,Monroe,653,#653,786 W Spring St,GA,30655
Bealls Outlet Stores,Byron,657,#657,311 GA Highway 49 N,GA,31008
Bealls Outlet Stores,The Villages,658,#658,3431 Wedgewood Ln,FL,32162
Bealls Outlet Stores,Calhoun,659,#659,455 Belwood Rd,GA,30701
Bealls Outlet Stores,Sarasota,667,#667,4084 Cattlemen Rd,FL,34233
Bealls Outlet Stores,Crawfordville,670,#670,2646 Crawfordville Hwy,FL,32327
Bealls Outlet Stores,Bradenton,671,#671,7379 52nd Pl E,FL,34203
Bealls Outlet Stores,Boynton Beach,672,#672,9866 S Military Trl,FL,33436
Bealls Outlet Stores,Dalton,673,#673,2311 E Morris St,GA,30721
Bealls Outlet Stores,Destin,675,#675,14081 Emerald Coast Pkwy,FL,32541
Bealls Outlet Stores,Ocala,678,#678,4901 E Silver Springs Blv,FL,34470
Bealls Outlet Stores,Starke,681,#681,1371 S Walnut St,FL,32091
Bealls Outlet Stores,Port Richey,683,#683,9650 US Highway 19,FL,34668
Bealls Outlet Stores,Douglasville,690,#690,5793 Fairburn Rd,GA,30134
Bealls Outlet Stores,Port Charlotte,692,#692,1942 Kings Hwy,FL,33980
Bealls Outlet Stores,Prescott,709,#709,1048 Willow Creek Rd,AZ,86301
Bealls Outlet Stores,Peoria,710,#710,24790 N Lake Pleasant Pky,AZ,85383
Bealls Outlet Stores,Carrollton,752,#752,444 Stripling Chapel Rd,GA,30117
Bealls Outlet Stores,Fernandina Beach,754,#754,1529 Sadler Rd,FL,32034
Bealls Outlet Stores,Chandler,760,#760,808 W Warner Rd,AZ,85225
Bealls Outlet Stores,Fern Park,761,#761,157 State Road 436,FL,32730
Bealls Outlet Stores,YUMA,766,#766,1414 S Yuma Palms Pkwy,AZ,85365
