keywords,city,Aggdata Store Number,store_number,address,state,zip_code
Big O Tires,SPRINGDALE,3001,3001 #3001 03001,3672 W SUNSET AVE,AR,72762
Big O Tires,Yuma,4006,4006 #4006 04006,2975 Pacific Ave.,AZ,85365
Big O Tires,Green Valley,4018,4018 #4018 04018,1976 N. La Canoa,AZ,85614
Big O Tires,Prescott,4022,4022 #4022 04022,1315 Iron Springs Rd.,AZ,86305
Big O Tires,Tucson,4036,4036 #4036 04036,1502 S. Alvernon Way.,AZ,85711
Big O Tires,Tucson,4039,4039 #4039 04039,1669 N. Wilmot Road,AZ,85712
Big O Tires,Page,4041,4041 #4041 04041,760 Elm St.,AZ,86040
Big O Tires,Cottonwood,4053,4053 #4053 04053,1208 S. State Road 260,AZ,86326
Big O Tires,Kingman,4058,4058 #4058 04058,1942 E. Andy Devine Ave.,AZ,86401
Big O Tires,Lake Havasu City,4066,4066 #4066 04066,1625 Countryshire Ave.,AZ,86403
Big O Tires,Bullhead City,4074,4074 #4074 04074,3160 Hwy. 95,AZ,86442
Big O Tires,Sun City,4076,4076 #4076 04076,17039 Boswell Blvd.,AZ,85373
Big O Tires,Tempe,4083,4083 #4083 04083,2020 South Rural Rd,AZ,85282
Big O Tires,Tucson,4084,4084 #4084 04084,6627 N. Thornydale Road,AZ,85741
Big O Tires,Sedona,4091,4091 #4091 04091,2985 West Hwy. 89A,AZ,86336
Big O Tires,Show Low,4104,4104 #4104 04104,1781 E. Deuce of Clubs,AZ,85901
Big O Tires,Yuma,4106,4106 #4106 04106,10517 E.S. Frontage Rd.,AZ,85365
Big O Tires,Tucson,4120,4120 #4120 04120,1815 W. Valencia Rd.,AZ,85746
Big O Tires,Scottsdale,4138,4138 #4138 04138,7630 East McDowell Road,AZ,85257
Big O Tires,Sierra Vista,4146,4146 #4146 04146,1988 South Highway 92,AZ,85635
Big O Tires,Mesa,4149,4149 #4149 04149,4243 East Main St.,AZ,85205
Big O Tires,Oro Valley,4151,4151 #4151 04151,10885 N. Oracle Rd,AZ,85737
Big O Tires,Glendale,4155,4155 #4155 04155,6195 W. Bell Road,AZ,85308
Big O Tires,Mesa,4156,4156 #4156 04156,6915 East Baseline Road,AZ,85209
Big O Tires,Payson,4160,4160 #4160 04160,901 S Beeline,AZ,85541
Big O Tires,Glendale,4162,4162 #4162 04162,5115 West Peoria,AZ,85302
Big O Tires,Casa Grande,4163,4163 #4163 04163,1129 East Florence Blvd,AZ,85122
Big O Tires,Wickenburg,4166,4166 #4166 04166,540 East Wickenburg Way,AZ,85390
Big O Tires,Phoenix,4169,4169 #4169 04169,720 East Baseline Road,AZ,85042
Big O Tires,Fountain Hills,4170,4170 #4170 04170,11429 N. Saguaro Blvd.,AZ,85268
Big O Tires,Mesa,4171,4171 #4171 04171,1738 S. Crismon Rd.,AZ,85209
Big O Tires,Globe,4178,4178 #4178 04178,1790 North Broad Street,AZ,85501
Big O Tires,Thatcher,4183,4183 #4183 04183,2185 West Highway 70,AZ,85552
Big O Tires,Phoenix,4184,4184 #4184 04184,2248 W. Bell Rd.,AZ,85023
Big O Tires,Flagstaff,4185,4185 #4185 04185,2469 N. Walgreen St.,AZ,86004
Big O Tires,Gilbert,4187,4187 #4187 04187,750 S Lindsay Road,AZ,85296
Big O Tires,Peoria,4189,4189 #4189 04189,9864 N 91st Avenue,AZ,85345
Big O Tires,Phoenix,4190,4190 #4190 04190,2510 N 75Th Ave.,AZ,85035
Big O Tires,Maricopa,4191,4191 #4191 04191,44500 W Edison Rd.,AZ,85138
Big O Tires,Gilbert,4194,4194 #4194 04194,3465 E. Baseline Rd.,AZ,85234
Big O Tires,Phoenix,4195,4195 #4195 04195,21029 N CAVE CREEK RD,AZ,85024
Big O Tires,PHOENIX,4196,4196 #4196 04196,4702 E THUNDERBIRD ROAD,AZ,85032
Big O Tires,MESA,4197,4197 #4197 04197,6702 E MCKELLIPS ROAD,AZ,85215
Big O Tires,QUEEN CREEK,4199,4199 #4199 04199,7385 S. Power Road,AZ,85142
Big O Tires,PHOENIX,4200,4200 #4200 04200,1975 W HAPPY VALLEY ROAD,AZ,85085
Big O Tires,PHOENIX,4203,4203 #4203 04203,4832 EAST WARNER ROAD,AZ,85044
Big O Tires,San Tan Valley,4204,4204 #4204 04204,1360 WEST HUNT HWY,AZ,85143
Big O Tires,CHANDLER,4205,4205 #4205 04205,2550 E GERMANN RD,AZ,85286
Big O Tires,PHOENIX,4207,4207 #4207 04207,15625 DESERT FOOTHILLS PARKWAY,AZ,85048
Big O Tires,PRESCOTT VALLEY,4209,4209 #4209 04209,7690 E HIGHWAY 69,AZ,86314
Big O Tires,TUCSON,4211,4211 #4211 04211,7140 E GOLF LINKS RD,AZ,85730
Big O Tires,TUCSON,4212,4212 #4212 04212,3716 S 6TH AVE,AZ,85713
Big O Tires,TUCSON,4213,4213 #4213 04213,2445 N SILVERBELL RD,AZ,85745
Big O Tires,GOODYEAR,4214,4214 #4214 04214,14240 W INDIAN SCHOOL RD,AZ,85395
Big O Tires,Fremont,5002,5002 #5002 05002,38623 Fremont Boulevard,CA,94536
Big O Tires,Lafayette,5003,5003 #5003 05003,3328 A Mount Diablo Blvd.,CA,94549
Big O Tires,Antioch,5006,5006 #5006 05006,412 E. 18th St.,CA,94509
Big O Tires,Dublin,5007,5007 #5007 05007,7121 Dublin Blvd.,CA,94568
Big O Tires,Richmond,5008,5008 #5008 05008,12952 San Pablo Ave.,CA,94805
Big O Tires,Pittsburg,5011,5011 #5011 05011,1500 N. Park Blvd.,CA,94565
Big O Tires,Fairfield,5015,5015 #5015 05015,1129 N. Texas St.,CA,94533
Big O Tires,Concord,5016,5016 #5016 05016,3572 Clayton Rd.,CA,94520
Big O Tires,San Leandro,5017,5017 #5017 05017,2201 Washington Ave.,CA,94577
Big O Tires,Alameda,5020,5020 #5020 05020,1200 Park St.,CA,94501
Big O Tires,Davis,5021,5021 #5021 05021,1513 5th St.,CA,95616
Big O Tires,Fairfield,5023,5023 #5023 05023,2349 N. Texas St.,CA,94533
Big O Tires,Pleasanton,5024,5024 #5024 05024,3688A Washington St.,CA,94566
Big O Tires,Santa Rosa,5026,5026 #5026 05026,872 4th St.,CA,95404
Big O Tires,Concord,5027,5027 #5027 05027,1440 A Concord Ave.,CA,94520
Big O Tires,Elk Grove,5034,5034 #5034 05034,9720 Elk Grove-Florin Rd.,CA,95624
Big O Tires,Sacramento,5039,5039 #5039 05039,5701 Folsom Blvd.,CA,95819
Big O Tires,Woodland,5040,5040 #5040 05040,220 W. Main St.,CA,95695
Big O Tires,Redding,5058,5058 #5058 05058,377 E. Cypress Ave,CA,96002
Big O Tires,Walnut Creek,5060,5060 #5060 05060,2155 N. Broadway,CA,94596
Big O Tires,Susanville,5067,5067 #5067 05067,2935 Riverside Drive,CA,96130
Big O Tires,Petaluma,5070,5070 #5070 05070,516 E. Washington Street,CA,94952
Big O Tires,Danville,5073,5073 #5073 05073,155 W. Linda Mesa Ave.,CA,94526
Big O Tires,Rohnert Park,5074,5074 #5074 05074,5979 Commerce Blvd. #1,CA,94928
Big O Tires,Healdsburg,5076,5076 #5076 05076,1115 Healdsburg Ave.,CA,95448
Big O Tires,Ukiah,5077,5077 #5077 05077,1020A N. State St.,CA,95482
Big O Tires,Brentwood,5081,5081 #5081 05081,8040 Brentwood Blvd.,CA,94513
Big O Tires,Oakland,5083,5083 #5083 05083,810 W. Macarthur Blvd.,CA,94608
Big O Tires,Pinole,5084,5084 #5084 05084,700 Belmont Way,CA,94564
Big O Tires,Cameron Park,5085,5085 #5085 05085,3321 Durock Rd. Suite A,CA,95682
Big O Tires,Sacramento,5086,5086 #5086 05086,1615 L St.,CA,95814
Big O Tires,Elk Grove,5087,5087 #5087 05087,8022 Orchard Loop Ln.,CA,95624
Big O Tires,Berkeley,5094,5094 #5094 05094,2625 San Pablo Avenue,CA,94702
Big O Tires,El Dorado Hills,5100,5100 #5100 05100,4640 Post St.,CA,95762
Big O Tires,San Ramon,5108,5108 #5108 05108,2089 Camino Ramon,CA,94583
Big O Tires,Modesto,5130,5130 #5130 05130,4237 McHenry Ave.,CA,95356
Big O Tires,Modesto,5134,5134 #5134 05134,3501 Yosemite Blvd.,CA,95357
Big O Tires,Merced,5136,5136 #5136 05136,1261 W. 18th St.,CA,95340
Big O Tires,Sacramento,5164,5164 #5164 05164,5555 Stockton Blvd.,CA,95820
Big O Tires,Newark,5175,5175 #5175 05175,35255 Newark Blvd.,CA,94560
Big O Tires,San Leandro,5177,5177 #5177 05177,15241 Washington Ave.,CA,94579
Big O Tires,San Francisco,5178,5178 #5178 05178,1023 Mission St.,CA,94103
Big O Tires,Madera,5181,5181 #5181 05181,2245 W. Cleveland Avenue,CA,93637
Big O Tires,Paradise,5215,5215 #5215 05215,5995 Skyway,CA,95969
Big O Tires,Novato,5217,5217 #5217 05217,7427 Redwood Blvd,CA,94945
Big O Tires,Tracy,5221,5221 #5221 05221,1129 11th Street,CA,95376
Big O Tires,San Mateo,5227,5227 #5227 05227,2160 South El Camino Real,CA,94403
Big O Tires,Redwood City,5230,5230 #5230 05230,2310 El Camino Real,CA,94063
Big O Tires,Roseville,5233,5233 #5233 05233,199 S Harding Blvd Suite A,CA,95678
Big O Tires,San Jose,5236,5236 #5236 05236,1509 Parkmoor Ave.,CA,95128
Big O Tires,Santa Cruz,5240,5240 #5240 05240,1219 Soquel Ave.,CA,95062
Big O Tires,Benicia,5241,5241 #5241 05241,415 Military East,CA,94510
Big O Tires,Sonora,5243,5243 #5243 05243,796 E. Mono Way,CA,95370
Big O Tires,FRESNO,5244,5244 #5244 05244,6053 N BLACKSTONE,CA,93710
Big O Tires,OROVILLE,5246,5246 #5246 05246,3008 A OLIVE HWY,CA,95966
Big O Tires,VACAVILLE,5247,5247 #5247 05247,1221 EAST MONTE VISTA AVE,CA,95688
Big O Tires,PLEASANT HILL,5248,5248 #5248 05248,1845 CONTRA COSTA BLVD,CA,94523
Big O Tires,PLACERVILLE,5251,5251 #5251 05251,85 PLACERVILLE DR,CA,95667
Big O Tires,LIVERMORE,5252,5252 #5252 05252,4025 FIRST STREET,CA,94551
Big O Tires,SAN FRANCISCO,5253,5253 #5253 05253,3040 GEARY BLVD,CA,94118
Big O Tires,SEBASTOPOL,5254,5254 #5254 05254,742 S MAIN STREET,CA,95472
Big O Tires,NAPA,5256,5256 #5256 05256,442 SOSCOL AVE,CA,94559
Big O Tires,Brea,5560,5560 #5560 05560,210 N. Brea Blvd.,CA,92821
Big O Tires,La Mesa,5589,5589 #5589 05589,7589 A El Cajon Blvd.,CA,91942
Big O Tires,Yorba Linda,5596,5596 #5596 05596,17111 Imperial Hwy.,CA,92886
Big O Tires,Cathedral City,5609,5609 #5609 05609,68365 Ramon Rd.,CA,92234
Big O Tires,Escondido,5639,5639 #5639 05639,1795 E. Valley Parkway,CA,92027
Big O Tires,Rancho Cucamonga,5660,5660 #5660 05660,8850 Archibald Avenue,CA,91730
Big O Tires,Needles,5671,5671 #5671 05671,949 W. Broadway,CA,92363
Big O Tires,Moreno Valley,5673,5673 #5673 05673,23930 Sunnymead Blvd.,CA,92553
Big O Tires,Lompoc,5674,5674 #5674 05674,1625 E. Laurel Ave.,CA,93436
Big O Tires,Wasco,5677,5677 #5677 05677,2150 Highway 46,CA,93280
Big O Tires,San Diego,5688,5688 #5688 05688,1106 Garnet Avenue,CA,92109
Big O Tires,Tarzana,5698,5698 #5698 05698,18440 Ventura Boulevard,CA,91356
Big O Tires,Anaheim,5714,5714 #5714 05714,2021 East La Palma Road,CA,92806
Big O Tires,Bermuda Dunes,5729,5729 #5729 05729,42098 Washington St.,CA,92203
Big O Tires,Glendale,5734,5734 #5734 05734,1201 South Central Ave,CA,91204
Big O Tires,Pasadena,5736,5736 #5736 05736,112 South Rosemead Blvd,CA,91107
Big O Tires,Carson,5738,5738 #5738 05738,21932 South Avalon Blvd.,CA,90745
Big O Tires,Poway,5752,5752 #5752 05752,12947 Poway Rd,CA,92064
Big O Tires,Bakersfield,5759,5759 #5759 05759,6911 White Lane,CA,93309
Big O Tires,Bakersfield,5760,5760 #5760 05760,2502 Ming Avenue,CA,93304
Big O Tires,Bakersfield,5761,5761 #5761 05761,3648 Coffee Road,CA,93308
Big O Tires,Bakersfield,5762,5762 #5762 05762,3215 Mall View Road,CA,93306
Big O Tires,Los Angeles,5768,5768 #5768 05768,11470 Gateway Boulevard,CA,90064
Big O Tires,Irvine,5769,5769 #5769 05769,8767 Irvine Center Drive # A,CA,92618
Big O Tires,Chula Vista,5777,5777 #5777 05777,399 Broadway,CA,91910
Big O Tires,Yucca Valley,5779,5779 #5779 05779,57672 Twenty-Nine Palms Highway,CA,92284
Big O Tires,PACOIMA,5780,5780 #5780 05780,11057 SAN FERNANDO RD,CA,91331
Big O Tires,West Covina,5781,5781 #5781 05781,444 South Vincent Avenue,CA,91790
Big O Tires,San Marcos,5782,5782 #5782 05782,1286 West San Marcos Blvd #100,CA,92078
Big O Tires,Lake Elsinore,5783,5783 #5783 05783,150 A Campbell Road,CA,92530
Big O Tires,Santa Clarita,5785,5785 #5785 05785,23510 Valencia Blvd.,CA,91355
Big O Tires,Canoga Park,5787,5787 #5787 05787,21311 Vanowen Street,CA,91303
Big O Tires,Desert Hot Springs,5788,5788 #5788 05788,14010 Palm Dr.,CA,92240
Big O Tires,Bellflower,5801,5801 #5801 05801,9075 Artesia Blvd.,CA,90706
Big O Tires,Chino,5803,5803 #5803 05803,14135 Pipeline Ave,CA,91710
Big O Tires,Corona,5804,5804 #5804 05804,1002 W 6TH Avenue,CA,92882
Big O Tires,Cypress,5807,5807 #5807 05807,6052 Cerritos Ave.,CA,90630
Big O Tires,La Mirada,5811,5811 #5811 05811,13920 Valley View,CA,90638
Big O Tires,Murrieta,5813,5813 #5813 05813,40420 California Oaks Rd,CA,92562
Big O Tires,San Clemente,5816,5816 #5816 05816,927 N El Camino Real,CA,92672
Big O Tires,San Diego,5817,5817 #5817 05817,12093 Scripps Summit Drive,CA,92131
Big O Tires,Temecula,5820,5820 #5820 05820,40525 Winchester Road,CA,92591
Big O Tires,ORANGE,5824,5824 #5824 05824,1825 E KATELLA AVE,CA,92867
Big O Tires,TUSTIN,5825,5825 #5825 05825,131 E FIRST ST,CA,92780
Big O Tires,LONG BEACH,5826,5826 #5826 05826,1181 E PACIFIC COAST HWY,CA,90806
Big O Tires,TORRANCE,5828,5828 #5828 05828,3635 PACIFIC COAST HWY,CA,90505
Big O Tires,SAN DIEGO,5829,5829 #5829 05829,14365 PENASQUITOS DR,CA,92129
Big O Tires,CARLSBAD,5830,5830 #5830 05830,2615 STATE ST,CA,92008
Big O Tires,HUNTINGTON BEACH,5833,5833 #5833 05833,19411 BEACH BLVD,CA,92648
Big O Tires,LAKE FOREST,5834,5834 #5834 05834,20742 LAKE FOREST UNIT C3,CA,92630
Big O Tires,SANTA ANA,5835,5835 #5835 05835,3365 S BRISTOL ST,CA,92704
Big O Tires,SANTA ANA,5836,5836 #5836 05836,1302 E 17TH ST,CA,92705
Big O Tires,COSTA MESA,5837,5837 #5837 05837,322 E 17TH ST,CA,92607
Big O Tires,ALISO VIEJO,5838,5838 #5838 05838,27812 ALISO CREEK RD STE E100,CA,92656
Big O Tires,Wheat Ridge,6038,6038 #6038 06038,9491 W. 44th Ave.#105,CO,80033
Big O Tires,Colorado Springs,6042,6042 #6042 06042,806 E. Fillmore St.,CO,80907
Big O Tires,Denver,6045,6045 #6045 06045,1940 S. Federal Blvd.,CO,80219
Big O Tires,Fountain,6051,6051 #6051 06051,6650 Camden Blvd.,CO,80817
Big O Tires,Grand Junction,6064,6064 #6064 06064,2462 HWY. 6 & 50,CO,81505
Big O Tires,Grand Junction,6065,6065 #6065 06065,2894 North Ave.,CO,81501
Big O Tires,Glenwood Springs,6066,6066 #6066 06066,51079 Highway 6,CO,81601
Big O Tires,Lakewood,6067,6067 #6067 06067,320 S. Union,CO,80228
Big O Tires,Basalt,6070,6070 #6070 06070,100 Southside Drive,CO,81621
Big O Tires,Aurora,6074,6074 #6074 06074,1770 South Havana Street,CO,80012
Big O Tires,Durango,6076,6076 #6076 06076,1210 Escalante Dr.,CO,81303
Big O Tires,Loveland,6088,6088 #6088 06088,2480 N. Lincoln Ave,CO,80538
Big O Tires,Lakewood,6090,6090 #6090 06090,9009 W. Colfax Ave,CO,80215
Big O Tires,Longmont,6125,6125 #6125 06125,1205 South Main Street,CO,80501
Big O Tires,Centennial,6126,6126 #6126 06126,8110 S. University,CO,80122
Big O Tires,Louisville,6127,6127 #6127 06127,1301 S. Boulder Rd.,CO,80027
Big O Tires,Castle Rock,6129,6129 #6129 06129,750 South Perry Street,CO,80104
Big O Tires,Colorado Springs,6146,6146 #6146 06146,5820 Omaha Blvd.,CO,80915
Big O Tires,Fort Collins,6150,6150 #6150 06150,1506 N. College Ave.,CO,80524
Big O Tires,Frisco,6156,6156 #6156 06156,820 N. Summit Blvd.,CO,80443
Big O Tires,Broomfield,6158,6158 #6158 06158,6430 W. 120th Ave.,CO,80020
Big O Tires,Pueblo,6159,6159 #6159 06159,430 Eagleridge Blvd.,CO,81008
Big O Tires,Monument,6160,6160 #6160 06160,650 Colorado 105,CO,80132
Big O Tires,Salida,6162,6162 #6162 06162,5570 East Highway 50,CO,81201
Big O Tires,Cortez,6168,6168 #6168 06168,1856 East Main Street,CO,81321
Big O Tires,Greeley,6170,6170 #6170 06170,3325 23rd Ave.,CO,80631
Big O Tires,Conifer,6171,6171 #6171 06171,26237 Conifer Road,CO,80433
Big O Tires,Canon City,6173,6173 #6173 06173,3030 East Main St.,CO,81212
Big O Tires,Woodland Park,6180,6180 #6180 06180,555 chester ave,CO,80863
Big O Tires,Colorado Springs,6190,6190 #6190 06190,1611 S. Nevada Ave.,CO,80906
Big O Tires,Denver,6194,6194 #6194 06194,7500 North Pecos,CO,80221
Big O Tires,Trinidad,6195,6195 #6195 06195,2803 Toupal Drive,CO,81082
Big O Tires,Delta,6197,6197 #6197 06197,111 Gunnison River Drive,CO,81416
Big O Tires,Montrose,6198,6198 #6198 06198,1900 S Townsend Ave,CO,81401
Big O Tires,Northglenn,6205,6205 #6205 06205,690 East 120th Ave.,CO,80233
Big O Tires,Elizabeth,6210,6210 #6210 06210,140 Elizabeth St.,CO,80107
Big O Tires,Aurora,6212,6212 #6212 06212,22994 East Smoky Hill Road,CO,80016
Big O Tires,Aurora,6216,6216 #6216 06216,18431 E. Hampden Ave.,CO,80013
Big O Tires,Avon,6218,6218 #6218 06218,41121 Highway 6,CO,81620
Big O Tires,Castle Pines,6219,6219 #6219 06219,508 E. Castle Pines Parkway,CO,80108
Big O Tires,Fort Collins,6220,6220 #6220 06220,4245 S. Mason St,CO,80525
Big O Tires,Thornton,6221,6221 #6221 06221,3740 East 104th Avenue,CO,80233
Big O Tires,Colorado Springs,6222,6222 #6222 06222,3575 Woodmen Road,CO,80920
Big O Tires,Colorado Springs,6223,6223 #6223 06223,4496 Austin Bluffs Parkway,CO,80918
Big O Tires,Estes Park,6225,6225 #6225 06225,1633 Raven Avenue,CO,80517
Big O Tires,Denver,6228,6228 #6228 06228,5405 E Colfax Avenue,CO,80220
Big O Tires,Littleton,6230,6230 #6230 06230,9973 West Bowles Ave,CO,80123
Big O Tires,Denver,6231,6231 #6231 06231,4695 Peoria St.,CO,80239
Big O Tires,Arvada,6234,6234 #6234 06234,9595 W. 58th Ave.,CO,80004
Big O Tires,Littleton,6235,6235 #6235 06235,9875 W. Remington Pl,CO,80128
Big O Tires,GOLDEN,6237,6237 #6237 06237,17503 SOUTH GOLDEN ROAD,CO,80401
Big O Tires,Evergreen,6238,6238 #6238 06238,29032 Crossroads Ln.,CO,80439
Big O Tires,GREENWOOD VILLAGE,6240,6240 #6240 06240,8151 E ARAPAHOE RD,CO,80112
Big O Tires,CRAIG,6241,6241 #6241 06241,1111 WEST VICTORY WAY ST 128,CO,81625
Big O Tires,CENTENNIAL,6242,6242 #6242 06242,6711 SOUTH POTOMAC,CO,80112
Big O Tires,GRAND JUNCTION,6243,6243 #6243 06243,215 N 3RD ST,CO,81501
Big O Tires,Boulder,6244,6244 #6244 06244,3000 Valmont Rd,CO,80301
Big O Tires,BROOMFIELD,6245,6245 #6245 06245,593 SUMMIT BLVD,CO,80021
Big O Tires,PARKER,6246,6246 #6246 06246,10431 PARKGLENN WAY,CO,80138
Big O Tires,ARVADA,6247,6247 #6247 06247,6510 INDIANA ST STE A,CO,80007
Big O Tires,AURORA,6248,6248 #6248 06248,15320 EAST ILIFF,CO,80013
Big O Tires,LITTLETON,6249,6249 #6249 06249,9973 W BOWLES AVE,CO,80123
Big O Tires,Boise,12200,12200 #12200 012200,1422 Main St.,ID,83702
Big O Tires,Nampa,12240,12240 #12240 012240,1222 Caldwell Blvd.,ID,83651
Big O Tires,Boise,12483,12483 #12483 012483,7199 Fairview Avenue,ID,83704
Big O Tires,Meridian,12515,12515 #12515 012515,216 E. Fairview,ID,83642
Big O Tires,Eagle,12665,12665 #12665 012665,2948 E. State Street,ID,83616
Big O Tires,Idaho Falls,12666,12666 #12666 012666,265 Northgate Mile,ID,83401
Big O Tires,Boise,12741,12741 #12741 012741,2013 Broadway Ave.,ID,83706
Big O Tires,Boise,12742,12742 #12742 012742,4602 West State Street,ID,83703
Big O Tires,Pocatello,12987,12987 #12987 012987,731 N. 5th Ave.,ID,83201
Big O Tires,AMMON,12989,12989 #12989 012989,3193 E 17TH STREET,ID,83406
Big O Tires,Clarksville,14010,14010 #14010 014010,1209 Eastern Blvd.,IN,47129
Big O Tires,Bedford,14015,14015 #14015 014015,1420 James Ave.,IN,47421
Big O Tires,New Albany,14024,14024 #14024 014024,2245 State St.,IN,47150
Big O Tires,Madison,14025,14025 #14025 014025,215 Clifty Dr.,IN,47250
Big O Tires,Brownsburg,14041,14041 #14041 014041,5 Commerce Dr.,IN,46112
Big O Tires,Mooresville,14046,14046 #14046 014046,540 State Rd. 67 South,IN,46158
Big O Tires,Washington,14059,14059 #14059 014059,203 S.E. 3rd St.,IN,47501
Big O Tires,Princeton,14065,14065 #14065 014065,3012 West Broadway,IN,47670
Big O Tires,New Castle,14067,14067 #14067 014067,601 South Memorial Dr,IN,47362
Big O Tires,Lebanon,14068,14068 #14068 014068,2471 North Lebanon St,IN,46052
Big O Tires,Plainfield,14069,14069 #14069 014069,2668 East Main St.,IN,46168
Big O Tires,Jasper,14071,14071 #14071 014071,642 3rd Avenue,IN,47546
Big O Tires,Terre Haute,14072,14072 #14072 014072,2909 South 3rd Place,IN,47802
Big O Tires,Seymour,14078,14078 #14078 014078,420 Circle Street,IN,47274
Big O Tires,Indianapolis,14079,14079 #14079 014079,5707 W 86TH Street,IN,46278
Big O Tires,Jeffersonville,14080,14080 #14080 014080,1502 E. 10th St.,IN,47130
Big O Tires,Corydon,14081,14081 #14081 014081,1969 Gardner Lane,IN,47112
Big O Tires,SCOTTSBURG,14082,14082 #14082 014082,1621 WEST MCCLAIN AVE,IN,47170
Big O Tires,Gardner,16001,16001 #16001 016001,331 E. Main St.,KS,66030
Big O Tires,Topeka,16005,16005 #16005 016005,2735 SW Wanamaker Rd,KS,66614
Big O Tires,LAWRENCE,16007,16007 #16007 016007,4661 W 6TH STREET,KS,66049
Big O Tires,Louisville,17001,17001 #17001 017001,3623 Lexington Rd.,KY,40207
Big O Tires,Louisville,17002,17002 #17002 017002,12614 Dixie Hwy/Valley Station,KY,40272
Big O Tires,Jeffersontown,17004,17004 #17004 017004,9414 Taylorsville Road,KY,40299
Big O Tires,Louisville,17005,17005 #17005 017005,4413 Cane Run Road,KY,40216
Big O Tires,Louisville,17006,17006 #17006 017006,11910 Shelbyville Rd.,KY,40243
Big O Tires,Louisville,17007,17007 #17007 017007,195 Outer Loop,KY,40214
Big O Tires,Brandenburg,17008,17008 #17008 017008,333 Broadway,KY,40108
Big O Tires,Radcliff,17009,17009 #17009 017009,1470 N. Dixie Hwy.,KY,40160
Big O Tires,Louisville,17014,17014 #17014 017014,6101 Old Shepherdsville Rd.,KY,40228
Big O Tires,Shepherdsville,17015,17015 #17015 017015,615 N. Buckman,KY,40165
Big O Tires,Elizabethtown,17016,17016 #17016 017016,1112 N. Dixie Highway,KY,42701
Big O Tires,Louisville,17017,17017 #17017 017017,7935 Fegenbush Lane,KY,40228
Big O Tires,Hardinsburg,17019,17019 #17019 017019,1016 Old Hwy 60 East,KY,40143
Big O Tires,Frankfort,17022,17022 #17022 017022,NO. 9 Carson Place,KY,40601
Big O Tires,La Grange,17026,17026 #17026 017026,900 S. Highway 53,KY,40031
Big O Tires,Bardstown,17079,17079 #17079 017079,618 Bloomfield Rd.,KY,40004
Big O Tires,Louisville,17083,17083 #17083 017083,3751 Pamela Rae Dr.,KY,40241
Big O Tires,Louisville,17085,17085 #17085 017085,268 Market Place Drive,KY,40229
Big O Tires,Louisville,17086,17086 #17086 017086,4922 Preston Highway,KY,40213
Big O Tires,Shelbyville,17087,17087 #17087 017087,2231 Shelbyville Road,KY,40065
Big O Tires,Lebanon,17088,17088 #17088 017088,773 W Main ST,KY,40033
Big O Tires,LEITCHFIELD,17089,17089 #17089 017089,609 MILL STREET,KY,42754
Big O Tires,Columbia,25001,25001 #25001 025001,2300 Business Loop 70 E.,MO,65201
Big O Tires,Columbia,25002,25002 #25002 025002,3915 Peachtree Dr.,MO,65203
Big O Tires,Jefferson City,25006,25006 #25006 025006,2410 Missouri Blvd.,MO,65109
Big O Tires,Springfield,25009,25009 #25009 025009,2020 N. Glenstone,MO,65803
Big O Tires,Hollister,25010,25010 #25010 025010,200 Financial Drive,MO,65673
Big O Tires,Jefferson City,25011,25011 #25011 025011,1611 Christy Drive,MO,65101
Big O Tires,Osage Beach,25012,25012 #25012 025012,4712 Jayhawk Street,MO,65065
Big O Tires,Camdenton,25013,25013 #25013 025013,153 East Highway 54,MO,65020
Big O Tires,Saint Robert,25015,25015 #25015 025015,653 Old Business Route 66,MO,65584
Big O Tires,Rolla,25017,25017 #25017 025017,2120A N Bishop Ave,MO,65401
Big O Tires,NIXA,25018,25018 #25018 025018,1407 N MASSEY BLVD,MO,65714
Big O Tires,Kalispell,26700,26700 #26700 026700,1238 Hwy. # 2 East,MT,59901
Big O Tires,Great Falls,26702,26702 #26702 026702,1117 7th St. South,MT,59405
Big O Tires,Bozeman,26704,26704 #26704 026704,620 North 7th Avenue,MT,59715
Big O Tires,Grand Island,27010,27010 #27010 027010,2135 North Diers Ave.,NE,68802
Big O Tires,Kearney,27011,27011 #27011 027011,116 West 56th St.,NE,68847
Big O Tires,GRAND ISLAND,27012,27012 #27012 027012,1919 S LOCUST ST,NE,68801
Big O Tires,Carson City,28064,28064 #28064 028064,119 Hot Springs Rd.,NV,89706
Big O Tires,Sparks,28094,28094 #28094 028094,1604 Pyramid Way,NV,89431
Big O Tires,Reno,28095,28095 #28095 028095,5130 Mae Anne Ave.,NV,89523
Big O Tires,Reno,28103,28103 #28103 028103,1195 E. 4th St.,NV,89512
Big O Tires,Reno,28104,28104 #28104 028104,3090 Kietzke Lane,NV,89502
Big O Tires,Elko,28105,28105 #28105 028105,330 11th Street,NV,89801
Big O Tires,Henderson,28813,28813 #28813 028813,828 S. Boulder Hwy.,NV,89015
Big O Tires,Pahrump,28821,28821 #28821 028821,1301 E. Highway 372,NV,89048
Big O Tires,Mesquite,28837,28837 #28837 028837,136 North Sandhill Blvd,NV,89027
Big O Tires,Las Vegas,28870,28870 #28870 028870,787 North Nellis Blvd,NV,89110
Big O Tires,Las Vegas,28872,28872 #28872 028872,2061 Rock Springs Drive,NV,89128
Big O Tires,Las Vegas,28873,28873 #28873 028873,8075 West Sahara Ave,NV,89117
Big O Tires,Henderson,28874,28874 #28874 028874,170 North Pecos Rd,NV,89074
Big O Tires,Las Vegas,28876,28876 #28876 028876,7620 W. Charleston,NV,89117
Big O Tires,Las Vegas,28877,28877 #28877 028877,3415 South Maryland Parkway,NV,89169
Big O Tires,Las Vegas,28878,28878 #28878 028878,4728 East Flamingo Road,NV,89121
Big O Tires,Las Vegas,28879,28879 #28879 028879,10127 W. Charleston,NV,89135
Big O Tires,Las Vegas,28880,28880 #28880 028880,3625 South Fort Apache Lane,NV,89147
Big O Tires,North Las Vegas,28881,28881 #28881 028881,4329 West Craig Road,NV,89032
Big O Tires,Henderson,28882,28882 #28882 028882,15 S. Gibson,NV,89012
Big O Tires,Boulder City,28883,28883 #28883 028883,1323 Nevada Highway,NV,89005
Big O Tires,Las Vegas,28884,28884 #28884 028884,6060 Centennial Center Blvd,NV,89149
Big O Tires,Las Vegas,28885,28885 #28885 028885,4520 N Rancho,NV,89130
Big O Tires,LAS VEGAS,28887,28887 #28887 028887,7145 SOUTH RAINBOW BLVD,NV,89118
Big O Tires,RENO,28888,28888 #28888 028888,12270 OLD VIRGINIA ROAD,NV,89521
Big O Tires,Alamogordo,31001,31001 #31001 031001,621 N. White Sands Blvd.,NM,88310
Big O Tires,Albuquerque,31008,31008 #31008 031008,3808 Isleta Blvd. SW,NM,87105
Big O Tires,Roswell,31038,31038 #31038 031038,1305 N. Main St.,NM,88201
Big O Tires,Las Cruces,31040,31040 #31040 031040,1330 S. El Paseo,NM,88011
Big O Tires,Los Lunas,31050,31050 #31050 031050,1820 Main Street,NM,87031
Big O Tires,Farmington,31051,31051 #31051 031051,4650 East Main Street,NM,87401
Big O Tires,Las Vegas,31052,31052 #31052 031052,1820 1/2 7th Street,NM,87701
Big O Tires,RIO RANCHO,31054,31054 #31054 031054,1560 Deborah Road Southeast,NM,87124
Big O Tires,DEMING,31055,31055 #31055 031055,1715 EAST PINE,NM,88030
Big O Tires,SILVER CITY,31056,31056 #31056 031056,2820 1/2 HWY 180 EAST,NM,88062
Big O Tires,AZTEC,31057,31057 #31057 031057,1549 W AZTEC BLVD,NM,87410
Big O Tires,ALBUQUERQUE,31060,31060 #31060 031060,6519 MENAUL BLVD NE,NM,87110
Big O Tires,Edmond,36001,36001 #36001 036001,904 S. Broadway,OK,73034
Big O Tires,Yukon,36034,36034 #36034 036034,1100 West Vandament,OK,73099
Big O Tires,Mustang,36040,36040 #36040 036040,401 N Mustang RD,OK,73064
Big O Tires,Norman,36041,36041 #36041 036041,1481 EAST ALAMEDA,OK,73071
Big O Tires,ENID,36045,36045 #36045 036045,4212 W. Owen K. Garriott Rd.,OK,73703
Big O Tires,Roseburg,37035,37035 #37035 037035,2545 Stewart Parkway,OR,97471
Big O Tires,Salt Lake City,44012,44012 #44012 044012,4546 South 900 East,UT,84117
Big O Tires,Vernal,44013,44013 #44013 044013,1265 West 500 South,UT,84078
Big O Tires,North Ogden,44016,44016 #44016 044016,1893 North 400 East,UT,84414
Big O Tires,Roosevelt,44024,44024 #44024 044024,East Hwy 40,UT,84066
Big O Tires,St George,44045,44045 #44045 044045,1055 S. Bluff Street,UT,84770
Big O Tires,Richfield,44056,44056 #44056 044056,208 S. Main,UT,84701
Big O Tires,Centerville,44065,44065 #44065 044065,220 West 400 North,UT,84014
Big O Tires,West Valley City,44066,44066 #44066 044066,2830 West 3500 South,UT,84119
Big O Tires,Tremonton,44068,44068 #44068 044068,55 N 300 East,UT,84337
Big O Tires,Draper,44069,44069 #44069 044069,1022 E. Draper Pkwy.,UT,84020
Big O Tires,Orem,44070,44070 #44070 044070,703 N. State Street,UT,84057
Big O Tires,Provo,44074,44074 #44074 044074,1595 N. Freedom Blvd.,UT,84604
Big O Tires,South Jordan,44075,44075 #44075 044075,10227 South Redwood Road,UT,84095
Big O Tires,South Ogden,44076,44076 #44076 044076,5734 S. Harrison Blvd,UT,84403
Big O Tires,Spanish Fork,44084,44084 #44084 044084,570 N. Main,UT,84660
Big O Tires,Salt Lake City,44095,44095 #44095 044095,2284 East Fort Union Blvd.,UT,84121
Big O Tires,Springville,44098,44098 #44098 044098,495 South 1750 West,UT,84663
Big O Tires,Price,44099,44099 #44099 044099,790 West Price River Dr.,UT,84501
Big O Tires,Cedar City,44103,44103 #44103 044103,721 South Main Street,UT,84720
Big O Tires,St George,44104,44104 #44104 044104,1732 West Sunset Blvd.,UT,84770
Big O Tires,Lehi,44106,44106 #44106 044106,144 North 850 East,UT,84043
Big O Tires,Brigham City,44107,44107 #44107 044107,390 South Main,UT,84302
Big O Tires,Murray,44108,44108 #44108 044108,4745 South State Street,UT,84107
Big O Tires,Salt Lake City,44109,44109 #44109 044109,910 South 300 West,UT,84101
Big O Tires,Tooele,44110,44110 #44110 044110,855 N Main St,UT,84074
Big O Tires,Logan,44111,44111 #44111 044111,240 EAST 1400 NORTH,UT,84341
Big O Tires,West Valley City,44112,44112 #44112 044112,3557 S. 5600 West,UT,84120
Big O Tires,Kaysville,44113,44113 #44113 044113,320 N. Main St.,UT,84037
Big O Tires,Orem,44200,44200 #44200 044200,1195 South State St.,UT,84097
Big O Tires,Salt Lake City,44206,44206 #44206 044206,178 East South Temple,UT,84111
Big O Tires,Kearns,44209,44209 #44209 044209,3725 West 5400 South,UT,84118
Big O Tires,St George,44210,44210 #44210 044210,825 E. St George Blvd.,UT,84770
Big O Tires,Layton,44211,44211 #44211 044211,1159 W. Antelope Dr,UT,84041
Big O Tires,West Jordan,44213,44213 #44213 044213,3176 West 7800 South,UT,84088
Big O Tires,Salt Lake City,44214,44214 #44214 044214,2002 East 3300 South,UT,84109
Big O Tires,Nephi,44216,44216 #44216 044216,855 East 100 North,UT,84648
Big O Tires,Salt Lake City,44217,44217 #44217 044217,3120 S. Highland Dr.,UT,84106
Big O Tires,PAYSON,44218,44218 #44218 044218,1146 W 800 S,UT,84651
Big O Tires,SANDY,44219,44219 #44219 044219,8835 S 700 E,UT,84070
Big O Tires,OGDEN,44220,44220 #44220 044220,458 WASHINGTON BLVD,UT,84404
Big O Tires,OGDEN,44223,44223 #44223 044223,3190 WALL AVE,UT,84401
Big O Tires,AMERICAN FORK,44224,44224 #44224 044224,748 E STATE RD,UT,84003
Big O Tires,Yakima,47019,47019 #47019 047019,2601 West Nob Hill Blvd.,WA,98902
Big O Tires,Renton,47027,47027 #47027 047027,10658 South East 180th ST,WA,98055
Big O Tires,Issaquah,47040,47040 #47040 047040,60 N W Gilman Blvd,WA,98027
Big O Tires,Port Orchard,47107,47107 #47107 047107,3333 Bethel Road SE,WA,98366
Big O Tires,Kirkland,47108,47108 #47108 047108,12540 NE 124th Street,WA,98034
Big O Tires,Lake Stevens,47272,47272 #47272 047272,809 Vernon Rd.,WA,98258
Big O Tires,Kennewick,47275,47275 #47275 047275,555 North Edison Street,WA,99336
Big O Tires,Cheyenne,50081,50081 #50081 050081,3714 East Lincoln Way,WY,82001
Big O Tires,Riverton,50086,50086 #50086 050086,303 S Federal Blvd.,WY,82501
Big O Tires,Gillette,50088,50088 #50088 050088,402 E. Lakeway Road,WY,82718
Big O Tires,Evanston,50089,50089 #50089 050089,607 North Cheyenne Drive,WY,82930
Big O Tires,Cheyenne,50090,50090 #50090 050090,5510 North Yellowstone Road,WY,82009
Big O Tires,CASPER,50092,50092 #50092 050092,2727 CY AVE,WY,82604
Big O Tires,Jackson,50203,50203 #50203 050203,530 S. Hwy 89,WY,83001
Big O Tires,Rock Springs,50205,50205 #50205 050205,1255 Dewar Dr.,WY,82901
Big O Tires,AFTON,50207,50207 #50207 050207,295 NORTH WASHINGTON STREET,WY,83110
