keywords,city,Aggdata Store Number,store_number,address,state,zip_code
Braum's,Frisco,1,#1,4335 NW 23rd,TX,75033
Braum's,Oklahoma City,2,#2,2121 N Ridge Road,OK,73107
Braum's,Wichita,3,#3,1001 NE Danforth Road,KS,67212
Braum's,Edmond,4,#4,6821 NW 23rd,OK,73034
Braum's,Bethany,5,#5,4101 NW 39th Street,OK,73008
Braum's,Oklahoma City,6,#6,7300 S. Shields,OK,73112
Braum's,Oklahoma City,7,#7,9020 NE 23rd,OK,73129
Braum's,Midwest City,8,#8,444 East Pawnee,OK,73141
Braum's,Wichita,9,#9,1 Lakeshore Drive,KS,67211
Braum's,Eufaula,10,#10,2508 N. 14th Street,OK,74432
Braum's,Ponca City,11,#11,7512 S. May,OK,74601
Braum's,Oklahoma City,12,#12,3820 SE Adams Road,OK,73159
Braum's,Bartlesville,13,#13,7351 E Reno,OK,74006
Braum's,Midwest City,14,#14,620 NW 12th,OK,73110
Braum's,Moore,15,#15,4717 E 51st,OK,73160
Braum's,Tulsa,16,#16,1803 S. Sheridan,OK,74135
Braum's,Tulsa,17,#17,5804 S. 33rd W Avenue,OK,74112
Braum's,Tulsa,18,#18,1201 S. Sunnylane,OK,74107
Braum's,Del City,19,#19,6200 N. May,OK,73115
Braum's,Oklahoma City,20,#20,2410 Rangeline Drive,OK,73112
Braum's,Joplin,21,#21,823 N 44th,MO,64801
Braum's,Blackwell,22,#22,3921 S. Penn,OK,74631
Braum's,Oklahoma City,23,#23,4524 NW Expressway,OK,73119
Braum's,Oklahoma City,24,#24,7121 E. Admiral,OK,73132
Braum's,Tulsa,25,#25,701 S. Main,OK,74115
Braum's,Sapulpa,26,#26,3004 NE 63rd,OK,74066
Braum's,Oklahoma City,27,#27,504 N. Perkins Rd,OK,73121
Braum's,Stillwater,28,#28,1200 W. Wood Dr,OK,74075
Braum's,Okmulgee,29,#29,1121 W. Willow,OK,74447
Braum's,Enid,30,#30,310 W. Garriott,OK,73701
Braum's,Enid,31,#31,111 S. Mustang Road,OK,73701
Braum's,Oklahoma City,32,#32,2401 W. 6th,OK,73099
Braum's,Stillwater,33,#33,2201 Country Club Rd,OK,74074
Braum's,El Reno,34,#34,400 E. Robinson,OK,73036
Braum's,Norman,35,#35,2615 N. Kickapoo,OK,73071
Braum's,Shawnee,36,#36,2806 S. Harvard,OK,74804
Braum's,Tulsa,37,#37,1308 S. Garnett,OK,74114
Braum's,Tulsa,38,#38,3101 E. Memorial,OK,74128
Braum's,Edmond,39,#39,2539 SE Washington,OK,73013
Braum's,Bartlesville,40,#40,11224 N May,OK,74003
Braum's,Oklahoma City,41,#41,1529 SW 89th,OK,73120
Braum's,Oklahoma City,42,#42,1850 N Hwy 81,OK,73159
Braum's,Duncan,43,#43,4020 N Penn,OK,73533
Braum's,Oklahoma City,44,#44,2028 S 4th,OK,73112
Braum's,Chickasha,45,#45,804 N Elm Place,OK,73018
Braum's,Broken Arrow,46,#46,301 S Mississippi,OK,74012
Braum's,Ada,47,#47,2410 W Edmond Road,OK,74820
Braum's,Edmond,48,#48,24 N Commerce,OK,73012
Braum's,Ardmore,49,#49,2420 S Broadway,OK,73401
Braum's,Edmond,50,#50,5130 S Peoria,OK,73013
Braum's,Tulsa,51,#51,219 NW I-35,OK,74105
Braum's,Hillsboro,52,#52,One West Main,TX,76645
Braum's,Yukon,53,#53,11821 Plano Road,OK,73099
Braum's,Dallas,54,#54,1207 E Carl Albert Parkway,TX,75243
Braum's,McAlester,55,#55,5434 Broadway Blvd,OK,74501
Braum's,Garland,56,#56,4435 NW Cache Road,TX,75043
Braum's,Lawton,57,#57,518 Centennial Blvd,OK,73505
Braum's,Richardson,58,#58,2134 N Josey Lane,TX,75081
Braum's,Carrollton,59,#59,1413 South Story,TX,75006
Braum's,Irving,60,#60,1900 S Grand Street,TX,75060
Braum's,Amarillo,61,#61,1815 NW HWY,TX,79103
Braum's,Garland,62,#62,2802 Lavon Drive,TX,75041
Braum's,Garland,63,#63,10142 E 31st South,TX,75040
Braum's,Tulsa,64,#64,600 E 15th,OK,74146
Braum's,Plano,65,#65,400 West California,TX,75074
Braum's,Gainesville,66,#66,2120 Industrial Road,TX,76240
Braum's,Emporia,67,#67,3601 N Story Road,KS,6680
Braum's,Irving,68,#68,2825 E. 101st South,TX,75062
Braum's,Tulsa,69,#69,7401 SW 34th Street,OK,74137
Braum's,Amarillo,70,#70,2210 W Park Row,TX,79121
Braum's,Pantego,71,#71,3506 Galloway Ave,TX,76013
Braum's,Mesquite,72,#72,701 N 32nd Street,TX,75150
Braum's,Muskogee,73,#73,500 E HWY 303,OK,74401
Braum's,Grand Prairie,74,#74,1706 W Randol Mills Road,TX,75051
Braum's,Arlington,75,#75,410 W 3rd,TX,76012
Braum's,Grove,76,#76,2680 W. Main Street,OK,74344
Braum's,McKinney,77,#77,1800 N Central,TX,75070
Braum's,DeSoto,79,#79,720 E Pleasant Run Road,TX,75115
Braum's,Tulsa,80,#80,1415 S Lewis,OK,74104
Braum's,Hurst,81,#81,861 W Pipeline,TX,76053
Braum's,Van Alstyne,82,#82,848 W. Marshall Drive,TX,75495
Braum's,Denison,83,#83,710 N US HWY 75,TX,75020
Braum's,Fort Worth,84,#84,6770 Bridge Street,TX,76112
Braum's,Enid,85,#85,4202 W Owen Garriott,OK,73703
Braum's,Mesquite,87,#87,219 N Galloway,TX,75149
Braum's,Oklahoma City,88,#88,13925 N MacArthur,OK,73142
Braum's,Lewisville,89,#89,812 S Stemmons,TX,75067
Braum's,Guthrie,90,#90,2218 E Noble,OK,73044
Braum's,Carrollton,91,#91,3400 E Trinity Mills,TX,75006
Braum's,Sherman,92,#92,600 N Travis,TX,75090
Braum's,Cushing,93,#93,1335 E Main,OK,74023
Braum's,Andover,94,#94,401 S. Andover Road,KS,67002
Braum's,Seminole,95,#95,100 W Wrangler Road,OK,74868
Braum's,Shawnee,96,#96,937 N Harrison,OK,74801
Braum's,The Colony,98,#98,5009 Main Street,TX,75056
Braum's,Terrell,99,#99,1100 West Moore,TX,75160
Braum's,Tulsa,100,#100,1545 E 71st Street,OK,74136
Braum's,Commerce,101,#101,1589 HWY 50,TX,75428
Braum's,Greenville,102,#102,6601 Wesley Street,TX,75402
Braum's,Wichita,103,#103,550 E 47th Street South,KS,67216
Braum's,Plano,104,#104,1428 Independence,TX,75075
Braum's,Paris,105,#105,3561 NE Loop 286,TX,75460
Braum's,Claremore,106,#106,1770 S Lynn Riggs,OK,74017
Braum's,Claremore,107,#107,900 North Lynn Riggs,OK,74017
Braum's,Granbury,108,#108,110 HWY 377 East,TX,76048
Braum's,Henryetta,109,#109,816 E Main,OK,74437
Braum's,Bonham,110,#110,1800 North HWY 120,TX,75418
Braum's,Clinton,111,#111,2401 Red Wheat Drive,OK,73601
Braum's,Elk City,113,#113,2022 W 3rd Street,OK,73644
Braum's,Altus,114,#114,2505 N Main,OK,73521
Braum's,Fort Worth,115,#115,6601 Camp Bowie Blvd,TX,76116
Braum's,Sherman,116,#116,2506 HWY 75 N,TX,75090
Braum's,Pryor,117,#117,101 Steve Barry Blvd,OK,74361
Braum's,Norman,118,#118,800 E Lindsey,OK,73071
Braum's,Plano,119,#119,2005 W Parker Road,TX,75023
Braum's,Richardson,120,#120,1260 W Campbell Road,TX,75080
Braum's,Wichita,121,#121,1261 S Rock Road,KS,67207
Braum's,Denton,122,#122,2922 W University,TX,76201
Braum's,Choctaw,123,#123,14205 NE 23rd,OK,73020
Braum's,Fort Worth,124,#124,9050 Camp Bowie W Blvd,TX,76116
Braum's,Purcell,125,#125,2219 HWY 74 S,OK,73080
Braum's,Weatherford,126,#126,323 East Main,OK,73096
Braum's,Arkansas City,127,#127,801 N Summitt,KS,67005
Braum's,Grapevine,128,#128,1300 S Main,TX,76051
Braum's,Durant,129,#129,312 Westside Drive,OK,74701
Braum's,Fort Worth,130,#130,6108 McCart Ave,TX,76133
Braum's,Burleson,131,#131,1085 SW Wilshire Blvd,TX,76028
Braum's,River Oaks,132,#132,4913 Ohio Gardens,TX,76114
Braum's,Woodward,133,#133,2802 Oklahoma Avenue,OK,73801
Braum's,Coffeyville,135,#135,1708 West 11th,KS,67337
Braum's,Mustang,136,#136,333 N Mustang Road,OK,73064
Braum's,Benbrook,137,#137,9001 HWY 377 South,TX,76126
Braum's,Tulsa,138,#138,10934 S Memorial Dr East,OK,74133
Braum's,Waxahachie,139,#139,412 N HWY 77,TX,75165
Braum's,Weatherford,140,#140,1505 S Main,TX,76086
Braum's,Cleburne,141,#141,1305 W Henderson,TX,76033
Braum's,Pauls Valley,142,#142,2702 W Grant Avenue,OK,73075
Braum's,Del City,143,#143,4300 SE 43rd,OK,73115
Braum's,Wichita,144,#144,440 N Tyler Road,KS,67212
Braum's,Oklahoma City,145,#145,436 SW 59th,OK,73109
Braum's,Oklahoma City,146,#146,1129 W Memorial Road,OK,73114
Braum's,Anadarko,147,#147,702 W Petree Road,OK,73005
Braum's,Independence,148,#148,1415 North Pennsylvania Avenue,KS,67301
Braum's,Broken Arrow,149,#149,4702 S Elm Place,OK,74011
Braum's,Tahlequah,150,#150,807 E Downing,OK,74464
Braum's,Midwest City,151,#151,10000 SE 15th,OK,73130
Braum's,Oklahoma City,152,#152,1204 NW 17th,OK,73106
Braum's,Oklahoma City,153,#153,10920 N Rockwell,OK,73162
Braum's,Newcastle,154,#154,414 NW 32nd Street,OK,73065
Braum's,Moore,155,#155,101 SW 19th,OK,73160
Braum's,Owasso,156,#156,11503 E 76th Street North,OK,74055
Braum's,Corsicana,157,#157,1920 W 7th,TX,75110
Braum's,Ennis,158,#158,900 E Ennis Avenue,TX,75119
Braum's,Sulphur Springs,159,#159,1331 Mockingbird Lane,TX,75482
Braum's,Mineral Wells,160,#160,3808 Jacksboro Hwy,TX,76067
Braum's,Paris,161,#161,3201 NE 2nd,TX,75460
Braum's,Wichta Falls,162,#162,2035 Bonham,TX,76310
Braum's,Wichita Falls,163,#163,4711 Southwest Pkwy,TX,76309
Braum's,Arlington,164,#164,2304 Kemp,TX,76016
Braum's,Tulsa,165,#165,4300 Little Road,OK,74133
Braum's,Harrah,166,#166,6574 E 71st Street,OK,73045
Braum's,Tulsa,167,#167,3100 S Harrah Road,OK,74134
Braum's,Derby,168,#168,3126 S 129th E Avenue,KS,67037
Braum's,Broken Arrow,169,#169,2201 N. Rock Road,OK,74014
Braum's,Oklahoma City,170,#170,20200 E 81st Street,OK,73170
Braum's,Wichita,171,#171,11701 S Western,KS,67203
Braum's,Wichita,172,#172,2223 W 21st N,KS,67203
Braum's,Dallas,173,#173,201 North Seneca,TX,75217
Braum's,Rockwall,174,#174,10304 Lake June Road,TX,75087
Braum's,Perry,175,#175,1820 S Goliad,OK,73077
Braum's,Allen,176,#176,2612 Fir Street,TX,75002
Braum's,Burkburnett,177,#177,805 E Main,TX,76354
Braum's,Rowlett,178,#178,1004 Red River Expwy,TX,75088
Braum's,Amarillo,179,#179,3312 Lakeview Pkwy,TX,79107
Braum's,Vernon,180,#180,801 Amarillo Blvd E.,TX,76384
Braum's,Amarillo,181,#181,4220 College,TX,79106
Braum's,Amarillo,182,#182,1700 S. Western,TX,79109
Braum's,Mt Pleasant,183,#183,4629 S. Western,TX,75455
Braum's,Dallas,184,#184,1303 S. Jefferson Ave,TX,75211
Braum's,Canyon,185,#185,4303 W. Illinois Avenue,TX,79015
Braum's,Pampa,186,#186,1101 23rd Street,TX,79065
Braum's,Dumas,187,#187,901 N. Hobert Street,TX,79029
Braum's,Borger,188,#188,1209 S. Dumas Avenue,TX,79007
Braum's,Sulpher,189,#189,300 S. Cedar,OK,73086
Braum's,Norman,190,#190,1526 W. Broadway,OK,73069
Braum's,Sand Springs,191,#191,1002 24th Avenue S.W.,OK,74063
Braum's,Haltom City,192,#192,3950 S HWY 97,TX,76148
Braum's,Cedar Hill,194,#194,5608 Denton Hwy,TX,75104
Braum's,Ada,195,#195,101 Beltline,OK,74820
Braum's,Hugo,196,#196,830 N Country Club,OK,74743
Braum's,Oklahoma City,197,#197,603 E Jackson,OK,73162
Braum's,Colleyville,198,#198,8320 NW Expressway,TX,76034
Braum's,Euless,199,#199,4500 Colleyville Blvd,TX,76039
Braum's,Duncanville,200,#200,309 N Main Street,TX,75137
Braum's,Lake Worth,201,#201,907 S Cockrell Hill Road,TX,76135
Braum's,Tulsa,202,#202,6401 Lake Worth Blvd,OK,74133
Braum's,Hutchinson,203,#203,6527 E 91st Street,KS,67502
Braum's,Flower Mound,204,#204,2807 N Main,TX,75028
Braum's,Salina,205,#205,1025 Cross Timber Road,KS,67401
Braum's,Salina,206,#206,1800 W Crawford,KS,67401
Braum's,McPherson,207,#207,656 S Ohio Street,KS,67460
Braum's,El Dorado,208,#208,2106 E Kansas,KS,67042
Braum's,Arlington,209,#209,1940 W Central,TX,76018
Braum's,Woodward,210,#210,5300 Matlock Road,OK,73801
Braum's,Oklahoma City,211,#211,2403 Williams Avenue,OK,73012
Braum's,Sallisaw,212,#212,2001 NW 164th Street,OK,74955
Braum's,Fort Worth,213,#213,615 S Kerr Blvd,TX,76134
Braum's,Fort Worth,214,#214,1651 Sycamore School Road,TX,76137
Braum's,Fort Worth,215,#215,6450 North Freeway,TX,76133
Braum's,Pittsburg,216,#216,7212 S Hulen,KS,66762
Braum's,Poteau,217,#217,515 S. BDWY,OK,74953
Braum's,Kingfisher,218,#218,1505 N BDWY,OK,73750
Braum's,Edmond,219,#219,1306 S Main,OK,73034
Braum's,Bentonville,220,#220,1301 W I-35 Frontage,AR,72712
Braum's,Siloam Springs,221,#221,1119 N Walton Blvd,AR,72761
Braum's,Neosho,222,#222,551 Highway 412 W,MO,64850
Braum's,Parsons,223,#223,520 S Neosho Blvd,KS,67357
Braum's,Shawnee,224,#224,500 E Main,OK,74804
Braum's,Idabel,225,#225,4735 N. Kickapoo,OK,74745
Braum's,Alma,226,#226,801 SE Washington Street,AR,72921
Braum's,Rogers,227,#227,129 HWY 71 North,AR,72756
Braum's,Ft Smith,228,#228,1102 W Walnut,AR,72901
Braum's,Ft Smith,229,#229,1500 Zero Street,AR,72903
Braum's,Norman,230,#230,7701 E Rogers Street,OK,73072
Braum's,Fayetteville,231,#231,1235 Interstate Drive,AR,72703
Braum's,Springdale,232,#232,2511 N College,AR,72764
Braum's,Fort Worth,233,#233,907 S Thompson,TX,76110
Braum's,Fayetteville,234,#234,2509 8th Avenue,AR,72701
Braum's,Madill,235,#235,1894 W 6th,OK,73446
Braum's,Winfield,236,#236,825 S 1st,KS,67156
Braum's,Forest Hills,237,#237,509 E 9th,TX,76140
Braum's,Springdale,238,#238,3320 SW Loop 820,AR,72762
Braum's,Joplin,239,#239,4374 W Sunset,MO,64801
Braum's,Vinita,240,#240,3501 N Range Line,OK,74301
Braum's,Yukon,241,#241,715 E Illinois,OK,73099
Braum's,Wellington,242,#242,1304 S 11th Street,KS,67152
Braum's,Ft Smith,243,#243,911 W 8th Street,AR,72903
Braum's,Lawton,244,#244,4418 W Rogers Avenue,OK,73501
Braum's,Vanburen,245,#245,1211 SW Lee Blvd,AR,72956
Braum's,Mansfield,246,#246,1600 Fayettevile Road,TX,76063
Braum's,Carthage,247,#247,1711 N HWY 157,MO,64836
Braum's,Oklahoma City,248,#248,325 S Garrison,OK,73128
Braum's,Fort Worth,249,#249,200 S Council,TX,76107
Braum's,Wagoner,250,#250,100 University Drive,OK,74477
Braum's,Miami,251,#251,407 S Dewey,OK,74354
Braum's,Monett,252,#252,2205 n Main,MO,65708
Braum's,Bentonville,253,#253,837 Highway 60,AR,72712
Braum's,Irving,254,#254,2305 SE Walton Blvd,TX,75060
Braum's,Dallas,255,#255,1701 E Shady Grove Road,TX,75234
Braum's,Dallas,256,#256,3441 Forest Lane,TX,75243
Braum's,Dallas,257,#257,9755 Greenville Avenue,TX,75209
Braum's,Tyler,258,#258,3602 Inwood Road,TX,75703
Braum's,Denton,259,#259,3635 Troup Hwy 110,TX,76205
Braum's,Decatur,260,#260,529 I-35 E South,TX,76234
Braum's,McAlester,261,#261,701 S Washburn,OK,74501
Braum's,Dallas,262,#262,625 S George Nigh,TX,75252
Braum's,Tulsa,263,#263,17879 Preston Road,OK,74133
Braum's,Emporia,264,#264,10107 E 71st Street,KS,66801
Braum's,Tyler,265,#265,1028 W 6th Street,TX,75703
Braum's,Wichita,266,#266,7101 S Broadway,KS,67226
Braum's,Tulsa,267,#267,3641 N Rock Road,OK,74127
Braum's,Athens,268,#268,317 N Gilcrease Museum Road,TX,75751
Braum's,Ardmore,269,#269,712 E Tyler Street,OK,73401
Braum's,Great Bend,270,#270,1021 Holiday Drive,KS,67530
Braum's,Springfield,271,#271,4209 10th Street,MO,65803
Braum's,Springfield,272,#272,2555 N Kansas Expressway,MO,65802
Braum's,Springfield,273,#273,1401 W Sunshine,MO,65807
Braum's,Springfield,274,#274,604 N Glenstone,MO,65807
Braum's,Nixa,275,#275,4125 S National,MO,65714
Braum's,Broken Arrow,276,#276,407 N Massey,OK,74012
Braum's,Allen,277,#277,2201 S Aspen Avenue,TX,75013
Braum's,Liberal,278,#278,1222 W McDermott Drive,KS,67901
Braum's,Guymon,279,#279,1500 N Kansas Avenue,OK,73942
Braum's,Muskogee,280,#280,1850 Hwy 64 North,OK,74403
Braum's,Lawton,281,#281,2909 Old Shawnee Road,OK,73501
Braum's,Aurora,282,#282,2202 E Gore Blvd,MO,65605
Braum's,Springfield,283,#283,3030 S. Elliott Avenue,MO,65807
Braum's,Ozark,284,#284,2617 W Republic Road,MO,65721
Braum's,Wichita Fall,285,#285,1880 James River Road,TX,76302
