keywords,city,Aggdata Store Number,store_number,address,state,zip_code
Burlington Coat Factory,Bayamon,2,COA00002,1501 W. Zellman Court,WI,53221-5253
Burlington Coat Factory,Milwaukee,3,COA00003,705 Granite Street,MA,21845-5328
Burlington Coat Factory,Braintree,5,COA00005,40 Route 46 West,NJ,07058-9383
Burlington Coat Factory,Pinebrook,6,COA00006,651 Route 17 South Suite 2,NJ,07652-3113
Burlington Coat Factory,Paramus,7,COA00007,5202 W Baltimore Avenue,PA,19018
Burlington Coat Factory,Clifton Heights,8,COA00008,2199 Nesconset Highway,NY,11790
Burlington Coat Factory,Stony Brook,9,COA00009,840 Scranton-Carbondale,PA,18403-1018
Burlington Coat Factory,Eynon,12,COA000012,3200 Donnell Drive,MD,20747-3290
Burlington Coat Factory,Forestville,13,COA000013,3524 S. Jefferson Street,VA,22041-3119
Burlington Coat Factory,Baileys Crossroads,14,COA000014,5766 Bufford Highway Ne,GA,30340-1207
Burlington Coat Factory,Doraville,15,COA000015,1255 Roswell Road NE,GA,30062-3610
Burlington Coat Factory,Marietta,19,COA000019,30 West Rand Road,IL,60004-3141
Burlington Coat Factory,Arlington Heights,22,COA000022,800 Barnum Ave Cutoff,CT,06614-5028
Burlington Coat Factory,Stratford,23,COA000023,268-276 Bridge Approach,CT,06320-2641
Burlington Coat Factory,New London,24,COA000024,29720 Southfield Road,MI,48076-2088
Burlington Coat Factory,Southfield,25,COA000025,39200 Van Dyke Ave,MI,48313-4617
Burlington Coat Factory,Sterling Heights,26,COA000026,174 W. Roosevelt Rd,IL,60181-3504
Burlington Coat Factory,Villa Park,27,COA000027,321 A. Speen Street,MA,01760-1506
Burlington Coat Factory,Natick,32,COA000032,5100 Park Ave,TN,38117-5706
Burlington Coat Factory,Memphis,34,COA000034,60 Newport Ave Route 1,RI,02916-2068
Burlington Coat Factory,East Providence,35,COA000035,4094 Merle Hay Road,IA,50310-1310
Burlington Coat Factory,Des Moines,41,COA000041,6875 Southland Drive,OH,44130-3608
Burlington Coat Factory,Middleburg Heights,42,COA000042,3022 High Point Road,NC,27403-3653
Burlington Coat Factory,Greensboro,43,COA000043,3131 Forest Lane Suite 400,TX,75234-2730
Burlington Coat Factory,Dallas,44,COA000044,3333 W. Henrietta Rd,NY,14623-3543
Burlington Coat Factory,Rochester,45,COA000045,9321 Telegraph Road,MI,48239-1260
Burlington Coat Factory,Redford,46,COA000046,8225 E. Kellogg Drive,KS,67207-1811
Burlington Coat Factory,Wichita,47,COA000047,719 Thompson Lane Sp 20,TN,37204-3624
Burlington Coat Factory,Nashville,48,COA000048,"20801 Miles Road, One Randall Park Mall Room 601",OH,44128-4527
Burlington Coat Factory,North Randall,49,COA000049,2801 E. Market Street,PA,17402-2406
Burlington Coat Factory,York,50,COA000050,880 S. Military Highway,VA,23464-3521
Burlington Coat Factory,Virginia Beach,55,COA000055,7030 Memorial Drive,OK,74133-2000
Burlington Coat Factory,Tulsa,58,COA000058,3700 Highway 100 South,MN,55416-2516
Burlington Coat Factory,Saint Louis Park,59,COA000059,2035 South Robert Street,MN,55118-3924
Burlington Coat Factory,West Saint Paul,60,COA000060,2025 Zeier Road,WI,53704-7419
Burlington Coat Factory,Madison,61,COA000061,9040 N Greenbay Rd,WI,53209-1205
Burlington Coat Factory,Brown Deer,62,COA000062,1551 Niagara Falls Blvd,NY,14228-2703
Burlington Coat Factory,Amherst,63,COA000063,20030 West 151 Street,KS,66061-7229
Burlington Coat Factory,Olathe,65,COA000065,1025 West Patrick Street,MD,21702-3903
Burlington Coat Factory,Frederick,69,COA000069,5001 Montgomery NE,NM,87109-1308
Burlington Coat Factory,Albuquerque,70,COA000070,8320 South Cicero Ave,IL,60459-2801
Burlington Coat Factory,Burbank,72,COA000072,2090 Lincoln Hwy E,PA,17602-3395
Burlington Coat Factory,Lancaster,74,COA000074,1213 Buck Jones Road,NC,27606-3326
Burlington Coat Factory,Raleigh,78,COA000078,8055 West Bowles Ave 1A,CO,80123-3089
Burlington Coat Factory,Littleton,79,COA000079,5976 South State Street,UT,84107-7223
Burlington Coat Factory,Murray,80,COA000080,One Plaza Drive,IL,62208-2025
Burlington Coat Factory,Fairview Heights,82,COA000082,4801 McKnight Road Room # 42,PA,15237-3423
Burlington Coat Factory,Pittsburgh,83,COA000083,330 Mall Annex,PA,15146-2229
Burlington Coat Factory,Monroeville,84,COA000084,345-365 Rockaway Tpke UNIT #290,NY,11559-1030
Burlington Coat Factory,Lawrence,85,COA000085,275 Hartz Way,NJ,07094-1908
Burlington Coat Factory,Secaucus,91,COA000091,6500 Reistertown Road,MD,21215
Burlington Coat Factory,Baltimore,92,COA000092,2122 Miamisburg-Centerville Road,OH,45459-3815
Burlington Coat Factory,Dayton,98,COA000098,989 Route 1 South,NJ,08902-2712
Burlington Coat Factory,N. Brunswick,100,COA0000100,4790 Everhard Rd NW,OH,44718-2411
Burlington Coat Factory,Canton,101,COA0000101,51 Gusabel Avenue,NH,03063-3237
Burlington Coat Factory,Nashua,107,COA0000107,1239 Shreveport Barksdale Hwy,LA,71105-2404
Burlington Coat Factory,Shreveport,108,COA0000108,1116 East Stone Drive,TN,37660-3363
Burlington Coat Factory,Kingsport,110,COA0000110,6200 Greenbelt Road,MD,20770-1091
Burlington Coat Factory,Greenbelt,111,COA0000111,2101 Barrett Station Road,MO,63131-1606
Burlington Coat Factory,Des Peres,112,COA0000112,12575 West Capitol Drive,WI,53005-2469
Burlington Coat Factory,Brookfield,113,COA0000113,5330 Chouteau Trafficway,MO,64119-2510
Burlington Coat Factory,Kansas City,114,COA0000114,899 Howard Street,CA,94103-3037
Burlington Coat Factory,San Francisco,117,COA0000117,4128 Baldwin Road #A 401,MI,48326-1223
Burlington Coat Factory,Auburn Hills,118,COA0000118,9125 S.W. Cascade Ave Suite 150,OR,97008-7175
Burlington Coat Factory,Beaverton,119,COA0000119,24111 Highway 99,WA,98026-9139
Burlington Coat Factory,Edmonds,121,COA0000121,22331 Eureka Road,MI,48180-6016
Burlington Coat Factory,Taylor,123,COA0000123,297 N. Seven Oaks Drive,TN,37922-2373
Burlington Coat Factory,Knoxville,125,COA0000125,697 Westhill Blvd,WI,54914-5784
Burlington Coat Factory,Appleton,126,COA0000126,1 Padanaram Road,CT,06811-4836
Burlington Coat Factory,Danbury,127,COA0000127,1329 Augusta West Pkwy,GA,30909-6428
Burlington Coat Factory,Augusta,128,COA0000128,302 Bush River Road,SC,29210-7311
Burlington Coat Factory,Columbia,129,COA0000129,9167 Roosevelt Blvd,PA,19114-2204
Burlington Coat Factory,Philadelphia,130,COA0000130,2525 Pionono Ave,GA,31206-3167
Burlington Coat Factory,Macon,131,COA0000131,9101 West Markham St,AR,72205-2215
Burlington Coat Factory,Little Rock,134,COA0000134,1600 Saratoga Ave,CA,95129-5101
Burlington Coat Factory,San Jose,137,COA0000137,47100 Community Place Dr Suite 101,VA,20164-1826
Burlington Coat Factory,Sterling,138,COA0000138,130-A East Altamonte Drive,FL,32701-4301
Burlington Coat Factory,Altamonte Springs,139,COA0000139,6303 West Broad Street,VA,28230-2009
Burlington Coat Factory,Richmond,140,COA0000140,2425 S. MacArthur Blvd,IL,62704-4505
Burlington Coat Factory,Springfield,141,COA0000141,7980 Plaza Blvd,OH,44060-5517
Burlington Coat Factory,Mentor,143,COA0000143,1729 Beam Avenue,MN,55109-1128
Burlington Coat Factory,Maplewood,146,COA0000146,4208 West 211th Street,IL,60443-2444
Burlington Coat Factory,Matteson,147,COA0000147,1615 Montgomery Hwy,AL,35216-4917
Burlington Coat Factory,Birmingham,148,COA0000148,6000 Lake Gray Blvd Suite 29-30,FL,32244-5871
Burlington Coat Factory,Jacksonville,149,COA0000149,1401 Sam Rittenburg Blvd,SC,29407-5031
Burlington Coat Factory,Charleston,156,COA0000156,4000 Oxford Drive,PA,15102-1840
Burlington Coat Factory,Bethel Park,159,COA0000159,7201 Fairview Ave,ID,83704-8510
Burlington Coat Factory,Boise,160,COA0000160,3750 Virginia Beach Blvd Suite 26,VA,23452-3411
Burlington Coat Factory,Virginia Beach,161,COA0000161,4020-160 Capital Blvd,NC,27604-3450
Burlington Coat Factory,Raleigh,162,COA0000162,2614 Golf Road,IL,60025-4744
Burlington Coat Factory,Glenview,164,COA0000164,20 Haywood Road,SC,29607-3476
Burlington Coat Factory,Greenville,165,COA0000165,4522 Fredricksburg Road,TX,78201-6521
Burlington Coat Factory,San Antonio,166,COA0000166,4915 South Cooper Street,TX,76017-5930
Burlington Coat Factory,Arlington,167,COA0000167,1920 West Dimond Blvd,AK,99515-1419
Burlington Coat Factory,Anchorage,169,COA0000169,4247 Union Deposit Road,PA,17111-2802
Burlington Coat Factory,Harrisburg,171,COA0000171,461 Boardman-Canfield,OH,44512-4704
Burlington Coat Factory,Youngstown,172,COA0000172,1895 South Road,NY,12601-6031
Burlington Coat Factory,Poughkeepsie,175,COA0000175,7777 Edinger Street #128,CA,92647-3639
Burlington Coat Factory,Huntington Beach,176,COA0000176,3286 Crain Highway,MD,20602-4813
Burlington Coat Factory,Waldorf,177,COA0000177,5858 S. Padre Island Drive,TX,78412-3900
Burlington Coat Factory,Corpus Christi,179,COA0000179,4105 Century Blvd,CA,94565-7102
Burlington Coat Factory,Pittsburg,181,COA0000181,2728 West Peoria Ave,AZ,85029-5202
Burlington Coat Factory,Phoenix,182,COA0000182,99 Southgate Ave,CA,94015-1415
Burlington Coat Factory,Daly City,183,COA0000183,1000 LaPlaya Drive,CA,94545-2122
Burlington Coat Factory,Hayward,186,COA0000186,340 East University Pkwy,UT,84058-7602
Burlington Coat Factory,Orem,188,COA0000188,7685 Sudley Road,VA,20109-2811
Burlington Coat Factory,Manassas,190,COA0000190,500 East Expressway #83,TX,78503-1615
Burlington Coat Factory,McAllen,191,COA0000191,339 Sixth Avenue,PA,15222-2517
Burlington Coat Factory,Pittsburgh,193,COA0000193,55 Brick Blvd,NJ,08723-7922
Burlington Coat Factory,Brick,195,COA0000195,1201 South Baldwin Ave,CA,91007-7582
Burlington Coat Factory,Arcadia,197,COA0000197,1563 Franklin Mills Circle,PA,19154-3132
Burlington Coat Factory,Philadelphia,198,COA0000198,6104 Grand Avenue,IL,60031-1650
Burlington Coat Factory,Gurnee,199,COA0000199,2700 Potomac Mills Circle Suite 445,VA,22192-4625
Burlington Coat Factory,Prince Williams,200,COA0000200,21880 Hawthorne Blvd #395,CA,90503-7000
Burlington Coat Factory,Torrance,201,COA0000201,10506 SE 82nd Ave,OR,97086-2314
Burlington Coat Factory,Happy Valley,203,COA0000203,121 West Parker Road,TX,75075-6901
Burlington Coat Factory,Plano,204,COA0000204,5863 East Circle Drive Suite 10,NY,13039-8654
Burlington Coat Factory,Cicero,205,COA0000205,4500 South Damen Avenue,IL,60609-3013
Burlington Coat Factory,Chicago,206,COA0000206,4500 San Bernardo Ave Suite A,TX,78041-5718
Burlington Coat Factory,Laredo,207,COA0000207,2060 Plank Road,VA,22401-5104
Burlington Coat Factory,Fredericksburg,209,COA0000209,12801 West Sunrise Blvd,FL,33323-4020
Burlington Coat Factory,Sunrise,213,COA0000213,5959 West Sahara Avenue,NV,89146-3126
Burlington Coat Factory,Las Vegas,214,COA0000214,9127 Hillcrest Road,MO,64138-3744
Burlington Coat Factory,Kansas City,215,COA0000215,1955 East Joppa Road Floor #2 Bldg B,MD,21234-2733
Burlington Coat Factory,Baltimore,217,COA0000217,441 Western Avenue,ME,04106-1705
Burlington Coat Factory,South Portland,220,COA0000220,196 East Maine Street,NY,11772-3159
Burlington Coat Factory,Patchogue,224,COA0000224,1400 Great Mall Drive,CA,95035-8038
Burlington Coat Factory,Milpitas,225,COA0000225,1600 Asusa Ave Space #250,CA,91748-1674
Burlington Coat Factory,City of Industry,226,COA0000226,2495 US Route 1 Suite 1,NJ,08648-4099
Burlington Coat Factory,Lawrenceville,228,COA0000228,20740 Gulf Freeway Suite 90,TX,77598-4800
Burlington Coat Factory,Webster,230,COA0000230,25813 US Highway 19 N.,FL,33763-2034
Burlington Coat Factory,Clearwater,231,COA0000231,9632 Airline Highway,LA,70815-5505
Burlington Coat Factory,Baton Rouge,232,COA0000232,8415 FM 1960 W,TX,77070-5609
Burlington Coat Factory,Houston,235,COA0000235,707 Sixth Ave,NY,10010-5105
Burlington Coat Factory,New York,236,COA0000236,2000 Diamond Hill Road,RI,02895-1554
Burlington Coat Factory,Woonsocket,238,COA0000238,480 Boston Road,MA,01821-2709
Burlington Coat Factory,Billerica,239,COA0000239,4750 South Eastern Ave,NV,89119-6195
Burlington Coat Factory,Las Vegas,249,COA0000249,"3919 Lafayette Road, Unit 400",IN,46254-2531
Burlington Coat Factory,Indianapolis,253,COA0000253,7325 West 88th Ave,CO,80021-6486
Burlington Coat Factory,Westminster,255,COA0000255,6600 Middle Fiskville Road,TX,78752-4315
Burlington Coat Factory,Austin,256,COA0000256,8924 Jewella Road,LA,71118-2117
Burlington Coat Factory,Shreveport,257,COA0000257,296 Greece Ridge Center Drive,NY,14626-2817
Burlington Coat Factory,Rochester,258,COA0000258,3324 Williams Blvd,LA,70065-3802
Burlington Coat Factory,Kenner,259,COA0000259,1101 Super Mall Way Suite 1126,WA,98001-6511
Burlington Coat Factory,Auburn,260,COA0000260,229 Route 73 South,NJ,08053-4122
Burlington Coat Factory,Marlton,261,COA0000261,590 West 49th Street,FL,33012-3605
Burlington Coat Factory,Hialeah,264,COA0000264,22835 Victory Blvd,CA,91307-3531
Burlington Coat Factory,West Hills,265,COA0000265,9824 Atlantic Blvd,FL,32225-6536
Burlington Coat Factory,Jacksonville,266,COA0000266,2841 Greenbriar Pkwy SW,GA,30331-2620
Burlington Coat Factory,Atlanta,269,COA0000269,24 Wayne Hills Mall,NJ,07470-3228
Burlington Coat Factory,Wayne,272,COA0000272,59 University Plaza,DE,19702-1549
Burlington Coat Factory,Newark,273,COA0000273,2208 South Harlem Ave,IL,60546-1413
Burlington Coat Factory,North Riverside,274,COA0000274,4777 Mills Circle,CA,91764-5224
Burlington Coat Factory,Ontario,276,COA0000276,8661 Colesville Road,MD,20910-3924
Burlington Coat Factory,Silver Springs,277,COA0000277,6480 Winchester Avenue,TN,38115-4241
Burlington Coat Factory,Memphis,278,COA0000278,3962 Clairemont Mesa Blvd,CA,92117-2714
Burlington Coat Factory,San Diego,279,COA0000279,2385 Cheltenham Ave & Washington Lane,PA,19150-1506
Burlington Coat Factory,Philadelphia,282,COA0000282,47 Spring Street,PA,18702-5565
Burlington Coat Factory,Wilkes Barre,284,COA0000284,7451 Peach Street,PA,16509
Burlington Coat Factory,Erie,285,COA0000285,2753 Center Drive,CA,91791-6612
Burlington Coat Factory,West Covina,286,COA0000286,3000 Grapevine Mills Pkwy Suite 343,TX,76051-2008
Burlington Coat Factory,Grapevine,287,COA0000287,5000 Arizona Mills Circle Suite 525,AZ,85282-6433
Burlington Coat Factory,Tempe,288,COA0000288,16895 S Torrance Road,IL,60438-6019
Burlington Coat Factory,Lansing,289,COA0000289,Castleton Crossing 5470 East 82nd Street,IN,46250
Burlington Coat Factory,Indianapolis,290,COA0000290,1516 South Lake Parkway,GA,30260-3021
Burlington Coat Factory,Morrow,294,COA0000294,1675 Willow Pass Road,CA,94520-2649
Burlington Coat Factory,Concord,295,COA0000295,6725 Black Horse Pike,NJ,08234-3904
Burlington Coat Factory,Egg Harbor Twp,297,COA0000297,7001 Crestwood Blvd,AL,35210-2332
Burlington Coat Factory,Birmingham,298,COA0000298,11211 183rd Street,CA,90703-5417
Burlington Coat Factory,Cerritos,299,COA0000299,5630 N. Blackstone,CA,93710-5004
Burlington Coat Factory,Fresno,300,COA0000300,325 Route 202 & Church Street,NJ,08822-1730
Burlington Coat Factory,Flemington,301,COA0000301,28452 Marguerite Parkway,CA,92692-3708
Burlington Coat Factory,Mission Viejo,302,COA0000302,2639 Housley Road Bldg C,MD,21401-7030
Burlington Coat Factory,Annapolis,303,COA0000303,600 N. Frederick Ave,MD,20877-2531
Burlington Coat Factory,Gaithersburg,304,COA0000304,118 Shawan Road,MD,21031-1381
Burlington Coat Factory,Hunt Valley,305,COA0000305,7061 West 159th Street,IL,60477-1603
Burlington Coat Factory,Tinley Park,306,COA0000306,3684 Route 9 North,NJ,07728-8533
Burlington Coat Factory,Freehold,307,COA0000307,370 Route 130 South,NJ,08520-2733
Burlington Coat Factory,Hightstown,309,COA0000309,311 Rohnert Park Expressway,CA,94928-7914
Burlington Coat Factory,Rohnert Park,310,COA0000310,11284 James Swart Circle,VA,22030-5023
Burlington Coat Factory,Fairfax,311,COA0000311,4650 S. Cleveland Ave Suite 13A,FL,33907-1308
Burlington Coat Factory,Fort Myers,312,COA0000312,3168 Airport Road,AL,36606-3803
Burlington Coat Factory,Mobile,313,COA0000313,4220 East McCain Road,AR,72117-2515
Burlington Coat Factory,North Little Rock,314,COA0000314,4015 South Virginia Street,NV,89502-6007
Burlington Coat Factory,Reno,315,COA0000315,900 Manhattan Blvd,LA,70058-4606
Burlington Coat Factory,Harvey,316,COA0000316,13550 Whittier Blvd Suite A,CA,90605-4413
Burlington Coat Factory,Whittier,317,COA0000317,651 Kapkowski Street,NJ,07201-4928
Burlington Coat Factory,Elizabeth,318,COA0000318,8141 Concord Mills Blvd,NC,28027-6457
Burlington Coat Factory,Concord,319,COA0000319,5000 Katy Mills Circle,TX,77494-4402
Burlington Coat Factory,Katy,320,COA0000320,3870 Tyler Street,CA,92503-3431
Burlington Coat Factory,Riverside,322,COA0000322,8204 S. Orange Blossom Trail,FL,32809-7606
Burlington Coat Factory,Orlando,323,COA0000323,4762 Telephone Road,CA,93003-5200
Burlington Coat Factory,Ventura,324,COA0000324,6901 Security Blvd,MD,21244-2412
Burlington Coat Factory,Baltimore,325,COA0000325,4930 Christy Blvd,MO,63116-1218
Burlington Coat Factory,Saint Louis,326,COA0000326,2415 N. Monroe Street Suite 400,FL,32303-4135
Burlington Coat Factory,Tallahasse,327,COA0000327,5901 Route 42 South,NJ,08012-1469
Burlington Coat Factory,Turnersville,328,COA0000328,6747 Hadley Road,NJ,07080-1131
Burlington Coat Factory,South Plainfield,329,COA0000329,650 Stewart Avenue,NY,11530-4780
Burlington Coat Factory,Garden City,330,COA0000330,650 Sycamore Ave,CA,92083-7910
Burlington Coat Factory,Vista,331,COA0000331,2001 Walden Avenue,NY,14225-5113
Burlington Coat Factory,Cheektowaga,333,COA0000333,310 Andover Street,MA,01960-1524
Burlington Coat Factory,Peabody,335,COA0000335,940 Silver Lane,CT,06118-1235
Burlington Coat Factory,East Hartford,336,COA0000336,2898 NW 63rd Street,OK,73116-4804
Burlington Coat Factory,Oklahoma City,337,COA0000337,6260 East State Street,IL,61108-2516
Burlington Coat Factory,Rockford,338,COA0000338,613 South Dugan Road Suite 200,KS,67209-2328
Burlington Coat Factory,Wichita,340,COA0000340,140 Orangefair Mall,CA,92832-3005
Burlington Coat Factory,Fullerton,343,COA0000343,13013 San Pedro Avenue Suite A,TX,78216-2050
Burlington Coat Factory,San Antonio,344,COA0000344,7000 Arundel Mills Circle Suite A1,MD,21076-1298
Burlington Coat Factory,Hanover,345,COA0000345,6020 North Mesa Street Suite A,TX,79912-4606
Burlington Coat Factory,El Paso,346,COA0000346,5652 Grape Road,IN,46545-1246
Burlington Coat Factory,Mishawaka,347,COA0000347,955 West Brandon Avenue,FL,33511-4905
Burlington Coat Factory,Brandon,348,COA0000348,11301 NW 12th Street,FL,33172-6902
Burlington Coat Factory,Miami,349,COA0000349,3950 South Dale Mabry,FL,33611-1404
Burlington Coat Factory,Tampa,350,COA0000350,5500 Sunrise Highway,NY,11758-5399
Burlington Coat Factory,Massapequa,351,COA0000351,7938 El Cajon Blvd,CA,91942-0605
Burlington Coat Factory,La Mesa,352,COA0000352,2920 SW Military Drive Suite A,TX,78224-1034
Burlington Coat Factory,San Antonio,353,COA0000353,7351 Seminole Blvd,FL,33772-5939
Burlington Coat Factory,Seminole,355,COA0000355,555 Center Drive NW,MI,49544-6900
Burlington Coat Factory,Grand Rapids,356,COA0000356,28746 Dequindre Road,MI,48092-5607
Burlington Coat Factory,Warren,357,COA0000357,5900 Sugarloaf Parkway Suite# 605,GA,30043-7853
Burlington Coat Factory,Lawrenceville,358,COA0000358,1375 Ulster Avenue,NY,12401-1514
Burlington Coat Factory,Kingston,359,COA0000359,8310 Pineville Matthews Road,NC,28226-4707
Burlington Coat Factory,Charlotte,361,COA0000361,7770 North Point Blvd,NC,27106-3310
Burlington Coat Factory,Winston Salem,362,COA0000362,80 Boston Post Road,CT,06477-3219
Burlington Coat Factory,Orange,363,COA0000363,2500 Central Park Avenue,NY,10710-1133
Burlington Coat Factory,Yonkers,364,COA0000364,475 E Morrison Road,TX,78520
Burlington Coat Factory,Brownsville,365,COA0000365,510 Howe Avenue,OH,44221-4906
Burlington Coat Factory,Cuyahoga Falls,366,COA0000366,6225 East Southern Avenue,AZ,85206-3714
Burlington Coat Factory,Mesa,367,COA0000367,7611 West Thomas Road,AZ,85033-5433
Burlington Coat Factory,Phoenix,369,COA0000369,6900 Amador Plaza Road,CA,94568-2391
Burlington Coat Factory,Dublin,370,COA0000370,5601 Florin Road Store 101,CA,95823-2204
Burlington Coat Factory,Sacramento,371,COA0000371,1205 Cortez Road West,FL,34207-1471
Burlington Coat Factory,Bradenton,372,COA0000372,3 Stratford Square Mall,IL,60108-2224
Burlington Coat Factory,Bloomingdale,373,COA0000373,3662 West Camp Wisdom Road,TX,75237-2570
Burlington Coat Factory,Dallas,374,COA0000374,5830 North Division Street,WA,99207-1207
Burlington Coat Factory,Spokane,375,COA0000375,2244 University Square Mall,FL,33612-5518
Burlington Coat Factory,Tampa,377,COA0000377,3941 Cattlemen Road,FL,34233-5001
Burlington Coat Factory,Sarasota,379,COA0000379,533 South Broad Street,CT,06450-6661
Burlington Coat Factory,Meriden,389,COA0000389,1083 East Pittsburgh Street,PA,15601-3575
Burlington Coat Factory,Greensburg,390,COA0000390,2001 McHenry Avenue Suite 202,CA,95350-3245
Burlington Coat Factory,Modesto,392,COA0000392,300 Sharpstown Center,TX,77036-5041
Burlington Coat Factory,Houston,393,COA0000393,3500 North Roxboro Rd,NC,27704-2766
Burlington Coat Factory,Durham,394,COA0000394,229 Springer Drive,ME,04401-3622
Burlington Coat Factory,Bangor,400,COA0000400,6125 University Dr NW,AL,35806-1757
Burlington Coat Factory,Huntsville,401,COA0000401,3000 Mountain View Drive,PA,15122-2430
Burlington Coat Factory,West Mifflin,402,COA0000402,6251 West Sample Road,FL,33067-3175
Burlington Coat Factory,Coral Springs,403,COA0000403,4991 Stage Road,TN,38128-5094
Burlington Coat Factory,Memphis,404,COA0000404,2935 Hershberger Road,VA,24017-1943
Burlington Coat Factory,Roanoke,406,COA0000406,833 Lancaster Drive NE,OR,97301-2929
Burlington Coat Factory,Salem,407,COA0000407,101 N. Green River Road,IN,47715-2403
Burlington Coat Factory,Evansville,408,COA0000408,5445 Atlanta Highway,AL,36109-3325
Burlington Coat Factory,Montgomery,409,COA0000409,7901 US Highway 31 South,IN,46227-5906
Burlington Coat Factory,Indianapolis,416,COA0000416,11250 St. Augustine Rd Suite 32,FL,32257-1147
Burlington Coat Factory,Jacksonville,419,COA0000419,2032 Lawrenceville Highway,GA,30033-4330
Burlington Coat Factory,Decatur,422,COA0000422,2661 McArthur Road,PA,18052-3818
Burlington Coat Factory,Whitehall,423,COA0000423,3500 South US Highway 41,IN,47802-4102
Burlington Coat Factory,Terre Haute,424,COA0000424,14346 Warwick Blvd # B,VA,23602-3814
Burlington Coat Factory,Newport News,425,COA0000425,12151 East Colonial Drive,FL,32826-4708
Burlington Coat Factory,Orlando,426,COA0000426,6905 Odana Road,WI,53719-1017
Burlington Coat Factory,Madison Heights,427,COA0000427,13739 Highway 183,TX,78750-1803
Burlington Coat Factory,North Austin,428,COA0000428,2909 Richmond Road,KY,40509-1764
Burlington Coat Factory,Lexington,429,COA0000429,258-01 Union Turnpike,NY,11004-1249
Burlington Coat Factory,Glen Oaks,430,COA0000430,500 E Aurora,OH,44056-1804
Burlington Coat Factory,Macedonia,431,COA0000431,1027 -1035 Market Street,PA,19107-3022
Burlington Coat Factory,Philadelphia (Center City),433,COA0000433,1386 Atwood Avenue,RI,02919-4904
Burlington Coat Factory,Johnston,434,COA0000434,6715 I-35,TX,78744-4801
Burlington Coat Factory,South Austin,435,COA0000435,7575 West 153rd Street,MN,55124-7184
Burlington Coat Factory,Apple Valley,436,COA0000436,380 Cooley Street,MA,01128-1144
Burlington Coat Factory,Springfield,437,COA0000437,1485 Highway 138 SE,GA,30013-1286
Burlington Coat Factory,Conyers,438,COA0000438,1555 South Lake Street,IL,60060-4210
Burlington Coat Factory,Mundelein,439,COA0000439,510 S Rt. 59 #1A,IL,60540-1001
Burlington Coat Factory,Naperville,440,COA0000440,601 Harrry Drive & Reynolds Road,NY,13790-1246
Burlington Coat Factory,Johnson City,441,COA0000441,287 Washington Street,MA,02703-5537
Burlington Coat Factory,South Attleboro,442,COA0000442,"3753 Austell Road, SW",GA,30106-1106
Burlington Coat Factory,Austell,443,COA0000443,344 Greenwood Street,MA,01607-1728
Burlington Coat Factory,Worcester,445,COA0000445,74 Broad Street,CT,06901-2312
Burlington Coat Factory,Stamford,446,COA0000446,"10420 59th Avenue, SW",WA,98499-2766
Burlington Coat Factory,Tacoma,447,COA0000447,339 Squire Road,MA,02151-4309
Burlington Coat Factory,Revere,448,COA0000448,570 North Stephanie Street,NV,89014-6612
Burlington Coat Factory,Henderson,449,COA0000449,10400 Midlothian Turnpike,VA,23235-4408
Burlington Coat Factory,Richmond,450,COA0000450,444 Route 211 E,NY,10940-2192
Burlington Coat Factory,Middletown,451,COA0000451,1716 Jantzen Beach Center,OR,97217-7845
Burlington Coat Factory,Portland,452,COA0000452,5555 St. Louis Mills Blvd Suite 625,MO,63042-4419
Burlington Coat Factory,Hazelwood,453,COA0000453,7475 W Colonial Drive,FL,32818-6508
Burlington Coat Factory,Orlando,455,COA0000455,"Speedway Plaza 290 Turnpike Road, Unit 10",MA,1581
Burlington Coat Factory,Westborough,456,COA0000456,1330 N Town East Blvd,TX,75150-4156
Burlington Coat Factory,Mesquite,457,COA0000457,625 Atlantic Ave,NY,11217-2169
Burlington Coat Factory,Brooklyn,458,COA0000458,4100 W Willow Knolls Drive,IL,61615-4405
Burlington Coat Factory,Peoria,460,COA0000460,233 Broad Street,MA,02324-1741
Burlington Coat Factory,Bridgewater,462,COA0000462,2589 Eric Ln Ste A,NC,27215-5479
Burlington Coat Factory,Burlington,463,COA0000463,12303 W Center Road,NE,68144-3925
Burlington Coat Factory,Omaha,464,COA0000464,3575 W Dublin - Granville Road,OH,43235-7900
Burlington Coat Factory,Columbus,465,COA0000465,10202 E. Washington Street Suite 700,IN,46202-2670
Burlington Coat Factory,Indianapolis,468,COA0000468,31940 Gratiot Avenue,MI,48066-4587
Burlington Coat Factory,Roseville,471,COA0000471,14411 Westheimer Road,TX,77077-5243
Burlington Coat Factory,Houston,474,COA0000474,125 W 87th Street,IL,60620-1304
Burlington Coat Factory,Chicago,475,COA0000475,271 Cottage Grove Road,CT,06002-3148
Burlington Coat Factory,Bloomfield,476,COA0000476,5625 West Saginaw Highway,MI,48917-2490
Burlington Coat Factory,Lansing,477,COA0000477,1801 South Avenue,NY,10314-3646
Burlington Coat Factory,Staten Island,479,COA0000479,50 Storrs Street,NH,03301-4837
Burlington Coat Factory,Concord,480,COA0000480,475 Union Street,CT,06706-1292
Burlington Coat Factory,Waterbury,481,COA0000481,1200 South Abeline Street,CO,80012-4629
Burlington Coat Factory,Aurora,482,COA0000482,2110 Wards Road,VA,24502-5312
Burlington Coat Factory,Lynchburgh,483,COA0000483,3800 28th Street S. E.,MI,49512-1804
Burlington Coat Factory,Grand Rapids,486,COA0000486,1144 Yarbrough Drive,TX,79925-7902
Burlington Coat Factory,El Paso,487,COA0000487,7401 S Shields Blvd.,OK,73149-1516
Burlington Coat Factory,Oklahoma City,488,COA0000488,12005 Northwest Freeway,TX,77092-4901
Burlington Coat Factory,Houston,489,COA0000489,3400 Calle Cuervo NW,NM,87114-9222
Burlington Coat Factory,Albuquerque,490,COA0000490,7500 West Canal Drive,WA,99336-7616
Burlington Coat Factory,Kennewick,491,COA0000491,1725 East Hallandale Beach Blvd,FL,33009-4621
Burlington Coat Factory,Hallandale,492,COA0000492,580 North Lexington Springmill Road Room # 105 A,OH,44906-3822
Burlington Coat Factory,Mansfield,493,COA0000493,3710 Irving Mall,TX,75062-5156
Burlington Coat Factory,Irving,494,COA0000494,3050 N. 5th Highway,PA,19605-2473
Burlington Coat Factory,Reading,495,COA0000495,"323 Old York Road, Unit B",PA,19046-4002
Burlington Coat Factory,Jenkintown,496,COA0000496,600 Northtown Drive,MN,55434-4501
Burlington Coat Factory,Blaine,497,COA0000497,4120 Illinios Road,IN,46804-1208
Burlington Coat Factory,Fort Wayne,520,COA0000520,14045 Abercorn Street,GA,31419-1957
Burlington Coat Factory,Savannah,521,COA0000521,"3175 Westbay Drive, Suite C",MI,48604-2535
Burlington Coat Factory,Saginaw,522,COA0000522,3300 Chambers Road,NY,14845-1404
Burlington Coat Factory,Horeseheads,523,COA0000523,2031 Manheim Road,IL,60160-1003
Burlington Coat Factory,Melrose Park,524,COA0000524,6451 Quivera Road,KS,66216-2745
Burlington Coat Factory,Shawnee Mission,525,COA0000525,4305 13th Avenue South,ND,58103-3309
Burlington Coat Factory,Fargo,526,COA0000526,16301 Ford Road,MI,48126-4146
Burlington Coat Factory,Dearborn,527,COA0000527,"103 W Loop 281, Suite 1000",TX,75605-4663
Burlington Coat Factory,Longview,528,COA0000528,150 Northshore Blvd. #5000,LA,70460-6829
Burlington Coat Factory,Slidell,529,COA0000529,4800 Texoma Parkway,TX,75090-2072
Burlington Coat Factory,Sherman,530,COA0000530,355555 Warren Road,MI,48185-6440
Burlington Coat Factory,Westland,531,COA0000531,300 S. Plano Road,TX,75081-4505
Burlington Coat Factory,Richardson,532,COA0000532,5050 W Waco Drive,TX,76710-7022
Burlington Coat Factory,Waco,533,COA0000533,2322 San Jacinto Blvd,TX,76205-7532
Burlington Coat Factory,Denton,534,COA0000534,820 Citadel Drive East,CO,80909-5305
Burlington Coat Factory,Colorado Springs,536,COA0000536,550 Stateline Road W,MS,38671-1604
Burlington Coat Factory,Southaven,537,COA0000537,1730 Briargate Blvd.,CO,80920-3443
Burlington Coat Factory,Colorado Springs,538,COA0000538,6720 Ring Road,MI,49024-3576
Burlington Coat Factory,Portage,539,COA0000539,3437 Masonic Drive,LA,71301-3688
Burlington Coat Factory,Alexandria,540,COA0000540,7201 Aaron Aronov Drive,AL,35064-1816
Burlington Coat Factory,Fairfield,541,COA0000541,1300 N. Larkin Avenue,IL,60435-3765
Burlington Coat Factory,Joilet,542,COA0000542,1500 Greentree Blvd.,IN,47129-2208
Burlington Coat Factory,Clarksville,543,COA0000543,205 West Greens Road,TX,77067-4603
Burlington Coat Factory,Houston,544,COA0000544,4400 California Avenue,CA,93309-1102
Burlington Coat Factory,Bakersfield,545,COA0000545,1 Crossgates Mall Road Suite A108,NY,12203-5385
Burlington Coat Factory,Albany,546,COA0000546,10 Prospect Hill Terrace,CT,06088-9671
Burlington Coat Factory,East Windsor,547,COA0000547,700 E Hunting Park Avenue,PA,19124-4827
Burlington Coat Factory,Philadelphia,548,COA0000548,5555 Youngstown - Warren Road Unit #2,OH,44446-4821
Burlington Coat Factory,Niles,549,COA0000549,35900 Date Palm Drive,CA,92234-6657
Burlington Coat Factory,Cathederal City,550,COA0000550,5201 S. Hulen Street,TX,76132-1906
Burlington Coat Factory,Ft. Worth,553,COA0000553,3285 S Linden Road,MI,48507-3005
Burlington Coat Factory,Flint,554,COA0000554,3800 US Highway 98 N Suite 510,FL,33809-3866
Burlington Coat Factory,Lakeland,555,COA0000555,3831 Vine Street Suite #33,FL,34741-4651
Burlington Coat Factory,Kissimmee,556,COA0000556,12001 East Freeway (I-10),TX,77029-1915
Burlington Coat Factory,Houston,557,COA0000557,1710 N Kostner Avenue,IL,60639-4073
Burlington Coat Factory,Chicago,558,COA0000558,7201 Two Notch Road,SC,29223-7527
Burlington Coat Factory,Columbia,559,COA0000559,6537 NE Loop 820,TX,76180-6010
Burlington Coat Factory,North Richland Hills,560,COA0000560,1395 Metrocenter Mall,MS,39209-7520
Burlington Coat Factory,Jackson,561,COA0000561,"4200 South Freeway, Suite 1700",TX,76115-1436
Burlington Coat Factory,Ft. Worth,562,COA0000562,103 Marketplace Drive,VA,23666-3163
Burlington Coat Factory,Hampton,563,COA0000563,550 E Danenberg Drive,CA,92243-8510
Burlington Coat Factory,El Centro,564,COA0000564,2201 South Western Street,TX,79109-1517
Burlington Coat Factory,Amarillo,565,COA0000565,6050 Brownfield Road,TX,79407-3726
Burlington Coat Factory,Lubbock,566,COA0000566,1831 SW Wanamaker Road,KS,66604-3822
Burlington Coat Factory,Topeka,567,COA0000567,4700 Millhaven Road,LA,71203-7032
Burlington Coat Factory,Monroe,568,COA0000568,320 West Rancho Vista Blvd,CA,93551-3710
Burlington Coat Factory,Palmdale,569,COA0000569,1509 Nampa Caldwell Blvd Suite #31,ID,83651-8509
Burlington Coat Factory,Nampa,570,COA0000570,2911 George Busbee Parkway,GA,30144-6812
Burlington Coat Factory,Kennesaw,571,COA0000571,3702 East Hammer Lane,CA,95212-2811
Burlington Coat Factory,Stockton,572,COA0000572,3600 Bardstown Road,KY,40218-2206
Burlington Coat Factory,Louisville,573,COA0000573,3150 W Imperial Highway,CA,90303-2809
Burlington Coat Factory,Inglewood,574,COA0000574,65th Infantry Hwy,PR,924
Burlington Coat Factory,Rio Piedras,575,COA0000575,7517 NE Loop 1604 & Interstate 35,TX,78233-2604
Burlington Coat Factory,Live Oak,576,COA0000576,591 East Trenton Road,TX,78539-2931
Burlington Coat Factory,Edinburg,577,COA0000577,50 Holyoke Street,MA,01040-2709
Burlington Coat Factory,Holyoke,578,COA0000578,1008 W International Speedway Blvd,FL,32114-3422
Burlington Coat Factory,Daytona Beach,579,COA0000579,"1450 WO Ezell Blvd, Suite 200",SC,29301-1587
Burlington Coat Factory,Spartanburg,580,COA0000580,9839 Military Trail,FL,33436-3202
Burlington Coat Factory,Boynton Beach,581,COA0000581,6145 San Juan Avenue,CA,95610-5601
Burlington Coat Factory,Citrus Heights,582,COA0000582,900 Commons Drive Unit 414,AL,36306-2268
Burlington Coat Factory,Dothan,583,COA0000583,5538 Durand Avenue,WI,53406-5056
Burlington Coat Factory,Racine,584,COA0000584,"21182 Salmon Run Mall Loop W, Suite 133",NY,13601-2237
Burlington Coat Factory,Watertown,585,COA0000585,"710 Horatio Street, Suite 4",NY,13502-1461
Burlington Coat Factory,Utica,586,COA0000586,3240 Palisades Center Drive,NY,10994-6602
Burlington Coat Factory,West Nyack,587,COA0000587,3140 S 4th Avenue,AZ,85364-8193
Burlington Coat Factory,Yuma,588,COA0000588,5243 Airport Highway,OH,43615-6800
Burlington Coat Factory,Toledo,589,COA0000589,4906 South Carson Street,NV,89701-5562
Burlington Coat Factory,Carson City,590,COA0000590,275 Main Street Suite 4,NY,10601-2440
Burlington Coat Factory,White Plains,591,COA0000591,22400 Shore Center Drive,OH,44123-1610
Burlington Coat Factory,Euclid,592,COA0000592,5245 Ridge Road,OH,45213-2503
Burlington Coat Factory,Cincinnati,593,COA0000593,Interstate 95 & Naamans Road,DE,19703-2396
Burlington Coat Factory,Claymont,594,COA0000594,1901 Terrell Mill Road SE Suite 100,GA,30067-8319
Burlington Coat Factory,Marietta,595,COA0000595,200 Rafael Cordero Avenue - Suite 1360,PR,00725-3740
Burlington Coat Factory,Caguas,596,COA0000596,2840 S Bristol Street,CA,92704-6204
Burlington Coat Factory,Santa Ana,597,COA0000597,300 Lycoming Mall Cyrcly Suite 3021,PA,17756-9802
Burlington Coat Factory,Pennsdale,598,COA0000598,1100 Mall Run Road,PA,15401-2695
Burlington Coat Factory,Uniontown,599,COA0000599,864 Chambersburg Mall,PA,17202-7404
Burlington Coat Factory,Chambersburg,600,COA0000600,155 Route 130 South Suite K,NJ,08077-3375
Burlington Coat Factory,Cinnaminson,731,COA0000731,3701 Branch Avenue,MD,20748-1401
Burlington Coat Factory,Hillcrest Heights,732,COA0000732,18000 Vernier Road,MI,48225-1027
Burlington Coat Factory,Harper Woods,733,COA0000733,7700 Ritchie Highway,MD,21061-4361
Burlington Coat Factory,Glen Burnie,734,COA0000734,"9070 Dixie Highway, Suite 23",KY,40258-1007
Burlington Coat Factory,Louisville,735,COA0000735,4293 Winston Avenue Suite 2,KY,41015-1709
Burlington Coat Factory,Covington,736,COA0000736,6055 East Main Street,OH,43213-3356
Burlington Coat Factory,Columbus,737,COA0000737,"3848 S. Delsea Drive, Ste 300",NJ,08360-7410
Burlington Coat Factory,Vineland,738,COA0000738,5120 Salem Avenue,OH,45426-2042
Burlington Coat Factory,Dayton,739,COA0000739,2516 North Sardis Road,NC,28227-7723
Burlington Coat Factory,Charlotte,740,COA0000740,2301 State Route 66,NJ,07712-3961
Burlington Coat Factory,Ocean Township,741,COA0000741,6900-6902 Chestnut Street #A-1,CA,95020-6635
Burlington Coat Factory,Gilroy,742,COA0000742,6748 Greenfield Avenue,WI,53214-4900
Burlington Coat Factory,West Allis,744,COA0000744,North Second Street,IL,61115-2094
Burlington Coat Factory,Machesney Park,745,COA0000745,233 East Compton Blvd,CA,90220-2412
Burlington Coat Factory,Compton,746,COA0000746,4701 N. Harlem Avenue,IL,60706-4606
Burlington Coat Factory,Harwood Heights,747,COA0000747,1431 Kimberly Road,IA,52722-4131
Burlington Coat Factory,Bettendorf,748,COA0000748,39835 Alta Murietta Drive,CA,92563-5439
Burlington Coat Factory,Murrieta,749,COA0000749,"250 S Randall Road, Unit A",IL,60123-5505
Burlington Coat Factory,Elgin,750,COA0000750,1264 East Gibson Road,CA,95776-6316
Burlington Coat Factory,Woodland,751,COA0000751,800 Almeda Mall,TX,77075-3516
Burlington Coat Factory,Houston,752,COA0000752,181 Mariano S Biship Blvd,MA,02721-2368
Burlington Coat Factory,Fall River,753,COA0000753,2652 E 79th Avenue,IN,46410-5765
Burlington Coat Factory,Merrilville,754,COA0000754,3595 E Broadway Blvd,AZ,85716-5405
Burlington Coat Factory,Tuscon,755,COA0000755,4101 E 42nd Street,TX,79762-7179
Burlington Coat Factory,Odessa,756,COA0000756,720 N Main Street,CA,92880-1439
Burlington Coat Factory,Corona,757,COA0000757,7735 Eastpoint Mall,MD,21224-2118
Burlington Coat Factory,Baltimore,758,COA0000758,2021 Harbison Drive,CA,95687-3904
Burlington Coat Factory,Vacaville,759,COA0000759,555 I Street,CA,91910-5317
Burlington Coat Factory,Chula Vista,760,COA0000760,9175 E Stockton Blvd,CA,95624-9505
Burlington Coat Factory,Moreno Valley,761,COA0000761,12625 Frederick Street - Suite A,CA,92553-5232
Burlington Coat Factory,Chicago,762,COA0000762,11640 S Marshfield Avenue,IL,60643-4903
Burlington Coat Factory,Lauderdale Lakes,763,COA0000763,3333 North State Road 7,FL,33319-5617
Burlington Coat Factory,Canovanas,764,COA0000764,18400 State Road #3,PR,729
Burlington Coat Factory,Crestwood,765,COA0000765,13120 Rivercrest Drive,IL,60445-4452
Burlington Coat Factory,Chino,766,COA0000766,5517 Philadelphia Street,CA,91710-2477
Burlington Coat Factory,Springfield,767,COA0000767,400 S State Road (US-!),PA,19064-1243
Burlington Coat Factory,Apple Valley,768,COA0000768,19131 Bear Valley Road,CA,92308-2701
Burlington Coat Factory,Pinole,769,COA0000769,1350 Fitzgerald Drive,CA,94564-2249
Burlington Coat Factory,Chesapeake,770,COA0000770,4200 Portsmouth Blvd,VA,23321-2100
Burlington Coat Factory,Ponce,771,COA0000771,Miguel a Pou Blvd. KM 26.4,PR,731
Burlington Coat Factory,Garden Grove,772,COA0000772,13092 Harbor Boulevard,CA,92843-1744
Burlington Coat Factory,Thousand Oaks,773,COA0000773,285 N Moorpark Road,CA,91360-4304
Burlington Coat Factory,Lakewood,774,COA0000774,"14500 W Colfax Ave, Unit 365",CO,80401-3245
Burlington Coat Factory,Newark,775,COA0000775,300 Newpark Mall,CA,94560-5201
Burlington Coat Factory,Glen Allen,776,COA0000776,10101 Brooks Road,VA,23059-4225
Burlington Coat Factory,Redlands,777,COA0000777,1520 Industrial Park Ave,CA,92374-2891
Burlington Coat Factory,North Bergen,778,COA0000778,8101 Tonnelle Avenue,NJ,07047-4601
Burlington Coat Factory,Burbank,779,COA0000779,SR 2 and Main Avenue,PR,960
Burlington Coat Factory,Davie,780,COA0000780,245 East Magnolia Boulevard,CA,91052-1130
Burlington Coat Factory,Houston,786,COA0000786,8944 State Road 84,FL,33324-4456
Burlington Coat Factory,Rego Park,787,COA0000787,4400 North Freeway,TX,77020-3604
Burlington Coat Factory,Humble,789,COA0000789,9605 Queens Boulevard,NY,11374-1131
Burlington Coat Factory,Manati,796,COA0000796,9470 FM 1960 Bypass RD W,TX,77338-4034
Burlington Coat Factory,Lafayette,803,COA0000803,119 State Roade # 2,PR,674
Burlington Coat Factory,Bronx,809,COA0000809,3300 Ambassador Caffery Parkway,LA,70506-7522
Burlington Coat Factory,Royal Palm Beach,810,COA0000810,"700 Exterior Street, Suite 302A",NY,10451-2051
Burlington Coat Factory,Pearland,811,COA0000811,10101 Southern Boulevard,FL,33411-4336
Burlington Coat Factory,Philadelphia,813,COA0000813,1402 E Everett Mall Way,WA,98208
Burlington Coat Factory,Eagle Pass,814,COA0000814,2812 Business Center Drive,TX,77584-2189
Burlington Coat Factory,Charlotte,815,COA0000815,424 W. Oregon Avenue,PA,19148-4605
Burlington Coat Factory,Bayamon,816,COA0000816,455 S. Bibb Avenue,TX,78852-5000
Burlington Coat Factory,Anchorage,817,COA0000817,4726 South Blvd,NC,28217-2151
Burlington Coat Factory,Columbus,818,COA0000818,SR 2 and Main Avenue,PR,960
Burlington Coat Factory,Benton Harbor,819,COA0000819,"3101 Penland Parkway, Suite M-02",AK,99508-1961
Burlington Coat Factory,Killeen,820,COA0000820,"2911 Airport Thruway, Suite A",GA,31909-5380
Burlington Coat Factory,Kirkwood,821,COA0000821,1950 Pipestone Road,MI,49022-2315
Burlington Coat Factory,Cherry Hill,822,COA0000822,2100 South Y.S. Drive,TX,76543-5352
Burlington Coat Factory,Miami,823,COA0000823,1225 South Kirkwood Road,MO,63122-7224
Burlington Coat Factory,Beaumont,824,COA0000824,2232 Route 70,NJ,08002-3343
Burlington Coat Factory,Manteca,825,COA0000825,5737 NW 7th Street,FL,33126-3105
Burlington Coat Factory,Upper Darby,826,COA0000826,6430 Eastex Parkway,TX,77708-4321
Burlington Coat Factory,Woodbridge,828,COA0000828,Mission Ridge Plaza 1055 S. Main Street,CA,95337
Burlington Coat Factory,North Olmsted,829,COA0000829,100 South 69th Street,PA,19082
Burlington Coat Factory,College Park,830,COA0000830,Woodbridge Crossing 465 Green Street,NJ,7095
Burlington Coat Factory,Humacao,831,COA0000831,25859 Great Northern Shopping Center,OH,44070
Burlington Coat Factory,Lilburn,832,COA0000832,Old National Market Place 6385 Old National Highway,GA,30349
Burlington Coat Factory,New York,833,COA0000833,Oriental Plaza Shopping Center State Road 908 KM 1.2 Bo Tejas,PR,791
Burlington Coat Factory,New Port Richey,834,COA0000834,Killian Hill Shopping Center 4051 Stone Mountain Hwy,GA,30047
Burlington Coat Factory,Falls Church,835,COA0000835,4 Union Square South,NY,10003
Burlington Coat Factory,Chicago,836,COA0000836,The Piers Shopping Center 6401 Tacoma Drive,FL,34668
Burlington Coat Factory,Syracuse,837,COA0000837,6350 Seven Corners Center,VA,22044
Burlington Coat Factory,Sanford,838,COA0000838,1 North State Street,IL,60603
Burlington Coat Factory,Cayey,839,COA0000839,9090 Carousel Center,NY,13290
Burlington Coat Factory,Ponce,840,COA0000840,350 Towne Center Circle,FL,32771
Burlington Coat Factory,Haverhill,841,COA0000841,State Road No. 1 KM 56.6,PR,736
Burlington Coat Factory,Conroe,842,COA0000842,"Centro del Sur Mall, Miguel A Poe Blvd. KM 26.4",PR,731
Burlington Coat Factory,Plainfield,844,COA0000844,"Westgate Market Plaza 400 Lowell Avenue, Unit 1",MA,1832
Burlington Coat Factory,Bayamon,846,COA0000846,16590 Interstate 45 South,TX,77384
Burlington Coat Factory,Phoenix,847,COA0000847,The Shops at Metropolis 2575 East Main Street,IN,46168
Burlington Coat Factory,Cincinnati,849,COA0000849,"Santa Rosa Mall, Street #2 & Main Avenue",PR,960
Burlington Coat Factory,Caguas,850,COA0000850,9189 E. Indian Bend Road,AZ,85250
Burlington Coat Factory,Elk Grove,851,COA0000851,Arcadia Crossing 4525 E. Thomas Road,AZ,85018
Burlington Coat Factory,Everett,852,COA0000852,7171 N. Davis Hwy Ste. 400,FL,32514
Burlington Coat Factory,Scottsdale,853,COA0000853,9501 Colerain Avenue,OH,45251
Burlington Coat Factory,Pensacola,854,COA0000854,"1504 Las Americas Expressway PR-52, Zafiro St.",PR,725
Burlington Coat Factory,Harlingen,855,COA0000855,2721 W. Expressway 83,TX,78552
Burlington Coat Factory,Ocala,856,COA0000856,2403 SW 27th Ave,FL,34474
Burlington Coat Factory,Ogden,857,COA0000857,3651 Wall Ave,UT,84405
Burlington Coat Factory,Bronx,860,COA0000860,2543 Webster Ave,NY,10458
Burlington Coat Factory,Overland Park,862,COA0000862,12040 Metcalf Ave,KS,66213
Burlington Coat Factory,Clovis,863,COA0000863,70 West Shaw Ave,CA,93612
Burlington Coat Factory,Port St. Lucie,864,COA0000864,1363 NW St. Lucie West Blvd,FL,34986
Burlington Coat Factory,Sacramento,865,COA0000865,3671 N Freeway Blvd,CA,95834
Burlington Coat Factory,Springdale,866,COA0000866,100 W Kemper Road,OH,45246
Burlington Coat Factory,Independence,867,COA0000867,11910 E. Us Highway 40,MO,64055
Burlington Coat Factory,Danville,868,COA0000868,2917 N. Vermilion St,IL,61832
Burlington Coat Factory,Green Bay,869,COA0000869,1616 West Mason Street,WI,54303
Burlington Coat Factory,New York,870,COA0000870,517 East 117th St,NY,10035
Burlington Coat Factory,Tucson,871,COA0000871,3660 South 16th Ave,AZ,85713
Burlington Coat Factory,Fort Wayne,872,COA0000872,4122 Lima Road,IN,46805
Burlington Coat Factory,Visalia,873,COA0000873,3844 South Mooney Blvd,CA,93277
