keywords,city,Aggdata Store Number,store_number,address,state,zip_code
Cinemark,White City,1426,1426 01426,7501 Crater Lake Hwy,OR,97503
Cinemark,Redding,1427,1427 01427,359 Park Marina Circle,CA,96001
Cinemark,Albuquerque,1428,1428 01428,4591 San Mateo Blvd. Ne,NM,87109
Cinemark,Woodland,1429,1429 01429,1579-a East St,CA,95776
Cinemark,Brownsville,1430,1430 01430,3471 Old Hwy 77,TX,78520
Cinemark,West Valley City,1431,1431 01431,3601 S. 2700 W.Suite E105,UT,84119
Cinemark,Lancaster,1432,1432 01432,44790 Valley Central Way,CA,93534
Cinemark,Indianapolis,1433,1433 01433,1848 E Stop 13 Road,IN,46227
Cinemark,Tulsa,1434,1434 01434,6808 S. Memorial,OK,74133
Cinemark,Indianapolis,1435,1435 01435,10455 East Washington,IN,46229
Cinemark,San Antonio,1436,1436 01436,5063 N.W. Loop 410,TX,78229
Cinemark,Wooster,1437,1437 01437,4108 Burbank Road,OH,44691
Cinemark,Lancaster,1438,1438 01438,3250 West Pleasant Run Rd.,TX,75146
Cinemark,North Little Rock,1439,1439 01439,4188 E. McCain Blvd,AR,72117
Cinemark,Wilmington,1440,1440 01440,1796 W. Newport Pike,DE,19804
Cinemark,Garland,1441,1441 01441,4040 South Shiloh Road,TX,75041
Cinemark,Sand Springs,1442,1442 01442,1112 E. Charles Page Blvd,OK,74063
Cinemark,Ada,1444,1444 01444,1106 North Hills Shopping Centre,OK,74820
Cinemark,Mankato,1445,1445 01445,"1850 Adams St., Suite 15River Hills Mall",MN,56001
Cinemark,Salt Lake City,1446,1446 01446,2227 S. Highland Dr.,UT,84106
Cinemark,Grand Prairie,1447,1447 01447,220 Westchester Parkway,TX,75052
Cinemark,Round Rock,1448,1448 01448,"2132 N. Mays, Ste. 800",TX,78664
Cinemark,Plainview,1449,1449 01449,1001 I-27 N Hwy 70,TX,79072
Cinemark,Sandy,1450,1450 01450,"9539 So. 700 E., Suite 2",UT,84070
Cinemark,Monroe,1451,1451 01451,4700 Millhaven Road Located in the Pecanland Mall,LA,71203
Cinemark,Youngstown,1452,1452 01452,469 Boardman-poland Rd.,OH,44512
Cinemark,Lubbock,1453,1453 01453,5721 58th Street,TX,79424
Cinemark,Big Spring,1454,1454 01454,1801 East FM 700,TX,79720
Cinemark,Corpus Christi,1455,1455 01455,5858 S.P.I.D.,TX,78412
Cinemark,Provo,1456,1456 01456,University Pkwy @ 2230 North,UT,84604
Cinemark,McAllen,1457,1457 01457,100 W. Nolana Loop,TX,78504
Cinemark,Cleburne,1458,1458 01458,1643 W. Henderson St.,TX,76031
Cinemark,Stephenville,1461,1461 01461,2900 West Washington StreetSuite 53,TX,76401
Cinemark,Harlingen,1462,1462 01462,629 North 13th Street,TX,78550
Cinemark,Lynchburg,1464,1464 01464,"3700 Candlers Mountain Road, 700",VA,24502
Cinemark,McAllen,1465,1465 01465,1800 S. 16th Street,TX,78501
Cinemark,Springfield,1466,1466 01466,2850 Gateway St.,OR,97477
Cinemark,North Richland Hills,1467,1467 01467,7560 N.E. Loop 820,TX,76180
Cinemark,Layton,1468,1468 01468,720 West 1500 NorthLayton Hills Mall,UT,84041
Cinemark,Fayetteville,1469,1469 01469,157 Banks Station,GA,30214
Cinemark,Lexington,1470,1470 01470,200 Lexington Green Circle,KY,40503
Cinemark,Danville,1471,1471 01471,4175 Blackhawk Plaza Circle,CA,94526
Cinemark,Tupelo,1472,1472 01472,1001 Barnes Crossing,MS,38804
Cinemark,Chino,1473,1473 01473,5546 Philadelphia St.In The Chino Promenade Shopping Center,CA,91710
Cinemark,Victorville,1474,1474 01474,12353 Mariposa Rd.Just East Of Interstate 15 Off,CA,92392
Cinemark,Summerville,1475,1475 01475,4488 Ladson Road,SC,29485
Cinemark,Warren,1476,1476 01476,28600 Dequindre,MI,48092
Cinemark,Cathedral City,1477,1477 01477,34491 Date Palm Drive,CA,92234
Cinemark,North Canton,1478,1478 01478,6284 Dressler Rd. Nw,OH,44720
Cinemark,Mansfield,1479,1479 01479,498 N. Lexington-Springmill Road,OH,44906
Cinemark,Greensboro,1480,1480 01480,2101 New Garden Road,NC,27410
Cinemark,Ashland,1481,1481 01481,400 Winchester Avenue,KY,41101
Cinemark,Bowling Green,1482,1482 01482,1234 North Main Street,OH,43402
Cinemark,Alliance,1483,1483 01483,2500 W. State St.,OH,44601
Cinemark,Hanford,1484,1484 01484,1669 W. Lacey,CA,93230
Cinemark,Columbus,1485,1485 01485,2570 Bethel Road,OH,43220
Cinemark,Texas City,1488,1488 01488,10000 E.F. Lowry ExpresswayIn The Mall Of The Mainland,TX,77591
Cinemark,Albuquerque,1489,1489 01489,9201 Coors Rd N.W.,NM,87114
Cinemark,College Station,1490,1490 01490,1401 Earl Rudder Frwy South,TX,77845
Cinemark,Erie,1491,1491 01491,1910 Rotunda Drive,PA,16509
Cinemark,Somerdale,1492,1492 01492,Cooper Towne Center711 Evesham Road,NJ,8083
Cinemark,Laredo,1493,1493 01493,5412 San Bernardo1/4 Mile North Of Calton Rd.,TX,78041
Cinemark,Pasadena,1494,1494 01494,2101 E. Beltway 8,TX,77503
Cinemark,McKinney,1495,1495 01495,1701 S. Central Expressway,TX,75069
Cinemark,Plano,1496,1496 01496,1818 Coit Road,TX,75075
Cinemark,Mishawaka,1497,1497 01497,910 W. Edison Rd,IN,46545
Cinemark,Harlingen,1498,1498 01498,401 S. Expressway 83,TX,78550
Cinemark,Lexington,1500,1500 01500,425 Codell Drive,KY,40509
Cinemark,Gahanna,1501,1501 01501,323 Stoneridge Lane,OH,43230
Cinemark,Rochester,1502,1502 01502,2609 West Henrietta Road,NY,14623
Cinemark,Rochester,1503,1503 01503,2291 Buffalo Road,NY,14624
Cinemark,Lewisville,1504,1504 01504,420 Oakbend Dr.,TX,75067
Cinemark,Grapevine,1505,1505 01505,911 State Hwy 114 W,TX,76051
Cinemark,Dallas,1506,1506 01506,11819 Webb Chapel,TX,75234
Cinemark,Arlington,1507,1507 01507,Six Flags Mall2815 E Division St,TX,76011
Cinemark,Redding,1508,1508 01508,980 Old Alturas Rd.,CA,96003
Cinemark,Paris,1509,1509 01509,1225 Ne Loop 286,TX,75460
Cinemark,Matthews,1510,1510 01510,9508 Northeast Court -- Located behind IHOP & Krispy Donuts. Off Highway 74-Independence Boulevard,NC,28105
Cinemark,Weslaco,1511,1511 01511,2113 West Expressway 83,TX,78596
Cinemark,The Woodlands,1512,1512 01512,1600 Lake Robbins,TX,77380
Cinemark,Tracy,1513,1513 01513,3300 N. Naglee Rd.West Valley Mall,CA,95376
Cinemark,Houston,1514,1514 01514,12920 Northwest Freeway,TX,77040
Cinemark,Melrose Park,1515,1515 01515,1001 West North Ave,IL,60160
Cinemark,Austin,1518,1518 01518,S. I-35 North Of Stassney Ln.5501 Ih 35,TX,78744
Cinemark,Del Rio,1519,1519 01519,2205 Veterans Blvd.,TX,78840
Cinemark,North Canton,1520,1520 01520,4720 Mega Street NW,OH,44720
Cinemark,Plano,1521,1521 01521,3800 Dallas Parkway,TX,75093
Cinemark,Boardman,1522,1522 01522,7401 Market Street,OH,44512
Cinemark,Lubbock,1523,1523 01523,2535 82nd St.,TX,79423
Cinemark,Springfield,1524,1524 01524,2900 Gateway,OR,97477
Cinemark,El Paso,1525,1525 01525,11855 Gateway West,TX,79936
Cinemark,Benton,1526,1526 01526,17314 I-30,AR,72015
Cinemark,Bourbonnais,1527,1527 01527,1600 North State Route 50,IL,60914
Cinemark,Ogden,1528,1528 01528,"3651 Wall Avenue, Newgate Mall",UT,84405
Cinemark,El Paso,1529,1529 01529,7440 Remcon Circle,TX,79912
Cinemark,Pflugerville,1530,1530 01530,"15436 F.M. 1825, I-35 N. @ FM 1825",TX,78660
Cinemark,Salisbury,1531,1531 01531,"305 Faith Rd. , Innes Street Market",NC,28146
Cinemark,Kenosha,1532,1532 01532,"7101 70th Court, Southport Plaza",WI,53142
Cinemark,Louisville,1533,1533 01533,4400 Towne Center Drive,KY,40241
Cinemark,Amarillo,1535,1535 01535,9100 Canyon Drive,TX,79119
Cinemark,Colorado Springs,1536,1536 01536,1545 E. Cheyenne Mountain Blvd.,CO,80906
Cinemark,Pueblo,1537,1537 01537,"4140 North Freeway, Eagleridge Shopping Center",CO,81008
Cinemark,North Aurora,1538,1538 01538,320 South Lincolnway,IL,60542
Cinemark,Plano,1539,1539 01539,7201 N Central Expressway,TX,75025
Cinemark,Shreveport,1540,1540 01540,8400 Millicent Way,LA,71105
Cinemark,Oklahoma City,1541,1541 01541,6001 Martin Luther King Blvd.,OK,73111
Cinemark,Medford,1542,1542 01542,651 Medford Center,OR,97501
Cinemark,West Monroe,1543,1543 01543,220 Blanchard,LA,71291
Cinemark,Jacinto City,1544,1544 01544,11450 East Freeway,TX,77029
Cinemark,Macedonia,1545,1545 01545,8161 Macedonia Commons Bl,OH,44056
Cinemark,Merriam,1546,1546 01546,5500 Antioch,KS,66202
Cinemark,Jacksonville,1547,1547 01547,4535 Southside Blvd,FL,32216
Cinemark,Mission,1548,1548 01548,2422 East Expressway 83,TX,78572
Cinemark,Chico,1549,1549 01549,"801 East Ave, Suite 2",CA,95926
Cinemark,Fayetteville,1550,1550 01550,134 Pavilion Parkway,GA,30214
Cinemark,Ames,1551,1551 01551,1317 Buckeye Ave,IA,50010
Cinemark,Tulsa,1552,1552 01552,10802 E 71st St South,OK,74133
Cinemark,Katy,1553,1553 01553,1030 W. Grand Parkway N.,TX,77449
Cinemark,Kansas City,1554,1554 01554,526 Nichols Rd.,MO,64112
Cinemark,Pearl,1555,1555 01555,411 Riverwind Drive,MS,39208
Cinemark,Gulfport,1556,1556 01556,15171 Crossroads Pkwy,MS,39503
Cinemark,Woodridge,1557,1557 01557,6500 Route 53,IL,60517
Cinemark,Bristol,1558,1558 01558,3004 Linden Drive,VA,24202
Cinemark,San Angelo,1559,1559 01559,4425 Sherwood Way,TX,76904
Cinemark,Moosic,1560,1560 01560,40 Glenmaura National Blvd.,PA,18507
Cinemark,Lancaster,1561,1561 01561,2600 W. Ave. I,CA,93536
Cinemark,Valley View,1562,1562 01562,6001 Canal Road,OH,44125
Cinemark,Orlando,1563,1563 01563,5150 International Drive,FL,32819
Cinemark,Provo,1564,1564 01564,1200 Towne Centre Blvd.,UT,84601
Cinemark,Sierra Vista,1566,1566 01566,2175 El Mercado Loop,AZ,85635
Cinemark,Webster,1567,1567 01567,"20915 Gulf Freeway, Exit FM 528",TX,77598
Cinemark,Norfolk,1568,1568 01568,880 North Military Hwy,VA,23502
Cinemark,Colorado Springs,1569,1569 01569,3305 Cinema Point,CO,80922
Cinemark,Fort Collins,1570,1570 01570,4721 South Timberline Rd,CO,80525
Cinemark,Victoria,1571,1571 01571,7806 Navarro,TX,77904
Cinemark,Brownsville,1572,1572 01572,2370 North Expressway In The Sunrise Mall,TX,78521
Cinemark,Ames,1573,1573 01573,2801 Grand AvenueNorth Grand Mall,IA,50010
Cinemark,Hadley,1574,1574 01574,367 Russell St,MA,1035
Cinemark,Mishawaka,1575,1575 01575,6424 North Grape Rd.,IN,46545
Cinemark,Athens,1577,1577 01577,218 Wood St.,TX,75751
Cinemark,Asheboro,1579,1579 01579,400 Randolph Mall,NC,27203
Cinemark,Sherman,1580,1580 01580,3310 Town Center Street,TX,75092
Cinemark,Victorville,1581,1581 01581,14470 Bear Valley Rd,CA,92392
Cinemark,Ontario,1582,1582 01582,2355 Walker Lake Rd,OH,44906
Cinemark,American Fork,1583,1583 01583,715 West 180 North,UT,84003
Cinemark,Monaca,1584,1584 01584,99 Wagner Road,PA,15061
Cinemark,Myrtle Beach,1585,1585 01585,2100 Coastal Grand Circle,SC,29577
Cinemark,Greeley,1586,1586 01586,2160 Greeley Mall,CO,80631
Cinemark,Long Beach,1587,1587 01587,99 South Pine Avenue,CA,90802
Cinemark,Lake Charles,1588,1588 01588,548 West Prien Lake Road,LA,70601
Cinemark,Cedar Hill,1589,1589 01589,280 Uptown Blvd,TX,75104
Cinemark,Texarkana,1590,1590 01590,4230 St. Michael Drive,TX,75503
Cinemark,Helena,1591,1591 01591,750 Great Northern Blvd,MT,59601
Cinemark,Rockwall,1592,1592 01592,2125 Summer Lee,TX,75032
Cinemark,Wichita Falls,1593,1593 01593,2915 Glenwood Blvd Parker Square 14,TX,76308
Cinemark,Eagle Pass,1594,1594 01594,"Located at the Mall de Las Aguilas455 South Bibb Street, Suite 2005",TX,78852
Cinemark,The Woodlands,1595,1595 01595,9595 Six Pines Dr. 8200,TX,77380
Cinemark,Tarentum,1596,1596 01596,425 Pittsburgh Mills Circle,PA,15084
Cinemark,Denton,1597,1597 01597,2825 Wind River,TX,76210
Cinemark,Mansfield,1598,1598 01598,2041 Hwy 287 Suite 901,TX,76063
Cinemark,Pearland,1599,1599 01599,3311 Silverlake Village Drive,TX,77581
Cinemark,Palmdale,1600,1600 01600,1475 W. Avenue P.,CA,93551
Cinemark,Bridgeport,1601,1601 01601,2105 Meadowbrook Rd,WV,26330
Cinemark,Mesa,1602,1602 01602,1051 N. Dobson Rd.,AZ,85201
Cinemark,El Paso,1603,1603 01603,8401 Gateway West,TX,79925
Cinemark,Allen,1604,1604 01604,921 SH 121,TX,75013
Cinemark,Lewisville,1605,1605 01605,"Vista Ridge Mall2401 S. Stemmons Frwy, Suite 4",TX,75067
Cinemark,Baton Rouge,1606,1606 01606,"10000 Perkins RoweSuite 125, Located at Perkins Rowe Shopping Center",LA,70810
Cinemark,Cypress,1607,1607 01607,25720 Northwest Frwy,TX,77429
Cinemark,Lexington,1608,1608 01608,3800 Mall Road,KY,40503
Cinemark,Rosenberg,1609,1609 01609,3420 Vista Drive,TX,77471
Cinemark,Zanesville,1610,1610 01610,Colony Square Mall3575 Maple Ave,OH,43701
Cinemark,Bee Cave,1611,1611 01611,12812 Hill Country Blvd.Hwy. 71 @ 620,TX,78738
Cinemark,Round Rock,1612,1612 01612,4401 N. IH 35Suite 3000,TX,78664
Cinemark,Aurora,1613,1613 01613,140 Barrington Town Square Dr,OH,44202
Cinemark,Tiffin,1614,1614 01614,870 W. Market St.,OH,44883
Cinemark,Houston,1615,1615 01615,Located at Memorial City Mall310 Memorial City Mall,TX,77024
Cinemark,Strongsville,1616,1616 01616,17450 Southpark Center Located at Southpark Mall,OH,44136
Cinemark,Laredo,1618,1618 01618,"5300 San Dario, Suite 2206, Located at Mall del Norte",TX,78041
Cinemark,Sacramento,1619,1619 01619,1590 Ethan Way,CA,95825
Cinemark,San Jose,1620,1620 01620,741 Winchester Blvd.,CA,95128
Cinemark,San Francisco,1621,1621 01621,85 West Portal Ave.,CA,94127
Cinemark,Mountain View,1625,1625 01625,1500 N. Shoreline Blvd.,CA,94043
Cinemark,North Hollywood,1632,1632 01632,12827 Victory Blvd.,CA,91606
Cinemark,Henderson,1633,1633 01633,851 S. Boulder Hwy,NV,89015
Cinemark,Folsom,1635,1635 01635,261 Iron Point Rd.,CA,95630
Cinemark,Elk Grove,1636,1636 01636,9349 Big Horn Blvd.,CA,95758
Cinemark,Roseville,1637,1637 01637,1555 Eureka Rd.,CA,95661
Cinemark,Albuquerque,1638,1638 01638,"4901 Pan American Fwy., NE",NM,87109
Cinemark,Orange,1639,1639 01639,1701 W. Katella Ave.,CA,92867
Cinemark,Sparks,1640,1640 01640,1250 Victorian Ave.,NV,89431
Cinemark,Ventura,1641,1641 01641,555 E. Main St.,CA,93001
Cinemark,Union City,1642,1642 01642,32100 Union Landing,CA,94587
Cinemark,Las Vegas,1643,1643 01643,4500 West Tropicana Blvd.,NV,89103
Cinemark,Reno,1644,1644 01644,210 East Plumb Ln.,NV,89502
Cinemark,Larkspur,1645,1645 01645,500 Larkspur Landing Cr.,CA,94939
Cinemark,San Leandro,1646,1646 01646,15555 East 14th Street,CA,94578
Cinemark,Aurora,1647,1647 01647,14300 East Alameda Ave.,CO,80012
Cinemark,Abilene,1648,1648 01648,3818 John Knox Drive,TX,79606
Cinemark,Odessa,1649,1649 01649,4221 Preston Smith Rd.,TX,79762
Cinemark,Salt Lake City,1650,1650 01650,125 East 3300 South,UT,84115
Cinemark,Portland,1651,1651 01651,4040 SE 82nd Ave.,OR,97266
Cinemark,Anchorage,1652,1652 01652,301 East 36th Ave.,AK,99503
Cinemark,Tucson,1654,1654 01654,3601 E. Broadway,AZ,85716
Cinemark,Monterey,1655,1655 01655,1700 Del Monte Center,CA,93940
Cinemark,San Mateo,1656,1656 01656,320 East 2nd Avenue,CA,94010
Cinemark,Las Vegas,1657,1657 01657,9090 Alta Dr.,NV,89144
Cinemark,Evanston,1658,1658 01658,1715 Maple Ave.,IL,60201
Cinemark,Milpitas,1659,1659 01659,1010 Great Mall Drive,CA,95035
Cinemark,Sioux Falls,1660,1660 01660,2400 South Carolyn,SD,57106
Cinemark,Las Vegas,1661,1661 01661,5111 Boulder Hwy.At Sam's Town Hotel and Casino,NV,89122
Cinemark,Reno,1662,1662 01662,11 N. Sierra St.,NV,89501
Cinemark,Daly City,1663,1663 01663,1901 Junipero Serra Blvd.,CA,94015
Cinemark,Vallejo,1664,1664 01664,109 Plaza Dr.,CA,94591
Cinemark,Richmond,1665,1665 01665,3200 Klose Way,CA,94806
Cinemark,Albuquerque,1666,1666 01666,100 Central Ave. SW,NM,87102
Cinemark,Sacramento,1667,1667 01667,445 Downtown Plaza,CA,95814
Cinemark,Salinas,1668,1668 01668,350 Northridge Shopping Ctr.,CA,93906
Cinemark,Pleasant Hill,1669,1669 01669,125 Crescent Drive,CA,94523
Cinemark,Tucson,1670,1670 01670,5870 E. Broadway Blvd.,AZ,85711
Cinemark,Walnut Creek,1671,1671 01671,1201 Locust Street,CA,94596
Cinemark,San Francisco,1672,1672 01672,845 Market St.Suite 500,CA,94103
Cinemark,Corte Madera,1673,1673 01673,41 Tamal Vista Blvd.,CA,94925
Cinemark,Sausalito,1674,1674 01674,101 Caledonia,CA,94965
Cinemark,San Rafael,1675,1675 01675,7000 Northgate Drive,CA,94903
Cinemark,San Rafael,1676,1676 01676,280 Smith Ranch Road,CA,94903
Cinemark,Novato,1677,1677 01677,44 Rowland Way,CA,94945
Cinemark,Mill Valley,1678,1678 01678,25 Throckmorton Ave.,CA,94941
Cinemark,San Jose,1679,1679 01679,3088 Olsen Drive,CA,95128
Cinemark,Palo Alto,1680,1680 01680,3000 El Camino Real,CA,94306
Cinemark,Sacramento,1681,1681 01681,6233 Garfield Ave.,CA,95841
Cinemark,San Jose,1682,1682 01682,925 Blossom Hill Rd.,CA,95123
Cinemark,Lakewood,1683,1683 01683,440 S. Teller St.,CO,80226
Cinemark,Rancho Mirage,1684,1684 01684,71800 Hwy 111Suite A-137,CA,92270
Cinemark,West Des Moines,1685,1685 01685,101 Jordan Creek Parkway,IA,50266
Cinemark,Deer Park,1686,1686 01686,21600 W. Field Parkway,IL,60010
Cinemark,Huntington Beach,1687,1687 01687,"7777 Edinger Ave., #170",CA,92647
Cinemark,Beaverton,1688,1688 01688,3200 SW Hocken Ave.,OR,97005
Cinemark,Las Vegas,1689,1689 01689,4949 N. Rancho,NV,89130
Cinemark,Redwood City,1690,1690 01690,825 Middlefield Rd.,CA,94063
Cinemark,Las Vegas,1691,1691 01691,9777 Las Vegas Blvd. SouthAt South Point Hotel and Casino,NV,89183
Cinemark,Sandy,1692,1692 01692,7670 S. Union Park Ave.,UT,84047
Cinemark,Tucson,1694,1694 01694,770 North Kolb,AZ,85710
Cinemark,Boulder,1696,1696 01696,Located at Twenty Ninth StreetThe NW corner of 30th and Canyon,CO,80301
Cinemark,Federal Way,1697,1697 01697,"2001 S. Commons, The Commons at Federal Way 320th and Hwy 99, Exit 143 off of I-5",WA,98003
Cinemark,San Bruno,1698,1698 01698,The Shops at Tanforan1188 El Camino Real,CA,94066
Cinemark,Reno,1699,1699 01699,Summit Sierra Shopping Center13965 S. Virginia Street,NV,89511
Cinemark,Olympia,1700,1700 01700,Located at Westfield Capital625 Black Lake Blvd. SW,WA,98502
Cinemark,Bloomingdale,1701,1701 01701,Located at Stratford Square Mall804 Stratford Square,IL,60108
Cinemark,Portland,1705,1705 01705,12000 SE 82nd Ave.Suite # 3000,OR,97086
Cinemark,Hayward,1706,1706 01706,1069 B Street Cinema Place - Foothill and B Street,CA,94541
Cinemark,Sioux Falls,1707,1707 01707,1101 S Highline Place,SD,57110
Cinemark,Lufkin,1708,1708 01708,109 Miles Way,TX,75901
Cinemark,Valparaiso,1709,1709 01709,700 Porteres Vale Blvd,IN,46383
Cinemark,Cedar Park,1710,1710 01710,1335 E. Whitestone BlvdFM 1431 @ Hwy 183A - 1890 Ranch Shopping Ctr.,TX,78613
Cinemark,Harker Heights,1711,1711 01711,201 E. Central Texas ExpresswaySuite 100,TX,76548
Cinemark,Robinson Township,1712,1712 01712,2100 Settlers Ridge Center Dr. Ridge Rd. Exit off the Parkway West,PA,15205
Cinemark,San Antonio,1713,1713 01713,4224 S New Braunfels Ave. #601,TX,78223
Cinemark,Broken Arrow,1714,1714 01714,1801 E. Hillside Drive,OK,74012
Cinemark,Oro Valley,1715,1715 01715,12155 N. Oracle Road Located at Oracle and Tangerine,AZ,85737
Cinemark,Piqua,1716,1716 01716,1020 Garbry Road,OH,45356
Cinemark,Richmond,1717,1717 01717,2103 Lantern Ridge DriveExit 87 off I-75,KY,40475
Cinemark,Orem,1718,1718 01718,1010 South 800 East,UT,84097
Cinemark,Apple Valley,1719,1719 01719,18935 Bear Valley Road,CA,92308
Cinemark,El Centro,1720,1720 01720,3651 South Dogwood Road,CA,92243
Cinemark,Joliet,1721,1721 01721,3340 Mall Loop Drive,IL,60431
Cinemark,Barboursville,1723,1723 01723,500 Mall RoadUnit 700,WV,25504
Cinemark,Boca Raton,1724,1724 01724,3200 Airport Road,FL,33431
Cinemark,Boynton Beach,1725,1725 01725,1151 N. Congress Avenue,FL,33426
Cinemark,Davie,1726,1726 01726,15601 Sheridan Street,FL,33331
Cinemark,Hanover,1727,1727 01727,7000 Arundel Mills CircleC-1,MD,21076
Cinemark,Conway,1728,1728 01728,201 Skyline DriveSuite 25,AR,72032
Cinemark,West Bountiful,1729,1729 01729,"206 South 625 West, Suite 1230",UT,84010
Cinemark,Frisco,1730,1730 01730,5655 Frisco Square Blvd,TX,75034
Cinemark,Sandusky,1731,1731 01731,4314 Milan Road,OH,44870
Cinemark,Pflugerville,17360,17360 017360,18820 Hilltop Commercial Dr. SWC of SH 130 & SH 45,TX,78660
Cinemark,Draper,22119,22119 022119,12129 South State Street Behind Draper Peaks,UT,84020
Cinemark,Farmington,22200,22200 022200,900 W Clark Lane,UT,84025
Cinemark,Bluffton,22766,22766 022766,106 Buckwalter Parkway,SC,29910
Cinemark,Stroudsburg,35644,35644 035644,160 Stroud Mall,PA,18360
Cinemark,Chesapeake,40635,40635 040635,"2413 Chesapeake Square Ring Rd, Exit 11B off I-664",VA,23321
Cinemark,Monterey,51935,51935 051935,640 Wave Street,CA,93940
Cinemark,Rocklin,57137,57137 057137,6692 Lone Tree Blvd,CA,95765
Cinemark,Fremont,60543,60543 060543,43917 Pacific Commons Blvd,CA,94538
Cinemark,Fort Worth,64923,64923 064923,9228 Sage Meadow Trail,TX,76177
Cinemark,Oxnard,78238,78238 078238,2766 Seaglass Way,CA,93036
Cinemark,Napa,78280,78280 078280,"195 Gasser Drive, Located at Soscol and Imola behind Home Depot",CA,94559
Cinemark,Little Rock,83822,83822 083822,18 Colonel Glenn Plaza Drive,AR,72210
Cinemark,Los Angeles,83825,83825 083825,4020 Marlton Ave,CA,90008
Cinemark,Los Angeles,83827,83827 083827,6081 Center Drive,CA,90045
Cinemark,Manchester,83829,83829 083829,99 RedStone Road,CT,6045
Cinemark,Enfield,83831,83831 083831,90 Elm Street,CT,6082
Cinemark,Milford,83833,83833 083833,1201 Boston Post Rd,CT,6460
Cinemark,North Haven,83835,83835 083835,550 Universal Drive,CT,6473
Cinemark,Davenport,83837,83837 083837,3601 East 53rd Street,IA,52807
Cinemark,Florence,83839,83839 083839,7860 Mall Road,KY,41042
Cinemark,Okolona,83841,83841 083841,9700 Preston Crossing Blvd,KY,40229
Cinemark,Louisville,83843,83843 083843,2745 South Hurstbourne Parkway,KY,40220
Cinemark,West Springfield,83845,83845 083845,864 Riverdale Road,MA,1089
Cinemark,Springfield,83847,83847 083847,1655 Boston Road,MA,1129
Cinemark,Flint,83850,83850 083850,1591 South Graham Road,MI,48532
Cinemark,Ypsilanti,83852,83852 083852,4100 Carpenter Road,MI,48197
Cinemark,Hazlet,83854,83854 083854,2821 Highway 35,NJ,7730
Cinemark,Voorhees,83856,83856 083856,900 Haddonfield-Berlin Rd,NJ,8043
Cinemark,Cincinnati,83858,83858 083858,5870 Harrison Avenue,OH,45248
Cinemark,Columbus,83860,83860 083860,1071 Gemini Place,OH,43240
Cinemark,Beavercreek,83862,83862 083862,4489 Glengarry Drive,OH,45440
Cinemark,West Carrollton,83864,83864 083864,195 Mall Woods Dr,OH,45449
Cinemark,Huber Heights,83866,83866 083866,7737 Waynetowne Blvd,OH,45424
Cinemark,Milford,83868,83868 083868,500 Rivers Edge Drive,OH,45150
Cinemark,West Maumee,83870,83870 083870,2300 Village Drive,OH,43537
Cinemark,Toledo,83872,83872 083872,5001 Monroe Street,OH,43623
Cinemark,Perrysburg,83874,83874 083874,2005 Hollenbeck Dr,OH,43551
Cinemark,Philadelphia,83876,83876 083876,4012 Walnut Street,PA,19104
Cinemark,Centreville,83879,83879 083879,6201 Multiplex Drive,VA,20121
Cinemark,Fairfax,83880,83880 083880,11900 Palace Way,VA,22030
Cinemark,Hurst,83882,83882 083882,1101 Melbourne Road,TX,76053
Cinemark,Fort Worth,83886,83886 083886,2300 Green Oaks Road,TX,76116
Cinemark,Bellevue,84007,84007 084007,"700 Bellevue Way NE Lincoln Square, 3rd Level",WA,98004
Cinemark,Kalispell,84016,84016 084016,185 Hutton Ranch Road,MT,59901
Cinemark,Louisville,84654,84654 084654,5000 Shelbyville Road,KY,40207
Cinemark,Edinburg,91826,91826 091826,"2001 W Trenton, Suite 116",TX,78539
Cinemark,Cincinnati,93379,93379 093379,3025 Disney Street Exit 8A Ridge Ave. South off I-71 North (behind the Target and Sames Club),OH,45209
Cinemark,Pittsburgh,97350,97350 097350,9700 McKnight Road,PA,15090
Cinemark,Southington,97353,97353 097353,1821 Meriden Waterbury Rd,CT,6489
Cinemark,Spring,100367,100367 0100367,21440 Kuykendahl Rd. - Kuykendahl Rd. near 2920,TX,77379
Cinemark,El Paso,129852,129852 0129852,"750 Sunland Park Dr, Suite # T01 at Sunland Park Mall",TX,79912
Cinemark,El Paso,129859,129859 0129859,12704 East Montana - East of Joe Battle Ave.,TX,79938
Cinemark,Temple,159597,159597 0159597,4501 South General Bruce Dr.,TX,76502
Cinemark,Lakeland,164836,164836 0164836,3800 US Highway 98 N - Exit 32 off I-4W; Next to Sports Authority,FL,33809
Cinemark,Pharr,164857,164857 0164857,600 N Jackson Road,TX,78577
Cinemark,Ada,169771,169771 0169771,1090 North Hills Center,OK,74820
