keywords,city,Aggdata Store Number,store_number,address,state,zip_code
Crate and Barrel ,Chicago,101,101 #101 00101,1864 N. Clybourn Avenue,IL,60614
Crate and Barrel ,Oak Brook,103,103 #103 00103,35 Oakbrook Center,IL,60523
Crate and Barrel ,Chicago,105,105 #105 00105,646 N. Michigan Avenue,IL,60611
Crate and Barrel ,Northbrook,106,106 #106 00106,1775 Lake Cook Road,IL,60062
Crate and Barrel ,Schaumburg,107,107 #107 00107,760 North Martingale Road,IL,60173
Crate and Barrel ,Skokie,108,108 #108 00108,4999 Old Orchard Center,IL,60077
Crate and Barrel ,Chicago,115,115 #115 00115,850 W. North Avenue,IL,60642
Crate and Barrel ,Naperville,117,117 #117 00117,1860 W. Jefferson Avenue,IL,60540
Crate and Barrel ,Richmond Heights,121,121 #121 00121,1 The Boulevard,MO,63117
Crate and Barrel ,Geneva,124,124 #124 00124,1102 Commons Drive,IL,60134
Crate and Barrel ,Wauwatosa,131,131 #131 00131,2450 N. Mayfair Road,WI,53226
Crate and Barrel ,Indianapolis,133,133 #133 00133,8701 Keystone Crossing,IN,46240
Crate and Barrel ,Deer Park,135,135 #135 00135,20530 N. Rand Road,IL,60010
Crate and Barrel ,Kittery,209,209 #209 00209,350 US Route 1,ME,3904
Crate and Barrel ,Providence,215,215 #215 00215,38 Providence Place,RI,2903
Crate and Barrel ,Hingham,218,218 #218 00218,98 Derby Street,MA,2043
Crate and Barrel ,Albany,231,231 #231 00231,1 Crossgates Mall Road,NY,12203
Crate and Barrel ,Houston,233,233 #233 00233,4006 Westheimer,TX,77027
Crate and Barrel ,Dallas,303,303 #303 00303,1317 Inwood Road,TX,75247
Crate and Barrel ,Dallas,304,304 #304 00304,3104 Knox Street,TX,75205
Crate and Barrel ,Plano,305,305 #305 00305,6113 West Park Boulevard,TX,75093
Crate and Barrel ,Austin,307,307 #307 00307,9607 Research Blvd,TX,78759
Crate and Barrel ,Corte Madera,312,312 #312 00312,320 Town Center Corte Madera,CA,94925
Crate and Barrel ,Palo Alto,351,351 #351 00351,530 Stanford Shopping Center,CA,94304
Crate and Barrel ,San Jose,353,353 #353 00353,301 Santana Row,CA,95128
Crate and Barrel ,Berkeley,356,356 #356 00356,1785 4th Street,CA,94710
Crate and Barrel ,Walnut Creek,358,358 #358 00358,1115 Broadway Plaza,CA,94596
Crate and Barrel ,Roseville,359,359 #359 00359,1151 Galleria Blvd.,CA,95678
Crate and Barrel ,Bellevue,361,361 #361 00361,555 Bellevue Square NE,WA,98004
Crate and Barrel ,Seattle,401,401 #401 00401,2680 NE 49th Street,WA,98105
Crate and Barrel ,Tigard,402,402 #402 00402,7267 SW Bridgeport Road,OR,97224
Crate and Barrel ,Pasadena,403,403 #403 00403,75 W. Colorado Boulevard,CA,91105
Crate and Barrel ,Woodland Hills,404,404 #404 00404,6360 Topanga Canyon Boulevard,CA,91367
Crate and Barrel ,San Diego,405,405 #405 00405,4589 La Jolla Village Drive,CA,92122
Crate and Barrel ,Costa Mesa,406,406 #406 00406,3333 Bear Street,CA,92626
Crate and Barrel ,Beverly Hills,412,412 #412 00412,438 N. Beverly Drive,CA,90210
Crate and Barrel ,Los Angeles,450,450 #450 00450,189 The Grove Drive,CA,90036
Crate and Barrel ,Carlsbad,452,452 #452 00452,5600 Paseo Del Norte,CA,92008
Crate and Barrel ,Torrance,454,454 #454 00454,21710 Hawthorne Blvd.,CA,90503
Crate and Barrel ,Scottsdale,505,505 #505 00505,7014-604 E. Camelback Road,AZ,85251
Crate and Barrel ,Scottsdale,506,506 #506 00506,15220 N. Scottsdale Road,AZ,85254
Crate and Barrel ,Tucson,507,507 #507 00507,2905 East Skyline Drive,AZ,85718
Crate and Barrel ,Murray,511,511 #511 00511,6207 South State Street,UT,84107
Crate and Barrel ,Dubai,513,513 #513 00513,Sheikh Zayed Rd,WV,UAE
Crate and Barrel ,Dubai,515,515 #515 00515,Mirdif City Center,WV,UAE
Crate and Barrel ,McLean,518,518 #518 00518,1800 W. International Drive,VA,22102
Crate and Barrel ,Alexandria,521,521 #521 00521,1700 Prince Street,VA,22314
Crate and Barrel ,Arlington,551,551 #551 00551,2800 Clarendon Blvd,VA,22201
Crate and Barrel ,Richmond,553,553 #553 00553,11800 W. Broad Street,VA,23233
Crate and Barrel ,Annapolis,555,555 #555 00555,2270 Annapolis Mall Road,MD,21401
Crate and Barrel ,New York,557,557 #557 00557,650 Madison Avenue,NY,10022
Crate and Barrel ,White Plains,566,566 #566 00566,125 Westchester Avenue,NY,10601
Crate and Barrel ,Manhasset,567,567 #567 00567,1950 Northern Boulevard,NY,11030
Crate and Barrel ,King of Prussia,568,568 #568 00568,160 North Gulph Road,PA,19406
Crate and Barrel ,New York,601,601 #601 00601,611 Broadway,NY,10012
Crate and Barrel ,Paramus,607,607 #607 00607,504 Route 17 North,NJ,7652
Crate and Barrel ,Bridgewater,609,609 #609 00609,630 Commons Way,NJ,8807
Crate and Barrel ,West Hartford,612,612 #612 00612,48 South Main,CT,6107
Crate and Barrel ,Cherry Hill,616,616 #616 00616,2000 Route 38,NJ,8002
Crate and Barrel ,Westport,621,621 #621 00621,1200 Post Road,CT,6880
Crate and Barrel ,Pittsburgh,623,623 #623 00623,1000 Ross Park Mall Drive,PA,15237
Crate and Barrel ,Edina,625,625 #625 00625,3503 Galleria,MN,55435
Crate and Barrel ,Lone Tree,627,627 #627 00627,8505 Park Meadows Center Drive,CO,80124
Crate and Barrel ,Broomfield,631,631 #631 00631,One West Flatiron Crossing Drive,CO,80021
Crate and Barrel ,Denver,633,633 #633 00633,101 Clayton Lane,CO,80206
Crate and Barrel ,Leawood,636,636 #636 00636,4601 W. 119th Street,KS,66209
Crate and Barrel ,Lyndhurst,639,639 #639 00639,24405 Cedar Road,OH,44124
Crate and Barrel ,Columbus,641,641 #641 00641,3965 Townsfair Way,OH,43219
Crate and Barrel ,Cincinnati,643,643 #643 00643,5901 E. Galbraith Road,OH,45236
Crate and Barrel ,Miami,652,652 #652 00652,8888 S.W. 136th Street,FL,33176
Crate and Barrel ,Orlando,656,656 #656 00656,4200 Conroy Road,FL,32839
Crate and Barrel ,Tampa,702,702 #702 00702,2201 N. West Shore Blvd,FL,33607
Crate and Barrel ,Atlanta,721,721 #721 00721,3400 Around Lenox Drive,GA,30326
Crate and Barrel ,Alpharetta,723,723 #723 00723,7300 Northpoint Parkway,GA,30022
Crate and Barrel ,Durham,725,725 #725 00725,8030 Renaissance Parkway,NC,27713
Crate and Barrel ,Charlotte,727,727 #727 00727,4320 Sharon Road,NC,28211
Crate and Barrel ,Las Vegas,753,753 #753 00753,6649 Las Vegas Boulevard South,NV,89119
Crate and Barrel ,Toronto,755,755 #755 00755,3401 Dufferin Street,ONM6A,2T9
Crate and Barrel ,Calgary,757,757 #757 00757,100 Anderson Road SE,ABT2J,3V1
Crate and Barrel ,Mississauga,803,803 #803 00803,95 Square One Drive,ONL5B,0
Crate and Barrel ,Laval,805,805 #805 00805,3035 LeCarrefour Blvd.,QCH7T,1C8
Crate and Barrel ,Edmonton,810,810 #810 00810,5015 111 Street,ABT6H,4M6
Crate and Barrel ,Vancouver,851,851 #851 00851,650 W 41st Avenue,BCV5Z,2M9
Crate and Barrel ,San Francisco,855,855 #855 00855,55 Stockton Street,CA,94108
Crate and Barrel ,Singapore,860,860 #860 00860,"#04-21/22, #03-25, 2 Orchard Turn",SG,238801
Crate and Barrel ,Short Hills,861,861 #861 00861,1200 Morris Turnpike,NJ,7078
Crate and Barrel ,"Exhacienda de Jesus del Monte, Huixquilucan, SA N1 07",898,898 #898 00898,Vialidad de la Barranca No. 6,WV,52772MEX
Crate and Barrel ,"Cuajimalpa, Edo. de Mexico",899,899 #899 00899,"Paseo de Los Tamarindos 90, Local PB 01, Col. Bosques de Las Lomas",WV,05120MEX
