keywords,city,Aggdata Store Number,store_number,address,state,zip_code
Culvers,Sauk City,1,#01 #1 00001 1 00001XX 0001XXX,716 Phillips Blvd,WI,53583
Culvers,Reedsburg,2,#02 #2 00002 2 00002XX 0002XXX,2075 Main Street,WI,53959
Culvers,Baraboo,3,#03 #3 00003 3 00003XX 0003XXX,420 Linn Street,WI,53913
Culvers,Waukesha,4,#04 #4 00004 4 00004XX 0004XXX,2600 N. Grandview,WI,53188
Culvers,Middleton,5,#05 #5 00005 5 00005XX 0005XXX,2906 Parmenter Street,WI,53562
Culvers,Cross Plains,6,#06 #6 00006 6 00006XX 0006XXX,2523 Main Street,WI,53528
Culvers,Sun Prairie,7,#07 #7 00007 7 00007XX 0007XXX,1501 W. Main Street,WI,53590
Culvers,Platteville,8,#08 #8 00008 8 00008XX 0008XXX,375 US-151,WI,53818
Culvers,Viroqua,9,#09 #9 00009 9 00009XX 0009XXX,1002 N. Main Street,WI,54665
Culvers,Stevens Point,10,#010 #10 000010 10 000010XX 00010XXX,5346 US-10,WI,54481
Culvers,Waunakee,11,#011 #11 000011 11 000011XX 00011XXX,900 E. Main Street,WI,53597
Culvers,Mauston,12,#012 #12 000012 12 000012XX 00012XXX,640 McEvoy Road,WI,53948
Culvers,Portage,15,#015 #15 000015 15 000015XX 00015XXX,2733 New Pinery Rd.,WI,53901
Culvers,Oconomowoc,16,#016 #16 000016 16 000016XX 00016XXX,1177 Summit Avenue,WI,53066
Culvers,Tomah,17,#017 #17 000017 17 000017XX 00017XXX,147 Wittig Road,WI,54660
Culvers,Prairie du Chien,19,#019 #19 000019 19 000019XX 00019XXX,1915 S. Marquette Rd.,WI,53821
Culvers,Beaver Dam,20,#020 #20 000020 20 000020XX 00020XXX,1601 N. Spring Street,WI,53916
Culvers,Eau Claire,22,#022 #22 000022 22 000022XX 00022XXX,2021 Brackett Avenue,WI,54701
Culvers,Lake Geneva,23,#023 #23 000023 23 000023XX 00023XXX,151 Wells Street,WI,53147
Culvers,Janesville,24,#024 #24 000024 24 000024XX 00024XXX,2633 Milton Avenue,WI,53545
Culvers,Grafton,25,#025 #25 000025 25 000025XX 00025XXX,2001 Wisconsin Ave.,WI,53024
Culvers,Oshkosh,26,#026 #26 000026 26 000026XX 00026XXX,1580 S. Koeller Street,WI,54902
Culvers,Dodgeville,27,#027 #27 000027 27 000027XX 00027XXX,1122 N. Johns St.,WI,53533
Culvers,Fond du Lac,28,#028 #28 000028 28 000028XX 00028XXX,81 W. Pioneer Rd.,WI,54935
Culvers,Wisconsin Rapids,29,#029 #29 000029 29 000029XX 00029XXX,2711 8th Street S.,WI,54494
Culvers,De Forest,30,#030 #30 000030 30 000030XX 00030XXX,4910 County Road V,WI,53532
Culvers,Appleton,31,#031 #31 000031 31 000031XX 00031XXX,599 N. Westhill Blvd,WI,54914
Culvers,New Berlin,32,#032 #32 000032 32 000032XX 00032XXX,14855 W. National Ave.,WI,53151
Culvers,Madison,33,#033 #33 000033 33 000033XX 00033XXX,1325 Northport Drive,WI,53704
Culvers,Buffalo,34,#034 #34 000034 34 000034XX 00034XXX,500 East Hwy. 55,MN,55313
Culvers,West Bend,35,#035 #35 000035 35 000035XX 00035XXX,2350 W. Washington St.,WI,53095
Culvers,Muskego,36,#036 #36 000036 36 000036XX 00036XXX,W187 S7959 Racine Ave.,WI,53150
Culvers,Roscoe,37,#037 #37 000037 37 000037XX 00037XXX,9779 N. Second Street,IL,61073
Culvers,Spring Green,38,#038 #38 000038 38 000038XX 00038XXX,4919 US-14,WI,53588
Culvers,Sheboygan,39,#039 #39 000039 39 000039XX 00039XXX,641 S. Taylor Drive,WI,53081
Culvers,Oak Creek,40,#040 #40 000040 40 000040XX 00040XXX,7841 S. Howell Avenue,WI,53154
Culvers,Madison,41,#041 #41 000041 41 000041XX 00041XXX,2102 West Beltline Hwy.,WI,53713
Culvers,New Glarus,42,#042 #42 000042 42 000042XX 00042XXX,1405 Hwy. 69,WI,53574
Culvers,Verona,44,#044 #44 000044 44 000044XX 00044XXX,430 E. Verona Avenue,WI,53593
Culvers,Waukesha,45,#045 #45 000045 45 000045XX 00045XXX,840 W. Sunset Drive,WI,53189
Culvers,Rothschild,46,#046 #46 000046 46 000046XX 00046XXX,10202 Park Plaza,WI,54474
Culvers,Dubuque,47,#047 #47 000047 47 000047XX 00047XXX,4800 Asbury Rd.,IA,52002
Culvers,Navarre,48,#048 #48 000048 48 000048XX 00048XXX,3340 Shoreline Drive,MN,55392
Culvers,Rockford,49,#049 #49 000049 49 000049XX 00049XXX,6727 E. Riverside Blvd.,IL,61114
Culvers,Austin,50,#050 #50 000050 50 000050XX 00050XXX,3424 W. William Cannon,TX,78745
Culvers,Fort Atkinson,51,#051 #51 000051 51 000051XX 00051XXX,1551 Madison Avenue,WI,53538
Culvers,Waupaca,52,#052 #52 000052 52 000052XX 00052XXX,1045 W. Fulton Street,WI,54981
Culvers,Mukwonago,53,#053 #53 000053 53 000053XX 00053XXX,1090 N. Rochester Street,WI,53149
Culvers,Sturgeon Bay,54,#054 #54 000054 54 000054XX 00054XXX,5581 Gordon Road,WI,54235
Culvers,Aurora,55,#055 #55 000055 55 000055XX 00055XXX,509 South Route 59,IL,60504
Culvers,Sturtevant,56,#056 #56 000056 56 000056XX 00056XXX,722 S. Sylvania,WI,53177
Culvers,Stillwater,57,#057 #57 000057 57 000057XX 00057XXX,1725 Market Drive,MN,55082
Culvers,Hales Corners,58,#058 #58 000058 58 000058XX 00058XXX,6101-A South 108th St.,WI,53130
Culvers,Pewaukee,59,#059 #59 000059 59 000059XX 00059XXX,21300 W. Capitol Drive,WI,53072
Culvers,Beloit,60,#060 #60 000060 60 000060XX 00060XXX,2676 Cranston Road,WI,53511
Culvers,Waterloo,61,#061 #61 000061 61 000061XX 00061XXX,209 E. Tower Park Drive,IA,50701
Culvers,Elk River,62,#062 #62 000062 62 000062XX 00062XXX,19475 Evans Street NW,MN,55330
Culvers,Elkhorn,63,#063 #63 000063 63 000063XX 00063XXX,1000 N. Wisconsin,WI,53121
Culvers,McKinney,64,#064 #64 000064 64 000064XX 00064XXX,"4200 W. Eldorado Parkway, Suite #200",TX,75070
Culvers,Schaumburg,65,#065 #65 000065 65 000065XX 00065XXX,1800 Wise Road,IL,60193
Culvers,Burlington,66,#066 #66 000066 66 000066XX 00066XXX,1073 Milwaukee Ave.,WI,53105
Culvers,Green Bay,67,#067 #67 000067 67 000067XX 00067XXX,1219 W. Mason Street,WI,54303
Culvers,Darien,69,#069 #69 000069 69 000069XX 00069XXX,541 Plainfield Road,IL,60561
Culvers,Island Lake,70,#070 #70 000070 70 000070XX 00070XXX,203 E. State Rd.,IL,60042
Culvers,Austin,71,#071 #71 000071 71 000071XX 00071XXX,2240 W. Braker Lane,TX,78758
Culvers,Sioux Falls,72,#072 #72 000072 72 000072XX 00072XXX,2509 S. Louise Ave.,SD,57106
Culvers,Cedar Rapids,74,#074 #74 000074 74 000074XX 00074XXX,2405 Edgewood Road SW,IA,52404
Culvers,Winnebago,75,#075 #75 000075 75 000075XX 00075XXX,807 Cannell-Puri Court,IL,61088
Culvers,Lake Delton,76,#076 #76 000076 76 000076XX 00076XXX,1070 Wisconsin Dells Pkwy,WI,53940
Culvers,Manitowoc,77,#077 #77 000077 77 000077XX 00077XXX,4201 Calumet Avenue,WI,54220
Culvers,Madison,78,#078 #78 000078 78 000078XX 00078XXX,4301 East Towne Blvd.,WI,53704
Culvers,Waupun,79,#079 #79 000079 79 000079XX 00079XXX,900 Kelly Avenue,WI,53963
Culvers,Clintonville,80,#080 #80 000080 80 000080XX 00080XXX,105 S. Main Street,WI,54929
Culvers,Port Washington,81,#081 #81 000081 81 000081XX 00081XXX,1407 W. Grand Ave.,WI,53074
Culvers,Appleton,82,#082 #82 000082 82 000082XX 00082XXX,3631 E. Calumet St.,WI,54915
Culvers,Belvidere,83,#083 #83 000083 83 000083XX 00083XXX,1635 Big Thunder Blvd.,IL,61008
Culvers,Davenport,84,#084 #84 000084 84 000084XX 00084XXX,5320 Jersey Ridge Rd.,IA,52807
Culvers,Galena,85,#085 #85 000085 85 000085XX 00085XXX,11371 Oldenburg Lane,IL,61036
Culvers,Freeport,86,#086 #86 000086 86 000086XX 00086XXX,1690 Dirck Drive,IL,61032
Culvers,North Aurora,87,#087 #87 000087 87 000087XX 00087XXX,411 S. Lincolnway,IL,60542
Culvers,Johnson Creek,90,#090 #90 000090 90 000090XX 00090XXX,525 Village Walk Lane,WI,53038
Culvers,Omaha,91,#091 #91 000091 91 000091XX 00091XXX,11920 Miami Street,NE,68164
Culvers,Rockford,92,#092 #92 000092 92 000092XX 00092XXX,5610 Wansford Way,IL,61109
Culvers,Fond du Lac,93,#093 #93 000093 93 000093XX 00093XXX,W6606 Hwy. 23,WI,54937
Culvers,Minocqua,94,#094 #94 000094 94 000094XX 00094XXX,123 US-51,WI,54568
Culvers,Jackson,95,#095 #95 000095 95 000095XX 00095XXX,W227 N16880 Tillie Lake Ct.,WI,53037
Culvers,Austin,96,#096 #96 000096 96 000096XX 00096XXX,1800 8th Street NW,MN,55912
Culvers,Wautoma,97,#097 #97 000097 97 000097XX 00097XXX,101 N. Century Drive,WI,54982
Culvers,Mankato,98,#098 #98 000098 98 000098XX 00098XXX,1856 Madison Avenue,MN,56001
Culvers,Milwaukee,99,#099 #99 000099 99 000099XX 00099XXX,575 W. Layton Avenue,WI,53207
Culvers,Sioux Falls,100,#0100 #100 0000100 100 0000100XX 000100XXX,2800 S. Minnesota Ave.,SD,57105
Culvers,Clear Lake,101,#0101 #101 0000101 101 0000101XX 000101XXX,1204 N. 25th St.,IA,50428
Culvers,Oswego,102,#0102 #102 0000102 102 0000102XX 000102XXX,2781 Route 34,IL,60543
Culvers,Rapid City,104,#0104 #104 0000104 104 0000104XX 000104XXX,2121 W. Main Street,SD,57702
Culvers,Savage,105,#0105 #105 0000105 105 0000105XX 000105XXX,4725 Hwy. 13 W.,MN,55378
Culvers,Racine,106,#0106 #106 0000106 106 0000106XX 000106XXX,5801 21st Street,WI,53406
Culvers,Plainfield,108,#0108 #108 0000108 108 0000108XX 000108XXX,170 S. Perry Road,IN,46168
Culvers,Hiawatha,109,#0109 #109 0000109 109 0000109XX 000109XXX,1005 N. Center Point Rd.,IA,52233
Culvers,Huntley,110,#0110 #110 0000110 110 0000110XX 000110XXX,13240 State Road 47,IL,60142
Culvers,Lincoln,111,#0111 #111 0000111 111 0000111XX 000111XXX,1500 Old Cheney Road,NE,68512
Culvers,Springfield,112,#0112 #112 0000112 112 0000112XX 000112XXX,1815 Primrose St. East,MO,65804
Culvers,Janesville,113,#0113 #113 0000113 113 0000113XX 000113XXX,2421 W. Court Street,WI,53545
Culvers,Kalamazoo,114,#0114 #114 0000114 114 0000114XX 000114XXX,5143 S. 9th Street,MI,49009
Culvers,Brown Deer,115,#0115 #115 0000115 115 0000115XX 000115XXX,4327 W. Schroeder Drive,WI,53223
Culvers,Plymouth,116,#0116 #116 0000116 116 0000116XX 000116XXX,2318 Eastern Avenue,WI,53073
Culvers,McHenry,117,#0117 #117 0000117 117 0000117XX 000117XXX,1101 Adams Drive,IL,60050
Culvers,Rock Falls,118,#0118 #118 0000118 118 0000118XX 000118XXX,1901 Harley Davidson Dr.,IL,61071
Culvers,Ankeny,119,#0119 #119 0000119 119 0000119XX 000119XXX,2305 S. E. Delaware Ave.,IA,50021
Culvers,Vadnais Heights,120,#0120 #120 0000120 120 0000120XX 000120XXX,4485 Centerville Rd.,MN,55127
Culvers,Mitchell,121,#0121 #121 0000121 121 0000121XX 000121XXX,1015 Cabela Drive,SD,57301
Culvers,Onalaska,122,#0122 #122 0000122 122 0000122XX 000122XXX,9422 State Road 16,WI,54650
Culvers,Sussex,123,#0123 #123 0000123 123 0000123XX 000123XXX,W249 N6620 Hwy. 164,WI,53089
Culvers,Rhinelander,124,#0124 #124 0000124 124 0000124XX 000124XXX,620 W. Kemp Street,WI,54501
Culvers,Rockford,125,#0125 #125 0000125 125 0000125XX 000125XXX,1224 Benington Road,IL,61103
Culvers,Champlin,126,#0126 #126 0000126 126 0000126XX 000126XXX,11218 Commerce Dr,MN,55316
Culvers,Superior,127,#0127 #127 0000127 127 0000127XX 000127XXX,2110 E. 2nd Street,WI,54880
Culvers,Ripon,128,#0128 #128 0000128 128 0000128XX 000128XXX,1086 W. Fond du Lac Street,WI,54971
Culvers,Stoughton,129,#0129 #129 0000129 129 0000129XX 000129XXX,916 Nygaard Street,WI,53589
Culvers,Marinette,130,#0130 #130 0000130 130 0000130XX 000130XXX,1225 Marinette Avenue,WI,54143
Culvers,Shakopee,131,#0131 #131 0000131 131 0000131XX 000131XXX,4058 12th Avenue E.,MN,55379
Culvers,Coon Rapids,132,#0132 #132 0000132 132 0000132XX 000132XXX,611 Coon Rapids Blvd.,MN,55433
Culvers,GraysLake,133,#0133 #133 0000133 133 0000133XX 000133XXX,1239 N. State Road 83,IL,60030
Culvers,Pleasant Prairie,134,#0134 #134 0000134 134 0000134XX 000134XXX,10484 Corporate Drive,WI,53158
Culvers,Winona,135,#0135 #135 0000135 135 0000135XX 000135XXX,1441 Service Drive,MN,55987
Culvers,Albertville,136,#0136 #136 0000136 136 0000136XX 000136XXX,11025 61st Street,MN,55301
Culvers,St. Charles,137,#0137 #137 0000137 137 0000137XX 000137XXX,2750 Muegge Road,MO,63303
Culvers,Bloomington,138,#0138 #138 0000138 138 0000138XX 000138XXX,901 Hershey Road,IL,61704
Culvers,Franklin,139,#0139 #139 0000139 139 0000139XX 000139XXX,4220 W. Oakwood Park Ct.,WI,53132
Culvers,Oshkosh,140,#0140 #140 0000140 140 0000140XX 000140XXX,2270 Westowne Ave.,WI,54904
Culvers,Springfield,141,#0141 #141 0000141 141 0000141XX 000141XXX,2540 N. Dirksen Pkwy.,IL,62702
Culvers,Apple Valley,142,#0142 #142 0000142 142 0000142XX 000142XXX,15225 Galaxie Avenue,MN,55124
Culvers,Fargo,143,#0143 #143 0000143 143 0000143XX 000143XXX,4615 13th Avenue SW,ND,58103
Culvers,Clinton,145,#0145 #145 0000145 145 0000145XX 000145XXX,2625 Lincoln Way,IA,52732
Culvers,Tinley Park,146,#0146 #146 0000146 146 0000146XX 000146XXX,18248 Sayre Avenue,IL,60477
Culvers,Madison,147,#0147 #147 0000147 147 0000147XX 000147XXX,4401 Cottage Grove Road,WI,53716
Culvers,Willmar,149,#0149 #149 0000149 149 0000149XX 000149XXX,202 19th Avenue SE,MN,56201
Culvers,Blaine,150,#0150 #150 0000150 150 0000150XX 000150XXX,10550 Baltimore St. NE,MN,55449
Culvers,Dixon,151,#0151 #151 0000151 151 0000151XX 000151XXX,1317 N. Galena Avenue,IL,61021
Culvers,Plymouth,152,#0152 #152 0000152 152 0000152XX 000152XXX,6175 Quinwood Lane,MN,55442
Culvers,Kerrville,153,#0153 #153 0000153 153 0000153XX 000153XXX,1300 Junction Hwy.,TX,78028
Culvers,Valparaiso,154,#0154 #154 0000154 154 0000154XX 000154XXX,2101 LaPorte Ave.,IN,46383
Culvers,Peru,155,#0155 #155 0000155 155 0000155XX 000155XXX,1600 Midtown Road,IL,61354
Culvers,Bellevue,156,#0156 #156 0000156 156 0000156XX 000156XXX,3602 Raynor Parkway,NE,68123
Culvers,Owatonna,157,#0157 #157 0000157 157 0000157XX 000157XXX,1140 W. Frontage Rd.,MN,55060
Culvers,Buffalo Grove,158,#0158 #158 0000158 158 0000158XX 000158XXX,450 McHenry Road,IL,60089
Culvers,Rochester,160,#0160 #160 0000160 160 0000160XX 000160XXX,36 28th Street SE,MN,55904
Culvers,Anoka,161,#0161 #161 0000161 161 0000161XX 000161XXX,800 W. Main Street,MN,55303
Culvers,Wausau,162,#0162 #162 0000162 162 0000162XX 000162XXX,219 Central Bridge Street,WI,54401
Culvers,Moline,163,#0163 #163 0000163 163 0000163XX 000163XXX,4011 38th Avenue,IL,61265
Culvers,Plymouth,164,#0164 #164 0000164 164 0000164XX 000164XXX,4335 Peony Lane,MN,55446
Culvers,Sioux Falls,166,#0166 #166 0000166 166 0000166XX 000166XXX,4001 W. 41st St,SD,57106
Culvers,Aberdeen,167,#0167 #167 0000167 167 0000167XX 000167XXX,616 Centennial Street,SD,57401
Culvers,Des Moines,168,#0168 #168 0000168 168 0000168XX 000168XXX,5941 SE 14th Street,IA,50320
Culvers,Norfolk,169,#0169 #169 0000169 169 0000169XX 000169XXX,924 S. 20th Street,NE,68701
Culvers,Chanhassen,170,#0170 #170 0000170 170 0000170XX 000170XXX,450 Pond Promenade,MN,55317
Culvers,Newton,171,#0171 #171 0000171 171 0000171XX 000171XXX,1650 W. 19th Street S.,IA,50208
Culvers,Maple Grove,172,#0172 #172 0000172 172 0000172XX 000172XXX,16380 96th Ave. N.,MN,55311
Culvers,Champaign,173,#0173 #173 0000173 173 0000173XX 000173XXX,903 West Marketview,IL,61822
Culvers,Mason City,174,#0174 #174 0000174 174 0000174XX 000174XXX,551 S. Monroe Avenue,IA,50401
Culvers,Gurnee,175,#0175 #175 0000175 175 0000175XX 000175XXX,1505 Nations Drive,IL,60031
Culvers,Lawrence,176,#0176 #176 0000176 176 0000176XX 000176XXX,2111 W. 33rd Street,KS,66046
Culvers,Morris,177,#0177 #177 0000177 177 0000177XX 000177XXX,1919 N. Division Street,IL,60450
Culvers,Marshfield,178,#0178 #178 0000178 178 0000178XX 000178XXX,109 W. Upham Street,WI,54449
Culvers,Shorewood,179,#0179 #179 0000179 179 0000179XX 000179XXX,1325 E. Capitol Drive,WI,53211
Culvers,Woodstock,180,#0180 #180 0000180 180 0000180XX 000180XXX,1620 W. Lake Shore Drive,IL,60098
Culvers,Cambridge,181,#0181 #181 0000181 181 0000181XX 000181XXX,105 Opportunity Blvd. N.,MN,55008
Culvers,Fargo,182,#0182 #182 0000182 182 0000182XX 000182XXX,3197 25th Street South,ND,58103
Culvers,Omaha,183,#0183 #183 0000183 183 0000183XX 000183XXX,15255 Weir Plaza,NE,68137
Culvers,Columbus,184,#0184 #184 0000184 184 0000184XX 000184XXX,201 Dix Street,WI,53925
Culvers,Marquette,185,#0185 #185 0000185 185 0000185XX 000185XXX,3033 US-41,MI,49855
Culvers,Palatine,186,#0186 #186 0000186 186 0000186XX 000186XXX,1765 N. Rand Road,IL,60074
Culvers,Lafayette,188,#0188 #188 0000188 188 0000188XX 000188XXX,340 N. Creasy Lane,IN,47905
Culvers,Eagan,189,#0189 #189 0000189 189 0000189XX 000189XXX,3445 O'Leary Lane,MN,55123
Culvers,Lawrence,190,#0190 #190 0000190 190 0000190XX 000190XXX,5525 N. Post Road,IN,46216
Culvers,Bloomington,191,#0191 #191 0000191 191 0000191XX 000191XXX,1807 W. Market St.,IL,61701
Culvers,St. Paul,192,#0192 #192 0000192 192 0000192XX 000192XXX,2065 Old Hudson Road,MN,55119
Culvers,North Mankato,193,#0193 #193 0000193 193 0000193XX 000193XXX,1680 Commerce Drive,MN,56003
Culvers,Brooklyn Center,194,#0194 #194 0000194 194 0000194XX 000194XXX,6900 Brooklyn Blvd,MN,55429
Culvers,Forest Lake,195,#0195 #195 0000195 195 0000195XX 000195XXX,1007 W. Broadway Ave,MN,55025
Culvers,Traverse City,197,#0197 #197 0000197 197 0000197XX 000197XXX,101 US Hwy 31 South,MI,49684
Culvers,Rockford,198,#0198 #198 0000198 198 0000198XX 000198XXX,236 North Phelps Avenue,IL,61109
Culvers,Crystal Lake,199,#0199 #199 0000199 199 0000199XX 000199XXX,501 Pingree Road,IL,60014
Culvers,Noblesville,200,#0200 #200 0000200 200 0000200XX 000200XXX,557 Westfield Road,IN,46060
Culvers,Fenton,201,#0201 #201 0000201 201 0000201XX 000201XXX,1024 Bowles Ave.,MO,63026
Culvers,Baxter,202,#0202 #202 0000202 202 0000202XX 000202XXX,15222 Dellwood Drive,MN,56425
Culvers,Bolingbrook,203,#0203 #203 0000203 203 0000203XX 000203XXX,250 N. Bolingbrook Drive,IL,60440
Culvers,Mequon,204,#0204 #204 0000204 204 0000204XX 000204XXX,11150 N. Port Washington,WI,53092
Culvers,Lincoln,205,#0205 #205 0000205 205 0000205XX 000205XXX,4121 Pioneer Woods Drive,NE,68506
Culvers,Alexandria,206,#0206 #206 0000206 206 0000206XX 000206XXX,610 50th Avenue,MN,56308
Culvers,Chaska,207,#0207 #207 0000207 207 0000207XX 000207XXX,180 Pioneer Trail E.,MN,55318
Culvers,Peoria,209,#0209 #209 0000209 209 0000209XX 000209XXX,4612 N. University Ave,IL,61614
Culvers,Marshalltown,210,#0210 #210 0000210 210 0000210XX 000210XXX,16 Iowa Avenue West,IA,50158
Culvers,Carol Stream,211,#0211 #211 0000211 211 0000211XX 000211XXX,290 Schmale Rd.,IL,60188
Culvers,Hartford,212,#0212 #212 0000212 212 0000212XX 000212XXX,1570 E. Sumner Street,WI,53027
Culvers,Holland,213,#0213 #213 0000213 213 0000213XX 000213XXX,3035 West Shore Drive,MI,49424
Culvers,St. Anthony,214,#0214 #214 0000214 214 0000214XX 000214XXX,4004 Silver Lake Road,MN,55421
Culvers,Champaign,215,#0215 #215 0000215 215 0000215XX 000215XXX,2302 S. Neil Street,IL,61820
Culvers,Carpentersville,216,#0216 #216 0000216 216 0000216XX 000216XXX,8000 Miller Road,IL,60110
Culvers,Coralville,217,#0217 #217 0000217 217 0000217XX 000217XXX,2591 Heartland Place,IA,52241
Culvers,Brookfield,218,#0218 #218 0000218 218 0000218XX 000218XXX,3705 North 124th St,WI,53005
Culvers,Olathe,219,#0219 #219 0000219 219 0000219XX 000219XXX,18685 W 151st Street,KS,66062
Culvers,Eden Prairie,220,#0220 #220 0000220 220 0000220XX 000220XXX,13550 Technology Drive,MN,55344
Culvers,Lake Zurich,221,#0221 #221 0000221 221 0000221XX 000221XXX,645 N. Rand Road,IL,60047
Culvers,Lincoln,222,#0222 #222 0000222 222 0000222XX 000222XXX,4940 North 27th Street,NE,68521
Culvers,South Elgin,223,#0223 #223 0000223 223 0000223XX 000223XXX,280 Randall Road,IL,60177
Culvers,South Elgin,223,#0223 #223 0000223 223 0000223XX 000223XXX,280 Randall Road,IL,60177
Culvers,Rockwall,224,#0224 #224 0000224 224 0000224XX 000224XXX,2475 Ridge Road,TX,75087
Culvers,O'Fallon,225,#0225 #225 0000225 225 0000225XX 000225XXX,1702 W. Hwy. 50,IL,62269
Culvers,Corydon,226,#0226 #226 0000226 226 0000226XX 000226XXX,240 Federal Dr,IN,47112
Culvers,Hudson,227,#0227 #227 0000227 227 0000227XX 000227XXX,151 Carmichael Rd.,WI,54016
Culvers,Sioux City,228,#0228 #228 0000228 228 0000228XX 000228XXX,3102 Singing Hills Blvd.,IA,51106
Culvers,Greenwood,229,#0229 #229 0000229 229 0000229XX 000229XXX,320 State Hwy 135,IN,46142
Culvers,Ames,230,#0230 #230 0000230 230 0000230XX 000230XXX,525 Gilchrist Ave.,IA,50010
Culvers,Antigo,231,#0231 #231 0000231 231 0000231XX 000231XXX,2105 Neva Road,WI,54409
Culvers,Sioux Falls,232,#0232 #232 0000232 232 0000232XX 000232XXX,5601 East Arrowhead Parkway,SD,57110
Culvers,West Des Moines,233,#0233 #233 0000233 233 0000233XX 000233XXX,101 Jordan Creek Parkway,IA,50266
Culvers,Libertyville,234,#0234 #234 0000234 234 0000234XX 000234XXX,803 E. Park Ave.,IL,60048
Culvers,Milwaukee,235,#0235 #235 0000235 235 0000235XX 000235XXX,5501 W. Fond du Lac Ave.,WI,53216
Culvers,Stevensville,236,#0236 #236 0000236 236 0000236XX 000236XXX,4537 Red Arrow Hwy.,MI,49127
Culvers,O'Fallon,237,#0237 #237 0000237 237 0000237XX 000237XXX,4351 Hwy K,MO,63304
Culvers,Okemos,238,#0238 #238 0000238 238 0000238XX 000238XXX,5140 Times Square Drive,MI,48864
Culvers,Altoona,239,#0239 #239 0000239 239 0000239XX 000239XXX,2535 Adventureland Drive,IA,50009
Culvers,West St. Paul,240,#0240 #240 0000240 240 0000240XX 000240XXX,125 Marie Avenue East,MN,55118
Culvers,Princeton,241,#0241 #241 0000241 241 0000241XX 000241XXX,224 Ace Road,IL,61356
Culvers,Monroe,242,#0242 #242 0000242 242 0000242XX 000242XXX,252 8th Street,WI,53566
Culvers,Mt. Horeb,243,#0243 #243 0000243 243 0000243XX 000243XXX,1700 Business Hwy 18/151 East,WI,53572
Culvers,West Milwaukee,244,#0244 #244 0000244 244 0000244XX 000244XXX,1641 Miller Parkway,WI,53214
Culvers,Lansing,245,#0245 #245 0000245 245 0000245XX 000245XXX,17010 Torrence Ave.,IL,60438
Culvers,Romeoville,246,#0246 #246 0000246 246 0000246XX 000246XXX,485 North Weber Road,IL,60446
Culvers,Waite Park,247,#0247 #247 0000247 247 0000247XX 000247XXX,1101 Second Street South,MN,56387
Culvers,Saginaw,248,#0248 #248 0000248 248 0000248XX 000248XXX,5369 Bay Road,MI,48604
Culvers,Kansas City,249,#0249 #249 0000249 249 0000249XX 000249XXX,7953 State Line Road,MO,64114
Culvers,Troy,250,#0250 #250 0000250 250 0000250XX 000250XXX,2100 West Main Street,OH,45373
Culvers,Michigan City,251,#0251 #251 0000251 251 0000251XX 000251XXX,3967 Frontage Road North,IN,46360
Culvers,Bridgeview,252,#0252 #252 0000252 252 0000252XX 000252XXX,9229 South Harlem Ave.,IL,60455
Culvers,Pekin,253,#0253 #253 0000253 253 0000253XX 000253XXX,3500 Court Street,IL,61554
Culvers,Portage,254,#0254 #254 0000254 254 0000254XX 000254XXX,6139 US Hwy 6,IN,46368
Culvers,Addison,255,#0255 #255 0000255 255 0000255XX 000255XXX,1347 West Lake St.,IL,60101
Culvers,Elkhart,256,#0256 #256 0000256 256 0000256XX 000256XXX,2726 Emerson Drive,IN,46514
Culvers,Columbus,257,#0257 #257 0000257 257 0000257XX 000257XXX,1444 Rentra Drive,OH,43228
Culvers,The Woodlands,258,#0258 #258 0000258 258 0000258XX 000258XXX,8800 Six Pines Drive,TX,77380
Culvers,Jenison,259,#0259 #259 0000259 259 0000259XX 000259XXX,7393 Cottonwood Drive,MI,49428
Culvers,Powell,260,#0260 #260 0000260 260 0000260XX 000260XXX,4137 West Powell Road,OH,43065
Culvers,Evansville,261,#0261 #261 0000261 261 0000261XX 000261XXX,1734 Hirschland Road,IN,47715
Culvers,Joliet,262,#0262 #262 0000262 262 0000262XX 000262XXX,1500 Illinois Hwy. 59,IL,60431
Culvers,Mt. Prospect,263,#0263 #263 0000263 263 0000263XX 000263XXX,1501 Dempster St,IL,60056
Culvers,Hastings,264,#0264 #264 0000264 264 0000264XX 000264XXX,1713 Market Boulevard,MN,55033
Culvers,Lee's Summit,265,#0265 #265 0000265 265 0000265XX 000265XXX,1701 N.E. Douglas Street,MO,64086
Culvers,Decatur,266,#0266 #266 0000266 266 0000266XX 000266XXX,4850 East Aldi Drive,IL,62521
Culvers,Grand Forks,267,#0267 #267 0000267 267 0000267XX 000267XXX,3451 32nd Ave South,ND,58201
Culvers,Mason,268,#0268 #268 0000268 268 0000268XX 000268XXX,5742 Tylersville Road,OH,45040
Culvers,Sparta,269,#0269 #269 0000269 269 0000269XX 000269XXX,911 West Wisconsin Ave.,WI,54656
Culvers,San Antonio,270,#0270 #270 0000270 270 0000270XX 000270XXX,5836 DeZavala Road,TX,78249
Culvers,Zion,271,#0271 #271 0000271 271 0000271XX 000271XXX,3335 Sheridan Road,IL,60099
Culvers,Indianapolis,272,#0272 #272 0000272 272 0000272XX 000272XXX,4701 Kentucky Avenue,IN,46221
Culvers,Springfield,273,#0273 #273 0000273 273 0000273XX 000273XXX,4400 Wabash Avenue,IL,62711
Culvers,Plainfield,274,#0274 #274 0000274 274 0000274XX 000274XXX,13449 S. Illinois Rte. 59,IL,60544
Culvers,Colorado Springs,275,#0275 #275 0000275 275 0000275XX 000275XXX,2925 New Center Point,CO,80922
Culvers,Frankfort,276,#0276 #276 0000276 276 0000276XX 000276XXX,20592 S. LaGrange Road,IL,60423
Culvers,Overland Park,277,#0277 #277 0000277 277 0000277XX 000277XXX,8600 West 135th Street,KS,66223
Culvers,Burlington,278,#0278 #278 0000278 278 0000278XX 000278XXX,919 Lawrence Drive,IA,52601
Culvers,Lombard,279,#0279 #279 0000279 279 0000279XX 000279XXX,1155 S. Main Street,IL,60148
Culvers,Hamilton,280,#0280 #280 0000280 280 0000280XX 000280XXX,3111 Princeton Road,OH,45011
Culvers,East Peoria,281,#0281 #281 0000281 281 0000281XX 000281XXX,901 Camp Street,IL,61611
Culvers,Morton,282,#0282 #282 0000282 282 0000282XX 000282XXX,121 East Courtland Street,IL,61550
Culvers,Osage Beach,283,#0283 #283 0000283 283 0000283XX 000283XXX,5785 Hwy. 54,MO,65065
Culvers,Cheyenne,284,#0284 #284 0000284 284 0000284XX 000284XXX,1239 Dell Range,WY,82009
Culvers,Indianapolis,285,#0285 #285 0000285 285 0000285XX 000285XXX,7105 East 96th Street,IN,46250
Culvers,Monticello,286,#0286 #286 0000286 286 0000286XX 000286XXX,9396 Hwy 25,MN,55362
Culvers,Edgerton,287,#0287 #287 0000287 287 0000287XX 000287XXX,571 E. Richardson Springs Road,WI,53534
Culvers,Milwaukee,288,#0288 #288 0000288 288 0000288XX 000288XXX,275 W. Wisconsin Ave. #3100,WI,53203
Culvers,Anderson,289,#0289 #289 0000289 289 0000289XX 000289XXX,6386 S. Scatterfield Road,IN,46013
Culvers,St. Louis,290,#0290 #290 0000290 290 0000290XX 000290XXX,4140 Rusty Road,MO,63129
Culvers,Muscatine,291,#0291 #291 0000291 291 0000291XX 000291XXX,3604 University Drive,IA,52761
Culvers,Franklin Park,292,#0292 #292 0000292 292 0000292XX 000292XXX,2751 Rose Street,IL,60131
Culvers,Schererville,293,#0293 #293 0000293 293 0000293XX 000293XXX,980 W. Lincoln Hwy,IN,46375
Culvers,Mishawaka,294,#0294 #294 0000294 294 0000294XX 000294XXX,5520 N. Main Street,IN,46545
Culvers,Fort Wayne,295,#0295 #295 0000295 295 0000295XX 000295XXX,3510 East Dupont Road,IN,46825
Culvers,Chippewa Falls,296,#0296 #296 0000296 296 0000296XX 000296XXX,2573 Commercial Blvd.,WI,54729
Culvers,Two Harbors,297,#0297 #297 0000297 297 0000297XX 000297XXX,1082 Hwy 61,MN,55616
Culvers,Downers Grove,298,#0298 #298 0000298 298 0000298XX 000298XXX,2500 West Ogden Ave,IL,60515
Culvers,Taylor,299,#0299 #299 0000299 299 0000299XX 000299XXX,14800 Racho Road,MI,48180
Culvers,Grand Rapids,300,#0300 #300 0000300 300 0000300XX 000300XXX,6300 28th Street,MI,49546
Culvers,Neenah,301,#0301 #301 0000301 301 0000301XX 000301XXX,1161 West Towne Drive,WI,54956
Culvers,Davenport,302,#0302 #302 0000302 302 0000302XX 000302XXX,3400 Kimberly Road,IA,52806
Culvers,Rogers,303,#0303 #303 0000303 303 0000303XX 000303XXX,13605 Northdale Blvd.,MN,55374
Culvers,Delavan,304,#0304 #304 0000304 304 0000304XX 000304XXX,1931 East Geneva Street,WI,53115
Culvers,West Allis,305,#0305 #305 0000305 305 0000305XX 000305XXX,1672 S. 108th Street,WI,53214
Culvers,Westland,306,#0306 #306 0000306 306 0000306XX 000306XXX,6500 Newburgh Road,MI,48185
Culvers,Hutchinson,307,#0307 #307 0000307 307 0000307XX 000307XXX,1510 Montreal Street S. E.,MN,55350
Culvers,St. Joseph,308,#0308 #308 0000308 308 0000308XX 000308XXX,3910 North Belt Hwy,MO,64506
Culvers,Fond du Lac,309,#0309 #309 0000309 309 0000309XX 000309XXX,969 E. Johnson Street,WI,54935
Culvers,Branson,310,#0310 #310 0000310 310 0000310XX 000310XXX,1309 State Hwy. 248,MO,65616
Culvers,Edwardsville,311,#0311 #311 0000311 311 0000311XX 000311XXX,6724 Old Troy Road,IL,62025
Culvers,Colorado Springs,312,#0312 #312 0000312 312 0000312XX 000312XXX,1140 Lake Plaza Drive,CO,80906
Culvers,Rochelle,313,#0313 #313 0000313 313 0000313XX 000313XXX,1060 N. Dement Road,IL,61068
Culvers,Peoria,314,#0314 #314 0000314 314 0000314XX 000314XXX,5019 West Holiday Drive,IL,61615
Culvers,Antioch,315,#0315 #315 0000315 315 0000315XX 000315XXX,451 East Route 173,IL,60002
Culvers,Lakeville,316,#0316 #316 0000316 316 0000316XX 000316XXX,17800 Kenwood Trail,MN,55044
Culvers,Birch Run,317,#0317 #317 0000317 317 0000317XX 000317XXX,8551 Main Street,MI,48415
Culvers,Adrian,318,#0318 #318 0000318 318 0000318XX 000318XXX,1360 South Main Street,MI,49221
Culvers,Flower Mound,319,#0319 #319 0000319 319 0000319XX 000319XXX,2709 Flower Mound Road,TX,75022
Culvers,Fort Collins,320,#0320 #320 0000320 320 0000320XX 000320XXX,918 S. Lemay Ave.,CO,80526
Culvers,Effingham,321,#0321 #321 0000321 321 0000321XX 000321XXX,1510 W. Fayette Ave.,IL,62401
Culvers,Indianapolis,322,#0322 #322 0000322 322 0000322XX 000322XXX,5020 W. 71st Street,IN,46268
Culvers,Portage,324,#0324 #324 0000324 324 0000324XX 000324XXX,7262 S. Westnedge Ave.,MI,49002
Culvers,Fort Dodge,325,#0325 #325 0000325 325 0000325XX 000325XXX,3048 5th Avenue S.,IA,50501
Culvers,Bowling Green,326,#0326 #326 0000326 326 0000326XX 000326XXX,4903 Scottsville Road,KY,42104
Culvers,Yorkville,327,#0327 #327 0000327 327 0000327XX 000327XXX,1745 Marketview Drive,IL,60560
Culvers,Marion,328,#0328 #328 0000328 328 0000328XX 000328XXX,1375 Red Fox Way,IA,52302
Culvers,Collinsville,329,#0329 #329 0000329 329 0000329XX 000329XXX,100 United Drive,IL,62234
Culvers,Lexington,330,#0330 #330 0000330 330 0000330XX 000330XXX,2161 Paul Jones Way,KY,40509
Culvers,Roseville,331,#0331 #331 0000331 331 0000331XX 000331XXX,30820 Little Mack Ave.,MI,48066
Culvers,Greeley,332,#0332 #332 0000332 332 0000332XX 000332XXX,3502 W. 29th Street,CO,80634
Culvers,Cadillac,333,#0333 #333 0000333 333 0000333XX 000333XXX,8645 E. 34 Road,MI,49601
Culvers,Lexington,334,#0334 #334 0000334 334 0000334XX 000334XXX,351 Meijer Way,KY,40503
Culvers,Wentzville,335,#0335 #335 0000335 335 0000335XX 000335XXX,1898 Wentzville Pkwy,MO,63385
Culvers,Jackson,336,#0336 #336 0000336 336 0000336XX 000336XXX,3471 O'Neill Drive,MI,49202
Culvers,Alpena,337,#0337 #337 0000337 337 0000337XX 000337XXX,1061 M-32 West,MI,49707
Culvers,Thornton,338,#0338 #338 0000338 338 0000338XX 000338XXX,9790 Washington Street,CO,80229
Culvers,Kansas City,339,#0339 #339 0000339 339 0000339XX 000339XXX,1925 Prairie Crossing,KS,66111
Culvers,Arnold,340,#0340 #340 0000340 340 0000340XX 000340XXX,123 Richardson Crossing,MO,63010
Culvers,Columbia,341,#0341 #341 0000341 341 0000341XX 000341XXX,2520 Broadway Bluffs Drive,MO,65201
Culvers,Decorah,342,#0342 #342 0000342 342 0000342XX 000342XXX,904 Short Street,IA,52101
Culvers,Matteson,343,#0343 #343 0000343 343 0000343XX 000343XXX,20716 Cicero Ave.,IL,60443
Culvers,Geneseo,344,#0344 #344 0000344 344 0000344XX 000344XXX,1275 S. Oakwood Ave.,IL,61254
Culvers,Watertown,346,#0346 #346 0000346 346 0000346XX 000346XXX,901 26th Street SE,SD,57201
Culvers,St. Cloud,347,#0347 #347 0000347 347 0000347XX 000347XXX,901 Hwy 10 South,MN,56304
Culvers,Scottsbluff,348,#0348 #348 0000348 348 0000348XX 000348XXX,2915 Ave. B,NE,69361
Culvers,Marshall,349,#0349 #349 0000349 349 0000349XX 000349XXX,1211 Susan Drive,MN,56258
Culvers,West Des Moines,350,#0350 #350 0000350 350 0000350XX 000350XXX,1820 22nd Street,IA,50266
Culvers,Louisville,351,#0351 #351 0000351 351 0000351XX 000351XXX,4630 Hurstbourne Parkway,KY,40299
Culvers,Kokomo,352,#0352 #352 0000352 352 0000352XX 000352XXX,101 Pipeline Way,IN,46902
Culvers,Greenfield,353,#0353 #353 0000353 353 0000353XX 000353XXX,1846 N. State Street,IN,46140
Culvers,Comstock Park,354,#0354 #354 0000354 354 0000354XX 000354XXX,4280 Alpine Ave.,MI,49321
Culvers,Crawfordsville,355,#0355 #355 0000355 355 0000355XX 000355XXX,1855 S. US 231,IN,47933
Culvers,Minooka,356,#0356 #356 0000356 356 0000356XX 000356XXX,2063 Ridge Road,IL,60447
Culvers,Homewood,357,#0357 #357 0000357 357 0000357XX 000357XXX,850 W. 183rd Street,IL,60430
Culvers,Grand Haven,358,#0358 #358 0000358 358 0000358XX 000358XXX,520 A-Way Drive,MI,49417
Culvers,Lincoln,359,#0359 #359 0000359 359 0000359XX 000359XXX,2530 Woodlawn Road,IL,62656
Culvers,Clarkston,360,#0360 #360 0000360 360 0000360XX 000360XXX,6910 Sashabaw Road,MI,48348
Culvers,Johnstown,361,#0361 #361 0000361 361 0000361XX 000361XXX,4890 Thompson Parkway,CO,80534
Culvers,Kearney,362,#0362 #362 0000362 362 0000362XX 000362XXX,5010 Second Avenue,NE,68845
Culvers,Lake Orion,363,#0363 #363 0000363 363 0000363XX 000363XXX,4963 Interpark Drive North,MI,48359
Culvers,Owensboro,364,#0364 #364 0000364 364 0000364XX 000364XXX,3020 Highland Pointe Drive,KY,42303
Culvers,Green Bay,365,#0365 #365 0000365 365 0000365XX 000365XXX,2945 Voyager Drive,WI,54311
Culvers,Cape Girardeau,366,#0366 #366 0000366 366 0000366XX 000366XXX,295 North Kingshighway,MO,63701
Culvers,Red Wing,367,#0367 #367 0000367 367 0000367XX 000367XXX,179 Tyler Road,MN,55066
Culvers,Decatur,368,#0368 #368 0000368 368 0000368XX 000368XXX,2994 N. Water Street,IL,62526
Culvers,Phoenix,369,#0369 #369 0000369 369 0000369XX 000369XXX,1825 W. Deer Valley Drive,AZ,85027
Culvers,Schaumburg,370,#0370 #370 0000370 370 0000370XX 000370XXX,1410 E. Algonquin Rd,IL,60173
Culvers,Mesa,371,#0371 #371 0000371 371 0000371XX 000371XXX,1909 S. Country Club Drive,AZ,85210
Culvers,Sidney,372,#0372 #372 0000372 372 0000372XX 000372XXX,2575 Michigan Street,OH,45365
Culvers,Reynoldsburg,373,#0373 #373 0000373 373 0000373XX 000373XXX,1912 State Route 256,OH,43068
Culvers,Belleville,374,#0374 #374 0000374 374 0000374XX 000374XXX,11001 Belleville Road,MI,48111
Culvers,Atascocita,375,#0375 #375 0000375 375 0000375XX 000375XXX,5420 East Atascocita Road,TX,77346
Culvers,Blue Springs,376,#0376 #376 0000376 376 0000376XX 000376XXX,1301 S.W. 7 Highway,MO,64014
Culvers,Bloomington,377,#0377 #377 0000377 377 0000377XX 000377XXX,7801 Nicollet Ave.,MN,55420
Culvers,Mundelein,378,#0378 #378 0000378 378 0000378XX 000378XXX,220 Oak Creek Plaza,IL,60060
Culvers,Gaylord,379,#0379 #379 0000379 379 0000379XX 000379XXX,1397 W. Main Street,MI,49735
Culvers,Black River Falls,380,#0380 #380 0000380 380 0000380XX 000380XXX,925 Commerce Street,WI,54615
Culvers,Spearfish,381,#0381 #381 0000381 381 0000381XX 000381XXX,2423 Platinum Drive,SD,57783
Culvers,Murray,382,#0382 #382 0000382 382 0000382XX 000382XXX,818 N 12th Street,KY,42071
Culvers,Milwaukee,383,#0383 #383 0000383 383 0000383XX 000383XXX,7515 West Good Hope Road,WI,53223
Culvers,LaVista,384,#0384 #384 0000384 384 0000384XX 000384XXX,9848 Giles Road,NE,68128
Culvers,Sioux Center,385,#0385 #385 0000385 385 0000385XX 000385XXX,1913 S. Main Ave,IA,51250
Culvers,Cottage Grove,386,#0386 #386 0000386 386 0000386XX 000386XXX,7998 Hardwood Avenue South,MN,55016
Culvers,Louisville,387,#0387 #387 0000387 387 0000387XX 000387XXX,11801 Interchange Drive,KY,40229
Culvers,South Bend,388,#0388 #388 0000388 388 0000388XX 000388XXX,4402 S. Michigan Street,IN,46614
Culvers,Northfield,389,#0389 #389 0000389 389 0000389XX 000389XXX,960 Hwy 3 South,MN,55057
Culvers,Richmond,390,#0390 #390 0000390 390 0000390XX 000390XXX,2012 Lantern Ridge Drive,KY,40475
Culvers,Wabash,391,#0391 #391 0000391 391 0000391XX 000391XXX,1321 North Cass Street,IN,46992
Culvers,Bourbonnais,392,#0392 #392 0000392 392 0000392XX 000392XXX,983 Convent Street,IL,60914
Culvers,Columbus,393,#0393 #393 0000393 393 0000393XX 000393XXX,90 Johnson Blvd.,IN,47201
Culvers,Surprise,394,#0394 #394 0000394 394 0000394XX 000394XXX,16145 West Bell Road,AZ,85374
Culvers,Sheboygan,395,#0395 #395 0000395 395 0000395XX 000395XXX,4225 Hwy 42,WI,53083
Culvers,Chesterfield,396,#0396 #396 0000396 396 0000396XX 000396XXX,17349 Chesterfield Airport Road,MO,63005
Culvers,Lyons,397,#0397 #397 0000397 397 0000397XX 000397XXX,8211 Ogden Ave,IL,60534
Culvers,Webb City,398,#0398 #398 0000398 398 0000398XX 000398XXX,475 South Madison Street,MO,64870
Culvers,Phoenix,399,#0399 #399 0000399 399 0000399XX 000399XXX,10225 N 28th Drive,AZ,85051
Culvers,Marion,400,#0400 #400 0000400 400 0000400XX 000400XXX,2307 S. Western Ave.,IN,46953
Culvers,Fort Wayne,401,#0401 #401 0000401 401 0000401XX 000401XXX,6527 West Jefferson Blvd.,IN,46804
Culvers,Escanaba,403,#0403 #403 0000403 403 0000403XX 000403XXX,605 N. Lincoln Road,MI,49829
Culvers,Brookings,404,#0404 #404 0000404 404 0000404XX 000404XXX,2229 6th Street,SD,57006
Culvers,Grand Rapids,405,#0405 #405 0000405 405 0000405XX 000405XXX,2510 East Beltline SE,MI,49546
Culvers,Florence,406,#0406 #406 0000406 406 0000406XX 000406XXX,8554 US Highway 42,KY,41042
Culvers,Liberty,407,#0407 #407 0000407 407 0000407XX 000407XXX,1905 West Kansas Street,MO,64068
Culvers,Phoenix,408,#0408 #408 0000408 408 0000408XX 000408XXX,825 E. Camelback Rd.,AZ,85014
Culvers,Jefferson City,409,#0409 #409 0000409 409 0000409XX 000409XXX,1920 Jefferson Street,MO,65109
Culvers,Raymore,410,#0410 #410 0000410 410 0000410XX 000410XXX,1621 West Foxwood Drive,MO,64083
Culvers,Little Canada,411,#0411 #411 0000411 411 0000411XX 000411XXX,2880 Rice Street,MN,55113
Culvers,Warsaw,412,#0412 #412 0000412 412 0000412XX 000412XXX,852 N Parker Street,IN,46582
Culvers,Somerset,413,#0413 #413 0000413 413 0000413XX 000413XXX,711 South Highway 27,KY,42501
Culvers,Colorado Springs,414,#0414 #414 0000414 414 0000414XX 000414XXX,7660 North Academy Blvd.,CO,80920
Culvers,Falcon,415,#0415 #415 0000415 415 0000415XX 000415XXX,7220 North Meridian Road,CO,80831
Culvers,Battle Creek,416,#0416 #416 0000416 416 0000416XX 000416XXX,5074 Beckley Rd,MI,49015
Culvers,Council Bluffs,417,#0417 #417 0000417 417 0000417XX 000417XXX,3245 S. 24th St.,IA,51501
Culvers,Orland Park,418,#0418 #418 0000418 418 0000418XX 000418XXX,9130 159th Street,IL,60462
Culvers,Merrill,419,#0419 #419 0000419 419 0000419XX 000419XXX,3349 East Main Street,WI,54452
Culvers,Ottawa,420,#0420 #420 0000420 420 0000420XX 000420XXX,3001 Fairfield Ln,IL,61350
Culvers,Rosemont,421,#0421 #421 0000421 421 0000421XX 000421XXX,7050 Mannheim Rd,IL,60018
Culvers,Duluth,422,#0422 #422 0000422 422 0000422XX 000422XXX,1301 Mall Drive,MN,55806
Culvers,Murfreesboro,423,#0423 #423 0000423 423 0000423XX 000423XXX,2411 Medical Center Parkway,TN,37129
Culvers,Peoria,424,#0424 #424 0000424 424 0000424XX 000424XXX,8271 W Ludlow Dr,AZ,85381
Culvers,Casa Grande,425,#0425 #425 0000425 425 0000425XX 000425XXX,2453 E Florence Blvd,AZ,85194
Culvers,Kalamazoo,426,#0426 #426 0000426 426 0000426XX 000426XXX,6097 Gull Road,MI,49048
Culvers,Midvale,427,#0427 #427 0000427 427 0000427XX 000427XXX,7165 S Bingham Junction Blvd,UT,84047
Culvers,Quincy,428,#0428 #428 0000428 428 0000428XX 000428XXX,2442 Broadway St,IL,62301
Culvers,Eureka,429,#0429 #429 0000429 429 0000429XX 000429XXX,400 Meramec Blvd,MO,63025
Culvers,New Lenox,430,#0430 #430 0000430 430 0000430XX 000430XXX,421 E Lincoln Hwy,IL,60451
Culvers,Hartland,431,#0431 #431 0000431 431 0000431XX 000431XXX,701 Industrial Court,WI,53029
Culvers,Glendale,432,#0432 #432 0000432 432 0000432XX 000432XXX,5127 N 99th Ave,AZ,85305
Culvers,Madison Heights,433,#0433 #433 0000433 433 0000433XX 000433XXX,700 West Twelve Mile Rd,MI,48071
Culvers,Springfield,434,#0434 #434 0000434 434 0000434XX 000434XXX,2520 N Glenstone Ave,MO,65803
Culvers,Phoenix,435,#0435 #435 0000435 435 0000435XX 000435XXX,4506 E Cactus Rd,AZ,85032
Culvers,Berwyn,436,#0436 #436 0000436 436 0000436XX 000436XXX,6943 W Roosevelt Rd,IL,60402
Culvers,Phoenix,437,#0437 #437 0000437 437 0000437XX 000437XXX,20835 N Cave Creek Rd,AZ,85024
Culvers,Tucson,438,#0438 #438 0000438 438 0000438XX 000438XXX,6905 N Thornydale Rd,AZ,85741
Culvers,Tucson,439,#0439 #439 0000439 439 0000439XX 000439XXX,40 S Broadway Pl,AZ,85710
Culvers,Findlay,440,#0440 #440 0000440 440 0000440XX 000440XXX,806 Trenton Ave,OH,45840
Culvers,Farmington,441,#0441 #441 0000441 441 0000441XX 000441XXX,525 West Karsch Blvd,MO,63640
Culvers,Crete,442,#0442 #442 0000442 442 0000442XX 000442XXX,23180 Volbrecht Rd,IL,60417
Culvers,Morton Grove,443,#0443 #443 0000443 443 0000443XX 000443XXX,7310 W Dempster St,IL,60053
Culvers,Morton Grove,443,#0443 #443 0000443 443 0000443XX 000443XXX,7310 W Dempster St,IL,60053
Culvers,Lansing,444,#0444 #444 0000444 444 0000444XX 000444XXX,8488 W Saginaw Hwy,MI,48917
Culvers,Chandler,445,#0445 #445 0000445 445 0000445XX 000445XXX,3155 W Ray Rd,AZ,85226
Culvers,Conroe,446,#0446 #446 0000446 446 0000446XX 000446XXX,1426 N Loop 336 West,TX,77301
Culvers,Lehi,447,#0447 #447 0000447 447 0000447XX 000447XXX,1374 East Main St,UT,84043
Culvers,Fenton,448,#0448 #448 0000448 448 0000448XX 000448XXX,3202 Owen Rd,MI,48430
Culvers,De Pere,449,#0449 #449 0000449 449 0000449XX 000449XXX,1499 Lawrence Dr,WI,54115
Culvers,St Charles,450,#0450 #450 0000450 450 0000450XX 000450XXX,4068 East Main St,IL,60174
Culvers,Traverse City,451,#0451 #451 0000451 451 0000451XX 000451XXX,876 Munson Ave,MI,49686
Culvers,St. Paul,452,#0452 #452 0000452 452 0000452XX 000452XXX,1491 University Ave W,MN,55104
Culvers,Avondale,453,#0453 #453 0000453 453 0000453XX 000453XXX,1025 N Avondale Blvd,AZ,85323
Culvers,Wales,454,#0454 #454 0000454 454 0000454XX 000454XXX,400 E Summit Ave,WI,53183
Culvers,Kenosha,455,#0455 #455 0000455 455 0000455XX 000455XXX,8124 Sheridan Rd,WI,53143
Culvers,Arlington Heights,456,#0456 #456 0000456 456 0000456XX 000456XXX,2060 Northwest Hwy,IL,60004
Culvers,Franklin,457,#0457 #457 0000457 457 0000457XX 000457XXX,3400 Mallory Ln,TN,37067
Culvers,Ann Arbor,458,#0458 #458 0000458 458 0000458XX 000458XXX,5910 Jackson Rd,MI,48103
Culvers,St. Robert,459,#0459 #459 0000459 459 0000459XX 000459XXX,114 Town Center Blvd,MO,65584
Culvers,West Valley City,460,#0460 #460 0000460 460 0000460XX 000460XXX,3407 South 5600 West,UT,84120
Culvers,Mission,461,#0461 #461 0000461 461 0000461XX 000461XXX,6005 Metcalf Ave,KS,66202
Culvers,Carroll,462,#0462 #462 0000462 462 0000462XX 000462XXX,405 W Hwy 30,IA,51401
Culvers,Greenville,463,#0463 #463 0000463 463 0000463XX 000463XXX,2021 Woodruff Rd,SC,29607
Culvers,Elm Grove,464,#0464 #464 0000464 464 0000464XX 000464XXX,15280 W Bluemound Rd,WI,53122
Culvers,Coldwater,465,#0465 #465 0000465 465 0000465XX 000465XXX,436 E Chicago St,MI,49036
Culvers,Scottsdale,466,#0466 #466 0000466 466 0000466XX 000466XXX,8668 E Shea Blvd,AZ,85260
Culvers,Iowa City,467,#0467 #467 0000467 467 0000467XX 000467XXX,710 Highway 1 W,IA,52246
Culvers,Mesa,468,#0468 #468 0000468 468 0000468XX 000468XXX,1841 S Greenfield Rd,AZ,85206
Culvers,Pella,469,#0469 #469 0000469 469 0000469XX 000469XXX,1512 Washington St,IA,50219
Culvers,Fountain,471,#0471 #471 0000471 471 0000471XX 000471XXX,8065 Fountain Mesa Rd,CO,80817
Culvers,Lansing,472,#0472 #472 0000472 472 0000472XX 000472XXX,3115 Towne Centre Blvd,MI,48912
Culvers,Rapid City,473,#0473 #473 0000473 473 0000473XX 000473XXX,1015 Eglin St,SD,57701
Culvers,Bettendorf,474,#0474 #474 0000474 474 0000474XX 000474XXX,2312 Spruce Hills Dr,IA,52722
Culvers,Murfreesboro,475,#0475 #475 0000475 475 0000475XX 000475XXX,2993 S Rutherford Blvd,TN,37130
Culvers,St. Louis,476,#0476 #476 0000476 476 0000476XX 000476XXX,10200 Big Bend Blvd,MO,63122
Culvers,Highland,477,#0477 #477 0000477 477 0000477XX 000477XXX,3950 Ridge Rd,IN,46322
Culvers,Fort Wayne,478,#0478 #478 0000478 478 0000478XX 000478XXX,1425 W Washington Center Rd,IN,46825
Culvers,Nicholasville,479,#0479 #479 0000479 479 0000479XX 000479XXX,961 N Main Street,KY,40356
Culvers,Saginaw,480,#0480 #480 0000480 480 0000480XX 000480XXX,8100 Gratiot Rd,MI,48609
Culvers,Fort Mill,481,#0481 #481 0000481 481 0000481XX 000481XXX,325 Carowinds Blvd,SC,29708
Culvers,Evergreen Park,482,#0482 #482 0000482 482 0000482XX 000482XXX,9515 S Kedzie Ave,IL,60805
Culvers,Independence,483,#0483 #483 0000483 483 0000483XX 000483XXX,4220 S Little Blue Pkwy,MO,64057
Culvers,Tucson,484,#0484 #484 0000484 484 0000484XX 000484XXX,4810 N 1st Ave,AZ,85718
Culvers,Midland,485,#0485 #485 0000485 485 0000485XX 000485XXX,7320 Eastman Ave,MI,48642
Culvers,Naples,486,#0486 #486 0000486 486 0000486XX 000486XXX,5775 Airport Pulling Rd N,FL,34109
Culvers,Monee,487,#0487 #487 0000487 487 0000487XX 000487XXX,5871 W Monee Manhattan Rd,IL,60449
Culvers,Port Charlotte,488,#0488 #488 0000488 488 0000488XX 000488XXX,385 Kings Hwy,FL,33983
Culvers,Stevens Point,489,#0489 #489 0000489 489 0000489XX 000489XXX,332 N Division St,WI,54481
Culvers,Danville,490,#0490 #490 0000490 490 0000490XX 000490XXX,3210 N Vermillion St,IL,61832
Culvers,Kingwood,491,#0491 #491 0000491 491 0000491XX 000491XXX,331 Northpark Dr,TX,77339
Culvers,Marysville,492,#0492 #492 0000492 492 0000492XX 000492XXX,16421 Square Dr,OH,43040
Culvers,Golden Valley,493,#0493 #493 0000493 493 0000493XX 000493XXX,8845 7th Ave N,MN,55427
Culvers,Fort Wayne,494,#0494 #494 0000494 494 0000494XX 000494XXX,6026 Stellhorn Rd,IN,46815
Culvers,Baldwin,495,#0495 #495 0000495 495 0000495XX 000495XXX,640 Baldwin Plaza Dr,WI,54002
Culvers,Fort Myers,496,#0496 #496 0000496 496 0000496XX 000496XXX,10050 University Plaza Dr,FL,33913
Culvers,Kansas City,498,#0498 #498 0000498 498 0000498XX 000498XXX,5901 NW 64th St,MO,64151
Culvers,Goshen,499,#0499 #499 0000499 499 0000499XX 000499XXX,2019 Lincoln Way East,IN,46526
Culvers,Prescott Valley,500,#0500 #500 0000500 500 0000500XX 000500XXX,2544 N Stoneridge Dr,AZ,86314
Culvers,Jeffersonville,501,#0501 #501 0000501 501 0000501XX 000501XXX,1555 Veterans Parkway,IN,47130
Culvers,Cedar Falls,502,#0502 #502 0000502 502 0000502XX 000502XXX,401 Viking Plaza Drive,IA,50613
Culvers,Crown Point,503,#0503 #503 0000503 503 0000503XX 000503XXX,1700 E Summit St,IN,46307
Culvers,Estero,504,#0504 #504 0000504 504 0000504XX 000504XXX,10300 Arcos Ave,FL,33928
Culvers,Muncie,505,#0505 #505 0000505 505 0000505XX 000505XXX,1312 W McGalliard Rd,IN,47303
Culvers,Lockport,506,#0506 #506 0000506 506 0000506XX 000506XXX,15940 S Farrell Rd,IL,60441
Culvers,Sarasota,507,#0507 #507 0000507 507 0000507XX 000507XXX,2605 University Pkwy,FL,34243
Culvers,Fishers,508,#0508 #508 0000508 508 0000508XX 000508XXX,13691 Olio Rd,IN,46060
Culvers,St. George,509,#0509 #509 0000509 509 0000509XX 000509XXX,270 E Riverside Dr,UT,84790
