keywords,city,Aggdata Store Number,store_number,address,state,zip_code
Del Taco,COLLEGE PLACE,1,1 01 001 #1,1725 S.E. MEADOWBROOK BLVD.,WA,99324
Del Taco,SACRAMENTO,1,1 01 001 #1,3027 K ST,CA,95816
Del Taco,ROSEVILLE,1,1 01 001 #1,32439 GRATIOT AVE,MI,48066
Del Taco,TOLEDO,1,1 01 001 #1,3348 SECOR ROAD,OH,43606
Del Taco,DOTHAN,1,1 01 001 #1,4700 W. MAIN ST,AL,36303
Del Taco,FLAGSTAFF,1,1 01 001 #1,4705 N US HIGHWAY 89,AZ,86001
Del Taco,BILLINGS,1,1 01 001 #1,770 KING PARK DR,MT,59102
Del Taco,Fort Worth,1,1 01 001 #1,520 ALTA MERE,TX,76114
Del Taco,SNELLVILLE,2,2 02 002 #2,1895 SCENIC HIGHWAY 124,GA,30078
Del Taco,FLAGSTAFF,2,2 02 002 #2,2201 S. MILTON RD,AZ,86001
Del Taco,PANTEGO,2,2 02 002 #2,2424 W. PARK ROW DRIVE,TX,76013
Del Taco,WARREN,2,2 02 002 #2,26111 HOOVER RD.,MI,48089
Del Taco,GREELEY,2,2 02 002 #2,2913 SOUTH 23RD AVENUE,CO,80631
Del Taco,DEARBORN HEIGHTS,2,2 02 002 #2,5644 N. TELEGRAPH,MI,48127
Del Taco,POST FALLS,2,2 02 002 #2,725 NORTH HWY 41,ID,83854
Del Taco,WEST SACRAMENTO,2,2 02 002 #2,841 HARBOR BLVD.,CA,95691
Del Taco,FIRESTONE,3,3 03 003 #3,11053 I-25 FRONTAGE RD.,CO,80504
Del Taco,CLAWSON,3,3 03 003 #3,1120 W. 14 MILE ROAD,MI,48017
Del Taco,HURST,3,3 03 003 #3,1700 PRECINCT LINE ROAD,TX,76054
Del Taco,SMYRNA,3,3 03 003 #3,2521 COBB PARKWAY SE,GA,30080
Del Taco,WARREN,3,3 03 003 #3,28692 DEQUINDRE UNIT J 100,MI,48092
Del Taco,SACRAMENTO,3,3 03 003 #3,3531 TRUXEL RD.,CA,95834
Del Taco,COEUR DALENE,3,3 03 003 #3,450 WEST PRARIE,ID,83815
Del Taco,Rio Rancho,3,3 03 003 #3,1101 Unser Blvd SE,NM,87124
Del Taco,ALBUQUERQUE,4,4 04 004 #4,1525 COORS BLVD NW,NM,87121
Del Taco,NAMPA,4,4 04 004 #4,2121 12TH AVE ROAD,ID,83686
Del Taco,SACRAMENTO,4,4 04 004 #4,2200 ARDEN WAY,CA,95825
Del Taco,DALLAS,4,4 04 004 #4,3040 W. MOCKINGBIRD LN,TX,75235
Del Taco,BRIGHTON,4,4 04 004 #4,570 E BROMLEY LN,CO,80601
Del Taco,KENNESAW,4,4 04 004 #4,745 CHASTAIN RD NW BLDG 200,GA,30144
Del Taco,DENTON,5,5 05 005 #5,1715 SOUTH LOOP 288 SUITE #100,TX,76205
Del Taco,COMMERCE CITY,5,5 05 005 #5,18260 EAST 104TH AVE.,CO,80022
Del Taco,SACRAMENTO,5,5 05 005 #5,2525 WATT AVENUE,CA,95821
Del Taco,MERIDIAN,5,5 05 005 #5,3101 E. MAGIC VIEW DR.,ID,83642
Del Taco,ALBUQUERQUE,5,5 05 005 #5,4720 MONTGOMERY BLVD NE,NM,87109
Del Taco,Woodstock,5,5 05 005 #5,9775 Hwy 92,GA,30188
Del Taco,BROOMFIELD,6,6 06 006 #6,595 SUMMIT BLVD,CO,80021
Del Taco,ALBUQUERQUE,6,6 06 006 #6,6600 MENAUL BLVD NE,NM,87110
Del Taco,SACRAMENTO,6,6 06 006 #6,9152 KIEFER BLVD,CA,95826
Del Taco,BOISE,6,6 06 006 #6,5008 W. FRANKLIN RD.,ID,83705
Del Taco,LEWISVILLE,6,6 06 006 #6,6340 N. JOSEY LANE,TX,75056
Del Taco,MONTGOMERY,6,6 06 006 #6,6941 Eastchase Loop,AL,36117
Del Taco,ALBUQUERQUE,7,7 07 007 #7,10015 CENTRAL AVE. N.E.,NM,87123
Del Taco,BOISE,7,7 07 007 #7,1306 BROADWAY AVE.,ID,83706
Del Taco,OVIEDO,7,7 07 007 #7,3551 DOVERA DRIVE,FL,32765
Del Taco,SACRAMENTO,7,7 07 007 #7,4337 ELKHORN BLVD,CA,95842
Del Taco,DENVER,7,7 07 007 #7,4698 PEORIA ST.,CO,80239
Del Taco,DALLAS,7,7 07 007 #7,6216 RETAIL ROAD,TX,75231
Del Taco,Moore,7,7 07 007 #7,770 SW 19TH ST.,OK,73160
Del Taco,ORLANDO,8,8 08 008 #8,12025 COLLEGIATE WAY,FL,32817
Del Taco,LOS LUNAS,8,8 08 008 #8,1885 EMILIO LOOP ROAD,NM,87031
Del Taco,GRESHAM,8,8 08 008 #8,2164 NE BURNSIDE RD.,OR,97030
Del Taco,PLANO,8,8 08 008 #8,6100 W. PARK,TX,75093
Del Taco,DENVER,8,8 08 008 #8,8100 NORTHFIELD BLVD,CO,80239
Del Taco,SACRAMENTO,8,8 08 008 #8,8230 CALVINE RD,CA,95624
Del Taco,PAYSON,9,9 09 009 #9,108 S BEELINE HWY,AZ,85541
Del Taco,LITTLE ELM,9,9 09 009 #9,2721 LITTLE ELM PARKWAY #200,TX,75068
Del Taco,AURORA,9,9 09 009 #9,3465 N. SALIDA STREET,CO,80011
Del Taco,BEND,9,9 09 009 #9,612 SE 3RD ST.,OR,97702
Del Taco,ORLANDO,9,9 09 009 #9,6855 GRAND NATIONAL DRIVE,FL,32819
Del Taco,ELK GROVE,9,9 09 009 #9,7519 LAGUNA BLVD.,CA,95758
Del Taco,AURORA,10,10 010 0010 #10,14400 E COLFAX AVE,CO,80011
Del Taco,GRAND JUNCTION,10,10 010 0010 #10,2513 SOUTH US 50,CO,81505
Del Taco,FEDERAL WAY,10,10 010 0010 #10,34528 16TH AVE S,WA,98003
Del Taco,CITRUS HEIGHTS,10,10 010 0010 #10,7398 GREENBACK LN,CA,95621
Del Taco,FRISCO,10,10 010 0010 #10,8333 PRESTON RD,TX,75034
Del Taco,MCKINNEY,11,11 011 0011 #11,1614 W. UNIVERSITY DR,TX,75069
Del Taco,DAVIS,11,11 011 0011 #11,1649 RESEARCH PARK DR,CA,95618
Del Taco,LAKEWOOD,11,11 011 0011 #11,43 UNION BLVD,CO,80228
Del Taco,VANCOUVER,11,11 011 0011 #11,8724 NE HIGHWAY 99,WA,98665
Del Taco,Grand Junction,11,11 011 0011 #11,2878 North Ave,CO,81501
Del Taco,AURORA,12,12 012 0012 #12,24023 E. PROSPECT AVE.,CO,80016
Del Taco,ROUND ROCK,12,12 012 0012 #12,325 UNIVERSITY BLVD #100,TX,78665
Del Taco,PRESCOTT VALLEY,12,12 012 0012 #12,7091 EAST PAV WAY,AZ,86314
Del Taco,HILLSBORO,12,12 012 0012 #12,7390 NE BUTLER STREET,OR,97124
Del Taco,FAIR OAKS,12,12 012 0012 #12,8898 MADISON AVE,CA,95628
Del Taco,CEDAR PARK,13,13 013 0013 #13,1400 E. WHITESTONE #100,TX,78613
Del Taco,ROSEVILLE,13,13 013 0013 #13,1619 DOUGLAS BLVD,CA,95678
Del Taco,CEDAR CITY,13,13 013 0013 #13,1733 WEST ROYAL HUNTE DRIVE,UT,84720
Del Taco,ENGLEWOOD,13,13 013 0013 #13,50 WEST BELLEVIEW AVE.,CO,80110
Del Taco,SALEM,13,13 013 0013 #13,583 LANCASTER DR NE,OR,97301
Del Taco,CENTENNIAL,14,14 014 0014 #14,11155 EAST ARAPAHOE RD.,CO,80112
Del Taco,ALBANY,14,14 014 0014 #14,"1850 14TH AVE, SE",OR,97321
Del Taco,FOLSOM,14,14 014 0014 #14,2699 E BIDWELL ST,CA,95630
Del Taco,ANTHEM,14,14 014 0014 #14,4115 W ANTHEM WAY,AZ,85086
Del Taco,VACAVILLE,15,15 015 0015 #15,151 PEABODY ROAD,CA,95687
Del Taco,ROSEBURG,15,15 015 0015 #15,2435 STEWART PARKWAY,OR,97471
Del Taco,MESA,15,15 015 0015 #15,2645 NORTH POWER ROAD,AZ,85215
Del Taco,LAKEWOOD,15,15 015 0015 #15,5240 SOUTH WADSWORTH,CO,80123
Del Taco,San Marcos,15,15 015 0015 #15,660 E. Hopkins St,TX,78666
Del Taco,PHOENIX,16,16 016 0016 #16,16649 N TATUM BLVD,AZ,85032
Del Taco,SUISUN CITY,16,16 016 0016 #16,282 SUNSET AVENUE,CA,94585
Del Taco,MEDFORD,16,16 016 0016 #16,2860 CRATER LAKE HWY,OR,97504
Del Taco,LONETREE,16,16 016 0016 #16,7506 PARKWAY DR,CO,80124
Del Taco,HOUSTON,16,16 016 0016 #16,8910 WESTHEIMER RD,TX,77063
Del Taco,PARKER,17,17 017 0017 #17,11147 PIKES PEAK DRIVE,CO,80138
Del Taco,MESA,17,17 017 0017 #17,1842 SOUTH SIGNAL BUTTE ROAD,AZ,85209
Del Taco,REDDING,17,17 017 0017 #17,2602 HILLTOP DR,CA,96002
Del Taco,STOCKTON,17,17 017 0017 #17,817 WEST HAMMER LANE,CA,95210
Del Taco,San Antonio,17,17 017 0017 #17,10926 Culebra Rd,TX,78253
Del Taco,YUBA CITY,18,18 018 0018 #18,1078 HARTER ROAD,CA,95993
Del Taco,PHOENIX,18,18 018 0018 #18,1850 W UNION HILLS DR,AZ,85027
Del Taco,RED BLUFF,18,18 018 0018 #18,200 ANTELOPE BLVD,CA,96080
Del Taco,COLORADO SPRINGS,18,18 018 0018 #18,8020 N. ACADEMY BLVD,CO,80920
Del Taco,FAIRFIELD,19,19 019 0019 #19,201 PITTMAN ROAD,CA,94534
Del Taco,SPARKS,19,19 019 0019 #19,252 LOS ALTOS PKWY.,NV,89431
Del Taco,COLORADO SPRINGS,19,19 019 0019 #19,4310 N. ACADEMY BLVD.,CO,80918
Del Taco,WASHINGTON,19,19 019 0019 #19,786 WEST TELEGRAPH ROAD,UT,84780
Del Taco,FARR WEST,20,20 020 0020 #20,2618 NORTH 1850 WEST,UT,84404
Del Taco,MESA,20,20 020 0020 #20,3648 E SOUTHERN AVE,AZ,85206
Del Taco,PITTSBURG,20,20 020 0020 #20,4490 DELTA GATEWAY BLVD,CA,94565
Del Taco,COLORADO SPRINGS,20,20 020 0020 #20,1645 SPACECENTER DR,CO,80915
Del Taco,MANTECA,21,21 021 0021 #21,1194 E YOSEMITE AVE,CA,95337
Del Taco,GLENDALE,21,21 021 0021 #21,19880 N 59TH AVE,AZ,85308
Del Taco,RENO,21,21 021 0021 #21,2920 NORTHTOWNE LN,NV,89512
Del Taco,COLORADO SPRINGS,21,21 021 0021 #21,3855 ASTROZON BLVD.,CO,80916
Del Taco,SPARKS,22,22 022 0022 #22,2091 BRIERLY WAY,NV,89434
Del Taco,SALIDA,22,22 022 0022 #22,4300 SALIDA BLVD.,CA,95368
Del Taco,PHOENIX,22,22 022 0022 #22,15229 N 35TH AVE,AZ,85053
Del Taco,RENO,23,23 023 0023 #23,10140 MCCARRAN RD.,NV,89503
Del Taco,ST. GEORGE,23,23 023 0023 #23,1091 N. BLUFF ST. BLDG. 500,UT,84770
Del Taco,OGDEN,23,23 023 0023 #23,1160 WALL AVE,UT,84404
Del Taco,MODESTO,23,23 023 0023 #23,1601 STANDIFORD,CA,95356
Del Taco,PHOENIX,24,24 024 0024 #24,1901 W. NORTHERN AVE.,AZ,85021
Del Taco,MODESTO,24,24 024 0024 #24,2101 SYLVAN AVE.,CA,95355
Del Taco,CERES,25,25 025 0025 #25,2400 MITCHELL ROAD,CA,95307
Del Taco,ROY,25,25 025 0025 #25,4436 S 1900 W,UT,84067
Del Taco,GILBERT,25,25 025 0025 #25,900 S VAL VISTA DR,AZ,85296
Del Taco,MESA,26,26 026 0026 #26,1864 S COUNTRY CLUB DR,AZ,85210
Del Taco,RIVERDALE,26,26 026 0026 #26,4117 S RIVERDALE ROAD,UT,84405
Del Taco,RENO,26,26 026 0026 #26,5890 S VIRGINIA ST,NV,89502
Del Taco,NEWARK,26,26 026 0026 #26,6160 JARVIS AVE,CA,94560
Del Taco,TURLOCK,27,27 027 0027 #27,2401 FULKERTH ROAD,CA,95380
Del Taco,GLENDALE,27,27 027 0027 #27,7930 W BELL RD,AZ,85308
Del Taco,RENO,28,28 028 0028 #28,12490 OLD VIRGINIA RD,NV,89521
Del Taco,PHOENIX,28,28 028 0028 #28,1628 N 44TH ST,AZ,85008
Del Taco,PARK CITY,28,28 028 0028 #28,1723 UTE BLVD,UT,84098
Del Taco,CAMPBELL,28,28 028 0028 #28,771 W HAMILTON AVE,CA,95008
Del Taco,SANTA NELLA,29,29 029 0029 #29,29025 W. PLAZA PARK DRIVE,CA,95322
Del Taco,PHOENIX,29,29 029 0029 #29,305 E THOMAS RD,AZ,85012
Del Taco,LAYTON,29,29 029 0029 #29,737 N. MAIN STREET,UT,84041
Del Taco,BOUNTIFUL,30,30 030 0030 #30,196 WEST 500 SOUTH,UT,84010
Del Taco,CARSON CITY,30,30 030 0030 #30,3780 HWY 395,NV,89705
Del Taco,Phoenix,30,30 030 0030 #30,4252 S. 48th Street,AZ,85040
Del Taco,LAKE POINT,31,31 031 0031 #31,1428 ARIMO ROAD,UT,84074
Del Taco,SALT LAKE CITY,31,31 031 0031 #31,809 E. 400 SOUTH,UT,84109
Del Taco,CARSON CITY,31,31 031 0031 #31,822 E COLLEGE PKWY,NV,89706
Del Taco,PEORIA,31,31 031 0031 #31,9171 W PEORIA AVE,AZ,85345
Del Taco,MERCED,32,32 032 0032 #32,1798 WEST OLIVE AVE,CA,95348
Del Taco,CHANDLER,32,32 032 0032 #32,2510 E GERMANN ROAD,AZ,85286
Del Taco,SALT LAKE CITY,32,32 032 0032 #32,3010 HIGHLAND DR,UT,84106
Del Taco,CHANDLER,33,33 033 0033 #33,1900 WEST RAY RD.,AZ,85224
Del Taco,MURRAY,33,33 033 0033 #33,5672 SOUTH 900 EAST,UT,84121
Del Taco,SURPRISE,34,34 034 0034 #34,13367 W GRAND AVE,AZ,85374
Del Taco,SALT LAKE CITY,34,34 034 0034 #34,2000 S. 3230 WEST,UT,84104
Del Taco,WEST VALLEY CITY,34,34 034 0034 #34,2963 S. 5600 WEST,UT,84128
Del Taco,CHANDLER,35,35 035 0035 #35,1035 S. ARIZONA AVENUE,AZ,85286
Del Taco,SANDY,35,35 035 0035 #35,8580 S 1300 E,UT,84094
Del Taco,PHOENIX,36,36 036 0036 #36,4101 N 67TH AVE,AZ,85033
Del Taco,WATSONVILLE,37,37 037 0037 #37,1401 MAIN ST,CA,95076
Del Taco,WEST JORDAN,37,37 037 0037 #37,6876 REDWOOD RD,UT,84084
Del Taco,GLENDALE,37,37 037 0037 #37,9672 WEST CAMELBACK RD,AZ,85305
Del Taco,SOUTH JORDAN,38,38 038 0038 #38,1651 W SOUTH JORDAN PKWY,UT,84095
Del Taco,PHOENIX,38,38 038 0038 #38,4926 E CHANDLER BLVD,AZ,85048
Del Taco,OREM,39,39 039 0039 #39,1599 N STATE ST,UT,84057
Del Taco,PHOENIX,39,39 039 0039 #39,7665 W. LOWER BUCKEYE RD,AZ,85043
Del Taco,AVONDALE,40,40 040 0040 #40,1483 N DYSART RD,AZ,85323
Del Taco,AMERICAN FORK,40,40 040 0040 #40,730 E STATE RD,UT,84003
Del Taco,MESQUITE,41,41 041 0041 #41,20 FALCON RIDGE PARKWAY,NV,89027
Del Taco,AMERICAN FORK,41,41 041 0041 #41,424 NORTH 900 WEST,UT,84003
Del Taco,OREM,42,42 042 0042 #42,1055 S. STATE STREET,UT,84097
Del Taco,CASA GRANDE,42,42 042 0042 #42,2223 EAST FLORENCE BLVD.,AZ,85222
Del Taco,FRESNO,42,42 042 0042 #42,3868 W SHAW AVE,CA,93711
Del Taco,KINGMAN,43,43 043 0043 #43,3390 N STOCKTON HILL RD,AZ,86401
Del Taco,LEHI,43,43 043 0043 #43,3633 NORTH THANKSGIVING WAY,UT,84043
Del Taco,FRESNO,43,43 043 0043 #43,5385 N BLACKSTONE AVE.,CA,93704
Del Taco,PROVO,44,44 044 0044 #44,132 E 1230 N,UT,84604
Del Taco,TUCSON,44,44 044 0044 #44,1530 W GRANT RD,AZ,85745
Del Taco,VISALIA,44,44 044 0044 #44,5348 WEST CYPRESS AVENUE,CA,93277
Del Taco,SARATOGA SPRINGS,45,45 045 0045 #45,128 EAST STATE ROAD 73,UT,84045
Del Taco,TULARE,45,45 045 0045 #45,1415 HILLMAN ST,CA,93274
Del Taco,TUCSON,45,45 045 0045 #45,840 E BROADWAY BLVD,AZ,85719
Del Taco,BAKERSFIELD,46,46 046 0046 #46,35145 MERLE HAGGARD DRIVE,CA,93308
Del Taco,SPRINGVILLE,46,46 046 0046 #46,442 SOUTH 1750 WEST,UT,84663
Del Taco,SANTA MARIA,47,47 047 0047 #47,1816 N BROADWAY,CA,93454
Del Taco,BAKERSFIELD,48,48 048 0048 #48,8270 ROSEDALE HWY,CA,93312
Del Taco,SANTA MARIA,49,49 049 0049 #49,1565 S BROADWAY,CA,93454
Del Taco,BAKERSFIELD,50,50 050 0050 #50,3624 CALIFORNIA AVENUE,CA,93309
Del Taco,BAKERSFIELD,51,51 051 0051 #51,2663 MT. VERNON AVE.,CA,93306
Del Taco,BAKERSFIELD,52,52 052 0052 #52,4250 MING AVE,CA,93309
Del Taco,BAKERSFIELD,53,53 053 0053 #53,5211 GOSFORD ROAD,CA,93313
Del Taco,BULLHEAD CITY,54,54 054 0054 #54,1845 HIGHWAY 95,AZ,86442
Del Taco,BAKERSFIELD,54,54 054 0054 #54,2518 WHITE LANE,CA,93304
Del Taco,LAKE HAVASU,55,55 055 0055 #55,81 LONDON BRIDGE RD,AZ,86403
Del Taco,LEBEC,56,56 056 0056 #56,6541 DENNIS MCCARTHY DRIVE,CA,93243
Del Taco,TEHACHAPI,57,57 057 0057 #57,645 TUCKER ROAD,CA,93561
Del Taco,RIDGECREST,58,58 058 0058 #58,1020 N NORMA ST,CA,93555
Del Taco,SANTA PAULA,59,59 059 0059 #59,55 HALLOCK DRIVE,CA,93060
Del Taco,HENDERSON,59,59 059 0059 #59,898 S BOULDER HWY,NV,89015
Del Taco,HENDERSON,60,60 060 0060 #60,150 NORTH BOULDER HIGHWAY,NV,85308
Del Taco,VENTURA,60,60 060 0060 #60,4393 E MAIN ST,CA,93003
Del Taco,LANCASTER,61,61 061 0061 #61,1138 W AVENUE I,CA,93534
Del Taco,LANCASTER,62,62 062 0062 #62,4131 W AVENUE L,CA,93536
Del Taco,HENDERSON,62,62 062 0062 #62,550 MARKS ST,NV,89014
Del Taco,LAS VEGAS,63,63 063 0063 #63,4380 N NELLIS BLVD,NV,89115
Del Taco,LANCASTER,63,63 063 0063 #63,43999 15TH ST W,CA,93534
Del Taco,PALMDALE,64,64 064 0064 #64,5010 WEST AVENUE N,CA,95729
Del Taco,LAS VEGAS,64,64 064 0064 #64,5526 BOULDER HWY,NV,89122
Del Taco,OXNARD,65,65 065 0065 #65,2000 N ROSE AVE,CA,93036
Del Taco,LAS VEGAS,65,65 065 0065 #65,348 N NELLIS BLVD,NV,89110
Del Taco,LANCASTER,66,66 066 0066 #66,1751 E AVE J,CA,93535
Del Taco,VALENCIA,67,67 067 0067 #67,28082 THE OLD RD,CA,91355
Del Taco,HENDERSON,67,67 067 0067 #67,4449 E SUNSET ROAD,NV,89014
Del Taco,LAS VEGAS,68,68 068 0068 #68,3244 E DESERT INN RD,NV,89121
Del Taco,OXNARD,68,68 068 0068 #68,601 S VENTURA RD,CA,93030
Del Taco,CAMARILLO,69,69 069 0069 #69,121 VENTURA BLVD,CA,93010
Del Taco,HENDERSON,69,69 069 0069 #69,180 PECOS,NV,89014
Del Taco,NORTH LAS VEGAS,70,70 070 0070 #70,2531 EAST CRAIG ROAD,NV,89030
Del Taco,MOORPARK,70,70 070 0070 #70,848 LOS ANGELES AVE.,CA,93021
Del Taco,NORTH LAS VEGAS,71,71 071 0071 #71,1811 W. CRAIG RD.,NV,89030
Del Taco,STEVENSON RANCH,71,71 071 0071 #71,24909 W. PICO CANYON RD.,CA,91381
Del Taco,SAUGUS,72,72 072 0072 #72,26270 N BOUQUET CANYON RD,CA,91350
Del Taco,SIMI VALLEY,73,73 073 0073 #73,1098 ENCHANTED WAY,CA,93065
Del Taco,LAS VEGAS,73,73 073 0073 #73,1197 E. TROPICANA,NV,86690
Del Taco,LAS VEGAS,74,74 074 0074 #74,1802 E. CHARLESTON BLVD.,NV,89104
Del Taco,PALMDALE,74,74 074 0074 #74,421 W PALMDALE BLVD,CA,93551
Del Taco,LAS VEGAS,74,74 074 0074 #74,7757 N. EL CAPITAN WAY,NV,89143
Del Taco,NEWHALL,75,75 075 0075 #75,23650 LYONS AVE,CA,91321
Del Taco,LAS VEGAS,75,75 075 0075 #75,5975 SOUTH EASTERN AVE,NV,89119
Del Taco,LAS VEGAS,75,75 075 0075 #75,6311 CENTENNIAL CENTER BLVD,NV,89149
Del Taco,SANTA CLARITA,76,76 076 0076 #76,18802 VIA PRINCESSA,CA,91351
Del Taco,SIMI VALLEY,77,77 077 0077 #77,1408 E. LOS ANGELES AV.,CA,93065
Del Taco,LAS VEGAS,77,77 077 0077 #77,4470 N. RANCHO DRIVE,NV,89130
Del Taco,SIMI VALLEY,78,78 078 0078 #78,2990 COCHRAN ST,CA,93065
Del Taco,PALMDALE,79,79 079 0079 #79,1763 E PALMDALE BLVD,CA,93550
Del Taco,NORTH LAS VEGAS,79,79 079 0079 #79,2450 N RANCHO DRIVE,NV,89130
Del Taco,LAS VEGAS,80,80 080 0080 #80,1801 W CHARLESTON BLVD,NV,89102
Del Taco,NEWBURY PARK,80,80 080 0080 #80,591 N VENTU PARK RD,CA,91320
Del Taco,LAS VEGAS,81,81 081 0081 #81,3785 LAS VEGAS BLVD #209,NV,89109
Del Taco,SIMI VALLEY,81,81 081 0081 #81,5197 E. LOS ANGELES AVENUE,CA,93063
Del Taco,PALMDALE,82,82 082 0082 #82,2534 E. AVENUE S,CA,93550
Del Taco,LAS VEGAS,82,82 082 0082 #82,9680 LAS VEGAS BLVD SOUTH,NV,89123
Del Taco,CHATSWORTH,84,84 084 0084 #84,21920 LASSEN ST,CA,91311
Del Taco,LAS VEGAS,84,84 084 0084 #84,2320 E. SERENE,NV,89123
Del Taco,GRANADA HILLS,85,85 085 0085 #85,18070 CHATSWORTH ST,CA,91344
Del Taco,SAN FERNANDO,86,86 086 0086 #86,2021 GLENOAKS BLVD,CA,91340
Del Taco,LAS VEGAS,86,86 086 0086 #86,280 N JONES BLVD,NV,89107
Del Taco,LAS VEGAS,87,87 087 0087 #87,3922 BLUE DIAMOND ROAD,NV,89139
Del Taco,LAS VEGAS,87,87 087 0087 #87,7480 W. LAKE MEAD BLVD.,NV,89128
Del Taco,NORTHRIDGE,87,87 087 0087 #87,8941 CORBIN AVE,CA,91324
Del Taco,MISSION HILLS,88,88 088 0088 #88,15353 CHATSWORTH ST,CA,91345
Del Taco,CANOGA PARK,89,89 089 0089 #89,7121 CARLSON CIR,CA,91303
Del Taco,NORTHRIDGE,90,90 090 0090 #90,19309 ROSCOE BLVD.,CA,91324
Del Taco,LAS VEGAS,90,90 090 0090 #90,5915 W SAHARA AVE,NV,89102
Del Taco,NORTH HILLS,91,91 091 0091 #91,15330 NORDHOFF STREET,CA,91343
Del Taco,RESEDA,92,92 092 0092 #92,19644 VANOWEN ST,CA,91335
Del Taco,LAS VEGAS,92,92 092 0092 #92,5955 W. TROPICANA AVE.,NV,89103
Del Taco,VAN NUYS,93,93 093 0093 #93,7545 BALBOA BLVD,CA,91406
Del Taco,VAN NUYS,94,94 094 0094 #94,6821 BALBOA BLVD,CA,91406
Del Taco,PANORAMA CITY,95,95 095 0095 #95,13701 ROSCOE BLVD,CA,91402
Del Taco,LAS VEGAS,95,95 095 0095 #95,7165 S. RAINBOW BLVD,NV,89118
Del Taco,LAS VEGAS,95,95 095 0095 #95,8471 WEST SAHARA AVE/DURANGO,NV,89117
Del Taco,NORTH HOLLYWOOD,96,96 096 0096 #96,6710 LAUREL CANYON BLVD,CA,91606
Del Taco,LAS VEGAS,97,97 097 0097 #97,10320 W CHARLESTON BLVD,NV,89135
Del Taco,TUJUNGA,97,97 097 0097 #97,6275 FOOTHILL BLVD,CA,91042
Del Taco,BURBANK,98,98 098 0098 #98,2515 N. HOLLYWOOD WAY,CA,91505
Del Taco,BURBANK,99,99 099 0099 #99,3714 W VERDUGO AVE,CA,91505
Del Taco,GLENDALE,100,100 0100 00100 #100,2101 W GLENOAKS BLVD,CA,91201
Del Taco,LAS VEGAS,101,101 0101 00101 #101,5180 S FORT APACHE ROAD,NV,89148
Del Taco,GLENDALE,101,101 0101 00101 #101,6550 SAN FERNANDO RD,CA,91201
Del Taco,BARSTOW,102,102 0102 00102 #102,401 N 1ST AVE,CA,92311
Del Taco,BARSTOW,103,103 0103 00103 #103,2871 LENWOOD RD,CA,92311
Del Taco,BARSTOW,104,104 0104 00104 #104,1310 E MOUNTAIN VIEW ST,CA,92311
Del Taco,LOS ANGELES,105,105 0105 00105 #105,11066 SANTA MONICA BLVD,CA,90024
Del Taco,LOS ANGELES,106,106 0106 00106 #106,3020 LOS FELIZ BLVD,CA,90039
Del Taco,LOS ANGELES,107,107 0107 00107 #107,4376 W. SUNSET BLVD,CA,90029
Del Taco,VENICE,108,108 0108 00108 #108,4050 LINCOLN BLVD,CA,90291
Del Taco,LOS ANGELES,109,109 0109 00109 #109,2060 S. LA CIENEGA BLVD.,CA,90034
Del Taco,CULVER CITY,110,110 0110 00110 #110,3705 ROBERTSON BLVD,CA,90232
Del Taco,PASADENA,111,111 0111 00111 #111,844 E UNION ST,CA,91101
Del Taco,BALDWIN HILLS,112,112 0112 00112 #112,3540 SOUTH LA BREA AVE..,CA,90016
Del Taco,PASADENA,113,113 0113 00113 #113,3566 E FOOTHILL BLVD,CA,91107
Del Taco,CULVER CITY,114,114 0114 00114 #114,11446 JEFFERSON BLVD,CA,90230
Del Taco,ADELANTO,115,115 0115 00115 #115,14200 HIGHWAY 395,CA,92301
Del Taco,YUMA,115,115 0115 00115 #115,8069 E 32ND STREET,AZ,85365
Del Taco,LOS ANGELES,116,116 0116 00116 #116,2735 S FIGUEROA ST,CA,90007
Del Taco,BLYTHE,117,117 0117 00117 #117,120 S LOVEKIN BLVD,CA,92225
Del Taco,LOS ANGELES,117,117 0117 00117 #117,8651 SO. LA TIJERA AVE.,CA,90045
Del Taco,Monrovia,118,118 0118 00118 #118,935 E. Huntington Drive,CA,91016
Del Taco,VICTORVILLE,119,119 0119 00119 #119,15070 7TH ST,CA,92395
Del Taco,VICTORVILLE,120,120 0120 00120 #120,15470 PALMDALE ROAD,CA,92395
Del Taco,VICTORVILLE,121,121 0121 00121 #121,13610 BEAR VALLEY ROAD,CA,92392
Del Taco,EL MONTE,122,122 0122 00122 #122,9200 FLAIR DRIVE,CA,91731
Del Taco,INGLEWOOD,123,123 0123 00123 #123,3510 W. CENTURY BLVD,CA,90303
Del Taco,VICTORVILLE,124,124 0124 00124 #124,14812 BEAR VALLEY RD,CA,92392
Del Taco,BAKER,124,124 0124 00124 #124,72197 BAKER BLVD,CA,92309
Del Taco,MONTEBELLO,125,125 0125 00125 #125,880 N WILCOX AVE,CA,90640
Del Taco,HESPERIA,126,126 0126 00126 #126,13253 MAIN STREET,CA,92345
Del Taco,YUMA,126,126 0126 00126 #126,1830 E. 16TH STR,AZ,85365
Del Taco,LOS ANGELES,127,127 0127 00127 #127,1816 W IMPERIAL HWY,CA,90047
Del Taco,YUMA,127,127 0127 00127 #127,2451 SOUTH AVENUE B,AZ,85364
Del Taco,BALDWIN PARK,128,128 0128 00128 #128,12690 RAMONA BLVD.,CA,91706
Del Taco,TWENTYNINE PALMS,128,128 0128 00128 #128,72636 29 PALMS HWY,CA,92277
Del Taco,AZUSA,129,129 0129 00129 #129,106 S AZUSA AVE,CA,91702
Del Taco,BRAWLEY,129,129 0129 00129 #129,1120 S BRAWLEY AVE,CA,92227
Del Taco,APPLE VALLEY,130,130 0130 00130 #130,20306 HWY 18,CA,92307
Del Taco,COACHELLA,130,130 0130 00130 #130,85494 VISTA DEL NORTE,CA,92236
Del Taco,GLENDORA,131,131 0131 00131 #131,445 W FOOTHILL BLVD,CA,91740
Del Taco,MECCA,131,131 0131 00131 #131,90480 66TH AVE.,CA,92254
Del Taco,VICTORVILLE,132,132 0132 00132 #132,12253 HESPERIA RD,CA,92392
Del Taco,YUCCA VALLEY,132,132 0132 00132 #132,57736 29 PALMS HWY,CA,92284
Del Taco,HAWTHORNE,133,133 0133 00133 #133,14485 INGLEWOOD AVE,CA,90250
Del Taco,COACHELLA,133,133 0133 00133 #133,52119 HARRISON STREET,CA,92236
Del Taco,EL CENTRO,134,134 0134 00134 #134,2039 NORTH IMPERIAL AVENUE,CA,92243
Del Taco,COMMERCE,134,134 0134 00134 #134,6126 E. WASHINGTON BLVD,CA,90040
Del Taco,SO. EL MONTE,135,135 0135 00135 #135,1818 S. DURFEE,CA,91733
Del Taco,YUCCA VALLEY,135,135 0135 00135 #135,56748 29 PALMS HWY,CA,92284
Del Taco,VICTORVILLE,136,136 0136 00136 #136,17918 BEAR VALLEY RD,CA,92395
Del Taco,INDIO,136,136 0136 00136 #136,82742 STATE HIGHWAY 111,CA,92201
Del Taco,GLENDORA,137,137 0137 00137 #137,1834 E. ROUTE 66,CA,91740
Del Taco,INDIO,137,137 0137 00137 #137,81566 STATE HIGHWAY 111,CA,92201
Del Taco,EL CENTRO,138,138 0138 00138 #138,1540 OCOTILLO DR,CA,92243
Del Taco,HESPERIA,138,138 0138 00138 #138,15797 MAIN ST,CA,92345
Del Taco,APPLE VALLEY,139,139 0139 00139 #139,12207 APPLE VALLEY ROAD,CA,92308
Del Taco,PALM DESERT,139,139 0139 00139 #139,39500 BERKEY DR,CA,92211
Del Taco,APPLE VALLEY,140,140 0140 00140 #140,13730 NAVAJO RD,CA,92307
Del Taco,LA QUINTA,140,140 0140 00140 #140,78468 STATE HIGHWAY 111,CA,92253
Del Taco,PALM DESERT,141,141 0141 00141 #141,34540 MONTEREY AVENUE,CA,92211
Del Taco,PICO RIVERA,141,141 0141 00141 #141,8650 WASHINGTON BLVD,CA,90660
Del Taco,GARDENA,142,142 0142 00142 #142,16216 CRENSHAW BLVD,CA,90249
Del Taco,THOUSAND PALMS,142,142 0142 00142 #142,72325 VARNER RD,CA,92276
Del Taco,PALM DESERT,143,143 0143 00143 #143,74617 STATE HIGHWAY 111,CA,92260
Del Taco,PHELAN,143,143 0143 00143 #143,8324 HIGHWAY 138,CA,92371
Del Taco,DESERT HOT SPRNGS,144,144 0144 00144 #144,14290 PALM DR,CA,92240
Del Taco,COVINA,144,144 0144 00144 #144,459 S CITRUS AVE,CA,91723
Del Taco,HESPERIA,145,145 0145 00145 #145,17292 MAIN ST,CA,92345
Del Taco,CATHEDRAL CITY,145,145 0145 00145 #145,69070 RAMON ROAD,CA,92234
Del Taco,PALM SPRINGS,146,146 0146 00146 #146,5601 EAST RAMON ROAD UNIT C,CA,92262
Del Taco,SAN DIMAS,146,146 0146 00146 #146,694 W ARROW HWY,CA,91773
Del Taco,TORRANCE,147,147 0147 00147 #147,20135 HAWTHORNE BLVD,CA,90503
Del Taco,CATHEDRAL CITY,147,147 0147 00147 #147,67794 E PALM CANYON DR,CA,92234
Del Taco,PALM SPRINGS,148,148 0148 00148 #148,6620 N. INDIAN CANYON,CA,92262
Del Taco,DOWNEY,148,148 0148 00148 #148,8028 FIRESTONE BLVD,CA,90241
Del Taco,PALM SPRINGS,149,149 0149 00149 #149,102 N SUNRISE WAY,CA,92262
Del Taco,GARDENA,149,149 0149 00149 #149,18604 S WESTERN AVE,CA,90248
Del Taco,LA VERNE,150,150 0150 00150 #150,1398 FOOTHILL BLVD,CA,91750
Del Taco,PALM SPRINGS,150,150 0150 00150 #150,2444 N PALM CANYON DR,CA,92262
Del Taco,CARSON,151,151 0151 00151 #151,17504 AVALON BLVD,CA,90746
Del Taco,SANTA FE SPRINGS,152,152 0152 00152 #152,11344 TELEGRAPH RD,CA,90670
Del Taco,HACIENDA HEIGHTS,153,153 0153 00153 #153,1110 S HACIENDA BLVD,CA,91745
Del Taco,WHITTIER,154,154 0154 00154 #154,12320 WASHINGTON BLVD,CA,90606
Del Taco,BANNING,154,154 0154 00154 #154,1964 W RAMSEY ST,CA,92220
Del Taco,COMPTON,155,155 0155 00155 #155,1641 S. ALAMEDA ST,CA,90220
Del Taco,HACIENDA HEIGHTS,156,156 0156 00156 #156,2395 S. HACIENDA BLVD,CA,91745
Del Taco,BEAUMONT,157,157 0157 00157 #157,435 E 4TH STREET,CA,92223
Del Taco,WHITTIER,157,157 0157 00157 #157,9719 CARMENITA RD,CA,90605
Del Taco,BELLFLOWER,158,158 0158 00158 #158,14301 CLARK AVE,CA,90706
Del Taco,YUCAIPA,158,158 0158 00158 #158,34860 YUCAIPA BLVD,CA,92399
Del Taco,TORRANCE,159,159 0159 00159 #159,1595 SEPULVEDA BLVD,CA,90501
Del Taco,WHITTIER,160,160 0160 00160 #160,15266 WHITTIER BLVD,CA,90603
Del Taco,HEMET,160,160 0160 00160 #160,41871 STATE HIGHWAY 74,CA,92544
Del Taco,POMONA,161,161 0161 00161 #161,1495 N GAREY AVE,CA,91767
Del Taco,CALIMESA,161,161 0161 00161 #161,33940 COUNTY LINE RD,CA,92320
Del Taco,UPLAND,162,162 0162 00162 #162,1653 W FOOTHILL BLVD,CA,91786
Del Taco,YUCAIPA,162,162 0162 00162 #162,33299 YUCAIPA BLVD,CA,92399
Del Taco,SANTA FE SPRINGS,163,163 0163 00163 #163,13204 IMPERIAL HIGHWAY,CA,90670
Del Taco,SAN JACINTO,164,164 0164 00164 #164,1231 N STATE STREET,CA,92583
Del Taco,WALNUT,164,164 0164 00164 #164,20259 VALLEY BLVD,CA,91789
Del Taco,SAN JACINTO,165,165 0165 00165 #165,1401 SAN JACINTO AVE,CA,92583
Del Taco,NORWALK,166,166 0166 00166 #166,10644 ALONDRA BLVD.,CA,90650
Del Taco,UPLAND,167,167 0167 00167 #167,179 N CENTRAL AVE,CA,91786
Del Taco,RANCHO CUCAMONGA,168,168 0168 00168 #168,6799 CARNELIAN ST,CA,91701
Del Taco,LONG BEACH,169,169 0169 00169 #169,3501 E SOUTH ST,CA,90805
Del Taco,CARSON,170,170 0170 00170 #170,1933 E 223RD ST,CA,90810
Del Taco,HARBOR CITY,171,171 0171 00171 #171,1229 PACIFIC COAST HWY,CA,90710
Del Taco,HEMET,171,171 0171 00171 #171,3100 W FLORIDA AVE,CA,92545
Del Taco,WALNUT,172,172 0172 00172 #172,21060 GOLDEN SPRINGS DR,CA,91789
Del Taco,LA MIRADA,173,173 0173 00173 #173,15055 IMPERIAL HWY,CA,90638
Del Taco,HIGHLAND,173,173 0173 00173 #173,3702 HIGHLAND AVE,CA,92346
Del Taco,HIGHLAND,174,174 0174 00174 #174,27923 GREENSPOT ROAD,CA,92346
Del Taco,DIAMOND BAR,174,174 0174 00174 #174,520 DIAMOND BAR BLVD,CA,91765
Del Taco,REDLANDS,175,175 0175 00175 #175,602 E REDLANDS BLVD,CA,92373
Del Taco,RANCHO CUCAMONGA,175,175 0175 00175 #175,6341 HAVEN AVENUE,CA,93836
Del Taco,UPLAND,176,176 0176 00176 #176,1371 E FOOTHILL BLVD,CA,91786
Del Taco,RANCHO CUCAMONGA,177,177 0177 00177 #177,7247 ARCHIBALD AVE,CA,91701
Del Taco,ARTESIA,178,178 0178 00178 #178,11879 ARTESIA BLVD,CA,90701
Del Taco,SAN BERNARDINO,178,178 0178 00178 #178,2002 E HIGHLAND AVE,CA,92404
Del Taco,REDLANDS,179,179 0179 00179 #179,1624 W REDLANDS BLVD,CA,92373
Del Taco,LONG BEACH,181,181 0181 00181 #181,2120 E CARSON ST,CA,90807
Del Taco,SAN BERNARDINO,181,181 0181 00181 #181,2855 DEL ROSA AVE,CA,92404
Del Taco,LA HABRA,182,182 0182 00182 #182,751 S BEACH BLVD,CA,90631
Del Taco,SAN BERNARDINO,183,183 0183 00183 #183,272 E 40TH ST,CA,92404
Del Taco,ONTARIO,183,183 0183 00183 #183,624 N MOUNTAIN AVE,CA,91762
Del Taco,MORENO VALLEY,184,184 0184 00184 #184,12641 MORENO BEACH DRIVE,CA,92552
Del Taco,LOMA LINDA,185,185 0185 00185 #185,24898 REDLANDS BLVD,CA,92354
Del Taco,SAN PEDRO,186,186 0186 00186 #186,1006 N WESTERN AVE,CA,90732
Del Taco,SAN BERNARDINO,186,186 0186 00186 #186,770 W 2ND ST,CA,92410
Del Taco,SAN BERNARDINO,187,187 0187 00187 #187,2665 S WATERMAN AVE,CA,92408
Del Taco,RANCHO CUCAMONGA,187,187 0187 00187 #187,7968 HAVEN AVE,CA,91730
Del Taco,LAKEWOOD,188,188 0188 00188 #188,11723 DEL AMO BLVD,CA,90715
Del Taco,SAN BERNARDINO,188,188 0188 00188 #188,4344 UNIVERSITY PKWY.,CA,92407
Del Taco,MORENO VALLEY,189,189 0189 00189 #189,24941 ELDER AVE,CA,92557
Del Taco,FONTANA,189,189 0189 00189 #189,3864 SIERRA AVE,CA,92336
Del Taco,SIGNAL HILL,190,190 0190 00190 #190,1801 WILLOW STREET,CA,90755
Del Taco,MORENO VALLEY,190,190 0190 00190 #190,25024 ALLESANDRO BLVD,CA,92553
Del Taco,ONTARIO,191,191 0191 00191 #191,1909 E 4TH ST,CA,91764
Del Taco,MORENO VALLEY,191,191 0191 00191 #191,23573 SUNNYMEAD RANCH PKWY,CA,92557
Del Taco,CHINO,192,192 0192 00192 #192,12080 CENTRAL AVE,CA,91710
Del Taco,MORENO VALLEY,192,192 0192 00192 #192,16150 PERRIS BLVD,CA,92551
Del Taco,COLTON,193,193 0193 00193 #193,1010 E WASHINGTON ST,CA,92324
Del Taco,LONG BEACH,193,193 0193 00193 #193,7211 E. CARSON BLVD.,CA,90808
Del Taco,MORENO VALLEY,194,194 0194 00194 #194,12625 FREDERICK ST,CA,92553
Del Taco,FONTANA,194,194 0194 00194 #194,15300 SUMMIT AVE,CA,92336
Del Taco,BUENA PARK,195,195 0195 00195 #195,6014 ORANGETHORPE AVE,CA,90620
Del Taco,COLTON,195,195 0195 00195 #195,834 W VALLEY BLVD,CA,92324
Del Taco,FULLERTON,196,196 0196 00196 #196,1020 ROSECRANS AVE,CA,92833
Del Taco,RIALTO,196,196 0196 00196 #196,2000 N. RIVERSIDE AVE.,CA,92377
Del Taco,PERRIS,197,197 0197 00197 #197,3150 CASE ROAD BLDG E,CA,92570
Del Taco,RANCHO CUCAMONGA,197,197 0197 00197 #197,8055 MONET AVE,CA,91739
Del Taco,MENIFEE,198,198 0198 00198 #198,30107 ANTELOPE RD,CA,92584
Del Taco,ONTARIO,199,199 0199 00199 #199,2304 S MOUNTAIN AVE,CA,91762
Del Taco,RIALTO,199,199 0199 00199 #199,519 S RIVERSIDE AVE,CA,92376
Del Taco,LONG BEACH,200,200 0200 00200 #200,3190 E PACIFIC COAST HWY,CA,90804
Del Taco,PERRIS,200,200 0200 00200 #200,421 E 4TH ST,CA,92570
Del Taco,WINCHESTER,201,201 0201 00201 #201,30640 BENTON ROAD,CA,92596
Del Taco,PERRIS,202,202 0202 00202 #202,1688 N. PERRIS BLVD.UNIT A,CA,92570
Del Taco,CHINO,202,202 0202 00202 #202,5740 RIVERSIDE DR,CA,91710
Del Taco,CHINO,203,203 0203 00203 #203,4053 GRAND AVE,CA,91710
Del Taco,RIVERSIDE,204,204 0204 00204 #204,1255 UNIVERSITY AVE,CA,92507
Del Taco,ONTARIO,204,204 0204 00204 #204,2535 S EUCLID AVE,CA,91761
Del Taco,MURRIETA,205,205 0205 00205 #205,28055 SCOTT ROAD,CA,92563
Del Taco,LONG BEACH,206,206 0206 00206 #206,2201 PALO VERDE AVE,CA,90815
Del Taco,RIVERSIDE,207,207 0207 00207 #207,401 E. ALESSANDRO BLVD,CA,92508
Del Taco,ONTARIO,207,207 0207 00207 #207,4340 MILLS CIRCLE,CA,91761
Del Taco,MENIFEE,208,208 0208 00208 #208,25900 NEWPORT ROAD,CA,92584
Del Taco,TEMECULA,209,209 0209 00209 #209,44260 REDHAWK PKWY,CA,92592
Del Taco,CYPRESS,209,209 0209 00209 #209,5981 ORANGE AVE,CA,90630
Del Taco,ANAHEIM,210,210 0210 00210 #210,1141 N MAGNOLIA AVE,CA,92801
Del Taco,MURRIETA,210,210 0210 00210 #210,27596 CLINTON KEITH RD,CA,92562
Del Taco,FONTANA,211,211 0211 00211 #211,16930 FOOTHILL BLVD,CA,92335
Del Taco,ANAHEIM,211,211 0211 00211 #211,3181 W. LINCOLN AVE,CA,92801
Del Taco,RIVERSIDE,212,212 0212 00212 #212,18990 VAN BUREN BLVD,CA,92508
Del Taco,FULLERTON,212,212 0212 00212 #212,1941 N PLACENTIA AVE,CA,92831
Del Taco,PLACENTIA,213,213 0213 00213 #213,1171 E. IMPERIAL HIGHWAY,CA,92870
Del Taco,TEMECULA,213,213 0213 00213 #213,40375 WINCHESTER RD,CA,92591
Del Taco,ANAHEIM,214,214 0214 00214 #214,1290 N EUCLID ST,CA,92801
Del Taco,RIVERSIDE,214,214 0214 00214 #214,4407 BROCKTON AVE,CA,92501
Del Taco,FULLERTON,216,216 0216 00216 #216,2408 E CHAPMAN AVE,CA,92831
Del Taco,FONTANA,216,216 0216 00216 #216,9906 SIERRA AVE,CA,92335
Del Taco,MURRIETA HOT SPRINGS,217,217 0217 00217 #217,40465 ALTA MURRIETA,CA,92563
Del Taco,ANAHEIM,218,218 0218 00218 #218,1155 E ORANGETHORPE AVE,CA,92801
Del Taco,TEMECULA,218,218 0218 00218 #218,27453 YNEZ RD,CA,92591
Del Taco,FONTANA,219,219 0219 00219 #219,16805 SLOVER AVE,CA,92337
Del Taco,ONTARIO,219,219 0219 00219 #219,4850 E MOTOR LANE,CA,91761
Del Taco,RIVERSIDE,220,220 0220 00220 #220,6333 RIVERSIDE AVE,CA,92506
Del Taco,TEMECULA,221,221 0221 00221 #221,27445 JEFFERSON AVE,CA,92590
Del Taco,TEMECULA,222,222 0222 00222 #222,30607 HWY-79 SOUTH,CA,92590
Del Taco,RIVERSIDE,223,223 0223 00223 #223,3487 ARLINGTON AVE,CA,92506
Del Taco,ANAHEIM,223,223 0223 00223 #223,955 N HARBOR BLVD,CA,92805
Del Taco,RIVERSIDE,224,224 0224 00224 #224,17080 VAN BUREN BLVD,CA,92504
Del Taco,STANTON,224,224 0224 00224 #224,7001 KATELLA AVE,CA,90680
Del Taco,FONTANA,225,225 0225 00225 #225,10020 CHERRY AVE,CA,92335
Del Taco,RIVERSIDE,225,225 0225 00225 #225,5290 ARLINGTON AVE,CA,92504
Del Taco,WILDOMAR,226,226 0226 00226 #226,36164 HIDDEN SPRINGS ROAD,CA,92595
Del Taco,SEAL BEACH,227,227 0227 00227 #227,2900 WESTMINSTER AVE,CA,90740
Del Taco,PLACENTIA,228,228 0228 00228 #228,1851 E ORANGETHORPE AVE,CA,92870
Del Taco,LAKE ELSINORE,228,228 0228 00228 #228,31904 MISSION TRL,CA,92530
Del Taco,RIVERSIDE,229,229 0229 00229 #229,6118 CLAY ST,CA,92509
Del Taco,RIVERSIDE,230,230 0230 00230 #230,3199 VAN BUREN BLVD,CA,92503
Del Taco,LAKE ELSINORE,231,231 0231 00231 #231,29245 CENTRAL AVENUE,CA,92532
Del Taco,ANAHEIM,232,232 0232 00232 #232,2801 E LINCOLN AVE,CA,92806
Del Taco,RIVERSIDE,233,233 0233 00233 #233,9002 ARLINGTON AVE,CA,92503
Del Taco,RIVERSIDE,234,234 0234 00234 #234,10494 MAGNOLIA AVE,CA,92505
Del Taco,STANTON,235,235 0235 00235 #235,12800 BEACH BLVD,CA,90680
Del Taco,LAKE ELSINORE,236,236 0236 00236 #236,16810 LAKESHORE DR,CA,92530
Del Taco,RIVERSIDE,238,238 0238 00238 #238,4740 LA SIERRA AVE,CA,92505
Del Taco,YORBA LINDA,240,240 0240 00240 #240,19701 ESPERANZA RD,CA,92886
Del Taco,ESCONDIDO,241,241 0241 00241 #241,1605 E VALLEY PKWY,CA,92027
Del Taco,ANAHEIM,241,241 0241 00241 #241,213 E KATELLA WAY,CA,92802
Del Taco,ORANGE,242,242 0242 00242 #242,1440 E LINCOLN AVE,CA,92865
Del Taco,ORANGE,243,243 0243 00243 #243,2607 N TUSTIN ST,CA,92865
Del Taco,MIRA LOMA,243,243 0243 00243 #243,6269 PATS RANCH ROAD,CA,91752
Del Taco,ANAHEIM,244,244 0244 00244 #244,2330 S HARBOR BLVD,CA,92802
Del Taco,ESCONDIDO,245,245 0245 00245 #245,110 W EL NORTE PARKWAY,CA,92026
Del Taco,GARDEN GROVE,245,245 0245 00245 #245,11070 GARDEN GROVE BLVD,CA,92843
Del Taco,CORONA,246,246 0246 00246 #246,310 N MCKINLEY ST,CA,92879
Del Taco,ANAHEIM,248,248 0248 00248 #248,2112 S STATE COLLEGE BLVD,CA,92806
Del Taco,ESCONDIDO,249,249 0249 00249 #249,1270 W VALLEY PKWY,CA,92029
Del Taco,Westminster,249,249 0249 00249 #249,15456 Goldenwest St,CA,92683
Del Taco,NORCO,250,250 0250 00250 #250,2552 HAMNER AVE,CA,92860
Del Taco,CORONA,251,251 0251 00251 #251,103 E. 3RD ST,CA,92879
Del Taco,ORANGE,252,252 0252 00252 #252,1301 E KATELLA AVE,CA,92867
Del Taco,SANTEE,252,252 0252 00252 #252,9822 N MAGNOLIA AVE,CA,92071
Del Taco,ORANGE,255,255 0255 00255 #255,2043 W CHAPMAN AVE,CA,92868
Del Taco,HUNTINGTON BEACH,256,256 0256 00256 #256,5856 WARNER AVE,CA,92649
Del Taco,VISTA,257,257 0257 00257 #257,1037 E BOBIER DR,CA,92084
Del Taco,EL CAJON,258,258 0258 00258 #258,141 BROADWAY SUITE A,CA,92021
Del Taco,CORONA,260,260 0260 00260 #260,2260 FRONTAGE RD,CA,92882
Del Taco,SANTA ANA,261,261 0261 00261 #261,2761 N GRAND AVE,CA,92701
Del Taco,HUNTINGTON BEACH,262,262 0262 00262 #262,17501 BEACH BLVD,CA,92647
Del Taco,SAN MARCOS,263,263 0263 00263 #263,736 S. RANCHO SANTA FE,CA,92078
Del Taco,OCEANSIDE,264,264 0264 00264 #264,1970 COLLEGE BLVD,CA,92056
Del Taco,FOUNTAIN VALLEY,265,265 0265 00265 #265,9436 WARNER AVE,CA,92708
Del Taco,OCEANSIDE,268,268 0268 00268 #268,2269 S EL CAMINO REAL,CA,92056
Del Taco,ORANGE,268,268 0268 00268 #268,3730 E CHAPMAN AVE,CA,92869
Del Taco,FOUNTAIN VALLEY,271,271 0271 00271 #271,17295 BROOKHURST ST,CA,92708
Del Taco,LEMON GROVE,271,271 0271 00271 #271,7060 BROADWAY,CA,91945
Del Taco,SANTA ANA,272,272 0272 00272 #272,2300 N TUSTIN AVE,CA,92705
Del Taco,OCEANSIDE,273,273 0273 00273 #273,1601 CARMELO DR,CA,92054
Del Taco,FOOTHILL RANCH,275,275 0275 00275 #275,26702 PORTOLA PARKWAY,CA,92610
Del Taco,HUNTINGTON BEACH,277,277 0277 00277 #277,7175 W YORKTOWN AVE,CA,92648
Del Taco,LAKE FOREST,281,281 0281 00281 #281,22349 EL TORO RD,CA,92630
Del Taco,SANTA ANA,282,282 0282 00282 #282,2841 W WARNER AVE,CA,92704
Del Taco,SAN DIEGO,282,282 0282 00282 #282,7919 MISSION CENTER ROAD,CA,92108
Del Taco,LAKE FOREST,283,283 0283 00283 #283,22401 EL TORO RD,CA,92630
Del Taco,SANTA ANA,283,283 0283 00283 #283,2320 E FOURTH ST,CA,92705
Del Taco,SANTA ANA,284,284 0284 00284 #284,3329 S HARBOR BLVD,CA,92704
Del Taco,MISSION VIEJO,285,285 0285 00285 #285,25542 MARGUERITE PKWY,CA,92692
Del Taco,SAN DIEGO,288,288 0288 00288 #288,3896 CLAIREMONT DR,CA,92117
Del Taco,MISSION VIEJO,290,290 0290 00290 #290,24465 ALICIA PARKWAY,CA,92692
Del Taco,TUSTIN,291,291 0291 00291 #291,13802 RED HILL AVE,CA,92780
Del Taco,SANTA ANA,292,292 0292 00292 #292,2900 S. MAIN ST.,CA,92707
Del Taco,SAN DIEGO,293,293 0293 00293 #293,2804 MAIN ST,CA,92113
Del Taco,SAN DIEGO,294,294 0294 00294 #294,1155 B STREET,CA,92101
Del Taco,HUNTINGTON BEACH,294,294 0294 00294 #294,20921 MAGNOLIA ST,CA,92646
Del Taco,MISSION VIEJO,296,296 0296 00296 #296,26241 AVERY PKWY,CA,92692
Del Taco,LAKE FOREST,297,297 0297 00297 #297,22859 LAKE FOREST DR,CA,92630
Del Taco,SANTA ANA,298,298 0298 00298 #298,2701 S GRAND AVE,CA,92705
Del Taco,IRVINE,298,298 0298 00298 #298,4780 IRVINE BLVD.,CA,92620
Del Taco,IRVINE,299,299 0299 00299 #299,16211 LAKE FOREST DR.,CA,92618
Del Taco,SAN CLEMENTE,300,300 0300 00300 #300,109 VIA PICO PLAZA,CA,92672
Del Taco,SANTA ANA,300,300 0300 00300 #300,1740 E DYER RD,CA,92705
Del Taco,COSTA MESA,301,301 0301 00301 #301,1155 BAKER ST,CA,92626
Del Taco,IRVINE,301,301 0301 00301 #301,59 TECHNOLOGY DRIVE,CA,92618
Del Taco,SAN JUAN CAPISTRANO,303,303 0303 00303 #303,31780 DEL OBISPO,CA,92675
Del Taco,HUNTINGTON BEACH,304,304 0304 00304 #304,21401 BROOKHURST ST,CA,92646
Del Taco,COSTA MESA,306,306 0306 00306 #306,2956 BRISTOL ST,CA,92626
Del Taco,SAN DIEGO,307,307 0307 00307 #307,3106 SPORTS ARENA BLVD.,CA,92110
Del Taco,COSTA MESA,308,308 0308 00308 #308,280 BRISTOL ST,CA,92626
Del Taco,IRVINE,309,309 0309 00309 #309,4547 CAMPUS DR,CA,92612
Del Taco,NEWPORT BEACH,311,311 0311 00311 #311,2112 S.E. BRISTOL ST,CA,92660
Del Taco,ALISO VIEJO,311,311 0311 00311 #311,26951 ALISO CREEK ROAD,CA,92656
Del Taco,COSTA MESA,312,312 0312 00312 #312,1720 SUPERIOR AVE,CA,92627
Del Taco,IRVINE,315,315 0315 00315 #315,4820 BARRANCA PKWY,CA,92604
Del Taco,DANA POINT,319,319 0319 00319 #319,34289 PACIFIC COAST HWY,CA,92629
