keywords,city,Aggdata Store Number,store_number,address,state,zip_code
Dick's Sporting Goods,BINGHAMTON,1,#1,347 COURT ST.,NY,13904
Dick's Sporting Goods,VESTAL,2,#2,2433 VESTAL PKWY EAST,NY,13850
Dick's Sporting Goods,DEWITT,3,#3,3649 ERIE BLVD EAST,NY,13214
Dick's Sporting Goods,CLAY,4,#4,4081 STATE HIGHWAY 31,NY,13041
Dick's Sporting Goods,ROCHESTER,6,#6,304 GREECE RIDGE CENTER,NY,14626
Dick's Sporting Goods,WILKES-BARRE,7,#7,479 ARENA HUB PLAZA,PA,18702
Dick's Sporting Goods,DICKSON CITY,8,#8,600 COMMERCE BLVD.,PA,18519
Dick's Sporting Goods,AMHERST,11,#11,281 MEYER ROAD,NY,14226
Dick's Sporting Goods,MIDDLETOWN,15,#15,"1 N. GALLERIA DRIVE, SUITE 132",NY,10941
Dick's Sporting Goods,POUGHKEEPSIE,16,#16,2001 SOUTH RD,NY,12601
Dick's Sporting Goods,LOUISVILLE,17,#17,3555 SPRINGHURST BLVD,KY,40241
Dick's Sporting Goods,LOUISVILLE,19,#19,3500 S HURSTBOURNE PKWY,KY,40299
Dick's Sporting Goods,COLONIE,20,#20,579 TROY/SCHENECTADY ROAD #124,NY,12110
Dick's Sporting Goods,SARATOGA SPRINGS,22,#22,3065 RT. 50,NY,12866
Dick's Sporting Goods,READING,23,#23,"2767 PAPER MILL ROAD, SPACE F",PA,19610
Dick's Sporting Goods,WASHINGTON,24,#24,347 WASHINGTON ROAD,PA,15301
Dick's Sporting Goods,LEXINGTON,26,#26,1968 PAVILLION WAY,KY,40509
Dick's Sporting Goods,VICTOR,28,#28,20 COBBLESTONE COURT DRIVE,NY,14564
Dick's Sporting Goods,ERIE,30,#30,2088 INTERCHANGE RD,PA,16565
Dick's Sporting Goods,YORK,31,#31,RT. 30 & KENNETH ROAD,PA,17404
Dick's Sporting Goods,WILMINGTON,33,#33,1000 BRANDYWINE PARKWAY,DE,19803
Dick's Sporting Goods,NEWARK,34,#34,100 CENTER DRIVE,DE,19702
Dick's Sporting Goods,MISHAWAKA,37,#37,4520 GRAPE ROAD,IN,46545
Dick's Sporting Goods,MECHANICSBURG,38,#38,5950 CARLISLE PIKE/US RT 11,PA,17055
Dick's Sporting Goods,HARRISBURG,39,#39,5086 JONESTOWN RD,PA,17112
Dick's Sporting Goods,PITTSBURGH,42,#42,5000 ROBINSON CENTRE DRIVE,PA,15205
Dick's Sporting Goods,MONROEVILLE,45,#45,"MONROEVILLE MALL ANNEX, SPACE 360",PA,15146
Dick's Sporting Goods,HOLLAND,48,#48,1407 SPRING MEADOW DRIVE,OH,43528
Dick's Sporting Goods,TOLEDO,49,#49,851 WEST ALEXIS RD,OH,43612
Dick's Sporting Goods,ROCKFORD,50,#50,6380 E. STATE STREET,IL,61108
Dick's Sporting Goods,MENTOR,60,#60,9567 MENTOR AVENUE,OH,44060
Dick's Sporting Goods,AKRON,63,#63,4036 MEDINA ROAD,OH,44333
Dick's Sporting Goods,CANTON,64,#64,5544 N.W. DRESSLER ROAD,OH,44720
Dick's Sporting Goods,HIGHLAND HEIGHTS,65,#65,6235 WILSON MILLS ROAD,OH,44143
Dick's Sporting Goods,MANSFIELD,66,#66,2235 WALKER LAKE ROAD,OH,44903
Dick's Sporting Goods,FLORENCE,70,#70,"1336 HANSEL AVENUE, SUITE 200",KY,41042
Dick's Sporting Goods,CINCINNATI,71,#71,650 EASTGATE SOUTH DRIVE,OH,45245
Dick's Sporting Goods,SPRINGDALE,72,#72,975 E. KEMPER ROAD,OH,45246
Dick's Sporting Goods,CINCINNATI,73,#73,7800 MONTGOMERY ROAD,OH,45236
Dick's Sporting Goods,CINCINNATI,74,#74,5555 GLENWAY AVENUE,OH,45238
Dick's Sporting Goods,BALTIMORE,76,#76,5220 CAMPBELL BLVD.,MD,21236
Dick's Sporting Goods,COCKEYSVILLE,77,#77,118 SHAWAN ROAD,MD,21030
Dick's Sporting Goods,COLUMBIA,78,#78,6221 COLUMBIA CROSSING CIRCLE,MD,21045
Dick's Sporting Goods,BEL AIR,79,#79,540 WEST MACPHAIL ROAD,MD,21014
Dick's Sporting Goods,PHILADELPHIA,80,#80,20 FRANKLIN MILLS BLVD.,PA,19154
Dick's Sporting Goods,FAIRLESS HILLS,81,#81,150 COMMERCE BLVD.,PA,19030
Dick's Sporting Goods,DOWNINGTOWN,83,#83,1026 E. LANCASTER AVENUE,PA,19335
Dick's Sporting Goods,TROY,88,#88,400 JOHN R. ROAD,MI,48083
Dick's Sporting Goods,TAYLOR,89,#89,23349 EUREKA ROAD,MI,48180
Dick's Sporting Goods,LANSING,90,#90,2801 PREYDE BLVD,MI,48912
Dick's Sporting Goods,WESTLAND,91,#91,35500 CENTRAL CITY PARKWAY,MI,48185
Dick's Sporting Goods,UTICA,92,#92,45230 NORTHPOINTE BLVD,MI,48315
Dick's Sporting Goods,ROCHESTER HILLS,93,#93,I290 S. ROCHESTER ROAD,MI,48307
Dick's Sporting Goods,SAGINAW,94,#94,3343 TITTABAWASSEE ROAD,MI,48604
Dick's Sporting Goods,ALTOONA,97,#97,149 FALON LANE,PA,16602
Dick's Sporting Goods,WILLOW GROVE,98,#98,2510 MORELAND RD,PA,19090
Dick's Sporting Goods,PLYMOUTH MEETING,99,#99,2430 CHEMICAL ROAD,PA,19462
Dick's Sporting Goods,RICHMOND,102,#102,1520 W. KOGER CENTER BLVD,VA,23235
Dick's Sporting Goods,DAVENPORT,104,#104,5250 ELMORE AVENUE,IA,52807
Dick's Sporting Goods,ELYRIA,106,#106,360 MARKET DR,OH,44035
Dick's Sporting Goods,HAGERSTOWN,107,#107,17780 GARLAND GROH BLVD,MD,21740
Dick's Sporting Goods,SOUTH CHARLESTON,108,#108,51 R H L BLVD,WV,25309
Dick's Sporting Goods,APPLETON,109,#109,4350 GREENVILLE DRIVE,WI,54915
Dick's Sporting Goods,GREENSBURG,110,#110,"RR 17, BOX 18",PA,15601
Dick's Sporting Goods,FORT WAYNE,111,#111,1520 APPLE GLEN BLVD.,IN,46804
Dick's Sporting Goods,STATE COLLEGE,112,#112,325 LOWES BLVD,PA,16803
Dick's Sporting Goods,CINCINNATI,113,#113,10220 COLERAIN AVE,OH,45251
Dick's Sporting Goods,GLEN ALLEN,114,#114,9940 BROOK ROAD,VA,23059
Dick's Sporting Goods,INDEPENDENCE,115,#115,17730 E. 39TH STREET,MO,64055
Dick's Sporting Goods,KANSAS CITY,116,#116,"8600 WARD PARKWAY, SUITE 2002",MO,64114
Dick's Sporting Goods,OLATHE,117,#117,15280 W. 119TH STREET,KS,66062
Dick's Sporting Goods,KANSAS CITY,118,#118,8665 NW PRAIRIE VIEW ROAD,MO,64153
Dick's Sporting Goods,MERRIAM,119,#119,5600 ANTIOCH ROAD,KS,66202
Dick's Sporting Goods,AURORA,121,#121,7305 MARKETPLACE DRIVE,OH,44202
Dick's Sporting Goods,LYNCHBURG,123,#123,4026-C WARDS ROAD,VA,24502
Dick's Sporting Goods,CHAMPAIGN,124,#124,2113 NORTH PROSPECT AVENUE,IL,61822
Dick's Sporting Goods,KNOXVILLE,125,#125,221 NORTH PETERS ROAD,TN,37923
Dick's Sporting Goods,CHATTANOOGA,126,#126,"2020 GUNBARREL ROAD, SUTIE 182",TN,37421
Dick's Sporting Goods,ROANOKE,127,#127,1910 VALLEY VIEW BLVD NW,VA,24012
Dick's Sporting Goods,RICHMOND,128,#128,"11800 W BROAD STREET, SUITE 1096",VA,23233
Dick's Sporting Goods,HOMESTEAD,129,#129,350 EAST WATERFRONT DRIVE,PA,15120
Dick's Sporting Goods,EVANSVILLE,130,#130,"6601 E LLOYD EXPRESSWAY, SUITE 2",IN,47715
Dick's Sporting Goods,RACINE,131,#131,2710-B SOUTH GREEN BAY ROAD,WI,53406
Dick's Sporting Goods,TOPEKA,132,#132,5900 SW HUNTOON STREET,KS,66604
Dick's Sporting Goods,WICHITA,133,#133,4600 W. KELLOGG DRIVE,KS,67209
Dick's Sporting Goods,WICHITA,135,#135,2057 N. ROCK ROAD,KS,67206
Dick's Sporting Goods,NORMAL,138,#138,200 N. GREENBRIAR DRIVE,IL,61761
Dick's Sporting Goods,OMAHA,139,#139,3125 OAKVIEW DRIVE,NE,68144
Dick's Sporting Goods,MACON,140,#140,4645 PRESIDENTIAL PARKWAY,GA,31206
Dick's Sporting Goods,CHARLOTTESVILLE,141,#141,1940 RIO HILL CENTER,VA,22901
Dick's Sporting Goods,MANASSAS,142,#142,10800 SUDLEY MANOR DRIVE,VA,20109
Dick's Sporting Goods,WALDORF,143,#143,11080 MALL CIRCLE ROAD,MD,20603
Dick's Sporting Goods,BRIDGEPORT,144,#144,"2399 MEADOWBROOK MALL, UNIT #10",WV,26330
Dick's Sporting Goods,VIRGINIA BEACH,145,#145,"701 LYNNHAVEN PARKWAY, SUITE 1001",VA,23452
Dick's Sporting Goods,HUNTINGTON,146,#146,"RT 60 MALL ROAD, UNIT 500",WV,25504
Dick's Sporting Goods,FREDERICKSBURG,147,#147,"137 SPOTSYLVANIA MALL, UNIT 290",VA,22407
Dick's Sporting Goods,KINGSTON,154,#154,"1300 ULSTER AVE., SUITE 127",NY,12401
Dick's Sporting Goods,ITHACA,156,#156,40 CATHERWOOD ROAD,NY,14850
Dick's Sporting Goods,WATERTOWN,158,#158,21143 SALMON RUN LOOP WEST,NY,13601
Dick's Sporting Goods,PLATTSBURGH,159,#159,60 SMITHFIELD BLVD,NY,12901
Dick's Sporting Goods,QUEENSBURY,164,#164,"578 AVIATION ROAD, SPACE D-103",NY,12804
Dick's Sporting Goods,WESTLAKE,170,#170,300 CROCKER PARK BLVD,OH,44145
Dick's Sporting Goods,WHITEHALL,171,#171,2631 MACARTHER ROAD,PA,18052
Dick's Sporting Goods,MASON,173,#173,5700 DEERFIELD BOULEVARD,OH,45040
Dick's Sporting Goods,NILES,174,#174,5809 YOUNGSTOWN-WARREN ROAD,OH,44446
Dick's Sporting Goods,MADISON,177,#177,350 EAST TOWNE MALL,WI,53704
Dick's Sporting Goods,MADISON,178,#178,237 WEST TOWNE MALL,WI,53719
Dick's Sporting Goods,SPRINGFIELD,179,#179,2501 W. WABASH AVENUE,IL,62704
Dick's Sporting Goods,GREENWOOD,181,#181,1251 US 31 NORTH,IN,46142
Dick's Sporting Goods,CARMEL,183,#183,14350 CLAY TERRACE BLVD.,IN,46032
Dick's Sporting Goods,WASHINGTON,184,#184,10202 E WASHINGTON STREET,IN,46229
Dick's Sporting Goods,LEXINGTON,187,#187,3645 NICHOLASVILLE ROAD,KY,40503
Dick's Sporting Goods,TARENTUM,188,#188,329 PITTSBURGH MILLS CIRCLE,PA,15084
Dick's Sporting Goods,SPARTANBURG,190,#190,"205 WEST BLACKSTOCK ROAD, SUITE 960",SC,29301
Dick's Sporting Goods,MYRTLE BEACH,191,#191,600 COSTAL GRAND CIRCLE,SC,29577
Dick's Sporting Goods,PARMA,192,#192,8282 DAY DRIVE,OH,44129
Dick's Sporting Goods,STRONGSVILLE,193,#193,17071 SOUTHPARK CENTER,OH,44136
Dick's Sporting Goods,WEBSTER,195,#195,1062 RIDGE ROAD,NY,14580
Dick's Sporting Goods,FAYETTEVILLE,198,#198,2051 SKIBO ROAD,NC,28314
Dick's Sporting Goods,WINSTON SALEM,199,#199,164 HANES MALL CIRCLE,NC,27103
Dick's Sporting Goods,UNIVERSITY,200,#200,8809 JW CLAY BLVD.,NC,28262
Dick's Sporting Goods,CARY,201,#201,401 CROSSROADS BLVD,NC,27511
Dick's Sporting Goods,WILMINGTON,202,#202,816 SOUTH COLLEGE ROAD,NC,28403
Dick's Sporting Goods,HICKORY,203,#203,1860 CATAWBA VALLEY BLVD. SE,NC,28602
Dick's Sporting Goods,COLUMBIA,204,#204,1110 BOWER PARKWAY,SC,29212
Dick's Sporting Goods,ASHEVILLE,205,#205,107 A RIVER HILLS ROAD,NC,28805
Dick's Sporting Goods,GREENSBORO,206,#206,1208-A BRIDFORD PARKWAY,NC,27407
Dick's Sporting Goods,DURHAM,207,#207,5422 NEW HOPE COMMONS DRIVE,NC,27707
Dick's Sporting Goods,RALEIGH,208,#208,3630 SUMNER BLVD,NC,27616
Dick's Sporting Goods,RALEIGH,209,#209,"8021 BRIER CREEK PARKWAY, SUITE 100",NC,27617
Dick's Sporting Goods,HUNTSVILLE,211,#211,"6275 UNIVERSITY DR, SUITE 16",AL,35806
Dick's Sporting Goods,FLORENCE,212,#212,376 COX CREEK PARKWAY,AL,35630
Dick's Sporting Goods,MATTHEWS,213,#213,"10530 NE PARKWAY, SUITE J",NC,28105
Dick's Sporting Goods,HUNTERSVILLE,215,#215,8825 TOWNLEY ROAD,NC,28078
Dick's Sporting Goods,MOORESVILLE,216,#216,590 J. RIVER HIGHWAY,NC,28117
Dick's Sporting Goods,GARNER,217,#217,145 SHENSTONE BLVD,NC,27529
Dick's Sporting Goods,CHARLOTTE,218,#218,6445 NORTHLAKE MALL DRIVE,NC,28216
Dick's Sporting Goods,GREENVILLE,220,#220,1125 WOODRUFF ROAD,SC,29607
Dick's Sporting Goods,CHARLESTON,221,#221,2070 SAM RITTENBURG BLVD.,SC,29407
Dick's Sporting Goods,LAFAYETTE,225,#225,2415 SAGAMORE PARKWAY SOUTH,IN,47905
Dick's Sporting Goods,BLOOMINGTON,226,#226,2850 E. 3RD STREET,IN,47401
Dick's Sporting Goods,FORT WAYNE,228,#228,256-309 COLISEUM BLVD.,IN,46805
Dick's Sporting Goods,POTTSTOWN,229,#229,ROUTE 724 AND ROUTE 100,PA,19465
Dick's Sporting Goods,EASTON,230,#230,4423 BIRKLAND PLACE,PA,18045
Dick's Sporting Goods,TOLEDO,232,#232,5001 MONROE STREET,OH,43623
Dick's Sporting Goods,STEUBENVILLE,233,#233,100 MALL DRIVE,OH,43952
Dick's Sporting Goods,JACKSONVILLE,235,#235,10390 MILLTOWN PARKWAY,FL,32246
Dick's Sporting Goods,MUSKEGON,240,#240,5660 S HARVEY PARKWAY,MI,49444
Dick's Sporting Goods,HAMILTON,241,#241,3363 PRINCETON ROAD,OH,45011
Dick's Sporting Goods,WEST MIFFLIN,242,#242,"3075 CLAIRTON ROAD, SPACE 800",PA,15123
Dick's Sporting Goods,GRANVILLE,243,#243,5000 UNIVERSITY TOWN CENTRE DRIVE,WV,26501
Dick's Sporting Goods,NEWPORT NEWS,247,#247,12300 JEFFERSON AVENUE,VA,23602
Dick's Sporting Goods,BUTLER,248,#248,1521 N. MAIN STREET,PA,16001
Dick's Sporting Goods,GREENSBURG,252,#252,5289 ROUTE 30,PA,15601
Dick's Sporting Goods,THORNTON,254,#254,16521 WASHINGTON STREET,CO,80023
Dick's Sporting Goods,MERRILLVILLE,256,#256,2225 SOUTHLAKE MALL,IN,46410
Dick's Sporting Goods,LOVELAND,258,#258,5875 SKY POND DRIVE,CO,80537
Dick's Sporting Goods,COLUMBUS,259,#259,1180 POLARIS PARKWAY,OH,43240
Dick's Sporting Goods,LAKE GROVE,262,#262,620 SMITH HAVEN MALL,NY,11755
Dick's Sporting Goods,ORANGE PARK,263,#263,1910 WELLS ROAD,FL,32073
Dick's Sporting Goods,MELBOURNE,264,#264,1700 W. NEW HAVEN AVENUE,FL,32904
Dick's Sporting Goods,BURNSVILLE,265,#265,"901 COUNTY ROAD 42 WEST, B-200",MN,55306
Dick's Sporting Goods,ARLINGTON HEIGHTS,266,#266,401 E. PALATINE ROAD,IL,60004
Dick's Sporting Goods,BLOOMINGDALE,267,#267,328 WEST ARMY TRAIL ROAD,IL,60108
Dick's Sporting Goods,CEDAR RAPIDS,273,#273,4601 1ST AVENUE SE,IA,52402
Dick's Sporting Goods,YORK,274,#274,2925 CONCORD ROAD,PA,17402
Dick's Sporting Goods,APEX,275,#275,1531 BEAVER CREEK COMMONS DRIVE,NC,27502
Dick's Sporting Goods,MCDONOUGH,276,#276,1855 JONESBORO ROAD,GA,30253
Dick's Sporting Goods,WILLIAMSPORT,277,#277,300 LYNCOMING MALL CIRCLE,PA,17756
Dick's Sporting Goods,BEAVERCREEK,278,#278,"2727 FAIRFIELD COMMONS, UNIT 6",OH,45431
Dick's Sporting Goods,PLAINFIELD,279,#279,339 METROPOLIS MILE,IN,46168
Dick's Sporting Goods,CLARKSVILLE,280,#280,951 E LEWIS & CLARK PARKWAY,IN,47129
Dick's Sporting Goods,DULLES,283,#283,21070 DULLES TOWN CIRCLE,VA,20166
Dick's Sporting Goods,MT. JULIET,284,#284,"401 SOUTH MT. JULIET ROAD, SUITE 605",TN,37122
Dick's Sporting Goods,FRANKLIN,285,#285,"2000 MALORY LANE, SUITE 270",TN,37067
Dick's Sporting Goods,BRANDON,287,#287,901 BRANDON TOWNE CENTER MALL,FL,33511
Dick's Sporting Goods,TAMPA,288,#288,8100 CITRUS PARK TOWN CENTER,FL,33625
Dick's Sporting Goods,NASHVILLE,289,#289,6812 CHARLOTTE PIKE,TN,37209
Dick's Sporting Goods,BAILEY'S CROSSROADS,290,#290,5716 COLUMBIA PIKE,VA,22041
Dick's Sporting Goods,GROVE CITY,291,#291,1656 STRINGTOWN ROAD,OH,43123
Dick's Sporting Goods,MCHENRY,293,#293,3436 SHOPPERS DRIVE,IL,60051
Dick's Sporting Goods,BRIGHTON,294,#294,9550 VILLAGE PLACE BLVD,MI,48116
Dick's Sporting Goods,MELVILLE,296,#296,870 WALT WHITMAN ROAD,NY,11747
Dick's Sporting Goods,LITTLETON,298,#298,8501 WEST BOWLES AVENUE,CO,80123
Dick's Sporting Goods,MAPLE GROVE,299,#299,11361 FOUNTAINS DRIVE,MN,55369
Dick's Sporting Goods,CANTON,301,#301,1810 CUMMING HIGHWAY,GA,30114
Dick's Sporting Goods,CUMMING,302,#302,2145 MARKETPLACE BLVD.,GA,30040
Dick's Sporting Goods,GRAND RAPIDS,306,#306,5118 28TH SE,MI,49512
Dick's Sporting Goods,CHRISTIANSBURG,308,#308,100 NEW RIVER ROAD,VA,24073
Dick's Sporting Goods,JACKSONVILLE,309,#309,1112 WESTERN BOULEVARD,NC,28546
Dick's Sporting Goods,COLLEGEVILLE,310,#310,400 FRONT STREET,PA,19426
Dick's Sporting Goods,DEER PARK,311,#311,21830 WEST LONG GROVE ROAD,IL,60010
Dick's Sporting Goods,OSWEGO,312,#312,2470 US HWY 34,IL,60543
Dick's Sporting Goods,TINLEY PARK,313,#313,7370 WEST 191ST,IL,60477
Dick's Sporting Goods,LONGMONT,315,#315,210 KEN PRATT BLVD,CO,80501
Dick's Sporting Goods,WESLEY CHAPEL,316,#316,5925 WESLEY GROVE BLVD,FL,33543
Dick's Sporting Goods,SALISBURY,318,#318,2300 N. SALISBURY BLVD.,MD,21801
Dick's Sporting Goods,DALE CITY,320,#320,13080 WORTH AVENUE,VA,22192
Dick's Sporting Goods,MURFREESBORO,321,#321,2615 MEDICAL CENTER PARKWAY,TN,37129
Dick's Sporting Goods,COLORADO SPRINGS,322,#322,1710 BRIAR GATE BLVD,CO,80920
Dick's Sporting Goods,FLORENCE,323,#323,"DAVID MCLEOD BLVD, SUITE 1500",SC,29501
Dick's Sporting Goods,SUMMERVILLE,324,#324,355 AZALEA SQ. BLVD.,SC,29483
Dick's Sporting Goods,COLUMBUS PARK,325,#325,5550 WHITTLESEY BLVD.,GA,31909
Dick's Sporting Goods,FAYETTEVILLE,326,#326,305 A PAVILLION PARKWAY,GA,30214
Dick's Sporting Goods,MADISON,327,#327,2305 GALLATIN PIKE,TN,37115
Dick's Sporting Goods,HILLIARD,329,#329,1825 HILLIARD-ROME ROAD,OH,43026
Dick's Sporting Goods,BIRMINGHAM,330,#330,5201 HIGHWAY 280 SOUTH,AL,35242
Dick's Sporting Goods,JOHNSON CITY,331,#331,2011 NORTH ROAD STREET,TN,37601
Dick's Sporting Goods,CHESTERFIELD,332,#332,64 THF BLVD.,MO,63005
Dick's Sporting Goods,ALPHARETTA,333,#333,6440 NORTH POINT PARKWAY,GA,30022
Dick's Sporting Goods,BRADENTON,334,#334,4108 14TH STREET WEST,FL,34205
Dick's Sporting Goods,FLOWER MOUND,335,#335,5801 LONG PRAIRIE ROAD,TX,75028
Dick's Sporting Goods,DOTHAN,337,#337,4401 MONTGOMERY HWY,AL,36303
Dick's Sporting Goods,MONTGOMERY,338,#338,7861 EASTCHASE PARKWAY,AL,36117
Dick's Sporting Goods,NORTH WALES,341,#341,113 MONTGOMERY MALL,PA,19454
Dick's Sporting Goods,TIGARD,342,#342,9402 SW WASHINGTON SQUARE ROAD,OR,97223
Dick's Sporting Goods,AUSTIN,347,#347,3210 KRAMER LANE,TX,78758
Dick's Sporting Goods,ST. PETERS,348,#348,1600 MID RIVERS MALL,MO,63376
Dick's Sporting Goods,HURST,349,#349,1101 MELBOURNE ROAD,TX,76053
Dick's Sporting Goods,CHESTERFIELD TWP,360,#360,50580 WATERSIDE DRIVE,MI,48051
Dick's Sporting Goods,TEMPE,362,#362,8550 SOUTH EMERALD DRIVE,AZ,85284
Dick's Sporting Goods,GILBERT,363,#363,2269 SAN TAN VILLAGE PARKWAY,AZ,85295
Dick's Sporting Goods,GLENDALE,364,#364,7680 WEST ARROWHEAD TOWNE CENTER,AZ,85308
Dick's Sporting Goods,PHOENIX,365,#365,2350 WEST HAPPY VALLEY ROAD,AZ,85085
Dick's Sporting Goods,AURORA,366,#366,"15400 EAST BRIARWOOD CIRCLE, UNIT A",CO,80016
Dick's Sporting Goods,CENTENNIAL,367,#367,6737 S. VINE STREET,CO,80122
Dick's Sporting Goods,CARBONDALE,369,#369,1250 EAST MAIN STREET,IL,62902
Dick's Sporting Goods,OCALA,373,#373,"4414 SW COLLEGE ROAD, SUITE 1800",FL,34474
Dick's Sporting Goods,CORDOVA,375,#375,2393 N. GERMANTOWN PARKWAY,TN,38016
Dick's Sporting Goods,MEMPHIS,376,#376,766 POLO GROUNDS BLVD,TN,38125
Dick's Sporting Goods,ROCKWALL,377,#377,1005 E. IH30,TX,75087
Dick's Sporting Goods,ROCHESTER,378,#378,4603 MAINE AVENUE SE,MN,55904
Dick's Sporting Goods,GREEN BAY,380,#380,811 PILGRIM WAY,WI,54304
Dick's Sporting Goods,GARLAND,381,#381,205 CONEFLOWER DRIVE,TX,75040
Dick's Sporting Goods,HANOVER,382,#382,1155 CARLISLE STREET,PA,17331
Dick's Sporting Goods,WILLIAMSBURG,383,#383,120 GRISTMIL PLAZA,VA,23185
Dick's Sporting Goods,HUBER HEIGHTS,384,#384,8220 OLD TROY PIKE,OH,45424
Dick's Sporting Goods,OXFORD,385,#385,1500 OXFORD EXCHANGE,AL,36203
Dick's Sporting Goods,SHREVEPORT,386,#386,7543 YOUREE DRIVE,LA,71105
Dick's Sporting Goods,DALLAS,387,#387,13838 DALLAS PARKWAY,TX,75240
Dick's Sporting Goods,AUGUSTA,388,#388,3450 WRIGHTSBORO ROAD,GA,30909
Dick's Sporting Goods,SELINSGROVE,389,#389,486 MARTKETPLACE,PA,17870
Dick's Sporting Goods,SANFORD,390,#390,350 TOWNE CENTER CIRCLE,FL,32771
Dick's Sporting Goods,ROSEVILLE,393,#393,1645 COUNTY ROAD B2 W,MN,55113
Dick's Sporting Goods,FLOWOOD,395,#395,720 MACKENZIE LANE,MS,39232
Dick's Sporting Goods,DANVILLE,396,#396,145 HOLT GARRISON PARKWAY,VA,24540
Dick's Sporting Goods,BURLINGTON,397,#397,1465 BOONE STATION DRIVE,NC,27215
Dick's Sporting Goods,PAPILLION,398,#398,7403 TOWN CENTER PARKWAY,NE,68046
Dick's Sporting Goods,BATON ROUGE,399,#399,9300 MALL OF LOUISIANNA BLVD,LA,70809
Dick's Sporting Goods,DUBLIN,405,#405,6111 SAWMILL ROAD,OH,43017
Dick's Sporting Goods,WOODBURY,407,#407,8292 TAMARACK VILLAGE,MN,55125
Dick's Sporting Goods,LEAWOOD,408,#408,11801 NALL AVENUE,KS,66211
Dick's Sporting Goods,MINNETONKA,409,#409,11260 WAYZATA BLVD,MN,55305
Dick's Sporting Goods,COLUMBUS,410,#410,3700 EASTON MARKET,OH,43219
Dick's Sporting Goods,RICHFIELD,411,#411,1700 W 78TH STREET,MN,55423
Dick's Sporting Goods,SCHAUMBURG,412,#412,"601 N MARTINGALE, SUITE 195",IL,60173
Dick's Sporting Goods,FAIRFAX,413,#413,12501 FAIRLAKES CIRCLE,VA,22033
Dick's Sporting Goods,GAITHERSBURG,414,#414,2 GRAND CORNER AVENUE,MD,20878
Dick's Sporting Goods,LOMBARD,415,#415,810 E BUTTERFIELD ROAD,IL,60148
Dick's Sporting Goods,INDIANAPOLIS,416,#416,6020 E 82ND STREET,IN,46250
Dick's Sporting Goods,KENNESAW,417,#417,691 ERNEST W BARRETT PARKWAY NW,GA,30144
Dick's Sporting Goods,ATLANTA,418,#418,3535 PEACHTREE ROAD,GA,30326
Dick's Sporting Goods,BUFORD,419,#419,3333 BUFORD DRIVE,GA,30519
Dick's Sporting Goods,GRANDVILLE,420,#420,3660 RIVERTOWN PARKWAY,MI,49418
Dick's Sporting Goods,FRISCO,421,#421,2611 PRESTON ROAD,TX,75034
Dick's Sporting Goods,BUFFALO,422,#422,2 WALDEN GALLERIA,NY,14225
Dick's Sporting Goods,BROOMFIELD,423,#423,31 WEST FLATIRON CROSSING DRIVE,CO,80021
Dick's Sporting Goods,ARLINGTON,424,#424,3891 SOUTH COOPER STREET,TX,76015
Dick's Sporting Goods,LOUISVILLE,425,#425,7900 SHELBYVILLE ROAD,KY,40222
Dick's Sporting Goods,ROCHESTER,427,#427,305 MIRACLE MILE DRIVE,NY,14623
Dick's Sporting Goods,SALT LAKE CITY,429,#429,41 SOUTH RIO GRANDE,UT,84101
Dick's Sporting Goods,COLORADO SPRINGS,431,#431,3133 CINEMA POINT,CO,80922
Dick's Sporting Goods,NOVI,432,#432,44225 12 MILE ROAD,MI,48377
Dick's Sporting Goods,LYNDHURST,434,#434,24545 CEDAR ROAD,OH,44124
Dick's Sporting Goods,LITTLETON,436,#436,8435 PARK MEADOWS CENTER DRIVE,CO,80124
Dick's Sporting Goods,NILES,437,#437,5601 TOUHY AVENUE,IL,60714
Dick's Sporting Goods,OKEMOS,438,#438,"1982 W. GRANDRIVER AVENUE, SUITE 310",MI,48864
Dick's Sporting Goods,HENDERSON,440,#440,1308 WEST SUNSET ROAD,NV,89014
Dick's Sporting Goods,GENEVA,442,#442,618 COMMONS DRIVE,IL,60134
Dick's Sporting Goods,PEORIA,443,#443,5205 WEST WAR MEMORIAL DRIVE,IL,61615
Dick's Sporting Goods,RICHMOND,447,#447,9204 STONY POINT PKWY,VA,23235
Dick's Sporting Goods,VIRGINIA BEACH,448,#448,"4621 COLUMBUS STREET, SUITE 100",VA,23462
Dick's Sporting Goods,HOOVER,451,#451,4401 CREEKSIDE AVENUE,AL,35244
Dick's Sporting Goods,ORLAND PARK,454,#454,"ONE ORLAND PARK PLACE, SUITE 1",IL,60462
Dick's Sporting Goods,GLENVIEW,456,#456,1900 TOWER DRIVE,IL,60025
Dick's Sporting Goods,GARDEN CITY,464,#464,630 OLD COUNTRY ROAD,NY,11530
Dick's Sporting Goods,LAKEWOOD,466,#466,7313 WEST ALASKA DRIVE,CO,80226
Dick's Sporting Goods,NORTH OLMSTEAD,468,#468,200 GREAT NORTHERN MALL,OH,44070
Dick's Sporting Goods,CHARLOTTE,471,#471,4325 BARCLAY DOWNS DRIVE,NC,28209
Dick's Sporting Goods,INDIANAPOLIS,475,#475,6030 WEST 86TH STREET,IN,46278
Dick's Sporting Goods,LANCASTER,604,#604,1500 RIVER VALLEY CIRCLE,OH,43130
Dick's Sporting Goods,PORT HURON,607,#607,4715 24TH AVENUE,MI,48059
Dick's Sporting Goods,CONWAY,608,#608,620 ELSINGER BOULEVARD,AR,72032
Dick's Sporting Goods,ESCONDIDO,609,#609,1200 AUTO PARK WAY,CA,92029
Dick's Sporting Goods,METAIRIE,610,#610,3301 VETERANS MEMORIAL,LA,70002
Dick's Sporting Goods,MANHATTAN,613,#613,401 3RD PLACE,KS,66502
Dick's Sporting Goods,EL CAJON,615,#615,565 FLETCHER PARKWAY,CA,92020
Dick's Sporting Goods,DAPHNE,617,#617,6850 US HIGHWAY 90,AL,36526
Dick's Sporting Goods,COON RAPIDS,619,#619,12661 RIVERDALE BLVD.,MN,55448
Dick's Sporting Goods,RENTON,621,#621,915 NORTH LANDING WAY,WA,98057
Dick's Sporting Goods,FRESNO,622,#622,3380 WEST SHAW AVENUE,CA,93711
Dick's Sporting Goods,CLOVIS,623,#623,1225 HERNDON AVENUE,CA,93612
Dick's Sporting Goods,MODESTO,624,#624,3401 DALE ROAD,CA,95356
Dick's Sporting Goods,STATEN ISLAND,626,#626,2505 RICHMOND AVENUE,NY,10314
Dick's Sporting Goods,YONKERS,628,#628,45 FITZGERALD STREET,NY,10710
Dick's Sporting Goods,FORT SMITH,629,#629,3825 PHOENIX AVENUE,AR,72903
Dick's Sporting Goods,ORLANDO,631,#631,1100 ALAFAYA TRAIL,FL,32828
Dick's Sporting Goods,ABERDEEN,633,#633,"11109 HIGHWAY 15/501, SUITE A",NC,28315
Dick's Sporting Goods,LAYTON,634,#634,1201 N HILL FIELD ROAD #1024,UT,84041
Dick's Sporting Goods,LIBERTY,635,#635,1890 COLLEGE STREET,MO,64068
Dick's Sporting Goods,POCATELLO,636,#636,1844 HURLEY DRIVE,ID,83201
Dick's Sporting Goods,CLEARWATER,637,#637,26583 HWY 19 NORTH,FL,33761
Dick's Sporting Goods,PITTSBURGH,638,#638,"301 SOUTH HILLS VILLAGE DRIVE, SUITE #201",PA,15241
Dick's Sporting Goods,LEXINGTON PARK,639,#639,46260 LEXINGTON VILLAGE WAY,MD,20653
Dick's Sporting Goods,GAINESVILLE,641,#641,8009 STONEWALL SHOPS SQUARE,VA,20155
Dick's Sporting Goods,NAPERVILLE,643,#643,2763 W 75TH STREET,IL,60540
Dick's Sporting Goods,BRUNSWICK,644,#644,440 GLYNN ISLES,GA,31525
Dick's Sporting Goods,SUFFOLK,645,#645,"6253 COLLEGE DRIVE, SUITE 200",VA,23435
Dick's Sporting Goods,WEST CHESTERFIELD,646,#646,14629 HANCOCK VILLAGE STREET,VA,23832
Dick's Sporting Goods,HOT SPRINGS,662,#662,1420 HIGDON FERRY ROAD,AR,71913
Dick's Sporting Goods,ALBANY,667,#667,1 CROSSGATES MALL ROAD,NY,12203
Dick's Sporting Goods,PLANTATION,668,#668,801 S. UNIVERSITY DRIVE,FL,33324
Dick's Sporting Goods,PEMBROKE,669,#669,11940 PINES BLVD.,FL,33026
Dick's Sporting Goods,HILLSBORO,670,#670,7280 NW BUTLER STREET,OR,97124
Dick's Sporting Goods,PUYALLUP,671,#671,"3500 S. MERIDIAN STREET, #600",WA,98373
Dick's Sporting Goods,EUGENE,673,#673,1030 GREENACRES ROAD,OR,97408
Dick's Sporting Goods,SALEM,674,#674,275 LANCASTER DRIVE,OR,97301
Dick's Sporting Goods,LAKE OSWEGO,675,#675,17799 LOWER BOONES FERRY ROAD,OR,97035
Dick's Sporting Goods,BEND,676,#676,"63455 N HIGHWAY 97, SUITE 8",OR,97701
Dick's Sporting Goods,GRESHAM,677,#677,700 NW EASTMAN PARKWAY,OR,97030
Dick's Sporting Goods,PORTLAND,678,#678,1140 N. HAYDEN MEADOWS DRIVE,OR,97217
Dick's Sporting Goods,CLACKAMAS,679,#679,9600 SE 82ND STREET,OR,97086
Dick's Sporting Goods,VERNON HILLS,681,#681,700 N. MILWAUKEE AVENUE  UNIT #121,IL,60061
Dick's Sporting Goods,DAYTONA BEACH,682,#682,"2500 W. INTERNATIONAL SPEEDWAY BLVD, SUITE 100",FL,32114
Dick's Sporting Goods,CLARKSVILLE,683,#683,"2801 WILMA RUDOLPH BLVD, UNIT 195",TN,37040
Dick's Sporting Goods,BOYNTON BEACH,684,#684,515 N. CONGRESS AVE,FL,33426
Dick's Sporting Goods,MERIDIAN,685,#685,3415 N EAGLE ROAD,ID,83646
Dick's Sporting Goods,BOARDMAN,686,#686,550 BOARDMAN-POLAND ROAD,OH,44514
Dick's Sporting Goods,BLOOMFIELD,687,#687,2105 TELEGRAPH ROAD,MI,48302
Dick's Sporting Goods,WATERLOO,688,#688,1411 FLAMMANG DRIVE,IA,50702
Dick's Sporting Goods,ORCHARD PARK,689,#689,3434 AMELIA DRIVE,NY,14127
Dick's Sporting Goods,GASTONIA,691,#691,"415 COX ROAD, SUITE 100",NC,28054
Dick's Sporting Goods,ROCK HILL,692,#692,548 JOHN ROSS PARKWAY,SC,29730
Dick's Sporting Goods,WESTMINSTER,693,#693,400 NORTH CENTER STREET,MD,21157
Dick's Sporting Goods,GLEN BURNIE,694,#694,6633 RITCHIE HIGHWAY,MD,21061
Dick's Sporting Goods,DUBUQUE,695,#695,555 JOHN F. KENNEDY ROAD,IA,52002
Dick's Sporting Goods,PADUCAH,696,#696,"5101 HINKLEVILLE ROAD, UNIT #600",KY,42001
Dick's Sporting Goods,BAKERSFIELD,697,#697,9300 ROSEDALE HWY,CA,93312
Dick's Sporting Goods,ORLANDO,698,#698,4615 MILLENIA PLAZA WAY,FL,32839
Dick's Sporting Goods,OPELIKA,702,#702,2718 ENTERPRISE DRIVE,AL,36801
Dick's Sporting Goods,TUPELO,703,#703,1001 BARNES CROSSING ROAD,MS,38804
Dick's Sporting Goods,JACKSON,704,#704,1165 VANN DRIVE,TN,38305
Dick's Sporting Goods,AUBURN,705,#705,1620 CLARK STREET ROAD,NY,13021
Dick's Sporting Goods,DALLAS,709,#709,8030 PARK LANE,TX,75231
Dick's Sporting Goods,GRAFTON,711,#711,1020 PORT WASHINGTON ROAD,WI,53024
Dick's Sporting Goods,CEDAR HILL,713,#713,305 WEST FM 1382,TX,75104
Dick's Sporting Goods,FORT WORTH,714,#714,9356 SAGE MEADOW TRAIL,TX,76177
Dick's Sporting Goods,SAN ANTONIO,717,#717,18103 RIM DRIVE,TX,78257
Dick's Sporting Goods,SAN ANTONIO,718,#718,"5503 WEST LOOP, 1604 NORTH",TX,78253
Dick's Sporting Goods,KINGSPORT,721,#721,2626 EAST STPME DROVE,TN,37660
Dick's Sporting Goods,KNIGHTDALE,722,#722,220 HINTON OAKS BLVD.,NC,27545
Dick's Sporting Goods,MESA,725,#725,1455 WEST SOUTHERN AVENUE,AZ,85202
Dick's Sporting Goods,ORO VALLEY,726,#726,11935 NORTH ORACLE ROAD,AZ,85737
Dick's Sporting Goods,SANDUSKY,727,#727,4020 MILAN ROAD (RTE. 250),OH,44870
Dick's Sporting Goods,AURORA,728,#728,1200 S. IRONTON STREET,CO,80012
Dick's Sporting Goods,BRIGHTON,729,#729,2269 PRAIRIE CENTER PARKWAY,CO,80601
Dick's Sporting Goods,NOBLESVILLE,731,#731,13157 NORELL LANE,IN,46060
Dick's Sporting Goods,MACON,740,#740,5080 RIVERSIDE DRIVE,GA,31210
Dick's Sporting Goods,HARKER HEIGHTS,743,#743,201 EAST CENTRAL TEXAS EXPRESSWAY,TX,76548
Dick's Sporting Goods,WEST PALM BEACH,748,#748,8821 SOUTHERN BLVD,FL,33411
Dick's Sporting Goods,BOURBONNAIS,750,#750,2054 N. STATE ROUTE 50,IL,60914
Dick's Sporting Goods,YORKVILLE,751,#751,825 ERICA LANE,IL,60560
Dick's Sporting Goods,KENOSHA,753,#753,9899 76TH STREET,WI,53158
Dick's Sporting Goods,ALLEN,754,#754,170 E. STACY ROAD,TX,75002
Dick's Sporting Goods,BEE CAVE,755,#755,3921 MARKET STREET,TX,78738
Dick's Sporting Goods,NEW HARTFORD,756,#756,ROUTE 5 AND 5A,NY,13413
Dick's Sporting Goods,FREDERICKSBURG,758,#758,9721 JEFFERSON DAVIS PARKWAY,VA,22408
Dick's Sporting Goods,ALCOA,760,#760,221 HAMITLON CROSSING DRIVE,TN,37701
Dick's Sporting Goods,DOVER,763,#763,"1365 N DUPONT HIGHWAY, SUITE 6000",DE,19901
Dick's Sporting Goods,PFLUGERVILLE,764,#764,19000 LIMESTONE COMMERCIAL DRIVE,TX,78660
Dick's Sporting Goods,IRVING,770,#770,2000 MARKET PLACE BLVD,TX,75063
Dick's Sporting Goods,GAMBRILLS,772,#772,1417 SOUTH MAIN CHAPEL WAY,MD,21054
Dick's Sporting Goods,LOGANVILLE,775,#775,4040 ATLANTA HIGHWAY,GA,30052
Dick's Sporting Goods,HUNTSVILLE,778,#778,2718 CARL T. JONES DRIVE,AL,35802
Dick's Sporting Goods,ANDERSON,780,#780,140 FRITZ DRIVE,SC,29621
Dick's Sporting Goods,HIGHLAND,781,#781,10251 INDIANAPOLIS BLVD,IN,46322
Dick's Sporting Goods,HORSEHEADS,782,#782,1216 COUNTY ROUTE 64,NY,14845
Dick's Sporting Goods,COLUMBIA,783,#783,227 N. STADIUM,MO,65203
Dick's Sporting Goods,D'IBERVILLE,784,#784,3893 PROMENADE PARKWAY,MS,39540
Dick's Sporting Goods,MADISON,793,#793,175 GRANDVIEW BLVD.,MS,39110
Dick's Sporting Goods,NEW BRAUNFELS,795,#795,303 CREEKSIDE WAY,TX,78130
Dick's Sporting Goods,MARTINSBURG,798,#798,398 RETAIL COMMONS PARKWAY,WV,25403
Dick's Sporting Goods,WEST COVINA,921,#921,2753 EASTLAND CENTER DRIVE,CA,91791
Dick's Sporting Goods,UPLAND,922,#922,1939 NORTH CAMPUS AVENUE,CA,91784
Dick's Sporting Goods,LAGUNA HILLS,923,#923,24821 ALICIA PARKWAY,CA,92653
Dick's Sporting Goods,EL SEGUNDO,924,#924,770 SOUTH SEPULVEDA BLVD.,CA,90245
Dick's Sporting Goods,CHINO,925,#925,4044 GRAND AVENUE,CA,91710
Dick's Sporting Goods,MURRIETA,926,#926,40404 MURRIETA HOT SPRINGS ROAD,CA,92563
Dick's Sporting Goods,TUSTIN,927,#927,2771 EL CAMINO REAL,CA,92782
Dick's Sporting Goods,MOORPARK,928,#928,706 LOS ANGELES AVENUE,CA,93021
Dick's Sporting Goods,YORBA LINDA,929,#929,23081 SAVI RANCH PARKWAY,CA,92887
Dick's Sporting Goods,OCEANSIDE,931,#931,3514 COLLEGE BLVD.,CA,92056
Dick's Sporting Goods,PASADENA,932,#932,3359 E. FOOTHILL BOULEVARD,CA,91107
Dick's Sporting Goods,LADERA RANCH,933,#933,"27502 ANTONIO PARKWAY, #B",CA,92694
Dick's Sporting Goods,SANTA CLARITA,935,#935,26591 CARL BOYER DRIVE,CA,91350
Dick's Sporting Goods,NEWPORT BEACH,936,#936,435 NEWPORT CENTER DRIVE,CA,92660
Dick's Sporting Goods,TULSA,1000,#1000,7523 S. OLYMPIA AVENUE,OK,74132
Dick's Sporting Goods,TULSA,1001,#1001,10021 E 71ST STREET,OK,74133
Dick's Sporting Goods,NORCROSS,1002,#1002,"6050 PEACHTREE PARKWAY, SUITE 450",GA,30092
Dick's Sporting Goods,PORTAGE,1006,#1006,6355 WESTNEDGE AVENUE,MI,49002
Dick's Sporting Goods,ST. GEORGE,1007,#1007,"15 SOUTH RIVER RD, SUITE 240",UT,84790
Dick's Sporting Goods,SAN LUIS OBISPO,1010,#1010,11970 LOS OSOS VALLEY ROAD,CA,93405
Dick's Sporting Goods,MT. HOPE,1011,#1011,"5475 ROBERT C. BYRD DRIVE, UNIT 6",WV,25880
Dick's Sporting Goods,CRANBERRY TWP.,1012,#1012,2021 MACKENZIE WAY,PA,16066
Dick's Sporting Goods,ANN ARBOR,1013,#1013,3120 LOHR ROAD,MI,48108
Dick's Sporting Goods,NE COLUMBIA,1015,#1015,10204A TWO NOTCH ROAD,SC,29229
Dick's Sporting Goods,HATTIESBURG,1016,#1016,1000 TURTLE CREEK ROAD,MS,39402
Dick's Sporting Goods,DULUTH,1017,#1017,1600 MILLER TRUCK HIGHWAY,MN,55811
Dick's Sporting Goods,HOLLY SPRINGS,1018,#1018,168 GRAND HILL PLACE,NC,27540
Dick's Sporting Goods,FT. LAUDERDALE,1019,#1019,2420 NORTH FEDERAL HWY,FL,33305
Dick's Sporting Goods,MT. PLEASANT,1020,#1020,4208 E. BLUEGRASS ROAD,MI,48858
Dick's Sporting Goods,HEATH,1021,#1021,771 SOUTH 30TH STREET,OH,43056
Dick's Sporting Goods,BROKEN ARROW,1022,#1022,1620 E. HILLSIDE DRIVE,OK,74012
Dick's Sporting Goods,CANTON,1023,#1023,45700 MICHIGAN AVENUE,MI,48188
Dick's Sporting Goods,MOREHEAD,1024,#1024,5130 HIGHWAY 70 WEST,NC,28557
Dick's Sporting Goods,HUNTINGTON BEACH,1025,#1025,7542 EDINGER AVENUE,CA,92647
Dick's Sporting Goods,SAN DIEGO,1026,#1026,3265 SPORTS ARENA BLVD.,CA,92110
Dick's Sporting Goods,HARRISONBURG,1028,#1028,1925 EAST MARKET STREET,VA,22801
Dick's Sporting Goods,ST. JOSEPH,1029,#1029,4204 NORTH BELT HIGHWAY,MO,64506
Dick's Sporting Goods,WHEATON,1031,#1031,"11160 VEIRS MILL ROAD, SUITE P100",MD,20902
Dick's Sporting Goods,OXNARD,1033,#1033,231 W. ESPLANDE DRIVE,CA,93030
Dick's Sporting Goods,ALBUQUERQUE,1034,#1034,3550 STATE HIGHWAY 528 NW,NM,87114
Dick's Sporting Goods,PENSACOLA,1039,#1039,5100 N 9TH AVENUE,FL,32504
Dick's Sporting Goods,MONROE,1040,#1040,"4700 MILLHAVEN ROAD, SUITE 1566",LA,71203
Dick's Sporting Goods,JACKSONVILLE,1041,#1041,"14964 MAX LEGGETT PARKWAY, SUITE 300",FL,32218
Dick's Sporting Goods,DAYTON,1045,#1045,"2700 MIAMISBURG CENTERVILLE ROAD, SUITE 388",OH,45459
Dick's Sporting Goods,SYRACUSE,1046,#1046,"306 HIAWATHA BLVD WEST, SPACE #H107",NY,13203
Dick's Sporting Goods,REDDING,1047,#1047,875 BROWNING STREET,CA,96003
Dick's Sporting Goods,PETALUMA,1048,#1048,"401 KENILWORTH DRIVE, SUITE 1030",CA,94952
Dick's Sporting Goods,COMMACK,1060,#1060,6070 JERICHO TURNPIKE,NY,11725
Dick's Sporting Goods,EL PASO,1062,#1062,"8889 GATEWAY WEST BLVD, SUITE 110",TX,79925
Dick's Sporting Goods,MIDVALE,1064,#1064,7171 S 1000 E,UT,84047
Dick's Sporting Goods,OREM,1065,#1065,130 E UNIVERSITY PARKWAY,UT,84058
Dick's Sporting Goods,GREENVILLE,1066,#1066,3500 GALLERIA DRIVE,NC,27834
Dick's Sporting Goods,BLUFFTON,1067,#1067,"1050 FORDING ISLAND ROAD, SUITE B",SC,29910
Dick's Sporting Goods,ATHENS,1068,#1068,"1791 OCONEE CONNECTOR, SUITE 120",GA,30606
Dick's Sporting Goods,VISALIA,1069,#1069,3637 S. MOONEY BLVD.,CA,93277
Dick's Sporting Goods,SALINAS,1070,#1070,1223 N. DAVIS ROAD,CA,93907
Dick's Sporting Goods,DUBLIN,1071,#1071,2820 DUBLIN BLVD.,CA,94568
Dick's Sporting Goods,MIAMI,1074,#1074,11900 MILLS DRIVE,FL,33183
Dick's Sporting Goods,SPOKANE VALLEY,1075,#1075,14014 EAST INDIANA AVENUE,WA,99216
Dick's Sporting Goods,LAS CRUCES,1076,#1076,200 NORTH TELSHOR BLVD.,NM,88011
Dick's Sporting Goods,JEFFERSON CITY,1077,#1077,739 STONERIDGE PARKWAY,MO,65109
Dick's Sporting Goods,OKLAHOMA CITY,1079,#1079,14200 N. PENNSYLVANIA AVENUE,OK,73134
Dick's Sporting Goods,MOORE,1080,#1080,760 SW 19TH STREET,OK,73160
Dick's Sporting Goods,OKLAHOMA CITY,1081,#1081,6601 SW 3RD STREET,OK,73128
Dick's Sporting Goods,MIDWEST CITY,1082,#1082,7095 SE 29TH STREET,OK,73110
Dick's Sporting Goods,WEST NYACK,1083,#1083,2400 PALISADES CENTER DRIVE,NY,10994
Dick's Sporting Goods,ONEONTA,1085,#1085,"5006 STATE HIGHWAY 23, SUITE 1C",NY,13820
Dick's Sporting Goods,SOUTH COUNTY,1086,#1086,590 SOUTH COUNTY CENTER WAY,MO,63129
Dick's Sporting Goods,GRETNA,1087,#1087,197 WESTBANK EXPRESSWAY,LA,70053
Dick's Sporting Goods,CHICO,1089,#1089,1922 E 20TH STREET,CA,95928
Dick's Sporting Goods,GAINESVILLE,1090,#1090,"150 PEARL NIX PARKWAY, SUITE G",GA,30501
Dick's Sporting Goods,COLONIAL HEIGHTS,1093,#1093,324 SOUTHPARK CIRCLE,VA,23834
Dick's Sporting Goods,RIVERHEAD,1095,#1095,1779 OLD COUNTRY ROAD,NY,11901
Dick's Sporting Goods,LAKE CHARLES,1098,#1098,542 WEST PRIEN LAKE ROAD,LA,70601
Dick's Sporting Goods,TALLAHASSEE,1099,#1099,1729 APALACHEE PARKWAY,FL,32301
Dick's Sporting Goods,ISSAQUAH,1100,#1100,1422 10TH WAY NE,WA,98029
Dick's Sporting Goods,WEST DES MOINES,1101,#1101,"320 SOUTH JORDAN CREEK PARKWAY, SUITE 100",IA,50266
Dick's Sporting Goods,SALINA,1103,#1103,2450 9TH STREET,KS,67401
Dick's Sporting Goods,VICTORVILLE,1111,#1111,14500 BEAR VALLEY ROAD,CA,92392
Dick's Sporting Goods,CORPUS CHRISTI,1113,#1113,"4938 SOUTH STAPLES STREET, SUITE A-1",TX,78411
Dick's Sporting Goods,ASHLAND,1114,#1114,469 RIVER HILL DRIVE,KY,41101
Dick's Sporting Goods,BOWLING GREEN,1115,#1115,2300 GARY FARMS BLVD,KY,42104
Dick's Sporting Goods,ALBUQUERQUE,1116,#1116,"6600 MENAUL BLVD. NE, SUITE 2000-1",NM,87110
Dick's Sporting Goods,AKRON,1119,#1119,498 HOWE AVE,OH,44221
Dick's Sporting Goods,CASPER,1122,#1122,601 SE WYOMING BLVD,WY,82609
Dick's Sporting Goods,SIOUX FALLS,1124,#1124,1080 W EMPIRE MALL,SD,57106
Dick's Sporting Goods,PALM DESERT,1126,#1126,"72-840 HIGHWAY 111, A130",CA,92260
Dick's Sporting Goods,STROUDSBURG,1127,#1127,500 COMMERCE BLVD,PA,18360
Dick's Sporting Goods,PRESCOTT VALLEY,1131,#1131,5715 E. STATE ROUTE 69,AZ,86314
Dick's Sporting Goods,NEWPORT,1132,#1132,175 PAVILLION PARKWAY,KY,41071
Dick's Sporting Goods,OSAGE BEACH,1134,#1134,4635 OSAGE BEACH PARKWAY,MO,65065
Dick's Sporting Goods,MORGANTON,1136,#1136,C138 MORGANTON HEIGHTS BLVD,NC,28655
Dick's Sporting Goods,FINDLAY,1138,#1138,1960 TIFFIN AVENUE,OH,45840
Dick's Sporting Goods,WHITE PLAINS,,#,1 MAPLE AVENUE,NY,10605
Dick's Sporting Goods,AVON,,#,10375 EAST US HIGHWAY 36,IN,46123
Dick's Sporting Goods,DAVENPORT,,#,1300 POSNER BLVD,FL,33837
Dick's Sporting Goods,PANAMA CITY BEACH,,#,"15700 PANAMA CITY BEACH PARK, UNIT 400",FL,32413
Dick's Sporting Goods,LEE'S SUMMIT,,#,1600 NW CHIPMAN ROAD,MO,64081
Dick's Sporting Goods,ALGONQUIN,,#,1816 RANDALL ROAD,IL,60102
Dick's Sporting Goods,DES PERES,,#,200 WEST COUNTY CENTER,MO,63131
Dick's Sporting Goods,NOVI,,#,21061 HAGGERTY ROAD,MI,48375
Dick's Sporting Goods,BATAVIA,,#,4180 VETERANS MEMORIAL DRIVE,NY,14020
Dick's Sporting Goods,WILLIAMSVILLE,,#,5105 TRANSIT RD,NY,14221
Dick's Sporting Goods,CONCORD,,#,6080 BAYFIELD PARKWAY,NC,28027
Dick's Sporting Goods,MONACA,,#,675 ROUTE 18,PA,15061
Dick's Sporting Goods,PINEVILLE,,#,9600 PINEVILLE-MATTHEWS ROAD,NC,28134
Dick's Sporting Goods,OMAHA,,#,9901 NICHOLAS STREET,NE,68114
Dick's Sporting Goods,NEWINGTON,32,#32,2985 BERLIN TURNPIKE,CT,6111
Dick's Sporting Goods,WEST SPRINGFIELD,35,#35,1081 RIVERDALE STREET,MA,1089
Dick's Sporting Goods,MT LAUREL,82,#82,1300 NIXON DRIVE,NJ,8054
Dick's Sporting Goods,MAYS LANDING,85,#85,210 CONSUMER SQUARE,NJ,8330
Dick's Sporting Goods,DEPTFORD,86,#86,399 ALMONESSON ROAD,NJ,8096
Dick's Sporting Goods,BURLINGTON TWP,87,#87,"2703 RT. 541, SUITE 4",NJ,8016
Dick's Sporting Goods,PRINCETON,105,#105,530 NASSAU PARK BLVD,NJ,8540
Dick's Sporting Goods,EAST BRUNSWICK,148,#148,325 STATE ROUTE 18,NJ,8816
Dick's Sporting Goods,WILLISTON,150,#150,1355 MAPLE TREE PLACE,VT,5495
Dick's Sporting Goods,WORCESTER,151,#151,541E LINCOLN STREET,MA,1605
Dick's Sporting Goods,WATERFORD,153,#153,"915 HARTFORD TURNPIKE, #A1",CT,6385
Dick's Sporting Goods,EAST HANOVER,157,#157,240 ROUTE 10 WEST,NJ,7936
Dick's Sporting Goods,NORTH ATTLEBORO,160,#160,1360 SOUTH WASHINGTON STREET,MA,2760
Dick's Sporting Goods,WARWICK,161,#161,1350 EAST BALD HILL ROAD,RI,2886
Dick's Sporting Goods,MILLBURY,162,#162,"70 WORCHESTER PROVIDENCE TURNPIKE, SUITE 200",MA,1527
Dick's Sporting Goods,SMITHFIELD,163,#163,"371 PUTNAM PIKE, SUITE 300",RI,2917
Dick's Sporting Goods,SOUTH PORTLAND,165,#165,385 GORHAM ROAD,ME,4106
Dick's Sporting Goods,SEEKONK,166,#166,275 HIGHLAND AVE,MA,2771
Dick's Sporting Goods,ENFIELD,168,#168,130 ELM STREET,CT,6082
Dick's Sporting Goods,MERIDEN,169,#169,470 LEWIS AVENUE,CT,6451
Dick's Sporting Goods,PLYMOUTH,175,#175,205 COLONY PLACE,MA,2360
Dick's Sporting Goods,HADLEY,176,#176,367 RUSSELL STREET,MA,1035
Dick's Sporting Goods,PLAINVILLE,185,#185,280 NEW BRITAIN AVENUE,CT,6062
Dick's Sporting Goods,LEOMINSTER,186,#186,56 ORCHARD HILL PARK DRIVE,MA,1453
Dick's Sporting Goods,ROCKAWAY,196,#196,387 MOUNT HOPE AVENUE,NJ,7866
Dick's Sporting Goods,CANTON,219,#219,110 ALBANY TURNPIKE,CT,6019
Dick's Sporting Goods,KEENE,222,#222,42 ASH BROOK ROAD,NH,3431
Dick's Sporting Goods,BANGOR,223,#223,641 STILLWATER AVENUE,ME,4401
Dick's Sporting Goods,PITTSFIELD,224,#224,635 MERRILL ROAD,MA,1201
Dick's Sporting Goods,PORTSMOUTH,234,#234,45 GOSLING ROAD,NH,3801
Dick's Sporting Goods,BROCKTON,236,#236,435 WESTGATE DRIVE,MA,2301
Dick's Sporting Goods,DARTMOUTH,237,#237,475 STATE ROAD,MA,2747
Dick's Sporting Goods,SAUGUS,238,#238,1201 BROADWAY,MA,1906
Dick's Sporting Goods,AUGUSTA,244,#244,"80 STEPHEN KING DRIVE, SUITE 2",ME,4330
Dick's Sporting Goods,TAUNTON,245,#245,2 GALLERIA MALL DRIVE,MA,2780
Dick's Sporting Goods,RUTLAND,253,#253,320 US ROUTE 7 SOUTH,VT,5701
Dick's Sporting Goods,NATICK,255,#255,1336 WORCHESTER STREET,MA,1760
Dick's Sporting Goods,CHERRY HILL,260,#260,2130 ROUTE 70 WEST,NJ,8002
Dick's Sporting Goods,NEWNAN,269,#269,382 NEWNAN CROSSING BYPASS,GA,30265
Dick's Sporting Goods,CONCORD,271,#271,295 LOUDON ROAD,NH,3301
Dick's Sporting Goods,BRICK,272,#272,487 ROUTE 70,NJ,8723
Dick's Sporting Goods,MILFORD,282,#282,1201 BOSTON POST ROAD,CT,6460
Dick's Sporting Goods,MANCHESTER,295,#295,179 PAVILLION DRIVE,CT,6040
Dick's Sporting Goods,DEDHAM,304,#304,180 PROVIDENCE HIGHWAY,MA,2026
Dick's Sporting Goods,TOPSHAM,317,#317,131 TOPSHAM FAIR MALL ROAD,ME,4086
Dick's Sporting Goods,MILLVILLE,379,#379,2126 NORTH 2ND STREET,NJ,8332
Dick's Sporting Goods,DANVERS,435,#435,96 COMMONWEALTH AVENUE,MA,1923
Dick's Sporting Goods,WOODBRIDGE,450,#450,366 WOODBRIDGE CENTER DRIVE,NJ,7095
Dick's Sporting Goods,DANBURY,612,#612,7 BACKUS AVENUE,CT,6810
Dick's Sporting Goods,NASHUA,616,#616,310 DANIEL WEBSTER HIGHWAY,NH,3060
Dick's Sporting Goods,PARAMUS,672,#672,"240 ROUTE 17, NORTH",NJ,7652
Dick's Sporting Goods,MANAHAWKIN,719,#719,223 STAFFORD PARK BLVD.,NJ,8050
Dick's Sporting Goods,FORT MYERS,739,#739,10011 GULF CENTER DRIVE,FL,33913
Dick's Sporting Goods,LISBON,1005,#1005,"170 RIVER ROAD, SUITE 2",CT,6351
Dick's Sporting Goods,HANOVER,1027,#1027,1803 WASHINGTON STREET,MA,2339
Dick's Sporting Goods,NORTHBOROUGH,1030,#1030,5102 SHOPS WAY,MA,1532
Dick's Sporting Goods,UNION,1032,#1032,2700A ROUTE 22 EAST,NJ,7083
Dick's Sporting Goods,SOUTH PLAINFIELD,1108,#1108,4999 STELTON ROAD,NJ,7080
