keywords,city,Aggdata Store Number,store_number,address,state,zip_code
Dillard's,Raleigh,140,140,3501 Sumner Blvd,NC,27616
Dillard's,Cary,141,141,1105 Walnut Street,NC,27511
Dillard's,Burlington,143,143,1003 Boston Drive,NC,27215
Dillard's,Greensboro,144,144,125 Four Seasons Towne Center,NC,27407
Dillard's,Winston-salem,145,145,3320 Silas Creek Pkwy. #3500,NC,27103
Dillard's,Hickory,146,146,1930 Us Highway 70 Se,NC,28602
Dillard's,Asheville,148,148,#3 South Tunnel Road,NC,28805
Dillard's,Charlotte,150,150,4400 Sharon Road,NC,28211
Dillard's,Pineville,151,151,11041 Carolina Place Pkwy,NC,28134
Dillard's,Gastonia,152,152,250 N. New Hope Road,NC,28054
Dillard's,Charlotte,153,153,7535 Northlake Mall Dr,NC,28216
Dillard's,Wilmington,156,156,3500 Oleander Drive,NC,28403
Dillard's,Charleston,161,161,2066 Sam Rittenburg Blvd.,SC,29407
Dillard's,North Charleston,162,162,2150 Northwood Blvd,SC,29406
Dillard's,Myrtle Beach,163,163,100 Coastal Grand Circle,SC,29577
Dillard's,Columbia,164,164,100 Columbiana Circle,SC,29212
Dillard's,Aiken,165,165,2441 Whiskey Rd #169,SC,29803
Dillard's,Greenville,166,166,700 Haywood Road,SC,29607
Dillard's,Spartanburg,167,167,205 W. Blackstock Road,SC,29301
Dillard's,Anderson,168,168,3101 N.main Suite D,SC,29621
Dillard's,Norfolk,170,170,200 Monticello Ave,VA,23510
Dillard's,Virginia Beach,171,171,701 Lynnhaven Parkway,VA,23452
Dillard's,Chesapeake,172,172,1401 Greenbrier Parkway,VA,23320
Dillard's,Newport News,174,174,12300 Jefferson Avenue Ste 300,VA,23602
Dillard's,Richmond,176,176,11824 W Broad Street,VA,23233
Dillard's,Richmond,179,179,9208 Stony Point Parkway,VA,23235
Dillard's,Tampa,201,201,2223 N Westshore Blvd,FL,33607
Dillard's,Tampa,203,203,8161 Citrus Park Town Ctr Mall,FL,33625
Dillard's,Brandon,204,204,303 Brandon Town Center Mall,FL,33511
Dillard's,St. Petersburg,205,205,6990 Tyrone Square,FL,33710
Dillard's,Clearwater,206,206,27001 Us Highway 19 N,FL,33761
Dillard's,Port Richey,207,207,9409 U.s. Highway 19,FL,34668
Dillard's,Wesley Chapel,208,208,28335 Paseo Dr,FL,33543
Dillard's,Lakeland,209,209,3800 Us Highway 98 North,FL,33809
Dillard's,Lake Wales,210,210,100 Eagle Ridge Dr,FL,33859
Dillard's,Sarasota,212,212,400 Southgate Plaza,FL,34239
Dillard's,Port Charlotte,214,214,1441 Tamiami Trail,FL,33948
Dillard's,Ft. Myers,215,215,4125 Cleveland Ave,FL,33901
Dillard's,Naples,216,216,1798 Tamiami Trail North,FL,34102
Dillard's,Estero,218,218,8017 Via Sardinia Way,FL,33928
Dillard's,Orlando,221,221,8001 S. Orange Blossom Trail,FL,32809
Dillard's,Oviedo,222,222,1000 Oviedo Marketplace Blvd,FL,32765
Dillard's,Sanford,224,224,300 Town Center Circle,FL,32771
Dillard's,Ocoee,225,225,9403 West Colonial Dr.,FL,34761
Dillard's,Altamonte Springs,226,226,451 E Altamonte Dr Ste #1101,FL,32701
Dillard's,Orlando,227,227,3403 E. Colonial Dr.,FL,32803
Dillard's,Ocala,229,229,4414 S. W. College Rd,FL,34474
Dillard's,Jacksonville,230,230,4755 Town Crossing Drive,FL,32246
Dillard's,Orange Park,232,232,1910 Wells Road,FL,32073
Dillard's,Jacksonville,233,233,10300 Southside Blvd.,FL,32256
Dillard's,Gainesville,234,234,6495 West Newberry Road,FL,32605
Dillard's,Daytona Beach,235,235,1700 W International Speedway,FL,32114
Dillard's,Merritt Island,236,236,777 E Merritt Island Causeway,FL,32952
Dillard's,Melbourne,237,237,1700 W. New Haven Ave.,FL,32904
Dillard's,Jensen Beach,238,238,3210 N.w. Federal Hwy,FL,34957
Dillard's,Spanish Fort,239,239,10101 Eastern Shore Blvd,AL,36527
Dillard's,Mobile,241,241,3300 Bell Air Mall,AL,36606
Dillard's,Pensacola,242,242,5100 N 9th Ave.,FL,32504
Dillard's,Tallahassee,243,243,1500 Apalachee Parkway,FL,32301
Dillard's,Vero Beach,244,244,6200 20th Street,FL,32966
Dillard's,Mary Esther,246,246,300 Mary Esther Blvd,FL,32569
Dillard's,Panama City Beach,247,247,200 Pier Park Dr.,FL,32413
Dillard's,Panama City,248,248,2298 Martin Luther King Blvd,FL,32405
Dillard's,Ft. Lauderdale,251,251,2500 East Sunrise Blvd.,FL,33304
Dillard's,Plantation,252,252,8000 W  Broward Blvd Ste 150,FL,33388
Dillard's,Pembroke Pines,253,253,11945 Pines Blvd,FL,33026
Dillard's,Wellington,256,256,10304 Forest Hill Blvd,FL,33414
Dillard's,Alpharetta,260,260,7000 North Point Circle,GA,30022
Dillard's,Buford,261,261,3333 Buford Dr.,GA,30519
Dillard's,Douglasville,262,262,6720 Douglas Blvd,GA,30135
Dillard's,Lithonia,263,263,8000 Mall Parkway,GA,30038
Dillard's,Atlanta,264,264,4500 Ashford Dunwoody Rd,GA,30346
Dillard's,Atlanta,265,265,1371 Market Street,GA,30363
Dillard's,Newnan,266,266,370 Newnan Crossing Bypass,GA,30265
Dillard's,Augusta,267,267,3450 Wrightsboro Rd,GA,30909
Dillard's,Macon,268,268,5080 Riverside Drive,GA,31210
Dillard's,Dothan,274,274,900 Commons Dr,AL,36303
Dillard's,Columbus,275,275,3247 Manchester Expressway,GA,31909
Dillard's,Albany,276,276,2601 Dawson Rd,GA,31707
Dillard's,Savannah,277,277,14025 Abercorn St,GA,31419
Dillard's,St. Louis,301,301,1105 St Louis Galleria,MO,63117
Dillard's,Chesterfield,302,302,100 Chesterfield Mall,MO,63017
Dillard's,St. Louis,305,305,220 South County Center,MO,63129
Dillard's,Fairview Heights,306,306,275 St Clair Square,IL,62208
Dillard's,St. Peters,309,309,2 Mid Rivers Mall Drive,MO,63376
Dillard's,Marion,310,310,3000 W. De Young Street,IL,62959
Dillard's,Jefferson City,311,311,3600 Country Club Drive,MO,65109
Dillard's,Columbia,312,312,2300 Bernadette Drive,MO,65203
Dillard's,Springfield,314,314,2825 S Glenstone Ave Ste 400,MO,65804
Dillard's,St. Joseph,317,317,3702 Frederick Ave,MO,64506
Dillard's,Overland Park,322,322,11601 West 95th Street,KS,66214
Dillard's,Independence,323,323,18805 East 39th Street,MO,64057
Dillard's,Kansas City,324,324,7350 Nw 87th Terrace,MO,64153
Dillard's,Wichita,330,330,7700 East Kellogg,KS,67207
Dillard's,Wichita,331,331,4600 W Kellogg,KS,67209
Dillard's,Salina,334,334,2259  South 9th,KS,67401
Dillard's,Manhattan,335,335,102 Manhattan Town Center,KS,66502
Dillard's,Topeka,336,336,1791 Sw Wanamaker Road,KS,66604
Dillard's,West Des Moines,340,340,101 Jordan Creek  Pkwy,IA,50266
Dillard's,Omaha,343,343,3030 Oakview Drive,NE,68144
Dillard's,Lincoln,344,344,6100 O St,NE,68505
Dillard's,Grand Island,345,345,3404 West 13th #100,NE,68803
Dillard's,Coralville,346,346,1411 Coral Ridge Ave,IA,52241
Dillard's,Waterloo,347,347,2060 Crossroads Blvd Ste 300,IA,50702
Dillard's,Davenport,348,348,320 W Kimberly Rd,IA,52806
Dillard's,Moline,349,349,4500 16th Street,IL,61265
Dillard's,Cincinnati,351,351,7913 Montgomery Rd,OH,45236
Dillard's,Crestview Hills,355,355,2900 Town Center Blvd,KY,41017
Dillard's,Cincinnati,356,356,4615 Eastgate Blvd,OH,45245
Dillard's,Richmond,359,359,3801 National Rd. East #733,IN,47374
Dillard's,Mentor,362,362,7850 Mentor Ave.,OH,44060
Dillard's,Strongsville,364,364,16996 South Park Center,OH,44136
Dillard's,Beachwood,365,365,26500 Cedar Road,OH,44122
Dillard's,North Olmsted,367,367,25188 Country Club Blvd,OH,44070
Dillard's,Akron,371,371,3265 W Market St,OH,44333
Dillard's,Canton,373,373,4400 Belden Village Mall,OH,44718
Dillard's,Boardman,374,374,7401 Market Street,OH,44512
Dillard's,Niles,375,375,5555 Youngstown-warren Road,OH,44446
Dillard's,Toledo,376,376,5001 Monroe St,OH,43623
Dillard's,Maumee,378,378,3100 Main Street,OH,43537
Dillard's,Paducah,384,384,5101 Hinkleville Road,KY,42001
Dillard's,Bowling Green,385,385,2625 Scottsville Rd.,KY,42104
Dillard's,Lexington,387,387,3625 Nicholasville Rd,KY,40503
Dillard's,Louisville,391,391,5000 Shelbyville Rd,KY,40207
Dillard's,Evansville,394,394,800 N Green River Rd,IN,47715
Dillard's,Clarksville,395,395,757 Lewis And Clark Parkway,IN,47129
Dillard's,Louisville,396,396,4801 Outer Loop,KY,40219
Dillard's,Hot Springs,402,402,4501 Central Ave Suite 102,AR,71913
Dillard's,Fayetteville,403,403,4201 N Shiloh,AR,72703
Dillard's,Pine Bluff,404,404,2901 Pine Mall Drive,AR,71601
Dillard's,Little Rock,405,405,6000 W. Markham,AR,72205
Dillard's,Jonesboro,406,406,3000 E. Highland,AR,72401
Dillard's,North Little Rock,407,407,3929 Mc Cain Blvd.,AR,72116
Dillard's,Rogers,408,408,2101 Promenade Blvd,AR,72758
Dillard's,Collierville,409,409,4620 Merchants Park Cr Bldg C,TN,38017
Dillard's,Memphis,410,410,4433 Poplar Ave,TN,38117
Dillard's,Memphis,411,411,2700 N. Germantown Road,TN,38133
Dillard's,Southaven,412,412,230 Town Center Loop,MS,38671
Dillard's,Fort Smith,413,413,5111 Rogers Avenue,AR,72903
Dillard's,Vicksburg,414,414,3505 Pemberton Square Blvd,MS,39180
Dillard's,Meridian,415,415,1078 Bonita Lakes Circle,MS,39301
Dillard's,Oxford,416,416,700 Quintard Dr,AL,36203
Dillard's,Auburn,417,417,1627 Opelika Rd Suite 16,AL,36830
Dillard's,Montgomery,418,418,7310 Eastchase Parkway,AL,36117
Dillard's,Ridgeland,419,419,1200 County Line Rd.,MS,39157
Dillard's,Nashville,421,421,2126 Abbott Martin Rd Ste 500,TN,37215
Dillard's,Goodlettsville,422,422,1000 Rivergate Pkwy,TN,37072
Dillard's,Franklin,425,425,1796 Galleria Blvd.,TN,37067
Dillard's,Clarksville,426,426,2801 Wilma Rudolph Blvd,TN,37040
Dillard's,Murfreesboro,427,427,1720 Old Fort Pkwy,TN,37129
Dillard's,Knoxville,428,428,7600 Kingston Pike,TN,37919
Dillard's,Chattanooga,430,430,2100 Hamilton Place Blvd.,TN,37421
Dillard's,Shreveport,432,432,1133 St Vincent Ave,LA,71104
Dillard's,Bossier City,433,433,2950 E Texas Ave Ste 670,LA,71111
Dillard's,Monroe,435,435,4610 Millhaven Rd,LA,71203
Dillard's,Alexandria,436,436,3437 Masonic Drive,LA,71301
Dillard's,Texarkana,437,437,2400 Richmond Rd.,TX,75503
Dillard's,Florence,453,453,301 Coxcreek Pkwy Ste #1100,AL,35630
Dillard's,Huntsville,460,460,2801 Memorial Parkway Sw,AL,35801
Dillard's,Mesa,501,501,1435 West Southern Ave,AZ,85202
Dillard's,Phoenix,502,502,10002 Metro Parkway East,AZ,85051
Dillard's,Cincinnati,504,504,6290 Glenway Ave,OH,45211
Dillard's,Montgomery,505,505,3000 Eastdale Mall,AL,36117
Dillard's,Irving,506,506,3901 Irving Mall,TX,75062
Dillard's,Arlington,507,507,2917 E Division Ste 2931,TX,76011
Dillard's,Asheville,508,508,800 Brevard Road,NC,28806
Dillard's,Houston,509,509,10 Greenspoint Mall,TX,77060
Dillard's,Houston,510,510,900 West Oaks Mall,TX,77082
Dillard's,Jacksonville,511,511,9501 Arlington Expressway,FL,32225
Dillard's,Tampa,512,512,12270 University Mall Ct,FL,33612
Dillard's,Boynton Beach,513,513,801 N Congress Av,FL,33426
Dillard's,Huntsville,514,514,5901 University Dr,AL,35806
Dillard's,Cincinnati,515,515,11700 Princeton Rd,OH,45246
Dillard's,High Point,517,517,921 Eastchester Dr Ste 1001,NC,27262
Dillard's,Baton Rouge,518,518,9701 Cortana Mall,LA,70815
Dillard's,Council Bluffs,519,519,1751 Madison Ave.,IA,51503
Dillard's,Kenner,520,520,1401 West Esplanade Ave.,LA,70065
Dillard's,Hurst,701,701,1101 Melbourne Road,TX,76053
Dillard's,Ft. Worth,704,704,4850 Overton Ridge Blvd,TX,76132
Dillard's,Fort Worth,705,705,1700 Green Oaks Road,TX,76116
Dillard's,Garland,708,708,301 Horseshoe Drive,TX,75040
Dillard's,Denton,709,709,2201 S I-35 E,TX,76205
Dillard's,Lewisville,711,711,2401 S. Stemmons Freeway,TX,75067
Dillard's,Mesquite,712,712,5000 Town East Blvd.,TX,75150
Dillard's,Sherman,713,713,4800 Texoma Parkway Suite 400,TX,75090
Dillard's,Arlington,714,714,3821 South Cooper,TX,76015
Dillard's,Cedar Hill,715,715,309 West F. M. 1382,TX,75104
Dillard's,Dallas,716,716,8687 North Central Expressway,TX,75225
Dillard's,Fairview,717,717,121 E. Stacy Road,TX,75069
Dillard's,Plano,718,718,2501 Dallas Parkway,TX,75093
Dillard's,Frisco,719,719,2603 Preston Rd,TX,75034
Dillard's,San Antonio,720,720,7400 San Pedro Suite 900,TX,78216
Dillard's,San Antonio,721,721,15900 La Cantera Pkwy,TX,78256
Dillard's,San Antonio,722,722,6909 N. Fm 1604 East,TX,78247
Dillard's,San Antonio,723,723,6301 Nw Loop 410 Ste D,TX,78238
Dillard's,Laredo,726,726,5300 San Dario Avenue,TX,78041
Dillard's,McAllen,727,727,2200 South Tenth St,TX,78501
Dillard's,Harlingen,728,728,2004 S. Expressway 83,TX,78552
Dillard's,Brownsville,729,729,2340 N. Expressway,TX,78526
Dillard's,Waco,730,730,6001 West Waco Drive,TX,76710
Dillard's,Temple,731,731,3111 S 31st St Ste 3001,TX,76502
Dillard's,Killeen,732,732,2100 South W S Young Drive,TX,76543
Dillard's,Austin,733,733,2901 Capitol Of Texas Hwy,TX,78746
Dillard's,Austin,734,734,3211 Feathergrass Court,TX,78758
Dillard's,Cedar Park,735,735,11200 Lakeline Mall Dr,TX,78613
Dillard's,Bee Cave,736,736,12800 State Hwy 71 West,TX,78738
Dillard's,Victoria,737,737,7800 Navarro,TX,77904
Dillard's,Corpus Christi,738,738,5488 S. Padre Island Drive,TX,78411
Dillard's,Amarillo,740,740,7701 W Interstate 40 Ste 300,TX,79121
Dillard's,Clovis,741,741,2609 North Prince,NM,88101
Dillard's,Wichita Falls,742,742,3111 Midwestern Pkwy,TX,76308
Dillard's,Lubbock,743,743,6002 Slide Road,TX,79414
Dillard's,Abilene,744,744,4310 Buffalo Gap Rd,TX,79606
Dillard's,San Angelo,745,745,4001 Sunset Drive,TX,76904
Dillard's,Midland,746,746,4511 N Midkiff,TX,79705
Dillard's,Odessa,747,747,4101 E. 42nd St Suite 108,TX,79762
Dillard's,Longview,748,748,3500 Mccann Road,TX,75605
Dillard's,Tyler,749,749,4601 S Broadway Avenue,TX,75703
Dillard's,Biloxi,758,758,2600 Beach Blvd Ste 1,MS,39531
Dillard's,Hattiesburg,759,759,1000 Turtle Creek Drive,MS,39402
Dillard's,Metairie,760,760,3301 Veterans Memorial Blvd,LA,70002
Dillard's,Gretna,762,762,197 West Bank Expressway,LA,70053
Dillard's,Slidell,763,763,150 North Shore Blvd,LA,70460
Dillard's,Hammond,764,764,1990 Hammond Square Drive,LA,70403
Dillard's,Houma,765,765,5953 West Park Ave Suite #1000,LA,70364
Dillard's,Lafayette,766,766,5725 Johnston Road,LA,70503
Dillard's,Lake Charles,767,767,684 West Prien Lake Rd.,LA,70601
Dillard's,Baton Rouge,768,768,6601 Bluebonnet,LA,70836
Dillard's,The Woodlands,770,770,1201 Lake Woodlands Dr Ste 400,TX,77380
Dillard's,Houston,771,771,7925 Fm 1960 West,TX,77070
Dillard's,Houston,774,774,900 Memorial City,TX,77024
Dillard's,Houston,775,775,4925 Westheimer,TX,77056
Dillard's,Sugar Land,777,777,16517 Sw Freeway,TX,77479
Dillard's,Pearland,778,778,11200 Broadway Bldg 50,TX,77584
Dillard's,Friendswood,779,779,600 Baybrook Mall,TX,77546
Dillard's,Humble,780,780,20131 Highway 59 North,TX,77338
Dillard's,College Station,783,783,1504 Harvey Blvd.,TX,77840
Dillard's,Lake Jackson,784,784,100 Hwy 332 W Ste 1400,TX,77566
Dillard's,Beaumont,786,786,5955 Eastex Freeway,TX,77706
Dillard's,Port Arthur,787,787,3100 Highway 365,TX,77642
Dillard's,Bartlesville,790,790,2350 S E Washington Blvd,OK,74006
Dillard's,Tulsa,791,791,4169 South Yale,OK,74135
Dillard's,Tulsa,792,792,6919 South Memorial,OK,74133
Dillard's,Muskogee,793,793,501 N Main Suite 74,OK,74401
Dillard's,Enid,794,794,4125 West Owen K Garriott,OK,73703
Dillard's,Oklahoma City,795,795,2501 West Memorial,OK,73134
Dillard's,Oklahoma City,796,796,1901 Nw Expressway Suite 1001,OK,73118
Dillard's,Shawnee,797,797,4901 N. Kickapoo St.,OK,74804
Dillard's,Norman,798,798,3499 West Main,OK,73072
Dillard's,Lawton,799,799,200 Southwest C Avenue,OK,73501
Dillard's,Scottsdale,902,902,6900 East Camelback Road,AZ,85251
Dillard's,Phoenix,904,904,4610 East Cactus Road,AZ,85032
Dillard's,Phoenix,906,906,7621 West Thomas Road,AZ,85033
Dillard's,Glendale,907,907,7800 W. Arrowhead Towne Centre,AZ,85308
Dillard's,Chandler,908,908,3101 West Chandler Blvd,AZ,85226
Dillard's,Mesa,909,909,6545 E. Southern Ave,AZ,85206
Dillard's,Gilbert,910,910,2151 S. San Tan Village Pky,AZ,85296
Dillard's,Prescott,911,911,3100 Gateway Boulevard,AZ,86303
Dillard's,Lake Havasu City,912,912,5501 Highway 95 North,AZ,86404
Dillard's,Tucson,914,914,5890 East Broadway Blvd,AZ,85711
Dillard's,Tucson,915,915,4550 North Oracle Rd,AZ,85705
Dillard's,Flagstaff,916,916,4700 Us Highway 89 North,AZ,86004
Dillard's,Casa Grande,917,917,1117 N. Promenade Pky,AZ,85194
Dillard's,Yuma,918,918,1461 South Yuma Palms Parkway,AZ,85365
Dillard's,Sierra Vista,919,919,3800 El Mercado Loop,AZ,85635
Dillard's,Albuquerque,920,920,10000 Coors Bypass,NM,87114
Dillard's,Albuquerque,921,921,2100 Louisiana Blvd Ne Ste 155,NM,87110
Dillard's,Santa Fe,922,922,4250 Cerrillos Road,NM,87507
Dillard's,Farmington,923,923,4601 East Main St.,NM,87402
Dillard's,El Paso,924,924,8401 Gateway West,TX,79925
Dillard's,Las Cruces,925,925,700 S Telshor Blvd.,NM,88011
Dillard's,El Paso,926,926,750 Sunland Park Drive,TX,79912
Dillard's,St. George,928,928,1850 E. Red Cliffs Drive,UT,84790
Dillard's,Murray,930,930,6191 S State St. #100,UT,84107
Dillard's,Ogden,931,931,4000 Newgate Mall,UT,84405
Dillard's,Sandy,932,932,10450 South State St.,UT,84070
Dillard's,Provo,933,933,1200 South Towne Centre Blvd,UT,84601
Dillard's,Boise,934,934,350 North Milwaukee,ID,83704
Dillard's,Idaho Falls,936,936,2420 E 17th St,ID,83404
Dillard's,Missoula,937,937,2901 Brooks St,MT,59801
Dillard's,Billings,939,939,320 S. 24th St. West,MT,59102
Dillard's,Las Vegas,941,941,3200 Las Vegas Blvd South,NV,89109
Dillard's,Las Vegas,942,942,4200 Meadows Lane,NV,89107
Dillard's,Henderson,944,944,1320 W. Sunset Rd.,NV,89014
Dillard's,Reno,949,949,13933 S. Virginia St.,NV,89511
Dillard's,Stockton,960,960,4950 Pacific Avenue,CA,95207
Dillard's,Palmdale,961,961,1255 Rancho Vista Blvd,CA,93551
Dillard's,El Centro,962,962,3451 South Dogwood Ave,CA,92243
Dillard's,Littleton,981,981,8415 Park Meadows Center Dr.,CO,80124
Dillard's,Aurora,982,982,14200 East Alameda Ave,CO,80012
Dillard's,Littleton,984,984,8501 W Bowles Ste 2d657,CO,80123
Dillard's,Broomfield,987,987,41 W Flatiron Cir,CO,80021
Dillard's,Pueblo,992,992,3601 Dillon Dr,CO,81008
Dillard's,Colorado Springs,993,993,760 Citadel Drive East,CO,80909
Dillard's,Colorado Springs,994,994,1790 Briargate Blvd,CO,80920
Dillard's,Cheyenne,999,999,1400 Dell Range Blvd.,WY,82009
