keywords,city,Aggdata Store Number,store_number,address,state,zip_code
Dunn Bros,Hopkins,7,COFFEE-7 COFFEE-7QQP #7 COFFEE-#7,4 Shady Oak Rd,MN,55343
Dunn Bros,Golden Valley,18,COFFEE-18 COFFEE-18QQP #18 COFFEE-#18,675 Winnetka Ave N,MN,55427
Dunn Bros,Apple Valley,20,COFFEE-20 COFFEE-20QQP #20 COFFEE-#20,15265 Galaxie Ave,MN,55124
Dunn Bros,Elk River,23,COFFEE-23 COFFEE-23QQP #23 COFFEE-#23,19344 Hwy 169 NW,MN,55330
Dunn Bros,Maple Grove,24,COFFEE-24 COFFEE-24QQP #24 COFFEE-#24,7899 Main St,MN,55369
Dunn Bros,Fridley,26,COFFEE-26 COFFEE-26QQP #26 COFFEE-#26,7610 University Ave,MN,55432
Dunn Bros,Savage,27,COFFEE-27 COFFEE-27QQP #27 COFFEE-#27,5801 Egan Dr,MN,55378
Dunn Bros,Andover,29,COFFEE-29 COFFEE-29QQP #29 COFFEE-#29,2218 Bunker Lake Blvd NW,MN,55304
Dunn Bros,Excelsior,31,COFFEE-31 COFFEE-31QQP #31 COFFEE-#31,11 Water St,MN,55331
Dunn Bros,Duluth,33,COFFEE-33 COFFEE-33QQP #33 COFFEE-#33,2401 London Rd,MN,55812
Dunn Bros,Hastings,41,COFFEE-41 COFFEE-41QQP #41 COFFEE-#41,919 Vermillion St,MN,55033
Dunn Bros,Vadnais Heights,46,COFFEE-46 COFFEE-46QQP #46 COFFEE-#46,955 E County Rd E,MN,55127
Dunn Bros,Stillwater,51,COFFEE-51 COFFEE-51QQP #51 COFFEE-#51,1798 Market Dr,MN,55082
Dunn Bros,Hudson,52,COFFEE-52 COFFEE-52QQP #52 COFFEE-#52,2521 Hanley Rd,WI,54016
Dunn Bros,Buffalo,60,COFFEE-60 COFFEE-60QQP #60 COFFEE-#60,94 14th St NE,MN,55313
Dunn Bros,Addison,65,COFFEE-65 COFFEE-65QQP #65 COFFEE-#65,3725 Beltline Rd,TX,75001
Dunn Bros,Chaska,74,COFFEE-74 COFFEE-74QQP #74 COFFEE-#74,100 E 2nd St,MN,55318
Dunn Bros,Plymouth,91,COFFEE-91 COFFEE-91QQP #91 COFFEE-#91,3195A Vicksburg Ln,MN,55447
Dunn Bros,Rapid City,94,COFFEE-94 COFFEE-94QQP #94 COFFEE-#94,719 Omaha St,SD,57701
Dunn Bros,Jefferson City,97,COFFEE-97 COFFEE-97QQP #97 COFFEE-#97,3218 W Edgewood,MO,65109
Dunn Bros,West Bend,109,COFFEE-109 COFFEE-109QQP #109 COFFEE-#109,950 West Paradise Drive,WI,53095
Dunn Bros,Hugo,110,COFFEE-110 COFFEE-110QQP #110 COFFEE-#110,14775 Victor Hugo Blvd,MN,55038
Dunn Bros,Katy,111,COFFEE-111 COFFEE-111QQP #111 COFFEE-#111,6825 S Fry Rd,TX,77494
Dunn Bros,Sioux Falls,120,COFFEE-120 COFFEE-120QQP #120 COFFEE-#120,5320 E Arrowhead Parkway,SD,57110
Dunn Bros,Farmington,142,COFFEE-142 COFFEE-142QQP #142 COFFEE-#142,20700 Chippendale Ave W,MN,55024
Dunn Bros,Hutchinson,159,COFFEE-159 COFFEE-159QQP #159 COFFEE-#159,114 Main St NE,MN,55350
Dunn Bros,Alexandria,171,COFFEE-171 COFFEE-171QQP #171 COFFEE-#171,405 50th Ave W,MN,56308
Dunn Bros,Friendswood,177,COFFEE-177 COFFEE-177QQP #177 COFFEE-#177,201 S. Friendswood Dr.,TX,77546
Dunn Bros,Oakdale,178,COFFEE-178 COFFEE-178QQP #178 COFFEE-#178,6970 33rd St N,MN,55128
Dunn Bros,Bettendorf,186,COFFEE-186 COFFEE-186QQP #186 COFFEE-#186,787 Middle Road,IA,52722
Dunn Bros,Columbia,187,COFFEE-187 COFFEE-187QQP #187 COFFEE-#187,1412 Forum Blvd,MO,65203
Dunn Bros,St Cloud,203,COFFEE-203 COFFEE-203QQP #203 COFFEE-#203,900 Cooper Ave S,MN,56304
Dunn Bros,St. Paul,1,COFFEE-1 COFFEE-1QQP #1 COFFEE-#1,1569 Grand Ave.,MN,55105
Dunn Bros,Minneapolis,2,COFFEE-2 COFFEE-2QQP #2 COFFEE-#2,3348 Hennepin Ave S,MN,55408
Dunn Bros,Minneapolis,3,COFFEE-3 COFFEE-3QQP #3 COFFEE-#3,1506 W Lake St,MN,55408
Dunn Bros,Minneapolis,5,COFFEE-5 COFFEE-5QQP #5 COFFEE-#5,5008 Xerxes Ave S,MN,55409
Dunn Bros,Minneapolis,6,COFFEE-6 COFFEE-6QQP #6 COFFEE-#6,201 3rd Ave S,MN,55401
Dunn Bros,Minneapolis,10,COFFEE-10 COFFEE-10QQP #10 COFFEE-#10,530 University Ave,MN,55414
Dunn Bros,Minneapolis,11,COFFEE-11 COFFEE-11QQP #11 COFFEE-#11,2814 W 43rd St,MN,55410
Dunn Bros,Minnetonka,13,COFFEE-13 COFFEE-13QQP #13 COFFEE-#13,12601 Ridgedale Dr,MN,55305
Dunn Bros,St. Paul,15,COFFEE-15 COFFEE-15QQP #15 COFFEE-#15,367 Wabasha St,MN,55102
Dunn Bros,St. Paul,19,COFFEE-19 COFFEE-19QQP #19 COFFEE-#19,2264 Como Ave,MN,55102
Dunn Bros,St Paul,21,COFFEE-21 COFFEE-21QQP #21 COFFEE-#21,4300 Glumack Dr,MN,55111
Dunn Bros,Minneapolis,22,COFFEE-22 COFFEE-22QQP #22 COFFEE-#22,329 W 15th St,MN,55403
Dunn Bros,Eden Prairie,30,COFFEE-30 COFFEE-30QQP #30 COFFEE-#30,8107 Eden Prairie Rd,MN,55347
Dunn Bros,Minneapolis,32,COFFEE-32 COFFEE-32QQP #32 COFFEE-#32,800 LaSalle Ave,MN,55402
Dunn Bros,White Bear Lake,47,COFFEE-47 COFFEE-47QQP #47 COFFEE-#47,2751 E County Rd E,MN,55110
Dunn Bros,Minneapolis,48,COFFEE-48 COFFEE-48QQP #48 COFFEE-#48,4648 E Lake St,MN,55406
Dunn Bros,Minneapolis,49,COFFEE-49 COFFEE-49QQP #49 COFFEE-#49,121 S 8th St,MN,55402
Dunn Bros,Edina,54,COFFEE-54 COFFEE-54QQP #54 COFFEE-#54,6559 York Ave S,MN,55423
Dunn Bros,Anoka,59,COFFEE-59 COFFEE-59QQP #59 COFFEE-#59,3841 St Francis Blvd,MN,55303
Dunn Bros,Rochester,71,COFFEE-71 COFFEE-71QQP #71 COFFEE-#71,120 Elton Hills Dr NW,MN,55901
Dunn Bros,Minneapolis,80,COFFEE-80 COFFEE-80QQP #80 COFFEE-#80,601 Marquette Ave,MN,55402
Dunn Bros,Minneapolis,83,COFFEE-83 COFFEE-83QQP #83 COFFEE-#83,821 W Lake St,MN,55408
Dunn Bros,Rochester,92,COFFEE-92 COFFEE-92QQP #92 COFFEE-#92,1340 Salem Rd SW,MN,55902
Dunn Bros,Roseville,99,COFFEE-99 COFFEE-99QQP #99 COFFEE-#99,2180 N Hamline Ave,MN,55113
Dunn Bros,St. Paul,101,COFFEE-101 COFFEE-101QQP #101 COFFEE-#101,2650 University Ave W.,MN,55114
Dunn Bros,Roseville,105,COFFEE-105 COFFEE-105QQP #105 COFFEE-#105,2471 Fairview Ave N,MN,55113
Dunn Bros,Bemidji,106,COFFEE-106 COFFEE-106QQP #106 COFFEE-#106,501 Paul Bunyan Dr S,MN,56601
Dunn Bros,Nashville,108,COFFEE-108 COFFEE-108QQP #108 COFFEE-#108,401 Church St,TN,37219
Dunn Bros,Lawrence,114,COFFEE-114 COFFEE-114QQP #114 COFFEE-#114,1618 W 23rd St,KS,66046
Dunn Bros,Minneapolis,115,COFFEE-115 COFFEE-115QQP #115 COFFEE-#115,337 Washington Ave North,MN,55401
Dunn Bros,Minneapolis,136,COFFEE-136 COFFEE-136QQP #136 COFFEE-#136,300 Nicollet Mall,MN,55402
Dunn Bros,Woodbury,144,COFFEE-144 COFFEE-144QQP #144 COFFEE-#144,10060 City Walk Dr,MN,55129
Dunn Bros,Coon Rapids,150,COFFEE-150 COFFEE-150QQP #150 COFFEE-#150,401 Northdale Blvd NW,MN,55448
Dunn Bros,Minneapolis,151,COFFEE-151 COFFEE-151QQP #151 COFFEE-#151,2544 Nicollet Ave. S,MN,55408
Dunn Bros,Lexington,152,COFFEE-152 COFFEE-152QQP #152 COFFEE-#152,9390 Lexington Ave,MN,55014
Dunn Bros,Willmar,160,COFFEE-160 COFFEE-160QQP #160 COFFEE-#160,2800 S 1st St,MN,56201
Dunn Bros,Minneapolis,164,COFFEE-164 COFFEE-164QQP #164 COFFEE-#164,309 19th Ave S,MN,55455
Dunn Bros,Zimmerman,167,COFFEE-167 COFFEE-167QQP #167 COFFEE-#167,12530 Fremont Ave,MN,55398
Dunn Bros,Fargo,172,COFFEE-172 COFFEE-172QQP #172 COFFEE-#172,1895 45th St S,ND,58103
Dunn Bros,Minneapolis,176,COFFEE-176 COFFEE-176QQP #176 COFFEE-#176,56 E River Rd,MN,55455
Dunn Bros,Minneapolis,184,COFFEE-184 COFFEE-184QQP #184 COFFEE-#184,1301 2nd Ave S,MN,55403
Dunn Bros,St. Paul,188,COFFEE-188 COFFEE-188QQP #188 COFFEE-#188,242 W 7th St,MN,55102
Dunn Bros,Eagan,190,COFFEE-190 COFFEE-190QQP #190 COFFEE-#190,1012 Diffley Rd,MN,55123
Dunn Bros,Fargo,192,COFFEE-192 COFFEE-192QQP #192 COFFEE-#192,1310 25th St S,ND,58104
Dunn Bros,Minneapolis,195,COFFEE-195 COFFEE-195QQP #195 COFFEE-#195,901 Nicollet Mall,MN,55402
Dunn Bros,Minneapolis,198,COFFEE-198 COFFEE-198QQP #198 COFFEE-#198,1501 Hennepin Ave. S.,MN,55403
Dunn Bros,Bismarck,199,COFFEE-199 COFFEE-199QQP #199 COFFEE-#199,1401 Skyline Blvd.,ND,58503
Dunn Bros,Minneapolis,204,COFFEE-204 COFFEE-204QQP #204 COFFEE-#204,"333 S 7th Street, Suite 210",MN,55402
Dunn Bros,Minneapolis,205,COFFEE-205 COFFEE-205QQP #205 COFFEE-#205,1501 Hennepin Ave So.,MN,55403
Dunn Bros,Rochester,206,COFFEE-206 COFFEE-206QQP #206 COFFEE-#206,100 1st Avenue SW #2,MN,55902
Dunn Bros,Grand Forks,207,COFFEE-207 COFFEE-207QQP #207 COFFEE-#207,4571 S. Washington Street,ND,58201
Dunn Bros,Dickinson,208,COFFEE-208 COFFEE-208QQP #208 COFFEE-#208,269 16th St West,ND,58601
Dunn Bros,Minneapolis,209,COFFEE-209 COFFEE-209QQP #209 COFFEE-#209,701 Park Avenue,MN,55415
