keywords,city,Aggdata Store Number,store_number,address,state,zip_code
Hardee's,SAINT LOUIS,1500025,1500025,4321 BUTLER HILL RD,MO,63128-3717
Hardee's,FORT SMITH,1500057,1500057,4123 GRAND AVE,AR,72904-7023
Hardee's,SIKESTON,1500062,1500062,1105 S MAIN ST,MO,63801-3102
Hardee's,ELIZABETH CITY,1500069,1500069,401 W EHRINGHAUS ST,NC,27909-4927
Hardee's,CEDAR RAPIDS,1500070,1500070,3214 1ST AVE NE,IA,52402-6002
Hardee's,TOPEKA,1500074,1500074,2424 SW 6TH AVE,KS,66606-1784
Hardee's,CAPE GIRARDEAU,1500078,1500078,2115 WILLIAM ST,MO,63703-5817
Hardee's,CEDAR RAPIDS,1500079,1500079,1519 6TH ST SW,IA,52404-5842
Hardee's,INDIANAPOLIS,1500082,1500082,8009 PENDLETON PIKE,IN,46226-4012
Hardee's,INDIANAPOLIS,1500085,1500085,4401 E 10TH STREET,IN,46201-2744
Hardee's,PLAINFIELD,1500086,1500086,1630 E MAIN ST,IN,46168-1848
Hardee's,KIRKWOOD,1500087,1500087,11111 MANCHESTER RD,MO,63122-1245
Hardee's,RANTOUL,1500093,1500093,326 S CENTURY BLVD,IL,61866-2906
Hardee's,INDIANAPOLIS,1500097,1500097,5950 BROOKVILLE RD,IN,46219-8116
Hardee's,BRAZIL,1500099,1500099,304 E NATIONAL AVE,IN,47834-2630
Hardee's,GREENSBORO,1500101,1500101,701 COLLEGE RD,NC,27410-4103
Hardee's,LOGANSPORT,1500104,1500104,1121 E MARKET ST,IN,46947-3561
Hardee's,CIRCLEVILLE,1500105,1500105,300 W MAIN ST,OH,43113-9091
Hardee's,GREENFIELD,1500106,1500106,1215 W MAIN ST,IN,46140-1924
Hardee's,PERU,1500108,1500108,301 N BROADWAY,IN,46970-1451
Hardee's,INDIANAPOLIS,1500111,1500111,144 W 16TH ST,IN,46202-2343
Hardee's,WABASH,1500113,1500113,1010 N CASS ST,IN,46992-1022
Hardee's,INDIANAPOLIS,1500114,1500114,921 E WASHINGTON ST,IN,46202-3950
Hardee's,MATTOON,1500119,1500119,1117 LAKELAND BLVD,IL,61938-5525
Hardee's,FORT MADISON,1500123,1500123,1431 AVENUE H,IA,52627-4413
Hardee's,ELWOOD,1500124,1500124,2820 E MAIN ST,IN,46036-2214
Hardee's,MYRTLE BEACH,1500130,1500130,402 S KINGS HWY,SC,29577-4104
Hardee's,FORT SMITH,1500131,1500131,2720 ROGERS AVE,AR,72901-4226
Hardee's,SPRINGFIELD,1500139,1500139,2242 S LIMESTONE ST,OH,45505-4732
Hardee's,CENTRALIA,1500150,1500150,750 W BROADWAY,IL,62801-5304
Hardee's,SAINT LOUIS,1500153,1500153,5854 OAKLAND AVE,MO,63110-1333
Hardee's,EMPORIA,1500157,1500157,1126 E 12TH AVE,KS,66801-3320
Hardee's,O FALLON,1500174,1500174,110 EAST HIGHWAY 50,IL,62269-2659
Hardee's,INDIANAPOLIS,1500181,1500181,6313 W WASHINGTON ST,IN,46241-3022
Hardee's,SAINT LOUIS,1500198,1500198,4202 S BROADWAY,MO,63111-1154
Hardee's,TERRE HAUTE,1500212,1500212,200 N THIRD ST,IN,47807-2921
Hardee's,FORT SMITH,1500213,1500213,1820 PHOENIX AV,AR,72901-7949
Hardee's,DANVILLE,1500218,1500218,549 E MAIN ST,IN,46122-1937
Hardee's,MARTINSVILLE,1500220,1500220,589 STATE ROAD 39 BYP S,IN,46151-1972
Hardee's,INDIANAPOLIS,1500222,1500222,8015 S MERIDIAN ST,IN,46217-4252
Hardee's,WASHINGTON,1500225,1500225,1102 PEORIA ST,IL,61571-2351
Hardee's,WALTERBORO,1500228,1500228,503 N JEFFERIES BLVD,SC,29488-2930
Hardee's,ROCKY MOUNT,1500230,1500230,1200 E RALEIGH BLVD,NC,27801-3650
Hardee's,ROCKY MOUNT,1500235,1500235,886 W RALEIGH BLVD,NC,27803
Hardee's,GARNER,1500238,1500238,100 VANDORA SPRINGS RD,NC,27529-3044
Hardee's,INDIANAPOLIS,1500242,1500242,9020 E 21ST ST,IN,46229-1602
Hardee's,WASHINGTON,1500244,1500244,228 E 5TH ST,MO,63090-2623
Hardee's,ROCKY MOUNT,1500249,1500249,600 N WESLEYAN BLVD,NC,27804-1798
Hardee's,JERSEYVILLE,1500251,1500251,528 S STATE ST,IL,62052-2252
Hardee's,NORTH MYRTLE BEACH,1500252,1500252,70 HIGHWAY 17 S,SC,29582-3172
Hardee's,MYRTLE BEACH,1500254,1500254,6000 N KINGS HWY,SC,29577-2369
Hardee's,CONWAY,1500259,1500259,1506 CHURCH ST,SC,29526-2955
Hardee's,PHENIX CITY,1500261,1500261,1300 280 BYP,AL,36867-5451
Hardee's,TOPEKA,1500264,1500264,2300 NW TOPEKA BLVD,KS,66608-1833
Hardee's,SALISBURY,1500266,1500266,726 E INNES ST,NC,28144-5144
Hardee's,CHAMPAIGN,1500267,1500267,1806 W BRADLEY AVE,IL,61821-1824
Hardee's,KNOXVILLE,1500269,1500269,1002 W PLEASANT ST,IA,50138-2744
Hardee's,BENTON,1500275,1500275,629 W MAIN ST,IL,62812-1365
Hardee's,CENTERVILLE,1500278,1500278,100 E MAPLE ST,IA,52544-2209
Hardee's,KINGS MOUNTAIN,1500279,1500279,509 E KING ST,NC,28086-3422
Hardee's,HERRIN,1500281,1500281,615 S PARK AVE,IL,62948-3813
Hardee's,WEST FRANKFORT,1500285,1500285,1105 W MAIN ST,IL,62896-2213
Hardee's,MARION,1500289,1500289,1194 N MAIN ST,NC,28752-5381
Hardee's,HARRISBURG,1500291,1500291,700 E POPLAR,IL,62946-1536
Hardee's,OSKALOOSA,1500293,1500293,208 A AVENUE W,IA,52577-2722
Hardee's,RUSSELLVILLE,1500297,1500297,1201 W MAIN ST,AR,72801-3521
Hardee's,HAWKINSVILLE,1500302,1500302,341 BROAD ST,GA,31036-4820
Hardee's,CORBIN,1500303,1500303,411 S MAIN ST,KY,40701-1459
Hardee's,MADISONVILLE,1500304,1500304,770 E CENTER ST,KY,42431-2164
Hardee's,COLUMBUS,1500314,1500314,3848 ST MARYS RD,GA,31906-4681
Hardee's,LONDON,1500315,1500315,814 S MAIN ST,KY,40741-1901
Hardee's,SOMERSET,1500316,1500316,409 S HIGHWAY 27,KY,42501-3445
Hardee's,LILLINGTON,1500317,1500317,1102 S MAIN ST,NC,27546-5647
Hardee's,LENOIR,1500319,1500319,670 MORGANTON BLVD,NC,28645-5823
Hardee's,SEDALIA,1500325,1500325,715 E BROADWAY BLVD,MO,65301-6040
Hardee's,ADEL,1500326,1500326,807 W 4TH ST,GA,31620-2505
Hardee's,MONMOUTH,1500327,1500327,411 N MAIN ST,IL,61462-1744
Hardee's,COLUMBIA CITY,1500335,1500335,526 N LINE ST,IN,46725-1230
Hardee's,ATHENS,1500341,1500341,496 NORTH AVE,GA,30601-2255
Hardee's,FENTON,1500344,1500344,545 MAIN STREET,MO,63026-4169
Hardee's,LEADINGTON,1500345,1500345,100 PLAZA SQ,MO,63601-4454
Hardee's,ATLANTA,1500346,1500346,2516 BOULDERCREST RD SE,GA,30316-4808
Hardee's,NORTH MANCHESTER,1500354,1500354,1607 STATE RD 114 W,IN,46962-1938
Hardee's,HAMPTON,1500361,1500361,1005 ELM ST W,SC,29924-2735
Hardee's,MONCKS CORNER,1500365,1500365,422 N HIGHWAY 52,SC,29461-3922
Hardee's,MONROE,1500368,1500368,315 S BROAD ST,GA,30655-2119
Hardee's,CANTON,1500374,1500374,638 N MAIN ST,IL,61520-1251
Hardee's,MARION,1500376,1500376,1106 N CARBON ST,IL,62959-1016
Hardee's,FORT DODGE,1500378,1500378,6 S 15TH ST,IA,50501-4958
Hardee's,SEDALIA,1500379,1500379,1400 S LIMIT AVE,MO,65301-5118
Hardee's,WARNER ROBINS,1500380,1500380,421 N DAVIS DR,GA,31093-3351
Hardee's,STATESVILLE,1500384,1500384,255 N CENTER ST,NC,28677-5235
Hardee's,NICHOLASVILLE,1500385,1500385,903 S MAIN ST,KY,40356-2151
Hardee's,BARNESVILLE,1500386,1500386,323 COLLEGE ST,GA,30204-1603
Hardee's,KENNETT,1500388,1500388,1136 E 1ST ST,MO,63857-2420
Hardee's,ASHEBORO,1500389,1500389,457 E DIXIE DR,NC,27203-6846
Hardee's,GOOSE CREEK,1500392,1500392,201 N GOOSE CREEK BLVD,SC,29445-2966
Hardee's,INDEPENDENCE,1500403,1500403,4011 S NOLAND RD,MO,64055-3348
Hardee's,PRINCETON,1500405,1500405,370 US HIGHWAY 62 W,KY,42445-2405
Hardee's,WARRENTON,1500406,1500406,417 W RIDGEWAY ST,NC,27589-1713
Hardee's,ROLLA,1500408,1500408,1203 N BISHOP AVE,MO,65401-2149
Hardee's,NORTH CHARLESTON,1500409,1500409,2235 ASHLEY PHOSPHATE RD,SC,29406-5408
Hardee's,WAKE FOREST,1500417,1500417,216 E ROOSEVELT AVE,NC,27587-2720
Hardee's,MURRAY,1500418,1500418,505 N 12TH ST,KY,42071-1652
Hardee's,PARIS,1500419,1500419,1411 MAIN ST,KY,40361-1201
Hardee's,COLUMBIA,1500423,1500423,200 S PROVIDENCE RD,MO,65203-4266
Hardee's,MOUNT VERNON,1500425,1500425,4333 BROADWAY ST,IL,62864-2281
Hardee's,CAMPBELLSVILLE,1500426,1500426,1303 EAST BROADWAY,KY,42718-1599
Hardee's,NASHVILLE,1500427,1500427,361 W WASHINGTON ST,NC,27856-1260
Hardee's,INDEPENDENCE,1500431,1500431,17701 E US HIGHWAY 24,MO,64056-1852
Hardee's,LEAVENWORTH,1500433,1500433,4925 S 4TH ST,KS,66048-5032
Hardee's,KANSAS CITY,1500434,1500434,6323 INDEPENDENCE AVE,MO,64125-1544
Hardee's,ALBANY,1500435,1500435,2324 E OGLETHORPE BLVD,GA,31705-2938
Hardee's,RADCLIFF,1500440,1500440,634 KNOX BLVD,KY,40160-1515
Hardee's,ROCKY MOUNT,1500441,1500441,3525 SUNSET AVE,NC,27804-3409
Hardee's,MURPHYSBORO,1500442,1500442,340 WALNUT ST,IL,62966-2246
Hardee's,FRANKFORT,1500444,1500444,705 SCHENKEL LN,KY,40601-1401
Hardee's,FRANKLIN,1500446,1500446,807 S MAIN ST,KY,42134-2362
Hardee's,INDEPENDENCE,1500460,1500460,16800 E GUDGELL RD,MO,64055-2018
Hardee's,HENDERSON,1500465,1500465,120 DABNEY DR,NC,27536-4908
Hardee's,YADKINVILLE,1500477,1500477,952 S STATE ST,NC,27055-6765
Hardee's,KERNERSVILLE,1500479,1500479,813 S MAIN ST,NC,27284-3343
Hardee's,WARSAW,1500480,1500480,3360 LAKE CITY HWY,IN,46580-3923
Hardee's,CREEDMOOR,1500481,1500481,2568 W LYON STATION RD,NC,27522-7308
Hardee's,OVERLAND PARK,1500486,1500486,10500 METCALF AVE,KS,66212-1814
Hardee's,GRIFFIN,1500491,1500491,1619 N EXPRESSWAY,GA,30223-1276
Hardee's,VALLEY PARK,1500495,1500495,850 MERAMEC STATION RD,MO,63088-1146
Hardee's,SILOAM SPRINGS,1500502,1500502,1625 HWY 412 W,AR,72761-4557
Hardee's,AYDEN,1500503,1500503,1411 W 3RD ST,NC,28513-1537
Hardee's,COMMERCE,1500507,1500507,44 HOMER RD,GA,30529-1808
Hardee's,SAINT LOUIS,1500508,1500508,2110 HAMPTON AVE,MO,63139-2905
Hardee's,STONE MOUNTAIN,1500518,1500518,5259 STONE MOUNTAIN HWY,GA,30087-6401
Hardee's,WATERLOO,1500523,1500523,805 FRANKLIN ST,IA,50703-5718
Hardee's,KANSAS CITY,1500529,1500529,8170 NW PRAIRIE VIEW RD,MO,64151-1020
Hardee's,WATERLOO,1500533,1500533,3110 UNIVERSITY AVE,IA,50701-2011
Hardee's,BEDFORD,1500540,1500540,1510 16TH ST,IN,47421-3610
Hardee's,JEFFERSONTOWN,1500543,1500543,9506 TAYLORSVILLE RD,KY,40299-2735
Hardee's,KANSAS CITY,1500544,1500544,8021 STATE AVE,KS,66112-2454
Hardee's,LEXINGTON,1500545,1500545,1125 WINCHESTER RD,KY,40505-4028
Hardee's,LEXINGTON,1500546,1500546,202 W NEW CIRCLE RD,KY,40505-1426
Hardee's,GREENSBORO,1500547,1500547,1501 WESTOVER TER,NC,27408-7111
Hardee's,TRENTON,1500549,1500549,1849 E 9TH ST,MO,64683-2641
Hardee's,BARDSTOWN,1500550,1500550,707 N 3RD ST,KY,40004-1744
Hardee's,BUFORD,1500560,1500560,1520 BUFORD HWY,GA,30518-3625
Hardee's,JEFFERSON CITY,1500561,1500561,3601 COUNTRY CLUB DR,MO,65109-1070
Hardee's,FRANKFORT,1500562,1500562,1248 US HIGHWAY 127 S,KY,40601-4361
Hardee's,HUNTSVILLE,1500564,1500564,2015 DRAKE AVE,AL,35801-5608
Hardee's,GOLDSBORO,1500570,1500570,1109 11TH ST,NC,27534-1619
Hardee's,NORMAL,1500571,1500571,1523 E COLLEGE AVE,IL,61761-2104
Hardee's,SEYMOUR,1500573,1500573,411 E TIPTON ST,IN,47274-3515
Hardee's,BLOOMINGTON,1500579,1500579,2702 E OAKLAND AVE,IL,61704-6290
Hardee's,HARRISONVILLE,1500580,1500580,2002 N COMMERCIAL ST,MO,64701-1251
Hardee's,INDIANAPOLIS,1500584,1500584,8601 ALLISONVILLE RD,IN,46250-1552
Hardee's,LINCOLN,1500590,1500590,539 WOODLAWN RD,IL,62656-1404
Hardee's,COLUMBUS,1500598,1500598,2501 AIRPORT THRUWAY,GA,31904-9010
Hardee's,GLADSTONE,1500608,1500608,6250 N OAK TRFY,MO,64118-4703
Hardee's,DES MOINES,1500609,1500609,8755 UNIVERSITY AVE,IA,50325-6223
Hardee's,HIGHLAND,1500628,1500628,12620 STATE RTE 143,IL,62249-1139
Hardee's,FORSYTH,1500630,1500630,260 N LEE ST,GA,31029-2124
Hardee's,DES MOINES,1500634,1500634,3621 MERLE HAY RD,IA,50310
Hardee's,SPRINGDALE,1500638,1500638,401 S THOMPSON ST,AR,72764-4242
Hardee's,THOMASTON,1500639,1500639,624 N CHURCH ST,GA,30286-3612
Hardee's,WOOD RIVER,1500640,1500640,1099 E EDWARDSVILLE RD,IL,62095-1825
Hardee's,SAINT GEORGE,1500641,1500641,6002 W JIM BILTON BLVD,SC,29477-7804
Hardee's,BLOOMINGTON,1500647,1500647,3301 W 3RD ST,IN,47404-4848
Hardee's,TERRE HAUTE,1500648,1500648,3381 S US HIGHWAY 41,IN,47802-3727
Hardee's,SUMMERVILLE,1500649,1500649,10005 DORCHESTER RD,SC,29485-8555
Hardee's,SALLISAW,1500650,1500650,2102 E CHEROKEE AVE,OK,74955-5410
Hardee's,MT PLEASANT,1500658,1500658,960 HOUSTON NORTHCUTT BLVD.,SC,29464-3447
Hardee's,NEWNAN,1500659,1500659,231 TEMPLE AVE,GA,30263-1368
Hardee's,NILES,1500660,1500660,734 S 11TH ST,MI,49120-3313
Hardee's,FAYETTEVILLE,1500662,1500662,2985 N COLLEGE AVE,AR,72703-3415
Hardee's,GOOSE CREEK,1500663,1500663,1506 REDBANK RD,SC,29445-4517
Hardee's,CAHOKIA,1500667,1500667,1508 CAMP JACKSON RD,IL,62206-2538
Hardee's,BLUFFTON,1500668,1500668,211 N MAIN ST,IN,46714-2013
Hardee's,AMERICUS,1500669,1500669,220 TRIPP ST,GA,31709-3833
Hardee's,CHESTER,1500670,1500670,217 W HOLMES ST,IL,62233-1307
Hardee's,PORT ORANGE,1500671,1500671,4096 S RIDGEWOOD AVE,FL,32127-4501
Hardee's,SEARCY,1500672,1500672,2997 E RACE AVE,AR,72143-4805
Hardee's,RAMSEUR,1500674,1500674,6727 JORDAN RD,NC,27316-9529
Hardee's,CRESTON,1500678,1500678,807 W TAYLOR,IA,50801-3536
Hardee's,LEES SUMMIT,1500683,1500683,1100 SW 3RD ST,MO,64081-2401
Hardee's,PORTAGE,1500686,1500686,5101 CLEM RD,IN,46368-1475
Hardee's,PORTAGE,1500687,1500687,5100 PLAZA AVE,IN,46368-1466
Hardee's,MARIETTA,1500691,1500691,525 FRANKLIN RD SE,GA,30067-7707
Hardee's,COLLINSVILLE,1500695,1500695,519 BELT LINE RD,IL,62234-4411
Hardee's,OLATHE,1500699,1500699,815 S PARKER,KS,66061-4260
Hardee's,GODFREY,1500701,1500701,2720 GODFREY RD,IL,62035-3311
Hardee's,NORTH LITTLE ROCK,1500702,1500702,4901 JOHN F KENNEDY BLVD,AR,72116-6718
Hardee's,COLUMBIA,1500704,1500704,2016 PARIS RD,MO,65202-2307
Hardee's,HUNTSVILLE,1500712,1500712,300 ANDREW JACKSON WAY,AL,35801-3662
Hardee's,INDIANAPOLIS,1500714,1500714,1426 E 86TH ST,IN,46240-1912
Hardee's,GENOA,1500717,1500717,6410 COUNTY RD 165,OH,43430-9312
Hardee's,CARTHAGE,1500718,1500718,1018 MONROE ST,NC,28327-7387
Hardee's,WINSTON SALEM,1500720,1500720,10 E CLEMMONSVILLE RD,NC,27127-5118
Hardee's,TAVARES,1500724,1500724,301 E BURLEIGH BLVD,FL,32778-2201
Hardee's,CONCORDIA,1500727,1500727,202 N MAIN,MO,64020-7352
Hardee's,FLORENCE,1500728,1500728,202 COX CREEK PKWY,AL,35630-1536
Hardee's,HOLLY HILL,1500729,1500729,8545 OLD STATE ROAD,SC,29059-8380
Hardee's,ROCKWELL,1500732,1500732,507 W MAIN ST,NC,28138-9504
Hardee's,SAINT CHARLES,1500735,1500735,2023 ZUMBEHL RD,MO,63303-2723
Hardee's,LEMAY,1500739,1500739,2580 LEMAY FERRY RD,MO,63125-3131
Hardee's,STAUNTON,1500747,1500747,117 N HIBBARD,IL,62088-1346
Hardee's,GREENSBORO,1500750,1500750,500 W MARKET ST,NC,27401-2208
Hardee's,BEAVER CREEK,1500752,1500752,4010 COLONEL GLENN HWY,OH,45431-1602
Hardee's,NORTH CHARLESTON,1500755,1500755,5641 N RHETT BLVD,SC,29406-3509
Hardee's,COUNCIL BLUFFS,1500756,1500756,3200 S EXPRESSWAY ST,IA,51501-8268
Hardee's,LIBERTY,1500758,1500758,914 S 291 HWY # 400,MO,64068-2248
Hardee's,HOMOSASSA,1500761,1500761,3960 S SUNCOAST BLVD,FL,34448-2601
Hardee's,BATTLEBORO,1500763,1500763,7047 NC HIGHWAY 4,NC,27809-9517
Hardee's,SAINT JOSEPH,1500765,1500765,911 FREDERICK AVE,MO,64501-1955
Hardee's,TAMPA,1500769,1500769,4116 W HILLSBOROUGH AVE,FL,33614-5632
Hardee's,SAINT PETERSBURG,1500782,1500782,3795 34TH ST N,FL,33713-1520
Hardee's,RANDLEMAN,1500786,1500786,704 W ACADEMY ST,NC,27317-9700
Hardee's,OMAHA,1500789,1500789,9407 S 145TH ST,NE,68138-3626
Hardee's,CANTON,1500791,1500791,161 MARIETTA HWY,GA,30114-2304
Hardee's,ALPHARETTA,1500792,1500792,91 S MAIN ST,GA,30009-1965
Hardee's,ACWORTH,1500793,1500793,1097 HIGHWAY 92,GA,30102-2025
Hardee's,BREMEN,1500796,1500796,515 ALABAMA AVE S,GA,30110-2007
Hardee's,EAST ELLIJAY,1500798,1500798,1208 INDUSTRIAL BLVD,GA,30540-8265
Hardee's,VILLA RICA,1500800,1500800,161 COMMERCE DR,GA,30180-1533
Hardee's,ADAIRSVILLE,1500802,1500802,101 PRINCETON BLVD,GA,30103-2629
Hardee's,BRIDGTON,1500806,1500806,10909 SAINT CHARLES ROCK RD,MO,63074
Hardee's,PERRYVILLE,1500810,1500810,11 N KINGSHIGHWAY ST,MO,63775-1351
Hardee's,FORT SMITH,1500813,1500813,7501 ROGERS AVE,AR,72903-5539
Hardee's,SUMMERVILLE,1500817,1500817,1402 N MAIN ST,SC,29483-7316
Hardee's,ELIZABETHTOWN,1500818,1500818,1706 N DIXIE HWY,KY,42701-9450
Hardee's,MARIETTA,1500820,1500820,2520 DELK RD SE,GA,30067-6352
Hardee's,ARCHDALE,1500821,1500821,10001 S MAIN ST,NC,27263-3137
Hardee's,MARYSVILLE,1500826,1500826,2002 CENTER ST,KS,66508-1738
Hardee's,COLUMBIA,1500828,1500828,2020 W WORLEY ST,MO,65203-1069
Hardee's,WINSTON SALEM,1500831,1500831,1590 FIRST ST,NC,27104-4319
Hardee's,SANDY SPRINGS,1500832,1500832,6671 ROSWELL RD NE,GA,30328-3185
Hardee's,VALRICO,1500834,1500834,1909 STATE ROAD 60 E,FL,33594-3602
Hardee's,WALKERTOWN,1500835,1500835,3002 OLD HOLLOW RD,NC,27051-9579
Hardee's,MIAMISBURG,1500836,1500836,8209 SPRINGBORO PIKE,OH,45342-3704
Hardee's,CARROLLTON,1500837,1500837,1375 S PARK ST,GA,30117-4433
Hardee's,CUMMING,1500839,1500839,125 W MAPLE ST,GA,30040-2633
Hardee's,NASHVILLE,1500843,1500843,180 S MILL ST,IL,62263-1831
Hardee's,SAINT PAULS,1500849,1500849,507 W BROAD ST,NC,28384-1403
Hardee's,RALEIGH,1500853,1500853,8805 SIX FORKS RD,NC,27615-2970
Hardee's,RALEIGH,1500854,1500854,2304 GORMAN ST,NC,27606-3849
Hardee's,RALEIGH,1500855,1500855,5601 CREEDMOOR RD,NC,27612-6316
Hardee's,RALEIGH,1500856,1500856,5639 HILLSBOROUGH ST,NC,27606-1534
Hardee's,SWANSBORO,1500858,1500858,677 W CORBETT AVE,NC,28584-8451
Hardee's,SURFSIDE BEACH,1500863,1500863,10 HWY 17 N,SC,29575-6074
Hardee's,GOLDSBORO,1500871,1500871,1322 W GRANTHAM ST,NC,27530-1162
Hardee's,FAYETTEVILLE,1500873,1500873,2190 W MARTIN LUTHER KING BLVD,AR,72701-6215
Hardee's,PADUCAH,1500876,1500876,5104 HINKLEVILLE RD,KY,42001-9132
Hardee's,WINTERSET,1500880,1500880,1007 N JOHN WAYNE DR,IA,50273-1286
Hardee's,INDIANAPOLIS,1500881,1500881,2525 N HIGH SCHOOL RD,IN,46224-2908
Hardee's,SALEM,1500887,1500887,501 W MAIN ST,IL,62881-1402
Hardee's,GREENSBORO,1500889,1500889,2921 RANDLEMAN RD,NC,27406-6608
Hardee's,GRANITE FALLS,1500895,1500895,27 PINEWOOD RD,NC,28630-1207
Hardee's,TOPEKA,1500896,1500896,2100 SW WANAMAKER RD,KS,66614-5231
Hardee's,LAKELAND,1500897,1500897,2050 W MEMORIAL BLVD,FL,33815-1185
Hardee's,CALHOUN,1500904,1500904,2284 US 41 HWY NW,GA,30701-8852
Hardee's,MOUNT VERNON,1500906,1500906,1600 BROADWAY ST,IL,62864-2928
Hardee's,INDIANAPOLIS,1500909,1500909,4945 S EMERSON AVE,IN,46203-5938
Hardee's,METROPOLIS,1500913,1500913,601 FERRY ST,IL,62960-1856
Hardee's,LOUISVILLE,1500914,1500914,2909 FERN VALLEY RD,KY,40213-3519
Hardee's,AUBURNDALE,1500919,1500919,126 MAGNOLIA AVE,FL,33823-4202
Hardee's,PEKIN,1500921,1500921,105 N 5TH ST,IL,61554-3305
Hardee's,SPARTA,1500926,1500926,1201 N MARKET ST,IL,62286-1019
Hardee's,DECATUR,1500931,1500931,1080 W ELDORADO ST,IL,62522-2014
Hardee's,PAXTON,1500932,1500932,451 W OTTAWA RD,IL,60957-1625
Hardee's,DU QUOIN,1500933,1500933,322 S WASHINGTON ST,IL,62832-1807
Hardee's,CHARLESTON,1500934,1500934,2563 ASHLEY RIVER RD,SC,29414-4606
Hardee's,INDIANAPOLIS,1500941,1500941,710 W 10TH ST,IN,46202-3040
Hardee's,MUSCATINE,1500949,1500949,705 GRANDVIEW AVE,IA,52761-1625
Hardee's,HOUSE SPRINGS,1500950,1500950,4699 GRAVOIS RD,MO,63051-1390
Hardee's,BENTON,1500951,1500951,61 US HIGHWAY 68 W,KY,42025-7346
Hardee's,WESTFIELD,1500956,1500956,518 PARK ST,IN,46074-9409
Hardee's,LOUISVILLE,1500958,1500958,3459 TAYLOR BLVD,KY,40215-2644
Hardee's,FISHERS,1500960,1500960,11660 ALLISONVILLE RD,IN,46038-2308
Hardee's,FESTUS,1500961,1500961,1305 VETERANS BLVD,MO,63028-2329
Hardee's,CHARLESTON,1500963,1500963,2109 SAVANNAH HWY,SC,29414-5301
Hardee's,CARTERVILLE,1500965,1500965,1308 S DIVISION ST,IL,62918-1974
Hardee's,CYNTHIANA,1500967,1500967,681 US HWY 27 S,KY,41031-6006
Hardee's,LEBANON,1500968,1500968,425 S LEBANON ST,IN,46052-2549
Hardee's,GROVELAND,1500975,1500975,266 W BROAD ST,FL,34736-2512
Hardee's,PACIFIC,1500976,1500976,1212 W OSAGE,MO,63069-1286
Hardee's,WASHINGTON,1500978,1500978,2004 E NATIONAL HWY,IN,47501-4503
Hardee's,WILDWOOD,1500981,1500981,404 S MAIN ST,FL,34785-4531
Hardee's,CUMBERLAND,1500982,1500982,143 N WASHINGTON POINTE DR,IN,46229-2636
Hardee's,DUNDEE,1500983,1500983,28199 HWY 27,FL,33838-4274
Hardee's,JEFFERSONVILLE,1500985,1500985,301 W COURT AVE,IN,47130-3531
Hardee's,MAYFIELD,1500988,1500988,1033 PARIS RD,KY,42066-3325
Hardee's,UNION CITY,1500989,1500989,1200 W REELFOOT AVE,TN,38261-5504
Hardee's,PINETOPS,1500990,1500990,312 E HAMLETT ST,NC,27864
Hardee's,ELDORADO,1500993,1500993,1205 US HIGHWAY 45 N,IL,62930-3769
Hardee's,CHILLICOTHE,1500994,1500994,108 N 4TH ST,IL,61523-2056
Hardee's,GRANITE CITY,1500997,1500997,3249 W CHAIN OF ROCKS,IL,62040-7064
Hardee's,SHERIDAN,1500998,1500998,201 N ROCK ST,AR,72150-2224
Hardee's,ANNA,1501001,1501001,140 E VIENNA ST,IL,62906-1840
Hardee's,CHINA GROVE,1501002,1501002,509 HWY 29 NORTH,NC,28023-2613
Hardee's,O FALLON,1501004,1501004,124 HARTMAN LN,IL,62269-1754
Hardee's,CEDAR RAPIDS,1501008,1501008,35 MILLER AVE SW,IA,52404-5136
Hardee's,NOBLESVILLE,1501010,1501010,2500 CONNER ST,IN,46060-3139
Hardee's,JACKSON,1501015,1501015,421 E JACKSON BLVD,MO,63755-2423
Hardee's,MONTICELLO,1501017,1501017,1445 N MAIN ST,KY,42633-1904
Hardee's,MCDONOUGH,1501018,1501018,182 KEYS FERRY ST,GA,30253-3225
Hardee's,ROCKY MOUNT,1501032,1501032,1831 N WESLEYAN BLVD,NC,27804-6632
Hardee's,SAINT CHARLES,1501033,1501033,2701 HIGHWAY 94 N,MO,63301-0044
Hardee's,PADUCAH,1501034,1501034,3024 LONE OAK RD,KY,42003-5712
Hardee's,INDIANAPOLIS,1501037,1501037,7217 WOODLAND DR,IN,46278-1735
Hardee's,NORTH CHARLESTON,1501039,1501039,5201 ASHLEY PHOSPHATE RD,SC,29418-2823
Hardee's,SEFFNER,1501041,1501041,11705 E US HIGHWAY 92,FL,33584-3411
Hardee's,PEORIA,1501044,1501044,3505 NE ADAMS ST,IL,61603-2203
Hardee's,GLEN CARBON,1501056,1501056,4207 S STATE ROUTE 159,IL,62034-3224
Hardee's,PENDLETON,1501057,1501057,7160 S STATE RD 67,IN,46064-9101
Hardee's,GOLDSBORO,1501058,1501058,220 E ASH ST,NC,27530-3731
Hardee's,OMAHA,1501059,1501059,3225 L ST,NE,68107-1448
Hardee's,BOWLING GREEN,1501060,1501060,127 CUMBERLAND TRACE RD,KY,42103-9000
Hardee's,NEW WHITELAND,1501064,1501064,1001 N US HIGHWAY 31,IN,46184-1380
Hardee's,SULLIVAN,1501065,1501065,888 W STATE RD 154,IN,47882-7115
Hardee's,GREENVILLE,1501069,1501069,1300 N MEMORIAL DR,NC,27834-1275
Hardee's,CHARLESTON,1501070,1501070,209 SPRING ST,SC,29403-5101
Hardee's,SAINT PETERS,1501071,1501071,501 MID RIVERS MALL DR,MO,63376-2152
Hardee's,ELIZABETH CITY,1501073,1501073,1001 US HWY 17 S,NC,27909-7628
Hardee's,ZEPHYRHILLS,1501074,1501074,36502 STATE RD 54,FL,33541-6938
Hardee's,INDIANAPOLIS,1501081,1501081,5016 HARDING LN,IN,46217-9561
Hardee's,EDDYVILLE,1501083,1501083,30 OUTLET AVE,KY,42038-7700
Hardee's,ROME,1501085,1501085,2300 SHORTER AVE,GA,30165-1944
Hardee's,EDINBURGH,1501091,1501091,12000 N HARTMAN DR,IN,46124-9548
Hardee's,WALNUT COVE,1501093,1501093,1074 N MAIN ST,NC,27052-9312
Hardee's,CORDELE,1501097,1501097,1702 E 16TH AVE,GA,31015-5307
Hardee's,CONYERS,1501102,1501102,2101 FLAT SHOALS RD SE,GA,30013-1809
Hardee's,BROWNSBURG,1501103,1501103,1290 N GREEN ST,IN,46112-9090
Hardee's,SAINT LOUIS,1501105,1501105,8360 N BROADWAY,MO,63147-2333
Hardee's,RUSSELLVILLE,1501106,1501106,3095 E MAIN ST,AR,72802-9643
Hardee's,KOKOMO,1501108,1501108,1500 E MORGAN ST,IN,46901-2509
Hardee's,BOWLING GREEN,1501112,1501112,592 INTERSTATE DRIVE,KY,42101
Hardee's,HOWE,1501117,1501117,5000 E 750 N,IN,46746-9599
Hardee's,HOWE,1501118,1501118,7065 N 475 E,IN,46746-9678
Hardee's,SAINT LOUIS,1501119,1501119,10858 LILAC AVE,MO,63137-3510
Hardee's,OAK GROVE,1501120,1501120,401 S BROADWAY,MO,64075-6111
Hardee's,CLINTON,1501122,1501122,307 S GRANT ST,IL,61727-2108
Hardee's,DANVILLE,1501124,1501124,15 W FAIRCHILD ST,IL,61832-3908
Hardee's,SULLIVAN,1501125,1501125,203 W JACKSON,IL,61951-1453
Hardee's,CHAMPAIGN,1501126,1501126,1703 S NEIL ST,IL,61820-7213
Hardee's,MONTICELLO,1501127,1501127,309 N MARKET ST,IL,61856-1637
Hardee's,BEARDSTOWN,1501128,1501128,10095 US HWY 67,IL,62618-8396
Hardee's,PEORIA,1501140,1501140,8787 N KNOXVILLE AVE,IL,61615-1720
Hardee's,PEORIA,1501141,1501141,4100 W WILLOW KNOLLS,IL,61615-4405
Hardee's,BARTONVILLE,1501142,1501142,5515 S ADAMS ST,IL,61607-2060
Hardee's,HAVANA,1501143,1501143,401 W DEARBORN ST,IL,62644-1342
Hardee's,EAST PEORIA,1501144,1501144,101 N MAIN ST,IL,61611-2543
Hardee's,EL PASO,1501145,1501145,660 W MAIN ST,IL,61738-1413
Hardee's,EUREKA,1501147,1501147,507 W CENTER ST,IL,61530-1111
Hardee's,RUSHVILLE,1501152,1501152,200 S MAIN ST,IN,46173-1931
Hardee's,GENOA,1501153,1501153,6164 COUNTY RD 165,OH,43430-9310
Hardee's,OVERLAND PARK,1501154,1501154,7724 W 151ST ST,KS,66223-2220
Hardee's,BROOKSVILLE,1501163,1501163,1685 W JEFFERSON ST,FL,34601-2417
Hardee's,MORA,1501166,1501166,240 HIGHWAY 65 S,MN,55051-1618
Hardee's,SAUK CENTRE,1501171,1501171,1180 MAIN ST S,MN,56378-1653
Hardee's,SAINT JOSEPH,1501175,1501175,3911 N BELT HWY,MO,64506-1383
Hardee's,GENESEO,1501176,1501176,2163 S OAKWOOD AVE,IL,61254-1973
Hardee's,WATERTOWN,1501194,1501194,715 EAST MAIN STREET,WI,53094-3875
Hardee's,SAINT FRANCIS,1501203,1501203,2450 E LAYTON AVE,WI,53235-6045
Hardee's,JANESVILLE,1501208,1501208,2328 HUMES RD,WI,53545-0331
Hardee's,DELAFIELD,1501212,1501212,N101 STATE ROAD 83,WI,53018-2917
Hardee's,HOPKINSVILLE,1501214,1501214,3050 FORT CAMPBELL BLVD,KY,42240-4904
Hardee's,WISCONSIN RAPIDS,1501225,1501225,1821 8TH ST,WI,54494
Hardee's,SAINT PAUL,1501229,1501229,369 HAMLINE AVE N,MN,55104-4007
Hardee's,GREEN BAY,1501233,1501233,2611 WEST MASON STREET,WI,54303-4964
Hardee's,NEENAH,1501239,1501239,902 S GREEN BAY ROAD,WI,54956-5132
Hardee's,GREEN BAY,1501240,1501240,2760 S ONEIDA STREET,WI,54304-5752
Hardee's,GREEN BAY,1501249,1501249,2690 EATON RD,WI,54311-4502
Hardee's,RHINELANDER,1501251,1501251,2171 LINCOLN,WI,54501-3678
Hardee's,SHAWANO,1501252,1501252,1120 EAST GREEN BAY ST,WI,54166-2206
Hardee's,SHEBOYGAN,1501255,1501255,4409 STATE HIGHWAY 42 NORTH,WI,53083-1806
Hardee's,WAUSAU,1501258,1501258,2609 WEST STEWART AVENUE,WI,54401-4139
Hardee's,MERRILL,1501260,1501260,207 N CENTER AVE,WI,54452-1265
Hardee's,MANCHESTER,1501262,1501262,205 W MAIN,IA,52057-1533
Hardee's,MOUNT VERNON,1501263,1501263,102 HIGHWAY 1 S,IA,52314-1580
Hardee's,PITTSFIELD,1501266,1501266,946 W WASHINGTON,IL,62363-1356
Hardee's,MACOMB,1501268,1501268,1015 W JACKSON,IL,61455-1923
Hardee's,RUSHVILLE,1501269,1501269,600 W CLINTON ST,IL,62681-1255
Hardee's,QUINCY,1501270,1501270,834 S 12TH ST,IL,62301-5202
Hardee's,BUSHNELL,1501271,1501271,220 GREEN ST,IL,61422-1772
Hardee's,CARTHAGE,1501272,1501272,123 S MADISON,IL,62321-1332
Hardee's,MT PLEASANT,1501274,1501274,905 E WASHINGTON ST,IA,52641-1948
Hardee's,HANNIBAL,1501277,1501277,4729 MCMASTERS AVE,MO,63401-2245
Hardee's,HANNIBAL,1501279,1501279,2900 JAMES RD,MO,63401-3663
Hardee's,MACON,1501280,1501280,1703 N MISSOURI ST,MO,63552-1945
Hardee's,MEXICO,1501281,1501281,707 W JACKSON ST,MO,65265-1940
Hardee's,SAINT LOUIS,1501283,1501283,11938 DORSETT RD,MO,63043-2506
Hardee's,ELLISVILLE,1501284,1501284,16301 TRUMAN ROAD,MO,63011-4731
Hardee's,SAINT LOUIS,1501285,1501285,12004 LACKLAND RD,MO,63146-4002
Hardee's,UNION,1501288,1501288,300 HWY 50 EAST,MO,63084-2244
Hardee's,PALMYRA,1501289,1501289,500 E MAIN CROSS ST,MO,63461-1701
Hardee's,BONNE TERRE,1501290,1501290,1010 HIGHWAY K,MO,63628-1349
Hardee's,MONROE CITY,1501292,1501292,1003 US HIGHWAY 24/36 E,MO,63456-1472
Hardee's,BOWLING GREEN,1501293,1501293,18054 HIGHWAY 161,MO,63334-3629
Hardee's,POTOSI,1501295,1501295,103 HEALTHWAY DRIVE,MO,63664-1441
Hardee's,FREDERICKTOWN,1501296,1501296,501 E HIGHWAY 72,MO,63645-7288
Hardee's,DE SOTO,1501297,1501297,12974 HIGHWAY 21,MO,63020-1077
Hardee's,HILLSBORO,1501298,1501298,10610 HIGHWAY 21,MO,63050-5039
Hardee's,HOUSTON,1501299,1501299,926 S SAM HOUSTON BLVD,MO,65483-1940
Hardee's,BUFFALO,1501300,1501300,1100 W DALLAS ST,MO,65622-5463
Hardee's,CLINTON,1501302,1501302,1741 E STATE RD 163,IN,47842-7327
Hardee's,WAUKESHA,1501324,1501324,130 NW BARSTOW,WI,53188-3705
Hardee's,KNOXVILLE,1501326,1501326,1413 KNOX HWY 9,IL,61448
Hardee's,OXFORD,1501328,1501328,700 QUINTARD DR,AL,36203-1842
Hardee's,TUSCALOOSA,1501329,1501329,611 15TH ST E,AL,35401-3233
Hardee's,ATHENS,1501332,1501332,1110 S JEFFERSON ST,AL,35611-3521
Hardee's,SELMA,1501333,1501333,1303 E HIGHLAND AVE,AL,36703-3202
Hardee's,OZARK,1501334,1501334,1333 ANDREWS AVE,AL,36360-3717
Hardee's,JASPER,1501336,1501336,303 HIGHWAY 78 W,AL,35501-3741
Hardee's,PRATTVILLE,1501337,1501337,700 E MAIN ST,AL,36067-3620
Hardee's,TROY,1501338,1501338,1102 HIGHWAY 231 S,AL,36081-3002
Hardee's,MONTGOMERY,1501340,1501340,5401 ATLANTA HWY,AL,36109-3325
Hardee's,ENTERPRISE,1501343,1501343,911 FORT RUCKER BLVD,AL,36330-2124
Hardee's,DOTHAN,1501344,1501344,3471 ROSS CLARK CIR,AL,36303-2579
Hardee's,MOBILE,1501346,1501346,5701 OLD SHELL RD,AL,36608-3418
Hardee's,FAIRHOPE,1501347,1501347,25 S GREENO ROAD,AL,36532-2016
Hardee's,MUSCLE SHOALS,1501348,1501348,506 AVALON AVE,AL,35661-2810
Hardee's,CULLMAN,1501349,1501349,723 2ND AVE NW,AL,35055-2828
Hardee's,THEODORE,1501350,1501350,5796 TWIN OAKS SH CTR,AL,36582
Hardee's,BAY MINETTE,1501352,1501352,701 DOLIVE ST,AL,36507-3125
Hardee's,ANDALUSIA,1501353,1501353,1202 E BYPASS,AL,36420
Hardee's,JACKSONVILLE,1501354,1501354,400 PELHAM RD S,AL,36265-2728
Hardee's,GREENVILLE,1501356,1501356,912 FORTDALE RD,AL,36037-3611
Hardee's,ALEXANDER CITY,1501361,1501361,1249 CHEROKEE RD,AL,35010-3920
Hardee's,LEEDS,1501362,1501362,1824 ASHVILLE RD,AL,35094-7508
Hardee's,SUMITON,1501364,1501364,2176 HIGHWAY 78,AL,35148-3421
Hardee's,WETUMPKA,1501365,1501365,5091 US HIGHWAY 231,AL,36092-3124
Hardee's,MADISON,1501369,1501369,8827 MADISON BLVD,AL,35758-1807
Hardee's,DEMOPOLIS,1501370,1501370,100 US HIGHWAY 80 E,AL,36732-3606
Hardee's,MIDFIELD,1501373,1501373,611 BESSEMER SUPER HWY,AL,35228-2118
Hardee's,HOMEWOOD,1501374,1501374,228 OXMOOR BLVD,AL,35209-4737
Hardee's,TRUSSVILLE,1501376,1501376,111 S CHALKVILLE RD,AL,35173-1407
Hardee's,JACKSON,1501377,1501377,2800 COLLEGE AVE,AL,36545-2447
Hardee's,FLOMATON,1501379,1501379,21514 HIGHWAY 31,AL,36441-5422
Hardee's,TALLASSEE,1501380,1501380,1300 GILMER AVE,AL,36078-1026
Hardee's,FORT PAYNE,1501382,1501382,1502 GLENN BLVD SW,AL,35968-3521
Hardee's,OPP,1501384,1501384,803 FLORALA HWY,AL,36467-3311
Hardee's,ARAB,1501386,1501386,1015 N BRINDLEE MOUNTAIN PKWY,AL,35016-1059
Hardee's,HARTSELLE,1501387,1501387,680 HIGHWAY 31 SW,AL,35640-2850
Hardee's,THOMASVILLE,1501388,1501388,32450 HIGHWAY 43,AL,36784-1605
Hardee's,HAMILTON,1501390,1501390,261 BEXAR AVE E,AL,35570-4064
Hardee's,EVERGREEN,1501391,1501391,845 LIBERTY HILL DR,AL,36401-1812
Hardee's,VESTAVIA HILLS,1501392,1501392,1449 MONTGOMERY HWY,AL,35216-3606
Hardee's,SARALAND,1501396,1501396,1016 HIGHWAY 43,AL,36571-3611
Hardee's,DECATUR,1501400,1501400,1708 BELTLINE RD,AL,35601-5510
Hardee's,OPELIKA,1501401,1501401,2530 PEPPERELL PKWY,AL,36801-6244
Hardee's,BIRMINGHAM,1501402,1501402,5113 AIRPORT HIGHWAY,AL,35212-3030
Hardee's,MOBILE,1501407,1501407,3715 MOFFAT RD,AL,36618-1207
Hardee's,MONTGOMERY,1501408,1501408,1183 W SOUTH BLVD,AL,36105-3024
Hardee's,SYLACAUGA,1501410,1501410,42471 US HWY 280,AL,35150-7683
Hardee's,BOAZ,1501412,1501412,1771 US HIGHWAY 431,AL,35957-5917
Hardee's,RAINSVILLE,1501414,1501414,104 MCCURDY AVE S,AL,35986-5206
Hardee's,PELL CITY,1501416,1501416,2401 DR JOHN HAYNES DR,AL,35125-1480
Hardee's,DOTHAN,1501417,1501417,1086 ROSS CLARK CIR,AL,36303-5425
Hardee's,ANNISTON,1501422,1501422,2800 AL HIGHWAY 202,AL,36201-8178
Hardee's,TUSCALOOSA,1501424,1501424,2515 PAUL BRYANT DR,AL,35401-2212
Hardee's,ATHENS,1501426,1501426,1327 US HIGHWAY 72 E,AL,35611-4405
Hardee's,LUVERNE,1501427,1501427,742 S FOREST AVE,AL,36049-7015
Hardee's,MONTGOMERY,1501428,1501428,4023 TROY HWY,AL,36116-2690
Hardee's,FLORALA,1501429,1501429,1113 E 5TH AVE,AL,36442-3510
Hardee's,OPELIKA,1501430,1501430,1902 MARVYN PKWY,AL,36804-7419
Hardee's,TUSCUMBIA,1501431,1501431,419 HWY 43 S,AL,35674-4704
Hardee's,CALERA,1501435,1501435,8441 HWY 31 S,AL,35040-6901
Hardee's,BRIDGEPORT,1501437,1501437,50770 OLD HWY 72,AL,35740
Hardee's,DECATUR,1501438,1501438,3241 POINT MALLARD PKWY SE,AL,35603-5707
Hardee's,HEADLAND,1501439,1501439,16832 US HIGHWAY 431 S,AL,36345-8445
Hardee's,BRUNDIDGE,1501440,1501440,499 W TROY ST,AL,36010-1200
Hardee's,MARION,1501441,1501441,1215 WASHINGTON ST,AL,36756-3215
Hardee's,MONROEVILLE,1501443,1501443,1608 S ALABAMA RD,AL,36460-3029
Hardee's,LOXLEY,1501444,1501444,13151 N HICKORY ST,AL,36551-3151
Hardee's,PINSON,1501447,1501447,6670 HWY 75,AL,35126-3222
Hardee's,CULLMAN,1501448,1501448,1535 COUNTY RD 437,AL,35055-0206
Hardee's,TUSCALOOSA,1501449,1501449,929 SKYLAND BLVD E,AL,35405-4219
Hardee's,MONTGOMERY,1501451,1501451,5101 VAUGHN RD,AL,36116-1152
Hardee's,MONTGOMERY,1501452,1501452,1115 COLISEUM BLVD,AL,36110-2446
Hardee's,HEFLIN,1501453,1501453,1885 ALMON ST,AL,36264-1833
Hardee's,HARTFORD,1501454,1501454,110 S STATE HIGHWAY 167,AL,36344-6400
Hardee's,BUTLER,1501455,1501455,109 E PUSHMATAHA ST,AL,36904-2529
Hardee's,CAMDEN,1501456,1501456,35 HIGHWAY 41 N,AL,36726-1799
Hardee's,LIVINGSTON,1501457,1501457,701 N WASHINGTON ST,AL,35470-5409
Hardee's,ROGERSVILLE,1501459,1501459,16191 HIGHWAY 72,AL,35652-8118
Hardee's,DECATUR,1501460,1501460,2618 HWY 31 S,AL,35603-1506
Hardee's,MOULTON,1501461,1501461,11838 AL  HWY 157,AL,35650-1388
Hardee's,HANCEVILLE,1501463,1501463,702 MAIN ST NE,AL,35077-5463
Hardee's,MONTGOMERY,1501464,1501464,1041 PERRY HILL RD,AL,36109-4500
Hardee's,AUBURN,1501465,1501465,800 WIRE RD,AL,36832-5836
Hardee's,MILLBROOK,1501466,1501466,3691 HIGHWAY 14,AL,36054-1842
Hardee's,DOTHAN,1501467,1501467,2627 S OATES ST,AL,36301-5643
Hardee's,CLAY,1501469,1501469,2146 SWEENEY HOLLOW RD,AL,35215
Hardee's,PRATTVILLE,1501470,1501470,2525 COBBS FORD RD,AL,36066-7709
Hardee's,FULTONDALE,1501471,1501471,1616 DECATUR HWY,AL,35068-1732
Hardee's,MOBILE,1501472,1501472,6321 COTTAGE HILL RD,AL,36609-3112
Hardee's,WARRIOR,1501473,1501473,280 WARRIOR JASPER RD,AL,35180-1938
Hardee's,GULF SHORES,1501474,1501474,837 GULF SHORES PKWY,AL,36542-5905
Hardee's,MADISON,1501475,1501475,5870 WALL TRIANA HWY,AL,35758-9490
Hardee's,ATTALLA,1501476,1501476,970 GILBERT FERRY RD SE,AL,35954-3338
Hardee's,FORT PAYNE,1501478,1501478,2609 GAULT AVE N,AL,35967-3728
Hardee's,GRAND BAY,1501481,1501481,9400 GRAND BAY WILMER RD,AL,36541-4248
Hardee's,JACKSONVILLE,1501486,1501486,873 LANE AVE S,FL,32205-4704
Hardee's,LAKE CITY,1501488,1501488,279 W DUVAL ST,FL,32055-3987
Hardee's,LIVE OAK,1501489,1501489,608 OHIO AVE S,FL,32064-3240
Hardee's,STARKE,1501490,1501490,435 S TEMPLE AVE,FL,32091-3940
Hardee's,MILTON,1501495,1501495,6527 HWY 90,FL,32570-4779
Hardee's,PENSACOLA,1501499,1501499,8001 PENSACOLA BLVD,FL,32534-4351
Hardee's,CROSS CITY,1501500,1501500,15909 SE 19 HWY,FL,32628-3513
Hardee's,MACCLENNY,1501501,1501501,1490 S 6TH ST,FL,32063-4625
Hardee's,CHIEFLAND,1501502,1501502,1024 N YOUNG BLVD,FL,32626-1109
Hardee's,JACKSONVILLE,1501504,1501504,9210 BAYMEADOWS RD,FL,32256-7708
Hardee's,ORANGE PARK,1501506,1501506,491 BLANDING BLVD,FL,32073-5053
Hardee's,CRESTVIEW,1501507,1501507,3702 S FERDON BLVD,FL,32536-5213
Hardee's,PENSACOLA,1501508,1501508,6399 N 9TH AVE,FL,32504-7350
Hardee's,MIDDLEBURG,1501509,1501509,2730 BLANDING BLVD,FL,32068-5667
Hardee's,PENSACOLA,1501510,1501510,1570 W FAIRFIELD,FL,32501-1123
Hardee's,JACKSONVILLE,1501511,1501511,1500 MAYPORT ROAD,FL,32233-1945
Hardee's,PENSACOLA,1501512,1501512,1901 E NINE MILE RD,FL,32514-7766
Hardee's,JACKSONVILLE,1501513,1501513,498 BUSCH DR,FL,32218-5553
Hardee's,KEYSTONE HEIGHTS,1501515,1501515,7401 STATE RD 21,FL,32656-9301
Hardee's,LAKE BUTLER,1501516,1501516,1205 E MAIN STREET,FL,32054-1345
Hardee's,LAKE CITY,1501517,1501517,2609 W US HIGHWAY 90,FL,32055-4729
Hardee's,JACKSONVILLE,1501519,1501519,6852 WILSON AVE,FL,32210-3661
Hardee's,JACKSONVILLE,1501520,1501520,6914 NORWOOD AVENUE,FL,32208-4459
Hardee's,JASPER,1501521,1501521,1616 US HIGHWAY 41 NW,FL,32052-3007
Hardee's,CALLAHAN,1501523,1501523,542309 US HWY 1,FL,32011-6496
Hardee's,JACKSONVILLE,1501524,1501524,8040 NORMANDY BLVD,FL,32221-6647
Hardee's,PACE,1501525,1501525,4200 HWY 90,FL,32571-2000
Hardee's,JACKSONVILLE,1501526,1501526,9111 MERRILL ROAD,FL,32225-4364
Hardee's,GREEN COVE SPRINGS,1501528,1501528,3538 HWY 17 N,FL,32043-4424
Hardee's,WILLISTON,1501529,1501529,306 W NOBLE AVE,FL,32696-2032
Hardee's,PENSACOLA,1501530,1501530,2500 WILDE LAKE BLVD,FL,32526-8710
Hardee's,JACKSONVILLE,1501531,1501531,12771 ATLANTIC BLVD,FL,32225-3133
Hardee's,WALDO,1501533,1501533,15145 NE US HIGHWAY 301,FL,32694-4087
Hardee's,HIGH SPRINGS,1501536,1501536,10 NW SANTA FE BLVD,FL,32643-4300
Hardee's,JACKSONVILLE,1501537,1501537,6680 COMMONWEALTH AVE,FL,32254-2218
Hardee's,JACKSONVILLE,1501538,1501538,11191 SAN JOSE BLVD,FL,32223-7228
Hardee's,NEWBERRY,1501539,1501539,24915 W NEWBERRY RD,FL,32669-1500
Hardee's,LAVONIA,1501540,1501540,14010 JONES ST,GA,30553-1155
Hardee's,LA FAYETTE,1501542,1501542,813 N MAIN ST,GA,30728-2245
Hardee's,LITHIA SPRINGS,1501543,1501543,940 THORNTON RD,GA,30122-4437
Hardee's,TOCCOA,1501547,1501547,1002 BIG A RD,GA,30577-6010
Hardee's,ROME,1501549,1501549,3110 CEDARTOWN HWY SW,GA,30161-9590
Hardee's,BOGALUSA,1501550,1501550,300 CUMBERLAND ST,LA,70427-3106
Hardee's,COLUMBUS,1501551,1501551,1460 OLD ABERDEEN RD,MS,39705-2130
Hardee's,GREENVILLE,1501552,1501552,1651 HIGHWAY 1 S,MS,38701-7143
Hardee's,MERIDIAN,1501553,1501553,2128 N FRONTAGE RD,MS,39301-6158
Hardee's,LAUREL,1501554,1501554,710 N 16TH AVE,MS,39440-3371
Hardee's,GAUTIER,1501556,1501556,2403 HIGHWAY 90,MS,39553-5234
Hardee's,DIBERVILLE,1501558,1501558,10324 DIBERVILLE BLVD,MS,39540-2507
Hardee's,MOSS POINT,1501559,1501559,6712 HWY 63 N,MS,39563-9539
Hardee's,TUPELO,1501560,1501560,477 E MAIN ST,MS,38804-4027
Hardee's,STARKVILLE,1501561,1501561,411 HIGHWAY 12 EAST,MS,39759-3823
Hardee's,COLUMBUS,1501562,1501562,203 ALABAMA ST,MS,39702-5203
Hardee's,LAUREL,1501563,1501563,2621 ELLISVILLE BLVD,MS,39440-6005
Hardee's,AMORY,1501564,1501564,909 HWY 278 ST EAST,MS,38821-5512
Hardee's,GULFPORT,1501565,1501565,12219 HWY 49 N,MS,39503-2742
Hardee's,MERIDIAN,1501566,1501566,134 N HILLS ST,MS,39305-2203
Hardee's,TUPELO,1501567,1501567,2439 WEST MAIN STREET,MS,38801-3147
Hardee's,TUPELO,1501568,1501568,5016 RAYMOND ST,MS,38801-8671
Hardee's,NEWTON,1501569,1501569,241 EAST SIDE DRIVE,MS,39345-8035
Hardee's,LUCEDALE,1501571,1501571,24 COWART ST,MS,39452-6621
Hardee's,BOONEVILLE,1501572,1501572,1202 N 2ND ST,MS,38829-1030
Hardee's,FULTON,1501573,1501573,600 SOUTH ADAMS ST,MS,38843-8950
Hardee's,HOUSTON,1501574,1501574,444 N JACKSON STREET,MS,38851-1829
Hardee's,COLUMBIA,1501575,1501575,809 HWY 98 BYP,MS,39429-3710
Hardee's,COLLINS,1501576,1501576,3530 HIGHWAY 49,MS,39428-3916
Hardee's,IUKA,1501577,1501577,1610 1ST AMERICAN DR,MS,38852-1033
Hardee's,BATESVILLE,1501578,1501578,693 HWY 6 EAST,MS,38606-3005
Hardee's,POPLARVILLE,1501580,1501580,1016 S MAIN ST,MS,39470-3113
Hardee's,PONTOTOC,1501581,1501581,124 HWY 15 NORTH,MS,38863-1906
Hardee's,WEST POINT,1501582,1501582,229 HWY 45 SOUTH,MS,39773-2707
Hardee's,PETAL,1501583,1501583,106 W CENTRAL AVE,MS,39465-2314
Hardee's,HATTIESBURG,1501584,1501584,4964 HARDY ST,MS,39402-1352
Hardee's,PHILADELPHIA,1501586,1501586,1001 BEACON ST,MS,39350-3203
Hardee's,LOUISVILLE,1501588,1501588,311 NORTH CHURCH AVE.,MS,39339-2301
Hardee's,WAYNESVILLE,1501597,1501597,437 RUSS AVE,NC,28786-2933
Hardee's,PEMBROKE,1501601,1501601,317 W 3RD STREET,NC,28372-7253
Hardee's,WHITEVILLE,1501602,1501602,265 WASHINGTON STREET,NC,28472-3317
Hardee's,CHARLOTTE,1501605,1501605,2604 LITTLE ROCK RD,NC,28214-2722
Hardee's,CANTON,1501606,1501606,16 NEW CLYDE HWY,NC,28716-4210
Hardee's,FOREST CITY,1501609,1501609,665 S BROADWAY ST,NC,28043-4246
Hardee's,SHELBY,1501610,1501610,324 E GROVER ST,NC,28150-3967
Hardee's,HAMLET,1501611,1501611,701 WEST HAMLET AVE,NC,28345-2505
Hardee's,HICKORY,1501615,1501615,109 US HIGHWAY 321 NW,NC,28601-5830
Hardee's,CHARLOTTE,1501616,1501616,8428 UNIVERSITY CITY BLVD,NC,28213-3561
Hardee's,MORGANTON,1501617,1501617,863 N GREEN ST,NC,28655-5611
Hardee's,CHARLOTTE,1501619,1501619,5024 SUNSET ROAD,NC,28269-2749
Hardee's,MAXTON,1501620,1501620,642 N PATTERSON STREET,NC,28364-8744
Hardee's,RUTHERFORDTON,1501621,1501621,116 US HWY 74A,NC,28139-2554
Hardee's,CHARLOTTE,1501623,1501623,4201 EAST W.T.HARRIS BLVD,NC,28215-1987
Hardee's,CHADBOURN,1501626,1501626,915 NORTH BROWN STREET,NC,28431-1311
Hardee's,HILDEBRAN,1501627,1501627,324 S CENTER ST,NC,28637-8302
Hardee's,WAYNESVILLE,1501628,1501628,2010 S. MAIN ST,NC,28786-6792
Hardee's,HICKORY,1501629,1501629,3020 NC HWY 127 S,NC,28602-5404
Hardee's,BOILING SPRINGS,1501630,1501630,206 S MAIN ST,NC,28152-0698
Hardee's,HARRISBURG,1501631,1501631,4280 HWY 49 N,NC,28075-7526
Hardee's,HENDERSONVILLE,1501634,1501634,1807 FOUR SEASONS BLVD,NC,28792-2873
Hardee's,MORGANTON,1501635,1501635,1205 BURKEMONT AVE,NC,28655-4541
Hardee's,STANLEY,1501636,1501636,441 HIGHWAY 27 S,NC,28164-2044
Hardee's,HUNTERSVILLE,1501638,1501638,14101 STATESVILLE RD,NC,28078-9070
Hardee's,OLD FORT,1501639,1501639,307 S CATAWBA AVE,NC,28762-7667
Hardee's,INDIAN TRAIL,1501640,1501640,13731 INDEPENDENCE BLVD,NC,28079-7600
Hardee's,BISCOE,1501641,1501641,519 E MAIN ST,NC,27209-9779
Hardee's,HENDERSONVILLE,1501643,1501643,6001 ASHEVILLE HWY,NC,28791-9045
Hardee's,BLADENBORO,1501645,1501645,1211 N MAIN STREET,NC,28320-7768
Hardee's,LAUREL HILL,1501646,1501646,9760 ANDREW JACKSON HWY,NC,28351-9659
Hardee's,GAFFNEY,1501652,1501652,100 SOUTH GRANARD ST,SC,29341-2346
Hardee's,GREER,1501653,1501653,14520 E WADE HAMPTON BLVD,SC,29651-1474
Hardee's,EASLEY,1501654,1501654,5279 CALHOUN MEMORIAL HWY,SC,29640-3865
Hardee's,COLUMBIA,1501657,1501657,7019 PARKLANE RD,SC,29223-7631
Hardee's,SPARTANBURG,1501658,1501658,1806 EAST MAIN STREET,SC,29307-2329
Hardee's,SENECA,1501662,1501662,1003 BY PASS 123,SC,29678-4762
Hardee's,MAULDIN,1501663,1501663,115 MAIN ST SOUTH,SC,29662-2513
Hardee's,CHESTER,1501664,1501664,1791 J A COCHRAN BYP,SC,29706-2698
Hardee's,COLUMBIA,1501665,1501665,96 N ARROWWOOD RD,SC,29210-6902
Hardee's,GREENVILLE,1501666,1501666,2306 W PARKER RD,SC,29617-2123
Hardee's,GEORGETOWN,1501672,1501672,1311 CHURCH ST,SC,29440-3205
Hardee's,UNION,1501674,1501674,733 N DUNCAN BYP,SC,29379-8601
Hardee's,BELTON,1501677,1501677,408 S MAIN ST,SC,29627-1524
Hardee's,SPARTANBURG,1501678,1501678,98 GARNER ROAD,SC,29303-3149
Hardee's,SPARTANBURG,1501680,1501680,100 SIMUEL RD,SC,29303-2084
Hardee's,INMAN,1501682,1501682,11960 ASHEVILLE HWY,SC,29349-1806
Hardee's,TRAVELERS REST,1501685,1501685,6501 STATE PARK ROAD,SC,29690-1696
Hardee's,LEXINGTON,1501686,1501686,415 COLUMBIA AVE,SC,29072-2615
Hardee's,COLUMBIA,1501687,1501687,120 VETERANS RD,SC,29209-1551
Hardee's,ANDERSON,1501689,1501689,4415 CLEMSON BLVD,SC,29621-2301
Hardee's,LYMAN,1501690,1501690,12209 GREENVILLE HWY 29,SC,29365-1513
Hardee's,BATESBURG,1501691,1501691,502 W COLUMBIA AVE,SC,29006-1845
Hardee's,WALHALLA,1501692,1501692,3901 BLUE RIDGE BLVD,SC,29691-2432
Hardee's,PICKENS,1501693,1501693,308 HAMPTON AVENUE,SC,29671-2422
Hardee's,ABBEVILLE,1501697,1501697,102 W GREENWOOD ST,SC,29620-2444
Hardee's,CLEARWATER,1501698,1501698,4445 JEFFERSON DAVIS HWY,SC,29822
Hardee's,FORT MILL,1501701,1501701,101 TOM HALL ST,SC,29715-1849
Hardee's,CLOVER,1501702,1501702,206 S MAIN ST,SC,29710-1421
Hardee's,HONEA PATH,1501704,1501704,303 E GREER ST,SC,29654-1818
Hardee's,SPARTANBURG,1501705,1501705,2190 CHESNEE HWY,SC,29303-2518
Hardee's,ORANGEBURG,1501706,1501706,3694 ST MATTHEWS ROAD,SC,29118-8214
Hardee's,PIEDMONT,1501708,1501708,904 ANDERSON ST,SC,29673-1417
Hardee's,WESTMINSTER,1501709,1501709,904 E MAIN ST,SC,29693-1941
Hardee's,COLUMBIA,1501711,1501711,496 PINEY GROVE RD,SC,29210-3326
Hardee's,LIBERTY,1501712,1501712,7253 MOOREFIELD MEMORIAL HWY,SC,29657-1640
Hardee's,GAFFNEY,1501713,1501713,1207 CHEROKEE AVE,SC,29340-2614
Hardee's,CLINTON,1501715,1501715,12328 HIGHWAY 56 N,SC,29325-4342
Hardee's,ROCK HILL,1501716,1501716,188 S HERLONG AVE,SC,29732-1156
Hardee's,CHESNEE,1501717,1501717,710 SOUTH ALABAMA STREET,SC,29323-1706
Hardee's,WEST COLUMBIA,1501718,1501718,1413 CHARLESTON HWY,SC,29169-5515
Hardee's,GREENVILLE,1501719,1501719,6133 AUGUSTA ROAD,SC,29605-3653
Hardee's,GREENVILLE,1501720,1501720,451 MILLS AVE # 29,SC,29605-4116
Hardee's,DUNCAN,1501721,1501721,1397 E MAIN ST,SC,29334-9138
Hardee's,ORANGEBURG,1501722,1501722,1109 JOHN C CALHOUN DR,SC,29115-6700
Hardee's,COLUMBIA,1501725,1501725,3852 ROSEWOOD DR,SC,29205-3534
Hardee's,BLACKSBURG,1501726,1501726,914 N MOUNTAIN ST,SC,29702-8366
Hardee's,BOILING SPRINGS,1501727,1501727,3112 BOILING SPRINGS RD,SC,29316-6007
Hardee's,GREER,1501728,1501728,1220 W WADE HAMPTON BLVD,SC,29650-1243
Hardee's,EASLEY,1501730,1501730,421 W MAIN ST,SC,29640-2929
Hardee's,FOUNTAIN INN,1501732,1501732,100 CHEVY DRIVE,SC,29644-1554
Hardee's,CENTRAL,1501733,1501733,1924 WEST MAIN STREET,SC,29630-9384
Hardee's,SPARTANBURG,1501734,1501734,2451 REIDVILLE ROAD,SC,29301-3653
Hardee's,WEST COLUMBIA,1501736,1501736,2499 AUGUSTA RD,SC,29169-4543
Hardee's,PACOLET,1501740,1501740,6911 S PINE ST,SC,29372-2244
Hardee's,COWPENS,1501741,1501741,5420 N MAIN ST,SC,29330-9705
Hardee's,ROEBUCK,1501742,1501742,2499 BLACKSTOCK ROAD,SC,29376-3206
Hardee's,IRMO,1501744,1501744,1325 DUTCH FORK RD,SC,29063-8788
Hardee's,WILLIAMSTON,1501745,1501745,1520 ANDERSON DRIVE,SC,29697-1208
Hardee's,GREENVILLE,1501746,1501746,201 RUTHERFORD STREET,SC,29609-5307
Hardee's,TAYLORS,1501748,1501748,3203 WADE HAMPTON BLVD,SC,29687-2803
Hardee's,GREENVILLE,1501749,1501749,1213 WOODRUFF RD,SC,29607-5737
Hardee's,SIMPSONVILLE,1501752,1501752,1008 NE MAIN STREET,SC,29681-6012
Hardee's,CHAPIN,1501754,1501754,1425 CHAPIN ROAD,SC,29036-8874
Hardee's,ROCK HILL,1501756,1501756,2165 MANA COURT,SC,29730-6503
Hardee's,AYNOR,1501757,1501757,2784 HIGHWAY 501 E,SC,29511-3474
Hardee's,COLUMBIA,1501758,1501758,7942 GARNERS FERRY RD,SC,29209-4738
Hardee's,PAWLEYS ISLAND,1501759,1501759,10391 OCEAN HIGHWAY,SC,29585-6520
Hardee's,WEST COLUMBIA,1501760,1501760,3014 CHARLESTON HWY,SC,29172-3806
Hardee's,MC CORMICK,1501761,1501761,101 S MINE ST,SC,29835-8308
Hardee's,NINETY SIX,1501763,1501763,130 MAIN ST E,SC,29666-1004
Hardee's,GREENVILLE,1501764,1501764,3845 PELHAM ROAD,SC,29615-5012
Hardee's,AIKEN,1501766,1501766,2648 COLUMBIA HIGHWAY N,SC,29805-9021
Hardee's,ORANGEBURG,1501767,1501767,890 FIVE CHOP ROAD,SC,29115-6223
Hardee's,COLUMBIA,1501768,1501768,5801 FAIRFIELD ROAD,SC,29203-3307
Hardee's,LUGOFF,1501769,1501769,486 US HIGHWAY 601 SOUTH,SC,29078-8916
Hardee's,KINGSPORT,1501771,1501771,1405 E STONE DR,TN,37660-4130
Hardee's,MORRISTOWN,1501772,1501772,3411 W ANDREW JOHNSON HWY,TN,37814-3622
Hardee's,ALCOA,1501773,1501773,369 LINDSAY ST,TN,37701-2411
Hardee's,ELIZABETHTON,1501775,1501775,107 E BROAD ST,TN,37643-2743
Hardee's,MC MINNVILLE,1501776,1501776,407 W MAIN ST,TN,37110-2401
Hardee's,TULLAHOMA,1501777,1501777,335 W LINCOLN ST,TN,37388-3343
Hardee's,MURFREESBORO,1501778,1501778,1685 MIDDLE TENNESSEE BLVD,TN,37130-5114
Hardee's,LEBANON,1501779,1501779,1039 W MAIN ST,TN,37087-3301
Hardee's,COOKEVILLE,1501780,1501780,230 SOUTH JEFFERSON,TN,38501-3427
Hardee's,SHELBYVILLE,1501781,1501781,310 MADISON ST,TN,37160-3337
Hardee's,CLARKSVILLE,1501782,1501782,1580 FORT CAMPBELL BLVD,TN,37042-3545
Hardee's,CLARKSVILLE,1501783,1501783,1941 MADISON STREET,TN,37043-5066
Hardee's,HARRIMAN,1501784,1501784,1608 S ROANE ST,TN,37748-7536
Hardee's,KNOXVILLE,1501785,1501785,3946 ASHEVILLE HWY,TN,37914-3517
Hardee's,KNOXVILLE,1501786,1501786,2919 TAZEWELL PIKE,TN,37918-1874
Hardee's,MURFREESBORO,1501787,1501787,912 N W BROAD STREET,TN,37129-2323
Hardee's,OAK RIDGE,1501788,1501788,214 1/2 S ILLINOIS ST,TN,37830-6203
Hardee's,NEWPORT,1501789,1501789,816 COSBY HWY,TN,37821-3346
Hardee's,JELLICO,1501790,1501790,1267 5TH ST,TN,37762-2633
Hardee's,FAYETTEVILLE,1501791,1501791,1116 HUNTSVILLE HWY,TN,37334-3616
Hardee's,PULASKI,1501792,1501792,985 E COLLEGE ST,TN,38478-4432
Hardee's,SEVIERVILLE,1501793,1501793,334 WEST MAIN STREET,TN,37862-3314
Hardee's,SPARTA,1501794,1501794,270 W BOCKMAN WAY,TN,38583-1944
Hardee's,FRANKLIN,1501795,1501795,1315 MURFREESBORO RD,TN,37064-3040
Hardee's,SMYRNA,1501796,1501796,255 S LOWRY ST,TN,37167-3007
Hardee's,KNOXVILLE,1501798,1501798,3318 CHAPMAN HWY,TN,37920-2408
Hardee's,BRISTOL,1501799,1501799,1313 VOLUNTEER PARKWAY,TN,37620-5709
Hardee's,MARYVILLE,1501800,1501800,506 FOOTHILLS PLAZA DRIVE,TN,37801-2301
Hardee's,JOHNSON CITY,1501802,1501802,2702 NORTH ROAN STREET,TN,37601-1710
Hardee's,NASHVILLE,1501803,1501803,4099 NOLENSVILLE ROAD,TN,37211-4547
Hardee's,COLUMBIA,1501804,1501804,113 BEAR CREEK PIKE,TN,38401-2266
Hardee's,GOODLETTSVILLE,1501805,1501805,400 S CARTWRIGHT,TN,37072-1865
Hardee's,POWELL,1501806,1501806,305 E EMORY RD,TN,37849-4018
Hardee's,LAFAYETTE,1501807,1501807,417 HIGHWAY 52 BYP W,TN,37083-1731
Hardee's,JEFFERSON CITY,1501808,1501808,509 PATRIOT DR,TN,37725-3217
Hardee's,PORTLAND,1501809,1501809,411 S BROADWAY ST,TN,37148-1411
Hardee's,MONTEREY,1501810,1501810,902 S HOLLY ST,TN,38574-1508
Hardee's,KNOXVILLE,1501811,1501811,7762 OAK RIDGE HWY,TN,37931-3337
Hardee's,ROGERSVILLE,1501812,1501812,198 PARK BLVD,TN,37857-2913
Hardee's,LIVINGSTON,1501813,1501813,901 W MAIN ST,TN,38570-1741
Hardee's,SMITHVILLE,1501814,1501814,135 W BROAD ST,TN,37166-1915
Hardee's,JAMESTOWN,1501815,1501815,461 N MAIN ST,TN,38556-3249
Hardee's,ASHLAND CITY,1501816,1501816,420 S MAIN ST,TN,37015-1510
Hardee's,ROCKWOOD,1501817,1501817,504 N GATEWAY,TN,37854-2353
Hardee's,LA FOLLETTE,1501818,1501818,2436 JACKSBORO PIKE,TN,37766-2928
Hardee's,MANCHESTER,1501819,1501819,913 HILLSBORO HWY,TN,37355-2025
Hardee's,WHITE HOUSE,1501821,1501821,501 HESTER DRIVE,TN,37188-9256
Hardee's,ARDMORE,1501822,1501822,26094 MAIN ST,TN,38449-3158
Hardee's,WESTMORELAND,1501823,1501823,5213 HIGHWAY 31 E,TN,37186-2327
Hardee's,CROSSVILLE,1501824,1501824,30 HIGHLAND SQUARE,TN,38555-4061
Hardee's,JONESBOROUGH,1501825,1501825,395 EAST JACKSON BLVD,TN,37659-5128
Hardee's,TULLAHOMA,1501826,1501826,1907 N JACKSON STREET,TN,37388-2203
Hardee's,CLINTON,1501827,1501827,219 CLINCH AVE,TN,37716-4127
Hardee's,CARTHAGE,1501828,1501828,84 DIXON SPRINGS HWY,TN,37030-1063
Hardee's,KNOXVILLE,1501829,1501829,2930 ALCOA HWY,TN,37920-4704
Hardee's,KINGSTON,1501830,1501830,935 N KENTUCKY ST,TN,37763-2659
Hardee's,MOUNT JULIET,1501831,1501831,101 LINEBERRY BLVD,TN,37122-5515
Hardee's,WARTBURG,1501832,1501832,1122 N KNOXVILLE HWY,TN,37887-4209
Hardee's,MOUNT CARMEL,1501833,1501833,530 W MAIN STREET,TN,37645-3564
Hardee's,HERMITAGE,1501834,1501834,5775 OLD HICKORY BLVD,TN,37076-2939
Hardee's,ERWIN,1501835,1501835,NORTH MAIN ST RT 1  BOX 1237,TN,37650
Hardee's,KNOXVILLE,1501836,1501836,7437 MAYNARDVILLE PIKE,TN,37938-3720
Hardee's,KNOXVILLE,1501837,1501837,3718 WESTERN AVE,TN,37921-1638
Hardee's,MURFREESBORO,1501838,1501838,1851 MEMORIAL BLVD,TN,37129-1522
Hardee's,MARYVILLE,1501839,1501839,2105 E BROADWAY,TN,37804-3034
Hardee's,LA VERGNE,1501840,1501840,508 WALDRON ROAD,TN,37086-3532
Hardee's,WOODBURY,1501841,1501841,806 W MAIN ST,TN,37190-1033
Hardee's,GALLATIN,1501842,1501842,452 E MAIN STREET,TN,37066-2921
Hardee's,LEBANON,1501843,1501843,701 S CUMBERLAND,TN,37087-4109
Hardee's,SPRINGFIELD,1501845,1501845,2002 MEMORIAL BLVD,TN,37172-3997
Hardee's,OLD HICKORY,1501846,1501846,1436 ROBINSON ROAD,TN,37138-2810
Hardee's,HOHENWALD,1501847,1501847,348 E MAIN ST,TN,38462-1535
Hardee's,COLONIAL HEIGHTS,1501849,1501849,4256 FORT HENRY DRIVE,TN,37663-2228
Hardee's,GREENEVILLE,1501850,1501850,711 ASHEVILLE HIGHWAY,TN,37743-5403
Hardee's,KNOXVILLE,1501851,1501851,609 CAMPBELL STATION RD,TN,37934-1628
Hardee's,MORRISTOWN,1501852,1501852,1715 BUFFALO TRAIL,TN,37814-4249
Hardee's,CLINTON,1501853,1501853,107 BUFFALO RD,TN,37716-6820
Hardee's,COOKEVILLE,1501854,1501854,1075 WILLOW AVE,TN,38501-4106
Hardee's,CROSSVILLE,1501855,1501855,561 PEAVINE ROAD,TN,38571-0909
Hardee's,ANTIOCH,1501856,1501856,110 HAYWOOD LN,TN,37013-3320
Hardee's,KINGSPORT,1501858,1501858,1401 JOHN B DENNIS PKWAY,TN,37660-5478
Hardee's,BLOOMINGDALE,1501859,1501859,3020 JOHN B DENNIS HWY,TN,37660-6602
Hardee's,SELMER,1501861,1501861,619 MULBERRY AVE,TN,38375-3242
Hardee's,PARSONS,1501862,1501862,148 TENNESSEE AVE NORTH,TN,38363-2027
Hardee's,FRANKLIN,1501863,1501863,1609 COLUMBIA AVENUE,TN,37064-3812
Hardee's,JOHNSON CITY,1501864,1501864,2102 WEST MARKET ST,TN,37604-6025
Hardee's,GREENEVILLE,1501865,1501865,2676 E ANDREW JOHNSON HWY,TN,37745-0952
Hardee's,COLUMBIA,1501866,1501866,1117 HAMPSHIRE PIKE,TN,38401-4664
Hardee's,SAVANNAH,1501867,1501867,180 W MAIN ST,TN,38372-2032
Hardee's,PINEY FLATS,1501869,1501869,5680 HWY 11 EAST,TN,37686-4437
Hardee's,MURFREESBORO,1501870,1501870,2382 OLD FORT PARKWAY,TN,37128-4894
Hardee's,LORETTO,1501872,1501872,102 S MILITARY ST #C157,TN,38469-2100
Hardee's,OLIVER SPRINGS,1501873,1501873,528 E TRI COUNTY BLVD,TN,37840-2018
Hardee's,NASHVILLE,1501876,1501876,1000 ACORN DRIVE,TN,37210-3802
Hardee's,SEYMOUR,1501877,1501877,11306 CHAPMAN HIGHWAY,TN,37865-4805
Hardee's,MORRISTOWN,1501878,1501878,2345 E MORRIS BLVD,TN,37813-1943
Hardee's,MARYVILLE,1501879,1501879,1516 E LAMAR ALEXANDER PKWY,TN,37804-5146
Hardee's,BRISTOL,1501881,1501881,1950 LEE HWY,VA,24201-1624
Hardee's,ABINGDON,1501882,1501882,602 CUMMINGS ST.,VA,24210-3613
Hardee's,BRISTOL,1501883,1501883,1820 EUCLID AVENUE,VA,24201-3606
Hardee's,BELLEVILLE,1501885,1501885,2 S BELT E,IL,62220-2535
Hardee's,BELLEVILLE,1501886,1501886,1617 N BELT WEST,IL,62226-5922
Hardee's,SWANSBORO,1501888,1501888,101B WB MCLEAN BLVD,NC,28584-8514
Hardee's,FRANKLIN,1501896,1501896,8770 US HIGHWAY 27,GA,30217-7526
Hardee's,NEWNAN,1501898,1501898,4201 SHARPSBURG MCCULLUM RD,GA,30265-1803
Hardee's,TEMPLE,1501900,1501900,587 CARROLLTON RD,GA,30179-4134
Hardee's,MCDONOUGH,1501902,1501902,3056 JODECO RD,GA,30253-5314
Hardee's,LOUISIANA,1501910,1501910,3313 GEORGIA STREET,MO,63353-2731
Hardee's,CUBA,1501913,1501913,702 N FRANKLIN ST,MO,65453-1662
Hardee's,RICHMOND,1501952,1501952,520 EASTERN BYPASS,KY,40475-2328
Hardee's,RICHMOND,1501953,1501953,103 S KEENELAND DR,KY,40475-3225
Hardee's,MAYSVILLE,1501954,1501954,1504 US HIGHWAY 68,KY,41056-9108
Hardee's,STANTON,1501955,1501955,220 S MAIN ST,KY,40380-2376
Hardee's,IRVINE,1501956,1501956,98 RICHMOND ROAD,KY,40336-7209
Hardee's,MOUNT STERLING,1501957,1501957,215 INDIAN MOUND DRIVE,KY,40353-1015
Hardee's,MOREHEAD,1501958,1501958,1691 FLEMINGSBURG RD,KY,40351-9167
Hardee's,WINCHESTER,1501959,1501959,1466 W LEXINGTON AVE,KY,40391-1164
Hardee's,BAILEY,1501966,1501966,6474 DEANS ST,NC,27807-8610
Hardee's,GREENVILLE,1501967,1501967,913 MOYE BLVD,NC,27834-3780
Hardee's,DANIELSVILLE,1501969,1501969,350 GENERAL DANIEL AVE N,GA,30633-6910
Hardee's,RACINE,1501971,1501971,1235 S. GREEN BAY,WI,53406-4403
Hardee's,STURTEVANT,1501972,1501972,8913 DURAND AVE,WI,53177-2041
Hardee's,WILSON,1501983,1501983,2313 FOREST HILLS RD,NC,27893-3480
Hardee's,DAYTON,1501984,1501984,2500 NEEDMORE RD,OH,45414-4204
Hardee's,WARNER ROBINS,1501985,1501985,2829 WATSON BLVD,GA,31093-8511
Hardee's,CASEYVILLE,1502503,1502503,8850 PETROFF DR,IL,62232-2329
Hardee's,MARMET,1502508,1502508,10401 MACCORKLE AVE,WV,25315-1915
Hardee's,LINCOLNTON,1502512,1502512,1102 EAST MAIN ST,NC,28092-3838
Hardee's,RICHMOND,1502513,1502513,4801 JEFFERSON DAVIS HWY,VA,23234-3154
Hardee's,ANOKA,1502514,1502514,703 E MAIN,MN,55303-1725
Hardee's,JENKINS,1502515,1502515,9433 HIGHWAY 805,KY,41537-8182
Hardee's,CHARLESTON,1502538,1502538,1506 BIGLEY AVE,WV,25302-3904
Hardee's,STORM LAKE,1502539,1502539,605 FLINDT DRIVE,IA,50588-2204
Hardee's,DAVENPORT,1502540,1502540,5232 BRADY STREET,IA,52806
Hardee's,PASADENA,1502543,1502543,4111 MOUNTAIN RD,MD,21122-4455
Hardee's,PRINCETON,1502544,1502544,170 MEADOWFIELD LN,WV,24740-9587
Hardee's,BUENA VISTA,1502545,1502545,2801 BEECH AVENUE,VA,24416-1546
Hardee's,ABINGDON,1502546,1502546,712 N MONROE,IL,61410-1059
Hardee's,WAYNESBORO,1502548,1502548,1416 W MAIN ST,VA,22980-2416
Hardee's,MIDLOTHIAN,1502551,1502551,13736 HULL STREET ROAD,VA,23112-2000
Hardee's,GASTONIA,1502552,1502552,1901 SOUTH YORK ROAD,NC,28052-6368
Hardee's,MOUNT PLEASANT,1502553,1502553,8440 HIGHWAY 49 N,NC,28124-9652
Hardee's,HIXSON,1502554,1502554,5525 HIXSON PIKE,TN,37343-3240
Hardee's,STAFFORD,1502555,1502555,20 PROSPERITY RD,VA,22556-4605
Hardee's,STEVENS POINT,1502557,1502557,617 DIVISION ST,WI,54481-1841
Hardee's,SALTILLO,1502560,1502560,112 WILLOW BROOK DR,MS,38866-6895
Hardee's,WORTHINGTON,1502566,1502566,1601 OXFORD,MN,56187-1861
Hardee's,MARQUETTE,1502567,1502567,1120 W WASHINGTON ST,MI,49855-4040
Hardee's,HINESVILLE,1502569,1502569,169 W HENDRY ST,GA,31313-3248
Hardee's,NEWPORT NEWS,1502573,1502573,11017 JEFFERSON AVENUE,VA,23601-2716
Hardee's,DEVILS LAKE,1502576,1502576,515 HIGHWAY 2 E,ND,58301-3929
Hardee's,VERONA,1502579,1502579,277 LAUREL HILL,VA,24482-2601
Hardee's,ROSSVILLE,1502581,1502581,300 MCFARLAND AVE,GA,30741-1200
Hardee's,MIDDLESBORO,1502585,1502585,1310 N 12TH STREET,KY,40965-1894
Hardee's,RAVENEL,1502588,1502588,6320 SAVANNAH HWY,SC,29470-5517
Hardee's,WILLISTON,1502590,1502590,1020 2ND AVE W,ND,58801-5228
Hardee's,CLINTWOOD,1502591,1502591,5012 DICKENSON HWY,VA,24228-6078
Hardee's,HANCOCK,1502596,1502596,42 EAST MAIN STREET,MD,21750-1506
Hardee's,GREENCASTLE,1502597,1502597,30 S ANTRIM WAY,PA,17225-1520
Hardee's,RICHMOND,1502602,1502602,7917 MIDLOTHIAN TURNPIKE,VA,23235-5229
Hardee's,ALTAVISTA,1502603,1502603,1022 MAIN ST,VA,24517-1531
Hardee's,MOULTRIE,1502604,1502604,1729 1ST AVE SE,GA,31768-5017
Hardee's,CHATTAHOOCHEE,1502608,1502608,651 WEST WASHINGTON ST,FL,32324-1364
Hardee's,LAWRENCEVILLE,1502614,1502614,1310 STATE ST,IL,62439-2307
Hardee's,PARIS,1502615,1502615,316 S MAIN ST,IL,61944-2255
Hardee's,ROBINSON,1502616,1502616,502 E. MAIN STREET,IL,62454-3302
Hardee's,BAY SPRINGS,1502618,1502618,2813 HWY 15 - P O BOX 1083,MS,39422-1083
Hardee's,FAYETTEVILLE,1502628,1502628,3803 MORGANTON ROAD,NC,28314-1501
Hardee's,ORANGE CITY,1502629,1502629,809 ALBANY PLACE,IA,51041-1936
Hardee's,CHAPMANVILLE,1502631,1502631,300 MAIN ST,WV,25508
Hardee's,LEXINGTON,1502632,1502632,76 E. MIDLAND TRAIL,VA,24450-5729
Hardee's,SIOUX CITY,1502634,1502634,910 GORDON DR,IA,51101-1832
Hardee's,GLEN BURNIE,1502635,1502635,1699 CRAIN HWY S,MD,21061-5574
Hardee's,ROANOKE,1502636,1502636,3401 PLANTATION ROAD NE,VA,24012-3731
Hardee's,MANDAN,1502639,1502639,500 E MAIN ST,ND,58554-3534
Hardee's,LUMBERTON,1502640,1502640,2475 N ROBERTS AVENUE,NC,28358-2844
Hardee's,CLEVELAND,1502642,1502642,110 BERNHAM DR N W,TN,37312-2978
Hardee's,CHAMBERSBURG,1502644,1502644,625 LINCOLN WAY EAST,PA,17201-2706
Hardee's,WAYNESBORO,1502646,1502646,1527 EAST MAIN STREET,PA,17268-1890
Hardee's,IRON MOUNTAIN,1502647,1502647,315 N STEPHENSON AVE,MI,49801-2228
Hardee's,SUFFOLK,1502648,1502648,843 WEST CONSTANCE ROAD,VA,23434-5649
Hardee's,FREDERICKSBURG,1502649,1502649,5107 JEFFERSON DAVIS BLVD,VA,22408-4264
Hardee's,QUINCY,1502650,1502650,100 W JEFFERSON ST,FL,32351-2322
Hardee's,CAIRO,1502651,1502651,98 U S HIGHWAY 84,GA,39828-1602
Hardee's,DENMARK,1502652,1502652,508 E BARUCH ST,SC,29042-1307
Hardee's,RED SPRINGS,1502654,1502654,610 E 4TH AVE,NC,28377-1667
Hardee's,SWAINSBORO,1502655,1502655,501 S MAIN ST,GA,30401-6134
Hardee's,SPRING LAKE,1502658,1502658,400 S MAIN ST,NC,28390-3907
Hardee's,HAYESVILLE,1502659,1502659,ROUTE 2 US HWY 64,NC,28904
Hardee's,KINSTON,1502663,1502663,1344 HIGHWAY 258 S,NC,28504-5388
Hardee's,BLUEFIELD,1502664,1502664,701 S COLLEGE AVE,VA,24605-1640
Hardee's,MARION,1502665,1502665,347 N MAIN ST,VA,24354-3323
Hardee's,CHESAPEAKE,1502667,1502667,864 N. GEORGE WASHINGTON HWY,VA,23323-2220
Hardee's,JASPER,1502669,1502669,1210 HWY 28,TN,37347-3688
Hardee's,SPENCER,1502674,1502674,704 SOUTH GRAND,IA,51301-5730
Hardee's,MARION,1502675,1502675,3240 HIGHWAY 226 S,NC,28752-8740
Hardee's,LAKE CITY,1502676,1502676,2399 SE BAYA DR,FL,32025-4908
Hardee's,NORTHPORT,1502677,1502677,5525 MCFARLAND BLVD,AL,35476-2379
Hardee's,YOUNGSTOWN,1502678,1502678,15821 HWY 231 N,FL,32466-2545
Hardee's,PRESCOTT,1502679,1502679,116 RON HARROD RD,AR,71857-9053
Hardee's,JACKSON,1502680,1502680,2050 HIGHWAY 70 EAST,TN,38305-8412
Hardee's,BEAVER,1502681,1502681,19 RITTER DR,WV,25813
Hardee's,RUTLEDGE,1502683,1502683,7685 RUTLEDGE PIKE,TN,37861-3612
Hardee's,FRANKLIN,1502684,1502684,105 MECHANIC ST NORTH,VA,23851-1521
Hardee's,PIKEVILLE,1502686,1502686,667 HAMBLEY,KY,41501-1262
Hardee's,NEWTON GROVE,1502688,1502688,105 W WEEKSDALE DR,NC,28366-7763
Hardee's,ASHLAND,1502696,1502696,106 N WASHINGTON HWY,VA,23005-1622
Hardee's,SUPPLY,1502697,1502697,5 OCEAN HWY E,NC,28462-3357
Hardee's,QUINCY,1502703,1502703,1526 NO 12TH ST,IL,62301-1917
Hardee's,SAINT MARYS,1502706,1502706,2605 OSBORNE RD,GA,31558-8905
Hardee's,CHESAPEAKE,1502707,1502707,2620 BATTLEFIELD BLVD SOUTH,VA,23322-2211
Hardee's,KANNAPOLIS,1502708,1502708,1405 S CANNON BLVD,NC,28083-6248
Hardee's,WALLACE,1502710,1502710,807 N NORWOOD ST,NC,28466-1341
Hardee's,GRAFTON,1502711,1502711,196 E 12TH ST,ND,58237-2214
Hardee's,CHATTANOOGA,1502716,1502716,2302 E 23RD ST,TN,37407-1109
Hardee's,RAEFORD,1502717,1502717,HWY 401 SOUTH BYP,NC,28376
Hardee's,LAKE PANASOFFKEE,1502722,1502722,43 E C 470,FL,33538-6501
Hardee's,DANVILLE,1502723,1502723,1192 PINEY FOREST ROAD,VA,24540-1506
Hardee's,MOLINE,1502724,1502724,2301 16TH STREET,IL,61265-4825
Hardee's,GRAND FORKS,1502727,1502727,1750 COLUMBIA RD,ND,58201-5818
Hardee's,SPRINGFIELD,1502728,1502728,1835 SANGAMON AVE,IL,62702-1205
Hardee's,NEOSHO,1502730,1502730,530 S NEOSHO BLVD,MO,64850-2048
Hardee's,PETERSBURG,1502733,1502733,1865 S CRATER RD,VA,23805-2707
Hardee's,CHESAPEAKE,1502734,1502734,1433 GEORGE WASHINGTON,VA,23323-5024
Hardee's,RADFORD,1502736,1502736,7353 LEE HIGHWAY,VA,24141-8501
Hardee's,FAYETTEVILLE,1502737,1502737,3405 MURCHISON ROAD,NC,28311-2807
Hardee's,NEWPORT,1502738,1502738,1700 MALCOLM,AR,72112-3624
Hardee's,BRUNSWICK,1502742,1502742,4428 NEW JESUP HWY,GA,31520-1647
Hardee's,NEW HOPE,1502743,1502743,10139 HIGHWAY 431 S,AL,35760-9390
Hardee's,FAYETTEVILLE,1502744,1502744,2497 HOPE MILLS ROAD,NC,28304-4231
Hardee's,VIRGINIA BEACH,1502748,1502748,1494 GENERAL BOOTH BLVD,VA,23454-5100
Hardee's,JOPLIN,1502749,1502749,1810 SOUTH MAIN STREET,MO,64804-2040
Hardee's,SANFORD,1502751,1502751,813 S HORNER BOULEVARD,NC,27330-5309
Hardee's,WILMINGTON,1502752,1502752,2518 CAROLINA BEACH RD,NC,28401-7610
Hardee's,MOORESVILLE,1502756,1502756,456 RIVER HIGHWAY,NC,28117-6828
Hardee's,BLACK RIVER FALLS,1502759,1502759,605 N. WATER ST.,WI,54615-8935
Hardee's,HILLSBOROUGH,1502761,1502761,380 SOUTH CHURTON STREET,NC,27278-2509
Hardee's,BOONE,1502770,1502770,610 BLOWING ROCK RD,NC,28607-4814
Hardee's,BOONE,1502771,1502771,344 E KING ST,NC,28607-4048
Hardee's,JEFFERSON,1502772,1502772,799 E MAIN ST,NC,28640-9280
Hardee's,SHARPSBURG,1502774,1502774,3650 US HWY 301,NC,27878-0850
Hardee's,ABERDEEN,1502778,1502778,124 6TH AVE SW,SD,57401-4163
Hardee's,SMITHFIELD,1502779,1502779,1909 S CHURCH ST,VA,23430-1852
Hardee's,LORIS,1502781,1502781,4206 E MAIN STREET,SC,29569-2612
Hardee's,HANOVER,1502782,1502782,2635 ANNAPOLIS RD,MD,21076-1262
Hardee's,CHESAPEAKE,1502784,1502784,1506 MOUNT PLEASANT ROAD,VA,23322-1227
Hardee's,LEXINGTON,1502786,1502786,521 SALEM STREET,NC,27292-1691
Hardee's,CLEVELAND,1502791,1502791,2020 SPRING PLACE RD,TN,37323-3337
Hardee's,HAMPTON,1502792,1502792,241 SOUTH MALLORY STREET,VA,23663-1841
Hardee's,OCOEE,1502793,1502793,10840 WEST COLONIAL DR,FL,34761-2981
Hardee's,BUCKHANNON,1502796,1502796,208 KANAWHA STREET PO BOX 168,WV,26201-0168
Hardee's,BRANFORD,1502797,1502797,404 HWY 27,FL,32008-2764
Hardee's,EVANSVILLE,1502798,1502798,1501 N BOEKE RD,IN,47711-4976
Hardee's,FAYETTEVILLE,1502799,1502799,116 NORTH REILLY ROAD,NC,28303-2409
Hardee's,SUFFOLK,1502909,1502909,2301 PRUDEN BLVD,VA,23434-4330
Hardee's,PORTSMOUTH,1502910,1502910,5900 W HIGH STREET,VA,23703-4506
Hardee's,RICHMOND,1502912,1502912,8211 BROOK ROAD,VA,23227-1309
Hardee's,THOMASVILLE,1502915,1502915,1025 RANDOLPH STREET,NC,27360-5876
Hardee's,NORFOLK,1502918,1502918,7480 TIDEWATER DRIVE,VA,23505-3845
Hardee's,CAROLINA BCH,1502920,1502920,254 LAKE PARK BLVD,NC,28428-4815
Hardee's,DAUPHIN,1502926,1502926,724 ALLEGHENY ST,PA,17018-9497
Hardee's,YORK,1502927,1502927,2020 WEST MARKET STREET,PA,17404-5509
Hardee's,MCSHERRYSTOWN,1502928,1502928,646 MAIN STREET,PA,17344-1811
Hardee's,YORK,1502932,1502932,1617 NORTH GEORGE STREET,PA,17404-1805
Hardee's,DALLASTOWN,1502935,1502935,820 EAST MAIN STREET,PA,17313-9779
Hardee's,MIDDLETOWN,1502936,1502936,230 NISSLEY ST,PA,17057
Hardee's,MYERSTOWN,1502937,1502937,198 W LINCOLN AVENUE,PA,17067-1015
Hardee's,HARRISBURG,1502948,1502948,2203 PAXTON ST,PA,17111-1037
Hardee's,SPRING GROVE,1502949,1502949,500 NORTH MAIN STREET,PA,17362-1500
Hardee's,RICHMOND,1502953,1502953,5000 W BROAD ST,VA,23230-3006
Hardee's,RICHMOND,1502954,1502954,921 MYERS STREET,VA,23230-4812
Hardee's,WILMINGTON,1502957,1502957,429 S COLLEGE RD,NC,28403-1631
Hardee's,WILMINGTON,1502958,1502958,1420 FLORAL PKWY,NC,28403-6710
Hardee's,KINSTON,1502963,1502963,4171 W VERNON AVENUE,NC,28504-9655
Hardee's,HARRISONBURG,1502964,1502964,785 CANTRELL AVE,VA,22801-4366
Hardee's,ROANOKE RAPIDS,1502969,1502969,1711 JULIAN R ALLSBROOK HWY,NC,27870-5117
Hardee's,MONTEAGLE,1502971,1502971,716 PARKER ST,TN,37356-2117
Hardee's,FAYETTEVILLE,1502973,1502973,5508 RAEFORD RD,NC,28304-3050
Hardee's,KANNAPOLIS,1502974,1502974,140 DALE EARNHARDT BLVD,NC,28081-0300
Hardee's,VIENNA,1502980,1502980,2710 GRAND CENTRAL AVENUE,WV,26105-1355
Hardee's,GLOUCESTER,1502983,1502983,7007 GEORGE WASHINGTON MEM HWY,VA,23061-5146
Hardee's,ROANOKE,1502984,1502984,7404 WILLIAMSON ROAD,VA,24019-4239
Hardee's,WINCHESTER,1502986,1502986,1600 DINAH SHORE BLVD,TN,37398-1144
Hardee's,CEDAR RAPIDS,1502989,1502989,1981 BLAIRS FERRY RD,IA,52402-5876
Hardee's,COVINGTON,1502990,1502990,1122 S ALLEGHANY AVENUE,VA,24426-2008
Hardee's,PITTSBORO,1502991,1502991,28 EAST ST,NC,27312-8635
Hardee's,BUCYRUS,1502992,1502992,536 S SANDUSKY STREET,OH,44820-2623
Hardee's,VALDOSTA,1502993,1502993,2901 N ASHLEY ST,GA,31602-1881
Hardee's,EVANSVILLE,1502994,1502994,4400 COVERT AVE,IN,47714-5650
Hardee's,WAYNESBORO,1502996,1502996,903 AZALEA DR,MS,39367-2501
Hardee's,CHESTER,1502997,1502997,12401 JEFFERSON DAVIS HWY,VA,23831-2320
Hardee's,WAUPACA,1502998,1502998,640 W FULTON ST,WI,54981-1428
Hardee's,HIAWASSEE,1503001,1503001,244 N MAIN ST,GA,30546-2213
Hardee's,ENFIELD,1503003,1503003,105 SOUTH MCDANIEL STREET,NC,27823-1426
Hardee's,VIRGINIA BEACH,1503004,1503004,2188 GREAT NECK SQUARE,VA,23454-2202
Hardee's,WEST PLAINS,1503007,1503007,905 PORTER WAGONER BLVD,MO,65775-2127
Hardee's,PORTSMOUTH,1503008,1503008,850 LONDON BLVD,VA,23704-2234
Hardee's,GRANDY,1503010,1503010,6501 CARATOKE HIGHWAY,NC,27939-9621
Hardee's,PHILIPPI,1503012,1503012,130 SOUTH MAIN STREET,WV,26416-1327
Hardee's,MOUNT AIRY,1503014,1503014,2154 ROCKFORD STREET,NC,27030-5206
Hardee's,PETERSBURG,1503017,1503017,401 E SANGAMON AVE,IL,62675-1249
Hardee's,SHELBYVILLE,1503020,1503020,1927 MIDLAND TRAIL,KY,40065
Hardee's,COTTONDALE,1503022,1503022,2633 HIGHWAY 231,FL,32431-7325
Hardee's,GREENVILLE,1503025,1503025,3741 CHARLES ST,NC,27858-8078
Hardee's,ROLESVILLE,1503026,1503026,403 SOUTH MAIN STREET,NC,27571-9664
Hardee's,DODGEVILLE,1503027,1503027,104 LEFFLER STREET,WI,53533-1169
Hardee's,WILMINGTON,1503028,1503028,1 S KERR AVE,NC,28403-1416
Hardee's,MORGANTOWN,1503033,1503033,1600 EARL L CORE RD,WV,26505-5888
Hardee's,WASHINGTON,1503035,1503035,1290 JOHN SMALL AVE,NC,27889-3800
Hardee's,TUSCALOOSA,1503039,1503039,6718 HWY 69 S,AL,35405-6435
Hardee's,CHARLOTTESVILLE,1503041,1503041,1680 SEMINOLE TRAIL,VA,22901-1420
Hardee's,OSSEO,1503042,1503042,12613 TENTH ST.,WI,54758-9061
Hardee's,OWENSBORO,1503045,1503045,3101 FREDERICA ST,KY,42301-6060
Hardee's,CONCORD,1503046,1503046,547 NORTH CHURCH STREET,NC,28025-4479
Hardee's,ONLEY,1503048,1503048,25048 LANKFORD HWY,VA,23418-2810
Hardee's,CHOCOWINITY,1503049,1503049,US HWY 17 & FIRST STREET,NC,27817-0055
Hardee's,BRAINERD,1503050,1503050,119 WASHINGTON ST,MN,56401-3335
Hardee's,MOREHEAD CITY,1503051,1503051,3006 ARENDELL ST,NC,28557-3319
Hardee's,HEMINGWAY,1503052,1503052,301 S MAIN ST,SC,29554-6657
Hardee's,MAN,1503054,1503054,122 HUFF CREEK HWY,WV,25635-1037
Hardee's,SNEADS FERRY,1503058,1503058,968 NC HWY 210,NC,28460-9135
Hardee's,HAMPSTEAD,1503059,1503059,14535 US HWY 17 SOUTH,NC,28443-3511
Hardee's,MOUNTAIN VIEW,1503063,1503063,604 NE MAIN,AR,72560-8413
Hardee's,COPPERHILL,1503065,1503065,5088 HIGHWAY 64,TN,37317-5203
Hardee's,CHATTANOOGA,1503068,1503068,220 BROWNS FERRY RD,TN,37419-1722
Hardee's,PETERSBURG,1503069,1503069,5412 BOYDTON PLANK ROAD,VA,23803-8940
Hardee's,ORLANDO,1503071,1503071,5212 SILVER STAR RD,FL,32808-4402
Hardee's,FOND DU LAC,1503072,1503072,775 WEST JOHNSON,WI,54935-2015
Hardee's,WEST UNION,1503074,1503074,117 HWY 150 NORTH,IA,52175-1050
Hardee's,CHESAPEAKE,1503077,1503077,1240 CEDAR ROAD,VA,23322-7104
Hardee's,FENNIMORE,1503078,1503078,645 LINCOLN AVE,WI,53809-1504
Hardee's,PIGGOTT,1503079,1503079,950 EAST MAIN,AR,72454-3000
Hardee's,CHERAW,1503081,1503081,801 MARKET ST,SC,29520-2659
Hardee's,ROCKY MOUNT,1503082,1503082,480 TANYARD ROAD,VA,24151-1532
Hardee's,JOPLIN,1503086,1503086,818 RANGELINE,MO,64801-5506
Hardee's,GREAT FALLS,1503087,1503087,101 1ST AVE N,MT,59401-2501
Hardee's,BLACKSTONE,1503091,1503091,101 NORTH MAIN STREET,VA,23824-1445
Hardee's,DUBUQUE,1503092,1503092,2100 TWIN VALLEY DR,IA,52003-7983
Hardee's,FARGO,1503093,1503093,3819 MAIN AVE,ND,58103-1141
Hardee's,SIOUX CENTER,1503097,1503097,660 N MAIN,IA,51250-1826
Hardee's,GASTON,1503098,1503098,100 LAWRENCEVILLE ROAD,NC,27832-9772
Hardee's,BURLINGTON,1503099,1503099,2349 MAPLE AVENUE,NC,27215-7113
Hardee's,FALMOUTH,1503101,1503101,567 WARRENTON ROAD,VA,22406-1025
Hardee's,WEST POINT,1503103,1503103,323 14TH ST,VA,23181
Hardee's,MONROE,1503104,1503104,503 W ROOSEVELT BLVD,NC,28110-3539
Hardee's,OCEAN ISLE BEACH,1503105,1503105,1651 SEASIDE ROAD SW,NC,28469-5410
Hardee's,VIRGINIA BEACH,1503108,1503108,1951 LYNNHAVEN PARKWAY,VA,23453-1643
Hardee's,COLQUITT,1503109,1503109,226 W CRAWFORD ST,GA,39837-3409
Hardee's,PRINCETON,1503115,1503115,101 SMITH STREET,NC,27569-7258
Hardee's,MADISON,1503116,1503116,4814 ANNAMARK DRIVE,WI,53704-7401
Hardee's,TALLAHASSEE,1503117,1503117,5818 N MONROE ST,FL,32303-7951
Hardee's,HARROGATE,1503118,1503118,6680 CUMBERLAND GAP PKWY,TN,37752-8012
Hardee's,WILMINGTON,1503119,1503119,1970 S 17TH ST,NC,28401-6627
Hardee's,ROANOKE,1503121,1503121,3729 BRAMBLETON AVE SW,VA,24018-3638
Hardee's,HILLSVILLE,1503122,1503122,115 N MAIN ST,VA,24343-1430
Hardee's,ALBIA,1503124,1503124,1118 S CLINTON,IA,52531-2664
Hardee's,BONIFAY,1503127,1503127,2111 S WAUKESHA ST,FL,32425-3125
Hardee's,NORFOLK,1503129,1503129,8405 HAMPTON BLVD,VA,23505-1023
Hardee's,SOMERSET,1503130,1503130,3895 S HIGHWAY 27,KY,42501-3058
Hardee's,RICHMOND,1503131,1503131,6302 LAKESIDE AVENUE,VA,23228-5245
Hardee's,LAUREL,1503132,1503132,103 S 1ST AVE,MT,59044-3301
Hardee's,GENEVA,1503133,1503133,1303 W MAPLE AVE,AL,36340-1643
Hardee's,BEAVER DAM,1503134,1503134,1808 MAIN ST,KY,42320-9500
Hardee's,CLARION,1503135,1503135,329 CENTRAL AVENUE WEST,IA,50525-1313
Hardee's,COATS,1503137,1503137,459 NORTH MCKINLEY,NC,27521-9397
Hardee's,QUINCY,1503140,1503140,2914 BROADWAY,IL,62301-3642
Hardee's,MANISTIQUE,1503142,1503142,350 EAST U.S. HWY 2,MI,49854-1418
Hardee's,SPRINGFIELD,1503144,1503144,2501 STEVENSON DR,IL,62703-4396
Hardee's,RICHMOND,1503145,1503145,4841 LABURNUM AVE,VA,23231-2713
Hardee's,FORT MYERS,1503146,1503146,4900 PALM BEACH BLVD,FL,33905-3230
Hardee's,PIERRE,1503147,1503147,305 W SIOUX AVE,SD,57501-2442
Hardee's,TROY,1503148,1503148,231 E HIGHWAY 47,MO,63379-2032
Hardee's,STANLEYTOWN,1503150,1503150,933 FAIRYSTONE PARK HWY,VA,24168-3014
Hardee's,EDEN,1503152,1503152,262 W KINGS HWY,NC,27288-5010
Hardee's,ABERDEEN,1503153,1503153,2241 N PINEHURST ST,NC,28315-5697
Hardee's,SOUTH CHARLESTON,1503157,1503157,612 MAC CORKLE AVE,WV,25303-1308
Hardee's,HENDERSON,1503158,1503158,100 N GREEN ST,KY,42420-3118
Hardee's,RALEIGH,1503160,1503160,8000 FAYETTEVILLE ROAD,NC,27603-5634
Hardee's,SEAGROVE,1503186,1503186,434 LITTLE RIVER RD,NC,27341-9041
Hardee's,HIBBING,1503187,1503187,2527 E 13TH AVE,MN,55746
Hardee's,LAWRENCEVILLE,1503198,1503198,501 SOUTH HICKS STREET,VA,23868-2117
Hardee's,HOPEWELL,1503200,1503200,310 WEST RANDOLPH ROAD,VA,23860-2662
Hardee's,MILLVALE,1503202,1503202,1201 NORTH AVE,PA,15209-2251
Hardee's,OSHKOSH,1503203,1503203,409 ALGOMA ST,WI,54901-4701
Hardee's,PADUCAH,1503206,1503206,1726 BROADWAY ST,KY,42001-2706
Hardee's,VIRGINIA BEACH,1503207,1503207,6075 INDIAN RIVER RD,VA,23464-3803
Hardee's,BREEZEWOOD,1503208,1503208,16395 LINCOLN HWY,PA,15533
Hardee's,HUNTINGTON,1503209,1503209,1701 WASHINGTON AVE,WV,25704-1538
Hardee's,CHARITON,1503213,1503213,2002 COURT AVE,IA,50049-1954
Hardee's,GILLETTE,1503214,1503214,207 S MILLER,WY,82716-3902
Hardee's,FAYETTEVILLE,1503215,1503215,5708 YADKIN RD,NC,28303-2761
Hardee's,WISE,1503217,1503217,403 WEST MAIN STREET,VA,24293-6904
Hardee's,SOUTHPORT,1503218,1503218,1616 N HOWE ST,NC,28461-8904
Hardee's,CREWE,1503220,1503220,200 EAST VIRGINIA AVE,VA,23930-1926
Hardee's,BISMARCK,1503221,1503221,1301 CAPITAL AVE,ND,58501-2060
Hardee's,HALIFAX,1503227,1503227,410 SOUTH MAIN STREET,VA,24558-2485
Hardee's,GALAX,1503228,1503228,425 MAIN ST,VA,24333-4481
Hardee's,CHRISTIANSBURG,1503229,1503229,2347 ROANOKE STREET,VA,24073-2515
Hardee's,TRENTON,1503233,1503233,HIGHWAY 136 W. KILLIAN,GA,30752
Hardee's,MIDDLETON,1503237,1503237,3311 W BELTLINE HWY,WI,53562-1672
Hardee's,DONALSONVILLE,1503241,1503241,310 E 3RD ST,GA,39845-1648
Hardee's,WHITWELL,1503242,1503242,12075 VALLEY VIEW HWY,TN,37397-6010
Hardee's,RAPID CITY,1503247,1503247,1001 E NORTH ST,SD,57701-1746
Hardee's,STATESBORO,1503248,1503248,612 NORTHSIDE DR E,GA,30458-4842
Hardee's,MILACA,1503249,1503249,925 1ST ST E,MN,56353-1683
Hardee's,FREDERICKSBURG,1503250,1503250,1700 PRINCESS ANNE ST,VA,22401-3525
Hardee's,PADUCAH,1503251,1503251,3700 CLARKS RIVER RD,KY,42003-0515
Hardee's,VIRGINIA BEACH,1503252,1503252,701 INDEPENDENCE BLVD,VA,23455-6205
Hardee's,BEDFORD,1503253,1503253,505 E MAIN ST,VA,24523-2018
Hardee's,LEBANON,1503255,1503255,ROUTE 19  PO BOX 672,VA,24266-0672
Hardee's,RINGGOLD,1503260,1503260,5486 ALABAMA ST,GA,30736-2438
Hardee's,BURLINGTON,1503264,1503264,2124 WEST WEBB AVENUE,NC,27217-1066
Hardee's,LITTLETON,1503265,1503265,221 E MAIN ST,NC,27850-7988
Hardee's,VIRGINIA BEACH,1503268,1503268,2248 VIRGINIA BEACH BLVD,VA,23454-4284
Hardee's,DURHAM,1503270,1503270,4607 S ALSTON AVE,NC,27713-4418
Hardee's,CHARLOTTESVILLE,1503271,1503271,1150 5TH ST SW,VA,22902-6449
Hardee's,HINCKLEY,1503272,1503272,401 1/2 FIRE MONUMENT RD,MN,55037-8336
Hardee's,WAUKON,1503273,1503273,503 ROSSVILLE RD,IA,52172-2225
Hardee's,RAPID CITY,1503276,1503276,2250 N HAINES AVE,SD,57701-7809
Hardee's,SANFORD,1503277,1503277,3002 S HORNER BLVD,NC,27332-9644
Hardee's,MOBERLY,1503278,1503278,308 HWY 24 E,MO,65270-3618
Hardee's,BEULAVILLE,1503279,1503279,120 WEST MAIN STREET,NC,28518-8802
Hardee's,MOLINE,1503283,1503283,425 55TH ST,IL,61265-1730
Hardee's,ESCANABA,1503284,1503284,606 N LINCOLN RD,MI,49829
Hardee's,MOUNTAIN CITY,1503285,1503285,141 PIONEER VILLAGE DR,TN,37683-1843
Hardee's,DUBLIN,1503286,1503286,208 COLLEGE AVENUE,VA,24084-3625
Hardee's,HUMBOLDT,1503287,1503287,1203 10TH AVE N,IA,50548-1167
Hardee's,WINDOM,1503288,1503288,HWY 60 & CINDY STREET,MN,56101-1860
Hardee's,REIDSVILLE,1503291,1503291,1702 FREEWAY DRIVE,NC,27320-7109
Hardee's,YANCEYVILLE,1503301,1503301,2089 NC HIGHWAY 86 N,NC,27379-8655
Hardee's,MOUNT AIRY,1503302,1503302,1221 WEST PINE STREET,NC,27030-3444
Hardee's,ROXBORO,1503303,1503303,303 N MADISON BOULEVARD,NC,27573-5354
Hardee's,HARLAN,1503308,1503308,1548 S. US HWY 421 BYPASS,KY,40831-2501
Hardee's,BLACKSBURG,1503309,1503309,904 PRICES FORK ROAD,VA,24060-3261
Hardee's,KENANSVILLE,1503310,1503310,HWY 50 LIMESTONE RD,NC,28349
Hardee's,PILOT MOUNTAIN,1503313,1503313,200 WEST MAIN STREET,NC,27041-9313
Hardee's,CHRISTIANSBURG,1503316,1503316,103 ROANOKE ST,VA,24073-3019
Hardee's,CHESTER,1503322,1503322,1901 WEST HUNDRED ROAD,VA,23836-2402
Hardee's,GURLEY,1503324,1503324,5975 HIGHWAY 72 E,AL,35748-9460
Hardee's,FLORENCE,1503325,1503325,1923 W PALMETTO ST,SC,29501-3916
Hardee's,HAMPTON,1503327,1503327,8104 NEW MARKET DR,VA,23605-3417
Hardee's,FLORENCE,1503328,1503328,1501 S IRBY ST,SC,29505-3409
Hardee's,LEWISBURG,1503329,1503329,529 N JEFFERSON ST,WV,24901-8910
Hardee's,HAMPTON,1503330,1503330,10 3RD STREET SW,IA,50441-1929
Hardee's,WAVERLY,1503331,1503331,239 SOUTH COUNTY DRIVE,VA,23890-5048
Hardee's,SNEEDVILLE,1503332,1503332,HIGHWAY 33 & HARRISON ST,TN,37869
Hardee's,CARTHAGE,1503337,1503337,2516 SOUTH GRAND,MO,64836-7903
Hardee's,WILLISTON,1503338,1503338,12733 MAIN ST,SC,29853-2709
Hardee's,LOUISA,1503339,1503339,413 EAST MAIN,VA,23093-6518
Hardee's,JACKSONVILLE,1503342,1503342,842 W MORTON AVE,IL,62650-3150
Hardee's,RURAL HALL,1503343,1503343,1035 BETHANIA RD,NC,27045-9552
Hardee's,LOWELL,1503348,1503348,716 MCADENVILLE RD,NC,28098-1622
Hardee's,CLAREMONT,1503351,1503351,3099 WEST MAIN STREET,NC,28610-9603
Hardee's,DYERSVILLE,1503353,1503353,1307 9TH ST SE,IA,52040-2334
Hardee's,LURAY,1503354,1503354,607 EAST MAIN STREET,VA,22835-2053
Hardee's,HAMPTON,1503359,1503359,905 BIG BETHEL ROAD,VA,23666-1901
Hardee's,RICHLANDS,1503361,1503361,8901 RICHLANDS HIGHWAY 24,NC,28574-7391
Hardee's,DUBUQUE,1503364,1503364,4860 ASBURY RD,IA,52002-0419
Hardee's,DENVER,1503367,1503367,6090 N HIGHWAY 16,NC,28037-7009
Hardee's,MILBANK,1503371,1503371,1201 E HIGHWAY 12,SD,57252-1539
Hardee's,KINSTON,1503372,1503372,200 W VERNON AVE,NC,28501-3824
Hardee's,JASPER,1503373,1503373,762 SECOND ST,IN,47546-2650
Hardee's,TIPTON,1503374,1503374,601 CEDAR ST,IA,52772-1740
Hardee's,HYDEN,1503377,1503377,25 FIRE HOUSE LN,KY,41749-8637
Hardee's,SPRINGFIELD,1503379,1503379,3465 W CHESTNUT EXPWY,MO,65802-5333
Hardee's,WEEKI WACHEE,1503380,1503380,6292 COMMERCIAL WAY,FL,34613-6329
Hardee's,FLOYD,1503384,1503384,402 W MAIN ST,VA,24091-2308
Hardee's,SPRINGFIELD,1503386,1503386,2260 NORTH GLENSTONE,MO,65803-4648
Hardee's,MOUNTAIN HOME,1503387,1503387,500 NORTH EAST US 62,AR,72653-3206
Hardee's,SPRINGFIELD,1503388,1503388,1444 EAST BATTLEFIELD,MO,65804-3702
Hardee's,ROCK ISLAND,1503390,1503390,1419 38TH ST,IL,61201-3843
Hardee's,MADISON HEIGHTS,1503392,1503392,ROUTE 29 SOUTH,VA,24572-0618
Hardee's,GREAT FALLS,1503401,1503401,2625 10TH AVE S,MT,59405-3238
Hardee's,WILKESBORO,1503404,1503404,1901 ADDISON AVE,NC,28697-2262
Hardee's,CORALVILLE,1503407,1503407,107 2ND ST,IA,52241-2605
Hardee's,SEAFORD,1503408,1503408,328 W STEIN HWY,DE,19973-1335
Hardee's,MILFORD,1503409,1503409,698 N DUPONT BLVD,DE,19963-1002
Hardee's,MILLSBORO,1503410,1503410,358 E DUPONT HWY UNIT 10,DE,19966-4737
Hardee's,GEORGETOWN,1503411,1503411,20598 DUPONT BLVD,DE,19947-3176
Hardee's,HARRINGTON,1503412,1503412,7237 MILFORD HARRINGTON HWY,DE,19952-2304
Hardee's,DOVER,1503413,1503413,519 S BAY RD,DE,19901-4624
Hardee's,DOVER,1503414,1503414,50 GREENTREE DR,DE,19904-2684
Hardee's,POCOMOKE CITY,1503415,1503415,125 POCOMOKE MARKETPLACE,MD,21851-1300
Hardee's,EASTON,1503416,1503416,8335 OCEAN GTWY,MD,21601-4403
Hardee's,PRINCESS ANNE,1503417,1503417,30362 MT VERNON RD,MD,21853-1436
Hardee's,STEVENSVILLE,1503418,1503418,1157 SHOPPING CENTER RD,MD,21666-4051
Hardee's,SALISBURY,1503419,1503419,1301 S SALISBURY BLVD,MD,21801-6840
Hardee's,CAMBRIDGE,1503420,1503420,800 WOODS RD,MD,21613-9471
Hardee's,CENTREVILLE,1503421,1503421,501 CHURCH HILL RD,MD,21617-1900
Hardee's,DANVILLE,1503424,1503424,1298 S BOSTON RD,VA,24540-5034
Hardee's,PARAGOULD,1503425,1503425,301 LINWOOD,AR,72450-4083
Hardee's,PAINTSVILLE,1503430,1503430,545 NORTH MAYO TRAIL,KY,41240-1810
Hardee's,HAZARD,1503432,1503432,1326 KENTUCKY HIGHWAY 15,KY,41701-6042
Hardee's,COLONIAL HEIGHTS,1503433,1503433,1850 BOULEVARD,VA,23834-2306
Hardee's,OWOSSO,1503434,1503434,534 E MAIN ST,MI,48867-3141
Hardee's,DUBUQUE,1503435,1503435,420 RHOMBERG,IA,52001-3560
Hardee's,HOPEWELL,1503436,1503436,2915 OAK LAWN,VA,23860-4901
Hardee's,RICHMOND,1503437,1503437,3815 MECHANICSVILLE PIKE,VA,23223-1113
Hardee's,STAUNTON,1503438,1503438,241 N CENTRAL AVENUE,VA,24401-3310
Hardee's,ORANGE,1503441,1503441,194 MADISON RD,VA,22960-1428
Hardee's,SOUTH HILL,1503442,1503442,903 EAST ATLANTIC STREET,VA,23970-3403
Hardee's,RAPID CITY,1503443,1503443,604 5TH ST,SD,57701-2705
Hardee's,SPARTA,1503444,1503444,417 S MAIN ST,NC,28675-9606
Hardee's,FT OGLETHORPE,1503445,1503445,541 BATTLEFIELD PARKWAY,GA,30742-3884
Hardee's,BALDWIN,1503449,1503449,2106 55TH AVE,WI,54002-5139
Hardee's,LEESBURG,1503450,1503450,258 US 19 S,GA,31763
Hardee's,WHITE SULPHUR SPRINGS,1503451,1503451,9 ALVON RD,WV,24986-2373
Hardee's,SALEM,1503457,1503457,2038 W. MAIN ST,VA,24153-3130
Hardee's,SAINT PAUL,1503459,1503459,16403 WISE ST,VA,24283-3537
Hardee's,FAYETTEVILLE,1503462,1503462,6397 RAMSEY ST,NC,28311-9420
Hardee's,AMHERST,1503466,1503466,HIGHWAY 29 BUSINESS,VA,24521
Hardee's,KANNAPOLIS,1503468,1503468,611 JACKSON PARK RD,NC,28083-3659
Hardee's,TROUTVILLE,1503474,1503474,2860 LEE HIGHWAY SOUTH,VA,24175-6331
Hardee's,ALLIANCE,1503475,1503475,13896 HWY 55 E,NC,28509-0266
Hardee's,STUART,1503476,1503476,314 S MAIN ST,VA,24171-3875
Hardee's,CHAPEL HILL,1503477,1503477,1800 CHAPEL HILL-DURHAM,NC,27514-2201
Hardee's,LYNCHBURG,1503478,1503478,20265 TIMBERLAKE RD,VA,24502-7202
Hardee's,NORFOLK,1503481,1503481,2301 E LITTLE CREEK RD,VA,23518-3205
Hardee's,MARTINSVILLE,1503487,1503487,901 E CHURCH ST,VA,24112-3220
Hardee's,MANNING,1503488,1503488,102 SUNSET DRIVE,SC,29102-2905
Hardee's,VIRGINIA BEACH,1503489,1503489,1201 BAKER ROAD,VA,23455-3602
Hardee's,ELDRIDGE,1503491,1503491,105 S 9TH AVE,IA,52748-1925
Hardee's,GARNER,1503492,1503492,605 HIGHWAY 18 WEST,IA,50438-1019
Hardee's,LA CROSSE,1503496,1503496,1311 ROSE ST,WI,54603-2461
Hardee's,HOUGHTON,1503499,1503499,501 W MEMORIAL AVE,MI,49931
Hardee's,VIRGINIA BEACH,1503501,1503501,4261 HOLLAND RD,VA,23452-1904
Hardee's,LONDON,1503504,1503504,1974 WEST HIGHWAY 192,KY,40741-1679
Hardee's,WINONA,1503505,1503505,118 W 5TH ST,MN,55987-3549
Hardee's,AURORA,1503507,1503507,2010 SOUTH ELLIOTT AVENUE,MO,65605-9617
Hardee's,BARBOURSVILLE,1503508,1503508,6022 U.S. ROUTE 60 EAST,WV,25504-1029
Hardee's,SPRINGFIELD,1503511,1503511,1700 WABASH AVE,IL,62704-5302
Hardee's,ABBEVILLE,1503512,1503512,650 OZARK RD,AL,36310-2630
Hardee's,CLEVELAND,1503513,1503513,2410 BLUE SPRINGS RD SE,TN,37311-0911
Hardee's,PARKERSBURG,1503515,1503515,2309 PIKE STREET,WV,26101-7252
Hardee's,MADISON,1503517,1503517,604 BURTON STREET,NC,27025-1522
Hardee's,MALDEN,1503521,1503521,908 N DOUGLASS ST,MO,63863-1514
Hardee's,HARTSVILLE,1503523,1503523,829 S FIFTH ST,SC,29550-6501
Hardee's,NEW IBERIA,1503524,1503524,101 E ADMIRAL DOYLE,LA,70560-6602
Hardee's,NORFOLK,1503526,1503526,505 WEST 21ST STREET,VA,23517-1985
Hardee's,FLORENCE,1503527,1503527,1902 W LUCAS ST,SC,29501-1232
Hardee's,SAVANNAH,1503528,1503528,1 GATEWAY BLVD S,GA,31419-7551
Hardee's,DUFFIELD,1503530,1503530,711 DUFF-PATT ROAD,VA,24244-5152
Hardee's,CHIPLEY,1503532,1503532,1212 MAIN ST,FL,32428-2471
Hardee's,CHAPEL HILL,1503533,1503533,6116 FARRINGTON ROAD,NC,27517-9432
Hardee's,CAPE CHARLES,1503534,1503534,22031 LANKFORD HIGHWAY,VA,23310-2501
Hardee's,LELAND,1503536,1503536,101 VILLAGE RD NE,NC,28451-7413
Hardee's,WILLIAMSBURG,1503537,1503537,730 S 10TH ST,KY,40769-1648
Hardee's,VIRGINIA BEACH,1503541,1503541,305 DORSET AVENUE,VA,23462-6600
Hardee's,CHATTANOOGA,1503542,1503542,7904 EAST BRAINERD ROAD,TN,37421-3221
Hardee's,ALBERT LEA,1503543,1503543,1147 S BROADWAY AVE,MN,56007-4517
Hardee's,JAMESTOWN,1503548,1503548,901 1ST AVE S,ND,58401-5551
Hardee's,KINGSTREE,1503549,1503549,215 W MAIN ST,SC,29556-3337
Hardee's,CHARLOTTESVILLE,1503550,1503550,105 NEW HOUSE DR,VA,22911-8660
Hardee's,WILMINGTON,1503551,1503551,1900 CASTLE HAYNE RD,NC,28401-2766
Hardee's,JACKSONVILLE,1503555,1503555,1106 WESTERN BLVD,NC,28546-6651
Hardee's,SUFFOLK,1503557,1503557,1508 HOLLAND RD,VA,23434-6517
Hardee's,GALESBURG,1503558,1503558,913 EAST MAIN,IL,61401-3953
Hardee's,LUMBERTON,1503563,1503563,3007 W 5TH ST,NC,28358-6913
Hardee's,CLIFTON FORGE,1503568,1503568,502 W RIDGEWAY ST,VA,24422-1341
Hardee's,OOLTEWAH,1503569,1503569,9201 LEE HIGHWAY,TN,37363-8828
Hardee's,SOUTH WILLIAMSON,1503572,1503572,378 SOUTHSIDE MALL,KY,41503-3906
Hardee's,OSAGE,1503575,1503575,1321 MAIN STREET,IA,50461-1820
Hardee's,MOCKSVILLE,1503576,1503576,1350 HIGHWAY 601 SOUTH,NC,27028-9317
Hardee's,WILMINGTON,1503583,1503583,112 MILITARY CUTOFF RD,NC,28405-9792
Hardee's,TOLEDO,1503584,1503584,118 W HIGHWAY 30,IA,52342-2243
Hardee's,SUMTER,1503586,1503586,493 N GUIGNARD DR,SC,29150-4062
Hardee's,PULASKI,1503587,1503587,1032 MAIN STREET,VA,24301-5218
Hardee's,SALEM,1503588,1503588,1557 E. MAIN STREET,VA,24153-4407
Hardee's,WARSAW,1503589,1503589,4733 RICHMOND ROAD,VA,22572
Hardee's,JUNCTION CITY,1503591,1503591,100 SHELBY JUNCTION LANE,KY,40440-8501
Hardee's,COEBURN,1503593,1503593,HIGHWAY 58 A,VA,24230
Hardee's,MARTINSVILLE,1503597,1503597,547 MEMORIAL BLVD S,VA,24112-3642
Hardee's,DANVILLE,1503599,1503599,3135 RIVERSIDE DR,VA,24541-3426
Hardee's,ROSEBORO,1503602,1503602,HWY 24,NC,28382
Hardee's,EVANSVILLE,1503607,1503607,1021 S WEINBACH AVE,IN,47714-2933
Hardee's,BAXLEY,1503609,1503609,653 S MAIN ST,GA,31513-0125
Hardee's,DURHAM,1503611,1503611,1032 N MIAMI BLVD,NC,27703-2230
Hardee's,DILLON,1503612,1503612,301 N 2ND ST,SC,29536-2953
Hardee's,TAZEWELL,1503613,1503613,US HIGHWAY 33 & IRISH CEMETARY ROAD,TN,37879
Hardee's,HAMPTON,1503615,1503615,3360 COMMANDER SHEPARD BLVD,VA,23666-1599
Hardee's,SURF CITY,1503618,1503618,418 ROLAND AVENUE,NC,28445-6685
Hardee's,TIMMONSVILLE,1503619,1503619,315 EAST SMITH STREET,SC,29161-1821
Hardee's,MASON CITY,1503621,1503621,515 S DELAWARE,IA,50401-4043
Hardee's,WESTON,1503622,1503622,598 US HIGHWAY 33E,WV,26452-7052
Hardee's,PINE BLUFF,1503626,1503626,2828 W 28TH,AR,71603-4921
Hardee's,PARKERSBURG,1503628,1503628,1440 7TH STREET,WV,26101-5002
Hardee's,SIOUX CITY,1503630,1503630,4440 SERGEANT ROAD,IA,51106-4703
Hardee's,PIKEVILLE,1503632,1503632,HWY 117 N,NC,27863-0758
Hardee's,DUBUQUE,1503633,1503633,2196 UNIVERSITY,IA,52001-5767
Hardee's,CUMBERLAND,1503636,1503636,EAST MAIN STREET,KY,40823
Hardee's,JOPLIN,1503637,1503637,1641 W 7TH STREET,MO,64801-3071
Hardee's,NEWPORT NEWS,1503640,1503640,430 DENBIGH BLVD,VA,23608-3806
Hardee's,TIMBERVILLE,1503641,1503641,14078 TIMBERWAY,VA,22853-0328
Hardee's,NEWTON,1503642,1503642,701 WEST JOURDAN AVENUE,IL,62448-1057
Hardee's,COLD SPRING,1503648,1503648,200 3RD ST S,MN,56320-2503
Hardee's,CARLINVILLE,1503653,1503653,454 N BROAD ST,IL,62626-1306
Hardee's,SUPERIOR,1503654,1503654,1510 BELKNAP AVE,WI,54880-2610
Hardee's,CHATTANOOGA,1503655,1503655,6013 SHALLOWFORD DRIVE,TN,37421-1612
Hardee's,ROANOKE,1503656,1503656,605 9TH STREET SE,VA,24013-1807
Hardee's,LUMBERTON,1503657,1503657,101 JACKSON COURT,NC,28358-1102
Hardee's,ROANOKE,1503658,1503658,2301 ORANGE AVENUE NE,VA,24012-8312
Hardee's,LYNCHBURG,1503659,1503659,2231 LANGHORNE RD,VA,24501-1107
Hardee's,FAYETTEVILLE,1503660,1503660,360 N EASTERN BLVD,NC,28301-5108
Hardee's,PENNINGTON GAP,1503661,1503661,712 E MORGAN AVE,VA,24277-2258
Hardee's,MINOT,1503664,1503664,2205 N BROADWAY,ND,58703-1010
Hardee's,EVANSVILLE,1503665,1503665,2315 W ILLINOIS ST,IN,47712-5127
Hardee's,PRAIRIE DU CHIEN,1503667,1503667,944 S MARQUETTE STREET,WI,53821-2239
Hardee's,GRINNELL,1503668,1503668,1019 WEST ST,IA,50112-1645
Hardee's,GATE CITY,1503669,1503669,157 KANE ST,VA,24251-3408
Hardee's,BURLINGTON,1503670,1503670,2756 ALAMANCE ROAD,NC,27215-5458
Hardee's,DALTON,1503671,1503671,900 S THORNTON AVENUE,GA,30720-7869
Hardee's,CHASE CITY,1503673,1503673,230 EAST SECOND STREET,VA,23924-1630
Hardee's,GRANITE FALLS,1503674,1503674,147 HIGHWAY 212 E,MN,56241-1708
Hardee's,SCOTTSBORO,1503676,1503676,821 S BROAD ST,AL,35768-2507
Hardee's,NEWPORT NEWS,1503677,1503677,11014 WARWICK BLVD,VA,23601-3228
Hardee's,FAYETTEVILLE,1503681,1503681,3505 RAMSEY ST,NC,28311-7645
Hardee's,HAMPTON,1503683,1503683,63 EAST MERCURY BLVD,VA,23669-2970
Hardee's,EAU CLAIRE,1503686,1503686,2933 WESTERN AVE,WI,54703-1026
Hardee's,CHATTANOOGA,1503687,1503687,4007 MCCAHILL ROAD,TN,37415-2741
Hardee's,RICE LAKE,1503689,1503689,1819 S MAIN,WI,54868
Hardee's,LAKE CITY,1503691,1503691,115 S RON MCNAIR BLVD,SC,29560-3201
Hardee's,HAMPTON,1503692,1503692,306 ABERDEEN RD,VA,23661-1716
Hardee's,VIRDEN,1503694,1503694,905 N SPRINGFIELD ST,IL,62690-1027
Hardee's,PAOLI,1503695,1503695,789 NORTH GOSPEL,IN,47454-1419
Hardee's,SOPHIA,1503700,1503700,LESTER SQUARE RD,WV,25921-1303
Hardee's,LEITCHFIELD,1503701,1503701,406 S MAIN ST,KY,42754-1024
Hardee's,AIKEN,1503703,1503703,1733 WHISKEY RD,SC,29803-7337
Hardee's,BLOOMER,1503705,1503705,2070 19TH AVE,WI,54724-1509
Hardee's,CLARKSVILLE,1503707,1503707,2500 CLARK RD,AR,72830-3250
Hardee's,SOUTH BOSTON,1503714,1503714,1117 WILBORN AVE,VA,24592-3131
Hardee's,EAST MOLINE,1503716,1503716,4008 KENNEDY DR,IL,61244-3432
Hardee's,SLEEPY EYE,1503717,1503717,320 MAIN ST W,MN,56085-1332
Hardee's,ALMA,1503718,1503718,922 S PIERCE ST,GA,31510-3527
Hardee's,COLLINSVILLE,1503719,1503719,2927 VIRGINIA AVE,VA,24078-2245
Hardee's,CHATSWORTH,1503721,1503721,1099 NORTH THIRD AV,GA,30705-2117
Hardee's,BAINBRIDGE,1503724,1503724,1000 E SHOTWELL ST,GA,39819-4150
Hardee's,SOUTH SIOUX CITY,1503728,1503728,2405 DAKOTA AVE,NE,68776-3037
Hardee's,CLARKSBURG,1503730,1503730,722 E MAIN ST,WV,26301-3226
Hardee's,PRINCETON,1503734,1503734,1306 STAFFORD DR,WV,24740-2468
Hardee's,BELPRE,1503735,1503735,1801 WASHINGTON STREET,OH,45714-2027
Hardee's,WYTHEVILLE,1503736,1503736,1015 E MAIN ST,VA,24382-3307
Hardee's,ALLENDALE,1503738,1503738,601 RAILROAD AVENUE,SC,29810-4729
Hardee's,MAYNARDVILLE,1503742,1503742,2825 MAYNARDVILLE HWY,TN,37807-3031
Hardee's,POOLER,1503747,1503747,100 GOVERNOR TREUTLEN RD,GA,31322-3401
Hardee's,FRANKLIN,1503751,1503751,710 E MAIN ST,NC,28734-2674
Hardee's,OSHKOSH,1503753,1503753,2100 S KOELLER AVE,WI,54902-9202
Hardee's,HUTCHINSON,1503755,1503755,96 4TH AVE NW,MN,55350-1628
Hardee's,CLARKSVILLE,1503756,1503756,916 VIRGINIA AVE,VA,23927-9135
Hardee's,QUITMAN,1503757,1503757,302 S ARCHUSA AVE,MS,39355-2326
Hardee's,LAUREL,1503758,1503758,913 CHANTILLY ST,MS,39440-3689
Hardee's,SALEM,1503759,1503759,1255 ELECTRIC ROAD,VA,24153-6433
Hardee's,WILLIAMSBURG,1503761,1503761,6450 RICHMOND PLAZA,VA,23188-7201
Hardee's,NORFOLK,1503767,1503767,3908 PRINCESS ANNE ROAD,VA,23502-1542
Hardee's,OCEANA,1503768,1503768,W VIRGINIA ROUTE 10,WV,24870-6449
Hardee's,CHESAPEAKE,1503769,1503769,4006 BAINBRIDGE BLVD,VA,23324-1402
Hardee's,PETERSBURG,1503770,1503770,2135 COUNTY DRIVE,VA,23803-4707
Hardee's,GREENVILLE,1503771,1503771,840 N MAIN ST,KY,42345-1762
Hardee's,COSHOCTON,1503772,1503772,325 S 2ND ST,OH,43812-1904
Hardee's,SPRINGFIELD,1503773,1503773,801 BARDSTOWN ROAD,KY,40069-1509
Hardee's,DIXON,1503775,1503775,619 S GALENA ST,IL,61021-3758
Hardee's,ROANOKE,1503777,1503777,3011 HERSHBERGER ROAD,VA,24017-1837
Hardee's,MORRISON,1503778,1503778,200 N BASE ST,IL,61270-2447
Hardee's,KNIGHTDALE,1503782,1503782,905 N SMITHFIELD ROAD,NC,27545-7719
Hardee's,BATESVILLE,1503784,1503784,850 S ST LOUIS STREET,AR,72501-5833
Hardee's,CALHOUN,1503785,1503785,US 11 & TN HIGHWAY 163,TN,37309
Hardee's,RAINELLE,1503788,1503788,ROUTE 60 WEST,WV,25962-5962
Hardee's,FAYETTEVILLE,1503791,1503791,2309 GILLESPIE ST,NC,28306-3049
Hardee's,THOMASVILLE,1503792,1503792,1440 REMINGTON AVE,GA,31792-9704
Hardee's,QUITMAN,1503793,1503793,1300 W SCREVEN ST,GA,31643-1820
Hardee's,ROCK FALLS,1503797,1503797,503 FIRST AVE,IL,61071-1761
Hardee's,WAYNESBURG,1503798,1503798,100 SCHOOL ST,PA,15370-8130
Hardee's,MT VERNON,1503799,1503799,RT 25,KY,40456
Hardee's,YORKTOWN,1503800,1503800,5001 VICTORY BLVD,VA,23693-5601
Hardee's,CHATHAM,1503803,1503803,13689 US HIGHWAY 29,VA,24531-3614
Hardee's,MARIANNA,1503804,1503804,4652 E HIGHWAY 90,FL,32446-3501
Hardee's,GRAFTON,1503807,1503807,5408 GEORGE WASHINGTON HY,VA,23692-2762
Hardee's,MARSHFIELD,1503808,1503808,1618 S RODDIS AVE,WI,54449-4886
Hardee's,BIG CHIMNEY,1503809,1503809,4400 PENNSYLVANIA AVENUE,WV,25302-4700
Hardee's,BARNWELL,1503811,1503811,10262 DUNBARTON BLVD,SC,29812-1409
Hardee's,WILLIAMSBURG,1503813,1503813,538 2ND ST,VA,23185-4818
Hardee's,MARSHALL,1503816,1503816,1402 E COLLEGE DR,MN,56258-2027
Hardee's,SPRINGFIELD,1503817,1503817,1153 E ELM,MO,65806-2612
Hardee's,FAYETTEVILLE,1503820,1503820,3110 RAEFORD RD,NC,28303-5378
Hardee's,LOUISA,1503821,1503821,67 N HIGHWAY 3,KY,41230-6428
Hardee's,MARSHALLTOWN,1503824,1503824,902 S CENTER ST,IA,50158-3212
Hardee's,PRESTONSBURG,1503825,1503825,578 N LAKE DR,KY,41653-1278
Hardee's,CLINTON,1503826,1503826,117 S 2ND ST,IA,52732-4217
Hardee's,JACKSONVILLE,1503827,1503827,3001 RICHLANDS HIGHWAY,NC,28540-2944
Hardee's,SPRINGFIELD,1503828,1503828,1515 W BATTLEFIELD,MO,65807-4105
Hardee's,PORTSMOUTH,1503830,1503830,5705 PORTSMOUTH BLVD,VA,23701-1441
Hardee's,BREESE,1503835,1503835,8800 OLD US HIGHWAY 50,IL,62230-3916
Hardee's,COLONIAL HEIGHTS,1503836,1503836,801 TEMPLE AVENUE,VA,23834-2849
Hardee's,SPRUCE PINE,1503837,1503837,6187 HWY 19E N,NC,28777-8945
Hardee's,TAZEWELL,1503838,1503838,900 E FINCASTLE ST,VA,24651-1406
Hardee's,BEMIDJI,1503841,1503841,205 PAUL BUNYAN DR NW,MN,56601-2433
Hardee's,NORTON,1503845,1503845,475 WHARTON LN NE,VA,24273-1543
Hardee's,PORT ROYAL,1503846,1503846,1450 RIBAUT RD,SC,29935-1109
Hardee's,VIRGINIA BEACH,1503849,1503849,836 KEMPSVILLE ROAD,VA,23464-2744
Hardee's,MIDLOTHIAN,1503850,1503850,10210 HULL STREET ROAD,VA,23112-3302
Hardee's,RIDGEWAY,1503853,1503853,4800 GREENSBORO RD,VA,24148-3389
Hardee's,DURHAM,1503854,1503854,3912 NORTH DUKE STREET,NC,27704-1730
Hardee's,STEVENS POINT,1503856,1503856,3132 CHURCH STREET,WI,54481-5305
Hardee's,ESTHERVILLE,1503857,1503857,1736 CENTRAL AVE,IA,51334-2439
Hardee's,NEILLSVILLE,1503861,1503861,150 E DIVISION ST,WI,54456-2149
Hardee's,PICAYUNE,1503863,1503863,1102 MEMORIAL BLVD,MS,39466-4716
Hardee's,RICHMOND,1503865,1503865,11121 MIDLOTHIAN TURNPIKE,VA,23235-4711
Hardee's,ROANOKE,1503866,1503866,4060 ELECTRIC ROAD,VA,24018-0613
Hardee's,EVANSVILLE,1503867,1503867,4249 HIGHWAY 41 N,IN,47711-2876
Hardee's,CASPER,1503869,1503869,150 SE WYOMING BLVD,WY,82609-1906
Hardee's,DURHAM,1503873,1503873,2721 CHAPEL HILL RD,NC,27707-1902
Hardee's,OWENSBORO,1503874,1503874,2705 PARRISH AVE,KY,42301-2667
Hardee's,NORTHPORT,1503877,1503877,12001 HIGHWAY 43 N,AL,35475-4419
Hardee's,CONOVER,1503878,1503878,609 CONOVER BOULEVARD W,NC,28613-2921
Hardee's,DICKINSON,1503879,1503879,233 W VILLARD ST,ND,58601-5123
Hardee's,SPOTSYLVANIA,1503880,1503880,9811 COURTHOUSE RD,VA,22553-1701
Hardee's,ROANOKE RAPIDS,1503881,1503881,120 EAST 10TH ST,NC,27870-3819
Hardee's,BILLINGS,1503883,1503883,2404 CENTRAL AVE,MT,59102-4640
Hardee's,CLINTON,1503884,1503884,1616 EAST OHIO STREET,MO,64735-2431
Hardee's,SALUDA,1503888,1503888,US HW 17 & SR 33,VA,23149-1376
Hardee's,HIGHLAND SPRINGS,1503891,1503891,1120 E NINE MILE ROAD,VA,23075-2123
Hardee's,MATHEWS,1503898,1503898,27 MAIN ST,VA,23109-1492
Hardee's,NEW PHILADELPHIA,1503899,1503899,2333 E HIGH ST,OH,44663-3327
Hardee's,VALDOSTA,1503900,1503900,816 S PATTERSON ST,GA,31601-6035
Hardee's,CASPER,1503902,1503902,900 PRONGHORN ST,WY,82601-1740
Hardee's,CHATTANOOGA,1503906,1503906,4831 HWY 58,TN,37416-1826
Hardee's,BUFFALO,1503907,1503907,104 E HART ST,WY,82834-1705
Hardee's,ABERDEEN,1503909,1503909,1304 SANDHILLS BLVD N,NC,28315-2212
Hardee's,RICHLANDS,1503912,1503912,SECOND ST,VA,24641-2306
Hardee's,NEWBURGH,1503914,1503914,4033 BELL RD,IN,47630-2277
Hardee's,CRAWFORDVILLE,1503915,1503915,2994 CRAWFORDVILLE HWY,FL,32327-2302
Hardee's,GORDONSVILLE,1503918,1503918,110 W GORDON AVENUE,VA,22942-9610
Hardee's,BECKLEY,1503919,1503919,2004 HARPER,WV,25801-2614
Hardee's,KIRKSVILLE,1503920,1503920,1411 S BALTIMORE ST,MO,63501
Hardee's,FAIRMONT,1503921,1503921,2649 WHITE HALL BLVD,WV,26554-8225
Hardee's,SOUTH BOSTON,1503923,1503923,1010 BILL TUCK HIGHWAY BOX 6B,VA,24592-7134
Hardee's,ROANOKE,1503925,1503925,4201 WILLIAMSON ROAD NW,VA,24012-2818
Hardee's,DALTON,1503926,1503926,1301 CLEVELAND HWY,GA,30721-2605
Hardee's,SUMMERSVILLE,1503928,1503928,1401 WEBSTER ROAD,WV,26651-1523
Hardee's,ALEXANDRIA,1503930,1503930,605 50TH AVE W,MN,56308-9588
Hardee's,CHATHAM,1503931,1503931,331 N MAIN ST,IL,62629-1069
Hardee's,MOUNT VERNON,1503933,1503933,998 COSHOCTON AVE,OH,43050-1945
Hardee's,BILLINGS,1503934,1503934,608 N 27TH ST,MT,59101-1111
Hardee's,HELENA,1503940,1503940,320 EUCLID AVE,MT,59601-2852
Hardee's,POPLAR BLUFF,1503941,1503941,101 S WESTWOOD BLVD,MO,63901-5515
Hardee's,CLEVELAND,1503942,1503942,1651 25TH STREET NW,TN,37311-3612
Hardee's,ROANOKE,1503945,1503945,2398 PETERS CREEK RD NW,VA,24017-1621
Hardee's,MEDFORD,1503946,1503946,230 S EIGHTH STREET,WI,54451-1520
Hardee's,PERRY,1503950,1503950,2046 S BYRON BUTLER PKWY,FL,32348-5512
Hardee's,MARS HILL,1503957,1503957,844-B CARL ELLER RD,NC,28754-6003
Hardee's,NEVADA,1503958,1503958,200 W AUSTIN BLVD,MO,64772-3344
Hardee's,GRACEVILLE,1503959,1503959,5425 COTTON ST,FL,32440-1208
Hardee's,NORFOLK,1503962,1503962,377 CAMPOSTELLA ROAD,VA,23523-2203
Hardee's,DANVILLE,1503966,1503966,1314 W MAIN ST,VA,24541-4714
Hardee's,MILAN,1503967,1503967,US 67 & 3RD AVENUE,IL,61264
Hardee's,ELKINS,1503968,1503968,27 RANDOLPH AVENUE,WV,26241-4011
Hardee's,OCOEE,1503971,1503971,4083 HIGHWAY 411,TN,37361-3640
Hardee's,BISHOPVILLE,1503972,1503972,216 S MAIN ST,SC,29010-1420
Hardee's,NASHVILLE,1503973,1503973,620 SOUTH DAVIS,GA,31639-2445
Hardee's,FOREST CITY,1503974,1503974,126 N. 6TH ST.,IA,50436-1633
Hardee's,CASTLE HAYNE,1503975,1503975,5601 CASTLE HAYNE RD,NC,28429-5219
Hardee's,CHRISTIANSBURG,1503976,1503976,2880 MARKET STREET,VA,24073-6505
Hardee's,LAWRENCEBURG,1503977,1503977,1411 NORTH LOCUST,TN,38464-2209
Hardee's,SPRINGFIELD,1503978,1503978,600 W JEFFERSON ST,IL,62702-5036
Hardee's,MUNISING,1503979,1503979,525 MAPLE ST # 28,MI,49862-1045
Hardee's,CHESAPEAKE,1503980,1503980,1029 BATTLEFIELD BLVD NORTH,VA,23320-4733
Hardee's,PEARISBURG,1503981,1503981,528 N MAIN STREET,VA,24134-1527
Hardee's,SHELDON,1503982,1503982,505 2ND AVE,IA,51201-1102
Hardee's,CLEVELAND,1503984,1503984,2780 KEITH ST NW,TN,37312-3705
Hardee's,EXMORE,1503985,1503985,4151 LANKFORD HWY,VA,23350-2645
Hardee's,BLUEFIELD,1503990,1503990,901 BLUEFIELD AVE,WV,24701-2743
Hardee's,LEXINGTON,1503992,1503992,2990 RICHMOND RD,KY,40509-1713
Hardee's,VIRGINIA BEACH,1503993,1503993,3342 VIRGINIA BEACH BLVD,VA,23452-5620
Hardee's,GRUNDY,1503995,1503995,24429 RIVERSIDE DR,VA,24614-6135
Hardee's,ZEBULON,1504000,1504000,607 W GANNON ST,NC,27597-2511
Hardee's,BURNSVILLE,1504001,1504001,318 W US HIGHWAY 19E BYP,NC,28714-6326
Hardee's,LYNCHBURG,1504004,1504004,3750 CANDLERS MOUNTAIN RD,VA,24502-2228
Hardee's,BAMBERG,1504005,1504005,100 NORTH MAIN STREET,SC,29003
Hardee's,KINGWOOD,1504007,1504007,405 MAIN ST,WV,26537-1701
Hardee's,HARDINSBURG,1504010,1504010,1120 OLD HWY 60 EAST,KY,40143-2520
Hardee's,JACKSON,1504013,1504013,HIGHWAY 15,KY,41339-9600
Hardee's,MINOT,1504016,1504016,2000 S BROADWAY,ND,58701-6502
Hardee's,RICHMOND,1504017,1504017,3201 E. PARHAM ROAD,VA,23228-2829
Hardee's,STUARTS DRAFT,1504019,1504019,2578 STUARTS DRAFT HWY,VA,24477-3154
Hardee's,MORGANTOWN,1504020,1504020,127 VETERANS WAY,KY,42261-8842
Hardee's,CHESAPEAKE,1504021,1504021,109 S GEORGE WASHINGTON,VA,23323-1707
Hardee's,CHATTANOOGA,1504023,1504023,6305 RINGGOLD ROAD,TN,37412-3833
Hardee's,LEBANON,1504027,1504027,1300 S JEFFERSON,MO,65536-3732
Hardee's,BELMONT,1504034,1504034,611 NORTH MAIN STREET,NC,28012-3137
Hardee's,EAU CLAIRE,1504037,1504037,1000 WEST CLAIREMONT,WI,54701-6123
Hardee's,SCOTTSBORO,1504040,1504040,23470 JOHN T REID PKWY,AL,35768-2350
Hardee's,SAINT MATTHEWS,1504041,1504041,401 S HARRY C RAYSOR DR,SC,29135-1481
Hardee's,PEARSON,1504042,1504042,203 N MAIN ST,GA,31642-7861
Hardee's,BIG STONE GAP,1504047,1504047,711 WOOD AVE E,VA,24219-3023
Hardee's,DAVENPORT,1504053,1504053,1715 DIVISION ST,IA,52804-3534
Hardee's,RICHMOND HILL,1504056,1504056,9878 FORD AVE,GA,31324-6400
Hardee's,HARRISON,1504169,1504169,1111 HIGHWAY 62 65 N,AR,72601-2017
Hardee's,LAUREL,1504173,1504173,30759 SUSSEX HWY,DE,19956-4425
Hardee's,FORT WALTON BEACH,1504176,1504176,822 BEAL PKWY NW,FL,32547-1905
Hardee's,MELBOURNE,1504182,1504182,3992 S BABCOCK ST,FL,32901-8212
Hardee's,MINNEOLA,1504191,1504191,810 N US HWY 27,FL,34715-6821
Hardee's,DELAND,1504192,1504192,1098 W INTERNATIONAL SPEEDWAY BLVD,FL,32720-0967
Hardee's,SANFORD,1504193,1504193,5690 W STATE ROAD 46,FL,32771-9238
Hardee's,RUSKIN,1504198,1504198,402 S TAMIAMI TRAIL,FL,33570
Hardee's,OCALA,1504200,1504200,6155 SR 200,FL,34476-5557
Hardee's,EAST PALATKA,1504201,1504201,241 US HWY 17 S,FL,32131-4087
Hardee's,LINCOLNTON,1504205,1504205,112 ELM STREET,GA,30817-4200
Hardee's,INDIANAPOLIS,1504226,1504226,4915 E. 56TH STREET,IN,46220-5719
Hardee's,HODGENVILLE,1504232,1504232,101 LINCOLN DR,KY,42748-9780
Hardee's,GLASGOW,1504235,1504235,732 E MAIN STREET,KY,42141-2734
Hardee's,SCIENCE HILL,1504237,1504237,5705 N HIGHWAY 27,KY,42553-9139
Hardee's,GLASGOW,1504238,1504238,240 S L ROGER WELLS BLVD,KY,42141-1129
Hardee's,WALKER,1504248,1504248,204 MINNESOTA AVENUE,MN,56484-2189
Hardee's,SPRINGFIELD,1504251,1504251,3312 E CHESTNUT EXPY,MO,65802-6302
Hardee's,LAKE SAINT LOUIS,1504252,1504252,10 CENTRE ON THE LAKE,MO,63367-2938
Hardee's,ROGERSVILLE,1504257,1504257,412 S MILL ST,MO,65742-7601
Hardee's,DUNN,1504266,1504266,873 LONG BRANCH RD,NC,28334-6374
Hardee's,MAYSVILLE,1504267,1504267,701 MAIN ST,NC,28555-9900
Hardee's,SEVILLE,1504285,1504285,8750 WOOSTER PIKE,OH,44273-9363
Hardee's,JEFFERSON,1504286,1504286,65 S CHESTNUT ST,OH,44047-1310
Hardee's,STRASBURG,1504288,1504288,782 S WOOSTER AVENUE,OH,44680-9702
Hardee's,AKRON,1504289,1504289,2695 GILCHRIST RD,OH,44305-4411
Hardee's,MINERVA,1504291,1504291,709 E LINCOLN WAY,OH,44657-1209
Hardee's,WILLOUGHBY,1504298,1504298,36900 VINE ST,OH,44094-6341
Hardee's,MARION,1504312,1504312,4641 W. HWY 76,SC,29571-7745
Hardee's,SUMMERVILLE,1504314,1504314,2187 N MAIN ST,SC,29483
Hardee's,ENOREE,1504316,1504316,3883 CROSS ANCHOR ROAD,SC,29335-2200
Hardee's,BELLE FOURCHE,1504317,1504317,2504 FIFTH AVE,SD,57717-2275
Hardee's,ATHENS,1504319,1504319,1219 CONGRESS PKWY S,TN,37303-4906
Hardee's,DAYTON,1504320,1504320,7474 RHEA COUNTY HWY,TN,37321-5910
Hardee's,ETOWAH,1504323,1504323,HWY 411,TN,37331
Hardee's,LENOIR CITY,1504324,1504324,TENNESSEE HIGHWAY 95,TN,37771
Hardee's,MADISONVILLE,1504325,1504325,4750 NEW HIGHWAY 68,TN,37354-1287
Hardee's,LOUDON,1504326,1504326,2212 HWY 72 NORTH,TN,37774-5718
Hardee's,DUNLAP,1504327,1504327,RAIKIN AVENUE & NORTH,TN,37327-7027
Hardee's,ATHENS,1504330,1504330,1831 HOLIDAY DR,TN,37303-4951
Hardee's,ATHENS,1504331,1504331,104 S WHITE ST,TN,37303-4260
Hardee's,SPRING CITY,1504332,1504332,177 FRONT STREET,TN,37381-5078
Hardee's,TELLICO PLAINS,1504333,1504333,127 BANK ST,TN,37385-4907
Hardee's,VONORE,1504334,1504334,1001 HIGHWAY 411,TN,37885-2442
Hardee's,DECATUR,1504335,1504335,17659 STATE HIGHWAY 58 N,TN,37322-7835
Hardee's,MARYVILLE,1504336,1504336,2601 US HIGHWAY 411 S,TN,37801-8637
Hardee's,WHEELING,1504338,1504338,855 NATIONAL RD,WV,26003-6438
Hardee's,CITRONELLE,1504341,1504341,19765 N 3RD ST,AL,36522-4013
Hardee's,BELHAVEN,1504342,1504342,870 HWY 264 EAST,NC,27810-9771
Hardee's,SCOTLAND NECK,1504343,1504343,608 SOUTH MAIN STREET,NC,27874-1148
Hardee's,LEXINGTON,1504345,1504345,1910 S LAKE DR,SC,29073-8282
Hardee's,OLD TOWN,1504350,1504350,US HWY 19 & SR 349 N,FL,32680-3997
Hardee's,VINCENNES,1504360,1504360,1906 HART STREET,IN,47591-5520
Hardee's,SANFORD,1504362,1504362,2255 JEFFERSON DAVIS HWY,NC,27330-8973
Hardee's,LAKELAND,1504365,1504365,89 VALDOSTA RD,GA,31635
Hardee's,ASHEVILLE,1504864,1504864,71 HENDERSONVILLE RD,NC,28803-2648
Hardee's,ASHEVILLE,1504875,1504875,307 SMOKEY PARK HWY,NC,28806-1026
Hardee's,GREENWOOD,1505048,1505048,630 BYPASS 25 NE,SC,29646-3028
Hardee's,IOWA,1505304,1505304,1118 LOWE GROUT RD,LA,70647-3759
Hardee's,ANDERSON,1505326,1505326,102 HWY 28 BYPASS,SC,29624-3742
Hardee's,JESUP,1505327,1505327,1090 N 1ST ST,GA,31545-1616
Hardee's,COLBY,1505328,1505328,1210 N DIVISION ST,WI,54421-9423
Hardee's,CHEROKEE,1505329,1505329,1607 ACQUIONA RD,NC,28719-0498
Hardee's,GREENWOOD,1505332,1505332,102 COMMONS DR,SC,29649-1335
Hardee's,SEVIERVILLE,1505333,1505333,1260 PARKWAY (US441),TN,37862-6847
Hardee's,SALISBURY,1505334,1505334,2403 N SALISBURY BLVD,MD,21801-2138
Hardee's,JEFFERSON CITY,1505335,1505335,546 E BROADWAY BLVD.,TN,37760-2905
Hardee's,PIGEON FORGE,1505336,1505336,3046 PARKWAY,TN,37863-3312
Hardee's,PARKERSBURG,1505345,1505345,4327 EMERSON AVE.,WV,26104-1217
Hardee's,HERMANN,1505348,1505348,115 A STATE HIGHWAY 19,MO,65041-1435
Hardee's,ANDREWS,1505352,1505352,2765 STEWART RD,NC,28901-8118
Hardee's,GRAYSON,1505354,1505354,801 NORTH CAROL MALONE BLVD.,KY,41143-1127
Hardee's,JOPLIN,1505369,1505369,4013 HWY 43,MO,64804-9001
Hardee's,FREEPORT,1505383,1505383,979 STATE HWY 20 E,FL,32439-3933
Hardee's,GILBERT,1505396,1505396,HIGHWAY 52 & STATE HWY 80,WV,25621
Hardee's,PANAMA CITY,1505402,1505402,3439 HIGHWAY 77,FL,32405-5009
Hardee's,RICHMOND,1505403,1505403,2698 US HIGHWAY 35 N,IN,47374-1380
Hardee's,EVANS,1505404,1505404,4360 WASHINGTON RD,GA,30809-3938
Hardee's,EMPORIA,1505410,1505410,101 MARKET STREET EMPORIA,VA,23847-1277
Hardee's,NEWLAND,1505412,1505412,570 PINEOLA ST,NC,28657
Hardee's,RUSTBURG,1505415,1505415,889 VILLAGE HWY,VA,24588
Hardee's,LOCUST,1505421,1505421,512 W MAIN ST,NC,28097-9710
Hardee's,INDIANAPOLIS,1505437,1505437,3005 W 86TH ST,IN,46268-3602
Hardee's,DELMAR,1505439,1505439,9521 OCEAN HWY,MD,21875-2341
Hardee's,TECUMSEH,1505440,1505440,8000 SE I-70,KS,66542
Hardee's,BOWLING GREEN,1505447,1505447,2370 RUSSELLVILLE RD,KY,42101-3908
Hardee's,INDIANAPOLIS,1505464,1505464,5160 SOUTHPORT ROAD,IN,46237-9601
Hardee's,GREENFIELD,1505465,1505465,1881 N. STATE ST,IN,46140-1087
Hardee's,PELHAM,1505466,1505466,135 CURRY ST NE,GA,31779-1310
Hardee's,CRESTWOOD,1505468,1505468,10224 BIG BEND RD,MO,63122-6426
Hardee's,WENTZVILLE,1505482,1505482,1944 WENTZVILLE PARKWAY,MO,63385-3453
Hardee's,MOYOCK,1505485,1505485,410 CARATOKE HWY,NC,27958-8672
Hardee's,HAZEL PARK,1505503,1505503,23240 JOHN R RD,MI,48030-1474
Hardee's,WATERLOO,1505504,1505504,912 N MARKET,IL,62298-1077
Hardee's,SWEETWATER,1505505,1505505,730 NEW HWY 68,TN,37874-1912
Hardee's,CLAYTON,1505506,1505506,12872 US 70 HWY W,NC,27520-2167
Hardee's,EFFINGHAM,1505508,1505508,1505 W FAYETTE AVE,IL,62401-1972
Hardee's,ROCKY POINT,1505515,1505515,8081 US HIGHWAY 117 S,NC,28457-8413
Hardee's,CORBIN,1505519,1505519,222 HIGHWAY 770,KY,40701-4732
Hardee's,ROSCOE,1505520,1505520,13477 QUALITY DR,IL,61073-9762
Hardee's,TIFTON,1505521,1505521,178 SOUTHWELL BLVD,GA,31794-9683
Hardee's,LINTHICUM,1505523,1505523,718 NURSERY RD,MD,21090-1409
Hardee's,LEXINGTON,1505528,1505528,4301 SUNSET BLVD,SC,29072-9147
Hardee's,BURBANK,1505529,1505529,10145 AVON LAKE RD,OH,44214-9618
Hardee's,SODDY DAISY,1505531,1505531,9398 RECO DR,TN,37379-4811
Hardee's,SMITHFIELD,1505533,1505533,1262 N BRIGHTLEAF BLVD,NC,27577-4246
Hardee's,STERLING HEIGHTS,1505535,1505535,35155 MOUND RD,MI,48310-4716
Hardee's,INDIANAPOLIS,1505540,1505540,LEVY PREMIUM FOODSERVICE LIMITED PARTNER,IN,46204-3610
Hardee's,STEDMAN,1505541,1505541,5189 CLINTON RD,NC,28391-9516
Hardee's,MARSHALL,1505543,1505543,18720 PARTELLO RD,MI,49068-8308
Hardee's,NORFOLK,1505544,1505544,5859 E VIRGINIA BEACH BLVD,VA,23502-2423
Hardee's,BLYTHEWOOD,1505545,1505545,100 CREECH RD,SC,29016-8283
Hardee's,ROCKINGHAM,1505546,1505546,481 US HIGHWAY 1 S,NC,28379-8983
Hardee's,INTERNATIONAL FALLS,1505547,1505547,1600 HIGHWAY 71,MN,56649-2161
Hardee's,ALBERTVILLE,1505548,1505548,11024 US HIGHWAY 431,AL,35950-0124
Hardee's,SMYRNA,1505551,1505551,100 JIMMY DR,DE,19977-5805
Hardee's,CHESTERFIELD,1505552,1505552,17368 CHESTERFIELD AIRPORT RD,MO,63005-1413
Hardee's,KANSAS CITY,1505557,1505557,13628 WASHINGTON AVE,MO,64145-1670
Hardee's,KNOXVILLE,1505560,1505560,7201 KINGSTON PIKE,TN,37919-5602
Hardee's,KNOXVILLE,1505561,1505561,6760 CLINTON HWY,TN,37912-1018
Hardee's,LANCASTER,1505562,1505562,297 LANCASTER BYP E,SC,29720-4757
Hardee's,JONESBORO,1505577,1505577,1331 STADIUM BLVD,AR,72401-4580
Hardee's,ALBEMARLE,1505583,1505583,705 LEONARD AVE,NC,28001-5257
Hardee's,NEWPORT NEWS,1505584,1505584,13165 JEFFERSON AVE,VA,23608-1306
Hardee's,VIDALIA,1505596,1505596,706 E 1ST ST,GA,30474-4209
Hardee's,CARLYLE,1505597,1505597,1251 12TH ST,IL,62231-1242
Hardee's,JEFFERSONVILLE,1505598,1505598,13023 US HIGHWAY 35 NW,OH,43128-9508
Hardee's,JACKSONVILLE,1505603,1505603,675 NAUTICA DR,FL,32218-7222
Hardee's,SPARTANBURG,1505604,1505604,214 CEDAR SPRINGS RD,SC,29302-4626
Hardee's,GRANT,1505607,1505607,3541 CATHEDRAL CAVERNS HWY,AL,35747-9269
Hardee's,VALLEY PARK,1505608,1505608,902 MERAMEC STATION RD,MO,63088-2042
Hardee's,BOONVILLE,1505609,1505609,2501 W ASHLEY RD,MO,65233-2870
Hardee's,BURGAW,1505610,1505610,500 US HIGHWAY 117,NC,28425-5002
Hardee's,GOOCHLAND,1505612,1505612,1945 SANDY HOOK RD,VA,23063-3109
Hardee's,CHILHOWIE,1505616,1505616,506 WHITETOP RD,VA,24319
Hardee's,FARIBAULT,1505617,1505617,1940 CARDINAL LN,MN,55021-7384
Hardee's,SAINT LOUIS,1505621,1505621,601 CHESTNUT ST,MO,63101-1817
Hardee's,DARLINGTON,1505632,1505632,217 S MAIN ST,SC,29532-3960
Hardee's,BRIDGETON,1505637,1505637,124 C ST,NC,28519
Hardee's,NORTH CHARLESTON,1505639,1505639,4954 CENTRE POINTE DR,SC,29418-6927
Hardee's,MIDDLETOWN,1505640,1505640,340 DOVE RUN DR,DE,19709-7912
Hardee's,OAKDALE,1505651,1505651,220 N OAKWOOD ST,WI,54660-5193
Hardee's,MOBILE,1505653,1505653,565 GOVERNMENT ST,AL,36602-2019
Hardee's,OWENS CROSS ROADS,1505655,1505655,2515 MOUNTAIN COVE DR,AL,35763-7204
Hardee's,MERIDIANVILLE,1505658,1505658,11909 HIGHWAY 231 431 N,AL,35759-2127
Hardee's,SURFSIDE BEACH,1505666,1505666,8715 HIGHWAY 17 BYP S,SC,29575-7711
Hardee's,BUFORD,1505671,1505671,2686 HAMILTON MILL RD,GA,30519-4105
Hardee's,PENSACOLA,1505677,1505677,805 N NAVY BLVD,FL,32507-1245
Hardee's,ATMORE,1505678,1505678,25 LAKEVIEW CIR,AL,36502-6311
Hardee's,HELENA,1505680,1505680,1919 E CUSTER AVE,MT,59602-1220
Hardee's,WOODSTOCK,1505681,1505681,2075 TOWNE LAKE PKWY,GA,30189-1594
Hardee's,WAYCROSS,1505682,1505682,2609 PLANT AVE,GA,31501-6062
Hardee's,BELLEVILLE,1505684,1505684,2516 GREEN MOUNT COMMONS DR,IL,62221-6741
Hardee's,BOWLING GREEN,1505685,1505685,241 BRENNER ST,KY,42101-8001
Hardee's,BETTENDORF,1505686,1505686,1930 STATE ST,IA,52722-4944
Hardee's,COURTLAND,1505688,1505688,28384 SOUTHAMPTON PKWY,VA,23837
Hardee's,MONTGOMERY,1505690,1505690,906 ANN ST,AL,36107-2902
Hardee's,NEWBERRY,1505692,1505692,1242 WILSON RD,SC,29108-4008
Hardee's,DAWSON,1505693,1505693,899 FORRESTER DR SE,GA,39842-2044
Hardee's,HIGH POINT,1505694,1505694,2850 N MAIN ST,NC,27265-2827
Hardee's,WINSTON SALEM,1505696,1505696,3351 SIDES BRANCH RD,NC,27127-6852
Hardee's,HAYES,1505698,1505698,2398 GEORGE WASHINGTON MEM HWY,VA,23072-3554
Hardee's,OTTAWA,1505699,1505699,203 E 27TH AVE,KS,66067-3821
Hardee's,MITCHELL,1505701,1505701,1025 CABELA DR,SD,57301-6900
Hardee's,GASTONIA,1505706,1505706,2135 N CHESTER ST,NC,28052-1838
Hardee's,ANDERSON,1505707,1505707,100 FRITZ DR,SC,29621-1305
Hardee's,HERTFORD,1505708,1505708,2000 OCEAN BLVD,NC,27944
Hardee's,MORTON,1505711,1505711,120 W ASHLAND STREET,IL,61550-1424
Hardee's,MONTGOMERY,1505713,1505713,2715 TAYLOR RD,AL,36117-6849
Hardee's,MCDONOUGH,1505722,1505722,1575 HIGHWAY 20 W,GA,30253-7308
Hardee's,OMAHA,1505724,1505724,12424 L ST,NE,68137-2265
Hardee's,PITTSBURG,1505731,1505731,1015 S BROADWAY ST,KS,66762-5859
Hardee's,CEDAR RAPIDS,1505735,1505735,3505 29TH AVE SW,IA,52404-3115
Hardee's,WATERLOO,1505736,1505736,1410 FLAMMANG DR,IA,50702-4368
Hardee's,LOGANVILLE,1505740,1505740,4360 ATLANTA HWY,GA,30052-3262
Hardee's,DES MOINES,1505741,1505741,1449 E EUCLID AVE,IA,50316-1316
Hardee's,BELLEVUE,1505744,1505744,7102 HIGHWAY 70 S,TN,37221-2901
Hardee's,FRANKLINTON,1505745,1505745,3257 U.S. HIGHWAY 1,NC,27525
Hardee's,DWIGHT,1505746,1505746,12 W NORTHBROOK DR,IL,60420
Hardee's,HUNTSVILLE,1505749,1505749,104 GREEN COVE RD SE,AL,35803-3004
Hardee's,ZIMMERMAN,1505752,1505752,12520 FREMONT AVE,MN,55398-9747
Hardee's,SPRINGFIELD,1505757,1505757,3217 E CLEAR LAKE AVE,IL,62702-6207
Hardee's,OCALA,1505760,1505760,2225 SW 19TH AVENUE RD,FL,34471-7751
Hardee's,STRAFFORD,1505762,1505762,400 N STATE HWY 125,MO,65757-9461
Hardee's,WAVELAND,1505764,1505764,342 HIGHWAY 90,MS,39576-2672
Hardee's,MOBILE,1505769,1505769,930 SCHILLINGER RD S,AL,36695-8913
Hardee's,PASCAGOULA,1505771,1505771,2241 DENNY AVE,MS,39567-3415
Hardee's,CLINTON,1505772,1505772,1514 SUNSET AVE,NC,28328-3828
Hardee's,BROOKINGS,1505776,1505776,2324 6TH ST,SD,57006-2404
Hardee's,SIOUX FALLS,1505777,1505777,1010 E 10TH ST,SD,57103-1616
Hardee's,SIOUX FALLS,1505778,1505778,4801 W 12TH ST,SD,57106-0305
Hardee's,SIOUX FALLS,1505779,1505779,2900 S MINNESOTA AVE,SD,57105-5645
Hardee's,GAINESVILLE,1505785,1505785,7300 W NEWBERRY RD,FL,32605-4321
Hardee's,PANAMA CITY BEACH,1505786,1505786,11769 PANAMA CITY BEACH PKWY,FL,32407-2507
Hardee's,HUNTSVILLE,1505787,1505787,3751 AL HIGHWAY 53,AL,35806
Hardee's,MARION,1505791,1505791,3808 S WESTERN AVE,IN,46953-4901
Hardee's,EUFAULA,1505792,1505792,3194 S EUFAULA AVE,AL,36027-4406
Hardee's,MORRILTON,1505794,1505794,1808 E HARDING ST,AR,72110-4508
Hardee's,SPRINGVILLE,1505799,1505799,39 SPRINGVILLE STA,AL,35146
Hardee's,ST. CLOUD,1505800,1505800,151 COUNTY ROAD 120,MN,56303
Hardee's,FARGO,1505802,1505802,3072 45TH ST,ND,58104
Hardee's,FOLEY,1505803,1505803,2935 S MCKENZIE ST,AL,36535-3415
Hardee's,LE MARS,1505804,1505804,1205 HAWKEYE AVE SW,IA,51031-1865
Hardee's,LITTLE ROCK,1505805,1505805,11700 INTERSTATE 30,AR,72210-7023
Hardee's,ROGERS,1505818,1505818,14086 NORTHDALE BLVD,MN,55374
Hardee's,BEAR,1505819,1505819,1801 PULASKI HWY,DE,19701-1731
Hardee's,GAS CITY,1505820,1505820,4950 BEANER BLVD,IN,46933-9788
Hardee's,BURLINGTON,1505826,1505826,907 LAWRENCE DR,IA,52601
Hardee's,PENSACOLA,1505834,1505834,12275 LILLIAN HWY,FL,32506
Hardee's,CONWAY,1505836,1505836,1055 DAVE WARD DR,AR,72034
Hardee's,WASHINGTON,1505843,1505843,2427 W 5TH ST,NC,27889
Hardee's,LOVES PARK,1505845,1505845,1550 E RIVERSIDE BLVD,IL,61111
Hardee's,COVINGTON,1505846,1505846,3112 HWY 278 W,GA,30014-2304
Hardee's,ASHEVILLE,1505854,1505854,1834 HENDERSONVILLE RD,NC,28803-3207
Hardee's,MORRISTOWN,1505859,1505859,106 THOROUGHBRED RUN RD,TN,37813-3907
Hardee's,MARINETTE,1505868,1505868,2205 HALL AVE,WI,54143
Hardee's,DES MOINES,1505869,1505869,915 ARMY POST RD,IA,50315
Hardee's,CHALMETTE,1505877,1505877,8400 W JUDGE PEREZ,LA,70043
Hardee's,CHARLESTON,1505879,1505879,1651 LAUDERDALE MEMORIAL HWY,TN,37310
Hardee's,MANITOWOC,1505880,1505880,3900 CALUMET AVE,WI,54220-5438
Hardee's,NEW CASTLE,1505881,1505881,129 S MEMORIAL DR,IN,47362-4947
Hardee's,HIGH POINT,1505884,1505884,3912 SEDGEBROOK ST,NC,27265-8703
Hardee's,ROSWELL,1505887,1505887,891 HOLCOMB BRIDGE RD,GA,30075
Hardee's,LAWRENCEVILLE,1505890,1505890,630 BUFORD DR,GA,30046
Hardee's,HOOVER,1505894,1505894,2162 VALLEYDALE RD,AL,35244-2009
Hardee's,FAYETTEVILLE,1505895,1505895,975 N GLYNN ST,GA,30214-1380
Hardee's,NORTH AUGUSTA,1505896,1505896,313 EDGEFIELD RD,SC,29841-2410
Hardee's,NEW ULM,1505900,1505900,1710 WESTRIDGE RD,MN,56073
Hardee's,THIBODAUX,1505902,1505902,1653 ST MARY ST,LA,70301
Hardee's,BRYANT,1505904,1505904,2006 N REYNOLDS RD,AR,72022
Hardee's,HAZLEHURST,1505905,1505905,21 E COFFEE ST,GA,31539
Hardee's,WINDER,1505920,1505920,113 N BROAD ST,GA,30680
Hardee's,LAFAYETTE,1505921,1505921,108 E KALISTE SALOOM RD,LA,70508
Hardee's,EL DORADO,1505929,1505929,KANSAS TURNPIKE - MILEPOST 65,KS,67042
Hardee's,CASSODAY,1505930,1505930,KANSAS TURNPIKE - MILEPOST 97,KS,66842
Hardee's,MULLINS,1505936,1505936,2680 E HIGHWAY 76,SC,29574
Hardee's,BOLINGBROOK,1505955,1505955,200 N BOLINGBROOK DR,IL,60440
Hardee's,MIDLOTHIAN,1505958,1505958,14747 S CICERO ST,IL,60445
Hardee's,APPLETON,1505969,1505969,3401 N BALLARD RD,WI,54911-8487
Hardee's,North Charleston,2000004,2000004,5055 International Blvd,SC,29418
