keywords,city,Aggdata Store Number,store_number,address,state,zip_code
Hobby Lobby,Edmond,1,1 #1 #01 #001,3160 S. Broadway,OK,73013
Hobby Lobby,Tulsa,3,3 #3 #03 #003,9717 E. 71st Street,OK,74133
Hobby Lobby,Midwest City,4,4 #4 #04 #004,1401 Gateway Plaza,OK,73110
Hobby Lobby,Stillwater,5,5 #5 #05 #005,521 N. Perkins Rd,OK,74075
Hobby Lobby,Muskogee,6,6 #6 #06 #006,2224 E. Shawnee Bypass,OK,74403
Hobby Lobby,Oklahoma City,7,7 #7 #07 #007,2213 W. I-240 Service Road,OK,73159
Hobby Lobby,Enid,8,8 #8 #08 #008,610 S. Cleveland Suite 312,OK,73703
Hobby Lobby,Las Cruces,10,10 #10 #010 #0010,2350-A E. Lohman,NM,88001
Hobby Lobby,Tulsa,11,11 #11 #011 #0011,5130 S. Harvard,OK,74135
Hobby Lobby,Webster,12,12 #12 #012 #0012,20091 Gulf Freeway,TX,77598
Hobby Lobby,Ponca City,13,13 #13 #013 #0013,2904 North 14th St,OK,74601
Hobby Lobby,North Little Rock,14,14 #14 #014 #0014,4701 J.F.K. Blvd,AR,72116
Hobby Lobby,Norman,15,15 #15 #015 #0015,2417 W. Main St.,OK,73069
Hobby Lobby,Wichita,16,16 #16 #016 #0016,665 N. Ridge Rd.,KS,67212
Hobby Lobby,Aurora,17,17 #17 #017 #0017,441 Sable Blvd,CO,80011
Hobby Lobby,Thornton,18,18 #18 #018 #0018,550 Thornton Parkway,CO,80229
Hobby Lobby,Colorado Springs,19,19 #19 #019 #0019,6950 N. Academy Blvd.,CO,80918
Hobby Lobby,Overland Park,20,20 #20 #020 #0020,7104 W. 119th St.,KS,66213
Hobby Lobby,Louisville,21,21 #21 #021 #0021,1345 S. Boulder Rd.,CO,80027
Hobby Lobby,Kansas City,22,22 #22 #022 #0022,6130 N.W.Barry Road,MO,64154
Hobby Lobby,Loveland,23,23 #23 #023 #0023,3133 N. Garfield Ave.,CO,80538
Hobby Lobby,Owasso,25,25 #25 #025 #0025,9002 N. 121st E. Ave. Suite 100,OK,74055
Hobby Lobby,Lawrence,26,26 #26 #026 #0026,1801 W. 23rd Street,KS,66046
Hobby Lobby,Colorado Springs,27,27 #27 #027 #0027,525 S 8th St.,CO,80905
Hobby Lobby,Lawton,28,28 #28 #028 #0028,36 N Sheridan Rd,OK,73505
Hobby Lobby,Blue Springs,29,29 #29 #029 #0029,500 N W State Rt 7,MO,64014
Hobby Lobby,Arvada,30,30 #30 #030 #0030,7815 Wadsworth,CO,80003
Hobby Lobby,Tyler,31,31 #31 #031 #0031,1909 ESE Loop 323,TX,75701
Hobby Lobby,Springfield,32,32 #32 #032 #0032,1535 Battlefield Road,MO,65804
Hobby Lobby,Amarillo,33,33 #33 #033 #0033,3318 Bell St.,TX,79106
Hobby Lobby,Longmont,34,34 #34 #034 #0034,800 S. Hover,CO,80501
Hobby Lobby,Longview,36,36 #36 #036 #0036,305-A W Loop 281,TX,75605
Hobby Lobby,Austin,37,37 #37 #037 #0037,9600 S. IH-35 Suite L,TX,78748
Hobby Lobby,Littleton,38,38 #38 #038 #0038,4887 S. Wadsworth Way Ste 100,CO,80123
Hobby Lobby,Wichita Falls,39,39 #39 #039 #0039,2805 Southwest Pkwy.,TX,76308
Hobby Lobby,Conway,40,40 #40 #040 #0040,150 E Oak St,AR,72032
Hobby Lobby,Bartlesville,41,41 #41 #041 #0041,564 SE Washington Blvd.,OK,74006
Hobby Lobby,Beckley,43,43 #43 #043 #0043,110 Beckley Crossing #7100-10,WV,25801
Hobby Lobby,Lubbock,44,44 #44 #044 #0044,6814 Slide Road,TX,79424
Hobby Lobby,Austin,45,45 #45 #045 #0045,8000 Research Blvd.,TX,78758
Hobby Lobby,Jefferson City,46,46 #46 #046 #0046,2235 Missouri Blvd.,MO,65109
Hobby Lobby,Victoria,47,47 #47 #047 #0047,8404 N. Navarro,TX,77904
Hobby Lobby,Temple,48,48 #48 #048 #0048,2112 S.W. HK Dodgen Loop #112,TX,76504
Hobby Lobby,Albuquerque,49,49 #49 #049 #0049,"700A Juan Tabo Blvd.,NE",NM,87123
Hobby Lobby,Jonesboro,50,50 #50 #050 #0050,1843-A Highland Dr,AR,72401
Hobby Lobby,Omaha,51,51 #51 #051 #0051,13780 Millard Ave.,NE,68137
Hobby Lobby,Round Rock,52,52 #52 #052 #0052,130 Sundance Parkway #200,TX,78681
Hobby Lobby,Fort Collins,53,53 #53 #053 #0053,4106 S College Ave. #101,CO,80525
Hobby Lobby,Cape Girardeau,54,54 #54 #054 #0054,207-A Kingshighway,MO,63703
Hobby Lobby,Rogers,55,55 #55 #055 #0055,"100 N. Dixieland Rd., Suite A-1",AR,72756
Hobby Lobby,Englewood,57,57 #57 #057 #0057,401 Englewood Parkway,CO,80110
Hobby Lobby,San Antonio,58,58 #58 #058 #0058,5855 Rogers Road,TX,78251
Hobby Lobby,Lincoln,59,59 #59 #059 #0059,"2600 S. 48th, Suite 19",NE,68506
Hobby Lobby,Topeka,61,61 #61 #061 #0061,1900 SW Wanamaker Rd.,KS,66604
Hobby Lobby,Joplin,62,62 #62 #062 #0062,1315 Range Line Road,MO,64801
Hobby Lobby,Denver,63,63 #63 #063 #0063,920 S Monaco Pkwy.,CO,80224
Hobby Lobby,Salina,64,64 #64 #064 #0064,2450 S 9th St. #400,KS,67401
Hobby Lobby,College Station,65,65 #65 #065 #0065,1903 Texas Ave. South,TX,77840
Hobby Lobby,Corpus Christi,66,66 #66 #066 #0066,"5425 S Padre Island Dr, Ste. 136B",TX,78411
Hobby Lobby,Albuquerque,67,67 #67 #067 #0067,4315 Wyoming St NE,NM,87111
Hobby Lobby,San Antonio,68,68 #68 #068 #0068,4522 Fredericksburg #B-91,TX,78201
Hobby Lobby,Oklahoma City,69,69 #69 #069 #0069,7012 NW Expressway,OK,73132
Hobby Lobby,Albuquerque,70,70 #70 #070 #0070,9350 Eagle Ranch NW,NM,87114
Hobby Lobby,Lees Summit,71,71 #71 #071 #0071,1015 NE Rice Road,MO,64086
Hobby Lobby,Kearney,72,72 #72 #072 #0072,11 W 39th St,NE,68847
Hobby Lobby,Springfield,73,73 #73 #073 #0073,1717 W Kearney,MO,65803
Hobby Lobby,Odessa,74,74 #74 #074 #0074,4642 E University Blvd,TX,79762
Hobby Lobby,Olathe,75,75 #75 #075 #0075,16640 W.135th Street,KS,66062
Hobby Lobby,Hot Springs,76,76 #76 #076 #0076,4411 Central Ave.,AR,71913
Hobby Lobby,Abilene,77,77 #77 #077 #0077,4654 S 14th St,TX,79605
Hobby Lobby,Santa Fe,78,78 #78 #078 #0078,2020 Cerrillos Road,NM,87505
Hobby Lobby,Collierville,79,79 #79 #079 #0079,950 W. Poplar St.,TN,38017
Hobby Lobby,Mission,81,81 #81 #081 #0081,6721 Johnson Drive,KS,66202
Hobby Lobby,Fort Smith,82,82 #82 #082 #0082,5900 Rogers Ave.,AR,72903
Hobby Lobby,Columbia,83,83 #83 #083 #0083,2001 W. Worley #150,MO,65203
Hobby Lobby,San Angelo,85,85 #85 #085 #0085,2701 SW Boulevard,TX,76904
Hobby Lobby,Midland,86,86 #86 #086 #0086,4715 Billingsley,TX,79705
Hobby Lobby,Greeley,87,87 #87 #087 #0087,3001 S. 23rd Ave.,CO,80631
Hobby Lobby,Little Rock,88,88 #88 #088 #0088,12201 W. Markham St.,AR,72211
Hobby Lobby,Hutchinson,89,89 #89 #089 #0089,1500 E. 11th St. #500,KS,67501
Hobby Lobby,Jackson,90,90 #90 #090 #0090,1160 Vann Drive,TN,38305
Hobby Lobby,Houston,91,91 #91 #091 #0091,10955 FM 1960 West,TX,77070
Hobby Lobby,Parker,92,92 #92 #092 #0092,10901 S Parker Road,CO,80134
Hobby Lobby,Katy,93,93 #93 #093 #0093,1787 Fry Road,TX,77449
Hobby Lobby,Lafayette,94,94 #94 #094 #0094,"5622 Johnston St., Suite 200",LA,70503
Hobby Lobby,Fayetteville,95,95 #95 #095 #0095,"3180 N College Ave., Suite 3",AR,72703
Hobby Lobby,Alexandria,96,96 #96 #096 #0096,3703 North Blvd.,LA,71301
Hobby Lobby,Plano,97,97 #97 #097 #0097,900A W. 15th St.,TX,75075
Hobby Lobby,El Paso,98,98 #98 #098 #0098,7930 N Mesa St,TX,79932
Hobby Lobby,Houston,99,99 #99 #099 #0099,16011 FM 529,TX,77095
Hobby Lobby,Gladstone,100,100 #100 #0100 #00100,6479 N. Prospect,MO,64119
Hobby Lobby,West Monroe,101,101 #101 #0101 #00101,200 Blanchard Dr.,LA,71291
Hobby Lobby,Grand Junction,102,102 #102 #0102 #00102,1450 W. Independent Avenue,CO,81505
Hobby Lobby,Pasadena,103,103 #103 #0103 #00103,4200 Pasadena Blvd,TX,77503
Hobby Lobby,Germantown,104,104 #104 #0104 #00104,1991 Exeter Road,TN,38138
Hobby Lobby,Norfolk,105,105 #105 #0105 #00105,1904 Center Drive,NE,68701
Hobby Lobby,Mason City,106,106 #106 #0106 #00106,"2566 4th Street, SW",IA,50401
Hobby Lobby,Columbia,107,107 #107 #0107 #00107,1901 Shady Brook Dr.,TN,38401
Hobby Lobby,Rosenberg,108,108 #108 #0108 #00108,24636 Commercial Drive,TX,77471
Hobby Lobby,Broken Arrow,109,109 #109 #0109 #00109,720 W New Orleans,OK,74011
Hobby Lobby,Houston,110,110 #110 #0110 #00110,4701 FM 1960,TX,77069
Hobby Lobby,Shawnee,111,111 #111 #0111 #00111,13320 W 62 Terrace,KS,66216
Hobby Lobby,Lake Jackson,112,112 #112 #0112 #00112,125 Hwy 332 West,TX,77566
Hobby Lobby,Ardmore,113,113 #113 #0113 #00113,1211 North Commerce,OK,73401
Hobby Lobby,Spring,114,114 #114 #0114 #00114,501 Sawdust Rd.,TX,77380
Hobby Lobby,Houston,115,115 #115 #0115 #00115,10516 Katy Freeway Suite F,TX,77043
Hobby Lobby,Centennial,117,117 #117 #0117 #00117,"8181 S. Quebec St, Suite B",CO,80112
Hobby Lobby,Farmington,118,118 #118 #0118 #00118,3040 E 20th Street,NM,87402
Hobby Lobby,San Antonio,119,119 #119 #0119 #00119,286 Bitters Road,TX,78216
Hobby Lobby,Tomball,120,120 #120 #0120 #00120,27706 Tomball Parkway Plaza,TX,77375
Hobby Lobby,Dodge City,121,121 #121 #0121 #00121,2101 N. 14th St.,KS,67801
Hobby Lobby,Lake Charles,122,122 #122 #0122 #00122,3240 Highway 14,LA,70601
Hobby Lobby,San Antonio,123,123 #123 #0123 #00123,7058 Bandera Road,TX,78238
Hobby Lobby,Oklahoma City,124,124 #124 #0124 #00124,2201 NW 138th Street,OK,73134
Hobby Lobby,Cypress,125,125 #125 #0125 #00125,26060 U.S. 290 West,TX,77429
Hobby Lobby,Houston,126,126 #126 #0126 #00126,8715 W Loop South,TX,77096
Hobby Lobby,Stafford,127,127 #127 #0127 #00127,12680 Fountain Lake Circle,TX,77477
Hobby Lobby,Paducah,128,128 #128 #0128 #00128,5163 Hinkleville Road,KY,42001
Hobby Lobby,Terre Haute,129,129 #129 #0129 #00129,4700 US 41 South,IN,47802
Hobby Lobby,Champaign,131,131 #131 #0131 #00131,2102 N. Neil St. Suite 2,IL,61820
Hobby Lobby,Decatur,132,132 #132 #0132 #00132,1383 Pershing Road,IL,62526
Hobby Lobby,Lafayette,133,133 #133 #0133 #00133,200 S. Creasy Lane,IN,47905
Hobby Lobby,Grand Island,134,134 #134 #0134 #00134,1322 N. Diers Ave.,NE,68803
Hobby Lobby,Waterloo,135,135 #135 #0135 #00135,3731 University Ave,IA,50701
Hobby Lobby,Kokomo,136,136 #136 #0136 #00136,1805 E Markland,IN,46901
Hobby Lobby,Sioux Falls,137,137 #137 #0137 #00137,1401 W 41St Street,SD,57105
Hobby Lobby,Waco,139,139 #139 #0139 #00139,1200 Richland Dr Ste 1,TX,76710
Hobby Lobby,Carbondale,140,140 #140 #0140 #00140,1150 E. Main,IL,62901
Hobby Lobby,League City,141,141 #141 #0141 #00141,2740  Gulf Freeway South,TX,77573
Hobby Lobby,Avon,142,142 #142 #0142 #00142,212 Gable Crossing Drive,IN,46123
Hobby Lobby,Indianapolis,143,143 #143 #0143 #00143,8040 S U.S. Highway 31,IN,46227
Hobby Lobby,Little Elm,144,144 #144 #0144 #00144,2700 E. Eldorado Pkwy #100,TX,75068
Hobby Lobby,Slidell,145,145 #145 #0145 #00145,1555 B. Gause Blvd.,LA,70458
Hobby Lobby,Denton,146,146 #146 #0146 #00146,2217 S. Loop 288,TX,76205
Hobby Lobby,Baton Rouge,147,147 #147 #0147 #00147,3121 College Dr,LA,70808
Hobby Lobby,Baton Rouge,148,148 #148 #0148 #00148,1683 ONeal Lane Suite A,LA,70816
Hobby Lobby,Sherman,149,149 #149 #0149 #00149,3500 Town Center Rd.,TX,75092
Hobby Lobby,Tupelo,150,150 #150 #0150 #00150,4262 Mall Dr,MS,38804
Hobby Lobby,Mesquite,151,151 #151 #0151 #00151,2302 N. Galloway,TX,75150
Hobby Lobby,Flower Mound,152,152 #152 #0152 #00152,5801 Long Prairie Rd. Bldg 4,TX,75028
Hobby Lobby,Richmond,153,153 #153 #0153 #00153,4401 National Road E,IN,47374
Hobby Lobby,Joliet,154,154 #154 #0154 #00154,1400 N. Larkin Ave.,IL,60435
Hobby Lobby,Texarkana,155,155 #155 #0155 #00155,2315 Richmond Rd. #9,TX,75503
Hobby Lobby,Evansville,156,156 #156 #0156 #00156,5300-A E. Indiana St.,IN,47715
Hobby Lobby,Grapevine,157,157 #157 #0157 #00157,5325 William D. Tate Dr.,TX,76051
Hobby Lobby,Indianapolis,158,158 #158 #0158 #00158,10575 E Washington,IN,46229
Hobby Lobby,Florence,159,159 #159 #0159 #00159,1622 Florence Blvd.,AL,35630
Hobby Lobby,Humble,160,160 #160 #0160 #00160,20325 Highway 59 N,TX,77338
Hobby Lobby,Fort Wayne,161,161 #161 #0161 #00161,5519 Coldwater Rd,IN,46825
Hobby Lobby,Mishawaka,162,162 #162 #0162 #00162,5514 N Grape Rd,IN,46545
Hobby Lobby,Elgin,163,163 #163 #0163 #00163,200 S. Randall Rd.,IL,60123
Hobby Lobby,Cheyenne,164,164 #164 #0164 #00164,3501 E. Lincolnway,WY,82001
Hobby Lobby,Owensboro,165,165 #165 #0165 #00165,4610 Fredrica St,KY,42301
Hobby Lobby,Burleson,166,166 #166 #0166 #00166,620 SW Wilshire Blvd,TX,76028
Hobby Lobby,Round Lake Beach,167,167 #167 #0167 #00167,840 E Rollins Rd,IL,60073
Hobby Lobby,Bettendorf,168,168 #168 #0168 #00168,2121 Kimberly Rd,IA,52722
Hobby Lobby,Austin,169,169 #169 #0169 #00169,13729 Research Blvd. Ste 500,TX,78750
Hobby Lobby,Baytown,170,170 #170 #0170 #00170,4553 Garth Rd.,TX,77521
Hobby Lobby,Decatur,171,171 #171 #0171 #00171,303-A Beltline Place,AL,35603
Hobby Lobby,Coralville,172,172 #172 #0172 #00172,2050 8th St.,IA,52241
Hobby Lobby,Hammond,173,173 #173 #0173 #00173,2714 W. Thomas Street,LA,70401
Hobby Lobby,Lombard,174,174 #174 #0174 #00174,255 W. Roosevelt Rd.,IL,60148
Hobby Lobby,Arlington,175,175 #175 #0175 #00175,4628 S. Cooper St.,TX,76017
Hobby Lobby,Rockwall,176,176 #176 #0176 #00176,2004 South Goliad,TX,75087
Hobby Lobby,Schaumburg,177,177 #177 #0177 #00177,1055 E. Golf Road,IL,60173
Hobby Lobby,Waterloo,178,178 #178 #0178 #00178,2711 Crossroads Blvd.,IA,50702
Hobby Lobby,Ft. Dodge,179,179 #179 #0179 #00179,301 S. 29th Street,IA,50501
Hobby Lobby,Independence,180,180 #180 #0180 #00180,4300 Bass Pro Drive,MO,64055
Hobby Lobby,Michigan City,181,181 #181 #0181 #00181,"4351 South Franklin Street, Unit #2",IN,46360
Hobby Lobby,Carmel,182,182 #182 #0182 #00182,2003 E. Greyhound Pass,IN,46033
Hobby Lobby,Tinley Park,183,183 #183 #0183 #00183,7061 W. 159th St. Suite B,IL,60477
Hobby Lobby,Peru,185,185 #185 #0185 #00185,1655 38th St.,IL,61354
Hobby Lobby,Crystal Lake,186,186 #186 #0186 #00186,6250-A Northwest Hwy,IL,60014
Hobby Lobby,Normal,187,187 #187 #0187 #00187,301 S.Veterans Parkway,IL,61761
Hobby Lobby,Georgetown,188,188 #188 #0188 #00188,"901 S. IH-35, Suite 101",TX,78626
Hobby Lobby,Rockford,189,189 #189 #0189 #00189,6640 E. State St.,IL,61108
Hobby Lobby,Pensacola,191,191 #191 #0191 #00191,6235 N. Davis Highway,FL,32504
Hobby Lobby,Green Bay,192,192 #192 #0192 #00192,2380 E. Mason Street,WI,54302
Hobby Lobby,Grand Chute,193,193 #193 #0193 #00193,346 N. Casaloma Drive,WI,54913
Hobby Lobby,Fairview Heights,194,194 #194 #0194 #00194,10850 Lincoln Trail Highway,IL,62208
Hobby Lobby,West Chicago,195,195 #195 #0195 #00195,1851 N. Neltnor Road,IL,60185
Hobby Lobby,Broomfield,196,196 #196 #0196 #00196,5105 W. 120th Ave.,CO,80020
Hobby Lobby,Batavia,197,197 #197 #0197 #00197,421 N. Randall Rd.,IL,60510
Hobby Lobby,Killeen,198,198 #198 #0198 #00198,2002 E. Central Texas Expressway,TX,76541
Hobby Lobby,Carrollton,199,199 #199 #0199 #00199,"2540 Old Denton Road, Suite 150",TX,75006
Hobby Lobby,Rapid City,200,200 #200 #0200 #00200,490 East Disk Drive,SD,57701
Hobby Lobby,Des Moines,201,201 #201 #0201 #00201,4080 Merle Hay Road,IA,50310
Hobby Lobby,Conroe,203,203 #203 #0203 #00203,1217 N. Loop 336 W,TX,77301
Hobby Lobby,Westmont,204,204 #204 #0204 #00204,52 E. Ogden,IL,60559
Hobby Lobby,Palatine,205,205 #205 #0205 #00205,223 E. Northwest Hwy.,IL,60067
Hobby Lobby,Plano,207,207 #207 #0207 #00207,4220 Legacy Road,TX,75024
Hobby Lobby,Bartlett,208,208 #208 #0208 #00208,7986 Highway 64,TN,38133
Hobby Lobby,Merrillville,209,209 #209 #0209 #00209,2782 E. 79th St.,IN,46410
Hobby Lobby,Grandville,210,210 #210 #0210 #00210,4525 Canal Avenue SW,MI,49418
Hobby Lobby,Murfreesboro,211,211 #211 #0211 #00211,1717 Old Fort Parkway,TN,37129
Hobby Lobby,Huntsville,212,212 #212 #0212 #00212,1030 NW Old Monrovia Rd.,AL,35806
Hobby Lobby,Allen,213,213 #213 #0213 #00213,107 Central Expressway N.,TX,75013
Hobby Lobby,Pueblo,214,214 #214 #0214 #00214,3001 Hart Rd.,CO,81008
Hobby Lobby,Grove City,215,215 #215 #0215 #00215,4192 Buckeye Parkway,OH,43123
Hobby Lobby,Cookeville,216,216 #216 #0216 #00216,165 S. Jefferson Ave.,TN,38501
Hobby Lobby,Cartersville,218,218 #218 #0218 #00218,180 Market Square,GA,30120
Hobby Lobby,Mason,219,219 #219 #0219 #00219,9560 South Mason-Montgomery Rd,OH,45040
Hobby Lobby,Norton Shores,220,220 #220 #0220 #00220,5103 Harvey,MI,49444
Hobby Lobby,El Paso,221,221 #221 #0221 #00221,1861 Joe Battle,TX,79936
Hobby Lobby,Lima,222,222 #222 #0222 #00222,2700 Elida Road,OH,45805
Hobby Lobby,Kennesaw,223,223 #223 #0223 #00223,890 Cobb Place Blvd,GA,30144
Hobby Lobby,Pekin,224,224 #224 #0224 #00224,3424 Court Street,IL,61554
Hobby Lobby,Mt. Prospect,225,225 #225 #0225 #00225,1480 S. Elmhurst Rd.,IL,60056
Hobby Lobby,St. Augustine,226,226 #226 #0226 #00226,200 State Road 312,FL,32086
Hobby Lobby,Springfield,227,227 #227 #0227 #00227,1390 Upper Valley Pike,OH,45504
Hobby Lobby,Austell,228,228 #228 #0228 #00228,1355 East/West Connector Suite #107,GA,30106
Hobby Lobby,Fayetteville,229,229 #229 #0229 #00229,114 Pavilion Parkway,GA,30214
Hobby Lobby,Mansfield,230,230 #230 #0230 #00230,1200 Park Ave. West,OH,44906
Hobby Lobby,Cumming,231,231 #231 #0231 #00231,655 S. Atlanta Rd.,GA,30040
Hobby Lobby,N. Richland Hills,232,232 #232 #0232 #00232,6635 N.E. Loop 820,TX,76180
Hobby Lobby,Casper,233,233 #233 #0233 #00233,2911 E. 2nd St.,WY,82609
Hobby Lobby,Mankato,234,234 #234 #0234 #00234,1750 E. Madison Ave.,MN,56001
Hobby Lobby,Aurora,236,236 #236 #0236 #00236,1971 W. Galena Blvd. Ste A,IL,60506
Hobby Lobby,Aurora,237,237 #237 #0237 #00237,539 Route 59,IL,60504
Hobby Lobby,Cincinnati,238,238 #238 #0238 #00238,4450 Eastgate Blvd.  #375,OH,45245
Hobby Lobby,Cleveland,239,239 #239 #0239 #00239,185 Stuart Rd. NE,TN,37312
Hobby Lobby,Columbus,240,240 #240 #0240 #00240,2680 Sawmill Pl. Blvd.,OH,43235
Hobby Lobby,Hamilton,241,241 #241 #0241 #00241,780 NW Washington Blvd.,OH,45013
Hobby Lobby,Bowling Green,242,242 #242 #0242 #00242,1751 Scottsville Rd. Suite 10,KY,42104
Hobby Lobby,Bridgeview,243,243 #243 #0243 #00243,8825 S. Harlem Ave.,IL,60455
Hobby Lobby,Kentwood,244,244 #244 #0244 #00244,4250 28th St. S.E.,MI,49512
Hobby Lobby,Buford,246,246 #246 #0246 #00246,4125 Highway 20,GA,30518
Hobby Lobby,Dalton,248,248 #248 #0248 #00248,2103 E. Walnut Ave.,GA,30721
Hobby Lobby,Youngstown,249,249 #249 #0249 #00249,472 Boardman Canfield Rd.,OH,44512
Hobby Lobby,Conyers,250,250 #250 #0250 #00250,1513 Highway 138 SE,GA,30013
Hobby Lobby,Billings,251,251 #251 #0251 #00251,2425 Central Ave.,MT,59102
Hobby Lobby,Walker,252,252 #252 #0252 #00252,555 Center Drive NW,MI,49544
Hobby Lobby,Cincinnati,253,253 #253 #0253 #00253,5045 Glencrossing Way,OH,45238
Hobby Lobby,Ames,254,254 #254 #0254 #00254,620 Lincoln Way Suite A,IA,50010
Hobby Lobby,Sioux City,255,255 #255 #0255 #00255,4501 Southern Hills Dr.,IA,51106
Hobby Lobby,Southlake,256,256 #256 #0256 #00256,2115 W. Southlake Blvd.,TX,76092
Hobby Lobby,West Bend,257,257 #257 #0257 #00257,1800 S. Main St.,WI,53095
Hobby Lobby,Des Moines,258,258 #258 #0258 #00258,1160 E. Army Post Rd.,IA,50315
Hobby Lobby,Monona,259,259 #259 #0259 #00259,2351 W. Broadway,WI,53713
Hobby Lobby,Columbus,260,260 #260 #0260 #00260,6499 Whittlesey Blvd.,GA,31909
Hobby Lobby,Columbus,261,261 #261 #0261 #00261,5865 Chantry Drive,OH,43232
Hobby Lobby,Lawrenceville,262,262 #262 #0262 #00262,875 Lawrenceville-Suwanee Rd Suite 1000,GA,30043
Hobby Lobby,Franklin,263,263 #263 #0263 #00263,1113 Murfreesboro Rd Suite 350,TN,37064
Hobby Lobby,Muncie,264,264 #264 #0264 #00264,1801 W. McGalliard Road,IN,47304
Hobby Lobby,Fort Worth,265,265 #265 #0265 #00265,5020 S. Hulen St.,TX,76132
Hobby Lobby,Bloomington,266,266 #266 #0266 #00266,1275 College Mall Road,IN,47401
Hobby Lobby,Findlay,267,267 #267 #0267 #00267,1950 Tiffin Avenue,OH,45840
Hobby Lobby,Biloxi,268,268 #268 #0268 #00268,2649 Pass Road,MS,39531
Hobby Lobby,Hattiesburg,269,269 #269 #0269 #00269,5058 Hardy Street,MS,39402
Hobby Lobby,Springdale,270,270 #270 #0270 #00270,"11711 Princeton Pike, Suite 255",OH,45246
Hobby Lobby,Peoria,271,271 #271 #0271 #00271,3433 North University St.,IL,61604
Hobby Lobby,Heath,273,273 #273 #0273 #00273,230 Central Parkway,OH,43056
Hobby Lobby,Anderson,274,274 #274 #0274 #00274,4350 S. Scatterfield Road,IN,46013
Hobby Lobby,Northport,276,276 #276 #0276 #00276,2300 McFarland Boulevard Suite 60,AL,35476
Hobby Lobby,Hixson,278,278 #278 #0278 #00278,5450 B Highway 153,TN,37343
Hobby Lobby,Beaumont,279,279 #279 #0279 #00279,3990 Dowlen Rd.,TX,77706
Hobby Lobby,Rochester,280,280 #280 #0280 #00280,3900 Highway 52 North,MN,55901
Hobby Lobby,Homewood,281,281 #281 #0281 #00281,255 Lakeshore Parkway,AL,35209
Hobby Lobby,Montgomery,284,284 #284 #0284 #00284,5901 Atlanta Highway,AL,36117
Hobby Lobby,Mobile,285,285 #285 #0285 #00285,7765 Airport Blvd. Suite 401,AL,36608
Hobby Lobby,Dubuque,286,286 #286 #0286 #00286,3925 Dodge St.,IA,52003
Hobby Lobby,Madison,287,287 #287 #0287 #00287,1789B Gallatin Pike N.,TN,37115
Hobby Lobby,Elkhart,288,288 #288 #0288 #00288,3701 S. Main St. #A-110,IN,46517
Hobby Lobby,Aiken,289,289 #289 #0289 #00289,2530 Whiskey Road,SC,29803
Hobby Lobby,Chillicothe,290,290 #290 #0290 #00290,995 North Bridge St.,OH,45601
Hobby Lobby,Garland,291,291 #291 #0291 #00291,3178 Lavon Drive,TX,75040
Hobby Lobby,Lufkin,292,292 #292 #0292 #00292,2215 South 1st St.,TX,75901
Hobby Lobby,Florence,294,294 #294 #0294 #00294,7932 Connector Drive,KY,41042
Hobby Lobby,Gastonia,295,295 #295 #0295 #00295,1495 E. Franklin Blvd,NC,28054
Hobby Lobby,Hoover,297,297 #297 #0297 #00297,"1855 Montgomery Hwy S., Ste 100",AL,35244
Hobby Lobby,Asheboro,298,298 #298 #0298 #00298,1422 E. Dixie Drive,NC,27203
Hobby Lobby,Selma,299,299 #299 #0299 #00299,8370 Agora Parkway,TX,78154
Hobby Lobby,Edmond,300,300 #300 #0300 #00300,800 W. Danforth Road,OK,73003
Hobby Lobby,Clovis,302,302 #302 #0302 #00302,2001 Prince St.,NM,88101
Hobby Lobby,Gardendale,303,303 #303 #0303 #00303,655 Fieldstown Road,AL,35071
Hobby Lobby,Matthews,304,304 #304 #0304 #00304,2310 Matthews Township Parkway,NC,28105
Hobby Lobby,Austin,306,306 #306 #0306 #00306,"12901 N.I-35 Serv. Rd, Bldg 9, #900",TX,78753
Hobby Lobby,McAllen,307,307 #307 #0307 #00307,"7600 N. 10th, Bldg. 300",TX,78504
Hobby Lobby,Fargo,308,308 #308 #0308 #00308,4427 13th Avenue SW,ND,58103
Hobby Lobby,Kalamazoo,309,309 #309 #0309 #00309,5030 W. Main St.,MI,49009
Hobby Lobby,Columbus,310,310 #310 #0310 #00310,1149 N. National Road,IN,47201
Hobby Lobby,Kirkwood,311,311 #311 #0311 #00311,1215 S. Kirkwood Road,MO,63122
Hobby Lobby,Louisville,312,312 #312 #0312 #00312,7500 Jefferson Blvd.,KY,40219
Hobby Lobby,St. Peters,313,313 #313 #0313 #00313,4033 Veterans Memorial Parkway,MO,63376
Hobby Lobby,Roswell,314,314 #314 #0314 #00314,"606 Holcomb Bridge Road, Suite 140",GA,30076
Hobby Lobby,Greensboro,315,315 #315 #0315 #00315,1317 Bridford Parkway,NC,27407
Hobby Lobby,Spartanburg,316,316 #316 #0316 #00316,108 Franklin Avenue,SC,29301
Hobby Lobby,Chattanooga,317,317 #317 #0317 #00317,2288 Gunbarrel Road Suite 118,TN,37421
Hobby Lobby,Greenville,318,318 #318 #0318 #00318,1511 Woodruff Road,SC,29607
Hobby Lobby,Snellville,319,319 #319 #0319 #00319,2420 Wisteria Drive,GA,30078
Hobby Lobby,Athens,320,320 #320 #0320 #00320,2656 Atlanta Highway,GA,30606
Hobby Lobby,Florence,321,321 #321 #0321 #00321,2357 David H. McLeod Blvd.,SC,29501
Hobby Lobby,Birmingham,322,322 #322 #0322 #00322,1201 Doug Baker Blvd.,AL,35242
Hobby Lobby,West Columbia,323,323 #323 #0323 #00323,2305 Augusta Road,SC,29169
Hobby Lobby,Roswell,324,324 #324 #0324 #00324,4501 N. Main St.,NM,88201
Hobby Lobby,Ashland,325,325 #325 #0325 #00325,433 Diederich Blvd.,KY,41101
Hobby Lobby,Hobbs,326,326 #326 #0326 #00326,1810 N. Turner St.,NM,88240
Hobby Lobby,Kingsport,327,327 #327 #0327 #00327,1905 North Eastman Road,TN,37660
Hobby Lobby,Taylors,328,328 #328 #0328 #00328,6007 Wade Hampton Blvd.,SC,29687
Hobby Lobby,Hermitage,329,329 #329 #0329 #00329,4105 Lebanon Parkway,TN,37076
Hobby Lobby,Kannapolis,330,330 #330 #0330 #00330,2480 Supercenter Dr. NE,NC,28083
Hobby Lobby,Manhattan,331,331 #331 #0331 #00331,628 Tuttle Creek Blvd.,KS,66502
Hobby Lobby,Anderson,332,332 #332 #0332 #00332,172 Station Drive,SC,29621
Hobby Lobby,Holland,333,333 #333 #0333 #00333,12386 Felch St. Suite 20,MI,49424
Hobby Lobby,Toledo,334,334 #334 #0334 #00334,5329 Monroe St.,OH,43623
Hobby Lobby,Saginaw,335,335 #335 #0335 #00335,2480 Tittabawassee Road,MI,48604
Hobby Lobby,Bismarck,336,336 #336 #0336 #00336,2740 State Street,ND,58503
Hobby Lobby,Duluth,337,337 #337 #0337 #00337,"5805 State Bridge Rd, Ste 100",GA,30097
Hobby Lobby,Stone Mountain,338,338 #338 #0338 #00338,1825 Rockbridge Rd. Suite 9A,GA,30087
Hobby Lobby,Panama City,339,339 #339 #0339 #00339,820 W. 23rd St.,FL,32405
Hobby Lobby,Shreveport,340,340 #340 #0340 #00340,1750 E. 70th St.,LA,71105
Hobby Lobby,Medina,341,341 #341 #0341 #00341,3800 Stonegate Drive,OH,44256
Hobby Lobby,Columbia,342,342 #342 #0342 #00342,5422 Forest Dr. Suite 110,SC,29206
Hobby Lobby,Knoxville,343,343 #343 #0343 #00343,6580 Clinton Highway,TN,37912
Hobby Lobby,Burlington,344,344 #344 #0344 #00344,3351 Agency Street,IA,52601
Hobby Lobby,Niles,345,345 #345 #0345 #00345,910 Great East Plaza,OH,44446
Hobby Lobby,Miamisburg,346,346 #346 #0346 #00346,8361 Springboro Pike,OH,45342
Hobby Lobby,Fayetteville,347,347 #347 #0347 #00347,1748 B Skibo Road,NC,28303
Hobby Lobby,Flowood,348,348 #348 #0348 #00348,200 Ridge Way,MS,39232
Hobby Lobby,Danville,349,349 #349 #0349 #00349,135 Collins Drive Suite A,VA,24540
Hobby Lobby,Kenosha,350,350 #350 #0350 #00350,5914 75th Street,WI,53142
Hobby Lobby,Morristown,351,351 #351 #0351 #00351,507 S. Davy Crockett Parkway,TN,37813
Hobby Lobby,Daphne,352,352 #352 #0352 #00352,6900 U.S.Highway 90,AL,36526
Hobby Lobby,Valdosta,353,353 #353 #0353 #00353,1000 N. St. Augustine Rd.,GA,31601
Hobby Lobby,Knoxville,354,354 #354 #0354 #00354,11040 Parkside Drive,TN,37934
Hobby Lobby,Lake Worth,355,355 #355 #0355 #00355,6580 Lake Worth Blvd.,TX,76135
Hobby Lobby,Lancaster,356,356 #356 #0356 #00356,1428 River Valley Blvd.,OH,43130
Hobby Lobby,Manitowoc,358,358 #358 #0358 #00358,1140 S. 30th St.,WI,54220
Hobby Lobby,Ballwin,359,359 #359 #0359 #00359,14650 Manchester Road,MO,63011
Hobby Lobby,East Lansing,360,360 #360 #0360 #00360,2775 E. Grand River Ave.,MI,48823
Hobby Lobby,Fort Gratiot,361,361 #361 #0361 #00361,4715 24th Ave. #100,MI,48059
Hobby Lobby,Lansing,362,362 #362 #0362 #00362,5801 W. Saginaw Highway,MI,48917
Hobby Lobby,Ocala,363,363 #363 #0363 #00363,2400 SW College Road #500,FL,34471
Hobby Lobby,Cincinnati,364,364 #364 #0364 #00364,10180 Colerain Ave.,OH,45251
Hobby Lobby,Gadsden,365,365 #365 #0365 #00365,401 George Wallace Drive,AL,35903
Hobby Lobby,Hickory,366,366 #366 #0366 #00366,2449 North Centre St.,NC,28601
Hobby Lobby,Colorado Springs,367,367 #367 #0367 #00367,5994 Barnes Road,CO,80922
Hobby Lobby,Jacksonville,368,368 #368 #0368 #00368,9400 Atlantic Blvd. Suite 15A,FL,32225
Hobby Lobby,Austin,369,369 #369 #0369 #00369,4040 S. Lamar Blvd.,TX,78704
Hobby Lobby,Jacksonville,370,370 #370 #0370 #00370,11250 Old St. Augustine Rd. #50,FL,32257
Hobby Lobby,Opelika,371,371 #371 #0371 #00371,2570 Enterprise Drive,AL,36801
Hobby Lobby,Zanesville,372,372 #372 #0372 #00372,3925 Gorsky Drive,OH,43701
Hobby Lobby,Oxford,373,373 #373 #0373 #00373,1200 Oxford Exchange,AL,36203
Hobby Lobby,Warner Robins,374,374 #374 #0374 #00374,2987 Watson Boulevard,GA,31093
Hobby Lobby,Carrollton,375,375 #375 #0375 #00375,1301B South Park Street,GA,30117
Hobby Lobby,Russellville,376,376 #376 #0376 #00376,3093 E. Main St.,AR,72802
Hobby Lobby,Layton,377,377 #377 #0377 #00377,1080 N. Main St.,UT,84041
Hobby Lobby,Battle Creek,378,378 #378 #0378 #00378,5500 Beckley Road,MI,49015
Hobby Lobby,Missouri City,379,379 #379 #0379 #00379,5744 Highway 6,TX,77459
Hobby Lobby,Avondale,380,380 #380 #0380 #00380,10045 W. McDowell Road,AZ,85392
Hobby Lobby,Marion,381,381 #381 #0381 #00381,280 McMahan Blvd.,OH,43302
Hobby Lobby,Minot,382,382 #382 #0382 #00382,1901 22nd Ave. S.W.,ND,58701
Hobby Lobby,Rock Hill,383,383 #383 #0383 #00383,1526 Meeting Blvd.,SC,29730
Hobby Lobby,South Jordan,384,384 #384 #0384 #00384,11681 S. Parkway Plaza Dr.,UT,84095
Hobby Lobby,Houma,385,385 #385 #0385 #00385,"1779 MLK, Jr. Blvd. Suite #100",LA,70360
Hobby Lobby,San Antonio,386,386 #386 #0386 #00386,23128 US 281 North,TX,78258
Hobby Lobby,Pearland,387,387 #387 #0387 #00387,2808 Business Center Drive,TX,77584
Hobby Lobby,Ft. Worth,388,388 #388 #0388 #00388,3101 Texas Sage Trail,TX,76177
Hobby Lobby,Nicholasville,389,389 #389 #0389 #00389,320 E. Brannon Road,KY,40356
Hobby Lobby,Frisco,390,390 #390 #0390 #00390,5288 Preston Road,TX,75034
Hobby Lobby,Logan,391,391 #391 #0391 #00391,1575 N. Main St.,UT,84341
Hobby Lobby,Mesa,393,393 #393 #0393 #00393,1835 S. Greenfield Road,AZ,85206
Hobby Lobby,Janesville,394,394 #394 #0394 #00394,3023 Milton Ave. Suite 111,WI,53545
Hobby Lobby,Easley,395,395 #395 #0395 #00395,"6101 Calhoun Memorial Hwy, Ste Q",SC,29640
Hobby Lobby,Cullman,396,396 #396 #0396 #00396,1658 Town Square SW,AL,35055
Hobby Lobby,Statesboro,397,397 #397 #0397 #00397,255 Henry Boulevard,GA,30458
Hobby Lobby,Louisville,398,398 #398 #0398 #00398,968 Breckenridge Lane,KY,40207
Hobby Lobby,Bowling Green,399,399 #399 #0399 #00399,1080-D S. Main St.,OH,43402
Hobby Lobby,Katy,400,400 #400 #0400 #00400,6811 S. Fry Road,TX,77494
Hobby Lobby,Richmond,401,401 #401 #0401 #00401,855 Eastern Bypass,KY,40475
Hobby Lobby,Cedar Park,402,402 #402 #0402 #00402,1501 E. Whitestone Bldg D,TX,78613
Hobby Lobby,Flint,403,403 #403 #0403 #00403,3192 S. Linden Rd. Suite A102,MI,48507
Hobby Lobby,Depew,404,404 #404 #0404 #00404,2090 George Urban Blvd.,NY,14043
Hobby Lobby,Stow,405,405 #405 #0405 #00405,4332 Kent Road,OH,44224
Hobby Lobby,Bradley,406,406 #406 #0406 #00406,1260 N. Kinzie Ave.,IL,60915
Hobby Lobby,Webster,407,407 #407 #0407 #00407,900 Holt Road,NY,14580
Hobby Lobby,Arnold,408,408 #408 #0408 #00408,#30 Arnold Park Mall,MO,63010
Hobby Lobby,Mesa,409,409 #409 #0409 #00409,10656 E. Southern Ave.,AZ,85209
Hobby Lobby,Omaha,410,410 #410 #0410 #00410,17303 Evans Street,NE,68116
Hobby Lobby,Jacksonville Beach,411,411 #411 #0411 #00411,14286 Beach Blvd. Unit 1,FL,32250
Hobby Lobby,Douglasville,412,412 #412 #0412 #00412,3001 Chapel Hill Rd,GA,30135
Hobby Lobby,Liverpool,413,413 #413 #0413 #00413,3884 State Route 31,NY,13090
Hobby Lobby,Laredo,414,414 #414 #0414 #00414,"2450 Monarch Drive, Suite 101",TX,78045
Hobby Lobby,Dunwoody,415,415 #415 #0415 #00415,4715-A Ashford Dunwoody Rd.,GA,30338
Hobby Lobby,Burlington,416,416 #416 #0416 #00416,3219 Watermill Drive,NC,27215
Hobby Lobby,Canton,417,417 #417 #0417 #00417,42643 Ford Road,MI,48187
Hobby Lobby,Paris,418,418 #418 #0418 #00418,3516 Lamar Ave.,TX,75460
Hobby Lobby,Sterling Heights,419,419 #419 #0419 #00419,44725 Schoenherr Road,MI,48313
Hobby Lobby,Perrysburg,420,420 #420 #0420 #00420,10019 Fremont Pike,OH,43551
Hobby Lobby,Newnan,421,421 #421 #0421 #00421,997 Bullsboro Drive,GA,30265
Hobby Lobby,Elmira,422,422 #422 #0422 #00422,"830 County Route 64, Suite 4",NY,14903
Hobby Lobby,Chambersburg,423,423 #423 #0423 #00423,1695 Lincoln Way East,PA,17202
Hobby Lobby,Barboursville,424,424 #424 #0424 #00424,1 Mall Road,WV,25504
Hobby Lobby,Lakewood,425,425 #425 #0425 #00425,"7000 W. Alameda Avenue, Unit H",CO,80226
Hobby Lobby,Phoenix,426,426 #426 #0426 #00426,4710 E. Ray Road,AZ,85044
Hobby Lobby,Prescott Valley,427,427 #427 #0427 #00427,5634 E. State Route 69,AZ,86314
Hobby Lobby,Poughkeepsie,428,428 #428 #0428 #00428,1895 South Road,NY,12601
Hobby Lobby,McDonough,429,429 #429 #0429 #00429,205 South Point Boulevard,GA,30253
Hobby Lobby,Phoenix,430,430 #430 #0430 #00430,4643 E. Cactus Road,AZ,85032
Hobby Lobby,Prattville,431,431 #431 #0431 #00431,1571 Cotton Exchange,AL,36066
Hobby Lobby,Easton,432,432 #432 #0432 #00432,3750 Easton Nazareth Highway,PA,18045
Hobby Lobby,Meridian,433,433 #433 #0433 #00433,3547 N. Eagle Road,ID,83646
Hobby Lobby,Peoria,434,434 #434 #0434 #00434,7645 W. Bell Road,AZ,85382
Hobby Lobby,Augusta,435,435 #435 #0435 #00435,230 Robert C. Daniel Parkway,GA,30909
Hobby Lobby,Taylor,436,436 #436 #0436 #00436,23865 Eureka Road,MI,48180
Hobby Lobby,Moore,437,437 #437 #0437 #00437,2650 S. Service Road,OK,73160
Hobby Lobby,Orlando,438,438 #438 #0438 #00438,2728 E. Colonial Drive,FL,32803
Hobby Lobby,Lebanon,439,439 #439 #0439 #00439,2215 Lebanon Valley Mall,PA,17042
Hobby Lobby,Sandy,440,440 #440 #0440 #00440,9347 South Quarry Bend Drive,UT,84094
Hobby Lobby,Henderson,441,441 #441 #0441 #00441,625 N. Stephanie Street,NV,89014
Hobby Lobby,Gilbert,442,442 #442 #0442 #00442,"4095 S. Gilbert, Suite 106",AZ,85297
Hobby Lobby,Monroe,443,443 #443 #0443 #00443,2153 N. Telegraph Road,MI,48162
Hobby Lobby,Covington,444,444 #444 #0444 #00444,6115 Pinnacle Parkway,LA,70433
Hobby Lobby,Columbia,445,445 #445 #0445 #00445,9031 Snowden Square Drive,MD,21046
Hobby Lobby,Viera,447,447 #447 #0447 #00447,"7201 Shoppes Drive, #101",FL,32940
Hobby Lobby,Orem,448,448 #448 #0448 #00448,360 West University Parkway,UT,84058
Hobby Lobby,Fairlawn,449,449 #449 #0449 #00449,"3737 West Market Street, Unit T",OH,44333
Hobby Lobby,Gaylord,450,450 #450 #0450 #00450,1425 W. Main Street,MI,49735
Hobby Lobby,Spokane Valley,451,451 #451 #0451 #00451,13902 E. Indiana,WA,99216
Hobby Lobby,Daytona Beach,452,452 #452 #0452 #00452,"2455 W. International Speedway Blvd., St",FL,32114
Hobby Lobby,Laurel,453,453 #453 #0453 #00453,3333 Corridor Marketplace,MD,20724
Hobby Lobby,New Hartford,454,454 #454 #0454 #00454,4605 Commercial Drive,NY,13413
Hobby Lobby,New Port Richey,455,455 #455 #0455 #00455,8615 Little Road,FL,34654
Hobby Lobby,Fredericksburg,456,456 #456 #0456 #00456,1360 Carl D. Silver Parkway,VA,22401
Hobby Lobby,Kennewick,457,457 #457 #0457 #00457,"7011 W. Canal Drive, Suite A",WA,99336
Hobby Lobby,Visalia,458,458 #458 #0458 #00458,3231 S. Mooney Blvd.,CA,93277
Hobby Lobby,Glen Allen,459,459 #459 #0459 #00459,11280 West Broad Street,VA,23060
Hobby Lobby,DeKalb,460,460 #460 #0460 #00460,2500 Sycamore Road,IL,60115
Hobby Lobby,Green Bay,461,461 #461 #0461 #00461,"803 Pilgrim Way, Suite 100",WI,54304
Hobby Lobby,Dothan,462,462 #462 #0462 #00462,"3495 Ross Clark Circle, Suite 700",AL,36303
Hobby Lobby,American Fork,463,463 #463 #0463 #00463,240 Northwest State Street,UT,84003
Hobby Lobby,Columbus,464,464 #464 #0464 #00464,1420 Gemini Place,OH,43240
Hobby Lobby,Lake Havasu City,465,465 #465 #0465 #00465,1795 Kiowa Blvd,AZ,86403
Hobby Lobby,Fort Myers,467,467 #467 #0467 #00467,"9355 Ben C. Pratt Parkway, Bldg 4C",FL,33966
Hobby Lobby,Erie,468,468 #468 #0468 #00468,1900 Keystone Drive,PA,16509
Hobby Lobby,Tallahassee,469,469 #469 #0469 #00469,3483 Thomasville Road,FL,32309
Hobby Lobby,McAllen,470,470 #470 #0470 #00470,"3300 Expressway 83, Suite 700",TX,78501
Hobby Lobby,Hanover,471,471 #471 #0471 #00471,"111 Wilson Avenue, Suite 3",PA,17331
Hobby Lobby,Manchester,472,472 #472 #0472 #00472,1525 S. Willow Street,NH,3103
Hobby Lobby,Pittsburgh,473,473 #473 #0473 #00473,6511 Steubenville Pike,PA,15205
Hobby Lobby,Lakeland,474,474 #474 #0474 #00474,"3615 South Florida Avenue, Suite 1110",FL,33803
Hobby Lobby,Modesto,475,475 #475 #0475 #00475,2801 McHenry Avenue,CA,95350
Hobby Lobby,Fayetteville,476,476 #476 #0476 #00476,6797 East Genesee Street,NY,13066
Hobby Lobby,Jensen Beach,477,477 #477 #0477 #00477,3255 NW Federal Highway,FL,34957
Hobby Lobby,Salisbury,478,478 #478 #0478 #00478,"2722 North Salisbury Boulevard, Suite 1",MD,21801
Hobby Lobby,Winchester,479,479 #479 #0479 #00479,2047 South Pleasant Valley Road,VA,22601
Hobby Lobby,Scottsdale,480,480 #480 #0480 #00480,9109 E. Indian Bend Road,AZ,85250
Hobby Lobby,Lynnwood,481,481 #481 #0481 #00481,19310 60th Avenue West,WA,98036
Hobby Lobby,Greenwood,482,482 #482 #0482 #00482,315 Bypass 72 NW,SC,29649
Hobby Lobby,Chandler,483,483 #483 #0483 #00483,3456 West Chandler Boulevard,AZ,85226
Hobby Lobby,Temecula,484,484 #484 #0484 #00484,26443 Ynez Road,CA,92591
Hobby Lobby,Rancho Cucamonga,485,485 #485 #0485 #00485,10640 Foothill Blvd.,CA,91730
Hobby Lobby,Middletown,486,486 #486 #0486 #00486,400 Route 211 East,NY,10940
Hobby Lobby,Merced,487,487 #487 #0487 #00487,1400 W. Olive Avenue,CA,95348
Hobby Lobby,Niagara Falls,488,488 #488 #0488 #00488,1560 Military Road,NY,14304
Hobby Lobby,Altoona,489,489 #489 #0489 #00489,516 West Plank Road,PA,16602
Hobby Lobby,Chesterfield,490,490 #490 #0490 #00490,14645 Hancock Village Street,VA,23832
Hobby Lobby,Roseville,491,491 #491 #0491 #00491,1815 Douglas Blvd.,CA,95661
Hobby Lobby,Everett,492,492 #492 #0492 #00492,10011 Evergreen Way,WA,98204
Hobby Lobby,McHenry,493,493 #493 #0493 #00493,2000 N. Richmond Road,IL,60051
Hobby Lobby,Victorville,494,494 #494 #0494 #00494,"12550 Amargosa Road,Suite C",CA,92392
Hobby Lobby,Somerset,495,495 #495 #0495 #00495,"2835 South Hwy 27, Suite 400",KY,42501
Hobby Lobby,Millville,496,496 #496 #0496 #00496,2225 N. 2nd Street,NJ,8332
Hobby Lobby,Gulfport,497,497 #497 #0497 #00497,11240A Hwy 49 North,MS,39503
Hobby Lobby,Southern Pines,498,498 #498 #0498 #00498,160 Brucewood Road,NC,28387
Hobby Lobby,Orange City,499,499 #499 #0499 #00499,2635 Enterprise Road,FL,32763
Hobby Lobby,Las Vegas,500,500 #500 #0500 #00500,4955 S. Fort Apache Road,NV,89148
Hobby Lobby,Laguna Niguel,501,501 #501 #0501 #00501,27200 Alicia Parkway,CA,92677
Hobby Lobby,Wilson,502,502 #502 #0502 #00502,2800 Raleigh Road Pkwy West,NC,27896
Hobby Lobby,Morgan Hill,503,503 #503 #0503 #00503,990 Cochrane Plaza,CA,95037
Hobby Lobby,Stockton,504,504 #504 #0504 #00504,1155 W. March Lane,CA,95207
Hobby Lobby,Mount Pleasant,505,505 #505 #0505 #00505,2165 Tea Planter Lane,SC,29466
Hobby Lobby,Rocky Mount,506,506 #506 #0506 #00506,760 Sutters Creek Blvd,NC,27804
Hobby Lobby,Mooresville,507,507 #507 #0507 #00507,485 River Highway,NC,28117
Hobby Lobby,South Plainfield,508,508 #508 #0508 #00508,6801 Hadley Road,NJ,7080
Hobby Lobby,Spokane,509,509 #509 #0509 #00509,7706 N. Division Street,WA,99208
Hobby Lobby,Marion,510,510 #510 #0510 #00510,4018 S. Western Avenue,IN,46953
Hobby Lobby,Dickson City,511,511 #511 #0511 #00511,3908 Commerce Blvd,PA,18519
Hobby Lobby,Huntington Beach,512,512 #512 #0512 #00512,7202 Edinger Avenue,CA,92647
Hobby Lobby,North Port,513,513 #513 #0513 #00513,18559 Tamiami Trail,FL,34287
Hobby Lobby,Clermont,514,514 #514 #0514 #00514,1375 Sandy Grove Avenue,FL,34711
Hobby Lobby,Wilmington,515,515 #515 #0515 #00515,3715 Oleander Drive,NC,28403
Hobby Lobby,Wausau,516,516 #516 #0516 #00516,3525 Rib Mountain Drive,WI,54401
Hobby Lobby,Phoenix,517,517 #517 #0517 #00517,801 E. Bell Road,AZ,85022
Hobby Lobby,Warwick,518,518 #518 #0518 #00518,945 Bald Hill Road,RI,2886
Hobby Lobby,Hagerstown,519,519 #519 #0519 #00519,1580 Wesel Blvd; Suite C,MD,21740
Hobby Lobby,Algonquin,520,520 #520 #0520 #00520,2360 S. Randall Road,IL,60102
Hobby Lobby,Federal Way,521,521 #521 #0521 #00521,35020 Enchanted Parkway S,WA,98003
Hobby Lobby,Upland,523,523 #523 #0523 #00523,420 South Mountain Ave,CA,91786
Hobby Lobby,Duluth,524,524 #524 #0524 #00524,1734 Mall Drive,MN,55811
Hobby Lobby,Tucson,525,525 #525 #0525 #00525,"5555 E Broadway Blvd, Suite 131",AZ,85711
Hobby Lobby,East Haven,526,526 #526 #0526 #00526,68 Frontage Road,CT,6512
Hobby Lobby,Holyoke,527,527 #527 #0527 #00527,50 Holyoke Street,MA,1040
Hobby Lobby,East Wenatchee,528,528 #528 #0528 #00528,10 Grant Road,WA,98802
Hobby Lobby,Morehead City,530,530 #530 #0530 #00530,"5167 Highway 70 W, Suite 90",NC,28557
Hobby Lobby,Oklahoma City,2,2 #2 #02 #002,6104 W. Reno Ave.,OK,73127
Hobby Lobby,Wichita,9,9 #9 #09 #009,2425 North Greenwich Road,KS,67226
Hobby Lobby,St. Joseph,24,24 #24 #024 #0024,1417 N Belt Highway,MO,64506
Hobby Lobby,Springdale,35,35 #35 #035 #0035,5244 W. Sunset,AR,72762
Hobby Lobby,Quincy,42,42 #42 #042 #0042,3800 Broadway,IL,62305
Hobby Lobby,Lexington,56,56 #56 #056 #0056,"2200 War Admiral Way, Suite 130",KY,40509
Hobby Lobby,Papillion,60,60 #60 #060 #0060,9515 S 71st Plaza,NE,68133
Hobby Lobby,New Braunfels,80,80 #80 #080 #0080,360 Creekside Way,TX,78130
Hobby Lobby,Nacogdoches,84,84 #84 #084 #0084,4301 N. Street,TX,75965
Hobby Lobby,Corpus Christi,116,116 #116 #0116 #00116,4101-A IH 69 Access Rd,TX,78410
Hobby Lobby,San Marcos,130,130 #130 #0130 #00130,933 Highway 80 East,TX,78666
Hobby Lobby,Huntsville,138,138 #138 #0138 #00138,2726 Carl T. Jones Dr.,AL,35802
Hobby Lobby,Vernon Hills,184,184 #184 #0184 #00184,290 Hawthorn Village Commons,IL,60061
Hobby Lobby,Springfield,190,190 #190 #0190 #00190,3325 S. Veterans Parkway,IL,62704
Hobby Lobby,Adrian,202,202 #202 #0202 #00202,1357 South Main Street,MI,49221
Hobby Lobby,Oshkosh,206,206 #206 #0206 #00206,1118 South Koeller,WI,54902
Hobby Lobby,Onalaska,217,217 #217 #0217 #00217,9408 State Road 16,WI,54650
Hobby Lobby,Clarksville,235,235 #235 #0235 #00235,2708 Wilma Rudolph Blvd.,TN,37040
Hobby Lobby,Bolingbrook,245,245 #245 #0245 #00245,363-A  N. Weber Road,IL,60490
Hobby Lobby,Cedar Hill,247,247 #247 #0247 #00247,316 N. Highway 67,TX,75104
Hobby Lobby,Dallas,272,272 #272 #0272 #00272,14858 Preston Road,TX,75254
Hobby Lobby,Albany,275,275 #275 #0275 #00275,2709 Dawson Road,GA,31707
Hobby Lobby,Sheboygan,277,277 #277 #0277 #00277,3347 Kohler Memorial Dr.,WI,53081
Hobby Lobby,Maryville,282,282 #282 #0282 #00282,505 Foothills Plaza,TN,37801
Hobby Lobby,Racine,283,283 #283 #0283 #00283,2406 South Green Bay Road,WI,53406
Hobby Lobby,Harlingen,293,293 #293 #0293 #00293,2209 W. Lincoln,TX,78552
Hobby Lobby,High Point,296,296 #296 #0296 #00296,2506 North Main St,NC,27262
Hobby Lobby,Clarksville,301,301 #301 #0301 #00301,750 E. Lewis and Clark Pkwy.,IN,47129
Hobby Lobby,Charlotte,305,305 #305 #0305 #00305,"8150 Ikea Blvd, Suite 30",NC,28262
Hobby Lobby,Huber Heights,357,357 #357 #0357 #00357,8286 Old Troy Pike,OH,45424
Hobby Lobby,Council Bluffs,392,392 #392 #0392 #00392,3512 Metro Drive,IA,51501
Hobby Lobby,Macedonia,446,446 #446 #0446 #00446,"8210 Macedonia Commons Blvd, Suite #42",OH,44056
Hobby Lobby,Latham,466,466 #466 #0466 #00466,"873 New Loudon Road, Suite 3",NY,12110
Hobby Lobby,Sacramento,522,522 #522 #0522 #00522,1870 Arden Way,CA,95815
Hobby Lobby,Sarasota,529,529 #529 #0529 #00529,8195 S. Tamiami Trail,FL,34231
Hobby Lobby,Bradenton,531,531 #531 #0531 #00531,4490 Cortez Road West,FL,34210
Hobby Lobby,Valparaiso,532,532 #532 #0532 #00532,210 Porters Vale Blvd,IN,46383
Hobby Lobby,Elk Grove,533,533 #533 #0533 #00533,9149 E. Stockton Blvd,CA,95624
Hobby Lobby,Marlboro,534,534 #534 #0534 #00534,120 Route 9 North,NJ,7726
Hobby Lobby,Moline,535,535 #535 #0535 #00535,4120 10th Street Drive,IL,61265
Hobby Lobby,Portage,536,536 #536 #0536 #00536,6295 S. Westnedge Ave,MI,49002
Hobby Lobby,Buffalo,537,537 #537 #0537 #00537,6743 Transit Road,NY,14221
Hobby Lobby,Bangor,538,538 #538 #0538 #00538,489 Stillwater Avenue,ME,4401
Hobby Lobby,Ithaca,539,539 #539 #0539 #00539,744 S. Meadow Street,NY,14850
Hobby Lobby,Mount Dora,540,540 #540 #0540 #00540,16880 US Highway 441,FL,32757
Hobby Lobby,Winter Springs,541,541 #541 #0541 #00541,"1425 Tuskawilla Rd, Suite 111",FL,32708
Hobby Lobby,Antioch,542,542 #542 #0542 #00542,5849 Lone Tree Way,CA,94531
Hobby Lobby,Trexlertown,543,543 #543 #0543 #00543,"7150 Hamilton Blvd, Suite #270",PA,18087
Hobby Lobby,Grand Forks,544,544 #544 #0544 #00544,3181 32nd Ave S,ND,58201
Hobby Lobby,Blasdell,545,545 #545 #0545 #00545,"3701 McKinley Parkway, Unit #1240",NY,14219
Hobby Lobby,Sierra Vista,546,546 #546 #0546 #00546,657 North Hwy 90,AZ,85635
Hobby Lobby,Lake Forest,547,547 #547 #0547 #00547,26732 Portola Parkway,CA,92610
Hobby Lobby,Naples,548,548 #548 #0548 #00548,"1000 Immokalee Road, Suite 30",FL,34110
Hobby Lobby,Milledgeville,549,549 #549 #0549 #00549,1962 N. Columbia Street,GA,31061
Hobby Lobby,Noblesville,550,550 #550 #0550 #00550,545 Noble Creek Drive,IN,46060
Hobby Lobby,Anaheim Hills,551,551 #551 #0551 #00551,8100 Santa Ana Canyon Road,CA,92808
Hobby Lobby,Lewisville,552,552 #552 #0552 #00552,"2325 S. Stemmons Freeway, #400B",TX,75067
Hobby Lobby,Leesburg,553,553 #553 #0553 #00553,240 Fort Evans Road NE,VA,20176
Hobby Lobby,Huntsville,554,554 #554 #0554 #00554,3009 Hwy 30 West,TX,77340
Hobby Lobby,Lawrenceville,555,555 #555 #0555 #00555,3360 Brunswick Pike,NJ,8648
Hobby Lobby,Bakersfield,556,556 #556 #0556 #00556,4450 California Avenue,CA,93309
Hobby Lobby,Mt. Vernon,558,558 #558 #0558 #00558,"220 E. College Way, Suite #102",WA,98273
Hobby Lobby,Waukesha,560,560 #560 #0560 #00560,"1160 W. Sunset Drive, Suite 104",WI,53189
Hobby Lobby,Rutland,561,561 #561 #0561 #00561,241 S. Main Street,VT,5701
Hobby Lobby,Columbia,562,562 #562 #0562 #00562,10258 Two Notch Road,SC,29229
Hobby Lobby,Woodbury,563,563 #563 #0563 #00563,9895 Hudson Road,MN,55125
Hobby Lobby,Macon,565,565 #565 #0565 #00565,5019 Riverside Drive,GA,31210
Hobby Lobby,Seekonk,566,566 #566 #0566 #00566,165 Highland Ave,MA,2771
Hobby Lobby,Zephyrhills,567,567 #567 #0567 #00567,7333 Gall Blvd,FL,33541
Hobby Lobby,Lakewood,569,569 #569 #0569 #00569,5401 100th Street SW,WA,98499
Hobby Lobby,Murphy,573,573 #573 #0573 #00573,150 W. FM 544,TX,75094
Hobby Lobby,Norco,577,577 #577 #0577 #00577,"200 Hidden Valley Pkwy, Suite B",CA,92860
Hobby Lobby,Angola,579,579 #579 #0579 #00579,1801 North Wayne Street,IN,46703
Hobby Lobby,Vicksburg,582,582 #582 #0582 #00582,3505 Pemberton Square Blvd,MS,39180
