keywords,city,Aggdata Store Number,store_number,address,state,zip_code
Holiday Station Store,Lindstrom,1,1 01 001 0001,12970 Lake Blvd,MN,55045-0489
Holiday Station Store,Minneapolis,2,2 02 002 0002,2124 E Franklin Ave,MN,55404-2248
Holiday Station Store,St. Paul,4,4 04 004 0004,1444 E Minnehaha Ave,MN,55106-1823
Holiday Station Store,St. Paul,5,5 05 005 0005,629 Rice St,MN,55103-1828
Holiday Station Store,Pine City,6,6 06 006 0006,570 Main St S,MN,55063-1648
Holiday Station Store,St. Paul,7,7 07 007 0007,500 7th St E,MN,55101-2402
Holiday Station Store,River Falls,8,8 08 008 0008,302 S Main St,WI,54022-2425
Holiday Station Store,Minneapolis,9,9 09 009 0009,107 6th St SE,MN,55414-1168
Holiday Station Store,Great Falls,10,10 010 0010 00010,1601 Fox Farm Rd,MT,59404-3338
Holiday Station Store,Mankato,11,11 011 0011 00011,1901 Adams St,MN,56001-6802
Holiday Station Store,Shorewood,12,12 012 0012 00012,19955 State Hwy 7,MN,55331-8156
Holiday Station Store,Milltown,13,13 013 0013 00013,101 State Hwy 35 W,WI,54858-0152
Holiday Station Store,Spooner,14,14 014 0014 00014,621 River St,WI,54801-1338
Holiday Station Store,Osseo,15,15 015 0015 00015,124 Central Ave,MN,55369-1243
Holiday Station Store,Eau Claire,16,16 016 0016 00016,6123 Truax Ln,WI,54703-9642
Holiday Station Store,Princeton,17,17 017 0017 00017,308 Rum River Dr S,MN,55371-2017
Holiday Station Store,Willmar,18,18 018 0018 00018,817 Litchfield Ave SW,MN,56201-3112
Holiday Station Store,Mankato,21,21 021 0021 00021,1302 N River Front Dr,MN,56001-3251
Holiday Station Store,Two Harbors,24,24 024 0024 00024,333 7th Ave,MN,55616-1450
Holiday Station Store,Minneapolis,25,25 025 0025 00025,5444 Nicollet Ave,MN,55419-1928
Holiday Station Store,Park Rapids,26,26 026 0026 00026,719 E 1st St,MN,56470-1706
Holiday Station Store,Proctor,27,27 027 0027 00027,200 S Boundary Ave,MN,55810-2318
Holiday Station Store,Hayward,28,28 028 0028 00028,15752 US Hwy 63,WI,54843-0466
Holiday Station Store,Alexandria,29,29 029 0029 00029,320 3rd Ave E,MN,56308-1406
Holiday Station Store,Brainerd,30,30 030 0030 00030,424 S 6th St,MN,56401-3540
Holiday Station Store,St. Paul,31,31 031 0031 00031,1400 Arcade St,MN,55106-1824
Holiday Station Store,Benson,33,33 033 0033 00033,315 S 14th St,MN,56215-1705
Holiday Station Store,Hayward,36,36 036 0036 00036,10478 State Rd 27,WI,54843-3032
Holiday Station Store,Minnetonka,39,39 039 0039 00039,2801 Hopkins Crossroads,MN,55343-6332
Holiday Station Store,Virginia,41,41 041 0041 00041,1502 S 12th Ave W,MN,55792-3255
Holiday Station Store,Minneapolis,42,42 042 0042 00042,3700 W 50th St,MN,55410-2016
Holiday Station Store,St. Paul,43,43 043 0043 00043,600 Snelling Ave N,MN,55104-1805
Holiday Station Store,St. Paul,45,45 045 0045 00045,200 Wabasha St S,MN,55107-1819
Holiday Station Store,Cambridge,46,46 046 0046 00046,635 Main St S,MN,55008-1918
Holiday Station Store,Eagle River,49,49 049 0049 00049,226 S Railroad St,WI,54521-0901
Holiday Station Store,Baxter,51,51 051 0051 00051,15052 Dellwood Dr N,MN,56425-8680
Holiday Station Store,Bloomington,53,53 053 0053 00053,123 W Market St,MN,55425-5550
Holiday Station Store,North Branch,54,54 054 0054 00054,Interstate 35 & State Hwy 95 W,MN,55056-0906
Holiday Station Store,Long Prairie,55,55 055 0055 00055,14 S Lake St,MN,56347-1309
Holiday Station Store,Columbia Heights,58,58 058 0058 00058,4259 Central Ave NE,MN,55421-2921
Holiday Station Store,Great Falls,59,59 059 0059 00059,601 Northwest Bypass,MT,59404-2480
Holiday Station Store,Northfield,60,60 060 0060 00060,100 Water St,MN,55057-2022
Holiday Station Store,Hibbing,62,62 062 0062 00062,2115 1st Ave,MN,55746-1804
Holiday Station Store,Chaska,67,67 067 0067 00067,2820 Chaska Blvd,MN,55318-2490
Holiday Station Store,Eagan,68,68 068 0068 00068,1065 Diffley Rd,MN,55123-1504
Holiday Station Store,Minneapolis,69,69 069 0069 00069,2322 Washington Ave N,MN,55411-2223
Holiday Station Store,Inver Grove Heights,71,71 071 0071 00071,6380 E Concord Blvd,MN,55076-1811
Holiday Station Store,Detroit Lakes,72,72 072 0072 00072,233 Frazee St E,MN,56501-3503
Holiday Station Store,Bloomington,73,73 073 0073 00073,8401 Lyndale Ave S,MN,55420-2235
Holiday Station Store,Anoka,75,75 075 0075 00075,460 W Main St,MN,55303-2000
Holiday Station Store,Calumet,76,76 076 0076 00076,56021 US Hwy 41,MI,49913-2235
Holiday Station Store,Sheridan,80,80 080 0080 00080,936 E Brundage Ln,WY,82801-6263
Holiday Station Store,Shakopee,83,83 083 0083 00083,444 E 1st Ave,MN,55379-1455
Holiday Station Store,Coeur d'Alene,84,84 084 0084 00084,312 W Haycraft Ave,ID,83814-9319
Holiday Station Store,Proctor,85,85 085 0085 00085,9314 W Skyline Pkwy,MN,55810-2034
Holiday Station Store,Negaunee,86,86 086 0086 00086,370 US Hwy 41 & Croix St,MI,49866-1326
Holiday Station Store,Billings,87,87 087 0087 00087,4041 Grand Ave,MT,59106-1731
Holiday Station Store,Elk River,90,90 090 0090 00090,13445 Business Center Dr,MN,55330-4610
Holiday Station Store,Wadena,93,93 093 0093 00093,101 N Jefferson,MN,56482-1368
Holiday Station Store,Cloquet,95,95 095 0095 00095,1420 Cloquet Ave,MN,55720-1944
Holiday Station Store,Fargo,96,96 096 0096 00096,3040 25th St S,ND,58103-5056
Holiday Station Store,Duluth,100,100 0100 00100 000100,1530 Woodland Ave,MN,55803-2626
Holiday Station Store,Bloomington,102,102 0102 00102 000102,50 W 98th St,MN,55420
Holiday Station Store,Bemidji,104,104 0104 00104 000104,1106 Paul Bunyan Dr S,MN,56601-3255
Holiday Station Store,Ortonville,105,105 0105 00105 000105,624 SE 2nd St,MN,56278-1701
Holiday Station Store,Plymouth,107,107 0107 00107 000107,3020 Fernbrook Ln,MN,55447-5318
Holiday Station Store,Billings,108,108 0108 00108 000108,790 S Billings Blvd,MT,59101
Holiday Station Store,Superior,111,111 0111 00111 000111,2111 Tower Ave,WI,54880-4838
Holiday Station Store,Ironwood,112,112 0112 00112 000112,805 E Cloverland Dr,MI,49938-1511
Holiday Station Store,Fridley,118,118 0118 00118 000118,200 57th Ave NE,MN,55432-5420
Holiday Station Store,Siren,119,119 0119 00119 000119,24096 US Hwy 35,WI,54872-0066
Holiday Station Store,Moorhead,122,122 0122 00122 000122,1501 11th St N,MN,56560-1401
Holiday Station Store,Menominee,123,123 0123 00123 000123,1051 10th Ave,MI,49858-3015
Holiday Station Store,Fargo,124,124 0124 00124 000124,101 N University Dr,ND,58102-4631
Holiday Station Store,Moose Lake,127,127 0127 00127 000127,80 Arrowhead Ln,MN,55767-0428
Holiday Station Store,Crosby,128,128 0128 00128 000128,103 3rd Ave SW,MN,56441-1334
Holiday Station Store,Wayzata,129,129 0129 00129 000129,1325 E Wayzata Blvd,MN,55391-1937
Holiday Station Store,Golden Valley,130,130 0130 00130 000130,7925 Wayzata Blvd,MN,55426-1430
Holiday Station Store,Big Lake,132,132 0132 00132 000132,281 Jefferson Blvd,MN,55309-9573
Holiday Station Store,Faribault,135,135 0135 00135 000135,707 4th St NW,MN,55021-5036
Holiday Station Store,Plymouth,139,139 0139 00139 000139,10900 Hwy 55,MN,55441-6115
Holiday Station Store,Plymouth,140,140 0140 00140 000140,189 Cheshire Ln,MN,55441-5465
Holiday Station Store,Gilbert,141,141 0141 00141 000141,303 Arizona Ave W,MN,55741-9006
Holiday Station Store,Fergus Falls,142,142 0142 00142 000142,305 S Union Avenue,MN,56537-2554
Holiday Station Store,Ely,144,144 0144 00144 000144,1036 E Sheridan,MN,55731-1745
Holiday Station Store,Virginia,148,148 0148 00148 000148,303 6th Ave N,MN,55792-2438
Holiday Station Store,Iron River,152,152 0152 00152 000152,19 W Adams,MI,49935-1428
Holiday Station Store,Hibbing,153,153 0153 00153 000153,2517 13th Ave E,MN,55746-2301
Holiday Station Store,Munising,155,155 0155 00155 000155,301 E Munising,MI,49862-1113
Holiday Station Store,W. St. Paul,157,157 0157 00157 000157,1845 S Robert St,MN,55118-3982
Holiday Station Store,Marquette,159,159 0159 00159 000159,2000 US Hwy 41 W,MI,49855-2412
Holiday Station Store,Hancock,160,160 0160 00160 000160,100 Hancock Ave,MI,49930-2002
Holiday Station Store,Grand Rapids,162,162 0162 00162 000162,202 NE 4th St,MN,55744-2851
Holiday Station Store,Pine River,164,164 0164 00164 000164,300 Front St,MN,56474-0026
Holiday Station Store,Ishpeming,165,165 0165 00165 000165,US Hwy 41 & 3rd St,MI,49849-9479
Holiday Station Store,Nisswa,166,166 0166 00166 000166,4917 County Rd 77,MN,56468-0013
Holiday Station Store,St. Paul,167,167 0167 00167 000167,1608 Rice St,MN,55117-3754
Holiday Station Store,L-Anse,168,168 0168 00168 000168,110 US Hwy 41,MI,49946-1338
Holiday Station Store,Milaca,171,171 0171 00171 000171,405 Central Ave S,MN,56353-1128
Holiday Station Store,Cheboygan,173,173 0173 00173 000173,1031 S Main St,MI,49721-2258
Holiday Station Store,Sault St. Marie,174,174 0174 00174 000174,3287 Interstate 75 Business Spur,MI,49783-3602
Holiday Station Store,Gaylord,175,175 0175 00175 000175,620 W Main St,MI,49735-1819
Holiday Station Store,Ladysmith,176,176 0176 00176 000176,605 Lake Ave W,WI,54848-1211
Holiday Station Store,Alexandria,177,177 0177 00177 000177,650 50 Ave W,MN,56308
Holiday Station Store,Beaver Bay,179,179 0179 00179 000179,Hwy 61 & N&S Rd,MN,55601-0426
Holiday Station Store,Ontonagon,180,180 0180 00180 000180,103 Greenland Rd,MI,49953-1515
Holiday Station Store,Charlevoix,181,181 0181 00181 000181,1408 Bridge St S,MI,49720-1610
Holiday Station Store,Traverse City,182,182 0182 00182 000182,13896 W Bay Shore Dr,MI,49684-6204
Holiday Station Store,Blk. River Falls,183,183 0183 00183 000183,448 N Water St,WI,54615-1317
Holiday Station Store,Aurora,184,184 0184 00184 000184,5495 Hwy 100,MN,55705-8705
Holiday Station Store,Wakefield,185,185 0185 00185 000185,US Hwy 2 W,MI,49968-1015
Holiday Station Store,Mora,186,186 0186 00186 000186,700 S Hwy 65,MN,55051-1919
Holiday Station Store,Fridley,188,188 0188 00188 000188,5695 Hackmann Ave NE,MN,55432-5748
Holiday Station Store,Devils Lake,189,189 0189 00189 000189,US Hwy 2,ND,58301-2946
Holiday Station Store,Hermantown,190,190 0190 00190 000190,4795 Miller Trunk Hwy,MN,55811-3918
Holiday Station Store,Walker,191,191 0191 00191 000191,Hwy 371 & Hwy 34,MN,56484-0638
Holiday Station Store,St. Croix Falls,192,192 0192 00192 000192,202 S Washington St,WI,54024-9219
Holiday Station Store,Roseau,193,193 0193 00193 000193,Hwy 11 & Hwy 310,MN,56751-0156
Holiday Station Store,Deer River,194,194 0194 00194 000194,Hwy 2 E,MN,56636-0188
Holiday Station Store,Monticello,196,196 0196 00196 000196,123 7th St W,MN,55362-0728
Holiday Station Store,Thief River Falls,197,197 0197 00197 000197,1503 Hwy 59 SE,MN,56701-3499
Holiday Station Store,Prior Lake,198,198 0198 00198 000198,16800 Duluth Ave SE,MN,55372-2948
Holiday Station Store,Chanhassen,199,199 0199 00199 000199,441 W 79th St,MN,55317-9530
Holiday Station Store,Escanaba,200,200 0200 00200 000200,700 N Lincoln Rd,MI,49829-1556
Holiday Station Store,Gladstone,201,201 0201 00201 000201,210 N 9th St,MI,49837-1657
Holiday Station Store,Newberry,203,203 0203 00203 000203,7502 State Hwy M123,MI,49868-8125
Holiday Station Store,St. Ignace,204,204 0204 00204 000204,924 US Hwy 2 W,MI,49781-9640
Holiday Station Store,St. Louis Park,205,205 0205 00205 000205,5720 Excelsior Blvd,MN,55416-2828
Holiday Station Store,St. Louis Park,206,206 0206 00206 000206,7000 W Lake St,MN,55426-4415
Holiday Station Store,Bismarck,208,208 0208 00208 000208,905 E Bismarck Expy,ND,58504-6602
Holiday Station Store,Minneapolis,209,209 0209 00209 000209,2448 Hennepin Ave,MN,55405-2604
Holiday Station Store,Waconia,211,211 0211 00211 000211,240 W Hwy 5,MN,55387-1785
Holiday Station Store,Baudette,212,212 0212 00212 000212,Hwy 11 & Hwy 72,MN,56623-0828
Holiday Station Store,Burnsville,213,213 0213 00213 000213,14150 Irving Ave S,MN,55337-4440
Holiday Station Store,Delano,214,214 0214 00214 000214,31 Babcock Blvd W,MN,55328-9794
Holiday Station Store,White Bear Lake,215,215 0215 00215 000215,1800 E County Rd F,MN,55110-3866
Holiday Station Store,Little Falls,216,216 0216 00216 000216,1301 1st Ave NE,MN,56345-3386
Holiday Station Store,Edina,217,217 0217 00217 000217,5200 Interlachen Blvd,MN,55436-1427
Holiday Station Store,Rhinelander,218,218 0218 00218 000218,255 E Courtney St,WI,54501-3788
Holiday Station Store,Plymouth,220,220 0220 00220 000220,10100 County Rd 9,MN,55442-3309
Holiday Station Store,Rosemount,222,222 0222 00222 000222,15066 Chippendale Ave,MN,55068-1521
Holiday Station Store,Ham Lake,223,223 0223 00223 000223,1442 Crosstown Blvd NE,MN,55304-4309
Holiday Station Store,St. Paul,224,224 0224 00224 000224,2438 Margaret St,MN,55109-3020
Holiday Station Store,Dickinson,225,225 0225 00225 000225,231 Museum Dr,ND,58601-3933
Holiday Station Store,Hinckley,226,226 0226 00226 000226,401 Fire Monument Road,MN,55037-9348
Holiday Station Store,Washburn,227,227 0227 00227 000227,606 Bayfield St,WI,54891-0183
Holiday Station Store,Somerset,228,228 0228 00228 000228,121 Main St,WI,54025-0340
Holiday Station Store,Superior,229,229 0229 00229 000229,4827 E 2nd St,WI,54880-4341
Holiday Station Store,Marinette,230,230 0230 00230 000230,4010 Marinette Ave,WI,54143-9425
Holiday Station Store,Harvey,231,231 0231 00231 000231,5095 US Hwy 41 S,MI,49855-9001
Holiday Station Store,Eagan,232,232 0232 00232 000232,4595 Nicols Rd,MN,55122-2305
Holiday Station Store,Le Sueur,233,233 0233 00233 000233,420 N Main,MN,56058-1503
Holiday Station Store,Annandale,234,234 0234 00234 000234,115 Elm Street W,MN,55302-0118
Holiday Station Store,Warroad,235,235 0235 00235 000235,203 N State St,MN,56763-2111
Holiday Station Store,Forest Lake,236,236 0236 00236 000236,1543 S Lake St,MN,55025-2629
Holiday Station Store,Stillwater,237,237 0237 00237 000237,14773 60th St N,MN,55082-6359
Holiday Station Store,Buffalo,238,238 0238 00238 000238,7 NE 8th St,MN,55313-1712
Holiday Station Store,Zimmerman,239,239 0239 00239 000239,26125 Hwy 169,MN,55398-0242
Holiday Station Store,Garrison,240,240 0240 00240 000240,Hwy 18 & Hwy169,MN,56450-0147
Holiday Station Store,Brooklyn Park,241,241 0241 00241 000241,8500 Edinburgh Center Dr,MN,55443-3723
Holiday Station Store,Champlin,243,243 0243 00243 000243,12024 Champlin Dr,MN,55316-2378
Holiday Station Store,Bloomington,245,245 0245 00245 000245,5401 W Old Shakopee Rd,MN,55437-3166
Holiday Station Store,Shakopee,246,246 0246 00246 000246,12681 Chestnut Blvd,MN,55379-9214
Holiday Station Store,Eagan,247,247 0247 00247 000247,3615 Pilot Knob Rd,MN,55122-1316
Holiday Station Store,Grand Rapids,248,248 0248 00248 000248,920 S Pokegama Ave,MN,55744-3937
Holiday Station Store,Iron Mountain,249,249 0249 00249 000249,1523 S Stephenson,MI,49801-3633
Holiday Station Store,Shakopee,250,250 0250 00250 000250,1381 Greenwood Ct,MN,55379
Holiday Station Store,St. Peter,251,251 0251 00251 000251,123 W St Julian St,MN,56082-1877
Holiday Station Store,Forest Lake,253,253 0253 00253 000253,1208 W Broadway,MN,55025-1417
Holiday Station Store,Clearwater,254,254 0254 00254 000254,1015 State Hwy 24,MN,55320-1610
Holiday Station Store,Traverse City,255,255 0255 00255 000255,2600 S Airport Rd,MI,49684-4677
Holiday Station Store,Maple Plain,256,256 0256 00256 000256,1300 County Rd 29,MN,55359-9440
Holiday Station Store,Eagle River,257,257 0257 00257 000257,928 Railroad St,WI,54521-0344
Holiday Station Store,Pine City,258,258 0258 00258 000258,715 13th St SW,MN,55063-2085
Holiday Station Store,Coon Rapids,259,259 0259 00259 000259,202 101st Ave NW,MN,55448-5221
Holiday Station Store,St. Bonifacius,260,260 0260 00260 000260,8720 State Hwy 7,MN,55375-0738
Holiday Station Store,Hopkins,261,261 0261 00261 000261,300 11th Ave S,MN,55343-7831
Holiday Station Store,Sault St. Marie,262,262 0262 00262 000262,942 W Portage St,MI,49783-1450
Holiday Station Store,Lilydale,264,264 0264 00264 000264,965 Sibley Memorial Hwy,MN,55118-3601
Holiday Station Store,Billings,266,266 0266 00266 000266,745 Grand Ave,MT,59102-5823
Holiday Station Store,Helena,270,270 0270 00270 000270,401 Euclid Ave,MT,59601-2855
Holiday Station Store,Glendive,271,271 0271 00271 000271,701 N Merrill Ave,MT,59330-1833
Holiday Station Store,Havre,272,272 0272 00272 000272,200 W 1st St,MT,59501-3408
Holiday Station Store,Great Falls,273,273 0273 00273 000273,1020 15th St N,MT,59401-1239
Holiday Station Store,Billings,274,274 0274 00274 000274,2620 6th Ave N,MT,59101-1350
Holiday Station Store,Billings,275,275 0275 00275 000275,105 Broadwater,MT,59102-1830
Holiday Station Store,Missoula,278,278 0278 00278 000278,403 Russell St,MT,59801-2311
Holiday Station Store,Kalispell,279,279 0279 00279 000279,1278 E Hwy 2,MT,59901-3219
Holiday Station Store,Billings,280,280 0280 00280 000280,1020 Main St,MT,59105-2444
Holiday Station Store,Glasgow,281,281 0281 00281 000281,108 1st St N,MT,59230-1907
Holiday Station Store,Missoula,282,282 0282 00282 000282,605 S Higgins,MT,59801-2733
Holiday Station Store,Missoula,283,283 0283 00283 000283,2325 S Reserve St,MT,59801-6446
Holiday Station Store,Billings,284,284 0284 00284 000284,3226 Rosebud Dr,MT,59102-6017
Holiday Station Store,Billings,285,285 0285 00285 000285,785 S 20th St W,MT,59102-6463
Holiday Station Store,Spokane,287,287 0287 00287 000287,411 N Pines Rd,WA,99206-5122
Holiday Station Store,Spokane,288,288 0288 00288 000288,9720 N Division,WA,99218-1203
Holiday Station Store,Spokane,289,289 0289 00289 000289,N 2303 Argonne Rd,WA,99212-2346
Holiday Station Store,Sheridan,290,290 0290 00290 000290,812 N Main,WY,82801-3637
Holiday Station Store,Champlin,291,291 0291 00291 000291,6210 109th Ave N,MN,55316-3468
Holiday Station Store,Brooklyn Center,292,292 0292 00292 000292,420 66th Ave N,MN,55430-1610
Holiday Station Store,Duluth,293,293 0293 00293 000293,5430 Grand Ave,MN,55807-2639
Holiday Station Store,Forest Lake,294,294 0294 00294 000294,6571 N Lake Blvd,MN,55025-9073
Holiday Station Store,Crystal,300,300 0300 00300 000300,5410 Lakeland Ave,MN,55429-3120
Holiday Station Store,Maplewood,301,301 0301 00301 000301,280 McKnight Rd S,MN,55119-5070
Holiday Station Store,Bloomington,302,302 0302 00302 000302,8920 Penn Ave S,MN,55437-2025
Holiday Station Store,Plymouth,303,303 0303 00303 000303,9700 Betty Crocker Dr,MN,55441-6440
Holiday Station Store,Sioux Falls,304,304 0304 00304 000304,5000 N Cliff Ave,SD,57104-0558
Holiday Station Store,Bozeman,305,305 0305 00305 000305,1951 Durston Rd,MT,59718-2738
Holiday Station Store,Blaine,306,306 0306 00306 000306,4167 Ball Rd NE,MN,55449
Holiday Station Store,Rogers,307,307 0307 00307 000307,21451 S Diamond Lake Rd,MN,55374-4500
Holiday Station Store,Coon Rapids,309,309 0309 00309 000309,12480 Foley Blvd NW,MN,55448-2122
Holiday Station Store,West Lakeland,310,310 0310 00310 000310,215 Manning Ave N,MN,55042
Holiday Station Store,Forest Lake,311,311 0311 00311 000311,31 SW 19th St,MN,55025-1346
Holiday Station Store,Plymouth,312,312 0312 00312 000312,9705 Schmidt Lake Rd,MN,55442-2287
Holiday Station Store,Elk River,313,313 0313 00313 000313,18823 Freeport Ave,MN,55330-1269
Holiday Station Store,Hayden,315,315 0315 00315 000315,8100 Corner Stone Dr,ID,83835-8752
Holiday Station Store,Apple Valley,316,316 0316 00316 000316,5980 149th St,MN,55124-5701
Holiday Station Store,Plymouth,317,317 0317 00317 000317,2725 Campus Dr,MN,55441-2614
Holiday Station Store,Eagan,318,318 0318 00318 000318,3044 Holiday Ln,MN,55121-1571
Holiday Station Store,Maple Grove,319,319 0319 00319 000319,16350 96th Ave N,MN,55311
Holiday Station Store,Ramsey,323,323 0323 00323 000323,14350 Xkimo St,MN,55303
Holiday Station Store,Duluth,325,325 0325 00325 000325,210 S 27th Ave  W,MN,55806
Holiday Station Store,Duluth,327,327 0327 00327 000327,2605 London Rd,MN,55812
Holiday Station Store,Duluth,328,328 0328 00328 000328,1520 Kenwood Ave,MN,55811
Holiday Station Store,Savage,330,330 0330 00330 000330,7461 Egan Dr,MN,55378
Holiday Station Store,Brooklyn Park,331,331 0331 00331 000331,8517 Jefferson Ln N,MN,55445-2109
Holiday Station Store,Minneapolis,332,332 0332 00332 000332,4601 Hiawatha Ave,MN,55406
Holiday Station Store,Lakeville,333,333 0333 00333 000333,7287 161st St,MN,55044
Holiday Station Store,Spring Lake Park,334,334 0334 00334 000334,8101 Univeristy Ave NE,MN,55432-1865
Holiday Station Store,Minneapolis,335,335 0335 00335 000335,1301 Industrial Blvd NE,MN,55413-1702
Holiday Station Store,Brooklyn Park,336,336 0336 00336 000336,9399 W Broadway,MN,55445
Holiday Station Store,Bloomington,337,337 0337 00337 000337,8331 Normandale Blvd,MN,55437
Holiday Station Store,Shakopee,339,339 0339 00339 000339,8002 Old Carriage Ct N,MN,55379
Holiday Station Store,Chaska,340,340 0340 00340 000340,1465 White Oak Dr,MN,55318
Holiday Station Store,St. Paul,341,341 0341 00341 000341,1345 Marshall Ave S,MN,55104
Holiday Station Store,Warroad,342,342 0342 00342 000342,901 N State St,MN,56763
Holiday Station Store,Eden Prairie,343,343 0343 00343 000343,6213 Dell Rd,MN,55344
Holiday Station Store,Monticello,344,344 0344 00344 000344,110 Oakwood Dr,MN,55362
Holiday Station Store,Alexandria,345,345 0345 00345 000345,5310 Hwy 29 S,MN,56308
Holiday Station Store,North Branch,346,346 0346 00346 000346,5945 Main St,MN,55056
Holiday Station Store,Rice,348,348 0348 00348 000348,435 E Main St,MN,56367
Holiday Station Store,Savage,350,350 0350 00350 000350,12210 Zinran Ave S,MN,55378
Holiday Station Store,Oakdale,352,352 0352 00352 000352,1025 Hadley Ave,MN,55128
Holiday Station Store,Duluth,353,353 0353 00353 000353,2432 London Rd,MN,55812
Holiday Station Store,Duluth,354,354 0354 00354 000354,3301 Arrowhead Rd,MN,55811
Holiday Station Store,Victoria,360,360 0360 00360 000360,1793 Arboretum Blvd,MN,55386
Holiday Station Store,Two Harbors,362,362 0362 00362 000362,1086 Hwy 61,MN,55616
Holiday Station Store,Shakopee,364,364 0364 00364 000364,3901 Eagle Creek Blvd,MN,55378
Holiday Station Store,Arden Hills,368,368 0368 00368 000368,1920 Hwy 96,MN,55112
Holiday Station Store,Baxter,369,369 0369 00369 000369,7472 Excelsior Rd,MN,56425
Holiday Station Store,Alexandria,370,370 0370 00370 000370,785 N Nokomis NE,MN,56308
Holiday Station Store,Norwood,371,371 0371 00371 000371,502 Faxon Rd,MN,55368
Holiday Station Store,St. Paul,372,372 0372 00372 000372,2199 University Ave W,MN,55114
Holiday Station Store,Owatonna,373,373 0373 00373 000373,695 W Bridge St,MN,55060
Holiday Station Store,Cottage Grove,374,374 0374 00374 000374,8101 Hadley Ave S,MN,55016
Holiday Station Store,Bayport,375,375 0375 00375 000375,174 Third St N,MN,55003
Holiday Station Store,Lino Lakes,376,376 0376 00376 000376,7509 Lake Dr,MN,55014
Holiday Station Store,Minnetonka,377,377 0377 00377 000377,17601 Minnetonka Blvd,MN,55345
Holiday Station Store,Otsego,378,378 0378 00378 000378,9025 Quaday Ave,MN,55330
Holiday Station Store,Blaine,379,379 0379 00379 000379,9933 Ulysses Ave NE,MN,55449
Holiday Station Store,International Falls,380,380 0380 00380 000380,1100 3rd Ave,MN,56649
Holiday Station Store,Grand Forks,382,382 0382 00382 000382,2250 S Columbia Rd,ND,58201
Holiday Station Store,Grand Forks,383,383 0383 00383 000383,3450 32nd Ave S,ND,58201
Holiday Station Store,Billings,385,385 0385 00385 000385,3551 Ember Ln,MT,59102
Holiday Station Store,Eden Prairie,386,386 0386 00386 000386,7447 Eden Prairie Rd,MN,55346
Holiday Station Store,Rush City,388,388 0388 00388 000388,1550 W 4th St,MN,55069
Holiday Station Store,White Bear Lake,389,389 0389 00389 000389,5970 Hwy 61 N,MN,55110-2370
Holiday Station Store,Prior Lake,391,391 0391 00391 000391,4460 Fountain Hills Dr,MN,55372
Holiday Station Store,Medina,392,392 0392 00392 000392,200 Hwy 55,MN,55340-9542
Holiday Station Store,Greenfield,393,393 0393 00393 000393,7510 Hwy 55,MN,55373-9407
Holiday Station Store,St. Michael,394,394 0394 00394 000394,4200 Larabee Ave NE,MN,55376
Holiday Station Store,Ramsey,395,395 0395 00395 000395,14075 Ramsey Blvd,MN,55303
Holiday Station Store,New Prague,397,397 0397 00397 000397,102 County Rd 37 E,MN,56071-2100
Holiday Station Store,Little Falls,398,398 0398 00398 000398,1704 1st Ave NE,MN,56345
Holiday Station Store,Fargo,399,399 0399 00399 000399,1902 45th St SW,ND,58103
Holiday Station Store,Eagan,400,400 0400 00400 000400,2660 Eaganwoods Dr,MN,55121-1138
Holiday Station Store,Eagan,401,401 0401 00401 000401,1650 Diffley Rd,MN,55122
Holiday Station Store,Eden Prairie,402,402 0402 00402 000402,8051 Flying Cloud Dr,MN,55344
Holiday Station Store,North Branch,403,403 0403 00403 000403,5554 St Croix Tr,MN,55056
Holiday Station Store,Minneapolis,404,404 0404 00404 000404,601 N 5th St,MN,55401
Holiday Station Store,Rogers,405,405 0405 00405 000405,13028 Main Street,MN,55374
Holiday Station Store,Minneapolis,407,407 0407 00407 000407,3550 Cedar Ave S,MN,55407
Holiday Station Store,Forest Lake,408,408 0408 00408 000408,9444 Lake Dr,MN,55025
Holiday Station Store,Duluth,409,409 0409 00409 000409,5699 Miller Trunk Hwy,MN,55811
Holiday Station Store,Burnsville,410,410 0410 00410 000410,900 W Burnsville Pkwy,MN,55337
Holiday Station Store,New Hope,411,411 0411 00411 000411,9456 Medicine Lake Rd,MN,55427
Holiday Station Store,Burnsville,412,412 0412 00412 000412,12290 Nicollet Avenue,MN,55337
Holiday Station Store,Hopkins,413,413 0413 00413 000413,530 Blake Road N,MN,55343
Holiday Station Store,West Fargo,414,414 0414 00414 000414,1210 13th Avenue East,ND,58078
Holiday Station Store,Moorhead,415,415 0415 00415 000415,3475 28th Ave S,MN,56560
Holiday Station Store,Wetmore,416,416 0416 00416 000416,E 9721 M28 E,MI,49895
Holiday Station Store,Blaine,417,417 0417 00417 000417,10909 Radisson Road NE,MN,55449
Holiday Station Store,Fargo,418,418 0418 00418 000418,2755 Brandt Dr S,ND,58104
Holiday Station Store,St. Croix Falls,419,419 0419 00419 000419,2091 Glacier Dr,WI,54024
Holiday Station Store,Bismarck,420,420 0420 00420 000420,3600 State Street,ND,58503
Holiday Station Store,Duluth,422,422 0422 00422 000422,3931 W First Street,MN,55807
Holiday Station Store,Rochester,423,423 0423 00423 000423,701 Broadway Avenue N,MN,55906
Holiday Station Store,Rochester,424,424 0424 00424 000424,400 Fourth Street SE,MN,55904
Holiday Station Store,Rochester,425,425 0425 00425 000425,1520 Second Street SW,MN,55902
Holiday Station Store,Rochester,427,427 0427 00427 000427,919 37 Street NW,MN,55901
Holiday Station Store,Rochester,429,429 0429 00429 000429,5505 Highway 52 N,MN,55901
Holiday Station Store,Minot,431,431 0431 00431 000431,3301 S Broadway,ND,58701
Holiday Station Store,Stanley,432,432 0432 00432 000432,402 Westview Lane,ND,58784
Holiday Station Store,Anchorage,601,601 0601 00601 000601,1405 S Bragaw,AK,99508
Holiday Station Store,Anchorage,602,602 0602 00602 000602,10630 Old Seward Hwy,AK,99515
Holiday Station Store,Wasilla,605,605 0605 00605 000605,225 N Boundary St,AK,99654
Holiday Station Store,Anchorage,606,606 0606 00606 000606,1501 Abbott Rd,AK,99507
Holiday Station Store,Anchorage,607,607 0607 00607 000607,5497 E Northern Lights Blvd,AK,99508
Holiday Station Store,Anchorage,610,610 0610 00610 000610,1500 E 5th Ave,AK,99501
Holiday Station Store,Anchorage,611,611 0611 00611 000611,1530 Huffman Rd,AK,99515
Holiday Station Store,Anchorage,614,614 0614 00614 000614,1900 Muldoon Rd,AK,99504
Holiday Station Store,Fairbanks,618,618 0618 00618 000618,205 E 3rd St,AK,99701
Holiday Station Store,Anchorage,620,620 0620 00620 000620,2900 E Tudor Rd,AK,99507
Holiday Station Store,Fairbanks,622,622 0622 00622 000622,2300 S Cushman St,AK,99701
Holiday Station Store,Anchorage,624,624 0624 00624 000624,8803 Jewel Lake Rd,AK,99502
Holiday Station Store,Anchorage,625,625 0625 00625 000625,6828 Lake Otis Pkwy,AK,99507
Holiday Station Store,Fairbanks,626,626 0626 00626 000626,4105 Geist St,AK,99709
Holiday Station Store,Anchorage,628,628 0628 00628 000628,4627 Mountain View Dr,AK,99508
Holiday Station Store,Anchorage,629,629 0629 00629 000629,2025 W Dimond Blvd,AK,99515
Holiday Station Store,Anchorage,630,630 0630 00630 000630,3727 Spenard Rd,AK,99517
Holiday Station Store,Anchorage,631,631 0631 00631 000631,285 Muldoon Rd,AK,99504
Holiday Station Store,Anchorage,632,632 0632 00632 000632,801 E Tudor,AK,99503
Holiday Station Store,Soldotna,635,635 0635 00635 000635,43883 Sterling Hwy,AK,99669
Holiday Station Store,Kenai,636,636 0636 00636 000636,10671 Kenai Spur Hwy,AK,99611
Holiday Station Store,Anchorage,637,637 0637 00637 000637,5501 DeBarr Rd,AK,99504
Holiday Station Store,Anchorage,638,638 0638 00638 000638,3500 C St,AK,99503
Holiday Station Store,Anchorage,639,639 0639 00639 000639,2150 Raspberry Rd,AK,99502
Holiday Station Store,Fairbanks,640,640 0640 00640 000640,575 Harold Bentley Avenue,AK,99701
Holiday Station Store,Wasilla,650,650 0650 00650 000650,7383 W Parks Hwy,AK,99654
Holiday Station Store,Blaine,700,700 0700 00700 000700,589 Northtown Dr,MN,55343
Holiday Station Store,Brooklyn Park,701,701 0701 00701 000701,9605 Colorado Ln N,MN,55443
Holiday Station Store,Cambridge,702,702 0702 00702 000702,102 Opportunity Blvd N,MN,55008
Holiday Station Store,Crystal,703,703 0703 00703 000703,5317 36 Ave N,MN,55422
Holiday Station Store,Mankato,704,704 0704 00704 000704,1820 Madison Ave,MN,56001
Holiday Station Store,Rochester,705,705 0705 00705 000705,1031 15 Ave SE,MN,55904
Holiday Station Store,Stillwater,706,706 0706 00706 000706,1835 Market Dr,MN,55082
Holiday Station Store,Willmar,707,707 0707 00707 000707,2195 First St S,MN,56201
Holiday Station Store,Fargo,720,720 0720 00720 000720,1510 32 Ave S,ND,58103
Holiday Station Store,Fargo,721,721 0721 00721 000721,4377 45 St S,ND,58104
Holiday Station Store,Kalispell,722,722 0722 00722 000722,840 W Idaho St,MT,59901
Holiday Station Store,Helena,723,723 0723 00723 000723,606 N Fee St,MT,59601
Holiday Station Store,Great Falls,724,724 0724 00724 000724,2260 10 Ave S,MT,59405
Holiday Station Store,Great Falls,730,730 0730 00730 000730,1428 3 St W,MT,59404
Holiday Station Store,Billings,731,731 0731 00731 000731,1280 Grand Ave,MT,59102
Holiday Station Store,Barron,3406,3406 03406 003406 0003406,530 E Division St,WI,54812
Holiday Station Store,Cornell,3412,3412 03412 003412 0003412,713 Bridge St,WI,54732
Holiday Station Store,Abbotsford,3430,3430 03430 003430 0003430,300 E Spruce St,WI,54405
Holiday Station Store,Hayward,3431,3431 03431 003431 0003431,15771 US Highway 63,WI,54843
Holiday Station Store,New Richmond,3432,3432 03432 003432 0003432,2098 Hwy 64,WI,54017
Holiday Station Store,Hudson,3433,3433 03433 003433 0003433,1207 Coulee Rd,WI,54016
Holiday Station Store,Neillsville,3436,3436 03436 003436 0003436,1 Hewett St,WI,54456
Holiday Station Store,Bloomer,3438,3438 03438 003438 0003438,2016 17th Ave,WI,54724
Holiday Station Store,Eau Claire,3440,3440 03440 003440 0003440,2205 Eddy Ln,WI,54703
Holiday Station Store,Tomahawk,3441,3441 03441 003441 0003441,706 N 4th St,WI,54487
Holiday Station Store,Hudson,3442,3442 03442 003442 0003442,1920 Crest View Dr,WI,54016
Holiday Station Store,Medford,3443,3443 03443 003443 0003443,110 S 8th St,WI,54451
Holiday Station Store,Siren,3444,3444 03444 003444 0003444,24184 State Road 35 N,WI,54872
Holiday Station Store,Hudson,3445,3445 03445 003445 0003445,100 2nd St,WI,54016
Holiday Station Store,Superior,3447,3447 03447 003447 0003447,406 Belknap St,WI,54880
Holiday Station Store,Marshfield,3448,3448 03448 003448 0003448,10492 S Central Ave,WI,54449
Holiday Station Store,Merrill,3449,3449 03449 003449 0003449,1312 W Main St,WI,54452
Holiday Station Store,Ellsworth,3450,3450 03450 003450 0003450,456 W Main St,WI,54011
Holiday Station Store,Roberts,3452,3452 03452 003452 0003452,900 N Division St,WI,54023
Holiday Station Store,Hammond,3453,3453 03453 003453 0003453,577 Davis St,WI,54015
Holiday Station Store,Amery,3456,3456 03456 003456 0003456,1000 River Place Dr,WI,54001
Holiday Station Store,Scanlon,3457,3457 03457 003457 0003457,1309 Hwy 45,MN,55720
Holiday Station Store,Menomonie,3459,3459 03459 003459 0003459,1805 N Broadway,WI,54751
Holiday Station Store,Prescott,3461,3461 03461 003461 0003461,1120 Hwy 10,WI,54021
Holiday Station Store,Hastings,3464,3464 03464 003464 0003464,12370 Point Douglas Rd,MN,55033
Holiday Station Store,Hermantown,3468,3468 03468 003468 0003468,4221 Haines Rd,MN,55811
Holiday Station Store,Turtle Lake,3469,3469 03469 003469 0003469,638 US Hwy 8,WI,54889
Holiday Station Store,Waupaca,3470,3470 03470 003470 0003470,314 E Badger St,WI,54981-1534
Holiday Station Store,Merrill,3471,3471 03471 003471 0003471,702 Center Ave,WI,54452-1274
Holiday Station Store,Spooner,3472,3472 03472 003472 0003472,730 S River St,WI,54801
Holiday Station Store,Frederic,3478,3478 03478 003478 0003478,410 Wisconsin Ave S,WI,54837
Holiday Station Store,Coon Rapids,3500,3500 03500 003500 0003500,10120 University Ave,MN,55448
Holiday Station Store,Lakeville,3504,3504 03504 003504 0003504,17280 Kenyon Ave,MN,55044-6903
Holiday Station Store,Plymouth,3506,3506 03506 003506 0003506,16825 County Rd 24,MN,55447
Holiday Station Store,Clearwater,3510,3510 03510 003510 0003510,950 State Hwy 24,MN,55320
Holiday Station Store,Albany,3511,3511 03511 003511 0003511,800 Shamrock Ln,MN,56307-0509
Holiday Station Store,Cottage Grove,3512,3512 03512 003512 0003512,6921 Pine Arbor Blvd,MN,55016
Holiday Station Store,Oakdale,3513,3513 03513 003513 0003513,3344 Hadley Ave N,MN,55128-3617
Holiday Station Store,Coon Rapids,3514,3514 03514 003514 0003514,1855 Gateway Drive,MN,55448
Holiday Station Store,Ashland,3515,3515 03515 003515 0003515,110 Ellis Ave S,WI,54806
Holiday Station Store,Grand Marais,3516,3516 03516 003516 0003516,Hwy 61 & Broadway Ave,MN,55604-0400
Holiday Station Store,Tofte,3517,3517 03517 003517 0003517,Hwy 61,MN,55615-2175
Holiday Station Store,Coon Rapids,3518,3518 03518 003518 0003518,601 Coon Rapids Blvd NW,MN,55433
Holiday Station Store,Plymouth,3524,3524 03524 003524 0003524,4075 Vinewood Ln,MN,55442-1734
Holiday Station Store,Cold Spring,3528,3528 03528 003528 0003528,216 Red River Ave S,MN,56320
Holiday Station Store,Apple Valley,3529,3529 03529 003529 0003529,15550 Cedar Ave,MN,55124
Holiday Station Store,Minneapolis,3530,3530 03530 003530 0003530,5601 Xerxes Ave S,MN,55410
Holiday Station Store,Coon Rapids,3531,3531 03531 003531 0003531,13051 Round Lake Blvd NW,MN,55448
Holiday Station Store,Litchfield,3534,3534 03534 003534 0003534,639 E Hwy 12,MN,55355
Holiday Station Store,Woodbury,3535,3535 03535 003535 0003535,757 Radio Dr,MN,55125-9446
Holiday Station Store,Brooklyn Center,3536,3536 03536 003536 0003536,5710 Xerxes Ave N,MN,55430
Holiday Station Store,Inver Grove Heights,3537,3537 03537 003537 0003537,9087 Broderick Blvd,MN,55077
Holiday Station Store,Luck,3540,3540 03540 003540 0003540,106 State Rd 35,WI,54853
Holiday Station Store,Balsam Lake,3541,3541 03541 003541 0003541,101 Main St,WI,54810
Holiday Station Store,Grantsburg,3542,3542 03542 003542 0003542,639 State Rd 70,WI,54840
Holiday Station Store,Webster,3543,3543 03543 003543 0003543,26354 S Lakeland Ave,WI,54893
Holiday Station Store,Osceola,3544,3544 03544 003544 0003544,201 Willow Lane Rd,WI,54020
Holiday Station Store,Ashland,3545,3545 03545 003545 0003545,915 W Lake Shore Dr,WI,54806
Holiday Station Store,Navarre,3546,3546 03546 003546 0003546,2420 Shadywood Dr,MN,55392
Holiday Station Store,Navarre,3547,3547 03547 003547 0003547,3340 Shoreline Dr,MN,55392
Holiday Station Store,E. Grand Forks,3548,3548 03548 003548 0003548,1010 Central Ave NE,MN,56721
Holiday Station Store,Crookston,3549,3549 03549 003549 0003549,411 N Main St,MN,56716
Holiday Station Store,St. Louis Park,3551,3551 03551 003551 0003551,5430 Minnetonka Blvd,MN,55416-2105
Holiday Station Store,Lakeville,3552,3552 03552 003552 0003552,21100 Kenrich Ave,MN,55044-8202
Holiday Station Store,Bloomington,3553,3553 03553 003553 0003553,7901 Nicollet Ave S,MN,55420-1227
Holiday Station Store,West St. Paul,3554,3554 03554 003554 0003554,1030 Dodd Rd,MN,55118
Holiday Station Store,Inver Grove Heights,3556,3556 03556 003556 0003556,7020 S Robert Tr,MN,55077
Holiday Station Store,Brainerd,3557,3557 03557 003557 0003557,1500 Mill Ave,MN,56401
Holiday Station Store,Almena,3558,3558 03558 003558 0003558,241 US Hwy 8,WI,54805
Holiday Station Store,Cumberland,3560,3560 03560 003560 0003560,1600 Elm St,WI,54829
Holiday Station Store,Hastings,3563,3563 03563 003563 0003563,1500 Vermillion St,MN,55033-3141
Holiday Station Store,Fridley,3565,3565 03565 003565 0003565,7295 University Ave NE,MN,55432
Holiday Station Store,White Bear Lake,3566,3566 03566 003566 0003566,4540 Centerville Rd,MN,55127
Holiday Station Store,White Bear Twpshp,3567,3567 03567 003567 0003567,1150 County Rd J,MN,55127
Holiday Station Store,Lake Elmo,3568,3568 03568 003568 0003568,4201 Manning Ave N,MN,55042
Holiday Station Store,Deerwood,3571,3571 03571 003571 0003571,23736 Front St,MN,56444
Holiday Station Store,Emily,3572,3572 03572 003572 0003572,21004 County Rd 1,MN,56447
Holiday Station Store,Aitkin,3573,3573 03573 003573 0003573,1 Minnesota Avenue S,MN,56431
Holiday Station Store,McGregor,3574,3574 03574 003574 0003574,State Hwy 210 & State Hwy 65,MN,55760
Holiday Station Store,Fargo,3576,3576 03576 003576 0003576,1020 19th Ave N,ND,58102
Holiday Station Store,Cologne,3577,3577 03577 003577 0003577,409 Paul Ave S,MN,55322
Holiday Station Store,Woodville,3579,3579 03579 003579 0003579,135 Stene Dr,WI,54028
Holiday Station Store,Cushing,3580,3580 03580 003580 0003580,2640 Old Hwy 87,WI,54006
Holiday Station Store,Lakeville,3584,3584 03584 003584 0003584,16255 Ipava Ave N,MN,55044
Holiday Station Store,Mounds View,3585,3585 03585 003585 0003585,2732 NE Hwy 10,MN,55112-4042
Holiday Station Store,New Hope,3586,3586 03586 003586 0003586,7180 42nd Ave N,MN,55427
Holiday Station Store,Cross Lake,3589,3589 03589 003589 0003589,Rte 66 & Cty Rd 3,MN,56442
Holiday Station Store,Minong,3591,3591 03591 003591 0003591,1030 West Hokah Street,WI,54859-9171
Holiday Station Store,Sauk Centre,3592,3592 03592 003592 0003592,1185 S Main,MN,56378-0088
Holiday Station Store,Maple Grove,3593,3593 03593 003593 0003593,13303 Bass Lake Rd,MN,55311
Holiday Station Store,Maple Grove,3594,3594 03594 003594 0003594,11201 93 Avenue N,MN,55369
Holiday Station Store,Eden Prairie,3596,3596 03596 003596 0003596,12619 Valley View Rd,MN,55347
Holiday Station Store,Becker,3598,3598 03598 003598 0003598,14740 165th Ave,MN,55308-0536
Holiday Station Store,Eau Claire,3701,3701 03701 003701 0003701,6126 Texaco Dr,WI,54703
Holiday Station Store,Eau Claire,3702,3702 03702 003702 0003702,2109 Highland Ave,WI,54701
Holiday Station Store,Eau Claire,3704,3704 03704 003704 0003704,2119 Cameron St,WI,54703
Holiday Station Store,Altoona,3705,3705 03705 003705 0003705,1027 N Hillcrest Pkwy,WI,54720
Holiday Station Store,Eau Claire,3706,3706 03706 003706 0003706,2920 Craig Rd,WI,54701
Holiday Station Store,Eau Claire,3707,3707 03707 003707 0003707,2943 Western Ave,WI,54703
Holiday Station Store,Eau Claire,3709,3709 03709 003709 0003709,5511 Hwy 93,WI,54701
Holiday Station Store,Eau Claire,3710,3710 03710 003710 0003710,4304 Jeffers Rd,WI,54703
Holiday Station Store,Chippewa Falls,3711,3711 03711 003711 0003711,1433 Commercial Blvd,WI,54729
Holiday Station Store,Eau Claire,3712,3712 03712 003712 0003712,2302 E Clairemont Ave,WI,54701
Holiday Station Store,Eau Claire,3715,3715 03715 003715 0003715,2806 Golf Rd,WI,54701
Holiday Station Store,Chippewa Falls,3716,3716 03716 003716 0003716,501 N Bridge St,WI,54729
Holiday Station Store,Eau Claire,3717,3717 03717 003717 0003717,1731 Bracket Ave,WI,54703
Holiday Station Store,Eau Claire,3718,3718 03718 003718 0003718,2230 Birch St,WI,54703
Holiday Station Store,Eau Claire,3719,3719 03719 003719 0003719,2940 N Clairemont Ave,WI,54703
Holiday Station Store,Eau Claire,3720,3720 03720 003720 0003720,539 Water St,WI,54703-5632
Holiday Station Store,Chippewa Falls,3721,3721 03721 003721 0003721,2750 120th St,WI,54729
Holiday Station Store,St. Cloud,3760,3760 03760 003760 0003760,905 Country Rd 4,MN,56303
Holiday Station Store,St. Cloud,3761,3761 03761 003761 0003761,405 E St Germain,MN,56304
Holiday Station Store,Waite Park,3763,3763 03763 003763 0003763,157 S Waite Ave,MN,56387
Holiday Station Store,Milaca,3764,3764 03764 003764 0003764,410 10th Ave SE,MN,56353
Holiday Station Store,Sauk Rapids,3766,3766 03766 003766 0003766,3 N Benton Dr,MN,56379
Holiday Station Store,Hutchinson,3767,3767 03767 003767 0003767,1016 Hwy 15 S,MN,55350
Holiday Station Store,Sauk Rapids,3768,3768 03768 003768 0003768,1715 2nd Ave N,MN,56379
Holiday Station Store,Sartell,3770,3770 03770 003770 0003770,1001 7th St N,MN,56377
Holiday Station Store,New Ulm,3772,3772 03772 003772 0003772,1201 W Ridge Rd,MN,56073
Holiday Station Store,Delano,3773,3773 03773 003773 0003773,1473 Babcock Blvd E,MN,55328
Holiday Station Store,St. Joseph,3774,3774 03774 003774 0003774,304 College Ave N,MN,56374
Holiday Station Store,Sartell,3775,3775 03775 003775 0003775,216 Riverside Ave,MN,56377
Holiday Station Store,St. Cloud,3776,3776 03776 003776 0003776,730 S Hwy 10,MN,56304
Holiday Station Store,Sauk Rapids,3777,3777 03777 003777 0003777,1423 2nd St N,MN,56379
Holiday Station Store,St. Cloud,3778,3778 03778 003778 0003778,328 5 St S,MN,56301
Holiday Station Store,Maplewood,3830,3830 03830 003830 0003830,2729 Stillwater Rd,MN,55119
Holiday Station Store,Eagan,3831,3831 03831 003831 0003831,1579 Cliff Rd,MN,55122
Holiday Station Store,Inver Grove Heights,3832,3832 03832 003832 0003832,6976 Cahill Ave,MN,55076
Holiday Station Store,Jordan,3833,3833 03833 003833 0003833,255 Triangle Ln,MN,55352
Holiday Station Store,North St. Paul,3836,3836 03836 003836 0003836,2255 E South Ave,MN,55109
Holiday Station Store,North St. Paul,3837,3837 03837 003837 0003837,2159 N Division St,MN,55109
Holiday Station Store,Stillwater,3838,3838 03838 003838 0003838,2500 Orleans St,MN,55082
Holiday Station Store,Cottage Grove,3870,3870 03870 003870 0003870,8610 E Pointe Douglas Rd,MN,55016
Holiday Station Store,Woodbury,3871,3871 03871 003871 0003871,2030 Eagle Creek Ln,MN,55125
Holiday Station Store,Pierre,3881,3881 03881 003881 0003881,520 Garfield Avenue S,SD,57501
Holiday Station Store,Sioux Falls,3882,3882 03882 003882 0003882,6509 S Louise Avenue,SD,57108
Holiday Station Store,Mitchell,3883,3883 03883 003883 0003883,1821 S Burr Street,SD,57301
Holiday Station Store,Mobridge,3884,3884 03884 003884 0003884,505 E Grand Crossing,SD,57601
Holiday Station Store,Luverne,3885,3885 03885 003885 0003885,915 S Kniss Avenue,MN,56156
Holiday Station Store,Volga,3886,3886 03886 003886 0003886,422 E US 14,SD,57071
Holiday Station Store,Sioux Falls,3887,3887 03887 003887 0003887,3000 E 26 Street,SD,57103
Holiday Station Store,Sioux Falls,3888,3888 03888 003888 0003888,1737 S Cliff Avenue,SD,57105
Holiday Station Store,Sioux Falls,3889,3889 03889 003889 0003889,4600 W 41 Street,SD,57106
Holiday Station Store,Sioux Falls,3890,3890 03890 003890 0003890,3312 S Western Avenue,SD,57105
Holiday Station Store,Sioux Falls,3891,3891 03891 003891 0003891,1927 W 57 Street,SD,57108
Holiday Station Store,Sioux Falls,3892,3892 03892 003892 0003892,7125 W 26 Street,SD,57106
Holiday Station Store,Sioux Falls,3893,3893 03893 003893 0003893,3245 S Sycamore Avenue,SD,57110
Holiday Station Store,Aberdeen,3894,3894 03894 003894 0003894,602 S Highway 281,SD,57401
Holiday Station Store,Worthington,3895,3895 03895 003895 0003895,2411 Highway 60 NE,MN,56187
Holiday Station Store,Brandon,3896,3896 03896 003896 0003896,920 N Splitrock Boulevard,SD,57005
Holiday Station Store,Bloomington,5815,5815 05815 005815 0005815,4567 American Blvd W,MN,55437
