keywords,city,Aggdata Store Number,store_number,address,state,zip_code
Home Depot,Duluth,105,#0105 #105 105 #000105 0105,3755 Shackleford Rd,GA,30096
Home Depot,Kennesaw,106,#0106 #106 106 #000106 0106,449 Roberts CT NW,GA,30144
Home Depot,Lilburn,110,#0110 #110 110 #000110 0110,4121 Highway 78,GA,30047
Home Depot,Marietta,111,#0111 #111 111 #000111 0111,4101 Roswell Rd,GA,30062
Home Depot,Morrow,114,#0114 #114 114 #000114 0114,2034 MT Zion Rd,GA,30260
Home Depot,Atlanta,115,#0115 #115 115 #000115 0115,4343 Tilly Mill Rd,GA,30360
Home Depot,Woodstock,116,#0116 #116 116 #000116 0116,"9037 Hwy 92, Suite 100",GA,30189
Home Depot,Decatur,117,#0117 #117 117 #000117 0117,2295 Lawrenceville Hwy,GA,30033
Home Depot,Decatur,118,#0118 #118 118 #000118 0118,4325 New Snapfinger Wood,GA,30035
Home Depot,Augusta,119,#0119 #119 119 #000119 0119,499 Bobby Jones Expy,GA,30907
Home Depot,Atlanta,121,#0121 #121 121 #000121 0121,2450 Cumberland Pkwy,GA,30339
Home Depot,Savannah,122,#0122 #122 122 #000122 0122,11180 Abercorn St,GA,31419
Home Depot,Atlanta,123,#0123 #123 123 #000123 0123,3885 Jonesboro Rd SE,GA,30354
Home Depot,Lawrenceville,126,#0126 #126 126 #000126 0126,875 Lawrncvile Suwane Rd,GA,30043
Home Depot,Fayetteville,127,#0127 #127 127 #000127 0127,103 Pavillion Parkway,GA,30214
Home Depot,Conyers,128,#0128 #128 128 #000128 0128,1330 Dogwood Dr,GA,30013
Home Depot,Athens,129,#0129 #129 129 #000129 0129,1740 Epps Bridge Rd,GA,30606
Home Depot,Atlanta,130,#0130 #130 130 #000130 0130,1032 Research Center,GA,30331
Home Depot,Duluth,131,#0131 #131 131 #000131 0131,5950 State Bridge Rd,GA,30097
Home Depot,Carrollton,132,#0132 #132 132 #000132 0132,1332 South Park St,GA,30117
Home Depot,Cartersville,133,#0133 #133 133 #000133 0133,100 Gentilly Blvd,GA,30120
Home Depot,Cumming,134,#0134 #134 134 #000134 0134,1000 Market Pl Blvd,GA,30041
Home Depot,Columbus,136,#0136 #136 136 #000136 0136,2891 Sowega Dr,GA,31909
Home Depot,Dalton,137,#0137 #137 137 #000137 0137,875 Shugart Rd,GA,30720
Home Depot,Griffin,138,#0138 #138 138 #000138 0138,1435 Highway 16 W,GA,30223
Home Depot,Rome,139,#0139 #139 139 #000139 0139,103 Hicks Drive,GA,30161
Home Depot,Valdosta,140,#0140 #140 140 #000140 0140,1825 Norman Dr,GA,31601
Home Depot,Brunswick,141,#0141 #141 141 #000141 0141,200 Altama Connector,GA,31520
Home Depot,Douglasville,143,#0143 #143 143 #000143 0143,7399 Douglas Blvd,GA,30135
Home Depot,Snellville,144,#0144 #144 144 #000144 0144,1670 Scenic Hwy N,GA,30078
Home Depot,Canton,145,#0145 #145 145 #000145 0145,2200 Riverstone Blvd,GA,30114
Home Depot,Roswell,146,#0146 #146 146 #000146 0146,870 Woodstock Rd,GA,30075
Home Depot,Buford,147,#0147 #147 147 #000147 0147,4120 Highway 20,GA,30518
Home Depot,Newnan,148,#0148 #148 148 #000148 0148,1100 Bullsboro Dr,GA,30265
Home Depot,Alpharetta,149,#0149 #149 149 #000149 0149,5300 Windward Pkwy,GA,30004
Home Depot,Hiram,151,#0151 #151 151 #000151 0151,145 Depot Drive,GA,30141
Home Depot,Gainesville,152,#0152 #152 152 #000152 0152,924 Dawsonville Hwy,GA,30501
Home Depot,Marietta,153,#0153 #153 153 #000153 0153,2350 Dallas Hwy,GA,30064
Home Depot,Sandy Springs,154,#0154 #154 154 #000154 0154,6400 Pchtree-Dunwoody Rd,GA,30328
Home Depot,Albany,155,#0155 #155 155 #000155 0155,1219 Westover Blvd,GA,31707
Home Depot,Acworth,156,#0156 #156 156 #000156 0156,3355 Cobb Pkwy,GA,30101
Home Depot,McDonough,157,#0157 #157 157 #000157 0157,1750 Jonesboro Rd,GA,30253
Home Depot,Atlanta,159,#0159 #159 159 #000159 0159,650 Ponce DE Leon,GA,30308
Home Depot,Lagrange,160,#0160 #160 160 #000160 0160,1500 Layfayette Pkwy,GA,30240
Home Depot,Dacula,161,#0161 #161 161 #000161 0161,2120 Hamilton Creek Pkwy,GA,30019
Home Depot,Warner Robins,163,#0163 #163 163 #000163 0163,2620 Watson Blvd,GA,31093
Home Depot,Peachtree City,164,#0164 #164 164 #000164 0164,2715 Hwy 54 W,GA,30269
Home Depot,Covington,165,#0165 #165 165 #000165 0165,13171 Hwy 142 NW,GA,30014
Home Depot,Savannah,170,#0170 #170 170 #000170 0170,1901 E Victory Dr,GA,31404
Home Depot,Loganville,172,#0172 #172 172 #000172 0172,4141 Atlanta Highway,GA,30052
Home Depot,Dawsonville,174,#0174 #174 174 #000174 0174,801 Hwy 400 South,GA,30534
Home Depot,Norcross,175,#0175 #175 175 #000175 0175,4136 Jimmy Carter Blvd,GA,30093
Home Depot,Riverdale,178,#0178 #178 178 #000178 0178,680 Lamar Hutcheson Pkwy,GA,30274
Home Depot,Pooler,179,#0179 #179 179 #000179 0179,190 Pooler Pkwy,GA,31322
Home Depot,Port Charlotte,201,#0201 #201 201 #000201 0201,19690 Cochran Blvd,FL,33948
Home Depot,Hialeah,202,#0202 #202 202 #000202 0202,1590 West 49th Street,FL,33012
Home Depot,Lake Wales,203,#0203 #203 203 #000203 0203,24201 North US Hwy 27,FL,33853
Home Depot,Boca Raton,204,#0204 #204 204 #000204 0204,9820 Glades Road,FL,33434
Home Depot,Lake Worth,205,#0205 #205 205 #000205 0205,4241 Lake Worth Rd,FL,33461
Home Depot,Miami,206,#0206 #206 206 #000206 0206,11305 SW 40th Street,FL,33165
Home Depot,Miami,207,#0207 #207 207 #000207 0207,19400 SW 106th Ave,FL,33157
Home Depot,Pompano Beach,208,#0208 #208 208 #000208 0208,1151 NW Copans Rd,FL,33064
Home Depot,Hialeah,209,#0209 #209 209 #000209 0209,5500 NW 167th Street,FL,33014
Home Depot,Miami,210,#0210 #210 210 #000210 0210,12700 SW 88th St,FL,33186
Home Depot,Vero Beach,213,#0213 #213 213 #000213 0213,1885 58th Ave,FL,32966
Home Depot,Deerfield Beach,218,#0218 #218 218 #000218 0218,60 SW 12th Ave,FL,33442
Home Depot,Lake Park,220,#0220 #220 220 #000220 0220,3860 Northlake Blvd,FL,33403
Home Depot,Jensen Beach,221,#0221 #221 221 #000221 0221,3451 NW Federal Hwy,FL,34957
Home Depot,Davie,222,#0222 #222 222 #000222 0222,2300 S University D,FL,33324
Home Depot,Boynton Beach,224,#0224 #224 224 #000224 0224,1500 SW 8th St,FL,33426
Home Depot,Jacksonville,226,#0226 #226 226 #000226 0226,9021 Southside Blvd,FL,32256
Home Depot,Orlando,232,#0232 #232 232 #000232 0232,7423 Southland Blvd,FL,32809
Home Depot,Daytona Beach,233,#0233 #233 233 #000233 0233,2455 Int'L Speedwy Blvd,FL,32114
Home Depot,Merritt Island,234,#0234 #234 234 #000234 0234,200 N Courtenay Pkwy,FL,32953
Home Depot,Port Richey,238,#0238 #238 238 #000238 0238,10017 US Hwy 19,FL,34668
Home Depot,Tampa,243,#0243 #243 243 #000243 0243,9941 E Adamo Dr,FL,33619
Home Depot,Bradenton,244,#0244 #244 244 #000244 0244,2350 Cortez Road West,FL,34207
Home Depot,Tampa,245,#0245 #245 245 #000245 0245,16121 N Dale Mabry Hwy,FL,33618
Home Depot,Clearwater,247,#0247 #247 247 #000247 0247,30144 US Hwy 19 N,FL,33761
Home Depot,Lakeland,248,#0248 #248 248 #000248 0248,2805 US Highway 98 N,FL,33805
Home Depot,Oakland Park,249,#0249 #249 249 #000249 0249,1701 W Oakland Pk Blvd,FL,33311
Home Depot,North Miami Beach,251,#0251 #251 251 #000251 0251,1245 NE 163rd Street,FL,33162
Home Depot,Ocala,253,#0253 #253 253 #000253 0253,3300 SW 35th Terrace,FL,34474
Home Depot,Tallahassee,254,#0254 #254 254 #000254 0254,3200 Capital Cir NE,FL,32308
Home Depot,Sarasota,255,#0255 #255 255 #000255 0255,4111 Cattleman Rd,FL,34233
Home Depot,Tampa,256,#0256 #256 256 #000256 0256,1712 N Dale Mabry Hwy,FL,33607
Home Depot,Saint Petersburg,257,#0257 #257 257 #000257 0257,2300 22nd Ave North,FL,33713
Home Depot,Sunrise,258,#0258 #258 258 #000258 0258,2901 N University Dr,FL,33322
Home Depot,West Melbourne,260,#0260 #260 260 #000260 0260,2829 W New Haven Ave,FL,32904
Home Depot,Orlando,261,#0261 #261 261 #000261 0261,7022 W Colonial Dr,FL,32818
Home Depot,Casselberry,262,#0262 #262 262 #000262 0262,3455 S US Hwy 17-92,FL,32707
Home Depot,Altamonte Springs,263,#0263 #263 263 #000263 0263,"882 W State Rd, 436",FL,32714
Home Depot,Lake Mary,264,#0264 #264 264 #000264 0264,4600 W Lake Mary Blvd,FL,32746
Home Depot,Kissimmee,265,#0265 #265 265 #000265 0265,2601 W Vine Street,FL,34741
Home Depot,Orlando,266,#0266 #266 266 #000266 0266,6130 E Colonial Dr,FL,32807
Home Depot,Cape Coral,268,#0268 #268 268 #000268 0268,3031 NE Pine Island Rd,FL,33909
Home Depot,Gainesville,270,#0270 #270 270 #000270 0270,7107 NW 4th Blvd,FL,32607
Home Depot,Jacksonville,272,#0272 #272 272 #000272 0272,9520 Regency Sq Blvd N,FL,32225
Home Depot,Venice,273,#0273 #273 273 #000273 0273,2450 Jacaranda Blvd,FL,34293
Home Depot,Jupiter,274,#0274 #274 274 #000274 0274,1694 W Indiantown Rd,FL,33458
Home Depot,Orange Park,275,#0275 #275 275 #000275 0275,1919 Wells Rd,FL,32073
Home Depot,Fort Myers,276,#0276 #276 276 #000276 0276,14655 S Tamiami Trail,FL,33912
Home Depot,Miami,277,#0277 #277 277 #000277 0277,3030 SW 8th St,FL,33135
Home Depot,Leesburg,278,#0278 #278 278 #000278 0278,10825 US Hwy 441,FL,34788
Home Depot,Tampa,279,#0279 #279 279 #000279 0279,8815 N Florida Ave,FL,33604
Home Depot,Naples,280,#0280 #280 280 #000280 0280,2251 Pine Ridge Rd,FL,34109
Home Depot,Spring Hill,281,#0281 #281 281 #000281 0281,4765 Commercial Way,FL,34606
Home Depot,Fort Pierce,283,#0283 #283 283 #000283 0283,5880 Okeechobee Rd,FL,34947
Home Depot,Coral Springs,284,#0284 #284 284 #000284 0284,750 N University Dr,FL,33071
Home Depot,Hollywood,285,#0285 #285 285 #000285 0285,1951 South S R #7,FL,33023
Home Depot,Oviedo,287,#0287 #287 287 #000287 0287,1900 W State Rd 426,FL,32765
Home Depot,Holiday,288,#0288 #288 288 #000288 0288,1315 US Hwy 19 North,FL,34691
Home Depot,Pinellas Park,289,#0289 #289 289 #000289 0289,4040 Park Blvd,FL,33781
Home Depot,Kenner,349,#0349 #349 349 #000349 0349,2625 Veterans Blvd,LA,70062
Home Depot,New Orleans,352,#0352 #352 352 #000352 0352,12300 I-10 Service Rd,LA,70128
Home Depot,Shreveport,356,#0356 #356 356 #000356 0356,110 E Bert Kouns Ind Lp,LA,71106
Home Depot,Baton Rouge,357,#0357 #357 357 #000357 0357,10300 Coursey Blvd,LA,70816
Home Depot,Covington,358,#0358 #358 358 #000358 0358,40 Park Place Drive,LA,70433
Home Depot,Gretna,359,#0359 #359 359 #000359 0359,62 W Bank Expressway,LA,70053
Home Depot,Lafayette,360,#0360 #360 360 #000360 0360,3721 Ambassador Caffery,LA,70503
Home Depot,Harahan,362,#0362 #362 362 #000362 0362,5151 Citrus Blvd,LA,70123
Home Depot,Lake Charles,363,#0363 #363 363 #000363 0363,3200 E Prien Lake Rd,LA,70615
Home Depot,Bossier City,364,#0364 #364 364 #000364 0364,2800 Airline Dr,LA,71111
Home Depot,Slidell,365,#0365 #365 365 #000365 0365,143 N Shore Blvd,LA,70460
Home Depot,Monroe,366,#0366 #366 366 #000366 0366,3750 Millhaven Rd,LA,71203
Home Depot,Baton Rouge,367,#0367 #367 367 #000367 0367,8181 Airline Highway,LA,70815
Home Depot,Marrero,368,#0368 #368 368 #000368 0368,4600 Lapalco Blvd,LA,70072
Home Depot,Baton Rouge,370,#0370 #370 370 #000370 0370,18139 Highland Rd,LA,70810
Home Depot,Houma,371,#0371 #371 371 #000371 0371,1717 Martin L King Blvd,LA,70360
Home Depot,Chalmette,373,#0373 #373 373 #000373 0373,8601 W Judge Perez Dr,LA,70043
Home Depot,Alexandria,374,#0374 #374 374 #000374 0374,5000 Masonic Dr,LA,71301
Home Depot,Denham Springs,375,#0375 #375 375 #000375 0375,2255 Home Depot Dr,LA,70726
Home Depot,Lafayette,376,#0376 #376 376 #000376 0376,1700 NE Evangeline,LA,70501
Home Depot,La Place,378,#0378 #378 378 #000378 0378,300 West Airline Hwy,LA,70068
Home Depot,Zachary,380,#0380 #380 380 #000380 0380,6600 Main Street,LA,70791
Home Depot,Shreveport,381,#0381 #381 381 #000381 0381,6900 Pines Road,LA,71129
Home Depot,Gonzales,383,#0383 #383 383 #000383 0383,2740 South Cajun Ave,LA,70737
Home Depot,New Orleans,385,#0385 #385 385 #000385 0385,1100 S Claiborne Avenue,LA,70125
Home Depot,Slidell,386,#0386 #386 386 #000386 0386,874 I-10 Service Road,LA,70461
Home Depot,Broussard,389,#0389 #389 389 #000389 0389,213 Saint Nazaire Rd,LA,70518
Home Depot,Phoenix,401,#0401 #401 401 #000401 0401,2217 East Bell Road,AZ,85022
Home Depot,Yuma,402,#0402 #402 402 #000402 0402,1111 S Redondo Center,AZ,85365
Home Depot,Lake Havasu City,403,#0403 #403 403 #000403 0403,100 Center Blvd,AZ,86404
Home Depot,Mesa,404,#0404 #404 404 #000404 0404,1545 S Crismon Rd,AZ,85209
Home Depot,Glendale,405,#0405 #405 405 #000405 0405,5902 W Peoria Ave,AZ,85302
Home Depot,Mesa,406,#0406 #406 406 #000406 0406,6708 E McKellips Rd,AZ,85215
Home Depot,Casa Grande,408,#0408 #408 408 #000408 0408,1546 E Florence Blvd,AZ,85122
Home Depot,Tucson,410,#0410 #410 410 #000410 0410,7677 E Broadway Blvd,AZ,85710
Home Depot,Show Low,411,#0411 #411 411 #000411 0411,5601 S White Mountain Rd,AZ,85901
Home Depot,Phoenix,413,#0413 #413 413 #000413 0413,9969 W Camelback Road,AZ,85037
Home Depot,Tucson,414,#0414 #414 414 #000414 0414,4302 N Oracle Rd,AZ,85705
Home Depot,Queen Creek,415,#0415 #415 415 #000415 0415,7401 S Power Road,AZ,85142
Home Depot,Kingman,416,#0416 #416 416 #000416 0416,3860 Stockton Hill Rd,AZ,86409
Home Depot,Chandler,417,#0417 #417 417 #000417 0417,4141 S Arizona Ave,AZ,85248
Home Depot,Scottsdale,420,#0420 #420 420 #000420 0420,9890 N 90th Street,AZ,85258
Home Depot,Flagstaff,421,#0421 #421 421 #000421 0421,5005 Marketplace Dr #110,AZ,86004
Home Depot,Payson,422,#0422 #422 422 #000422 0422,2000 North Beeline Hwy,AZ,85541
Home Depot,Cottonwood,423,#0423 #423 423 #000423 0423,1030 S State Route 260,AZ,86326
Home Depot,Peoria,424,#0424 #424 424 #000424 0424,25650 N Lke Pleasant Pky,AZ,85383
Home Depot,Avondale,441,#0441 #441 441 #000441 0441,1489 N Dysart Rd,AZ,85323
Home Depot,Bullhead City,442,#0442 #442 442 #000442 0442,660 US Hwy 95,AZ,86429
Home Depot,Sierra Vista,443,#0443 #443 443 #000443 0443,3500 Avenida Cochise,AZ,85635
Home Depot,Thatcher,445,#0445 #445 445 #000445 0445,750 S 20th Avenue,AZ,85552
Home Depot,Prescott Valley,446,#0446 #446 446 #000446 0446,5500 E State Route 69,AZ,86314
Home Depot,Laveen,447,#0447 #447 447 #000447 0447,5230 W Baseline Road,AZ,85339
Home Depot,Prescott,452,#0452 #452 452 #000452 0452,1941 E Highway 69,AZ,86301
Home Depot,Peoria,453,#0453 #453 453 #000453 0453,9201 W Peoria Ave,AZ,85345
Home Depot,Phoenix,455,#0455 #455 455 #000455 0455,7333 W McDowell Rd,AZ,85035
Home Depot,Mesa,456,#0456 #456 456 #000456 0456,6838 E Superstition Sprg,AZ,85209
Home Depot,Scottsdale,457,#0457 #457 457 #000457 0457,9170 E Indian Bend Rd,AZ,85250
Home Depot,Tempe,458,#0458 #458 458 #000458 0458,725 W Warner Rd,AZ,85284
Home Depot,Glendale,459,#0459 #459 459 #000459 0459,6880 W Bell Rd,AZ,85308
Home Depot,Phoenix,464,#0464 #464 464 #000464 0464,16803 N Tatum Blvd,AZ,85032
Home Depot,Tucson,467,#0467 #467 467 #000467 0467,1155 W Irvington Rd,AZ,85714
Home Depot,Phoenix,468,#0468 #468 468 #000468 0468,2650 W Thunderbird Rd,AZ,85023
Home Depot,Mesa,469,#0469 #469 469 #000469 0469,1740 S Country Club Dr,AZ,85210
Home Depot,Chandler,470,#0470 #470 470 #000470 0470,1155 W Chandler Blvd,AZ,85224
Home Depot,Gilbert,471,#0471 #471 471 #000471 0471,745 S Val Vista Dr,AZ,85296
Home Depot,Scottsdale,472,#0472 #472 472 #000472 0472,15499 N Hayden Rd,AZ,85260
Home Depot,Mesa,473,#0473 #473 473 #000473 0473,425 S Val Vista Dr,AZ,85204
Home Depot,Glendale,475,#0475 #475 475 #000475 0475,6160 W Behrend Dr,AZ,85308
Home Depot,Chandler,476,#0476 #476 476 #000476 0476,"650 N 54th St, Suite A",AZ,85226
Home Depot,Phoenix,477,#0477 #477 477 #000477 0477,3609 E Thomas Rd,AZ,85018
Home Depot,Tucson,478,#0478 #478 478 #000478 0478,3925 W Costco Dr,AZ,85741
Home Depot,Phoenix,480,#0480 #480 480 #000480 0480,12434 N Cave Creek Rd,AZ,85022
Home Depot,Oro Valley,481,#0481 #481 481 #000481 0481,10855 N Oracle Rd,AZ,85737
Home Depot,Flagstaff,482,#0482 #482 482 #000482 0482,1325 W Route 66,AZ,86001
Home Depot,Surprise,483,#0483 #483 483 #000483 0483,13760 W Bell Rd,AZ,85374
Home Depot,Phoenix,485,#0485 #485 485 #000485 0485,4848 N 43rd Avenue,AZ,85031
Home Depot,Tucson,486,#0486 #486 486 #000486 0486,3689 E Broadway Blvd,AZ,85716
Home Depot,Cave Creek,488,#0488 #488 488 #000488 0488,4925 E Carefree Hwy,AZ,85331
Home Depot,Tempe,489,#0489 #489 489 #000489 0489,1330 W Baseline Road,AZ,85283
Home Depot,Beaumont,501,#0501 #501 501 #000501 0501,3910 Eastex Freeway,TX,77703
Home Depot,San Antonio,503,#0503 #503 503 #000503 0503,527 Fair Avenue,TX,78223
Home Depot,Round Rock,504,#0504 #504 504 #000504 0504,2551 S Interstate Hwy 35,TX,78664
Home Depot,Lubbock,505,#0505 #505 505 #000505 0505,5801 W Loop 289,TX,79414
Home Depot,Pharr,506,#0506 #506 506 #000506 0506,409 N Jackson Ave,TX,78577
Home Depot,Grand Prairie,507,#0507 #507 507 #000507 0507,3850 S Carrier Pkwy,TX,75052
Home Depot,Conroe,508,#0508 #508 508 #000508 0508,1341 W Davis St,TX,77304
Home Depot,Austin,509,#0509 #509 509 #000509 0509,11301 Lakeline Blvd,TX,78717
Home Depot,Lufkin,513,#0513 #513 513 #000513 0513,4211 S Medford Drive,TX,75901
Home Depot,Marble Falls,514,#0514 #514 514 #000514 0514,1307 Mormon Mills Rd,TX,78654
Home Depot,McAllen,516,#0516 #516 516 #000516 0516,801 Trenton Road,TX,78504
Home Depot,Sherman,518,#0518 #518 518 #000518 0518,601 Northcreek Dr,TX,75092
Home Depot,Gainesville,519,#0519 #519 519 #000519 0519,804 E Hwy 82,TX,76240
Home Depot,El Paso,522,#0522 #522 522 #000522 0522,11360 Rojas Drive,TX,79936
Home Depot,El Paso,523,#0523 #523 523 #000523 0523,7545 N Mesa And Remcon,TX,79912
Home Depot,Lewisville,524,#0524 #524 524 #000524 0524,901 N Stemmons Pkwy,TX,75067
Home Depot,Corpus Christi,526,#0526 #526 526 #000526 0526,5041 S Padre Island Dr,TX,78411
Home Depot,Plano,527,#0527 #527 527 #000527 0527,4600 State Hwy 121,TX,75024
Home Depot,McKinney,528,#0528 #528 528 #000528 0528,1515 N Central Expresswy,TX,75070
Home Depot,Fort Worth,529,#0529 #529 529 #000529 0529,7950 South Fwy,TX,76134
Home Depot,Cedar Hill,530,#0530 #530 530 #000530 0530,373 E Fm 1382,TX,75104
Home Depot,Rockwall,531,#0531 #531 531 #000531 0531,765 East I-30,TX,75087
Home Depot,Katy,534,#0534 #534 534 #000534 0534,1111 N Fry Rd,TX,77449
Home Depot,Euless,537,#0537 #537 537 #000537 0537,251 S Industrial Blvd,TX,76040
Home Depot,Plano,539,#0539 #539 539 #000539 0539,1224 N Central Expy,TX,75074
Home Depot,Richland Hills,540,#0540 #540 540 #000540 0540,6501 NE Loop 820,TX,76180
Home Depot,Arlington,541,#0541 #541 541 #000541 0541,4611 S Cooper St,TX,76017
Home Depot,Fort Worth,542,#0542 #542 542 #000542 0542,"4850 SW Loop, 820 Bl R",TX,76109
Home Depot,Dallas,550,#0550 #550 550 #000550 0550,11255 Garland Rd,TX,75218
Home Depot,Plano,551,#0551 #551 551 #000551 0551,6200 W Park Blvd,TX,75093
Home Depot,Dallas,552,#0552 #552 552 #000552 0552,2901 W Wheatland Rd,TX,75237
Home Depot,Garland,553,#0553 #553 553 #000553 0553,3261 N George Bush Hwy,TX,75041
Home Depot,Arlington,554,#0554 #554 554 #000554 0554,201 Rd To Six Flags West,TX,76011
Home Depot,Balch Springs,555,#0555 #555 555 #000555 0555,12005 Elam Road,TX,75180
Home Depot,Garland,556,#0556 #556 556 #000556 0556,2140 Jupiter Road,TX,75044
Home Depot,Midland,561,#0561 #561 561 #000561 0561,4009 N Midland,TX,79707
Home Depot,Odessa,562,#0562 #562 562 #000562 0562,5181 E 42nd St,TX,79762
Home Depot,Irving,563,#0563 #563 563 #000563 0563,3200 W Irving Blvd,TX,75061
Home Depot,Dallas,564,#0564 #564 564 #000564 0564,11468 Grissom Lane,TX,75229
Home Depot,Pasadena,565,#0565 #565 565 #000565 0565,5455 Fairmont Parkway,TX,77505
Home Depot,Houston,566,#0566 #566 566 #000566 0566,5445 West Loop,TX,77081
Home Depot,Spring,568,#0568 #568 568 #000568 0568,20131 N I-45,TX,77373
Home Depot,Houston,569,#0569 #569 569 #000569 0569,13400 Market Street,TX,77015
Home Depot,Houston,571,#0571 #571 571 #000571 0571,1100 Lumpkin Rd,TX,77043
Home Depot,Sugar Land,574,#0574 #574 574 #000574 0574,15505 SW Freeway,TX,77478
Home Depot,Humble,576,#0576 #576 576 #000576 0576,20360 Hwy 59,TX,77338
Home Depot,Houston,577,#0577 #577 577 #000577 0577,999 North Loop West,TX,77008
Home Depot,Houston,578,#0578 #578 578 #000578 0578,11500 Chimney Rock,TX,77035
Home Depot,San Antonio,580,#0580 #580 580 #000580 0580,4909 Windsor Hill,TX,78239
Home Depot,San Antonio,581,#0581 #581 581 #000581 0581,5101 Cambray Dr,TX,78229
Home Depot,San Antonio,582,#0582 #582 582 #000582 0582,1066 Central Pkwy S,TX,78232
Home Depot,Houston,584,#0584 #584 584 #000584 0584,6800 W Sam Houston,TX,77072
Home Depot,Houston,585,#0585 #585 585 #000585 0585,2828 South Highway 6,TX,77082
Home Depot,San Antonio,586,#0586 #586 586 #000586 0586,611 SW Loop 410,TX,78227
Home Depot,Southlake,587,#0587 #587 587 #000587 0587,300 Village Ctr Dr,TX,76092
Home Depot,San Antonio,588,#0588 #588 588 #000588 0588,W 12871 Interstate 10,TX,78249
Home Depot,Dallas,589,#0589 #589 589 #000589 0589,6110 Lemmon Ave,TX,75209
Home Depot,Corona,601,#0601 #601 601 #000601 0601,490 McKinley St,CA,92879
Home Depot,Tustin,603,#0603 #603 603 #000603 0603,2782 El Camino Real,CA,92782
Home Depot,Santa Ana,606,#0606 #606 606 #000606 0606,3500 Macarthur Blvd,CA,92704
Home Depot,City Of Industry,607,#0607 #607 607 #000607 0607,18131 Gale Ave,CA,91748
Home Depot,Cerritos,608,#0608 #608 608 #000608 0608,10930 Alondra Blvd,CA,90703
Home Depot,San Fernando,609,#0609 #609 609 #000609 0609,12960 Foothill Blvd,CA,91340
Home Depot,San Bernardino,610,#0610 #610 610 #000610 0610,695 E Hospitality Lane,CA,92408
Home Depot,Gardena,611,#0611 #611 611 #000611 0611,740 182nd Street,CA,90248
Home Depot,Canoga Park,612,#0612 #612 612 #000612 0612,21218 Roscoe Blvd,CA,91304
Home Depot,Mission Viejo,614,#0614 #614 614 #000614 0614,27952 Hillcrest,CA,92692
Home Depot,Orange,615,#0615 #615 615 #000615 0615,435 W Katella Ave,CA,92867
Home Depot,Moreno Valley,616,#0616 #616 616 #000616 0616,12255 Pigeon Pass Rd,CA,92557
Home Depot,Torrance,618,#0618 #618 618 #000618 0618,24451 Crenshaw Blvd,CA,90505
Home Depot,Hawthorne,620,#0620 #620 620 #000620 0620,14603 Ocean Gate Ave,CA,90250
Home Depot,San Jose,622,#0622 #622 622 #000622 0622,920 Blossom Hill Rd,CA,95123
Home Depot,San Leandro,625,#0625 #625 625 #000625 0625,1933 Davis St,CA,94577
Home Depot,Emeryville,627,#0627 #627 627 #000627 0627,3838 Hollis Avenue,CA,94608
Home Depot,San Carlos,628,#0628 #628 628 #000628 0628,1125 Old County Rd,CA,94070
Home Depot,Pleasanton,629,#0629 #629 629 #000629 0629,6000 Johnson Dr,CA,94588
Home Depot,Santa Clara,630,#0630 #630 630 #000630 0630,2435 Lafayette St,CA,95050
Home Depot,San Mateo,632,#0632 #632 632 #000632 0632,2001 Chess Dr,CA,94404
Home Depot,Vallejo,633,#0633 #633 633 #000633 0633,1175 Admiral Callaghan,CA,94591
Home Depot,Concord,634,#0634 #634 634 #000634 0634,2090 Meridian Park Blvd,CA,94520
Home Depot,Union City,635,#0635 #635 635 #000635 0635,30055 Industrial Pkwy,CA,94587
Home Depot,Roseville,636,#0636 #636 636 #000636 0636,324 N Sunrise Ave,CA,95661
Home Depot,Fairfield,637,#0637 #637 637 #000637 0637,2121 Cadenasso Dr,CA,94533
Home Depot,Palmdale,638,#0638 #638 638 #000638 0638,340 West Avenue P,CA,93551
Home Depot,Colma,639,#0639 #639 639 #000639 0639,2 Colma Blvd,CA,94014
Home Depot,Sunnyvale,640,#0640 #640 640 #000640 0640,680 Kifer Rd,CA,94086
Home Depot,Rohnert Park,641,#0641 #641 641 #000641 0641,4825 Redwood Dr,CA,94928
Home Depot,Campbell,642,#0642 #642 642 #000642 0642,480 E Hamilton Ave,CA,95008
Home Depot,El Cerrito,643,#0643 #643 643 #000643 0643,11939 San Pablo Ave,CA,94530
Home Depot,Pittsburg,644,#0644 #644 644 #000644 0644,2300 N Park Blvd,CA,94565
Home Depot,Rancho Cucamonga,645,#0645 #645 645 #000645 0645,11884 Foothill Blvd,CA,91730
Home Depot,Westminster,647,#0647 #647 647 #000647 0647,6633 Westminster Blvd,CA,92683
Home Depot,Signal Hill,648,#0648 #648 648 #000648 0648,2450 Cherry Avenue,CA,90755
Home Depot,Glendale,649,#0649 #649 649 #000649 0649,5040 San Fernando Rd,CA,91204
Home Depot,Carmichael,650,#0650 #650 650 #000650 0650,6001 Madison Ave,CA,95608
Home Depot,Sacramento,651,#0651 #651 651 #000651 0651,4641 Florin Rd,CA,95823
Home Depot,Rancho Cordova,652,#0652 #652 652 #000652 0652,2756 Sunrise Blvd,CA,95742
Home Depot,Santa Clarita,653,#0653 #653 653 #000653 0653,20642 Golden Triangle Rd,CA,91351
Home Depot,Commerce,654,#0654 #654 654 #000654 0654,7015 E Telegraph Rd,CA,90040
Home Depot,San Rafael,657,#0657 #657 657 #000657 0657,111 Shoreline Pkwy,CA,94901
Home Depot,Chula Vista,658,#0658 #658 658 #000658 0658,725 Plaza Court,CA,91910
Home Depot,Lemon Grove,659,#0659 #659 659 #000659 0659,7530 Broadway,CA,91945
Home Depot,Encinitas,660,#0660 #660 660 #000660 0660,1001 N El Camino Real,CA,92024
Home Depot,Stockton,662,#0662 #662 662 #000662 0662,3818 E Hammer Lane,CA,95212
Home Depot,Fresno,663,#0663 #663 663 #000663 0663,3272 W Shaw Avenue,CA,93711
Home Depot,Clovis,664,#0664 #664 664 #000664 0664,845 W Shaw Avenue,CA,93612
Home Depot,Victorville,665,#0665 #665 665 #000665 0665,15150 Bear Valley Rd,CA,92392
Home Depot,Rancho Mirage,667,#0667 #667 667 #000667 0667,34249 Monterey Ave,CA,92270
Home Depot,Murrieta,668,#0668 #668 668 #000668 0668,25100 Madison Ave,CA,92562
Home Depot,San Diego,669,#0669 #669 669 #000669 0669,12185 Carmel Mountain Rd,CA,92128
Home Depot,San Diego,671,#0671 #671 671 #000671 0671,525 Saturn Blvd,CA,92154
Home Depot,Santee,673,#0673 #673 673 #000673 0673,255 Town Center Pkwy,CA,92071
Home Depot,San Diego,674,#0674 #674 674 #000674 0674,3555 Sports Arena Blvd,CA,92110
Home Depot,Oceanside,679,#0679 #679 679 #000679 0679,3838 W Vista Way,CA,92056
Home Depot,San Diego,680,#0680 #680 680 #000680 0680,4255 Genesee Ave,CA,92117
Home Depot,San Bernardino,683,#0683 #683 683 #000683 0683,1055 W 21st Street,CA,92405
Home Depot,La Mirada,684,#0684 #684 684 #000684 0684,12300 La Mirada Blvd,CA,90638
Home Depot,Upland,687,#0687 #687 687 #000687 0687,250 S Mountain Ave,CA,91786
Home Depot,Pico Rivera,689,#0689 #689 689 #000689 0689,9200 Whittier Blvd,CA,90660
Home Depot,Johnson City,701,#0701 #701 701 #000701 0701,3207 Peoples Street,TN,37604
Home Depot,Kingsport,702,#0702 #702 702 #000702 0702,2000 Harrell Rd,TN,37660
Home Depot,Memphis,703,#0703 #703 703 #000703 0703,800 Truse Road,TN,38117
Home Depot,Memphis,704,#0704 #704 704 #000704 0704,8010 Giacosa Place,TN,38133
Home Depot,Murfreesboro,707,#0707 #707 707 #000707 0707,1750 Old Fort Pkwy,TN,37129
Home Depot,Madison,720,#0720 #720 720 #000720 0720,1584 Gallatin Pike N,TN,37115
Home Depot,Antioch,721,#0721 #721 721 #000721 0721,1155 Bell Rd,TN,37013
Home Depot,Nashville,722,#0722 #722 722 #000722 0722,7665 Highway 70 South,TN,37221
Home Depot,Brentwood,723,#0723 #723 723 #000723 0723,8101 Moores Lane,TN,37027
Home Depot,Maryville,724,#0724 #724 724 #000724 0724,943 Foot Hills Mall Dr,TN,37801
Home Depot,Memphis,725,#0725 #725 725 #000725 0725,3469 Riverdale Rd,TN,38115
Home Depot,Clarksville,726,#0726 #726 726 #000726 0726,2630 Wilma Rudolph Blvd,TN,37040
Home Depot,Jackson,727,#0727 #727 727 #000727 0727,1120 Vann Drive,TN,38305
Home Depot,Knoxville,728,#0728 #728 728 #000728 0728,2751 Schaad Road,TN,37921
Home Depot,Collierville,729,#0729 #729 729 #000729 0729,345 Market Blvd,TN,38017
Home Depot,Knoxville,730,#0730 #730 730 #000730 0730,9361 Kingston Pike,TN,37922
Home Depot,Knoxville,731,#0731 #731 731 #000731 0731,4710 Centerline Drive,TN,37917
Home Depot,Nashville,732,#0732 #732 732 #000732 0732,2535 Powell Ave,TN,37204
Home Depot,Hermitage,733,#0733 #733 733 #000733 0733,5010 Old Hickory Blvd,TN,37076
Home Depot,Franklin,734,#0734 #734 734 #000734 0734,224 S Royal Oaks Blvd,TN,37067
Home Depot,Hendersonville,735,#0735 #735 735 #000735 0735,205 N Anderson Lane,TN,37075
Home Depot,Oak Ridge,736,#0736 #736 736 #000736 0736,175 Laboratory Rd,TN,37830
Home Depot,Memphis,737,#0737 #737 737 #000737 0737,4950 Stage Road,TN,38128
Home Depot,Sevierville,739,#0739 #739 739 #000739 0739,128 Allensville Road,TN,37876
Home Depot,Lenoir City,740,#0740 #740 740 #000740 0740,250 Abbie Drive,TN,37772
Home Depot,Chattanooga,742,#0742 #742 742 #000742 0742,7421 Commons Blvd,TN,37421
Home Depot,Cleveland,743,#0743 #743 743 #000743 0743,546 Paul Huff Pkwy NW,TN,37312
Home Depot,Morristown,744,#0744 #744 744 #000744 0744,1930 W Andrew Johnson,TN,37814
Home Depot,Lebanon,745,#0745 #745 745 #000745 0745,955 S Hartman Drive,TN,37087
Home Depot,Winchester,747,#0747 #747 747 #000747 0747,2965 Decherd Blvd,TN,37398
Home Depot,Manchester,748,#0748 #748 748 #000748 0748,187 Roberts Blvd,TN,37355
Home Depot,Hixson,770,#0770 #770 770 #000770 0770,1944 Northpoint Blvd,TN,37343
Home Depot,Pulaski,772,#0772 #772 772 #000772 0772,1451 W College St,TN,38478
Home Depot,Knoxville,773,#0773 #773 773 #000773 0773,140 Green Road,TN,37920
Home Depot,Spring Hill,775,#0775 #775 775 #000775 0775,5411 Columbia Pike,TN,37174
Home Depot,Smyrna,776,#0776 #776 776 #000776 0776,551 President Place,TN,37167
Home Depot,Nashville,778,#0778 #778 778 #000778 0778,1015 Joyce Lane,TN,37216
Home Depot,Covington,779,#0779 #779 779 #000779 0779,110 Holly Grove Road,TN,38019
Home Depot,Mobile,801,#0801 #801 801 #000801 0801,755 Schillinger Rd S,AL,36695
Home Depot,Foley,802,#0802 #802 802 #000802 0802,2899 S McKenzie Street,AL,36535
Home Depot,Madison,803,#0803 #803 803 #000803 0803,4045 Lawson Ridge Dr,AL,35757
Home Depot,Huntsville,804,#0804 #804 804 #000804 0804,1035 Memorial Pkwy,AL,35801
Home Depot,Pelham,805,#0805 #805 805 #000805 0805,3191 Pelham Pkwy,AL,35124
Home Depot,Prattville,806,#0806 #806 806 #000806 0806,2710 Legends Parkway,AL,36066
Home Depot,Dothan,808,#0808 #808 808 #000808 0808,3489 Ross Clark Circle,AL,36303
Home Depot,Sylacauga,809,#0809 #809 809 #000809 0809,41310 US Hwy 280,AL,35150
Home Depot,Jasper,810,#0810 #810 810 #000810 0810,1808 Highway 78 E,AL,35501
Home Depot,Scottsboro,812,#0812 #812 812 #000812 0812,24635 John T Reid Pkwy,AL,35768
Home Depot,Montgomery,813,#0813 #813 813 #000813 0813,10655 Chantilly Pkwy,AL,36117
Home Depot,Opelika,816,#0816 #816 816 #000816 0816,2190 Tigertown Parkway,AL,36801
Home Depot,Phenix City,817,#0817 #817 817 #000817 0817,3784 Hwy 280-431 North,AL,36867
Home Depot,Pell City,818,#0818 #818 818 #000818 0818,289 Vaughan Lane,AL,35125
Home Depot,Daphne,863,#0863 #863 863 #000863 0863,7100 Hwy 90,AL,36526
Home Depot,Mobile,865,#0865 #865 865 #000865 0865,851 Mont Limar Dr,AL,36609
Home Depot,Oxford,866,#0866 #866 866 #000866 0866,350 Crystal Water Drive,AL,36203
Home Depot,Hoover,875,#0875 #875 875 #000875 0875,4995 Hwy 280,AL,35242
Home Depot,Tuscaloosa,877,#0877 #877 877 #000877 0877,1601 13th Ave East,AL,35404
Home Depot,Birmingham,880,#0880 #880 880 #000880 0880,7001 Crestwood Blvd,AL,35210
Home Depot,Birmingham,881,#0881 #881 881 #000881 0881,3670 Galleria Circle,AL,35244
Home Depot,Fairfield,882,#0882 #882 882 #000882 0882,6405 Flintridge Drive,AL,35064
Home Depot,Montgomery,883,#0883 #883 883 #000883 0883,2312 Eastern Blvd,AL,36117
Home Depot,Decatur,884,#0884 #884 884 #000884 0884,1225 Wimberly Dr SW,AL,35603
Home Depot,Trussville,887,#0887 #887 887 #000887 0887,1600 Gadsden Hwy,AL,35173
Home Depot,Huntsville,888,#0888 #888 888 #000888 0888,10012 S Memorial Pkwy,AL,35803
Home Depot,East Hanover,901,#0901 #901 901 #000901 0901,902 Murray Rd,NJ,7936
Home Depot,Lakewood,902,#0902 #902 902 #000902 0902,1900 Shorrock Rd,NJ,8701
Home Depot,South Plainfield,903,#0903 #903 903 #000903 0903,3100 Hamilton Blvd,NJ,7080
Home Depot,Paramus,904,#0904 #904 904 #000904 0904,520 Route 17 North,NJ,7652
Home Depot,Watchung,906,#0906 #906 906 #000906 0906,1515 Route 22,NJ,7069
Home Depot,West Long Branch,907,#0907 #907 907 #000907 0907,310 State Hwy 36 Ste 100,NJ,7764
Home Depot,Clifton,908,#0908 #908 908 #000908 0908,955 Bloomfield Ave,NJ,7012
Home Depot,Succasunna,909,#0909 #909 909 #000909 0909,281 Route 10 Ste 04,NJ,7876
Home Depot,Secaucus,910,#0910 #910 910 #000910 0910,1055 Paterson Plank Rd,NJ,7094
Home Depot,Brick,912,#0912 #912 912 #000912 0912,1722 Route 88,NJ,8724
Home Depot,Mount Laurel,914,#0914 #914 914 #000914 0914,1200 Nixon Dr,NJ,8054
Home Depot,Vauxhall,915,#0915 #915 915 #000915 0915,2445 Springfield Ave,NJ,7088
Home Depot,Woodbridge,916,#0916 #916 916 #000916 0916,373 Route 9 South,NJ,7095
Home Depot,Lawnside,917,#0917 #917 917 #000917 0917,310 Whitehorse Pike,NJ,8045
Home Depot,Milltown,918,#0918 #918 918 #000918 0918,401 South Main Street,NJ,8850
Home Depot,Riverdale,919,#0919 #919 919 #000919 0919,106 Route 23 North,NJ,7457
Home Depot,Toms River,920,#0920 #920 920 #000920 0920,1334 Lakewood Road,NJ,8755
Home Depot,Princeton,921,#0921 #921 921 #000921 0921,701 Nassau Park Blvd,NJ,8540
Home Depot,Totowa,922,#0922 #922 922 #000922 0922,545 Route 46,NJ,7512
Home Depot,Dover,925,#0925 #925 925 #000925 0925,530 MT Pleasant Ave,NJ,7801
Home Depot,Hazlet,926,#0926 #926 926 #000926 0926,3700 Highway 35,NJ,7730
Home Depot,Robbinsville,927,#0927 #927 927 #000927 0927,750 Highway Rt 130,NJ,8691
Home Depot,Bloomfield,928,#0928 #928 928 #000928 0928,60 Orange St,NJ,7003
Home Depot,Deptford,929,#0929 #929 929 #000929 0929,1370 Hurffville Rd,NJ,8096
Home Depot,Egg Harbor Townshp,930,#0930 #930 930 #000930 0930,6 Tower Avenue,NJ,8234
Home Depot,Phillipsburg,931,#0931 #931 931 #000931 0931,1209 Route 22,NJ,8865
Home Depot,Lodi,932,#0932 #932 932 #000932 0932,99 State Route 17 North,NJ,7644
Home Depot,Howell,933,#0933 #933 933 #000933 0933,1990 Route 9,NJ,7731
Home Depot,Linden,934,#0934 #934 934 #000934 0934,701 West Edgar Road,NJ,7036
Home Depot,Jersey City,935,#0935 #935 935 #000935 0935,440 Route 440,NJ,7302
Home Depot,Westampton,939,#0939 #939 939 #000939 0939,2703 Burlington MT Holly,NJ,8060
Home Depot,West Berlin,940,#0940 #940 940 #000940 0940,116 Walker Avenue,NJ,8091
Home Depot,Flemington,941,#0941 #941 941 #000941 0941,244 Highway 202,NJ,8822
Home Depot,Sicklerville,942,#0942 #942 942 #000942 0942,2735 Route 42,NJ,8081
Home Depot,Cape May CT House,943,#0943 #943 943 #000943 0943,21 Indian Trail Rd,NJ,8210
Home Depot,Edison,944,#0944 #944 944 #000944 0944,1035 Route 1 South,NJ,8837
Home Depot,Vineland,946,#0946 #946 946 #000946 0946,3849 South Delsea Dr,NJ,8360
Home Depot,Bridgewater,947,#0947 #947 947 #000947 0947,400 Promenade Blvd,NJ,8807
Home Depot,Neptune,949,#0949 #949 949 #000949 0949,3540 Route 66,NJ,7753
Home Depot,Passaic,950,#0950 #950 950 #000950 0950,103-179 Dayton Ave,NJ,7055
Home Depot,Stafford Township,951,#0951 #951 951 #000951 0951,197 Route 72 West,NJ,8050
Home Depot,Hackettstown,953,#0953 #953 953 #000953 0953,2045 State Route 57,NJ,7840
Home Depot,Union,954,#0954 #954 954 #000954 0954,930 Springfield Rd South,NJ,7083
Home Depot,Old Bridge,957,#0957 #957 957 #000957 0957,1090 Route 9 South,NJ,8857
Home Depot,Paterson,959,#0959 #959 959 #000959 0959,75 McLean Blvd,NJ,7514
Home Depot,Freehold,961,#0961 #961 961 #000961 0961,300 Trotters Way,NJ,7728
Home Depot,Bridgewater,962,#0962 #962 962 #000962 0962,736 Route 202 South,NJ,8807
Home Depot,Mahwah,963,#0963 #963 963 #000963 0963,465 State Highway 17,NJ,7495
Home Depot,Pine Brook,965,#0965 #965 965 #000965 0965,79 Route 46,NJ,7058
Home Depot,Forked River,969,#0969 #969 969 #000969 0969,244 N Main Street,NJ,8731
Home Depot,Delran,970,#0970 #970 970 #000970 0970,9000 Rt 130 South,NJ,8075
Home Depot,Mantua,974,#0974 #974 974 #000974 0974,320 Bridgeton Pike,NJ,8051
Home Depot,Absecon,975,#0975 #975 975 #000975 0975,421 Absecon Blvd,NJ,8201
Home Depot,Ewing,976,#0976 #976 976 #000976 0976,1621 N Olden Avenue,NJ,8638
Home Depot,Parsippany,977,#0977 #977 977 #000977 0977,780 Route 46 West,NJ,7054
Home Depot,Newark,980,#0980 #980 980 #000980 0980,399-443 Springfield Ave,NJ,7103
Home Depot,Colonia,981,#0981 #981 981 #000981 0981,1555 St Georges Av Rt 35,NJ,7067
Home Depot,East Windsor,982,#0982 #982 982 #000982 0982,739 Route 33 West,NJ,8520
Home Depot,Hackensack,983,#0983 #983 983 #000983 0983,450 Hackensack Ave,NJ,7601
Home Depot,Newton,984,#0984 #984 984 #000984 0984,7 North Park Drive,NJ,7860
Home Depot,Cherry Hill,989,#0989 #989 989 #000989 0989,2160 Route 70 West,NJ,8002
Home Depot,Turlock,1001,#01001 #1001 1001 #0001001 01001,2800 Countryside Dr,CA,95380
Home Depot,Huntington Park,1002,#01002 #1002 1002 #0001002 01002,3040 Slauson Avenue,CA,90255
Home Depot,Sacramento,1003,#01003 #1003 1003 #0001003 01003,1461 Meadowview Road,CA,95832
Home Depot,San Pedro,1005,#01005 #1005 1005 #0001005 01005,2115 N Gaffey St,CA,90731
Home Depot,Manteca,1006,#01006 #1006 1006 #0001006 01006,250 Commerce Ave,CA,95336
Home Depot,Oakland,1007,#01007 #1007 1007 #0001007 01007,4000 Alameda Avenue,CA,94601
Home Depot,San Jose,1009,#01009 #1009 1009 #0001009 01009,1855 Hillsdale Avenue,CA,95124
Home Depot,Inglewood,1010,#01010 #1010 1010 #0001010 01010,3363 Century Blvd,CA,90303
Home Depot,Camarillo,1012,#01012 #1012 1012 #0001012 01012,401 W Ventura Blvd,CA,93010
Home Depot,Redlands,1013,#01013 #1013 1013 #0001013 01013,1151 W Lugonia Ave,CA,92374
Home Depot,Fresno,1014,#01014 #1014 1014 #0001014 01014,7150 N Abbey St,CA,93720
Home Depot,Hayward,1017,#01017 #1017 1017 #0001017 01017,21787 Hesperian Blvd,CA,94541
Home Depot,Oceanside,1018,#01018 #1018 1018 #0001018 01018,5755 Mission Avenue,CA,92057
Home Depot,Yuba City,1019,#01019 #1019 1019 #0001019 01019,1100 Tharp Road,CA,95993
Home Depot,Tracy,1020,#01020 #1020 1020 #0001020 01020,2461 Naglee Road,CA,95304
Home Depot,Stockton,1022,#01022 #1022 1022 #0001022 01022,5010 Feather River Dr,CA,95219
Home Depot,Temecula,1028,#01028 #1028 1028 #0001028 01028,32020 Temecula Parkway,CA,92592
Home Depot,Chula Vista,1030,#01030 #1030 1030 #0001030 01030,1320 Eastlake Parkway,CA,91915
Home Depot,Atascadero,1031,#01031 #1031 1031 #0001031 01031,905 El Camino Real,CA,93422
Home Depot,San Diego,1032,#01032 #1032 1032 #0001032 01032,355 Marketplace Avenue,CA,92113
Home Depot,San Diego,1034,#01034 #1034 1034 #0001034 01034,950 Dennery Road,CA,92154
Home Depot,Paramount,1037,#01037 #1037 1037 #0001037 01037,6400 Alondra Blvd,CA,90723
Home Depot,Los Angeles,1039,#01039 #1039 1039 #0001039 01039,1830 W Slauson Ave,CA,90047
Home Depot,Oxnard,1040,#01040 #1040 1040 #0001040 01040,401 W Esplanade Drive,CA,93036
Home Depot,Milpitas,1041,#01041 #1041 1041 #0001041 01041,1177 Great Mall Drive,CA,95035
Home Depot,Vacaville,1043,#01043 #1043 1043 #0001043 01043,510 Orange Drive,CA,95687
Home Depot,Hercules,1044,#01044 #1044 1044 #0001044 01044,1625 Sycamore Avenue,CA,94547
Home Depot,Los Angeles,1048,#01048 #1048 1048 #0001048 01048,1675 Wilshire Blvd,CA,90017
Home Depot,Bakersfield,1050,#01050 #1050 1050 #0001050 01050,4001 Ming Avenue,CA,93309
Home Depot,San Luis Obispo,1052,#01052 #1052 1052 #0001052 01052,1551 Froom Ranch Rd,CA,93405
Home Depot,Escondido,1053,#01053 #1053 1053 #0001053 01053,1475 E Valley Parkway,CA,92027
Home Depot,Santa Clarita,1055,#01055 #1055 1055 #0001055 01055,28033 Newhall Ranch Rd,CA,91355
Home Depot,El Centro,1059,#01059 #1059 1059 #0001059 01059,320 Wake Ave,CA,92243
Home Depot,Bakersfield,1060,#01060 #1060 1060 #0001060 01060,2655 MT Vernon Avenue,CA,93306
Home Depot,Los Angeles,1061,#01061 #1061 1061 #0001061 01061,4925 W Slauson Avenue,CA,90056
Home Depot,Signal Hill,1062,#01062 #1062 1062 #0001062 01062,751 Spring Street,CA,90755
Home Depot,Bakersfield,1064,#01064 #1064 1064 #0001064 01064,8700 Rosedale Hwy,CA,93312
Home Depot,Woodland,1068,#01068 #1068 1068 #0001068 01068,1860 E Main Street,CA,95776
Home Depot,Watsonville,1069,#01069 #1069 1069 #0001069 01069,355 S Green Valley Road,CA,95076
Home Depot,West Hills,1070,#01070 #1070 1070 #0001070 01070,22855 Victory Blvd,CA,91307
Home Depot,Brea,1072,#01072 #1072 1072 #0001072 01072,2455 E Imperial Hwy,CA,92821
Home Depot,Hanford,1073,#01073 #1073 1073 #0001073 01073,501 N 12th Avenue,CA,93230
Home Depot,Vista,1074,#01074 #1074 1074 #0001074 01074,2430 S Melrose Drive,CA,92081
Home Depot,Brentwood,1076,#01076 #1076 1076 #0001076 01076,5631 Lone Tree Way,CA,94513
Home Depot,Laguna Niguel,1077,#01077 #1077 1077 #0001077 01077,27401 La Paz Rd,CA,92677
Home Depot,Porterville,1080,#01080 #1080 1080 #0001080 01080,750 S Jaye St,CA,93257
Home Depot,Upland,1083,#01083 #1083 1083 #0001083 01083,1401 E 19th St,CA,91784
Home Depot,Mira Loma,1084,#01084 #1084 1084 #0001084 01084,6140 Hamner Avenue,CA,91752
Home Depot,Placerville,1085,#01085 #1085 1085 #0001085 01085,600 Placerville Dr,CA,95667
Home Depot,Fresno,1086,#01086 #1086 1086 #0001086 01086,4864 E Kings Canyon Rd,CA,93727
Home Depot,Moreno Valley,1087,#01087 #1087 1087 #0001087 01087,15975 Perris Blvd,CA,92551
Home Depot,Madera,1088,#01088 #1088 1088 #0001088 01088,2155 N Schnoor St,CA,93637
Home Depot,Ridgecrest,1089,#01089 #1089 1089 #0001089 01089,575 N China Lake Blvd,CA,93555
Home Depot,Daly City,1092,#01092 #1092 1092 #0001092 01092,303 E Lake Merced Blvd,CA,94015
Home Depot,Charleston,1103,#01103 #1103 1103 #0001103 01103,7554 Northwood Blvd,SC,29406
Home Depot,Greenville,1104,#01104 #1104 1104 #0001104 01104,2490 N Pleasantburg Dr,SC,29609
Home Depot,Anderson,1105,#01105 #1105 1105 #0001105 01105,3427 Clemson Blvd,SC,29621
Home Depot,Lexington,1106,#01106 #1106 1106 #0001106 01106,5600 Sun Set Blvd,SC,29072
Home Depot,Spartanburg,1108,#01108 #1108 1108 #0001108 01108,2300 E Main Street,SC,29307
Home Depot,Columbia,1109,#01109 #1109 1109 #0001109 01109,285 Forum Drive,SC,29229
Home Depot,Columbia,1110,#01110 #1110 1110 #0001110 01110,7701 Two Notch Rd,SC,29223
Home Depot,Columbia,1112,#01112 #1112 1112 #0001112 01112,5200 Fernandina Rd,SC,29212
Home Depot,Rock Hill,1114,#01114 #1114 1114 #0001114 01114,2815 Home Depot Blvd,SC,29730
Home Depot,Bluffton,1115,#01115 #1115 1115 #0001115 01115,20 Gateway Village Rd,SC,29910
Home Depot,Myrtle Beach,1116,#01116 #1116 1116 #0001116 01116,951 Oak Forest Lane,SC,29577
Home Depot,Aiken,1117,#01117 #1117 1117 #0001117 01117,1785 Whiskey Road,SC,29803
Home Depot,Charleston,1118,#01118 #1118 1118 #0001118 01118,2008 Magwood Rd,SC,29414
Home Depot,Greenville,1119,#01119 #1119 1119 #0001119 01119,79 Woodruff Ind'L Lane,SC,29607
Home Depot,Summerville,1120,#01120 #1120 1120 #0001120 01120,190 Marymeade Dr,SC,29483
Home Depot,North Myrtle Beach,1121,#01121 #1121 1121 #0001121 01121,620 Hwy 17 N,SC,29582
Home Depot,Murrells Inlet,1122,#01122 #1122 1122 #0001122 01122,12262 Hwy 17 Bypass,SC,29576
Home Depot,Simpsonville,1124,#01124 #1124 1124 #0001124 01124,669 Fairview Road,SC,29680
Home Depot,Greer,1126,#01126 #1126 1126 #0001126 01126,1385 Wade Hampton Blvd W,SC,29650
Home Depot,Greenville,1127,#01127 #1127 1127 #0001127 01127,1339 S Pleasantburg Dr,SC,29605
Home Depot,Spartanburg,1129,#01129 #1129 1129 #0001129 01129,121 Dorman Center Drive,SC,29301
Home Depot,Seneca,1130,#01130 #1130 1130 #0001130 01130,1614 Sandifer Blvd,SC,29678
Home Depot,East Meadow,1201,#01201 #1201 1201 #0001201 01201,2000 Hempstead Turnpike,NY,11554
Home Depot,Commack,1202,#01202 #1202 1202 #0001202 01202,5025 Jericho Turnpike,NY,11725
Home Depot,Freeport,1206,#01206 #1206 1206 #0001206 01206,160 E. Sunrise Hwy,NY,11520
Home Depot,Wappingers Falls,1207,#01207 #1207 1207 #0001207 01207,1570 Route 9,NY,12590
Home Depot,Elmont,1208,#01208 #1208 1208 #0001208 01208,600 Hempstead Turnpike,NY,11003
Home Depot,Selden,1209,#01209 #1209 1209 #0001209 01209,401 Independence Plaza,NY,11784
Home Depot,Bay Shore,1211,#01211 #1211 1211 #0001211 01211,1881 Sunrise Hwy,NY,11706
Home Depot,Port Chester,1212,#01212 #1212 1212 #0001212 01212,150 Midland Ave,NY,10573
Home Depot,Jericho,1213,#01213 #1213 1213 #0001213 01213,86 Jericho Turnpike,NY,11753
Home Depot,Flushing,1214,#01214 #1214 1214 #0001214 01214,131-35 Avery Avenue,NY,11355
Home Depot,South Ozone Park,1215,#01215 #1215 1215 #0001215 01215,11220 Rockaway Blvd,NY,11420
Home Depot,Valley Stream,1216,#01216 #1216 1216 #0001216 01216,101 Green Acres Road,NY,11581
Home Depot,West Nyack,1217,#01217 #1217 1217 #0001217 01217,2024 Palisades Ctr Dr,NY,10994
Home Depot,Copiague,1218,#01218 #1218 1218 #0001218 01218,1101 Sunrise Highway,NY,11726
Home Depot,Glendale,1220,#01220 #1220 1220 #0001220 01220,75-09 Woodhaven Blvd,NY,11385
Home Depot,Bronx,1221,#01221 #1221 1221 #0001221 01221,1806 E Gunhill Rd,NY,10469
Home Depot,Riverhead,1222,#01222 #1222 1222 #0001222 01222,1550 Old Country Road,NY,11901
Home Depot,Saratoga Springs,1223,#01223 #1223 1223 #0001223 01223,3043 Route 50,NY,12866
Home Depot,Brooklyn,1225,#01225 #1225 1225 #0001225 01225,550 Hamilton Ave,NY,11232
Home Depot,Kingston,1227,#01227 #1227 1227 #0001227 01227,1122 Ulster Ave,NY,12401
Home Depot,Cheektowaga,1228,#01228 #1228 1228 #0001228 01228,300 Thruway Plaza Dr,NY,14225
Home Depot,Coram,1229,#01229 #1229 1229 #0001229 01229,346 Middle Country Rd,NY,11727
Home Depot,Williamsville,1230,#01230 #1230 1230 #0001230 01230,4139 Transit Road,NY,14221
Home Depot,West Seneca,1231,#01231 #1231 1231 #0001231 01231,1881 Ridge Road,NY,14224
Home Depot,Amherst,1233,#01233 #1233 1233 #0001233 01233,2065 Niagara Falls Blvd,NY,14228
Home Depot,Buffalo,1234,#01234 #1234 1234 #0001234 01234,2100 Elmwood Avenue,NY,14207
Home Depot,Cicero,1235,#01235 #1235 1235 #0001235 01235,7922 Brewerton Road,NY,13039
Home Depot,East Syracuse,1236,#01236 #1236 1236 #0001236 01236,5814 Bridge St,NY,13057
Home Depot,Jamaica,1238,#01238 #1238 1238 #0001238 01238,13220 Merrick Blvd,NY,11434
Home Depot,Schenectady,1239,#01239 #1239 1239 #0001239 01239,2500 Cambridge Rd,NY,12304
Home Depot,Albany,1241,#01241 #1241 1241 #0001241 01241,161 R Washington Ave Ext,NY,12205
Home Depot,Middletown,1242,#01242 #1242 1242 #0001242 01242,474 Route 211 East,NY,10940
Home Depot,Greece,1244,#01244 #1244 1244 #0001244 01244,1250 West Ridge Road,NY,14615
Home Depot,New Rochelle,1245,#01245 #1245 1245 #0001245 01245,55 Weyman Ave,NY,10805
Home Depot,Rochester,1246,#01246 #1246 1246 #0001246 01246,770 Jefferson Road,NY,14623
Home Depot,Rochester,1247,#01247 #1247 1247 #0001247 01247,750 Panorama Trails So,NY,14625
Home Depot,Yonkers,1248,#01248 #1248 1248 #0001248 01248,601 South Sprain Rd,NY,10710
Home Depot,Staten Island,1249,#01249 #1249 1249 #0001249 01249,2501 Forest Ave,NY,10303
Home Depot,Newburgh,1250,#01250 #1250 1250 #0001250 01250,1220 Route 300,NY,12550
Home Depot,Mohegan Lake,1251,#01251 #1251 1251 #0001251 01251,3131 E Main St,NY,10547
Home Depot,Johnson City,1252,#01252 #1252 1252 #0001252 01252,798 Main St,NY,13790
Home Depot,New Hartford,1254,#01254 #1254 1254 #0001254 01254,545 French Road,NY,13413
Home Depot,Long Island City,1255,#01255 #1255 1255 #0001255 01255,50-10 Northern Blvd,NY,11101
Home Depot,Brooklyn,1256,#01256 #1256 1256 #0001256 01256,2970 Cropsey Avenue,NY,11214
Home Depot,Camillus,1257,#01257 #1257 1257 #0001257 01257,3756 Milton Avenue,NY,13031
Home Depot,Patchogue,1258,#01258 #1258 1258 #0001258 01258,10 Gateway Blvd,NY,11772
Home Depot,Latham,1259,#01259 #1259 1259 #0001259 01259,579 Troy-Schenectady Rd,NY,12110
Home Depot,Nanuet,1261,#01261 #1261 1261 #0001261 01261,43 Hutton Ave,NY,10954
Home Depot,Albany,1262,#01262 #1262 1262 #0001262 01262,979 Central Avenue,NY,12205
Home Depot,Rensselaer,1263,#01263 #1263 1263 #0001263 01263,600 N Greenbush Rd,NY,12144
Home Depot,Victor,1264,#01264 #1264 1264 #0001264 01264,7600 Commons Blvd,NY,14564
Home Depot,South Setauket,1265,#01265 #1265 1265 #0001265 01265,255 Pond Path,NY,11720
Home Depot,Poughkeepsie,1266,#01266 #1266 1266 #0001266 01266,3470 North Road,NY,12601
Home Depot,Farmingdale,1267,#01267 #1267 1267 #0001267 01267,202 Airport Plaza,NY,11735
Home Depot,Lockport,1268,#01268 #1268 1268 #0001268 01268,5730 S Transit Rd,NY,14094
Home Depot,Halfmoon,1269,#01269 #1269 1269 #0001269 01269,4 Halfmoon Crossing Blvd,NY,12065
Home Depot,Brewster,1271,#01271 #1271 1271 #0001271 01271,80 Independence Way SE,NY,10509
Home Depot,Huntington,1272,#01272 #1272 1272 #0001272 01272,785 New York Avenue,NY,11743
Home Depot,Rochester,1273,#01273 #1273 1273 #0001273 01273,1111 E Ridge Rd,NY,14621
Home Depot,Hempstead,1274,#01274 #1274 1274 #0001274 01274,172 Fulton Ave,NY,11550
Home Depot,Flushing,1277,#01277 #1277 1277 #0001277 01277,124-04 31st Avenue,NY,11354
Home Depot,Rochester,1278,#01278 #1278 1278 #0001278 01278,2361 Buffalo Road,NY,14624
Home Depot,Staten Island,1281,#01281 #1281 1281 #0001281 01281,2750 Veterans Road West,NY,10309
Home Depot,Shirley,1282,#01282 #1282 1282 #0001282 01282,399 William Floyd Pkwy,NY,11967
Home Depot,Monroe,1284,#01284 #1284 1284 #0001284 01284,254 Larkin Drive,NY,10950
Home Depot,Deer Park,1285,#01285 #1285 1285 #0001285 01285,475 Commack Road,NY,11729
Home Depot,Buffalo,1286,#01286 #1286 1286 #0001286 01286,4405 Milestrip Rd,NY,14219
Home Depot,Niagara Falls,1287,#01287 #1287 1287 #0001287 01287,750 Builders Way,NY,14304
Home Depot,Amsterdam,1289,#01289 #1289 1289 #0001289 01289,135 Hanaford Plaza,NY,12010
Home Depot,Anchorage,1301,#01301 #1301 1301 #0001301 01301,515 E Tudor Road,AK,99503
Home Depot,Anchorage,1302,#01302 #1302 1302 #0001302 01302,400 Rodeo Place,AK,99508
Home Depot,Fairbanks,1303,#01303 #1303 1303 #0001303 01303,1301 Old Steese Hwy,AK,99701
Home Depot,Wasilla,1304,#01304 #1304 1304 #0001304 01304,1255 Palmer Wasilla Hwy,AK,99654
Home Depot,Santa Rosa,1379,#01379 #1379 1379 #0001379 01379,100 Bicentenial Way,CA,95403
Home Depot,Martinez,1380,#01380 #1380 1380 #0001380 01380,1037 Arnold Drive,CA,94553
Home Depot,Little Rock,1401,#01401 #1401 1401 #0001401 01401,12610 Chenal Pkwy,AR,72211
Home Depot,North Little Rock,1402,#01402 #1402 1402 #0001402 01402,4325 E McCain Blvd,AR,72117
Home Depot,Fayetteville,1403,#01403 #1403 1403 #0001403 01403,675 E Joyce Blvd,AR,72703
Home Depot,Fort Smith,1404,#01404 #1404 1404 #0001404 01404,5101 Phoenix Avenue,AR,72903
Home Depot,Benton,1405,#01405 #1405 1405 #0001405 01405,17060 Interstate 30,AR,72015
Home Depot,Jonesboro,1406,#01406 #1406 1406 #0001406 01406,711 W Parker,AR,72404
Home Depot,Conway,1407,#01407 #1407 1407 #0001407 01407,500 Elsinger Blvd,AR,72032
Home Depot,Harrison,1409,#01409 #1409 1409 #0001409 01409,312 Hester Drive,AR,72601
Home Depot,Mountain Home,1410,#01410 #1410 1410 #0001410 01410,100 Pendella Drive,AR,72653
Home Depot,Batesville,1411,#01411 #1411 1411 #0001411 01411,3000 E Harrison Street,AR,72501
Home Depot,Cabot,1412,#01412 #1412 1412 #0001412 01412,555 Going Road,AR,72023
Home Depot,Aurora,1501,#01501 #1501 1501 #0001501 01501,14001 E Mississippi Ave,CO,80012
Home Depot,Arvada,1502,#01502 #1502 1502 #0001502 01502,5215 Wadsworth Blvd,CO,80002
Home Depot,Denver,1503,#01503 #1503 1503 #0001503 01503,10003 Grant Street,CO,80229
Home Depot,Colorado Springs,1504,#01504 #1504 1504 #0001504 01504,102 N Academy Rd,CO,80909
Home Depot,Denver,1505,#01505 #1505 1505 #0001505 01505,500 S Santa Fe Dr,CO,80223
Home Depot,Louisville,1506,#01506 #1506 1506 #0001506 01506,1200 W Dillon Rd,CO,80027
Home Depot,Denver,1507,#01507 #1507 1507 #0001507 01507,7990 W Crestline Ave,CO,80123
Home Depot,Lone Tree,1508,#01508 #1508 1508 #0001508 01508,8477 S Yosemite Ave,CO,80124
Home Depot,Greenwood Village,1509,#01509 #1509 1509 #0001509 01509,9401 E Arapahoe Rd,CO,80112
Home Depot,Colorado Springs,1510,#01510 #1510 1510 #0001510 01510,7120 N Academy Blvd,CO,80920
Home Depot,Pueblo,1511,#01511 #1511 1511 #0001511 01511,4450 N Freeway Rd,CO,81008
Home Depot,Fort Collins,1512,#01512 #1512 1512 #0001512 01512,4502 John F Kennedy Pkwy,CO,80525
Home Depot,Grand Junction,1513,#01513 #1513 1513 #0001513 01513,2436 F Road,CO,81505
Home Depot,Lakewood,1514,#01514 #1514 1514 #0001514 01514,6701 W Alameda Ave,CO,80226
Home Depot,Greeley,1515,#01515 #1515 1515 #0001515 01515,2815 35th Avenue,CO,80634
Home Depot,Parker,1516,#01516 #1516 1516 #0001516 01516,11111 South Parker Road,CO,80134
Home Depot,Westminster,1517,#01517 #1517 1517 #0001517 01517,7125 W 88th Ave,CO,80021
Home Depot,Colorado Springs,1518,#01518 #1518 1518 #0001518 01518,2250 Southgate Rd,CO,80906
Home Depot,Littleton,1519,#01519 #1519 1519 #0001519 01519,3000 W Belleview Ave,CO,80123
Home Depot,Denver,1520,#01520 #1520 1520 #0001520 01520,3130 S Sheridan Blvd,CO,80227
Home Depot,Longmont,1521,#01521 #1521 1521 #0001521 01521,393 S Hover Road,CO,80501
Home Depot,Golden,1522,#01522 #1522 1522 #0001522 01522,16900 W Colfax Ave,CO,80401
Home Depot,Aurora,1523,#01523 #1523 1523 #0001523 01523,5600 South Chambers Rd,CO,80015
Home Depot,Broomfield,1524,#01524 #1524 1524 #0001524 01524,12169 Sheridan Blvd,CO,80020
Home Depot,Avon,1525,#01525 #1525 1525 #0001525 01525,0295 Yoder Avenue,CO,81620
Home Depot,Glendale,1526,#01526 #1526 1526 #0001526 01526,860 S Colorado Blvd,CO,80246
Home Depot,Aurora,1528,#01528 #1528 1528 #0001528 01528,6000 South Gun Club Road,CO,80016
Home Depot,Loveland,1529,#01529 #1529 1529 #0001529 01529,1100 Nickel Drive,CO,80537
Home Depot,Castle Rock,1531,#01531 #1531 1531 #0001531 01531,333 W Allen Street,CO,80108
Home Depot,Denver,1532,#01532 #1532 1532 #0001532 01532,3870 Quebec Street,CO,80207
Home Depot,Durango,1534,#01534 #1534 1534 #0001534 01534,1301 S Camino Del Rio,CO,81303
Home Depot,Evergreen,1535,#01535 #1535 1535 #0001535 01535,1014 El Rancho Road,CO,80439
Home Depot,Montrose,1537,#01537 #1537 1537 #0001537 01537,1401 Ogden Road,CO,81401
Home Depot,Colorado Springs,1538,#01538 #1538 1538 #0001538 01538,5660 E Woodmen Road,CO,80920
Home Depot,Highlands Ranch,1540,#01540 #1540 1540 #0001540 01540,1200 Mayberry Drive,CO,80129
Home Depot,Monument,1541,#01541 #1541 1541 #0001541 01541,15888 Jackson Creek Pkwy,CO,80132
Home Depot,Canon City,1542,#01542 #1542 1542 #0001542 01542,141 Mackenzie Ave,CO,81212
Home Depot,Fort Collins,1544,#01544 #1544 1544 #0001544 01544,1251 E Magnolia Street,CO,80524
Home Depot,Sterling,1545,#01545 #1545 1545 #0001545 01545,1614 W Main Street,CO,80751
Home Depot,Boulder,1546,#01546 #1546 1546 #0001546 01546,1600 29th Street,CO,80301
Home Depot,Brighton,1547,#01547 #1547 1547 #0001547 01547,2440 Buckley Road,CO,80601
Home Depot,Thornton,1548,#01548 #1548 1548 #0001548 01548,16420 Washington Street,CO,80023
Home Depot,Morrison,1549,#01549 #1549 1549 #0001549 01549,4277 S Eldridge Street,CO,80465
Home Depot,Lakewood,1550,#01550 #1550 1550 #0001550 01550,7200 W Colfax Ave,CO,80214
Home Depot,Aurora,1551,#01551 #1551 1551 #0001551 01551,3475 N Salida Court,CO,80011
Home Depot,Firestone,1552,#01552 #1552 1552 #0001552 01552,10858 Jake Jabs Blvd,CO,80504
Home Depot,Newark,1601,#01601 #1601 1601 #0001601 01601,1301 New Churchmans Rd,DE,19713
Home Depot,Claymont,1602,#01602 #1602 1602 #0001602 01602,601 Naamans Rd,DE,19703
Home Depot,Newark,1603,#01603 #1603 1603 #0001603 01603,2000 Peoples Plaza,DE,19702
Home Depot,Lewes,1604,#01604 #1604 1604 #0001604 01604,17832 Coastal Hwy,DE,19958
Home Depot,New Castle,1605,#01605 #1605 1605 #0001605 01605,138 Sunset Blvd,DE,19720
Home Depot,Dover,1608,#01608 #1608 1608 #0001608 01608,801 N Dupont Hwy,DE,19901
Home Depot,Newark,1610,#01610 #1610 1610 #0001610 01610,1000 Suburban Drive,DE,19711
Home Depot,Honolulu,1701,#01701 #1701 1701 #0001701 01701,421 Alakawa St,HI,96817
Home Depot,Pearl City,1702,#01702 #1702 1702 #0001702 01702,1021 Kamehameha Highway,HI,96782
Home Depot,Kahului,1703,#01703 #1703 1703 #0001703 01703,100 Pakaula Street,HI,96732
Home Depot,Kailua Kona,1704,#01704 #1704 1704 #0001704 01704,73-5598 Olowalu St,HI,96740
Home Depot,Lihue,1705,#01705 #1705 1705 #0001705 01705,4320 Nuhou Street,HI,96766
Home Depot,Kapolei,1706,#01706 #1706 1706 #0001706 01706,4600 Kapolei Parkway,HI,96707
Home Depot,Evans,1747,#01747 #1747 1747 #0001747 01747,520 N Belair Road,GA,30809
Home Depot,Hartwell,1748,#01748 #1748 1748 #0001748 01748,1700 Anderson Hwy,GA,30643
Home Depot,Austell,1749,#01749 #1749 1749 #0001749 01749,1200 E W Connector SW,GA,30106
Home Depot,Blairsville,1750,#01750 #1750 1750 #0001750 01750,17 Highway 515,GA,30512
Home Depot,Suwanee,1754,#01754 #1754 1754 #0001754 01754,1480 Satellite Blvd,GA,30024
Home Depot,Roswell,1755,#01755 #1755 1755 #0001755 01755,1580 Holcomb Bridge Rd,GA,30076
Home Depot,Marietta,1763,#01763 #1763 1763 #0001763 01763,3605 Sandy Plains Rd,GA,30066
Home Depot,Commerce,1764,#01764 #1764 1764 #0001764 01764,230 Steven B Tanger Blvd,GA,30529
Home Depot,Fort Oglethorpe,1769,#01769 #1769 1769 #0001769 01769,2055 Battlefield Pkwy,GA,30742
Home Depot,Moultrie,1770,#01770 #1770 1770 #0001770 01770,450 Veterans Pkwy North,GA,31768
Home Depot,Blue Ridge,1771,#01771 #1771 1771 #0001771 01771,10012 Blueridge Drive,GA,30513
Home Depot,Macon,1772,#01772 #1772 1772 #0001772 01772,4635 Presidential Pkwy,GA,31206
Home Depot,Cordele,1773,#01773 #1773 1773 #0001773 01773,2011 Central Ave,GA,31015
Home Depot,Monroe,1774,#01774 #1774 1774 #0001774 01774,2150 West Spring Street,GA,30655
Home Depot,Lilburn,1775,#01775 #1775 1775 #0001775 01775,4028 Lawrenceville Hwy,GA,30047
Home Depot,Kennesaw,1777,#01777 #1777 1777 #0001777 01777,1655 Shiloh Road NW,GA,30144
Home Depot,Boise,1801,#01801 #1801 1801 #0001801 01801,1200 Milwaukee Street,ID,83704
Home Depot,Idaho Falls,1802,#01802 #1802 1802 #0001802 01802,2075 S Holmes Ave,ID,83404
Home Depot,Coeur d'Alene,1803,#01803 #1803 1803 #0001803 01803,220 W Kathleen Ave,ID,83815
Home Depot,Meridian,1804,#01804 #1804 1804 #0001804 01804,1100 S Progress,ID,83642
Home Depot,Twin Falls,1805,#01805 #1805 1805 #0001805 01805,1650 Pole Line Rd E,ID,83301
Home Depot,Boise,1806,#01806 #1806 1806 #0001806 01806,3639 E Federal Way,ID,83705
Home Depot,Chubbuck,1807,#01807 #1807 1807 #0001807 01807,4340 Hawthorne Rd,ID,83202
Home Depot,Lewiston,1808,#01808 #1808 1808 #0001808 01808,2425 Thain Grade,ID,83501
Home Depot,Eagle,1809,#01809 #1809 1809 #0001809 01809,2808 E State Street,ID,83616
Home Depot,Ponderay,1810,#01810 #1810 1810 #0001810 01810,500 Kootenai Cut-Off Rd,ID,83852
Home Depot,Lake Forest,1840,#01840 #1840 1840 #0001840 01840,23651 El Toro Rd,CA,92630
Home Depot,Riverbank,1842,#01842 #1842 1842 #0001842 01842,5230 Squire Wells Road,CA,95367
Home Depot,Salinas,1843,#01843 #1843 1843 #0001843 01843,1890 N Davis Road,CA,93907
Home Depot,Victorville,1844,#01844 #1844 1844 #0001844 01844,15655 Roy Roger Drive,CA,92394
Home Depot,Covina,1845,#01845 #1845 1845 #0001845 01845,963 W Badillo Street,CA,91722
Home Depot,West Sacramento,1846,#01846 #1846 1846 #0001846 01846,690 Riverpoint CT,CA,95605
Home Depot,El Cajon,1848,#01848 #1848 1848 #0001848 01848,298 Fletcher Pkwy,CA,92020
Home Depot,Belleville,1851,#01851 #1851 1851 #0001851 01851,5501 Belleville Crossing,IL,62226
Home Depot,League City,1853,#01853 #1853 1853 #0001853 01853,3200 South Gulf Freeway,TX,77573
Home Depot,Gainesville,1854,#01854 #1854 1854 #0001854 01854,5150 NW 13th Street,FL,32609
Home Depot,Port Charlotte,1855,#01855 #1855 1855 #0001855 01855,12621 McCall Road,FL,33981
Home Depot,Flowery Branch,1856,#01856 #1856 1856 #0001856 01856,5851 Spout Springs Rd,GA,30542
Home Depot,Fontana,1857,#01857 #1857 1857 #0001857 01857,16783 Santa Ana Ave,CA,92337
Home Depot,Compton,1858,#01858 #1858 1858 #0001858 01858,101 Towne Center Drive,CA,90220
Home Depot,Webster,1859,#01859 #1859 1859 #0001859 01859,18251 Gulf Freeway,TX,77598
Home Depot,San Jose,1861,#01861 #1861 1861 #0001861 01861,2181 Monterey Hwy,CA,95125
Home Depot,Broadview,1901,#01901 #1901 1901 #0001901 01901,700 Broadview Village Sq,IL,60153
Home Depot,Evanston,1902,#01902 #1902 1902 #0001902 01902,2201 Oakton Street,IL,60202
Home Depot,Chicago,1903,#01903 #1903 1903 #0001903 01903,2555 N Normandy,IL,60707
Home Depot,Schaumburg,1904,#01904 #1904 1904 #0001904 01904,100 Barrington Road,IL,60194
Home Depot,Darien,1905,#01905 #1905 1905 #0001905 01905,2101 W 75th Street,IL,60561
Home Depot,Orland Park,1906,#01906 #1906 1906 #0001906 01906,7300 W 159th Street,IL,60462
Home Depot,Niles,1907,#01907 #1907 1907 #0001907 01907,901 Civic Center Plaza,IL,60714
Home Depot,Bedford Park,1908,#01908 #1908 1908 #0001908 01908,7200 S Cicero Ave,IL,60638
Home Depot,Calumet City,1909,#01909 #1909 1909 #0001909 01909,1550 Torrence Ave,IL,60409
Home Depot,Cicero,1911,#01911 #1911 1911 #0001911 01911,2803 S Cicero Ave,IL,60804
Home Depot,Chicago,1912,#01912 #1912 1912 #0001912 01912,1232 W North Ave,IL,60642
Home Depot,Mount Prospect,1913,#01913 #1913 1913 #0001913 01913,350 East Kensington,IL,60056
Home Depot,Chicago,1914,#01914 #1914 1914 #0001914 01914,200-232 W 87th St,IL,60620
Home Depot,Quincy,1915,#01915 #1915 1915 #0001915 01915,5432 Broadway Street,IL,62305
Home Depot,Downers Grove,1916,#01916 #1916 1916 #0001916 01916,2000 Butterfield Rd,IL,60515
Home Depot,Glendale Heights,1917,#01917 #1917 1917 #0001917 01917,295 E Armytrail Rd,IL,60139
Home Depot,Naperville,1918,#01918 #1918 1918 #0001918 01918,2920 Audrey Ave,IL,60540
Home Depot,Northlake,1919,#01919 #1919 1919 #0001919 01919,37 W North Ave,IL,60164
Home Depot,Crystal Lake,1920,#01920 #1920 1920 #0001920 01920,4447 US Highway 14,IL,60014
Home Depot,Geneva,1921,#01921 #1921 1921 #0001921 01921,2111 S Randall Rd,IL,60134
Home Depot,Gurnee,1922,#01922 #1922 1922 #0001922 01922,6625 Grand Ave,IL,60031
Home Depot,O Fallon,1924,#01924 #1924 1924 #0001924 01924,1706 W Highway 50,IL,62269
Home Depot,Deerfield,1926,#01926 #1926 1926 #0001926 01926,655 Lake Cook Rd,IL,60015
Home Depot,Palatine,1927,#01927 #1927 1927 #0001927 01927,825 E Dundee Rd,IL,60074
Home Depot,Rockford,1928,#01928 #1928 1928 #0001928 01928,6930 Argus Dr,IL,61107
Home Depot,Matteson,1932,#01932 #1932 1932 #0001932 01932,20808 Cicero Ave,IL,60443
Home Depot,Elgin,1934,#01934 #1934 1934 #0001934 01934,955 N Randall Rd,IL,60123
Home Depot,Chicago Ridge,1935,#01935 #1935 1935 #0001935 01935,300 Commons Drive,IL,60415
Home Depot,Homewood,1936,#01936 #1936 1936 #0001936 01936,17845 Halsted St,IL,60430
Home Depot,Schererville,1937,#01937 #1937 1937 #0001937 01937,960 US Highway 41,IN,46375
Home Depot,Vernon Hills,1938,#01938 #1938 1938 #0001938 01938,493 N Milwaukee Ave,IL,60061
Home Depot,Bolingbrook,1939,#01939 #1939 1939 #0001939 01939,105 N Weber Rd,IL,60490
Home Depot,Algonquin,1940,#01940 #1940 1940 #0001940 01940,200 S Randall Rd,IL,60102
Home Depot,Waukegan,1941,#01941 #1941 1941 #0001941 01941,2001 Belvedere Rd,IL,60085
Home Depot,Woodridge,1942,#01942 #1942 1942 #0001942 01942,7200 Woodward Ave,IL,60517
Home Depot,Carol Stream,1943,#01943 #1943 1943 #0001943 01943,475 S Schmale Road,IL,60188
Home Depot,Ingleside,1944,#01944 #1944 1944 #0001944 01944,2731 Hartigan Rd,IL,60041
Home Depot,Carpentersville,1948,#01948 #1948 1948 #0001948 01948,251 Spring Hill Road,IL,60110
Home Depot,Chicago,1950,#01950 #1950 1950 #0001950 01950,1300 S Clinton Street,IL,60607
Home Depot,Lake Zurich,1952,#01952 #1952 1952 #0001952 01952,670 S Rand Road,IL,60047
Home Depot,Oak Lawn,1955,#01955 #1955 1955 #0001955 01955,4060 W 95th Street,IL,60453
Home Depot,Machesney Park,1956,#01956 #1956 1956 #0001956 01956,1580 W Lane Road,IL,61115
Home Depot,Aurora,1957,#01957 #1957 1957 #0001957 01957,1250 N Orchard Rd,IL,60506
Home Depot,Chicago,1961,#01961 #1961 1961 #0001961 01961,2570 N Elston Avenue,IL,60647
Home Depot,Joliet,1962,#01962 #1962 1962 #0001962 01962,3001 Plainfield Rd,IL,60435
Home Depot,Bartlett,1964,#01964 #1964 1964 #0001964 01964,950 IL Route 59,IL,60103
Home Depot,Mattoon,1967,#01967 #1967 1967 #0001967 01967,1301 Fort Worth Way,IL,61938
Home Depot,McHenry,1969,#01969 #1969 1969 #0001969 01969,2461 N Richmond Rd,IL,60051
Home Depot,Edwardsville,1973,#01973 #1973 1973 #0001973 01973,2500 Troy Road,IL,62025
Home Depot,Chicago,1974,#01974 #1974 1974 #0001974 01974,1919 N Cicero Ave,IL,60639
Home Depot,Oswego,1975,#01975 #1975 1975 #0001975 01975,3080 Route 34,IL,60543
Home Depot,Chicago,1976,#01976 #1976 1976 #0001976 01976,2665 N Halsted Street,IL,60614
Home Depot,Peru,1977,#01977 #1977 1977 #0001977 01977,4242 Venture Drive,IL,61354
Home Depot,Peoria,1978,#01978 #1978 1978 #0001978 01978,5026 W Holiday Drive,IL,61615
Home Depot,Marion,1979,#01979 #1979 1979 #0001979 01979,3200 Banterra Drive,IL,62959
Home Depot,Chicago,1980,#01980 #1980 1980 #0001980 01980,3500 N Kimball,IL,60618
Home Depot,Niles,1981,#01981 #1981 1981 #0001981 01981,8650 Dempster Street,IL,60714
Home Depot,Oakbrook Terrace,1982,#01982 #1982 1982 #0001982 01982,17w734 22nd Street,IL,60181
Home Depot,Countryside,1983,#01983 #1983 1983 #0001983 01983,140 Countryside Plaza,IL,60525
Home Depot,Champaign,1984,#01984 #1984 1984 #0001984 01984,820 Bloomington Rd,IL,61820
Home Depot,Chicago,1986,#01986 #1986 1986 #0001986 01986,4555 S Western Blvd,IL,60609
Home Depot,Glenview,1987,#01987 #1987 1987 #0001987 01987,2850 Patriot Boulevard,IL,60025
Home Depot,Homer Glen,1989,#01989 #1989 1989 #0001989 01989,14053 South Bell Road,IL,60491
Home Depot,Merrillville,2001,#02001 #2001 2001 #0002001 02001,2851 E US Hwy 30,IN,46410
Home Depot,Clarksville,2002,#02002 #2002 2002 #0002002 02002,1000 East Hwy 131,IN,47129
Home Depot,Evansville,2003,#02003 #2003 2003 #0002003 02003,333 N Burkhardt Rd,IN,47715
Home Depot,Fort Wayne,2009,#02009 #2009 2009 #0002009 02009,6235 Lima Road,IN,46818
Home Depot,Evansville,2010,#02010 #2010 2010 #0002010 02010,5230 Pearl Drive,IN,47712
Home Depot,Indianapolis,2011,#02011 #2011 2011 #0002011 02011,2225 N Post Road,IN,46219
Home Depot,Indianapolis,2012,#02012 #2012 2012 #0002012 02012,4850 E Southport Rd,IN,46237
Home Depot,Indianapolis,2014,#02014 #2014 2014 #0002014 02014,3902 N High School Rd,IN,46254
Home Depot,New Albany,2016,#02016 #2016 2016 #0002016 02016,2239 State Street,IN,47150
Home Depot,Noblesville,2017,#02017 #2017 2017 #0002017 02017,3300 Conner Street,IN,46060
Home Depot,Indianapolis,2018,#02018 #2018 2018 #0002018 02018,9320 Corporation Dr,IN,46256
Home Depot,Greenwood,2019,#02019 #2019 2019 #0002019 02019,850 S State Road 135,IN,46143
Home Depot,Seymour,2021,#02021 #2021 2021 #0002021 02021,1714 Tipton Street,IN,47274
Home Depot,Logansport,2023,#02023 #2023 2023 #0002023 02023,4120 E Market Street,IN,46947
Home Depot,Auburn,2024,#02024 #2024 2024 #0002024 02024,403 Smaltz Way,IN,46706
Home Depot,Jasper,2025,#02025 #2025 2025 #0002025 02025,4250 Newton Street,IN,47546
Home Depot,Greenfield,2026,#02026 #2026 2026 #0002026 02026,2055 Barrett Drive,IN,46140
Home Depot,Valparaiso,2030,#02030 #2030 2030 #0002030 02030,2430 Laporte Ave,IN,46383
Home Depot,Mishawaka,2033,#02033 #2033 2033 #0002033 02033,317 Indian Ridge Blvd,IN,46545
Home Depot,Lafayette,2034,#02034 #2034 2034 #0002034 02034,311 Sagamore Parkway,IN,47904
Home Depot,Hammond,2036,#02036 #2036 2036 #0002036 02036,1624 E 165th Street,IN,46320
Home Depot,Carmel,2037,#02037 #2037 2037 #0002037 02037,9855 North Michigan Rd,IN,46032
Home Depot,Waterloo,2101,#02101 #2101 2101 #0002101 02101,1050 Southtown Drive,IA,50702
Home Depot,West Des Moines,2103,#02103 #2103 2103 #0002103 02103,3700 University Ave,IA,50266
Home Depot,Des Moines,2104,#02104 #2104 2104 #0002104 02104,4900 SE 14th St,IA,50320
Home Depot,Ankeny,2107,#02107 #2107 2107 #0002107 02107,2335 SE Delaware Ave,IA,50021
Home Depot,Cedar Rapids,2108,#02108 #2108 2108 #0002108 02108,4501 1st Avenue SE,IA,52403
Home Depot,Council Bluffs,2109,#02109 #2109 2109 #0002109 02109,3101 Manawa Center Dr,IA,51503
Home Depot,Bettendorf,2111,#02111 #2111 2111 #0002111 02111,920 Middle Road,IA,52722
Home Depot,Clinton,2113,#02113 #2113 2113 #0002113 02113,1850 Lincoln Way,IA,52732
Home Depot,Sioux City,2114,#02114 #2114 2114 #0002114 02114,415 Cunningham Drive,IA,51106
Home Depot,Urbandale,2115,#02115 #2115 2115 #0002115 02115,10850 Plum Drive,IA,50322
Home Depot,Olathe,2201,#02201 #2201 2201 #0002201 02201,11850 S Strang Line Rd,KS,66062
Home Depot,Merriam,2202,#02202 #2202 2202 #0002202 02202,5700 Antioch Ave,KS,66202
Home Depot,Overland Park,2203,#02203 #2203 2203 #0002203 02203,9600 Metcalf Ave,KS,66212
Home Depot,Wichita,2204,#02204 #2204 2204 #0002204 02204,3350 N Woodlawn,KS,67226
Home Depot,Wichita,2205,#02205 #2205 2205 #0002205 02205,8444 W McCormick Ave,KS,67209
Home Depot,Topeka,2207,#02207 #2207 2207 #0002207 02207,5900 SW Huntoon,KS,66604
Home Depot,Overland Park,2209,#02209 #2209 2209 #0002209 02209,8000 W 135th Street,KS,66223
Home Depot,Lawrence,2211,#02211 #2211 2211 #0002211 02211,1910 W 31st Street,KS,66046
Home Depot,Shawnee,2213,#02213 #2213 2213 #0002213 02213,15501 W 67th St,KS,66217
Home Depot,Hutchinson,2214,#02214 #2214 2214 #0002214 02214,1907 E 17th Avenue,KS,67501
Home Depot,Leavenworth,2216,#02216 #2216 2216 #0002216 02216,5000 S 4th Street,KS,66048
Home Depot,Manhattan,2217,#02217 #2217 2217 #0002217 02217,605 S Seth Child Rd,KS,66502
Home Depot,Olathe,2218,#02218 #2218 2218 #0002218 02218,20025 W 154th Street,KS,66062
Home Depot,Garden City,2219,#02219 #2219 2219 #0002219 02219,3110 E Kansas Ave,KS,67846
Home Depot,Pittsburg,2220,#02220 #2220 2220 #0002220 02220,3001 N Broadway,KS,66762
Home Depot,Hays,2221,#02221 #2221 2221 #0002221 02221,1310 E 41st Street,KS,67601
Home Depot,Louisville,2301,#02301 #2301 2301 #0002301 02301,2600 S Hurstbourne Pkwy,KY,40220
Home Depot,Louisville,2302,#02302 #2302 2302 #0002302 02302,6840 Dixie Hwy,KY,40258
Home Depot,Lexington,2303,#02303 #2303 2303 #0002303 02303,2397 Richmond Rd,KY,40502
Home Depot,Louisville,2305,#02305 #2305 2305 #0002305 02305,10301 Westport Rd,KY,40241
Home Depot,Florence,2306,#02306 #2306 2306 #0002306 02306,99 Spiral Blvd,KY,41042
Home Depot,Louisville,2307,#02307 #2307 2307 #0002307 02307,8232 Preston Hwy,KY,40219
Home Depot,Louisville,2313,#02313 #2313 2313 #0002313 02313,964 Breckenridge Lane,KY,40207
Home Depot,Paducah,2314,#02314 #2314 2314 #0002314 02314,2801 James Sanders Rd,KY,42001
Home Depot,Lexington,2315,#02315 #2315 2315 #0002315 02315,2021 Harrodsburg Rd,KY,40504
Home Depot,Elizabethtown,2316,#02316 #2316 2316 #0002316 02316,1510 Ring Road,KY,42701
Home Depot,Owensboro,2317,#02317 #2317 2317 #0002317 02317,5150 US 431-Frederica St,KY,42301
Home Depot,Bowling Green,2318,#02318 #2318 2318 #0002318 02318,2233 Gary Farms Blvd,KY,42104
Home Depot,Cold Spring,2323,#02323 #2323 2323 #0002323 02323,415 Crossroads Blvd,KY,41076
Home Depot,Crescent Springs,2324,#02324 #2324 2324 #0002324 02324,500 Clock Tower Way,KY,41017
Home Depot,Portland,2401,#02401 #2401 2401 #0002401 02401,245 Riverside Street,ME,4103
Home Depot,Auburn,2403,#02403 #2403 2403 #0002403 02403,149 MT Auburn Ave,ME,4210
Home Depot,Augusta,2404,#02404 #2404 2404 #0002404 02404,26 Stephen King Dr,ME,4330
Home Depot,Biddeford,2405,#02405 #2405 2405 #0002405 02405,550 Alfred Street,ME,4005
Home Depot,South Portland,2406,#02406 #2406 2406 #0002406 02406,300 Clarks Pond Pkwy,ME,4106
Home Depot,Waterville,2407,#02407 #2407 2407 #0002407 02407,60 Waterville Drive,ME,4901
Home Depot,Ellsworth,2408,#02408 #2408 2408 #0002408 02408,56 Myrick Street,ME,4605
Home Depot,Rockland,2409,#02409 #2409 2409 #0002409 02409,270 Camden Lane,ME,4841
Home Depot,Topsham,2410,#02410 #2410 2410 #0002410 02410,154 Topsham Fair Mall Rd,ME,4086
Home Depot,Windham,2412,#02412 #2412 2412 #0002412 02412,20 Franklin Drive,ME,4062
Home Depot,Bangor,2414,#02414 #2414 2414 #0002414 02414,650 Stillwater Avenue,ME,4401
Home Depot,Glen Burnie,2501,#02501 #2501 2501 #0002501 02501,601 New Ordnance Rd,MD,21060
Home Depot,Baltimore,2502,#02502 #2502 2502 #0002502 02502,9955 Pulaski Hwy,MD,21220
Home Depot,Catonsville,2503,#02503 #2503 2503 #0002503 02503,6000 Baltimore Natl Pike,MD,21228
Home Depot,Parkville,2504,#02504 #2504 2504 #0002504 02504,1971 East Joppa Road,MD,21234
Home Depot,Baltimore,2505,#02505 #2505 2505 #0002505 02505,6315 Eastern Avenue,MD,21224
Home Depot,Bel Air,2506,#02506 #2506 2506 #0002506 02506,655 Marketplace Dr,MD,21014
Home Depot,Owings Mills,2507,#02507 #2507 2507 #0002507 02507,9818 Reisterstown Rd,MD,21117
Home Depot,Bethesda,2509,#02509 #2509 2509 #0002509 02509,7111 Westlake Terrace,MD,20817
Home Depot,Aberdeen,2510,#02510 #2510 2510 #0002510 02510,979 Beards Hill Road,MD,21001
Home Depot,Frederick,2511,#02511 #2511 2511 #0002511 02511,51 N McCain Drive,MD,21702
Home Depot,Gaithersburg,2550,#02550 #2550 2550 #0002550 02550,15740 Shady Grove Road,MD,20877
Home Depot,Silver Spring,2551,#02551 #2551 2551 #0002551 02551,2300 Broadbirch Drive,MD,20904
Home Depot,College Park,2552,#02552 #2552 2552 #0002552 02552,4700 Cherry Hill Rd,MD,20740
Home Depot,Oxon Hill,2554,#02554 #2554 2554 #0002554 02554,6003 Oxon Hill Road,MD,20745
Home Depot,Capitol Heights,2555,#02555 #2555 2555 #0002555 02555,150 Hampton Park Blvd,MD,20743
Home Depot,Annapolis,2557,#02557 #2557 2557 #0002557 02557,145 Defense Highway,MD,21401
Home Depot,Aspen Hill,2558,#02558 #2558 2558 #0002558 02558,14000 Georgia Avenue,MD,20906
Home Depot,Frederick,2559,#02559 #2559 2559 #0002559 02559,5517 Urbana Pike,MD,21704
Home Depot,Germantown,2560,#02560 #2560 2560 #0002560 02560,21010 Frederick Rd,MD,20876
Home Depot,Salisbury,2561,#02561 #2561 2561 #0002561 02561,115 E North Pointe Dr,MD,21804
Home Depot,Bowie,2562,#02562 #2562 2562 #0002562 02562,4121 Crain Hwy,MD,20716
Home Depot,Waldorf,2563,#02563 #2563 2563 #0002563 02563,12050 Jefferson Farm Pl,MD,20601
Home Depot,Hyattsville,2564,#02564 #2564 2564 #0002564 02564,3301 E West Highway,MD,20782
Home Depot,Cockeysville,2565,#02565 #2565 2565 #0002565 02565,125 Industry Lane,MD,21030
Home Depot,Ellicott City,2566,#02566 #2566 2566 #0002566 02566,9190 Baltimore Natl Pike,MD,21042
Home Depot,Hagerstown,2567,#02567 #2567 2567 #0002567 02567,17810 Garland Groh Blvd,MD,21740
Home Depot,Laurel,2571,#02571 #2571 2571 #0002571 02571,210 Ft Meade Road,MD,20724
Home Depot,Columbia,2575,#02575 #2575 2575 #0002575 02575,9051 Snowden River Pkwy,MD,21046
Home Depot,Edgewood,2576,#02576 #2576 2576 #0002576 02576,2703 Pulaski Highway,MD,21040
Home Depot,Parkville,2577,#02577 #2577 2577 #0002577 02577,2501 Cleanleigh Drive,MD,21234
Home Depot,Berlin,2578,#02578 #2578 2578 #0002578 02578,11408 Ocean Gateway,MD,21811
Home Depot,Halethorpe,2579,#02579 #2579 2579 #0002579 02579,3750 Commerce Drive,MD,21227
Home Depot,Westminster,2580,#02580 #2580 2580 #0002580 02580,835 Market Street,MD,21157
Home Depot,Sykesville,2581,#02581 #2581 2581 #0002581 02581,1326 Londontown Blvd,MD,21784
Home Depot,Glen Burnie,2582,#02582 #2582 2582 #0002582 02582,66 Mountain Rd,MD,21060
Home Depot,Washington,2583,#02583 #2583 2583 #0002583 02583,901 Rhode Island Ave NE,DC,20018
Home Depot,Baltimore,2584,#02584 #2584 2584 #0002584 02584,6620 Reisterstown Rd,MD,21215
Home Depot,Rosedale,2587,#02587 #2587 2587 #0002587 02587,6415 Petrie Way,MD,21237
Home Depot,Annapolis,2589,#02589 #2589 2589 #0002589 02589,55 Forest Plaza,MD,21401
Home Depot,Watertown,2602,#02602 #2602 2602 #0002602 02602,615 Arsenal Street,MA,2472
Home Depot,Bridgewater,2603,#02603 #2603 2603 #0002603 02603,1453 Pleasant Street,MA,2324
Home Depot,Somerset,2605,#02605 #2605 2605 #0002605 02605,535 Grand Army Hwy,MA,2725
Home Depot,Marlborough,2607,#02607 #2607 2607 #0002607 02607,701 Boston Post Rd East,MA,1752
Home Depot,Quincy,2608,#02608 #2608 2608 #0002608 02608,465 Centre Street,MA,2169
Home Depot,Mansfield,2609,#02609 #2609 2609 #0002609 02609,390 West Street,MA,2048
Home Depot,Chicopee,2610,#02610 #2610 2610 #0002610 02610,655 Memorial Drive,MA,1020
Home Depot,Brockton,2611,#02611 #2611 2611 #0002611 02611,715 Crescent Street,MA,2302
Home Depot,Hyannis,2612,#02612 #2612 2612 #0002612 02612,65 Independence Drive,MA,2601
Home Depot,East Wareham,2613,#02613 #2613 2613 #0002613 02613,2994 Cranberry Highway,MA,2538
Home Depot,Reading,2614,#02614 #2614 2614 #0002614 02614,60 Walkers Brook Drive,MA,1867
Home Depot,Seekonk,2615,#02615 #2615 2615 #0002615 02615,95 Highland Avenue,MA,2771
Home Depot,Greenfield,2619,#02619 #2619 2619 #0002619 02619,264 Mohawk Trail - Rt 2,MA,1301
Home Depot,Danvers,2623,#02623 #2623 2623 #0002623 02623,235 Independence Way,MA,1923
Home Depot,Oxford,2624,#02624 #2624 2624 #0002624 02624,99 Sutton Avenue,MA,1540
Home Depot,Rockland,2650,#02650 #2650 2650 #0002650 02650,1149 Hingham St,MA,2370
Home Depot,Bellingham,2651,#02651 #2651 2651 #0002651 02651,229 Hartford Ave,MA,2019
Home Depot,Saugus,2653,#02653 #2653 2653 #0002653 02653,564 Broadway,MA,1906
Home Depot,South Attleboro,2659,#02659 #2659 2659 #0002659 02659,1100 Newport Ave,MA,2703
Home Depot,West Springfield,2662,#02662 #2662 2662 #0002662 02662,179 Dagget Drive,MA,1089
Home Depot,Danvers,2663,#02663 #2663 2663 #0002663 02663,92 Newbury St,MA,1923
Home Depot,West Roxbury,2665,#02665 #2665 2665 #0002665 02665,1213 Vfw Parkway,MA,2132
Home Depot,Somerville,2667,#02667 #2667 2667 #0002667 02667,75 Mystic Ave,MA,2143
Home Depot,Tewksbury,2668,#02668 #2668 2668 #0002668 02668,85 Main Street,MA,1876
Home Depot,Natick,2669,#02669 #2669 2669 #0002669 02669,339 Speen St,MA,1760
Home Depot,Quincy,2670,#02670 #2670 2670 #0002670 02670,177 Willard St,MA,2169
Home Depot,Avon,2671,#02671 #2671 2671 #0002671 02671,60 Stockwell Drive,MA,2322
Home Depot,Shrewsbury,2672,#02672 #2672 2672 #0002672 02672,530 Turnpike Road,MA,1545
Home Depot,North Dartmouth,2673,#02673 #2673 2673 #0002673 02673,470 State Road,MA,2747
Home Depot,Waltham,2674,#02674 #2674 2674 #0002674 02674,100 First Avenue,MA,2451
Home Depot,Leominster,2676,#02676 #2676 2676 #0002676 02676,135 Commercial Rd,MA,1453
Home Depot,Taunton,2677,#02677 #2677 2677 #0002677 02677,899 County Street,MA,2780
Home Depot,Wilbraham,2678,#02678 #2678 2678 #0002678 02678,2001 Boston Road,MA,1095
Home Depot,Boston,2679,#02679 #2679 2679 #0002679 02679,5 Allstate Road,MA,2125
Home Depot,Plymouth,2680,#02680 #2680 2680 #0002680 02680,39 Long Pond Road,MA,2360
Home Depot,Norwood,2681,#02681 #2681 2681 #0002681 02681,1415 Bstn Providence Hwy,MA,2062
Home Depot,Auburn,2682,#02682 #2682 2682 #0002682 02682,779 Washington Street,MA,1501
Home Depot,Pittsfield,2683,#02683 #2683 2683 #0002683 02683,555 Hubbard Ave-Unit 21,MA,1201
Home Depot,Worcester,2684,#02684 #2684 2684 #0002684 02684,130 Goldstar Blvd,MA,1606
Home Depot,Methuen,2685,#02685 #2685 2685 #0002685 02685,72 Pleasant Valley St,MA,1844
Home Depot,Salem,2686,#02686 #2686 2686 #0002686 02686,50 Traders Way,MA,1970
Home Depot,Everett,2688,#02688 #2688 2688 #0002688 02688,3 Mystic View Rd,MA,2149
Home Depot,Pontiac,2701,#02701 #2701 2701 #0002701 02701,545 S Telegraph,MI,48341
Home Depot,Warren,2702,#02702 #2702 2702 #0002702 02702,25879 Hoover Road,MI,48089
Home Depot,Canton,2703,#02703 #2703 2703 #0002703 02703,39825 Ford Road,MI,48187
Home Depot,Northville,2704,#02704 #2704 2704 #0002704 02704,39500 W 7 Mile Road,MI,48167
Home Depot,Troy,2706,#02706 #2706 2706 #0002706 02706,1177 Coolidge Highway,MI,48084
Home Depot,Roseville,2707,#02707 #2707 2707 #0002707 02707,20500 13 Mile Road,MI,48066
Home Depot,Utica,2708,#02708 #2708 2708 #0002708 02708,45301 Northpointe Blvd,MI,48315
Home Depot,Taylor,2709,#02709 #2709 2709 #0002709 02709,21100 Penn Street,MI,48180
Home Depot,Dearborn Heights,2710,#02710 #2710 2710 #0002710 02710,25451 Michigan Avenue,MI,48125
Home Depot,Southfield,2711,#02711 #2711 2711 #0002711 02711,29801 Southfield Road,MI,48076
Home Depot,Saginaw,2714,#02714 #2714 2714 #0002714 02714,3132 Bueker Drive,MI,48604
Home Depot,Grand Rapids,2715,#02715 #2715 2715 #0002715 02715,"4646 28th Street, SE",MI,49512
Home Depot,Flint,2716,#02716 #2716 2716 #0002716 02716,4380 W Corunna Rd,MI,48532
Home Depot,Burton,2717,#02717 #2717 2717 #0002717 02717,4245 E Court St,MI,48509
Home Depot,Harper Woods,2718,#02718 #2718 2718 #0002718 02718,20300 Kelly Rd,MI,48225
Home Depot,Walker,2720,#02720 #2720 2720 #0002720 02720,2727 Alpine Ave NW,MI,49544
Home Depot,Ypsilanti,2721,#02721 #2721 2721 #0002721 02721,3300 Carpenter Rd,MI,48197
Home Depot,Commerce Township,2722,#02722 #2722 2722 #0002722 02722,355 Haggerty Hwy,MI,48390
Home Depot,Okemos,2723,#02723 #2723 2723 #0002723 02723,1749 Newman Rd,MI,48864
Home Depot,Brighton,2724,#02724 #2724 2724 #0002724 02724,8053 Challis Rd,MI,48116
Home Depot,Lansing,2725,#02725 #2725 2725 #0002725 02725,936 S Waverly Rd,MI,48917
Home Depot,Traverse City,2726,#02726 #2726 2726 #0002726 02726,2522 Crossing Circle,MI,49684
Home Depot,Rochester Hills,2727,#02727 #2727 2727 #0002727 02727,225 Avon Road,MI,48307
Home Depot,Portage,2728,#02728 #2728 2728 #0002728 02728,6685 S Westnedge Ave,MI,49002
Home Depot,White Lake,2729,#02729 #2729 2729 #0002729 02729,9078 Highland Road,MI,48386
Home Depot,Madison Heights,2731,#02731 #2731 2731 #0002731 02731,660 W 12 Mile Rd,MI,48071
Home Depot,Mount Pleasant,2732,#02732 #2732 2732 #0002732 02732,5650 E Pickard St,MI,48858
Home Depot,Fort Gratiot,2733,#02733 #2733 2733 #0002733 02733,4195 24th Avenue,MI,48059
Home Depot,Chesterfield,2734,#02734 #2734 2734 #0002734 02734,51315 Gratiot Ave,MI,48051
Home Depot,Lapeer,2736,#02736 #2736 2736 #0002736 02736,1500 Summit Drive,MI,48446
Home Depot,Novi,2737,#02737 #2737 2737 #0002737 02737,47950 Grand River Ave,MI,48374
Home Depot,Woodhaven,2738,#02738 #2738 2738 #0002738 02738,23300 W Allen,MI,48183
Home Depot,Bay City,2739,#02739 #2739 2739 #0002739 02739,3860 State Street,MI,48706
Home Depot,Sterling Heights,2740,#02740 #2740 2740 #0002740 02740,37000 Van Dyke Ave,MI,48312
Home Depot,Fenton,2741,#02741 #2741 2741 #0002741 02741,15255 Silver Pkwy,MI,48430
Home Depot,Livonia,2742,#02742 #2742 2742 #0002742 02742,13500 Middlebelt,MI,48150
Home Depot,Lake Orion,2743,#02743 #2743 2743 #0002743 02743,2600 S Lapeer Road,MI,48360
Home Depot,Canton,2744,#02744 #2744 2744 #0002744 02744,45900 Michigan Ave,MI,48188
Home Depot,Midland,2747,#02747 #2747 2747 #0002747 02747,1100 Joe Mann Blvd,MI,48642
Home Depot,Grandville,2748,#02748 #2748 2748 #0002748 02748,4900 Wilson Ave SW,MI,49418
Home Depot,Howell,2751,#02751 #2751 2751 #0002751 02751,3330 E Grand River Ave,MI,48843
Home Depot,Cadillac,2752,#02752 #2752 2752 #0002752 02752,3786 S US 131,MI,49601
Home Depot,Muskegon,2754,#02754 #2754 2754 #0002754 02754,2699 Henry Street,MI,49441
Home Depot,Petoskey,2755,#02755 #2755 2755 #0002755 02755,1700 Anderson Rd,MI,49770
Home Depot,Dearborn,2757,#02757 #2757 2757 #0002757 02757,5951 Mercury Drive,MI,48126
Home Depot,Shelby Township,2758,#02758 #2758 2758 #0002758 02758,8760 26 Mile Road,MI,48316
Home Depot,Gaylord,2759,#02759 #2759 2759 #0002759 02759,1381 W Main Street,MI,49735
Home Depot,Alpena,2760,#02760 #2760 2760 #0002760 02760,1348 M-32,MI,49707
Home Depot,Wyoming,2761,#02761 #2761 2761 #0002761 02761,257 54th Street SW,MI,49548
Home Depot,Plymouth,2762,#02762 #2762 2762 #0002762 02762,47725 Five Mile Rd,MI,48170
Home Depot,Flint,2763,#02763 #2763 2763 #0002763 02763,1222 West Hill Rd,MI,48507
Home Depot,Auburn Hills,2764,#02764 #2764 2764 #0002764 02764,4150 Joslyn Road,MI,48326
Home Depot,Flushing,2765,#02765 #2765 2765 #0002765 02765,5300 Pierson Road,MI,48433
Home Depot,Coldwater,2766,#02766 #2766 2766 #0002766 02766,825 E Chicago,MI,49036
Home Depot,Ludington,2767,#02767 #2767 2767 #0002767 02767,3865 W US 10,MI,49431
Home Depot,Benton Harbor,2768,#02768 #2768 2768 #0002768 02768,2075 Pipestone Rd,MI,49022
Home Depot,Houghton Lake,2769,#02769 #2769 2769 #0002769 02769,2241 W Houghton Lake Dr,MI,48629
Home Depot,Jackson,2770,#02770 #2770 2770 #0002770 02770,1400 N Wisner Rd,MI,49202
Home Depot,Plainwell,2771,#02771 #2771 2771 #0002771 02771,1227 M89,MI,49080
Home Depot,Owosso,2772,#02772 #2772 2772 #0002772 02772,2205 East M21,MI,48867
Home Depot,Farmington Hills,2773,#02773 #2773 2773 #0002773 02773,32525 Northwestern Hwy,MI,48334
Home Depot,Iron Mountain,2775,#02775 #2775 2775 #0002775 02775,W8141 Highway US 2,MI,49801
Home Depot,Macomb Township,2776,#02776 #2776 2776 #0002776 02776,20777 Hall Road,MI,48044
Home Depot,Saginaw,2779,#02779 #2779 2779 #0002779 02779,8670 Gratiot Rd,MI,48609
Home Depot,Grand Haven,2780,#02780 #2780 2780 #0002780 02780,900 Jackson Street,MI,49417
Home Depot,Detroit,2781,#02781 #2781 2781 #0002781 02781,18700 Meyers Road,MI,48235
Home Depot,West Branch,2782,#02782 #2782 2782 #0002782 02782,2892 Cook Road,MI,48661
Home Depot,Three Rivers,2785,#02785 #2785 2785 #0002785 02785,1301 S Us131,MI,49093
Home Depot,Taylor,2789,#02789 #2789 2789 #0002789 02789,11100 Telegraph Road,MI,48180
Home Depot,Maplewood,2801,#02801 #2801 2801 #0002801 02801,2360 White Bear Ave No,MN,55109
Home Depot,Fridley,2802,#02802 #2802 2802 #0002802 02802,"5650 Main St, NE",MN,55432
Home Depot,Coon Rapids,2803,#02803 #2803 2803 #0002803 02803,3550 124th Ave NW,MN,55433
Home Depot,Brooklyn Park,2804,#02804 #2804 2804 #0002804 02804,6701 Boone Ave North,MN,55428
Home Depot,Bloomington,2805,#02805 #2805 2805 #0002805 02805,400 W 79th St,MN,55431
Home Depot,Saint Louis Park,2806,#02806 #2806 2806 #0002806 02806,5800 Cedar Lake Rd,MN,55416
Home Depot,Minneapolis,2807,#02807 #2807 2807 #0002807 02807,1520 New Brighton Blvd,MN,55413
Home Depot,Plymouth,2808,#02808 #2808 2808 #0002808 02808,1705 Annapolis Lane,MN,55441
Home Depot,Burnsville,2809,#02809 #2809 2809 #0002809 02809,155 Nicollet Blvd W,MN,55337
Home Depot,Woodbury,2810,#02810 #2810 2810 #0002810 02810,8334 Tamarack Village,MN,55125
Home Depot,Waite Park,2811,#02811 #2811 2811 #0002811 02811,401 2nd Street South,MN,56387
Home Depot,Eden Prairie,2812,#02812 #2812 2812 #0002812 02812,13100 Valley View Rd,MN,55344
Home Depot,Eagan,2813,#02813 #2813 2813 #0002813 02813,3220 Denmark Ave,MN,55121
Home Depot,Duluth,2817,#02817 #2817 2817 #0002817 02817,1101 Mall Drive,MN,55811
Home Depot,Baxter,2818,#02818 #2818 2818 #0002818 02818,7207 Foley Road,MN,56425
Home Depot,Forest Lake,2820,#02820 #2820 2820 #0002820 02820,1943 W Broadway Avenue,MN,55025
Home Depot,Elk River,2821,#02821 #2821 2821 #0002821 02821,18011 Zane St NW,MN,55330
Home Depot,Chaska,2825,#02825 #2825 2825 #0002825 02825,300 Pioneer Trail E,MN,55318
Home Depot,Rochester,2826,#02826 #2826 2826 #0002826 02826,3050 41st Street NW,MN,55901
Home Depot,Blaine,2828,#02828 #2828 2828 #0002828 02828,4550 Pheasant Ridge Dr,MN,55449
Home Depot,Mankato,2829,#02829 #2829 2829 #0002829 02829,375 St Andrews Dr,MN,56001
Home Depot,Bemidji,2830,#02830 #2830 2830 #0002830 02830,2425 Middle School Dr NW,MN,56601
Home Depot,Fergus Falls,2831,#02831 #2831 2831 #0002831 02831,2025 Lincoln Avenue West,MN,56537
Home Depot,Albert Lea,2832,#02832 #2832 2832 #0002832 02832,2400 Consul Street,MN,56007
Home Depot,Apple Valley,2833,#02833 #2833 2833 #0002833 02833,15101 Flagstaff Ave,MN,55124
Home Depot,Grand Rapids,2834,#02834 #2834 2834 #0002834 02834,2600 S Highway 169,MN,55744
Home Depot,Monticello,2840,#02840 #2840 2840 #0002840 02840,1385 7th Street East,MN,55362
Home Depot,Shakopee,2841,#02841 #2841 2841 #0002841 02841,1701 County Road 18,MN,55379
Home Depot,Willmar,2842,#02842 #2842 2842 #0002842 02842,300 28th Avenue SE,MN,56201
Home Depot,Inver Grove Height,2843,#02843 #2843 2843 #0002843 02843,1300 E Mendota Road,MN,55077
Home Depot,Maple Grove,2844,#02844 #2844 2844 #0002844 02844,15800 Grove Circle North,MN,55369
Home Depot,Richfield,2845,#02845 #2845 2845 #0002845 02845,6301 Richfield Pkwy,MN,55423
Home Depot,Blaine,2847,#02847 #2847 2847 #0002847 02847,99 Northtown Drive,MN,55434
Home Depot,Gulfport,2901,#02901 #2901 2901 #0002901 02901,15220 Creosote Rd,MS,39503
Home Depot,Jackson,2902,#02902 #2902 2902 #0002902 02902,6325 I-55 North,MS,39213
Home Depot,Horn Lake,2903,#02903 #2903 2903 #0002903 02903,7260 Interstate Blvd,MS,38637
Home Depot,Hattiesburg,2905,#02905 #2905 2905 #0002905 02905,4100 O'Ferrell Street,MS,39402
Home Depot,Saltillo,2906,#02906 #2906 2906 #0002906 02906,1074 Cross Creek Dr,MS,38866
Home Depot,Brandon,2907,#02907 #2907 2907 #0002907 02907,200 Orleans Way,MS,39042
Home Depot,Vicksburg,2909,#02909 #2909 2909 #0002909 02909,50 Halls Ferry Park Rd,MS,39180
Home Depot,Biloxi,2910,#02910 #2910 2910 #0002910 02910,1680 Elizabeth Blvd,MS,39532
Home Depot,Madison,2912,#02912 #2912 2912 #0002912 02912,211 Colony Way,MS,39110
Home Depot,Brookhaven,2913,#02913 #2913 2913 #0002913 02913,101 Stribling Road,MS,39601
Home Depot,Oxford,2914,#02914 #2914 2914 #0002914 02914,201 Home Depot Dr,MS,38655
Home Depot,Picayune,2915,#02915 #2915 2915 #0002915 02915,2000 Hwy 43 South,MS,39466
Home Depot,Clinton,2917,#02917 #2917 2917 #0002917 02917,5000 Hampstead Blvd,MS,39056
Home Depot,Columbia,3001,#03001 #3001 3001 #0003001 03001,3215 Clark Lane,MO,65202
Home Depot,Brentwood,3002,#03002 #3002 3002 #0003002 03002,1603 S Hanley Rd,MO,63144
Home Depot,Bridgeton,3003,#03003 #3003 3003 #0003003 03003,11215 St Charles Rock Rd,MO,63044
Home Depot,Town And Country,3004,#03004 #3004 3004 #0003004 03004,13929 Manchester Rd,MO,63011
Home Depot,Independence,3006,#03006 #3006 3006 #0003006 03006,4210 S Lees Summit Rd,MO,64055
Home Depot,Saint Louis,3007,#03007 #3007 3007 #0003007 03007,10890 Sunset Hills Plaza,MO,63127
Home Depot,Gladstone,3008,#03008 #3008 3008 #0003008 03008,4949 Old Pike Rd,MO,64118
Home Depot,Saint Charles,3009,#03009 #3009 3009 #0003009 03009,3891 Mexico Rd,MO,63303
Home Depot,Saint Louis,3010,#03010 #3010 3010 #0003010 03010,7481 S Lindberg Blvd,MO,63125
Home Depot,Saint Louis,3011,#03011 #3011 3011 #0003011 03011,3202 S Kings Hwy Blvd,MO,63139
Home Depot,Springfield,3012,#03012 #3012 3012 #0003012 03012,2104 E Independence,MO,65804
Home Depot,Saint Louis,3013,#03013 #3013 3013 #0003013 03013,10930 New Halls Ferry Rd,MO,63136
Home Depot,Arnold,3014,#03014 #3014 3014 #0003014 03014,3865 Vogel Rd,MO,63010
Home Depot,O Fallon,3015,#03015 #3015 3015 #0003015 03015,1525 Hwy K,MO,63366
Home Depot,Kansas City,3016,#03016 #3016 3016 #0003016 03016,4707 E Bannister Rd,MO,64137
Home Depot,Ellisville,3018,#03018 #3018 3018 #0003018 03018,37 Ellisville Towne Ctre,MO,63011
Home Depot,Kansas City,3019,#03019 #3019 3019 #0003019 03019,8598 N Church Rd,MO,64158
Home Depot,Kansas City,3021,#03021 #3021 3021 #0003021 03021,111 E Linwood Blvd,MO,64111
Home Depot,Saint Peters,3022,#03022 #3022 3022 #0003022 03022,6190 Mid Rivers Mall Dr,MO,63304
Home Depot,Blue Springs,3024,#03024 #3024 3024 #0003024 03024,905 NE Adams Dairy Pkwy,MO,64014
Home Depot,Wentzville,3025,#03025 #3025 3025 #0003025 03025,1920 Wentzville Pkwy,MO,63385
Home Depot,Lees Summit,3026,#03026 #3026 3026 #0003026 03026,651 SE Oldham Parkway,MO,64081
Home Depot,Osage Beach,3027,#03027 #3027 3027 #0003027 03027,4030 Osage Beach Pkwy,MO,65065
Home Depot,Belton,3029,#03029 #3029 3029 #0003029 03029,1306 E North Avenue,MO,64012
Home Depot,Festus,3032,#03032 #3032 3032 #0003032 03032,1131 W Gannon,MO,63028
Home Depot,Poplar Bluff,3033,#03033 #3033 3033 #0003033 03033,639 S Westwood Blvd,MO,63901
Home Depot,Florissant,3034,#03034 #3034 3034 #0003034 03034,13915 New Halls Ferry Rd,MO,63033
Home Depot,Kirksville,3036,#03036 #3036 3036 #0003036 03036,3015 N Baltimore,MO,63501
Home Depot,Overland,3037,#03037 #3037 3037 #0003037 03037,8901 Page Avenue,MO,63114
Home Depot,Branson,3038,#03038 #3038 3038 #0003038 03038,1000 Branson Hills Pkwy,MO,65616
Home Depot,Joplin,3042,#03042 #3042 3042 #0003042 03042,3110 E 20th Street,MO,64801
Home Depot,Billings,3101,#03101 #3101 3101 #0003101 03101,2784 King Ave West,MT,59102
Home Depot,Missoula,3102,#03102 #3102 3102 #0003102 03102,2725 Radio Way,MT,59808
Home Depot,Great Falls,3103,#03103 #3103 3103 #0003103 03103,1500 Market Place Dr,MT,59404
Home Depot,Bozeman,3104,#03104 #3104 3104 #0003104 03104,1771 North 19th Avenue,MT,59718
Home Depot,Kalispell,3105,#03105 #3105 3105 #0003105 03105,2455 Highway 93 North,MT,59901
Home Depot,Helena,3106,#03106 #3106 3106 #0003106 03106,1801 E Custer Avenue,MT,59602
Home Depot,Omaha,3201,#03201 #3201 3201 #0003201 03201,3950 North 144th St,NE,68116
Home Depot,Omaha,3202,#03202 #3202 3202 #0003202 03202,4545 North 72nd Street,NE,68134
Home Depot,Omaha,3203,#03203 #3203 3203 #0003203 03203,12710 L Street,NE,68137
Home Depot,Lincoln,3204,#03204 #3204 3204 #0003204 03204,6800 South 70th Street,NE,68516
Home Depot,Papillion,3206,#03206 #3206 3206 #0003206 03206,712 N Washington St,NE,68046
Home Depot,Grand Island,3208,#03208 #3208 3208 #0003208 03208,911 Allen Drive,NE,68803
Home Depot,Lincoln,3209,#03209 #3209 3209 #0003209 03209,3300 N 27th Street,NE,68521
Home Depot,Scottsbluff,3210,#03210 #3210 3210 #0003210 03210,3102 Avenue I,NE,69361
Home Depot,Las Vegas,3301,#03301 #3301 3301 #0003301 03301,861 S Rainbow Blvd,NV,89145
Home Depot,Henderson,3302,#03302 #3302 3302 #0003302 03302,1030 Sunset Road,NV,89014
Home Depot,Las Vegas,3303,#03303 #3303 3303 #0003303 03303,1401 S Lamb Blvd,NV,89104
Home Depot,Reno,3304,#03304 #3304 3304 #0003304 03304,2955 Northtowne Ln,NV,89512
Home Depot,Las Vegas,3305,#03305 #3305 3305 #0003305 03305,7881 W Tropical Parkway,NV,89149
Home Depot,Las Vegas,3306,#03306 #3306 3306 #0003306 03306,2200 E Serene Ave,NV,89123
Home Depot,North Las Vegas,3307,#03307 #3307 3307 #0003307 03307,1275 W Craig Rd,NV,89032
Home Depot,Las Vegas,3308,#03308 #3308 3308 #0003308 03308,7015 Arroyo Crossing Pky,NV,89113
Home Depot,Carson City,3309,#03309 #3309 3309 #0003309 03309,3185 Market Street,NV,89706
Home Depot,Reno,3310,#03310 #3310 3310 #0003310 03310,6590 S Virginia St,NV,89511
Home Depot,Reno,3311,#03311 #3311 3311 #0003311 03311,5125 Summit Ridge CT,NV,89523
Home Depot,Carson City,3312,#03312 #3312 3312 #0003312 03312,921 Jacks Valley Road,NV,89705
Home Depot,Sparks,3313,#03313 #3313 3313 #0003313 03313,4655 Galleria Pkwy,NV,89436
Home Depot,Las Vegas,3314,#03314 #3314 3314 #0003314 03314,4195 S Fort Apache Rd,NV,89147
Home Depot,Las Vegas,3315,#03315 #3315 3315 #0003315 03315,9705 W Charleston Blvd,NV,89117
Home Depot,Las Vegas,3316,#03316 #3316 3316 #0003316 03316,6025 South Pecos Road,NV,89120
Home Depot,Las Vegas,3318,#03318 #3318 3318 #0003318 03318,4750 S Decatur Blvd,NV,89103
Home Depot,Elko,3320,#03320 #3320 3320 #0003320 03320,2955 Mountain City Hwy,NV,89801
Home Depot,Pahrump,3322,#03322 #3322 3322 #0003322 03322,301 N Hwy 160,NV,89060
Home Depot,North Las Vegas,3324,#03324 #3324 3324 #0003324 03324,855 East Dorrell Lane,NV,89086
Home Depot,Londonderry,3401,#03401 #3401 3401 #0003401 03401,41 Nashua Rd,NH,3053
Home Depot,Tilton,3402,#03402 #3402 3402 #0003402 03402,160 Laconia Rd,NH,3276
Home Depot,Hooksett,3403,#03403 #3403 3403 #0003403 03403,300 Quality Drive,NH,3106
Home Depot,Seabrook,3404,#03404 #3404 3404 #0003404 03404,240 Lafayette Rd,NH,3874
Home Depot,North Hampton,3405,#03405 #3405 3405 #0003405 03405,35 Lafayette Rd,NH,3862
Home Depot,West Lebanon,3406,#03406 #3406 3406 #0003406 03406,296 Plainfield Rd,NH,3784
Home Depot,North Conway,3407,#03407 #3407 3407 #0003407 03407,53 Barnes Road,NH,3860
Home Depot,Claremont,3408,#03408 #3408 3408 #0003408 03408,451 Washington St,NH,3743
Home Depot,Portsmouth,3409,#03409 #3409 3409 #0003409 03409,100 Arthur Brady Drive,NH,3801
Home Depot,Salem,3480,#03480 #3480 3480 #0003480 03480,289 South Broadway,NH,3079
Home Depot,Nashua,3481,#03481 #3481 3481 #0003481 03481,288 Daniel Webster Hwy,NH,3060
Home Depot,Manchester,3482,#03482 #3482 3482 #0003482 03482,129 March Avenue,NH,3103
Home Depot,Nashua,3484,#03484 #3484 3484 #0003484 03484,12 Coliseum Drive,NH,3063
Home Depot,Concord,3485,#03485 #3485 3485 #0003485 03485,42 D'Amante Drive,NH,3301
Home Depot,Merrimack,3486,#03486 #3486 3486 #0003486 03486,721 Milford Road,NH,3054
Home Depot,Plaistow,3487,#03487 #3487 3487 #0003487 03487,58 Plaistow Road,NH,3865
Home Depot,Keene,3488,#03488 #3488 3488 #0003488 03488,22 Ashbrook Road,NH,3431
Home Depot,Rochester,3489,#03489 #3489 3489 #0003489 03489,280 N Main Street,NH,3867
Home Depot,Albuquerque,3501,#03501 #3501 3501 #0003501 03501,200 Eubank Blvd SE,NM,87123
Home Depot,Albuquerque,3502,#03502 #3502 3502 #0003502 03502,1220 Renaissance Blvd NE,NM,87107
Home Depot,Santa Fe,3503,#03503 #3503 3503 #0003503 03503,952 Richards Ave,NM,87507
Home Depot,Albuquerque,3504,#03504 #3504 3504 #0003504 03504,10200 Coors Dr NW,NM,87114
Home Depot,Las Cruces,3505,#03505 #3505 3505 #0003505 03505,225 Telshor Blvd,NM,88011
Home Depot,Albuquerque,3507,#03507 #3507 3507 #0003507 03507,2820 Coors Blvd NW,NM,87120
Home Depot,Farmington,3508,#03508 #3508 3508 #0003508 03508,3560 E Main Street,NM,87402
Home Depot,Roswell,3510,#03510 #3510 3510 #0003510 03510,2350 N Main St,NM,88201
Home Depot,Los Lunas,3511,#03511 #3511 3511 #0003511 03511,1800 Main Street NW,NM,87031
Home Depot,Gallup,3514,#03514 #3514 3514 #0003514 03514,530 Kachina Street,NM,87301
Home Depot,Hobbs,3515,#03515 #3515 3515 #0003515 03515,900 W Joe Harvey Blvd,NM,88240
Home Depot,Alamogordo,3516,#03516 #3516 3516 #0003516 03516,3400 N White Sand Blvd,NM,88310
Home Depot,Rio Rancho,3517,#03517 #3517 3517 #0003517 03517,7700 US 550 NE,NM,87124
Home Depot,Pineville,3601,#03601 #3601 3601 #0003601 03601,10210 Centrum Pkwy,NC,28134
Home Depot,Matthews,3602,#03602 #3602 3602 #0003602 03602,1837 Matthews Twnsp Pkwy,NC,28105
Home Depot,Charlotte,3603,#03603 #3603 3603 #0003603 03603,8135 University Cty Blvd,NC,28213
Home Depot,Greensboro,3604,#03604 #3604 3604 #0003604 03604,4425 W Wendover Ave,NC,27407
Home Depot,Greensboro,3605,#03605 #3605 3605 #0003605 03605,3215 Brassfield Rd,NC,27410
Home Depot,Gastonia,3606,#03606 #3606 3606 #0003606 03606,2870 E Franklin Blvd,NC,28056
Home Depot,Kannapolis,3607,#03607 #3607 3607 #0003607 03607,3313 Cloverleaf Plaza,NC,28083
Home Depot,Charlotte,3608,#03608 #3608 3608 #0003608 03608,1220 N Wendover Rd,NC,28211
Home Depot,Wilmington,3609,#03609 #3609 3609 #0003609 03609,5511 Carolina Beach Road,NC,28412
Home Depot,Winston-Salem,3610,#03610 #3610 3610 #0003610 03610,1000 Hanes Mall Blvd,NC,27103
Home Depot,Cary,3615,#03615 #3615 3615 #0003615 03615,2031 Walnut Street,NC,27518
Home Depot,Raleigh,3616,#03616 #3616 3616 #0003616 03616,4901 Capital Blvd,NC,27616
Home Depot,Durham,3620,#03620 #3620 3620 #0003620 03620,3701 MT Moriah Road,NC,27707
Home Depot,Asheville,3625,#03625 #3625 3625 #0003625 03625,795 Fairview Road,NC,28803
Home Depot,Fayetteville,3626,#03626 #3626 3626 #0003626 03626,2060 Skibo,NC,28314
Home Depot,Burlington,3627,#03627 #3627 3627 #0003627 03627,2771-T Kirkwood Drive,NC,27216
Home Depot,Hickory,3628,#03628 #3628 3628 #0003628 03628,1530 8th Street Dr SE,NC,28602
Home Depot,Wilmington,3629,#03629 #3629 3629 #0003629 03629,210 Eastwood Rd,NC,28403
Home Depot,Garner,3631,#03631 #3631 3631 #0003631 03631,2540 Timber Dr,NC,27529
Home Depot,Durham,3632,#03632 #3632 3632 #0003632 03632,1700 N Pointe Dr,NC,27705
Home Depot,High Point,3633,#03633 #3633 3633 #0003633 03633,2300 N Main St,NC,27262
Home Depot,Raleigh,3634,#03634 #3634 3634 #0003634 03634,9517 Strickland Rd,NC,27615
Home Depot,Hendersonville,3637,#03637 #3637 3637 #0003637 03637,401 Linda Vista Dr,NC,28792
Home Depot,Cornelius,3638,#03638 #3638 3638 #0003638 03638,17111 Statesville Road,NC,28031
Home Depot,Charlotte,3639,#03639 #3639 3639 #0003639 03639,9501 Albemarle Rd,NC,28227
Home Depot,Charlotte,3640,#03640 #3640 3640 #0003640 03640,5415 Ballantyne Cmmns Pk,NC,28277
Home Depot,Winston Salem,3641,#03641 #3641 3641 #0003641 03641,5721 University Parkway,NC,27105
Home Depot,Statesville,3642,#03642 #3642 3642 #0003642 03642,240 Turnersburg Hwy,NC,28625
Home Depot,Apex,3644,#03644 #3644 3644 #0003644 03644,1000 Vision Dr,NC,27523
Home Depot,Asheville,3645,#03645 #3645 3645 #0003645 03645,127 Acton Cir,NC,28806
Home Depot,Charlotte,3646,#03646 #3646 3646 #0003646 03646,4750 South Boulevard,NC,28217
Home Depot,Wake Forest,3647,#03647 #3647 3647 #0003647 03647,11915 Retail Drive,NC,27587
Home Depot,Shallotte,3648,#03648 #3648 3648 #0003648 03648,150-1 Shallotte Crossing,NC,28470
Home Depot,Kitty Hawk,3650,#03650 #3650 3650 #0003650 03650,5300 N Croatan Hwy,NC,27949
Home Depot,Greensboro,3651,#03651 #3651 3651 #0003651 03651,2912 S Elm Eugene St,NC,27406
Home Depot,Fuquay Varina,3652,#03652 #3652 3652 #0003652 03652,901 E Broad Street,NC,27526
Home Depot,Jacksonville,3655,#03655 #3655 3655 #0003655 03655,479 Western Blvd Hwy 17,NC,28546
Home Depot,Hillsborough,3661,#03661 #3661 3661 #0003661 03661,625 Hampton Point Blvd,NC,27278
Home Depot,Charlotte,3662,#03662 #3662 3662 #0003662 03662,14310 Rivergate Pkwy,NC,28273
Home Depot,Knightdale,3663,#03663 #3663 3663 #0003663 03663,1020 Shoppes At Midwy Dr,NC,27545
Home Depot,Fargo,3701,#03701 #3701 3701 #0003701 03701,4700 17th Avenue SW,ND,58103
Home Depot,Minot,3703,#03703 #3703 3703 #0003703 03703,3425 S Broadway Suite A,ND,58701
Home Depot,Minot,3704,#03704 #3704 3704 #0003704 03704,3425 S Broadway Suite B,ND,58701
Home Depot,Toledo,3801,#03801 #3801 3801 #0003801 03801,5900 W Airport Hwy,OH,43615
Home Depot,North Olmsted,3803,#03803 #3803 3803 #0003803 03803,26241 Brookpark Road,OH,44070
Home Depot,Maple Heights,3804,#03804 #3804 3804 #0003804 03804,21000 Libby Rd,OH,44137
Home Depot,Boardman,3805,#03805 #3805 3805 #0003805 03805,7001 Southern Blvd,OH,44513
Home Depot,Cleveland,3806,#03806 #3806 3806 #0003806 03806,10800 Brookpark Rd,OH,44130
Home Depot,Toledo,3807,#03807 #3807 3807 #0003807 03807,3200 Secor Rd,OH,43606
Home Depot,Warren,3808,#03808 #3808 3808 #0003808 03808,1900 Niles Cortland,OH,44484
Home Depot,Cuyahoga Falls,3809,#03809 #3809 3809 #0003809 03809,325 Howe Ave,OH,44221
Home Depot,Canton,3810,#03810 #3810 3810 #0003810 03810,4873 Portage St,OH,44720
Home Depot,Columbus,3811,#03811 #3811 3811 #0003811 03811,6333 Cleveland Ave,OH,43229
Home Depot,Cincinnati,3812,#03812 #3812 3812 #0003812 03812,520 Ohio Pike,OH,45255
Home Depot,Mason,3813,#03813 #3813 3813 #0003813 03813,5203 Bardes Rd,OH,45040
Home Depot,Cincinnati,3814,#03814 #3814 3814 #0003814 03814,3461 Joseph Rd,OH,45251
Home Depot,Mentor,3815,#03815 #3815 3815 #0003815 03815,9615 Diamond Center Dr,OH,44060
Home Depot,Reynoldsburg,3816,#03816 #3816 3816 #0003816 03816,2480 Brice Road,OH,43068
Home Depot,Strongsville,3817,#03817 #3817 3817 #0003817 03817,8199 Pearl Rd,OH,44136
Home Depot,Cleveland Heights,3818,#03818 #3818 3818 #0003818 03818,3460 Mayfield Rd,OH,44118
Home Depot,Columbus,3819,#03819 #3819 3819 #0003819 03819,100 South Grener Rd,OH,43228
Home Depot,Cleveland,3820,#03820 #3820 3820 #0003820 03820,11901 Berea Rd,OH,44111
Home Depot,Cincinnati,3821,#03821 #3821 3821 #0003821 03821,1266 Omniplex Drive,OH,45240
Home Depot,Cincinnati,3822,#03822 #3822 3822 #0003822 03822,6300 Glenway Ave,OH,45211
Home Depot,West Chester,3823,#03823 #3823 3823 #0003823 03823,7749 Dudley Dr,OH,45069
Home Depot,Macedonia,3824,#03824 #3824 3824 #0003824 03824,8211 Macedonia Commons,OH,44056
Home Depot,Westerville,3825,#03825 #3825 3825 #0003825 03825,6017 Maxtown Road,OH,43081
Home Depot,Elyria,3827,#03827 #3827 3827 #0003827 03827,150 Market Drive,OH,44036
Home Depot,Columbus,3828,#03828 #3828 3828 #0003828 03828,5200 Hamilton Rd,OH,43230
Home Depot,Akron,3830,#03830 #3830 3830 #0003830 03830,2811 S Arlington Street,OH,44312
Home Depot,Dublin,3831,#03831 #3831 3831 #0003831 03831,5858 Sawmill Rd,OH,43017
Home Depot,Cincinnati,3832,#03832 #3832 3832 #0003832 03832,3400 Highland Ave,OH,45213
Home Depot,Medina,3833,#03833 #3833 3833 #0003833 03833,4914 Grande Blvd,OH,44256
Home Depot,Avon,3835,#03835 #3835 3835 #0003835 03835,35930 Detroit Rd,OH,44011
Home Depot,Powell,3836,#03836 #3836 3836 #0003836 03836,8704 Owenfield Drive,OH,43065
Home Depot,Ashtabula,3838,#03838 #3838 3838 #0003838 03838,3200 Market Place Dr,OH,44004
Home Depot,Fairlawn,3841,#03841 #3841 3841 #0003841 03841,4066 Medina Rd,OH,44333
Home Depot,Highland Heights,3842,#03842 #3842 3842 #0003842 03842,6199 Wilson Mills Rd,OH,44143
Home Depot,Wshngtn CT Hs,3843,#03843 #3843 3843 #0003843 03843,300 Depot Drive,OH,43160
Home Depot,Milford,3844,#03844 #3844 3844 #0003844 03844,1094 State Highway 28,OH,45150
Home Depot,Mansfield,3846,#03846 #3846 3846 #0003846 03846,2000 August Drive,OH,44906
Home Depot,Rocky River,3847,#03847 #3847 3847 #0003847 03847,21669 Center Ridge Rd,OH,44116
Home Depot,Toledo,3848,#03848 #3848 3848 #0003848 03848,1035 W Alexis Rd,OH,43612
Home Depot,Euclid,3852,#03852 #3852 3852 #0003852 03852,877 E 200th St,OH,44119
Home Depot,Centerville,3854,#03854 #3854 3854 #0003854 03854,5860 Wilmington Pike Rd,OH,45459
Home Depot,Fairborn,3855,#03855 #3855 3855 #0003855 03855,3775 Presidential Drive,OH,45324
Home Depot,Dayton,3856,#03856 #3856 3856 #0003856 03856,5200 Salem Avenue,OH,45426
Home Depot,Dayton,3857,#03857 #3857 3857 #0003857 03857,345 N Springboro Pike,OH,45449
Home Depot,Rossford,3858,#03858 #3858 3858 #0003858 03858,9570 US 20,OH,43460
Home Depot,Streetsboro,3859,#03859 #3859 3859 #0003859 03859,9585 State Route 14,OH,44241
Home Depot,Massillon,3860,#03860 #3860 3860 #0003860 03860,2406 Lincoln Way East,OH,44646
Home Depot,Hamilton,3861,#03861 #3861 3861 #0003861 03861,6562 Winford Ave,OH,45011
Home Depot,Piqua,3862,#03862 #3862 3862 #0003862 03862,1200 East Ash Street,OH,45356
Home Depot,Harrison,3863,#03863 #3863 3863 #0003863 03863,400 Comfort Drive,OH,45030
Home Depot,Bowling Green,3864,#03864 #3864 3864 #0003864 03864,1169 S Main Street,OH,43402
Home Depot,Sandusky,3866,#03866 #3866 3866 #0003866 03866,715 Crossings Road,OH,44870
Home Depot,Springfield,3867,#03867 #3867 3867 #0003867 03867,1880 Bechtle Ave,OH,45504
Home Depot,Lebanon,3868,#03868 #3868 3868 #0003868 03868,1889 Deerfield Rd,OH,45036
Home Depot,Hilliard,3872,#03872 #3872 3872 #0003872 03872,4101 Trueman Blvd,OH,43026
Home Depot,Brunswick,3875,#03875 #3875 3875 #0003875 03875,3330 Center Road,OH,44212
Home Depot,Salem,3877,#03877 #3877 3877 #0003877 03877,2900 E State Street,OH,44460
Home Depot,Wadsworth,3882,#03882 #3882 3882 #0003882 03882,1155 High Street,OH,44281
Home Depot,Zanesville,3883,#03883 #3883 3883 #0003883 03883,3787 Home Depot Drive,OH,43701
Home Depot,Canal Winchester,3885,#03885 #3885 3885 #0003885 03885,6035 Gender Road,OH,43110
Home Depot,Austintown,3886,#03886 #3886 3886 #0003886 03886,6100 Mahoning Ave,OH,44515
Home Depot,Newark,3887,#03887 #3887 3887 #0003887 03887,1330 N 21st Street,OH,43055
Home Depot,Ashland,3888,#03888 #3888 3888 #0003888 03888,1060 Sugarbush Drive,OH,44805
Home Depot,Marysville,3889,#03889 #3889 3889 #0003889 03889,880 Colemans Crossing,OH,43040
Home Depot,Oklahoma City,3901,#03901 #3901 3901 #0003901 03901,7400 S Shields Blvd,OK,73149
Home Depot,Oklahoma City,3902,#03902 #3902 3902 #0003902 03902,3040 NW 59th Street,OK,73112
Home Depot,Tulsa,3903,#03903 #3903 3903 #0003903 03903,9808 East 71st,OK,74133
Home Depot,Tulsa,3904,#03904 #3904 3904 #0003904 03904,901 S Elgin Avenue,OK,74120
Home Depot,Norman,3906,#03906 #3906 3906 #0003906 03906,850 Ed Noble Pkwy,OK,73072
Home Depot,Edmond,3907,#03907 #3907 3907 #0003907 03907,1901 S Broadway,OK,73013
Home Depot,Oklahoma City,3908,#03908 #3908 3908 #0003908 03908,6800 W Reno Avenue,OK,73127
Home Depot,Oklahoma City,3909,#03909 #3909 3909 #0003909 03909,7620 NW Expressway,OK,73132
Home Depot,Midwest City,3911,#03911 #3911 3911 #0003911 03911,1600 S Sooner Road,OK,73110
Home Depot,Tulsa,3913,#03913 #3913 3913 #0003913 03913,4041 S Sheridan,OK,74145
Home Depot,Lawton,3914,#03914 #3914 3914 #0003914 03914,4010 NW Oak Street,OK,73505
Home Depot,Tulsa,3915,#03915 #3915 3915 #0003915 03915,8880 S Delaware Avenue,OK,74137
Home Depot,Moore,3917,#03917 #3917 3917 #0003917 03917,650 SW 19th Street,OK,73160
Home Depot,Ada,3918,#03918 #3918 3918 #0003918 03918,515 J A Richardson Blvd,OK,74820
Home Depot,Oklahoma City,3919,#03919 #3919 3919 #0003919 03919,14201 N Pennsylvania Ave,OK,73134
Home Depot,Portland,4001,#04001 #4001 4001 #0004001 04001,13700 NW Science Pk Dr,OR,97229
Home Depot,Tigard,4002,#04002 #4002 4002 #0004002 04002,14800 SW Sequoia Parkway,OR,97224
Home Depot,Eugene,4003,#04003 #4003 4003 #0004003 04003,1045 Green Acres Rd,OR,97408
Home Depot,Portland,4004,#04004 #4004 4004 #0004004 04004,11633 NE Glen Widing Dr,OR,97220
Home Depot,Salem,4006,#04006 #4006 4006 #0004006 04006,3795 Hagers Grove Rd SE,OR,97317
Home Depot,Portland,4007,#04007 #4007 4007 #0004007 04007,1728 N Tomahawk Islnd Dr,OR,97217
Home Depot,Bend,4008,#04008 #4008 4008 #0004008 04008,63465 Highway 97,OR,97701
Home Depot,Albany,4009,#04009 #4009 4009 #0004009 04009,3500 Spicer Dr SE,OR,97322
Home Depot,Hillsboro,4010,#04010 #4010 4010 #0004010 04010,1950 SE Minter Bridge Rd,OR,97123
Home Depot,Portland,4013,#04013 #4013 4013 #0004013 04013,10120 SE Washington St,OR,97216
Home Depot,Troutdale,4014,#04014 #4014 4014 #0004014 04014,25101 SE Stark Street,OR,97060
Home Depot,Sherwood,4015,#04015 #4015 4015 #0004015 04015,20260 SW Pacific Hwy,OR,97140
Home Depot,Oregon City,4017,#04017 #4017 4017 #0004017 04017,2002 Washington Street,OR,97045
Home Depot,Beaverton,4018,#04018 #4018 4018 #0004018 04018,4401 Southwest 110th Ave,OR,97005
Home Depot,Klamath Falls,4019,#04019 #4019 4019 #0004019 04019,6451 S 6th Street,OR,97603
Home Depot,Roseburg,4020,#04020 #4020 4020 #0004020 04020,3000 Aviation Drive,OR,97470
Home Depot,Warrenton,4023,#04023 #4023 4023 #0004023 04023,1650 SE Ensign Lane,OR,97146
Home Depot,Ontario,4025,#04025 #4025 4025 #0004025 04025,311 E Lane N,OR,97914
Home Depot,The Dalles,4026,#04026 #4026 4026 #0004026 04026,3600 W 6th Street,OR,97058
Home Depot,Eugene,4028,#04028 #4028 4028 #0004028 04028,808 Seneca Rd,OR,97402
Home Depot,Corvallis,4029,#04029 #4029 4029 #0004029 04029,1780 NW Four Acre Place,OR,97330
Home Depot,Salem,4030,#04030 #4030 4030 #0004030 04030,3021 Cherry Ave NE,OR,97301
Home Depot,Hermiston,4031,#04031 #4031 4031 #0004031 04031,300 W Harper Road,OR,97838
Home Depot,Redmond,4032,#04032 #4032 4032 #0004032 04032,300 NW Quince Avenue,OR,97756
Home Depot,Grants Pass,4034,#04034 #4034 4034 #0004034 04034,111 NE Mill Street,OR,97526
Home Depot,Happy Valley,4040,#04040 #4040 4040 #0004040 04040,9300 SE 82nd Avenue,OR,97086
Home Depot,Philadelphia,4101,#04101 #4101 4101 #0004101 04101,1651 S Columbus Blvd,PA,19148
Home Depot,Fairless Hills,4102,#04102 #4102 4102 #0004102 04102,400 Commerce Blvd,PA,19030
Home Depot,Bensalem,4103,#04103 #4103 4103 #0004103 04103,1336 Bristol Pike,PA,19020
Home Depot,Lansdale,4104,#04104 #4104 4104 #0004104 04104,751 Horsham Rd - Unit D,PA,19446
Home Depot,Bethlehem,4105,#04105 #4105 4105 #0004105 04105,3926 Linden Street,PA,18020
Home Depot,Conshohocken,4106,#04106 #4106 4106 #0004106 04106,200 Alan Wood Road,PA,19428
Home Depot,Whitehall,4108,#04108 #4108 4108 #0004108 04108,1350 Macarthur Road,PA,18052
Home Depot,Philadelphia,4109,#04109 #4109 4109 #0004109 04109,2385 Cheltenham Ave,PA,19150
Home Depot,Wyomissing,4110,#04110 #4110 4110 #0004110 04110,1731 Crossing Dr,PA,19610
Home Depot,Philadelphia,4112,#04112 #4112 4112 #0004112 04112,4640 Roosevelt Blvd,PA,19124
Home Depot,Swatara,4113,#04113 #4113 4113 #0004113 04113,4200 Derry Street,PA,17111
Home Depot,Primos-Secane,4114,#04114 #4114 4114 #0004114 04114,5342 W Baltimore Pike,PA,19018
Home Depot,West Mifflin,4115,#04115 #4115 4115 #0004115 04115,9971 Mountain View Dr,PA,15122
Home Depot,Pittsburgh,4116,#04116 #4116 4116 #0004116 04116,3550 William Penn Hwy,PA,15235
Home Depot,Pittsburgh,4117,#04117 #4117 4117 #0004117 04117,440 Home Dr,PA,15275
Home Depot,Dickson City,4118,#04118 #4118 4118 #0004118 04118,800 Commerce Blvd,PA,18519
Home Depot,Frazer,4119,#04119 #4119 4119 #0004119 04119,690 Lancaster Pike,PA,19355
Home Depot,Mechanicsburg,4120,#04120 #4120 4120 #0004120 04120,6000 Carlisle Pike,PA,17050
Home Depot,Glen Mills,4121,#04121 #4121 4121 #0004121 04121,200 Hatton Drive,PA,19342
Home Depot,Wilkes-Barre,4122,#04122 #4122 4122 #0004122 04122,41 Spring St,PA,18702
Home Depot,Pittsburgh,4123,#04123 #4123 4123 #0004123 04123,112 Ben Avon Heights Rd,PA,15237
Home Depot,Erie,4124,#04124 #4124 4124 #0004124 04124,7451 Peach Street,PA,16509
Home Depot,York,4125,#04125 #4125 4125 #0004125 04125,2905 E Market Street,PA,17402
Home Depot,Greensburg,4126,#04126 #4126 4126 #0004126 04126,6291 U.s. 30,PA,15601
Home Depot,Stroudsburg,4127,#04127 #4127 4127 #0004127 04127,150 Pocono Commons,PA,18360
Home Depot,Johnstown,4128,#04128 #4128 4128 #0004128 04128,679 Galleria Drive Ext,PA,15904
Home Depot,Washington,4129,#04129 #4129 4129 #0004129 04129,255 Murtland Ave,PA,15301
Home Depot,Hermitage,4130,#04130 #4130 4130 #0004130 04130,3300 Shenango Valley Fwy,PA,16148
Home Depot,Lancaster,4131,#04131 #4131 4131 #0004131 04131,1700-D Fruitville Pike,PA,17601
Home Depot,Pottstown,4132,#04132 #4132 4132 #0004132 04132,295 Armand Hammer Blvd,PA,19464
Home Depot,Bensalem,4134,#04134 #4134 4134 #0004134 04134,900 Rock Hill Dr,PA,19020
Home Depot,Cranberry Township,4135,#04135 #4135 4135 #0004135 04135,25 Dutilh Rd,PA,16066
Home Depot,Pittsburgh,4136,#04136 #4136 4136 #0004136 04136,400 N Highland Ave,PA,15206
Home Depot,Downingtown,4137,#04137 #4137 4137 #0004137 04137,965 E Lancaster Ave,PA,19335
Home Depot,Harrisburg,4138,#04138 #4138 4138 #0004138 04138,5101 Jonestown Rd,PA,17112
Home Depot,Butler,4139,#04139 #4139 4139 #0004139 04139,400 Moraine Point Plaza,PA,16001
Home Depot,Allentown,4140,#04140 #4140 4140 #0004140 04140,1951 Glenwood St SW,PA,18103
Home Depot,Lebanon,4141,#04141 #4141 4141 #0004141 04141,801 E Walnut Street,PA,17042
Home Depot,Folsom,4142,#04142 #4142 4142 #0004142 04142,300 Macdade Blvd,PA,19033
Home Depot,Warrington,4143,#04143 #4143 4143 #0004143 04143,650 Easton Rd,PA,18976
Home Depot,Norristown,4145,#04145 #4145 4145 #0004145 04145,600 South Trooper Rd,PA,19403
Home Depot,Beaver Falls,4148,#04148 #4148 4148 #0004148 04148,2670 Constitution Blvd,PA,15010
Home Depot,Carlisle,4149,#04149 #4149 4149 #0004149 04149,1013 S Hanover Street,PA,17013
Home Depot,Philadelphia,4150,#04150 #4150 4150 #0004150 04150,2539 Castor Avenue,PA,19134
Home Depot,Allison Park,4152,#04152 #4152 4152 #0004152 04152,4960 William Flynn Hwy,PA,15101
Home Depot,North Versailles,4156,#04156 #4156 4156 #0004156 04156,102 Aldi Drive,PA,15137
Home Depot,Souderton,4158,#04158 #4158 4158 #0004158 04158,782 Route 113,PA,18964
Home Depot,Pittsburgh,4159,#04159 #4159 4159 #0004159 04159,999 Ross Park Mall Dr,PA,15237
Home Depot,Bridgeville,4160,#04160 #4160 4160 #0004160 04160,1025 Washington Pike,PA,15017
Home Depot,Matamoras,4162,#04162 #4162 4162 #0004162 04162,125 Reuben Bell Dr,PA,18336
Home Depot,Levittown,4163,#04163 #4163 4163 #0004163 04163,145 Levittown Pkwy,PA,19055
Home Depot,Reading,4164,#04164 #4164 4164 #0004164 04164,5410 Perkiomen Avenue,PA,19606
Home Depot,Philadelphia,4166,#04166 #4166 4166 #0004166 04166,2200 Oregon Avenue,PA,19145
Home Depot,Hanover,4168,#04168 #4168 4168 #0004168 04168,400 Eisenhower Drive,PA,17331
Home Depot,Meadville,4169,#04169 #4169 4169 #0004169 04169,18541 Smock Highway,PA,16335
Home Depot,Bloomsburg,4171,#04171 #4171 4171 #0004171 04171,9 Gus Avenue,PA,17815
Home Depot,Uniontown,4172,#04172 #4172 4172 #0004172 04172,115 Matthews Drive,PA,15401
Home Depot,Easton,4173,#04173 #4173 4173 #0004173 04173,721 S 25th Street,PA,18045
Home Depot,Bethel Park,4176,#04176 #4176 4176 #0004176 04176,4000 Oxford Drive,PA,15102
Home Depot,New Freedom,4177,#04177 #4177 4177 #0004177 04177,960 Far Hills,PA,17349
Home Depot,Franklin,4178,#04178 #4178 4178 #0004178 04178,6874 US 322,PA,16323
Home Depot,Altoona,4180,#04180 #4180 4180 #0004180 04180,1676 Osgood Drive,PA,16602
Home Depot,Broomall,4181,#04181 #4181 4181 #0004181 04181,700 Reed Road,PA,19008
Home Depot,Saint Clair,4185,#04185 #4185 4185 #0004185 04185,600 Terry Rich Blvd,PA,17970
Home Depot,Willow Grove,4187,#04187 #4187 4187 #0004187 04187,2250 Easton Road,PA,19090
Home Depot,King Of Prussia,4188,#04188 #4188 4188 #0004188 04188,181 S Gulph Road,PA,19406
Home Depot,Coventry,4279,#04279 #4279 4279 #0004279 04279,700 Centre Of N E Blvd,RI,2816
Home Depot,Warwick,4280,#04280 #4280 4280 #0004280 04280,80 Universal Blvd,RI,2886
Home Depot,Smithfield,4282,#04282 #4282 4282 #0004282 04282,371 Putnam Pike,RI,2917
Home Depot,North Kingstown,4283,#04283 #4283 4283 #0004283 04283,1255 Ten Rod Road,RI,2852
Home Depot,Westerly,4284,#04284 #4284 4284 #0004284 04284,120 Franklin St,RI,2891
Home Depot,Providence,4285,#04285 #4285 4285 #0004285 04285,387 Charles Street,RI,2908
Home Depot,Johnston,4286,#04286 #4286 4286 #0004286 04286,100 Stone Hill Road,RI,2919
Home Depot,Middletown,4287,#04287 #4287 4287 #0004287 04287,878 W Main Road,RI,2842
Home Depot,Sioux Falls,4301,#04301 #4301 4301 #0004301 04301,2523 S Louise Ave,SD,57106
Home Depot,Riverdale,4401,#04401 #4401 4401 #0004401 04401,999 W Riverdale Road,UT,84405
Home Depot,Salt Lake City,4402,#04402 #4402 4402 #0004402 04402,1310 E Park Centre Dr,UT,84121
Home Depot,Salt Lake City,4403,#04403 #4403 4403 #0004403 04403,328 West 2100 South St,UT,84115
Home Depot,West Valley City,4406,#04406 #4406 4406 #0004406 04406,4581 S 4000 W,UT,84120
Home Depot,Lindon,4407,#04407 #4407 4407 #0004407 04407,535 S Lindon Park Dr,UT,84042
Home Depot,Centerville,4408,#04408 #4408 4408 #0004408 04408,50 N Market Place Dr,UT,84014
Home Depot,Sandy,4409,#04409 #4409 4409 #0004409 04409,135 E 11400 South,UT,84070
Home Depot,West Jordan,4410,#04410 #4410 4410 #0004410 04410,1538 W 9000 South,UT,84088
Home Depot,Ogden,4411,#04411 #4411 4411 #0004411 04411,984 Wall Avenue,UT,84404
Home Depot,Washington,4412,#04412 #4412 4412 #0004412 04412,725 W Telegraph St,UT,84780
Home Depot,Salt Lake City,4413,#04413 #4413 4413 #0004413 04413,3398 S Highland Drive,UT,84106
Home Depot,Logan,4414,#04414 #4414 4414 #0004414 04414,130 Cache Valley Blvd,UT,84341
Home Depot,Park City,4415,#04415 #4415 4415 #0004415 04415,1595 East Frontage Rd,UT,84098
Home Depot,Provo,4416,#04416 #4416 4416 #0004416 04416,1550 S University Ave,UT,84601
Home Depot,American Fork,4417,#04417 #4417 4417 #0004417 04417,885 W Grassland Drive,UT,84003
Home Depot,Cedar City,4418,#04418 #4418 4418 #0004418 04418,1518 S Providence Ctr Dr,UT,84720
Home Depot,Tooele,4419,#04419 #4419 4419 #0004419 04419,222 E 2400 North,UT,84074
Home Depot,Saint George,4420,#04420 #4420 4420 #0004420 04420,937 N Westridge Drive,UT,84770
Home Depot,Sandy,4421,#04421 #4421 4421 #0004421 04421,9570 S Highland Dr,UT,84092
Home Depot,Richfield,4422,#04422 #4422 4422 #0004422 04422,1440 S Technology Drive,UT,84701
Home Depot,Williston,4501,#04501 #4501 4501 #0004501 04501,759 Harvest Lane,VT,5495
Home Depot,Rutland,4502,#04502 #4502 4502 #0004502 04502,299 US Rt 4 East,VT,5701
Home Depot,Bennington,4551,#04551 #4551 4551 #0004551 04551,121 N Bennington Rd,VT,5201
Home Depot,Fairfax,4601,#04601 #4601 4601 #0004601 04601,12275 Price Club Plaza,VA,22030
Home Depot,Sterling,4602,#04602 #4602 4602 #0004602 04602,46261 Cranston Way,VA,20165
Home Depot,Alexandria,4603,#04603 #4603 4603 #0004603 04603,400 S Pickett St,VA,22304
Home Depot,Woodbridge,4604,#04604 #4604 4604 #0004604 04604,14025 Foulger Square,VA,22192
Home Depot,Fairfax,4605,#04605 #4605 4605 #0004605 04605,2815 Merrilee Drive,VA,22031
Home Depot,Manassas,4607,#04607 #4607 4607 #0004607 04607,7486 Stream Walk Ln,VA,20109
Home Depot,Falls Church,4608,#04608 #4608 4608 #0004608 04608,6210 Seven Corners Ctr,VA,22044
Home Depot,Roanoke,4609,#04609 #4609 4609 #0004609 04609,3217 Hershberger Rd NW,VA,24017
Home Depot,Glen Allen,4611,#04611 #4611 4611 #0004611 04611,11260 W Broad St,VA,23060
Home Depot,Hampton,4612,#04612 #4612 4612 #0004612 04612,1413 N Armistead Ave,VA,23666
Home Depot,Newport News,4613,#04613 #4613 4613 #0004613 04613,325 Chatham Road,VA,23602
Home Depot,Virginia Beach,4614,#04614 #4614 4614 #0004614 04614,3352 Virginia Bch Blvd,VA,23452
Home Depot,Norfolk,4615,#04615 #4615 4615 #0004615 04615,1261 N Military Hwy,VA,23502
Home Depot,Chester,4616,#04616 #4616 4616 #0004616 04616,12300 Jefferson Davis Hw,VA,23831
Home Depot,Springfield,4617,#04617 #4617 4617 #0004617 04617,6691 Frontier Road,VA,22150
Home Depot,Winchester,4618,#04618 #4618 4618 #0004618 04618,2350 Legge Blvd,VA,22601
Home Depot,Chesapeake,4619,#04619 #4619 4619 #0004619 04619,1400 Tintern Lane,VA,23320
Home Depot,Fredericksburg,4620,#04620 #4620 4620 #0004620 04620,1201 Gateway Blvd,VA,22401
Home Depot,Leesburg,4621,#04621 #4621 4621 #0004621 04621,280 Fort Evans Rd,VA,20176
Home Depot,Chesapeake,4622,#04622 #4622 4622 #0004622 04622,2421 Old Taylor Rd,VA,23321
Home Depot,Mechanicsville,4624,#04624 #4624 4624 #0004624 04624,7251 Bell Creek Rd,VA,23111
Home Depot,Virginia Beach,4626,#04626 #4626 4626 #0004626 04626,2020 Lynnhaven Pkwy,VA,23456
Home Depot,Midlothian,4627,#04627 #4627 4627 #0004627 04627,12300 Chattanooga Plaza,VA,23112
Home Depot,Roanoke,4628,#04628 #4628 4628 #0004628 04628,4176 Franklin Road,VA,24014
Home Depot,Richmond,4631,#04631 #4631 4631 #0004631 04631,1386 Car Mia Way,VA,23236
Home Depot,Richmond,4632,#04632 #4632 4632 #0004632 04632,6501 W Broad St,VA,23230
Home Depot,Colonial Heights,4633,#04633 #4633 4633 #0004633 04633,2600 Conduit Rd,VA,23834
Home Depot,Christiansburg,4634,#04634 #4634 4634 #0004634 04634,200 Conston Ave,VA,24073
Home Depot,Williamsburg,4635,#04635 #4635 4635 #0004635 04635,6700 Mooretown Road,VA,23188
Home Depot,Stafford,4637,#04637 #4637 4637 #0004637 04637,305 Worth Road,VA,22556
Home Depot,Alexandria,4638,#04638 #4638 4638 #0004638 04638,7710 Richmond Hwy,VA,22306
Home Depot,Fairfax,4639,#04639 #4639 4639 #0004639 04639,3201 Old Lee Highway,VA,22030
Home Depot,Alexandria,4640,#04640 #4640 4640 #0004640 04640,6555 Little River Trnpke,VA,22312
Home Depot,Reston,4641,#04641 #4641 4641 #0004641 04641,1651 Reston Parkway,VA,20194
Home Depot,Virginia Beach,4643,#04643 #4643 4643 #0004643 04643,2324 Elson Green Avenue,VA,23462
Home Depot,Harrisonburg,4645,#04645 #4645 4645 #0004645 04645,121 Burgess Road,VA,22801
Home Depot,Ashburn,4647,#04647 #4647 4647 #0004647 04647,21421 Shellhorn Road,VA,20147
Home Depot,Manassas,4648,#04648 #4648 4648 #0004648 04648,8805 Liberia Avenue,VA,20110
Home Depot,Gloucester,4650,#04650 #4650 4650 #0004650 04650,6921 Walton Lane,VA,23061
Home Depot,Ashland,4653,#04653 #4653 4653 #0004653 04653,10233 Lakeridge Parkway,VA,23005
Home Depot,Waynesboro,4654,#04654 #4654 4654 #0004654 04654,31 Windigrove Road,VA,22980
Home Depot,Lynchburg,4655,#04655 #4655 4655 #0004655 04655,7902 Graves Mill Road,VA,24504
Home Depot,Chesapeake,4656,#04656 #4656 4656 #0004656 04656,157 Hillcrest Pkwy,VA,23322
Home Depot,Bristol,4658,#04658 #4658 4658 #0004658 04658,3481 Lee Hwy,VA,24202
Home Depot,South Hill,4659,#04659 #4659 4659 #0004659 04659,250 Franklin D Harris Dr,VA,23970
Home Depot,Fredericksburg,4660,#04660 #4660 4660 #0004660 04660,5771 Plank Road,VA,22407
Home Depot,Tacoma,4701,#04701 #4701 4701 #0004701 04701,7050 Tacoma Mall Blvd,WA,98409
Home Depot,Seattle,4702,#04702 #4702 4702 #0004702 04702,2701 Utah Ave South,WA,98134
Home Depot,Federal Way,4703,#04703 #4703 4703 #0004703 04703,1715 S 352nd St,WA,98003
Home Depot,Issaquah,4704,#04704 #4704 4704 #0004704 04704,6200 E Lke Samammish Pky,WA,98029
Home Depot,Tukwila,4705,#04705 #4705 4705 #0004705 04705,6810 S 180th St,WA,98188
Home Depot,Seattle,4706,#04706 #4706 4706 #0004706 04706,11616 Aurora Ave N,WA,98133
Home Depot,Seattle,4707,#04707 #4707 4707 #0004707 04707,1335 N 205th St,WA,98133
Home Depot,Olympia,4708,#04708 #4708 4708 #0004708 04708,1325 Fones Rd SE,WA,98501
Home Depot,Puyallup,4709,#04709 #4709 4709 #0004709 04709,303 35th Ave SE,WA,98374
Home Depot,Bellevue,4711,#04711 #4711 4711 #0004711 04711,325 120th Ave NE,WA,98005
Home Depot,Bothell,4712,#04712 #4712 4712 #0004712 04712,18333 120th Ave NE,WA,98011
Home Depot,Everett,4713,#04713 #4713 4713 #0004713 04713,11915 Highway 99,WA,98204
Home Depot,Spokane Valley,4714,#04714 #4714 4714 #0004714 04714,5617 E Sprague Ave,WA,99212
Home Depot,Bellingham,4715,#04715 #4715 4715 #0004715 04715,420 Telegraph Rd,WA,98226
Home Depot,Silverdale,4716,#04716 #4716 4716 #0004716 04716,10991 Silverdale Way NW,WA,98383
Home Depot,Vancouver,4718,#04718 #4718 4718 #0004718 04718,8601 NE Andresen Rd,WA,98665
Home Depot,Spokane,4719,#04719 #4719 4719 #0004719 04719,9116 N Newport Hwy,WA,99218
Home Depot,Tacoma,4720,#04720 #4720 4720 #0004720 04720,4602 Center Street,WA,98409
Home Depot,Kent,4722,#04722 #4722 4722 #0004722 04722,26120 104th Avenue SE,WA,98031
Home Depot,Redmond,4723,#04723 #4723 4723 #0004723 04723,17777 NE 76th Street,WA,98052
Home Depot,Tumwater,4724,#04724 #4724 4724 #0004724 04724,1101 Kingswood Drive SW,WA,98512
Home Depot,Longview,4725,#04725 #4725 4725 #0004725 04725,580 Seventh Avenue,WA,98632
Home Depot,Marysville,4726,#04726 #4726 4726 #0004726 04726,9310 Quil Ceda Blvd,WA,98271
Home Depot,Yakima,4727,#04727 #4727 4727 #0004727 04727,2115 S First Street,WA,98903
Home Depot,Gig Harbor,4728,#04728 #4728 4728 #0004728 04728,5120 Borgen Blvd,WA,98332
Home Depot,Wenatchee,4732,#04732 #4732 4732 #0004732 04732,1405 Maiden Lane,WA,98801
Home Depot,College Place,4735,#04735 #4735 4735 #0004735 04735,1100 NE C Street,WA,99324
Home Depot,Covington,4737,#04737 #4737 4737 #0004737 04737,27027 185th Ave SE,WA,98042
Home Depot,Vancouver,4738,#04738 #4738 4738 #0004738 04738,330 SE 192nd Ave,WA,98683
Home Depot,Kennewick,4739,#04739 #4739 4739 #0004739 04739,3910 W 27th Avenue,WA,99337
Home Depot,Chehalis,4740,#04740 #4740 4740 #0004740 04740,1701 NW Louisiana Ave,WA,98532
Home Depot,Poulsbo,4741,#04741 #4741 4741 #0004741 04741,21750 Market Place NW,WA,98370
Home Depot,Lacey,4742,#04742 #4742 4742 #0004742 04742,1450 Marvin Road NE,WA,98516
Home Depot,Liberty Lake,4743,#04743 #4743 4743 #0004743 04743,21701 E Country Vista Dr,WA,99019
Home Depot,Snohomish,4745,#04745 #4745 4745 #0004745 04745,2601 Bickford Avenue,WA,98290
Home Depot,Richland,4746,#04746 #4746 4746 #0004746 04746,2855 Duportail Street,WA,99352
Home Depot,Tacoma,4747,#04747 #4747 4747 #0004747 04747,121 Military Rd East,WA,98445
Home Depot,Omak,4748,#04748 #4748 4748 #0004748 04748,920 Engh Road,WA,98841
Home Depot,Barboursville,4801,#04801 #4801 4801 #0004801 04801,1050 Thundering Herd Dr,WV,25504
Home Depot,Charleston,4802,#04802 #4802 4802 #0004802 04802,100 Cross Terrace Blvd,WV,25309
Home Depot,Vienna,4803,#04803 #4803 4803 #0004803 04803,200 Grand Central Ave,WV,26105
Home Depot,Ranson,4805,#04805 #4805 4805 #0004805 04805,230 Oak Lee Drive,WV,25438
Home Depot,New Milford,4878,#04878 #4878 4878 #0004878 04878,104 Danbury Road,CT,6776
Home Depot,West Allis,4902,#04902 #4902 4902 #0004902 04902,11071 W National,WI,53227
Home Depot,Grand Chute,4903,#04903 #4903 4903 #0004903 04903,653 N Westhill Blvd,WI,54914
Home Depot,Onalaska,4905,#04905 #4905 4905 #0004905 04905,2927 Market Place,WI,54650
Home Depot,Madison,4906,#04906 #4906 4906 #0004906 04906,2425 E Springs Dr,WI,53704
Home Depot,Franklin,4907,#04907 #4907 4907 #0004907 04907,6489 S 27th Street,WI,53132
Home Depot,Madison,4909,#04909 #4909 4909 #0004909 04909,4550 Verona Rd,WI,53711
Home Depot,Delafield,4910,#04910 #4910 4910 #0004910 04910,3400 Hillside Dr,WI,53018
Home Depot,Janesville,4911,#04911 #4911 4911 #0004911 04911,3200 Deerfield Drive,WI,53546
Home Depot,Milwaukee,4912,#04912 #4912 4912 #0004912 04912,4155 N Port Washington,WI,53212
Home Depot,Green Bay,4915,#04915 #4915 4915 #0004915 04915,2595 Eaton Rd,WI,54311
Home Depot,Lake Geneva,4916,#04916 #4916 4916 #0004916 04916,550 N Edwards Blvd,WI,53147
Home Depot,Waukesha,4918,#04918 #4918 4918 #0004918 04918,2320 W Bluemound Rd,WI,53186
Home Depot,Grafton,4919,#04919 #4919 4919 #0004919 04919,1350 Port Washington Rd,WI,53024
Home Depot,Green Bay,4920,#04920 #4920 4920 #0004920 04920,810 S Taylor St,WI,54303
Home Depot,Mukwonago,4921,#04921 #4921 4921 #0004921 04921,232 E Wolf Run,WI,53149
Home Depot,Wauwatosa,4923,#04923 #4923 4923 #0004923 04923,4100 North 124th St,WI,53222
Home Depot,Kohler,4924,#04924 #4924 4924 #0004924 04924,4025 Highway 28,WI,53044
Home Depot,West Bend,4925,#04925 #4925 4925 #0004925 04925,700 W Paradise Dr,WI,53090
Home Depot,Racine,4926,#04926 #4926 4926 #0004926 04926,2429 S Green Bay Road,WI,53406
Home Depot,Appleton,4928,#04928 #4928 4928 #0004928 04928,2201 S Kensington Ave,WI,54915
Home Depot,Lake Delton,4929,#04929 #4929 4929 #0004929 04929,136 Commerce Street,WI,53940
Home Depot,Rhinelander,4930,#04930 #4930 4930 #0004930 04930,1400 E Lincoln Street,WI,54501
Home Depot,Wausau,4931,#04931 #4931 4931 #0004931 04931,2705 Sherman Street,WI,54401
Home Depot,Hudson,4935,#04935 #4935 4935 #0004935 04935,2330 Crest View Drive,WI,54016
Home Depot,Menomonee Falls,4940,#04940 #4940 4940 #0004940 04940,N94 W 18375 Thunder Rdg,WI,53051
Home Depot,Milwaukee,4941,#04941 #4941 4941 #0004941 04941,150 West Holt Avenue,WI,53207
Home Depot,Wisconsin Rapids,4942,#04942 #4942 4942 #0004942 04942,1500 24th Street South,WI,54494
Home Depot,Casper,6001,#06001 #6001 6001 #0006001 06001,4900 East 2nd Street,WY,82609
Home Depot,Cheyenne,6002,#06002 #6002 6002 #0006002 06002,1740 Fleischli Pkwy,WY,82001
Home Depot,Rock Springs,6003,#06003 #6003 6003 #0006003 06003,1925 Foothill Blvd,WY,82901
Home Depot,Sheridan,6004,#06004 #6004 6004 #0006004 06004,2050 Coffeen Avenue,WY,82801
Home Depot,Gillette,6005,#06005 #6005 6005 #0006005 06005,1105 E Boxelder Road,WY,82718
Home Depot,Staten Island,6150,#06150 #6150 6150 #0006150 06150,545 Targee Street,NY,10304
Home Depot,Brooklyn,6152,#06152 #6152 6152 #0006152 06152,579 Gateway Drive,NY,11239
Home Depot,Liverpool,6153,#06153 #6153 6153 #0006153 06153,3861 State Route 31,NY,13090
Home Depot,Jamestown,6154,#06154 #6154 6154 #0006154 06154,935 Fairmount Avenue,NY,14701
Home Depot,Ithaca,6155,#06155 #6155 6155 #0006155 06155,410 Elmira Road Bldg 1,NY,14850
Home Depot,Brooklyn,6158,#06158 #6158 6158 #0006158 06158,5700 Avenue U,NY,11234
Home Depot,Painted Post,6159,#06159 #6159 6159 #0006159 06159,3160 Silverback Lane,NY,14870
Home Depot,Queensbury,6160,#06160 #6160 6160 #0006160 06160,820 Route 9,NY,12804
Home Depot,Olean,6161,#06161 #6161 6161 #0006161 06161,1900 Dan Eaton Drive,NY,14760
Home Depot,Commack,6167,#06167 #6167 6167 #0006167 06167,65 Crooked Hill Road,NY,11725
Home Depot,Batavia,6168,#06168 #6168 6168 #0006168 06168,4181 Veterans Memorial D,NY,14020
Home Depot,Dunkirk,6169,#06169 #6169 6169 #0006169 06169,3901 Vineyard Drive,NY,14048
Home Depot,Monticello,6172,#06172 #6172 6172 #0006172 06172,68 Thompson Square,NY,12701
Home Depot,Oneonta,6173,#06173 #6173 6173 #0006173 06173,659 State Hwy 28,NY,13820
Home Depot,Watertown,6174,#06174 #6174 6174 #0006174 06174,391 College Heights,NY,13601
Home Depot,New York,6175,#06175 #6175 6175 #0006175 06175,40 West 23rd Street,NY,10010
Home Depot,Leeds,6176,#06176 #6176 6176 #0006176 06176,695 Rt 23b,NY,12451
Home Depot,New York,6177,#06177 #6177 6177 #0006177 06177,980 3rd Ave,NY,10022
Home Depot,Fishkill,6178,#06178 #6178 6178 #0006178 06178,450 State Route 9,NY,12524
Home Depot,North Haven,6201,#06201 #6201 6201 #0006201 06201,111 Universal Drive N,CT,6473
Home Depot,Orange,6202,#06202 #6202 6202 #0006202 06202,440 Boston Post Rd,CT,6477
Home Depot,Berlin,6203,#06203 #6203 6203 #0006203 06203,225 Berlin Turnpike,CT,6037
Home Depot,Norwalk,6204,#06204 #6204 6204 #0006204 06204,600 Connecticut Ave,CT,6854
Home Depot,Fairfield,6206,#06206 #6206 6206 #0006206 06206,541 Kings Hwy Cut-Off,CT,6824
Home Depot,Manchester,6207,#06207 #6207 6207 #0006207 06207,80 Buckland Hills Dr,CT,6040
Home Depot,Southington,6208,#06208 #6208 6208 #0006208 06208,89 Interstate Park Drive,CT,6489
Home Depot,Danbury,6209,#06209 #6209 6209 #0006209 06209,114 Federal Road,CT,6810
Home Depot,West Hartford,6210,#06210 #6210 6210 #0006210 06210,503 New Park Ave,CT,6110
Home Depot,Waterbury,6212,#06212 #6212 6212 #0006212 06212,575 Bank St,CT,6708
Home Depot,Bridgeport,6213,#06213 #6213 6213 #0006213 06213,656 Reservoir Avenue,CT,6606
Home Depot,Enfield,6214,#06214 #6214 6214 #0006214 06214,136 Elm Street,CT,6082
Home Depot,Waterford,6215,#06215 #6215 6215 #0006215 06215,816 Hartford Turnpike,CT,6385
Home Depot,Wallingford,6217,#06217 #6217 6217 #0006217 06217,1055 N Colony Rd,CT,6492
Home Depot,New Hartford,6218,#06218 #6218 6218 #0006218 06218,1580 Litchfield Tpke,CT,6057
Home Depot,Glastonbury,6220,#06220 #6220 6220 #0006220 06220,115 Putnam Blvd,CT,6033
Home Depot,Lisbon,6221,#06221 #6221 6221 #0006221 06221,142 River Road,CT,6351
Home Depot,East Haven,6223,#06223 #6223 6223 #0006223 06223,75 Frontage Rd N,CT,6512
Home Depot,Stratford,6225,#06225 #6225 6225 #0006225 06225,350 Barnum Ave Cutoff,CT,6614
Home Depot,Derby,6226,#06226 #6226 6226 #0006226 06226,117 Main Street,CT,6418
Home Depot,Bloomfield,6228,#06228 #6228 6228 #0006228 06228,55 Granby Street,CT,6002
Home Depot,Bristol,6229,#06229 #6229 6229 #0006229 06229,1149 Farmington Ave,CT,6010
Home Depot,North Windham,6230,#06230 #6230 6230 #0006230 06230,418 Boston Post Road,CT,6256
Home Depot,Middletown,6233,#06233 #6233 6233 #0006233 06233,909 Washington Street,CT,6457
Home Depot,Uncasville,6234,#06234 #6234 6234 #0006234 06234,1932 Norwich-New London,CT,6382
Home Depot,Southington,6235,#06235 #6235 6235 #0006235 06235,1816 Meriden Wtrby Tpke,CT,6489
Home Depot,Trumbull,6236,#06236 #6236 6236 #0006236 06236,90 Monroe Turnpike,CT,6611
Home Depot,Fort Walton Beach,6301,#06301 #6301 6301 #0006301 06301,414b Mary Esther Blvd NW,FL,32548
Home Depot,Marathon,6302,#06302 #6302 6302 #0006302 06302,4555 Overseas Hwy,FL,33050
Home Depot,Panama City,6303,#06303 #6303 6303 #0006303 06303,409 23rd St East,FL,32405
Home Depot,Seminole,6304,#06304 #6304 6304 #0006304 06304,10550 Park Blvd,FL,33772
Home Depot,Brandon,6305,#06305 #6305 6305 #0006305 06305,1524 E Brandon Blvd,FL,33511
Home Depot,Pinecrest,6306,#06306 #6306 6306 #0006306 06306,13501 South Dixie Hwy,FL,33156
Home Depot,Hollywood,6310,#06310 #6310 6310 #0006310 06310,3401 Oakwood Blvd,FL,33020
Home Depot,Tampa,6311,#06311 #6311 6311 #0006311 06311,17601 Bruce B Downs Blvd,FL,33647
Home Depot,North Lauderdale,6312,#06312 #6312 6312 #0006312 06312,1195 S State Road 7,FL,33068
Home Depot,Key West,6313,#06313 #6313 6313 #0006313 06313,2811 N Roosevelt Blvd,FL,33040
Home Depot,Stuart,6314,#06314 #6314 6314 #0006314 06314,3030 SE Federal Hwy,FL,34994
Home Depot,Delray Beach,6315,#06315 #6315 6315 #0006315 06315,1400 Waterford Place,FL,33444
Home Depot,Lake Worth,6316,#06316 #6316 6316 #0006316 06316,5750 Jog Rd,FL,33463
Home Depot,University Park,6319,#06319 #6319 6319 #0006319 06319,5475 University Parkway,FL,34201
Home Depot,West Palm Beach,6320,#06320 #6320 6320 #0006320 06320,1550 Palm Bch Lakes Blvd,FL,33401
Home Depot,Largo,6321,#06321 #6321 6321 #0006321 06321,10689 Ulmerton Road,FL,33771
Home Depot,Miami,6322,#06322 #6322 6322 #0006322 06322,12055 Biscayne Blvd,FL,33181
Home Depot,Orange City,6323,#06323 #6323 6323 #0006323 06323,2300 Veterans Memorial,FL,32763
Home Depot,Lakeland,6324,#06324 #6324 6324 #0006324 06324,6335 S Florida Ave,FL,33813
Home Depot,Delray Beach,6325,#06325 #6325 6325 #0006325 06325,15050 Jog Rd,FL,33446
Home Depot,Davie,6326,#06326 #6326 6326 #0006326 06326,15885 Rick Case Honda WY,FL,33331
Home Depot,Tampa,6327,#06327 #6327 6327 #0006327 06327,5125 S Dale Mabry Hwy,FL,33611
Home Depot,Orlando,6328,#06328 #6328 6328 #0006328 06328,13121 S Orange Blossom,FL,32837
Home Depot,Sunrise,6329,#06329 #6329 6329 #0006329 06329,12525 W Sunrise Blvd,FL,33323
Home Depot,West Palm Beach,6330,#06330 #6330 6330 #0006330 06330,6800 Okeechobee Blvd,FL,33411
Home Depot,Orlando,6331,#06331 #6331 6331 #0006331 06331,350 N Alafaya Trail,FL,32828
Home Depot,Crystal River,6332,#06332 #6332 6332 #0006332 06332,70 North Suncoast Blvd,FL,34429
Home Depot,Saint Augustine,6334,#06334 #6334 6334 #0006334 06334,1750 US Hwy 1 South,FL,32084
Home Depot,Port Orange,6335,#06335 #6335 6335 #0006335 06335,1551 Dunlawton Blvd,FL,32127
Home Depot,Palm Bay,6336,#06336 #6336 6336 #0006336 06336,1140 Malabar Road SE,FL,32907
Home Depot,Miami,6339,#06339 #6339 6339 #0006339 06339,15750 SW 88th Street,FL,33196
Home Depot,Sebring,6340,#06340 #6340 6340 #0006340 06340,2303 US Hwy 27 N,FL,33870
Home Depot,Davie,6341,#06341 #6341 6341 #0006341 06341,5801 University Drive,FL,33328
Home Depot,Miami,6343,#06343 #6343 6343 #0006343 06343,7899 W Flagler St,FL,33144
Home Depot,Jacksonville,6346,#06346 #6346 6346 #0006346 06346,855 Lane Ave South,FL,32205
Home Depot,Naples,6348,#06348 #6348 6348 #0006348 06348,1651 S Airport Pulling,FL,34112
Home Depot,Orlando,6349,#06349 #6349 6349 #0006349 06349,5351 Diplomat Circle,FL,32810
Home Depot,Saint Cloud,6350,#06350 #6350 6350 #0006350 06350,4560 13th Street,FL,34769
Home Depot,Jacksonville,6351,#06351 #6351 6351 #0006351 06351,12111 Lem Turner Rd,FL,32218
Home Depot,Miramar,6353,#06353 #6353 6353 #0006353 06353,3183 SW 160th Avenue,FL,33027
Home Depot,Florida City,6355,#06355 #6355 6355 #0006355 06355,33001 South Dixie Hwy,FL,33034
Home Depot,Coconut Creek,6356,#06356 #6356 6356 #0006356 06356,4450 N State Rd 7,FL,33073
Home Depot,Clearwater,6357,#06357 #6357 6357 #0006357 06357,2495 Gulf To Bay Blvd,FL,33765
Home Depot,Tampa,6361,#06361 #6361 6361 #0006361 06361,6730 Memorial Hwy,FL,33615
Home Depot,Palm Coast,6363,#06363 #6363 6363 #0006363 06363,10 Garden Street North,FL,32137
Home Depot,Saint Petersburg,6364,#06364 #6364 6364 #0006364 06364,2070 Tyrone Blvd N,FL,33710
Home Depot,Jacksonville,6365,#06365 #6365 6365 #0006365 06365,12721 Atlantic Blvd,FL,32225
Home Depot,Orlando,6367,#06367 #6367 6367 #0006367 06367,4403 Millenia Plaza Way,FL,32839
Home Depot,Pace,6368,#06368 #6368 6368 #0006368 06368,4829 Highway 90,FL,32571
Home Depot,Orange Park,6369,#06369 #6369 6369 #0006369 06369,1575 County Road 220,FL,32003
Home Depot,Winter Haven,6371,#06371 #6371 6371 #0006371 06371,2000 8th Street NW,FL,33881
Home Depot,Fort Lauderdale,6372,#06372 #6372 6372 #0006372 06372,1000 Northeast 4th Ave,FL,33304
Home Depot,Bonita Springs,6373,#06373 #6373 6373 #0006373 06373,11941 Bonita Bch Rd SE,FL,34135
Home Depot,Tallahassee,6374,#06374 #6374 6374 #0006374 06374,1490 Capital Circle NW,FL,32303
Home Depot,Clermont,6375,#06375 #6375 6375 #0006375 06375,1530 E Hwy 50,FL,34711
Home Depot,Port Saint Lucie,6376,#06376 #6376 6376 #0006376 06376,700 SW St Lucie W Blvd,FL,34986
Home Depot,Destin,6377,#06377 #6377 6377 #0006377 06377,4385 Commons Drive West,FL,32541
Home Depot,Hialeah,6378,#06378 #6378 6378 #0006378 06378,950 SE 12th Street,FL,33010
Home Depot,West Palm Beach,6379,#06379 #6379 6379 #0006379 06379,220 S State Road 7,FL,33414
Home Depot,Riverview,6380,#06380 #6380 6380 #0006380 06380,10151 Bloomingdale Ave,FL,33569
Home Depot,Melbourne,6381,#06381 #6381 6381 #0006381 06381,5100 N Wickham Road,FL,32940
Home Depot,Bayamon,6401,#06401 #6401 6401 #0006401 06401,"725 W Main Ave,Ste 860",PR,961
Home Depot,Carolina,6402,#06402 #6402 6402 #0006402 06402,65th Infantry Ave Bo,PR,987
Home Depot,Caguas,6403,#06403 #6403 6403 #0006403 06403,Las Catalinas Mall,PR,726
Home Depot,Bayamon,6405,#06405 #6405 6405 #0006405 06405,Rexville Town Ctr State,PR,960
Home Depot,Mayaguez,6407,#06407 #6407 6407 #0006407 06407,"State Hwy #2, K.m. 149.5",PR,682
Home Depot,San Juan,6408,#06408 #6408 6408 #0006408 06408,State Hwy 52 And Sr 842,PR,928
Home Depot,Carolina,6409,#06409 #6409 6409 #0006409 06409,65th Infantry Ave Km11.7,PR,979
Home Depot,Ponce,6411,#06411 #6411 6411 #0006411 06411,Reyna Del Sur Shopping,PR,728
Home Depot,Hatillo,6412,#06412 #6412 6412 #0006412 06412,Km 84.3 - Rd. PR 2,PR,659
Home Depot,Houston,6501,#06501 #6501 6501 #0006501 06501,11820 Dickinson Rd,TX,77089
Home Depot,Allen,6502,#06502 #6502 6502 #0006502 06502,909 W McDermott Dr,TX,75013
Home Depot,Dallas,6503,#06503 #6503 6503 #0006503 06503,11682 Forest Central Dr,TX,75243
Home Depot,Richardson,6504,#06504 #6504 6504 #0006504 06504,2220 N Coit Rd,TX,75080
Home Depot,Waxahachie,6505,#06505 #6505 6505 #0006505 06505,1315 Hwy 77 North,TX,75165
Home Depot,Houston,6506,#06506 #6506 6506 #0006506 06506,6800 Highway 6 North,TX,77084
Home Depot,Baytown,6507,#06507 #6507 6507 #0006507 06507,4915 Garth Road,TX,77521
Home Depot,Houston,6509,#06509 #6509 6509 #0006509 06509,6810 Gulf Freeway,TX,77087
Home Depot,Houston,6510,#06510 #6510 6510 #0006510 06510,10707 North Freeway,TX,77037
Home Depot,Houston,6512,#06512 #6512 6512 #0006512 06512,21530 Sh 249,TX,77070
Home Depot,Frisco,6513,#06513 #6513 6513 #0006513 06513,5995 El Dorado Pkwy,TX,75034
Home Depot,Tyler,6514,#06514 #6514 6514 #0006514 06514,3901 Old Jacksonville Hw,TX,75701
Home Depot,Weatherford,6515,#06515 #6515 6515 #0006515 06515,220 I-20 West,TX,76086
Home Depot,Conroe,6516,#06516 #6516 6516 #0006516 06516,19103 I-45,TX,77385
Home Depot,Lake Jackson,6517,#06517 #6517 6517 #0006517 06517,100 Abner Jackson Pkwy,TX,77566
Home Depot,Cleburne,6520,#06520 #6520 6520 #0006520 06520,212 W Katherine P Raines,TX,76033
Home Depot,Brownsville,6521,#06521 #6521 6521 #0006521 06521,4551 Padre Island Hwy,TX,78521
Home Depot,Porter,6523,#06523 #6523 6523 #0006523 06523,23575 US Highway 59,TX,77365
Home Depot,Houston,6525,#06525 #6525 6525 #0006525 06525,14085 Northwest Fwy,TX,77040
Home Depot,Killeen,6526,#06526 #6526 6526 #0006526 06526,3201 E Central Texas Exp,TX,76543
Home Depot,Harlingen,6528,#06528 #6528 6528 #0006528 06528,4710 S Expressway 83,TX,78552
Home Depot,San Antonio,6529,#06529 #6529 6529 #0006529 06529,2658 SW Military Drive,TX,78224
Home Depot,Rosenberg,6530,#06530 #6530 6530 #0006530 06530,24400 Commercial Drive,TX,77471
Home Depot,Bee Cave,6531,#06531 #6531 6531 #0006531 06531,3600 Ranch Road 620 S,TX,78738
Home Depot,Waco,6532,#06532 #6532 6532 #0006532 06532,5605 W Waco Dr,TX,76710
Home Depot,N Richland Hills,6533,#06533 #6533 6533 #0006533 06533,6411 Precinct Line Rd,TX,76182
Home Depot,Fort Worth,6534,#06534 #6534 6534 #0006534 06534,1151 Bridgewood Dr,TX,76112
Home Depot,Mesquite,6537,#06537 #6537 6537 #0006537 06537,18855 I-635,TX,75150
Home Depot,Georgetown,6538,#06538 #6538 6538 #0006538 06538,1303 Rivery Blvd,TX,78626
Home Depot,Alvin,6539,#06539 #6539 6539 #0006539 06539,140 N Bypass 35,TX,77511
Home Depot,Laredo,6540,#06540 #6540 6540 #0006540 06540,5710 San Bernardo Ave,TX,78041
Home Depot,Austin,6542,#06542 #6542 6542 #0006542 06542,3600 Interstate Hwy 35 S,TX,78704
Home Depot,Pearland,6543,#06543 #6543 6543 #0006543 06543,1514 Broadway St,TX,77581
Home Depot,San Antonio,6544,#06544 #6544 6544 #0006544 06544,435 Sunset Rd West,TX,78209
Home Depot,Longview,6545,#06545 #6545 6545 #0006545 06545,411 E Loop 281,TX,75605
Home Depot,Missouri City,6546,#06546 #6546 6546 #0006546 06546,5900 Hwy 6 South,TX,77459
Home Depot,San Antonio,6547,#06547 #6547 6547 #0006547 06547,9115 N Loop 1604 W,TX,78249
Home Depot,Keller,6548,#06548 #6548 6548 #0006548 06548,2013 Hwy 377,TX,76248
Home Depot,Lake Worth,6549,#06549 #6549 6549 #0006549 06549,3950 Jim Wright Frwy,TX,76135
Home Depot,San Antonio,6550,#06550 #6550 6550 #0006550 06550,20740 US Hwy 281 North,TX,78258
Home Depot,Selma,6551,#06551 #6551 6551 #0006551 06551,8138 Agora Pkwy,TX,78154
Home Depot,Amarillo,6552,#06552 #6552 6552 #0006552 06552,2500 Soncy Rd,TX,79124
Home Depot,Austin,6553,#06553 #6553 6553 #0006553 06553,13309 I-35 North,TX,78753
Home Depot,Greenville,6554,#06554 #6554 6554 #0006554 06554,7101 Center Point Lane,TX,75402
Home Depot,Carrollton,6555,#06555 #6555 6555 #0006555 06555,2011 Keller Springs Rd,TX,75006
Home Depot,Boerne,6556,#06556 #6556 6556 #0006556 06556,633 West Bandera Rd,TX,78006
Home Depot,Irving,6557,#06557 #6557 6557 #0006557 06557,8555 Home Depot Drive,TX,75063
Home Depot,Houston,6558,#06558 #6558 6558 #0006558 06558,8400 Westheimer Road,TX,77063
Home Depot,College Station,6559,#06559 #6559 6559 #0006559 06559,1615 University Dr East,TX,77840
Home Depot,Clear Lake Shores,6560,#06560 #6560 6560 #0006560 06560,507 Fm 2094,TX,77565
Home Depot,Katy,6561,#06561 #6561 6561 #0006561 06561,6850 S Fry Road,TX,77494
Home Depot,The Colony,6562,#06562 #6562 6562 #0006562 06562,5321 Highway 121,TX,75056
Home Depot,Austin,6563,#06563 #6563 6563 #0006563 06563,8801 S I-35,TX,78744
Home Depot,Corpus Christi,6564,#06564 #6564 6564 #0006564 06564,13202 Leopard Street,TX,78410
Home Depot,Paris,6566,#06566 #6566 6566 #0006566 06566,3120 NE Loop 286,TX,75460
Home Depot,Pearland,6567,#06567 #6567 6567 #0006567 06567,10111 Broadway,TX,77584
Home Depot,Mansfield,6568,#06568 #6568 6568 #0006568 06568,1725 N US Hwy 287,TX,76063
Home Depot,Sunset Valley,6570,#06570 #6570 6570 #0006570 06570,1200 Home Depot Blvd,TX,78745
Home Depot,Granbury,6571,#06571 #6571 6571 #0006571 06571,415 E Highway 377,TX,76048
Home Depot,Flower Mound,6572,#06572 #6572 6572 #0006572 06572,852 International Pkwy,TX,75028
Home Depot,Galveston,6574,#06574 #6574 6574 #0006574 06574,702 65th Street,TX,77551
Home Depot,Bastrop,6575,#06575 #6575 6575 #0006575 06575,525 Hwy 71 W,TX,78602
Home Depot,Kerrville,6576,#06576 #6576 6576 #0006576 06576,1789 Sidney Baker,TX,78028
Home Depot,Weslaco,6577,#06577 #6577 6577 #0006577 06577,1500 W Expressway 83,TX,78596
Home Depot,Huntsville,6578,#06578 #6578 6578 #0006578 06578,215 Interstate 45 North,TX,77320
Home Depot,Terrell,6579,#06579 #6579 6579 #0006579 06579,151 Windsor Ave,TX,75160
Home Depot,Texarkana,6580,#06580 #6580 6580 #0006580 06580,4110 Saint Michael Dr,TX,75503
Home Depot,Roanoke,6581,#06581 #6581 6581 #0006581 06581,125 E State Hwy 114,TX,76262
Home Depot,Abilene,6583,#06583 #6583 6583 #0006583 06583,4590 SW Drive,TX,79606
Home Depot,Corpus Christi,6584,#06584 #6584 6584 #0006584 06584,4038 South Port Avenue,TX,78415
Home Depot,Cedar Park,6585,#06585 #6585 6585 #0006585 06585,2700 Whitestone Blvd,TX,78613
Home Depot,Cypress,6586,#06586 #6586 6586 #0006586 06586,17928 Spring Cypress Rd,TX,77429
Home Depot,Victoria,6587,#06587 #6587 6587 #0006587 06587,6708 NE Zac Lentz Pkwy,TX,77904
Home Depot,Wichita Falls,6588,#06588 #6588 6588 #0006588 06588,3705 Kell Blvd,TX,76308
Home Depot,Wylie,6589,#06589 #6589 6589 #0006589 06589,951 Westgate Way,TX,75098
Home Depot,Modesto,6601,#06601 #6601 6601 #0006601 06601,1617 N Carpenter Rd,CA,95351
Home Depot,East Palo Alto,6603,#06603 #6603 6603 #0006603 06603,1781 E Bayshore Rd,CA,94303
Home Depot,San Ramon,6604,#06604 #6604 6604 #0006604 06604,2750 Crow Canyon Rd,CA,94583
Home Depot,Chico,6609,#06609 #6609 6609 #0006609 06609,2580 Notre Dame Blvd,CA,95928
Home Depot,Alhambra,6610,#06610 #6610 6610 #0006610 06610,500 S Marengo Avenue,CA,91803
Home Depot,Los Angeles,6611,#06611 #6611 6611 #0006611 06611,12975 W Jefferson Blvd,CA,90066
Home Depot,Escondido,6612,#06612 #6612 6612 #0006612 06612,1550 W Valley Parkway,CA,92029
Home Depot,North Hollywood,6613,#06613 #6613 6613 #0006613 06613,11600 Sherman Way,CA,91605
Home Depot,Lakewood,6614,#06614 #6614 6614 #0006614 06614,5000 Hardwick Street,CA,90712
Home Depot,Visalia,6615,#06615 #6615 6615 #0006615 06615,3500 S Demaree St,CA,93277
Home Depot,Hollywood,6616,#06616 #6616 6616 #0006616 06616,5600 Sunset Blvd,CA,90028
Home Depot,Glendora,6617,#06617 #6617 6617 #0006617 06617,1305 S Lone Hill Avenue,CA,91740
Home Depot,Merced,6618,#06618 #6618 6618 #0006618 06618,1735 Hwy 140,CA,95341
Home Depot,Riverside,6619,#06619 #6619 6619 #0006619 06619,3323 Madison St,CA,92504
Home Depot,Sacramento,6620,#06620 #6620 6620 #0006620 06620,8000 Folsom Blvd,CA,95826
Home Depot,San Jose,6621,#06621 #6621 6621 #0006621 06621,635 W Capitol Expressway,CA,95136
Home Depot,Goleta,6623,#06623 #6623 6623 #0006623 06623,6975 Marketplace Dr,CA,93117
Home Depot,Downey,6627,#06627 #6627 6627 #0006627 06627,7121 Firestone Blvd,CA,90241
Home Depot,Laguna Hills,6628,#06628 #6628 6628 #0006628 06628,24332 El Toro Rd,CA,92653
Home Depot,Monrovia,6629,#06629 #6629 6629 #0006629 06629,1625 S Mountain Ave,CA,91016
Home Depot,La Quinta,6630,#06630 #6630 6630 #0006630 06630,79900 Highway 111,CA,92253
Home Depot,Woodland Hills,6632,#06632 #6632 6632 #0006632 06632,6345 Variel Ave,CA,91367
Home Depot,San Diego,6634,#06634 #6634 6634 #0006634 06634,5920 Fairmount Ave,CA,92120
Home Depot,San Jose,6635,#06635 #6635 6635 #0006635 06635,975 DE Anza Blvd,CA,95129
Home Depot,Fremont,6636,#06636 #6636 6636 #0006636 06636,43900 Ice House Ter,CA,94538
Home Depot,Hemet,6637,#06637 #6637 6637 #0006637 06637,3400 W Florida Ave,CA,92545
Home Depot,Santa Maria,6638,#06638 #6638 6638 #0006638 06638,2120 S Bradley Rd,CA,93454
Home Depot,Garden Grove,6639,#06639 #6639 6639 #0006639 06639,10801 Garden Grove Blvd,CA,92843
Home Depot,Simi Valley,6640,#06640 #6640 6640 #0006640 06640,575 Cochran St,CA,93065
Home Depot,Anaheim,6643,#06643 #6643 6643 #0006643 06643,1095 N Pullman Street,CA,92807
Home Depot,Panorama City,6644,#06644 #6644 6644 #0006644 06644,7870 E Van Nuys Blvd,CA,91402
Home Depot,Pomona,6645,#06645 #6645 6645 #0006645 06645,2707 S Towne Ave,CA,91766
Home Depot,Huntington Beach,6646,#06646 #6646 6646 #0006646 06646,7100 Warner Ave,CA,92647
Home Depot,Anaheim,6647,#06647 #6647 6647 #0006647 06647,800 N Brookhurst St,CA,92801
Home Depot,Sacramento,6649,#06649 #6649 6649 #0006649 06649,3611 Truxel Rd,CA,95833
Home Depot,Cypress,6650,#06650 #6650 6650 #0006650 06650,5800 Lincoln Ave,CA,90630
Home Depot,Lancaster,6651,#06651 #6651 6651 #0006651 06651,44226 20th St West,CA,93534
Home Depot,Napa,6652,#06652 #6652 6652 #0006652 06652,225 Soscol Ave,CA,94559
Home Depot,Burbank,6654,#06654 #6654 6654 #0006654 06654,1200 Flower Street,CA,91502
Home Depot,Colma,6655,#06655 #6655 6655 #0006655 06655,91 Colma Blvd,CA,94014
Home Depot,San Marcos,6656,#06656 #6656 6656 #0006656 06656,550 San Marcos Blvd,CA,92069
Home Depot,La Habra,6657,#06657 #6657 6657 #0006657 06657,600 S Harbor Blvd,CA,90631
Home Depot,Lodi,6660,#06660 #6660 6660 #0006660 06660,2960 Reynolds Ranch Pkwy,CA,95240
Home Depot,Van Nuys,6661,#06661 #6661 6661 #0006661 06661,16800 Roscoe Blvd,CA,91406
Home Depot,Thousand Oaks,6662,#06662 #6662 6662 #0006662 06662,2745 Teller Rd,CA,91320
Home Depot,Baldwin Park,6663,#06663 #6663 6663 #0006663 06663,3200 Puente Avenue,CA,91706
Home Depot,Costa Mesa,6664,#06664 #6664 6664 #0006664 06664,2300 S Harbor Blvd,CA,92626
Home Depot,Corona,6665,#06665 #6665 6665 #0006665 06665,1355 E Ontario Ave,CA,92881
Home Depot,Windsor,6667,#06667 #6667 6667 #0006667 06667,6280 Hembree Lane,CA,95492
Home Depot,Lake Forest,6668,#06668 #6668 6668 #0006668 06668,20021 Lake Forest Dr,CA,92630
Home Depot,Sacramento,6669,#06669 #6669 6669 #0006669 06669,5859 Antelope Rd,CA,95842
Home Depot,Carson,6670,#06670 #6670 6670 #0006670 06670,110 E Sepulveda Blvd,CA,90745
Home Depot,San Jose,6672,#06672 #6672 6672 #0006672 06672,2855 Story Road,CA,95127
Home Depot,El Monte,6673,#06673 #6673 6673 #0006673 06673,9700 Lower Azusa Road,CA,91731
Home Depot,Elk Grove,6674,#06674 #6674 6674 #0006674 06674,9150 W Stockton Blvd,CA,95758
Home Depot,Folsom,6675,#06675 #6675 6675 #0006675 06675,2675 E Bidwell St,CA,95630
Home Depot,Gilroy,6677,#06677 #6677 6677 #0006677 06677,8850 San Ysidro Ave,CA,95020
Home Depot,Livermore,6678,#06678 #6678 6678 #0006678 06678,2500 Las Positas Rd,CA,94551
Home Depot,San Diego,6679,#06679 #6679 6679 #0006679 06679,10604 Westview Parkway,CA,92126
Home Depot,Santa Ana,6680,#06680 #6680 6680 #0006680 06680,1750 E Edinger Ave,CA,92705
Home Depot,Lompoc,6681,#06681 #6681 6681 #0006681 06681,1701 East Ocean Avenue,CA,93436
Home Depot,Redding,6682,#06682 #6682 6682 #0006682 06682,1200 Churn Creek Rd,CA,96003
Home Depot,Rialto,6683,#06683 #6683 6683 #0006683 06683,1451 W Foothill Blvd,CA,92376
Home Depot,Whittier,6684,#06684 #6684 6684 #0006684 06684,12322 Washington Blvd,CA,90606
Home Depot,Bakersfield,6687,#06687 #6687 6687 #0006687 06687,4700 Gosford Road,CA,93313
Home Depot,Roseville,6688,#06688 #6688 6688 #0006688 06688,10001 Fairway Drive,CA,95678
Home Depot,Los Angeles,6689,#06689 #6689 6689 #0006689 06689,2055 N Figueroa St,CA,90065
Home Depot,Elk Grove Village,6701,#06701 #6701 6701 #0006701 06701,600 Meacham Road,IL,60007
Home Depot,Dallas,6804,#06804 #6804 6804 #0006804 06804,6000 Skillman,TX,75231
Home Depot,Houston,6806,#06806 #6806 6806 #0006806 06806,10600 Eastex Freeway,TX,77093
Home Depot,San Angelo,6807,#06807 #6807 6807 #0006807 06807,4363 Houston Harte Exwy,TX,76901
Home Depot,Pflugerville,6808,#06808 #6808 6808 #0006808 06808,1517 Town Center Dr,TX,78660
Home Depot,McKinney,6809,#06809 #6809 6809 #0006809 06809,252 N Custer Road,TX,75071
Home Depot,Fort Worth,6814,#06814 #6814 6814 #0006814 06814,7100 North Freeway,TX,76137
Home Depot,Dallas,6816,#06816 #6816 6816 #0006816 06816,2610 Fort Worth Avenue,TX,75211
Home Depot,Corsicana,6817,#06817 #6817 6817 #0006817 06817,2290 S I-45,TX,75109
Home Depot,San Antonio,6818,#06818 #6818 6818 #0006818 06818,5638 W Loop 1604 North,TX,78251
Home Depot,Magnolia,6819,#06819 #6819 6819 #0006819 06819,6119 Fm 1488,TX,77354
Home Depot,Brownwood,6820,#06820 #6820 6820 #0006820 06820,100 Market Place Blvd,TX,76801
Home Depot,Allen Park,6821,#06821 #6821 6821 #0006821 06821,3163 Fairlane Drive,MI,48101
Home Depot,Alsip,6822,#06822 #6822 6822 #0006822 06822,12000 S Cicero Ave,IL,60803
Home Depot,Lubbock,6827,#06827 #6827 6827 #0006827 06827,2615 50th Street,TX,79413
Home Depot,Houston,6828,#06828 #6828 6828 #0006828 06828,4159 Fm 1960 West,TX,77068
Home Depot,Waco,6830,#06830 #6830 6830 #0006830 06830,1803 North I-35,TX,76705
Home Depot,Amarillo,6831,#06831 #6831 6831 #0006831 06831,2410 S Georgia Street,TX,79109
Home Depot,Del Rio,6832,#06832 #6832 6832 #0006832 06832,2454 Veterans Blvd,TX,78840
Home Depot,Plano,6833,#06833 #6833 6833 #0006833 06833,1801 Parker Road,TX,75023
Home Depot,Apple Valley,6834,#06834 #6834 6834 #0006834 06834,12218 Apple Valley Rd,CA,92308
Home Depot,Tehachapi,6835,#06835 #6835 6835 #0006835 06835,507 North Mill Street,CA,93561
Home Depot,Houston,6838,#06838 #6838 6838 #0006838 06838,12727 Fm 1960 West,TX,77065
Home Depot,Austin,6839,#06839 #6839 6839 #0006839 06839,10515 N MO Pac Expy,TX,78759
Home Depot,Denton,6840,#06840 #6840 6840 #0006840 06840,1900 Brinker Road,TX,76205
Home Depot,State College,6841,#06841 #6841 6841 #0006841 06841,2615 Greentech Drive,PA,16803
Home Depot,Middletown,6843,#06843 #6843 6843 #0006843 06843,350 Auto Park Drive,DE,19709
Home Depot,East Elmhurst,6844,#06844 #6844 6844 #0006844 06844,73-01 25th Avenue,NY,11369
Home Depot,Jersey City,6845,#06845 #6845 6845 #0006845 06845,180 Twelfth Street,NJ,7310
Home Depot,Auburn,6846,#06846 #6846 6846 #0006846 06846,1634 Clark Street Road,NY,13021
Home Depot,Lovejoy,6848,#06848 #6848 6848 #0006848 06848,11075 Tara Boulevard,GA,30250
Home Depot,Kissimmee,6851,#06851 #6851 6851 #0006851 06851,1651 Poinciana Blvd,FL,34758
Home Depot,Pembroke Pines,6852,#06852 #6852 6852 #0006852 06852,11001 Pines Blvd,FL,33026
Home Depot,Pensacola,6853,#06853 #6853 6853 #0006853 06853,5309 N Davis Hwy,FL,32503
Home Depot,Inglewood,6855,#06855 #6855 6855 #0006855 06855,8801 S La Cienega Blvd,CA,90301
Home Depot,Miami,6856,#06856 #6856 6856 #0006856 06856,2999 SW 32nd Avenue,FL,33133
Home Depot,Cleveland,6857,#06857 #6857 6857 #0006857 06857,3355 Steelyard Drive,OH,44109
Home Depot,Houston,6859,#06859 #6859 6859 #0006859 06859,14440 Hillcroft Street,TX,77085
Home Depot,Sugar Land,6860,#06860 #6860 6860 #0006860 06860,10419 Highway 6 South,TX,77498
Home Depot,Villa Rica,6861,#06861 #6861 6861 #0006861 06861,210 Cooley Way,GA,30180
Home Depot,Mesa,6862,#06862 #6862 6862 #0006862 06862,853 N Dobson Road,AZ,85201
Home Depot,Temple,6863,#06863 #6863 6863 #0006863 06863,3550 S General Bruce Dr,TX,76504
Home Depot,Lake City,6864,#06864 #6864 6864 #0006864 06864,215 SW Home Depot Drive,FL,32055
Home Depot,New Port Richey,6865,#06865 #6865 6865 #0006865 06865,8445 Little Road,FL,34654
Home Depot,Philadelphia,6866,#06866 #6866 6866 #0006866 06866,11725 Bustleton Ave,PA,19116
Home Depot,Orlando,6869,#06869 #6869 6869 #0006869 06869,7007 Narcoossee Road,FL,32822
Home Depot,Titusville,6871,#06871 #6871 6871 #0006871 06871,3373 Ronald McNair Way,FL,32780
Home Depot,Hialeah Gardens,6872,#06872 #6872 6872 #0006872 06872,13895 W Okeechobee Rd,FL,33018
Home Depot,Homestead,6873,#06873 #6873 6873 #0006873 06873,13895 SW 288th St.,FL,33033
Home Depot,Indio,6874,#06874 #6874 6874 #0006874 06874,42100 Jackson Street,CA,92203
Home Depot,Perris,6875,#06875 #6875 6875 #0006875 06875,3150 Case Road Bldg P,CA,92570
Home Depot,Chino,6876,#06876 #6876 6876 #0006876 06876,14549 Ramona Ave,CA,91710
Home Depot,Bronx,6877,#06877 #6877 6877 #0006877 06877,2560 Bruckner Blvd,NY,10465
Home Depot,Okeechobee,6878,#06878 #6878 6878 #0006878 06878,2700 Hwy 441 South,FL,34974
Home Depot,Palmdale,6883,#06883 #6883 6883 #0006883 06883,38215 47th St East,CA,93552
Home Depot,Ontario,6884,#06884 #6884 6884 #0006884 06884,2980 S Euclid Avenue,CA,91762
Home Depot,Yorkville,6887,#06887 #6887 6887 #0006887 06887,735 Edward Lane,IL,60560
Home Depot,Toccoa,6888,#06888 #6888 6888 #0006888 06888,302 Memorial Drive,GA,30577
Home Depot,Alexander City,6889,#06889 #6889 6889 #0006889 06889,1460 Hwy 280,AL,35010
Home Depot,Jacksonville,6890,#06890 #6890 6890 #0006890 06890,9751 Crosshill Blvd,FL,32222
Home Depot,Bronx,6891,#06891 #6891 6891 #0006891 06891,600 Exterior Street,NY,10451
Home Depot,Austin,6892,#06892 #6892 6892 #0006892 06892,1200 Barbara Jordan Blvd,TX,78723
Home Depot,Fullerton,6893,#06893 #6893 6893 #0006893 06893,625 South Placentia Ave,CA,92831
Home Depot,Garwood,6903,#06903 #6903 6903 #0006903 06903,200 South Ave,NJ,7027
Home Depot,Elizabeth,6905,#06905 #6905 6905 #0006905 06905,977 W Grand Street,NJ,7202
Home Depot,Morganville,6911,#06911 #6911 6911 #0006911 06911,170 Union Hill Road,NJ,7751
Home Depot,Monmouth Junction,6917,#06917 #6917 6917 #0006917 06917,4095 US Hwy 1,NJ,8852
Home Depot,Easley,6918,#06918 #6918 6918 #0006918 06918,6607 Calhoun Memorial Hw,SC,29640
Home Depot,Frankfort,6919,#06919 #6919 6919 #0006919 06919,20101 Lagrange Road,IL,60423
Home Depot,Alton,6920,#06920 #6920 6920 #0006920 06920,1710 Homer Adams Pkwy,IL,62002
Home Depot,Yulee,6921,#06921 #6921 6921 #0006921 06921,463785 State Road 200,FL,32097
Home Depot,South Elgin,6923,#06923 #6923 6923 #0006923 06923,440 Randall Road,IL,60177
Home Depot,Shorewood,6925,#06925 #6925 6925 #0006925 06925,621 Brook Forest Ave,IL,60431
Home Depot,Jamaica,6928,#06928 #6928 6928 #0006928 06928,92-30 168th Street,NY,11433
Home Depot,Lorain,6930,#06930 #6930 6930 #0006930 06930,4330 Leavitt Road,OH,44053
Home Depot,Aurora,6931,#06931 #6931 6931 #0006931 06931,18800 N Market Pl Drive,OH,44202
Home Depot,Pensacola,6932,#06932 #6932 6932 #0006932 06932,4525 Mobile Highway,FL,32506
Home Depot,Port Saint Lucie,6934,#06934 #6934 6934 #0006934 06934,2200 SW Gatlin Boulevard,FL,34953
Home Depot,Middleburg,6935,#06935 #6935 6935 #0006935 06935,1575 Branan Field Road,FL,32068
Home Depot,New Smyrna Beach,6936,#06936 #6936 6936 #0006936 06936,2359 State Road 44,FL,32168
Home Depot,Powder Springs,6940,#06940 #6940 6940 #0006940 06940,1062 Richard D Sailors,GA,30127
Home Depot,Lithia Springs,6941,#06941 #6941 6941 #0006941 06941,1000 Thornton Road,GA,30122
Home Depot,Cedartown,6942,#06942 #6942 6942 #0006942 06942,1500 Rome Highway,GA,30125
Home Depot,Canton,6943,#06943 #6943 6943 #0006943 06943,4520 Holly Springs Pkwy,GA,30115
Home Depot,Randallstown,6945,#06945 #6945 6945 #0006945 06945,8729 Liberty Road,MD,21133
Home Depot,Tulare,6946,#06946 #6946 6946 #0006946 06946,1600 E Prosperity Ave,CA,93274
Home Depot,Modesto,6947,#06947 #6947 6947 #0006947 06947,1415 E Hatch Road,CA,95351
Home Depot,Phoenix,6948,#06948 #6948 6948 #0006948 06948,35050 N North Valley Pky,AZ,85086
Home Depot,Punta Gorda,6950,#06950 #6950 6950 #0006950 06950,3941 Tamiami Trail #1111,FL,33950
Home Depot,Ruskin,6951,#06951 #6951 6951 #0006951 06951,3730 Sun City Ctr Blvd,FL,33573
Home Depot,Stanton,6952,#06952 #6952 6952 #0006952 06952,12131 Beach Blvd,CA,90680
Home Depot,Grove City,6954,#06954 #6954 6954 #0006954 06954,1680 Stringtown Road,OH,43123
Home Depot,Central Islip,6955,#06955 #6955 6955 #0006955 06955,301 South Research Place,NY,11722
Home Depot,Honesdale,6956,#06956 #6956 6956 #0006956 06956,721 Old Willow Ave,PA,18431
Home Depot,Brooklyn,6957,#06957 #6957 6957 #0006957 06957,585 Dekalb Ave,NY,11205
Home Depot,Bainbridge,6959,#06959 #6959 6959 #0006959 06959,1414 Tallahassee Hwy,GA,39819
Home Depot,Fontana,6960,#06960 #6960 6960 #0006960 06960,16005 Sierra Lakes Pkwy,CA,92336
Home Depot,Collinsville,6961,#06961 #6961 6961 #0006961 06961,1049 Collinsville Xngs,IL,62234
Home Depot,Huntington Beach,6963,#06963 #6963 6963 #0006963 06963,19101 Magnolia Street,CA,92646
Home Depot,Newark,6964,#06964 #6964 6964 #0006964 06964,5401 Thornton Ave,CA,94560
Home Depot,Orange,6965,#06965 #6965 6965 #0006965 06965,1855 N Tustin Ave,CA,92865
Home Depot,Sacramento,6966,#06966 #6966 6966 #0006966 06966,2000 Howe Ave,CA,95825
Home Depot,Seaside,6967,#06967 #6967 6967 #0006967 06967,1590 Canyon Del Rey Blvd,CA,93955
Home Depot,Soquel,6968,#06968 #6968 6968 #0006968 06968,2600 41st Avenue,CA,95073
Home Depot,Yucca Valley,6971,#06971 #6971 6971 #0006971 06971,58705 29 Palms Hwy,CA,92284
Home Depot,Barstow,6972,#06972 #6972 6972 #0006972 06972,1100 L Avenue,CA,92311
Home Depot,Jacksonville Beach,6974,#06974 #6974 6974 #0006974 06974,3790 Third Street South,FL,32250
Home Depot,Cape Coral,6975,#06975 #6975 6975 #0006975 06975,2508 Skyline Blvd,FL,33914
Home Depot,Miami,6976,#06976 #6976 6976 #0006976 06976,11905 SW 152nd Street,FL,33186
Home Depot,Ellenwood,6977,#06977 #6977 6977 #0006977 06977,65 Fairview Road,GA,30294
Home Depot,Suwanee,6978,#06978 #6978 6978 #0006978 06978,2635 Peachtree Pkwy,GA,30024
Home Depot,Winder,6979,#06979 #6979 6979 #0006979 06979,649 Carl Bethlehem Rd,GA,30680
Home Depot,Dahlonega,6980,#06980 #6980 6980 #0006980 06980,140 Maxwell Lane,GA,30533
Home Depot,Mundelein,6981,#06981 #6981 6981 #0006981 06981,3200 West Route 60,IL,60060
Home Depot,Brownsville,6984,#06984 #6984 6984 #0006984 06984,605 W Morrison Rd,TX,78520
Home Depot,Spring Valley,6985,#06985 #6985 6985 #0006985 06985,8400 Katy Freeway,TX,77024
Home Depot,Atlanta,6986,#06986 #6986 6986 #0006986 06986,2525 Piedmont Road NE,GA,30324
Home Depot,Normal,6987,#06987 #6987 6987 #0006987 06987,795 Veterans Parkway,IL,61761
Home Depot,San Antonio,6988,#06988 #6988 6988 #0006988 06988,3111 SE Military,TX,78223
Home Depot,Bulverde,6989,#06989 #6989 6989 #0006989 06989,128 Bulverde Crossing,TX,78163
Home Depot,Scarborough,7001,#07001 #7001 7001 #0007001 07001,428 Ellesmere Road,ON,M1R 4E6
Home Depot,Woodbridge,7002,#07002 #7002 7002 #0007002 07002,140 Northview Blvd,ON,L4L 8T2
Home Depot,Oakville,7003,#07003 #7003 7003 #0007003 07003,2555 Bristol Circle,ON,L6H 5W9
Home Depot,Markham,7004,#07004 #7004 7004 #0007004 07004,3155 Highway #7,ON,L3R 0J6
Home Depot,Whitby,7005,#07005 #7005 7005 #0007005 07005,1700 Victoria St East,ON,L1N 9K6
Home Depot,Brampton,7006,#07006 #7006 7006 #0007006 07006,49 First Gulf Blvd,ON,L6W 4R8
Home Depot,Ancaster,7007,#07007 #7007 7007 #0007007 07007,122 Martindale Crescent,ON,L9K 1J9
Home Depot,Hamilton,7008,#07008 #7008 7008 #0007008 07008,350 Centennial Pkwy N,ON,L8E 2X4
Home Depot,London,7009,#07009 #7009 7009 #0007009 07009,600 Fanshawe Park Rd E,ON,N5X 1L1
Home Depot,Etobicoke,7011,#07011 #7011 7011 #0007011 07011,193 N Queen St,ON,M9C 4Y1
Home Depot,Toronto,7012,#07012 #7012 7012 #0007012 07012,7 Curity Avenue,ON,M4B 3L8
Home Depot,Toronto,7013,#07013 #7013 7013 #0007013 07013,2121 St Clair Ave W,ON,M6N 5A8
Home Depot,Kitchener,7017,#07017 #7017 7017 #0007017 07017,100 Gateway Park Dr,ON,N2P 2J4
Home Depot,Burlington,7021,#07021 #7021 7021 #0007021 07021,3050 Davidson Court,ON,L7M 4M9
Home Depot,Sudbury,7022,#07022 #7022 7022 #0007022 07022,1500 Marcus Drive,ON,P3B 4K5
Home Depot,St Catharines,7023,#07023 #7023 7023 #0007023 07023,20 YMCA Drive,ON,L2N 7R6
Home Depot,Barrie,7024,#07024 #7024 7024 #0007024 07024,10 Barrie View Dr,ON,L4N 8V4
Home Depot,Gloucester,7025,#07025 #7025 7025 #0007025 07025,1616 Cyrville Rd,ON,K1B 3L8
Home Depot,Nepean,7026,#07026 #7026 7026 #0007026 07026,1900 Baseline Rd,ON,K2C 0C6
Home Depot,Scarborough,7027,#07027 #7027 7027 #0007027 07027,60 Grand Marshall Dr,ON,M1B 5N6
Home Depot,Newmarket,7030,#07030 #7030 7030 #0007030 07030,17850 Yonge St,ON,L3Y 8S1
Home Depot,Kelowna,7032,#07032 #7032 7032 #0007032 07032,2515 Enterprise Way,BC,V1X 7K2
Home Depot,London,7033,#07033 #7033 7033 #0007033 07033,3035 Wonderland Rd South,ON,N6L 1R4
Home Depot,Sault Ste Marie,7034,#07034 #7034 7034 #0007034 07034,530 Great Northern Rd,ON,P6B 4Z9
Home Depot,West Vancouver,7035,#07035 #7035 7035 #0007035 07035,E1-840 Main Street,BC,V7T 2Z3
Home Depot,Medicine Hat,7036,#07036 #7036 7036 #0007036 07036,1851 Strachan Road SE,AB,T1B 4V7
Home Depot,Calgary,7037,#07037 #7037 7037 #0007037 07037,1818 16th Ave NW,AB,T2M 0L8
Home Depot,Brandon,7038,#07038 #7038 7038 #0007038 07038,801-18th Street North,MB,R7A 7S1
Home Depot,Nanaimo,7040,#07040 #7040 7040 #0007040 07040,6555 Metral Street,BC,V9T 2L9
Home Depot,Langley,7041,#07041 #7041 7041 #0007041 07041,6550 - 200th Street,BC,V2Y 1P2
Home Depot,Vancouver,7042,#07042 #7042 7042 #0007042 07042,900 Terminal Avenue,BC,V6A 4G4
Home Depot,Richmond,7043,#07043 #7043 7043 #0007043 07043,2700 Sweden Way,BC,V6V 1K1
Home Depot,Surrey,7044,#07044 #7044 7044 #0007044 07044,7350 120th Street,BC,V3W 3M9
Home Depot,Coquitlam,7045,#07045 #7045 7045 #0007045 07045,1900 United Blvd,BC,V3K 6Z1
Home Depot,North Surrey,7046,#07046 #7046 7046 #0007046 07046,12701-110th Ave,BC,V3V 3K7
Home Depot,Burnaby,7047,#07047 #7047 7047 #0007047 07047,3950 Henning Dr,BC,V5C 6M2
Home Depot,Spruce Grove,7050,#07050 #7050 7050 #0007050 07050,180 Highway 16a,AB,T7X 3X3
Home Depot,Saskatoon,7051,#07051 #7051 7051 #0007051 07051,707 Circle Drive East,SK,S7K 0V1
Home Depot,Regina,7052,#07052 #7052 7052 #0007052 07052,1867 Victoria Ave East,SK,S4N 6E6
Home Depot,Squamish,7053,#07053 #7053 7053 #0007053 07053,39251 Discovery Way,BC,V8B 0M9
Home Depot,Saanich,7055,#07055 #7055 7055 #0007055 07055,3986 Shelbourne Street,BC,V8N 3E3
Home Depot,Winnipeg,7056,#07056 #7056 7056 #0007056 07056,1590 Regent Avenue West,MB,R2C 3B4
Home Depot,Winnipeg,7057,#07057 #7057 7057 #0007057 07057,727 Empress Street,MB,R3G 3P5
Home Depot,Winnipeg,7058,#07058 #7058 7058 #0007058 07058,1999 Bishop Grandin Blvd,MB,R2M 3E8
Home Depot,Calgary,7061,#07061 #7061 7061 #0007061 07061,343 36th Street NE,AB,T2A 7S9
Home Depot,Edmonton,7062,#07062 #7062 7062 #0007062 07062,13304-50th St NW,AB,T5A 4Z8
Home Depot,Calgary,7063,#07063 #7063 7063 #0007063 07063,6500 Macleod Trail SW,AB,T2H 0K6
Home Depot,Edmonton,7064,#07064 #7064 7064 #0007064 07064,"17404 99th Avenue, NW",AB,T5T 5L5
Home Depot,Edmonton,7065,#07065 #7065 7065 #0007065 07065,2020 101 St NW,AB,T6N 1J2
Home Depot,Calgary,7067,#07067 #7067 7067 #0007067 07067,390 Shawville Blvd SE,AB,T2Y 3S4
Home Depot,Toronto,7073,#07073 #7073 7073 #0007073 07073,101 Wicksteed Ave,ON,M4G 4H9
Home Depot,Victoria,7074,#07074 #7074 7074 #0007074 07074,2400 Millstream Rd,BC,V9B 3R3
Home Depot,Cornwall,7075,#07075 #7075 7075 #0007075 07075,1825 Brookdale Ave,ON,K6J 5X7
Home Depot,Calgary,7076,#07076 #7076 7076 #0007076 07076,11320 Sarcee Trail NW,AB,T3R 0A1
Home Depot,St John's,7077,#07077 #7077 7077 #0007077 07077,70 Kelsey Drive,NL,A1B 5C7
Home Depot,Toronto,7078,#07078 #7078 7078 #0007078 07078,2375 Steeles Ave W,ON,M3J 3N2
Home Depot,Barrhaven,7079,#07079 #7079 7079 #0007079 07079,3779 Strandherd Dr,ON,K2J 5M4
Home Depot,Toronto,7080,#07080 #7080 7080 #0007080 07080,1000 Gerrard Street Est,ON,M4M 3G6
Home Depot,Kingston,7081,#07081 #7081 7081 #0007081 07081,606 Gardiners Rd,ON,K7M 3X9
Home Depot,Calgary,7082,#07082 #7082 7082 #0007082 07082,5125 - 126th Avenue SE,AB,T2Z 4E7
Home Depot,Vernon,7084,#07084 #7084 7084 #0007084 07084,5501 Anderson Way,BC,V1T 9V1
Home Depot,Brockville,7085,#07085 #7085 7085 #0007085 07085,2120 Parkdale Avenue,ON,K6V 5T2
Home Depot,Winnipeg,7086,#07086 #7086 7086 #0007086 07086,1645 Kenaston Blvd,MB,R3P 2M4
Home Depot,Victoriaville,7087,#07087 #7087 7087 #0007087 07087,160 Blvd Arthabaska West,QC,G6P 6S2
Home Depot,St Albert,7088,#07088 #7088 7088 #0007088 07088,750 St Albert Rd,AB,T8N 7H5
Home Depot,Sherbrooke,7089,#07089 #7089 7089 #0007089 07089,1355 Blv Du Plateau,QC,J1L 3C5
Home Depot,Thunder Bay,7102,#07102 #7102 7102 #0007102 07102,359 Main Street,ON,P7B 5L6
Home Depot,Saint John,7103,#07103 #7103 7103 #0007103 07103,55 Depot Court,NB,E2J 5E5
Home Depot,Waterloo,7105,#07105 #7105 7105 #0007105 07105,600 King Street North,ON,N2V 2J5
Home Depot,Richmond Hill,7106,#07106 #7106 7106 #0007106 07106,50 Red Maple Rd,ON,L4B 4K1
Home Depot,Scarborough,7107,#07107 #7107 7107 #0007107 07107,2911 Eglinton Ave East,ON,M1J 2E5
Home Depot,Kanata,7108,#07108 #7108 7108 #0007108 07108,10 Frank Nighbor Place,ON,K2T 1C4
Home Depot,Ajax,7109,#07109 #7109 7109 #0007109 07109,256-260 Kingston Rd East,ON,L1Z 1G1
Home Depot,Brampton,7110,#07110 #7110 7110 #0007110 07110,60 Great Lakes Drive,ON,L6R 2K7
Home Depot,Calgary,7111,#07111 #7111 7111 #0007111 07111,388 Country Hills Blvd,AB,T3K 5J6
Home Depot,Mississauga,7112,#07112 #7112 7112 #0007112 07112,3065 Mavis Road,ON,L5C 1T7
Home Depot,Etobicoke,7114,#07114 #7114 7114 #0007114 07114,1983 Kipling Avenue,ON,M9W 4J4
Home Depot,Oakville,7115,#07115 #7115 7115 #0007115 07115,3300 S Service Rd West,ON,L6L 0B1
Home Depot,Peterborough,7116,#07116 #7116 7116 #0007116 07116,500 Lansdowne St West,ON,K9J 8J7
Home Depot,Edmonton,7117,#07117 #7117 7117 #0007117 07117,6725-104 Street NW,AB,T6H 2L3
Home Depot,Orleans,7118,#07118 #7118 7118 #0007118 07118,2121 10th Line,ON,K4A 4C5
Home Depot,Edmonton,7119,#07119 #7119 7119 #0007119 07119,13360-137th Ave NW,AB,T5L 5C7
Home Depot,Surrey,7122,#07122 #7122 7122 #0007122 07122,2525 160th Street,BC,V3S 0C8
Home Depot,Oshawa,7123,#07123 #7123 7123 #0007123 07123,1481 Harmony Rd North,ON,L1H 7K5
Home Depot,Laval,7124,#07124 #7124 7124 #0007124 07124,1400 Boul Le Corbusier,QC,H7N 6J5
Home Depot,Halifax,7126,#07126 #7126 7126 #0007126 07126,368 Lacewood Drive,NS,B3S 1L8
Home Depot,Montreal,7128,#07128 #7128 7128 #0007128 07128,4625 Saint-Antoine West,QC,H4C 1E2
Home Depot,Toronto,7129,#07129 #7129 7129 #0007129 07129,90 Billy Bishop Way,ON,M3K 2C8
Home Depot,Mississauga,7130,#07130 #7130 7130 #0007130 07130,2920 Argentia Road,ON,L5N 8C5
Home Depot,Red Deer,7131,#07131 #7131 7131 #0007131 07131,2030 50th Avenue,AB,T4R 3A2
Home Depot,Mississauga,7132,#07132 #7132 7132 #0007132 07132,5975 Terry Fox Way,ON,L5V 3E4
Home Depot,Belleville,7133,#07133 #7133 7133 #0007133 07133,210 Bell Blvd,ON,K8P 5H6
Home Depot,Toronto,7134,#07134 #7134 7134 #0007134 07134,825 Caledonia Rd,ON,M6B 3X8
Home Depot,Aurora,7135,#07135 #7135 7135 #0007135 07135,15360 Bayview Avenue,ON,L4G 7J1
Home Depot,Markham,7136,#07136 #7136 7136 #0007136 07136,50 Kirkham Drive,ON,L3S 4K7
Home Depot,Orillia,7137,#07137 #7137 7137 #0007137 07137,3225 Monarch Drive,ON,L3V 7Z4
Home Depot,Brantford,7138,#07138 #7138 7138 #0007138 07138,25 Holiday Drive,ON,N3R 7J4
Home Depot,Lachenaie,7139,#07139 #7139 7139 #0007139 07139,660 Montee Des Pionniers,QC,J6V 1N9
Home Depot,Gatineau,7140,#07140 #7140 7140 #0007140 07140,243 Montee Paiement,QC,J8P 6M7
Home Depot,Abbotsford,7141,#07141 #7141 7141 #0007141 07141,1956 Vedder Way,BC,V2S 8K1
Home Depot,Guelph,7142,#07142 #7142 7142 #0007142 07142,63 Woodlawn Road West,ON,N1H 1G8
Home Depot,Kamloops,7144,#07144 #7144 7144 #0007144 07144,1020 Hillside Drive,BC,V2E 2S5
Home Depot,Port Coquitlam,7145,#07145 #7145 7145 #0007145 07145,1069 Nicola Drive,BC,V3B 8B2
Home Depot,Montreal,7146,#07146 #7146 7146 #0007146 07146,1000 Rue Sauve Ouest,QC,H4N 3L5
Home Depot,St Jerome,7147,#07147 #7147 7147 #0007147 07147,1045 Boul Du Grand Heron,QC,J7Y 3P2
Home Depot,Moncton,7148,#07148 #7148 7148 #0007148 07148,235 Mapleton Road,NB,E1C 9G6
Home Depot,Montreal,7149,#07149 #7149 7149 #0007149 07149,100 Rue Beaubien Ouest,QC,H2S 3S1
Home Depot,St-Bruno,7150,#07150 #7150 7150 #0007150 07150,901 Boul Claude - Jutra,QC,J3V 6N8
Home Depot,Sydney,7151,#07151 #7151 7151 #0007151 07151,50 Sydney Port Access Rd,NS,B1P 7H2
Home Depot,Greenfield Park,7152,#07152 #7152 7152 #0007152 07152,500 Auguste,QC,J4V 3R4
Home Depot,Sarnia,7153,#07153 #7153 7153 #0007153 07153,1350 Quinn Drive,ON,N7S 6L5
Home Depot,Owen Sound,7154,#07154 #7154 7154 #0007154 07154,1590 20th Avenue East,ON,N4K 5N3
Home Depot,Anjou,7156,#07156 #7156 7156 #0007156 07156,11300 Renaude Lapointe,QC,H1J 2V7
Home Depot,Oakville,7157,#07157 #7157 7157 #0007157 07157,99 Cross Avenue,ON,L6J 2W7
Home Depot,Ottawa,7158,#07158 #7158 7158 #0007158 07158,2056 Bank Street,ON,K1V 7Z8
Home Depot,Boisbriand,7159,#07159 #7159 7159 #0007159 07159,2400 Boul.du Faubourg,QC,J7H 1S3
Home Depot,North Bay,7160,#07160 #7160 7160 #0007160 07160,1275 Seymour Street,ON,P1B 9V6
Home Depot,Richmond Hill,7161,#07161 #7161 7161 #0007161 07161,1706 Elgin Mills Road E,ON,L4S 1M6
Home Depot,Lebourgneuf,7162,#07162 #7162 7162 #0007162 07162,300 Rue Bouvier,QC,G2J 1R8
Home Depot,Ste-Foy,7163,#07163 #7163 7163 #0007163 07163,1516 Rue Jules-Verne,QC,G2G 2R5
Home Depot,Bracebridge,7164,#07164 #7164 7164 #0007164 07164,20 Depot Drive Rr#2,ON,P1L 1W9
Home Depot,Cambridge,7166,#07166 #7166 7166 #0007166 07166,35 Pinebush Drive,ON,N1R 8E2
Home Depot,Orangeville,7167,#07167 #7167 7167 #0007167 07167,49 Fourth Street,ON,L9W 1G7
Home Depot,Trois-Rivieres,7169,#07169 #7169 7169 #0007169 07169,4500 Real-Proulx,QC,G9A 6P9
Home Depot,Lethbridge,7170,#07170 #7170 7170 #0007170 07170,3708 Mayor Magrath Dr So,AB,T1K 7V1
Home Depot,Prince George,7171,#07171 #7171 7171 #0007171 07171,5959 O'Grady Road,BC,V2N 6Z5
Home Depot,Sherwood Park,7172,#07172 #7172 7172 #0007172 07172,200-390 Baseline Rd,AB,T8H 1X1
Home Depot,Charlottetown,7173,#07173 #7173 7173 #0007173 07173,60 Buchanan Dr,PE,C1E 2E4
Home Depot,Niagara Falls,7174,#07174 #7174 7174 #0007174 07174,7190 Morrison Street,ON,L2E 7K5
Home Depot,Grande Prairie,7175,#07175 #7175 7175 #0007175 07175,11222 103rd Avenue,AB,T8V 7H1
Home Depot,Courtenay,7177,#07177 #7177 7177 #0007177 07177,388 Lerwick Road,BC,V9N 9E5
Home Depot,Chatham,7178,#07178 #7178 7178 #0007178 07178,8582 Pioneer Line,ON,N7M 5J7
Home Depot,Kitchener,7179,#07179 #7179 7179 #0007179 07179,1450 Ottawa Street South,ON,N2E 4E2
Home Depot,Winnipeg,7180,#07180 #7180 7180 #0007180 07180,845 Leila Avenue,MB,R2V 3J7
Home Depot,Woodstock,7182,#07182 #7182 7182 #0007182 07182,901 Juliana Drive,ON,N4V 1B9
Home Depot,Windsor,7184,#07184 #7184 7184 #0007184 07184,6630 Tecumseh Road East,ON,N8T 1E6
Home Depot,St-Constant,7185,#07185 #7185 7185 #0007185 07185,490 Voie DE La Desserte,QC,J5A 2S6
Home Depot,Vaudreuil,7187,#07187 #7187 7187 #0007187 07187,55 Boul Cite Des Jeunes,QC,J7V 8C1
Home Depot,Granby,7188,#07188 #7188 7188 #0007188 07188,165 Rue Simonds Nord,QC,J2J 0R7
Home Depot,Saint Romuald,7189,#07189 #7189 7189 #0007189 07189,500 Rue DE La Concorde,QC,G6W 8A8
Home Depot,Campbell River,7221,#07221 #7221 7221 #0007221 07221,1482 Island Highway,BC,V9W 8C9
Home Depot,Fort Saskatchewan,7222,#07222 #7222 7222 #0007222 07222,9280 Southfort Drive 16),AB,T8L 0C5
Home Depot,Okotoks,7223,#07223 #7223 7223 #0007223 07223,10 - 101 Southbank Blvd,AB,T1S 0G1
Home Depot,Stjeansurrichelieu,7224,#07224 #7224 7224 #0007224 07224,850 Douglas Street,QC,J3A 1V1
Home Depot,Parry Sound,7226,#07226 #7226 7226 #0007226 07226,100 Bowes Street,ON,P2A 2L7
Home Depot,Edmonton,7227,#07227 #7227 7227 #0007227 07227,604 - 1 Westmount,AB,T5M 3L7
Home Depot,Windsor,7228,#07228 #7228 7228 #0007228 07228,1925 Division Road,ON,N8W 1Z7
Home Depot,Fredericton,7233,#07233 #7233 7233 #0007233 07233,1450 Regent Street,NB,E3C 0A4
Home Depot,Collingwood,7234,#07234 #7234 7234 #0007234 07234,10 High Street,ON,L9Y 3J6
Home Depot,Timmins,7236,#07236 #7236 7236 #0007236 07236,2143 Riverside Drive,ON,P4N 7C3
Home Depot,London,7237,#07237 #7237 7237 #0007237 07237,448 Clarke Road,ON,N5W 6H1
Home Depot,Pickering,7238,#07238 #7238 7238 #0007238 07238,1105 Kingston Road Hwy,ON,L1V 1B5
Home Depot,Brampton,7239,#07239 #7239 7239 #0007239 07239,9105 Airport Road,ON,L6S 0B8
Home Depot,Bowmanville,7240,#07240 #7240 7240 #0007240 07240,120 Clarington Boulevard,ON,L1C 0C3
Home Depot,Milton,7241,#07241 #7241 7241 #0007241 07241,1013 Maple Avenue,ON,L9T 0A5
Home Depot,Pembroke,7242,#07242 #7242 7242 #0007242 07242,27 Robinson Lane,ON,K8A 0A5
Home Depot,Huntsville,7244,#07244 #7244 7244 #0007244 07244,9 Ott Street,ON,P1H 0A2
Home Depot,Regina,7245,#07245 #7245 7245 #0007245 07245,1030 North Pasqua Street,SK,S4X 4V3
Home Depot,Midland,7247,#07247 #7247 7247 #0007247 07247,16775 Hwy #12,ON,L4R 4K3
Home Depot,Edmonton,7248,#07248 #7248 7248 #0007248 07248,4430 - 17th Street NW,AB,T6T 0B4
Home Depot,Brooklin,7249,#07249 #7249 7249 #0007249 07249,4200 Garden Street,ON,L1R 3K5
Home Depot,Calgary,7250,#07250 #7250 7250 #0007250 07250,5019 Nose Hill Dr NW,AB,T3L 0A2
Home Depot,Cobourg,7251,#07251 #7251 7251 #0007251 07251,1050 Depalma Drive,ON,K9A 0A8
Home Depot,Westbank,7252,#07252 #7252 7252 #0007252 07252,3550 Carrington Rd,BC,V4T 2Z1
Home Depot,Airdrie,7254,#07254 #7254 7254 #0007254 07254,2925 Main Street SW,AB,T4B 3G5
Home Depot,Cranbrook,7255,#07255 #7255 7255 #0007255 07255,2000 McPhee Road,BC,V1C 0A3
Home Depot,Hamilton Mountain,7256,#07256 #7256 7256 #0007256 07256,1775 Stone Church Rd E,ON,L8J 0B4
Home Depot,Dartmouth,7257,#07257 #7257 7257 #0007257 07257,40 Finnian Row,NS,B3B 0B6
Home Depot,Lloydminster,7258,#07258 #7258 7258 #0007258 07258,7705 - 44th St (Hwy. 16),AB,T9V 0X9
Home Depot,Vancouver,7259,#07259 #7259 7259 #0007259 07259,2388 Cambie Street,BC,V5Z 2T8
Home Depot,New Minas,7261,#07261 #7261 7261 #0007261 07261,21 Silver Fox Ave,NS,B4N 0C9
Home Depot,Markham,7262,#07262 #7262 7262 #0007262 07262,1201 Castlemore Avenue,ON,L6E 0G5
Home Depot,Carleton Place,7263,#07263 #7263 7263 #0007263 07263,570 McNeely Ave,ON,K7C 0A7
Home Depot,Bradford,7264,#07264 #7264 7264 #0007264 07264,470 Holland Street West,ON,L3Z 0A2
Home Depot,Saskatoon,7265,#07265 #7265 7265 #0007265 07265,3043 Clarence Ave South,SK,S7T 0B5
Home Depot,Pointe-Claire,7266,#07266 #7266 7266 #0007266 07266,185 Boul Hymus,QC,H9R 1E9
Home Depot,Edmonton,7268,#07268 #7268 7268 #0007268 07268,6218 Currents Drive NW,AB,T6W 0L8
Home Depot,Bolton,7269,#07269 #7269 7269 #0007269 07269,12760 Highway 50,ON,L7E 4G1
Home Depot,Duncan,7272,#07272 #7272 7272 #0007272 07272,1 - 2980 Drinkwater Rd,BC,V9L 6C6
Home Depot,Chilliwack,7273,#07273 #7273 7273 #0007273 07273,100-8443 Eagle Landing,BC,V2P 0E2
Home Depot,Toronto,7274,#07274 #7274 7274 #0007274 07274,1 Concord Gate,ON,M3C 4H9
Home Depot,Saint Thomas,8201,#08201 #8201 8201 #0008201 08201,1-2 Donoe Road 4000,VI,802
Home Depot,Ukiah,8408,#08408 #8408 8408 #0008408 08408,350 N Orchard Ave,CA,95482
Home Depot,Clayton,8412,#08412 #8412 8412 #0008412 08412,1551 Hwy 441 South,GA,30525
Home Depot,Jasper,8413,#08413 #8413 8413 #0008413 08413,205 Bill Wigington Pkwy,GA,30143
Home Depot,Austin,8418,#08418 #8418 8418 #0008418 08418,7900 N Fm 620,TX,78726
Home Depot,Orange,8419,#08419 #8419 8419 #0008419 08419,603 Strickland Drive,TX,77630
Home Depot,Delano,8426,#08426 #8426 8426 #0008426 08426,601 Woollomes Ave,CA,93215
Home Depot,Los Banos,8427,#08427 #8427 8427 #0008427 08427,1955 E Pacheco Blvd,CA,93635
Home Depot,Hurricane,8429,#08429 #8429 8429 #0008429 08429,1100 Liberty Park Dr,WV,25526
Home Depot,Jacksonville,8430,#08430 #8430 8430 #0008430 08430,1601 West Morton Ave,IL,62650
Home Depot,Round Lake Beach,8431,#08431 #8431 8431 #0008431 08431,2050 N Illinois Rt 83,IL,60073
Home Depot,Bridgeport,8433,#08433 #8433 8433 #0008433 08433,1180 West Main Street,WV,26330
Home Depot,Seguin,8437,#08437 #8437 8437 #0008437 08437,201 W I-10,TX,78155
Home Depot,Burleson,8438,#08438 #8438 8438 #0008438 08438,300 NW John Jones,TX,76028
Home Depot,Hutto,8439,#08439 #8439 8439 #0008439 08439,600 W Hwy 79,TX,78634
Home Depot,Wilmington,8440,#08440 #8440 8440 #0008440 08440,3600 Miller Road,DE,19802
Home Depot,Fort Myers,8444,#08444 #8444 8444 #0008444 08444,3402 Forum Blvd,FL,33905
Home Depot,Rogers,8445,#08445 #8445 8445 #0008445 08445,1701 S 46th Street,AR,72756
Home Depot,Panama City,8446,#08446 #8446 8446 #0008446 08446,11500 Panama City Bch Pk,FL,32407
Home Depot,Lady Lake,8447,#08447 #8447 8447 #0008447 08447,871 North Hwy 27,FL,32159
Home Depot,Hadley,8452,#08452 #8452 8452 #0008452 08452,350 Russell Street,MA,1035
Home Depot,Hilo,8453,#08453 #8453 8453 #0008453 08453,380 Makaala Street,HI,96720
Home Depot,Kyle,8454,#08454 #8454 8454 #0008454 08454,"3730 Dry Hole Dr, Cr#210",TX,78640
Home Depot,Hawthorne,8456,#08456 #8456 8456 #0008456 08456,1 Saw Mill River Road,NY,10532
Home Depot,Kansas City,8460,#08460 #8460 8460 #0008460 08460,8900 NW Skyview Avenue,MO,64154
Home Depot,West Covina,8463,#08463 #8463 8463 #0008463 08463,2220 S Azusa Avenue,CA,91792
Home Depot,Westbury,8465,#08465 #8465 8465 #0008465 08465,1300-1320 Corporate Dr,NY,11590
Home Depot,Syosset,8466,#08466 #8466 8466 #0008466 08466,111 Jericho Turnpike,NY,11791
Home Depot,Olive Branch,8469,#08469 #8469 8469 #0008469 08469,7740 Craft Goodman Rd,MS,38654
Home Depot,Pensacola,8472,#08472 #8472 8472 #0008472 08472,541 W Nine Mile Rd,FL,32534
Home Depot,Hamden,8473,#08473 #8473 8473 #0008473 08473,1873 Dixwell Avenue,CT,6514
Home Depot,North Bergen,8475,#08475 #8475 8475 #0008475 08475,7605 Tonnelle Avenue,NJ,7047
Home Depot,Nogales,8488,#08488 #8488 8488 #0008488 08488,430 White Park Drive,AZ,85621
Home Depot,Red Bluff,8492,#08492 #8492 8492 #0008492 08492,2650 Main Street,CA,96080
Home Depot,Danville,8493,#08493 #8493 8493 #0008493 08493,175 Holt Garrison Pkwy,VA,24540
Home Depot,Grand Prairie,8517,#08517 #8517 8517 #0008517 08517,5280 South Hwy 360,TX,75052
Home Depot,Brenham,8518,#08518 #8518 8518 #0008518 08518,2801 Wood Ridge Blvd,TX,77833
Home Depot,Mission,8519,#08519 #8519 8519 #0008519 08519,120 S Shary Road,TX,78572
Home Depot,New Braunfels,8520,#08520 #8520 8520 #0008520 08520,1360 N Ih 35,TX,78130
Home Depot,White Settlement,8521,#08521 #8521 8521 #0008521 08521,9509 White Settlement Rd,TX,76108
Home Depot,El Paso,8523,#08523 #8523 8523 #0008523 08523,12221 Montwood Drive,TX,79936
Home Depot,Crescent City,8524,#08524 #8524 8524 #0008524 08524,520 US Highway 101 North,CA,95531
Home Depot,Irvine,8525,#08525 #8525 8525 #0008525 08525,6200 Irvine Blvd,CA,92620
Home Depot,Palm Springs,8526,#08526 #8526 8526 #0008526 08526,"5200 E Ramon Rd, Bldg A",CA,92264
Home Depot,Thomaston,8527,#08527 #8527 8527 #0008527 08527,1025 Hwy 19 North,GA,30286
Home Depot,North Port,8528,#08528 #8528 8528 #0008528 08528,18000 Tamiami Trail,FL,34287
Home Depot,Selma,8529,#08529 #8529 8529 #0008529 08529,3175 Highland Ave,CA,93662
Home Depot,Palatka,8531,#08531 #8531 8531 #0008531 08531,417 N Hwy 19,FL,32177
Home Depot,El Dorado,8537,#08537 #8537 8537 #0008537 08537,507 West 19th Street,AR,71730
Home Depot,Littleton,8539,#08539 #8539 8539 #0008539 08539,895 Meadow St,NH,3561
Home Depot,Mount Pleasant,8540,#08540 #8540 8540 #0008540 08540,2530 S Jefferson Ave,TX,75455
Home Depot,Sebastian,8545,#08545 #8545 8545 #0008545 08545,13361 US Hwy 1,FL,32958
Home Depot,Lanham,8548,#08548 #8548 8548 #0008548 08548,10301 M L King Jr. Hwy,MD,20706
Home Depot,Upper Marlboro,8550,#08550 #8550 8550 #0008550 08550,15410 Chrysler Drive,MD,20772
Home Depot,Chantilly,8551,#08551 #8551 8551 #0008551 08551,25000 Riding Plaza,VA,20152
Home Depot,Warrenton,8552,#08552 #8552 8552 #0008552 08552,267 Alwington Blvd,VA,20186
Home Depot,Phoenix,8557,#08557 #8557 8557 #0008557 08557,3345 N Phoenix Road,OR,97535
Home Depot,Reno,8560,#08560 #8560 8560 #0008560 08560,1001 Steamboat Pkwy,NV,89521
Home Depot,Burlington,8561,#08561 #8561 8561 #0008561 08561,2001 Market Place Drive,WA,98233
Home Depot,Bonney Lake,8562,#08562 #8562 8562 #0008562 08562,9602 214th Ave East,WA,98391
Home Depot,Oak Harbor,8563,#08563 #8563 8563 #0008563 08563,31800 Sr 20,WA,98277
Home Depot,Riverton,8566,#08566 #8566 8566 #0008566 08566,3852 West 13400 South,UT,84065
Home Depot,Lincoln,8571,#08571 #8571 8571 #0008571 08571,1000 Groveland Lane,CA,95648
Home Depot,Morgan Hill,8572,#08572 #8572 8572 #0008572 08572,860 E Dunne Avenue,CA,95037
Home Depot,Florence,8577,#08577 #8577 8577 #0008577 08577,351 Seville Street,AL,35630
Home Depot,Florence,8580,#08580 #8580 8580 #0008580 08580,3051 West Radio Drive,SC,29501
Home Depot,Chandler,8582,#08582 #8582 8582 #0008582 08582,2530 E Germann Rd,AZ,85286
Home Depot,Layton,8583,#08583 #8583 8583 #0008583 08583,449 N. Main St,UT,84041
Home Depot,Greensboro,8584,#08584 #8584 8584 #0008584 08584,2490 Meadow Crest,GA,30642
Home Depot,Auburn,8597,#08597 #8597 8597 #0008597 08597,11755 Willow Creek Drive,CA,95603
Home Depot,Chicago,8598,#08598 #8598 8598 #0008598 08598,6211 N Lincoln Avenue,IL,60659
Home Depot,Kingshill,8622,#08622 #8622 8622 #0008622 08622,1105 Barren Spot,VI,850
Home Depot,Lancaster,8913,#08913 #8913 8913 #0008913 08913,1116 US Hwy 9 Byp W,SC,29720
Home Depot,Memphis,8916,#08916 #8916 8916 #0008916 08916,1627 Poplar Avenue,TN,38104
Home Depot,Crawfordsville,8918,#08918 #8918 8918 #0008918 08918,1710 US 231 South,IN,47933
Home Depot,Little Rock,8919,#08919 #8919 8919 #0008919 08919,11 Mabelvale Plaza Lane,AR,72209
Home Depot,Owasso,8922,#08922 #8922 8922 #0008922 08922,9450 N 129th East Ave,OK,74055
Home Depot,Westfield,8923,#08923 #8923 8923 #0008923 08923,514 East Main Street,MA,1085
Home Depot,Calhoun,8924,#08924 #8924 8924 #0008924 08924,1280 Curtis Pkwy,GA,30701
Home Depot,Apopka,8926,#08926 #8926 8926 #0008926 08926,1670 W Orange Blossom Tr,FL,32712
Home Depot,Zephyrhills,8929,#08929 #8929 8929 #0008929 08929,32715 Eiland Blvd,FL,33545
Home Depot,Somersworth,8931,#08931 #8931 8931 #0008931 08931,12 Commercial Drive,NH,3878
Home Depot,Kenai,8938,#08938 #8938 8938 #0008938 08938,10480 Spur Highway,AK,99611
Home Depot,Juneau,8939,#08939 #8939 8939 #0008939 08939,5201 Commercial Blvd,AK,99801
Home Depot,Anchorage,8940,#08940 #8940 8940 #0008940 08940,1715 Abbott Road,AK,99507
Home Depot,Nampa,8941,#08941 #8941 8941 #0008941 08941,2003 N Cassia St,ID,83651
Home Depot,Seattle,8944,#08944 #8944 8944 #0008944 08944,7345 Delridge Way SW,WA,98106
Home Depot,Poway,8949,#08949 #8949 8949 #0008949 08949,12175 Tech Center Drive,CA,92064
Home Depot,Rowlett,8951,#08951 #8951 8951 #0008951 08951,2201 Lakeview Parkway,TX,75088
Home Depot,Dublin,8954,#08954 #8954 8954 #0008954 08954,1833 Veterans Blvd,GA,31021
Home Depot,Parkesburg,8955,#08955 #8955 8955 #0008955 08955,500 Commons Drive,PA,19365
Home Depot,Bellport,8958,#08958 #8958 8958 #0008958 08958,20 Farber Drive,NY,11713
Home Depot,Aberdeen,8964,#08964 #8964 8964 #0008964 08964,2213 Port Industrial Rd,WA,98520
Home Depot,Moses Lake,8966,#08966 #8966 8966 #0008966 08966,980 W Central Drive,WA,98837
Home Depot,Oroville,8975,#08975 #8975 8975 #0008975 08975,2150 3rd Street,CA,95965
Home Depot,Lancaster,8976,#08976 #8976 8976 #0008976 08976,500 N I-35 East,TX,75146
Home Depot,Chelsea,8979,#08979 #8979 8979 #0008979 08979,1100 Revere Beach Pkwy,MA,2150
Home Depot,Chardon,8981,#08981 #8981 8981 #0008981 08981,287 Meadowlands Drive,OH,44024
Home Depot,Saint Joseph,8984,#08984 #8984 8984 #0008984 08984,5201 N Belt Line Hwy,MO,64506
Home Depot,Beaumont,8987,#08987 #8987 8987 #0008987 08987,1480 East 2nd Street,CA,92223
Home Depot,Lake Elsinore,8988,#08988 #8988 8988 #0008988 08988,18282 Collier Avenue,CA,92530
Home Depot,Chesterfield,8994,#08994 #8994 8994 #0008994 08994,390 Thf Boulevard,MO,63005
Home Depot,Dripping Springs,8995,#08995 #8995 8995 #0008995 08995,260 East Highway 290,TX,78620
Home Depot,Massena,8996,#08996 #8996 8996 #0008996 08996,41 Stephenville Road,NY,13662
Home Depot,Sequim,8998,#08998 #8998 8998 #0008998 08998,1145 W Washington St,WA,98382
