keywords,city,Aggdata Store Number,store_number,address,state,zip_code
Jos A Bank,Philadelphia,2,#2 2,1650 Market Street,PA,19103
Jos A Bank,Washington,6,#6 6,1200 19th Street Northwest,DC,20036-3661
Jos A Bank,Hampstead,22,#22 22,720 Hanover Pike,MD,21074
Jos A Bank,Livonia,51,#51 51,37674 Six Mile Road,MI,48152
Jos A Bank,New York,73,#73 73,366 Madison Avenue,NY,10017
Jos A Bank,Charlotte,79,#79 79,"100 North Tryon Street, Suite 160",NC,28202
Jos A Bank,Jacksonville,81,#81 81,"10300 Southside Boulevard, Suite 142",FL,32256
Jos A Bank,Woodbury,84,#84 84,8069 Jericho Turnpike,NY,11797
Jos A Bank,New Orleans,92,#92 92,230 Carondelet Street,LA,70130
Jos A Bank,Springfield,96,#96 96,2922 Plaza Drive,IL,62704
Jos A Bank,Cypress,223,#223 223,"29300 Hempstead Road, Suite 1216",TX,77433
Jos A Bank,Pottstown,224,#224 224,"18 West Lightcap Road, Suite 1005",PA,19464
Jos A Bank,Queenstown,225,#225 225,189 Outlet Center Drive,MD,21658
Jos A Bank,Leeds,226,#226 226,"6200 Grand River Blvd., Suite 130",AL,35094
Jos A Bank,Branson,227,#227 227,333 Branson Landing,MO,65616
Jos A Bank,Foley,228,#228 228,"2601 South McKenzie Street, Suite 236",AL,36535
Jos A Bank,Lancaster,229,#229 229,"801 Stanley K Tanger Blvd, Suite 801",PA,17602
Jos A Bank,Oklahoma City,230,#230 230,"7638 West Reno, Suite 570",OK,73127
Jos A Bank,Monroe,231,#231 231,108 Premium Outlets Drive,OH,45050
Jos A Bank,Maywood,232,#232 232,93 West Spring Valley Avenue,NJ,7607
Jos A Bank,Erie,233,#233 233,"654 Millcreek Mall Drive, Unit #665",PA,16565
Jos A Bank,San Marcos,234,#234 234,"4015 Interstate 35 South, Suite 101",TX,78666
Jos A Bank,Lawrence,235,#235 235,646 Vermont Street,KS,66044
Jos A Bank,Central Valley,236,#236 236,202 Red Apple Court,NY,10917
Jos A Bank,Freeport,237,#237 237,42 Main St,ME,4032
Jos A Bank,Ft. Myers,239,#239 239,"20350 Summerlin Rd., Suite 8115",FL,33908
Jos A Bank,Hagerstown,240,#240 240,"495 Prime Outlets Blvd., Suite 805",MD,21740
Jos A Bank,Castle Rock,241,#241 241,"5050 Factory Shops Blvd., Suite 205",CO,80108
Jos A Bank,Locust Grove,243,#243 243,"1000 Tanger Drive, Suite 212",GA,30248
Jos A Bank,Syracuse,244,#244 244,"306 Hiawatha Blvd. West, Suite L-206",NY,13204
Jos A Bank,Livermore,245,#245 245,2676 Paragon Outlets Drive,CA,94551
Jos A Bank,Auburn Hills,246,#246 246,4526 Baldwin Rd.,MI,48326
Jos A Bank,Gulfport,247,#247 247,10420 Factory Shops Blvd.,MS,39503
Jos A Bank,Lebanon,248,#248 248,"One Outlet Village Blvd., Suite 160",TN,37090
Jos A Bank,North Charleston,249,#249 249,"4840 Tanger Outlet Blvd., Suite 741",SC,29418
Jos A Bank,Clinton,250,#250 250,"20-A Killingworth Turnpike, Suite 100A",CT,6413
Jos A Bank,Woodstock,251,#251 251,"915 Ridgewalk Parkway, Suite 575",GA,30188
Jos A Bank,Scarsdale,318,#318 318,701 White Plains Road (Route 22),NY,10583
Jos A Bank,Provo,345,#345 345,4801 North University Avenue,UT,84604
Jos A Bank,Chesterfield,349,#349 349,"51F Chesterfield Mall, Unit BL200",MO,63017
Jos A Bank,Grove City,350,#350 350,"I-79 & Route 208, Unit 810",PA,16127
Jos A Bank,Ocean City,351,#351 351,12741 Ocean Gateway,MD,21842
Jos A Bank,Williamsburg,352,#352 352,3032 Richmond Rd.,VA,23185
Jos A Bank,Dawsonville,353,#353 353,"800 Highway 400 South, Suite 1035",GA,30534
Jos A Bank,Leesburg,354,#354 354,"241 Fort Evans Road Northeast, Suite 1701",VA,20176
Jos A Bank,Freehold,355,#355 355,3710 Route 9 Space D-124,NJ,7728
Jos A Bank,Broomfield,358,#358 358,"1 West Flatiron Circle, Suite 2292",CO,80021
Jos A Bank,Tampa,362,#362 362,"2223 N. West Shore Blvd., Suite 292",FL,33607
Jos A Bank,Plano,367,#367 367,"6121 West Park Blvd., Space B-220",TX,75093
Jos A Bank,Overland Park,378,#378 378,"11475 West 95th Street, Suite 64",KS,66214
Jos A Bank,Pittsburgh,382,#382 382,"100 Robinson Center Drive, Space 1030",PA,15205
Jos A Bank,Columbus,387,#387 387,"1500 Polaris Parkway, Suite 1090",OH,43240
Jos A Bank,Fairfax,391,#391 391,"11750 Fair Oaks, Space K219",VA,22033
Jos A Bank,Raleigh,394,#394 394,"5959 Triangle Town Boulevard, Unit EU2125",NC,27616
Jos A Bank,Exton,396,#396 396,298 Exton Square Parkway,PA,19341
Jos A Bank,McLean,405,#405 405,"1757-U International Drive, Space 3126",VA,22102
Jos A Bank,Detroit,406,#406 406,"200 Renaissance Center, Suite 1311",MI,48243
Jos A Bank,Saginaw,407,#407 407,4787 Fashion Square Boulevard,MI,48604
Jos A Bank,Wellington,415,#415 415,"10300 West Forest Hill Blvd., Space 291",FL,33414
Jos A Bank,Charleston,427,#427 427,1053 Charleston Town Center,WV,25389-1053
Jos A Bank,Sterling,433,#433 433,"21100 Dulles Town Circle, Suite 125",VA,20166
Jos A Bank,San Francisco,439,#439 439,Lobby Level,CA,94111
Jos A Bank,Pittsburgh,451,#451 451,1000 Ross Park Mall Drive,PA,15237-3869
Jos A Bank,Commack,453,#453 453,194 E. Jericho Turnpike,NY,11725
Jos A Bank,Ft. Lauderdale,460,#460 460,2414 Sunrise Boulevard,FL,33304
Jos A Bank,Houston,476,#476 476,1200 McKinney Street,TX,77010-2043
Jos A Bank,Boston,479,#479 479,84 State Street,MA,2109
Jos A Bank,Sherman Oaks,487,#487 487,14006 Riverside Drive,CA,91423-6318
Jos A Bank,Rancho Cucamonga,499,#499 499,12447 South Main Street,CA,91739
Jos A Bank,Lynnwood,516,#516 516,"3000 184 Street SW, Suite 938",WA,98037
Jos A Bank,Seattle,526,#526 526,1335 5th Avenue,WA,98101
Jos A Bank,Charleston,530,#530 530,328 King Street,SC,29401
Jos A Bank,Sioux Fallls,544,#544 544,480 W. Empire Mall,SD,57106
Jos A Bank,Fort Worth,561,#561 561,"501 Houston Street, Woolworth Building",TX,76102
Jos A Bank,Irvine,566,#566 566,"111 Fortune Drive, Suite 903",CA,92618
Jos A Bank,Florence,580,#580 580,1945 W. Palmetto Street,SC,29501
Jos A Bank,Washington,598,#598 598,"Terminal B, Suite 46",DC,20001
Jos A Bank,Englewood,611,#611 611,38 South Dean Street,NJ,7631
Jos A Bank,Cincinnati,613,#613 613,525 Vine Street,OH,45202
Jos A Bank,Dallas,628,#628 628,1508 Commerce Street,TX,75201
Jos A Bank,Chicago,631,#631 631,"231 South LaSalle Street, Suite A, Bank of America Building",IL,60604
Jos A Bank,Rye,647,#647 647,64 Purchase Street,NY,10580
Jos A Bank,Kansas City,688,#688 688,1320 Main Street,MO,64105
Jos A Bank,Stockton,756,#756 756,"5757 Pacific Avenue, Suite 115",CA,95207
Jos A Bank,Huntington,796,#796 796,229 Main Street,NY,11743
Jos A Bank,Chicago,820,#820 820,"500 West Madison Street, Suite G-001B",IL,60661
Jos A Bank,Lexington,843,#843 843,"333 West Vine Street, Suite 102",KY,40507
Jos A Bank,Minneapolis,845,#845 845,"651 Nicollet Mall, Suite 105",MN,55402
Jos A Bank,New York,848,#848 848,111 Broadway,NY,10006
Jos A Bank,Salt Lake City,863,#863 863,"136 South Main Street, Suite R 140",UT,84101
Jos A Bank,Oceanside,933,#933 933,3193 Long Beach Rd.,NY,11572
Jos A Bank,Babylon,934,#934 934,"72 East Main Street, Suite 1",NY,11702
Jos A Bank,Phoenix,943,#943 943,"One East Washington St., Suite 130",AZ,85004
Jos A Bank,Stony Brook,944,#944 944,97 K Main Street,NY,11790
Jos A Bank,South Jordan,952,#952 952,"11531 South District Main Drive, Suite 600",UT,84095
Jos A Bank,Boston,959,#959 959,70 Franklin Street,MA,2110
Jos A Bank,Santa Fe,965,#965 965,"130 Lincoln Avenue, Space A",NM,87501
Jos A Bank,Baltimore,1,#1 1,100 E. Pratt Street,MD,21202
Jos A Bank,Falls Church,4,#4 4,"7259 Arlington Blvd., Route 50",VA,22042-3232
Jos A Bank,Towson,5,#5 5,850 Kenilworth Drive,MD,21204-2296
Jos A Bank,Rockville,7,#7 7,1401 Rockville Pike,MD,20852
Jos A Bank,Haverford,12,#12 12,379 Lancaster Avenue,PA,19041-1548
Jos A Bank,Atlanta,16,#16 16,"3637A Peachtree Road, Northeast",GA,30319
Jos A Bank,Charlotte,17,#17 17,3904-A Colony Road,NC,28211
Jos A Bank,Richmond,18,#18 18,1302 Gaskins Road,VA,23233-4919
Jos A Bank,Wilmette,19,#19 19,1199 Wilmette Avenue,IL,60091
Jos A Bank,Perryville,23,#23 23,"Heather Lane, Suite 37",MD,21903
Jos A Bank,Boston,24,#24 24,399 Boylston Street,MA,2116
Jos A Bank,Chicago,25,#25 25,25 E. Washington Street,IL,60602-1701
Jos A Bank,Birmingham,26,#26 26,275 East Maple Rd,MI,48009
Jos A Bank,Houston,27,#27 27,1984 West Gray Street,TX,77019-3602
Jos A Bank,Birmingham,29,#29 29,"569 Brookwood Village, Suite 171",AL,35209
Jos A Bank,Denver,30,#30 30,3030 East 2nd Avenue,CO,80206
Jos A Bank,Germantown,31,#31 31,6685 Poplar Avenue,TN,38138-3660
Jos A Bank,Williamsville,33,#33 33,5421 Sheridan Drive,NY,14221
Jos A Bank,Creve Coeur,36,#36 36,311 N. Lindbergh,MO,63141
Jos A Bank,Nashville,38,#38 38,2126 Abbott Martin Road,TN,37215
Jos A Bank,Cincinnati,40,#40 40,7565 Kenwood Road,OH,45236-2835
Jos A Bank,Louisville,41,#41 41,170 North Hurstbourne Parkway,KY,40222
Jos A Bank,Garden City,42,#42 42,600 Old Country Road,NY,11530
Jos A Bank,Rochester,43,#43 43,1900 South Clinton Avenue,NY,14618-2610
Jos A Bank,Englewood,44,#44 44,9609 B East County Line Road,CO,80112
Jos A Bank,Raleigh,45,#45 45,505 Daniels Street,NC,27605
Jos A Bank,Edina,46,#46 46,7443 France Avenue Southeast,MN,55435-4276
Jos A Bank,Houston,47,#47 47,"9668 Westheimer, Suite 100",TX,77063-3205
Jos A Bank,Worthington,49,#49 49,270 Worthington Square,OH,43085
Jos A Bank,Indianapolis,52,#52 52,"8487 Union Chapel Road, Suite 500",IN,46240
Jos A Bank,Arlington,54,#54 54,1100 S. Hayes Street #3016,VA,22202
Jos A Bank,Longwood,55,#55 55,1823 West State Road 434,FL,32750
Jos A Bank,Overland Park,56,#56 56,4909 West 119th Street,KS,66209
Jos A Bank,Dunwoody,57,#57 57,5488 Chamblee Dunwoody Rd.,GA,30338
Jos A Bank,Cranston,59,#59 59,80 Hillside Road,RI,2920
Jos A Bank,Virginia Beach,61,#61 61,"1860 Laskin Road, Suites 123-125",VA,23454
Jos A Bank,Dallas,63,#63 63,4025 Northwest Parkway,TX,75225-3303
Jos A Bank,Greenville,64,#64 64,"4001 Kennett Pike, Suite 108",DE,19807
Jos A Bank,Kettering,65,#65 65,300 E. Stroop Road,OH,45429
Jos A Bank,Grand Rapids,66,#66 66,"1892 Breton Road, Southeast",MI,49506
Jos A Bank,Austin,67,#67 67,"10000 Research Boulevard, Suite 133",TX,78759
Jos A Bank,Princeton,68,#68 68,3535 US Route 1,NJ,8540
Jos A Bank,West Hartford,69,#69 69,30 LaSalle Road,CT,6107
Jos A Bank,Greenville,70,#70 70,449 Haywood Road,SC,29607
Jos A Bank,Philadelphia,71,#71 71,"8400 Germantown Ave., Unit #3",PA,19118
Jos A Bank,Fishkill,72,#72 72,"1083 Route 9, Suite 7",NY,12524
Jos A Bank,Brookfield,74,#74 74,17925 W. Bluemound Road,WI,53045
Jos A Bank,The Woodlands,75,#75 75,1201 Lake Woodlands Drive,TX,77380
Jos A Bank,Albany,77,#77 77,1475 Western Avenue,NY,12203
Jos A Bank,Annapolis,80,#80 80,"2526 Solomons Island Rd, Suite E-3B",MD,21401
Jos A Bank,Paramus,82,#82 82,624 Route 17 North,NJ,7652
Jos A Bank,Reston,83,#83 83,11930 Democracy Drive,VA,20190
Jos A Bank,Eatontown,85,#85 85,"2156 Monmouth Mall, Routes 35 & 36",NJ,7724
Jos A Bank,Burlington,86,#86 86,68 Burlington Mall Road,MA,1803
Jos A Bank,Duluth,87,#87 87,"2205 Pleasant Hill Road, Suite 105",GA,30096
Jos A Bank,Asheville,90,#90 90,9 Kitchen Place,NC,28803
Jos A Bank,Knoxville,91,#91 91,4413 Kingston Pike,TN,37919
Jos A Bank,Quincy,95,#95 95,6th & Maine,IL,62301
Jos A Bank,Augusta,97,#97 97,385 Highland Avenue,GA,30909
Jos A Bank,Baton Rouge,98,#98 98,"6401 Blue Bonnet Boulevard at the Mall of Louisiana, Suite 402",LA,70836
Jos A Bank,Metairie,99,#99 99,3320 N. Causeway Blvd,LA,70002
Jos A Bank,Riverhead,221,#221 221,217 Tanger Mall Drive,NY,11901
Jos A Bank,Tinton Falls,222,#222 222,"1 Premium Outlets Blvd., Suite 719",NJ,7753
Jos A Bank,Roanoke,309,#309 309,"4706 Starkey Road, S.W., Suite C",VA,24014
Jos A Bank,Columbia,313,#313 313,6250 Columbia Crossing Circle Suite A,MD,21045
Jos A Bank,Atlanta,314,#314 314,3051 Akers Mill Road,GA,30339
Jos A Bank,Houston,315,#315 315,5484 FM1960 W,TX,77069
Jos A Bank,Houston,316,#316 316,600 Meyerland Plaza Mall,TX,77096
Jos A Bank,Webster,317,#317 317,1501 A. West Bay Area Boulevard,TX,77595
Jos A Bank,Oviedo,319,#319 319,1017 Oviedo Mall Blvd.,FL,32765
Jos A Bank,Montgomery,320,#320 320,2960 Zelda Road,AL,36106
Jos A Bank,Livingston,321,#321 321,518 West Mt. Pleasant Avenue,NJ,7039
Jos A Bank,Plano,322,#322 322,2396 Preston Rd.,TX,75093
Jos A Bank,Moorestown,323,#323 323,1600 Nixon Drive,NJ,8057
Jos A Bank,Roseville,324,#324 324,"805 Rosedale Center, Suite 905",MN,55113
Jos A Bank,Rochester Hills,325,#325 325,334 North Adams Rd.,MI,48309
Jos A Bank,Greensboro,327,#327 327,3114 North Line Avenue,NC,27408
Jos A Bank,Westport,328,#328 328,372 Post Road East,CT,6880
Jos A Bank,Bethesda,331,#331 331,7130 Wisconsin Avenue,MD,20814
Jos A Bank,Marietta,332,#332 332,"4475 Roswell Road, Suite 1720",GA,30062
Jos A Bank,McLean,333,#333 333,6837 Redmond Drive,VA,22101
Jos A Bank,Morristown,334,#334 334,6 North Park Place,NJ,7960
Jos A Bank,Highland Park,336,#336 336,Suite 100 - Renaissance Place,IL,60035
Jos A Bank,Deer Park,337,#337 337,20530 North Rand Road,IL,60010
Jos A Bank,Alpharetta,338,#338 338,"7300 North Point Parkway, Suite 108",GA,30022
Jos A Bank,Westfield,339,#339 339,121 Quimby Street,NJ,7090
Jos A Bank,Glastonbury,340,#340 340,140 Glastonbury Blvd,CT,6033
Jos A Bank,Arlington Heights,342,#342 342,"11 South Evergreen Avenue, Suite C-2A",IL,60005
Jos A Bank,Danbury,343,#343 343,3 Backus Avenue,CT,6810
Jos A Bank,Murray,344,#344 344,118 East Winchester Street,UT,84107
Jos A Bank,Charlottesville,346,#346 346,1127 Emmet St.,VA,22903
Jos A Bank,Peachtree City,347,#347 347,"222 City Circle, Space 520",GA,30269
Jos A Bank,Washington,348,#348 348,"50 Massachusetts Ave Northeast, Space 213",DC,20002
Jos A Bank,Mt. Lebanon,356,#356 356,700 Connor Road,PA,15228
Jos A Bank,Little Rock,357,#357 357,"12800 Chenal Parkway, Suite 20",AR,72211
Jos A Bank,Cincinnati,359,#359 359,2707 Edmondson Road,OH,45209
Jos A Bank,King of Prussia,360,#360 360,"660 DeKalb Pike (RT 202), Store 1075-Lower Level at Food Court",PA,19406
Jos A Bank,Westwood,361,#361 361,209 Westwood Ave,NJ,7675
Jos A Bank,Littleton,363,#363 363,"7301 South Santa Fe Drive, Suite 728",CO,80120
Jos A Bank,Columbus,364,#364 364,3991 Worth Avenue Space #206,OH,43219
Jos A Bank,Memphis,366,#366 366,4465 Poplar Avenue Space #2100,TN,38117
Jos A Bank,Fort Worth,368,#368 368,"1540 South University Drive, Suite 104",TX,76107
Jos A Bank,Glen Mills,377,#377 377,Wilmington-West Chester Pike,PA,19342
Jos A Bank,Marlton,379,#379 379,"500 Rt. 73 South, Space A-18",NJ,8053
Jos A Bank,Louisville,381,#381 381,"4256 Summit Plaza Drive, Space C178",KY,40241
Jos A Bank,Southlake,385,#385 385,1238 Main Street,TX,76092
Jos A Bank,Arlington,386,#386 386,2800 Clarendon Boulevard,VA,22201
Jos A Bank,Pittsford,388,#388 388,3240 Monroe Avenue,NY,14618
Jos A Bank,Chattanooga,389,#389 389,"2100 Hamilton Place Boulevard, Space 239",TN,37421
Jos A Bank,Franklin,390,#390 390,"1800 Galleria Boulevard, Space 1635",TN,37067
Jos A Bank,Akron,392,#392 392,"3265 West Market Street, Space 191",OH,44333
Jos A Bank,Geneva,393,#393 393,"106 Commons Drive, Space 1000",IL,60134
Jos A Bank,Orland Park,395,#395 395,"504 Orland Square Mall, Room C03A",IL,60462
Jos A Bank,Buffalo,397,#397 397,"One Walden Galleria, Space L109",NY,14225
Jos A Bank,Fayetteville,398,#398 398,538 Towne Drive,NY,13066
Jos A Bank,Lansing,402,#402 402,"2920 Towne Boulevard, Space C-5",MI,48912
Jos A Bank,Spartanburg,408,#408 408,"225 West Blackstock Road, Suite #2",SC,29301
Jos A Bank,Tulsa,409,#409 409,"1744 Utica Square, Space #15",OK,74114
Jos A Bank,Huntsville,410,#410 410,"2801 Memorial Parkway S, Space 196",AL,35801
Jos A Bank,Severna Park,411,#411 411,563/565 Ritchie Highway,MD,21146
Jos A Bank,Racine,412,#412 412,5504 Durand Avenue,WI,53406
Jos A Bank,Grandville,413,#413 413,3353 Century Center Street,MI,49418
Jos A Bank,Lancaster,414,#414 414,1651 Manheim Pike,PA,17601
Jos A Bank,Edmond,416,#416 416,1458 South Bryant,OK,73034
Jos A Bank,Wichita Falls,417,#417 417,"3111 Midwestern Parkway, Suite 272",TX,76308
Jos A Bank,Las Vegas,418,#418 418,"8885 West Charleston Boulevard, Suites 110 & 120",NV,89117
Jos A Bank,Sacramento,419,#419 419,2333 Fair Oaks Boulevard,CA,95825
Jos A Bank,Gainesville,420,#420 420,"6329-E Newberry Road, Suite E",FL,32605-4366
Jos A Bank,Winter Park,421,#421 421,"520 North Orlando Avenue, Suite #130",FL,32789-7314
Jos A Bank,Boca Raton,422,#422 422,"5050 Town Center Circle, Suite 213",FL,33486
Jos A Bank,Sarasota,423,#423 423,"8201 South Tamiami Trail, Space A32",FL,34238
Jos A Bank,Denville,424,#424 424,"3056 State Route 10 West, Suite D",NJ,7834
Jos A Bank,Fredericksburg,425,#425 425,"1460 Central Park Boulevard, Suite 114",VA,22401-4925
Jos A Bank,High Point,426,#426 426,"1231 Eastchester Drive, Suite 101",NC,27265
Jos A Bank,Peoria,428,#428 428,"5201 West War Memorial Drive, Suite 315",IL,61615-9222
Jos A Bank,Fresno,429,#429 429,7983 North Blackstone Avenue,CA,93720-4310
Jos A Bank,Pensacola,430,#430 430,"5100 N. 9th Ave, Suite 540",FL,32504
Jos A Bank,Cary,432,#432 432,"1105 Walnut Street, Suite H-151",NC,27511-4702
Jos A Bank,Kansas City,434,#434 434,8632 N. Boardwalk Avenue,MO,64154-2539
Jos A Bank,Canton,435,#435 435,"95 Washington Street, Suite D12",MA,2021
Jos A Bank,Jacksonville Beach,436,#436 436,950 Marsh Landing Pkwy.,FL,32250
Jos A Bank,Youngstown,437,#437 437,"7401 Market Street, Suite 201",OH,44512
Jos A Bank,Glendale,438,#438 438,635 W. Silver Spring Drive,WI,53217-4922
Jos A Bank,North Wales,440,#440 440,"1460 Bethlehem Pike, Suite 330",PA,19454-1326
Jos A Bank,Chicago,441,#441 441,1847 North Clybourn Ave,IL,60614-4901
Jos A Bank,Maple Grove,442,#442 442,"12215 Elm Creek Boulevard, Suite B30",MN,55369-7092
Jos A Bank,Hingham,443,#443 443,94 Derby Street,MA,02043-4202
Jos A Bank,Frederick,444,#444 444,5259 Buckeystown Pike,MD,21704-7535
Jos A Bank,Washington,445,#445 445,555 11th St. Northwest,DC,20004-1300
Jos A Bank,Kingwood,446,#446 446,770 Kingwood Drive,TX,77339
Jos A Bank,Naperville,447,#447 447,"55 South Main Street, Suite 1-C",IL,60540-5314
Jos A Bank,Marietta,448,#448 448,"3625 Dallas Highway SW, Suite 600",GA,30064-1615
Jos A Bank,Mount Pleasant,449,#449 449,1241 Belk Drive,SC,29464-3397
Jos A Bank,Glenview,450,#450 450,2691 Navy Blvd.,IL,60025
Jos A Bank,San Antonio,452,#452 452,"255 East Basse Road., Suite 90",TX,78209
Jos A Bank,West Chester,454,#454 454,9438 Water Front Drive,OH,45069
Jos A Bank,Ormond Beach,455,#455 455,266 North Nova Road,FL,32174-5124
Jos A Bank,Destin,456,#456 456,"4106 Legendary Drive, Suite A102",FL,32541
Jos A Bank,Colorado Springs,457,#457 457,"1885 Briargate Parkway, Suite A367",CO,80920-7693
Jos A Bank,Davenport,458,#458 458,320 West Kimberly Road,IA,52806
Jos A Bank,Charlotte,459,#459 459,5431 Ballantyne Commons Pkwy.,NC,28277
Jos A Bank,Pasadena,461,#461 461,"345 S. Lake Avenue, Suite 104",CA,91101-5034
Jos A Bank,Bridgewater,462,#462 462,"746 US Highway 202 South, Suite 500",NJ,8807
Jos A Bank,Lyndhurst,463,#463 463,25291 Cedar Road,OH,44124
Jos A Bank,Alexandria,464,#464 464,728 South Washington Street,VA,22314
Jos A Bank,Wichita,465,#465 465,"1900 North Rock Road, Suite 110",KS,67206-1256
Jos A Bank,Mishawaka,466,#466 466,"6501 North Grape Road, Suite 568",IN,46545
Jos A Bank,Wilmington,467,#467 467,860 Inspiration Drive,NC,28405
Jos A Bank,Columbia,468,#468 468,2300 Bernadette Drive,MO,65203
Jos A Bank,Springfield,469,#469 469,"2825 South Glenstone Avenue, Suite F-20",MO,65804
Jos A Bank,Greenville,470,#470 470,518 Greenville Boulevard Southeast,NC,27858
Jos A Bank,La Jolla,471,#471 471,"7726 Girard Avenue, Suite 102",CA,92037-4422
Jos A Bank,Omaha,472,#472 472,"17101 Davenport Street, Suite 101",NE,68118
Jos A Bank,Hoboken,473,#473 473,119 River Street,NJ,7030
Jos A Bank,Hoover,474,#474 474,"4340 Creekside Avenue, Suite 110",AL,35244-5058
Jos A Bank,Henderson,475,#475 475,"2225 Village Walk Drive, Suite 187",NV,89052
Jos A Bank,Waco,477,#477 477,2436 West Loop 340,TX,76711-2405
Jos A Bank,Durham,478,#478 478,"8030 Renaissance Parkway, Suite 865",NC,27713-8256
Jos A Bank,Edison,480,#480 480,55 Parsonage Road,NJ,8837
Jos A Bank,College Station,481,#481 481,1501 University Dr. East,TX,77840
Jos A Bank,Middleton,482,#482 482,"1701 Deming Way, Suite 130",WI,53562
Jos A Bank,Carlsbad,483,#483 483,1923 Calle Barcelona,CA,92009-8457
Jos A Bank,Winston-Salem,484,#484 484,416 South Stratford Road,NC,27103
Jos A Bank,Myrtle Beach,485,#485 485,2000 Coastal Grand Circle,SC,29577
Jos A Bank,West Des Moines,486,#486 486,101 Jordan Creek Parkway,IA,50266
Jos A Bank,Hudson,489,#489 489,87 1st Street,OH,44236
Jos A Bank,Oklahoma City,490,#490 490,1901 NW Expressway,OK,73118
Jos A Bank,Millbury,491,#491 491,70 Worcester Providence Turnpike,MA,01527-2652
Jos A Bank,San Jose,492,#492 492,"925 Blossom Hill Road, Space Q3",CA,95123
Jos A Bank,Melbourne,493,#493 493,2271 Town Center Avenue,FL,32940
Jos A Bank,Algonquin,494,#494 494,2200 South Randall Road,IL,60102
Jos A Bank,Perrysburg,495,#495 495,3120 Levis Commons Boulevard,OH,43551
Jos A Bank,Harrisburg,496,#496 496,2621 Brindle Road,PA,17110-9786
Jos A Bank,Spanish Fort,497,#497 497,30500 State Highway 181,AL,36527
Jos A Bank,Bel Air,498,#498 498,2120 Blue Spruce Drive East,MD,21015
Jos A Bank,Gaithersburg,500,#500 500,201 Boardwalk Place,MD,20878
Jos A Bank,South Windsor,501,#501 501,100 Evergreen Way,CT,6074
Jos A Bank,Hanover,502,#502 502,7000 Arundel Mills Circle,MD,21076
Jos A Bank,Austin,503,#503 503,701 South Capital of Texas Highway,TX,78746-5224
Jos A Bank,Sugar Land,504,#504 504,16225 City Walk,TX,77479-6544
Jos A Bank,San Mateo,505,#505 505,208 East Third Avenue,CA,94401
Jos A Bank,Ft. Myers,506,#506 506,13499 US 41 SE,FL,33907
Jos A Bank,Carmel,508,#508 508,14390 Clay Terrace Boulevard,IN,46032
Jos A Bank,Corpus Christi,509,#509 509,411 Doddridge Street,TX,78411
Jos A Bank,Clearwater,510,#510 510,27001 US Highway 19 North,FL,33761
Jos A Bank,Lexington,511,#511 511,2300 Sir Barton Way,KY,40509
Jos A Bank,Columbus,512,#512 512,6301 Whiteville Road,GA,31904
Jos A Bank,Torrance,513,#513 513,2613 Pacific Coast Highway,CA,90505
Jos A Bank,Houston,514,#514 514,4081 Westheimer Road,TX,77027
Jos A Bank,Canton,515,#515 515,"110 Albany Turnpike, Suite 505",CT,6019
Jos A Bank,Winchester,517,#517 517,3031 Valley Avenue,VA,22601
Jos A Bank,Huntersville,518,#518 518,16710 Birkdale Commons Parkway,NC,28078
Jos A Bank,Plantation,521,#521 521,"801 South University Drive, Suite C-124",FL,33324
Jos A Bank,Champaign,523,#523 523,1749 West Kirby Avenue,IL,61821
Jos A Bank,New Canaan,524,#524 524,70 Main Street,CT,6840
Jos A Bank,Norman,525,#525 525,3720 West Robinson Street,OK,73072
Jos A Bank,Fort Wayne,527,#527 527,4210 West Jefferson Boulevard,IN,46804
Jos A Bank,Canton,528,#528 528,4131 Belden Village Mall,OH,44718
Jos A Bank,McAllen,529,#529 529,1700 South 10th Avenue,TX,78503
Jos A Bank,Scottsdale,532,#532 532,16459 N. Scottsdale Road,AZ,85254
Jos A Bank,Waldorf,533,#533 533,3084 Waldorf Market Place,MD,20603
Jos A Bank,Hunt Valley,534,#534 534,118 C Shawan Road,MD,21030
Jos A Bank,Shreveport,535,#535 535,6535 Youree Drive,LA,71105
Jos A Bank,Bowie,536,#536 536,15542 Emerald Way,MD,20716
Jos A Bank,Athens,537,#537 537,196 Alps Road,GA,30606
Jos A Bank,Southbury,538,#538 538,"775 Main Street, South",CT,6488
Jos A Bank,Normal,540,#540 540,"303 Veterans Parkway, Suite 115",IL,61761
Jos A Bank,North Andover,541,#541 541,"111 Turnpike Rd, Space #6",MA,1845
Jos A Bank,El Paso,542,#542 542,5860 North Mesa,TX,79912
Jos A Bank,Wheaton,545,#545 545,1 Town Square,IL,60187
Jos A Bank,Holland,546,#546 546,"12 W. 8th Street, Suite 100",MI,49423
Jos A Bank,Camp Hill,547,#547 547,"28 S. 32nd Street, Suite C & D",PA,17011
Jos A Bank,Springfield,548,#548 548,"965 Baltimore Pike, Store A-2",PA,19064
Jos A Bank,Waterford,549,#549 549,"915 Hartford Turnpike, Suite C5",CT,6385
Jos A Bank,Appleton,550,#550 550,4301 W. Wisconsin Ave.,WI,54913
Jos A Bank,Savannah,551,#551 551,"5525 Abercorn Street, Suite 30",GA,31405
Jos A Bank,Huntington Beach,552,#552 552,7881 Edinger Ave,CA,92647
Jos A Bank,Woodbury,553,#553 553,9020 Hudson Rd. Suite 416,MN,55125
Jos A Bank,Monroe,554,#554 554,1819 Avenue of America,LA,71201
Jos A Bank,Garland,556,#556 556,440 Coneflower Drive,TX,75040
Jos A Bank,Plainfield,557,#557 557,2539 Futura Parkway,IN,46168
Jos A Bank,St. Petersburg,558,#558 558,2444 Tyrone Blvd.,FL,33710
Jos A Bank,Collierville,559,#559 559,4610 Merchants Park Circle,TN,38017
Jos A Bank,Atlanta,560,#560 560,265 18th Street,GA,30363
Jos A Bank,Crestview Hills,563,#563 563,2804 Town Center Boulevard,KY,41017
Jos A Bank,Columbia,564,#564 564,481-7 Town Center Place,SC,29229
Jos A Bank,Boise,565,#565 565,380 South 8th Street,ID,83702
Jos A Bank,Auburn,567,#567 567,1627-29 Opelika Road,AL,36830
Jos A Bank,Spokane,569,#569 569,706 West Main Avenue,WA,99201
Jos A Bank,Mill Valley,570,#570 570,805 Strawberry Village,CA,94941
Jos A Bank,Palo Alto,571,#571 571,270 University Avenue,CA,94301
Jos A Bank,San Francisco,572,#572 572,390 Sutter Street,CA,94111
Jos A Bank,Loveland,573,#573 573,5957 Sky Pond Drive,CO,80538
Jos A Bank,Sioux City,574,#574 574,5001 Sergeant Road,IA,51106
Jos A Bank,Richmond,575,#575 575,11733 West Broad Street,VA,23233
Jos A Bank,York,576,#576 576,1726 - 28 South Queen Street,PA,17403
Jos A Bank,Lakeland,577,#577 577,1464 Town Center Drive,FL,33803
Jos A Bank,Horseheads,579,#579 579,3345 Chambers Road,NY,14845
Jos A Bank,Tucson,581,#581 581,7001 North Oracle Road,AZ,85704
Jos A Bank,State College,583,#583 583,19 Colonnade Way,PA,16803
Jos A Bank,Knoxville,584,#584 584,11325 Parkside Drive,TN,37922
Jos A Bank,Rock Hill,585,#585 585,305 Herlong Avenue,SC,29732
Jos A Bank,Easton,586,#586 586,218 North Washington Street,MD,21601
Jos A Bank,Evansville,587,#587 587,6401 East Lloyd Expressway,IN,47715
Jos A Bank,Reno,588,#588 588,13945 S. Virginia St.,NV,89511
Jos A Bank,Jonesboro,589,#589 589,3000 Highland Drive,AR,72401
Jos A Bank,Newport News,590,#590 590,11820 Merchants Walk,VA,23606
Jos A Bank,Wauwatosa,591,#591 591,"2500 Mayfair Road, Space 430",WI,53226
Jos A Bank,Los Gatos,592,#592 592,150 W. Main Street,CA,95030
Jos A Bank,Lubbock,593,#593 593,8201 Quaker Ave,TX,79424
Jos A Bank,Rocky Mount,595,#595 595,129 S. Winstead Ave.,NC,27804
Jos A Bank,Toledo,596,#596 596,5001 Monroe Street,OH,43623
Jos A Bank,Palm Beach Gardens,597,#597 597,11345 Legacy Avenue,FL,33410
Jos A Bank,West Lafayette,599,#599 599,500 Sagamore Parkway West,IN,47906
Jos A Bank,Altanta,612,#612 612,4500 Olde Perimeter Way,GA,30346
Jos A Bank,Eden Prairie,614,#614 614,"8251 Flying Cloud Drive, Suite 2030",MN,55344
Jos A Bank,Rocky River,615,#615 615,19358 Detroit Road,OH,44116
Jos A Bank,Texarkana,616,#616 616,4252-A Saint Michael Drive,TX,75503
Jos A Bank,Evanston,617,#617 617,1616 Sherman Ave,IL,60201
Jos A Bank,Rogers,618,#618 618,"2203 South 45th Street, Suite 9150",AR,72758
Jos A Bank,Snellville,619,#619 619,"1350 Scenic Highway, Suite 212",GA,30078
Jos A Bank,Brighton,620,#620 620,9760 Village Place Blvd,MI,48116
Jos A Bank,Charlotte,621,#621 621,"410 East McCullough Drive, Suite 130",NC,28262
Jos A Bank,Corona,622,#622 622,"2780 Cabot Drive, Suite 170",CA,92883
Jos A Bank,Chapel Hill,623,#623 623,"1800 East Franklin Street, Unit #8",NC,27514
Jos A Bank,Albuquerque,624,#624 624,"2201 Q Street, NE, Suite 9B",NM,87110
Jos A Bank,Park Ridge,625,#625 625,164 North Northwest Highway,IL,60068
Jos A Bank,Concord,626,#626 626,240 Loudon Road,NH,3301
Jos A Bank,Midland,627,#627 627,"2101 Wadley Avenue, Suite 7",TX,79705
Jos A Bank,Birmingham,629,#629 629,"5024 Pinnacle Square, Suite 104",AL,35235
Jos A Bank,Mobile,630,#630 630,"9 Du Rhu Drive, Suite 375",AL,36608
Jos A Bank,Little Rock,632,#632 632,"203 N. University Avenue, Suite 160",AR,72205
Jos A Bank,Aurora,633,#633 633,"6295 South Main Street, Suite 107",CO,80016
Jos A Bank,Center Valley,634,#634 634,"2880 Center Valley Parkway, Unit #620",PA,18034
Jos A Bank,Estero/Bonita Springs,635,#635 635,"23181 Fashion Drive, Suit 107",FL,33928
Jos A Bank,Pinehurst,636,#636 636,"244 Olmstead Boulevard, Suite A",NC,28374
Jos A Bank,Oak Brook,637,#637 637,"3041 Butterfield Road, Suite 110",IL,60523
Jos A Bank,Valdosta,638,#638 638,1830 A Norman Drive,GA,31601
Jos A Bank,Grosse Pointe,639,#639 639,17030 Kercheval Place,MI,48230
Jos A Bank,Orchard Park,640,#640 640,3995 North Buffalo Road,NY,14127
Jos A Bank,Chula Vista,641,#641 641,"2015 Birch Road, Suite 1803",CA,91915
Jos A Bank,Hickory,642,#642 642,3022-A North Center Street,NC,28601
Jos A Bank,Lakewood,643,#643 643,7278 West Alaska Drive,CO,80226
Jos A Bank,Lafayette,644,#644 644,"1900 Kaliste Saloom Road, Suite 200",LA,70508
Jos A Bank,Amarillo,645,#645 645,"3350 S. Soncy Road, Suite #108",TX,79121
Jos A Bank,Denver,648,#648 648,8216-1320 East 49th Avenue,CO,80238
Jos A Bank,Lincolnshire,649,#649 649,"970 Milwaukee Ave, Suite A",IL,60069
Jos A Bank,Needham,650,#650 650,"120 Highland Avenue, Suite 107",MA,2494
Jos A Bank,Cranberry Township,651,#651 651,"20418 Rt. 19, Suite 240",PA,16066
Jos A Bank,Katy,652,#652 652,"23501 Cinco Ranch Blvd., Space B#160",TX,77494
Jos A Bank,Fairview Heights,653,#653 653,"6540 North Illinois St, Suite 106",IL,62208
Jos A Bank,Vestal,654,#654 654,"1308 Vestal Parkway East, Suite 2",NY,13850
Jos A Bank,Old Bridge,655,#655 655,3805 United States Highway 9,NJ,8857
Jos A Bank,Moosic,656,#656 656,"2041 Shoppes Blvd, Suite 2041",PA,18507
Jos A Bank,Arlington,657,#657 657,"4000 Arlington Highlands Blvd, Suite 157",TX,76018
Jos A Bank,Holmdel,658,#658 658,"2111 Route 35, Unit #4",NJ,7733
Jos A Bank,Lafayette,659,#659 659,3599 Mount Diablo Blvd.,CA,94549
Jos A Bank,Bolingbrook,660,#660 660,"639 E. Boughton  Road, Suite 165",IL,60440
Jos A Bank,Burlington,661,#661 661,3160 Waltham Boulevard,NC,27215
Jos A Bank,Fernandina Beach,662,#662 662,1450 Sadler Road,FL,32034
Jos A Bank,Strongsville,663,#663 663,"500 Southpark Center, Suite HL-86",OH,44136
Jos A Bank,Papillion,664,#664 664,"7640 Towne Center Parkway, Suite 107",NE,68046
Jos A Bank,Chesapeake,665,#665 665,"725 Eden Way North, Suite 718",VA,23320
Jos A Bank,Boynton Beach,667,#667 667,"830 North Congress Avenue, I-20",FL,33426
Jos A Bank,Plymouth,668,#668 668,136 Colony Place,MA,2360
Jos A Bank,Milford,669,#669 669,"1648 Boston Post Road, Suite A-7",CT,6460
Jos A Bank,Dublin,670,#670 670,4385 W. Dublin-Granville Road,OH,43017
Jos A Bank,Orlando,671,#671 671,701 N. Alafaya Trail,FL,32828
Jos A Bank,Highland Village,672,#672 672,"3580 Justin Road, Suite 110",TX,75077
Jos A Bank,Seal Beach,673,#673 673,12221 Seal Beach Blvd.,CA,90740
Jos A Bank,Framingham,674,#674 674,60 Worcester Rd.,MA,1702
Jos A Bank,Winter Garden,675,#675 675,"3279 Daniels Road, Suite  P-102",FL,34787
Jos A Bank,Murfreesboro,676,#676 676,"2615 Medical Center Pkwy,. Suite 2090",TN,37129
Jos A Bank,San Antonio,677,#677 677,"22802 US Hwy 281 North, Suite 101",TX,78258
Jos A Bank,Warrington,678,#678 678,"1525 Main Street, Building #4, Suite 402",PA,18976
Jos A Bank,North Brunswick,679,#679 679,752 Shoppes Blvd.,NJ,8902
Jos A Bank,Tuscaloosa,680,#680 680,"1800 Mcfarland Blvd. East, Suite #108",AL,35404
Jos A Bank,Reading,681,#681 681,"774 Woodland Rd., Suite F",PA,19610
Jos A Bank,Rockford,682,#682 682,"7180 Harrison Ave, Suite 2",IL,61112
Jos A Bank,Hollywood,683,#683 683,300 SW 145th Terrace,FL,33027
Jos A Bank,St. Simons Island,684,#684 684,600 Sea Island Rd. Suite 19,GA,31522
Jos A Bank,Bee Cave,685,#685 685,12901 Hill Country Blvd. Suite D1-115,TX,78738
Jos A Bank,Mansfield,686,#686 686,"280 School Street, Suite D120",MA,2048
Jos A Bank,Gilbert,687,#687 687,"2162 E. Williams Field Rd., Bldg. 10 Space 109",AZ,85296
Jos A Bank,Newnan,689,#689 689,376 Newnan Crossing Bypass,GA,30265
Jos A Bank,Greenwood,690,#690 690,"1251 US 31 North, Suite P120",IN,46142
Jos A Bank,Portage,691,#691 691,"6800 South Westnedge Ave., Suite J",MI,49002
Jos A Bank,Burr Ridge,692,#692 692,460 Village Center Drive,IL,60527
Jos A Bank,Cherry Hill,693,#693 693,"957 Haddonfield Rd., Suite F",NJ,8002
Jos A Bank,Schaumburg,694,#694 694,"601 N. Martingale Rd., Suite 340",IL,60173
Jos A Bank,Dallas,695,#695 695,4234 Oak Lawn Avenue,TX,75219
Jos A Bank,Macomb,696,#696 696,"18341 Hall Road, Suite 10E",MI,48044
Jos A Bank,El Segundo,697,#697 697,740-A Allied Way,CA,90245
Jos A Bank,Mesa,698,#698 698,"1652 South Val Vista Drive, Suite 103",AZ,85204
Jos A Bank,Riverside,699,#699 699,"3639 Riverside Plaza Drive, Suite 518",CA,92506
Jos A Bank,Hendersonville,751,#751 751,"300 Indian Lake Blvd., Suite 160",TN,37075
Jos A Bank,Ocala,752,#752 752,"4414 SW College Rd., Suite 440",FL,34474
Jos A Bank,Macon,753,#753 753,"5080 Riverside Drive, Suite 438",GA,31210
Jos A Bank,Allen,754,#754 754,980 Village Green Drive,TX,75013
Jos A Bank,Cumming,755,#755 755,"410 Peachtree Pkwy., Suite 370",GA,30041
Jos A Bank,Cedar Hill,757,#757 757,"305 West FM 1382, Suite 106",TX,75104
Jos A Bank,Newport,758,#758 758,21 Longwharf Mall N.,RI,2840
Jos A Bank,Panama City Beach,759,#759 759,"15611 Starfish St., Suite 105",FL,32413
Jos A Bank,Noblesville,760,#760 760,"13110 Harrell Pkwy, Suite 200",IN,46060
Jos A Bank,Houston,761,#761 761,770 W. Sam Houston Parkway N.,TX,77024
Jos A Bank,Chino Hills,762,#762 762,"13925 City Center Drive, Suite 2020",CA,91709
Jos A Bank,Roseville,763,#763 763,"1198 Roseville Pkwy, Suite 100",CA,95678
Jos A Bank,The Villages,764,#764 764,1095 Canal Street,FL,32162
Jos A Bank,Chester,765,#765 765,270 U.S. 206 South,NJ,7930
Jos A Bank,Austin,766,#766 766,320 Congress Avenue,TX,78701
Jos A Bank,Newport Beach,767,#767 767,1342 Bison Ave,CA,92660
Jos A Bank,Pearland,768,#768 768,"11200 Broadway, Suite 640",TX,77584
Jos A Bank,Langhorne,769,#769 769,104 N. Flowers Mills Rd.,PA,19047
Jos A Bank,National Harbor,770,#770 770,168 Waterfront Street,MD,20745
Jos A Bank,Phoenix,771,#771 771,2450 West Happy Valley Road,AZ,85085
Jos A Bank,Longmeadow,772,#772 772,724 Bliss Rd.,MA,1106
Jos A Bank,Mt. Laurel,773,#773 773,16 Centerton Rd.,NJ,8054
Jos A Bank,Plymouth Meeting,774,#774 774,"504 Germantown Pike, Suite 1510",PA,19462
Jos A Bank,Lake Saint Louis,775,#775 775,"11 Meadows Circle Drive, Suite 426",MO,63367
Jos A Bank,North Dallas,776,#776 776,"5301 Alpha Rd., Suite 32",TX,75240
Jos A Bank,Flemington,777,#777 777,"100 Reaville Avenue, Suite 226",NJ,8822
Jos A Bank,South Barrington,778,#778 778,"100 W. Higgins Rd., Suite Q-35",IL,60010
Jos A Bank,Blacksburg,779,#779 779,"1520 South Main Street, Suite 108",VA,24060
Jos A Bank,Brentwood,780,#780 780,"2455 Sand Creek Road, Suite 144",CA,94513
Jos A Bank,Monroeville,781,#781 781,704 Mall Circle Drive,PA,15146
Jos A Bank,Saratoga Springs,782,#782 782,"358 Broadway, Suite 102",NY,12866
Jos A Bank,Westlake Village,783,#783 783,"111 S. Westlake Blvd., Suite 110",CA,91362
Jos A Bank,Fairfield,784,#784 784,1189 Post Road,CT,6824
Jos A Bank,San Antonio,785,#785 785,"15900 La Cantera Parkway, Space 3350",TX,78256
Jos A Bank,Coconut Creek,786,#786 786,"4467 Lyons Rd., Suite H1-101",FL,33073
Jos A Bank,Naples,787,#787 787,9105 Strada Place,FL,34108
Jos A Bank,Clifton,788,#788 788,"852 Rt. 3, Suite 238",NJ,7012
Jos A Bank,Swampscott,789,#789 789,"450 Paradise Road, Suite B-11",MA,1907
Jos A Bank,Wesley Chapel,790,#790 790,"28330 Paseo Drive, Bldg. 6 Unit 130",FL,33544
Jos A Bank,Sicklerville,791,#791 791,"611 Cross Keys Rd., Suite B-214",NJ,8081
Jos A Bank,Hamilton,792,#792 792,"553 Rt. 130, Suite 323",NJ,8691
Jos A Bank,Frisco,794,#794 794,"8549 Gaylord Parkway, Suite 107",TX,75034
Jos A Bank,Tupelo,795,#795 795,"1001 Barnes Crossing Road, Suite 202",MS,38804
Jos A Bank,Wellesley,797,#797 797,"Linden Square, 165-B2 Linden Street",MA,2482
Jos A Bank,Cos Cob,798,#798 798,"Cos Cob Plaza, 409 East Putnam Avenue",CT,6807
Jos A Bank,Tallahassee,799,#799 799,"Market Plaza, 1350 Market Street, Suite 109",FL,32312
Jos A Bank,Mason,817,#817 817,"Deerfield Towne Center,5355 Deerfield Blvd.",OH,45040
Jos A Bank,Westlake,818,#818 818,"Crocker Park, 28 Main Street",OH,44145
Jos A Bank,Sea Girt,819,#819 819,2145 New Jersey State Route 35,NJ,8750
Jos A Bank,Huntsville,821,#821 821,"300 The Bridge Street NW, Suite 124",AL,35806
Jos A Bank,Darien,822,#822 822,"Darien Playhouse, 1077 Boston Post Road",CT,6820
Jos A Bank,Chevy Chase,823,#823 823,8551 Connecticut Avenue,MD,20815
Jos A Bank,Orlando,824,#824 824,"7940 Via Dellagio Way, Suite 106",FL,32819
Jos A Bank,Gainesville,825,#825 825,7337 Atlas Walkway,VA,20155
Jos A Bank,Johnson City,826,#826 826,2521 North Roan Street,TN,37601
Jos A Bank,Lees Summit,827,#827 827,910-G NW Blue Parkway,MO,64086
Jos A Bank,Midlothian,828,#828 828,13720 Midlothian Turnpike,VA,23113
Jos A Bank,Woodbridge,829,#829 829,"14901 Potomac Town Place, Suite 155",VA,22191
Jos A Bank,Los Angeles,830,#830 830,"10250 Santa Monica Blvd., Suite 470",CA,90067
Jos A Bank,Wayne,831,#831 831,"1400 Willowbrook Blvd., Space 1685",NJ,7470
Jos A Bank,Fort Worth,832,#832 832,9540 Sage Meadow Trail,TX,76177
Jos A Bank,Bellingham,833,#833 833,253 E. Hartford Avenue,MA,2019
Jos A Bank,Hattiesburg,834,#834 834,"6156 Highway 98 W, Suite 7",MS,39402
Jos A Bank,Charlotte,835,#835 835,"9852 Rea Road, Suite A-1",NC,28277
Jos A Bank,Dothan,836,#836 836,"4825 Montgomery Highway, Suite 104",AL,36303
Jos A Bank,Mashpee,837,#837 837,21 Steeple St,MA,2649
Jos A Bank,Upper Arlington,838,#838 838,"1700 West Lane Avenue, Suite 106",OH,43221
Jos A Bank,Lynchburg,839,#839 839,4925 Boonsboro Road,VA,24503
Jos A Bank,Nashua,840,#840 840,"8 Spit Brook Road, Suite 7B",NH,3060
Jos A Bank,Morgantown,842,#842 842,1050 Suncrest Town Centre,WV,26505
Jos A Bank,Birmingham,844,#844 844,"201 Summit Blvd., Suite 200",AL,35243
Jos A Bank,Jackson,846,#846 846,1141 Vann Drive,TN,38305
Jos A Bank,Washington,847,#847 847,1401 I Street NW,DC,20005
Jos A Bank,Westminster,849,#849 849,"405 North Center Street, Space #28",MD,21157
Jos A Bank,St Louis Park,856,#856 856,1615 West End Blvd.,MN,55416
Jos A Bank,Beaumont,857,#857 857,"3195 Dowlen Rd., Suite 104",TX,77706
Jos A Bank,Buford Drive,858,#858 858,"3420 Buford Drive, Suite C570",GA,30519
Jos A Bank,Gastonia,859,#859 859,"411 Cox Rd., Suite 150",NC,28054
Jos A Bank,Clifton Park,860,#860 860,"22 Clifton Country Road, Suite 34",NY,12065
Jos A Bank,Des Peres,861,#861 861,"12360 Manchester Rd., Suite 200",MO,63131
Jos A Bank,Willow Grove,862,#862 862,"2500 Moreland Rd., Suite 2107",PA,19090
Jos A Bank,Bellevue,864,#864 864,929 Bellevue Way N.E.,WA,98004
Jos A Bank,Pittsburgh,865,#865 865,230 Fifth Avenue,PA,15222
Jos A Bank,Tukwila,866,#866 866,321 Strander Blvd.,WA,98188
Jos A Bank,Coral Gables,867,#867 867,336 Miracle Mile,FL,33134
Jos A Bank,Chandler,868,#868 868,"7131 West Ray Rd., Suite 20",AZ,85226
Jos A Bank,Oxford,869,#869 869,"1501 Jackson Avenue West, Suite 105",MS,38655
Jos A Bank,Bowling Green,870,#870 870,"2020 Scottsville Road, Suite 5",KY,42104
Jos A Bank,Houston,873,#873 873,2539 University Blvd,TX,77005
Jos A Bank,Irving,874,#874 874,"861 West John Carpenter Parkway, Suite B",TX,75039
Jos A Bank,Ann Arbor,875,#875 875,3783 Washtenaw Avenue,MI,48104
Jos A Bank,Northborough,876,#876 876,8116 Shops Way,MA,1532
Jos A Bank,Glendale,877,#877 877,"20028 North 67th Ave., Suite 208",AZ,85308
Jos A Bank,Kennesaw,878,#878 878,"400 Barrett Parkway, Suite 224",GA,30144
Jos A Bank,Gadsden,879,#879 879,"1001 Rainbow Drive, Suite 37",AL,35901
Jos A Bank,Rockwall,881,#881 881,1001 Interstate 30,TX,75087
Jos A Bank,Fairfax,882,#882 882,11884 Grand Commons Avenue,VA,22030
Jos A Bank,Acton,883,#883 883,145 Great Rd.,MA,1720
Jos A Bank,Newark,885,#885 885,1235 Churchman's Road,DE,19713
Jos A Bank,Olney,886,#886 886,3130 Olney Sandy Spring Rd.,MD,20832
Jos A Bank,Atlanta,887,#887 887,"201 Peachtree Street NE, Suite 100",GA,30303
Jos A Bank,Tyler,888,#888 888,5779 South Broadway Ave.,TX,75703
Jos A Bank,Prairie Village,889,#889 889,3925 West 69th Terrace,KS,66208
Jos A Bank,West Bloomfield,890,#890 890,6645 Orchard Lake Rd.,MI,48322
Jos A Bank,Miami,891,#891 891,"13623 South Dixie Highway, Suite 145A",FL,33176
Jos A Bank,Gurnee,892,#892 892,"7055 W. Grand Ave, Suite 4A",IL,60031
Jos A Bank,Omaha,894,#894 894,10357 Pacific Street,NE,68114
Jos A Bank,New Bern,895,#895 895,2067 South Glenburnie Rd.,NC,28562
Jos A Bank,Lake Mary,897,#897 897,"1120 Townpark Ave., Suite 1042",FL,32746
Jos A Bank,Hixson,899,#899 899,"5591 Highway 153, Suite 136",TN,37343
Jos A Bank,Columbia,902,#902 902,"Trenholm Plaza, 4840 Forest Drive, Space 12-C",SC,29206
Jos A Bank,Columbia,904,#904 904,201 Harbison Blvd.,SC,29212
Jos A Bank,Mandeville,905,#905 905,"2735 Highway 190, Space 120",LA,70471
Jos A Bank,Glendale,931,#931 931,"100 N. Brand Blvd., Suite 101",CA,91203
Jos A Bank,Costa Mesa,935,#935 935,"901 S. Coast Drive, Suite 140K",CA,92626
Jos A Bank,Washington,936,#936 936,1815 Wisconsin Avenue NW,DC,20007
Jos A Bank,Leesburg,937,#937 937,617 Potomac Station Drive NE,VA,20176
Jos A Bank,Raleigh,938,#938 938,"4601 Creedmoor Rd., Suite 107",NC,27612
Jos A Bank,Bedford,939,#939 939,"85 South River Rd, Suite 4",NH,3110
Jos A Bank,Dedham,940,#940 940,880 Providence Highway,MA,2026
Jos A Bank,Mission Viejo,941,#941 941,28331 Marguerite Parkway,CA,92692
Jos A Bank,Kennett Square,942,#942 942,"865-871 East Baltimore Pike, Suites T1-T4",PA,19348
Jos A Bank,Atlanta,945,#945 945,Suite C-190,GA,30329
Jos A Bank,Tustin,946,#946 946,2885 El Camino Real,CA,92782
Jos A Bank,Gambrills,947,#947 947,"1407 S. Main Chapel Way, Suite 103",MD,21054
Jos A Bank,Salem,948,#948 948,125 S. Broadway,NH,3079
Jos A Bank,Tulsa,949,#949 949,"8247 East 71st Street South, Suite B",OK,74133
Jos A Bank,Collegeville,950,#950 950,"171 Market Street, Suite 1",PA,19426
Jos A Bank,Braintree,951,#951 951,30 Forbes Road,MA,2184
Jos A Bank,Tampa,953,#953 953,12897 Citrus Plaza Drive,FL,33625
Jos A Bank,San Francisco,954,#954 954,601 Market Street,CA,94105
Jos A Bank,Delray Beach,955,#955 955,"9089 West Atlantic Ave., Suite 112",FL,33446
Jos A Bank,Gillette,956,#956 956,977 Valley Rd.,NJ,7933
Jos A Bank,Paoli,957,#957 957,"82 E. Lancaster Ave., Suite 1B",PA,19301
Jos A Bank,Huntington,958,#958 958,"26 Pullman Square, Suite 209",WV,25701
Jos A Bank,Chagrin Falls,960,#960 960,21 North Franklin Street,OH,44022
Jos A Bank,Meridian,961,#961 961,"2847 N. Eagle Rd., Suite 120",ID,83646
Jos A Bank,Miami,962,#962 962,"3201 N. Miami Avenue, Suite 114",FL,33127
Jos A Bank,Peabody,963,#963 963,240 Andover Street,MA,1960
Jos A Bank,Holly Springs,964,#964 964,136 Grand Hill Place,NC,27540
Jos A Bank,St. Louis,966,#966 966,"1155 Saint Louis Galleria, Suite 1141",MO,63117
Jos A Bank,Summerville,967,#967 967,"210 Azalea Square Boulevard, Suite C",SC,29483
Jos A Bank,Conroe,968,#968 968,"3211 Interstate 45 North, Suite 200",TX,77304
Jos A Bank,Palm Desert,969,#969 969,"73-300 El Paseo Drive, Suite # D and E",CA,92260
Jos A Bank,Summit,50,#50 50,447 Springfield Avenue,NJ,7901
Jos A Bank,Stafford,88,#88 88,12794 Fountain Lake Circle,TX,77477
Jos A Bank,Jackson,94,#94 94,4870  I-55 North,MS,39211
Jos A Bank,Green Bay,238,#238 238,2385 Holmgren Way,WI,54304
Jos A Bank,Chesterfield,252,#252 252,"18527 Outlet Blvd., Suite 721",MO,63005
Jos A Bank,Pleasant Prairie,253,#253 253,"11601 108th St., Space 595",WI,53158
Jos A Bank,St. Augustine,254,#254 254,"2700 State Road 16, Suite 607",FL,32092
Jos A Bank,Rehoboth Beach,255,#255 255,"35016 Midway Outlet Drive, Suite 327",DE,19971
Jos A Bank,Michigan City,256,#256 256,113 Lighthouse Place,IN,46360
Jos A Bank,Hilton Head,488,#488 488,"36 Shelter Cove Lane, Suite 171",SC,29928
Jos A Bank,Norcross,646,#646 646,"5185 Peachtree Parkway, Suite 103",GA,30092
Jos A Bank,Mt. Kisco,841,#841 841,36 E. Main Street,NY,10549
Jos A Bank,Manhasset,855,#855 855,1516 Northern Boulevard,NY,11030
Jos A Bank,Florence,871,#871 871,117 North Court Street,AL,35630
Jos A Bank,Indianapolis,880,#880 880,"10 East Washington Street, Suite 100",IN,46204
Jos A Bank,Dallas,884,#884 884,6316 E. Mockingbird Lane,TX,75214
Jos A Bank,Lake Forest,893,#893 893,240 E. Deerpath Rd.,IL,60045
Jos A Bank,Portland,896,#896 896,9611 SW Washington Square Rd.,OR,97223
Jos A Bank,Jacksonville,932,#932 932,"4720 Town Crosssing Drive, Suite 137",FL,32246
Jos A Bank,Lynnfield,970,#970 970,320 Market Street,MA,1940
Jos A Bank,Issaquah,971,#971 971,1464 Highland Drive NE,WA,98029
Jos A Bank,Lake Charles,972,#972 972,"496 W. Prien Lake Rd., Space H03",LA,70601
Jos A Bank,San Antonio,973,#973 973,"11075 I-10, Suite 302",TX,78230
Jos A Bank,Nanuet,974,#974 974,8137 Fashion Drive,NY,10954
Jos A Bank,Tucson,975,#975 975,"5350 East Broadway Blvd., Suite 144",AZ,85712
Jos A Bank,Hamilton,976,#976 976,"3335 Princeton Rd., Suite 107",OH,45011
Jos A Bank,Vero Beach,977,#977 977,2035 Indian River Blvd.,FL,32960
Jos A Bank,Warrenton,978,#978 978,476 Fletcher Drive,VA,20186
Jos A Bank,Wayland,979,#979 979,31 Andrew Ave.,MA,1778
Jos A Bank,Greenwood Village,980,#980 980,"8000 East Belleview Avenue, Suite D-30",CO,80111
Jos A Bank,Lincoln,981,#981 981,"6005 East O Street, Suite H",NE,68505
Jos A Bank,Providence,982,#982 982,"146 Westminster Street, 1st Floor",RI,2903
