keywords,city,Aggdata Store Number,store_number,address,state,zip_code
Kmart,Traverse City,3009,3009 03009 #3009,1712 S Garfield Ave,MI,49686
Kmart,CLEVELAND,3013,3013 03013 #3013,7701 Broadview Road,OH,44131
Kmart,Bossier City,3016,3016 03016 #3016,3045 E Texas St,LA,71111
Kmart,Valencia,3018,3018 03018 #3018,23222 W Valencia Blv,CA,91355
Kmart,Auburn,3021,3021 03021 #3021,603 Center St,ME,4210
Kmart,Bristol,3022,3022 03022 #3022,2854 West State Stre,TN,37620
Kmart,Clementon,3027,3027 03027 #3027,1468 Clementon Rd St,NJ,8021
Kmart,Feasterville,3028,3028 03028 #3028,176 W Street Road,PA,19053
Kmart,Erlanger,3029,3029 03029 #3029,3071 Dixie Hwy,KY,41017
Kmart,Blaine,3031,3031 03031 #3031,8949 University Ave,MN,55434
Kmart,Fairborn,3033,3033 03033 #3033,224E Dayton Yellow SPR RD,OH,45324
Kmart,Hyannis,3040,3040 03040 #3040,768 Iyannough Rd,MA,2601
Kmart,Aurora,3043,3043 03043 #3043,15200 E Colfax Ave,CO,80011
Kmart,Lawton,3044,3044 03044 #3044,1050 Nw 38Th St,OK,73505
Kmart,Scranton,3047,3047 03047 #3047,1011 Scranton Carbon,PA,18508
Kmart,Brick,3050,3050 03050 #3050,1930 State Hwy 88,NJ,8724
Kmart,Wayne,3056,3056 03056 #3056,1020 Hamburg Turnpik,NJ,7470
Kmart,Louisville,3057,3057 03057 #3057,4025 Poplar Level Rd,KY,40213
Kmart,SAINT PAUL,3059,3059 03059 #3059,245 E Maryland Ave,MN,55117
Kmart,Mantua,3060,3060 03060 #3060,222 Bridgeton Pike,NJ,8051
Kmart,Tampa,3061,3061 03061 #3061,2915 N Dale Mabry Hw,FL,33607
Kmart,Sand Springs,3067,3067 03067 #3067,1200 E Charles Page,OK,74063
Kmart,Toms River,3071,3071 03071 #3071,213 Highway 37 E,NJ,8753
Kmart,Missoula,3072,3072 03072 #3072,3626 Brooks St,MT,59801
Kmart,Miami,3074,3074 03074 #3074,14091 Sw 88Th St,FL,33186
Kmart,Spring Valley,3076,3076 03076 #3076,935 Sweetwater Road,CA,91977
Kmart,Charleston,3080,3080 03080 #3080,1535 Savannah Highwa,SC,29407
Kmart,Dothan,3082,3082 03082 #3082,2185 Reeves Street,AL,36303
Kmart,Fort Oglethorpe,3083,3083 03083 #3083,526 Battlefield Pkwy,GA,30742
Kmart,Nashville,3084,3084 03084 #3084,530 Donelson Pike,TN,37214
Kmart,Woods Cross,3085,3085 03085 #3085,680 West 2600 South,UT,84087
Kmart,Chico,3086,3086 03086 #3086,2155 Pillsbury Rd,CA,95926
Kmart,Kenosha,3088,3088 03088 #3088,4100 52Nd St,WI,53144
Kmart,Cromwell,3093,3093 03093 #3093,45 Shunpike Rd,CT,6416
Kmart,Great Falls,3094,3094 03094 #3094,1000 3Rd Street Nw,MT,59404
Kmart,North Las Vegas,3095,3095 03095 #3095,2671 Las Vegas Blvd,NV,89030
Kmart,Council Bluffs,3097,3097 03097 #3097,2803 East Kanesville,IA,51503
Kmart,Paducah,3103,3103 03103 #3103,2440 Lone Oak Road,KY,42003
Kmart,Riverside,3106,3106 03106 #3106,7200 Arlington Ave,CA,92503
Kmart,Englewood,3111,3111 03111 #3111,360 W National Rd,OH,45322
Kmart,De Witt,3115,3115 03115 #3115,3469 Erie Blvd East,NY,13214
Kmart,Wilmington,3116,3116 03116 #3116,815 S College Rd,NC,28403
Kmart,Willow Grove,3117,3117 03117 #3117,2620 Moreland Rd.,PA,19090
Kmart,Little Rock,3120,3120 03120 #3120,10901 Rodney Parham,AR,72212
Kmart,Newport News,3122,3122 03122 #3122,401 Oriana Road,VA,23608
Kmart,Corona,3124,3124 03124 #3124,705 N Main St,CA,92880
Kmart,Shelby Township,3126,3126 03126 #3126,7601 23 Mile Rd,MI,48316
Kmart,Temple City,3127,3127 03127 #3127,5665 N Rosemead Blvd,CA,91780
Kmart,Enid,3128,3128 03128 #3128,4010 West Owen Garri,OK,73703
Kmart,Rensselaer,3129,3129 03129 #3129,164 Columbia Turnpik,NY,12144
Kmart,Redding,3130,3130 03130 #3130,2685 Hilltop Drive,CA,96002
Kmart,Frederick,3131,3131 03131 #3131,1003 W Patrick St,MD,21702
Kmart,Bellingham,3133,3133 03133 #3133,1001 E Sunset Drive,WA,98226
Kmart,Shillington,3136,3136 03136 #3136,1 Parkside Ave,PA,19607
Kmart,Granite City,3137,3137 03137 #3137,3655 Nameoki Rd,IL,62040
Kmart,Milford,3138,3138 03138 #3138,124 Medway Rd,MA,1757
Kmart,Clearwater,3140,3140 03140 #3140,26996 U S Hwy 19 Nor,FL,33761
Kmart,Bridgeville,3141,3141 03141 #3141,1025 Washington Pike,PA,15017
Kmart,Tallmadge,3142,3142 03142 #3142,555 South Ave,OH,44278
Kmart,Jackson,3143,3143 03143 #3143,732 Old Hickory Blvd,TN,38305
Kmart,Naples,3144,3144 03144 #3144,4383 N Tamiami Trail,FL,34103
Kmart,Baltimore,3146,3146 03146 #3146,222 N Point Blvd,MD,21224
Kmart,Kingsport,3147,3147 03147 #3147,1805 E Stone Dr,TN,37660
Kmart,El Centro,3151,3151 03151 #3151,1950 North Imperial,CA,92243
Kmart,Hampton,3154,3154 03154 #3154,210 W Mercury Blvd,VA,23669
Kmart,Belleville,3155,3155 03155 #3155,2095 Rawsonville Rd,MI,48111
Kmart,Dover,3158,3158 03158 #3158,515 North Dupont Hwy,DE,19901
Kmart,Crofton,3160,3160 03160 #3160,1647 Crofton Centre,MD,21114
Kmart,Yuba City,3162,3162 03162 #3162,850 Gray Ave,CA,95991
Kmart,Lake Park,3164,3164 03164 #3164,1220 Northlake Blvd,FL,33403
Kmart,Baltimore,3167,3167 03167 #3167,5760 Wabash Ave,MD,21215
Kmart,Diamond Bar,3169,3169 03169 #3169,249 S Diamond Bar Bl,CA,91765
Kmart,Zanesville,3170,3170 03170 #3170,3515 N Maple Ave,OH,43701
Kmart,Hagerstown,3172,3172 03172 #3172,1713 Massey Blvd,MD,21740
Kmart,Stockton,3174,3174 03174 #3174,2180 E Mariposa Rd,CA,95205
Kmart,Hooksett,3175,3175 03175 #3175,1267 Hooksett Rd,NH,3106
Kmart,ORLANDO,3179,3179 03179 #3179,7825 S Orange Blosso,FL,32809
Kmart,Merrillville,3180,3180 03180 #3180,101 West Lincoln,IN,46410
Kmart,Hales Corners,3182,3182 03182 #3182,5600 S 108Th St,WI,53130
Kmart,Hutchinson,3184,3184 03184 #3184,1320 East Thirtieth,KS,67502
Kmart,Langhorne,3187,3187 03187 #3187,1776 East Lincoln Hw,PA,19047
Kmart,Mesa,3188,3188 03188 #3188,2840 E Main St,AZ,85213
Kmart,Nampa,3189,3189 03189 #3189,1813 Caldwell Blvd,ID,83651
Kmart,Tuscaloosa,3194,3194 03194 #3194,"635 Skyl, Blvd",AL,35405
Kmart,Pottstown,3196,3196 03196 #3196,2200 East High St,PA,19464
Kmart,SAINT ALBANS,3198,3198 03198 #3198,1477 Maccorkle Avenu,WV,25177
Kmart,Staten Island,3201,3201 03201 #3201,2660 Hylan Boulevard,NY,10306
Kmart,Westwood,3202,3202 03202 #3202,700 Broadway,NJ,7675
Kmart,Richmond,3206,3206 03206 #3206,4715 Nine Mile Rd,VA,23223
Kmart,Farmington Hills,3207,3207 03207 #3207,30800 Orchard Lake R,MI,48334
Kmart,Albany,3209,3209 03209 #3209,3100 Pacific Blvd S,OR,97321
Kmart,Klamath Falls,3214,3214 03214 #3214,1776 Avalon St,OR,97603
Kmart,Vernon,3216,3216 03216 #3216,295 Hartford Turnpik,CT,6066
Kmart,Parkersburg,3218,3218 03218 #3218,1050 Division St,WV,26101
Kmart,Albany,3219,3219 03219 #3219,2525 Dawson Rd,GA,31707
Kmart,Vienna,3220,3220 03220 #3220,"800 Gr, Central Av",WV,26105
Kmart,Vineland,3222,3222 03222 #3222,3850 S Delsea Dr,NJ,8360
Kmart,Fort Walton Beach,3223,3223 03223 #3223,200 Irwin Ne,FL,32548
Kmart,Chambersburg,3225,3225 03225 #3225,1005 Wayne Ave,PA,17201
Kmart,Phoenix,3228,3228 03228 #3228,2526 W Northern Aven,AZ,85051
Kmart,Baltimore,3229,3229 03229 #3229,5100 Sinclair Lane,MD,21206
Kmart,Owensboro,3230,3230 03230 #3230,2760 Frederica Stree,KY,42301
Kmart,Exton,3232,3232 03232 #3232,175 N Pottstown,PA,19341
Kmart,Rockford,3233,3233 03233 #3233,1321 Sandy Hollow Rd,IL,61109
Kmart,WESTLAKE,3234,3234 03234 #3234,30010 Detroit Rd,OH,44145
Kmart,West Covina,3235,3235 03235 #3235,730 South Orange,CA,91790
Kmart,Salisbury,3237,3237 03237 #3237,301 Tilghman Road,MD,21804
Kmart,Tulsa,3238,3238 03238 #3238,3132 East 51St St,OK,74105
Kmart,Kansas City,3239,3239 03239 #3239,7100 Nw Prairie View Rd,MO,64151
Kmart,Springfield,3241,3241 03241 #3241,2500 W Wabash,IL,62704
Kmart,North Canton,3243,3243 03243 #3243,1447 N Main St,OH,44720
Kmart,Berlin,3244,3244 03244 #3244,328 S White Horse Pike,NJ,8009
Kmart,Indianapolis,3251,3251 03251 #3251,6780 W Washington St,IN,46241
Kmart,Fort Wayne,3254,3254 03254 #3254,820 Coliseum Blvd N,IN,46805
Kmart,Baltimore,3256,3256 03256 #3256,8980 Waltham Woods R,MD,21234
Kmart,Greenwood,3260,3260 03260 #3260,860 US 31 South,IN,46143
Kmart,Moosic,3264,3264 03264 #3264,3382 Birney Plaza,PA,18507
Kmart,Kingston,3266,3266 03266 #3266,18 Mark Plaza,PA,18704
Kmart,Wilkes Barre,3268,3268 03268 #3268,910 Wilkes Barre Twp,PA,18702
Kmart,Lantana,3269,3269 03269 #3269,1201 S Dixie,FL,33462
Kmart,San Leandro,3276,3276 03276 #3276,250 Floresta Blvd,CA,94578
Kmart,Pasadena,3277,3277 03277 #3277,8036 Ritchie Highway,MD,21122
Kmart,GARFIELD HEIGHTS,3278,3278 03278 #3278,12501 Rockside,OH,44125
Kmart,Burton,3279,3279 03279 #3279,G 1145 N Belsay Rd,MI,48509
Kmart,Rochester,3282,3282 03282 #3282,810 Paul Rd,NY,14624
Kmart,Brunswick,3286,3286 03286 #3286,3301 Center Rd,OH,44212
Kmart,ROCK ISLAND,3287,3287 03287 #3287,3840 46Th Ave,IL,61201
Kmart,Billerica,3288,3288 03288 #3288,484 Boston Rd,MA,1821
Kmart,Warner Robins,3289,3289 03289 #3289,2063 Watson Blvd,GA,31093
Kmart,Rochester,3295,3295 03295 #3295,3049 W Ridge Rd,NY,14626
Kmart,Boise,3298,3298 03298 #3298,10477 Fairview Ave,ID,83704
Kmart,Santa Fe,3301,3301 03301 #3301,1712 St Michael'S Dr,NM,87505
Kmart,Toledo,3302,3302 03302 #3302,1801 W Alexis Rd,OH,43613
Kmart,Lake Orion,3308,3308 03308 #3308,1025 Lapeer Road Sou,MI,48360
Kmart,Boca Raton,3317,3317 03317 #3317,1401 W Palmetto Park,FL,33486
Kmart,Weirton,3318,3318 03318 #3318,250 Three Springs Dr,WV,26062
Kmart,Houma,3320,3320 03320 #3320,133 Monarch Drive,LA,70364
Kmart,Roanoke,3324,3324 03324 #3324,3533 Franklin Rd S W,VA,24014
Kmart,SAINT CLAIRSVILLE,3325,3325 03325 #3325,Unit 80067800 Mall,OH,43950
Kmart,Sterling Heights,3327,3327 03327 #3327,2051 18 Mile Rd,MI,48314
Kmart,New Lenox,3328,3328 03328 #3328,1500 W Lincoln Hwy,IL,60451
Kmart,Hudson,3329,3329 03329 #3329,12412 Us 19,FL,34667
Kmart,Saugus,3333,3333 03333 #3333,180 Main St,MA,1906
Kmart,Cudahy,3337,3337 03337 #3337,8017 South Atlantic,CA,90201
Kmart,East Brunswick,3339,3339 03339 #3339,645 Highway 18,NJ,8816
Kmart,Herndon,3340,3340 03340 #3340,494 Elden St,VA,20170
Kmart,Lansing,3343,3343 03343 #3343,17355 Torrence Ave,IL,60438
Kmart,Modesto,3345,3345 03345 #3345,1351 E Hatch Rd,CA,95351
Kmart,Gretna,3347,3347 03347 #3347,2701 Belle Chasse Hw,LA,70056
Kmart,Moorestown,3350,3350 03350 #3350,401 Route 38,NJ,8057
Kmart,Muskegon,3351,3351 03351 #3351,1501 Apple Avenue Ea,MI,49442
Kmart,Liverpool,3352,3352 03352 #3352,8007 Oswego Road,NY,13090
Kmart,Orange Park,3353,3353 03353 #3353,380 Blanding Blvd,FL,32073
Kmart,Panama City,3355,3355 03355 #3355,1329 W 15Th St,FL,32401
Kmart,Wichita,3358,3358 03358 #3358,4830 S Broadway,KS,67216
Kmart,Gardendale,3359,3359 03359 #3359,901 Decatur Highway,AL,35071
Kmart,Allentown,3361,3361 03361 #3361,1502 South Fourth St,PA,18103
Kmart,Anaheim,3363,3363 03363 #3363,10870 Katella Ave We,CA,92804
Kmart,Redlands,3368,3368 03368 #3368,1625 W Redlands,CA,92373
Kmart,Chicago,3371,3371 03371 #3371,3443 W Addison,IL,60618
Kmart,Poughkeepsie,3372,3372 03372 #3372,1895 South Road,NY,12601
Kmart,Bullhead City,3375,3375 03375 #3375,2250 Highway 95 Ste,AZ,86442
Kmart,CITRUS HEIGHTS,3376,3376 03376 #3376,8501 Auburn Blvd,CA,95610
Kmart,Waterford,3379,3379 03379 #3379,5100 Dixie Hwy,MI,48329
Kmart,Waterville,3380,3380 03380 #3380,18 Elm Plaza,ME,4901
Kmart,Fort Pierce,3381,3381 03381 #3381,2111 S Federal Hwy,FL,34950
Kmart,Williamsport,3390,3390 03390 #3390,1915 E Third St,PA,17701
Kmart,Brookhaven,3392,3392 03392 #3392,5005 Edgmont Ave,PA,19015
Kmart,Glassboro,3393,3393 03393 #3393,779 DELSEA DR N,NJ,8028
Kmart,Poughkeepsie,3396,3396 03396 #3396,635 Dutchess Turnpik,NY,12603
Kmart,Fall River,3401,3401 03401 #3401,Rte 8124 Canning BlvdHarbour Mall,MA,2721
Kmart,Minneapolis,3405,3405 03405 #3405,10 W Lake Street,MN,55408
Kmart,East Stroudsburg,3406,3406 03406 #3406,300 Lincoln Avenue,PA,18301
Kmart,Dayton,3407,3407 03407 #3407,4480 Indian Ripple RD,OH,45440
Kmart,Reynoldsburg,3410,3410 03410 #3410,1284 Brice Rd,OH,43068
Kmart,Salinas,3412,3412 03412 #3412,1050 North Davis Roa,CA,93907
Kmart,Kent,3413,3413 03413 #3413,24800 W Valley Hwy,WA,98032
Kmart,Lodi,3414,3414 03414 #3414,2 Memorial Drive,NJ,7644
Kmart,Buffalo,3415,3415 03415 #3415,1001 Hertel Avenue,NY,14216
Kmart,Lancaster,3416,3416 03416 #3416,1 East Towne Mall,PA,17602
Kmart,WAYNE,3418,3418 03418 #3418,704 West Lancaster A,PA,19087
Kmart,New Boston,3420,3420 03420 #3420,225 West Avenue,OH,45662
Kmart,Alton,3422,3422 03422 #3422,2851 Homer M Adams P,IL,62002
Kmart,New Orleans,3423,3423 03423 #3423,1400 S Clearview Par,LA,70123
Kmart,Gainesville,3424,3424 03424 #3424,900 Nw 76 Boulevard,FL,32606
Kmart,Huntington,3425,3425 03425 #3425,5636 Us Route 60 E,WV,25705
Kmart,Holyoke,3433,3433 03433 #3433,2203 N Hampton St,MA,1040
Kmart,Anaheim,3435,3435 03435 #3435,2222 E Lincoln Ave,CA,92806
Kmart,Avenel,3438,3438 03438 #3438,1550 St George Ave,NJ,7001
Kmart,Raleigh,3442,3442 03442 #3442,6200 Capital Bouleva,NC,27616
Kmart,Clive,3447,3447 03447 #3447,10331 University Ave,IA,50325
Kmart,Philadelphia,3454,3454 03454 #3454,900 Orthodox St,PA,19124
Kmart,Sarasota,3457,3457 03457 #3457,501 North Beneva Roa,FL,34232
Kmart,Jersey City,3459,3459 03459 #3459,321 Stadium Plaza St,NJ,7305
Kmart,Newport,3462,3462 03462 #3462,1301 Monmouth Street,KY,41071
Kmart,Chesapeake,3471,3471 03471 #3471,2001 South Military,VA,23320
Kmart,Crystal Lake,3474,3474 03474 #3474,6000 Northwest Hwy,IL,60014
Kmart,Killeen,3475,3475 03475 #3475,1101 Fort Hood St,TX,76541
Kmart,Orlando,3478,3478 03478 #3478,7603 Turkey Lake Rd,FL,32819
Kmart,Ontario,3483,3483 03483 #3483,2530 S Euclid Ave,CA,91762
Kmart,Elkview,3484,3484 03484 #3484,201 Crossings Mall,WV,25071
Kmart,Somerville,3486,3486 03486 #3486,77 Middlesex Ave,MA,2145
Kmart,El Paso,3491,3491 03491 #3491,6375 Montana Blvd,TX,79925
Kmart,Milford,3495,3495 03495 #3495,589 Bridgeport Ave,CT,6460
Kmart,Frackville,3498,3498 03498 #3498,Route 61,PA,17931
Kmart,Kearny,3499,3499 03499 #3499,200 Passaic Ave,NJ,7032
Kmart,Petaluma,3501,3501 03501 #3501,261 N Mc Dowell Blvd,CA,94954
Kmart,Cincinnati,3507,3507 03507 #3507,4150 Hunt Road,OH,45236
Kmart,Woodbridge,3512,3512 03512 #3512,2851 Dale Blvd,VA,22193
Kmart,Baltimore,3517,3517 03517 #3517,7923 Belair Rd,MD,21236
Kmart,Binghamton,3521,3521 03521 #3521,33 West State St,NY,13901
Kmart,Elmwood Park,3522,3522 03522 #3522,180 Broadway,NJ,7407
Kmart,Paramus,3523,3523 03523 #3523,859 Route 17,NJ,7652
Kmart,Closter,3524,3524 03524 #3524,6 Vervalen Street,NJ,7624
Kmart,Philadelphia,3527,3527 03527 #3527,7101 Roosevelt Blvd,PA,19149
Kmart,Pittsburgh,3529,3529 03529 #3529,996 W View Park DR,PA,15229
Kmart,Pinole,3531,3531 03531 #3531,1500 Fitzgerald Dr,CA,94564
Kmart,Hartford,3534,3534 03534 #3534,1275 Bell Ave,WI,53027
Kmart,Warren,3535,3535 03535 #3535,2485 Parkman Rd Nw,OH,44485
Kmart,Menomonie,3541,3541 03541 #3541,103 Oak Avenue,WI,54751
Kmart,Salem,3544,3544 03544 #3544,1355 West Main Stree,VA,24153
Kmart,Clinton Township,3546,3546 03546 #3546,41601 Garfield,MI,48038
Kmart,Rio Rancho,3551,3551 03551 #3551,1640 Rio Rancho Driv,NM,87124
Kmart,Cambridge,3555,3555 03555 #3555,61690 Southgate Pkwy,OH,43725
Kmart,Elkhart,3556,3556 03556 #3556,52401 Interchange Dr,IN,46514
Kmart,SAINT MARYS,3557,3557 03557 #3557,1292 Indiana Avenue,OH,45885
Kmart,Virginia Beach,3560,3560 03560 #3560,1205 Fordham Dr,VA,23464
Kmart,Bensalem,3561,3561 03561 #3561,1837 Street Road,PA,19020
Kmart,Winter Park,3563,3563 03563 #3563,501 N Orlando Ave,FL,32789
Kmart,Jackson,3568,3568 03568 #3568,10500 Wicklow Way,CA,95642
Kmart,Claremont,3569,3569 03569 #3569,367 Washington Stree,NH,3743
Kmart,Richmond,3570,3570 03570 #3570,67300 Main St,MI,48062
Kmart,Plymouth,3571,3571 03571 #3571,1500 Pilgrim Lane,IN,46563
Kmart,FORT MYERS,3573,3573 03573 #3573,15271 33 Mc Gregor B,FL,33908
Kmart,Madison Heights,3575,3575 03575 #3575,29101 John R Road,MI,48071
Kmart,Springfield,3579,3579 03579 #3579,3700 S Campbell,MO,65807
Kmart,Clovis,3582,3582 03582 #3582,1075 Shaw Avenue,CA,93612
Kmart,Carroll,3585,3585 03585 #3585,715 Us Highway 30 We,IA,51401
Kmart,California,3586,3586 03586 #3586,16080 Three Notch Ro,MD,20619
Kmart,CLEVELAND,3589,3589 03589 #3589,14901 Lorain,OH,44111
Kmart,Las Vegas,3592,3592 03592 #3592,5051 E Bonanza Rd,NV,89110
Kmart,MOUNT POCONO,3593,3593 03593 #3593,601 Route 940,PA,18344
Kmart,Chicago,3594,3594 03594 #3594,5050 S Kedzie Ave,IL,60632
Kmart,San Mateo,3595,3595 03595 #3595,1700 S Delaware,CA,94402
Kmart,Pleasantville,3596,3596 03596 #3596,800 Black Horse Pike,NJ,8232
Kmart,Holmes,3597,3597 03597 #3597,600 Macdade Blvd,PA,19043
Kmart,Roanoke,3598,3598 03598 #3598,1419 Hershberger Rdn,VA,24012
Kmart,Schenectady,3600,3600 03600 #3600,93 West Campbell Roa,NY,12306
Kmart,Snellville,3602,3602 03602 #3602,2420 Wisteria Dr,GA,30078
Kmart,Summerville,3606,3606 03606 #3606,4570 Ladson Rd,SC,29485
Kmart,North Miami Beach,3613,3613 03613 #3613,900 N Miami Beach Bl,FL,33162
Kmart,West Allis,3618,3618 03618 #3618,6900 West Greenfield,WI,53214
Kmart,Mchenry,3619,3619 03619 #3619,1900 N Richmond Rd,IL,60050
Kmart,Galesburg,3620,3620 03620 #3620,"1150 West Carl S,b",IL,61401
Kmart,Orangeburg,3621,3621 03621 #3621,1470 Chestnut North,SC,29115
Kmart,Winter Haven,3624,3624 03624 #3624,6015 Cyprus Gardens,FL,33884
Kmart,Tolleson,3628,3628 03628 #3628,8701 West Mcdowell,AZ,85353
Kmart,Nashua,3630,3630 03630 #3630,375 Amherst St,NH,3063
Kmart,Conover,3632,3632 03632 #3632,508 K 10Th Street Nw,NC,28613
Kmart,Tewksbury,3638,3638 03638 #3638,10 Main St,MA,1876
Kmart,Manahawkin,3641,3641 03641 #3641,733 Route 72 East,NJ,8050
Kmart,Whitehall,3643,3643 03643 #3643,2520 Mac Arthur Road,PA,18052
Kmart,Nashville,3644,3644 03644 #3644,2491 Murfreesboro Pi,TN,37217
Kmart,Easley,3645,3645 03645 #3645,5155 Calhoun Memoria,SC,29640
Kmart,Bowling Green,3646,3646 03646 #3646,2945 Scottsville Roa,KY,42104
Kmart,Winter Springs,3651,3651 03651 #3651,1425 Tuskawilla Road,FL,32708
Kmart,Oxon Hill,3654,3654 03654 #3654,6163 Oxon Hill Road,MD,20745
Kmart,Kansas City,3655,3655 03655 #3655,600 North East Barry,MO,64155
Kmart,Macon,3661,3661 03661 #3661,156 Tom Hill Senior,GA,31210
Kmart,Decatur,3664,3664 03664 #3664,804 S 13Th Street,IN,46733
Kmart,Raleigh,3667,3667 03667 #3667,8701 Six Forks Road,NC,27615
Kmart,Northport,3672,3672 03672 #3672,"1700 Mcfarl, Blvd",AL,35476
Kmart,Ramona,3678,3678 03678 #3678,1855 Main Street,CA,92065
Kmart,Vega Baja,3679,3679 03679 #3679,Pr 2 Pr155 At Km 37.,PR,693
Kmart,Las Vegas,3680,3680 03680 #3680,3760 East Sunset Rd,NV,89120
Kmart,Las Cruces,3682,3682 03682 #3682,1900 Bataan Memorial,NM,88011
Kmart,Henderson,3688,3688 03688 #3688,2606 Zion Road,KY,42420
Kmart,Abingdon,3689,3689 03689 #3689,300 Towne Centre Dri,VA,24210
Kmart,Clifton Park,3691,3691 03691 #3691,15 Park Ave Suite 22,NY,12065
Kmart,Oconomowoc,3692,3692 03692 #3692,1450 Summit Avenue,WI,53066
Kmart,Sierra Vista,3695,3695 03695 #3695,2011 East Fry Blvd,AZ,85635
Kmart,Rocklin,3696,3696 03696 #3696,5615 Pacific Street,CA,95677
Kmart,Apple Valley,3699,3699 03699 #3699,20777 Bear Valley Rd,CA,92308
Kmart,Niceville,3701,3701 03701 #3701,1140 E John Sims Pkw,FL,32578
Kmart,Franklin,3703,3703 03703 #3703,104 Watson,TN,37064
Kmart,Wise,3705,3705 03705 #3705,Us Route 23 Bypass,VA,24293
Kmart,Wytheville,3706,3706 03706 #3706,1480 East Main Stree,VA,24382
Kmart,Lake Havasu City,3707,3707 03707 #3707,1870 Mcculloch Blvd,AZ,86403
Kmart,Banning,3708,3708 03708 #3708,"300 S Highl, Sprin",CA,92220
Kmart,Winchester,3709,3709 03709 #3709,1675 So Pleasant Val,VA,22601
Kmart,Rochester,3710,3710 03710 #3710,300 Brighton Avenue,PA,15074
Kmart,Covington,3713,3713 03713 #3713,6239 Turner Lake Rd,GA,30014
Kmart,Cookeville,3715,3715 03715 #3715,560 South Jefferson,TN,38501
Kmart,Las Vegas,3719,3719 03719 #3719,4500 North Rancho Dr,NV,89130
Kmart,Williamsburg,3720,3720 03720 #3720,6455 Us 31 North,MI,49690
Kmart,Burlington,3722,3722 03722 #3722,1550 S Burlington Bl,WA,98233
Kmart,White Lake,3723,3723 03723 #3723,"10951 Highl, Road",MI,48386
Kmart,Scott Depot,3724,3724 03724 #3724,101 Great Teays Blvd,WV,25560
Kmart,Freedom,3725,3725 03725 #3725,1702 Freedom Blvd,CA,95019
Kmart,Pineville,3728,3728 03728 #3728,2985 Cottingham Expw,LA,71360
Kmart,Oak Park,3730,3730 03730 #3730,26200 Greenfield,MI,48237
Kmart,Chippewa Falls,3735,3735 03735 #3735,409 Prairie View Roa,WI,54729
Kmart,Doylestown,3737,3737 03737 #3737,4377 Route 313,PA,18901
Kmart,Columbus,3741,3741 03741 #3741,2394 25Th Street,IN,47201
Kmart,Kill Devil Hills,3744,3744 03744 #3744,1901 N Croatan Hwy,NC,27948
Kmart,Hollister,3748,3748 03748 #3748,491 Tres Pinos Road,CA,95023
Kmart,Butte,3749,3749 03749 #3749,3300 Harrison Avenue,MT,59701
Kmart,Waupaca,3750,3750 03750 #3750,830 West Fulton Stre,WI,54981
Kmart,Martinsville,3754,3754 03754 #3754,2876 Greensboro Road,VA,24112
Kmart,Collinsville,3758,3758 03758 #3758,1101 Beltline Road,IL,62234
Kmart,Ballwin,3759,3759 03759 #3759,15909 Manchester Roa,MO,63011
Kmart,Zephyrhills,3761,3761 03761 #3761,7422 Gall Boulevard,FL,33541
Kmart,Murrells Inlet,3763,3763 03763 #3763,10125 Highway 17 By-,SC,29576
Kmart,Los Banos,3764,3764 03764 #3764,1400 Mercey Springs,CA,93635
Kmart,Provo,3765,3765 03765 #3765,1165 S University Ave,UT,84601
Kmart,Springfield,3767,3767 03767 #3767,1476 Upper Valley Pike,OH,45504
Kmart,Portage,3768,3768 03768 #3768,2935 New Pinery Road,WI,53901
Kmart,Shawano,3769,3769 03769 #3769,1211 East Green Bay,WI,54166
Kmart,Greeneville,3773,3773 03773 #3773,1355 Tusculum Boulev,TN,37745
Kmart,Racine,3774,3774 03774 #3774,2211 South Green Bay,WI,53406
Kmart,Detroit Lakes,3775,3775 03775 #3775,1305 Hwy 10 West,MN,56501
Kmart,Dundas,3777,3777 03777 #3777,404 Schilling Drive,MN,55019
Kmart,Marshall,3780,3780 03780 #3780,1001 Hwy 23 By Pass,MN,56258
Kmart,Duluth,3781,3781 03781 #3781,215 North Central Ave,MN,55807
Kmart,Fremont,3784,3784 03784 #3784,1825 N State Rte 19,OH,43420
Kmart,Tabb,3785,3785 03785 #3785,5007 Victory Blvd,VA,23693
Kmart,Miami,3793,3793 03793 #3793,12350 Sw 8Th Street,FL,33184
Kmart,Fredericksburg,3795,3795 03795 #3795,3655 Plank Road,VA,22407
Kmart,Greenbelt,3796,3796 03796 #3796,8829 Greenbelt Road,MD,20770
Kmart,Hyattsville,3798,3798 03798 #3798,6411 Riggs Road,MD,20783
Kmart,Newark,3800,3800 03800 #3800,301 College Square,DE,19711
Kmart,Virginia Beach,3801,3801 03801 #3801,312 Constitution Dri,VA,23462
Kmart,SAINT JOHNS,3804,3804 03804 #3804,2119 South Us 27,MI,48879
Kmart,Big Rapids,3805,3805 03805 #3805,1250 Perry Street,MI,49307
Kmart,Prince Frederick,3807,3807 03807 #3807,835 Solomons Island Road N,MD,20678
Kmart,Statesville,3808,3808 03808 #3808,1530 East Broad Stre,NC,28625
Kmart,Willow Street,3810,3810 03810 #3810,2600 North Willow St,PA,17584
Kmart,Poplar Bluff,3812,3812 03812 #3812,2233 North Westwood,MO,63901
Kmart,Kearney,3814,3814 03814 #3814,4700 Second Avenue,NE,68847
Kmart,Midway Park,3815,3815 03815 #3815,175 Freedom Way Ste,NC,28544
Kmart,Myrtle Beach,3817,3817 03817 #3817,1403 North Kings Hig,SC,29577
Kmart,Hollywood,3818,3818 03818 #3818,3800 Oakwood Blvd,FL,33020
Kmart,Hastings,3819,3819 03819 #3819,802 West State Stree,MI,49058
Kmart,Charlevoix,3820,3820 03820 #3820,06600 M 66 North,MI,49720
Kmart,Petoskey,3821,3821 03821 #3821,1401 Spring Street,MI,49770
Kmart,Glasgow,3822,3822 03822 #3822,230 L Roger Wells Bl,KY,42141
Kmart,Jasper,3823,3823 03823 #3823,723 3Rd Avenue,IN,47546
Kmart,Hermitage,3824,3824 03824 #3824,2235 East State Stre,PA,16148
Kmart,Parsippany,3825,3825 03825 #3825,808 Us Hwy 46 West,NJ,7054
Kmart,Temecula,3828,3828 03828 #3828,26471 Ynez Road,CA,92591
Kmart,St Thomas,3829,3829 03829 #3829,Charlotte Amalie,VI,802
Kmart,Plymouth,3831,3831 03831 #3831,2615 Eastern Avenue,WI,53073
Kmart,Ironwood,3832,3832 03832 #3832,"1400 East Cloverl,",MI,49938
Kmart,Iron Mountain,3833,3833 03833 #3833,1800 South Stephenso,MI,49801
Kmart,Burbank,3834,3834 03834 #3834,1000 N San Fernando Blvd,CA,91504
Kmart,CLEVELAND,3836,3836 03836 #3836,200 Paul Huff Nw Ste,TN,37312
Kmart,Webster,3837,3837 03837 #3837,950 Ridge Road,NY,14580
Kmart,Corvallis,3839,3839 03839 #3839,400 N East Circle Bl,OR,97330
Kmart,Oregon City,3840,3840 03840 #3840,19003 Beaver Creek R,OR,97045
Kmart,Marshall,3841,3841 03841 #3841,15861 Michigan Avenu,MI,49068
Kmart,Oakdale,3842,3842 03842 #3842,175 South Maag Avenu,CA,95361
Kmart,Lutz,3845,3845 03845 #3845,22920 State Road 54,FL,33549
Kmart,Florence,3848,3848 03848 #3848,105 Cox Creek Pkwy S,AL,35630
Kmart,Versailles,3850,3850 03850 #3850,501 Marsailles Road,KY,40383
Kmart,Racine,3851,3851 03851 #3851,5141 Douglas Avenue,WI,53402
Kmart,Salisbury,3852,3852 03852 #3852,815 East Innes St,NC,28144
Kmart,Guayama,3853,3853 03853 #3853,Puerto Rico Hwy 3,PR,784
Kmart,Henderson,3857,3857 03857 #3857,732 South Racetrack,NV,89015
Kmart,Phoenix,3858,3858 03858 #3858,336 East Baseline Rd,AZ,85040
Kmart,West Babylon,3861,3861 03861 #3861,1000 Montauk Highway,NY,11704
Kmart,Bohemia,3862,3862 03862 #3862,5151 Sunrise Highway,NY,11716
Kmart,West Branch,3864,3864 03864 #3864,2110 South M 76,MI,48661
Kmart,Ridgecrest,3865,3865 03865 #3865,910 North China Lake,CA,93555
Kmart,Chester,3868,3868 03868 #3868,12810 Jefferson Davis,VA,23831
Kmart,Colonial Heights,3869,3869 03869 #3869,116 Southgate Square,VA,23834
Kmart,Wilmington,3873,3873 03873 #3873,4700 Limestone Road,DE,19808
Kmart,Crystal River,3874,3874 03874 #3874,1801 North West Hwy,FL,34428
Kmart,Athens,3876,3876 03876 #3876,1802 Decatur Pike,TN,37303
Kmart,Elkins,3877,3877 03877 #3877,731 Beverly Pike,WV,26241
Kmart,Braintree,3879,3879 03879 #3879,350 Grossman Drive,MA,2184
Kmart,Blythe,3881,3881 03881 #3881,1455 W Hobson,CA,92225
Kmart,Mayaguez,3882,3882 03882 #3882,Pr Route 2 Km 149.5,PR,680
Kmart,Matamoras,3884,3884 03884 #3884,111 Hulst Dr Suite 7,PA,18336
Kmart,Honesdale,3885,3885 03885 #3885,Us Route 6 Mall,PA,18431
Kmart,Asheville,3886,3886 03886 #3886,980 Brevard Rd,NC,28806
Kmart,The Dalles,3888,3888 03888 #3888,2640 West 6Th Street,OR,97058
Kmart,Brighton,3890,3890 03890 #3890,825 South Kuner Rd,CO,80601
Kmart,Cheyenne,3891,3891 03891 #3891,1840 Dell Range Blvd,WY,82009
Kmart,Spearfish,3893,3893 03893 #3893,2323 Colorado Boulev,SD,57783
Kmart,Elko,3894,3894 03894 #3894,2450 Mountain City H,NV,89801
Kmart,Pittsburgh,3895,3895 03895 #3895,3000 Mcintyre Sq Dr,PA,15237
Kmart,San German,3896,3896 03896 #3896,"Pr 2 , Castro Pere",PR,753
Kmart,Anoka,3897,3897 03897 #3897,1100 West Highway 10 PLZ,MN,55303
Kmart,GRAND ISLAND,3907,3907 03907 #3907,3535 West 13Th Stree,NE,68803
Kmart,Lorain,3910,3910 03910 #3910,5350 Leavitt Road,OH,44053
Kmart,Columbia,3911,3911 03911 #3911,3975 Columbia Ave,PA,17512
Kmart,Latrobe,3912,3912 03912 #3912,200 Mountain Laurel,PA,15650
Kmart,Bloomingdale,3914,3914 03914 #3914,156 South Gary Ave,IL,60108
Kmart,Tulare,3916,3916 03916 #3916,1475 Hillman Street,CA,93274
Kmart,El Paso,3919,3919 03919 #3919,11330 Montwood Drive,TX,79936
Kmart,Nogales,3923,3923 03923 #3923,300 West Mariposa Rd,AZ,85621
Kmart,Show Low,3924,3924 03924 #3924,750 W Deuce Of Clubs,AZ,85901
Kmart,Thomasville,3925,3925 03925 #3925,"1122 R,olph St",NC,27360
Kmart,Prattville,3929,3929 03929 #3929,1880 East Main Stree,AL,36066
Kmart,Birmingham,3931,3931 03931 #3931,5980 Chalkville Moun,AL,35235
Kmart,Cabot,3933,3933 03933 #3933,State Highway 89,AR,72023
Kmart,Rolla,3934,3934 03934 #3934,1003 South Bishop,MO,65401
Kmart,Jackson,3938,3938 03938 #3938,3555 O'Neill Drive,MI,49202
Kmart,Russell Springs,3941,3941 03941 #3941,301 S Highway 127,KY,42642
Kmart,Chantilly,3942,3942 03942 #3942,13910 Metrotech Dr.,VA,20151
Kmart,Malone,3943,3943 03943 #3943,230 West Main Street,NY,12953
Kmart,Delano,3945,3945 03945 #3945,912 County Line Rd,CA,93215
Kmart,Douglas,3946,3946 03946 #3946,1300 South Madison A,GA,31533
Kmart,Wind Gap,3949,3949 03949 #3949,803 Male Road,PA,18091
Kmart,Steubenville,3951,3951 03951 #3951,4265 Mall Drive,OH,43952
Kmart,Philadelphia,3953,3953 03953 #3953,901-99 MARKET STREET,PA,19107
Kmart,Walnutport,3954,3954 03954 #3954,400 N Best Ave,PA,18088
Kmart,Naples,3956,3956 03956 #3956,4955 Golden Gate Pkw,FL,34116
Kmart,Statesboro,3957,3957 03957 #3957,715 Northside Drive,GA,30458
Kmart,Adrian,3959,3959 03959 #3959,1416 S Main St Bldg,MI,49221
Kmart,Elizabethtown,3963,3963 03963 #3963,1605 S Market Street,PA,17022
Kmart,Philadelphia,3964,3964 03964 #3964,3000 Island Avenue,PA,19153
Kmart,Dublin,3967,3967 03967 #3967,116 Hillcrest Connec,GA,31021
Kmart,Wasco,3968,3968 03968 #3968,2785 Hwy 46,CA,93280
Kmart,Platteville,3970,3970 03970 #3970,1425 E Highway 151,WI,53818
Kmart,Ames,3971,3971 03971 #3971,1405 Buckeye Ave,IA,50010
Kmart,St Croix,3972,3972 03972 #3972,Space 1,VI,820
Kmart,Milton,3975,3975 03975 #3975,6050 Highway 90,FL,32570
Kmart,Virginia Beach,3976,3976 03976 #3976,1650 General Booth B,VA,23454
Kmart,Peachtree City,3978,3978 03978 #3978,400 Crosstown Road,GA,30269
Kmart,RUTLAND,3981,3981 03981 #3981,2 Diamond Run Mall,VT,5701
Kmart,Lemoore,3982,3982 03982 #3982,215 West Hanford/Arm,CA,93245
Kmart,Lakeland,3985,3985 03985 #3985,4717 S Florida Ave,FL,33813
Kmart,Putnam,3988,3988 03988 #3988,44 Providence Pike,CT,6260
Kmart,Passaic,3990,3990 03990 #3990,24 34 Barbour Avenue,NJ,7055
Kmart,KINGSLAND,3991,3991 03991 #3991,1601 Highway 40 East,GA,31548
Kmart,Juana Diaz,3993,3993 03993 #3993,"State 149 , State",PR,795
Kmart,Milledgeville,3994,3994 03994 #3994,1970 N Columbia St,GA,31061
Kmart,Mableton,3996,3996 03996 #3996,5590 Mableton Pkwy STE100,GA,30126
Kmart,Dinuba,3998,3998 03998 #3998,2270 East El Monte W,CA,93618
Kmart,Garden City,4000,4000 04000 #4000,29600 Ford Rd,MI,48135
Kmart,Louisville,4006,4006 04006 #4006,3911 Taylorsville Rd,KY,40220
Kmart,Commerce,4007,4007 04007 #4007,5704 E Whittier Blvd,CA,90022
Kmart,Pittsburgh,4010,4010 04010 #4010,880 Butler Street,PA,15223
Kmart,Greenville,4016,4016 04016 #4016,1 Kmart Plaza,SC,29605
Kmart,Dubuque,4018,4018 04018 #4018,2600 Dodge Street,IA,52003
Kmart,GRAND FORKS,4022,4022 04022 #4022,1900 S Washington St,ND,58201
Kmart,SAINT JOSEPH,4026,4026 04026 #4026,2901 5 N Belt Hwy,MO,64506
Kmart,Danville,4030,4030 04030 #4030,2721 N Vermilion St,IL,61832
Kmart,Bloomington,4031,4031 04031 #4031,1608 E Empire St,IL,61701
Kmart,Knoxville,4033,4033 04033 #4033,4434 Broadway St,TN,37917
Kmart,Mattydale,4034,4034 04034 #4034,2803 Brewerton Rd,NY,13211
Kmart,Costa Mesa,4047,4047 04047 #4047,2200 Harbor Blvd,CA,92627
Kmart,Springfield,4048,4048 04048 #4048,3250 Clear Lake Rd,IL,62702
Kmart,Eau Claire,4051,4051 04051 #4051,2424 E Clairmont Ave,WI,54701
Kmart,New Kensington,4054,4054 04054 #4054,100 Tarentum Rd,PA,15068
Kmart,Fargo,4057,4057 04057 #4057,2301 S University Dr,ND,58103
Kmart,Taylor,4059,4059 04059 #4059,21111 Van Born Rd,MI,48180
Kmart,Danville,4062,4062 04062 #4062,3311 Riverside Dr,VA,24541
Kmart,North Versailles,4064,4064 04064 #4064,1901 Lincoln Hwy,PA,15137
Kmart,Battle Creek,4065,4065 04065 #4065,200 Capital Ave Sw,MI,49015
Kmart,Jackson,4066,4066 04066 #4066,3001 E Mich Ave,MI,49202
Kmart,Flint,4083,4083 04083 #4083,G 3083 Miller Rd,MI,48507
Kmart,Lynchburg,4084,4084 04084 #4084,2315 Wards Road,VA,24502
Kmart,La Crosse,4089,4089 04089 #4089,2415 State Road,WI,54601
Kmart,Charlottesville,4090,4090 04090 #4090,1801 Hydraulic Rd,VA,22901
Kmart,Bay City,4091,4091 04091 #4091,4001 N Euclid Ave,MI,48706
Kmart,Madison,4093,4093 04093 #4093,1508 S Gallatin Rd,TN,37115
Kmart,Joliet,4095,4095 04095 #4095,1801 W Jefferson,IL,60435
Kmart,Monroe,4098,4098 04098 #4098,1290 N Monroe St,MI,48162
Kmart,Ann Arbor,4105,4105 04105 #4105,215 N Maple Rd,MI,48103
Kmart,Ypsilanti,4106,4106 04106 #4106,3100 Washtenaw Ave,MI,48197
Kmart,Asheville,4112,4112 04112 #4112,1001 Patton Ave,NC,28806
Kmart,Erie,4113,4113 04113 #4113,2873 W 26Th Street,PA,16506
Kmart,Sacramento,4117,4117 04117 #4117,5100 Stockton Blvd,CA,95820
Kmart,Niagara Falls,4123,4123 04123 #4123,2590 Military Rd,NY,14304
Kmart,Lake Charles,4128,4128 04128 #4128,4070 Ryan St,LA,70605
Kmart,Arvada,4129,4129 04129 #4129,9881 W 58Th Ave,CO,80002
Kmart,Omaha,4130,4130 04130 #4130,5000 L St,NE,68117
Kmart,Englewood,4131,4131 04131 #4131,200 W Belleview,CO,80110
Kmart,Augusta,4135,4135 04135 #4135,1647 Gordon Hwy,GA,30906
Kmart,Albuquerque,4136,4136 04136 #4136,2100 Carlisle Ave Ne,NM,87110
Kmart,Charlotte,4137,4137 04137 #4137,2701 Freedom Dr,NC,28208
Kmart,WEST COLUMBIA,4141,4141 04141 #4141,1500 Charleston Hwy,SC,29169
Kmart,Everett,4146,4146 04146 #4146,8102 Evergreen Way,WA,98203
Kmart,Spokane,4147,4147 04147 #4147,4110 E Sprague Ave,WA,99202
Kmart,Altoona,4150,4150 04150 #4150,528 W Plank Road,PA,16602
Kmart,Sparks,4151,4151 04151 #4151,2125 Oddie Blvd,NV,89431
Kmart,Mishawaka,4152,4152 04152 #4152,420 W Mc Kinley Ave,IN,46545
Kmart,Urbandale,4156,4156 04156 #4156,7501 Hickman,IA,50322
Kmart,Kansas City,4157,4157 04157 #4157,5615 Bannister Rd E,MO,64137
Kmart,Waterloo,4158,4158 04158 #4158,3810 University Ave,IA,50701
Kmart,Salt Lake City,4159,4159 04159 #4159,4670 S 900 East,UT,84117
Kmart,Des Moines,4160,4160 04160 #4160,2535 Hubbell Ave,IA,50317
Kmart,Salt Lake City,4162,4162 04162 #4162,1770 W 4100 S,UT,84119
Kmart,WESTLAND,4163,4163 04163 #4163,165 Wayne Rd,MI,48186
Kmart,Oregon,4168,4168 04168 #4168,2830 Navarre Ave,OH,43616
Kmart,Massillon,4169,4169 04169 #4169,2600 Lincoln Way E,OH,44646
Kmart,Rapid City,4170,4170 04170 #4170,1111 E North St,SD,57701
Kmart,Wichita,4171,4171 04171 #4171,4200 W Kellogg,KS,67209
Kmart,Canton,4175,4175 04175 #4175,3801 Harmont Ave NE,OH,44705
Kmart,Cheektowaga,4176,4176 04176 #4176,2055 Walden Ave,NY,14225
Kmart,SAINT CLAIR SHORES,4177,4177 04177 #4177,22801 Harper Ave,MI,48080
Kmart,Tacoma,4178,4178 04178 #4178,5132 6Th Ave,WA,98406
Kmart,Dayton,4179,4179 04179 #4179,601 Woodman Dr,OH,45431
Kmart,Louisville,4180,4180 04180 #4180,4915 Dixie Hwy,KY,40216
Kmart,Charleston,4188,4188 04188 #4188,1701 4Th Ave W,WV,25387
Kmart,Savannah,4189,4189 04189 #4189,33 W Montgomery Cros,GA,31406
Kmart,Columbus,4198,4198 04198 #4198,3200 Macon Rd,GA,31906
Kmart,El Paso,4201,4201 04201 #4201,1120 Mc Rae Blvd,TX,79925
Kmart,Indianapolis,4203,4203 04203 #4203,7425 E Washington St,IN,46219
Kmart,Warren,4204,4204 04204 #4204,31200 Schoenherr Rd,MI,48088
Kmart,El Paso,4205,4205 04205 #4205,9484 Dyer St,TX,79924
Kmart,Warren,4206,4206 04206 #4206,2000 Ten Mile Rd,MI,48091
Kmart,Greenville,4213,4213 04213 #4213,3001 Highway 82 E,MS,38703
Kmart,Des Plaines,4214,4214 04214 #4214,1155 Oakton St,IL,60018
Kmart,Kansas City,4215,4215 04215 #4215,7836 State Ave,KS,66112
Kmart,Green Bay,4219,4219 04219 #4219,1109 Lombardi Ave,WI,54304
Kmart,Kansas City,4220,4220 04220 #4220,2821 Vivion Rd Ne,MO,64119
Kmart,Austintown,4229,4229 04229 #4229,4475 Mahoning Ave,OH,44515
Kmart,Lexington,4232,4232 04232 #4232,2520 Nicholasville R,KY,40503
Kmart,YOUNGSTOWN,4233,4233 04233 #4233,"1209 Boardman Pol,",OH,44514
Kmart,Chicago,4235,4235 04235 #4235,7050 S Pulaski,IL,60629
Kmart,Oakland Park,4243,4243 04243 #4243,670 E Oakland Pk Blvd,FL,33334
Kmart,Tampa,4245,4245 04245 #4245,8245 N Florida Ave,FL,33604
Kmart,Tacoma,4253,4253 04253 #4253,1414 E 72Nd St,WA,98404
Kmart,Janesville,4255,4255 04255 #4255,2233 Old Humes Rd,WI,53545
Kmart,MIDDLEBURG HEIGHTS,4257,4257 04257 #4257,17840 Bagley Rd,OH,44130
Kmart,Bismarck,4272,4272 04272 #4272,2625 State St,ND,58503
Kmart,Mechanicsburg,4275,4275 04275 #4275,5600 Carlisle Pike U,PA,17050
Kmart,Covina,4281,4281 04281 #4281,1162 N Citrus Ave,CA,91722
Kmart,Portland,4288,4288 04288 #4288,12350 NE SANDY BLVD,OR,97230
Kmart,San Diego,4290,4290 04290 #4290,5405 University Ave,CA,92105
Kmart,Hialeah,4292,4292 04292 #4292,1460 W 49Th St,FL,33012
Kmart,Decatur,4293,4293 04293 #4293,1155 E Pershing Rd,IL,62526
Kmart,North Miami,4295,4295 04295 #4295,10700 Biscayne Blvd,FL,33161
Kmart,Moline,4297,4297 04297 #4297,5000 Avenue Of The C,IL,61265
Kmart,Billings,4303,4303 04303 #4303,2424 Central Ave,MT,59102
Kmart,Florissant,4304,4304 04304 #4304,1 Flower Valley Shp,MO,63033
Kmart,Brandon,4311,4311 04311 #4311,1602 W Brandon Blvd,FL,33511
Kmart,Huntsville,4312,4312 04312 #4312,1401 Memorial Pkwy N,AL,35801
Kmart,York,4313,4313 04313 #4313,1094 Haines Road,PA,17402
Kmart,Iowa City,4315,4315 04315 #4315,901 Hollywood Blvd,IA,52240
Kmart,Florence,4317,4317 04317 #4317,2011 Hoffmeyer Rd,SC,29501
Kmart,Columbia,4319,4319 04319 #4319,7325 Two Notch Rd,SC,29223
Kmart,Bellflower,4320,4320 04320 #4320,10400 Rosecrans,CA,90706
Kmart,New Port Richey,4327,4327 04327 #4327,5725 Us 19,FL,34652
Kmart,Waterford,4331,4331 04331 #4331,3541 Highl Road,MI,48328
Kmart,Colorado Springs,4332,4332 04332 #4332,3020 N Nevada St,CO,80907
Kmart,Erie,4334,4334 04334 #4334,4401 Buffalo Rd,PA,16510
Kmart,Salem,4339,4339 04339 #4339,2470 Mission Se,OR,97302
Kmart,Santa Rosa,4340,4340 04340 #4340,3771 Cleveland Ave,CA,95403
Kmart,Allentown,4344,4344 04344 #4344,4701 Tilghman Street,PA,18104
Kmart,Redwood City,4349,4349 04349 #4349,1155 Veterans Blvd,CA,94063
Kmart,Rochester,4351,4351 04351 #4351,201 Ninth St S E,MN,55904
Kmart,Minot,4353,4353 04353 #4353,1 20Th Ave Se,ND,58701
Kmart,SAINT PETERSBURG,4355,4355 04355 #4355,4501 66Th Street N,FL,33709
Kmart,Hazlet,4361,4361 04361 #4361,3010 Highway 35,NJ,7730
Kmart,New Hartford,4362,4362 04362 #4362,4645 Commercial Driv,NY,13413
Kmart,Bakersfield,4364,4364 04364 #4364,3600 Wilson Rd,CA,93309
Kmart,Las Vegas,4369,4369 04369 #4369,2975 E Sahara Ave,NV,89104
Kmart,Santa Maria,4371,4371 04371 #4371,2875 Santa Maria Way,CA,93455
Kmart,Lancaster,4373,4373 04373 #4373,1890 Fruitville Pike,PA,17601
Kmart,Pekin,4375,4375 04375 #4375,2909 Court St,IL,61554
Kmart,Bloomington,4377,4377 04377 #4377,3216 E Third Street,IN,47401
Kmart,Wauwatosa,4380,4380 04380 #4380,3201 Mayfair Road,WI,53222
Kmart,Bridgeview,4381,4381 04381 #4381,7325 W 79Th Street,IL,60455
Kmart,Lansing,4382,4382 04382 #4382,5400 Cedar Street So,MI,48911
Kmart,Greenfield,4385,4385 04385 #4385,4601 S 27Th Street,WI,53221
Kmart,MCALLEN,4389,4389 04389 #4389,1801 South 10Th Stre,TX,78503
Kmart,Latham,4394,4394 04394 #4394,195 Troy Schenectady,NY,12110
Kmart,Cudahy,4395,4395 04395 #4395,6077 S Packard Ave,WI,53110
Kmart,Dover,4397,4397 04397 #4397,140 Us Hwy Route 10,NJ,7801
Kmart,Silver Spring,4399,4399 04399 #4399,14014 Connecticut Av,MD,20906
Kmart,Albuquerque,4400,4400 04400 #4400,4208 Central Ave Sw,NM,87105
Kmart,Clinton Township,4405,4405 04405 #4405,34800 Groesbeck Hwy,MI,48035
Kmart,Brockton,4407,4407 04407 #4407,2001 Main Street,MA,2301
Kmart,Daytona Beach,4415,4415 04415 #4415,1300 Intl Speedway B,FL,32114
Kmart,Ocala,4420,4420 04420 #4420,3711 E Silver Spring,FL,34470
Kmart,North Hollywood,4421,4421 04421 #4421,13007 Sherman Way,CA,91605
Kmart,Rockford,4423,4423 04423 #4423,5909 E State Street,IL,61108
Kmart,Independence,4427,4427 04427 #4427,16200 East Us Hwy 24,MO,64056
Kmart,Monroeville,4429,4429 04429 #4429,120 Mall Blvd,PA,15146
Kmart,Livonia,4430,4430 04430 #4430,33400 W 7 Mile Road,MI,48152
Kmart,Riverside,4432,4432 04432 #4432,3001 Iowa Avenue,CA,92507
Kmart,Quincy,4433,4433 04433 #4433,3701 Broadway St,IL,62301
Kmart,Gresham,4435,4435 04435 #4435,440 Nw Burnside Road,OR,97030
Kmart,Indianapolis,4438,4438 04438 #4438,2715 Madison Ave,IN,46225
Kmart,Yakima,4439,4439 04439 #4439,2304 E Nob Hill Blvd,WA,98901
Kmart,Charleston,4442,4442 04442 #4442,6531 Mccorkle Avenue,WV,25304
Kmart,Fitchburg,4444,4444 04444 #4444,140 Whalon St,MA,1420
Kmart,Coraopolis,4445,4445 04445 #4445,825 Beaver Grade Rd,PA,15108
Kmart,Salem,4448,4448 04448 #4448,161 S Broadway,NH,3079
Kmart,Raleigh,4450,4450 04450 #4450,4500 Western Blvd,NC,27606
Kmart,Pueblo,4453,4453 04453 #4453,3415 N Elizabeth St,CO,81008
Kmart,Beaverton,4455,4455 04455 #4455,3955 S W Murray Blvd,OR,97005
Kmart,Hayward,4457,4457 04457 #4457,26231 Mission Blvd,CA,94544
Kmart,Bangor,4460,4460 04460 #4460,688 Hogan Road,ME,4401
Kmart,Sioux City,4465,4465 04465 #4465,5700 Gordon Drive,IA,51106
Kmart,West Long Branch,4470,4470 04470 #4470,108 Monmouth Rd,NJ,7764
Kmart,Fort Collins,4471,4471 04471 #4471,2535 S College,CO,80525
Kmart,Tulsa,4473,4473 04473 #4473,10131 E 21St Street,OK,74129
Kmart,Trenton,4478,4478 04478 #4478,1061 Whitehorse Aven,NJ,8610
Kmart,Harrisburg,4479,4479 04479 #4479,5050 Jonestown Road,PA,17112
Kmart,Plymouth,4481,4481 04481 #4481,40855 Ann Arbor Rd,MI,48170
Kmart,Annandale,4483,4483 04483 #4483,4251 John Marr Drive,VA,22003
Kmart,Mason City,4485,4485 04485 #4485,2006 4Th Street Sw,IA,50401
Kmart,ROCHESTER HILLS,4488,4488 04488 #4488,1100 Rochester Rd South,MI,48307
Kmart,San Juan,4490,4490 04490 #4490,Caparra Hgts,PR,920
Kmart,Trujillo Alto,4494,4494 04494 #4494,200 Carr 181,PR,760
Kmart,Fenton,4700,4700 04700 #4700,18055 Silver Parkway,MI,48430
Kmart,Bluefield,4701,4701 04701 #4701,"3977 Cumberl, Rd",WV,24701
Kmart,Devils Lake,4704,4704 04704 #4704,701 5Th Ave South,ND,58301
Kmart,Kingsburg,4705,4705 04705 #4705,333 Sierra,CA,93631
Kmart,Riverside,4706,4706 04706 #4706,375 Allessandro Blvd,CA,92508
Kmart,Mission,4708,4708 04708 #4708,1405 East Expressway,TX,78572
Kmart,Presque Isle,4709,4709 04709 #4709,830 Main Street,ME,4769
Kmart,TOWANDA,4713,4713 04713 #4713,"Rt #6 Br,ford Town",PA,18848
Kmart,Sebring,4715,4715 04715 #4715,901 Us 27 North Suit,FL,33870
Kmart,Rocky Mount,4716,4716 04716 #4716,720 Sutters Creek Bl,NC,27804
Kmart,Oak Ridge,4717,4717 04717 #4717,370 South Illinois A,TN,37830
Kmart,Rome,4719,4719 04719 #4719,102 Hicks Drive,GA,30161
Kmart,SAINT LOUIS,4720,4720 04720 #4720,6650 Manchester,MO,63139
Kmart,Coalinga,4721,4721 04721 #4721,25 West Polk Street,CA,93210
Kmart,Key West,4725,4725 04725 #4725,2928 North Roosevelt,FL,33040
Kmart,Jamestown,4726,4726 04726 #4726,975 Fairmount Ave W,NY,14701
Kmart,Miami,4728,4728 04728 #4728,3825 7Th St North We,FL,33126
Kmart,Chicago,4729,4729 04729 #4729,1360 Ashland Ave North,IL,60622
Kmart,Aguadilla,4732,4732 04732 #4732,Road 2 Km 126.5,PR,605
Kmart,Mitchell,4735,4735 04735 #4735,1313 South Burr,SD,57301
Kmart,Casper,4736,4736 04736 #4736,4000 East 2Nd Street,WY,82609
Kmart,Clarksville,4739,4739 04739 #4739,2780 Guthrie Hwy,TN,37040
Kmart,Batavia,4741,4741 04741 #4741,8363 Lewiston Road,NY,14020
Kmart,Bridgeton,4743,4743 04743 #4743,11978 St Charles Roc,MO,63044
Kmart,Ashtabula,4745,4745 04745 #4745,3315 N Ridge E Unit 100,OH,44004
Kmart,Springboro,4747,4747 04747 #4747,625 West Central Ave,OH,45066
Kmart,Ammon,4748,4748 04748 #4748,3101 East 17Th Stree,ID,83406
Kmart,Ontario,4749,4749 04749 #4749,1670 East Fourth,CA,91764
Kmart,Tehachapi,4751,4751 04751 #4751,710 W Tehachapi,CA,93561
Kmart,Elizabethtown,4753,4753 04753 #4753,1809 North Dixie Hwy,KY,42701
Kmart,Madison,4757,4757 04757 #4757,102 New Market,NC,27025
Kmart,Concord,4758,4758 04758 #4758,545 Concord Parkway,NC,28027
Kmart,Phenix City,4760,4760 04760 #4760,2003 Us Hwy 280 Bypa,AL,36867
Kmart,Antioch,4762,4762 04762 #4762,3625 East 18Th St,CA,94509
Kmart,Pell City,4769,4769 04769 #4769,803 Martin Street S,AL,35128
Kmart,Mcmurray,4770,4770 04770 #4770,4041 Washington Road,PA,15317
Kmart,Butler,4771,4771 04771 #4771,300 Pullman Square,PA,16001
Kmart,Burnham,4772,4772 04772 #4772,331 West Freedom Ave,PA,17009
Kmart,Pineville,4777,4777 04777 #4777,10500 Centrum Parkway,NC,28134
Kmart,Macomb,4781,4781 04781 #4781,1325 East Jackson,IL,61455
Kmart,Clinton,4782,4782 04782 #4782,2501 Redwheat Drive,OK,73601
Kmart,Canton,4783,4783 04783 #4783,1651 East Chestnut S,IL,61520
Kmart,Pittsburgh,4793,4793 04793 #4793,1775 South Braddock,PA,15218
Kmart,Houghton Lake,4795,4795 04795 #4795,8171 W Houghton Lake,MI,48629
Kmart,Greenville,4796,4796 04796 #4796,205 South Greenville,MI,48838
Kmart,Bear,4807,4807 04807 #4807,401 Governor Place,DE,19701
Kmart,Sweetwater,4808,4808 04808 #4808,210 S East Georgia A,TX,79556
Kmart,Laredo,4809,4809 04809 #4809,5000 San Dario,TX,78041
Kmart,Metairie,4810,4810 04810 #4810,2940 Veterans Blvd,LA,70002
Kmart,SOUTH ATTLEBORO,4812,4812 04812 #4812,1130 Newport Ave Bristol Place,MA,2703
Kmart,Yankton,4813,4813 04813 #4813,2210 Broadway Ave,SD,57078
Kmart,Havre,4814,4814 04814 #4814,3180 Hwy 2 West,MT,59501
Kmart,Eaton,4815,4815 04815 #4815,1705 State Rte 127 N,OH,45320
Kmart,Homewood,4817,4817 04817 #4817,230 Green Springs Hw,AL,35209
Kmart,Lakeport,4819,4819 04819 #4819,2019 S Main,CA,95453
Kmart,Mill Hall,4825,4825 04825 #4825,1 Millbrook Plaza,PA,17751
Kmart,Fayetteville,4826,4826 04826 #4826,1931 Skibo Road,NC,28314
Kmart,Paintsville,4827,4827 04827 #4827,344 North Mayo Trail,KY,41240
Kmart,Centre,4835,4835 04835 #4835,1525 Chestnut Bypass,AL,35960
Kmart,Riverton,4837,4837 04837 #4837,1960 North Federal B,WY,82501
Kmart,Reading,4840,4840 04840 #4840,3045 Fifth Street Hwy,PA,19605
Kmart,Rio Piedra,4844,4844 04844 #4844,9410 Avenue Los Rome,PR,926
Kmart,Manistee,4845,4845 04845 #4845,1560 Us 31 South,MI,49660
Kmart,Georgetown,4847,4847 04847 #4847,1501 Paris Pike,KY,40324
Kmart,Jacksonville,4848,4848 04848 #4848,1501 Normandy Village Pky,FL,32221
Kmart,Christiansburg,4850,4850 04850 #4850,1000 Laurel St North,VA,24073
Kmart,Byron Center,4851,4851 04851 #4851,701 68Th Street,MI,49315
Kmart,Cincinnati,4852,4852 04852 #4852,7528 Beechmont Ave,OH,45255
Kmart,Desert Hot Springs,4857,4857 04857 #4857,14011 Palm Drive,CA,92240
Kmart,Caguas,4858,4858 04858 #4858,P.O. Box 517,PR,726
Kmart,Gaithersburg,4860,4860 04860 #4860,209 Kentlands Blvd,MD,20878
Kmart,Manteca,4862,4862 04862 #4862,255 Norhtgate Drive,CA,95336
Kmart,Gillette,4863,4863 04863 #4863,2150 S Douglas Hwy,WY,82716
Kmart,North Augusta,4865,4865 04865 #4865,310 E Martintown Roa,SC,29841
Kmart,Gastonia,4866,4866 04866 #4866,3580 E Franklin,NC,28056
Kmart,Southbury,4867,4867 04867 #4867,100 Main Street Nort,CT,6488
Kmart,Riverhead,4868,4868 04868 #4868,605 Old Country Road,NY,11901
Kmart,"Del,",4869,4869 04869 #4869,101 E International Speedway,FL,32724
Kmart,Clermont,4870,4870 04870 #4870,1002 East Highway 50,FL,34711
Kmart,Farmingville,4871,4871 04871 #4871,2280 North Ocean Ave,NY,11738
Kmart,Brevard,4872,4872 04872 #4872,804 North Broad Stre,NC,28712
Kmart,Camden,4873,4873 04873 #4873,2209 West Dekalb,SC,29020
Kmart,Franklin,4874,4874 04874 #4874,491 Allegheny Blvd,PA,16323
Kmart,Wooster,4875,4875 04875 #4875,1799 Portage Rd,OH,44691
Kmart,Prescott Valley,4880,4880 04880 #4880,7550 East Hwy 69,AZ,86314
Kmart,Waite Park,4882,4882 04882 #4882,40 2Nd Street South,MN,56387
Kmart,Corinth,4883,4883 04883 #4883,118 Highway 72 West,MS,38834
Kmart,Port Charlotte,4886,4886 04886 #4886,19400 Cochran Blvd.,FL,33948
Kmart,Ellenton,4893,4893 04893 #4893,6126 Hwy 301,FL,34222
Kmart,Martinsburg,4897,4897 04897 #4897,1287 Winchester Ave,WV,25405
Kmart,Sweetwater,4898,4898 04898 #4898,902 S Main Street,TN,37874
Kmart,Mentor,4910,4910 04910 #4910,9200 Mentor Avenue,OH,44060
Kmart,Terre Haute,4913,4913 04913 #4913,4651 S Us Highway 41,IN,47802
Kmart,Thornton,4917,4917 04917 #4917,1400 E 104Th Ave,CO,80233
Kmart,Queensbury,4928,4928 04928 #4928,308 Dix Avenue,NY,12804
Kmart,Uniontown,4936,4936 04936 #4936,99 Matthews Drive,PA,15401
Kmart,Chillicothe,4937,4937 04937 #4937,1470 North Bridge St,OH,45601
Kmart,Warren,4939,4939 04939 #4939,2100 Niles Cortland RD SE,OH,44484
Kmart,North Charleston,4953,4953 04953 #4953,8571 Rivers Avenue,SC,29406
Kmart,Greensboro,4956,4956 04956 #4956,1302 Bridford Parkway,NC,27407
Kmart,Burlington,4961,4961 04961 #4961,529 Huffman Mill RD,NC,27215
Kmart,Hillsboro,4964,4964 04964 #4964,1249 North High St,OH,45133
Kmart,CLEVELAND,4966,4966 04966 #4966,7700 Brookpark Road,OH,44129
Kmart,Memphis,4970,4970 04970 #4970,3201 Austin Peay,TN,38128
Kmart,Lubbock,4972,4972 04972 #4972,6501 University Aven,TX,79413
Kmart,Tinley Park,4984,4984 04984 #4984,16300 Harlem,IL,60477
Kmart,Carson,4987,4987 04987 #4987,500 Carson Town Cnt,CA,90745
Kmart,Norfolk,4988,4988 04988 #4988,6101 N Military,VA,23518
Kmart,Southgate,4995,4995 04995 #4995,16705 Fort Street,MI,48195
Kmart,Tucson,4996,4996 04996 #4996,7055 East Broadway,AZ,85710
Kmart,Virginia Beach,4997,4997 04997 #4997,550 First Colonial R,VA,23451
Kmart,Roseville,4998,4998 04998 #4998,17580 Frazho,MI,48066
Kmart,GRAND JUNCTION,7000,7000 07000 #7000,2809 North Ave,CO,81501
Kmart,Muskogee,7003,7003 07003 #7003,4 East Shawnee Road,OK,74403
Kmart,Twin Falls,7006,7006 07006 #7006,2258 Addison Ave Eas,ID,83301
Kmart,Stevens Point,7010,7010 07010 #7010,111 Division St N,WI,54481
Kmart,MOUNT PLEASANT,7014,7014 07014 #7014,2125 S Mission St,MI,48858
Kmart,Hobbs,7016,7016 07016 #7016,2220 North Grimes St,NM,88240
Kmart,Roswell,7017,7017 07017 #7017,1705 S Main St,NM,88203
Kmart,Jefferson City,7018,7018 07018 #7018,2304 Missouri Blvd,MO,65109
Kmart,Cape Girardeau,7021,7021 07021 #7021,11 South Kings Hwy 6,MO,63703
Kmart,Aberdeen,7023,7023 07023 #7023,1815 6Th Ave Se,SD,57401
Kmart,Scottsbluff,7024,7024 07024 #7024,802 East 27Th St,NE,69361
Kmart,Bozeman,7027,7027 07027 #7027,1126 North 7Th Ave,MT,59715
Kmart,Tifton,7028,7028 07028 #7028,144 Virginia Ave Sou,GA,31794
Kmart,Helena,7029,7029 07029 #7029,1700 Cedar St,MT,59601
Kmart,Kalispell,7030,7030 07030 #7030,2024 Us Highway 2 E,MT,59901
Kmart,Menominee,7031,7031 07031 #7031,1101 7Th Ave,MI,49858
Kmart,Harrisonburg,7032,7032 07032 #7032,1835 E Market St,VA,22801
Kmart,Lewiston,7033,7033 07033 #7033,1815 21St St,ID,83501
Kmart,Walla Walla,7034,7034 07034 #7034,2200 East Isaacs Ave,WA,99362
Kmart,Farmington,7035,7035 07035 #7035,3000 East Main St,NM,87402
Kmart,Manhattan,7037,7037 07037 #7037,401 E Poyntz Ave,KS,66502
Kmart,South Burlington,7039,7039 07039 #7039,947 Shelburne Rd,VT,5403
Kmart,Bartlesville,7041,7041 07041 #7041,501 S E Washington B,OK,74006
Kmart,Valparaiso,7042,7042 07042 #7042,2801 Calumet Ave,IN,46383
Kmart,Rock Hill,7043,7043 07043 #7043,2302 Cherry Rd,SC,29732
Kmart,Plattsburgh,7044,7044 07044 #7044,57 CENTRE DR,NY,12901
Kmart,Muscle Shoals,7045,7045 07045 #7045,3401 Woodward Ave,AL,35661
Kmart,Goldsboro,7046,7046 07046 #7046,201 N Berkeley Blvd,NC,27534
Kmart,Hemet,7047,7047 07047 #7047,220 W Stetson Ave,CA,92543
Kmart,West Lebanon,7048,7048 07048 #7048,Rte 12 A,NH,3784
Kmart,Longview,7056,7056 07056 #7056,1100 Mc Cann,TX,75601
Kmart,Pocatello,7057,7057 07057 #7057,3945 Poleline Rd,ID,83201
Kmart,Greenwood,7058,7058 07058 #7058,254 Highway 72 By Pa,SC,29646
Kmart,Shelby,7060,7060 07060 #7060,706 E Dixon Blvd,NC,28152
Kmart,New Iberia,7061,7061 07061 #7061,900 E Admiral Doyle,LA,70560
Kmart,Sumter,7062,7062 07062 #7062,1143 Broad St,SC,29150
Kmart,Morristown,7063,7063 07063 #7063,305 W Economy Rd,TN,37814
Kmart,Dalton,7064,7064 07064 #7064,1308 W Walnut Ave,GA,30720
Kmart,Horseheads,7065,7065 07065 #7065,1020 Center Street,NY,14845
Kmart,Decatur,7066,7066 07066 #7066,1101 Beltline Rd,AL,35601
Kmart,Fort Myers,7067,7067 07067 #7067,3853 Cleveland Ave S,FL,33901
Kmart,Midland,7068,7068 07068 #7068,1820 S Saginaw Rd,MI,48640
Kmart,Maryville,7069,7069 07069 #7069,945 Mccammon Avenue,TN,37801
Kmart,Neptune Beach,7071,7071 07071 #7071,500 Atlantic Blvd,FL,32266
Kmart,Shamokin Dam,7075,7075 07075 #7075,North Susquehanna Tr,PA,17876
Kmart,Murfreesboro,7076,7076 07076 #7076,1266 N W Broad Stree,TN,37129
Kmart,Harlingen,7077,7077 07077 #7077,1129 Morgan Blvd,TX,78550
Kmart,Greenville,7080,7080 07080 #7080,703 Greenville Blvd SE,NC,27858
Kmart,New Castle,7083,7083 07083 #7083,2652 Ellwood Rd,PA,16101
Kmart,Jacksonville,7090,7090 07090 #7090,1130 Henderson Dr,NC,28540
Kmart,Concord,7098,7098 07098 #7098,5100 Clayton Road,CA,94521
Kmart,Acton,7104,7104 07104 #7104,252 Main St,MA,1720
Kmart,Oakdale,7106,7106 07106 #7106,7191 10Th St North,MN,55128
Kmart,Rock Springs,7107,7107 07107 #7107,2450 Foothill Blvd,WY,82901
Kmart,Watertown,7109,7109 07109 #7109,595 Straits Turnpike,CT,6795
Kmart,Claymont,7110,7110 07110 #7110,333 Naamans Road,DE,19703
Kmart,Belle Vernon,7120,7120 07120 #7120,780 Rostraver Rd,PA,15012
Kmart,La Porte,7127,7127 07127 #7127,1460 West State Rd 2,IN,46350
Kmart,Meadville,7129,7129 07129 #7129,16881 Conneaut Lake,PA,16335
Kmart,Lancaster,7131,7131 07131 #7131,1627 Memorial Drive,OH,43130
Kmart,Augusta,7133,7133 07133 #7133,58 Western Avenue,ME,4330
Kmart,Cortland,7134,7134 07134 #7134,854 Route 13 Cortland Crossing,NY,13045
Kmart,Jackson,7139,7139 07139 #7139,P.O. Box 9060,WY,83002
Kmart,Muncie,7140,7140 07140 #7140,1501 E Mcgalliard Rd,IN,47303
Kmart,Pittston,7142,7142 07142 #7142,1874 North Township,PA,18640
Kmart,Tampa,7147,7147 07147 #7147,5400 E Busch Blvd,FL,33617
Kmart,Carrollton,7154,7154 07154 #7154,620 Bankhead Avenue,GA,30117
Kmart,Fairhaven,7155,7155 07155 #7155,9 Plaza Way,MA,2719
Kmart,Beaufort,7160,7160 07160 #7160,2127 Boundary St,SC,29902
Kmart,Ottumwa,7161,7161 07161 #7161,1131 N Quincy Ave,IA,52501
Kmart,Camarillo,7165,7165 07165 #7165,940 Arneill Rd,CA,93010
Kmart,Salina,7169,7169 07169 #7169,400 South Broadway,KS,67401
Kmart,Pikeville,7174,7174 07174 #7174,3889 North Mayo Trai,KY,41501
Kmart,Riverside,7175,7175 07175 #7175,7840 Limonite Ave,CA,92509
Kmart,Belleville,7177,7177 07177 #7177,371 411 Main Street,NJ,7109
Kmart,Marietta,7184,7184 07184 #7184,4269 Roswell Rd,GA,30062
Kmart,Morton,7185,7185 07185 #7185,1075 W Jackson,IL,61550
Kmart,Erie,7187,7187 07187 #7187,"1320 E Gr,view Blv",PA,16504
Kmart,Easton,7192,7192 07192 #7192,320 S 25th Street,PA,18042
Kmart,Springfield,7193,7193 07193 #7193,1930 E Kearney Stree,MO,65803
Kmart,Goleta,7195,7195 07195 #7195,6865 Hollister Ave,CA,93117
Kmart,Philadelphia,7198,7198 07198 #7198,3301 Aramingo Avenue,PA,19134
Kmart,GRAND RAPIDS,7205,7205 07205 #7205,4111 North Kent Mall,MI,49525
Kmart,Superior,7206,7206 07206 #7206,3015 Tower Avenue,WI,54880
Kmart,Coeur D Alene,7207,7207 07207 #7207,W 201 Neider Road,ID,83815
Kmart,Clemmons,7208,7208 07208 #7208,P O Box 986,NC,27012
Kmart,East Liverpool,7209,7209 07209 #7209,15891 State Rt 170,OH,43920
Kmart,Winona,7214,7214 07214 #7214,1122 Hwy 61,MN,55987
Kmart,Moorhead,7216,7216 07216 #7216,3000 Hwy 10 East,MN,56560
Kmart,Indiana,7217,7217 07217 #7217,2334 Oakland Ave,PA,15701
Kmart,Metairie,7223,7223 07223 #7223,7000 Veterans Memori,LA,70003
Kmart,Los Angeles,7225,7225 07225 #7225,6310 W 3Rd Street,CA,90036
Kmart,Grayson,7229,7229 07229 #7229,600 C W Stevens Blvd,KY,41143
Kmart,Rochester,7232,7232 07232 #7232,21 Lilac Mall,NH,3867
Kmart,Kissimmee,7233,7233 07233 #7233,2211 Irlo Bronson Me,FL,34741
Kmart,Somerset,7235,7235 07235 #7235,970 Easton Avenue,NJ,8873
Kmart,Glendale,7236,7236 07236 #7236,6767 West Bell Road,AZ,85308
Kmart,Kokomo,7243,7243 07243 #7243,705 North Dixon,IN,46901
Kmart,Richmond,7246,7246 07246 #7246,3150 National Road W,IN,47374
Kmart,Marysville,7253,7253 07253 #7253,9623 State Avenue,WA,98270
Kmart,Sanford,7254,7254 07254 #7254,2515 Horner Blvd,NC,27330
Kmart,Somerset,7255,7255 07255 #7255,420 East Highway 80,KY,42501
Kmart,Quakertown,7257,7257 07257 #7257,246 Nw End Blvd,PA,18951
Kmart,Williamsburg,7259,7259 07259 #7259,118 Waller Mill Road,VA,23185
Kmart,Jacksonville,7265,7265 07265 #7265,9600 San Jose Blvd,FL,32257
Kmart,Mauldin,7274,7274 07274 #7274,129 West Butler Aven,SC,29662
Kmart,Belvidere,7275,7275 07275 #7275,500 W Chrysler Dr,IL,61008
Kmart,High Point,7278,7278 07278 #7278,2850 S Main St Ste 101,NC,27263
Kmart,Clinton,7282,7282 07282 #7282,8827 Woodyard Rd,MD,20735
Kmart,Torrington,7283,7283 07283 #7283,681 Main St,CT,6790
Kmart,Taft,7287,7287 07287 #7287,301 Gardner Field Ro,CA,93268
Kmart,Louisville,7288,7288 07288 #7288,191 Outer Loop,KY,40214
Kmart,Steger,7289,7289 07289 #7289,3231 Chicago Rd,IL,60475
Kmart,Clifton Heights,7293,7293 07293 #7293,713 E Baltimore Pike,PA,19018
Kmart,Vero Beach,7294,7294 07294 #7294,1501 Us 1,FL,32960
Kmart,PORTLAND,7296,7296 07296 #7296,1400 Wildcat Drive,TX,78374
Kmart,Denver,7303,7303 07303 #7303,363 S Broadway,CO,80209
Kmart,MOUNT VERNON,7304,7304 07304 #7304,3404 Broadway,IL,62864
Kmart,Sioux Falls,7306,7306 07306 #7306,3709 East 10Th Stree,SD,57103
Kmart,Texarkana,7309,7309 07309 #7309,4520 W 7Th St,TX,75501
Kmart,Palm Bay,7310,7310 07310 #7310,4711 Babcock St Ne U,FL,32905
Kmart,New Albany,7317,7317 07317 #7317,3525 Grantline Rd,IN,47150
Kmart,Sioux Falls,7318,7318 07318 #7318,3020 W 12Th St,SD,57104
Kmart,Bradenton,7321,7321 07321 #7321,7350 Manatee Ave Wes,FL,34209
Kmart,O Fallon,7324,7324 07324 #7324,20 O Fallon Square,MO,63366
Kmart,Beaver Falls,7325,7325 07325 #7325,2660 Constitution Blvd,PA,15010
Kmart,GRAND RAPIDS,7326,7326 07326 #7326,1111 S Pokegama Ave,MN,55744
Kmart,Loveland,7329,7329 07329 #7329,2665 W Eisenhower,CO,80537
Kmart,Chehalis,7331,7331 07331 #7331,1201 Nw Louisiana,WA,98532
Kmart,Belleview,7335,7335 07335 #7335,10301 Se Us Hwy 441,FL,34420
Kmart,Clarksburg,7341,7341 07341 #7341,102 Emily Dr,WV,26301
Kmart,El Paso,7347,7347 07347 #7347,411 Zaragosa Road No,TX,79907
Kmart,Johnson City,7353,7353 07353 #7353,3019 Peoples Street,TN,37604
Kmart,London,7354,7354 07354 #7354,1710 W Highway 192,KY,40741
Kmart,Jonesboro,7356,7356 07356 #7356,2010 South Caraway R,AR,72401
Kmart,Goodlettsville,7358,7358 07358 #7358,230 Longhollow Pike,TN,37072
Kmart,Dothan,7360,7360 07360 #7360,2214 Ross Clark Circ,AL,36301
Kmart,Kinston,7361,7361 07361 #7361,1628 N Queen St,NC,28501
Kmart,Leechburg,7372,7372 07372 #7372,451 Hyde Park Rd,PA,15656
Kmart,West Chester,7374,7374 07374 #7374,985 Paoli Pike,PA,19380
Kmart,Barberton,7383,7383 07383 #7383,241 Wooster Rd North,OH,44203
Kmart,MANDEVILLE,7384,7384 07384 #7384,3555 Highway 190,LA,70471
Kmart,Columbus,7388,7388 07388 #7388,2500 Airport Thruway,GA,31904
Kmart,Mckinleyville,7390,7390 07390 #7390,1500 Anna Sparks Way,CA,95521
Kmart,ANDERSON,7393,7393 07393 #7393,2828 N Broadway,IN,46012
Kmart,Grove City,7397,7397 07397 #7397,2400 Stringtown Road,OH,43123
Kmart,Montgomery,7399,7399 07399 #7399,1900 Douglas Road,IL,60538
Kmart,Bloomington,7402,7402 07402 #7402,3175 West 3Rd St,IN,47404
Kmart,Monroe,7407,7407 07407 #7407,2120 W Roosevelt Blvd,NC,28110
Kmart,Topeka,7409,7409 07409 #7409,2240 N Tyler St,KS,66608
Kmart,WEST VALLEY,7412,7412 07412 #7412,3330 S 5600 W St,UT,84120
Kmart,St Croix,7413,7413 07413 #7413,Remainder Matriculat,VI,840
Kmart,Springfield,7415,7415 07415 #7415,6364 Springfield Plaza,VA,22150
Kmart,San Ysidro,7418,7418 07418 #7418,4330 Camino De La Pl,CA,92173
Kmart,Caguas,7419,7419 07419 #7419,Rafael CorderoHwy,PR,725
Kmart,Lumberton,7420,7420 07420 #7420,2750 Roberts Avenue,NC,28358
Kmart,North Logan,7423,7423 07423 #7423,1750 North Main,UT,84341
Kmart,Spanish Fork,7425,7425 07425 #7425,900 E Expressway Lane,UT,84660
Kmart,Layton,7426,7426 07426 #7426,2010 N Main,UT,84041
Kmart,Owensboro,7430,7430 07430 #7430,2815 West Parrish Av,KY,42301
Kmart,Indianapolis,7431,7431 07431 #7431,5101 E Thompson Rd,IN,46237
Kmart,Watertown,7432,7432 07432 #7432,21082 Pioneer Plaza,NY,13601
Kmart,Dalton,7437,7437 07437 #7437,"1203 Clevel, Road",GA,30721
Kmart,Topeka,7444,7444 07444 #7444,1740 Sw Wanamaker Ro,KS,66604
Kmart,Cayey,7446,7446 07446 #7446,Ave Jesus T Pinero 4,PR,736
Kmart,Bedford,7455,7455 07455 #7455,1320 James Ave,IN,47421
Kmart,Lees Summit,7458,7458 07458 #7458,601 North M 291 High,MO,64086
Kmart,Knoxville,7460,7460 07460 #7460,6909 Maynardville Pi,TN,37918
Kmart,Clarksville,7461,7461 07461 #7461,2300 Madison Street,TN,37043
Kmart,Hummelstown,7470,7470 07470 #7470,1170 Mae Street,PA,17036
Kmart,Placerville,7471,7471 07471 #7471,3968 A Missouri Flat,CA,95667
Kmart,Marietta,7477,7477 07477 #7477,502 Pike Street,OH,45750
Kmart,Waipahu,7478,7478 07478 #7478,94 - 825 Lumiaina St,HI,96797
Kmart,Honolulu,7480,7480 07480 #7480,500 Nimitz Hwy,HI,96817
Kmart,Atwater,7481,7481 07481 #7481,1085 Bellevue,CA,95301
Kmart,Hastings,7484,7484 07484 #7484,3001 West 12Th Suite,NE,68901
Kmart,Lodi,7486,7486 07486 #7486,520 S Cherokee Lane,CA,95240
Kmart,Kahului,7488,7488 07488 #7488,424 Dairy Road,HI,96732
Kmart,Omaha,7493,7493 07493 #7493,5808 S 144Th St,NE,68137
Kmart,Chesterton,7498,7498 07498 #7498,750 Indian Boundary,IN,46304
Kmart,MOUNT VERNON,7499,7499 07499 #7499,1500 Coshocton,OH,43050
Kmart,SAGINAW,7524,7524 07524 #7524,5105 Gratiot Road,MI,48638
Kmart,Bradley,7525,7525 07525 #7525,990 N Kinzie Avenue,IL,60915
Kmart,SAINT JOSEPH,7526,7526 07526 #7526,3909 Highway 169 S,MO,64503
Kmart,Brownsburg,7527,7527 07527 #7527,975 N Green St,IN,46112
Kmart,Lima,7532,7532 07532 #7532,2250 Harding Hwy,OH,45804
Kmart,Springfield,7535,7535 07535 #7535,1277 Liberty St,MA,1104
Kmart,Price,7542,7542 07542 #7542,610 West Price River,UT,84501
Kmart,Indio,7551,7551 07551 #7551,81691 Hwy 111,CA,92201
Kmart,Arroyo Grande,7552,7552 07552 #7552,1570 W Branch St,CA,93420
Kmart,Conway,7555,7555 07555 #7555,1610 U Church Street,SC,29526
Kmart,Craig,7560,7560 07560 #7560,1198 West Victory,CO,81625
Kmart,Arecibo,7566,7566 07566 #7566,State Road 2 Km 802,PR,612
Kmart,Bayamon,7570,7570 07570 #7570,De Diego Expressway,PR,961
Kmart,Colorado Springs,7572,7572 07572 #7572,5885 Palmer Park Blv,CO,80915
Kmart,Omaha,7579,7579 07579 #7579,13450 Maple Road,NE,68164
Kmart,Roseburg,7580,7580 07580 #7580,2757 Nw Stewart Pkwy,OR,97471
Kmart,Lewisburg,7582,7582 07582 #7582,97 Seneca Trail,WV,24901
Kmart,Marshalltown,7583,7583 07583 #7583,1720 S Center,IA,50158
Kmart,Fontana,7587,7587 07587 #7587,17099 Valley Blvd,CA,92335
Kmart,Wall,7602,7602 07602 #7602,1825 Highway 35,NJ,7719
Kmart,Hesperia,7606,7606 07606 #7606,16968 Main Street,CA,92345
Kmart,Hopkinsville,7607,7607 07607 #7607,3010 Fort Campbell B,KY,42240
Kmart,Victor,7608,7608 07608 #7608,10 Cobblestone Court,NY,14564
Kmart,Canton,7610,7610 07610 #7610,1750 Marietta Hwy St,GA,30114
Kmart,Lexington,7616,7616 07616 #7616,748 West Main Street,SC,29072
Kmart,West Jordan,7618,7618 07618 #7618,1442 W 90Th South,UT,84088
Kmart,Atascadero,7619,7619 07619 #7619,3980 El Camino Real,CA,93422
Kmart,Virginia,7620,7620 07620 #7620,1414 SOUTH 12TH AVENUE,MN,55792
Kmart,Oak Harbor,7621,7621 07621 #7621,32165 State Route 20,WA,98277
Kmart,Franklin,7622,7622 07622 #7622,Westgate Plaza Road,NC,28734
Kmart,Gonzales,7623,7623 07623 #7623,115 South Airline Hi,LA,70737
Kmart,Draper,7624,7624 07624 #7624,1055 E Draper Parkway,UT,84020
Kmart,Los Angeles,7625,7625 07625 #7625,5850 S Vermont Avenu,CA,90044
Kmart,Waynesville,7626,7626 07626 #7626,1209 Russ Avenue,NC,28786
Kmart,ALEXANDRIA,7632,7632 07632 #7632,2310 South Highway 2,MN,56308
Kmart,Port Huron,7634,7634 07634 #7634,1179 32Nd Street,MI,48060
Kmart,Chula Vista,7636,7636 07636 #7636,875 East H Street,CA,91910
Kmart,Santa Paula,7639,7639 07639 #7639,895 Faulkner Road,CA,93060
Kmart,Mobile,7640,7640 07640 #7640,312 Z Schillinger Rd,AL,36608
Kmart,Natchez,7642,7642 07642 #7642,280 John R Junkin Dr,MS,39120
Kmart,Perry,7643,7643 07643 #7643,1809 Byron Butler Pa,FL,32347
Kmart,Harrison,7644,7644 07644 #7644,10560 Harrison Ave,OH,45030
Kmart,Zanesville,7645,7645 07645 #7645,2770 Maysville Pike,OH,43701
Kmart,Marysville,7646,7646 07646 #7646,1000 N Main Street,OH,43040
Kmart,Mauston,7648,7648 07648 #7648,800 North Union,WI,53948
Kmart,Ripon,7649,7649 07649 #7649,1200 West Fond Du La,WI,54971
Kmart,West Baraboo,7650,7650 07650 #7650,625 State Hwy 136,WI,53913
Kmart,Big Bear Lake,7653,7653 07653 #7653,P O Box 7047,CA,92315
Kmart,Bronx,7654,7654 07654 #7654,300 Baychester Ave,NY,10475
Kmart,Mesa,7655,7655 07655 #7655,1445 South Power Roa,AZ,85206
Kmart,Medford,7656,7656 07656 #7656,190 Medford Plaza,WI,54451
Kmart,SANDUSKY,7660,7660 07660 #7660,545 West Sanilac,MI,48471
Kmart,Carolina,7665,7665 07665 #7665,65Th Infantry Avenue,PR,985
Kmart,Stevensville,7673,7673 07673 #7673,200 Kent Landing,MD,21666
Kmart,Sidney,7676,7676 07676 #7676,171 Delaware Avenue,NY,13838
Kmart,Wellsville,7677,7677 07677 #7677,121 Bolivar Road,NY,14895
Kmart,Honolulu,7680,7680 07680 #7680,4561 Salt Lake Blvd,HI,96818
Kmart,LIHUE,7682,7682 07682 #7682,4303 Nawiliwili Road,HI,96766
Kmart,KAILUA KONA,7683,7683 07683 #7683,74-5456 Kamaka Eha Ave,HI,96740
Kmart,Olean,7695,7695 07695 #7695,2801 W State St,NY,14760
Kmart,Lebanon,7699,7699 07699 #7699,1745 Quentin,PA,17042
Kmart,Warrenton,7707,7707 07707 #7707,141 West Lee Highway,VA,20186
Kmart,Hazleton,7708,7708 07708 #7708,5 Laurel Mall,PA,18202
Kmart,Branson,7710,7710 07710 #7710,1477 State Highway 2,MO,65616
Kmart,Miami,7711,7711 07711 #7711,20505 South Dixie Hi,FL,33189
Kmart,Edgewater,7713,7713 07713 #7713,3255 Solomons Island Rd S Riner Colony,MD,21037
Kmart,Waynesboro,7717,7717 07717 #7717,2712 West Main Stree,VA,22980
Kmart,Hixson,7718,7718 07718 #7718,5380 Highway 153,TN,37343
Kmart,Columbus,7719,7719 07719 #7719,2308 Highway 45 Nort,MS,39701
Kmart,Rehoboth Beach,7725,7725 07725 #7725,4364 Highway 1,DE,19971
Kmart,Alpena,7733,7733 07733 #7733,2355 Us 23 South,MI,49707
Kmart,Kenton,7736,7736 07736 #7736,1005 E Columbus St,OH,43326
Kmart,Ponce,7741,7741 07741 #7741,2643 Ponce Bypass,PR,728
Kmart,Carlisle,7746,7746 07746 #7746,1180 Walnut Bottom R,PA,17013
Kmart,New York,7749,7749 07749 #7749,250 West 34Th Street,NY,10119
Kmart,Yauco,7752,7752 07752 #7752,601 Yauco Plaza,PR,698
Kmart,Anderson,7754,7754 07754 #7754,3801 B Clemson Blvd,SC,29621
Kmart,Deming,7755,7755 07755 #7755,1205 East Pine,NM,88030
Kmart,Bishop,7756,7756 07756 #7756,1200 N Main Street,CA,93514
Kmart,Charles City,7767,7767 07767 #7767,"1405 S Gr,",IA,50616
Kmart,Guaynabo,7768,7768 07768 #7768,"Pr20 , Esmeralda",PR,970
Kmart,Lafayette,7775,7775 07775 #7775,3530 State Rd 38 E,IN,47905
Kmart,New York,7777,7777 07777 #7777,770 Broadway,NY,10003
Kmart,Hato Rey,7783,7783 07783 #7783,Calle Kalaf 525,PR,918
Kmart,Vega Alta,7784,7784 07784 #7784,Carr Estatal Number,PR,692
Kmart,West Palm Beach,7786,7786 07786 #7786,4340 Okeechobee Boul,FL,33409
Kmart,Bayamon,7788,7788 07788 #7788,"Pr 167 , Pr 199",PR,957
Kmart,St Thomas,7793,7793 07793 #7793,3 10 St Estate Thoma,VI,802
Kmart,Abilene,7795,7795 07795 #7795,4565 S 1St Street,TX,79605
Kmart,Liberty,7903,7903 07903 #7903,2001 W Kansas St,MO,64068
Kmart,Spanaway,7904,7904 07904 #7904,17911 Pacific Ave,WA,98387
Kmart,Lufkin,7912,7912 07912 #7912,3061 John Redditt Dr,TX,75904
Kmart,Eureka,7916,7916 07916 #7916,4325 Broadway,CA,95503
Kmart,Greenville,9005,9005 09005 #9005,695 Wagner Ave,OH,45331
Kmart,Huntington,9018,9018 09018 #9018,2727 Guilford St,IN,46750
Kmart,Sturgis,9026,9026 09026 #9026,69080 M-66,MI,49091
Kmart,Peru,9030,9030 09030 #9030,11 Sherwood Square,IN,46970
Kmart,Escanaba,9065,9065 09065 #9065,801 N Lincoln Rd,MI,49829
Kmart,Sheridan,9074,9074 09074 #9074,2571 N Business 90,WY,82801
Kmart,Lapeer,9088,9088 09088 #9088,863 South Main,MI,48446
Kmart,Fostoria,9096,9096 09096 #9096,620 Plaza Dr,OH,44830
Kmart,Casa Grande,9101,9101 09101 #9101,1214 E Florence Blvd,AZ,85122
Kmart,Sedalia,9105,9105 09105 #9105,1400 S Limit,MO,65301
Kmart,Alamogordo,9119,9119 09119 #9119,"3201 N White S, Bl",NM,88310
Kmart,Madisonville,9121,9121 09121 #9121,50 Madison Square Dr,KY,42431
Kmart,Warsaw,9122,9122 09122 #9122,3350 Lake City Hwy,IN,46580
Kmart,Enola,9123,9123 09123 #9123,463 N Enola Rts 11,PA,17025
Kmart,Elwood,9124,9124 09124 #9124,1519 State Road 37 S,IN,46036
Kmart,Front Royal,9125,9125 09125 #9125,465 South St,VA,22630
Kmart,MOUNT AIRY,9129,9129 09129 #9129,100 Mayberry Mall,NC,27030
Kmart,Rio Grande,9133,9133 09133 #9133,Rte 9 Rte 47 Rio Mall,NJ,8242
Kmart,Waynesboro,9140,9140 09140 #9140,706 E Main St,PA,17268
Kmart,Great Barrington,9146,9146 09146 #9146,354 Stockbridge Rd,MA,1230
Kmart,Newburyport,9147,9147 09147 #9147,45 Storey Ave,MA,1950
Kmart,South Lake Tahoe,9153,9153 09153 #9153,1056 Emerald Bay Roa,CA,96150
Kmart,Covington,9154,9154 09154 #9154,129 Mall Road,VA,24426
Kmart,Berwick,9161,9161 09161 #9161,1520 W Front St,PA,18603
Kmart,Sayre,9166,9166 09166 #9166,1000 N Elmira St,PA,18840
Kmart,Huron,9184,9184 09184 #9184,1000 18Th St Sw,SD,57350
Kmart,GRAND BLANC,9186,9186 09186 #9186,12730 S Saginaw,MI,48439
Kmart,Beckley,9207,9207 09207 #9207,301 Beckley Plaza,WV,25801
Kmart,Jesup,9217,9217 09217 #9217,950 Sunset Blvd,GA,31545
Kmart,Algona,9220,9220 09220 #9220,1501 Hwy 169 N,IA,50511
Kmart,Cherokee,9222,9222 09222 #9222,1111 N 2Nd,IA,51012
Kmart,Marathon,9224,9224 09224 #9224,5561 Overseas Hwy,FL,33050
Kmart,Vernal,9225,9225 09225 #9225,1153 W Highway 40,UT,84078
Kmart,Oelwein,9233,9233 09233 #9233,2105 South Frederick,IA,50662
Kmart,Raton,9238,9238 09238 #9238,1235 S 2Nd,NM,87740
Kmart,Richfield,9241,9241 09241 #9241,1040 S Us Hwy 89,UT,84701
Kmart,Red Oak,9243,9243 09243 #9243,2501 N Broadway Rr 2,IA,51566
Kmart,Cheboygan,9245,9245 09245 #9245,1131 E State St,MI,49721
Kmart,Palmer,9255,9255 09255 #9255,Wilbraham Road,MA,1069
Kmart,Tucumcari,9264,9264 09264 #9264,2100 E Tucumcari Blv,NM,88401
Kmart,Artesia,9267,9267 09267 #9267,2307 West Main,NM,88210
Kmart,Pierre,9273,9273 09273 #9273,1615 N Harrison Ave,SD,57501
Kmart,Greenwich,9274,9274 09274 #9274,1251 State Rte 29 St,NY,12834
Kmart,Glendive,9306,9306 09306 #9306,1515 W Bell St,MT,59330
Kmart,Webster City,9309,9309 09309 #9309,2307 Superior,IA,50595
Kmart,Alliance,9319,9319 09319 #9319,1515 W 3Rd,NE,69301
Kmart,Seneca,9320,9320 09320 #9320,201 Applewood Ctr Pl,SC,29678
Kmart,El Paso,9325,9325 09325 #9325,"655 Sunl, Park",TX,79912
Kmart,Long Beach,9328,9328 09328 #9328,2900 Bellflower Blvd,CA,90815
Kmart,Brownsville,9329,9329 09329 #9329,2440 Pablo Kisel Blv,TX,78526
Kmart,Springfield,9332,9332 09332 #9332,3101 South Glenstone,MO,65804
Kmart,Florissant,9334,9334 09334 #9334,2855 Dunn Road,MO,63033
Kmart,Peoria,9335,9335 09335 #9335,901 West Lake Avenue,IL,61614
Kmart,Independence,9336,9336 09336 #9336,"4023 South Nol,",MO,64055
Kmart,SAINT LOUIS,9338,9338 09338 #9338,3901 Lemay Ferry Roa,MO,63125
Kmart,Oak Lawn,9339,9339 09339 #9339,4101 West 95Th St,IL,60453
Kmart,Norridge,9348,9348 09348 #9348,4201 North Harlem Av,IL,60634
Kmart,Belleville,9351,9351 09351 #9351,7230 Westfield Plaza,IL,62223
Kmart,Crystal City,9353,9353 09353 #9353,155 Twin City Mall,MO,63019
Kmart,Griffith,9354,9354 09354 #9354,430 West Ridge Road,IN,46319
Kmart,Davenport,9359,9359 09359 #9359,3808 Brady Street,IA,52806
Kmart,Forest Park,9360,9360 09360 #9360,7600 West Roosevelt,IL,60130
Kmart,Chicago,9376,9376 09376 #9376,5033 North Elston,IL,60630
Kmart,Huntington,9381,9381 09381 #9381,839 New York Avenue,NY,11743
Kmart,Philadelphia,9382,9382 09382 #9382,8800 Frankford Ave,PA,19136
Kmart,Burnsville,9383,9383 09383 #9383,14230 Burnhaven Dr,MN,55306
Kmart,Clio,9385,9385 09385 #9385,4290 West Vienna Roa,MI,48420
Kmart,Las Vegas,9389,9389 09389 #9389,7501 W Washington,NV,89128
Kmart,West Seneca,9392,9392 09392 #9392,349 Orchard Park Road,NY,14224
Kmart,Fajardo,9394,9394 09394 #9394,State Road 3,PR,738
Kmart,WEST SAINT PAUL,9397,9397 09397 #9397,50 Signal Hill Center,MN,55118
Kmart,Phoenixville,9409,9409 09409 #9409,1000 Nutt Road,PA,19460
Kmart,West Orange,9413,9413 09413 #9413,235 Prospect Avenue,NJ,7052
Kmart,Yorktown Heights,9414,9414 09414 #9414,Rte 118 355 Downing,NY,10598
Kmart,Mahopac,9415,9415 09415 #9415,987 Route 6,NY,10541
Kmart,White Plains,9416,9416 09416 #9416,399 Tarrytown Road,NY,10607
Kmart,Rosedale,9418,9418 09418 #9418,253-01 Rockaway Blvd,NY,11422
Kmart,Middle Village,9419,9419 09419 #9419,66-26 Metropolitan Ave,NY,11379
Kmart,Bronx,9420,9420 09420 #9420,1998 Bruckner Blvd,NY,10473
Kmart,Bridgehampton,9423,9423 09423 #9423,2044 Montauk Highway,NY,11932
Kmart,Kapolei,9430,9430 09430 #9430,500 Kamokila Bvd,HI,96707
Kmart,Elmhurst,9433,9433 09433 #9433,265 S State Rte 83,IL,60126
Kmart,Pleasant Hills,9438,9438 09438 #9438,720 Clairton Bvld,PA,15236
Kmart,Cranston,9447,9447 09447 #9447,296 Garfield Avenue,RI,2920
Kmart,Vails Gate,9462,9462 09462 #9462,374 Windsor Hwy Rte,NY,12584
Kmart,Somers Point,9463,9463 09463 #9463,250 New Road Rte 9,NJ,8244
Kmart,Frankfort,9503,9503 09503 #9503,Us 127 S,KY,40601
Kmart,Palatka,9511,9511 09511 #9511,111 TownCountry Dr,FL,32177
Kmart,Corbin,9513,9513 09513 #9513,P.O. Box 2506,KY,40701
Kmart,Ontario,9515,9515 09515 #9515,1648 East Idaho Ave,OR,97914
Kmart,Gulfport,9520,9520 09520 #9520,12057 Highway 49,MS,39503
Kmart,Madawaska,9521,9521 09521 #9521,389 Main Street,ME,4756
Kmart,Elkton,9524,9524 09524 #9524,161 Big Elk Mall,MD,21921
Kmart,Norwalk,9527,9527 09527 #9527,330 Milan Rd,OH,44857
Kmart,Kingman,9528,9528 09528 #9528,"3340 E ,y Devine A",AZ,86401
Kmart,Warren,9529,9529 09529 #9529,1666 Market St Exten,PA,16365
Kmart,Effingham,9532,9532 09532 #9532,1006 N Keller Dr,IL,62401
Kmart,Thief River Falls,9534,9534 09534 #9534,1547 Highway 59 Sout,MN,56701
Kmart,Bennington,9536,9536 09536 #9536,19 Kocher Drive,VT,5201
Kmart,Fergus Falls,9537,9537 09537 #9537,1403 W Lincoln Ave,MN,56537
Kmart,Gallipolis,9538,9538 09538 #9538,185 Upper River Road,OH,45631
Kmart,Thorndale,9539,9539 09539 #9539,3205 Lincoln Hwy,PA,19372
Kmart,Herkimer,9542,9542 09542 #9542,200 S Washington St,NY,13350
Kmart,Boone,9547,9547 09547 #9547,1620 Blowing Rock Ro,NC,28607
Kmart,Morganton,9549,9549 09549 #9549,110 112 Bost Rd,NC,28655
Kmart,Paradise,9551,9551 09551 #9551,6600 Clark Road,CA,95969
Kmart,Grayling,9557,9557 09557 #9557,2425 S I 75 Business,MI,49738
Kmart,Fort Payne,9560,9560 09560 #9560,101 Cracker Barrel R,AL,35968
Kmart,Reidsville,9563,9563 09563 #9563,1623 Way,NC,27320
Kmart,Dickinson,9564,9564 09564 #9564,1761 Third Avenue W,ND,58601
Kmart,Cullman,9571,9571 09571 #9571,1731 2Nd Ave Sw,AL,35055
Kmart,Shawnee,9582,9582 09582 #9582,2323 2327 N Harrison,OK,74804
Kmart,Sault Sainte Marie,9586,9586 09586 #9586,2760 I 75 Business S,MI,49783
Kmart,Bath,9589,9589 09589 #9589,420 West Morris St,NY,14810
Kmart,Oscoda,9593,9593 09593 #9593,P.O. Box 10,MI,48750
Kmart,Auburn,9608,9608 09608 #9608,2505 Bell Rd,CA,95603
Kmart,Xenia,9611,9611 09611 #9611,200 W Main St,OH,45385
Kmart,Key Largo,9614,9614 09614 #9614,101499 Overseas High,FL,33037
Kmart,Morehead City,9619,9619 09619 #9619,4915 Arendell St,NC,28557
Kmart,Albertville,9620,9620 09620 #9620,7200 Us Highway 431,AL,35950
Kmart,Lebanon,9621,9621 09621 #9621,1443 W Main St,TN,37087
Kmart,Jasper,9622,9622 09622 #9622,300 Highway 78 E,AL,35501
Kmart,Springdale,9623,9623 09623 #9623,3142 West Sunset Ave,AR,72762
Kmart,Calhoun,9625,9625 09625 #9625,122 Wc Bryant Parkwa,GA,30701
Kmart,Tullahoma,9629,9629 09629 #9629,1806 N Jackson St,TN,37388
Kmart,Rexburg,9630,9630 09630 #9630,125 Valley River Dri,ID,83440
Kmart,Dickson,9633,9633 09633 #9633,301 Henslee Drive,TN,37055
Kmart,Scottsboro,9639,9639 09639 #9639,22991 John T Reid Pk,AL,35768
Kmart,Alma,9640,9640 09640 #9640,1755 Wright Ave,MI,48801
Kmart,Clarion,9642,9642 09642 #9642,22631 rte 68 STE 30,PA,16214
Kmart,Leavenworth,9647,9647 09647 #9647,4820 S 4Th St Traffi,KS,66048
Kmart,Athens,9648,9648 09648 #9648,104 Highway 31 North,AL,35611
Kmart,Cornelia,9657,9657 09657 #9657,365 Habersham Villag,GA,30531
Kmart,Ephrata,9662,9662 09662 #9662,1127 S State St,PA,17522
Kmart,Crossville,9674,9674 09674 #9674,"190 Cumberl, Squar",TN,38555
Kmart,Streetsboro,9676,9676 09676 #9676,9059 State Rt 14,OH,44241
Kmart,West Frankfort,9680,9680 09680 #9680,# 3 West Frankfort P,IL,62896
Kmart,Maysville,9684,9684 09684 #9684,1581 Us 68 South,KY,41056
Kmart,International Falls,9689,9689 09689 #9689,1606 Hwy 11 71,MN,56649
Kmart,Webster,9692,9692 09692 #9692,70 Worcester Road,MA,1570
Kmart,Marine City,9693,9693 09693 #9693,6730 S River Road,MI,48039
Kmart,Gas City,9695,9695 09695 #9695,1015 E Main St,IN,46933
Kmart,Conneaut,9703,9703 09703 #9703,199 Gateway Avenue,OH,44030
Kmart,Russellville,9711,9711 09711 #9711,2821 East Main Stree,AR,72801
Kmart,Smyrna,9728,9728 09728 #9728,333 N Lowry St,TN,37167
Kmart,Dubois,9733,9733 09733 #9733,Rd 3 State Rte 255 N,PA,15801
Kmart,Sevierville,9735,9735 09735 #9735,217 Forks Of River P,TN,37862
Kmart,Cedar Bluff,9737,9737 09737 #9737,1051Claypool Hill Rd,VA,24609
Kmart,Bad Axe,9745,9745 09745 #9745,760 N Van Dyke,MI,48413
Kmart,Grass Valley,9746,9746 09746 #9746,111 W Mc Knight Way,CA,95949
Kmart,Cody,9751,9751 09751 #9751,2121 17Th St,WY,82414
Kmart,Visalia,9761,9761 09761 #9761,3247 Noble Ave,CA,93277
Kmart,MOUNT PLEASANT,9770,9770 09770 #9770,Route 819 South,PA,15666
Kmart,Rio Piedras,9789,9789 09789 #9789,Winston Churchill Av,PR,926
Kmart,Laramie,9792,9792 09792 #9792,750 North 3Rd St,WY,82070
Kmart,Inverness,9793,9793 09793 #9793,1660 Hwy 41 North,FL,34450
Kmart,SAINT GEORGE,9794,9794 09794 #9794,745 S Bluff,UT,84770
Kmart,Scotts Valley,9797,9797 09797 #9797,270 Mt Hermon Road,CA,95066
Kmart,Streator,9804,9804 09804 #9804,11 N Point Shopping,IL,61364
Kmart,Hamilton,9808,9808 09808 #9808,1235 North First Str,MT,59840
Kmart,Detroit,9814,9814 09814 #9814,19990 Telegraph,MI,48219
Kmart,Henderson,9819,9819 09819 #9819,10405 S Eastern Aven,NV,89052
