keywords,city,Aggdata Store Number,store_number,address,state,zip_code
Lane Bryant,WATERLOO,4101,XXXXX4101X 0004101X,655 ROUTE 318 SUITE 60,NY,13165
Lane Bryant,WOODBRIDGE,4102,XXXXX4102X 0004102X,2700 POTOMAC MILLS CIRCLE,VA,22192
Lane Bryant,REHOBOTH BEACH,4103,XXXXX4103X 0004103X,36470 SEASIDE OUTLET DRIVE,DE,19971
Lane Bryant,GURNEE,4104,XXXXX4104X 0004104X,6170 GRAND AVENUE #743,IL,60031
Lane Bryant,LAKEWOOD,4105,XXXXX4105X 0004105X,14500 W COLFAX AVE,CO,80401
Lane Bryant,SAN YSIDRO,4106,XXXXX4106X 0004106X,4155 CAMINO DE LA PLAZA,CA,92173
Lane Bryant,WRENTHAM,4107,XXXXX4107X 0004107X,1 PREMIUM OUTLETS BLVD#470,MA,2093
Lane Bryant,BOSSIER CITY,4109,XXXXX4109X 0004109X,525 BOARDWALK BLVD&BLDG J,LA,71111
Lane Bryant,JEFFERSONVILLE,4110,XXXXX4110X 0004110X,8430 FACTORY SHOPS BLVD,OH,43128
Lane Bryant,HERSHEY,4111,XXXXX4111X 0004111X,68 OUTLET SQUARE,PA,17033
Lane Bryant,CANUTILLO,4112,XXXXX4112X 0004112X,7051 S. DESERT BLVD #E575,TX,79835
Lane Bryant,LANCASTER,4118,XXXXX4118X 0004118X,35 SOUTH WILLOWDALE DRIVE,PA,17602
Lane Bryant,LAKE GEORGE,4120,XXXXX4120X 0004120X,1424 STATE ROUTE 9 & SP 4,NY,12845
Lane Bryant,VERO BEACH,4121,XXXXX4121X 0004121X,1679 94TH DRIVE & STE F180,FL,32966
Lane Bryant,KANSAS CITY,4124,XXXXX4124X 0004124X,1813 VILLAGE WEST PKY M123,KS,66111
Lane Bryant,SMITHFIELD,4126,XXXXX4126X 0004126X,1249 INDUSTRIAL PARK DRIVE,NC,27577
Lane Bryant,TILTON,4128,XXXXX4128X 0004128X,120 LACONIA ROAD,NH,3276
Lane Bryant,AURORA,4130,XXXXX4130X 0004130X,549 SOUTH CHILLICOTHE RD,OH,44202
Lane Bryant,LEBANON,4132,XXXXX4132X 0004132X,510 OUTLET VILLAGE BLVD,TN,37087
Lane Bryant,WILLIAMSBURG,4138,XXXXX4138X 0004138X,103&104 TANGER DRIVE,IA,52361
Lane Bryant,TINTON FALLS,4139,XXXXX4139X 0004139X,1 PREMIUM OUTLETS BLVD 379,NJ,7753
Lane Bryant,OSHKOSH,4140,XXXXX4140X 0004140X,3001 S WASHBURN STREET&D50,WI,54904
Lane Bryant,MONROE,4142,XXXXX4142X 0004142X,946 PREMIUM OUTLETS DRIVE,OH,45050
Lane Bryant,EDINBURGH,4143,XXXXX4143X 0004143X,3130 OUTLET DRIVE 1,IN,46124
Lane Bryant,ORLANDO,4145,XXXXX4145X 0004145X,4953 INTERNATIONAL DR 1B12,FL,32819
Lane Bryant,ST AUGUSTINE,4146,XXXXX4146X 0004146X,2700 STATE ROAD 16 #1007,FL,32092
Lane Bryant,GONZALES,4149,XXXXX4149X 0004149X,2400 TANGER BOULEVARD #148,LA,70737
Lane Bryant,SPARKS,4150,XXXXX4150X 0004150X,1420 SCHEELS DRIVE & #114,NV,89434
Lane Bryant,PIGEON FORGE,4153,XXXXX4153X 0004153X,2640 TEASTER LANE,TN,37863
Lane Bryant,FOLEY,4155,XXXXX4155X 0004155X,2601 S MCKENZIE ST#220&222,AL,36535
Lane Bryant,OKLAHOMA CITY,4156,XXXXX4156X 0004156X,7630 W RENO AVE SUITE 245,OK,73127
Lane Bryant,ESSEX JUNCTION,4159,XXXXX4159X 0004159X,21 ESSEX WAY & SUITE 113,VT,5452
Lane Bryant,COEUR DALENE,4161,XXXXX4161X 0004161X,291 W. CANFIELD AVENUE,ID,83814
Lane Bryant,TEMPE,4165,XXXXX4165X 0004165X,5000 S. ARIZONA MILLS CIR,AZ,85282
Lane Bryant,VICKSBURG,4167,XXXXX4167X 0004167X,4000 S FRONTAGE ROAD #111,MS,39180
Lane Bryant,LAS VEGAS,4168,XXXXX4168X 0004168X,7400 SOUTH LAS VEGAS BLVD,NV,89123
Lane Bryant,TUSCOLA,4171,XXXXX4171X 0004171X,E500 TUSCOLA BLVD,IL,61953
Lane Bryant,GRAND PRAIRIE,4174,XXXXX4174X 0004174X,2950 WEST INTERSTATE 20,TX,75052
Lane Bryant,BLUFFTON,4175,XXXXX4175X 0004175X,1254 FORDING ISLAND ROAD,SC,29910
Lane Bryant,CONROE,4176,XXXXX4176X 0004176X,1111 LEAGUE LINE ROAD #184,TX,77303
Lane Bryant,VACAVILLE,4177,XXXXX4177X 0004177X,252 NUT TREE ROAD #252,CA,95687
Lane Bryant,PISMO BEACH,4178,XXXXX4178X 0004178X,333 FIVE CITIES DRIVE R133,CA,93449
Lane Bryant,PRIMM,4179,XXXXX4179X 0004179X,32100 LAS VEGAS BLVD. S,NV,89019
Lane Bryant,WOODSTOCK,4180,XXXXX4180X 0004180X,915 RIDGEWALK PKWY,GA,30188
Lane Bryant,JACKSON,4182,XXXXX4182X 0004182X,537 MONMOUTH ROAD,NJ,8527
Lane Bryant,MERRIMACK,4183,XXXXX4183X 0004183X,80 PREMIUM OUTLETS BLVD,NH,3054
Lane Bryant,MICHIGAN CITY,4184,XXXXX4184X 0004184X,601 WABASH ST SUITE 201,IN,46360
Lane Bryant,TROUTDALE,4185,XXXXX4185X 0004185X,450 NW 257TH AVE SP#332,OR,97060
Lane Bryant,TEXAS CITY,4186,XXXXX4186X 0004186X,5885 GULF FWY,TX,77591
Lane Bryant,CHESTERFIELD,4187,XXXXX4187X 0004187X,18505 OUTLET BLVD,MO,63005
Lane Bryant,BURLINGTON,4188,XXXXX4188X 0004188X,268 FASHION WAY,WA,98233
Lane Bryant,BRANSON,4189,XXXXX4189X 0004189X,300 TANGER BLVD,MO,65616
Lane Bryant,CHANDLER,4190,XXXXX4190X 0004190X,4976 PREMIUM OUTLETS WAY,AZ,85048
Lane Bryant,GLENDALE,4191,XXXXX4191X 0004191X,6800 N 95 AVE,AZ,85305
Lane Bryant,PLEASANT PRAIRIE,4192,XXXXX4192X 0004192X,11211 120TH AVE,WI,53158
Lane Bryant,WILLIAMSBURG,4193,XXXXX4193X 0004193X,5625 RICHMOND ROAD,VA,23188
Lane Bryant,PEARL,4197,XXXXX4197X 0004197X,200 BASS PRO DR,MS,39208
Lane Bryant,TERRELL,4201,XXXXX4201X 0004201X,301 TANGER DRIVE #211,TX,75160
Lane Bryant,PHOENIX,4203,XXXXX4203X 0004203X,4250 WEST ANTHEM WAY #565,AZ,85086
Lane Bryant,LOCUST GROVE,4204,XXXXX4204X 0004204X,1000 TANGER DRIVE,GA,30248
Lane Bryant,CENTRALIA,4207,XXXXX4207X 0004207X,106 WEST HIGH STREET,WA,98531
Lane Bryant,ELLENTON,4213,XXXXX4213X 0004213X,5245 FACTORY SHOPS BLVD,FL,34222
Lane Bryant,WESTBROOK,4238,XXXXX4238X 0004238X,314 FLATROCK PLACE E110,CT,6498
Lane Bryant,RIVERHEAD,4239,XXXXX4239X 0004239X,1770 W. MAIN ST. #401,NY,11901
Lane Bryant,HAGERSTOWN,4241,XXXXX4241X 0004241X,420 PREMIUM OUTLETS BLVD,MD,21740
Lane Bryant,ALBERTVILLE,4242,XXXXX4242X 0004242X,6415 LABEAUX AVE NE #B260,MN,55301
Lane Bryant,GETTYSBURG,4245,XXXXX4245X 0004245X,1863 GETTYSBURG VILLAGE DR,PA,17325
Lane Bryant,HILLSBORO,4246,XXXXX4246X 0004246X,104 INTRSTE HWY 35 NE #108,TX,76645
Lane Bryant,BURBANK,4247,XXXXX4247X 0004247X,9913 AVON LAKE ROAD #510,OH,44214
Lane Bryant,HOWELL,4249,XXXXX4249X 0004249X,1475 NORTH BURKHART ROAD,MI,48843
Lane Bryant,KATY,4251,XXXXX4251X 0004251X,5000 KATY MILLS CIRCLE 530,TX,77494
Lane Bryant,CONCORD,4254,XXXXX4254X 0004254X,8111 CONCORD MILLS BLVD615,NC,28027
Lane Bryant,ROBINSONVILLE,4263,XXXXX4263X 0004263X,13188 US HIGHWAY 61 NORTH,MS,38664
Lane Bryant,ELIZABETH,4267,XXXXX4267X 0004267X,651 KAPKOWSKI ROAD,NJ,7201
Lane Bryant,NASHVILLE,4272,XXXXX4272X 0004272X,114 OPRY MILLS DRIVE,TN,37214
Lane Bryant,HANOVER,4276,XXXXX4276X 0004276X,7000 ARUNDEL MILLS CIRCLE,MD,21076
Lane Bryant,OLATHE,4277,XXXXX4277X 0004277X,20358 WEST 151ST STREET,KS,66061
Lane Bryant,AUBURN,4278,XXXXX4278X 0004278X,1101 SUPERMALL WAY,WA,98001
Lane Bryant,ALLEN,4279,XXXXX4279X 0004279X,820 WEST STACY ROAD #482,TX,75013
Lane Bryant,SEVIERVILLE,4280,XXXXX4280X 0004280X,1645 PARKWAY #1200,TN,37862
Lane Bryant,PHILADELPHIA,4295,XXXXX4295X 0004295X,1900 FRANKLIN MILLS CIRCLE,PA,19154
Lane Bryant,WOODBURN,4307,XXXXX4307X 0004307X,1001 N ARNEY ROAD,OR,97071
Lane Bryant,ATLANTIC CITY,4309,XXXXX4309X 0004309X,25 NORTH MICHIGAN AVENUE,NJ,8401
Lane Bryant,LAUGHLIN,4314,XXXXX4314X 0004314X,1955 S CASINO DRIVE&#250,NV,89029
Lane Bryant,NORTH BEND,4318,XXXXX4318X 0004318X,521 S FORK AVE SW & G H I,WA,98045
Lane Bryant,PETALUMA,4319,XXXXX4319X 0004319X,2200 PETALUMA BLVD N,CA,94952
Lane Bryant,MEBANE,4322,XXXXX4322X 0004322X,4000 ARROWHEAD BLVD #120,NC,27302
Lane Bryant,TULALIP,4330,XXXXX4330X 0004330X,10600 QUIL CEDA BLVD #515,WA,98271
Lane Bryant,TULARE,4333,XXXXX4333X 0004333X,1725 RETHERFORD STREET,CA,93274
Lane Bryant,WASHINGTON,4339,XXXXX4339X 0004339X,2200 TANGER BOULEVARD #235,PA,15301
Lane Bryant,N. CHARLESTON,4340,XXXXX4340X 0004340X,4840 BENTONVILLE PKY #1066,SC,29418
Lane Bryant,BARABOO,4341,XXXXX4341X 0004341X,120 GASSER ROAD & STE 451,WI,53913
Lane Bryant,GRETNA,4342,XXXXX4342X 0004342X,11351 NEBRASKA CROSSING DR,NE,68028
Lane Bryant,BIRCH RUN,4343,XXXXX4343X 0004343X,8825 MARKETPLACE DR & F400,MI,48415
Lane Bryant,MEDFORD,4344,XXXXX4344X 0004344X,6750 WEST FRONTAGE RD #442,MN,55049
Lane Bryant,BRIDGEWATER,4503,XXXXX4503X 0004503X,369 US HWY 202/206,NJ,8807
Lane Bryant,BOLINGBROOK,4506,XXXXX4506X 0004506X,631 EAST BOUGHTON RD,IL,60440
Lane Bryant,FREMONT,4510,XXXXX4510X 0004510X,39045 FREMONT HUB,CA,94538
Lane Bryant,TEXARKANA,4511,XXXXX4511X 0004511X,4238 ST MICHAEL DRIVE,TX,75503
Lane Bryant,INDIANAPOLIS,4512,XXXXX4512X 0004512X,9733 E. WASHINGTON ST #35,IN,46229
Lane Bryant,HARRISBURG,4515,XXXXX4515X 0004515X,4634 HIGH POINTE BOULEVARD,PA,17111
Lane Bryant,KEIZER,4519,XXXXX4519X 0004519X,6475 KEIZER STA BLVD NE,OR,97303
Lane Bryant,NAMPA,4520,XXXXX4520X 0004520X,16504 MIDLAND BLVD SP H,ID,83651
Lane Bryant,GLENDORA,4521,XXXXX4521X 0004521X,1331 E GLADSTONE ST,CA,91740
Lane Bryant,ELIZABETHTOWN,4522,XXXXX4522X 0004522X,1960 N. DIXIE HIGHWAY,KY,42701
Lane Bryant,COLUMBIA,4525,XXXXX4525X 0004525X,141 PELHAM DRIVE,SC,29209
Lane Bryant,CYPRESS,4526,XXXXX4526X 0004526X,25819 HIGHWAY 290,TX,77429
Lane Bryant,SAN ANTONIO,4527,XXXXX4527X 0004527X,17602 LA CANTERA PARKWAY,TX,78257
Lane Bryant,FT. WORTH,4529,XXXXX4529X 0004529X,4801 OVERTON RDGE BLVD 136,TX,76132
Lane Bryant,CHICAGO,4530,XXXXX4530X 0004530X,129 N.WABASH AVENUE,IL,60602
Lane Bryant,ORLANDO,4535,XXXXX4535X 0004535X,657 N. ALAFAYA TRAIL,FL,32828
Lane Bryant,LITTLETON,4539,XXXXX4539X 0004539X,7301 S SANTA FE DR #230,CO,80123
Lane Bryant,CONCORD,4541,XXXXX4541X 0004541X,6210 BAYFIELD PARKWAY,NC,28027
Lane Bryant,COLLEGE STATION,4542,XXXXX4542X 0004542X,1505 UNIVERSITY DR EAST,TX,77840
Lane Bryant,JACKSONVILLE,4545,XXXXX4545X 0004545X,13221 CITY STATION DR D108,FL,32218
Lane Bryant,TRIADELPHIA,4546,XXXXX4546X 0004546X,535 CABELA DR,WV,26059
Lane Bryant,PORT ST.LUCIE,4547,XXXXX4547X 0004547X,10654 SW VILLAGE PKWY,FL,34987
Lane Bryant,SAN MARCOS,4549,XXXXX4549X 0004549X,189 S LAS POSAS DR,CA,92078
Lane Bryant,GILBERT,4551,XXXXX4551X 0004551X,2168 EAST WILLIAMS FIELD,AZ,85296
Lane Bryant,CAPEGIRARDEAU,4553,XXXXX4553X 0004553X,155 SIEMERS DRIVE STE 3,MO,63701
Lane Bryant,ROSENBERG,4554,XXXXX4554X 0004554X,23808COMMERCIALDRIVE,TX,77471
Lane Bryant,ASHLAND,4556,XXXXX4556X 0004556X,500 WINCHESTER AVENUE #366,KY,41101
Lane Bryant,MANASSAS,4557,XXXXX4557X 0004557X,11140 BULLOCH DRIVE,VA,20109
Lane Bryant,PRATTVILLE,4562,XXXXX4562X 0004562X,2746 LEGENDS PARWAY,AL,36067
Lane Bryant,TUCSON,4563,XXXXX4563X 0004563X,5351 S. CALLE SANTA CRUZ,AZ,85714
Lane Bryant,LYNCHBURG,4565,XXXXX4565X 0004565X,4026 WARDS ROAD,VA,24502
Lane Bryant,BEND,4566,XXXXX4566X 0004566X,63455 NORTH US HWY 97,OR,97701
Lane Bryant,BATON ROUGE,4568,XXXXX4568X 0004568X,7425 CORPORATE BLVD,LA,70809
Lane Bryant,FT SMITH,4569,XXXXX4569X 0004569X,3945 PHOENIX AVE BOXB12,AR,72903
Lane Bryant,PAPILLION,4570,XXXXX4570X 0004570X,7731 TOWNE CENTER PKWY,NE,68046
Lane Bryant,BISMARCK,4571,XXXXX4571X 0004571X,921 W INTERSTATE AVE,ND,58503
Lane Bryant,TUALATIN,4572,XXXXX4572X 0004572X,7101 S.W. NYBERG STREET,OR,97062
Lane Bryant,MT. JULIET,4574,XXXXX4574X 0004574X,401 S MT JULIET RD BLD 300,TN,37122
Lane Bryant,BOURBONNAIS,4575,XXXXX4575X 0004575X,2014 NORTH STATE RT 50,IL,60914
Lane Bryant,APPLE VALLEY,4577,XXXXX4577X 0004577X,19157 BEAR VALLEY RD STE B,CA,92308
Lane Bryant,STOCKTON,4578,XXXXX4578X 0004578X,5757 PACIFIC AVE STE A125,CA,95207
Lane Bryant,GRAND JUNCTION,4579,XXXXX4579X 0004579X,632 MARKET ST   UNIT B,CO,81505
Lane Bryant,GROVE CITY,4582,XXXXX4582X 0004582X,1604 STRINGTOWN ROAD,OH,43123
Lane Bryant,ROCKY MOUNT,4584,XXXXX4584X 0004584X,1291 COBB CORNERS DRIVE,NC,27804
Lane Bryant,KNIGHTDALE,4585,XXXXX4585X 0004585X,1004 SHOPPES AT MIDWAY DR,NC,27545
Lane Bryant,ALABASTER,4586,XXXXX4586X 0004586X,320 SOUTH COLONIAL DR,AL,35007
Lane Bryant,N.LITTLEROCK,4589,XXXXX4589X 0004589X,2802 LAKEWOOD VILLAGE DR,AR,72116
Lane Bryant,HENDERSONVILLE,4590,XXXXX4590X 0004590X,300 INDIAN LAKE BOULEVARD,TN,37075
Lane Bryant,VIRGINIA BEACH,4591,XXXXX4591X 0004591X,3300 PRINCESSANN RD. SP747,VA,23453
Lane Bryant,VESTAL,4592,XXXXX4592X 0004592X,3130 VESTAL PARKWAY EAST,NY,13850
Lane Bryant,BAYTOWN,4594,XXXXX4594X 0004594X,4563 GARTH RD,TX,77521
Lane Bryant,BOSSIER CITY,4595,XXXXX4595X 0004595X,2920 MEADOWCREEK DR,LA,71111
Lane Bryant,MERIDIAN,4596,XXXXX4596X 0004596X,131 S FRONTAGE RD SPC 116,MS,39301
Lane Bryant,LAFAYETTE,4598,XXXXX4598X 0004598X,3221 LOUISIANA AVE STE100,LA,70501
Lane Bryant,OXFORD,4599,XXXXX4599X 0004599X,170 OXFORD EXCHANGE BLVD,AL,36203
Lane Bryant,AMARILLO,4600,XXXXX4600X 0004600X,3350 S SONCY ROAD,TX,79121
Lane Bryant,FLOWER MOUND,4601,XXXXX4601X 0004601X,5801 LONG PRAIRIE RD,TX,75028
Lane Bryant,WESTMINSTER,4602,XXXXX4602X 0004602X,14647 DELAWARE ST. STE200,CO,80023
Lane Bryant,NASHVILLE,4603,XXXXX4603X 0004603X,6726 CHARLOTTE PIKE,TN,37209
Lane Bryant,GREENSBORO,4605,XXXXX4605X 0004605X,3334 W FRIENDLY AVE,NC,27410
Lane Bryant,MIDWEST CITY,4606,XXXXX4606X 0004606X,7187 SE 29TH ST,OK,73110
Lane Bryant,OSWEGO,4608,XXXXX4608X 0004608X,1686 DOUGLAS RD,IL,60543
Lane Bryant,AMERICANFORK,4610,XXXXX4610X 0004610X,775 WEST GRASSLAND DR,UT,84003
Lane Bryant,ARLINGTON HEIGHTS,4612,XXXXX4612X 0004612X,316 E. RAND ROAD,IL,60004
Lane Bryant,LAKE WORTH,4614,XXXXX4614X 0004614X,6046 AZLE AVE. SUITE 100,TX,76135
Lane Bryant,PITTSBURGH,4617,XXXXX4617X 0004617X,7219&D MCKNIGHT RD,PA,15237
Lane Bryant,AUSTIN,4622,XXXXX4622X 0004622X,1201 BARBARA JORDAN RD,TX,78751
Lane Bryant,WINTER GARDEN,4625,XXXXX4625X 0004625X,3267 DANIELS RD,FL,34787
Lane Bryant,HARKER HEIGHTS,4632,XXXXX4632X 0004632X,201 E CENTRAL TEXAS EXPY,TX,76548
Lane Bryant,MENIFEE,4636,XXXXX4636X 0004636X,30042 HAUN RD,CA,92584
Lane Bryant,COUNCIL BLUFFS,4643,XXXXX4643X 0004643X,3706 METRO DRIVE SUITE 100,IA,51501
Lane Bryant,CEDAR HILL,4644,XXXXX4644X 0004644X,305 WEST FM 1382,TX,75104
Lane Bryant,MAYS LANDING,4645,XXXXX4645X 0004645X,4215 BLACK HORSE PK,NJ,8330
Lane Bryant,HORSEHEADS,4646,XXXXX4646X 0004646X,1516 COUNTY ROUTE 64,NY,14845
Lane Bryant,LAKEWOOD,4647,XXXXX4647X 0004647X,445 S. TELLER STREET,CO,80226
Lane Bryant,CLINTON TWP,4648,XXXXX4648X 0004648X,17410 HALL ROAD STE 164,MI,48038
Lane Bryant,DALLAS,4650,XXXXX4650X 0004650X,8188 PARK LANE,TX,75231
Lane Bryant,KINGSPORT,4654,XXXXX4654X 0004654X,2626 E. STONE DR. STE 50,TN,37660
Lane Bryant,PANAMA CITY,4655,XXXXX4655X 0004655X,15611 STARFISH ST SUITE115,FL,32413
Lane Bryant,CUMMING,4656,XXXXX4656X 0004656X,410 PEACHTREE PKWY SP368,GA,30041
Lane Bryant,MACON,4660,XXXXX4660X 0004660X,5080 RIVERSIDE DR. SP238,GA,31210
Lane Bryant,CORDOVA,4661,XXXXX4661X 0004661X,2289 N. GERMANTOWN PKWY,TN,38016
Lane Bryant,ST. GEORGE,4664,XXXXX4664X 0004664X,446 N 1680 EAST UNIT 310,UT,84790
Lane Bryant,CEDAR PARK,4665,XXXXX4665X 0004665X,11066 PECAN PARK BLVD,TX,78613
Lane Bryant,BATON ROUGE,4668,XXXXX4668X 0004668X,9330 PICARDY EXT,LA,70809
Lane Bryant,PORTAGE,4672,XXXXX4672X 0004672X,6288 S WESTNEDGE AVE,MI,49024
Lane Bryant,DOTHAN,4676,XXXXX4676X 0004676X,4601 MONTGOMERY HWY STE200,AL,36303
Lane Bryant,LONGVIEW,4677,XXXXX4677X 0004677X,3096 N EASTMAN ROAD,TX,75605
Lane Bryant,SALISBURY,4680,XXXXX4680X 0004680X,111 E. NORTH POINT DR,MD,21804
Lane Bryant,CANTON,4683,XXXXX4683X 0004683X,47290 MICHIGAN AVE.BLDG B,MI,48188
Lane Bryant,GREENSBURG,4685,XXXXX4685X 0004685X,2010 GREENGATE CENTRE CIRC,PA,15601
Lane Bryant,UNION CITY,4688,XXXXX4688X 0004688X,30949 COURTHOUSE DR STE120,CA,94587
Lane Bryant,COCONUT CREEK,4691,XXXXX4691X 0004691X,4431 LYONS RD STE C104,FL,33073
Lane Bryant,EDINBURG,4692,XXXXX4692X 0004692X,427 EAST TRENTON RD,TX,78539
Lane Bryant,SICKLERVILLE,4693,XXXXX4693X 0004693X,611 CROSS KEYS RD,NJ,8081
Lane Bryant,MISSION,4694,XXXXX4694X 0004694X,2515 EAST EXPRESSWAY 83,TX,78572
Lane Bryant,RICHMOND,4696,XXXXX4696X 0004696X,11357 MIDLOTHIAN TURNPIKE,VA,23235
Lane Bryant,MIDLAND,4700,XXXXX4700X 0004700X,5211 WEST WADLEY AVE.,TX,79707
Lane Bryant,ASHWAUBENON,4701,XXXXX4701X 0004701X,800 WILLARD DRIVE STE 108,WI,54304
Lane Bryant,ATLANTA,4702,XXXXX4702X 0004702X,2955 COBB PKWY SE SP210,GA,30339
Lane Bryant,LUBBOCK,4705,XXXXX4705X 0004705X,6076 MARSHA SHARP FWY,TX,79407
Lane Bryant,MONROE,4706,XXXXX4706X 0004706X,4429 PECANLAND MALL DR ST3,LA,71202
Lane Bryant,SAGINAW,4709,XXXXX4709X 0004709X,4412 BAY ROAD SP 2B,MI,48603
Lane Bryant,REDMOND,4710,XXXXX4710X 0004710X,17256 REDMOND WAY,WA,98052
Lane Bryant,RIVERDALE,4711,XXXXX4711X 0004711X,4281 RIVERDALE ROAD,UT,84405
Lane Bryant,MENTOR,4714,XXXXX4714X 0004714X,9621 MENTOR AVE,OH,44060
Lane Bryant,CHATTANOOGA,4719,XXXXX4719X 0004719X,2040 HAMILTON PLACE BLVD,TN,37421
Lane Bryant,COLUMBUS,4720,XXXXX4720X 0004720X,1229 POLARIS PARKWAY,OH,43240
Lane Bryant,NORTHRIDGE,4723,XXXXX4723X 0004723X,19338 NORDHOFF STREET,CA,91324
Lane Bryant,ROSEVILLE,4724,XXXXX4724X 0004724X,1657  COUNTY ROAD B2 W,MN,55113
Lane Bryant,JACKSON,4733,XXXXX4733X 0004733X,1135 VANN DRIVE,TN,38305
Lane Bryant,HURST,4734,XXXXX4734X 0004734X,837 NE MALL BLVD,TX,76053
Lane Bryant,EAST WALPOLE,4737,XXXXX4737X 0004737X,60 PROVIDENCE HIGHWAY,MA,2032
Lane Bryant,REDDING,4740,XXXXX4740X 0004740X,1150 DANA DRIVE,CA,96003
Lane Bryant,KINGSTOWNE,4742,XXXXX4742X 0004742X,5840 KINGSTOWNE CTR,VA,22315
Lane Bryant,SPRINGFIELD,4743,XXXXX4743X 0004743X,2855 S. VETERANS PARKWAY,IL,62704
Lane Bryant,GILBERT,4745,XXXXX4745X 0004745X,1035 E BASELINE RD,AZ,85233
Lane Bryant,SELMA,4749,XXXXX4749X 0004749X,8282 AGORA PARKWAY,TX,78154
Lane Bryant,AURORA,4750,XXXXX4750X 0004750X,1350 S IRONTON ST STE 110,CO,80012
Lane Bryant,WICHITA,4753,XXXXX4753X 0004753X,2441 NORTH MAIZE ROAD,KS,67205
Lane Bryant,AKRON,4754,XXXXX4754X 0004754X,3879 MEDINA ROAD,OH,44333
Lane Bryant,GREENDALE,4756,XXXXX4756X 0004756X,5453 S 76TH STREET,WI,53129
Lane Bryant,MANSFIELD,4761,XXXXX4761X 0004761X,2041 N US HWY 287 STE 121,TX,76063
Lane Bryant,PARAMUS,4762,XXXXX4762X 0004762X,165 ROUTE 4 WEST,NJ,7652
Lane Bryant,MANCHESTER,4763,XXXXX4763X 0004763X,1470 PLEASANT VALLEY RD,CT,6040
Lane Bryant,ANNAPOLIS,4764,XXXXX4764X 0004764X,2311 FOREST DRIVE STE G,MD,21401
Lane Bryant,CARROLTON,4765,XXXXX4765X 0004765X,2630 N JOSEY LANE,TX,75007
Lane Bryant,LA HABRA,4766,XXXXX4766X 0004766X,1330 SOUTH BEACH BLVD,CA,90631
Lane Bryant,LAWTON,4767,XXXXX4767X 0004767X,1953 NW 82ND ST,OK,73505
Lane Bryant,MEMPHIS,4768,XXXXX4768X 0004768X,5847 POPLAR AVENUE,TN,38117
Lane Bryant,FAYETTEVILLE,4770,XXXXX4770X 0004770X,3581 N SHILOH DR,AR,72703
Lane Bryant,LOUISVILLE,4772,XXXXX4772X 0004772X,OUTER LOOP @ JEFFERSON BVD,KY,40219
Lane Bryant,WETHERSFIELD,4775,XXXXX4775X 0004775X,1067 SILAS DEANE HWY,CT,6109
Lane Bryant,MADISON,4777,XXXXX4777X 0004777X,175 GRANDVIEW BLVD,MS,39110
Lane Bryant,WEATHERFORD,4779,XXXXX4779X 0004779X,325 ADAMS DR SUITE 375,TX,76086
Lane Bryant,NORTH CHARLESTON,4780,XXXXX4780X 0004780X,7620 RIVERS AVENUE STE 110,SC,29406
Lane Bryant,HOUSTON,4781,XXXXX4781X 0004781X,2640 ELDRIDGE PKWY,TX,77082
Lane Bryant,SPRINGDALE,4782,XXXXX4782X 0004782X,459 E KEMPER ROAD,OH,45246
Lane Bryant,ALTOONA,4783,XXXXX4783X 0004783X,196 FALON LANE,PA,16602
Lane Bryant,CHARLOTTESVILLE,4793,XXXXX4793X 0004793X,800 TWENTYNINTH PLACE CT,VA,22901
Lane Bryant,LAFAYETTE,4794,XXXXX4794X 0004794X,100 S CREASY LANE SP 1510,IN,47905
Lane Bryant,LANGHORNE,4795,XXXXX4795X 0004795X,2343 EAST LINCOLN HIGHWAY,PA,19047
Lane Bryant,PELHAM MANOR,4796,XXXXX4796X 0004796X,865 PELHAM PKWY SPACE 2,NY,10803
Lane Bryant,ROCKAWAY,4797,XXXXX4797X 0004797X,395 MOUNT HOPE AVE,NJ,7866
Lane Bryant,SAVANNAH,4798,XXXXX4798X 0004798X,7805 ABERCORN ST SUITE 16,GA,31406
Lane Bryant,WESTHILLS,4800,XXXXX4800X 0004800X,6735 1/2 FALLBROOK AVE 801,CA,91307
Lane Bryant,CLARKSVILLE,4802,XXXXX4802X 0004802X,2866 WILMA RUDOLPH BLVD,TN,37040
Lane Bryant,MADISON,4803,XXXXX4803X 0004803X,7319 W TOWNE WAY,WI,53719
Lane Bryant,GLENDALE,4804,XXXXX4804X 0004804X,322 S CENTRAL AVE,CA,91204
Lane Bryant,ORLANDO,4805,XXXXX4805X 0004805X,2746 EAST COLONIAL DRIVE,FL,32803
Lane Bryant,ALBURQUERQUE,4809,XXXXX4809X 0004809X,10254&B COORS BYPASS NW,NM,87114
Lane Bryant,AVON,4811,XXXXX4811X 0004811X,315 WEST MAIN STREET,CT,6001
Lane Bryant,GASTONIA,4812,XXXXX4812X 0004812X,3714 E FRANKLIN BLVD #120,NC,28056
Lane Bryant,HATTIESBURG,4813,XXXXX4813X 0004813X,6111 US HIGHWAY 98 STE 10,MS,39402
Lane Bryant,MCHENRY,4814,XXXXX4814X 0004814X,3240 SHOPPERS DRIVE,IL,60050
Lane Bryant,ALTAMONTE SPRINGS,4815,XXXXX4815X 0004815X,397 EAST ALTAMONTE DRIVE,FL,32701
Lane Bryant,HENDERSON,4818,XXXXX4818X 0004818X,517 N STEPHANIE STREET,NV,89014
Lane Bryant,WHEATON,4819,XXXXX4819X 0004819X,42 DANADA SQUARE WEST,IL,60187
Lane Bryant,DECATUR,4821,XXXXX4821X 0004821X,2401 6TH AVE SE,AL,35601
Lane Bryant,DOUGLASVILLE,4822,XXXXX4822X 0004822X,2854 CHAPEL HILL ROAD,GA,30135
Lane Bryant,FOLSOM,4823,XXXXX4823X 0004823X,2763 EAST BIDWELL STREET,CA,95630
Lane Bryant,LIMA,4825,XXXXX4825X 0004825X,2720 ELIDA ROAD,OH,45805
Lane Bryant,LIVONIA,4826,XXXXX4826X 0004826X,13236 MIDDLEBELT ROAD,MI,48150
Lane Bryant,NORMAN,4827,XXXXX4827X 0004827X,1628 24TH AVE NW,OK,73069
Lane Bryant,STERLING,4829,XXXXX4829X 0004829X,45575 DULLES EASTERN PLAZA,VA,20166
Lane Bryant,CHINO,4830,XXXXX4830X 0004830X,3841 GRAND AVE,CA,91710
Lane Bryant,BAKERSFIELD,4831,XXXXX4831X 0004831X,9370 ROSEDALE HIGHWAY,CA,93312
Lane Bryant,FRANKLN,4832,XXXXX4832X 0004832X,2000 MALLORY LANE,TN,37067
Lane Bryant,LOUISVILLE,4835,XXXXX4835X 0004835X,4600 SHELBYVILLE ROAD,KY,40207
Lane Bryant,WINSTON SALEM,4837,XXXXX4837X 0004837X,1086 HANES MALL BLVD,NC,27103
Lane Bryant,BRANDON,4838,XXXXX4838X 0004838X,11225 CAUSEWAY BLVD,FL,33511
Lane Bryant,CARBONDALE,4840,XXXXX4840X 0004840X,1237 E MAIN ST,IL,62901
Lane Bryant,DAVIE,4841,XXXXX4841X 0004841X,1932 S UNIVERSITY DR,FL,33324
Lane Bryant,DIBERVILLE,4842,XXXXX4842X 0004842X,3887 PROMENADE PARKWAY,MS,39540
Lane Bryant,PORTLAND,4843,XXXXX4843X 0004843X,9955 NE CASCADES PARKWAY,OR,97220
Lane Bryant,S. PLAINFIELD,4845,XXXXX4845X 0004845X,4989 STELTON RD,NJ,7080
Lane Bryant,EASTON,4847,XXXXX4847X 0004847X,3754 EASTON NAZARETH HWY,PA,18045
Lane Bryant,MIDVALE,4849,XXXXX4849X 0004849X,1094 E FT UNION BLVD,UT,84047
Lane Bryant,MONROEVILLE,4850,XXXXX4850X 0004850X,4110 WILLIAM PENN HWY,PA,15146
Lane Bryant,TOMS RIVER,4858,XXXXX4858X 0004858X,1232 HOOPER AVE,NJ,8753
Lane Bryant,ATHENS,4859,XXXXX4859X 0004859X,SR 10 LOOP & SR316,GA,30606
Lane Bryant,DES PERES,4861,XXXXX4861X 0004861X,12103 MANCHESTER RD,MO,63131
Lane Bryant,CLACKAMAS,4864,XXXXX4864X 0004864X,8922 SE SUNNYSIDE RD,OR,97015
Lane Bryant,GREENBURGH,4869,XXXXX4869X 0004869X,437 TARRYTOWN RD,NY,10607
Lane Bryant,YOUNGSTOWN,4873,XXXXX4873X 0004873X,391 BOARDMAN&POLAND RD,OH,44512
Lane Bryant,BROOKLYN,6002,XXXXX6002X 0006002X,380 FULTON STREET,NY,11201
Lane Bryant,HODGKINS,6008,XXXXX6008X 0006008X,9430 JOLIET RD #400,IL,60525
Lane Bryant,CRESTVIEW HILLS,6013,XXXXX6013X 0006013X,2825 TOWN CENTER BOULEVARD,KY,41017
Lane Bryant,SHREVEPORT,6017,XXXXX6017X 0006017X,1702 EAST 70TH STREET,LA,71105
Lane Bryant,CLARKSVILLE,6019,XXXXX6019X 0006019X,1025 VETERANS PKWY&STE 900,IN,47129
Lane Bryant,BARBOURSVILLE,6027,XXXXX6027X 0006027X,404 HUNTINGTON MALL SP780,WV,25504
Lane Bryant,PLANO,6032,XXXXX6032X 0006032X,811 N CENTRAL EXPY # 1178,TX,75075
Lane Bryant,SANTEE,6033,XXXXX6033X 0006033X,9930 MISSION GORGE ROAD,CA,92071
Lane Bryant,EAST POINT,6036,XXXXX6036X 0006036X,3610 MARKETPLACE BLVD S410,GA,30344
Lane Bryant,LAKEWOOD,6038,XXXXX6038X 0006038X,5 LAKEWOOD CENTER MALL,CA,90712
Lane Bryant,FREDERICKSBURG,6040,XXXXX6040X 0006040X,1654 CARL D SILVER PARKWAY,VA,22401
Lane Bryant,CHERRY HILL,6041,XXXXX6041X 0006041X,2000 ROUTE 38,NJ,8002
Lane Bryant,SAN DIEGO,6042,XXXXX6042X 0006042X,1640 CAMINO DEL RIO N.240,CA,92108
Lane Bryant,EL PASO,6043,XXXXX6043X 0006043X,1319 GEORGE DIETER DRIVE,TX,79936
Lane Bryant,SACRAMENTO,6045,XXXXX6045X 0006045X,1697 ARDEN WAY&SP 1192,CA,95815
Lane Bryant,OAK BROOK,6046,XXXXX6046X 0006046X,101 OAKBROOK CENTER,IL,60523
Lane Bryant,HOMESTEAD,6050,XXXXX6050X 0006050X,113 W BRIDGE ST SPACE E&14,PA,15120
Lane Bryant,RANCHO CUCAMONGA,6052,XXXXX6052X 0006052X,7875 KEW AVE,CA,91730
Lane Bryant,BRAINTREE,6059,XXXXX6059X 0006059X,250 GRANITE STREET,MA,2184
Lane Bryant,FLANDERS,6063,XXXXX6063X 0006063X,30 INTERNATIONAL DR S #E06,NJ,7836
Lane Bryant,LATHRUP VILLAGE,6065,XXXXX6065X 0006065X,27811 SOUTHFIELD RD.,MI,48076
Lane Bryant,SAN JOSE,6067,XXXXX6067X 0006067X,925 BLOSSOM HILL ROAD,CA,95123
Lane Bryant,BROOKFIELD,6077,XXXXX6077X 0006077X,95 N MOORLAND RD,WI,53005
Lane Bryant,ESTERO,6078,XXXXX6078X 0006078X,8024 MEDITERRANEAN DR C25,FL,33928
Lane Bryant,WARWICK,6082,XXXXX6082X 0006082X,400 BALD HILL RD,RI,2886
Lane Bryant,OCEANSIDE,6083,XXXXX6083X 0006083X,815 COLLEGE BLVD #101,CA,92057
Lane Bryant,TROY,6085,XXXXX6085X 0006085X,474 W 14 MILE RD,MI,48083
Lane Bryant,BALTIMORE,6087,XXXXX6087X 0006087X,5822 WESTVIEW MALL,MD,21228
Lane Bryant,VALPARAISO,6097,XXXXX6097X 0006097X,91 SILHAVY RD,IN,46383
Lane Bryant,ALBANY,6099,XXXXX6099X 0006099X,131 COLONIE CENTER SP 267,NY,12205
Lane Bryant,READING,6101,XXXXX6101X 0006101X,2775 PAPER MILL RD #C2,PA,19610
Lane Bryant,MONROEVILLE,6107,XXXXX6107X 0006107X,200 MONROEVILLE MALL,PA,15146
Lane Bryant,UPPER MARLBORO,6108,XXXXX6108X 0006108X,901H CAPITAL CENTRE BLVD,MD,20774
Lane Bryant,TAYLOR,6113,XXXXX6113X 0006113X,23000 EUREKA RD,MI,48180
Lane Bryant,CRANBERRY TWP,6115,XXXXX6115X 0006115X,1717 ROUTE 228,PA,16066
Lane Bryant,DULUTH,6117,XXXXX6117X 0006117X,1600 MILLER TRUNK HWY,MN,55811
Lane Bryant,ALBANY,6118,XXXXX6118X 0006118X,2601 DAWSON ROAD,GA,31707
Lane Bryant,GRAND FORKS,6120,XXXXX6120X 0006120X,3721 32ND AVE SOUTH,ND,58203
Lane Bryant,SEATTLE,6123,XXXXX6123X 0006123X,401 NORTHEAST NORTHGATE WY,WA,98125
Lane Bryant,TOLEDO,6126,XXXXX6126X 0006126X,5001 MONROE STREET & #602,OH,43623
Lane Bryant,PLEASANTON,6127,XXXXX6127X 0006127X,2521 STONERIDGE MALL ROAD,CA,94588
Lane Bryant,LIVINGSTON,6132,XXXXX6132X 0006132X,112 EISENHOWER PARKWAY,NJ,7039
Lane Bryant,SANTA BARBARA,6134,XXXXX6134X 0006134X,130 SOUTH HOPE AVE,CA,93105
Lane Bryant,COLUMBIA,6135,XXXXX6135X 0006135X,1270 BOWER PKWY SUITE C2,SC,29212
Lane Bryant,CONCORD,6141,XXXXX6141X 0006141X,111 SUN VALLEY MALL #B131,CA,94520
Lane Bryant,COON RAPIDS,6142,XXXXX6142X 0006142X,12774 RIVERDALE BLVD NW 21,MN,55433
Lane Bryant,EAST BRUNSWICK,6146,XXXXX6146X 0006146X,300 STATE HWY 18,NJ,8816
Lane Bryant,VICTOR,6147,XXXXX6147X 0006147X,7979 VICTOR&PITTSFORD ROAD,NY,14564
Lane Bryant,MINNETONKA,6151,XXXXX6151X 0006151X,12705 WAYZATA BLVD,MN,55305
Lane Bryant,LOUISVILLE,6153,XXXXX6153X 0006153X,4310 SUMMIT PLAZA DRIVE,KY,40241
Lane Bryant,HOLYOKE,6154,XXXXX6154X 0006154X,50 HOLYOKE ST.,MA,1040
Lane Bryant,GILBERT,6157,XXXXX6157X 0006157X,3855 SOUTH GILBERT RD #104,AZ,85234
Lane Bryant,EL CAJON,6161,XXXXX6161X 0006161X,609 PARKWAY PLAZA,CA,92020
Lane Bryant,ROCKFORD,6163,XXXXX6163X 0006163X,7180 HARRISON AVENUE STE 3,IL,61112
Lane Bryant,ELK GROVE,6164,XXXXX6164X 0006164X,9684 BRUCEVILLE RD,CA,95757
Lane Bryant,YUMA,6167,XXXXX6167X 0006167X,1401 SOUTH YUMA PALMS PKWY,AZ,85365
Lane Bryant,FRIENDSWOOD,6170,XXXXX6170X 0006170X,19400 GULF FREEWAY,TX,77546
Lane Bryant,DES MOINES,6173,XXXXX6173X 0006173X,3800 MERLE HAY RD.#322,IA,50310
Lane Bryant,SPRINGFIELD,6178,XXXXX6178X 0006178X,1250 BALTIMORE PIKE,PA,19064
Lane Bryant,ENFIELD,6181,XXXXX6181X 0006181X,95 ELM STREET UNIT 8,CT,6082
Lane Bryant,AURORA,6183,XXXXX6183X 0006183X,2300 FOX VALLEY CENTER,IL,60505
Lane Bryant,EMERYVILLE,6184,XXXXX6184X 0006184X,5713 CHRISTIE AVE B&1,CA,94608
Lane Bryant,WOODBRIDGE,6188,XXXXX6188X 0006188X,274 WOODBRIDGE CNTR DR,NJ,7095
Lane Bryant,COLUMBIA,6189,XXXXX6189X 0006189X,6455 DOBBIN RD SPACE# C&2,MD,21045
Lane Bryant,SAN ANTONIO,6193,XXXXX6193X 0006193X,1730 N FM 1604 EAST,TX,78232
Lane Bryant,SOUTHAVEN,6196,XXXXX6196X 0006196X,6562 TOWNE CENTER LOOP 970,MS,38671
Lane Bryant,MECHANICSVILLE,6202,XXXXX6202X 0006202X,7225 BELL CREEK ROAD #236,VA,23111
Lane Bryant,MISHAWAKA,6203,XXXXX6203X 0006203X,6501 GRAPE ROAD,IN,46544
Lane Bryant,OCEANSIDE,6204,XXXXX6204X 0006204X,3517 LONG BEACH ROAD,NY,11572
Lane Bryant,PARKERSBURG,6209,XXXXX6209X 0006209X,311 GRAND CENTRAL MALL 14,WV,26101
Lane Bryant,LYNNWOOD,6211,XXXXX6211X 0006211X,3000 184TH ST SW,WA,98037
Lane Bryant,HYATTSVILLE,6213,XXXXX6213X 0006213X,3500 EAST&WEST HWY,MD,20782
Lane Bryant,RALEIGH,6215,XXXXX6215X 0006215X,5951 POYNER VILLAGE PKWY,NC,27616
Lane Bryant,GREENVILLE,6218,XXXXX6218X 0006218X,700 HAYWOOD RD,SC,29607
Lane Bryant,COLLIERVILLE,6219,XXXXX6219X 0006219X,4670 MERCHANTS PARK CIRCLE,TN,38017
Lane Bryant,FRESNO,6224,XXXXX6224X 0006224X,7863 NORTH BLACKSTONE AVE,CA,93720
Lane Bryant,NORTH WALES,6231,XXXXX6231X 0006231X,807 MONTGOMERY MALL,PA,19454
Lane Bryant,FORT WAYNE,6234,XXXXX6234X 0006234X,4201 COLDWATER RD,IN,46805
Lane Bryant,BALTIMORE,6237,XXXXX6237X 0006237X,8200 PERRY HALL BLVD,MD,21236
Lane Bryant,NORTH HAVEN,6238,XXXXX6238X 0006238X,112 UNIVERSAL DRIVE NORTH,CT,6473
Lane Bryant,WEST JORDAN,6239,XXXXX6239X 0006239X,7147 S. PLAZA CENTER DR,UT,84084
Lane Bryant,HIALEAH,6243,XXXXX6243X 0006243X,489 W 49TH ST,FL,33012
Lane Bryant,MERRILLVILLE,6247,XXXXX6247X 0006247X,2012 SOUTHLAKE MALL,IN,46410
Lane Bryant,HOUSTON,6249,XXXXX6249X 0006249X,1650 WILLOWBROOK MALL,TX,77070
Lane Bryant,WAYNE,6252,XXXXX6252X 0006252X,WILLOWBROOK MALL,NJ,7470
Lane Bryant,STATEN ISLAND,6257,XXXXX6257X 0006257X,2655 RICHMOND AVE,NY,10314
Lane Bryant,GARNER,6260,XXXXX6260X 0006260X,2640 TIMBER DRIVE,NC,27529
Lane Bryant,CITRUS HEIGHTS,6261,XXXXX6261X 0006261X,6068 SUNRISE MALL,CA,95610
Lane Bryant,PHILADELPHIA,6264,XXXXX6264X 0006264X,2337 COTTMAN AVE,PA,19149
Lane Bryant,LAS VEGAS,6271,XXXXX6271X 0006271X,9863 S EASTERN AVE,NV,89123
Lane Bryant,LEVITTOWN,6280,XXXXX6280X 0006280X,3367 HEMPSTEAD TURNPIKE,NY,11756
Lane Bryant,CHARLESTON,6283,XXXXX6283X 0006283X,1034 CHARLESTON TOWN CTR,WV,25389
Lane Bryant,OKLAHOMA CITY,6290,XXXXX6290X 0006290X,2501 W MEMORIAL RD,OK,73134
Lane Bryant,DAVENPORT,6291,XXXXX6291X 0006291X,320 W KIMBERLY RD SP 15,IA,52806
Lane Bryant,REDONDO BEACH,6292,XXXXX6292X 0006292X,1815 HAWTHORNE BLVD,CA,90278
Lane Bryant,BOYNTON BEACH,6294,XXXXX6294X 0006294X,801 N CONGRESS AVE,FL,33426
Lane Bryant,LAS VEGAS,6301,XXXXX6301X 0006301X,4300 MEADOWS LANE SP 151,NV,89107
Lane Bryant,BAY SHORE,6315,XXXXX6315X 0006315X,2050 SUNRISE HIGHWAY,NY,11706
Lane Bryant,NATIONAL CITY,6319,XXXXX6319X 0006319X,3030 PLAZA BONITA RD #1140,CA,91950
Lane Bryant,CINCINNATI,6320,XXXXX6320X 0006320X,4601 EASTGATE BLVD #D450,OH,45245
Lane Bryant,RENO,6321,XXXXX6321X 0006321X,13925 S VIRGINIA ST & #234,NV,89511
Lane Bryant,HUMBLE,6323,XXXXX6323X 0006323X,20131 HIGHWAY 59 N #1012,TX,77338
Lane Bryant,MODESTO,6328,XXXXX6328X 0006328X,3401 DALE RD,CA,95356
Lane Bryant,FLORISSANT,6330,XXXXX6330X 0006330X,13935 NEW HALLS FERRY RD,MO,63033
Lane Bryant,SIOUX CITY,6341,XXXXX6341X 0006341X,5001 SERGEANT ROAD #96,IA,51106
Lane Bryant,DOVER,6345,XXXXX6345X 0006345X,4036 DOVER MALL,DE,19901
Lane Bryant,COLUMBUS,6346,XXXXX6346X 0006346X,5555 WHITTLESEY BLVD #2970,GA,31909
Lane Bryant,DAYTONA BEACH,6347,XXXXX6347X 0006347X,2500 W INTL SPEEDWAY #230,FL,32114
Lane Bryant,MYRTLE BEACH,6359,XXXXX6359X 0006359X,2000 COASTAL GRAND CIRCLE,SC,29577
Lane Bryant,MASON,6366,XXXXX6366X 0006366X,5455 DEERFIELD BOULEVARD,OH,45040
Lane Bryant,LAFAYETTE,6369,XXXXX6369X 0006369X,5725 JOHNSTON ST SP E&185,LA,70503
Lane Bryant,CINCINNATI,6371,XXXXX6371X 0006371X,2735 EDMONDSON ROAD,OH,45209
Lane Bryant,COLUMBUS,6372,XXXXX6372X 0006372X,4054 NEW BOND ST,OH,43219
Lane Bryant,SHIRLEY,6373,XXXXX6373X 0006373X,1017 MONTAUK HWY,NY,11967
Lane Bryant,AUGUSTA,6374,XXXXX6374X 0006374X,33 STEPHAN KING DR & STE2,ME,4330
Lane Bryant,WEST DES MOINES,6375,XXXXX6375X 0006375X,1551 VALLEY W.DR.SP.205B,IA,50265
Lane Bryant,GENEVA,6376,XXXXX6376X 0006376X,524 COMMONS DR #2250,IL,60134
Lane Bryant,TUCSON,6378,XXXXX6378X 0006378X,4500 N.ORACLE RD SP 4192,AZ,85705
Lane Bryant,WEST DES MOINES,6385,XXXXX6385X 0006385X,101 JORDAN CREEK PKWY,IA,50266
Lane Bryant,TEMPE,6390,XXXXX6390X 0006390X,55 S MCCLINTOCK DR STE105,AZ,85281
Lane Bryant,MONTEBELLO,6391,XXXXX6391X 0006391X,1828 MONTEBELLO TOWN CNTR,CA,90640
Lane Bryant,KENNEWICK,6392,XXXXX6392X 0006392X,533 COLUMBIA CENTER,WA,99336
Lane Bryant,DALY CITY,6394,XXXXX6394X 0006394X,96 SERRAMONTE CENTER,CA,94015
Lane Bryant,WILKES BARRE,6401,XXXXX6401X 0006401X,29 WYOMING VALLEY MALL,PA,18702
Lane Bryant,BANGOR,6403,XXXXX6403X 0006403X,663 STILLWATER AVE #1135,ME,4401
Lane Bryant,WATAUGA,6404,XXXXX6404X 0006404X,8028 DENTON HIGHWAY,TX,76148
Lane Bryant,KANSAS CITY,6405,XXXXX6405X 0006405X,8600 WARD PARKWAY & #205,MO,64114
Lane Bryant,YPSILANTI,6406,XXXXX6406X 0006406X,3769 CARPENTER RD,MI,48197
Lane Bryant,SOUTHLAKE,6408,XXXXX6408X 0006408X,1460 MAIN STREET SPACE E,TX,76092
Lane Bryant,KNOXVILLE,6409,XXXXX6409X 0006409X,11004 PARKSIDE DR,TN,37922
Lane Bryant,NEW YORK,6410,XXXXX6410X 0006410X,222 224 W 125TH STREET,NY,10027
Lane Bryant,MERCED,6411,XXXXX6411X 0006411X,580 MERCED MALL,CA,95348
Lane Bryant,BROOKLYN,6412,XXXXX6412X 0006412X,1004 FLATBUSH AVE,NY,11226
Lane Bryant,FREDERICK,6417,XXXXX6417X 0006417X,5500 BUCKEYSTOWN PIKE #870,MD,21703
Lane Bryant,MELBOURNE,6420,XXXXX6420X 0006420X,2271 TOWN CENTER AVE #103,FL,32940
Lane Bryant,MCKINNEY,6421,XXXXX6421X 0006421X,2950 CRAIG DR. SUITE 300,TX,75070
Lane Bryant,SAN ANTONIO,6423,XXXXX6423X 0006423X,6301 NORTHWEST LOOP 410,TX,78238
Lane Bryant,TUCSON,6432,XXXXX6432X 0006432X,7260 EAST BROADWAY,AZ,85712
Lane Bryant,CLIFTON,6435,XXXXX6435X 0006435X,394 STATE ROUTE 3,NJ,7013
Lane Bryant,RACINE,6439,XXXXX6439X 0006439X,5774 DURAND AVE,WI,53406
Lane Bryant,FAYETTEVILLE,6442,XXXXX6442X 0006442X,705 CROSS CREEK MALL #150,NC,28303
Lane Bryant,SARATOGA SPRINGS,6444,XXXXX6444X 0006444X,3084 ROUTE 50 SUITE 2,NY,12866
Lane Bryant,VALDOSTA,6446,XXXXX6446X 0006446X,1700 NORMAN DR SP 102,GA,31601
Lane Bryant,ST LOUIS,6450,XXXXX6450X 0006450X,480 S COUNTY CENTER WAY,MO,63129
Lane Bryant,MT LAUREL,6456,XXXXX6456X 0006456X,24 CENTERTON ROAD,NJ,8054
Lane Bryant,BUFFALO,6457,XXXXX6457X 0006457X,SOUTH3670MCKINLEYPKWYSTE6,NY,14219
Lane Bryant,PHOENIX,6460,XXXXX6460X 0006460X,2819 WEST AGUA FRIA FRWY,AZ,85023
Lane Bryant,CORPUS CHRISTI,6461,XXXXX6461X 0006461X,5488 S PADRE ISLAND DR,TX,78411
Lane Bryant,GRAND RAPIDS,6464,XXXXX6464X 0006464X,3665 28TH ST SE&SPACE C5,MI,49512
Lane Bryant,BRADENTON,6466,XXXXX6466X 0006466X,7369 52ND PLACE EAST,FL,34203
Lane Bryant,HOUSTON,6467,XXXXX6467X 0006467X,744 MEMORIAL CITY WAY,TX,77024
Lane Bryant,AURORA,6470,XXXXX6470X 0006470X,6290 SOUTH MAIN ST #M104,CO,80016
Lane Bryant,PENSACOLA,6474,XXXXX6474X 0006474X,5100 N 9TH AVENUE & E511,FL,32504
Lane Bryant,GOODYEAR,6475,XXXXX6475X 0006475X,1400 LITCHFIELD ROAD G2,AZ,85338
Lane Bryant,JACKSONVILLE,6478,XXXXX6478X 0006478X,10261 RIVER MARSH DR #155,FL,32246
Lane Bryant,MADISON,6481,XXXXX6481X 0006481X,148 EAST TOWNE MALL F&629,WI,53704
Lane Bryant,CHARLOTTE,6485,XXXXX6485X 0006485X,6801 NORTHLAKE MALL DR&146,NC,28216
Lane Bryant,GAITHERSBURG,6487,XXXXX6487X 0006487X,26 GRAND CORNER AVE SP 26B,MD,20878
Lane Bryant,SMITHFIELD,6488,XXXXX6488X 0006488X,371 PUTNAM PIKE,RI,2917
Lane Bryant,LOVELAND,6490,XXXXX6490X 0006490X,1625 FALL RIVER DRIVE,CO,80538
Lane Bryant,MYRTLE BEACH,6491,XXXXX6491X 0006491X,10812 KINGS ROAD & STE 200,SC,29572
Lane Bryant,HUNTSVILLE,6492,XXXXX6492X 0006492X,2801 MEMORIAL PKWY SW #260,AL,35801
Lane Bryant,BURLINGTON,6494,XXXXX6494X 0006494X,1469&A UNIVERSITY DRIVE,NC,27215
Lane Bryant,SPRINGFIELD,6496,XXXXX6496X 0006496X,GLEN STONE BATTLEFIELD,MO,65804
Lane Bryant,AMHERST,6497,XXXXX6497X 0006497X,1565 NIAGARA FALL BLVD 700,NY,14228
Lane Bryant,HAMILTON,6499,XXXXX6499X 0006499X,3425 PRINCETON ROAD #121,OH,45011
Lane Bryant,SLIDELL,6500,XXXXX6500X 0006500X,150 N SHORE BLVD,LA,70460
Lane Bryant,BURNSVILLE,6512,XXXXX6512X 0006512X,1048 BURNSVILLE CENTER,MN,55306
Lane Bryant,LANSING,6513,XXXXX6513X 0006513X,3001 PREYDE BLVD SPACE I1,MI,48912
Lane Bryant,CHICAGO,6514,XXXXX6514X 0006514X,712 EAST 87TH STREET,IL,60619
Lane Bryant,HOOVER,6518,XXXXX6518X 0006518X,3000 RIVERCHASE GALLERIA,AL,35244
Lane Bryant,KENNESAW,6522,XXXXX6522X 0006522X,400 ERNEST W BARRETT PKWY,GA,30144
Lane Bryant,SPRING,6523,XXXXX6523X 0006523X,19507 I45 NORTH,TX,77388
Lane Bryant,TULSA,6524,XXXXX6524X 0006524X,4107 SOUTH YALE AVE UD&421,OK,74135
Lane Bryant,COLUMBIA,6525,XXXXX6525X 0006525X,211 NORTH STADIUM BLVD,MO,65203
Lane Bryant,SAN FRANCISCO,6529,XXXXX6529X 0006529X,2300 16TH STREET & #285,CA,94103
Lane Bryant,WEST BABYLON,6530,XXXXX6530X 0006530X,835 WEST MONTAUK HWY,NY,11704
Lane Bryant,ST CLOUD,6532,XXXXX6532X 0006532X,41ST AND DIVISION STREET,MN,56301
Lane Bryant,MILFORD,6537,XXXXX6537X 0006537X,1201 BOSTON POST RD #2068,CT,6460
Lane Bryant,VENTURA,6538,XXXXX6538X 0006538X,3301 EAST MAIN ST SP 2107,CA,93003
Lane Bryant,ABILENE,6540,XXXXX6540X 0006540X,3517 CATCLAW DR,TX,79606
Lane Bryant,HILLSBORO,6541,XXXXX6541X 0006541X,2280 NW ALLIE AVE & SP800,OR,97124
Lane Bryant,DRAPER,6542,XXXXX6542X 0006542X,173 EAST 12300 SOUTH ST,UT,84020
Lane Bryant,WEST COVINA,6543,XXXXX6543X 0006543X,690 PLAZA DR,CA,91790
Lane Bryant,WINSTON SALEM,6544,XXXXX6544X 0006544X,3320 SILAS CREEK PKWY #444,NC,27103
Lane Bryant,PALM DESERT,6547,XXXXX6547X 0006547X,72840 HIGHWAY 111 & T388,CA,92260
Lane Bryant,YORK,6551,XXXXX6551X 0006551X,2899 WHITEFORD RD #107/108,PA,17402
Lane Bryant,NASHUA,6556,XXXXX6556X 0006556X,310 DANIEL WEBSTER HWY,NH,3063
Lane Bryant,FT WORTH,6558,XXXXX6558X 0006558X,12866 SOUTH FREEWAY,TX,76028
Lane Bryant,RALEIGH,6562,XXXXX6562X 0006562X,8331 BRIER CREEK PARKWAY,NC,27617
Lane Bryant,NEW HARTFORD,6563,XXXXX6563X 0006563X,4775 COMMERCIAL DRIVE,NY,13413
Lane Bryant,COVINGTON,6565,XXXXX6565X 0006565X,69292 LA HWY 21,LA,70433
Lane Bryant,ANDERSON,6566,XXXXX6566X 0006566X,3131 N MAIN ST.SP #03/04,SC,29621
Lane Bryant,SWANSEA,6567,XXXXX6567X 0006567X,262 SWANSEA MALL DR & 1118,MA,2777
Lane Bryant,SAN ANTONIO,6570,XXXXX6570X 0006570X,2310 SW MILITARY DR #511,TX,78224
Lane Bryant,HAMPTON,6579,XXXXX6579X 0006579X,1420 MERCHANT LANE,VA,23666
Lane Bryant,PLAINFIELD,6581,XXXXX6581X 0006581X,351 METROPOLIS MILE & #120,IN,46168
Lane Bryant,GOLDSBORO,6582,XXXXX6582X 0006582X,1211B NORTH BERKELEY BLVD,NC,27534
Lane Bryant,MCDONOUGH,6583,XXXXX6583X 0006583X,1908 JONESBORO ROAD,GA,30253
Lane Bryant,HUNTSVILLE,6586,XXXXX6586X 0006586X,6275 UNIVERSITY DR NW #28,AL,35806
Lane Bryant,ROGERS,6587,XXXXX6587X 0006587X,2203 PROMENADE BLVD,AR,72758
Lane Bryant,AKRON,6588,XXXXX6588X 0006588X,2000 BRITTAIN RD # 1021,OH,44310
Lane Bryant,PUYALLUP,6602,XXXXX6602X 0006602X,3500 S MERIDIAN UNIT 530,WA,98373
Lane Bryant,SPRINGFIELD,6603,XXXXX6603X 0006603X,3000 GATEWAY ST UNIT 226,OR,97477
Lane Bryant,WALDORF,6606,XXXXX6606X 0006606X,11110 MALL CIRCLE&SP B05,MD,20603
Lane Bryant,ANTIOCH,6607,XXXXX6607X 0006607X,5759 LONE TREE WAY & STE B,CA,94531
Lane Bryant,CONCORD,6615,XXXXX6615X 0006615X,270 LOUDON RD & SP 1248,NH,3301
Lane Bryant,TALLAHASSEE,6617,XXXXX6617X 0006617X,1500 APALACHEE PKWY SP1058,FL,32301
Lane Bryant,ST JOSEPH,6618,XXXXX6618X 0006618X,5301 N BELT HIGHWAY&STE107,MO,64506
Lane Bryant,FRISCO,6620,XXXXX6620X 0006620X,HIGHWAY 121 AND PRESTON RD,TX,75034
Lane Bryant,MESA,6623,XXXXX6623X 0006623X,6555 E SOUTHERN AVE#1216,AZ,85206
Lane Bryant,FORT GRATIOT,6626,XXXXX6626X 0006626X,4350 24TH AVE SP 314,MI,48059
Lane Bryant,SYRACUSE,6629,XXXXX6629X 0006629X,9736 DESTINY USA DR,NY,13290
Lane Bryant,ATLANTA,6637,XXXXX6637X 0006637X,4400 ASHFORD&DUNWOODY 1710,GA,30345
Lane Bryant,FARGO,6639,XXXXX6639X 0006639X,I 29 AND 13TH AVE S,ND,58104
Lane Bryant,IRVING,6649,XXXXX6649X 0006649X,7761 N.MACARTHUR BLVD,TX,75063
Lane Bryant,BURBANK,6650,XXXXX6650X 0006650X,201 E MAGNOLIA BLVD #310,CA,91501
Lane Bryant,KISSIMMEE,6652,XXXXX6652X 0006652X,4797 W.IRLO BRONSON MEMORI,FL,34746
Lane Bryant,CORONA,6653,XXXXX6653X 0006653X,3383 GRAND OAKS UNIT 2,CA,92881
Lane Bryant,SOUTH PORTLAND,6657,XXXXX6657X 0006657X,207 MAINE MALL,ME,4106
Lane Bryant,GILROY,6662,XXXXX6662X 0006662X,6815 CAMINO ARROYO SPACE4,CA,95020
Lane Bryant,POUGHKEEPSIE,6666,XXXXX6666X 0006666X,2001 SOUTH RD SPC108,NY,12601
Lane Bryant,MIAMI,6668,XXXXX6668X 0006668X,8659 SW 124TH AVENUE,FL,33183
Lane Bryant,GARLAND,6671,XXXXX6671X 0006671X,135 CEDAR SAGE DRIVE,TX,75041
Lane Bryant,SAN BRUNO,6673,XXXXX6673X 0006673X,1150 EL CAMINO REAL #297,CA,94066
Lane Bryant,UPPER DARBY,6676,XXXXX6676X 0006676X,109 S. 69TH STREET,PA,19082
Lane Bryant,BECKLEY,6679,XXXXX6679X 0006679X,1050 N EISENHOWER DRIVE,WV,25801
Lane Bryant,LINCOLN,6680,XXXXX6680X 0006680X,6100 O STREET,NE,68505
Lane Bryant,WEST VALLEY,6682,XXXXX6682X 0006682X,2981 SOUTH 5600 WEST,UT,84120
Lane Bryant,OWASSO,6685,XXXXX6685X 0006685X,9018 N 121ST EAST AVE #700,OK,74055
Lane Bryant,BOWLING GREEN,6686,XXXXX6686X 0006686X,2625 SCOTTSVILLE RD STE100,KY,42104
Lane Bryant,ROCHESTER,6690,XXXXX6690X 0006690X,3811 MARKETPLACE DRIVE NW,MN,55901
Lane Bryant,HOUSTON,6692,XXXXX6692X 0006692X,13718 NORTHWEST FREEWAY,TX,77040
Lane Bryant,SURPRISE,6702,XXXXX6702X 0006702X,13727 WEST BELL RD,AZ,85374
Lane Bryant,MOOSIC,6703,XXXXX6703X 0006703X,2521 SHOPPES BLVD,PA,18507
Lane Bryant,BROWNSVILLE,6705,XXXXX6705X 0006705X,2450 PABLO KISEL BLVD,TX,78520
Lane Bryant,PALM BEACH GARDENS,6708,XXXXX6708X 0006708X,11280 LEGACY AVE,FL,33410
Lane Bryant,OKLAHOMA CITY,6709,XXXXX6709X 0006709X,1423 WEST I&240 SERVICE RD,OK,73159
Lane Bryant,ALLEN PARK,6710,XXXXX6710X 0006710X,3300 FAIRLANE DRIVE,MI,48101
Lane Bryant,TRUSSVILLE,6711,XXXXX6711X 0006711X,5006 PINNACLE SQUARE #110,AL,35173
Lane Bryant,DENTON,6712,XXXXX6712X 0006712X,1800 S LOOP 288 ST109 BLD1,TX,76205
Lane Bryant,JACKSONVILLE,6721,XXXXX6721X 0006721X,1250 WESTERN BLVD STE J3,NC,28546
Lane Bryant,LOS ANGELES,6722,XXXXX6722X 0006722X,10800 WEST PICO BLVD,CA,90064
Lane Bryant,SACRAMENTO,6732,XXXXX6732X 0006732X,4710 NATOMAS BLVD,CA,95835
Lane Bryant,GLENDALE,6740,XXXXX6740X 0006740X,5658 N BAYSHORE DRIVE F115,WI,53217
Lane Bryant,LAKELAND,6741,XXXXX6741X 0006741X,3800 US HWY 98 SP #356,FL,33809
Lane Bryant,MUSKEGON,6745,XXXXX6745X 0006745X,5677 HARVEY STREET,MI,49444
Lane Bryant,LEXINGTON,6748,XXXXX6748X 0006748X,3311 NICHOLASVILLE RD,KY,40503
Lane Bryant,EAST NORTHPORT,6750,XXXXX6750X 0006750X,4000 JERICHO TURNPIKE,NY,11731
Lane Bryant,GRESHAM,6753,XXXXX6753X 0006753X,761 NW 12TH ST,OR,97030
Lane Bryant,CHESAPEAKE,6757,XXXXX6757X 0006757X,1401 GREENBRIER PKWY 2110,VA,23320
Lane Bryant,MILLVILLE,6760,XXXXX6760X 0006760X,2112 N 2ND STREET,NJ,8332
Lane Bryant,GLEN BURNIE,6763,XXXXX6763X 0006763X,6711 RITCHIE HWY & STE 501,MD,21061
Lane Bryant,BELLINGHAM,6764,XXXXX6764X 0006764X,ONE BELLIS FAIR PKWY #204,WA,98226
Lane Bryant,BURLINGTON,6765,XXXXX6765X 0006765X,1813 MARKETPLACE DRIVE,WA,98233
Lane Bryant,INDIANAPOLIS,6773,XXXXX6773X 0006773X,6020 E 82ND STREET,IN,46250
Lane Bryant,FLOWOOD,6776,XXXXX6776X 0006776X,126 DOGWOOD BLVD,MS,39232
Lane Bryant,WATERFORD,6777,XXXXX6777X 0006777X,915 HARTFORD TRNPK & SPA4B,CT,6385
Lane Bryant,COLUMBIA,6778,XXXXX6778X 0006778X,631 PROMENADE PLACE,SC,29229
Lane Bryant,AUSTIN,6782,XXXXX6782X 0006782X,9600 S I35 SRV RD SB,TX,78748
Lane Bryant,WESTMINSTER,6785,XXXXX6785X 0006785X,2042 WESTMINSTER MALL,CA,92683
Lane Bryant,LOS ANGELES,6789,XXXXX6789X 0006789X,3650 W MARTIN LUTHER KING,CA,90008
Lane Bryant,BROOKLYN,6792,XXXXX6792X 0006792X,1550 1554 PITKIN AVE,NY,11212
Lane Bryant,TRAVERSE CITY,6804,XXXXX6804X 0006804X,3200 S AIRPORT RD W #510,MI,49684
Lane Bryant,NORTH ATTLEBORO,6809,XXXXX6809X 0006809X,999 S WASHINGTON ST #W215,MA,2760
Lane Bryant,ASHEVILLE,6812,XXXXX6812X 0006812X,3 SOUTH TUNNEL RD,NC,28805
Lane Bryant,FAYETTEVILLE,6814,XXXXX6814X 0006814X,175 PAVILION PKWY&SP 175,GA,30214
Lane Bryant,BUFFALO,6817,XXXXX6817X 0006817X,1 GALLERIA DR #109&110,NY,14225
Lane Bryant,CRESTWOOD,6824,XXXXX6824X 0006824X,4843 CAL SAG RD,IL,60445
Lane Bryant,ROUND ROCK,6825,XXXXX6825X 0006825X,200 SUNDANCE PARKWAY,TX,78681
Lane Bryant,OMAHA,6827,XXXXX6827X 0006827X,3001 S 144TH ST SPACEF&1,NE,68144
Lane Bryant,MIDDLETOWN,6828,XXXXX6828X 0006828X,100 BALLARD ROAD&STE D212,NY,10941
Lane Bryant,EDISON,6832,XXXXX6832X 0006832X,100 MENLO PARK  UNIT 2020,NJ,8837
Lane Bryant,CARY,6833,XXXXX6833X 0006833X,1105 WALNUT ST SP G&144,NC,27511
Lane Bryant,TAUNTON,6842,XXXXX6842X 0006842X,2 GALLERIA MALL DR&STE 170,MA,2780
Lane Bryant,HOUSTON,6847,XXXXX6847X 0006847X,6525 HIGHWAY 6 NORTH,TX,77084
Lane Bryant,FORESTVILLE,6851,XXXXX6851X 0006851X,3393 DONNELL DR SP.F&11/12,MD,20747
Lane Bryant,BLOOMINGTON,6853,XXXXX6853X 0006853X,229 SOUTH AVE,MN,55425
Lane Bryant,PHOENIX,6857,XXXXX6857X 0006857X,4619 EAST RAY RD #4,AZ,85044
Lane Bryant,VALENCIA,6861,XXXXX6861X 0006861X,24201 VALENCIA BLVD 2242,CA,91355
Lane Bryant,PEMBROKE PINES,6864,XXXXX6864X 0006864X,11401 PINES BLVD SP 422,FL,33026
Lane Bryant,WILMINGTON,6874,XXXXX6874X 0006874X,4737 CONCORD PIKE SP 370,DE,19803
Lane Bryant,MERIDEN,6875,XXXXX6875X 0006875X,470 LEWIS AVE SP #2024,CT,6450
Lane Bryant,ST LOUIS,6878,XXXXX6878X 0006878X,4 HAMPTON VILLAGE PLAZA,MO,63109
Lane Bryant,LAS VEGAS,6879,XXXXX6879X 0006879X,3624 MARYLAND PKWY SP 206,NV,89109
Lane Bryant,KING OF PRUSSIA,6891,XXXXX6891X 0006891X,160 NORTH GULPH RD,PA,19406
Lane Bryant,ARCADIA,6894,XXXXX6894X 0006894X,400 SOUTH BALDWIN #447,CA,91006
Lane Bryant,THE WOODLANDS,6895,XXXXX6895X 0006895X,1201 LAKE WOODLANDS DR,TX,77380
Lane Bryant,DALLAS,6900,XXXXX6900X 0006900X,16631 COIT RD SUITE 116,TX,75248
Lane Bryant,WILMINGTON,6906,XXXXX6906X 0006906X,3500 OLEANDER DR.SP 1015,NC,28403
Lane Bryant,CANTON,6907,XXXXX6907X 0006907X,4363 BELDEN VILLAGE MALL,OH,44718
Lane Bryant,BAYSIDE,6910,XXXXX6910X 0006910X,2386  BELL BLVD.SP 8B,NY,11360
Lane Bryant,BOWIE,6917,XXXXX6917X 0006917X,15452 EMERALD WAY SP C&03,MD,20716
Lane Bryant,TUSTIN,6919,XXXXX6919X 0006919X,2795 EL CAMINO REAL,CA,92780
Lane Bryant,PASADENA,6925,XXXXX6925X 0006925X,5618 FAIRMONT PKWY,TX,77505
Lane Bryant,PHOENIX,6926,XXXXX6926X 0006926X,21001 N. TATUM BLVD.SP DD,AZ,85050
Lane Bryant,EVANSVILLE,6936,XXXXX6936X 0006936X,800 N GREEN RIVER RD,IN,47715
Lane Bryant,ROCKVILLE,6939,XXXXX6939X 0006939X,12266 ROCKVILLE PIKE,MD,20852
Lane Bryant,STRONGSVILLE,6943,XXXXX6943X 0006943X,112 SOUTHPARK CENTER,OH,44136
Lane Bryant,HENRIETTA,6945,XXXXX6945X 0006945X,740 MIRACLE MILE DR,NY,14623
Lane Bryant,BEACHWOOD,6950,XXXXX6950X 0006950X,24083 CHAGRIN BLVD,OH,44122
Lane Bryant,FAIRFAX,6951,XXXXX6951X 0006951X,12979 FAIR LAKES PKWY,VA,22033
Lane Bryant,WOODBURY,6953,XXXXX6953X 0006953X,8362 TAMARACK VILLAGE #106,MN,55125
Lane Bryant,LEXINGTON,6955,XXXXX6955X 0006955X,2160 SIR BARTON WAY SP 109,KY,40509
Lane Bryant,PEORIA,6964,XXXXX6964X 0006964X,2200 W WAR MEMORIAL DRIVE,IL,61613
Lane Bryant,TEMECULA,6966,XXXXX6966X 0006966X,40820 WINCHESTER RD # 2640,CA,92591
Lane Bryant,NOVI,6968,XXXXX6968X 0006968X,26152 INGERSOLL DR,MI,48377
Lane Bryant,MUNCIE,6970,XXXXX6970X 0006970X,3501 NORTH GRANVILLE AVE,IN,47303
Lane Bryant,MAYFIELD HEIGHTS,6974,XXXXX6974X 0006974X,6420 MAYFIELD RD,OH,44124
Lane Bryant,SKOKIE,6977,XXXXX6977X 0006977X,9412 SKOKIE BLVD,IL,60077
Lane Bryant,LEES SUMMIT,6978,XXXXX6978X 0006978X,1752 NW CHIPMAN RD,MO,64081
Lane Bryant,MANKATO,6979,XXXXX6979X 0006979X,1901 MADISON AVE,MN,56001
Lane Bryant,BRONX,6981,XXXXX6981X 0006981X,54 W 225TH ST&#3&MANHATTAN,NY,10463
Lane Bryant,MERCEDES,4108,XXXXX4108X 0004108X,5001 E EXPRESSWAY 83,TX,78570
Lane Bryant,POTTSTOWN,4113,XXXXX4113X 0004113X,18 W LIGHTCAP RD,PA,19464
Lane Bryant,COMMERCE,4115,XXXXX4115X 0004115X,800 STEVEN B TANGER BLVD,GA,30529
Lane Bryant,ROUND ROCK,4116,XXXXX4116X 0004116X,4401 N INTERSTATE 35,TX,78664
Lane Bryant,OSAGE BEACH,4119,XXXXX4119X 0004119X,4540 OSAGE BEACH PKWY,MO,65065
Lane Bryant,GRAPEVINE,4123,XXXXX4123X 0004123X,3000 GRAPEVINE MILLS PKWY,TX,76051
Lane Bryant,CASTLE ROCK,4125,XXXXX4125X 0004125X,5050 FACTORY SHOPS BLVD,CO,80108
Lane Bryant,LINCOLN CITY,4129,XXXXX4129X 0004129X,1500 SE EAST DEVILS LKE RD,OR,97367
Lane Bryant,CALHOUN,4131,XXXXX4131X 0004131X,455 BELWOOD RD SE,GA,30701
Lane Bryant,GROVE CITY,4134,XXXXX4134X 0004134X,1911 LEESBURG GROVE CTY RD,PA,16127
Lane Bryant,GULFPORT,4148,XXXXX4148X 0004148X,10640 FACTORY SHOP BLVDD,MS,39503
Lane Bryant,LEEDS,4151,XXXXX4151X 0004151X,6200 GRAND RIVER BLVD E,AL,35094
Lane Bryant,DEER PARK,4158,XXXXX4158X 0004158X,1482 THE ARCHES CIR,NY,11729
Lane Bryant,TRACY,4181,XXXXX4181X 0004181X,1005 E PESCADERO AVE,CA,95304
Lane Bryant,LEHI,4194,XXXXX4194X 0004194X,3700 CABELAS BLVD,UT,84043
Lane Bryant,MYRTLE BEACH,4232,XXXXX4232X 0004232X,4618 FACTORY STORES BLVD,SC,29579
Lane Bryant,SAN MARCOS,4235,XXXXX4235X 0004235X,3939 S INTERSTATE 35,TX,78666
Lane Bryant,GILROY,4237,XXXXX4237X 0004237X,8375 ARROYO CIR,CA,95020
Lane Bryant,JOHNSON CREEK,4252,XXXXX4252X 0004252X,612 LIMAR LN,WI,53038
Lane Bryant,CYPRESS,4320,XXXXX4320X 0004320X,29300 HIGHWAY 290,TX,77433
Lane Bryant,AURORA,4323,XXXXX4323X 0004323X,1650 PREMIUM OUTLET BLVD,IL,60502
Lane Bryant,WICHITA FALLS,4504,XXXXX4504X 0004504X,3911 LAWRENCE RD,TX,76308
Lane Bryant,BEAUMONT,4509,XXXXX4509X 0004509X,4065 DOWLEN ROAD,TX,77706
Lane Bryant,OLYMPIA,4518,XXXXX4518X 0004518X,2525 4TH AVE E,WA,98506
Lane Bryant,JOPLIN,4523,XXXXX4523X 0004523X,417 GENEVA AVE,MO,64801
Lane Bryant,PORT RICHEY,4524,XXXXX4524X 0004524X,9634 US HIGHWAY 19,FL,34668
Lane Bryant,DENVER,4531,XXXXX4531X 0004531X,8390 NORTHFIELD BLVD,CO,80238
Lane Bryant,BRANSON,4532,XXXXX4532X 0004532X,1105 BRANSON LANDING BLVD,MO,65616
Lane Bryant,CHESAPEAKE,4533,XXXXX4533X 0004533X,4107 PORTSMOUTH BLVD,VA,23321
Lane Bryant,FRESNO,4536,XXXXX4536X 0004536X,1037 E SHAW AVE,CA,93710
Lane Bryant,SPRINGFIELD,4543,XXXXX4543X 0004543X,1642 N BECHTLE AVE,OH,45504
Lane Bryant,JONESBORO,4544,XXXXX4544X 0004544X,3000 E HIGHLAND DR,AR,72401
Lane Bryant,LAKE JACKSON,4555,XXXXX4555X 0004555X,201  HIGHWAY 332 W,TX,77566
Lane Bryant,BURLINGTON,4558,XXXXX4558X 0004558X,6 WAYSIDE RD,MA,1803
Lane Bryant,BRYANT,4560,XXXXX4560X 0004560X,7321 ALOCA RD,AR,72022
Lane Bryant,CONROE,4561,XXXXX4561X 0004561X,2924 INTERSTATE 45 N,TX,77303
Lane Bryant,MECHANICSBURG,4567,XXXXX4567X 0004567X,6416 CARLISE PIKE,PA,17050
Lane Bryant,PLYMOUTH,4576,XXXXX4576X 0004576X,170 COLONIAL TER,MA,2360
Lane Bryant,IDAHO FALLS,4580,XXXXX4580X 0004580X,3015 S  25TH E,ID,83404
Lane Bryant,MURFREESBORO,4581,XXXXX4581X 0004581X,2615 MEDICAL CENTER PKWY,TN,37129
Lane Bryant,ATLANTA,4583,XXXXX4583X 0004583X,1801 HOWELL MILL RD NW,GA,30318
Lane Bryant,WESLEY CHAPEL,4593,XXXXX4593X 0004593X,28330 PASEO DR,FL,33543
Lane Bryant,CINCINNATI,4597,XXXXX4597X 0004597X,3671 STONECREEK BLVD,OH,45251
Lane Bryant,JACKSONVILLE,4609,XXXXX4609X 0004609X,9560 CROSSHILL BLVD,FL,32222
Lane Bryant,CLIFTON PARK,4620,XXXXX4620X 0004620X,22 CLIFTON COUNTRY RD,NY,12065
Lane Bryant,TUSCALOOSA,4623,XXXXX4623X 0004623X,1800 MCFARLAND BLVD E,AL,35404
Lane Bryant,SEATTLE,4630,XXXXX4630X 0004630X,17250 SOUTHCENTER PKWY,WA,98188
Lane Bryant,HARVEY,4633,XXXXX4633X 0004633X,1723 MANHATTAN BLVD,LA,70058
Lane Bryant,ARLINGTON,4640,XXXXX4640X 0004640X,3901 ARLINTON HIGHLND BLVD,TX,76018
Lane Bryant,FORT COLLINS,4641,XXXXX4641X 0004641X,4321 CORBETT DR,CO,80525
Lane Bryant,VISALIA,4649,XXXXX4649X 0004649X,4041 S MOONEY BLVD,CA,93277
Lane Bryant,HAMILTON,4652,XXXXX4652X 0004652X,545 US HIGHWAY 130,NJ,8691
Lane Bryant,LEXINGTON,4659,XXXXX4659X 0004659X,5135 SUNSET BLVD,SC,29072
Lane Bryant,TULSA,4667,XXXXX4667X 0004667X,11115 E 71ST ST,OK,74133
Lane Bryant,BEL AIR,4671,XXXXX4671X 0004671X,696 BALTIMORE PIKE,MD,21014
Lane Bryant,SAN ANTONIO,4681,XXXXX4681X 0004681X,5347W W LOOP 1604 N,TX,78253
Lane Bryant,VICTORVILLE,4689,XXXXX4689X 0004689X,14311 BEAR VALLEY RD,CA,92392
Lane Bryant,ROCKWALL,4697,XXXXX4697X 0004697X,1019 E INTERSTATE 30,TX,75087
Lane Bryant,TUPELO,4736,XXXXX4736X 0004736X,893 KINGS CROSSING DR,MS,38804
Lane Bryant,DOWNINGTOWN,4741,XXXXX4741X 0004741X,44 QUARRY RD,PA,19335
Lane Bryant,LAREDO,4744,XXXXX4744X 0004744X,7603 SAN DARIO AVE,TX,78045
Lane Bryant,PITTSBURGH,4751,XXXXX4751X 0004751X,1330 SETTLERS RIDGE CTR DR,PA,15205
Lane Bryant,SPOKANE,4752,XXXXX4752X 0004752X,4727 N DIVISION ST,WA,99207
Lane Bryant,RIVERSIDE,4759,XXXXX4759X 0004759X,2316 HARLEM AVE,IL,60546
Lane Bryant,TOPEKA,4760,XXXXX4760X 0004760X,2130 SW WANAMAKER RD,KS,66614
Lane Bryant,NORRIDGE,4769,XXXXX4769X 0004769X,4158 NORTH HARLEM AVE,IL,60706
Lane Bryant,TOMBALL,4773,XXXXX4773X 0004773X,14333 FM 2920 RD,TX,77377
Lane Bryant,NEW YORK,4774,XXXXX4774X 0004774X,225 W 34TH ST,NY,10001
Lane Bryant,GREENWOOD,4776,XXXXX4776X 0004776X,745 US HIGHWAY 31 N,IN,46142
Lane Bryant,SLIDELL,4799,XXXXX4799X 0004799X,57695 LOUIS RD,LA,70458
Lane Bryant,GARDEN CITY,4808,XXXXX4808X 0004808X,980 OLD COUNTY RD,NY,11530
Lane Bryant,BUFORD,4820,XXXXX4820X 0004820X,1600 MALL OF GEORGIA BLVD,GA,30519
Lane Bryant,PORTLAND,4828,XXXXX4828X 0004828X,1480 N TOMAHAWK ISLAND DR,OR,97217
Lane Bryant,GRANDVILLE,4833,XXXXX4833X 0004833X,3168 44TH ST SW,MI,49418
Lane Bryant,LAKEWOOD,4834,XXXXX4834X 0004834X,5815 LAKEWOOD TNE CTR BVD,WA,98499
Lane Bryant,BRENTWOOD,4839,XXXXX4839X 0004839X,8  BRENTWOOD BLVD,MO,63144
Lane Bryant,REYNOLDSBURG,4844,XXXXX4844X 0004844X,2857 TAYLOR ROAD EXT,OH,43068
Lane Bryant,FLORENCE,4848,XXXXX4848X 0004848X,2853 DAVID H MCLEOD BLVD,SC,29501
Lane Bryant,LANSING,4853,XXXXX4853X 0004853X,333C MARKETPLACE BLVD,MI,48917
Lane Bryant,MESQUITE,4855,XXXXX4855X 0004855X,1515 N TOWN EAST BLVD,TX,75150
Lane Bryant,JOHNSON CITY,4863,XXXXX4863X 0004863X,2544 KNOB CREEK RD,TN,37604
Lane Bryant,RAPID CITY,4866,XXXXX4866X 0004866X,1751 EGLIN ST,SD,57701
Lane Bryant,PEMBROKE PINES,4871,XXXXX4871X 0004871X,309 SW 145TH TERRACE,FL,33027
Lane Bryant,ORION,6012,XXXXX6012X 0006012X,4816 S BALDWIN RD,MI,48359
Lane Bryant,SUGARLAND,6029,XXXXX6029X 0006029X,2709 TOWN CENTER BLVD N,TX,77479
Lane Bryant,WALKER,6034,XXXXX6034X 0006034X,3390 ALPINE AVE NW,MI,49544
Lane Bryant,SANTA CLARA,6044,XXXXX6044X 0006044X,2855 STEVENS CREEK BLVD,CA,95050
Lane Bryant,MILLBURY,6048,XXXXX6048X 0006048X,70 WORCESTER PROVDNCE TPKE,MA,1527
Lane Bryant,DAYTON,6110,XXXXX6110X 0006110X,2700 W CENTERVILLE RD,OH,45459
Lane Bryant,FLINT,6116,XXXXX6116X 0006116X,3385 S LINDEN RD,MI,48507
Lane Bryant,ORLAND PARK,6119,XXXXX6119X 0006119X,648 ORLAND COURRT,IL,60462
Lane Bryant,ROCHESTER,6121,XXXXX6121X 0006121X,286 GREECE RIDGE CENTER DR,NY,14626
Lane Bryant,TORRANCE,6122,XXXXX6122X 0006122X,3525 W CARSON STREET,CA,90503
Lane Bryant,COLORADO SPRINGS,6158,XXXXX6158X 0006158X,750 CITADEL DR E,CO,80909
Lane Bryant,ST. PETERSBURG,6166,XXXXX6166X 0006166X,6754 TYRONE SQ,FL,33710
Lane Bryant,ERIE,6168,XXXXX6168X 0006168X,670 MILLCREEK MALL,PA,16565
Lane Bryant,MARIETTA,6174,XXXXX6174X 0006174X,3625 DALLAS HWY SW,GA,30064
Lane Bryant,WHITEHALL,6194,XXXXX6194X 0006194X,LEHIGH ST,PA,18052
Lane Bryant,ROSEVILLE,6217,XXXXX6217X 0006217X,32395 GRATIOT AVE,MI,48066
Lane Bryant,AUSTIN,6225,XXXXX6225X 0006225X,2901 CAPITAL OF TEXAS HWY,TX,78746
Lane Bryant,METAIRIE,6242,XXXXX6242X 0006242X,3301 VETERAN MEMORIAL BLVD,LA,70002
Lane Bryant,WAUSAU,6245,XXXXX6245X 0006245X,4150 RIB MOUNTAIN DR,WI,54401
Lane Bryant,MONTGOMERY,6248,XXXXX6248X 0006248X,6890 EASTCHASE PKWY,AL,36117
Lane Bryant,SHERMAN,6251,XXXXX6251X 0006251X,3704 TOWNE CTR,TX,75092
Lane Bryant,ROANOKE,6254,XXXXX6254X 0006254X,4802 VALLEYVIEW BLVD NW,VA,24012
Lane Bryant,LONG BEACH,6255,XXXXX6255X 0006255X,7515 CARSON BLVD,CA,90808
Lane Bryant,FEDERAL WAY,6278,XXXXX6278X 0006278X,2001 S COMMONS,WA,98003
Lane Bryant,WILLOW GROVE,6282,XXXXX6282X 0006282X,2500 W MORELAND RD,PA,19090
Lane Bryant,MOBILE,6298,XXXXX6298X 0006298X,3290 BELAIR MALL,AL,36606
Lane Bryant,ALBANY,6304,XXXXX6304X 0006304X,120 WASHINGTON AVE,NY,12203
Lane Bryant,FAIRVIEW HEIGHTS,6308,XXXXX6308X 0006308X,134 SAINT CLAIR SQ,IL,62208
Lane Bryant,OVERLAND PARK,6311,XXXXX6311X 0006311X,11639 W 95TH ST,KS,66214
Lane Bryant,KANSAS CITY,6324,XXXXX6324X 0006324X,8620 N DIXSON AVE,MO,64153
Lane Bryant,PEARLAND,6327,XXXXX6327X 0006327X,3109 SILVERLAKE VILLAGE DR,TX,77584
Lane Bryant,SIOUX FALLS,6338,XXXXX6338X 0006338X,1180 W EMPIRE MALL,SD,57106
Lane Bryant,LONGVIEW,6342,XXXXX6342X 0006342X,620 TRIANGLE SHOPPING CTR,WA,98632
Lane Bryant,POMPANO BEACH,6353,XXXXX6353X 0006353X,2201 N FEDERAL HWY,FL,33062
Lane Bryant,GAINESVILLE,6354,XXXXX6354X 0006354X,6679 W NEWBERRY RD,FL,32605
Lane Bryant,NEWPORT NEWS,6365,XXXXX6365X 0006365X,12551 JEFFERSON AVE,VA,23602
Lane Bryant,ALGONQUIN,6382,XXXXX6382X 0006382X,722 S RANDALL RD,IL,60102
Lane Bryant,ALBUQUERQUE,6387,XXXXX6387X 0006387X,6600 MENAUL BLVD NE,NM,87110
Lane Bryant,SILVERDALE,6388,XXXXX6388X 0006388X,10315 SILVERDALE WAY NW,WA,98383
Lane Bryant,TYLER,6393,XXXXX6393X 0006393X,4601 S BROADWAY AVE,TX,75703
Lane Bryant,MONTCLAIR,6398,XXXXX6398X 0006398X,5017 E MONTCLAIR PLAZA LN,CA,91763
Lane Bryant,APPLETON,6399,XXXXX6399X 0006399X,4641 W MICHAELS DR,WI,54913
Lane Bryant,SAN BERNARDINO,6413,XXXXX6413X 0006413X,500 INLAND CENTER DR,CA,92408
Lane Bryant,WACO,6419,XXXXX6419X 0006419X,2608 W LOOP 340,TX,76711
Lane Bryant,HICKORY,6422,XXXXX6422X 0006422X,1960 US HIGHWAY 70 SE,NC,28602
Lane Bryant,LAKE CHARLES,6425,XXXXX6425X 0006425X,1776 W PRIEN LAKE RD,LA,70601
Lane Bryant,SARASOTA,6433,XXXXX6433X 0006433X,6571A S TAMIAMI TRAIL,FL,34231
Lane Bryant,OSSEO,6453,XXXXX6453X 0006453X,12493 ELM CREEK BLVD N,MN,55369
Lane Bryant,SALINAS,6473,XXXXX6473X 0006473X,430 NORTHRIDGE SHOPPNG CTR,CA,93906
Lane Bryant,TAMPA,6486,XXXXX6486X 0006486X,299 WESTSHORE PLZ,FL,33609
Lane Bryant,SAN ANTONIO,6495,XXXXX6495X 0006495X,11745 W INTERSTATE 10,TX,78230
Lane Bryant,NORMAL,6521,XXXXX6521X 0006521X,305 S VETERANS PARKWAY,IL,61761
Lane Bryant,RIVERSIDE,6575,XXXXX6575X 0006575X,2218 GALLERIA AT TYLER,CA,92503
Lane Bryant,CONYERS,6577,XXXXX6577X 0006577X,1478A DOGWOOD DR SE,GA,30013
Lane Bryant,PALMDALE,6625,XXXXX6625X 0006625X,1233 W RANCHO VISTA BLVD,CA,93551
Lane Bryant,PINEVILLE,6644,XXXXX6644X 0006644X,11025 CAROLINA PLACE PKWY,NC,28134
Lane Bryant,SALEM,6648,XXXXX6648X 0006648X,1 MALL ROAD STE W201,NH,3079
Lane Bryant,PHILADELPHIA,6654,XXXXX6654X 0006654X,S 9TH ST,PA,19107
Lane Bryant,CEDAR RAPIDS,6659,XXXXX6659X 0006659X,4444 1ST AVE NW,IA,52402
Lane Bryant,PERRYSBURG,6669,XXXXX6669X 0006669X,4140 LEVIS COMMONS BLVD,OH,43551
Lane Bryant,EDINA,6674,XXXXX6674X 0006674X,3313 HAZELTON RD,MN,55435
Lane Bryant,NORFOLK,6675,XXXXX6675X 0006675X,5802 E VIGINIA BEACH BLVD,VA,23502
Lane Bryant,ST PETERS,6684,XXXXX6684X 0006684X,MID RIVERS MALL DR,MO,63376
Lane Bryant,NORTH OLMSTED,6694,XXXXX6694X 0006694X,644 GREAT NORTHERN MALL,OH,44070
Lane Bryant,HOFFMAN ESTATES,6704,XXXXX6704X 0006704X,2650 N SUTTON RD,IL,60192
Lane Bryant,PHILADELPHIA,6727,XXXXX6727X 0006727X,1851 S COLUMBUS BLVD,PA,19148
Lane Bryant,STOCKTON,6730,XXXXX6730X 0006730X,10734 TRINITY PKWY,CA,95219
Lane Bryant,LITTLE ROCK,6756,XXXXX6756X 0006756X,6000 W MARKHAM ST,AR,72205
Lane Bryant,GRANDVILLE,6759,XXXXX6759X 0006759X,3700 RIVERTOWN PKWY SW,MI,49418
Lane Bryant,DURHAM,6786,XXXXX6786X 0006786X,8200 RENAISSANCE PKWY,NC,27713
Lane Bryant,WICHITA,6787,XXXXX6787X 0006787X,7700 E KELLOGG DR,KS,67207
Lane Bryant,HOMEWOOD,6788,XXXXX6788X 0006788X,17844 HALSTED ST,IL,60430
Lane Bryant,COLONIAL HEIGHTS,6791,XXXXX6791X 0006791X,48 SOUTHPARK MALL,VA,23834
Lane Bryant,MATTESON,6794,XXXXX6794X 0006794X,158 TOWN CENTER RD,IL,60443
Lane Bryant,LAS VEGAS,6806,XXXXX6806X 0006806X,7961 W TROPICAL PKWY,NV,89149
Lane Bryant,LAS VEGAS,6808,XXXXX6808X 0006808X,4040 BLUE DIAMOND RD,NV,89139
Lane Bryant,AUGUSTA,6819,XXXXX6819X 0006819X,3450 WRIGHTSBORO RD,GA,30909
Lane Bryant,FREEHOLD,6820,XXXXX6820X 0006820X,3710 US HIGHWAY 9,NJ,7728
Lane Bryant,OCALA,6823,XXXXX6823X 0006823X,3100 SW COLLEGE RD,FL,34474
Lane Bryant,HOLMDEL,6849,XXXXX6849X 0006849X,2130 STATE ROUTE 35,NJ,7733
Lane Bryant,BEAVERCREEK,6856,XXXXX6856X 0006856X,4381 JUNIPER WAY,OH,45440
Lane Bryant,BEAVERCREEK,6882,XXXXX6882X 0006882X,2727 N FAIRFIELD RD,OH,45431
Lane Bryant,GLENDALE,6883,XXXXX6883X 0006883X,7700 W ARROWHEAD TOWNE CTR,AZ,85308
Lane Bryant,SAUGUS,6899,XXXXX6899X 0006899X,1277 BROADWAY,MA,1906
Lane Bryant,BRANDON,6901,XXXXX6901X 0006901X,621 BRANDON TOWN CTR MALL,FL,33511
Lane Bryant,HOUSTON,6915,XXXXX6915X 0006915X,130 MEYERLAND PLAZA MALL,TX,77096
Lane Bryant,SNELLVILLE,6916,XXXXX6916X 0006916X,1905 SCENIC HWY N,GA,30078
Lane Bryant,RIVERSIDE,6918,XXXXX6918X 0006918X,2688 CANYON SPRINGS PKWY,CA,92507
Lane Bryant,CHARLOTTE,6931,XXXXX6931X 0006931X,8720 JW CLAY BLVD,NC,28262
Lane Bryant,CARMEL,6933,XXXXX6933X 0006933X,2007 E GREYHOUND PASS,IN,46033
Lane Bryant,MARLBOROUGH,6938,XXXXX6938X 0006938X,601 DONALD LYNCH BLVD,MA,1752
Lane Bryant,SPARTANBURG,6940,XXXXX6940X 0006940X,205 WEST BLACKSTOCK RD,SC,29301
Lane Bryant,DUBLIN,6948,XXXXX6948X 0006948X,5043 TUTTLE CROSSING BLVD,OH,43016
Lane Bryant,RESTON,6957,XXXXX6957X 0006957X,1815 FOUNTAIN DR,VA,20190
Lane Bryant,MATTHEWS,6958,XXXXX6958X 0006958X,2211 MATTHEWS TOWNSHIP PKW,NC,28105
Lane Bryant,VALLEY STREAM,6962,XXXXX6962X 0006962X,1092 GREEN ACRES MALL,NY,11581
Lane Bryant,WEST NYACK,6963,XXXXX6963X 0006963X,2780 PALISADES CENTER DR,NY,10994
Lane Bryant,CHICAGO,6976,XXXXX6976X 0006976X,1807 W FULLERTON AVE,IL,60614
