keywords,city,Aggdata Store Number,store_number,address,state,zip_code
Marshall's,Danvers,1,1 #001 #0001 #01 #1 0000001 M1,100 Independence Way,MA,1923
Marshall's,Bedford,2,2 #002 #0002 #02 #2 0000002 M2,160 Great Road (RTE 4),MA,1730
Marshall's,Lowell,3,3 #003 #0003 #03 #3 0000003 M3,211 Plain Street,MA,1852
Marshall's,Hyannis,4,4 #004 #0004 #04 #4 0000004 M4,65 Indepenence Drive,MA,2601
Marshall's,Baltimore,5,5 #005 #0005 #05 #5 0000005 M5,6700 Reistertown Road,MD,21215
Marshall's,Leominster,7,7 #007 #0007 #07 #7 0000007 M7,510 N. Main Street (Rte. 12),MA,1453
Marshall's,Canton,8,8 #008 #0008 #08 #8 0000008 M8,95 Washington Street,MA,2021
Marshall's,Newton,9,9 #009 #0009 #09 #9 0000009 M9,275 Needham Street,MA,2464
Marshall's,S. Weymouth,10,10 #0010 #00010 #010 #10 00000010 M10,50 Pleasant Street,MA,2190
Marshall's,Springfield,11,11 #0011 #00011 #011 #11 00000011 M11,1400 Boston Rd.,MA,1119
Marshall's,Wethersfield,12,12 #0012 #00012 #012 #12 00000012 M12,1130 Silas Deane Highway,CT,6109
Marshall's,New London,13,13 #0013 #00013 #013 #13 00000013 M13,351 North Frontage Rd,CT,6320
Marshall's,La Quinta,14,14 #0014 #00014 #014 #14 00000014 M14,79395 Highway 111,CA,92253
Marshall's,Cheshire,15,15 #0015 #00015 #015 #15 00000015 M15,199 Highland Avenue,CT,6410
Marshall's,Danbury,17,17 #0017 #00017 #017 #17 00000017 M17,79 Newtown Road,CT,6810
Marshall's,North Reading,18,18 #0018 #00018 #018 #18 00000018 M18,80 Main Street,MA,1867
Marshall's,Hamden,19,19 #0019 #00019 #019 #19 00000019 M19,2100 Dixwell Avenue,CT,6514
Marshall's,Covington,20,20 #0020 #00020 #020 #20 00000020 M20,69324 Highway 21,LA,70433
Marshall's,Marlborough,21,21 #0021 #00021 #021 #21 00000021 M21,230 East Main St.,MA,1752
Marshall's,Marshfield,22,22 #0022 #00022 #022 #22 00000022 M22,1 Snow Rd,MA,2050
Marshall's,Salem,23,23 #0023 #00023 #023 #23 00000023 M23,265 S. Broadway,NH,3079
Marshall's,Bronx,24,24 #0024 #00024 #024 #24 00000024 M24,50 W. 225th Street,NY,10463
Marshall's,Nashua,25,25 #0025 #00025 #025 #25 00000025 M25,Daniel Webster Highway,NH,3060
Marshall's,Avon,26,26 #0026 #00026 #026 #26 00000026 M26,315 West Main Street,CT,6001
Marshall's,Hingham,27,27 #0027 #00027 #027 #27 00000027 M27,400 Lincoln Street (Rte. 3A),MA,2043
Marshall's,Watertown,28,28 #0028 #00028 #028 #28 00000028 M28,1141 Main St. (RTE. 63),CT,6795
Marshall's,Stonybrook,29,29 #0029 #00029 #029 #29 00000029 M29,2200 Neconset Hwy,NY,11790
Marshall's,Port Chester,30,30 #0030 #00030 #030 #30 00000030 M30,20 Waterfront Place,NY,10573
Marshall's,Nanuet,31,31 #0031 #00031 #031 #31 00000031 M31,76 Rockland Plaza,NY,10954
Marshall's,Swampscott,32,32 #0032 #00032 #032 #32 00000032 M32,1005 Paradise Road (Rte. 1A),MA,1907
Marshall's,Poughkeepsie,33,33 #0033 #00033 #033 #33 00000033 M33,Rte.9 South,NY,12601
Marshall's,E. Islip,34,34 #0034 #00034 #034 #34 00000034 M34,2650 Sunrise Hgwy.(Rte. 27),NY,11730
Marshall's,W. Caldwell,35,35 #0035 #00035 #035 #35 00000035 M35,901 Bloomfield Avenue,NJ,7006
Marshall's,Shrewsbury,36,36 #0036 #00036 #036 #36 00000036 M36,270 Route 35 South,NJ,7702
Marshall's,Mt Prospect,37,37 #0037 #00037 #037 #37 00000037 M37,1127 E. Rand Road,IL,60056
Marshall's,Springfield,39,39 #0039 #00039 #039 #39 00000039 M39,400 South State Rd,PA,19064
Marshall's,Moorestown,40,40 #0040 #00040 #040 #40 00000040 M40,401 Route 38 Suite A-5,NJ,8057
Marshall's,Lombard,41,41 #0041 #00041 #041 #41 00000041 M41,102 Yorktown Shopping Center Rd,IL,60148
Marshall's,Alexandria,42,42 #0042 #00042 #042 #42 00000042 M42,6200 Little River Turnpike (Rte. 236),VA,22312
Marshall's,Carle Place (Westbury),43,43 #0043 #00043 #043 #43 00000043 M43,1240 Old Country Road,NY,11514
Marshall's,Langhorne,44,44 #0044 #00044 #044 #44 00000044 M44,Highland Parkway At Us 1,PA,19056
Marshall's,Ballwin,45,45 #0045 #00045 #045 #45 00000045 M45,14890 Manchester Road,MO,63011
Marshall's,Willow Grove,46,46 #0046 #00046 #046 #46 00000046 M46,122 Park Avenue,PA,19090
Marshall's,Williamsburg,47,47 #0047 #00047 #047 #47 00000047 M47,163A Monticello Avenue,VA,23185
Marshall's,Sunset Hills,48,48 #0048 #00048 #048 #48 00000048 M48,10780 Sunset Hill Plaza,MO,63127
Marshall's,Atlanta (Brookhaven),49,49 #0049 #00049 #049 #49 00000049 M49,150 Brookhaven Ave,GA,30319
Marshall's,Oaklawn,50,50 #0050 #00050 #050 #50 00000050 M50,9601 Cicero Avenue,IL,60453
Marshall's,Houma,51,51 #0051 #00051 #051 #51 00000051 M51,Martin Luther King Jr Blvd and Enterprise Dr,LA,70360
Marshall's,Towson,52,52 #0052 #00052 #052 #52 00000052 M52,1238 Putty Hill Avenue,MD,21204
Marshall's,Wayne,53,53 #0053 #00053 #053 #53 00000053 M53,1139 Hamburg Turnpike,NJ,7470
Marshall's,Matteson,54,54 #0054 #00054 #054 #54 00000054 M54,4808 Lincoln Highway (Rte. 30),IL,60443
Marshall's,Houston,55,55 #0055 #00055 #055 #55 00000055 M55,8100 South Gessner Blvd,TX,77036
Marshall's,Westminster,57,57 #0057 #00057 #057 #57 00000057 M57,200 Clifton Boulevard,MD,21157
Marshall's,North Brunswick,58,58 #0058 #00058 #058 #58 00000058 M58,979 US Route 1,NJ,8902
Marshall's,Houston,59,59 #0059 #00059 #059 #59 00000059 M59,9425 Katy Freeway,TX,77024
Marshall's,Countryside,60,60 #0060 #00060 #060 #60 00000060 M60,5555 Brainard Avenue,IL,60525
Marshall's,Medford,61,61 #0061 #00061 #061 #61 00000061 M61,3850 Mystic Valley Parkway (Rte. 16),MA,2155
Marshall's,Portsmouth,62,62 #0062 #00062 #062 #62 00000062 M62,1465 Woodbury Avenue,NH,3801
Marshall's,Sandy Springs,63,63 #0063 #00063 #063 #63 00000063 M63,6337 Roswell Road,GA,30328
Marshall's,Salisbury,65,65 #0065 #00065 #065 #65 00000065 M65,2641 N Salisbury Blvd,MD,21804
Marshall's,Altamonte Springs,67,67 #0067 #00067 #067 #67 00000067 M67,293 E. Altamonte Drive,FL,32701
Marshall's,Marietta,68,68 #0068 #00068 #068 #68 00000068 M68,2203 Roswell Road,GA,30062
Marshall's,Bedford,69,69 #0069 #00069 #069 #69 00000069 M69,75 South River Rd,NH,3110
Marshall's,Fullerton,70,70 #0070 #00070 #070 #70 00000070 M70,1400 S. Harbor Boulevard,CA,92832
Marshall's,Canoga Park,71,71 #0071 #00071 #071 #71 00000071 M71,19731 Vanowen Street,CA,91306
Marshall's,Hartford,72,72 #0072 #00072 #072 #72 00000072 M72,280 Newfield Ave,CT,6106
Marshall's,La Mirada,73,73 #0073 #00073 #073 #73 00000073 M73,15906 Imperial Highway,CA,90638
Marshall's,San Jose - Stevens Creek Blvd.,74,74 #0074 #00074 #074 #74 00000074 M74,5160 Stevens Creek Boulevard,CA,95129
Marshall's,North Hampton,75,75 #0075 #00075 #075 #75 00000075 M75,Route 1 & Route 101,NH,3862
Marshall's,Huntington Beach,76,76 #0076 #00076 #076 #76 00000076 M76,16672 Beach Boulevard,CA,92647
Marshall's,Yuma,78,78 #0078 #00078 #078 #78 00000078 M78,1394 S. Yuma Palms Parkway,AZ,85365
Marshall's,Sacramento - Howe Ave.,79,79 #0079 #00079 #079 #79 00000079 M79,1250 Howe Ave.,CA,95825
Marshall's,Watertown,100,100 #00100 #000100 #0100 #100 000000100 M100,455 Arsenal Street,MA,2474
Marshall's,East Rutherford,101,101 #00101 #000101 #0101 #101 000000101 M101,65 Route 17 South,NJ,7073
Marshall's,Cranston,102,102 #00102 #000102 #0102 #102 000000102 M102,1355 Oaklawn Avenue,RI,2910
Marshall's,Hartsdale,103,103 #00103 #000103 #0103 #103 000000103 M103,221 N. Central Park Ave.,NY,10530
Marshall's,Niles,104,104 #00104 #000104 #0104 #104 000000104 M104,8249 W Golf Rd,IL,60714
Marshall's,North Dallas,105,105 #00105 #000105 #0105 #105 000000105 M105,7609 Campbell Road,TX,75248
Marshall's,Valparaiso,106,106 #00106 #000106 #0106 #106 000000106 M106,"91 Silhavy Road, Suite 131",IN,46383
Marshall's,Huntington,107,107 #00107 #000107 #0107 #107 000000107 M107,839 New York Avenue,NY,11743
Marshall's,Sarasota,108,108 #00108 #000108 #0108 #108 000000108 M108,RTE. 41,FL,34231
Marshall's,Osage Beach,109,109 #00109 #000109 #0109 #109 000000109 M109,3942 Jr Prewitt Parkway (Hwy 54 & Hwy 42),MO,65065
Marshall's,Charlotte,110,110 #00110 #000110 #0110 #110 000000110 M110,118 S. Sharon-Amity Road,NC,28211
Marshall's,Greensboro,111,111 #00111 #000111 #0111 #111 000000111 M111,1583-B New Garden Road,NC,27410
Marshall's,Kansas City,112,112 #00112 #000112 #0112 #112 000000112 M112,8690 N Dixon Ave,MO,64153
Marshall's,Laguna Hills,113,113 #00113 #000113 #0113 #113 000000113 M113,24271 Avenida de la Carlota,CA,92653
Marshall's,Torrance,114,114 #00114 #000114 #0114 #114 000000114 M114,19800 Hawthorne Boulevard,CA,90503
Marshall's,Sacramento - Florin Rd.,115,115 #00115 #000115 #0115 #115 000000115 M115,1000 Florin,CA,95831
Marshall's,Canton,116,116 #00116 #000116 #0116 #116 000000116 M116,41920 Ford Road,MI,48187
Marshall's,North Wales,117,117 #00117 #000117 #0117 #117 000000117 M117,16 Airport Square,PA,19454
Marshall's,Indianapolis,118,118 #00118 #000118 #0118 #118 000000118 M118,9981 E Washington St,IN,46229
Marshall's,Fairfax,119,119 #00119 #000119 #0119 #119 000000119 M119,9640 Main Street,VA,22031
Marshall's,Greenbelt,120,120 #00120 #000120 #0120 #120 000000120 M120,6000 Greenbelt Road,MD,20770
Marshall's,Phoenix - E. Camelback,121,121 #00121 #000121 #0121 #121 000000121 M121,1801 E. Camelback,AZ,85016
Marshall's,Stockton,122,122 #00122 #000122 #0122 #122 000000122 M122,2203 Grand Canal Boulevard,CA,95207
Marshall's,Berwyn,123,123 #00123 #000123 #0123 #123 000000123 M123,7163 Cermak Road,IL,60402
Marshall's,Kissimmee,124,124 #00124 #000124 #0124 #124 000000124 M124,4799 W. Irlo Bronson Hwy,FL,34746
Marshall's,N.E. Philadelphia,125,125 #00125 #000125 #0125 #125 000000125 M125,9169 Roosevelt Blvd.,PA,19114
Marshall's,Brighton,126,126 #00126 #000126 #0126 #126 000000126 M126,8483 West Grand River Avenue,MI,48116
Marshall's,Charleston,128,128 #00128 #000128 #0128 #128 000000128 M128,2245 Ashley Crossing,SC,29414
Marshall's,Harwood Heights,129,129 #00129 #000129 #0129 #129 000000129 M129,4725 N. Harlem Avenue,IL,60656
Marshall's,Lakeville,130,130 #00130 #000130 #0130 #130 000000130 M130,18307 Kenrick Ave,MN,55044
Marshall's,Middletown,131,131 #00131 #000131 #0131 #131 000000131 M131,416 East Main St,CT,6457
Marshall's,St. Louis (Creve Ceour),132,132 #00132 #000132 #0132 #132 000000132 M132,12555 Olive Blvd.,MO,63141
Marshall's,Myrtle Beach,133,133 #00133 #000133 #0133 #133 000000133 M133,10816 Kings Road,SC,29572
Marshall's,Williston,136,136 #00136 #000136 #0136 #136 000000136 M136,194 Retail Way,VT,5495
Marshall's,Vienna,139,139 #00139 #000139 #0139 #139 000000139 M139,8353 Leesburg Pike,VA,22182
Marshall's,Columbus - Bethel Rd.,140,140 #00140 #000140 #0140 #140 000000140 M140,805 Bethel Road,OH,43214
Marshall's,New Orleans,141,141 #00141 #000141 #0141 #141 000000141 M141,1200 S. Clearview Parkway,LA,70123
Marshall's,Richmond - W. Broad St.,143,143 #00143 #000143 #0143 #143 000000143 M143,7506 W. Broad Street,VA,23294
Marshall's,Midlothian,144,144 #00144 #000144 #0144 #144 000000144 M144,9748 Midlothian Tpk,VA,23235
Marshall's,South Dade,145,145 #00145 #000145 #0145 #145 000000145 M145,16051 S. Dixie Highway,FL,33157
Marshall's,Hialeah,146,146 #00146 #000146 #0146 #146 000000146 M146,1700 W. 49th Street,FL,33012
Marshall's,West Palm Beach,149,149 #00149 #000149 #0149 #149 000000149 M149,1801 N. Military Trail,FL,33409
Marshall's,Raleigh Springs,150,150 #00150 #000150 #0150 #150 000000150 M150,3001 Covington Pike,TN,38128
Marshall's,Rochester,152,152 #00152 #000152 #0152 #152 000000152 M152,480 Greece Ridge Center Drive,NY,14626
Marshall's,Sanford,153,153 #00153 #000153 #0153 #153 000000153 M153,1551 WP Ball Blvd.,FL,32771
Marshall's,Pittsford (Rochester),154,154 #00154 #000154 #0154 #154 000000154 M154,3340 Monroe Avenue,NY,14534
Marshall's,Kenosha,155,155 #00155 #000155 #0155 #155 000000155 M155,5914 75th St,WI,53142
Marshall's,San Antonio,156,156 #00156 #000156 #0156 #156 000000156 M156,8505 Blanco Road,TX,78216
Marshall's,Yuba City,157,157 #00157 #000157 #0157 #157 000000157 M157,1130 Harter Rd,CA,95993
Marshall's,Thousand Oaks,158,158 #00158 #000158 #0158 #158 000000158 M158,225 N. Moorpark Road,CA,91360
Marshall's,Roseville,161,161 #00161 #000161 #0161 #161 000000161 M161,2100 N. Snelling Avenue,MN,55113
Marshall's,Richfield,162,162 #00162 #000162 #0162 #162 000000162 M162,36 W. 66th Street,MN,55423
Marshall's,E. Providence,163,163 #00163 #000163 #0163 #163 000000163 M163,1925 Pawtucket Avenue,RI,2914
Marshall's,Commack,164,164 #00164 #000164 #0164 #164 000000164 M164,6A Henry St,NY,11725
Marshall's,Evansville,166,166 #00166 #000166 #0166 #166 000000166 M166,306 N. Green River Road,IN,47715
Marshall's,Pompano Beach,167,167 #00167 #000167 #0167 #167 000000167 M167,1401 S. Federal Highway,FL,33060
Marshall's,Fort Myers,168,168 #00168 #000168 #0168 #168 000000168 M168,4995 S Cleveland Avenue,FL,33907
Marshall's,Downey,169,169 #00169 #000169 #0169 #169 000000169 M169,12106 Lakewood Blvd.,CA,90241
Marshall's,Pleasant Hill,170,170 #00170 #000170 #0170 #170 000000170 M170,2310 Monument Blvd,CA,94523
Marshall's,Wilmington,171,171 #00171 #000171 #0171 #171 000000171 M171,4607 Kirkwood Highway,DE,19808
Marshall's,Dallas,172,172 #00172 #000172 #0172 #172 000000172 M172,3616 Forest Lane,TX,75234
Marshall's,Arden,173,173 #00173 #000173 #0173 #173 000000173 M173,13 McKenna Rd,NC,28704
Marshall's,San Jose,174,174 #00174 #000174 #0174 #174 000000174 M174,330 N Capitol Ave,CA,95133
Marshall's,Naples,176,176 #00176 #000176 #0176 #176 000000176 M176,2115 9th Street North,FL,34102
Marshall's,Clark,177,177 #00177 #000177 #0177 #177 000000177 M177,77 Central Ave,NJ,7066
Marshall's,Crystal,178,178 #00178 #000178 #0178 #178 000000178 M178,Bass Lake Road & West Broadway,MN,55428
Marshall's,Lawrence,179,179 #00179 #000179 #0179 #179 000000179 M179,345 Rockaway Tpk,NY,11559
Marshall's,Tustin,180,180 #00180 #000180 #0180 #180 000000180 M180,17261 17th Street,CA,92780
Marshall's,Melrose Park,181,181 #00181 #000181 #0181 #181 000000181 M181,1220 Winston Plaza,IL,60160
Marshall's,Minnetonka,184,184 #00184 #000184 #0184 #184 000000184 M184,1585 Plymouth Rd,MN,55305
Marshall's,Kingston,185,185 #00185 #000185 #0185 #185 000000185 M185,Rte.9w North,NY,12401
Marshall's,Glen Burnie,186,186 #00186 #000186 #0186 #186 000000186 M186,12 Mountain Road,MD,21061
Marshall's,Latham,187,187 #00187 #000187 #0187 #187 000000187 M187,873 New Louden Rd. (Rt.9),NY,12110
Marshall's,Houston - Wilcrest Dr.,188,188 #00188 #000188 #0188 #188 000000188 M188,11830 Wilcrest Drive,TX,77031
Marshall's,Calumet City,189,189 #00189 #000189 #0189 #189 000000189 M189,500 River Oaks Dr,IL,60409
Marshall's,West Covina,190,190 #00190 #000190 #0190 #190 000000190 M190,2735 Eastland Center Drive,CA,91791
Marshall's,Alexandria,191,191 #00191 #000191 #0191 #191 000000191 M191,6700 Richmond Hgwy. (Rte. 1),VA,22306
Marshall's,Colorado Springs,192,192 #00192 #000192 #0192 #192 000000192 M192,1760 E. Woodman Road,CO,80907
Marshall's,Shreveport,193,193 #00193 #000193 #0193 #193 000000193 M193,1736 E 70th St,LA,71105
Marshall's,St Augustine,194,194 #00194 #000194 #0194 #194 000000194 M194,1795 US Hwy 1 S,FL,32084
Marshall's,Hawthorne,195,195 #00195 #000195 #0195 #195 000000195 M195,14401 Inglewood Avenue,CA,90250
Marshall's,Del Ray Beach,196,196 #00196 #000196 #0196 #196 000000196 M196,1700 S. Federal HGWY,FL,33444
Marshall's,Detroit,198,198 #00198 #000198 #0198 #198 000000198 M198,1385 West 8 Mile Rd,MI,48203
Marshall's,Roseville,199,199 #00199 #000199 #0199 #199 000000199 M199,28780 Gratiot Ave,MI,48066
Marshall's,Ann Arbor,201,201 #00201 #000201 #0201 #201 000000201 M201,3675 Washtenaw Avenue,MI,48104
Marshall's,Solana Beach,203,203 #00203 #000203 #0203 #203 000000203 M203,685 San Rodolfo Drive,CA,92075
Marshall's,Las Vegas - S. Maryland Pkwy,204,204 #00204 #000204 #0204 #204 000000204 M204,3740 S. Maryland Pkwy.,NV,89109
Marshall's,Gilbert,205,205 #00205 #000205 #0205 #205 000000205 M205,2739 S Market St,AZ,85296
Marshall's,Miramar,207,207 #00207 #000207 #0207 #207 000000207 M207,3021 SW 160th Ave,FL,33027
Marshall's,Pasadena,208,208 #00208 #000208 #0208 #208 000000208 M208,3855 E. Foothill Boulevard,CA,91107
Marshall's,Rockville,209,209 #00209 #000209 #0209 #209 000000209 M209,12051 Rockville Pike,MD,20852
Marshall's,Stratford,210,210 #00210 #000210 #0210 #210 000000210 M210,411 Barnum Ave.,CT,6614
Marshall's,St. Petersburg,211,211 #00211 #000211 #0211 #211 000000211 M211,2036 66th St. North,FL,33710
Marshall's,Redlands,212,212 #00212 #000212 #0212 #212 000000212 M212,1635 W Lugonia Ave,CA,92374
Marshall's,Chicopee,214,214 #00214 #000214 #0214 #214 000000214 M214,591G Memorial Dr.,MA,1020
Marshall's,Hanford,215,215 #00215 #000215 #0215 #215 000000215 M215,264 North 12th Ave,CA,93230
Marshall's,Fort Wayne,216,216 #00216 #000216 #0216 #216 000000216 M216,10550 Maysville Road,IN,46835
Marshall's,Syracuse,217,217 #00217 #000217 #0217 #217 000000217 M217,3405 Erie Blvd. East,NY,13214
Marshall's,Annapolis,219,219 #00219 #000219 #0219 #219 000000219 M219,152 Jennifer Road,MD,21401
Marshall's,Delafield,220,220 #00220 #000220 #0220 #220 000000220 M220,2952 Golf Rd,WI,53018
Marshall's,Redmond,221,221 #00221 #000221 #0221 #221 000000221 M221,2150 148th Avenue,WA,98052
Marshall's,Niagara Falls,222,222 #00222 #000222 #0222 #222 000000222 M222,2034 Military Road,NY,14304
Marshall's,Fremont,223,223 #00223 #000223 #0223 #223 000000223 M223,39281 Fremont Hub,CA,94538
Marshall's,Gaithersburg,224,224 #00224 #000224 #0224 #224 000000224 M224,18236 Contour Road,MD,20877
Marshall's,Baton Rouge,225,225 #00225 #000225 #0225 #225 000000225 M225,9630 Airline Highway,LA,70815
Marshall's,Shoreline,226,226 #00226 #000226 #0226 #226 000000226 M226,15801 Westminster Way North,WA,98133
Marshall's,Daytona Beach,228,228 #00228 #000228 #0228 #228 000000228 M228,1808 International Speedway Boulevard,FL,32114
Marshall's,Euless,229,229 #00229 #000229 #0229 #229 000000229 M229,"2800 State Hwy 121 N, Ste 700",TX,76039
Marshall's,South Plainfield,230,230 #00230 #000230 #0230 #230 000000230 M230,4950 Hadley Center Dr,NJ,7080
Marshall's,Plymouth,231,231 #00231 #000231 #0231 #231 000000231 M231,389 Tenney Mountain Highway,NH,3264
Marshall's,West Melbourne,232,232 #00232 #000232 #0232 #232 000000232 M232,205 Palm Bay Rd Ste 151,FL,32904
Marshall's,Middleton,233,233 #00233 #000233 #0233 #233 000000233 M233,1700 Deming Way,WI,53562
Marshall's,Bettendorf,234,234 #00234 #000234 #0234 #234 000000234 M234,862 Middle Road,IA,52722
Marshall's,Rochester,235,235 #00235 #000235 #0235 #235 000000235 M235,1154 South Rochester Road,MI,48307
Marshall's,Greentree,237,237 #00237 #000237 #0237 #237 000000237 M237,1900 Greentree Road,PA,15220
Marshall's,Anderson,238,238 #00238 #000238 #0238 #238 000000238 M238,4228 S Scatterfield Rd,IN,46013
Marshall's,Peru,239,239 #00239 #000239 #0239 #239 000000239 M239,"3940 Route 251, Ste C-1",IL,61354
Marshall's,Buena Park,240,240 #00240 #000240 #0240 #240 000000240 M240,5895 Lincoln Avenue,CA,90620
Marshall's,Linden,241,241 #00241 #000241 #0241 #241 000000241 M241,625 West Edgard Road,NJ,7036
Marshall's,Gainesville,242,242 #00242 #000242 #0242 #242 000000242 M242,841 Dawsonville Highway,GA,30501
Marshall's,Omaha,243,243 #00243 #000243 #0243 #243 000000243 M243,12975 West Center Road,NE,68144
Marshall's,Raynham,244,244 #00244 #000244 #0244 #244 000000244 M244,300 New State Hwy,MA,2767
Marshall's,Evanston,245,245 #00245 #000245 #0245 #245 000000245 M245,2400 Main Street,IL,60201
Marshall's,Patchogue,246,246 #00246 #000246 #0246 #246 000000246 M246,499-19 W. Sunrise Hgwy.,NY,11772
Marshall's,Knoxville,247,247 #00247 #000247 #0247 #247 000000247 M247,11455 Parkside Dr Bldg 400,TN,37934
Marshall's,Humble,248,248 #00248 #000248 #0248 #248 000000248 M248,20420 Highway 59 North,TX,77338
Marshall's,Boulder,249,249 #00249 #000249 #0249 #249 000000249 M249,1875 28th Street,CO,80301
Marshall's,Rome,251,251 #00251 #000251 #0251 #251 000000251 M251,225 Erie Blvd West,NY,13440
Marshall's,Pinellas Park,252,252 #00252 #000252 #0252 #252 000000252 M252,7244 US 19,FL,33781
Marshall's,Dayton,253,253 #00253 #000253 #0253 #253 000000253 M253,101 E. Alexander/Bellbrooke Road,OH,45459
Marshall's,Novi,254,254 #00254 #000254 #0254 #254 000000254 M254,43500 West Oaks Drive,MI,48377
Marshall's,Overland,257,257 #00257 #000257 #0257 #257 000000257 M257,9130 Overland Plaza,MO,63114
Marshall's,Carmel,259,259 #00259 #000259 #0259 #259 000000259 M259,10025 N Michigan Rd Ste 100,IN,46032
Marshall's,Auburn,263,263 #00263 #000263 #0263 #263 000000263 M263,"1101 Outlet Collection Drive SW, #1057",WA,98001
Marshall's,University Park (Bradenton),264,264 #00264 #000264 #0264 #264 000000264 M264,8467 Cooper Creek Blvd.,FL,34201
Marshall's,Mayfield Heights,265,265 #00265 #000265 #0265 #265 000000265 M265,1516 Golden Gate,OH,44124
Marshall's,Fairview Park (Rocky River),267,267 #00267 #000267 #0267 #267 000000267 M267,20940 Westgate,OH,44126
Marshall's,San Bernardino,269,269 #00269 #000269 #0269 #269 000000269 M269,741 West 2nd St.,CA,92410
Marshall's,Redwood City,271,271 #00271 #000271 #0271 #271 000000271 M271,2545 El Camino Real,CA,94061
Marshall's,Chula Vista,272,272 #00272 #000272 #0272 #272 000000272 M272,310 E. H Street & I-805,CA,91911
Marshall's,Colma,273,273 #00273 #000273 #0273 #273 000000273 M273,65 Colma Boulevard,CA,94014
Marshall's,San Francisco,274,274 #00274 #000274 #0274 #274 000000274 M274,760 Market St,CA,94102
Marshall's,Brockton,275,275 #00275 #000275 #0275 #275 000000275 M275,544 Westgate Drive,MA,2301
Marshall's,Kansas City,276,276 #00276 #000276 #0276 #276 000000276 M276,901 West 136th St,MO,64145
Marshall's,Lafayette,277,277 #00277 #000277 #0277 #277 000000277 M277,3611 Ambassador Caffery Parkway,LA,70503
Marshall's,Fort Worth,279,279 #00279 #000279 #0279 #279 000000279 M279,327 Carroll St,TX,76107
Marshall's,Orland Park,280,280 #00280 #000280 #0280 #280 000000280 M280,101 Orland Park Place,IL,60462
Marshall's,Watchung,281,281 #00281 #000281 #0281 #281 000000281 M281,"1701 Us Hgwy 22, West",NJ,7060
Marshall's,Hemet,282,282 #00282 #000282 #0282 #282 000000282 M282,2771 W Florida Ave,CA,92545
Marshall's,Riverside,283,283 #00283 #000283 #0283 #283 000000283 M283,2676 Canyon Springs Pkwy,CA,92507
Marshall's,Brandon,284,284 #00284 #000284 #0284 #284 000000284 M284,2458 W. Brandon Boulevard,FL,33511
Marshall's,Tampa,285,285 #00285 #000285 #0285 #285 000000285 M285,3661 W. Waters Avenue,FL,33614
Marshall's,Oklahoma City,286,286 #00286 #000286 #0286 #286 000000286 M286,1425 W I-240 Service Rd,OK,73159
Marshall's,Inglewood,287,287 #00287 #000287 #0287 #287 000000287 M287,3420 W Century Blvd,CA,90303
Marshall's,Dallas,288,288 #00288 #000288 #0288 #288 000000288 M288,11255 Garland Road,TX,75218
Marshall's,Los Angeles,291,291 #00291 #000291 #0291 #291 000000291 M291,8480 Beverly Boulevard,CA,90048
Marshall's,Culver City,292,292 #00292 #000292 #0292 #292 000000292 M292,6221Bristol PKWY. & Green Valley Circle,CA,90230
Marshall's,Lynnwood,293,293 #00293 #000293 #0293 #293 000000293 M293,3205 Alderwood Mall Blvd.,WA,98037
Marshall's,Waco,294,294 #00294 #000294 #0294 #294 000000294 M294,2508 West Loop 340,TX,76711
Marshall's,Rockford,296,296 #00296 #000296 #0296 #296 000000296 M296,6233 E. State Street,IL,61108
Marshall's,Randallstown,297,297 #00297 #000297 #0297 #297 000000297 M297,3615 Brenbrook Road,MD,21133
Marshall's,Florissant,298,298 #00298 #000298 #0298 #298 000000298 M298,13955 New Halls Ferry Road,MO,63033
Marshall's,San Juan Capistrano,299,299 #00299 #000299 #0299 #299 000000299 M299,31878 Del Obispo,CA,92675
Marshall's,Evans,300,300 #00300 #000300 #0300 #300 000000300 M300,4213 Washington Road,GA,30809
Marshall's,Enfield,301,301 #00301 #000301 #0301 #301 000000301 M301,25 Hazard Ave,CT,6082
Marshall's,San Jose,302,302 #00302 #000302 #0302 #302 000000302 M302,535 Coleman Ave,CA,95110
Marshall's,San Marcos,304,304 #00304 #000304 #0304 #304 000000304 M304,1050 McKinley Pl. Dr. Suite 200,TX,78666
Marshall's,Mashpee,305,305 #00305 #000305 #0305 #305 000000305 M305,6 Charles St,MA,2649
Marshall's,Mesquite,307,307 #00307 #000307 #0307 #307 000000307 M307,1515 N. Towneast Blvd.,TX,75150
Marshall's,Bell Gardens,308,308 #00308 #000308 #0308 #308 000000308 M308,5810 E Florence Ave,CA,90201
Marshall's,Turnersville,309,309 #00309 #000309 #0309 #309 000000309 M309,"3501 Route 42, Unit 250",NJ,8012
Marshall's,Lakewood,310,310 #00310 #000310 #0310 #310 000000310 M310,4141 Woodruff Avenue,CA,90713
Marshall's,Somerville,311,311 #00311 #000311 #0311 #311 000000311 M311,22 McGrath Hwy,MA,2143
Marshall's,Bel Air,312,312 #00312 #000312 #0312 #312 000000312 M312,5 Bel Air So. Parkway,MD,21014
Marshall's,Bee Cave,313,313 #00313 #000313 #0313 #313 000000313 M313,12909 Shops Parkway,TX,78738
Marshall's,Carlsbad,314,314 #00314 #000314 #0314 #314 000000314 M314,1834 Marron Rd.,CA,92008
Marshall's,Mobile,316,316 #00316 #000316 #0316 #316 000000316 M316,3250 Airport Blvd. Unit E-27,AL,36606
Marshall's,Duluth,319,319 #00319 #000319 #0319 #319 000000319 M319,3675 Satellite Boulevard,GA,30096
Marshall's,Miami - Sw 26th St.,320,320 #00320 #000320 #0320 #320 000000320 M320,11865 SW 26th Street,FL,33175
Marshall's,Franklin,321,321 #00321 #000321 #0321 #321 000000321 M321,200 Franklin Village Drive,MA,2038
Marshall's,North Charleston,322,322 #00322 #000322 #0322 #322 000000322 M322,9500 Dorchester Rd,SC,29418
Marshall's,Longmont,323,323 #00323 #000323 #0323 #323 000000323 M323,205 Ken Pratt Blvd.,CO,80504
Marshall's,Fox Chapel,324,324 #00324 #000324 #0324 #324 000000324 M324,954 Freeport Road,PA,15238
Marshall's,Deerfield Beach,325,325 #00325 #000325 #0325 #325 000000325 M325,3852 W. Hillsboro Boulevard,FL,33442
Marshall's,Exton,326,326 #00326 #000326 #0326 #326 000000326 M326,436 W. Lincoln Hwy,PA,19341
Marshall's,Loveland,328,328 #00328 #000328 #0328 #328 000000328 M328,1641 Fall River Drive,CO,80538
Marshall's,Lakeland,329,329 #00329 #000329 #0329 #329 000000329 M329,3615 S. Florida Avenue,FL,33803
Marshall's,Bridgeport,330,330 #00330 #000330 #0330 #330 000000330 M330,4487 Main Street,CT,6606
Marshall's,Buffalo,331,331 #00331 #000331 #0331 #331 000000331 M331,2152 Delaware Ave.,NY,14216
Marshall's,Largo,333,333 #00333 #000333 #0333 #333 000000333 M333,10500 Ulmerton Rd Ste 650,FL,33770
Marshall's,Charlotte (Lake Wylie),334,334 #00334 #000334 #0334 #334 000000334 M334,14133 Rivergate Parkway,NC,28273
Marshall's,Hampton,335,335 #00335 #000335 #0335 #335 000000335 M335,2115 Colliseum Drive,VA,23666
Marshall's,Garden Grove,336,336 #00336 #000336 #0336 #336 000000336 M336,9939 Chapman Ave.,CA,92840
Marshall's,Virginia Beach,337,337 #00337 #000337 #0337 #337 000000337 M337,4540 Princess Anne Rd Suite 129,VA,23462
Marshall's,Raleigh - Glenwood Ave.,338,338 #00338 #000338 #0338 #338 000000338 M338,6216 Glenwood Ave. (Hwy. 70w),NC,27612
Marshall's,Chicago Ridge,339,339 #00339 #000339 #0339 #339 000000339 M339,253 Commons Drive,IL,60415
Marshall's,Boynton Beach,340,340 #00340 #000340 #0340 #340 000000340 M340,1729 N. Congress Avenue,FL,33426
Marshall's,Mehlville,341,341 #00341 #000341 #0341 #341 000000341 M341,6927 S. Lindbergh Blvd.,MO,63129
Marshall's,Lake Worth,343,343 #00343 #000343 #0343 #343 000000343 M343,6042 Azle Ave,TX,76135
Marshall's,Manassas,344,344 #00344 #000344 #0344 #344 000000344 M344,8431 Sudley Road,VA,20109
Marshall's,Mountain View,345,345 #00345 #000345 #0345 #345 000000345 M345,1040 Grant Road,CA,94040
Marshall's,Mentor,346,346 #00346 #000346 #0346 #346 000000346 M346,7335 Mentor Avenue,OH,44060
Marshall's,Broken Arrow,347,347 #00347 #000347 #0347 #347 000000347 M347,1400 East Hillside Dr,OK,74012
Marshall's,Stoneham,348,348 #00348 #000348 #0348 #348 000000348 M348,87 Main St.,MA,2180
Marshall's,Gahanna,349,349 #00349 #000349 #0349 #349 000000349 M349,379 Stoneridge Lane,OH,43230
Marshall's,Stuart,350,350 #00350 #000350 #0350 #350 000000350 M350,2475 NW Federal Hwy,FL,34994
Marshall's,Alpharetta,351,351 #00351 #000351 #0351 #351 000000351 M351,2642 Holcomb Bridge Rd,GA,30022
Marshall's,Chicago,352,352 #00352 #000352 #0352 #352 000000352 M352,2544 Narragansett Ave.,IL,60707
Marshall's,Atlanta,353,353 #00353 #000353 #0353 #353 000000353 M353,2625 Piedmont Road NE,GA,30324
Marshall's,Deptford,354,354 #00354 #000354 #0354 #354 000000354 M354,1800 Clements Bridge Road,NJ,8096
Marshall's,Burlington,355,355 #00355 #000355 #0355 #355 000000355 M355,34 Cambridge Street,MA,1803
Marshall's,Miami - W. Flagler St.,356,356 #00356 #000356 #0356 #356 000000356 M356,7795 W. Flagler Street,FL,33144
Marshall's,Midwest City,357,357 #00357 #000357 #0357 #357 000000357 M357,7351 S.E. 29th Street,OK,73110
Marshall's,Brick Town,358,358 #00358 #000358 #0358 #358 000000358 M358,650 Rte. 70,NJ,8723
Marshall's,Lincoln,359,359 #00359 #000359 #0359 #359 000000359 M359,622 George Washington Hwy,RI,2865
Marshall's,Meriden,360,360 #00360 #000360 #0360 #360 000000360 M360,533 S. Broad Street,CT,6450
Marshall's,Paramus,361,361 #00361 #000361 #0361 #361 000000361 M361,100 Bergen Town Center,NJ,7652
Marshall's,Hackettstown,362,362 #00362 #000362 #0362 #362 000000362 M362,215 Mountain Ave.,NJ,7840
Marshall's,Bakersfield,363,363 #00363 #000363 #0363 #363 000000363 M363,3008 Ming Ave.,CA,93307
Marshall's,Glenmont,364,364 #00364 #000364 #0364 #364 000000364 M364,388 Feura Bush Road,NY,12077
Marshall's,E. Hanover,365,365 #00365 #000365 #0365 #365 000000365 M365,240 Rte 10 West,NJ,7936
Marshall's,Cheektowaga (Buffalo),366,366 #00366 #000366 #0366 #366 000000366 M366,3735 Union Road,NY,14216
Marshall's,Maplewood,367,367 #00367 #000367 #0367 #367 000000367 M367,1717 Beam Ave.,MN,55109
Marshall's,Plymouth,368,368 #00368 #000368 #0368 #368 000000368 M368,Samoset Street,MA,2360
Marshall's,Greenville,369,369 #00369 #000369 #0369 #369 000000369 M369,1125 Woodruff Rd Ste 800,SC,29607
Marshall's,Winston-Salem,370,370 #00370 #000370 #0370 #370 000000370 M370,3256 Silas Creek Pkwy.,NC,27103
Marshall's,Lexington,371,371 #00371 #000371 #0371 #371 000000371 M371,240 E Brannon Rd,KY,40356
Marshall's,Miami - Sw 88th St.,372,372 #00372 #000372 #0372 #372 000000372 M372,14093 SW St.,FL,33186
Marshall's,Springfield,373,373 #00373 #000373 #0373 #373 000000373 M373,3303 South Glenstone Avenue,MO,65804
Marshall's,Freeport,374,374 #00374 #000374 #0374 #374 000000374 M374,256 East Sunrise Hwy.,NY,11520
Marshall's,Lancaster,375,375 #00375 #000375 #0375 #375 000000375 M375,44500 Valley Central Parkway,CA,93536
Marshall's,Laurel,376,376 #00376 #000376 #0376 #376 000000376 M376,341 Montrose Ave.,MD,20707
Marshall's,Mays Landing,377,377 #00377 #000377 #0377 #377 000000377 M377,4215 Black Horse Pike,NJ,8330
Marshall's,North Hills,378,378 #00378 #000378 #0378 #378 000000378 M378,9028 Sepulveda Boulevard,CA,91343
Marshall's,Henrietta,379,379 #00379 #000379 #0379 #379 000000379 M379,720 Jefferson Road Suite 700,NY,14623
Marshall's,Swansea,380,380 #00380 #000380 #0380 #380 000000380 M380,573 GAR Hwy Ste 1,MA,2777
Marshall's,Lodi,381,381 #00381 #000381 #0381 #381 000000381 M381,2429 West Kettlemen Lane,CA,95242
Marshall's,Grand Rapids,382,382 #00382 #000382 #0382 #382 000000382 M382,"3165 Alpine Avenue NE, Ste E",MI,49544
Marshall's,Plainville,383,383 #00383 #000383 #0383 #383 000000383 M383,"282 New Britain Ave., Unit #18",CT,6062
Marshall's,Raleigh,384,384 #00384 #000384 #0384 #384 000000384 M384,6441 Triangle Plantation Dr,NC,27616
Marshall's,Conshohocken (Plymouth Mtg),385,385 #00385 #000385 #0385 #385 000000385 M385,At The Corner Of Ridge & Butler Pikes,PA,19428
Marshall's,El Paso,386,386 #00386 #000386 #0386 #386 000000386 M386,6101 Gateway Blvd.,TX,79925
Marshall's,Fredericksburg,387,387 #00387 #000387 #0387 #387 000000387 M387,9779 Jefferson Davis Highway,VA,22408
Marshall's,Tampa,388,388 #00388 #000388 #0388 #388 000000388 M388,3802B South Dale Mabry Highway,FL,33611
Marshall's,Monaca,389,389 #00389 #000389 #0389 #389 000000389 M389,91 Wagner Road,PA,15061
Marshall's,Modesto,390,390 #00390 #000390 #0390 #390 000000390 M390,3440 MC Henry Ave.,CA,95350
Marshall's,Long Beach,391,391 #00391 #000391 #0391 #391 000000391 M391,1801 Ximeno Ave.,CA,90815
Marshall's,Miami,392,392 #00392 #000392 #0392 #392 000000392 M392,3401 N Miami Ave Ste 130,FL,33127
Marshall's,Reno,393,393 #00393 #000393 #0393 #393 000000393 M393,295 East Plum Lane,NV,89502
Marshall's,Chattanooga,394,394 #00394 #000394 #0394 #394 000000394 M394,2040 Hamilton Place Blvd,TN,37421
Marshall's,Nashville,395,395 #00395 #000395 #0395 #395 000000395 M395,3135 Lebanon Pike,TN,37214
Marshall's,Toms River,396,396 #00396 #000396 #0396 #396 000000396 M396,635 Bay Avenue,NJ,8753
Marshall's,S. Portland,397,397 #00397 #000397 #0397 #397 000000397 M397,333 Clarks Pond Drive,ME,4106
Marshall's,Lake Worth,398,398 #00398 #000398 #0398 #398 000000398 M398,6452 Lake Worth Drive,FL,33467
Marshall's,Pembroke Pines,399,399 #00399 #000399 #0399 #399 000000399 M399,500 N. University Drive,FL,33024
Marshall's,Novato,400,400 #00400 #000400 #0400 #400 000000400 M400,204 Vintage Way,CA,94947
Marshall's,Ansonia,402,402 #00402 #000402 #0402 #402 000000402 M402,405 Main St,CT,6401
Marshall's,Kennesaw,403,403 #00403 #000403 #0403 #403 000000403 M403,425 Barrett Parkway N.W.,GA,30144
Marshall's,Miami - S. Dixie Hgwy,404,404 #00404 #000404 #0404 #404 000000404 M404,13619  South Dixie Highway,FL,33129
Marshall's,Aventura,405,405 #00405 #000405 #0405 #405 000000405 M405,20515 Biscayne Blvd.,FL,33180
Marshall's,Miami - Sw 117th Ave.,406,406 #00406 #000406 #0406 #406 000000406 M406,8700 Mills Dr,FL,33183
Marshall's,Plantation,407,407 #00407 #000407 #0407 #407 000000407 M407,"801 S. University Drive, #200",FL,33324
Marshall's,Jacksonville Beach,408,408 #00408 #000408 #0408 #408 000000408 M408,1980 3rd St South,FL,32250
Marshall's,Newburgh,409,409 #00409 #000409 #0409 #409 000000409 M409,1431 Route 300,NY,12550
Marshall's,N. Kingstown,410,410 #00410 #000410 #0410 #410 000000410 M410,20 Frenchtown Road,RI,2852
Marshall's,Chesapeake,412,412 #00412 #000412 #0412 #412 000000412 M412,1412 Greenbrier Pkwy,VA,23320
Marshall's,San Diego,414,414 #00414 #000414 #0414 #414 000000414 M414,8170 Mira Mesa Blvd,CA,92126
Marshall's,Parsippany,415,415 #00415 #000415 #0415 #415 000000415 M415,Corner Of Rtes. 46 And 202,NJ,7054
Marshall's,Maple Grove,416,416 #00416 #000416 #0416 #416 000000416 M416,11421 Fountains Drive,MN,55311
Marshall's,Cary,417,417 #00417 #000417 #0417 #417 000000417 M417,440 Crossroads Blvd.,NC,27511
Marshall's,Tracy,418,418 #00418 #000418 #0418 #418 000000418 M418,2481 Naglee Road,CA,95304
Marshall's,Orlando - W. Colonial Dr.,419,419 #00419 #000419 #0419 #419 000000419 M419,7323 West Colonial Drive,FL,32818
Marshall's,Orlando,420,420 #00420 #000420 #0420 #420 000000420 M420,730 Sand Lake Road,FL,32809
Marshall's,Oxnard,421,421 #00421 #000421 #0421 #421 000000421 M421,1835 Ventura Boulevard,CA,93030
Marshall's,Huntsville,422,422 #00422 #000422 #0422 #422 000000422 M422,2750 Carl T. Jones Drive,AL,35802
Marshall's,Cicero,423,423 #00423 #000423 #0423 #423 000000423 M423,7954 Brewerton Rd,NY,13039
Marshall's,Ocean City,424,424 #00424 #000424 #0424 #424 000000424 M424,12641 Ocean Gateway,MD,21842
Marshall's,Royal Palm Beach,425,425 #00425 #000425 #0425 #425 000000425 M425,11031 Southern Blvd.,FL,33411
Marshall's,Webster,426,426 #00426 #000426 #0426 #426 000000426 M426,1425 W Bay Area Blvd.,TX,77598
Marshall's,Saugus,427,427 #00427 #000427 #0427 #427 000000427 M427,655 Broadway,MA,1906
Marshall's,Houston - Willowbrook,428,428 #00428 #000428 #0428 #428 000000428 M428,7700 F.M. 1960 West,TX,77040
Marshall's,Ft. Lauderdale,429,429 #00429 #000429 #0429 #429 000000429 M429,3200 N Federal Highway,FL,33306
Marshall's,Newburyport,430,430 #00430 #000430 #0430 #430 000000430 M430,25 Storey Avenue,MA,1950
Marshall's,Miami - 163rd St.,431,431 #00431 #000431 #0431 #431 000000431 M431,1205 N.E. 163rd St.,FL,33162
Marshall's,Granger,432,432 #00432 #000432 #0432 #432 000000432 M432,355 University Drive,IN,46530
Marshall's,Studio City,433,433 #00433 #000433 #0433 #433 000000433 M433,11239 Ventura Boulevard,CA,91604
Marshall's,Irondequoit (Rochester),435,435 #00435 #000435 #0435 #435 000000435 M435,1381 E Ridge Road,NY,14621
Marshall's,Clovis,436,436 #00436 #000436 #0436 #436 000000436 M436,540 Shaw Ave.,CA,93612
Marshall's,San Leandro,437,437 #00437 #000437 #0437 #437 000000437 M437,1245 Marina Boulevard,CA,94577
Marshall's,Cobb County,438,438 #00438 #000438 #0438 #438 000000438 M438,3999 Austelle Road,GA,30126
Marshall's,Wilson,439,439 #00439 #000439 #0439 #439 000000439 M439,3401 Raleigh Rd Pkwy Bldg 2B,NC,27896
Marshall's,Flemington,440,440 #00440 #000440 #0440 #440 000000440 M440,Route 202 / 31 & Reaville Ave,NJ,8822
Marshall's,Nashua,441,441 #00441 #000441 #0441 #441 000000441 M441,28 N.W. Blvd.,NH,3063
Marshall's,Newton,443,443 #00443 #000443 #0443 #443 000000443 M443,3 Hampton House Rd. (Rte. 206 N),NJ,7860
Marshall's,Jericho,444,444 #00444 #000444 #0444 #444 000000444 M444,499 Broadway,NY,11753
Marshall's,Westborough,445,445 #00445 #000445 #0445 #445 000000445 M445,32 Lyman Street,MA,1581
Marshall's,Milford,447,447 #00447 #000447 #0447 #447 000000447 M447,1413 Boston Post Road,CT,6460
Marshall's,E. Meadow,449,449 #00449 #000449 #0449 #449 000000449 M449,1989 Front St.,NY,11554
Marshall's,Omaha,451,451 #00451 #000451 #0451 #451 000000451 M451,6510 North 73rd Plaza,NE,68122
Marshall's,San Diego - Carmel Mtn. Rd.,452,452 #00452 #000452 #0452 #452 000000452 M452,11730 Carmel Mountain Road,CA,92128
Marshall's,North Massapequa,453,453 #00453 #000453 #0453 #453 000000453 M453,1304 Hicksville Rd.,NY,11758
Marshall's,Miller Place,454,454 #00454 #000454 #0454 #454 000000454 M454,323 Route 25A,NY,11764
Marshall's,Hyattsville,455,455 #00455 #000455 #0455 #455 000000455 M455,3500 East West Hwy Space A,MD,20782
Marshall's,Lakewood,456,456 #00456 #000456 #0456 #456 000000456 M456,5720 Lakewood Towne Center,WA,98499
Marshall's,Scottsdale,457,457 #00457 #000457 #0457 #457 000000457 M457,10220 N 90th St,AZ,85258
Marshall's,Columbia,458,458 #00458 #000458 #0458 #458 000000458 M458,268 Harbison Blvd.,SC,29212
Marshall's,Holmdel,459,459 #00459 #000459 #0459 #459 000000459 M459,2101 Highway 35,NJ,7733
Marshall's,So. Dennis,460,460 #00460 #000460 #0460 #460 000000460 M460,Rte. 134,MA,2660
Marshall's,Chantilly,461,461 #00461 #000461 #0461 #461 000000461 M461,13007 Lee Jackson Memorial Highway,VA,22033
Marshall's,Louisville,462,462 #00462 #000462 #0462 #462 000000462 M462,10427 Dixie Hwy,KY,40272
Marshall's,East Point,463,463 #00463 #000463 #0463 #463 000000463 M463,3606 Market Place Blvd.,GA,30344
Marshall's,Tampa,464,464 #00464 #000464 #0464 #464 000000464 M464,1321 Bruce B. Downs Road,FL,33543
Marshall's,New Port Richey,465,465 #00465 #000465 #0465 #465 000000465 M465,2948 Little Road,FL,34655
Marshall's,Ledgewood,466,466 #00466 #000466 #0466 #466 000000466 M466,Rte. 10 And Mary Louise Ave.,NJ,7852
Marshall's,Monroeville,467,467 #00467 #000467 #0467 #467 000000467 M467,William Penn Hgwy. (Rte. 22),PA,15146
Marshall's,N. Attleboro,468,468 #00468 #000468 #0468 #468 000000468 M468,1250 S. Washington St.,MA,2760
Marshall's,Fontana,469,469 #00469 #000469 #0469 #469 000000469 M469,15022 Summit Ave.,CA,92336
Marshall's,Sierra Vista,470,470 #00470 #000470 #0470 #470 000000470 M470,"629 North Hwy. 90, Suite #10",AZ,85635
Marshall's,Upland,471,471 #00471 #000471 #0471 #471 000000471 M471,150 West Foothill Blvd.,CA,91786
Marshall's,Lenox,472,472 #00472 #000472 #0472 #472 000000472 M472,489 Pittsfield Road,MA,1240
Marshall's,Boca Raton,473,473 #00473 #000473 #0473 #473 000000473 M473,8180 W. Glades Road,FL,33496
Marshall's,Monrovia,474,474 #00474 #000474 #0474 #474 000000474 M474,564 W. Huntington Dr.,CA,91016
Marshall's,Haverhill,475,475 #00475 #000475 #0475 #475 000000475 M475,400 Lowell Avenue,MA,1832
Marshall's,Erie,476,476 #00476 #000476 #0476 #476 000000476 M476,6710 Peach Street,PA,16509
Marshall's,Jackson,477,477 #00477 #000477 #0477 #477 000000477 M477,1081 Vann Drive,TN,38305
Marshall's,Melville,478,478 #00478 #000478 #0478 #478 000000478 M478,834a Walt Whitman Road (Rte. 110),NY,11747
Marshall's,Parlin,479,479 #00479 #000479 #0479 #479 000000479 M479,1004 Us Highway 9,NJ,8859
Marshall's,Plano,480,480 #00480 #000480 #0480 #480 000000480 M480,721 Central Expressway At Plano Pkwy.,TX,75075
Marshall's,San Diego - Genesee Ave.,481,481 #00481 #000481 #0481 #481 000000481 M481,4209 Genesee Ave.,CA,92117
Marshall's,Philadelphia,482,482 #00482 #000482 #0482 #482 000000482 M482,1356 Franklin Mills Circle,PA,19154
Marshall's,Silver Spring,484,484 #00484 #000484 #0484 #484 000000484 M484,8661 Colesville Road,MD,20910
Marshall's,Citrus Heights,485,485 #00485 #000485 #0485 #485 000000485 M485,7975A Greenback Lane,CA,95610
Marshall's,Sunrise,486,486 #00486 #000486 #0486 #486 000000486 M486,12801 W. Sunrise Boulevard,FL,33323
Marshall's,Woodbridge,487,487 #00487 #000487 #0487 #487 000000487 M487,2700 Potomac Mills Circle,VA,22192
Marshall's,Blaine,488,488 #00488 #000488 #0488 #488 000000488 M488,"467 87th Lane, N.E.",MN,55434
Marshall's,W. Hartford,489,489 #00489 #000489 #0489 #489 000000489 M489,333 N. Main,CT,6117
Marshall's,Murfreesboro,491,491 #00491 #000491 #0491 #491 000000491 M491,490 N. Thompson Lane,TN,37129
Marshall's,San Bruno,492,492 #00492 #000492 #0492 #492 000000492 M492,1268 El Camino Real,CA,94066
Marshall's,Harrisburg,494,494 #00494 #000494 #0494 #494 000000494 M494,5090 Jonestown Rd.,PA,17112
Marshall's,Sand City,495,495 #00495 #000495 #0495 #495 000000495 M495,810 Playa Avenue,CA,93955
Marshall's,El Cerrito,496,496 #00496 #000496 #0496 #496 000000496 M496,10759 San Pablo Ave.,CA,94530
Marshall's,Ozone Park,497,497 #00497 #000497 #0497 #497 000000497 M497,9210 Rockaway Blvd,NY,11416
Marshall's,Norristown,501,501 #00501 #000501 #0501 #501 000000501 M501,540 S. Trooper Road,PA,19403
Marshall's,San Marcos,502,502 #00502 #000502 #0502 #502 000000502 M502,161 S Las Posas,CA,92078
Marshall's,Landover,503,503 #00503 #000503 #0503 #503 000000503 M503,940 Largo Center Drive,MD,20785
Marshall's,Salinas,504,504 #00504 #000504 #0504 #504 000000504 M504,1674 N. Main Street,CA,93906
Marshall's,Princeton (West Windsor),505,505 #00505 #000505 #0505 #505 000000505 M505,3495 Us Rte. 1 (Emmons Drive),NJ,8540
Marshall's,The Woodlands,506,506 #00506 #000506 #0506 #506 000000506 M506,1120 Lake Woodlands Drive,TX,77380
Marshall's,Seattle,507,507 #00507 #000507 #0507 #507 000000507 M507,"2600 SW Barton Street, Suite A2",WA,98126
Marshall's,New Rochelle,508,508 #00508 #000508 #0508 #508 000000508 M508,200 Petersville Road,NY,10801
Marshall's,Destin,509,509 #00509 #000509 #0509 #509 000000509 M509,4477 Commons Drive West,FL,32541
Marshall's,Austin,510,510 #00510 #000510 #0510 #510 000000510 M510,10515 N Mopac Expressway,TX,78759
Marshall's,Orlando,511,511 #00511 #000511 #0511 #511 000000511 M511,4648 Millenia Plaza Way,FL,32839
Marshall's,McAllen,512,512 #00512 #000512 #0512 #512 000000512 M512,"7600 North 10th Street, Bldg. 700",TX,78504
Marshall's,Stone Mountain,513,513 #00513 #000513 #0513 #513 000000513 M513,5370 Highway 78,GA,30087
Marshall's,Neptune,514,514 #00514 #000514 #0514 #514 000000514 M514,2200 State Route 66,NJ,7753
Marshall's,San Ysidro,515,515 #00515 #000515 #0515 #515 000000515 M515,4472 Camino de la Plaza,CA,92173
Marshall's,Gurnee,516,516 #00516 #000516 #0516 #516 000000516 M516,6128 Grand Ave.,IL,60031
Marshall's,Chicago - 1834 W. Fullerton,518,518 #00518 #000518 #0518 #518 000000518 M518,1834 West Fullerton Avenue,IL,60614
Marshall's,Chicago,519,519 #00519 #000519 #0519 #519 000000519 M519,7601 So. Cicero Avenue,IL,60652
Marshall's,Farmington Hills,520,520 #00520 #000520 #0520 #520 000000520 M520,31145 Orchard Lake Road,MI,48334
Marshall's,Bloomington - Moa,521,521 #00521 #000521 #0521 #521 000000521 M521,On East Broadway,MN,55425
Marshall's,Rosenberg,522,522 #00522 #000522 #0522 #522 000000522 M522,23726 Commercial Dr,TX,77471
Marshall's,Concord,523,523 #00523 #000523 #0523 #523 000000523 M523,6370 Bayfield Pkwy,NC,28027
Marshall's,Totowa,524,524 #00524 #000524 #0524 #524 000000524 M524,545 Rte. 46 West at Riverview Drive,NJ,7512
Marshall's,Schenectady,528,528 #00528 #000528 #0528 #528 000000528 M528,440 Balltown Road,NY,12304
Marshall's,Campbell,529,529 #00529 #000529 #0529 #529 000000529 M529,1875 SO. Bascom Ave.,CA,95124
Marshall's,Columbia,530,530 #00530 #000530 #0530 #530 000000530 M530,9031 Snowden River Parkway,MD,21046
Marshall's,Downers Grove,531,531 #00531 #000531 #0531 #531 000000531 M531,1220 75th Street,IL,60516
Marshall's,Danville,532,532 #00532 #000532 #0532 #532 000000532 M532,3140 Fostoria  Way,CA,94526
Marshall's,Portland (Lloyd Ctr),533,533 #00533 #000533 #0533 #533 000000533 M533,1265 Lloyd Center,OR,97232
Marshall's,Laredo,535,535 #00535 #000535 #0535 #535 000000535 M535,7601 San Dario Avenue,TX,78041
Marshall's,Charlotte,536,536 #00536 #000536 #0536 #536 000000536 M536,9876-B Rea Rd,NC,28277
Marshall's,Bloomington,538,538 #00538 #000538 #0538 #538 000000538 M538,4220 West 78th,MN,55435
Marshall's,Virginia Beach,539,539 #00539 #000539 #0539 #539 000000539 M539,1021 Independence Blvd,VA,23462
Marshall's,Hollywood,541,541 #00541 #000541 #0541 #541 000000541 M541,3701 Oakwood Boulevard,FL,33021
Marshall's,South Philadelphia,542,542 #00542 #000542 #0542 #542 000000542 M542,2000 S Swanson St,PA,19148
Marshall's,Schaumburg,544,544 #00544 #000544 #0544 #544 000000544 M544,1488 Golf Road,IL,60173
Marshall's,La Jolla,546,546 #00546 #000546 #0546 #546 000000546 M546,8657 Villa la Jolla,CA,92037
Marshall's,Vacaville,547,547 #00547 #000547 #0547 #547 000000547 M547,161 Nut Tree Parkway,CA,95687
Marshall's,Sterling,548,548 #00548 #000548 #0548 #548 000000548 M548,46262 Cranston Street,VA,20165
Marshall's,Santa Rosa,549,549 #00549 #000549 #0549 #549 000000549 M549,1966 Santa Rosa Avenue,CA,95404
Marshall's,Boston,550,550 #00550 #000550 #0550 #550 000000550 M550,500 Boylston Street,MA,2116
Marshall's,Milpitas,551,551 #00551 #000551 #0551 #551 000000551 M551,1360 Great Mall Drive,CA,95035
Marshall's,Wilmington,552,552 #00552 #000552 #0552 #552 000000552 M552,4137 Concord Pike,DE,19803
Marshall's,Santa Fe Springs,555,555 #00555 #000555 #0555 #555 000000555 M555,10603 S Carmenita Rd,CA,90670
Marshall's,Baileys Crossroads,556,556 #00556 #000556 #0556 #556 000000556 M556,5830 Crossroads Center Blvd.,VA,22041
Marshall's,Harlingen,557,557 #00557 #000557 #0557 #557 000000557 M557,2821 W Expressway 83 Frontage Road,TX,78550
Marshall's,Torrance (Delamo),558,558 #00558 #000558 #0558 #558 000000558 M558,3525 West Carson Street,CA,90503
Marshall's,Arlington Heights,559,559 #00559 #000559 #0559 #559 000000559 M559,601 East Palatine Road,IL,60004
Marshall's,Baytown,560,560 #00560 #000560 #0560 #560 000000560 M560,9000 San Jacinto Mall,TX,77521
Marshall's,Doylestown,561,561 #00561 #000561 #0561 #561 000000561 M561,1745 South Easton Road,PA,18901
Marshall's,Pittsburgh (Robinson Twnshp),562,562 #00562 #000562 #0562 #562 000000562 M562,1200 Park Manor Blvd.,PA,15205
Marshall's,Atlanta,563,563 #00563 #000563 #0563 #563 000000563 M563,1131 Hammond Drive,GA,30328
Marshall's,Charlottesville,564,564 #00564 #000564 #0564 #564 000000564 M564,250 Zan Road (Us Rte 29),VA,22901
Marshall's,Clifton Park,565,565 #00565 #000565 #0565 #565 000000565 M565,22 Clifton Country Rd.,NY,12065
Marshall's,Dorchester,566,566 #00566 #000566 #0566 #566 000000566 M566,8D Allstate Road,MA,2125
Marshall's,Jamaica,567,567 #00567 #000567 #0567 #567 000000567 M567,168-23 Jamaica Ave,NY,11432
Marshall's,Stamford,569,569 #00569 #000569 #0569 #569 000000569 M569,2235 Summer Street,CT,6905
Marshall's,North Windham,570,570 #00570 #000570 #0570 #570 000000570 M570,795 Roosevelt Trail,ME,4062
Marshall's,Brandywine,571,571 #00571 #000571 #0571 #571 000000571 M571,15918 Crain Hwy,MD,20613
Marshall's,Austin (Mueller),574,574 #00574 #000574 #0574 #574 000000574 M574,1201 Barbara Jordan St,TX,78753
Marshall's,Alpharetta,576,576 #00576 #000576 #0576 #576 000000576 M576,6320 N. Point Parkway,GA,30022
Marshall's,Broadview,577,577 #00577 #000577 #0577 #577 000000577 M577,300 Broadview Village Sqaure,IL,60153
Marshall's,Streamwood,578,578 #00578 #000578 #0578 #578 000000578 M578,1031 South Sutton,IL,60107
Marshall's,El Paso,582,582 #00582 #000582 #0582 #582 000000582 M582,801 D Sunland Park Drive,TX,79912
Marshall's,Houston - Hollister,583,583 #00583 #000583 #0583 #583 000000583 M583,At The Intersection Of 290 Freeway And Hollister,TX,77070
Marshall's,Houston (Westheimer),585,585 #00585 #000585 #0585 #585 000000585 M585,12520f Westheimer,TX,77077
Marshall's,Snellville,586,586 #00586 #000586 #0586 #586 000000586 M586,1905 Scenic Highway,GA,30078
Marshall's,Houston (Beachnut),587,587 #00587 #000587 #0587 #587 000000587 M587,Rte 610 And Beechnut,TX,77096
Marshall's,Charlotte,589,589 #00589 #000589 #0589 #589 000000589 M589,8150 Ikea Blvd Ste 1,NC,28262
Marshall's,Tyler,590,590 #00590 #000590 #0590 #590 000000590 M590,5604 South Broadway,TX,75703
Marshall's,Germantown,592,592 #00592 #000592 #0592 #592 000000592 M592,9125 Poplar (Highway 72),TN,38139
Marshall's,Colonial Heights,593,593 #00593 #000593 #0593 #593 000000593 M593,1142 Temple Avenue,VA,23834
Marshall's,Franklin,594,594 #00594 #000594 #0594 #594 000000594 M594,2000 Mallory Lane #500,TN,37067
Marshall's,Manalapan,595,595 #00595 #000595 #0595 #595 000000595 M595,55 Route 9 South,NJ,7726
Marshall's,Lewisville,597,597 #00597 #000597 #0597 #597 000000597 M597,2325 South Stemmons Freeway,TX,75067
Marshall's,Cayey,599,599 #00599 #000599 #0599 #599 000000599 M599,Carretera #1 KM 56.2 Barrio,PR,736
Marshall's,Long Island City (Queens),601,601 #00601 #000601 #0601 #601 000000601 M601,48-18 Northern Blvd.,NY,11101
Marshall's,Sugarland,602,602 #00602 #000602 #0602 #602 000000602 M602,2615 Town Center Blvd.,TX,77478
Marshall's,Bolingbrook,603,603 #00603 #000603 #0603 #603 000000603 M603,1158 West Boughton Road,IL,60440
Marshall's,Puente Hills (Rowland Hgts),604,604 #00604 #000604 #0604 #604 000000604 M604,17370 East Colima Road,CA,91748
Marshall's,Corona,605,605 #00605 #000605 #0605 #605 000000605 M605,2459 Tuscany Street,CA,92881
Marshall's,Houston (Galleria-Post Oak),608,608 #00608 #000608 #0608 #608 000000608 M608,5000 Westheimer Road,TX,77056
Marshall's,Olathe,609,609 #00609 #000609 #0609 #609 000000609 M609,14645 W 119th St,KS,66062
Marshall's,Revere,610,610 #00610 #000610 #0610 #610 000000610 M610,1399 N. Shore Rd.,MA,2151
Marshall's,Framingham,612,612 #00612 #000612 #0612 #612 000000612 M612,1 Worcester Road (Rte. 9),MA,1701
Marshall's,Palm Desert,613,613 #00613 #000613 #0613 #613 000000613 M613,72469 Highway 111,CA,92260
Marshall's,Wilkes-Barre,614,614 #00614 #000614 #0614 #614 000000614 M614,3402 Wilkes-Barre Township Commons,PA,18702
Marshall's,Temecula,615,615 #00615 #000615 #0615 #615 000000615 M615,32155 US Hwy. 79 S,CA,92592
Marshall's,Narragansett,616,616 #00616 #000616 #0616 #616 000000616 M616,"91 Point Judith Road, Suite 10",RI,2882
Marshall's,Voorhees,620,620 #00620 #000620 #0620 #620 000000620 M620,#79 Route 73,NJ,8043
Marshall's,Atlanta,621,621 #00621 #000621 #0621 #621 000000621 M621,3232 Peachtree St. N.E. STE D,GA,30305
Marshall's,Manchester,622,622 #00622 #000622 #0622 #622 000000622 M622,200 Hale Road--Buckland,CT,6040
Marshall's,Pittsburgh,623,623 #00623 #000623 #0623 #623 000000623 M623,2208 Northway Mall,PA,15237
Marshall's,Arlington,624,624 #00624 #000624 #0624 #624 000000624 M624,1201 D. South Hayes Street,VA,22202
Marshall's,Arecibo,625,625 #00625 #000625 #0625 #625 000000625 M625,Ave Victor Rojas & Calle Cervantes,PR,612
Marshall's,Caparra Heights,627,627 #00627 #000627 #0627 #627 000000627 M627,FD Roosevelt Ave,PR,968
Marshall's,Carolina,628,628 #00628 #000628 #0628 #628 000000628 M628,Ave 65 Infanteria (Carr 3) & Carr 8887,PR,987
Marshall's,Caguas,629,629 #00629 #000629 #0629 #629 000000629 M629,Carr 1 & Carr 189,PR,725
Marshall's,Mayaguez,630,630 #00630 #000630 #0630 #630 000000630 M630,Carr 2 & Carr 343,PR,680
Marshall's,Old San Juan,631,631 #00631 #000631 #0631 #631 000000631 M631,154 Calle Rafael Cordero,PR,901
Marshall's,Ponce,632,632 #00632 #000632 #0632 #632 000000632 M632,Blvd Miguel Pou & Ave Fagot,PR,717
Marshall's,San Juan (Santurce),633,633 #00633 #000633 #0633 #633 000000633 M633,1064 Ave Ponce de Leon,PR,907
Marshall's,Yauco,634,634 #00634 #000634 #0634 #634 000000634 M634,PR-128 Km 0.5,PR,698
Marshall's,Monte Hiedra,636,636 #00636 #000636 #0636 #636 000000636 M636,Avenue Monte Hiedra & Calle Los Romeros,PR,926
Marshall's,Plano  (West),641,641 #00641 #000641 #0641 #641 000000641 M641,1601 Preston Road,TX,75093
Marshall's,Woodbridge  (Isellin),642,642 #00642 #000642 #0642 #642 000000642 M642,1 Ronson Road,NJ,8830
Marshall's,Millbury,643,643 #00643 #000643 #0643 #643 000000643 M643,70 Worcester-Providence Turnpike (Rt. 146),MA,1527
Marshall's,Smyrna,644,644 #00644 #000644 #0644 #644 000000644 M644,2540 Hargroves Rd.,GA,30080
Marshall's,Lawrence,645,645 #00645 #000645 #0645 #645 000000645 M645,73 Winthrop Avenue,MA,1843
Marshall's,Chicago - Clark & Halsted,646,646 #00646 #000646 #0646 #646 000000646 M646,3131 North Clark St.,IL,60657
Marshall's,Camillus,649,649 #00649 #000649 #0649 #649 000000649 M649,3501 W. Genese Street,NY,13219
Marshall's,Miami (Downtown),650,650 #00650 #000650 #0650 #650 000000650 M650,255 East Flagler St.,FL,33131
Marshall's,North Miami Beach,651,651 #00651 #000651 #0651 #651 000000651 M651,16800 Collins Avenue,FL,33160
Marshall's,San Antonio,652,652 #00652 #000652 #0652 #652 000000652 M652,"12635 I-10 West, Suite 505",TX,78249
Marshall's,Palm Beach Gardens,653,653 #00653 #000653 #0653 #653 000000653 M653,2550 PGA Boulevard,FL,33410
Marshall's,Encino,654,654 #00654 #000654 #0654 #654 000000654 M654,15945 Ventura Boulevard,CA,91436
Marshall's,Fairfield,655,655 #00655 #000655 #0655 #655 000000655 M655,700 Post Road,CT,6430
Marshall's,Staten Island,656,656 #00656 #000656 #0656 #656 000000656 M656,2485 Richmond Avenue,NY,10314
Marshall's,Durham,657,657 #00657 #000657 #0657 #657 000000657 M657,5438 New Hope Commons Drive,NC,27707
Marshall's,Irvine (Alton),658,658 #00658 #000658 #0658 #658 000000658 M658,3781 Alton Parkway,CA,92606
Marshall's,Boston,660,660 #00660 #000660 #0660 #660 000000660 M660,350 Washington Street (Downtown Crossing),MA,2108
Marshall's,Naperville,661,661 #00661 #000661 #0661 #661 000000661 M661,204 South Route 59,IL,60540
Marshall's,San Antonio (Ingram),662,662 #00662 #000662 #0662 #662 000000662 M662,6065 Northwest Loop 410,TX,78201
Marshall's,Highland,663,663 #00663 #000663 #0663 #663 000000663 M663,10429 Indianapolis Boulevard,IN,46322
Marshall's,Northbrook,664,664 #00664 #000664 #0664 #664 000000664 M664,163 Skokie Boulevard,IL,60062
Marshall's,Ontario,665,665 #00665 #000665 #0665 #665 000000665 M665,4377 Mills Circle,CA,91764
Marshall's,Lawrenceville,668,668 #00668 #000668 #0668 #668 000000668 M668,875 Lawrenceville-Suwanee Rd,GA,30044
Marshall's,Maplewood,669,669 #00669 #000669 #0669 #669 000000669 M669,3200F Laclede Station Rd,MO,63143
Marshall's,Brewster,670,670 #00670 #000670 #0670 #670 000000670 M670,100 Independence Way,NY,10509
Marshall's,Avondale,673,673 #00673 #000673 #0673 #673 000000673 M673,10130 West McDowell Road,AZ,85323
Marshall's,Bangor,674,674 #00674 #000674 #0674 #674 000000674 M674,1111 Union Street,ME,4401
Marshall's,Independence,675,675 #00675 #000675 #0675 #675 000000675 M675,18920 E. 39th Street,MO,64057
Marshall's,Roanoke,676,676 #00676 #000676 #0676 #676 000000676 M676,1421 Towne Square Blvd. NW,VA,24012
Marshall's,West Babylon,677,677 #00677 #000677 #0677 #677 000000677 M677,795 West Montauk Highway,NY,11704
Marshall's,Orlando - E. Colonial Dr.,678,678 #00678 #000678 #0678 #678 000000678 M678,2642 E. Colonial Drive,FL,32803
Marshall's,Columbus,679,679 #00679 #000679 #0679 #679 000000679 M679,5400 Westpointe Plaza Drive,OH,43228
Marshall's,Carson City,680,680 #00680 #000680 #0680 #680 000000680 M680,911 Topsy Lane Suite 114,NV,89705
Marshall's,Montrose (La Canada),682,682 #00682 #000682 #0682 #682 000000682 M682,2065 Verdugo Boulevard,CA,91020
Marshall's,Rego Park,685,685 #00685 #000685 #0685 #685 000000685 M685,96-05 Queens Blvd,NY,11374
Marshall's,Minneapolis,686,686 #00686 #000686 #0686 #686 000000686 M686,40 South  7th Street,MN,55402
Marshall's,Fayetteville,687,687 #00687 #000687 #0687 #687 000000687 M687,109 Pavilion Parkway,GA,30214
Marshall's,Matthews,688,688 #00688 #000688 #0688 #688 000000688 M688,2330 Matthews Township Parkway,NC,28105
Marshall's,El Cajon,689,689 #00689 #000689 #0689 #689 000000689 M689,855 Jackman Street & Fletcher Parkway,CA,92020
Marshall's,Chicago - N. Michigan,690,690 #00690 #000690 #0690 #690 000000690 M690,600 North Michigan Avenue,IL,60611
Marshall's,Sanford,691,691 #00691 #000691 #0691 #691 000000691 M691,"1364 Main Street, Unit 1B",ME,4073
Marshall's,Tewksbury,692,692 #00692 #000692 #0692 #692 000000692 M692,10 Main Street (Rte. 38),MA,1876
Marshall's,West Los Angeles,693,693 #00693 #000693 #0693 #693 000000693 M693,11270 Olympic Boulevard,CA,90025
Marshall's,Brooklyn,694,694 #00694 #000694 #0694 #694 000000694 M694,625 Atlantic Ave.,NY,11201
Marshall's,Chicago - W. Irving,695,695 #00695 #000695 #0695 #695 000000695 M695,4612 W. Irving Boulevard,IL,60641
Marshall's,Costa Mesa,696,696 #00696 #000696 #0696 #696 000000696 M696,901 South Coast Drive,CA,92626
Marshall's,Fresno,697,697 #00697 #000697 #0697 #697 000000697 M697,7440 N. Blackstone,CA,93710
Marshall's,Braintree,698,698 #00698 #000698 #0698 #698 000000698 M698,135 Pearl Street,MA,2184
Marshall's,Sacramento,699,699 #00699 #000699 #0699 #699 000000699 M699,4780 Natomas Blvd.,CA,95835
Marshall's,Savannah,702,702 #00702 #000702 #0702 #702 000000702 M702,7400 Abercron,GA,31406
Marshall's,Grapevine,703,703 #00703 #000703 #0703 #703 000000703 M703,3000 Grapevine Mills Park,TX,76051
Marshall's,Chicago - W. 87th,704,704 #00704 #000704 #0704 #704 000000704 M704,112 W. 87th Street,IL,60620
Marshall's,Secaucus,705,705 #00705 #000705 #0705 #705 000000705 M705,400 Mill Creek Drive,NJ,7094
Marshall's,Burlington,706,706 #00706 #000706 #0706 #706 000000706 M706,2200 Mount Holly Road,NJ,8016
Marshall's,Tempe,707,707 #00707 #000707 #0707 #707 000000707 M707,5000 Arizona Mills Circle,AZ,85282
Marshall's,Quincy,708,708 #00708 #000708 #0708 #708 000000708 M708,141 Newport Avenue,MA,1270
Marshall's,Lyons,709,709 #00709 #000709 #0709 #709 000000709 M709,3938 S. Harlem Avenue,IL,60534
Marshall's,Tigard,710,710 #00710 #000710 #0710 #710 000000710 M710,16200 SW Pacific Highway,OR,97224
Marshall's,Geneva,711,711 #00711 #000711 #0711 #711 000000711 M711,1596 S. Randall Road,IL,60134
Marshall's,Wilmington,712,712 #00712 #000712 #0712 #712 000000712 M712,4715a New Centre Drive,NC,28405
Marshall's,Cortlandt,713,713 #00713 #000713 #0713 #713 000000713 M713,3131 East Main Street,NY,10547
Marshall's,Columbia,714,714 #00714 #000714 #0714 #714 000000714 M714,7201 Cc 20 Two Notch Road,SC,29223
Marshall's,Douglasville,715,715 #00715 #000715 #0715 #715 000000715 M715,2890 Chapel Hill Road,GA,30133
Marshall's,Merriam,716,716 #00716 #000716 #0716 #716 000000716 M716,5840 Antioch Road,KS,66202
Marshall's,Cape May Courthouse,718,718 #00718 #000718 #0718 #718 000000718 M718,11 Courthouse Rd,NJ,8210
Marshall's,Glen Allen,719,719 #00719 #000719 #0719 #719 000000719 M719,10951 West Broad Street,VA,23060
Marshall's,Bourbonnais,720,720 #00720 #000720 #0720 #720 000000720 M720,1525 N. State Rte 50,IL,60914
Marshall's,Woodbury,721,721 #00721 #000721 #0721 #721 000000721 M721,7150 Valley Creek Plaza,MN,55125
Marshall's,Fayetteville,722,722 #00722 #000722 #0722 #722 000000722 M722,2091 Skibo Road,NC,28314
Marshall's,Bronx,723,723 #00723 #000723 #0723 #723 000000723 M723,2100 Bartow Avenue,NY,10475
Marshall's,Auburn Hills,724,724 #00724 #000724 #0724 #724 000000724 M724,4200 Baldwin Road,MI,48326
Marshall's,Mission Valley,725,725 #00725 #000725 #0725 #725 000000725 M725,908 Camino Del Rio North,CA,92108
Marshall's,Brooklyn,726,726 #00726 #000726 #0726 #726 000000726 M726,1832 86th Street,NY,11214
Marshall's,Okemos,727,727 #00727 #000727 #0727 #727 000000727 M727,4900 Marsh Rd,MI,48864
Marshall's,Valencia (Santa Clarita),728,728 #00728 #000728 #0728 #728 000000728 M728,25630 The Old Road,CA,91381
Marshall's,Rehoboth Beach,729,729 #00729 #000729 #0729 #729 000000729 M729,"4575 Highway 1, Suite 30",DE,19971
Marshall's,Lexington,730,730 #00730 #000730 #0730 #730 000000730 M730,1965 Pavillion Way,KY,40509
Marshall's,Danville,731,731 #00731 #000731 #0731 #731 000000731 M731,"145 Holt Garrison Pkwy, Ste D",VA,24540
Marshall's,Huber Heights,732,732 #00732 #000732 #0732 #732 000000732 M732,8241 Old Troy Pike,OH,45424
Marshall's,District Heights,733,733 #00733 #000733 #0733 #733 000000733 M733,5562 Silver Hill Rd.,MD,20747
Marshall's,Concord,735,735 #00735 #000735 #0735 #735 000000735 M735,80 Storrs Street,NH,3301
Marshall's,West Allis,738,738 #00738 #000738 #0738 #738 000000738 M738,2665 South 108th Street,WI,53227
Marshall's,Elizabeth,739,739 #00739 #000739 #0739 #739 000000739 M739,651 Kapkowski Road Suite 40,NJ,7201
Marshall's,Salisbury,742,742 #00742 #000742 #0742 #742 000000742 M742,375 Faith Rd,NC,28146
Marshall's,Bridgewater,743,743 #00743 #000743 #0743 #743 000000743 M743,125 Promenade Blvd,NJ,8807
Marshall's,Skokie,744,744 #00744 #000744 #0744 #744 000000744 M744,9445 Skokie Boulevard,IL,60076
Marshall's,Port Charlotte,745,745 #00745 #000745 #0745 #745 000000745 M745,18700 Veterans Boulevard,FL,33954
Marshall's,Jersey City,746,746 #00746 #000746 #0746 #746 000000746 M746,701 Route 440,NJ,7304
Marshall's,Memphis,747,747 #00747 #000747 #0747 #747 000000747 M747,1697 Germantown Parkway,TN,38018
Marshall's,Montebello,748,748 #00748 #000748 #0748 #748 000000748 M748,890 Beverly Boulevard,CA,90640
Marshall's,Bayamon,749,749 #00749 #000749 #0749 #749 000000749 M749,Comerio Blvd & Expo De Diego,PR,959
Marshall's,Arroyo Grande,750,750 #00750 #000750 #0750 #750 000000750 M750,1128 West Branch Street,CA,93420
Marshall's,Northglenn,751,751 #00751 #000751 #0751 #751 000000751 M751,10650 Melody Lane,CO,80234
Marshall's,Madison,752,752 #00752 #000752 #0752 #752 000000752 M752,21117 Zeier Road,WI,53704
Marshall's,Bethlehem,753,753 #00753 #000753 #0753 #753 000000753 M753,2144 W. Union Blvd.,PA,18018
Marshall's,North Canton,754,754 #00754 #000754 #0754 #754 000000754 M754,6565 Strip Avenue,OH,44720
Marshall's,San Mateo,755,755 #00755 #000755 #0755 #755 000000755 M755,2240 Bridgepoint Parkway,CA,94404
Marshall's,Oceanside,756,756 #00756 #000756 #0756 #756 000000756 M756,3544-3584 Long Beach Road,NY,11572
Marshall's,Dublin,757,757 #00757 #000757 #0757 #757 000000757 M757,7892 Dublin Boulevard,CA,94568
Marshall's,Greensburg,758,758 #00758 #000758 #0758 #758 000000758 M758,6207 Route 30 suite 2020,PA,15601
Marshall's,Tucson,760,760 #00760 #000760 #0760 #760 000000760 M760,7900 N. Oracle Road,AZ,85704
Marshall's,Aurora,761,761 #00761 #000761 #0761 #761 000000761 M761,6514 South Parker Road,CO,80016
Marshall's,South Charleston,762,762 #00762 #000762 #0762 #762 000000762 M762,61 Rhl Boulevard,WV,25309
Marshall's,Spartanburg,763,763 #00763 #000763 #0763 #763 000000763 M763,1989 East Main Street,SC,29307
Marshall's,Hagerstown,764,764 #00764 #000764 #0764 #764 000000764 M764,17646 Garland Groh Boulevard,MD,21740
Marshall's,Hilton Head,765,765 #00765 #000765 #0765 #765 000000765 M765,1460 Fording Island Road,SC,29910
Marshall's,Fairhaven,766,766 #00766 #000766 #0766 #766 000000766 M766,6 Fairhaven Common Way,MA,2719
Marshall's,Trussville,767,767 #00767 #000767 #0767 #767 000000767 M767,5929 Trussville Crossing PKWY,AL,35173
Marshall's,Jacksonville,768,768 #00768 #000768 #0768 #768 000000768 M768,1250 Western Boulevard,NC,28546
Marshall's,Cleveland Heights,769,769 #00769 #000769 #0769 #769 000000769 M769,3463 Mayfield Road,OH,44118
Marshall's,Lancaster,770,770 #00770 #000770 #0770 #770 000000770 M770,1268 Lilitz Pike,PA,17601
Marshall's,Mcallen,771,771 #00771 #000771 #0771 #771 000000771 M771,900 East Expressway 83,TX,78503
Marshall's,Vallejo,772,772 #00772 #000772 #0772 #772 000000772 M772,141 Plaza Drive,CA,94589
Marshall's,Lone Tree (Denver),773,773 #00773 #000773 #0773 #773 000000773 M773,8672 Park Meadows Center Dr,CO,80124
Marshall's,Round Rock,775,775 #00775 #000775 #0775 #775 000000775 M775,"2701 Parker Road, Bldg A, Suite 300",TX,78681
Marshall's,Frisco,776,776 #00776 #000776 #0776 #776 000000776 M776,"3333 Preston Rd, Suite 500",TX,75034
Marshall's,Cedar Hill,777,777 #00777 #000777 #0777 #777 000000777 M777,440 E. FM 1382,TX,75104
Marshall's,Livonia,778,778 #00778 #000778 #0778 #778 000000778 M778,13200 Middlebelt Road,MI,48154
Marshall's,Pittsburgh (Homestead),779,779 #00779 #000779 #0779 #779 000000779 M779,460 East Waterfront Drive,PA,15120
Marshall's,Wyoming,780,780 #00780 #000780 #0780 #780 000000780 M780,4830 Wilson Ave.,MI,49509
Marshall's,Methuen,781,781 #00781 #000781 #0781 #781 000000781 M781,90 Pleasant Valley Rd.,MA,1844
Marshall's,Old Saybrook,782,782 #00782 #000782 #0782 #782 000000782 M782,665 Boston Post Rd.,CT,6095
Marshall's,Kalamazoo,783,783 #00783 #000783 #0783 #783 000000783 M783,5072a West Main Street,MI,49009
Marshall's,Syosset,784,784 #00784 #000784 #0784 #784 000000784 M784,565 Jericho Turnpike,NY,11791
Marshall's,Visalia,785,785 #00785 #000785 #0785 #785 000000785 M785,3115 South Mooney Boulevard,CA,93277
Marshall's,Katy,786,786 #00786 #000786 #0786 #786 000000786 M786,5000 Katy Mills Circle,TX,77494
Marshall's,Las Vegas - Silverado Blvd,787,787 #00787 #000787 #0787 #787 000000787 M787,9845 S. Eastern Avenue,NV,89123
Marshall's,Albany,788,788 #00788 #000788 #0788 #788 000000788 M788,"1440 Central Avenue, Bldg C",NY,12205
Marshall's,Miami,789,789 #00789 #000789 #0789 #789 000000789 M789,11251 NW 12th Street,FL,33172
Marshall's,Louisville,790,790 #00790 #000790 #0790 #790 000000790 M790,3600 S. Hurstbourne Parkway,KY,40299
Marshall's,Brownsville,791,791 #00791 #000791 #0791 #791 000000791 M791,2850 Pablo Kisel Blvd,TX,78526
Marshall's,Southaven,792,792 #00792 #000792 #0792 #792 000000792 M792,105 Goodman Road West,MS,38671
Marshall's,Slidell,793,793 #00793 #000793 #0793 #793 000000793 M793,119 North Shore Boulevard,LA,70460
Marshall's,Avon,794,794 #00794 #000794 #0794 #794 000000794 M794,35854 Detroit Road,OH,44011
Marshall's,Albuquerque,795,795 #00795 #000795 #0795 #795 000000795 M795,9500 Montgomery Blvd Ne S-5f,NM,87111
Marshall's,Naples,796,796 #00796 #000796 #0796 #796 000000796 M796,1000 Immokalee Road,FL,34108
Marshall's,Jackson,797,797 #00797 #000797 #0797 #797 000000797 M797,6388 Ridgewood Court,MS,39211
Marshall's,Middletown,798,798 #00798 #000798 #0798 #798 000000798 M798,288 East Main Street,RI,2840
Marshall's,Auburn,799,799 #00799 #000799 #0799 #799 000000799 M799,217 Grant Avenue,NY,13021
Marshall's,Las Vegas - N. Rainbow,800,800 #00800 #000800 #0800 #800 000000800 M800,3075 N. Rainbow Blvd,NV,89108
Marshall's,Copperfield,801,801 #00801 #000801 #0801 #801 000000801 M801,6565 Highway 6 N,TX,77084
Marshall's,Las Cruces,802,802 #00802 #000802 #0802 #802 000000802 M802,"3050 E. Lohman Ave., Suite D",NM,88005
Marshall's,Corpus Christi,803,803 #00803 #000803 #0803 #803 000000803 M803,"5425 S. Padre Island Drive, S-133",TX,78411
Marshall's,Watauga,804,804 #00804 #000804 #0804 #804 000000804 M804,8028 Denton Hwy,TX,76148
Marshall's,Tallahassee,805,805 #00805 #000805 #0805 #805 000000805 M805,1514 Governors Square Boulevard Suite 100,FL,32301
Marshall's,Avon,806,806 #00806 #000806 #0806 #806 000000806 M806,10295 E. U.S. Highway 36,IN,46123
Marshall's,Sturbridge,807,807 #00807 #000807 #0807 #807 000000807 M807,110 Charlton Road Rte. 20 East,MA,1566
Marshall's,Macon,808,808 #00808 #000808 #0808 #808 000000808 M808,4649 Presidential Parkway,GA,31206
Marshall's,Huntsville,809,809 #00809 #000809 #0809 #809 000000809 M809,"6275 University Drive, Suite 7",AL,35806
Marshall's,Crofton (Gambrills),810,810 #00810 #000810 #0810 #810 000000810 M810,2662 Chapel Lake Drive,MD,21054
Marshall's,Roseville,811,811 #00811 #000811 #0811 #811 000000811 M811,1200 Galleria Boulevard,CA,95678
Marshall's,Manati,812,812 #00812 #000812 #0812 #812 000000812 M812,PR 149 Intersection PR2,PR,674
Marshall's,Jacksonville,813,813 #00813 #000813 #0813 #813 000000813 M813,San Jose Boulevard & Claire Lane,FL,32223
Marshall's,White Lake Township,814,814 #00814 #000814 #0814 #814 000000814 M814,310 Town Center Blvd. Ste B-101,MI,48383
Marshall's,Hixson,815,815 #00815 #000815 #0815 #815 000000815 M815,5756 Highway 152,TN,37343
Marshall's,Homestead,816,816 #00816 #000816 #0816 #816 000000816 M816,1099 North Homestead Boulevard,FL,33030
Marshall's,Royersford,817,817 #00817 #000817 #0817 #817 000000817 M817,S. Township Line Road,PA,19468
Marshall's,San Antonio,818,818 #00818 #000818 #0818 #818 000000818 M818,1742 North Fm 1604 East,TX,78232
Marshall's,Temple,819,819 #00819 #000819 #0819 #819 000000819 M819,"2112 SW HK Dodgen Loop, Suite 160",TX,76504
Marshall's,Burbank,820,820 #00820 #000820 #0820 #820 000000820 M820,1701 N. Victory Place,CA,91504
Marshall's,Folsom,821,821 #00821 #000821 #0821 #821 000000821 M821,2735 East Bidwell Street,CA,95630
Marshall's,Lewis Center,822,822 #00822 #000822 #0822 #822 000000822 M822,9033 Columbus Pike,OH,43035
Marshall's,Phoenix,824,824 #00824 #000824 #0824 #824 000000824 M824,"21001 N. Tatum Blvd., Suite 56",AZ,85050
Marshall's,Norwalk,825,825 #00825 #000825 #0825 #825 000000825 M825,396 Westport Ave (Rt 1),CT,6851
Marshall's,Wyckoff,826,826 #00826 #000826 #0826 #826 000000826 M826,327 Franklin Ave,NJ,7430
Marshall's,Hiram,827,827 #00827 #000827 #0827 #827 000000827 M827,5220 Jimmy Lee Smith Parkway,GA,30141
Marshall's,Dearborn,828,828 #00828 #000828 #0828 #828 000000828 M828,23001 Michigan Avenue,MI,48124
Marshall's,Mt. Pleasant,829,829 #00829 #000829 #0829 #829 000000829 M829,1495 Hwy. 17,SC,29464
Marshall's,Renton,830,830 #00830 #000830 #0830 #830 000000830 M830,825 North Landing Way,WA,98057
Marshall's,Kearney,831,831 #00831 #000831 #0831 #831 000000831 M831,175 Passaic Avenue,NJ,7032
Marshall's,Beaumont,832,832 #00832 #000832 #0832 #832 000000832 M832,Dowlen Road,TX,77706
Marshall's,Elmont,833,833 #00833 #000833 #0833 #833 000000833 M833,600 Hempstead Turnpike,NY,11003
Marshall's,Mechanicsburg,834,834 #00834 #000834 #0834 #834 000000834 M834,6520 Carlisle Pike,PA,17050
Marshall's,Medina,835,835 #00835 #000835 #0835 #835 000000835 M835,1195 North Court Street,OH,44256
Marshall's,Lithonia,836,836 #00836 #000836 #0836 #836 000000836 M836,8080 Mall Parkway,GA,30038
Marshall's,Lake Charles,837,837 #00837 #000837 #0837 #837 000000837 M837,1764 Prien Lake Road,LA,70601
Marshall's,Hadley,838,838 #00838 #000838 #0838 #838 000000838 M838,325 Russell Street,MA,1035
Marshall's,Buford,839,839 #00839 #000839 #0839 #839 000000839 M839,1600 Mall of Georgia Boulevard,GA,30519
Marshall's,Dallas,840,840 #00840 #000840 #0840 #840 000000840 M840,8335 Westchester Dr. Suite 20,TX,75225
Marshall's,Utica,841,841 #00841 #000841 #0841 #841 000000841 M841,14135 Hall Rd.,MI,48315
Marshall's,Middletown,842,842 #00842 #000842 #0842 #842 000000842 M842,470 Route 211 East,NY,10940
Marshall's,Alexandria,843,843 #00843 #000843 #0843 #843 000000843 M843,2601 South McArthur Drive,LA,71301
Marshall's,Reynoldsburg,844,844 #00844 #000844 #0844 #844 000000844 M844,2913 Taylor Road,OH,43068
Marshall's,Wyomissing,845,845 #00845 #000845 #0845 #845 000000845 M845,2783 Papermill Rd,PA,19610
Marshall's,Midland,846,846 #00846 #000846 #0846 #846 000000846 M846,917 Joe Mann Boulevard,MI,48642
Marshall's,Chicago,847,847 #00847 #000847 #0847 #847 000000847 M847,7507 North Clark Street,IL,60626
Marshall's,West Des Moines,848,848 #00848 #000848 #0848 #848 000000848 M848,4100 University Avenue,IA,50266
Marshall's,Troy,849,849 #00849 #000849 #0849 #849 000000849 M849,2029 W. Maple Road,MI,48084
Marshall's,Warren,850,850 #00850 #000850 #0850 #850 000000850 M850,26487 Hoover Road,MI,48089
Marshall's,Houston,851,851 #00851 #000851 #0851 #851 000000851 M851,590 Gulfgate Center,TX,77087
Marshall's,Lacey,852,852 #00852 #000852 #0852 #852 000000852 M852,701 Sleater Kinney Road,WA,98503
Marshall's,Pasadena,853,853 #00853 #000853 #0853 #853 000000853 M853,5690 Fairmont Parkway,TX,77505
Marshall's,Williamsville,854,854 #00854 #000854 #0854 #854 000000854 M854,2383 Maple Road,NY,14221
Marshall's,Hillsboro,855,855 #00855 #000855 #0855 #855 000000855 M855,861 NE 25th Avenue,OR,97124
Marshall's,Knoxville,856,856 #00856 #000856 #0856 #856 000000856 M856,2745 Schaad Rd,TN,37921
Marshall's,Chino,857,857 #00857 #000857 #0857 #857 000000857 M857,3967 Grand Avenue,CA,91710
Marshall's,St. Peters,858,858 #00858 #000858 #0858 #858 000000858 M858,311 Costco Way,MO,63376
Marshall's,McDonough,859,859 #00859 #000859 #0859 #859 000000859 M859,1930 Jonesboro Road,GA,30253
Marshall's,Columbus,860,860 #00860 #000860 #0860 #860 000000860 M860,5555 Whittlesey Road,GA,31909
Marshall's,Fairview Heights,861,861 #00861 #000861 #0861 #861 000000861 M861,5935 North Illinois Street,IL,62208
Marshall's,Beachwood,862,862 #00862 #000862 #0862 #862 000000862 M862,24055 Chagrin Boulevard,OH,44122
Marshall's,Woodland,863,863 #00863 #000863 #0863 #863 000000863 M863,45 West Main Street,CA,95695
Marshall's,Pico Rivera,864,864 #00864 #000864 #0864 #864 000000864 M864,8880 Washington Blvd,CA,90660
Marshall's,Vineland,865,865 #00865 #000865 #0865 #865 000000865 M865,3489 S. Delsea Drive,NJ,8360
Marshall's,Margate,866,866 #00866 #000866 #0866 #866 000000866 M866,5461 West Atlantic Blvd,FL,33063
Marshall's,Clearwater,867,867 #00867 #000867 #0867 #867 000000867 M867,21323 US 19 North,FL,33765
Marshall's,Aurora,868,868 #00868 #000868 #0868 #868 000000868 M868,Rte 43,OH,44202
Marshall's,Cranberry Township,869,869 #00869 #000869 #0869 #869 000000869 M869,20111 Route 19,PA,16066
Marshall's,Manhattan,870,870 #00870 #000870 #0870 #870 000000870 M870,125 West 125th Street,NY,10027
Marshall's,Meridian,871,871 #00871 #000871 #0871 #871 000000871 M871,2020 N Eagle Rd,ID,83646
Marshall's,Tucson,872,872 #00872 #000872 #0872 #872 000000872 M872,1167 W. Irvington Road,AZ,85714
Marshall's,Las Vegas,873,873 #00873 #000873 #0873 #873 000000873 M873,10950 W Charleston Boulevard,NV,89144
Marshall's,Village of Barboursville,874,874 #00874 #000874 #0874 #874 000000874 M874,2040 Thundering Herd Drive,WV,25504
Marshall's,Brooklyn,875,875 #00875 #000875 #0875 #875 000000875 M875,351 Gateway Drive,NY,11236
Marshall's,Dickson City,876,876 #00876 #000876 #0876 #876 000000876 M876,1118 Commerce Boulevard,PA,18519
Marshall's,Pearland,877,877 #00877 #000877 #0877 #877 000000877 M877,10434 Broadway,TX,77584
Marshall's,Houston,878,878 #00878 #000878 #0878 #878 000000878 M878,1540 West Gray Street,TX,77019
Marshall's,Albuquerque,1001,1001 #001001 #0001001 #01001 #1001 0000001001 M1001,10131 Coors Blvd NW,NM,87114
Marshall's,Rosedale (Baltimore),1002,1002 #001002 #0001002 #01002 #1002 0000001002 M1002,8641 Philadelphia Rd,MD,21237
Marshall's,Fort Myers,1003,1003 #001003 #0001003 #01003 #1003 0000001003 M1003,10017 Gulf Center Dr,FL,33913
Marshall's,Galveston,1004,1004 #001004 #0001004 #01004 #1004 0000001004 M1004,6307 Stewart Rd.,TX,77551
Marshall's,Nashville,1005,1005 #001005 #0001005 #01005 #1005 0000001005 M1005,6806 Charlotte Pike,TN,37209
Marshall's,Nora,1006,1006 #001006 #0001006 #01006 #1006 0000001006 M1006,"1300 East 86th St, Ste 24",IN,46240
Marshall's,Mechanicsville,1007,1007 #001007 #0001007 #01007 #1007 0000001007 M1007,7230 Bell Creek Rd Ste B,VA,23111
Marshall's,Mansfield,1008,1008 #001008 #0001008 #01008 #1008 0000001008 M1008,2041 N US Highway 287,TX,76063
Marshall's,Springfield,1009,1009 #001009 #0001009 #01009 #1009 0000001009 M1009,1608 North Bechtle Ave,OH,45504
Marshall's,Brooksville (Spring Hill),1010,1010 #001010 #0001010 #01010 #1010 0000001010 M1010,7143 Coastal Blvd,FL,34613
Marshall's,Orchard Park,1011,1011 #001011 #0001011 #01011 #1011 0000001011 M1011,3415 Amelia Dr,NY,14127
Marshall's,Peoria,1012,1012 #001012 #0001012 #01012 #1012 0000001012 M1012,24720 N Lake Pleasant Pky,AZ,85383
Marshall's,Huntersville,1013,1013 #001013 #0001013 #01013 #1013 0000001013 M1013,10025 Biddick Ln,NC,28078
Marshall's,Austin,1014,1014 #001014 #0001014 #01014 #1014 0000001014 M1014,9600 IH 35 South Service Rd,TX,78748
Marshall's,Cleveland,1015,1015 #001015 #0001015 #01015 #1015 0000001015 M1015,3485 Steelyard Dr,OH,44109
Marshall's,California,1016,1016 #001016 #0001016 #01016 #1016 0000001016 M1016,"22599 MacArthur Blvd, Ste 360",MD,20619
Marshall's,Washington,1017,1017 #001017 #0001017 #01017 #1017 0000001017 M1017,1500 Chestnut St,PA,15301
Marshall's,Winter Garden,1018,1018 #001018 #0001018 #01018 #1018 0000001018 M1018,3349 Daniels Road,FL,34787
Marshall's,Sebring,1019,1019 #001019 #0001019 #01019 #1019 0000001019 M1019,1724 US 27 North,FL,33870
Marshall's,Titusville,1020,1020 #001020 #0001020 #01020 #1020 0000001020 M1020,"3055 Columbia Boulevard, Suite 115",FL,32780
Marshall's,Knoxville,1021,1021 #001021 #0001021 #01021 #1021 0000001021 M1021,5425 Washington Pike,TN,37918
Marshall's,Flagstaff,1022,1022 #001022 #0001022 #01022 #1022 0000001022 M1022,"5005 E. Marketplace Drive, Suite 160",AZ,86004
Marshall's,Huntington Park,1023,1023 #001023 #0001023 #01023 #1023 0000001023 M1023,7316 S Alameda St,CA,90255
Marshall's,Las Vegas,1024,1024 #001024 #0001024 #01024 #1024 0000001024 M1024,7155 Arroyo Crossing Pwy,NV,89118
Marshall's,Ranchos Palos Verdes,1026,1026 #001026 #0001026 #01026 #1026 0000001026 M1026,28901 South Western Ave,CA,90275
Marshall's,Mesa,1028,1028 #001028 #0001028 #01028 #1028 0000001028 M1028,841 N Dobson Rd,AZ,85201
Marshall's,Portland,1029,1029 #001029 #0001029 #01029 #1029 0000001029 M1029,10257 NE Cascade Pwy,OR,97220
Marshall's,Guayama,1030,1030 #001030 #0001030 #01030 #1030 0000001030 M1030,Carr Estatal #3 KM 134.7,PR,784
Marshall's,Glen Mills,1031,1031 #001031 #0001031 #01031 #1031 0000001031 M1031,501 Town Center Drive,PA,19342
Marshall's,El Paso,1032,1032 #001032 #0001032 #01032 #1032 0000001032 M1032,1858 Joe Battle Blvd,TX,79936
Marshall's,Grand Prairie,1033,1033 #001033 #0001033 #01033 #1033 0000001033 M1033,5260 S. Highway 360,TX,75052
Marshall's,Washington,1034,1034 #001034 #0001034 #01034 #1034 0000001034 M1034,3100 14th Street NW,DC,20010
Marshall's,Houston,1035,1035 #001035 #0001035 #01035 #1035 0000001035 M1035,4440 North Freeway,TX,77022
Marshall's,Coral Gables,1036,1036 #001036 #0001036 #01036 #1036 0000001036 M1036,"3301 Coral Way, Ste 302",FL,33145
Marshall's,San Antonio (Hwy 181),1038,1038 #001038 #0001038 #01038 #1038 0000001038 M1038,"4224 S New Braunfels Ave, Ste 401",TX,78223
Marshall's,San Diego,1039,1039 #001039 #0001039 #01039 #1039 0000001039 M1039,5831 University Ave,CA,92115
Marshall's,Tulsa,1040,1040 #001040 #0001040 #01040 #1040 0000001040 M1040,7362 South Olympia Avenue,OK,74132
Marshall's,Medfield,1041,1041 #001041 #0001041 #01041 #1041 0000001041 M1041,242 Main St,MA,2052
Marshall's,Oldsmar,1042,1042 #001042 #0001042 #01042 #1042 0000001042 M1042,3146 Tampa Rd,FL,34677
Marshall's,Orange Park,1043,1043 #001043 #0001043 #01043 #1043 0000001043 M1043,868 Blanding Blvd,FL,32065
Marshall's,Leesburg,1044,1044 #001044 #0001044 #01044 #1044 0000001044 M1044,534 Fort Evans Rd,VA,20176
Marshall's,Harvey,1047,1047 #001047 #0001047 #01047 #1047 0000001047 M1047,1500 Westbank Expressway,LA,70058
Marshall's,Emerson,1048,1048 #001048 #0001048 #01048 #1048 0000001048 M1048,550 Kinderkamack Rd,NJ,7630
Marshall's,Charlotte (Midtown),1049,1049 #001049 #0001049 #01049 #1049 0000001049 M1049,1055 Metropolitan Ave Ste 200,NC,28204
Marshall's,Casa Grande,1050,1050 #001050 #0001050 #01050 #1050 0000001050 M1050,1004 N Promenade Pkwy #120,AZ,85222
Marshall's,Shirley,1051,1051 #001051 #0001051 #01051 #1051 0000001051 M1051,999 Montauk Highway Unit 36,NY,11967
Marshall's,San Antonio,1053,1053 #001053 #0001053 #01053 #1053 0000001053 M1053,5347 NW Loop 1604 N Ste 113,TX,78253
Marshall's,El Centro,1054,1054 #001054 #0001054 #01054 #1054 0000001054 M1054,568 E Danenberg Rd,CA,92243
Marshall's,Yorkville,1055,1055 #001055 #0001055 #01055 #1055 0000001055 M1055,975 Erica Lane,IL,60560
Marshall's,South El Monte,1057,1057 #001057 #0001057 #01057 #1057 0000001057 M1057,1830 Durfee Avenue,CA,91733
Marshall's,Atwater,1058,1058 #001058 #0001058 #01058 #1058 0000001058 M1058,1200 Commerce Ave,CA,95301
Marshall's,Apopka,1059,1059 #001059 #0001059 #01059 #1059 0000001059 M1059,2175 E Semoran Blvd,FL,32703
Marshall's,Marysville,1061,1061 #001061 #0001061 #01061 #1061 0000001061 M1061,16414 Twin Lakes Ave,WA,98271
Marshall's,Vero Beach,1062,1062 #001062 #0001062 #01062 #1062 0000001062 M1062,58th Ave,FL,32966
Marshall's,Bonney Lake,1063,1063 #001063 #0001063 #01063 #1063 0000001063 M1063,9321 192nd Ave East,WA,98391
Marshall's,Yonkers,1064,1064 #001064 #0001064 #01064 #1064 0000001064 M1064,2564 Central Park Ave,NY,10710
Marshall's,Indio,1065,1065 #001065 #0001065 #01065 #1065 0000001065 M1065,42425 A Jackson St,CA,92201
Marshall's,Dallas,1067,1067 #001067 #0001067 #01067 #1067 0000001067 M1067,"3434 W Illinois Ave Bldg 5, Ste 500",TX,75211
Marshall's,Palm Springs,1068,1068 #001068 #0001068 #01068 #1068 0000001068 M1068,5200 Ramon Road B5,CA,92264
Marshall's,Bronx(Bruckner),1069,1069 #001069 #0001069 #01069 #1069 0000001069 M1069,845 White Plains Road,NY,10473
Marshall's,Westport,1070,1070 #001070 #0001070 #01070 #1070 0000001070 M1070,1086 Post Road East,CT,6880
Marshall's,Henderson,1071,1071 #001071 #0001071 #01071 #1071 0000001071 M1071,290 W. Lake Mead Pkwy,NV,89015
Marshall's,Houston,1073,1073 #001073 #0001073 #01073 #1073 0000001073 M1073,5922 E Sam Houston Pwy N,TX,77049
Marshall's,Bronx,1074,1074 #001074 #0001074 #01074 #1074 0000001074 M1074,610 Exterior Street,NY,10451
Marshall's,Long Beach,1076,1076 #001076 #0001076 #01076 #1076 0000001076 M1076,4450 Atlantic Avenue,CA,90802
Marshall's,Port Orange,1077,1077 #001077 #0001077 #01077 #1077 0000001077 M1077,5505 South Williamson Blvd.,FL,32128
Marshall's,Canovanas,1078,1078 #001078 #0001078 #01078 #1078 0000001078 M1078,Carr 3 Km 17.3,PR,729
Marshall's,Tomball,1079,1079 #001079 #0001079 #01079 #1079 0000001079 M1079,14367 FM 2920,TX,77377
Marshall's,D'Iberville,1080,1080 #001080 #0001080 #01080 #1080 0000001080 M1080,3946 Promenade Pwy,MS,39540
Marshall's,New York (East River),1081,1081 #001081 #0001081 #01081 #1081 0000001081 M1081,"517 East 117th St, Ste 401",NY,10035
Marshall's,Flushing,1082,1082 #001082 #0001082 #01082 #1082 0000001082 M1082,40-24 College Point Blvd,NY,11354
Marshall's,Pelham Manor,1083,1083 #001083 #0001083 #01083 #1083 0000001083 M1083,849 Pelham Pwy,NY,10803
Marshall's,Bridgeport,1084,1084 #001084 #0001084 #01084 #1084 0000001084 M1084,2399 Meadowbrook Mall Rd,WV,26330
Marshall's,Gloucester,1085,1085 #001085 #0001085 #01085 #1085 0000001085 M1085,211 Gloucester Crossing,MA,1930
Marshall's,Humacao,1086,1086 #001086 #0001086 #01086 #1086 0000001086 M1086,PR 53 & PR 923,PR,791
Marshall's,Chicago,1087,1087 #001087 #0001087 #01087 #1087 0000001087 M1087,11620 S. Marshfield Ave,IL,60643
Marshall's,Seal Beach,1088,1088 #001088 #0001088 #01088 #1088 0000001088 M1088,12325 Seal Beach Blvd,CA,90740
Marshall's,Manhasset,1089,1089 #001089 #0001089 #01089 #1089 0000001089 M1089,1380 Northern Blvd.,NY,11030
Marshall's,Odessa,1090,1090 #001090 #0001090 #01090 #1090 0000001090 M1090,6327 East Hwy 191,TX,79762
Marshall's,West Mifflin,1091,1091 #001091 #0001091 #01091 #1091 0000001091 M1091,9931 Mountainview Dr,PA,15122
Marshall's,Santa Isabel,1092,1092 #001092 #0001092 #01092 #1092 0000001092 M1092,Int. State Rd. 153 & PR 542,PR,757
Marshall's,Hesperia,1093,1093 #001093 #0001093 #01093 #1093 0000001093 M1093,12787 Main St,CA,92345
Marshall's,Emeryville,1094,1094 #001094 #0001094 #01094 #1094 0000001094 M1094,5795 Christie Ave,CA,94608
Marshall's,Chicago (South Loop),1095,1095 #001095 #0001095 #01095 #1095 0000001095 M1095,1101 South Canal Street,IL,60607
Marshall's,New York,1096,1096 #001096 #0001096 #01096 #1096 0000001096 M1096,620 Ave of Americas,NY,10011
Marshall's,Columbia,1097,1097 #001097 #0001097 #01097 #1097 0000001097 M1097,1901 Bernadette Dr.,MO,65201
Marshall's,Decatur,1098,1098 #001098 #0001098 #01098 #1098 0000001098 M1098,2050 Lawrenceville Hwy,GA,30033
Marshall's,Cincinnati,1099,1099 #001099 #0001099 #01099 #1099 0000001099 M1099,4530 Eastgate Blvd,OH,45245
Marshall's,Santa Cruz,1100,1100 #001100 #0001100 #01100 #1100 0000001100 M1100,1664 Commercial Way,CA,95065
Marshall's,Norwood,1101,1101 #001101 #0001101 #01101 #1101 0000001101 M1101,4450 Montgomery Rd.,OH,45212
Marshall's,Huntsville,1102,1102 #001102 #0001102 #01102 #1102 0000001102 M1102,257 B Interstate 45 S,TX,77340
Marshall's,Catonsville,1103,1103 #001103 #0001103 #01103 #1103 0000001103 M1103,"5840 Baltimore National Pike, C",MD,21228
Marshall's,Frederick,1104,1104 #001104 #0001104 #01104 #1104 0000001104 M1104,7840 Wormans Mill Rd,MD,21702
Marshall's,Keizer,1105,1105 #001105 #0001105 #01105 #1105 0000001105 M1105,6365 Ulali Dr NE,OR,97303
Marshall's,Gresham,1106,1106 #001106 #0001106 #01106 #1106 0000001106 M1106,2077 NE Burnside St,OR,97080
Marshall's,Griffin,1107,1107 #001107 #0001107 #01107 #1107 0000001107 M1107,1557 N Expressway Rd,GA,30223
Marshall's,Middleburg Heights,1109,1109 #001109 #0001109 #01109 #1109 0000001109 M1109,6897 Southland Dr.,OH,44130
Marshall's,Kent,1110,1110 #001110 #0001110 #01110 #1110 0000001110 M1110,3975 Cascades Blvd.,OH,44240
Marshall's,Fort Worth,1111,1111 #001111 #0001111 #01111 #1111 0000001111 M1111,1454 Eastchase Pkwy,TX,76120
Marshall's,Orange,1112,1112 #001112 #0001112 #01112 #1112 0000001112 M1112,1407 W Chapman Ave,CA,92868
Marshall's,Panama City Beach,1113,1113 #001113 #0001113 #01113 #1113 0000001113 M1113,15611 Sea Turtle Dr.,FL,32407
Marshall's,Houston,1114,1114 #001114 #0001114 #01114 #1114 0000001114 M1114,10005 Almeda-Genoa Road,TX,77075
Marshall's,Del Rio,1115,1115 #001115 #0001115 #01115 #1115 0000001115 M1115,2205 Veterans Blvd.,TX,78840
Marshall's,Santa Barbara,1116,1116 #001116 #0001116 #01116 #1116 0000001116 M1116,900 State St,CA,93101
Marshall's,Doraville,1117,1117 #001117 #0001117 #01117 #1117 0000001117 M1117,"5600 Buford Highway, Suite B",GA,30340
Marshall's,Baltimore,1119,1119 #001119 #0001119 #01119 #1119 0000001119 M1119,2010 Gwynn Falls Parkway,MD,21216
Marshall's,Bloomfield,1120,1120 #001120 #0001120 #01120 #1120 0000001120 M1120,8-12 Franklin Street,NJ,7003
Marshall's,Bronx,1121,1121 #001121 #0001121 #01121 #1121 0000001121 M1121,2501 Grand Concourse,NY,10468
Marshall's,Chicago (Bishop),1122,1122 #001122 #0001122 #01122 #1122 0000001122 M1122,1422 West 47th Street,IL,60609
Marshall's,Chicago,1123,1123 #001123 #0001123 #01123 #1123 0000001123 M1123,1709 East 95th St,IL,60617
Marshall's,East Boston,1125,1125 #001125 #0001125 #01125 #1125 0000001125 M1125,200 Border Street,MA,2128
Marshall's,Easton,1126,1126 #001126 #0001126 #01126 #1126 0000001126 M1126,785 South 25th Street,PA,18045
Marshall's,Joliet,1131,1131 #001131 #0001131 #01131 #1131 0000001131 M1131,1500 North Larkin Avenue,IL,60425
Marshall's,Jacksonville,1132,1132 #001132 #0001132 #01132 #1132 0000001132 M1132,14964 Duval Rd #200,FL,32218
Marshall's,Indianapolis,1134,1134 #001134 #0001134 #01134 #1134 0000001134 M1134,"4200 S. East Street, Unit 32",IN,46227
Marshall's,Jacksonville,1135,1135 #001135 #0001135 #01135 #1135 0000001135 M1135,5149 Normandy Blvd,FL,32205
Marshall's,Oxon Hill,1136,1136 #001136 #0001136 #01136 #1136 0000001136 M1136,6197 Livingston Road,MD,20745
Marshall's,Memphis,1138,1138 #001138 #0001138 #01138 #1138 0000001138 M1138,6441 Winchester Rd.,TN,38115
Marshall's,New Britain,1140,1140 #001140 #0001140 #01140 #1140 0000001140 M1140,76 East Main Street,CT,6051
Marshall's,Norfolk,1141,1141 #001141 #0001141 #01141 #1141 0000001141 M1141,1855 East Little Creek Road,VA,23518
Marshall's,Milwaukee,1142,1142 #001142 #0001142 #01142 #1142 0000001142 M1142,3557 South 27th St,WI,53221
Marshall's,Paterson,1143,1143 #001143 #0001143 #01143 #1143 0000001143 M1143,"301 Main St, Ste 214",NJ,7505
Marshall's,Philadelphia,1144,1144 #001144 #0001144 #01144 #1144 0000001144 M1144,700 East Hunting Park Avenue,PA,19124
Marshall's,Richmond,1146,1146 #001146 #0001146 #01146 #1146 0000001146 M1146,4020 Meadowdale Blvd.,VA,23234
Marshall's,Roxbury,1147,1147 #001147 #0001147 #01147 #1147 0000001147 M1147,300-350 Martin Luther King Blvd.,MA,2119
Marshall's,Ewing,1148,1148 #001148 #0001148 #01148 #1148 0000001148 M1148,1520 N Olden Ave,NJ,8638
Marshall's,Warren,1149,1149 #001149 #0001149 #01149 #1149 0000001149 M1149,"28390 DeQuindre Road, Suite 600",MI,48092
Marshall's,Waukegan,1150,1150 #001150 #0001150 #01150 #1150 0000001150 M1150,1501 N Lewis Ave.,IL,60085
Marshall's,Worcester,1151,1151 #001151 #0001151 #01151 #1151 0000001151 M1151,68 Stafford Street,MA,1603
Marshall's,Yonkers,1152,1152 #001152 #0001152 #01152 #1152 0000001152 M1152,750 Central Park Avenue,NY,10704
Marshall's,La Verne,1153,1153 #001153 #0001153 #01153 #1153 0000001153 M1153,2340 Foothill Blvd,CA,91750
Marshall's,Epping,1154,1154 #001154 #0001154 #01154 #1154 0000001154 M1154,"24 Calef Hwy, Suite 116",NH,3042
Marshall's,Oklahoma City,1155,1155 #001155 #0001155 #01155 #1155 0000001155 M1155,13730 N. Penn,OK,73134
Marshall's,Farmington,1156,1156 #001156 #0001156 #01156 #1156 0000001156 M1156,340 N. Station Parkway,UT,84025
Marshall's,San Angelo,1157,1157 #001157 #0001157 #01157 #1157 0000001157 M1157,4001 Sunset Dr Ste 1300,TX,76904
Marshall's,Gilroy,1158,1158 #001158 #0001158 #01158 #1158 0000001158 M1158,7201 Camino Arroyo,CA,95020
Marshall's,West Bend,1159,1159 #001159 #0001159 #01159 #1159 0000001159 M1159,840 West Paradise Drive,WI,53095
Marshall's,Spokane,1160,1160 #001160 #0001160 #01160 #1160 0000001160 M1160,4750 N Division St Ste 1017,WA,99207
Marshall's,Chester,1161,1161 #001161 #0001161 #01161 #1161 0000001161 M1161,177 Route 206 S,NJ,7930
Marshall's,Bellingham,1162,1162 #001162 #0001162 #01162 #1162 0000001162 M1162,3922 Meridian Street,WA,98226
Marshall's,Tamarac,1163,1163 #001163 #0001163 #01163 #1163 0000001163 M1163,4197 W Commercial Blvd.,FL,33319
Marshall's,Little Rock,1164,1164 #001164 #0001164 #01164 #1164 0000001164 M1164,"16105 Chenal Pky, Suite C",AR,72223
Marshall's,Oroville,1165,1165 #001165 #0001165 #01165 #1165 0000001165 M1165,2357 Myers St Suite D,CA,95966
Marshall's,Porterville,1166,1166 #001166 #0001166 #01166 #1166 0000001166 M1166,1351 W Henderson Ave.,CA,93257
Marshall's,Rancho Cordova,1167,1167 #001167 #0001167 #01167 #1167 0000001167 M1167,10837 Olson Dr.,CA,95670
Marshall's,Murray,1168,1168 #001168 #0001168 #01168 #1168 0000001168 M1168,132 E Winchester St.,UT,84107
Marshall's,Coral Springs,1169,1169 #001169 #0001169 #01169 #1169 0000001169 M1169,4667 N University Dr.,FL,33067
Marshall's,Myrtle Beach,1170,1170 #001170 #0001170 #01170 #1170 0000001170 M1170,150 Sayebrook Pkwy,SC,29588
Marshall's,Petoskey,1171,1171 #001171 #0001171 #01171 #1171 0000001171 M1171,1596 Anderson Rd.,MI,49770
Marshall's,Mason,1172,1172 #001172 #0001172 #01172 #1172 0000001172 M1172,9558 S Mason Montgomery Rd.,OH,45040
Marshall's,Fort Worth,1174,1174 #001174 #0001174 #01174 #1174 0000001174 M1174,2748 Renaissance Dr,TX,76105
Marshall's,Trexlertown,1175,1175 #001175 #0001175 #01175 #1175 0000001175 M1175,6900 Hamilton Blvd.,PA,18087
Marshall's,Philadelphia,1176,1176 #001176 #0001176 #01176 #1176 0000001176 M1176,1044 Market Street,PA,19107
Marshall's,Massillon,1177,1177 #001177 #0001177 #01177 #1177 0000001177 M1177,99 Massillon Marketplace,OH,44646
Marshall's,Las Vegas,1178,1178 #001178 #0001178 #01178 #1178 0000001178 M1178,3785 Las Vegas Blvd,NV,89109
Marshall's,Golden (Lakewood),1179,1179 #001179 #0001179 #01179 #1179 0000001179 M1179,14391 W Colfax Ave,CO,80401
Marshall's,Lompoc,1180,1180 #001180 #0001180 #01180 #1180 0000001180 M1180,701 North H Street,CA,93436
Marshall's,Bradenton,1181,1181 #001181 #0001181 #01181 #1181 0000001181 M1181,7224 Cortez Road,FL,34210
Marshall's,Wichita,1182,1182 #001182 #0001182 #01182 #1182 0000001182 M1182,2441 N Maize Rd Ste 401,KS,67205
Marshall's,Cincinnati (Colerain),1183,1183 #001183 #0001183 #01183 #1183 0000001183 M1183,9653 Colerain Ave,OH,45251
Marshall's,Bayamon,1184,1184 #001184 #0001184 #01184 #1184 0000001184 M1184,"PR #167, KM 18.8",PR,956
Marshall's,Aguadilla,1185,1185 #001185 #0001185 #01185 #1185 0000001185 M1185,Carr# 2 Int PR459,PR,603
Marshall's,Gig Harbor,1186,1186 #001186 #0001186 #01186 #1186 0000001186 M1186,4601 Pt Fosdick Dr NW,WA,98335
Marshall's,Glenolden (Holmes),1188,1188 #001188 #0001188 #01188 #1188 0000001188 M1188,515 S MacDade Blvd,PA,19043
Marshall's,Brooklyn,1189,1189 #001189 #0001189 #01189 #1189 0000001189 M1189,1623 Avenue Y,NY,11235
Marshall's,Boston,1190,1190 #001190 #0001190 #01190 #1190 0000001190 M1190,126 Brookline Ave.,MA,2215
Marshall's,Madera,1191,1191 #001191 #0001191 #01191 #1191 0000001191 M1191,2060 W Cleveland Ste 100,CA,93637
Marshall's,Pensacola,1192,1192 #001192 #0001192 #01192 #1192 0000001192 M1192,1650 Airport Blvd Ste 300,FL,32504
Marshall's,Placentia,1193,1193 #001193 #0001193 #01193 #1193 0000001193 M1193,130 E Yorba Linda Blvd.,CA,92870
Marshall's,Winston-Salem,1194,1194 #001194 #0001194 #01194 #1194 0000001194 M1194,320 E Hanes Mill Rd,NC,27105
Marshall's,Rogers,1195,1195 #001195 #0001195 #01195 #1195 0000001195 M1195,202 S Promenade,AR,72756
Marshall's,Easley,1196,1196 #001196 #0001196 #01196 #1196 0000001196 M1196,119 Rolling Hills Cir,SC,29640
Marshall's,Hialeah,1197,1197 #001197 #0001197 #01197 #1197 0000001197 M1197,Flamingo Plaza,FL,33010
Marshall's,Orlando,1198,1198 #001198 #0001198 #01198 #1198 0000001198 M1198,5975 S Goldenrod Rd,FL,32822
Marshall's,Westford,1199,1199 #001199 #0001199 #01199 #1199 0000001199 M1199,11 Cornerstone Square,MA,1886
Marshall's,Baltimore,1200,1200 #001200 #0001200 #01200 #1200 0000001200 M1200,600 E Pratt St,MD,21202
Marshall's,Roseburg,1201,1201 #001201 #0001201 #01201 #1201 0000001201 M1201,Roseburg Valley Mall,OR,97471
Marshall's,Riverview,1202,1202 #001202 #0001202 #01202 #1202 0000001202 M1202,13120 US Hwy 301 Ste 101.,FL,33578
Marshall's,Athens,1203,1203 #001203 #0001203 #01203 #1203 0000001203 M1203,1791 Oconee Conn B320,GA,30606
Marshall's,Bay City,1204,1204 #001204 #0001204 #01204 #1204 0000001204 M1204,"4101 E Wilder Road, Suite F625",MI,48706
Marshall's,Asheboro,1206,1206 #001206 #0001206 #01206 #1206 0000001206 M1206,1418 E Dixie Dr,NC,27203
Marshall's,College Park,1207,1207 #001207 #0001207 #01207 #1207 0000001207 M1207,6385 Old National Hwy,GA,30349
Marshall's,Cabot,1209,1209 #001209 #0001209 #01209 #1209 0000001209 M1209,204 S Rockwood,AR,72023
Marshall's,Des Moines,1210,1210 #001210 #0001210 #01210 #1210 0000001210 M1210,1111 E Army Post Rd Ste 60,IA,50315
Marshall's,Fort Wayne,1211,1211 #001211 #0001211 #01211 #1211 0000001211 M1211,Jefferson Pointe Shopping Center,IN,46804
Marshall's,Holly Springs,1213,1213 #001213 #0001213 #01213 #1213 0000001213 M1213,120 Grand Hill Pl,NC,27540
Marshall's,Issaquah,1214,1214 #001214 #0001214 #01214 #1214 0000001214 M1214,1460 10th Way NE,WA,98027
Marshall's,Manhattan,1215,1215 #001215 #0001215 #01215 #1215 0000001215 M1215,"1000 Westloop Place, Suite 110",KS,66502
Marshall's,Peoria,1216,1216 #001216 #0001216 #01216 #1216 0000001216 M1216,5201 West War Memorial Dr,IL,61615
Marshall's,Roswell,1218,1218 #001218 #0001218 #01218 #1218 0000001218 M1218,4501 N Main St - 22C,NM,88201
Marshall's,Salina,1219,1219 #001219 #0001219 #01219 #1219 0000001219 M1219,"2450 S 9th St, S2002-B",KS,67401
Marshall's,Santa Ana,1220,1220 #001220 #0001220 #01220 #1220 0000001220 M1220,419 E First St,CA,92701
Marshall's,Juncos,1221,1221 #001221 #0001221 #01221 #1221 0000001221 M1221,Carr Est 30 Int Carr Est 31,PR,777
Marshall's,Glendale,1222,1222 #001222 #0001222 #01222 #1222 0000001222 M1222,100 South Brand Blvd,CA,91205
Marshall's,West Burlington,1223,1223 #001223 #0001223 #01223 #1223 0000001223 M1223,550 South Gear Ave Ste 4260,IA,52655
Marshall's,New Philadelphia,1224,1224 #001224 #0001224 #01224 #1224 0000001224 M1224,400 Mill Ave,OH,44663
Marshall's,Casper,1225,1225 #001225 #0001225 #01225 #1225 0000001225 M1225,601 Newport,WY,82609
Marshall's,Washington,1226,1226 #001226 #0001226 #01226 #1226 0000001226 M1226,"529 14th St, NW",DC,20045
Marshall's,Hoover,1227,1227 #001227 #0001227 #01227 #1227 0000001227 M1227,5583 Grove Blvd,AL,35226
Marshall's,Washington,1228,1228 #001228 #0001228 #01228 #1228 0000001228 M1228,1966 Charlotte's Way,MO,63090
Marshall's,Garfield,1229,1229 #001229 #0001229 #01229 #1229 0000001229 M1229,174 Passaic St,NJ,7026
Marshall's,Shelby,1230,1230 #001230 #0001230 #01230 #1230 0000001230 M1230,2001-53 E Dixon Blvd,NC,28152
Marshall's,Martinsville,1231,1231 #001231 #0001231 #01231 #1231 0000001231 M1231,240 Commonwealth Blvd,VA,24112
Marshall's,Phoenix,1232,1232 #001232 #0001232 #01232 #1232 0000001232 M1232,4729 East Ray Rd,AZ,85044
Marshall's,Fresno,1233,1233 #001233 #0001233 #01233 #1233 0000001233 M1233,6549 Riverside Dr,CA,93722
Marshall's,Lincoln,1234,1234 #001234 #0001234 #01234 #1234 0000001234 M1234,2933 Crescent Dr,NE,68516
Marshall's,Woodhaven,1235,1235 #001235 #0001235 #01235 #1235 0000001235 M1235,19185 West Rd,MI,48183
Marshall's,South Gate,1240,1240 #001240 #0001240 #01240 #1240 0000001240 M1240,4669 Firestone Blvd,CA,90280
Marshall's,New York,1243,1243 #001243 #0001243 #01243 #1243 0000001243 M1243,2182 Broadway,NY,10024
Marshall's,West Fargo,1253,1253 #001253 #0001253 #01253 #1253 0000001253 M1253,1500 13th Ave E,ND,58078
Marshall's,Edgewater,1400,1400 #001400 #0001400 #01400 #1400 0000001400 M1400,477 River Road,NJ,7020
Marshall's,Ossining,1401,1401 #001401 #0001401 #01401 #1401 0000001401 M1401,22 Rockledge Avenue,NY,10562
Marshall's,New Hyde Park,1404,1404 #001404 #0001404 #01404 #1404 0000001404 M1404,1484 Union Turnpike,NY,11042
