keywords,city,Aggdata Store Number,store_number,address,state,zip_code
Meineke,HOUSTON,4,#4 4,5809 SW Freeway,TX,77057-7509
Meineke,HOUSTON,7,#7 7,3025 South Richey,TX,77017-7219
Meineke,HOUSTON,8,#8 8,9939 Long Point,TX,77055-4115
Meineke,HOUSTON,10,#10 10,932 North Shepherd,TX,77008-6527
Meineke,HOUSTON,11,#11 11,5015 Telephone Road,TX,77087-3505
Meineke,HARVEY,16,#16 16,3401 Westbank Expressway,LA,70058-2645
Meineke,Baytown,19,#19 19,1215 Decker Drive,TX,77520-4438
Meineke,AUSTIN,23,#23 23,7941 Burnet Road,TX,78757-8115
Meineke,HOUSTON,24,#24 24,10829 South Post Oak,TX,77035-3101
Meineke,FLORISSANT,26,#26 26,545 North Highway 67,MO,63031-5103
Meineke,SAINT LOUIS,28,#28 28,3722 Lemay Ferry Road,MO,63125-4506
Meineke,SAINT LOUIS,30,#30 30,4426 South Kingshighway,MO,63109-2425
Meineke,HOUSTON,33,#33 33,5820 Kirby Drive,TX,77005-2410
Meineke,LODI,37,#37 37,171 U.S. Highway 46 West,NJ,07644-3603
Meineke,NEW HYDE PARK,39,#39 39,2096 Jericho Turnpike,NY,11040-4729
Meineke,POMPANO BEACH,43,#43 43,3005 North Federal Highway,FL,33064-6851
Meineke,BRICK TOWN,45,#45 45,497 Brick Boulevard,NJ,08723-6055
Meineke,NORTH PLAINFIELD,48,#48 48,714 U.S. Highway 22 East,NJ,7060
Meineke,CHARLOTTE,49,#49 49,1111 Pecan Avenue,NC,28205
Meineke,LEVITTOWN,50,#50 50,3718 Hempstead Turnpike,NY,11756-5601
Meineke,HUNTINGTON STATION,51,#51 51,655 E. Jericho Turnpike,NY,11746-3609
Meineke,CORAM,53,#53 53,258 Middle Country Road,NY,11727
Meineke,Waterbury,54,#54 54,760 Wolcott Street,CT,06705-1314
Meineke,LINDENHURST,56,#56 56,19 West Sunrise Highway,NY,11757-2423
Meineke,RONKONKOMA,59,#59 59,458 Portion Road,NY,11779-4564
Meineke,STAMFORD,60,#60 60,967 East Main Street- U.S. 1,CT,6902
Meineke,LAKE CHARLES,62,#62 62,1503 East Prien Lake Road,LA,70601-8967
Meineke,OAKDALE,63,#63 63,1230 Montauk Highway,NY,11769-1605
Meineke,WEST NEW YORK,67,#67 67,6500 Kennedy Boulevard,NJ,07093-5313
Meineke,SALT LAKE CITY,70,#70 70,3149 South State Street,UT,84115-3822
Meineke,QUEENS VILLAGE,77,#77 77,207-02 Jamaica Avenue,NY,11428-1545
Meineke,ENGLEWOOD,81,#81 81,351 Grand Avenue,NJ,07631-4104
Meineke,MIAMI,86,#86 86,1855 West Flagler Street,FL,33135-1939
Meineke,BALTIMORE,99,#99 99,7604 Harford Road,MD,21234-6402
Meineke,CHARLOTTE,104,#104 104,5238 South Boulevard,NC,28217-2711
Meineke,NEWBURGH,105,#105 105,1295 Route 300,NY,12550
Meineke,ARLINGTON,109,#109 109,22 Massachusetts Avenue,MA,2474
Meineke,RAMSEY,112,#112 112,536 Route 17 North,NJ,7446
Meineke,ELIZABETH,115,#115 115,130 Rahway Avenue,NJ,07202-2011
Meineke,AMARILLO,116,#116 116,3401 South Western,TX,79109-4437
Meineke,MALDEN,119,#119 119,53 Broadway,MA,02148-6001
Meineke,Orange,120,#120 120,404 Boston Post Road,CT,06477-3515
Meineke,MILFORD,121,#121 121,70 Bridgeport Avenue-Route 1,CT,6460
Meineke,New Haven,122,#122 122,1175 Whalley Avenue,CT,06515-1758
Meineke,MOUNT KISCO,123,#123 123,789 North Bedford Road,NY,10549-1107
Meineke,Muncie,124,#124 124,1303 West McGalliard Road,IN,47303-2132
Meineke,DANBURY,125,#125 125,1 Main Street,CT,06810-8011
Meineke,Webster,126,#126 126,414 NASA Parkway,TX,77598
Meineke,Middletown,129,#129 129,1320 Elliott Drive,OH,45044
Meineke,PATCHOGUE,131,#131 131,536 Medford Avenue,NY,11772-1321
Meineke,CINCINNATI,132,#132 132,7530 Colerain,OH,45239-5310
Meineke,TRENTON,135,#135 135,1745 North Olden Avenue,NJ,08638-3101
Meineke,FREEHOLD,137,#137 137,3411 Route 9,NJ,7728
Meineke,Meriden,140,#140 140,392 West Main Street,CT,06451-3802
Meineke,YONKERS,145,#145 145,597 Central Park Avenue,NY,10704
Meineke,Torrington,146,#146 146,621 Winsted Road,CT,06790-2934
Meineke,EDISON,148,#148 148,1836 Route 27-Lincoln Highway,NJ,8817
Meineke,FERGUSON,153,#153 153,402 South Florissant Road,MO,63135-2948
Meineke,SAINT CHARLES,154,#154 154,2315 West Clay St.,MO,63301
Meineke,COLUMBUS,155,#155 155,910 Veterans Parkway,GA,31901-2821
Meineke,DOVER,156,#156 156,235 EAST MCFARLAN ST,NJ,07801-3649
Meineke,DARBY,157,#157 157,195 MacDade Boulevard,PA,19023-1812
Meineke,PORT JEFFERSON STATION,158,#158 158,203 Route 112,NY,11776-1002
Meineke,Conroe,160,#160 160,215 North Frazier,TX,77301-2828
Meineke,ATLANTA,161,#161 161,5364 Buford Highway,GA,30340-1108
Meineke,PLEASANTVILLE,162,#162 162,200 North Main Street,NJ,08232-2118
Meineke,BRONX,164,#164 164,4054 Boston Road,NY,10475-1109
Meineke,WEST HARTFORD,165,#165 165,1012 New Britain Ave.,CT,6110
Meineke,WALDORF,169,#169 169,11770 Holly Auto Center Lane,MD,20601-2813
Meineke,ATLANTA,171,#171 171,1145 Hemphill Avenue Northwest,GA,30318-5442
Meineke,BERLIN,174,#174 174,19 South White Horse Pike,NJ,08009-2323
Meineke,MCKEESPORT,176,#176 176,4236 Walnut Street,PA,15132-7330
Meineke,NEW LONDON,178,#178 178,665 Broad Street,CT,6320
Meineke,CHERRY HILL,179,#179 179,912 Haddonfield Road,NJ,08002-2204
Meineke,MASTIC,180,#180 180,1030 Montauk Highway,NY,11950-2900
Meineke,SOUTH HOLLAND,182,#182 182,35 East 162nd Street,IL,60473-2106
Meineke,BROOKLYN,186,#186 186,8914 Church Avenue,NY,11236-1005
Meineke,BOSSIER CITY,187,#187 187,1616 Jimmie Davis Highway,LA,71112
Meineke,GREENSBORO,188,#188 188,4513 West Market Street,NC,27407-1229
Meineke,ROCKFORD,191,#191 191,905 West Riverside Boulevard,IL,61103-2146
Meineke,BROOKLYN,194,#194 194,645 4th Avenue,NY,11232-1002
Meineke,Brentwood,195,#195 195,9100 Manchester Road,MO,63144-2626
Meineke,MADISON,196,#196 196,1106 North Gallatin Pike,TN,37115
Meineke,VIRGINIA BEACH,197,#197 197,6399 Indian River Road,VA,23464-3500
Meineke,AURORA,201,#201 201,1301 North Lake Street,IL,60506-2454
Meineke,ROSENBERG,202,#202 202,4030 Avenue H,TX,77471-2810
Meineke,AUDUBON,205,#205 205,504 Black Horse Pike,NJ,08059-1811
Meineke,PHILADELPHIA,207,#207 207,7600 Ridge Avenue,PA,19128-3138
Meineke,HOUSTON,210,#210 210,11614 Jones Road,TX,77070-5904
Meineke,SOUTH TOMS RIVER,214,#214 214,350 State Highway 166,NJ,8757
Meineke,WEST CALDWELL,217,#217 217,1071 Bloomfield Avenue,NJ,07006-7103
Meineke,DOWNERS GROVE,225,#225 225,815 Ogden Avenue,IL,60515-2937
Meineke,CHICAGO,226,#226 226,10716 South Western Avenue,IL,60643-3136
Meineke,BRISTOL,227,#227 227,555 Route 13,PA,19007
Meineke,Middletown,228,#228 228,87 Dolson Avenue,NY,10940
Meineke,SPARKS,229,#229 229,1930 Prater Way,NV,89431-4707
Meineke,READING,231,#231 231,117 Main Street-Route 28,MA,1867
Meineke,PITTSBURGH,232,#232 232,3265 Babcock Boulevard,PA,15237-2840
Meineke,PEEKSKILL,236,#236 236,1519 Main Street,NY,10566-3114
Meineke,NEWARK,239,#239 239,655 McCarter Highway,NJ,7102
Meineke,MECHANICSBURG,240,#240 240,6510 Carlisle Pike,PA,17050
Meineke,PORTLAND,243,#243 243,1155 Forest Avenue,ME,04103-3325
Meineke,STATEN ISLAND,245,#245 245,2097 Forest Avenue,NY,10303-1735
Meineke,GLEN BURNIE,246,#246 246,7344 Governor Ritchie Highway,MD,21061
Meineke,SOUTH PLAINFIELD,249,#249 249,3251 Hamilton Boulevard,NJ,07080-1203
Meineke,SAVANNAH,250,#250 250,2065 East Victory Drive,GA,31404-3716
Meineke,CATONSVILLE,251,#251 251,5520 Baltimore Nat'L PIKE RT40,MD,21228
Meineke,WORCESTER,257,#257 257,661 Park Avenue,MA,01603-2034
Meineke,RIVERHEAD,258,#258 258,937 Old Country Road,NY,11901-2106
Meineke,NAPERVILLE,259,#259 259,1032 East Ogden Avenue,IL,60563-2839
Meineke,OAK LAWN,261,#261 261,9740 Southwest Hwy.,IL,60453-2355
Meineke,COLLINSVILLE,262,#262 262,411 Belt Line Road,IL,62234-4407
Meineke,Easton,263,#263 263,1634 Northampton Street,PA,18042-3161
Meineke,ALTON,264,#264 264,2701 Washington Avenue,IL,62002-5469
Meineke,SCHAUMBURG,265,#265 265,811A West Higgins Road,IL,60195-3201
Meineke,JOLIET,266,#266 266,311 South Larkin,IL,60436-1249
Meineke,ARVADA,267,#267 267,6350-C North Sheridan Blvd.,CO,80003-6602
Meineke,KENWOOD,269,#269 269,7784 Montgomery Road,OH,45236-4202
Meineke,PORTLAND,272,#272 272,3635 SE 82nd Ave,OR,97266
Meineke,FAIRFAX,274,#274 274,9881 Fairfax Boulevard,VA,22030-1738
Meineke,BALLWIN,279,#279 279,14935 Manchester Road,MO,63011-4624
Meineke,WILMINGTON,282,#282 282,3805 Market Street,NC,28403-1401
Meineke,PHILADELPHIA,287,#287 287,6140 Frankford Avenue,PA,19135-4409
Meineke,MANCHESTER,288,#288 288,533 Elm Street,NH,3101
Meineke,Brockton,290,#290 290,609 Oak Street,MA,02301-1345
Meineke,ROCKFORD,291,#291 291,1502 South Alpine Road,IL,61108-6246
Meineke,SMYRNA,292,#292 292,4000 Atlanta Road,GA,30080-1137
Meineke,ADDISON,293,#293 293,716 West Lake Street,IL,60101-2005
Meineke,EATONTOWN,294,#294 294,14 Broad Street,NJ,07724-1553
Meineke,SAINT LOUIS,295,#295 295,3900 N Kings Hwy Blvd,MO,63115-1716
Meineke,NEW ROCHELLE,296,#296 296,640 North Avenue,NY,10801-5715
Meineke,COCKEYSVILLE,298,#298 298,9918 York Road,MD,21030-3401
Meineke,FAYETTEVILLE,300,#300 300,3412 Raeford Road,NC,28303-5323
Meineke,ARLINGTON HEIGHTS,301,#301 301,400 West Northwest Highway,IL,60004-5412
Meineke,FAIRLESS HILLS,302,#302 302,125 Route 1 (Lincoln Highway),PA,19030-1007
Meineke,BROOKLYN,303,#303 303,1741 Coney Island Avenue,NY,11230-6501
Meineke,MARIETTA,304,#304 304,3020 Canton Road Ste. 1,GA,30066
Meineke,EVANSTON,306,#306 306,1975 Green Bay Road,IL,60201-3534
Meineke,MOUNTAINSIDE,309,#309 309,1149 U.S. Highway 22 East,NJ,07092-2808
Meineke,BELLEVILLE,310,#310 310,2307 Old Collinsville Road,IL,62221-7480
Meineke,VIRGINIA BEACH,312,#312 312,1837 Laskin Road,VA,23454-4504
Meineke,POUGHKEEPSIE,314,#314 314,801 Main Street,NY,12603-1826
Meineke,Branford,316,#316 316,471 West Main St.,CT,06405-3413
Meineke,MASPETH,317,#317 317,60-17 ELIOT AVE,NY,11378-3545
Meineke,SPRING,318,#318 318,24707 Oakhurst,TX,77386-1952
Meineke,CINCINNATI,325,#325 325,7760 Reading Road,OH,45237-2141
Meineke,LEDGEWOOD,327,#327 327,1365 Route 46,NJ,7852
Meineke,NORRISTOWN,331,#331 331,1036 West Germantown Pike,PA,19403-3906
Meineke,PLAISTOW,332,#332 332,13 Plaistow Road - Route 125,NH,3865
Meineke,SMITHTOWN,334,#334 334,743 Route 347,NY,11787-5128
Meineke,COLUMBUS,337,#337 337,2740 Old Courtright Road,OH,43232
Meineke,Middletown,338,#338 338,512 Washington Street,CT,06457-2513
Meineke,WILLOUGHBY,339,#339 339,36705 Euclid Avenue,OH,44094-4451
Meineke,PHILADELPHIA,340,#340 340,2401-05 Vare Avenue,PA,19145
Meineke,BOCA RATON,341,#341 341,90 Northwest Spanish River Boulevard,FL,33431-4214
Meineke,CHARLOTTESVILLE,342,#342 342,1906 Emmet Street,VA,22901-2815
Meineke,ROSLINDALE,343,#343 343,749 Hyde Park Avenue,MA,02131-4736
Meineke,Bristol,346,#346 346,1114 Farmington Avenue,CT,06010-4752
Meineke,PEABODY,347,#347 347,241 Newbury Street-Rt 1 North,MA,01960-1315
Meineke,LONGWOOD,348,#348 348,321 North Highway 17-92,FL,32750
Meineke,ANNAPOLIS,352,#352 352,2359 Solomons Island Road,MD,21401
Meineke,BUTLER,353,#353 353,1574F - Route 23,NJ,7405
Meineke,ROCKY MOUNT,354,#354 354,973 North Wesleyan Boulevard,NC,27804-1786
Meineke,MADISON,355,#355 355,1826 S. Stoughton Road,WI,53716
Meineke,SPRINGFIELD,356,#356 356,1401 South 6th Street,IL,62703-2501
Meineke,AURORA,359,#359 359,18771 East Hampden Avenue,CO,80013-3557
Meineke,AUBURN,360,#360 360,199 Court Street,ME,04210-5909
Meineke,SALEM,365,#365 365,462 Highland Avenue,MA,1970
Meineke,WAYNE,366,#366 366,704 West Lancaster Avenue,PA,19087
Meineke,PHILADELPHIA,367,#367 367,7825 Ogontz Avenue,PA,19150-1407
Meineke,SAN ANTONIO,369,#369 369,11307 Perrin-Beitel,TX,78217-2535
Meineke,MARLTON,373,#373 373,400 State Highway # 70,NJ,8053
Meineke,RALEIGH,374,#374 374,3908 Western Boulevard,NC,27606-1937
Meineke,BRIDGETON,376,#376 376,11831 St. Charles Rock Road,MO,63044-2611
Meineke,BENSALEM,380,#380 380,1835 Street Road,PA,19020-4351
Meineke,KINGSTON,381,#381 381,716 Ulster Avenue,NY,12401-1710
Meineke,DERRY,384,#384 384,7 Crystal Avenue,NH,03038-2415
Meineke,FERGUSON,392,#392 392,10617 New Halls Ferry Road,MO,63136-4428
Meineke,BALTIMORE,394,#394 394,800 West Patapsco Avenue,MD,21230-3413
Meineke,OMAHA,395,#395 395,3322 Leavenworth,NE,68105-1916
Meineke,CASPER,396,#396 396,2155 Cy Avenue,WY,82604-3424
Meineke,BEVERLY,398,#398 398,119 Rantoul Street,MA,01915-4239
Meineke,WYOMING,400,#400 400,2139 28th Street Southwest,MI,49509-2383
Meineke,ARNOLD,407,#407 407,4021 West Outer Road,MO,63010
Meineke,COLORADO SPRINGS,413,#413 413,225 South Limit Street,CO,80904-1427
Meineke,VINELAND,414,#414 414,1261 N. Delsea Drive,NJ,8360
Meineke,NORTHBROOK,415,#415 415,3402 Milwaukee Avenue,IL,60062-7128
Meineke,FAIRVIEW HEIGHTS,418,#418 418,10712 Lincoln Trail,IL,62208-2008
Meineke,JACKSONVILLE,419,#419 419,1319 Country Club Road,NC,28546-6026
Meineke,LOWELL,425,#425 425,948 Gorham Street,MA,1852
Meineke,FISHKILL,426,#426 426,1084 Route 9,NY,12524-2500
Meineke,OGLETOWN,428,#428 428,750 Chestnut Hill Road,DE,19713
Meineke,NEDERLAND,430,#430 430,1815 Nederland Avenue,TX,77627-5130
Meineke,SILVER SPRING,435,#435 435,8220 Georgia Avenue,MD,20910-4519
Meineke,Groton,437,#437 437,266 Bridge Street,CT,06340-3739
Meineke,Ansonia,440,#440 440,472 Main Street,CT,06401-2307
Meineke,Springfield,446,#446 446,201 E Sunshine Street,MO,65807
Meineke,Cedar Rapids,451,#451 451,5261 Council Street NE,IA,52402
Meineke,CEDAR GROVE,453,#453 453,270 State Highway 23,NJ,7009
Meineke,COLORADO SPRINGS,455,#455 455,6650 North Academy Boulevard,CO,80918-1205
Meineke,NORTH ARLINGTON,456,#456 456,316 River Road,NJ,7031
Meineke,DISTRICT HEIGHTS,463,#463 463,6200 Marlboro Pike,MD,20747-2802
Meineke,BROOKLYN,468,#468 468,1029 Atlantic Avenue,NY,11238-2902
Meineke,O FALLON,469,#469 469,715 Highway K,MO,63366-2969
Meineke,STERLING,472,#472 472,"23035 Douglas Court, Unit #132",VA,20166-9451
Meineke,Hightstown,474,#474 474,530 U. S. Highway 130,NJ,08520-2625
Meineke,Old Saybrook,476,#476 476,820 Boston Post Road,CT,06475-2129
Meineke,SAN ANTONIO,477,#477 477,7081 Bandera Road,TX,78238-1266
Meineke,HOWELL,479,#479 479,6811 Route 9,NJ,7731
Meineke,ROCHESTER,482,#482 482,1897 Brighton Henrietta T.L. Road,NY,14623-2509
Meineke,AUSTIN,483,#483 483,12732 Research Boulevard,TX,78759-4324
Meineke,PEORIA,488,#488 488,3915 Southwest Adams,IL,61605-3162
Meineke,KATY,490,#490 490,"1270 Rock Canyon Dr, Suite G (Mason Road)",TX,77450-3870
Meineke,Gloucester,491,#491 491,168 Eastern Avenue,MA,01930-1808
Meineke,WESTMONT,493,#493 493,6135 South Cass Avenue,IL,60559-2612
Meineke,HARRISBURG,495,#495 495,4509 Jonestown Road,PA,17109-6213
Meineke,DECATUR,505,#505 505,3861 North Druid Hills Rd,GA,30033-3001
Meineke,FOREST PARK,509,#509 509,4330 Jonesboro Road,GA,30297
Meineke,HAWTHORNE,511,#511 511,184 Goffle Road,NJ,07506-3605
Meineke,MONROEVILLE,512,#512 512,2667 Monroeville Boulevard,PA,15146-2301
Meineke,Peoria,515,#515 515,3722 North Prospect Road,IL,61614
Meineke,ROCKY POINT,517,#517 517,759 Route 25A,NY,11778-8897
Meineke,EAU CLAIRE,518,#518 518,3407 East Hamilton Avenue,WI,54701-6856
Meineke,AMHERST,520,#520 520,3955 Harlem Road,NY,14226-4705
Meineke,NEWARK,524,#524 524,245 Elizabeth Avenue,NJ,07108-2706
Meineke,LAKE OSWEGO,526,#526 526,17705 Lower Boones Ferry Rd,OR,97035-5225
Meineke,LUMBERTON,528,#528 528,1639 ROUTE 38 WEST,NJ,8048
Meineke,ALLENTOWN,529,#529 529,1744 South 4th Street,PA,18103-4924
Meineke,BETHLEHEM,530,#530 530,1517 Stefko Boulevard,PA,18017-6228
Meineke,Inwood,531,#531 531,293 Lawrence Avenue,NY,11096
Meineke,SALEM,533,#533 533,323 South Broadway,NH,03079-4522
Meineke,MEMPHIS,535,#535 535,2666 Lamar Avenue,TN,38114-4351
Meineke,Enfield,536,#536 536,66 Enfield Street,CT,06082-1910
Meineke,WOODBURY,538,#538 538,548 Mantua Avenue,NJ,08096-3214
Meineke,PHILADELPHIA,539,#539 539,4846 Spruce Street,PA,19139-4225
Meineke,PORTSMOUTH,544,#544 544,2490 Airline Boulevard,VA,23701-2912
Meineke,OSSINING,545,#545 545,157 S Highland Ave RT 9,NY,10562
Meineke,TAYLORSVILLE,549,#549 549,3712 West 5400 South,UT,84118-3574
Meineke,GLASSBORO,550,#550 550,368 North Delsea Drive,NJ,8028
Meineke,New Britain,553,#553 553,46 Washington Street,CT,06051-2210
Meineke,CHESTERFIELD,554,#554 554,11711 Hull Street Road,VA,23112-2901
Meineke,DOWNINGTOWN,555,#555 555,4209 W. Lancaster Avenue,PA,19335
Meineke,MADISON HEIGHTS,556,#556 556,4998 South Amherst Highway,VA,24572
Meineke,GRANITE CITY,557,#557 557,2250 Madison Avenue,IL,62040-4705
Meineke,MOUNT PROSPECT,558,#558 558,2094 South Elmhurst Road,IL,60056-5713
Meineke,CINNAMINSON,563,#563 563,201 U. S. Highway 130 South,NJ,8077
Meineke,PHILADELPHIA,564,#564 564,645 North Broad Street,PA,19123-2417
Meineke,Wilmington,569,#569 569,1512 Kirkwood Highway,DE,19805-4916
Meineke,STATEN ISLAND,571,#571 571,1162 Rossville Avenue,NY,10309-1225
Meineke,GLOUCESTER,575,#575 575,2998 George Washington Mem Hwy,VA,23072-1047
Meineke,CHICOPEE,576,#576 576,1633 Memorial Drive,MA,01020-3132
Meineke,HENDERSONVILLE,577,#577 577,820 Spartanburg Hwy.-Route 176,NC,28739
Meineke,WESTCHESTER,581,#581 581,10139 Roosevelt Road,IL,60154-2643
Meineke,PITTSBURGH,582,#582 582,6902 5th Avenue,PA,15208-1707
Meineke,HAMPTON,584,#584 584,79 West Mercury Boulevard,VA,23669-2508
Meineke,RENO,586,#586 586,2825 Kietzke Lane,NV,89502-4353
Meineke,PALOS HEIGHTS,588,#588 588,13400 South Ridgeland,IL,60463
Meineke,EAST SAINT LOUIS,591,#591 591,702 Martin Luther King Dr,IL,62201-2907
Meineke,SOUTH ATTLEBORO,592,#592 592,375 Washington Street,MA,02703-5916
Meineke,PEARLAND,593,#593 593,2339 North Austin Street,TX,77581-4003
Meineke,PERRINE,594,#594 594,20033 South Dixie Highway,FL,33189-5527
Meineke,GREENWOOD,599,#599 599,1283 U. S. Route 31 North,IN,46142
Meineke,DOVER,607,#607 607,1312 South Dupont Highway,DE,19901-4404
Meineke,PINEVILLE,608,#608 608,10515-A Centrum Parkway,NC,28134-8814
Meineke,NORTH HUNTINGDON,610,#610 610,12780 Route 30,PA,15642-1324
Meineke,OMAHA,611,#611 611,14235 \,NE,68137
Meineke,OMAHA,622,#622 622,4839 North 90th Street,NE,68134-2704
Meineke,LONGMONT,624,#624 624,1940 N. Main Street,CO,80501-1914
Meineke,INDIANAPOLIS,625,#625 625,4101 North Keystone Avenue,IN,46205-2842
Meineke,FAYETTEVILLE,628,#628 628,6017 Yadkin Road,NC,28303-2652
Meineke,MILWAUKEE,638,#638 638,5801 West Blue Mound Road,WI,53213-4225
Meineke,BLOOMINGTON,639,#639 639,1800 South Walnut Street,IN,47401-7719
Meineke,DENVER,642,#642 642,1658 South Broadway,CO,80210
Meineke,DUBUQUE,645,#645 645,2195 Central Avenue,IA,52001-3504
Meineke,ROSWELL,646,#646 646,11220 Alpharetta Highway,GA,30076
Meineke,STATESBORO,648,#648 648,219 South Main Street,GA,30458-5127
Meineke,ELDERSBURG,670,#670 670,1233 Liberty Road-Route 26,MD,21784
Meineke,CLAYMONT,671,#671 671,3005 Philadelphia Pike,DE,19703-2524
Meineke,CARTERSVILLE,675,#675 675,701 Joe Frank Harris Parkway,GA,30120-2313
Meineke,EAST WAREHAM,682,#682 682,3125 Cranberry Hwy Rt 28,MA,2538
Meineke,AMHERST,689,#689 689,88 Route 101A,NH,3031
Meineke,Stroudsburg,691,#691 691,7400 Route 611,PA,18360-8209
Meineke,Naugatuck,695,#695 695,144 Rubber Avenue,CT,06770-3951
Meineke,TURNERSVILLE,696,#696 696,5281 Route 42,NJ,08012-1701
Meineke,REDWOOD CITY,699,#699 699,3041 Middlefield Road,CA,94063-3764
Meineke,COLONIAL HEIGHTS,702,#702 702,712 Boulevard,VA,23834-3237
Meineke,INDIANAPOLIS,704,#704 704,3702 West 86th Street,IN,46268-1903
Meineke,CARBONDALE,706,#706 706,308 East Main Street,IL,62901-3010
Meineke,HERSHEY,712,#712 712,1401 East Chocolate Avenue,PA,17033-1165
Meineke,PITTSBURGH,716,#716 716,66 Camp Horne Road,PA,15202-1601
Meineke,CHARLOTTE,717,#717 717,5300 North Tryon Street,NC,28213-7042
Meineke,WINSTON SALEM,718,#718 718,1055 Salisbury Ridge Road,NC,27127-3827
Meineke,HAPPY VALLEY,720,#720 720,10717 Southeast 82nd Avenue,OR,97086
Meineke,JERSEY CITY,726,#726 726,700 Tonnele Ave,NJ,7307
Meineke,MERRIMACK,727,#727 727,227 Daniel Webster Highway,NH,03054-4807
Meineke,GASTONIA,730,#730 730,330 East Garrison Boulevard,NC,02805-4418
Meineke,SEABROOK,731,#731 731,248 Lafayette Road-Route 1,NH,03874-4510
Meineke,McLean,732,#732 732,1524 Spring Hill Road,VA,22102-3005
Meineke,CHESTER,733,#733 733,2217 Edgemont Avenue,PA,19013-5129
Meineke,ENGLEWOOD,739,#739 739,5101 South Broadway,CO,80110-6705
Meineke,KILLEEN,742,#742 742,1305 West Central Texas Expressway,TX,76541-7455
Meineke,TEWKSBURY,743,#743 743,663 Main Street- Route 38,MA,01876-1842
Meineke,NEWTOWN SQUARE,745,#745 745,3105 West Chester Pike,PA,19073-4329
Meineke,GREENSBURG,754,#754 754,5181 Route 30,PA,15601-3505
Meineke,WINSTON SALEM,756,#756 756,5581 University Parkway,NC,27105-1342
Meineke,BRIDGEPORT,758,#758 758,422 Main Street - Route 40,OH,43912
Meineke,EDISON,762,#762 762,3141 Woodbridge Avenue,NJ,08837-3226
Meineke,CLINTON,763,#763 763,6311-D Coventry Way,MD,20735
Meineke,CASTLE SHANNON,765,#765 765,3655 Library Road,PA,15234-2230
Meineke,FREDERICKSBURG,766,#766 766,3401A Spotsylvania Mall Dr,VA,22407-1103
Meineke,SOUTHAMPTON,768,#768 768,75 County Road 39,NY,11968
Meineke,URBANA,773,#773 773,712 North Cunningham Avenue,IL,61801-1724
Meineke,GERMANTOWN,781,#781 781,19600 North Frederick Road,MD,20876-1304
Meineke,DENVER,782,#782 782,7637 East Iliff Avenue,CO,80231-5315
Meineke,PHILLIPSBURG,787,#787 787,967 Rt U S 22 Memorial Pkwy,NJ,8865
Meineke,BIDDEFORD,788,#788 788,404 Elm Street,ME,04005-4116
Meineke,FENTON,790,#790 790,1074 Gravois Road,MO,63026-5009
Meineke,FOREST PARK,791,#791 791,606 Northland Blvd Tri-County,OH,45240
Meineke,DOVER,794,#794 794,899 Central Avenue,NH,3820
Meineke,SEATTLE,798,#798 798,8401 Aurora Avenue North,WA,98103-4357
Meineke,NORMAL,801,#801 801,1500 East Vernon Avenue,IL,61761-4000
Meineke,DORCHESTER,808,#808 808,1232 Dorchester Avenue,MA,02125-1504
Meineke,GREENFIELD,812,#812 812,440 Bernardston Road,MA,1301
Meineke,ELLICOTT CITY,814,#814 814,3425 North Chatham Road,MD,21042-3905
Meineke,SUMTER,820,#820 820,341 Broad Street,SC,29150-4152
Meineke,MILFORD,822,#822 822,20 Beaver Street,MA,01757-2804
Meineke,COLUMBIA,824,#824 824,9225 Berger Road,MD,21046-1672
Meineke,QUEENSBURY,827,#827 827,78 Quaker Road,NY,12804-1709
Meineke,LANCASTER,828,#828 828,1220 Manheim Pike,PA,17601-3122
Meineke,KENOSHA,832,#832 832,6702 39th Avenue,WI,53142
Meineke,ABINGTON,836,#836 836,271 Washington St.-Route 18,MA,2351
Meineke,WOONSOCKET,840,#840 840,240 South Main Street,RI,02895-4258
Meineke,MONROE,841,#841 841,1850 W. Roosevelt Blvd.-Hwy.74,NC,28110
Meineke,AURORA,847,#847 847,15405 East 6th Avenue,CO,80011-9005
Meineke,HARMAR TOWNSHIP,849,#849 849,2200 Freeport Road,PA,15238-1404
Meineke,DECATUR,850,#850 850,4062 Glenwood Road,GA,30032-4716
Meineke,GRAFTON,851,#851 851,4609 George Wash'tn Mem Hwy,VA,23692-2766
Meineke,CALIFORNIA,858,#858 858,45440 Miramar Way,MD,20619-3108
Meineke,SHREWSBURY,865,#865 865,507 Boston Turnpike-Route 9,MA,01545-5969
Meineke,NORWOOD,866,#866 866,1150 Providence Highway,MA,02062-5018
Meineke,DES PLAINES,871,#871 871,9401 Golf Road,IL,60016-2471
Meineke,BOULDER,873,#873 873,2163 28th Street,CO,80301-1108
Meineke,COLLEGE PARK,879,#879 879,8900 Old Rhode Island Avenue,MD,20740-4122
Meineke,ROANOKE,880,#880 880,5026 Melrose Avenue,VA,24017-2340
Meineke,BOURBONNAIS,884,#884 884,594 William Latham Drive,IL,60914-2320
Meineke,Quincy,886,#886 886,662 Southern Artery,MA,2169
Meineke,HUDSON,889,#889 889,5 PELHAM RD.,NH,03051-4831
Meineke,SOUTH FT. MYERS,890,#890 890,16373 S.Tamiami Trail-U.S. 41,FL,33908
Meineke,HARRISBURG,892,#892 892,3098 Paxton Street,PA,17111-1327
Meineke,MAPLEWOOD,897,#897 897,1990 East County Road D,MN,55109
Meineke,WEST MELBOURNE,904,#904 904,265 South Wickham Road,FL,32904-1133
Meineke,DOYLESTOWN,905,#905 905,815 North Easton Road,PA,18902
Meineke,INDIANAPOLIS,913,#913 913,3150 South Madison Avenue,IN,46227-1126
Meineke,Norwich,917,#917 917,74 West Thames St.- Route 32,CT,06360-2206
Meineke,PHILADELPHIA,921,#921 921,9909 North East Ave.,PA,19115
Meineke,WINCHESTER,928,#928 928,972 Main Street,MA,01890-1929
Meineke,HIGHLANDS RANCH,931,#931 931,5801 East County Line Place,CO,80126-1920
Meineke,SANTA ROSA,933,#933 933,1355 Santa Rosa Avenue,CA,95404-5424
Meineke,TIGARD,935,#935 935,13707 South West Pacific Highway - Suite 100,OR,97233
Meineke,WILLIAMSBURG,938,#938 938,399 Second Street,VA,23185
Meineke,INDIANAPOLIS,940,#940 940,8410 East Washington Street,IN,46219-6820
Meineke,GAITHERSBURG,943,#943 943,8027-F Snouffer School Road,MD,20879
Meineke,CASTLETON,944,#944 944,6401 East 82nd Street,IN,46250-1501
Meineke,NEW CASTLE,949,#949 949,120 North Dupont Highway,DE,19720-3102
Meineke,DUMFRIES,950,#950 950,17422 Jefferson Davis Highway,VA,22026-2200
Meineke,WORCESTER,951,#951 951,532 West Boylston Street,MA,01606-2027
Meineke,WALLINGFORD,966,#966 966,1192 North Colony Road,CT,6492
Meineke,MORGANTOWN,969,#969 969,225 Don Knotts Boulevard,WV,26505-6737
Meineke,BAKERSFIELD,975,#975 975,6541 White Lane- Suite M,CA,93309-7793
Meineke,SALISBURY,977,#977 977,1822 North Salisbury Boulevard,MD,21801-3333
Meineke,ANDERSON,980,#980 980,2726 Scatterfield Road,IN,46016
Meineke,TOPSHAM,990,#990 990,6 Topsham Fair Mall Road,ME,4086
Meineke,BEAVERTON,991,#991 991,13203 S.W. Canyon Road,OR,97005-2002
Meineke,RICHMOND,998,#998 998,5216 West Broad Street,VA,23230-3010
Meineke,MATTHEWS,1000,#1000 1000,15054 Idlewild Road,NC,28104
Meineke,Manchester,1008,#1008 1008,290-A Broad Street,CT,06040-4034
Meineke,SNELLVILLE,1012,#1012 1012,3861 Stone Mountain Highway,GA,30039
Meineke,FAIRFIELD,1013,#1013 1013,94 Kings Highway East,CT,06825-4824
Meineke,WHITEHALL,1019,#1019 1019,2717 MacArthur Road,PA,18052-3632
Meineke,HAMMOND,1021,#1021 1021,915 North Morrison Blvd,LA,70401-2947
Meineke,WHITE PLAINS,1024,#1024 1024,166 South Fulton Avenue,NY,10606
Meineke,BELLEVUE,1050,#1050 1050,2211 Harvell Plaza,NE,68005-2985
Meineke,Lynnwood,1052,#1052 1052,14920 Highway 99,WA,98087
Meineke,EXTON,1062,#1062 1062,280 West Lincoln Highway,PA,19341-2623
Meineke,WALTHAM,1064,#1064 1064,19 Music Hall Lane,MA,02453-8304
Meineke,REYNOLDSBURG,1065,#1065 1065,5970 Scarborough Boulevard,OH,43232-4747
Meineke,JOHNSON CITY,1072,#1072 1072,1009 West Market Street,TN,37604-5332
Meineke,STOUGHTON,1074,#1074 1074,550 Wshington Street,MA,2072
Meineke,BORDENTOWN,1077,#1077 1077,850 U.S. Highway 206,NJ,8505
Meineke,CAPE CORAL,1078,#1078 1078,1940 Del Prado Blvd. South,FL,33990-4501
Meineke,LOVELAND,1081,#1081 1081,3900 West Montgomery Road,OH,45140-1595
Meineke,BRIGHTON,1083,#1083 1083,11 Faneuil Street,MA,02135-1901
Meineke,DENBIGH,1088,#1088 1088,415 Oriana Road,VA,23608
Meineke,IRMO,1092,#1092 1092,6220 St. Andrews Road,SC,29212-3124
Meineke,HOUSTON,1094,#1094 1094,1121 Uvalde,TX,77015-3744
Meineke,DOTHAN,1100,#1100 1100,3369 West Main Street,AL,36305
Meineke,PEKIN,1101,#1101 1101,716 Court Street,IL,61554
Meineke,PITTSBURGH,1109,#1109 1109,5290 Steubenville Pike,PA,15205
Meineke,HORSEHEADS,1113,#1113 1113,3147 Lake Road,NY,14845-3117
Meineke,PORTSMOUTH,1114,#1114 1114,2200 Lafayette Road,NH,03801-5609
Meineke,CASTLE ROCK,1115,#1115 1115,8 Wilcox Street,CO,80104-1905
Meineke,MONTOURSVILLE,1118,#1118 1118,751 North Loyalsock,PA,17754-1024
Meineke,DENVER,1120,#1120 1120,4839 East Colfax Avenue,CO,80220-1205
Meineke,LYNN,1121,#1121 1121,411 Broad Street - Route 1A,MA,01901-1514
Meineke,NASHVILLE,1129,#1129 1129,3604 Nolensville Road,TN,37211-3202
Meineke,SAN ANTONIO,1133,#1133 1133,6011 De Zavala Road,TX,78249-2202
Meineke,ROCK HILL,1134,#1134 1134,2366 Dave Lyle Boulevard,SC,29730-8931
Meineke,HUMBLE,1136,#1136 1136,3515 FM 1960 East,TX,77338-5320
Meineke,AUGUSTA,1138,#1138 1138,268 State Street,ME,04330-6404
Meineke,INDIANAPOLIS,1143,#1143 1143,7352 Pendleton Pike,IN,46226-5134
Meineke,HERMITAGE,1144,#1144 1144,3462 Lebanon Pike,TN,37076-2006
Meineke,SPOKANE,1148,#1148 1148,West 710 Francis Street,WA,99205
Meineke,PORTLAND,1150,#1150 1150,1807 Southeast Powell Blvd,OR,97202
Meineke,GARDNER,1151,#1151 1151,7 Donlan Street,MA,01440-3041
Meineke,TEMPLE TERRACE,1164,#1164 1164,5103 East Fowler Avenue,FL,33617-2104
Meineke,Centennial,1165,#1165 1165,10667 East Briarwood Circle,CO,80112
Meineke,MAPLEWOOD,1171,#1171 1171,1796 Springfield Avenue,NJ,07040-2902
Meineke,KNOXVILLE,1172,#1172 1172,8858 Kingston Pike,TN,37923-5001
Meineke,RENO,1176,#1176 1176,810 West 4th Street,NV,89503-5203
Meineke,EPHRATA,1184,#1184 1184,1040 South State Street,PA,17522-2355
Meineke,Cincinnati,1185,#1185 1185,4464 Glen Este-Withamsville RD,OH,45245-1327
Meineke,MILFORD,1190,#1190 1190,904 Highway 28,OH,45150-1952
Meineke,LAWRENCEVILLE,1204,#1204 1204,999 Duluth Highway,GA,30043
Meineke,FORT COLLINS,1222,#1222 1222,4263 South Mason,CO,80525
Meineke,BATON ROUGE,1223,#1223 1223,2276 College Drive,LA,70808
Meineke,RICHMOND,1226,#1226 1226,970 East Parham Road,VA,23228-6511
Meineke,TAMPA,1227,#1227 1227,6850 N. Dale Mabry Highway,FL,33614
Meineke,MURFREESBORO,1231,#1231 1231,1411 NW Broad Street,TN,37129-1737
Meineke,Charlotte,1237,#1237 1237,7928 A North Tryon Street,NC,28262
Meineke,OCOEE,1242,#1242 1242,10810 W. Colonial Drive,FL,34761
Meineke,LOUISVILLE,1247,#1247 1247,5326 DIXIE HWY,KY,40216
Meineke,LOUISVILLE,1248,#1248 1248,7103 Preston Highway,KY,40219
Meineke,HILLSBORO,1250,#1250 1250,2901 SE 73rd Avenue,OR,97123
Meineke,PORTLAND,1255,#1255 1255,206 North Lombard Street,OR,97217
Meineke,VESTAL,1256,#1256 1256,2295 Vestal Parkway East,NY,13850
Meineke,SHERWOOD,1257,#1257 1257,13985 SW Tualatin-Sherwood Rd,OR,97140
Meineke,ALPHARETTA,1260,#1260 1260,10885 Jones Bridge Road,GA,30022-4943
Meineke,BROOKLYN,1261,#1261 1261,2727 Stillwell Avenue,NY,11224
Meineke,CLARKSVILLE,1264,#1264 1264,1880 Fort Campbell Boulevard,TN,37042
Meineke,GREENSBORO,1269,#1269 1269,4434 West Wendover Avenue,NC,27407
Meineke,Vidalia,1270,#1270 1270,1905 B First Street East,GA,30474
Meineke,RAYNHAM,1287,#1287 1287,1555 Route 44,MA,2767
Meineke,STAFFORD,1288,#1288 1288,#9 Dorothy Lane,VA,22554
Meineke,LOUISVILLE,1297,#1297 1297,4170 Bardstown Road,KY,40218
Meineke,MANSFIELD,1303,#1303 1303,47 Chauncy Street Route 106,MA,2048
Meineke,Sunrise,1310,#1310 1310,12585 West Sunrise Blvd.,FL,33323
Meineke,WESTON,1311,#1311 1311,2629 Weston Road,FL,33331
Meineke,RALEIGH,1312,#1312 1312,3421 West Millbrook Road,NC,27612
Meineke,YORK,1314,#1314 1314,1775 Rodney Road,PA,17408
Meineke,NEWARK,1320,#1320 1320,241 Bloomfield Avenue,NJ,07104-1105
Meineke,POLARIS,1323,#1323 1323,228 Park Road,OH,43235
Meineke,NASHUA,1331,#1331 1331,22 East Hollis Street,NH,3060
Meineke,CONCORD,1332,#1332 1332,216 Loudon Road,NH,3301
Meineke,MURRYSVILLE,1333,#1333 1333,4370 William Penn Highway,PA,15668-1914
Meineke,D'IBERVILLE,1334,#1334 1334,10606 D'Iberville Blvd,MS,39532
Meineke,SAINT PETERS,1340,#1340 1340,4245 North Saint Peters Parkway,MO,63304
Meineke,CHEYENNE,1347,#1347 1347,1627 DELL RANGE BLVD,WY,82009-4846
Meineke,SINKING SPRING,1351,#1351 1351,4497 Penn Avenue,PA,19608
Meineke,HICKORY,1358,#1358 1358,270 Hwy 321 NW,NC,28601
Meineke,AMARILLO,1363,#1363 1363,1805 South Grand Street,TX,79103
Meineke,KANSAS CITY,1370,#1370 1370,2625 Northeast Vivion Road,MO,64119
Meineke,OVERLAND PARK,1372,#1372 1372,7584 West 119th Street,KS,66213
Meineke,KANSAS CITY,1373,#1373 1373,403 Northwest Barry Road,MO,64155
Meineke,LENEXA,1375,#1375 1375,12300 West 95th Street,KS,66215
Meineke,OVERLAND PARK,1377,#1377 1377,7525 Metcalf Avenue,KS,66204
Meineke,LIBERTY,1379,#1379 1379,200 South 291 Hwy.,MO,64068
Meineke,OLATHE,1380,#1380 1380,1306 East Santa Fe Street,KS,66061
Meineke,LAWRENCE,1381,#1381 1381,2535 South Iowa,KS,66046
Meineke,ANCHORAGE,1397,#1397 1397,3200 Seward Highway,AK,99503-4150
Meineke,LOUISVILLE,1407,#1407 1407,701 East Broadway,KY,40202
Meineke,WILMINGTON,1408,#1408 1408,287 Main Street -Route 38,MA,1887
Meineke,WEST MIFFLIN,1417,#1417 1417,4103 Kennywood Boulevard,PA,15122-2233
Meineke,BINGHAMTON,1420,#1420 1420,1434 Upper Front Street,NY,13901
Meineke,OVERLAND,1422,#1422 1422,1902 Woodson Road,MO,63114-5650
Meineke,Vernon Rockville,1423,#1423 1423,370A Hartford Turnpike,CT,06066-4747
Meineke,SANTA FE,1433,#1433 1433,4420 Rodeo Road Rt. 27,NM,87505-9700
Meineke,BROOKFIELD,1435,#1435 1435,18795 West Bluemound Road,WI,53045
Meineke,VANCOUVER,1440,#1440 1440,15510 East Mill Plain Blvd.,WA,98684
Meineke,OREGON CITY,1442,#1442 1442,19368 South Molalla Avenue,OR,97045
Meineke,PFLUGERVILLE,1460,#1460 1460,2324 West Pecan Street,TX,78660
Meineke,Louisville,1468,#1468 1468,6420 Outer Loop,KY,40228
Meineke,WILMINGTON,1475,#1475 1475,2375 Carolina Beach Road,NC,28401
Meineke,O FALLON,1479,#1479 1479,720 Cambridge Boulevard,IL,62269
Meineke,JEFFERSON,1484,#1484 1484,805 East Main Street,NC,28640
Meineke,FREDERICKSBURG,1490,#1490 1490,10046 Jefferson Davis Highway,VA,22407
Meineke,LA PLATA,1492,#1492 1492,6530 Crain Highway,MD,20646
Meineke,FOREST,1499,#1499 1499,18134 Forest Road,VA,24551
Meineke,PUEBLO,1521,#1521 1521,515 North Grand Avenue,CO,81003-3112
Meineke,DECATUR,1522,#1522 1522,3626 Flakes Mill Road,GA,30034
Meineke,GRANDVIEW HEIGHTS,1535,#1535 1535,746 Grandview Avenue,OH,43215-1122
Meineke,DUBLIN,1536,#1536 1536,5933 Sawmill Road,OH,43017-9629
Meineke,VALLEY STREAM,1539,#1539 1539,34 East Merrick Road,NY,11580
Meineke,LACONIA,1541,#1541 1541,1022 Union Avenue,NH,3246
Meineke,SIOUX FALLS,1542,#1542 1542,2607 West 41st Street,SD,57105
Meineke,COLORADO SPRINGS,1547,#1547 1547,1370 Ainsworth Street,CO,80915
Meineke,KENSINGTON,1575,#1575 1575,3825B Dupont Avenue,MD,20895-2002
Meineke,UNIVERSAL CITY,1577,#1577 1577,1632 Pat Booker Road Suite 112,TX,78148
Meineke,DECATUR,1586,#1586 1586,770 East Eldorado,IL,62523
Meineke,ALBUQUERQUE,1591,#1591 1591,1812 Juan Tabo NE,NM,87112-4433
Meineke,INDIANAPOLIS,1592,#1592 1592,7290 West Washington Street,IN,46241
Meineke,PEORIA,1593,#1593 1593,13546 N 83rd Avenue,AZ,85381
Meineke,ASHEVILLE,1596,#1596 1596,"801 Fairview Road, Suite 14",NC,28803
Meineke,JONESBORO,1598,#1598 1598,2813 South Caraway Road,AR,72401
Meineke,SAN MARCOS,1599,#1599 1599,1252 Highway 123,TX,78666
Meineke,CALDWELL,1600,#1600 1600,305 S. 34th Avenue,ID,83605
Meineke,LAS VEGAS,1603,#1603 1603,1860 East Serene Avenue,NV,89123
Meineke,CANTON,1625,#1625 1625,4570 West Tuscarawas,OH,44708
Meineke,PARMA,1626,#1626 1626,5284 Ridge Road,OH,44129
Meineke,TUPELO,1632,#1632 1632,803 North Gloster,MS,38804
Meineke,NORCROSS,1638,#1638 1638,5250 Peachtree Industrial Blvd,GA,30071
Meineke,MISSOURI CITY,1644,#1644 1644,1902 FM 1092,TX,77459
Meineke,Berlin,1645,#1645 1645,658 Berlin Turnpike,CT,06037-2307
Meineke,MADISON,1649,#1649 1649,414 Commerce Drive,WI,53719
Meineke,Quincy,1651,#1651 1651,2801 Broadway,IL,62301
Meineke,OAKVILLE,1652,#1652 1652,5757 Telegraph Road,MO,63129
Meineke,CHESTERFIELD,1655,#1655 1655,165 Long Road,MO,63005
Meineke,CLEARWATER,1659,#1659 1659,2436 Gulf to Bay Boulevard,FL,33765
Meineke,MIDLOTHIAN,1664,#1664 1664,4458 West 147th Street,IL,60445
Meineke,LEE'S SUMMIT,1667,#1667 1667,320 Northeast 291 Highway,MO,64086
Meineke,HORN LAKE,1668,#1668 1668,1851 Goodman Road West,MS,38637
Meineke,MATTHEWS,1669,#1669 1669,9507 E. Independence Blvd.,NC,28105
Meineke,WEST CHESTER,1672,#1672 1672,9339 Princeton-Glendale Road,OH,45011
Meineke,HARRISON,1673,#1673 1673,10754 Harrison Avenue,OH,45030
Meineke,MILWAUKEE,1675,#1675 1675,4320 South 27th Street,WI,53221
Meineke,LEMONT,1684,#1684 1684,12775 Main Street,IL,60439-4744
Meineke,FALCON,1688,#1688 1688,7352 McLaughlin Road,CO,80831
Meineke,FARMINGTON,1696,#1696 1696,813 Valley Creek Drive,MO,63640
Meineke,Indianapolis,1697,#1697 1697,4905 South Emerson Avenue,IN,46203
Meineke,BRIGHTON,1699,#1699 1699,21 North 42nd Avenue,CO,80601
Meineke,MONTGOMERY,1700,#1700 1700,5700 - B . Atlanta Highway,AL,36117
Meineke,EAST BRUNSWICK,1701,#1701 1701,300 Rt. 18 Mid State Mall,NJ,8816
Meineke,BLUE SPRINGS,1707,#1707 1707,1724 S.W.US 40 Hwy. Eastbound,MO,64015
Meineke,HIRAM,1708,#1708 1708,5575 Wendy Bagwell Parkway,GA,30141
Meineke,SANTEE,1711,#1711 1711,9551 Mission Gorge Road,CA,92071
Meineke,BRANDON,1713,#1713 1713,606 East Brandon Boulevard,FL,33511
Meineke,Houma,1714,#1714 1714,6911 West Park Avenue,LA,70364
Meineke,PINEVILLE,1718,#1718 1718,1103 Palmetto Drive,LA,71360
Meineke,LITTLETON,1723,#1723 1723,10168 West Chatfield Avenue,CO,80127
Meineke,CREST HILL,1726,#1726 1726,2424 Plainfield Road,IL,60403
Meineke,MANSFIELD,1730,#1730 1730,1506 FM Road 157 N,TX,76063
Meineke,LAFAYETTE,1732,#1732 1732,5036 Ambassador Caffery Pkwy.,LA,70508
Meineke,COLUMBIA,1738,#1738 1738,4429 Hard Scrabble Road,SC,29229
Meineke,PASSAIC,1740,#1740 1740,811 Main Avenue,NJ,7055
Meineke,RICHMOND,1743,#1743 1743,920 Commercial Drive,KY,40475
Meineke,BOLINGBROOK,1776,#1776 1776,1330 West Boughton Road,IL,60490
Meineke,EUGENE,1778,#1778 1778,4110 West 11th Avenue,OR,97402
Meineke,RANCHO CUCAMONGA,1780,#1780 1780,9199 Arrow Route - Suite 101,CA,91730
Meineke,FAIRFIELD,1781,#1781 1781,1525-B Holiday Lane,CA,94534
Meineke,BALTIMORE,1782,#1782 1782,3901 Falls Road,MD,21211-1826
Meineke,VERSAILLES,1783,#1783 1783,220 Crossfield Drive,KY,40383
Meineke,LEXINGTON,1784,#1784 1784,3130 Pimlico Parkway,KY,40517
Meineke,MORRISVILLE,1786,#1786 1786,9515 Chapel Hill Road,NC,27560
Meineke,WEST BRIDGEWATER,1790,#1790 1790,391 West Center Street,MA,2379
Meineke,HARRISBURG,1791,#1791 1791,6650 Kee Lane,NC,28075
Meineke,ELKTON,1798,#1798 1798,303 West Pulaski Hwy.,MD,21921
Meineke,CRANBERRY TOWNSHIP,1800,#1800 1800,20845 Route 19,PA,16066
Meineke,LEXINGTON,1808,#1808 1808,1310 West Main Street,SC,29072
Meineke,BEAUMONT,1809,#1809 1809,1765 North Major Drive,TX,77706
Meineke,NORTH CHARLESTON,1810,#1810 1810,4896 Ashley Phosphate Road,SC,29418
Meineke,GAINESVILLE,1811,#1811 1811,2438 Limestone Parkway,GA,30501
Meineke,ALTOONA,1818,#1818 1818,304 South Logan Boulevard-Lakemont,PA,16602
Meineke,DOUGLASVILLE,1819,#1819 1819,7495 Douglas Boulevard,GA,30135
Meineke,HOUSTON,1820,#1820 1820,7880 Highway 6 South,TX,77082
Meineke,AMARILLO,1821,#1821 1821,913 South Georgia Street,TX,79102
Meineke,CUMMING,1827,#1827 1827,2585 Freedom Parkway,GA,30041
Meineke,FUQUAY VARINA,1830,#1830 1830,1410 East Broad Street,NC,27526
Meineke,NOBLESVILLE,1832,#1832 1832,1395 South 10th Street,IN,46060
Meineke,FARGO,1837,#1837 1837,3501 13th Avenue,ND,58103
Meineke,WEBSTER,1840,#1840 1840,626 South Main Street,MA,1570
Meineke,CHARLOTTE,1842,#1842 1842,10120 Albemarle Rd Ste #C-D,NC,28227
Meineke,SPRINGFIELD,1843,#1843 1843,2550 West Battlefield Road,MO,65807
Meineke,FORT WORTH,1846,#1846 1846,4980 Western Center Boulevard,TX,76137
Meineke,WINTERVILLE,1849,#1849 1849,730 W. Firetower Road,NC,28590
Meineke,OLIVE BRANCH,1853,#1853 1853,10045 Ridgeway Industrial Drive,MS,38654
Meineke,OAK CREEK,1855,#1855 1855,9300 South 27th Street,WI,53154
Meineke,BELLEVILLE,1856,#1856 1856,3608 North Belt West,IL,62226
Meineke,NEW ALBANY,1858,#1858 1858,3723 Charlestown Road,IN,47150
Meineke,Apopka,1859,#1859 1859,1440 East Semoran Boulevard,FL,32703
Meineke,JACKSON,1863,#1863 1863,951 North Parkway,TN,38305
Meineke,BLOOMINGTON,1867,#1867 1867,3939 Industrial Blvd,IN,47403
Meineke,Raleigh,1875,#1875 1875,6200 Capital Boulevard,NC,27616
Meineke,Fayetteville,1876,#1876 1876,3730 Ramsey Street,NC,28311
Meineke,GREER,1882,#1882 1882,212 North Main Street,SC,29650
Meineke,HOLYOKE,1888,#1888 1888,1616 Northampton Street,MA,1040
Meineke,KANNAPOLIS,1892,#1892 1892,1123 South Cannon Boulevard,NC,28083
Meineke,FRANKLIN,1898,#1898 1898,990 N. Morton Street,IN,46131
Meineke,Rochester,1901,#1901 1901,131 Farmington Road,NH,3867
Meineke,LUBBOCK,1903,#1903 1903,4615 34th Street,TX,79410
Meineke,De Land,1906,#1906 1906,1301 S. Woodland Blvd,FL,32720
Meineke,INDIANAPOLIS,1913,#1913 1913,5323 W. 38th Street,IN,46254
Meineke,Columbia Heights,1916,#1916 1916,4360 Central Avenue NE,MN,55421
Meineke,GARNER,1917,#1917 1917,250 US Highway #70 West,NC,27529
Meineke,MURRELLS INLET,1921,#1921 1921,12270 Highway 17 Bypass,SC,29576
Meineke,WALLED LAKE,1923,#1923 1923,4370 Haggerty Road,MI,48390
Meineke,Mooresville,1931,#1931 1931,190 E. Plaza Drive,NC,28115
Meineke,JERSEY CITY,1935,#1935 1935,1613 JF Kennedy Blvd.,NJ,7305
Meineke,CHICAGO,1939,#1939 1939,5740-44 North Western Avenue,IL,60659
Meineke,Raleigh,1942,#1942 1942,9320 Forum Road,NC,27615
Meineke,WOODBRIDGE,1943,#1943 1943,14107 Jefferson Davis Hwy,VA,22191-2104
Meineke,ALEXANDRIA,1944,#1944 1944,8164-D Richmond Hwy,VA,22309
Meineke,Lewes,1954,#1954 1954,16753 Coastal Highway,DE,19958
Meineke,Clemmons,1955,#1955 1955,2689 Lewisville-Clemmons Road,NC,27012
Meineke,Peachtree City,1957,#1957 1957,2810 W Highway 54,GA,30269
Meineke,FLORENCE,1959,#1959 1959,2075 Florence Boulevard,AL,35630
Meineke,El Paso,1963,#1963 1963,1500 Redd Road,TX,79911
Meineke,MYRTLE BEACH,1969,#1969 1969,2351 Dick Pond Road,SC,29575
Meineke,Post Falls,1970,#1970 1970,420 West Seltice Way,ID,83854
Meineke,Bradenton,1973,#1973 1973,2508 1st Street West,FL,34208
Meineke,Charlotte,1979,#1979 1979,227 Mt. Holly-Huntersville Road,NC,28214
Meineke,Carrboro,1980,#1980 1980,407 E. Main Street,NC,27510
Meineke,Cathedral City,1981,#1981 1981,68725 Ramon Road,CA,92234
Meineke,Naperville,1982,#1982 1982,1580 West Ogden Avenue,IL,60540
Meineke,North Charleston,1985,#1985 1985,8571 Rivers Avenue,SC,29406
Meineke,MIDDLETOWN,1987,#1987 1987,195 Route 36,NJ,7748
Meineke,Easley,1988,#1988 1988,5108 Calhoun Memorial Highway,SC,29640
Meineke,Santa Maria,1990,#1990 1990,111 East Roemer Way,CA,93454
Meineke,QUAKERTOWN,2001,#2001 2001,630 South West End Boulevard,PA,18951-1410
Meineke,Tulsa,2004,#2004 2004,4751 South Memorial Drive,OK,74145
Meineke,Broken Arrow,2005,#2005 2005,710 North Aspen Avenue,OK,74012
Meineke,Oklahoma City,2006,#2006 2006,916 SW 44th Street,OK,73109
Meineke,Wichita,2007,#2007 2007,3430 North Woodlawn Boulevard,KS,67220
Meineke,Wichita,2008,#2008 2008,1810 West 21st Street,KS,67203
Meineke,Wichita,2009,#2009 2009,2344 South Seneca,KS,67213
Meineke,Derby,2010,#2010 2010,1910 North Nelson Drive,KS,67037
Meineke,Burlington,2011,#2011 2011,410 North Roosevelt,IA,52601
Meineke,Muscatine,2012,#2012 2012,1503 Park Avenue,IA,52761
Meineke,Davenport,2013,#2013 2013,4720 Elmore Avenue,IA,52807
Meineke,Albany,2020,#2020 2020,1021 Central Avenue,NY,12205
Meineke,Statesville,2023,#2023 2023,1032 Glenway Drive,NC,28625
Meineke,Manahawkin,2027,#2027 2027,875 US Highway 9,NJ,8050
Meineke,Manteca,2028,#2028 2028,185 South Union Road,CA,95337
Meineke,Fountain,2032,#2032 2032,6670 Camden Boulevard,CO,80817
Meineke,Spring Hill,2033,#2033 2033,14395 Spring Hill Drive,FL,34609
Meineke,Gaffney,2036,#2036 2036,1411 West Floyd Baker Boulevard,SC,29341
Meineke,Tappahannock,2038,#2038 2038,1770 Ball Street,VA,22560
Meineke,Franklin,2042,#2042 2042,74 Sawmill Village Lane,NC,28734
Meineke,Romeoville,2052,#2052 2052,20712 Gaskin Drive,IL,60446
Meineke,Denver,2056,#2056 2056,7270 NC Highway 73,NC,28037
Meineke,Sun Prairie,2057,#2057 2057,2518 Ironwood Drive,WI,53590
Meineke,PENSACOLA,2058,#2058 2058,2871 West Michigan Avenue,FL,32526
Meineke,HOMESTEAD,2059,#2059 2059,801 NE 43rd Avenue,FL,33033
Meineke,Mundelein,2060,#2060 2060,313 Town Line Road,IL,60060
Meineke,COLONIA,2061,#2061 2061,1049 St. Georges Avenue,NJ,7067
Meineke,FORT WORTH,2064,#2064 2064,3012 Altamesa Blvd,TX,76133
Meineke,KATY,2067,#2067 2067,455 Katy Fort Bend Road,TX,77494
Meineke,ROCKVILLE,2071,#2071 2071,15127 Frederick Road,MD,20850
Meineke,PARIS,2075,#2075 2075,2101 N. Main Street,TX,75460
Meineke,FORT MYERS,2077,#2077 2077,3029 Fowler Street,FL,33901
Meineke,BRUNSWICK,2083,#2083 2083,102 Granville Nix Lane,GA,31520
Meineke,DURHAM,2084,#2084 2084,2105 NC Highway 54,NC,27713
Meineke,North Richland Hills,2085,#2085 2085,8401 N. Harwood Road,TX,76180
Meineke,NORTHRIDGE,2093,#2093 2093,17060 Devonshire Street,CA,91325
Meineke,LONGVIEW,2096,#2096 2096,2547-B Judson Rd.,TX,75605
Meineke,Dallas,2098,#2098 2098,11613 E. Northwest Highway,TX,75218
Meineke,EL CAJON,2100,#2100 2100,830 N 2nd Street,CA,92021
Meineke,Shelby,2101,#2101 2101,327 West Dixon Boulevard,NC,28152
Meineke,SPARTANBURG,2102,#2102 2102,432 West Blackstock Road,SC,29301
Meineke,Woodstock,2103,#2103 2103,9777 Highway 92,GA,30188
Meineke,Rogers,2104,#2104 2104,1418 West Walnut Street,AR,72756
Meineke,HARRISON,2105,#2105 2105,215 East Crandall Avenue,AR,72601
Meineke,Las Vegas,2110,#2110 2110,3800 Blue Diamond Road,NV,89139
Meineke,Greenville,2111,#2111 2111,2390 Laurens Road,SC,29607
Meineke,New Braunfels,2115,#2115 2115,1474 South Seguin Avenue,TX,78130
Meineke,Parker,2116,#2116 2116,"9078 South Woodman Way, Unit A",CO,80134
Meineke,Burlington,2118,#2118 2118,933 Route 130 North,NJ,8016
Meineke,Shelby Township,2122,#2122 2122,50945 Design Lane,MI,48315
Meineke,Idabel,2124,#2124 2124,1312 SE Washington Street,OK,74745
Meineke,Ham Lake,2126,#2126 2126,13835 Johnson Street NE,MN,55304
Meineke,Phoenix,2128,#2128 2128,2630 E Bell Road,AZ,85032
Meineke,Sioux Falls,2129,#2129 2129,5229 West 12th Street,SD,57106
Meineke,Tracy,2130,#2130 2130,326 West Grant Line Road,CA,95376
Meineke,Davie,2134,#2134 2134,5503 S. University Drive,FL,33328
Meineke,Appleton,2136,#2136 2136,1708 W. Wisconson Avenue,WI,54914
Meineke,Sheridan,2137,#2137 2137,752 Coffeen Avenue,WY,82801
Meineke,Medford,2145,#2145 2145,2177 South Pacific Highway,OR,97501
Meineke,Black Mountain,2146,#2146 2146,306 Black Mountain Avenue,NC,28711
Meineke,Merrill,2149,#2149 2149,705 South Center Avenue,WI,54452
Meineke,Fort Wayne,2150,#2150 2150,8829 US Highway 24 W,IN,46804
Meineke,Winchester,2154,#2154 2154,2290 Valley Avenue,VA,22601
Meineke,New Castle,2157,#2157 2157,3223 Wilmington Road,PA,16105
Meineke,Taylorsville,2158,#2158 2158,4238 S Redwood Rd,UT,84123
Meineke,Lincolnton,2159,#2159 2159,2009 East Main Street,NC,28092
Meineke,Emmaus,2160,#2160 2160,1458 Chestnut St.,PA,18049
Meineke,Aberdeen,2161,#2161 2161,1148 State Hwy 34,NJ,7747
Meineke,Summerville,2164,#2164 2164,103 Old Trolley Road,SC,29485
Meineke,Denham Springs,2168,#2168 2168,2261 South Range Avenue,LA,70726
Meineke,Greenville,2169,#2169 2169,955 Brompton Lane,NC,27834
Meineke,Radcliff,2171,#2171 2171,2197 South Dixie Blvd.,KY,40160
Meineke,Troy,2176,#2176 2176,320 E. Center Street,IL,62294
Meineke,McMinnville,2177,#2177 2177,2175 NE 27th Street,OR,97128
Meineke,Sioux City,2178,#2178 2178,617 5th Street,IA,51101
Meineke,Anderson,2183,#2183 2183,3507-A Clemson Blvd.,SC,29621
Meineke,Randallstown,2188,#2188 2188,9339 Liberty Road,MD,21133
Meineke,Boiling Springs,2190,#2190 2190,905 Wesley Court,SC,29316
Meineke,East Syracuse,2191,#2191 2191,226 Old Bridge Street,NY,13057
Meineke,Beaumont,2192,#2192 2192,1493 East 6th,CA,92223
Meineke,San Angelo,2193,#2193 2193,3201 Knickerbocker Rd,TX,76904
Meineke,West Des Moines,2194,#2194 2194,2401 Westown Parkway,IA,50266
Meineke,Port Washington,2195,#2195 2195,122 Main Street,NY,11050
Meineke,INDIAN LAND,2197,#2197 2197,8795 Charlotte Highway,SC,29707
Meineke,KILL DEVIL HILLS,2199,#2199 2199,1800 S. Croatan Highway,NC,27948
Meineke,Fort Smith,2200,#2200 2200,4515 Towson Avenue,AR,72901
Meineke,FORT MILL,2203,#2203 2203,1654 Carolina Place,SC,29708
Meineke,Addison,2218,#2218 2218,15302 Midway Road,TX,75001
Meineke,Gilroy,2221,#2221 2221,190 Welburn Ave,CA,95020
Meineke,Torrance,2224,#2224 2224,24005 Hawthorne Blvd,CA,90505
Meineke,RIVERSIDE,2226,#2226 2226,11881 MAGNOLIA AVE #10,CA,92503-4907
Meineke,Riverside,2227,#2227 2227,2650 E Alessandro Blvd.,CA,92508-2305
Meineke,Crystal Lake,2230,#2230 2230,905 Pyott Rd,IL,60014
Meineke,Colchester,2231,#2231 2231,493 Norwich Avenue,CT,6415
Meineke,Conyers,2232,#2232 2232,1162 West Avenue SW,GA,30012
Meineke,Erie,2233,#2233 2233,2536 W. 26th St.,PA,16506
Meineke,Raleigh,2235,#2235 2235,2642 S. Saunders St.,NC,27603
Meineke,Silverdale,2240,#2240 2240,2600 NW Randall Way,WA,98383
Meineke,Lake Villa,2244,#2244 2244,875 E Grand Ave,IL,60046
Meineke,Clementon,2247,#2247 2247,305 South White Horse Pike,NJ,8021
Meineke,CARY,2249,#2249 2249,536 Northwest Highway,IL,60013
Meineke,Wilton Manors,2251,#2251 2251,2765 North Dixie Highway,FL,33334
Meineke,Plano,2252,#2252 2252,217 Coit Road,TX,75075
Meineke,Des Moines,2253,#2253 2253,23100 Pacific Hwy South,WA,98198
Meineke,Lauderhill,2254,#2254 2254,4917 North University Drive,FL,33351
Meineke,Costa Mesa,2256,#2256 2256,2049 Harbor Blvd,CA,92627
Meineke,Orlando,2259,#2259 2259,9951 S. Orange Blossom Trail,FL,32837
Meineke,MEDINA,2260,#2260 2260,1123 N Court Street,OH,44256
Meineke,Baton Rouge,2262,#2262 2262,13550 Coursey Blvd,LA,70817
Meineke,CAROL STREAM,2263,#2263 2263,313 S. Schmale Rd,IL,60188
Meineke,Charlestown,2265,#2265 2265,321 Market Street,IN,47111
Meineke,Charlotte,2267,#2267 2267,5021 Beatties Ford Road,NC,28216
Meineke,Kansas City,2269,#2269 2269,6300 East 87th Street,MO,64138
Meineke,Racine,2271,#2271 2271,6006 21st Street,WI,53406
Meineke,Hutchinson,2272,#2272 2272,1223 East 30th Avenue,KS,67502
Meineke,South Elgin,2275,#2275 2275,376 Sundown Rd,IL,60177
Meineke,HELENA,2278,#2278 2278,610 West Custer Avenue,MT,59601
Meineke,SACRAMENTO,2279,#2279 2279,6955 Stockton Blvd,CA,95823
Meineke,ALBUQUERQUE,2281,#2281 2281,8721 San Pedro Drive NE,NM,87113
Meineke,Vancouver,2282,#2282 2282,3420 E. Fourth Plain Blvd.,WA,98661
Meineke,BESSEMER,2285,#2285 2285,4754 Bell Hill Road,AL,35022
Meineke,CHICAGO,2290,#2290 2290,5150 N. Cicero Ave.,IL,60630
Meineke,Idaho Falls,2294,#2294 2294,385 East Elva Street,ID,83401
Meineke,HATBORO,2295,#2295 2295,3225 Sunset Lane,PA,19040
Meineke,San Jose,2296,#2296 2296,4701 Hamilton Ave.,CA,95130
Meineke,BROOMFIELD,2302,#2302 2302,1020 Highway 287,CO,80020
Meineke,WEST CHESTER,2303,#2303 2303,1119 West Chester Pike,PA,19382
Meineke,JAMESTOWN,2304,#2304 2304,405 W. Main Street,NC,27282
Meineke,MISSOULA,2306,#2306 2306,805 N. Russell Street,MT,59808
Meineke,TEXARKANA,2307,#2307 2307,3408 Saint Michael Drive,TX,75503
Meineke,GARLAND,2316,#2316 2316,5615 Broadway Blvd.,TX,75043
Meineke,ELK GROVE,2328,#2328 2328,8686 Elk Grove Blvd.,CA,95624
Meineke,PASADENA,2330,#2330 2330,38 N. Hill Ave.,CA,91106
Meineke,BOSSIER CITY,2332,#2332 2332,3062 E. Texas Ave.,LA,71111
Meineke,SHREVEPORT,2333,#2333 2333,6110 Greenwood Rd,LA,71119
Meineke,HUNTINGTON BEACH,2338,#2338 2338,17151 Beach Blvd.,CA,92647
Meineke,DUNDALK,2342,#2342 2342,790 Merritt Boulevard,MD,21222
Meineke,PORTLAND,2345,#2345 2345,18081 SE Division Street,OR,97236
Meineke,WHEAT RIDGE,2348,#2348 2348,9695 W. 44th,CO,80033
Meineke,SCARBOROUGH,2351,#2351 2351,237 Gorham Road,ME,4074
Meineke,RAPID CITY,2352,#2352 2352,1224 E. Highway 44,SD,57703
Meineke,WEST SACRAMENTO,2354,#2354 2354,2725 W. Capitol Ave,CA,95691
Meineke,JACKSONVILLE,2358,#2358 2358,5717 University Blvd W.,FL,32216
Meineke,FAIR LAWN,2362,#2362 2362,36-14 Broadway,NJ,7410
Meineke,NAPA,2364,#2364 2364,713 Silverado Trail,CA,94559-2722
Meineke,CLAYTON,2370,#2370 2370,11577 US 70 Business Highway W,NC,27520
Meineke,NEWBERG,2374,#2374 2374,705 A North Springbrook Rd,OR,97132
Meineke,TACOMA,2375,#2375 2375,3024 6th Avenue,WA,98406
Meineke,TACOMA,2376,#2376 2376,13101 Pacific Avenue SE,WA,98444
Meineke,PUYALLUP,2377,#2377 2377,4021 S. Meridian,WA,98373
Meineke,TACOMA,2378,#2378 2378,2701 Bridgeport Way W.,WA,98466
Meineke,OLYMPIA,2379,#2379 2379,517 4th Avenue E.,WA,98501
Meineke,PUYALLUP,2380,#2380 2380,433 N. Meridian,WA,98371
Meineke,TACOMA,2381,#2381 2381,2592 Pacific Highway E.,WA,98424
Meineke,GIG HARBOR,2382,#2382 2382,5309 Pt. Fosdick Dr. NW,WA,98335
Meineke,MARYSVILLE,2383,#2383 2383,10501 State Avenue,WA,98271
Meineke,EDMONDS,2384,#2384 2384,23900 Firdale Avenue,WA,98020
Meineke,RENTON,2385,#2385 2385,64 Logan Avenue S.,WA,98057
Meineke,FEDERAL WAY,2386,#2386 2386,34110 Pacific Highway S.,WA,98003
Meineke,KENT,2387,#2387 2387,"15323 SE 272nd Street,Suite 101",WA,98042
Meineke,SEATTLE,2388,#2388 2388,1702 SW Roxbury,WA,98106
Meineke,SEATTLE,2389,#2389 2389,465 S. Holgate Street,WA,98134
Meineke,BOISE,2390,#2390 2390,9688 W. Fairview Ave.,ID,83704
Meineke,ESSEX,2407,#2407 2407,1627 Eastern Blvd,MD,21221
Meineke,SAN FRANCISCO,2415,#2415 2415,4419 Geary Blvd.,CA,94118
Meineke,SAN FRANCISCO,2416,#2416 2416,55 Ocean Avenue,CA,94112
Meineke,SAN FRANCISCO,2417,#2417 2417,165 S. Van Ness Avenue,CA,94103
Meineke,DALY CITY,2418,#2418 2418,7198 Mission Street,CA,94014
Meineke,SAN BRUNO,2419,#2419 2419,700 El Camino Real,CA,94066
Meineke,SAN MATEO,2420,#2420 2420,2660 S. El Camino Real,CA,94403
Meineke,PALO ALTO,2421,#2421 2421,4200 El Camino Real,CA,94306
Meineke,MOUNTAIN VIEW,2422,#2422 2422,215 W. El Camino Real,CA,94040
Meineke,SUNNYVALE,2423,#2423 2423,725 E. El Camino Real,CA,94087
Meineke,BURNSVILLE,2425,#2425 2425,600 Southcross Drive W,MN,55306-7901
Meineke,LOUISVILLE,2431,#2431 2431,11514 Shelbyville Road,KY,40243
Meineke,ROCKY HILL,2434,#2434 2434,2000 Silas Deane Hwy,CT,6067
Meineke,RIALTO,2438,#2438 2438,510 E Foothill Blvd,CA,92376-5224
Meineke,DRAPER,2450,#2450 2450,445 East 12300 South,UT,84020
Meineke,CONCORD,4000,#4000 4000,901 Concord Parkway South HWY 29,NC,28027
Meineke,Anaheim,4004,#4004 4004,3201 West Lincoln Avenue,CA,92801
Meineke,Garden Grove,4009,#4009 4009,6962 Chapman Avenue,CA,92845
Meineke,Oceanside,4023,#4023 4023,1618 Mission Ave.,CA,92054
Meineke,San Bernardino,4024,#4024 4024,694 E. Highland Ave.,CA,92404
Meineke,Lakewood,4034,#4034 4034,5267 Paramount Blvd.,CA,90712
Meineke,Glendora,4038,#4038 4038,546 East Route 66,CA,91740
Meineke,Yorba Linda,4046,#4046 4046,17025 Imperial Highway,CA,92886
Meineke,Riverside,4047,#4047 4047,5500 Van Buren Boulevard,CA,92503
Meineke,Oxnard,4052,#4052 4052,2011 N. Oxnard Blvd.,CA,93036
Meineke,Corona,4054,#4054 4054,135 Washburn Circle,CA,92882
Meineke,Chula Vista,4056,#4056 4056,903 Broadway,CA,91911
Meineke,North Highlands,4059,#4059 4059,6990 Watt Avenue,CA,95660
Meineke,Hemet,4060,#4060 4060,3550 West Florida Avenue,CA,92545
Meineke,Ontario,4061,#4061 4061,1100 W. Holt,CA,91762
Meineke,Sacramento,4063,#4063 4063,9025 Folsom Boulevard,CA,95826
Meineke,San Bernardino,4065,#4065 4065,2225 Club Way,CA,92408
Meineke,Fairfield,4067,#4067 4067,2035 N. Texas St.,CA,94533
Meineke,Oceanside,4068,#4068 4068,3844 Plaza Drive,CA,92056
Meineke,San Leandro,4069,#4069 4069,14602 Washington Avenue,CA,94578
Meineke,Fresno,4070,#4070 4070,3944 N. Blackstone,CA,93726
Meineke,Lake Elsinore,4074,#4074 4074,31700 Casino Drive,CA,92530
Meineke,Henderson,4075,#4075 4075,4337 E. Sunset Rd.,NV,89014
Meineke,Inglewood,4078,#4078 4078,4639 W. Century Blvd.,CA,90304
Meineke,Pinedale,4082,#4082 4082,7037 North Blackstone,CA,93650
Meineke,Riverdale,4085,#4085 4085,7178 Highway 85,GA,30274
Meineke,Las Vegas,4086,#4086 4086,842 N. Nellis,NV,89110
Meineke,Tucson,4089,#4089 4089,3332 North Oracle Road,AZ,85705
Meineke,Palmdale,4094,#4094 4094,202 East Palmdale Boulevard,CA,93550
Meineke,Gilbert,4095,#4095 4095,2343 East Baseline Road,AZ,85234
Meineke,Colorado Springs,4096,#4096 4096,2446 E. Platte Ave.,CO,80909
Meineke,Perris,4097,#4097 4097,2309 North Perris Boulevard,CA,92571
Meineke,Scottsdale,4102,#4102 4102,8650 E. Frank Lloyd Wright Blvd.,AZ,85260
Meineke,San Luis Obispo,4107,#4107 4107,770 Lawrence Drive,CA,93401
Meineke,Tucson,4108,#4108 4108,3661 East Speedway Boulevard,AZ,85716
Meineke,San Diego,4113,#4113 4113,2924 Damon Ave.,CA,92109
Meineke,Corona,4114,#4114 4114,195 North McKinley Street,CA,92879
Meineke,Santa Barbara,4118,#4118 4118,3956 State Street,CA,93105
Meineke,Antioch,4127,#4127 4127,1701 Auto Center Drive,CA,94509
Meineke,Phoenix,4128,#4128 4128,2402 East Osborn Road,AZ,85016
Meineke,Aliso Viejo,4129,#4129 4129,22932 Glenwood Drive,CA,92656
Meineke,Stockton,4130,#4130 4130,6970 West Lane,CA,95210
Meineke,Yuma,4134,#4134 4134,1954 South 4th Avenue,AZ,85364
Meineke,Scottsdale,4135,#4135 4135,7950 East Thomas Road,AZ,85251
Meineke,San Antonio,4139,#4139 4139,1525 S.W. Military Drive,TX,78221
Meineke,San Antonio,4144,#4144 4144,9420 Culebra Road - FM 471 W,TX,78251
Meineke,Las Vegas,4146,#4146 4146,4897 South Rainbow Boulevard,NV,89103
Meineke,Stone Mountain,4147,#4147 4147,5279 U.S. Highway 78,GA,30087
Meineke,Placentia,4154,#4154 4154,100 W. Chapman Ave.,CA,92870
Meineke,YORBA LINDA,4155,#4155 4155,22270 La Palma,CA,92887
Meineke,Austin,4156,#4156 4156,2712 William Cannon Drive West,TX,78745
Meineke,Seattle,4161,#4161 4161,2501 N.E. 55th,WA,98105
Meineke,Lakewood,4164,#4164 4164,8724 South Tacoma Way,WA,98499
Meineke,Las Vegas,4168,#4168 4168,7652 West Lake Mead Boulevard,NV,89128
Meineke,Arlington,4169,#4169 4169,5980 Poly Webb Road,TX,76016
Meineke,BREMERTON,4174,#4174 4174,6747 State Highway 303 NE,WA,98311
Meineke,San Antonio,4176,#4176 4176,2611 West Avenue,TX,78201
Meineke,Plano,4180,#4180 4180,1911 West 15th Street,TX,75075
Meineke,Temecula,4181,#4181 4181,27685 Jefferson Ave.,CA,92590
Meineke,Mesa,4183,#4183 4183,2035 West Broadway Rd,AZ,85202
Meineke,Atlanta,4184,#4184 4184,8600 Roswell Road,GA,30350
Meineke,Fallbrook,4195,#4195 4195,742 South Main Avenue,CA,92028
Meineke,Poway,4197,#4197 4197,13506 Pomerado Rd,CA,92064
Meineke,Ventura,4202,#4202 4202,4519 Telephone Road,CA,93003
Meineke,Hesperia,4204,#4204 4204,16817 Main Street,CA,92345
Meineke,MISSION VIEJO,4214,#4214 4214,25902 El Paseo,CA,92691
Meineke,Tucson,4217,#4217 4217,8040 N. Oracle Rd,AZ,85704
Meineke,GLENDALE,4220,#4220 4220,16805 North 67th Avenue,AZ,85306
Meineke,Thornton,4226,#4226 4226,651 East 120th Avenue,CO,80233
Meineke,SAN DIEGO,4229,#4229 4229,740 Dennery Road,CA,92154
Meineke,PHOENIX,4230,#4230 4230,3838 E. Thunderbird Rd,AZ,85032
Meineke,Phoenix,4234,#4234 4234,4115 East Chandler Boulevard,AZ,85044
Meineke,Chandler,4236,#4236 4236,900 North Alma School Road,AZ,85224
Meineke,LONGMONT,4237,#4237 4237,1254 South Hover Street,CO,80501
Meineke,Carrollton,4239,#4239 4239,2540 Old Denton Road,TX,75006
Meineke,Lewisville,4241,#4241 4241,1550 West Main Street,TX,75067
Meineke,Boise,4251,#4251 4251,5115 West State Street,ID,83703
Meineke,Escondido,4257,#4257 4257,1122 West Valley Parkway,CA,92025
Meineke,Mesa,4264,#4264 4264,6757 East Southern Avenue,AZ,85206
Meineke,Houston,4275,#4275 4275,10611 Westheimer Rd,TX,77042
Meineke,FLAGSTAFF,4286,#4286 4286,1830 East Route 66,AZ,86004
Meineke,Gilbert,4291,#4291 4291,735 W. Warner Rd,AZ,85233
Meineke,Meridian,4305,#4305 4305,1975 East Fairview Avenue,ID,83642
Meineke,Boise,4310,#4310 4310,12367 West Chinden Boulevard,ID,83713
Meineke,Midwest City,4312,#4312 4312,307 South Air Depot Boulevard,OK,73110
Meineke,Modesto,4316,#4316 4316,1641 North Carpenter Road,CA,95351
Meineke,Boise,4326,#4326 4326,1630 South Hadley Avenue,ID,83709
Meineke,Houston,4327,#4327 4327,4448 Cypress Creek Parkway,TX,77068
Meineke,Layton,4329,#4329 4329,2085 North Hill Field Road,UT,84041
Meineke,Everett,4333,#4333 4333,9424 Evergreen Way,WA,98204
Meineke,ANTHEM,4337,#4337 4337,42410 N. Vision Way,AZ,85086
Meineke,SURPRISE,4338,#4338 4338,15494 West Bell Road,AZ,85374
Meineke,Peoria,4342,#4342 4342,10380 N. 91st Ave.,AZ,85345
Meineke,Peoria,4350,#4350 4350,8880 W. Bell Rd,AZ,85382
Meineke,Wichita,4362,#4362 4362,3450 North Woodlawn Boulevard,KS,67220
Meineke,Sapulpa,4363,#4363 4363,120 North Mission,OK,74066
Meineke,Edmond,4365,#4365 4365,2400 South Broadway,OK,73013
Meineke,Bloomington,4366,#4366 4366,5445 West State Road 46,IN,47404
Meineke,Glendale,4369,#4369 4369,7105 North 51st Avenue,AZ,85301
Meineke,PORT ORCHARD,4374,#4374 4374,1445 Olney Avenue,WA,98366
Meineke,Tucson,4378,#4378 4378,6905 East Broadway Boulevard,AZ,85710
Meineke,Concord,4379,#4379 4379,2151 Monument Boulevard,CA,94520
Meineke,Pine Bluff,4384,#4384 4384,2700 West 28th Avenue,AR,71603
Meineke,Nampa,4393,#4393 4393,1227 Caldwell Blvd.,ID,83651
Meineke,Sylva,4394,#4394 4394,1188 West Main Street,NC,28779
Meineke,Burlington,5044,#5044 5044,4235 Fairview Street,ON,L7L 2A4
Meineke,Oakville,5049,#5049 5049,143 Lakeshore Road West,ON,L6K 1E5
Meineke,Hamilton,5064,#5064 5064,970 Barton Street East,ON,L8L 3C7
Meineke,Toronto,5066,#5066 5066,1049 The Queensway Avenue,ON,M8Z 1R1
Meineke,ST CATHARINES,5071,#5071 5071,76 Hartzel Rd.,ON,L2P 1M9
