keywords,city,Aggdata Store Number,store_number,address,state,zip_code
Menard's,EAU CLAIRE,3011,3011,3210 N CLAIREMONT AVE,WI,54703
Menard's,LA CROSSE,3012,3012,223 LANG DRIVE,WI,54603
Menard's,ROCHESTER,3013,3013,3000 SOUTH BROADWAY,MN,55904
Menard's,WAITE PARK,3015,3015,251 TENTH AVENUE SOUTH,MN,56387
Menard's,WAUSAU,3016,3016,2801 STEWART AVENUE,WI,54401
Menard's,WEST ST PAUL,3017,3017,1445 ROBERT STREET SOUTH,MN,55118
Menard's,FRIDLEY,3018,3018,5351 CENTRAL AVENUE NE,MN,55421
Menard's,MARION,3020,3020,200 MENARD LANE,IA,52302
Menard's,BURNSVILLE,3021,3021,2700 HWY 13 WEST,MN,55337
Menard's,OAKDALE,3022,3022,3205 HADLEY AVENUE NORTH,MN,55128
Menard's,OSHKOSH,3025,3025,2351 WESTOWNE AVENUE,WI,54904
Menard's,COON RAPIDS,3028,3028,3045 MAIN STREET,MN,55448
Menard's,MILWAUKEE,3029,3029,8110 WEST BROWN DEER ROAD,WI,53223
Menard's,GRAND CHUTE,3030,3030,5105 INTEGRITY WAY,WI,54913
Menard's,OAK CREEK,3032,3032,6800 S 27TH STREET,WI,53154
Menard's,ROCHESTER,3033,3033,5150 E FRONTAGE RD HWY 52,MN,55901
Menard's,MONONA,3034,3034,6401 COPPS AVENUE,WI,53716
Menard's,WEST FARGO,3036,3036,1300 13TH AVENUE EAST,ND,58078
Menard's,WATERLOO,3040,3040,1051 E SAN MARNAN DRIVE,IA,50702
Menard's,GRAND FORKS,3041,3041,3550 32ND AVENUE SOUTH,ND,58201
Menard's,ROCKFORD,3042,3042,2001 S PERRYVILLE ROAD,IL,61112
Menard's,STURTEVANT,3043,3043,3101 SOUTH OAKES ROAD,WI,53177
Menard's,CLIVE,3045,3045,12000 HICKMAN ROAD,IA,50325
Menard's,DES MOINES,3046,3046,6000 SE 14TH STREET,IA,50320
Menard's,APPLE VALLEY,3047,3047,14960 FLORENCE TRAIL,MN,55124
Menard's,MANKATO,3050,3050,1771 PREMIER DRIVE,MN,56001
Menard's,BROOKLYN PARK,3051,3051,7800 LAKELAND AVENUE N,MN,55445
Menard's,WEST ALLIS,3052,3052,2535 SOUTH 108TH STREET,WI,53227
Menard's,EAU CLAIRE,3053,3053,3619 SOUTH HASTINGS WAY,WI,54701
Menard's,HERMANTOWN,3054,3054,4809 MILLER TRUNK HIGHWAY,MN,55811
Menard's,BISMARCK,3055,3055,3300 STATE STREET,ND,58503
Menard's,CHAMPAIGN,3056,3056,620 TOWN CENTER BLVD,IL,61822
Menard's,DUBUQUE,3057,3057,5300 DODGE STREET,IA,52003
Menard's,MADISON,3058,3058,430 COMMERCE DRIVE,WI,53719
Menard's,MAPLEWOOD,3059,3059,2280 MAPLEWOOD DRIVE,MN,55109
Menard's,FORSYTH,3060,3060,533 MARKET DRIVE,IL,62535
Menard's,DAVENPORT,3063,3063,110 W 53RD STREET,IA,52806
Menard's,SIOUX FALLS,3064,3064,3001 S SHIRLEY AVENUE,SD,57106
Menard's,SIOUX CITY,3065,3065,5900 GORDON DRIVE,IA,51106
Menard's,WEST BURLINGTON,3066,3066,922 WEST AGENCY ROAD,IA,52655
Menard's,OMAHA,3068,3068,708 NORTH 120TH STREET,NE,68154
Menard's,TERRE HAUTE,3070,3070,1380 FORT HARRISON ROAD,IN,47804
Menard's,CRYSTAL LAKE,3071,3071,4850 ROUTE 14,IL,60014
Menard's,NORMAL,3072,3072,900 GREENBRIAR DRIVE,IL,61761
Menard's,JOLIET,3073,3073,2524 W JEFFERSON STREET,IL,60435
Menard's,DULUTH,3074,3074,503 NORTH 50TH AVE WEST,MN,55807
Menard's,INDIANAPOLIS,3076,3076,6800 PENDLETON PIKE,IN,46226
Menard's,GARY,3080,3080,6050 WEST RIDGE ROAD,IN,46408
Menard's,PEKIN,3081,3081,3535 COURT STREET,IL,61554
Menard's,COUNCIL BLUFFS,3082,3082,3200 MANAWA CENTRE DRIVE,IA,51501
Menard's,CARMEL,3083,3083,2150 E GREYHOUND PASS,IN,46033
Menard's,INDIANAPOLIS,3084,3084,7140 S EMERSON AVENUE,IN,46237
Menard's,GURNEE,3085,3085,6401 GRAND AVENUE,IL,60031
Menard's,TINLEY PARK,3086,3086,6851 W 159TH STREET,IL,60477
Menard's,MATTESON,3087,3087,21630 SOUTH CICERO AVENUE,IL,60443
Menard's,CRESTWOOD,3088,3088,4701 W CAL-SAG ROAD,IL,60445
Menard's,HUDSON,3089,3089,1400 GATEWAY BLVD,WI,54016
Menard's,ANKENY,3090,3090,2505 S DELAWARE AVENUE,IA,50021
Menard's,IOWA CITY,3091,3091,2605 NAPLES AVENUE,IA,52240
Menard's,CHICAGO,3092,3092,2601 N CLYBOURN STREET,IL,60614
Menard's,BRADLEY,3093,3093,1260 CHRISTINE DRIVE,IL,60915
Menard's,MASON CITY,3094,3094,540 VILLAGE GREEN DR SW,IA,50401
Menard's,ELKHART,3095,3095,601 E WINDSOR AVENUE,IN,46514
Menard's,GOSHEN,3096,3096,1925 LINCOLNWAY EAST,IN,46526
Menard's,WATERTOWN,3097,3097,2100 NINTH AVENUE SE,SD,57201
Menard's,MISHAWAKA,3098,3098,365 WEST UNIVERSITY DRIVE,IN,46545
Menard's,COMSTOCK PARK,3101,3101,4151 ALPINE AVENUE,MI,49321
Menard's,MUSKEGON,3102,3102,5487 HARVEY STREET,MI,49444
Menard's,NORFOLK,3103,3103,2311 TAYLOR AVENUE,NE,68701
Menard's,GRAND ISLAND,3104,3104,3620 WEST STATE STREET,NE,68803
Menard's,CEDAR RAPIDS,3105,3105,2800 WILEY BLVD SW,IA,52404
Menard's,FOND DU LAC,3106,3106,1200 RICKMEYER DRIVE,WI,54937
Menard's,PLOVER,3107,3107,1901 PLOVER ROAD,WI,54467
Menard's,VALPARAISO,3108,3108,351 SILHAVY ROAD,IN,46383
Menard's,BELLEVUE,3109,3109,10501 S 21ST STREET,NE,68123
Menard's,APPLETON,3111,3111,3300 E EXPRESS COURT,WI,54915
Menard's,LINCOLN,3112,3112,3500 NORTH 27TH STREET,NE,68521
Menard's,MINOT,3113,3113,101 28TH AVENUE SE,ND,58701
Menard's,COTTAGE GROVE,3114,3114,9000 E POINT DOUGLAS ROAD,MN,55016
Menard's,ONALASKA,3115,3115,1301 SAND LAKE ROAD,WI,54650
Menard's,HOMEWOOD,3117,3117,17545 SOUTH HALSTED,IL,60430
Menard's,MELROSE PARK,3118,3118,8311 W NORTH AVENUE,IL,60160
Menard's,FOX LAKE,3119,3119,1400 S US HIGHWAY 12,IL,60020
Menard's,DOLTON,3120,3120,14975 LINCOLN AVENUE,IL,60419
Menard's,BATAVIA,3121,3121,300 N RANDALL ROAD,IL,60510
Menard's,BRIDGEVIEW,3122,3122,9140 SOUTH HARLEM AVENUE,IL,60455
Menard's,GREEN BAY,3123,3123,2560 STEFFENS COURT,WI,54311
Menard's,ELK RIVER,3125,3125,19521 EVANS STREET NW,MN,55330
Menard's,MADISON,3126,3126,2102 EAST SPRINGS DRIVE,WI,53704
Menard's,KENOSHA,3127,3127,7330 74TH PLACE,WI,53142
Menard's,FOREST LAKE,3128,3128,22800 EVERTON AVENUE N,MN,55025
Menard's,OAK PARK HEIGHTS,3129,3129,5800 KRUEGER LANE NORTH,MN,55082
Menard's,PERU,3130,3130,5353 MAHONEY DRIVE,IL,61354
Menard's,MT PROSPECT,3131,3131,740 E. RAND RD,IL,60056
Menard's,ABERDEEN,3132,3132,3821 SIXTH AVENUE SE,SD,57401
Menard's,RAPID CITY,3133,3133,710 N. CREEK DRIVE,SD,57703
Menard's,FORT DODGE,3134,3134,3319 5TH AVENUE SOUTH,IA,50501
Menard's,MUSCATINE,3135,3135,3408 HWY 61 NORTH,IA,52761
Menard's,AVON,3136,3136,10555 EAST US HIGHWAY 36,IN,46123
Menard's,MAPLE GROVE,3137,3137,16500 96TH AVENUE NORTH,MN,55311
Menard's,MUNCIE,3138,3138,3401 NORTH NEBO ROAD,IN,47304
Menard's,SUPERIOR,3139,3139,4425 TOWER AVENUE,WI,54880
Menard's,WEST CHICAGO,3140,3140,220 WEST NORTH AVENUE,IL,60185
Menard's,MANITOWOC,3141,3141,5120 CALUMET AVENUE,WI,54220
Menard's,FORT WAYNE,3142,3142,5511 MEIJER DRIVE,IN,46835
Menard's,PEWAUKEE,3143,3143,1357 CAPITOL DRIVE,WI,53072
Menard's,WYOMING,3144,3144,5555 CLYDE PARK AVENUE SW,MI,49509
Menard's,SYCAMORE,3145,3145,1825 MERCANTILE DRIVE,IL,60178
Menard's,KOKOMO,3146,3146,1715 EAST HAVENS STREET,IN,46901
Menard's,MARSHFIELD,3147,3147,2116 N CENTRAL AVENUE,WI,54449
Menard's,CARPENTERSVILLE,3148,3148,2300 RANDALL ROAD,IL,60110
Menard's,WEST BEND,3149,3149,575 WEST PARADISE DRIVE,WI,53095
Menard's,KALAMAZOO,3150,3150,6800 W MAIN STREET,MI,49009
Menard's,BATTLE CREEK,3151,3151,12765 HARPER VILLAGE DR,MI,49014
Menard's,RICE LAKE,3152,3152,2920 DECKER DRIVE,WI,54868
Menard's,ALTOONA,3153,3153,370 36TH AVENUE SW,IA,50009
Menard's,CAMBRIDGE,3154,3154,2355 SECOND AVENUE SE,MN,55008
Menard's,HUTCHINSON,3155,3155,1525 MONTREAL STREET SE,MN,55350
Menard's,LAFAYETTE,3156,3156,2850 CREASY LANE SOUTH,IN,47905
Menard's,LANSING,3157,3157,8505 DELTA MARKET DRIVE,MI,48917
Menard's,LANSING,3158,3158,725 AMERICAN ROAD,MI,48911
Menard's,JOHNSON CREEK,3159,3159,440 WRIGHT ROAD,WI,53038
Menard's,DANVILLE,3160,3160,36 EAST WEST NEWELL ROAD,IL,61834
Menard's,JACKSON,3161,3161,3588 PAGE AVENUE,MI,49203
Menard's,MARINETTE,3162,3162,2080 OLD PESHTIGO ROAD,WI,54143
Menard's,BAXTER,3163,3163,15236 DELLWOOD DRIVE,MN,56401
Menard's,YORKVILLE,3164,3164,1800 MARKETVIEW DRIVE,IL,60560
Menard's,ANDERSON,3165,3165,2245 EAST 67TH STREET,IN,46013
Menard's,FORT WAYNE,3166,3166,6310 ILLINOIS ROAD,IN,46804
Menard's,CAMBY,3167,3167,8301 WINDFALL LANE,IN,46113
Menard's,RHINELANDER,3168,3168,2221 NORTH STEVENS STREET,WI,54501
Menard's,GREENWOOD,3169,3169,300 SOUTH MARLIN DRIVE,IN,46142
Menard's,DEFIANCE,3170,3170,08845 STATE ROUTE 66 N,OH,43512
Menard's,INDIANAPOLIS,3171,3171,7145 EAST 96TH STREET,IN,46250
Menard's,WINONA,3172,3172,1075 FRONTENAC DRIVE,MN,55987
Menard's,GERMANTOWN,3173,3173,W186N9754 APPLETON AVENUE,WI,53022
Menard's,BLOOMINGTON,3174,3174,1285 SOUTH LIBERTY DRIVE,IN,47403
Menard's,GLENDALE HEIGHTS,3175,3175,521 E NORTH AVENUE,IL,60139
Menard's,EFFINGHAM,3176,3176,1100 AVE OF MID-AMERICA,IL,62401
Menard's,DUNDAS,3177,3177,100 SCHILLING DRIVE SOUTH,MN,55019
Menard's,BAY CITY,3178,3178,2864 EAST WILDER ROAD,MI,48706
Menard's,LINCOLN,3179,3179,8900 ANDERMATT DRIVE,NE,68526
Menard's,COLUMBUS,3180,3180,2315 MERCHANTS MILE,IN,47201
Menard's,ST PAUL,3181,3181,2005 W UNIVERSITY AVENUE,MN,55104
Menard's,PLAINFIELD,3182,3182,13441 S. ROUTE 59,IL,60585
Menard's,ALEXANDRIA,3183,3183,215 50TH AVENUE WEST,MN,56308
Menard's,LIMA,3184,3184,2614 NORTH EASTOWN ROAD,OH,45807
Menard's,OTTUMWA,3185,3185,1898 VENTURE DRIVE,IA,52501
Menard's,MICHIGAN CITY,3186,3186,5260 SOUTH FRANKLIN,IN,46360
Menard's,FINDLAY,3187,3187,15110 FLAG CITY DRIVE,OH,45840
Menard's,BLAINE,3188,3188,10251 BALTIMORE STREET NE,MN,55449
Menard's,HOMER GLEN,3189,3189,13956 SOUTH BELL ROAD,IL,60491
Menard's,BARABOO,3190,3190,1040 HIGHWAY 12,WI,53913
Menard's,WOODSTOCK,3191,3191,2100 LAKE AVENUE,IL,60098
Menard's,SIOUX FALLS,3192,3192,110 NORTH HIGHLINE AVENUE,SD,57110
Menard's,WILLMAR,3193,3193,3330 FIRST STREET SOUTH,MN,56201
Menard's,NORTH PLATTE,3194,3194,4571 SOUTH PARKWAY DRIVE,NE,69101
Menard's,FRANKLIN,3195,3195,10925 WEST SPEEDWAY DRIVE,WI,53132
Menard's,ANGOLA,3196,3196,3200 NORTH WAYNE STREET,IN,46703
Menard's,TRAVERSE CITY,3197,3197,4155 US 31 SOUTH,MI,49684
Menard's,CICERO,3198,3198,2333 S CICERO AVENUE,IL,60804
Menard's,RED WING,3199,3199,320 TYLER ROAD SOUTH,MN,55066
Menard's,KEARNEY,3200,3200,6411 FIRST AVENUE,NE,68847
Menard's,HOLLAND,3201,3201,7001 ORCHARD CENTRE ROAD,OH,43528
Menard's,SPENCER,3202,3202,1301 12TH AVENUE SW,IA,51301
Menard's,BUFFALO,3203,3203,1415 COUNTY ROAD 134,MN,55313
Menard's,OREGON,3204,3204,3100 BROWN ROAD,OH,43616
Menard's,ANTIGO,3205,3205,2001 JEROME STREET,WI,54409
Menard's,HODGKINS,3206,3206,6100 EAST AVENUE,IL,60525
Menard's,SPRINGFIELD,3207,3207,2701 MARKETPLACE DRIVE,IL,62702
Menard's,FORT WAYNE,3208,3208,7702 SOUTHTOWN CROSSING,IN,46816
Menard's,BIG RAPIDS,3209,3209,14777 215TH AVENUE,MI,49307
Menard's,ST. JOSEPH,3210,3210,4320 COMMONWEALTH DRIVE,MO,64503
Menard's,ANTIOCH,3211,3211,369 East Route 173,IL,60002
Menard's,BURLINGTON,3212,3212,2100 MILWAUKEE AVENUE,WI,53105
Menard's,DETROIT LAKES,3213,3213,1465 MENARD DRIVE,MN,56501
Menard's,MARION,3214,3214,2400 MARION-MT GILEAD RD,OH,43302
Menard's,MORRIS,3215,3215,500 MENARD DRIVE,IL,60450
Menard's,SIDNEY,3216,3216,401 LESTER AVENUE,OH,45365
Menard's,BELOIT,3217,3217,2851 MILWAUKEE ROAD,WI,53511
Menard's,CREST HILL,3218,3218,17441 WEBER ROAD,IL,60403
Menard's,MARION,3219,3219,2500 BLUE HERON DRIVE,IL,62959
Menard's,ST CROIX FALLS,3220,3220,1285 208TH STREET,WI,54024
Menard's,MT PLEASANT,3221,3221,4615 ENCORE BLVD,MI,48858
Menard's,MONTGOMERY,3222,3222,1200 OGDEN AVENUE,IL,60538
Menard's,SAGINAW,3223,3223,5806 STATE STREET,MI,48603
Menard's,BEAVER DAM,3224,3224,121 FRANCES LANE,WI,53916
Menard's,SOUTH HAVEN,3225,3225,125 73RD ST,MI,49090
Menard's,WEST MILWAUKEE,3226,3226,2101 MILLER PARK WAY,WI,53219
Menard's,RICHMOND,3227,3227,3800 NATIONAL ROAD EAST,IN,47374
Menard's,PORTAGE,3228,3228,6220 US ROUTE 6,IN,46368
Menard's,MOORHEAD,3229,3229,3000 27TH AVE SOUTH,MN,56560
Menard's,ELKHORN,3230,3230,750 N 205TH STREET,NE,68022
Menard's,PLATTEVILLE,3231,3231,1700 PROGRESSIVE PARKWAY,WI,53818
Menard's,PRINCETON,3232,3232,201 S RICHLAND CREEK DR,IN,47670
Menard's,HASTINGS,3233,3233,3400 OSBORNE DRIVE EAST,NE,68901
Menard's,LANCASTER,3234,3234,1425 ETY POINTE DRIVE,OH,43130
Menard's,GALESBURG,3235,3235,2791 VETERANS DRIVE,IL,61401
Menard's,IONIA,3236,3236,3063 SOUTH STATE ROAD,MI,48846
Menard's,WASHINGTON,3237,3237,1975 FREEDOM PARKWAY,IL,61571
Menard's,TIPP CITY,3240,3240,75 WELLER DRIVE,OH,45371
Menard's,CLIO,3241,3241,11357 LINDEN ROAD,MI,48420
Menard's,TOLEDO,3242,3242,1415 E. ALEXIS ROAD,OH,43612
Menard's,CASPER,3243,3243,6220 MENARD DRIVE,WY,82609
Menard's,CELINA,3244,3244,1920 HAVEMANN RD,OH,45822
Menard's,CHICAGO,3245,3245,4501 W. NORTH AVENUE,IL,60639
Menard's,JEFFERSON CITY,3246,3246,810 STONECREEK DRIVE,MO,65109
Menard's,SHEBOYGAN,3247,3247,4825 VANGUARD DRIVE,WI,53083
Menard's,PEORIA,3248,3248,2627 W TOWNLINE ROAD,IL,61615
Menard's,MACHESNEY PARK,3249,3249,1600 WEST LANE ROAD,IL,61115
Menard's,FREEPORT,3250,3250,2755 IL ROUTE 26 SOUTH,IL,61032
Menard's,COLUMBUS,3251,3251,340 EAST 24TH STREET,NE,68601
Menard's,JANESVILLE,3252,3252,2001 MORSE STREET,WI,53545
Menard's,HANOVER PARK,3253,3253,7435 BARRINGTON ROAD,IL,60133
Menard's,LONG GROVE,3254,3254,2700 LAKE COOK RD,IL,60047
Menard's,CHILLICOTHE,3255,3255,1570 NORTH BRIDGE STREET,OH,45601
Menard's,ESCANABA,3256,3256,3300 LUDINGTON STREET,MI,49829
Menard's,EVANSVILLE,3257,3257,2808 MENARD DRIVE,IN,47715
Menard's,MASSILLON,3258,3258,3725 ERIE STREET SOUTH,OH,44646
Menard's,ONTARIO,3259,3259,1999 WALKER LAKE ROAD,OH,44906
Menard's,SCOTTSBLUFF,3260,3260,2401 DELTA DRIVE,NE,69361
Menard's,WAUKESHA,3261,3261,2315 BLUEMOUND ROAD,WI,53186
Menard's,QUINCY,3262,3262,936 NORTH 54TH STREET,IL,62305
Menard's,COLUMBIA,3263,3263,3340 VANDIVER DRIVE,MO,65202
Menard's,SEDALIA,3264,3264,4400 WISCONSIN AVENUE,MO,65301
Menard's,SANDUSKY,3265,3265,1101 LAKECREST PARKWAY,OH,44870
Menard's,WARSAW,3266,3266,1000 HUSKY TRAIL,IN,46582
Menard's,FREMONT,3267,3267,3600 EAST 24th STREET,NE,68025
Menard's,EDEN PRAIRIE,3268,3268,12600 PLAZA DRIVE,MN,55344
Menard's,BEMIDJI,3269,3269,2600 PAUL BUNYAN DRIVE NW,MN,56601
Menard's,MARSHALL,3270,3270,1500 BOYER DRIVE,MN,56258
Menard's,HAMMOND,3271,3271,1233 165TH STREET,IN,46320
Menard's,STERLING,3272,3272,4220 E. 30TH STREET,IL,61081
Menard's,COLUMBUS,3273,3273,1805 MORSE ROAD,OH,43229
Menard's,HAMILTON,3274,3274,2865 PRINCETON ROAD,OH,45011
Menard's,WICHITA,3275,3275,3250 N. TOBEN STREET,KS,67226
Menard's,WICHITA,3276,3276,3660 N. MAIZE ROAD,KS,67205
Menard's,DAVISON,3277,3277,7410 E. COURT STREET,MI,48423
Menard's,MANHATTAN,3278,3278,515 McCALL ROAD,KS,66502
Menard's,SALINA,3279,3279,805 VIRGINIA COURT,KS,67401
Menard's,COLUMBUS,3280,3280,6800 E. BROAD STREET,OH,43213
Menard's,DE PERE,3281,3281,1313 LAWRENCE DRIVE,WI,54115
Menard's,GOLDEN VALLEY,3282,3282,6800 WAYZATA BLVD,MN,55426
Menard's,LEBANON,3283,3283,402 N. SAM RALSTON ROAD,IN,46052
Menard's,MARSHALLTOWN,3284,3284,504 IOWA AVE WEST,IA,50158
Menard's,MOLINE,3285,3285,6400 44TH AVENUE,IL,61265
Menard's,CAPE GIRARDEAU,3286,3286,535 SIEMERS DRIVE,MO,63701
Menard's,CHEYENNE,3287,3287,4355 WINDMILL RD,WY,82009
Menard's,LAKE OZARK,3288,3288,1015 BARRED OWL LANE,MO,65049
Menard's,OWENSBORO,3290,3290,3001 HEARTLAND CROSSING,KY,42303
Menard's,TOPEKA,3291,3291,6401 SW 17th STREET,KS,66615
Menard's,YANKTON,3292,3292,3210 BROADWAY AVE.,SD,57078
Menard's,SPRINGFIELD,3293,3293,2250 CHUCKWAGON DRIVE,IL,62711
Menard's,HOWARD,3294,3294,2300 WOODMAN DRIVE,WI,54303
Menard's,VIRGINIA,3295,3295,1500 17th STREET SOUTH,MN,55792
Menard's,MIAMISBURG,3296,3296,8480 SPRINGBORO PIKE,OH,45342
Menard's,RICHFIELD,3297,3297,7701 NICOLLET AVE.,MN,55423
Menard's,SCHERERVILLE,3298,3298,1300 US HWY 41,IN,46375
Menard's,CHESTERFIELD TOWNSHP,3299,3299,45500 MARKET PLACE BLVD.,MI,48051
Menard's,NEW ULM,3300,3300,2200 WESTRIDGE ROAD,MN,56073
Menard's,THREE RIVERS,3301,3301,1001 WARNER DRIVE,MI,49093
Menard's,CEDAR FALLS,3302,3302,1125 BRANDILYNN BLVD,IA,50613
Menard's,EVERGREEN PARK,3303,3303,9100 S. WESTERN AVENUE,IL,60805
Menard's,GARDEN CITY,3304,3304,1110 LAREU RD,KS,67846
Menard's,ST. PETERS,3305,3305,151 SPENCER RD,MO,63376
Menard's,O'FALLON,3306,3306,1179 CENTRAL PARK DRIVE,IL,62269
Menard's,PORT HURON,3307,3307,2800 INDIAN DRIVE,MI,48060
Menard's,LIVONIA,3308,3308,12701 MIDDLEBELT RD.,MI,48150
Menard's,OMAHA,3309,3309,7337 L ST.,NE,68127
Menard's,EVENDALE,3311,3311,2789 CUNNINGHAM DRIVE,OH,45241
Menard's,LEWIS CENTER,3312,3312,7241 GRAPHICS WAY,OH,43035
Menard's,DICKINSON,3313,3313,4411 WEST RIDGE DRIVE,ND,58601
Menard's,KEWANEE,3502,3502,157 W SOUTH,IL,61443
Menard's,ELGIN,3503,3503,825 SOUTH RANDALL ROAD,IL,60123
Menard's,MERRILLVILLE,3504,3504,6300 MISSISSIPPI STREET,IN,46410
Menard's,NAPERVILLE,3505,3505,715 FORT HILL DRIVE,IL,60540
Menard's,INTERNATIONAL FALLS,3507,3507,1985 VALLEY PINE CIRCLE,MN,56649
Menard's,BOLINGBROOK,3508,3508,290 NORTH BOLINGBROOK DR,IL,60440
Menard's,MARQUETTE,3510,3510,3445 US HIGHWAY 41 WEST,MI,49855
Menard's,WEST LAFAYETTE,3511,3511,2868 US 52 WEST,IN,47906
Menard's,MITCHELL,3515,3515,815 EAST SPRUCE STREET,SD,57301
Menard's,PORTAGE,3519,3519,879 MALL DRIVE,MI,49024
Menard's,HOLLAND,3520,3520,572 E 16TH STREET,MI,49423
Menard's,MORTON GROVE,3523,3523,6301 OAKTON STREET,IL,60053
Menard's,SOUTH BEND,3525,3525,902 ERSKINE PLAZA,IN,46614
Menard's,EAU CLAIRE,3598,3598,5101 MENARD DRIVE,WI,54703
