keywords,city,Aggdata Store Number,store_number,address,state,zip_code
Michaels Stores,Rockford,102,102,6301 E State St,IL,61108-2540
Michaels Stores,Downers Grove,103,103,1206 75th St,IL,60516-4235
Michaels Stores,Orland Park,104,104,15102 S La Grange Rd,IL,60462-3709
Michaels Stores,Smyrna,1002,1002,2540 SE Hargrove Rd Ste C,GA,30080-2801
Michaels Stores,Dunwoody,1004,1004,1155 Mount Vernon Hwy Ste 150,GA,30338-5441
Michaels Stores,Lubbock,1010,1010,6705 Slide Rd,TX,79424-1513
Michaels Stores,Bellingham,1034,1034,251 Hartford Ave,MA,02019-3007
Michaels Stores,Massapequa,1035,1035,5500 Sunrise Hwy,NY,11758-5399
Michaels Stores,Sumter,1036,1036,1267 Broad St,SC,29150-1973
Michaels Stores,Blue Springs,1037,1037,1050 NE Coronado Dr,MO,64014
Michaels Stores,Park City,1038,1038,"6400 N Hwy 224, Unit B",UT,84098
Michaels Stores,Lady Lake,1039,1039,630 US Hwy 441,FL,32159-3777
Michaels Stores,Chicago,1040,1040,3131 N Clark St,IL,60657-4413
Michaels Stores,Ft. Lauderdale,1041,1041,1712 N Federal Hwy,FL,33305-2543
Michaels Stores,Gainesville,1043,1043,"983 Dawsonville Hwy NW, Ste A",GA,30501-2618
Michaels Stores,Norridge,1044,1044,7010 W. Forest Preserve Dr.,IL,60706-7123
Michaels Stores,New Bern,1045,1045,3028 Dr ML King Jr Blvd,NC,28562
Michaels Stores,Boone,1047,1047,320 Watauga Village Dr,NC,28607-5263
Michaels Stores,Highland,1049,1049,10323 Indianapolis Blvd.,IN,46322
Michaels Stores,Bayonne,1050,1050,321 Bayonne Crossing Way,NJ,07002-5304
Michaels Stores,Hyannis,1052,1052,88 Enterprise Road,MA,2601
Michaels Stores,North Weymouth,1053,1053,729 Bridge St,MA,02191-2139
Michaels Stores,Orlando,1054,1054,400 N. Alafaya Trail,FL,32828
Michaels Stores,Bala Cynwyd,1055,1055,57 E City Ave,PA,19004-2421
Michaels Stores,Irving,1056,1056,7635 N MacArthur Blvd,TX,75063
Michaels Stores,Greenwood,1059,1059,"420 Hwy 72 Bypass, Ste 39A",SC,29649-1407
Michaels Stores,Mt. Pleasant,1060,1060,1501 N Hwy 17 Unit A,SC,29464-3342
Michaels Stores,Slidell,1061,1061,300 Town Center Pkwy,LA,70458
Michaels Stores,Alcoa,1062,1062,111 Hamilton Crossing Dr,TN,37701-2263
Michaels Stores,Falmouth,1063,1063,"137 Teaticket Hwy, Ste A-13",MA,2536
Michaels Stores,Holly Springs,1064,1064,164 Grand Hill Place,NC,27540
Michaels Stores,Richmond,1065,1065,2025 Lantern Ridge Dr,KY,40475-6010
Michaels Stores,Frankfort,1066,1066,7000 John Davis Dr,KY,40601
Michaels Stores,El Paso,1068,1068,811 Sunland Park Dr,TX,79912-5147
Michaels Stores,Cypress,1069,1069,25715 Northwest Fwy,TX,77429
Michaels Stores,Roswell,1070,1070,612A W Crossville Rd,GA,30075-2560
Michaels Stores,Lakewood,1072,1072,279 E Fairmount Ave Ste I,NY,14750-1900
Michaels Stores,Lisbon,1073,1073,"160 River Rd, Ste A-150",CT,6351
Michaels Stores,Studio City,1074,1074,11239 Ventura Blvd,CA,91604
Michaels Stores,Newport,1076,1076,158 Pavilion Pkwy,KY,41071-2884
Michaels Stores,Hampton,1077,1077,2170 Coliseum Dr Ste C,VA,23666-5985
Michaels Stores,Bessemer,1079,1079,4817 Promenade Pkwy,AL,35022-7305
Michaels Stores,Cambridge,1081,1081,37 White St,MA,2140
Michaels Stores,Huntsville,1082,1082,975 Airport Rd SW,AL,35803-1392
Michaels Stores,Henrico,1083,1083,4531 S Laburnum Ave Ste 700,VA,23231-2481
Michaels Stores,Biddeford,1084,1084,106 Shops Way,ME,04005-9436
Michaels Stores,Kansas City,1085,1085,8551 NW Prairie View Rd,MO,64153-1844
Michaels Stores,Gig Harbor,1087,1087,4919 Point Fosdick Dr. NW,WA,98335
Michaels Stores,Murphy,1088,1088,209 E FM 544,TX,75094-4023
Michaels Stores,Waynesville,1089,1089,305 Town Center Loop,NC,28786-6872
Michaels Stores,Marlton,1090,1090,191 Route 73 S,NJ,08053-4120
Michaels Stores,American Fork,1091,1091,245 N Meadow Ln (750 West),UT,84003
Michaels Stores,Arlington,1092,1092,130 Lincoln Square,TX,76011
Michaels Stores,Owings Mills,1093,1093,"9616 Reistertown Rd, Ste 125",MD,21117
Michaels Stores,Bowling Green,1094,1094,2313 Gary Farms Blvd,KY,42104-4418
Michaels Stores,Delray Beach,1095,1095,1630 S Federal Hwy,FL,33483-5030
Michaels Stores,Edgewater,1098,1098,465 River Rd,NJ,07020-1145
Michaels Stores,Olive Branch,1099,1099,5030 Goodman Rd,MS,38654-7905
Michaels Stores,Houston,1103,1103,6823 Hwy 6 N,TX,77084-1315
Michaels Stores,Oklahoma City,1104,1104,5012 N May Ave,OK,73112-6010
Michaels Stores,Webster,1118,1118,1019 W Bay Area Blvd,TX,77598-4047
Michaels Stores,Sugarland,1124,1124,15385 Southwest Frwy,TX,77478-3832
Michaels Stores,Collierville,1151,1151,3621 S Houston Levee Rd,TN,38017
Michaels Stores,Westerly,1152,1152,15 Airport Rd.,RI,2891
Michaels Stores,Epping,1153,1153,"11 Brickyard Square, Ste 19",NH,03042-4405
Michaels Stores,Statesville,1154,1154,216 Turnersburg Hwy,NC,28625
Michaels Stores,Mansfield,1155,1155,"95 Storrs Rd, Ste 1A",CT,6250
Michaels Stores,Rosenberg,1157,1157,23701 Brazos Town Crossing,TX,77469
Michaels Stores,Brentwood,1158,1158,1519 S Brentwood Blvd,MO,63144-1406
Michaels Stores,Humble,1159,1159,19123 W Lake Houston Pkwy,TX,77346
Michaels Stores,Fort Worth,1160,1160,359 Carroll St,TX,76107-1959
Michaels Stores,Amsterdam,1161,1161,240 Amsterdam Commons,NY,12010
Michaels Stores,Lake City,1162,1162,2469 W US Hwy 90,FL,32055
Michaels Stores,Fort Oglethorpe,1164,1164,2025 Battlefield Pkwy,GA,30742-4025
Michaels Stores,Columbus,1166,1166,90 Graceland Blvd,OH,43214
Michaels Stores,Pottsville,1167,1167,"7110 Fairlane Village Mall, Ste B",PA,17901-4100
Michaels Stores,Stroudsburg,1168,1168,125 Radio Way,PA,18360
Michaels Stores,Granbury,1169,1169,"3906 US Hwy 377, Ste 114",TX,76049-7430
Michaels Stores,Uniontown,1170,1170,119 Matthew Dr,PA,15401
Michaels Stores,North Canton,1171,1171,6527 Strip Ave NW,OH,44720-7095
Michaels Stores,Fresh Meadows,1173,1173,187-04 Horace Harding Expy,NY,11365-2716
Michaels Stores,Wilton,1174,1174,14 Danbury Rd,CT,06897-4300
Michaels Stores,Bethlehem,1175,1175,916 Loganville Hwy,GA,30620
Michaels Stores,Plant City,1176,1176,229 W Alexander St.,FL,33563
Michaels Stores,Minneapolis,1178,1178,1620 New Brighton Blvd,MN,55413-1643
Michaels Stores,Newton,1183,1183,201 Needham St.,MA,2464
Michaels Stores,Salisbury,1186,1186,1465 Klumac Rd,NC,28144
Michaels Stores,Chattanooga,1187,1187,600 Northgate Mall Dr,TN,37415
Michaels Stores,Baltimore,1188,1188,3669 Boston St.,MD,21224
Michaels Stores,Sheridan,1189,1189,3710 River Point Pkwy,CO,80110
Michaels Stores,Sturbridge,1195,1195,100 Charlton Rd,MA,1566
Michaels Stores,Estero,1198,1198,8018 Mediterranean Dr.,FL,33928
Michaels Stores,San Antonio,1212,1212,6065 NW Loop 410,TX,78238-3339
Michaels Stores,Hialeah,1226,1226,500 W 49th St. Ste B,FL,33012
Michaels Stores,Pooler,1228,1228,260 Pooler Pkwy,GA,31322
Michaels Stores,South Gate,1229,1229,4687 Firestone Blvd,CA,90280
Michaels Stores,Stoneham,1230,1230,119 Main St. Ste 1,MA,02180-3305
Michaels Stores,Valley Stream,1231,1231,650 W Sunrise Hwy,NY,11581-1006
Michaels Stores,Torrington,1257,1257,1030 Torringford St.,CT,6790
Michaels Stores,Nashua,1258,1258,266 Daniel Webster Highway,NH,03060-5725
Michaels Stores,Austin,1304,1304,"10225 Research Blvd, Ste 2000",TX,78759-5743
Michaels Stores,Austin,1328,1328,"3201 Bee Caves Rd, Ste 112",TX,78746-6696
Michaels Stores,Shelby Township,1402,1402,13821 Hall Rd,MI,48315-6102
Michaels Stores,Southgate,1404,1404,14501 Eureka Rd,MI,48195-2064
Michaels Stores,Roseville,1405,1405,32078 Gratiot Ave,MI,48066-1140
Michaels Stores,Tyler,1408,1408,4402 S Broadway Ave,TX,75703-1303
Michaels Stores,Avon,1532,1532,35840 Detroit Rd,OH,44011-1655
Michaels Stores,Texarkana,1533,1533,3401 Mall Dr,TX,75503-2475
Michaels Stores,Great Falls,1534,1534,1601 Market Place Dr Ste 25,MT,59404-3482
Michaels Stores,Surprise,1536,1536,13716 W Bell Rd,AZ,85374-3804
Michaels Stores,Battle Creek,1537,1537,12765 Harper Village Dr,MI,49014-7556
Michaels Stores,Emeryville,1538,1538,3991 Hollis St,CA,94608-3558
Michaels Stores,Glen Allen,1541,1541,9910 Brook Rd,VA,23059-6501
Michaels Stores,Tracy,1542,1542,2940 W Grant Line Rd,CA,95304-7901
Michaels Stores,Concord,1543,1543,86 D'Amante Dr,NH,03301-5759
Michaels Stores,Wyomissing,1544,1544,2763 Papermill Rd,PA,19610-3328
Michaels Stores,Goldsboro,1546,1546,401 N Berkeley Blvd,NC,27534-4327
Michaels Stores,Wilmington,1549,1549,3080 Brandywine Pkwy,DE,19803-5026
Michaels Stores,Prattville,1550,1550,1959 Cobbs Ford Rd,AL,36066-7212
Michaels Stores,Tallahassee,1551,1551,1524 Governors Square Blvd,FL,32301-3020
Michaels Stores,Las Vegas,1552,1552,9881 S Eastern Ave,NV,89123-6949
Michaels Stores,Royal Palm Beach,1553,1553,521 N State Rd 7,FL,33411-3524
Michaels Stores,Freehold,1554,1554,4345 Route 9,NJ,07728-4215
Michaels Stores,Plattsburgh,1555,1555,71 Consumer Sq,NY,12901-6532
Michaels Stores,Rocky Mount,1559,1559,1251 Cobb Corners Dr,NC,27804-2530
Michaels Stores,Lewis Center,1560,1560,9051 Columbus Pike,OH,43035-9412
Michaels Stores,Morgantown,1561,1561,801 Venture Dr,WV,26508-7307
Michaels Stores,Lees Summit,1563,1563,1616 NW Chipman Rd,MO,64081-3934
Michaels Stores,Washington,1565,1565,2094 Washington Crossing,MO,63090-5284
Michaels Stores,Rossford,1567,1567,9820 Old E US 20,OH,43460-1713
Michaels Stores,Plano,1572,1572,6400 W Plano Pkwy Ste 130,TX,75093-8207
Michaels Stores,Warner Robins,1573,1573,2620 Watson Blvd Ste C,GA,31093-2950
Michaels Stores,Midland,1575,1575,909 Joe Mann Blvd,MI,48642-8903
Michaels Stores,Lakeland,1577,1577,4017 N 98,FL,33809-3854
Michaels Stores,Sanford,1578,1578,107 Towne Center Blvd,FL,32771-7404
Michaels Stores,Baltimore,1579,1579,5212 Campbell Blvd,MD,21236-4983
Michaels Stores,California,1580,1580,45045 Worth Ave,MD,20619-2400
Michaels Stores,Munhall,1581,1581,660 Waterfront Dr E,PA,15120-5000
Michaels Stores,Midlothian,1582,1582,4700 Commonwealth Centre Pkwy,VA,23112-2640
Michaels Stores,Grand Forks,1583,1583,3861 32nd Ave S,ND,58201-5907
Michaels Stores,Anderson,1585,1585,3521 Clemson Blvd,SC,29621-1312
Michaels Stores,Langhorne,1586,1586,2424 E Lincoln Hwy,PA,19047-3048
Michaels Stores,Suwanee,1587,1587,3630 Peachtree Pkwy Ste 400,GA,30024-1029
Michaels Stores,Goshen,1589,1589,3826 Midway Rd,IN,46526-5852
Michaels Stores,Lansing,1590,1590,416 N Marketplace Blvd,MI,48917-7714
Michaels Stores,Bakersfield,1591,1591,9350 Rosedale Hwy,CA,93312-2143
Michaels Stores,Coeur D'Alene,1593,1593,225 W Canfield Ave Ste B,ID,83815-7736
Michaels Stores,Fenton,1595,1595,15110 Silver Pkwy,MI,48430-3449
Michaels Stores,Everett,1597,1597,17 Mystic View Rd,MA,02149-2428
Michaels Stores,Blaine,1599,1599,4255 Pheasant Ridge Dr NE,MN,55449-4529
Michaels Stores,Woodhaven,1600,1600,23460 Allen Rd,MI,48183-3376
Michaels Stores,St. George,1601,1601,313 S River Rd,UT,84790-2118
Michaels Stores,Avon,1602,1602,10352 E US Hwy 36,IN,46123-7050
Michaels Stores,DeKalb,1604,1604,2341 Sycamore Rd,IL,60115-2007
Michaels Stores,New Berlin,1606,1606,15500 W Beloit Rd,WI,53151-7450
Michaels Stores,Thornton,1610,1610,931 E 120th Ave,CO,80233-5710
Michaels Stores,Citrus Heights,1614,1614,6120 Birdcage Centre Ln,CA,95610-8004
Michaels Stores,Vestal,1615,1615,"2317 Vestal Pwy E,  Ste 10",NY,13850-1948
Michaels Stores,Virginia Beach,1671,1671,"737 First Colonial Rd, Ste 107",VA,23451-6123
Michaels Stores,El Paso,1672,1672,"1313 George Dieter, Ste C",TX,79936-7410
Michaels Stores,Modesto,1673,1673,3900 Sisk Rd Ste A1,CA,95356-3225
Michaels Stores,Oklahoma City,1674,1674,2200 W Memorial Rd,OK,73134-8010
Michaels Stores,Vallejo,1675,1675,105 Plaza Dr,CA,94591-3703
Michaels Stores,Paramus,1677,1677,240 Rt 17 N,NJ,07652-2925
Michaels Stores,Huntsville,1679,1679,6275 University Dr Ste 1,AL,35806-1711
Michaels Stores,Roseville,1680,1680,1192 Galleria Blvd,CA,95678-1950
Michaels Stores,Corpus Christi,1681,1681,4717-E S Padre Island Dr,TX,78411-4415
Michaels Stores,Houston,1683,1683,7560 Westheimer Rd Unit A,TX,77063-4615
Michaels Stores,Lynchburg,1684,1684,4026 G Wards Rd,VA,24502-2944
Michaels Stores,Macon,1686,1686,4668 Presidential Pkwy,GA,31206-8708
Michaels Stores,Glen Allen,1688,1688,9856 W Broad St,VA,23060-4171
Michaels Stores,Overland Park,1693,1693,9290 Metcalf Ave,KS,66212-1478
Michaels Stores,Laredo,1733,1733,5510 San Bernardo Ave,TX,78041-3008
Michaels Stores,Memphis,2005,2005,8035 Giacosa Place,TN,38133-5301
Michaels Stores,Sarasota,2007,2007,6549 S Tamiami Trail,FL,34231-4827
Michaels Stores,Glendale,2008,2008,219 N Glendale Ave,CA,91206-4455
Michaels Stores,Scottsdale,2009,2009,16239 N Scottsdale Rd,AZ,85254-1522
Michaels Stores,Lake Charles,2010,2010,3425 Derek Dr,LA,70607-7533
Michaels Stores,Syracuse,2011,2011,3133 Erie Blvd E,NY,13214-1201
Michaels Stores,South Burlington,2012,2012,861 Williston Rd Ste 1,VT,05403-5724
Michaels Stores,Clarence,2014,2014,5055 Transit Rd,NY,14221-4132
Michaels Stores,Buford,2016,2016,1705 Mall of Georgia Blvd,GA,30519-4982
Michaels Stores,Conyers,2017,2017,1578 Dogwood Dr SE,GA,30013-5041
Michaels Stores,Puyallup,2018,2018,4621 S Meridian Ave.,WA,98373-3429
Michaels Stores,Santa Rosa,2019,2019,2775 Santa Rosa Ave,CA,95407-6232
Michaels Stores,Rockwall,2020,2020,2717 Market Center Dr,TX,75032-6564
Michaels Stores,Harrisburg,2021,2021,"5125 Jonestown Rd, Ste 445",PA,17112-2924
Michaels Stores,Naples,2022,2022,"2253 Pine Ridge Rd, Ste B",FL,34109-2032
Michaels Stores,CONROE,2023,2023,19075 IH-45 S Ste 104,TX,77385-8748
Michaels Stores,Hagerstown,2024,2024,"17225 Cole Rd, Ste 2",MD,21740-6901
Michaels Stores,Peoria,2025,2025,5212 N Big Hollow Rd,IL,61615-3404
Michaels Stores,Stamford,2026,2026,2233 Summer St,CT,06905-4609
Michaels Stores,O'Fallon,2027,2027,2220 Hwy K,MO,63368-7929
Michaels Stores,Charlotte,2028,2028,4337 Park Rd,NC,28209-2233
Michaels Stores,Clifton Park,2029,2029,48 Crossing Blvd,NY,12065-4180
Michaels Stores,Erie,2030,2030,2088 C Interchange Rd,PA,16565
Michaels Stores,Watchung,2031,2031,1701 US Hwy 22 Ste 65,NJ,07069-6500
Michaels Stores,Colonial Heights,2032,2032,90 Southgate Square,VA,23834-3611
Michaels Stores,Rochester,2033,2033,500 Greece Ridge Center Dr,NY,14626-2823
Michaels Stores,Springfield,2034,2034,601 W Baltimore Pike,PA,19064-3812
Michaels Stores,Elmira,2035,2035,845 County Rte 64,NY,14903-7900
Michaels Stores,Chesterfield,2036,2036,142 THF Blvd,MO,63005-1123
Michaels Stores,Glenview,2037,2037,2231 Willow Rd,IL,60025-7636
Michaels Stores,Issaquah,2038,2038,1802 12th Ave NW Ste A,WA,98027-8934
Michaels Stores,Jacksonville,2039,2039,"1250 Western Blvd, Ste J",NC,28546-6653
Michaels Stores,Victor,2040,2040,40 Square Dr,NY,14564-1051
Michaels Stores,Alexandria,2041,2041,2643 S MacArthur Dr,LA,71301-2920
Michaels Stores,Kingston,2042,2042,703 Frank Sottile Blvd,NY,12401-1552
Michaels Stores,Eureka,2044,2044,"800 W Harris St, Ste 26",CA,95503-3929
Michaels Stores,Scarborough,2045,2045,490 Payne Rd,ME,04074-8929
Michaels Stores,Folsom,2046,2046,2715 E Bidwell St,CA,95630-6404
Michaels Stores,Waco,2047,2047,521 N Valley Mills Dr,TX,76710-5234
Michaels Stores,Fort Worth,2048,2048,4921 Overton Ridge Blvd,TX,76132-1910
Michaels Stores,Midland,2049,2049,3001 W Loop 250 N,TX,79705-3252
Michaels Stores,Enfield,2051,2051,25 Hazard Ave,CT,06082-3725
Michaels Stores,Champaign,2052,2052,2109 N Prospect Ave,IL,61822-1238
Michaels Stores,Bossier City,2054,2054,3047 E Texas Hwy,LA,71111-3207
Michaels Stores,Myrtle Beach,2056,2056,504 Seaboard St,SC,29577-9732
Michaels Stores,Santa Fe,2057,2057,3549 Zafarano Dr,NM,87507-2618
Michaels Stores,Yorba Linda,2058,2058,23021 Savi Ranch Pkwy,CA,92887-4669
Michaels Stores,Superior,2059,2059,410 Marshall Rd,CO,80027-8623
Michaels Stores,Grandville,2060,2060,4830 Wilson Ave SW Ste 400,MI,49418-3134
Michaels Stores,Goodyear,2061,2061,1475 N Litchfield Rd,AZ,85338-1262
Michaels Stores,Huntington Station,2062,2062,350 Walt Whitman Rd,NY,11746-8704
Michaels Stores,Southlake,2063,2063,2901 E Hwy 114  Ste 100,TX,76092-6694
Michaels Stores,Leominster,2066,2066,18  Water Tower Plaza,MA,01453-2247
Michaels Stores,Cumming,2068,2068,1200 Market Place Blvd,GA,30041-7923
Michaels Stores,Springfield,2069,2069,6717 Spring Mall Dr,VA,22150-1907
Michaels Stores,Birmingham,2070,2070,1632 Gadsden Hwy,AL,35235-3104
Michaels Stores,Commerce Township,2071,2071,475 Haggerty Rd,MI,48390-3939
Michaels Stores,Colorado Springs,2072,2072,2140 Southgate Rd,CO,80906-2659
Michaels Stores,Fenton,2075,2075,129 Gravois Bluffs Plaza Dr,MO,63026-4013
Michaels Stores,Union City,2076,2076,31080 Dyer St,CA,94587-1768
Michaels Stores,Idaho Falls,2077,2077,"2345  E 17th St, Ste B",ID,83404-6511
Michaels Stores,Christiansburg,2079,2079,140 Conston Ave,VA,24073-1151
Michaels Stores,Rochester,2082,2082,60 25th St SE,MN,55904-5557
Michaels Stores,Avon,2084,2084,315  W Main St,CT,06001-3686
Michaels Stores,Albuquerque,2101,2101,4410 Wyoming Blvd NE,NM,87111-3165
Michaels Stores,Madison,2103,2103,2215 N Gallatin Pike Rd,TN,37115-2005
Michaels Stores,Lakewood,2104,2104,441 S Wadsworth Blvd,CO,80226-3110
Michaels Stores,North Attleboro,2105,2105,1385 S Washington St,MA,02760-4404
Michaels Stores,Davenport,2106,2106,4010 E 53rd St,IA,52807-3033
Michaels Stores,Ann Arbor,2108,2108,3655 Washtenaw Ave,MI,48104-5250
Michaels Stores,Pleasant Hill,2109,2109,60 Gregory Ln,CA,94523-3321
Michaels Stores,Ocoee,2110,2110,9649 W Colonial Dr,FL,34761-6901
Michaels Stores,Brea,2111,2111,2315 E Imperial Hwy Ste D,CA,92821-6112
Michaels Stores,Lincoln,2112,2112,3010 Pine Lake Rd Ste A,NE,68516-6018
Michaels Stores,Columbia,2113,2113,244 Harbison Blvd,SC,29212-2232
Michaels Stores,La Habra,2115,2115,1500 W Imperial Hwy,CA,90631-6967
Michaels Stores,North Brunswick,2116,2116,869 Route 1,NJ,08902-3345
Michaels Stores,Lynnwood,2118,2118,3115 Alderwood Mall Blvd,WA,98036-4719
Michaels Stores,Indianapolis,2119,2119,5151 E 82nd St  Ste 300,IN,46250-1625
Michaels Stores,Clovis,2121,2121,255 W Shaw Ave,CA,93612-3602
Michaels Stores,Cary,2122,2122,340 Crossroads Blvd,NC,27511-6895
Michaels Stores,Virginia Beach,2203,2203,304 Constitution Dr,VA,23462-3102
Michaels Stores,Knoxville,2204,2204,9622 Kingston Pike,TN,37922-2387
Michaels Stores,Burbank,2701,2701,1551 N Victory Pl,CA,91502-1647
Michaels Stores,Indiana,2702,2702,"475 Ben Franklin Rd S, Ste 24",PA,15701-2347
Michaels Stores,Smithfield,2703,2703,240 Smithfield Crossing,RI,02917-2402
Michaels Stores,Shelby Township,2704,2704,8500 26 Mile Rd,MI,48316-5023
Michaels Stores,Bountiful,2708,2708,"420 S 500 W, Ste 0113",UT,84010-7112
Michaels Stores,State College,2710,2710,44 Colonnade Way,PA,16803-2309
Michaels Stores,San Clemente,2711,2711,937 Avenida Pico,CA,92673-3908
Michaels Stores,Dallas,2712,2712,"5500 Greenville Ave, Ste 700",TX,75206-2931
Michaels Stores,Overland Park,2713,2713,12140 Blue Valley Pkwy,KS,66213
Michaels Stores,Twin Falls,2715,2715,1988 Bridgeview Blvd,ID,83301-3079
Michaels Stores,McHenry,2717,2717,2244 N Richmond Rd,IL,60050-1423
Michaels Stores,Chesterfield,2718,2718,51375 Gratiot Ave,MI,48051-2041
Michaels Stores,Houston,2719,2719,9666 Old Katy Rd,TX,77055-6322
Michaels Stores,Meriden,2720,2720,"533 S Broad St, Ste E2",CT,06450-6661
Michaels Stores,MESQUITE,2721,2721,19105 LBJ Fwy,TX,75150
Michaels Stores,Burleson,2722,2722,1151 N Burleson Blvd,TX,76028-7009
Michaels Stores,Rock Hill,2723,2723,546 John Ross Pkwy,SC,29730-8910
Michaels Stores,Bellevue,2724,2724,10521 S 15th St,NE,68123-4085
Michaels Stores,Phillipsburg,2725,2725,1206 New Brunswick Ave,NJ,08865-4124
Michaels Stores,Tampa,2726,2726,18081 Highwoods Preserve Pkwy,FL,33647-1761
Michaels Stores,Hadley,2727,2727,325 Russell St Unit B,MA,01035-3535
Michaels Stores,Coon Rapids,2728,2728,3460 124th Ave NW,MN,55433-1002
Michaels Stores,Mankato,2729,2729,"1901 Madison Ave, Ste 500",MN,56001-5414
Michaels Stores,Central Valley,2730,2730,27 Centre Dr,NY,10917-6501
Michaels Stores,Hanover,2731,2731,7665 Arundel Mills Blvd,MD,21076-1305
Michaels Stores,McDonough,2732,2732,1940 Jonesboro Rd,GA,30253-5959
Michaels Stores,Keller,2733,2733,2005 S Main St,TX,76248-5122
Michaels Stores,Wausau,2735,2735,3707 Rib Mountain Dr,WI,54401-7492
Michaels Stores,Raleigh,2736,2736,8131 Brier Creek Pkwy,NC,27617-7598
Michaels Stores,Paso Robles,2738,2738,2055 Theatre Dr,CA,93446-9629
Michaels Stores,Lakewood,2739,2739,5730 Lakewood Towne Ctr Bvd SW,WA,98499-3895
Michaels Stores,Flanders,2740,2740,"30 International Dr, Ste J",NJ,07836-4107
Michaels Stores,Virginia Beach,2741,2741,1169 Nimmo Pkwy Ste 222,VA,23456-7730
Michaels Stores,Elizabethtown,2742,2742,1990 N Dixie Ave,KY,42701-8853
Michaels Stores,Nashville,2743,2743,"7657 Hwy 70 S, Ste 114",TN,37221-1706
Michaels Stores,Maplewood,2744,2744,2980 White Bear Ave N,MN,55109-1304
Michaels Stores,Fairlawn,2745,2745,"3750 W Market St, Unit Y",OH,44333-4803
Michaels Stores,Prescott,2747,2747,"3250 Gateway Blvd, Ste 504",AZ,86303-6859
Michaels Stores,Kansas City,2748,2748,8531 N Evanston Rd,MO,64157-1227
Michaels Stores,Grand Junction,2749,2749,2464 Hwy 6 and 50 Ste E,CO,81505-1108
Michaels Stores,Canton,2750,2750,"1445 Riverstone Pkwy, Ste 100",GA,30114-5624
Michaels Stores,Maple Grove,2752,2752,7980 Wedgewood Ln N,MN,55369-9403
Michaels Stores,Burlington,2753,2753,1567 S Burlington Blvd,WA,98233-3219
Michaels Stores,Camp Hill,2754,2754,"3415 Simpson Ferry Rd, Ste 1",PA,17011-6404
Michaels Stores,Leesburg,2756,2756,1019 A - Edwards Ferry Rd NE,VA,20176-3347
Michaels Stores,Toms River,2757,2757,1342 Hooper Ave,NJ,08753-2855
Michaels Stores,Tucson,2758,2758,1161 W Irvington Rd,AZ,85714-1165
Michaels Stores,Oceanside,2759,2759,3610 Long Beach Rd,NY,11572-5705
Michaels Stores,Spring,2760,2760,20626 I-45 N,TX,77373-2925
Michaels Stores,Fairfax,2761,2761,13061 Fair Lakes Shopping Ctr,VA,22033-5179
Michaels Stores,Glendale,2763,2763,9470 W Northern Ave,AZ,85305-1104
Michaels Stores,Vineland,2764,2764,"3849 S Delsea Dr, Ste A3",NJ,08360-7408
Michaels Stores,Apple Valley,2767,2767,14890 Florence Trl,MN,55124-4630
Michaels Stores,Highlands Ranch,2769,2769,9291 S Broadway,CO,80129-5631
Michaels Stores,New Hartford,2770,2770,4745 Commercial Dr,NY,13413-6211
Michaels Stores,Rehoboth Beach,2773,2773,18902 Rehoboth Mall Blvd,DE,19971-6132
Michaels Stores,Las Vegas,2777,2777,7941 W Tropical Pkwy,NV,89149-4534
Michaels Stores,Mesa,2778,2778,6640 E McKellips Rd,AZ,85215-2865
Michaels Stores,Omaha,2779,2779,3405 N 147th St,NE,68116-8189
Michaels Stores,Hollywood,2784,2784,3601 Oakwood Blvd,FL,33020-7111
Michaels Stores,Jacksonville,2785,2785,"9041 Southside Blvd, Ste 140",FL,32256-5484
Michaels Stores,Greensburg,2786,2786,5280 Route 30 Ste 6,PA,15601-7832
Michaels Stores,Columbia,2787,2787,9041 Snowden River Pkwy,MD,21046-1657
Michaels Stores,Milwaukee,2850,2850,3565 S 27th St,WI,53221-1301
Michaels Stores,Brown Deer,2855,2855,9090 N Green Bay Rd,WI,53209-1205
Michaels Stores,Matthews,2858,2858,10510 Northeast Pkwy,NC,28105-6708
Michaels Stores,Tucker,2860,2860,4000 LaVista Rd,GA,30084-5205
Michaels Stores,Troy,2861,2861,1205 Coolidge Hwy,MI,48084-7012
Michaels Stores,St Petersburg,2863,2863,2026 66th St N,FL,33710-4710
Michaels Stores,Scottsdale,2864,2864,8979 E Indian Bend Rd,AZ,85250-9519
Michaels Stores,McAllen,2865,2865,520 E Expressway 83,TX,78503-1615
Michaels Stores,Riverdale,2866,2866,4125 Riverdale Rd,UT,84405-3509
Michaels Stores,Fort Wayne,2868,2868,4230 W Jefferson Blvd,IN,46804-6818
Michaels Stores,Upland,2869,2869,357 S Mountain Ave,CA,91786-7032
Michaels Stores,Henderson,2870,2870,537 N Stephanie St,NV,89014-6613
Michaels Stores,Columbia,2872,2872,2001 W Ash St,MO,65203-1161
Michaels Stores,Columbus,2873,2873,3612 W Dublin Granville Rd,OH,43235-4901
Michaels Stores,Alpharetta,2875,2875,7491 N Point Pkwy,GA,30022-4846
Michaels Stores,Chattanooga,2876,2876,2200 Hamilton Place Blvd,TN,37421-6015
Michaels Stores,Marion,3002,3002,1470 Twixt Town Rd,IA,52302-3080
Michaels Stores,Torrance,3008,3008,4240 Pacific Coast Hwy,CA,90505-5526
Michaels Stores,Fullerton,3023,3023,201 Orangefair Mall,CA,92832-3038
Michaels Stores,La Verne,3024,3024,1951 Foothill Blvd,CA,91750-3501
Michaels Stores,Rowland Heights,3034,3034,17584 Colima Rd,CA,91748-1752
Michaels Stores,Huntington Beach,3037,3037,7600A Edinger Ave,CA,92647-3605
Michaels Stores,Tustin,3046,3046,1212 Irvine Blvd,CA,92780-3531
Michaels Stores,Hawthorne,3048,3048,14370 Ocean Gate Ave,CA,90250-6732
Michaels Stores,Santa Ana,3049,3049,3309B S Bristol St,CA,92704-7245
Michaels Stores,Monrovia,3059,3059,729 E Huntington Dr,CA,91016-3613
Michaels Stores,West Des Moines,3101,3101,1404 22nd St,IA,50266-1403
Michaels Stores,Baton Rouge,3102,3102,9616 Airline Hwy,LA,70815-5505
Michaels Stores,Rancho Cordova,3135,3135,10913 Olson Dr,CA,95670-5659
Michaels Stores,San Diego,3207,3207,1652 Camino Del Rio N,CA,92108-1514
Michaels Stores,Santee,3256,3256,230 Town Center Pkwy,CA,92071-5803
Michaels Stores,Milpitas,3331,3331,136 Ranch Dr,CA,95035-5101
Michaels Stores,San Jose,3340,3340,"1600 Saratoga Ave, Ste 433",CA,95129-5108
Michaels Stores,Oakville,3401,3401,200 N Service Rd W,ON,L6M 2V1
Michaels Stores,Burlington,3402,3402,1881 Fairview St,ON,L7S 2K4
Michaels Stores,Mississauga,3404,3404,5935 Mavis Rd,ON,L5R 3T7
Michaels Stores,Waterloo,3405,3405,50 Westmount Rd N,ON,N2L 2R5
Michaels Stores,Markham,3406,3406,3135 Hwy 7 E,ON,L3R 0T9
Michaels Stores,Brampton,3407,3407,547 Steeles Ave E,ON,L6W 4P9
Michaels Stores,Mississauga,3408,3408,1250 S Service Rd,ON,L5E 1V4
Michaels Stores,Victoria,3501,3501,"805 Cloverdale Ave, Unit 100",BC,V8X 2S9
Michaels Stores,Barrie,3502,3502,33 Mapleview Dr W,ON,L4M 4S7
Michaels Stores,Ottawa,3505,3505,2685 Iris St,ON,K2C 3S4
Michaels Stores,Ancaster,3506,3506,14 Martindale Crescent,ON,L9K 1J9
Michaels Stores,Victorville,3544,3544,"12353 Mariposa Rd, Ste C-2",CA,92392-6000
Michaels Stores,Bakersfield,3551,3551,2720 Ming Ave,CA,93304-4431
Michaels Stores,Salinas,3557,3557,860 Northridge Shopping Center,CA,93906-2007
Michaels Stores,Whitby,3621,3621,1650 Victoria St E,ON,L1N 9L4
Michaels Stores,London,3622,3622,1737 Richmond St,ON,N5X 3X2
Michaels Stores,Ottawa,3623,3623,2210-F Bank St,ON,K1V 1J5
Michaels Stores,Palm Desert,3653,3653,44-150 Town Center Way Ste B-3,CA,92260-2752
Michaels Stores,Roseville,3701,3701,2100 N Snelling Ave,MN,55113-6000
Michaels Stores,Richfield,3702,3702,66 W 66th St,MN,55423-2316
Michaels Stores,Flemington,3705,3705,325 Hwy 202,NJ,08822-1730
Michaels Stores,Harrisonburg,3707,3707,277 Burgess Rd,VA,22801-3718
Michaels Stores,Tampa,3708,3708,"3804 S Dale Mabry Hwy, Ste A",FL,33611-1402
Michaels Stores,Dover,3709,3709,"1165 N Dupont Hwy, Ste 2",DE,19901-2008
Michaels Stores,Mooresville,3710,3710,"590 River Hwy, Ste H",NC,28117-8840
Michaels Stores,Middletown,3711,3711,1305 W Main Rd,RI,02842-6355
Michaels Stores,Colorado Springs,3713,3713,3040 N Powers Blvd,CO,80922-2803
Michaels Stores,Aurora,3714,3714,7405 Market Place Dr,OH,44202-8760
Michaels Stores,Clearwater,3715,3715,2631 Gulf To Bay Blvd,FL,33759-4936
Michaels Stores,Trenton,3716,3716,320 Marketplace Blvd,NJ,08691-2107
Michaels Stores,St. Augustine,3717,3717,310 CBL Dr,FL,32086
Michaels Stores,Ithaca,3718,3718,"614 S Meadow St, Ste 300",NY,14850-5319
Michaels Stores,Dubuque,3720,3720,2455 NW Arterial,IA,52002-0492
Michaels Stores,Dickson City,3722,3722,1150 Commerce Blvd,PA,18519-1688
Michaels Stores,Chehalis,3724,3724,1441 NW Louisiana Ave,WA,98532-1749
Michaels Stores,Ukiah,3725,3725,1215 Airport Park Blvd,CA,95482-7400
Michaels Stores,Roseburg,3726,3726,780 NW Garden Valley Blvd,OR,97470-6515
Michaels Stores,Denton,3727,3727,"1800 S Loop 288, Ste 106",TX,76205
Michaels Stores,Vero Beach,3730,3730,6140 20th St,FL,32966-1023
Michaels Stores,Redding,3731,3731,1070 Hilltop Dr,CA,96003-3810
Michaels Stores,Stafford Township,3732,3732,"601 Washington Ave, Ste K",NJ,08050-2800
Michaels Stores,Ankeny,3733,3733,1725 SE Delaware Ave,IA,50021-3936
Michaels Stores,Bozeman,3734,3734,"2855 N 19th Ave, Ste B",MT,59718-8504
Michaels Stores,West Hills,3736,3736,6625 Fallbrook Ave,CA,91307-3520
Michaels Stores,Memphis,3738,3738,851 S White Station Rd,TN,38117-5702
Michaels Stores,Bloomington,3739,3739,4240 W 78th St,MN,55435-5404
Michaels Stores,Whittier,3740,3740,13410 Whittier Blvd,CA,90605-1932
Michaels Stores,West Chester,3741,3741,7624 Voice of America Ctr Dr,OH,45069-2794
Michaels Stores,Novi,3744,3744,43635 W Oaks Dr,MI,48377-3305
Michaels Stores,Middleton,3745,3745,"1700 Deming Way, Ste 120",WI,53562-4735
Michaels Stores,Rockaway Township,3746,3746,"327 Mount Hope Ave, Ste 1002",NJ,07866-1645
Michaels Stores,Shakopee,3747,3747,8051 Old Carriage Ct,MN,55379-3157
Michaels Stores,Staten Island,3749,3749,2795 Richmond Ave,NY,10314-5857
Michaels Stores,Parker,3751,3751,11425 S Twenty Mile Rd,CO,80134-4918
Michaels Stores,Rocky Point,3752,3752,346-40 Route 25A,NY,11778-8817
Michaels Stores,Rome,3753,3753,1432 Turner McCall Blvd SW,GA,30161-6072
Michaels Stores,Waterford,3754,3754,915 Hartford Tpke,CT,06385-4227
Michaels Stores,Garner,3755,3755,270 Shenstone Ln,NC,27529-6905
Michaels Stores,Riverhead,3756,3756,"1440 Old Country Rd, Ste 400",NY,11901-2040
Michaels Stores,Germantown,3757,3757,N96W 18736 County Line Rd,WI,53022-4553
Michaels Stores,Carson City,3758,3758,"911 Topsy Ln, Ste 112",NV,89705-8402
Michaels Stores,Riverside,3760,3760,2704 Canyon Springs Pkwy,CA,92507-0933
Michaels Stores,Madison,3761,3761,4271 Lien Rd,WI,53704-3606
Michaels Stores,Pearland,3763,3763,3127 Silverlake Village Dr,TX,77584-8082
Michaels Stores,Cedar Hill,3765,3765,751 N US Hwy 67,TX,75104-2142
Michaels Stores,Quakertown,3766,3766,232 N West End Blvd,PA,18951-2308
Michaels Stores,Rancho Cucamonga,3844,3844,"10788 Foothill Blvd, Ste 103",CA,91730-3884
Michaels Stores,Flint,3847,3847,3268 S Linden Rd,MI,48507-3099
Michaels Stores,Moorpark,3848,3848,816 New Los Angeles Ave,CA,93021-3585
Michaels Stores,Skokie,3849,3849,7055 Central Ave,IL,60077-3272
Michaels Stores,Escondido,3851,3851,820 W Valley Pkwy,CA,92025-2537
Michaels Stores,Greensboro,3852,3852,"1206 Bridford Pkwy, Ste C",NC,27407-2744
Michaels Stores,Hiram,3853,3853,4794 Jimmy Lee Smith Pkwy,GA,30141-2764
Michaels Stores,Spartanburg,3855,3855,"120 Dorman Centre Dr, Ste I",SC,29301-2625
Michaels Stores,Holmdel,3856,3856,2130 State Route 35,NJ,07733-2770
Michaels Stores,Jacksonville,3857,3857,6001 Argyle Forrest Blvd,FL,32244-6127
Michaels Stores,Merrillville,3858,3858,2384 E 79th Ave,IN,46410-5740
Michaels Stores,Oceanside,3859,3859,2649 Vista Way,CA,92054-6342
Michaels Stores,Silverdale,3861,3861,10300 Silverdale Way NW,WA,98383-7990
Michaels Stores,Cheektowaga,3862,3862,"1740 Walden Ave, Ste 200",NY,14225-4925
Michaels Stores,Tulsa,3864,3864,11119 E 71st St S,OK,74133-2550
Michaels Stores,Calgary,3902,3902,5588 Signal Hill Centre SW,AB,T3H 3P8
Michaels Stores,Calgary,3903,3903,350 Shawville Blvd SE,AB,T2Y 3S4
Michaels Stores,Edmonton,3904,3904,9718 170th St NW,AB,T5T 5L5
Michaels Stores,Kingston,3905,3905,656 Gardiners Rd,ON,K7M 3X9
Michaels Stores,Nanaimo,3906,3906,6677 Mary Ellen Dr,BC,V9V 1T7
Michaels Stores,Winnipeg,3907,3907,1949 Bishop Grandin Blvd,MB,R2M 5S1
Michaels Stores,Edmonton,3908,3908,1930 99th St NW,AB,T6N 1J2
Michaels Stores,Cambridge,3909,3909,"18 Pinebush Rd, Unit 1",ON,N1R 8K5
Michaels Stores,Red Deer,3910,3910,70A-5250 22nd St,AB,T4R 2T4
Michaels Stores,Calgary,3912,3912,3160 27th St NE,AB,T1Y 7L5
Michaels Stores,Langley,3913,3913,20150 Langley Bypass Unit 80,BC,V3A 5E7
Michaels Stores,Richmond,3914,3914,9711 Bridgeport Rd,BC,V6X 1S3
Michaels Stores,Port Coquitlam,3915,3915,2755 Lougheed Hwy Ste 17,BC,V3B 5Y9
Michaels Stores,Grande Prairie,3916,3916,10502-109A St Unit 102,AB,T8V 1S3
Michaels Stores,North Vancouver,3917,3917,1360 Main St CRU 2,BC,V7J 1C6
Michaels Stores,Medicine Hat,3918,3918,3201 13th Ave SE,AB,T1B 1E2
Michaels Stores,Kamloops,3919,3919,1055 Hillside Dr Bldg 200,BC,V2E 2S5
Michaels Stores,Winnipeg,3920,3920,840 St James St,MB,R3G 3J7
Michaels Stores,Lethbridge,3921,3921,501 1st Ave S Ste Y07,AB,T1J 4L9
Michaels Stores,Abbotsford,3922,3922,32700 S Fraiser Way,BC,V2T 4M5
Michaels Stores,Regina,3923,3923,2088 Prince of Wales Dr,SK,S4V 3A6
Michaels Stores,Saskatoon,3924,3924,"1723 Preston Ave N, Ste 201",SK,S7N 4V2
Michaels Stores,Edmonton,3925,3925,13640 137th Ave NW,AB,T5L 5G6
Michaels Stores,Windsor,3926,3926,4339 Walker Rd,ON,N8W 3T6
Michaels Stores,NEWMARKET,3927,3927,18091 YONGE ST,ON,L3Y 8W3
Michaels Stores,Kelowna,3929,3929,1500 Banks Rd Unit 100,BC,V1X 7Y1
Michaels Stores,Edmonton,3930,3930,13703 42nd St NW,AB,T5Y 3E1
Michaels Stores,Calgary,3931,3931,11486 Sarcee Trail NW,AB,T3R 0A1
Michaels Stores,Oshawa,3932,3932,1461 Harmony Rd. N.,ON,L1G3T9
Michaels Stores,Woodbridge,3933,3933,7850 Weston Rd,ON,L4L 9N8
Michaels Stores,West Vancouver,3934,3934,"1000 Main St, Ste A-1",BC,V7T 2Z3
Michaels Stores,Calgary,3935,3935,130 Country Village Rd NE,AB,T3K 6B8
Michaels Stores,Sudbury,3936,3936,"1599 Marcus Dr, Unit 2",ON,P3B 4K5
Michaels Stores,Calgary,3937,3937,"8180 11th St SE, Bay 400",AB,T2H 3B5
Michaels Stores,Peterborough,3938,3938,"898 Monaghan Rd, Unit 1",ON,K9J 5K4
Michaels Stores,Moncton,3939,3939,35 Plaza Blvd,NB,E1C 0E8
Michaels Stores,Sherwood Park,3940,3940,"390 Baseline Rd, Unit 338",AB,T8H 1X1
Michaels Stores,St John's,3941,3941,36 Stavanger Dr,NL,A1A 5T3
Michaels Stores,Belleville,3942,3942,159 Bell Blvd,ON,K8P 5N8
Michaels Stores,London,3943,3943,3080 Wonderland Rd S,ON,N6L 1A6
Michaels Stores,Halifax,3944,3944,45 Washmill Lake Ct,NS,B3S 1B9
Michaels Stores,Charlottetown,3945,3945,90 Sandstone Rd,PE,C1A 1K1
Michaels Stores,Saint John,3946,3946,80 McAllister Dr,NB,E2J 1S5
Michaels Stores,Pitt Meadows,3947,3947,"19800 Lougheed Hwy, Unit 403",BC,V3Y 2W1
Michaels Stores,Orleans,3948,3948,4220 Innes Rd,ON,K4A 5E6
Michaels Stores,Richmond Hill,3949,3949,2-20 John Birchall Rd,ON,L4S 0B2
Michaels Stores,Burnaby,3950,3950,5771 Marine Way Unit 300,BC,V5J 0A6
Michaels Stores,Victoria,3951,3951,"2401-C Millstream Rd, Unit 121",BC,V9B 3R5
Michaels Stores,Mississauga,3952,3952,3105 Argentia Rd,ON,L5N 8E1
Michaels Stores,St. Catharines,3953,3953,"275 4th Ave, #100",ON,L2R 6P9
Michaels Stores,Thunder Bay,3954,3954,"349 Main St, Bldg A-1",ON,P7B 5L6
Michaels Stores,Dartmouth,3955,3955,Civic #15 Lemlair Row Rd,NS,B3B 0C6
Michaels Stores,Brandon,3956,3956,901 18th St N,MB,R7A7S1
Michaels Stores,Fredericton,3957,3957,"9 Riocan Ave, Unit 2",NB,E3C 0B9
Michaels Stores,Sydney,3958,3958,800 Grand Lake Rd,NS,B1P 6S9
Michaels Stores,Brampton,3961,3961,9065 Airport Rd,ON,L6S 0B8
Michaels Stores,Prince George,3962,3962,"5900 Southridge Ave, Unit 100",BC,V2N 7A1
Michaels Stores,Niagara Falls,3965,3965,"7555 Montrose Rd, Unit R4",ON,L2H 2E9
Michaels Stores,Stoney Creek,3966,3966,"1779 Stone Church Rd E, Unit 2",ON,L8J 0B4
Michaels Stores,Timmins,3967,3967,2161 Riverside Dr,ON,P4R 0A1
Michaels Stores,Ottawa,3968,3968,5617 Hazeldean Rd,ON,K2S 0P5
Michaels Stores,Vancouver,3974,3974,665 W Broadway,BC,V5Z 1G7
Michaels Stores,Okotoks,3977,3977,"105 Southbank Blvd, Unit 335",AB,T1S 0G1
Michaels Stores,New Minas,3978,3978,18 Millet Dr,NS,B4N 0G8
Michaels Stores,Ottawa,3980,3980,165 Trainyards Dr,ON,K1G 3X8
Michaels Stores,Cornwall,3981,3981,"501 Tollgate Rd W, Unit 3",ON,K6H 5R6
Michaels Stores,Pickering,3982,3982,1101-A Kingston Rd,ON,L1V 1B5
Michaels Stores,Toronto,3983,3983,30 Billy Bishop Way,ON,M3K 2C8
Michaels Stores,Sarnia,3984,3984,1470 Quinn Dr,ON,N7S 6M8
Michaels Stores,Surrey,3985,3985,7488 King George Hwy,BC,V3W 0H9
Michaels Stores,Sault Ste Marie,3987,3987,710 Second Line E,ON,P6B 4K3
Michaels Stores,Kitchener,3988,3988,"500 Fairway Rd S, Unit 1",ON,N2C 1X3
Michaels Stores,Milton,3989,3989,1140 Steeles Ave E,ON,L9T 6C8
Michaels Stores,Toronto,3990,3990,30 Weston Rd.,ON,M6N 5A8
Michaels Stores,Guelph,3991,3991,"15 Woodlawn Rd W, Unit 101",ON,N1H 1G8
Michaels Stores,Brockville,3992,3992,1965 Parkedale Ave,ON,K6V 0B4
Michaels Stores,Prince Albert,3997,3997,801-15th St E Unit 761,SK,S6V 0C7
Michaels Stores,Boardman,4114,4114,365 Boardman-Canfield Rd,OH,44512-4702
Michaels Stores,St. Charles,4205,4205,2155 Zumbehl Rd,MO,63303-2724
Michaels Stores,Cincinnati,4309,4309,425 E Kemper Rd,OH,45246-3228
Michaels Stores,Reynoldsburg,4404,4404,2766 Brice Rd,OH,43068-3419
Michaels Stores,Cuyahoga Falls,4507,4507,697 Howe Ave,OH,44221-4955
Michaels Stores,Mentor,4613,4613,7900 Plaza Blvd Ste 140,OH,44060-5521
Michaels Stores,Gilroy,4703,4703,6745 Camino Arroyo,CA,95020-7075
Michaels Stores,Stafford,4705,4705,1110 Stafford Market Place,VA,22556-4524
Michaels Stores,Buena Park,4706,4706,8341 LaPalma Ave,CA,90620-3207
Michaels Stores,Howell,4707,4707,4785 Rte 9 N,NJ,07731-3385
Michaels Stores,Brewster,4708,4708,100-B Independent Way,NY,10509-2368
Michaels Stores,Bluffton,4711,4711,"30 Malphrus Rd, Ste 107",SC,29910-6635
Michaels Stores,Corona,4712,4712,3469 Grand Oaks,CA,92881-4633
Michaels Stores,Orlando,4713,4713,1766 Sand Lake Rd,FL,32809-7628
Michaels Stores,Easton,4714,4714,4447 Southmont Way,PA,18045-4705
Michaels Stores,Hemet,4715,4715,2981 W Florida Ave,CA,92545-3616
Michaels Stores,Wilmington,4716,4716,6881 Monument Dr,NC,28405-4178
Michaels Stores,Laurel,4717,4717,14240 Baltimore Ave,MD,20707-5006
Michaels Stores,Round Rock,4718,4718,"3021 S IH-35, Ste 190",TX,78664-8300
Michaels Stores,Traverse City,4719,4719,3315 N US 31 S,MI,49684-4538
Michaels Stores,San Diego,4720,4720,2740 Midway Dr,CA,92110-3203
Michaels Stores,Garland,4721,4721,5325 N Garland Ave,TX,75040-2716
Michaels Stores,North Haven,4722,4722,170 Universal Dr N,CT,06473-3117
Michaels Stores,Millbury,4723,4723,70 Worcester Providence Tpke,MA,01527-2652
Michaels Stores,Albuquerque,4724,4724,3701 Ellison Dr NW Ste B,NM,87114-7016
Michaels Stores,Lawrence,4725,4725,"3106 Iowa St, Ste 210",KS,66046-5202
Michaels Stores,Philadelphia,4726,4726,9739 Roosevelt Blvd,PA,19114-1010
Michaels Stores,Southfield,4728,4728,28550 Telegraph Rd,MI,48034-7505
Michaels Stores,Holland,4729,4729,3571 West Shore Dr,MI,49424-9674
Michaels Stores,Redlands,4730,4730,27534 Lugonia Ave,CA,92374-2017
Michaels Stores,Lancaster,4732,4732,1645 Lititz Pike,PA,17601-6507
Michaels Stores,West Allis,4733,4733,11135 W National Ave,WI,53227-3107
Michaels Stores,San Rafael,4734,4734,400 Las Gallinas Ave,CA,94903-3618
Michaels Stores,Foothill Ranch,4735,4735,26752 Portola Pkwy,CA,92610-1712
Michaels Stores,Manhasset,4736,4736,1350 Northern Blvd,NY,11030-3004
Michaels Stores,Hanford,4737,4737,204 N 12th Ave,CA,93230
Michaels Stores,Chelmsford,4738,4738,265 Chelmsford St,MA,01824-2343
Michaels Stores,Beachwood,4739,4739,24081 Chagrin Blvd,OH,44122-5512
Michaels Stores,Destin,4740,4740,34940 Emerald Coast Pkwy,FL,32541-3402
Michaels Stores,Pinole,4741,4741,1450 Fitzgerald Dr,CA,94564-2227
Michaels Stores,Winter Park,4742,4742,"501 N Orlando Ave, Suite 135",FL,32789-7313
Michaels Stores,Hilliard,4743,4743,1830 Hilliard Rome Rd,OH,43026-7565
Michaels Stores,Canton,4744,4744,41904 Ford Rd,MI,48187-3647
Michaels Stores,Valparaiso,4746,4746,"91 Silhavy Rd, Ste 141",IN,46383-4425
Michaels Stores,Oak Park Heights,4747,4747,5845 Krueger Ln N,MN,55082
Michaels Stores,Ventura,4800,4800,4850 Telephone Rd,CA,93003-5234
Michaels Stores,Lutherville-Timonium,4801,4801,30-36 W Ridgely Rd,MD,21093-5112
Michaels Stores,Algonquin,4802,4802,742 S Randall Rd,IL,60102-5915
Michaels Stores,Chesapeake,4803,4803,"4300 Portsmouth Blvd, Ste 270",VA,23321-2156
Michaels Stores,North Little Rock,4804,4804,4126 E McCain Blvd,AR,72117-2523
Michaels Stores,Wichita,4805,4805,11835 E Kellogg Dr,KS,67207-1939
Michaels Stores,Exton,4806,4806,285 Main St,PA,19341-3701
Michaels Stores,Athens,4807,4807,3055 Atlanta Hwy,GA,30606-3334
Michaels Stores,Tucson,4808,4808,7150 E Broadway Blvd,AZ,85710-1405
Michaels Stores,Naperville,4809,4809,2768 Aurora Ave,IL,60540
Michaels Stores,Wayne,4811,4811,1660 Rte 23,NJ,07470-7516
Michaels Stores,Fremont,4812,4812,39170 Argonaut Way,CA,94538-1304
Michaels Stores,Bradenton,4813,4813,831 Cortez Rd W,FL,34207-1433
Michaels Stores,San Jose,4814,4814,5550 Snell Ave,CA,95123-1651
Michaels Stores,Cranberry Township,4815,4815,20111 Rt 19,PA,16066-6207
Michaels Stores,Woodbridge,4816,4816,14137 Crossing Pl,VA,22192
Michaels Stores,Chicago Ridge,4817,4817,9680 S Ridgeland Ave,IL,60415-2609
Michaels Stores,West Fargo,4818,4818,"1638 13th Ave E, Ste 1",ND,58078-3404
Michaels Stores,Little Rock,4819,4819,11400 W Markham St,AR,72211-2806
Michaels Stores,Westbury,4820,4820,1280 Corporate Dr,NY,11590-6625
Michaels Stores,Visalia,4821,4821,4248 S Mooney Blvd,CA,93277-9306
Michaels Stores,Bellingham,4822,4822,4383 Meridian St,WA,98226-7624
Michaels Stores,Abilene,4823,4823,3433 Catclaw Dr,TX,79606-8223
Michaels Stores,Hoover,4824,4824,1765 Montgomery Hwy S,AL,35244-1215
Michaels Stores,Tualatin,4825,4825,7705 SW Nyberg St,OR,97062-8443
Michaels Stores,Manchester,4826,4826,1520 Pleasant Valley Rd,CT,06040-1637
Michaels Stores,Rochester Hills,4827,4827,1260 S Rochester Rd,MI,48307-3120
Michaels Stores,Shreveport,4850,4850,7440 Youree Dr,LA,71105-5536
Michaels Stores,Owen Sound,4902,4902,2125 16th Street E,ON,N4K 5N3
Michaels Stores,Brantford,4904,4904,221 Henry St. Unit A,ON,N3S 7R4
Michaels Stores,Vancouver,4906,4906,1022 Alberni St,BC,V6E 1A3
Michaels Stores,Chatham,4907,4907,774 St Clair St,ON,N7M 5J7
Michaels Stores,Toronto,4910,4910,5051 Yonge St,ON,M2N 5P2
Michaels Stores,Spruce Grove,4911,4911,151 Century Crossing Ste 140,AB,T7X 0C8
Michaels Stores,Orillia,4913,4913,95 Murphy Rd,ON,L3V 0B5
Michaels Stores,Pembroke,4914,4914,"15 Robinson Ln, Ste 2",ON,K8A 0A5
Michaels Stores,Hamilton,4915,4915,1267 Barton Ste E Unit F-2,ON,L8H 2V4
Michaels Stores,Vaudreuil,4952,4952,3060 Boul De la Gare,QC,J7V 0H1
Michaels Stores,Saint-Jean-sur-Richelieu,4953,4953,110 Boul Omer-Marcil,QC,J2W 2X2
Michaels Stores,Laval,4954,4954,5020 Robert Bourassa Blvd,QC,H7E 0A6
Michaels Stores,Terrebonne,4955,4955,701 Rue des Migrateurs,QC,J6V 0A8
Michaels Stores,Saint Jerôme,4956,4956,1025 Boul du Grand-Heron,QC,J7Y 3P2
Michaels Stores,LaSalle,4957,4957,6855 Boul Newman,QC,H8N 3E4
Michaels Stores,Drummondville,4958,4958,850 Rue Hains,QC,J2C 0J2
Michaels Stores,Gatineau,4959,4959,"41 Boul De La Gappe, Unit 2",QC,J8T 0B5
Michaels Stores,Saint-Constant,4960,4960,494 Route 132,QC,J5A 2S6
Michaels Stores,Greenfield Park,4961,4961,4990 Boul Taschereau,QC,J4V 3M3
Michaels Stores,Levis,4962,4962,65 Rue du Président Kennedy,QC,G6V 6C8
Michaels Stores,Louisville,5003,5003,1955 S Hurstbourne Pkwy,KY,40220-1645
Michaels Stores,Gastonia,5006,5006,2904 E Franklin Blvd,NC,28056-9469
Michaels Stores,Glendale,5010,5010,5725 W Bell Rd,AZ,85308-3869
Michaels Stores,Brooklyn,5015,5015,4798 Ridge Rd Ste A,OH,44144-3327
Michaels Stores,Lafayette,5016,5016,5624 Johnston St,LA,70503-5301
Michaels Stores,Florissant,5017,5017,2427 N Hwy 67,MO,63033
Michaels Stores,Vernon Hills,5018,5018,"701 N Milwaukee Ave, Ste 208",IL,60061-1530
Michaels Stores,Kildeer,5019,5019,"20505 N Rand Rd, Suite 230",IL,60047-3004
Michaels Stores,Tuscaloosa,5020,5020,2600 McFarland Blvd E,AL,35405
Michaels Stores,Columbia,5021,5021,10204 Two Notch Rd Ste 2,SC,29229-4386
Michaels Stores,Gulfport,5022,5022,15136 Crossroads Pkwy,MS,39503-3565
Michaels Stores,Covington,5023,5023,69290 Hwy 21,LA,70433-7214
Michaels Stores,Stony Brook,5026,5026,2130 Nesconset Hwy,NY,11790-3503
Michaels Stores,Normal,5027,5027,"200 Greenbriar Dr, Ste A",IL,61761-6282
Michaels Stores,Altamonte Springs,5028,5028,"880 W State Rd 436, Ste 1001",FL,32714-3047
Michaels Stores,Eatontown,5029,5029,178 Rte 35 S,NJ,07724-1883
Michaels Stores,Madison,5031,5031,"175 Grandview Blvd, Ste 800",MS,39110-7595
Michaels Stores,Charlotte,5032,5032,7836 Rea Road,NC,28277-6502
Michaels Stores,Selma,5033,5033,8340 Agora Pkwy,TX,78154-1326
Michaels Stores,Houma,5034,5034,1729 Martin Luther King Jr Blvd,LA,70360-2409
Michaels Stores,Los Angeles,5035,5035,11260 Olympic Blvd,CA,90064
Michaels Stores,Austin,5038,5038,"14028 N Hwy 183, Bldg C",TX,78717
Michaels Stores,Marietta,5039,5039,4475 Roswell Rd Ste 700,GA,30062
Michaels Stores,Aurora,5041,5041,80 S. Abilene St. Aurora City Place,CO,80012
Michaels Stores,Seekonk,5043,5043,251 Highland Ave,MA,02771-5807
Michaels Stores,Vacaville,5044,5044,1611-A E. Monte Vista Ave,CA,95688
Michaels Stores,Poway,5045,5045,13343 Poway Rd,CA,92064
Michaels Stores,Douglasville,5047,5047,2880 Chapel Hill Rd,GA,30135
Michaels Stores,Norman,5048,5048,2040 24th Ave NW,OK,73069
Michaels Stores,Westminster,5049,5049,"10450 Town Center Dr, Ste 400",CO,80021-6083
Michaels Stores,Phoenix,5050,5050,4735 E Ray Road,AZ,85044
Michaels Stores,Cincinnati,5053,5053,9657 Colerain Ave,OH,45251-2003
Michaels Stores,Brighton,5054,5054,8389 W Grand River Ave,MI,48116
Michaels Stores,Ocala,5056,5056,2701 SW College Rd #700,FL,34474
Michaels Stores,Evergreen Park,5057,5057,9140 S. Western Ave.,IL,60805
Michaels Stores,Beaumont,5059,5059,4450 N Dowlen Rd,TX,77706
Michaels Stores,Braintree,5060,5060,121 Pearl Street,MA,2184
Michaels Stores,Green Bay,5071,5071,1616 W Mason St. Ste B,WI,54303
Michaels Stores,Phoenix,5103,5103,2766 W Peoria Ave,AZ,85029-5129
Michaels Stores,Tucson,5206,5206,4070 N Oracle Rd,AZ,85705-2720
Michaels Stores,Lexington,5302,5302,150 W Lowry Ln Ste 170,KY,40503-3008
Michaels Stores,Mesa,5700,5700,5020 S Power Rd,AZ,85212
Michaels Stores,Gilbert,5701,5701,3771 S Gilbert Rd,AZ,85296
Michaels Stores,Arden,5705,5705,5 McKenna Rd,NC,28704-9201
Michaels Stores,Brentwood,5706,5706,5501 Lone Tree Way,CA,94513
Michaels Stores,Kansas City,5707,5707,13627 Washington St,MO,64145-1670
Michaels Stores,Longview,5708,5708,"200 Triangle Center, Ste 240",WA,98632-4679
Michaels Stores,Fontana,5709,5709,15228 Summit Ave,CA,92336-5489
Michaels Stores,El Cajon,5711,5711,2398-A Jamacha Rd,CA,92019-4367
Michaels Stores,Westminster,5712,5712,402 B Englar Rd,MD,21157-4852
Michaels Stores,Greeley,5713,5713,"4743 W 29th St, Unit A",CO,80634-8363
Michaels Stores,Woodside,5715,5715,5106 Northern Blvd,NY,11377-1733
Michaels Stores,Port Chester,5716,5716,27 Don Bosco Pl,NY,10573
Michaels Stores,Newburgh,5717,5717,"1245 Rte 300, Ste 1",NY,12550-5007
Michaels Stores,Draper,5718,5718,215 E 12300 S,UT,84020-8185
Michaels Stores,Kissimmee,5720,5720,3278 N John Young Pkwy,FL,34741-7549
Michaels Stores,Woodbury,5721,5721,9180 Hudson Rd,MN,55125-9106
Michaels Stores,Georgetown,5724,5724,"1013 W University Ave, Ste 600",TX,78628-5332
Michaels Stores,Portland,5725,5725,12255 N. Starlight Avenue,OR,97217-7845
Michaels Stores,Hamilton,5727,5727,3455 Princeton Rd,OH,45011
Michaels Stores,Plymouth,5728,5728,211 Colony Place,MA,2360
Michaels Stores,Aliso Viejo,5729,5729,26503 Aliso Creek Rd,CA,92656-2882
Michaels Stores,Livonia,5732,5732,13110 Middlebelt Rd,MI,48150-2231
Michaels Stores,Spanish Fort,5733,5733,10200 Eastern Shore Blvd,AL,36527-8671
Michaels Stores,Marquette,5734,5734,3175 US Hwy 41 W,MI,49855-9494
Michaels Stores,Winchester,5736,5736,2540 S Pleasant Valley Rd,VA,22601
Michaels Stores,Burlington,5737,5737,1455 University Dr,NC,27215
Michaels Stores,Durham,5738,5738,8200 Renaissance Pkwy,NC,27713-6688
Michaels Stores,Hartsdale,5739,5739,319 N Central Ave,NY,10530-1811
Michaels Stores,Rio Grande,5740,5740,3201 Route 9 S,NJ,08242-1006
Michaels Stores,St. Joseph,5741,5741,"5201 N Belt Hwy, Ste 125",MO,64506-1256
Michaels Stores,Paducah,5742,5742,"5187 Hinkleville Rd, Ste A",KY,42001-9667
Michaels Stores,Keene,5745,5745,7 Ash Brook Rd,NH,03431-5918
Michaels Stores,Joplin,5747,5747,415 S Geneva Ave,MO,64801
Michaels Stores,Pottstown,5748,5748,"1122 Town Square Rd, Ste 12",PA,19465
Michaels Stores,Waterbury,5749,5749,295 Union St,CT,06705-1248
Michaels Stores,Crystal,5800,5800,203 Willow Bend,MN,55428-3967
Michaels Stores,Reno,5801,5801,4871 Kietzke Ln,NV,89509-6549
Michaels Stores,Joliet,5802,5802,2800 Plainfield Rd,IL,60435-1167
Michaels Stores,Alexandria,5803,5803,7690A Richmond Hwy,VA,22306-2843
Michaels Stores,Sioux City,5804,5804,"5001 Sergeant Rd, Ste 60",IA,51106
Michaels Stores,Johnstown,5805,5805,420 Town Centre Dr,PA,15904-2856
Michaels Stores,Anchorage,5806,5806,8571 Old Seward Hwy,AK,99515-2015
Michaels Stores,Indianapolis,5807,5807,5750 W 86th St,IN,46278-1338
Michaels Stores,Las Vegas,5808,5808,1251 S Decatur Blvd,NV,89102-5515
Michaels Stores,Mayfield Heights,5811,5811,1361 SOM Center Rd,OH,44124-2103
Michaels Stores,West Valley City,5812,5812,3061 S 5600 W,UT,84120-1303
Michaels Stores,Humble,5813,5813,19653 US Hwy 59,TX,77338-3565
Michaels Stores,Sacramento,5814,5814,3400 El Camino Ave,CA,95821-6310
Michaels Stores,Savannah,5815,5815,"8108 Abercorn St, Ste 400",GA,31406-3419
Michaels Stores,Port Richey,5816,5816,9646 US Hwy 19 N,FL,34668-4642
Michaels Stores,Evansville,5817,5817,6212 E Lloyd Expy,IN,47715-2718
Michaels Stores,Jacksonville,5818,5818,651-800 Commerce Center Dr,FL,32225-8180
Michaels Stores,Greenville,6001,6001,20 Haywood Rd,SC,29607-3826
Michaels Stores,Bee Caves,6700,6700,12770 Shops Pkwy Ste 100,TX,78738
Michaels Stores,Clifton,6702,6702,348 Rt 3 W,NJ,07014-1900
Michaels Stores,Downey,6703,6703,12100 Lakewood Blvd.,CA,90242
Michaels Stores,Palm Beach Gardens,6704,6704,11240  Legacy Ave,FL,33410
Michaels Stores,Yuba City,6706,6706,1120 Harter Rd,CA,95993-2642
Michaels Stores,Inglewood,6707,6707,3340 W Century Blvd,CA,90303-1305
Michaels Stores,ALTOONA,6708,6708,189 Falon Ln,PA,16602
Michaels Stores,Brookfield,6709,6709,695 Main Street,WI,53005-4702
Michaels Stores,Carlisle,6710,6710,230 Westminster Dr,PA,17013-3117
Michaels Stores,Tinley Park,6711,6711,7310 191st St,IL,60477
Michaels Stores,Allen Park,6712,6712,3220 Fairlane Dr,MI,48101-2871
Michaels Stores,San Jose,6713,6713,561 Coleman Ave,CA,95110-2047
Michaels Stores,North Aurora,6714,6714,1780 Orchard Gateway Blvd,IL,60542
Michaels Stores,Taunton,6715,6715,"9 Mozzone Blvd, Unit 100",MA,02780-3795
Michaels Stores,Middletown,6716,6716,88-5 Dunning Rd,NY,10940-2218
Michaels Stores,Plymouth,6717,6717,3215 Vicksburg Ln N,MN,55447-1317
Michaels Stores,Longmont,6718,6718,"205 Ken Pratt Blvd, Ste 200",CO,80501
Michaels Stores,Walnut,6719,6719,21630 Valley Blvd,CA,91789
Michaels Stores,Knightdale,6725,6725,1006 Shoppes at Midway Dr.,NC,27545
Michaels Stores,Aurora,6726,6726,"6352 S Central St, Unit A",CO,80016-5326
Michaels Stores,MANSFIELD,6729,6729,"2041 N Hwy 287, Ste 501",TX,76063-8847
Michaels Stores,Pinellas Park,6730,6730,7240 US Hwy 19 N,FL,33781-4612
Michaels Stores,Warrington,6731,6731,1055 Main Street,PA,18976
Michaels Stores,Petaluma,6732,6732,1359 N McDowell Blvd,CA,94954-1114
Michaels Stores,Eden Prairie,6733,6733,8565 Columbine Rd,MN,55344-7662
Michaels Stores,New Lenox,6734,6734,2374 E Lincoln Hwy,IL,60451-9533
Michaels Stores,Lebanon,6740,6740,1127 Quentin Rd,PA,17042-6915
Michaels Stores,Grove City,6743,6743,1614 Stringtown Rd,OH,43123
Michaels Stores,Jacksonville,6745,6745,13281 City Station Dr,FL,32218-7228
Michaels Stores,Topeka,6749,6749,2040 SW Wanamaker Rd,KS,66604-3827
Michaels Stores,Spring Valley,6750,6750,14 A Spring Valley Marketplace,NY,10977
Michaels Stores,Oswego,6752,6752,1620 Douglas Rd,IL,60543
Michaels Stores,Wentzville,6755,6755,1856 Wentzville Pkwy,MO,63385-3817
Michaels Stores,Conshohocken,6756,6756,104 Alan Wood Rd.,PA,19428
Michaels Stores,Plover,6758,6758,1210 Commons Cir,WI,54467-4129
Michaels Stores,Acworth,6761,6761,"3335 Cobb Pkwy N, Ste 500",GA,30101-3940
Michaels Stores,New Britain,6762,6762,600 Hartford Rd,CT,06053-1527
Michaels Stores,Oklahoma City,6803,6803,1441 W I-240 Service Rd,OK,73159-4145
Michaels Stores,Shiloh,6805,6805,3800 Green Mount Crossing Dr,IL,62269-7286
Michaels Stores,Hoffman Estates,6815,6815,2600 N Sutton Rd,IL,60192-3706
Michaels Stores,Winston-Salem,6816,6816,1050 Hanes Mall Blvd,NC,27103-1309
Michaels Stores,Cupertino,6818,6818,20640 Homestead Rd,CA,95014-0451
Michaels Stores,Duluth,6819,6819,925 W Central Entrance Hwy,MN,55811
Michaels Stores,Vancouver,6820,6820,16601 SE Mill Plain Blvd,WA,98684
Michaels Stores,Littleton,7008,7008,5382 S Wadsworth Blvd,CO,80123-2201
Michaels Stores,Boulder,7010,7010,"4800 Baseline Rd, Ste A-108",CO,80303-2643
Michaels Stores,Colorado Springs,7204,7204,7664 N Academy Blvd,CO,80920-3208
Michaels Stores,Chambersburg,7720,7720,967 Norland Ave,PA,17201-4204
Michaels Stores,Port St. Lucie,7721,7721,10872 SW Village Pkwy,FL,34987-2357
Michaels Stores,Tustin,7727,7727,2807 Park Ave,CA,92782-2711
Michaels Stores,Nampa,7728,7728,16474 N Marketplace Blvd,ID,83651
Michaels Stores,Jacksonville,7729,7729,"13740 Beach Blvd, Ste 200",FL,32224-6035
Michaels Stores,Mira Loma,7730,7730,6381 Pats Ranch Rd,CA,91752
Michaels Stores,Edwardsville,7735,7735,6639 Edwardsville Crossing Dr,IL,62025
Michaels Stores,Mansfield,7737,7737,280 School St Ste I 160,MA,02048-1810
Michaels Stores,Midvale,7739,7739,1128 E Ft Union Blvd,UT,84047-1804
Michaels Stores,Anchorage,7742,7742,"3090 Mountain View Dr, Ste 130",AK,99501-3109
Michaels Stores,Orange City,7745,7745,971 Harley Strickland Blvd,FL,32763
Michaels Stores,Brunswick,7747,7747,480 Glynn Isles,GA,31525
Michaels Stores,Sparks,7752,7752,165 Los Altos Pkwy,NV,89436
Michaels Stores,Palmdale,7753,7753,"39626 10th St W, Ste B",CA,93551-3000
Michaels Stores,Wareham,7754,7754,2421 Cranberry Hwy. Unit 204,MA,02571-5023
Michaels Stores,Marysville,7755,7755,16418 Twin Lakes Ave,WA,98271
Michaels Stores,Tarentum,7757,7757,1030 Village Center Dr,PA,15084-3847
Michaels Stores,North Dartmouth,7760,7760,471 State Rd,MA,02747-4309
Michaels Stores,Brooksville,7761,7761,7131 Coastal Blvd,FL,34613
Michaels Stores,Sicklerville,7762,7762,463 Cross Keys Rd,NJ,08081-9749
Michaels Stores,Peoria,7763,7763,10106 W Happy Valley Pkwy,AZ,85383
Michaels Stores,Sebring,7764,7764,1740 US 27 N,FL,33870-1921
Michaels Stores,Cape Coral,7765,7765,527 SW Pine Island Rd,FL,33991-1962
Michaels Stores,Fleming Island,7766,7766,1993 East West Pkwy,FL,32003-6350
Michaels Stores,Cheyenne,7768,7768,5204 Rue Terre,WY,82009
Michaels Stores,Medford,7770,7770,2799 Route 112,NY,11763
Michaels Stores,Triadelphia,7771,7771,550 Cabela Dr,WV,26059-1044
Michaels Stores,Ramsey,7773,7773,75 Interstate Shopping Center,NJ,07446-1605
Michaels Stores,Camillus,7774,7774,3483 W Genesee St,NY,13219
Michaels Stores,Rutland,7775,7775,324 S Main St (US Route 7 S),VT,05701-4907
Michaels Stores,Tampa,7776,7776,11643 W Hillsborough Ave,FL,33635-9736
Michaels Stores,Castle Rock,7778,7778,5650 Allen Way Ste 108,CO,80108
Michaels Stores,Waynesboro,7780,7780,"821 Town Center Dr, Ste F",VA,22980-9262
Michaels Stores,Mohegan Lake,7781,7781,3131 E Main St,NY,10547-1521
Michaels Stores,College Station,7782,7782,1505 E University Dr Ste 300,TX,77840-2672
Michaels Stores,Mountain View,7784,7784,2415 Charleston Rd,CA,94043
Michaels Stores,Temple,7785,7785,3550 General Bruce Dr Ste A120,TX,76504
Michaels Stores,Lompoc,7787,7787,605 N H St,CA,93436-4518
Michaels Stores,Murfreesboro,7790,7790,2615 Medical Center Pkwy,TN,37129-2257
Michaels Stores,Tempe,7801,7801,55 S McClintock Dr Ste 125,AZ,85281-2042
Michaels Stores,Greensboro,7804,7804,1616 Highwoods Blvd,NC,27410-2048
Michaels Stores,Brownsville,7807,7807,571 E Morrison Rd,TX,78526-3370
Michaels Stores,San Antonio,7808,7808,"17802 La Cantera Pkwy, Ste 104",TX,78257
Michaels Stores,West Deptford,7809,7809,2000 Clements Bridge Rd,NJ,08096-2011
Michaels Stores,Hickory,7810,7810,2195 Hwy 70 SE,NC,28602-5163
Michaels Stores,Florence,7811,7811,"4999 Houston Rd, Ste 200",KY,41042-1365
Michaels Stores,Keizer,7814,7814,6445 Keizer Station Blvd NE,OR,97303-1695
Michaels Stores,Olathe,7819,7819,14685 W 119th St,KS,66062-8600
Michaels Stores,Dothan,7820,7820,4601 Montgomery Hwy Ste 400,AL,36303-1522
Michaels Stores,Orem,8003,8003,321 E 1300 South St,UT,84058-5424
Michaels Stores,Bellevue,8403,8403,"15600 NE 8th St, Ste D-4",WA,98008-3917
Michaels Stores,Kirkland,8407,8407,9755 Juanita Dr NE,WA,98034-4201
Michaels Stores,Lacey,8411,8411,701 Sleater Kinney Rd SE,WA,98503-1133
Michaels Stores,Beaverton,8502,8502,4955 SW Western Ave,OR,97005-3429
Michaels Stores,Oregon City,8503,8503,1900 McLoughlin Blvd Ste 90,OR,97045-1072
Michaels Stores,Gresham,8506,8506,"2101 NE Burnside St, Ste 20",OR,97030-7944
Michaels Stores,Mission Viejo,8513,8513,25310 Marguerite Pkwy,CA,92692-2902
Michaels Stores,Orange,8526,8526,1802 E Katella Ave,CA,92867-5107
Michaels Stores,Avon,8604,8604,"15 Stockwell Dr, Ste A",MA,02322-1172
Michaels Stores,Burnsville,8608,8608,13901 Aldrich Ave S,MN,55337-6216
Michaels Stores,San Diego,8619,8619,3994 Clairemont Mesa Blvd,CA,92117-2714
Michaels Stores,St. Louis,8622,8622,5796 S Lindbergh Blvd,MO,63123-6937
Michaels Stores,Commack,8623,8623,50 Veterans Memorial Hwy,NY,11725-3409
Michaels Stores,Niles,8625,8625,7225 W Dempster St,IL,60714-2107
Michaels Stores,Largo,8627,8627,"10500 Ulmerton Rd, Ste 250",FL,33771-3503
Michaels Stores,Willow Grove,8633,8633,2534 W Moreland Rd,PA,19090-4001
Michaels Stores,North Riverside,8634,8634,7231 W 24th St,IL,60546-1406
Michaels Stores,Ballwin,8646,8646,15425 Manchester Rd,MO,63011-3077
Michaels Stores,Chesapeake,8659,8659,1593 Crossways Blvd,VA,23320-2442
Michaels Stores,Pittsburgh,8662,8662,4801 McKnight Rd,PA,15237-3412
Michaels Stores,Lakewood,8667,8667,4000 Hardwick St,CA,90712-2349
Michaels Stores,Bloomingdale,8677,8677,402 W Army Trail Dr,IL,60108-1379
Michaels Stores,San Leandro,8695,8695,15100 Hesperian Blvd,CA,94578-3600
Michaels Stores,Redwood City,8696,8696,100 Woodside Plaza,CA,94061-2553
Michaels Stores,Sunnyvale,8698,8698,818 W El Camino Real,CA,94087-1153
Michaels Stores,San Jose,8701,8701,1444 Kooser Rd,CA,95118-3800
Michaels Stores,San Diego,8704,8704,12060 Carmel Mountain Rd,CA,92128-4605
Michaels Stores,Monaca,8708,8708,"115 Wagner Rd, Bldg B",PA,15061
Michaels Stores,La Mesa,8709,8709,9108 Fletcher Pkwy,CA,91942-3424
Michaels Stores,Dayville,8710,8710,2091 Killingly Commons Dr,CT,6241
Michaels Stores,Patchogue,8711,8711,"499 Sunrise Hwy W, Ste 65",NY,11772-2200
Michaels Stores,Manchester,8712,8712,"1111 S Willow St, Unit 3",NH,03103-4035
Michaels Stores,Madison Heights,8717,8717,32351 John R Rd,MI,48071-1324
Michaels Stores,Fairfield,8718,8718,1310 Gateway Blvd,CA,94533-6903
Michaels Stores,Warwick,8719,8719,"1500 Bald Hill Rd, Unit C",RI,02886-4259
Michaels Stores,Baytown,8724,8724,6614 Garth Rd,TX,77521-8623
Michaels Stores,Danvers,8726,8726,35 Independence Way,MA,01923-3626
Michaels Stores,Latham,8727,8727,579 Troy-Schenectady Rd,NY,12110
Michaels Stores,West Palm Beach,8729,8729,2021 Okeechobee Blvd,FL,33409
Michaels Stores,Kingsport,8730,8730,2626 E Stone Dr Ste 110,TN,37660-5848
Michaels Stores,Palm Springs,8733,8733,"2465 E Palm Canyon, Bldg 3",CA,92264
Michaels Stores,Morehead City,8734,8734,5160 Hwy 70 W Ste 400,NC,28557
Michaels Stores,Casa Grande,8736,8736,1004 N Promenade Pkwy Ste 146,AZ,85194-5420
Michaels Stores,Cleveland,8737,8737,4550 Frontage Rd NW,TN,37312-2905
Michaels Stores,Muncy,8738,8738,270 S Lycoming Mall Rd,PA,17756-8063
Michaels Stores,Homestead,8740,8740,2535 NE 10 Ct,FL,33033-4719
Michaels Stores,Sarasota,8742,8742,127 N Cattleman Rd,FL,34243-4743
Michaels Stores,Corvallis,8743,8743,"1550 NW 9th St, Ste 106",OR,97330-4513
Michaels Stores,Davenport,8744,8744,1600 Posner Blvd,FL,33837-3628
Michaels Stores,Palm Coast,8745,8745,5250 Hwy 100 E,FL,32164
Michaels Stores,Gainesville,8748,8748,8171 Stonewall Shops Square,VA,20155
Michaels Stores,Ocean City,8751,8751,"12641 Ocean Gateway, Ste 200",MD,21842-9594
Michaels Stores,Marina,8754,8754,121 General Stillwell Dr,CA,93933-6242
Michaels Stores,El Centro,8756,8756,564 Danenberg Dr,CA,92243
Michaels Stores,Coralville,8757,8757,2515 Corridor Way Ste 4,IA,52241
Michaels Stores,League City,8759,8759,1821 Gulf Fwy,TX,77539-3207
Michaels Stores,Weatherford,8760,8760,225 Adams Dr Ste 225,TX,76086-6724
Michaels Stores,Katy,8761,8761,23514 Westheimer Pkwy,TX,77494
Michaels Stores,Amherst,8762,8762,123 Rte 101a,NH,3031
Michaels Stores,Grafton,8763,8763,1060 Port Washington Rd,WI,53024-9202
Michaels Stores,Willowbrook,8769,8769,7155 S Kingery Hwy,IL,60527-5525
Michaels Stores,Machesney Park,8771,8771,1017 W Lane Rd,IL,61115
Michaels Stores,Viera,8772,8772,2261 Town Center Ave,FL,32940-6114
Michaels Stores,Branson,8773,8773,1025 Branson Hills Pkwy,MO,65616-9940
Michaels Stores,Las Vegas,8774,8774,7195 Arroyo Crossing Pkwy,NV,89113-4057
Michaels Stores,Selinsgrove,8777,8777,250 Marketplace Blvd,PA,17870-2402
Michaels Stores,Wesley Chapel,8778,8778,5913 Wesley Grove Blvd,FL,33544
Michaels Stores,Wichita Falls,8782,8782,3201 Lawrence Rd Ste 150,TX,76308-1633
Michaels Stores,Grand Chute,8783,8783,4661 Associated Ct,WI,54913-8217
Michaels Stores,Rego Park,8785,8785,9030 Metropolitan Ave,NY,11374-5328
Michaels Stores,Benton Harbor,8786,8786,950 E Napier Ave,MI,49022
Michaels Stores,Fort Wayne,8787,8787,10240 Maysville Rd,IN,46835
Michaels Stores,West Jordan,8788,8788,7668 S Campus View Dr,UT,84084-4316
Michaels Stores,Brighton,8790,8790,2253 Prairie Center Pkwy,CO,80601-7000
Michaels Stores,Klamath Falls,8791,8791,1920 Austin St,OR,97603-4644
Michaels Stores,San Antonio,8794,8794,"5347 W Loop 1604 N, Ste 103",TX,78253-5794
Michaels Stores,San Angelo,8795,8795,4451 Sunset Dr,TX,76901-5612
Michaels Stores,Canandaigua,8796,8796,320 Eastern Blvd,NY,14424
Michaels Stores,Batavia,8797,8797,4210 Veterans Memorial Dr,NY,14020
Michaels Stores,Chicago,8798,8798,1101 S Canal St #002,IL,60607-4901
Michaels Stores,Manassas,8801,8801,10828 Sudley Manor Dr,VA,20109-2834
Michaels Stores,Fairfax,8804,8804,3089A Nutley St,VA,22031-1968
Michaels Stores,Roanoke,8805,8805,1357 Town Square Blvd NW,VA,24012-1611
Michaels Stores,Fredericksburg,8806,8806,299 Spotsylvania Mall,VA,22407-1125
Michaels Stores,Charlottesville,8807,8807,1035 Emmet St N,VA,22903-4834
Michaels Stores,Sterling,8808,8808,46301 Potomac Run Plaza,VA,20164-6614
Michaels Stores,Gaithersburg,8809,8809,821 Center Point Way,MD,20878-5458
Michaels Stores,Waldorf,8810,8810,3026 Festival Way,MD,20601-2958
Michaels Stores,Annapolis,8811,8811,2309 B Forest Dr,MD,21401-3833
Michaels Stores,Silver Spring,8812,8812,13850 Georgia Ave,MD,20906-2924
Michaels Stores,Bel Air,8814,8814,640 Marketplace Dr,MD,21014-4338
Michaels Stores,Ellicott City,8815,8815,4360 Montgomery Rd,MD,21043-6006
Michaels Stores,Rochester,8816,8816,3349 Monroe Ave,NY,14618-5513
Michaels Stores,Arlington,8817,8817,1108 W Arbrook Blvd,TX,76015-4211
Michaels Stores,Springfield,8831,8831,3318 Gateway St,OR,97477
Michaels Stores,Lancaster,8832,8832,44679 Valley Central Way,CA,93534-6537
Michaels Stores,Montgomery,8834,8834,7991 Eastchase Pkwy,AL,36117
Michaels Stores,Orlando,8836,8836,8081 Turkey Lake Rd Ste 400,FL,32819
Michaels Stores,Dallas,8838,8838,"5301 Beltline Rd, Ste 101",TX,75254-7664
Michaels Stores,Stockton,8840,8840,628 W Hammer Ln,CA,95210
Michaels Stores,Monroe,8844,8844,"4429 Pecanland Mall Dr,  Ste 7",LA,71203
Michaels Stores,Houston,8845,8845,7630 FM 1960 W,TX,77070-5721
Michaels Stores,Tukwila,8847,8847,17400 Southcenter Pkwy,WA,98188-3705
Michaels Stores,Grand Rapids,8849,8849,3940 28th St SE,MI,49512
Michaels Stores,Federal Way,8900,8900,32061 Pacific Hwy S,WA,98003-6001
Michaels Stores,Jacksonville,9002,9002,"11111 San Jose Blvd, Ste 31",FL,32223-7274
Michaels Stores,Port Orange,9010,9010,5507 S Williamson Blvd,FL,32128-7370
Michaels Stores,Rapid City,9012,9012,1707 Eglin St,SD,57703
Michaels Stores,D'Iberville,9023,9023,3942 Promenade Pkwy,MS,39540-5370
Michaels Stores,New York,9025,9025,808 Columbus Ave,NY,10025-5139
Michaels Stores,Williamsburg,9035,9035,5225 Settlers Market Blvd #110,VA,23185
Michaels Stores,West Hazleton,9036,9036,276 Susquehanna Blvd,PA,18202
Michaels Stores,Clermont,9037,9037,2315 S US Hwy 27,FL,34711
Michaels Stores,Tulsa,9039,9039,7424 S Olympia Ave,OK,74132-1838
Michaels Stores,Woodland,9042,9042,2175 Bronze Star Dr,CA,95776-5406
Michaels Stores,Hot Springs,9045,9045,1438 Higdon Ferry Rd,AR,71913-6419
Michaels Stores,Collegeville,9046,9046,300 Water Loop Dr Ste 4,PA,19426-4917
Michaels Stores,Hillside,9048,9048,180 S Mannheim Rd,IL,60162
Michaels Stores,Deerfield Beach,9049,9049,"3701 W Hillsboro Blvd, Ste B",FL,33442-9417
Michaels Stores,Martinsburg,9050,9050,222 Retail Commons Pkwy,WV,25403-6177
Michaels Stores,Menifee,9053,9053,30274 Haun Rd,CA,92584-6822
Michaels Stores,Pelham Manor,9054,9054,840 Pelham Pkwy,NY,10803
Michaels Stores,Colma,9055,9055,4925 Junipero Serra Blvd,CA,94014
Michaels Stores,Flowood,9056,9056,712 Mackenzie Ln,MS,39232
Michaels Stores,Boynton Beach,9067,9067,"800 N Congress Ave, Ste 1",FL,33426-3301
Michaels Stores,Harvey,9068,9068,"1601 Westbank Expy, Ste C",LA,70058-4312
Michaels Stores,Clarksville,9069,9069,1020 Veterans Pkwy Ste 800,IN,47129
Michaels Stores,Indianapolis,9102,9102,9835 E Washington St,IN,46229-2623
Michaels Stores,Indianapolis,9103,9103,8030 Hwy 31,IN,46227-6226
Michaels Stores,Omaha,9160,9160,12404 K Plaza,NE,68137-2249
Michaels Stores,West Melbourne,9161,9161,205 Palm Bay Rd NE Ste 14,FL,32904-8602
Michaels Stores,Eau Claire,9166,9166,4154 Commonwealth Ave,WI,54701
Michaels Stores,Butler,9169,9169,740 Butler Crossing,PA,16001-2439
Michaels Stores,Fort Smith,9171,9171,4155 Phoenix Ave,AR,72903
Michaels Stores,Saginaw,9172,9172,3437 Tittabawassee Rd,MI,48604-9489
Michaels Stores,Amarillo,9173,9173,"2203 S Western St, Ste 600",TX,79109
Michaels Stores,Levittown,9175,9175,3675 Hempstead Tpke,NY,11756-1403
Michaels Stores,Schaumburg,9176,9176,1420 E Golf Rd,IL,60173-4902
Michaels Stores,Natick,9178,9178,"1398 Worcester Rd, Unit A",MA,01760-1514
Michaels Stores,Wichita,9179,9179,2441 N Maize Rd Ste 2201,KS,67205-7935
Michaels Stores,Houston,9180,9180,2650 Eldridge Pkwy,TX,77082
Michaels Stores,Watertown,9181,9181,21839 Towne Center Dr,NY,13601
Michaels Stores,Des Peres,9182,9182,11945 Manchester Rd,MO,63131-4502
Michaels Stores,Denver,9183,9183,2780 S Colorado Blvd Ste 306-B,CO,80222-6613
Michaels Stores,Chico,9184,9184,2041 Dr Martin Luther King Jr,CA,95928-6797
Michaels Stores,Northborough,9185,9185,6108 Shops Way,MA,01532-3301
Michaels Stores,Robinson Township,9186,9186,700 Settlers Ridge Center Dr,PA,15205-1436
Michaels Stores,Encino,9187,9187,17230 Ventura Blvd,CA,91316-4008
Michaels Stores,Kennesaw,9188,9188,"860 Cobb Place Blvd, Ste 140",GA,30144-4864
Michaels Stores,Walker,9189,9189,"3310 Alpine Ave NW, Unit 5",MI,49544-1600
Michaels Stores,Mount Pleasant,9192,9192,"2630 S Green Bay Rd, Ste A",WI,53406-4900
Michaels Stores,Mobile,9193,9193,"3250 Airport Blvd, Ste E31",AL,36606-3851
Michaels Stores,Parsippany,9194,9194,1099 Rte 46 E,NJ,07054-2177
Michaels Stores,North Las Vegas,9195,9195,6990 N 5th St,NV,89084-1351
Michaels Stores,West Covina,9196,9196,940 Lakes Dr,CA,91790-2926
Michaels Stores,Saugus,9198,9198,607 Broadway,MA,01906-3206
Michaels Stores,Cincinnati,9199,9199,6030 Glenway Ave,OH,45211-6318
Michaels Stores,Barboursville,9201,9201,10 Mall Rd,WV,25504-1821
Michaels Stores,Pensacola,9204,9204,4721 Bayou Blvd,FL,32503-2607
Michaels Stores,Mishawaka,9403,9403,"6502 Grape Rd, Room 730",IN,46545-1102
Michaels Stores,Feasterville Trevose,9407,9407,751 Bustleton Pike,PA,19053-6055
Michaels Stores,Cincinnati,9409,9409,3862 Paxton Ave,OH,45209-2399
Michaels Stores,San Jose,9412,9412,2040 Tully Rd,CA,95122-1300
Michaels Stores,Costa Mesa,9413,9413,610 W 17th St,CA,92627-3654
Michaels Stores,Henrietta,9415,9415,300 Hylan Dr,NY,14623-4216
Michaels Stores,Snellville,9416,9416,"1977 Scenic Hwy N, Ste G",GA,30078-2137
Michaels Stores,Toledo,9417,9417,5255 Airport Hwy,OH,43615-6800
Michaels Stores,Santa Maria,9421,9421,1934 S Broadway,CA,93454-7808
Michaels Stores,Glen Burnie,9426,9426,16 Mountain Rd,MD,21060-7974
Michaels Stores,Springfield,9427,9427,3119 S Veterans Pkwy,IL,62704-6497
Michaels Stores,Toledo,9428,9428,4622 Talmadge Rd,OH,43623-3007
Michaels Stores,Palm Harbor,9432,9432,33561 US Hwy 19 N,FL,34684-2600
Michaels Stores,Carrollwood,9440,9440,14829 N Dale Mabry Hwy,FL,33618-2027
Michaels Stores,Dublin,9443,9443,7890 Dublin Blvd,CA,94568-2924
Michaels Stores,Houston,9444,9444,3904 Bissonnet St,TX,77005-1143
Michaels Stores,Salt Lake City,9445,9445,"2236 S 1300 St E, Ste D-2",UT,84106-2803
Michaels Stores,Chino,9446,9446,4020 Grand Ave,CA,91710-5436
Michaels Stores,North Syracuse,9453,9453,337 Northern Lights Plaza,NY,13212-4130
Michaels Stores,Farmington Hills,9454,9454,30867 Orchard Lake Rd,MI,48334-1332
Michaels Stores,St. Cloud,9456,9456,4150 W Division St,MN,56301-3706
Michaels Stores,Durham,9502,9502,5442 New Hope Common Dr,NC,27707-9716
Michaels Stores,Mesa,9505,9505,1505 S Power Rd,AZ,85206-3707
Michaels Stores,Medford,9508,9508,3475 Crater Lake Hwy,OR,97504-9259
Michaels Stores,Merced,9509,9509,655 Fairfield Dr,CA,95348-2402
Michaels Stores,Onalaska,9514,9514,9386 State Rd 16,WI,54650-8526
Michaels Stores,Boise,9515,9515,8633 Franklin Rd,ID,83709-0632
Michaels Stores,San Mateo,9516,9516,1750 S Delaware St,CA,94402-2651
Michaels Stores,Turlock,9518,9518,3151 Geer Rd,CA,95382-1118
Michaels Stores,Panama City,9523,9523,601 W 23rd St,FL,32405-3922
Michaels Stores,Camarillo,9525,9525,"351 Carmen Dr, Ste A",CA,93010-6033
Michaels Stores,Southern Pines,9526,9526,10205 US 15/501 Unit #39,NC,28387
Michaels Stores,Pittsfield,9529,9529,555 Hubbard Ave,MA,01201-3810
Michaels Stores,Tucson,9530,9530,3749 W Ina Rd,AZ,85741-2001
Michaels Stores,Yuma,9531,9531,320 W 32nd St,AZ,85364-8128
Michaels Stores,Moscow,9534,9534,1720 W Pullman Rd,ID,83843-4015
Michaels Stores,Charlotte,9536,9536,8716 JW Clay Blvd,NC,28262-8471
Michaels Stores,Valdosta,9537,9537,1200C N St Augustine Rd,GA,31601-3534
Michaels Stores,Vista,9538,9538,1851 University Dr,CA,92083-7774
Michaels Stores,Pasadena,9539,9539,1155 E Colorado,CA,91106-1806
Michaels Stores,West Springfield,9540,9540,1081 Riverdale St,MA,01089-4614
Michaels Stores,Staten Island,9541,9541,30 Barrett Ave,NY,10302-2046
Michaels Stores,Atlanta,9543,9543,2625 Piedmont Rd NE,GA,30324-3011
Michaels Stores,Davie,9545,9545,1922 S University Dr,FL,33324-5849
Michaels Stores,Miami,9546,9546,8287 W Flagler St,FL,33144-2070
Michaels Stores,Coral Springs,9547,9547,2075 N University Dr,FL,33071-6132
Michaels Stores,Yakima,9549,9549,1729 S 1st St,WA,98901-3745
Michaels Stores,Chula Vista,9550,9550,1242 Broadway,CA,91911-2911
Michaels Stores,Augusta,9557,9557,13 Marketplace Dr,ME,04330-4637
Michaels Stores,Reston,9563,9563,11630 Plaza America Dr,VA,20190-4700
Michaels Stores,Fayetteville,9564,9564,27 Hudson Plaza,GA,30214-1658
Michaels Stores,Brandon,9568,9568,2564 W Brandon Blvd,FL,33511-4719
Michaels Stores,Lafayette,9601,9601,3500 State Hwy 38 E Ste 200,IN,47905-5165
Michaels Stores,Sioux Falls,9602,9602,3801 W 34th St Ste 103,SD,57106-4310
Michaels Stores,Kennewick,9605,9605,6803 W Canal Dr,WA,99336-7673
Michaels Stores,Nashville,9607,9607,719 Thompson Ln,TN,37204-3624
Michaels Stores,Flagstaff,9608,9608,1500 Riordan Ranch St,AZ,86001-6372
Michaels Stores,Gainesville,9609,9609,3644 SW Archer Rd,FL,32608-2420
Michaels Stores,Miami,9611,9611,12425 SW 88th St,FL,33186-1871
Michaels Stores,Asheville,9612,9612,111 - A River Hills Road,NC,28805-2235
Michaels Stores,Newington,9613,9613,196 Kitts Ln,CT,06111-4250
Michaels Stores,Minnetonka,9700,9700,11522 Wayzata Blvd,MN,55305-2007
Michaels Stores,Stevenson Ranch,9701,9701,25686 The Old Road N,CA,91381-1707
Michaels Stores,Johnson City,9704,9704,"3211 Peoples St, Sp B",TN,37604-4108
Michaels Stores,Miami,9705,9705,8354 S Dixie Hwy,FL,33143-7714
Michaels Stores,Elk Grove,9706,9706,7611 Laguna Blvd,CA,95758-5061
Michaels Stores,Germantown,9709,9709,20902 Frederick Rd,MD,20876-4134
Michaels Stores,Englewood,9710,9710,9565 E County Line Rd,CO,80112-3501
Michaels Stores,Vienna,9712,9712,311 Maple Ave E,VA,22180-4717
Michaels Stores,Miamisburg,9771,9771,8111 Springboro Pike,OH,45342-3703
Michaels Stores,Odessa,9772,9772,3827 E 42nd St,TX,79762-5947
Michaels Stores,Rockville,9801,9801,1509 Rockville Pike,MD,20852-1601
Michaels Stores,Towson,9802,9802,1238 Putty Hill Ave,MD,21286-5844
Michaels Stores,Falls Church,9803,9803,6330 Seven Corners CTR,VA,22044-2409
Michaels Stores,Granada Hills,9804,9804,18030 Chatsworth St,CA,91344-5607
Michaels Stores,Clackamas,9805,9805,"11211 SE 82nd Ave, Ste F",OR,97086-7624
Michaels Stores,Mesa,9806,9806,2060 E Baseline Rd,AZ,85204-6965
Michaels Stores,Brentwood,9808,9808,"8105 Moores Ln, Ste 1700",TN,37027-2973
Michaels Stores,Everett,9810,9810,1325B SE Everett Mall Way,WA,98208-2808
Michaels Stores,King of Prussia,9811,9811,200 W DeKalb Pike,PA,19406-2327
Michaels Stores,Missoula,9812,9812,2850 N Reserve St,MT,59808-1318
Michaels Stores,North Charleston,9813,9813,"7620 N Rivers Ave, Ste 130",SC,29406-4012
Michaels Stores,Midlothian,9814,9814,11607 Midlothian Tpke,VA,23113-2620
Michaels Stores,San Antonio,9815,9815,"255 E Basse Rd, Ste 120",TX,78253
Michaels Stores,Hattiesburg,9816,9816,4400 Hardy St,MS,39402-1309
Michaels Stores,South Charleston,9817,9817,214 RHL Blvd,WV,25309-8262
Michaels Stores,Layton,9819,9819,1804 N Woodland Park Dr,UT,84041-5639
Michaels Stores,Frederick,9820,9820,5541 Urbana Pike,MD,21704-7325
Michaels Stores,Geneva,9821,9821,1506 S Randall Rd,IL,60134-4610
Michaels Stores,Westlake Village,9822,9822,5780 Lindero Canyon Rd,CA,91362-4063
Michaels Stores,Aventura,9823,9823,20609 Biscayne Blvd,FL,33180-1536
Michaels Stores,Boca Raton,9824,9824,8903 Glades Rd,FL,33434-4023
Michaels Stores,Pembroke Pines,9825,9825,11300 Pines Blvd,FL,33026-4012
Michaels Stores,Spokane,9826,9826,"7630 N Division St, Ste A",WA,99208-5614
Michaels Stores,Encinitas,9827,9827,335 N El Camino Real,CA,92024-2810
Michaels Stores,Burlington,9828,9828,34 Cambridge St,MA,01803-4674
Michaels Stores,Las Vegas,9831,9831,7321 W Lake Mead Blvd,NV,89128-1003
Michaels Stores,Mays Landing,9832,9832,240 Consumer Square,NJ,08330-3325
Michaels Stores,Plano,9833,9833,"801 W 15th St, Ste A",TX,75075-8838
Michaels Stores,Bourbonnais,9834,9834,1515 N State Rte 50,IL,60914-4429
Michaels Stores,Lewisville,9835,9835,"2325 S Stemmons Frwy, Ste 402",TX,75067-2312
Michaels Stores,Niles,9837,9837,5555 Youngstown Warren Rd,OH,44446-4804
Michaels Stores,San Luis Obispo,9838,9838,3880 Broad St,CA,93401-7110
Michaels Stores,Eagan,9841,9841,1267 Promenade Pl,MN,55121-2293
Michaels Stores,Poughkeepsie,9844,9844,2522 South Rd,NY,12601-5468
Michaels Stores,Phoenix,9848,9848,"1925 E Camelback Rd, Ste 132",AZ,85016-4140
Michaels Stores,Portage,9849,9849,6601 S Westnedge Ave,MI,49002-3544
Michaels Stores,Beavercreek,9850,9850,2500 N Fairfield Rd,OH,45431-1781
Michaels Stores,Sacramento,9851,9851,3691 Truxel Rd,CA,95834-3604
Michaels Stores,Cincinnati,9853,9853,9851 Waterstone Blvd,OH,45249-8296
Michaels Stores,Hanover,9856,9856,1246 Washington St,MA,02339-1631
Michaels Stores,East Hanover,9860,9860,410 State Rte 10,NJ,07936-3552
Michaels Stores,San Antonio,9861,9861,17700 US 281 N Ste 400,TX,78232-1414
Michaels Stores,Raleigh,9873,9873,5240 Capital Blvd,NC,27616-2924
Michaels Stores,Augusta,9875,9875,211 Robert C Daniel Jr Pkwy,GA,30909-0800
Michaels Stores,Columbus,9876,9876,3680 Easton Market,OH,43219-6032
Michaels Stores,Riverside,9881,9881,10345 Magnolia Ave,CA,92505-1809
Michaels Stores,Cincinnati,9883,9883,"700 Eastgate S Dr, Ste 100A",OH,45245-1583
Michaels Stores,Fresno,9884,9884,7400 N Blackstone Ave,CA,93720-4301
Michaels Stores,Charlotte,9886,9886,8120 Providence Rd,NC,28277-9750
Michaels Stores,Beaverton,9887,9887,18069 NW Evergreen Pkwy,OR,97006-7440
Michaels Stores,Phoenix,9888,9888,4727 E Cactus Rd,AZ,85032-7725
Michaels Stores,Austin,9889,9889,"5601 Brodie Ln, Ste 200",TX,78745-2512
Michaels Stores,Plano,9901,9901,"8700 Preston Rd, Ste 107",TX,75024-3321
Michaels Stores,York,9902,9902,2700 Pleasant Valley Rd,PA,17402-9609
Michaels Stores,Orion Township,9903,9903,4824 S Baldwin Rd,MI,48359-2115
Michaels Stores,Janesville,9904,9904,"2900 Deerfield Dr, Ste 4",WI,53546-3453
Michaels Stores,Greenville,9905,9905,"600 SE Greenville Blvd, Ste F",NC,27858-6737
Michaels Stores,Washington,9906,9906,339 Washington Rd,PA,15301-2701
Michaels Stores,Plantation,9907,9907,12200 W Sunrise Blvd,FL,33323-2227
Michaels Stores,Newington,9908,9908,45 Gosling Rd,NH,03801-2802
Michaels Stores,Newport News,9909,9909,315 Chatham Dr,VA,23602-4382
Michaels Stores,Pasadena,9912,9912,5730 Fairmont Pkwy,TX,77505-3906
Michaels Stores,Fayetteville,9913,9913,2057 Skibo Rd,NC,28314-2217
Michaels Stores,Salisbury,9914,9914,113 E N Point Dr,MD,21801-2283
Michaels Stores,Louisville,9915,9915,10221 Westport Rd,KY,40241-2147
Michaels Stores,Billings,9916,9916,"2800 King Ave W, Ste C",MT,59102-6432
Michaels Stores,Newark,9917,9917,800 Centre Blvd,DE,19702-3213
Michaels Stores,Brookfield,9918,9918,14 Candlewood Lake Rd,CT,06804-2529
Michaels Stores,Stuart,9919,9919,2500 NW Federal Hwy,FL,34994-9316
Michaels Stores,Daytona Beach,9920,9920,2500 W Intl Speedway Blvd,FL,32114-1119
Michaels Stores,Whitehall,9921,9921,1911 Whitehall Mall,PA,18052-5119
Michaels Stores,Phoenix,9922,9922,2829 W Agua Fria Fwy,AZ,85027-3928
Michaels Stores,Lexington,9923,9923,1953 Pavilion Way,KY,40509-2211
Michaels Stores,Logan,9924,9924,1427-B N Main St,UT,84341-2223
Michaels Stores,McKinney,9925,9925,"1751 N Central Expy, Bldg B",TX,75070-3113
Michaels Stores,Wilkes-Barre,9926,9926,485 Arena Hub Plaza,PA,18702-6839
Michaels Stores,Fairbanks,9928,9928,34 College Rd,AK,99701-1706
Michaels Stores,Columbus,9929,9929,"1591 Bradley Park Dr, Ste C",GA,31904-3071
Michaels Stores,Bloomington,9931,9931,120 N Gates Dr,IN,47404-4873
Michaels Stores,Montgomery Township,9932,9932,1231 Knapp Rd,PA,19454-1419
Michaels Stores,Newnan,9934,9934,575 Bullsboro Dr,GA,30265-1045
Michaels Stores,Fort Myers,9935,9935,5001 S Cleveland Ave,FL,33907-1303
Michaels Stores,Princeton,9936,9936,300 Nassau Park Blvd,NJ,08540-5940
Michaels Stores,Bridgewater,9938,9938,135 Promenade Blvd,NJ,08807-3455
Michaels Stores,Bowie,9939,9939,4511 Mitchellville Rd,MD,20716-3111
Michaels Stores,Salem,9940,9940,290 S Broadway,NH,03079-3304
Michaels Stores,Oviedo,9941,9941,"1115 Vidina Place, Ste 145",FL,32765-9137
Michaels Stores,Bethel Park,9944,9944,4000 Oxford Dr,PA,15102-1840
Michaels Stores,Port Charlotte,9946,9946,"18700 Veterans Blvd, Ste 12",FL,33954-1018
Michaels Stores,Jackson,9947,9947,1525 Boardman Rd,MI,49202-1973
Michaels Stores,Albany,9948,9948,1221 N Westover Blvd,GA,31707-6600
Michaels Stores,Milford,9949,9949,79 Turnpike Sq,CT,06460-2758
Michaels Stores,Carmel,9951,9951,14670 US Hwy 31 N,IN,46032-1391
Michaels Stores,Metairie,9952,9952,8851 Veterans Memorial Blvd,LA,70003-5278
Michaels Stores,Harahan,9953,9953,1200 S Clearview Pkwy,LA,70123-2390
Michaels Stores,Albany,9955,9955,"161 Washington Ave Ext, Ste 8",NY,12205-5600
Michaels Stores,Gurnee,9961,9961,6635 Grand Ave,IL,60031-4591
Michaels Stores,Goleta,9963,9963,187 N Fairview Ave,CA,93117-2304
Michaels Stores,Hurst,9964,9964,846 Northeast Mall Dr,TX,76053-4653
Michaels Stores,Long Beach,9966,9966,7340 Carson Blvd,CA,90808-2360
Michaels Stores,Portland,9967,9967,11719 NE Glenn Widing Dr,OR,97220-9051
Michaels Stores,Moorestown,9968,9968,1199 Nixon Dr,NJ,08057-3201
Michaels Stores,Conroe,9969,9969,2218 I-45 N,TX,77301-1051
Michaels Stores,Springfield,9970,9970,1840 E Independence St,MO,65804-3754
Michaels Stores,Tulsa,9971,9971,4927 E 41st St,OK,74135-6057
Michaels Stores,Chandler,9972,9972,285 N Federal St,AZ,85226-3192
Michaels Stores,Veradale,9973,9973,15521 E Broadway Ave,WA,99037-9544
Michaels Stores,Temecula,9974,9974,27471 Ynez Rd,CA,92591-4612
Michaels Stores,Shawnee,9975,9975,15210 Shawnee Mission Pkwy,KS,66217-9315
Michaels Stores,Ft. Collins,9976,9976,4330 S College Ave,CO,80525-3021
Michaels Stores,Bay Shore,9978,9978,832 Sunrise Hwy,NY,11706-5906
Michaels Stores,Tacoma,9982,9982,2921 S 38th St,WA,98409-5605
Michaels Stores,Bend,9983,9983,63485 N Hwy 97,OR,97701-8492
Michaels Stores,Coon Rapids,9984,9984,44 NW Coon Rapids Blvd,MN,55448-5809
Michaels Stores,Longview,9985,9985,"422 W Loop 281, Ste 500",TX,75605-4448
Michaels Stores,Birmingham,9986,9986,5271 Hwy 280 S,AL,35242-5315
Michaels Stores,Lansing,9987,9987,540 Frandor Ave,MI,48912-5206
Michaels Stores,Amherst,9989,9989,1261 Niagara Falls Blvd,NY,14226-1104
Michaels Stores,Monroeville,9990,9990,3759 William Penn Hwy,PA,15146-2125
