keywords,city,Aggdata Store Number,store_number,address,state,zip_code
Noodles & Company,Boulder,102,102,1245 Alpine,CO,80304
Noodles & Company,Wheat Ridge,103,103,3294 Youngfield,CO,80033
Noodles & Company,Broomfield,105,105,1100 Hwy 287 at Miramonte,CO,80020
Noodles & Company,Denver,106,106,"550 Broadway, Unit B",CO,80203
Noodles & Company,Highlands Ranch,107,107,9563 South University Blvd.,CO,80126
Noodles & Company,Broomfield,108,108,635A Flatiron Marketplace Dr,CO,80021
Noodles & Company,Denver,109,109,1460 16th Street,CO,80202
Noodles & Company,Louisville,110,110,1100 W. Dillon Road,CO,80027
Noodles & Company,Fort Collins,111,111,4733 S. Timberline Rd,CO,80528
Noodles & Company,Lakewood,112,112,7740 West Alameda,CO,80226
Noodles & Company,Littleton,114,114,9956 Remington,CO,80128
Noodles & Company,Littleton,116,116,9400 Heritage Hills Cir,CO,80124
Noodles & Company,Parker,117,117,11153 S. Parker Rd,CO,80134
Noodles & Company,Arvada,118,118,8071 Wadsworth Blvd,CO,80003
Noodles & Company,Colorado Springs,119,119,7234 North Academy Blvd,CO,80920
Noodles & Company,Centennial,120,120,12023 E Arapahoe Rd,CO,80112
Noodles & Company,Littleton,121,121,7301 S. Santa Fe Dr,CO,80120
Noodles & Company,Westminster,122,122,10355 Federal Blvd,CO,80260
Noodles & Company,Denver,123,123,1502 S. Colorado Blvd,CO,80222
Noodles & Company,Longmont,125,125,1087 S. Hover Street,CO,80501
Noodles & Company,Denver,126,126,7401 E. 29th Ave,CO,80238
Noodles & Company,Colorado Springs,127,127,1812 Southgate Rd,CO,80906
Noodles & Company,Greeley,128,128,4318 West 9th Street Rd,CO,80634
Noodles & Company,Denver,129,129,6300 East Hampden,CO,80222
Noodles & Company,Colorado Springs,130,130,5844 Barnes Road,CO,80922
Noodles & Company,Fort Collins,131,131,648 S. College Avenue,CO,80524
Noodles & Company,Englewood,132,132,697 W Hampden Ave,CO,80110
Noodles & Company,Loveland,133,133,1550 Fall River Dr,CO,80538
Noodles & Company,Aurora,134,134,13700 E Colfax,CO,80011
Noodles & Company,Aurora,135,135,6200 South Main St,CO,80016
Noodles & Company,Highlands Ranch,136,136,1601 Mayberry Dr,CO,80127
Noodles & Company,Broomfield,137,137,4530 W. 121st Ave,CO,80020
Noodles & Company,Aurora,138,138,4261 S. Buckley Road,CO,80013
Noodles & Company,Centennial,139,139,2370 East Arapahoe,CO,80122
Noodles & Company,Colorado Springs,140,140,5166 N Nevada Ave,CO,80918
Noodles & Company,Aurora,141,141,10550 E Garden Drive,CO,80012
Noodles & Company,Denver,142,142,1737 East Evans Ave,CO,80210
Noodles & Company,Boulder,146,146,1600 28th St,CO,80301
Noodles & Company,Dillon,147,147,265 Dillon Ridge Rd,CO,80435
Noodles & Company,Denver,148,148,"303 16th Street, Suite 150",CO,80202
Noodles & Company,Boulder,150,150,2602 Baseline Road,CO,80305
Noodles & Company,Greenwood Village,151,151,8000 East Belleview Avenue,CO,80111
Noodles & Company,Denver,152,152,2205 East Colfax Ave.,CO,80206
Noodles & Company,Castle Rock,153,153,34 E Allen Street,CO,80108
Noodles & Company,Longmont,154,154,2255 N Main St,CO,80501
Noodles & Company,Pueblo,156,156,825 West US Hwy 50,CO,81008
Noodles & Company,Littleton,157,157,8555 W Belleview Ave,CO,80123
Noodles & Company,Grand Junction,158,158,2474 Highway 6 & 50,CO,81505
Noodles & Company,Colorado Springs,159,159,2455 Montebello Square Dr.,CO,80918
Noodles & Company,Fort Collins,160,160,3519 South College Ave,CO,80525
Noodles & Company,Lakewood,161,161,14025 W. Colfax Dr.,CO,80401
Noodles & Company,Fountain,162,162,6825 Mesa Ridge Pkwy,CO,80817
Noodles & Company,Thornton,163,163,3824 120th Ave.,CO,80233
Noodles & Company,Aurora,164,164,3450 North Tower Rd.,CO,80011
Noodles & Company,Madison,201,201,232 State Street at Johnson,WI,53703
Noodles & Company,Madison,202,202,7050 Mineral Point Rd and Gammon Rd,WI,53717
Noodles & Company,Monona,203,203,6520 Monona Dr at Pier 37,WI,53716
Noodles & Company,Milwaukee,204,204,8781 N. Port Washington,WI,53217
Noodles & Company,Pewaukee,205,205,1390 Capitol Drive,WI,53072
Noodles & Company,Milwaukee,206,206,3121 North Oakland Ave at Kenwood,WI,53211
Noodles & Company,Fitchburg,207,207,2981 Triverton Pike Dr. at McKee Rd,WI,53711
Noodles & Company,Brookfield,208,208,17000 W. Bluemound Rd.,WI,53005
Noodles & Company,Menomonee Falls,209,209,W 176 N 9336 Rivercrest Dr,WI,53051
Noodles & Company,Wauwatosa,210,210,7700 West State St at Harwood,WI,53213
Noodles & Company,Madison,211,211,4280 East Towne Boulevard,WI,53704
Noodles & Company,Green Bay,212,212,2665 S. Oneida St,WI,54303
Noodles & Company,Madison,213,213,3600 University Ave and Midvale Blvd,WI,53705
Noodles & Company,New Berlin,214,214,15630 W National Ave,WI,53151
Noodles & Company,Milwaukee,215,215,2725 W. Oklahoma Ave at 28th,WI,53215
Noodles & Company,Hales Corners,216,216,5794 S. 108 St,WI,53130
Noodles & Company,Appleton,217,217,4333 Wisconsin Ave and Hwy 41,WI,54913
Noodles & Company,West Bend,218,218,425 West Paradise Dr and Main St,WI,53095
Noodles & Company,Janesville,219,219,2259 Humes Rd at Hwy 14 and 26,WI,53545
Noodles & Company,Mt. Pleasant,220,220,5720 Washington Ave,WI,53406
Noodles & Company,Delafield,221,221,3260 Golf Road at I-94 and Hwy 83,WI,53018
Noodles & Company,Kenosha,222,222,7201 120th Ave at I-94 and Hwy 50,WI,53142
Noodles & Company,Wauwatosa,223,223,12132 West Capitol Dr.,WI,53222
Noodles & Company,Grafton,224,224,1351 North Port Washington Rd,WI,53024
Noodles & Company,Greenfield,225,225,4859 S 76th St,WI,53220
Noodles & Company,Waukesha,226,226,1210 Sunset Dr,WI,53189
Noodles & Company,Appleton,227,227,3719 East Calumet,WI,54912
Noodles & Company,Oak Creek,228,228,8609 S Howell Ave,WI,53154
Noodles & Company,Milwaukee,229,229,544 E Ogden,WI,53202
Noodles & Company,Hudson,231,231,1055 Pearson Dr.,WI,54016
Noodles & Company,Mequon,232,232,10942 N. Port Washington Rd.,WI,53092
Noodles & Company,Green Bay,233,233,2450 E. Mason St.,WI,54302
Noodles & Company,Village of Lake Delton,234,234,75 Gasser Rd.,WI,53940
Noodles & Company,Sheboygan,235,235,555 S. Taylor Dr.,WI,53081
Noodles & Company,Middleton,237,237,8310 Greenway Blvd.,WI,53562
Noodles & Company,Orlando,250,250,12529 State Road 535,FL,32836
Noodles & Company,Orlando,252,252,7822 W. Sand lake Rd.,FL,32819
Noodles & Company,Minneapolis,301,301,3040 Excelsior Blvd at Lake,MN,55416
Noodles & Company,Maple Grove,302,302,7840 Main St,MN,55369
Noodles & Company,Plymouth,303,303,"3425 Vicksburg Ln N, at Hwy 55",MN,55447
Noodles & Company,Woodbury,304,304,7455 Currell Blvd,MN,55125
Noodles & Company,Rochester,306,306,3944 Marketplace Dr NW,MN,55901
Noodles & Company,St. Paul,307,307,2110 Ford Parkway and Cleveland Ave,MN,55116
Noodles & Company,Coon Rapids,308,308,3479 River Rapids Dr and Main St,MN,55448
Noodles & Company,Apple Valley,309,309,14879 Florence Trail,MN,55124
Noodles & Company,Eden Prairie,310,310,13300 Technology Dr and Prairie Center Dr,MN,55344
Noodles & Company,Eagan,311,311,1340 Town Centre Dr and Denmark,MN,55123
Noodles & Company,St. Paul,313,313,2865 White Bear Ave and Beam,MN,55109
Noodles & Company,Mankato,314,314,1600 Warren St and Stadium Rd,MN,56001
Noodles & Company,Richfield,315,315,7630 Lyndale Ave at 77th,MN,55423
Noodles & Company,Edina,316,316,6531 York Ave South,MN,55435
Noodles & Company,Golden Valley,317,317,7808 Olson Memorial Hwy at Winnetka & Hwy 55,MN,55427
Noodles & Company,West St Paul,318,318,1590 Robert Street South,MN,55118
Noodles & Company,St Cloud,320,320,4011 West Division St,MN,56301
Noodles & Company,Rochester,321,321,4607 Maine Ave SE,MN,55904
Noodles & Company,Rogers,322,322,13590 Northdale Blvd,MN,55374
Noodles & Company,Minneapolis,324,324,5326 16th Street W,MN,55416
Noodles & Company,Bloomington,325,325,60 East Broadway,MN,55425
Noodles & Company,Roseville,326,326,1655 County Road B2,MN,55113
Noodles & Company,Burnsville,327,327,901 County Rd 42,MN,55306
Noodles & Company,Blaine,328,328,10340 Baltimore St,MN,55449
Noodles & Company,Minnetonka,329,329,12977 Ridgedale Drive,MN,55343
Noodles & Company,St Paul,330,330,470 Hamline Avenue North,MN,55104
Noodles & Company,Wayzata,331,331,1179 Wayzata Blvd East,MN,55391
Noodles & Company,Duluth,332,332,1600 Miller Trunk Hwy,MN,55811
Noodles & Company,St Cloud,333,333,211 5th Avenue South,MN,56301
Noodles & Company,Minneapolis,334,334,820 Washington Ave SE,MN,55414
Noodles & Company,Minneapolis,335,335,300 E Hennepin Ave,MN,55414
Noodles & Company,Eagan,336,336,2000 Rahncliff Ct.,MN,55122
Noodles & Company,Richfield,337,337,1732 E. 66th St.,MN,55423
Noodles & Company,Minnetonka,338,338,4937 County Rd. 101,MN,55345
Noodles & Company,Arden Hills,340,340,3833 Lexington Ave. North,MN,55126
Noodles & Company,Stillwater,341,341,13301 North 60th St.,MN,55082
Noodles & Company,St. Louis Park,342,342,8332 Minnesota 7,MN,55426
Noodles & Company,Elk River,343,343,18130 Zane St. NW,MN,55330
Noodles & Company,Arlington,401,401,1201 S. Joyce Street,VA,22202
Noodles & Company,Fairfax,402,402,10296 Main Street,VA,22030
Noodles & Company,College Park,403,403,7320 Baltimore Avenue,MD,20740
Noodles & Company,Gaithersburg,404,404,177 Kentlands Boulevard,MD,20878
Noodles & Company,Silver Spring,405,405,905 Ellsworth Drive,MD,20910
Noodles & Company,Hunt Valley,406,406,114 Shawan Road,MD,21030
Noodles & Company,Pikesville,408,408,3755 Old Court Road,MD,21208
Noodles & Company,Vienna,409,409,201 Maple Avenue East,VA,22181
Noodles & Company,Columbia,410,410,6191 Old Dobbin Lane,MD,21045
Noodles & Company,Alexandria,411,411,3105 Duke Street,VA,22314
Noodles & Company,Rockville,413,413,1609-B Rockville Pike,MD,20852
Noodles & Company,Waldorf,414,414,3055 Waldorf Market Place,MD,20603
Noodles & Company,Alexandria,415,415,5900 Kingstowne Blvd,VA,22315
Noodles & Company,Manassas,417,417,9646 Liberia Ave,VA,20110
Noodles & Company,Baltimore,418,418,5350 Campbell Blvd,MD,21236
Noodles & Company,Fredericksburg,419,419,1212 Carl D Silver Pkwy,VA,22401
Noodles & Company,Falls Church,420,420,8190 Strawberry Ln,VA,22042
Noodles & Company,Owings Mills,421,421,10450 Owings Mills Blvd,MD,21117
Noodles & Company,Annapolis,423,423,2002 Annapolis Mall,MD,21401
Noodles & Company,Arlington,425,425,2011 Crystal Drive,VA,22202
Noodles & Company,Mechanicsville,426,426,7291 Battle Hill Dr,VA,23111
Noodles & Company,Arlington,427,427,4238 Wilson Blvd,VA,22203
Noodles & Company,Rockville,432,432,101 Gibbs St,MD,20850
Noodles & Company,Midlothian,434,434,15785 Westchester Commons Main St,VA,23113
Noodles & Company,Richmond,436,436,1601 Willow Lawn Dr,VA,23230
Noodles & Company,Towson,437,437,825 Goucher Blvd. #100 B,MD,21286
Noodles & Company,Lanham,438,438,2801 Campus Way North,MD,20706
Noodles & Company,Alexandria,439,439,7702 Richmond Hwy,VA,22306
Noodles & Company,Baltimore,441,441,301 Light Street,MD,21201
Noodles & Company,Leesburg,442,442,"1607 Village Market Road, Suite L-112",VA,20178
Noodles & Company,Bethesda,443,443,7101 Democracy Blvd,MD,20817
Noodles & Company,Herndon,444,444,2405 Centerville Rd,VA,20171
Noodles & Company,Bowie,446,446,3916 Town Center Blvd,MD,20716
Noodles & Company,Springfield,447,447,7020 Old Keene Mill Rd.,VA,22150
Noodles & Company,Sterling,448,448,"46308 Cranston St., Ste 100",VA,20165
Noodles & Company,Washington DC,449,449,"2635 Connecticut Ave, NW",DC,20008
Noodles & Company,Falls Church,451,451,7511 Leesburg Pike,VA,22043
Noodles & Company,Reston,452,452,11648 Plaza America Drive,VA,20190
Noodles & Company,Chantilly,453,453,13958 Lee Jackson Memorial Hwy,VA,20151
Noodles & Company,Germantown,455,455,20952 Frederick Rd,MD,20876
Noodles & Company,Washington,456,456,1815 N. Wisconsin Ave.,DC,20007
Noodles & Company,Alexandria,457,457,1480 North Beauregard,VA,22311
Noodles & Company,Frederick,458,458,200 A Shorebird St.,MD,21701
Noodles & Company,Charlottesville,459,459,2035 Bond St.,VA,22901
Noodles & Company,Bel Air,460,460,615 Baltimore Pike,MD,21014
Noodles & Company,Frederick,461,461,5221 Buckeystown Pike,MD,21704
Noodles & Company,Washington,462,462,1667 K Street NW,DC,20006
Noodles & Company,Newark,463,463,715 Christiana Mall,DE,19702
Noodles & Company,Wilmington,464,464,4737 Concord Pike,DE,19803
Noodles & Company,Woodbridge,465,465,13900 Shoppers Best Way,VA,22192
Noodles & Company,Lexington Park,466,466,46360 Lexington Village Way,MD,20653
Noodles & Company,Severna Park,467,467,552B Governor Ritchie Hwy,MD,21146
Noodles & Company,Williamsburg,468,468,4640 Casey Blvd.,VA,23188
Noodles & Company,Richmond,470,470,814 West Grace,VA,23220
Noodles & Company,Centreville,471,471,14241 Centreville Square,VA,20121
Noodles & Company,Washington,472,472,1140 19th St. NW,DC,20036
Noodles & Company,Midlothian,473,473,1401 Alverser Dr.,VA,23113
Noodles & Company,Fairfax,474,474,12961 Fair Lakes Center,VA,22033
Noodles & Company,Vienna,475,475,1500 Cornerside Blvd.,VA,22182
Noodles & Company,Laurel,476,476,14700 Baltimore Ave.,MD,20707
Noodles & Company,Glen Burnie,477,477,6710 Governor Ritchie HWY,MD,21061
Noodles & Company,Virginia Beach,478,478,687 Lynnhaven Parkway,VA,23452
Noodles & Company,Dover,479,479,1037 North DuPont Highway,DE,19901
Noodles & Company,Norfolk,482,482,1520 Colley Ave.,VA,23517
Noodles & Company,Newport News,483,483,12274 Jefferson Avenue,VA,23602
Noodles & Company,Valparaiso,510,510,71 Silhavy Rd,IN,46383
Noodles & Company,Mishawaka,512,512,4342 Grape Road,IN,46545
Noodles & Company,Munster,513,513,9200 Calumet Ave.,IN,46321
Noodles & Company,Fort Wayne,514,514,4602 Illinois Rd,IN,46804
Noodles & Company,Schererville,515,515,69 US Highway 41,IN,46375
Noodles & Company,Ames,531,531,414 S Duff Avenue,IA,50010
Noodles & Company,Coralville,532,532,2451 2nd Street,IA,52241
Noodles & Company,Cedar Rapids,533,533,310 Collins Road NE,IA,52402
Noodles & Company,West Des Moines,534,534,1551 Valley West Drive,IA,50266
Noodles & Company,Iowa City,535,535,201 S Clinton,IA,52240
Noodles & Company,Waterloo,536,536,2833 Crossroads Blvd,IA,50702
Noodles & Company,Des Moines,537,537,2105 Ingersoll Ave,IA,50311
Noodles & Company,Des Moines,538,538,5840 Douglas Ave.,IA,50310
Noodles & Company,West Des Moines,539,539,6630 Mills Civic Parkway,IA,50310
Noodles & Company,Ankeny,540,540,2325 SE Delaware Ave.,IA,50021
Noodles & Company,Encinitas,551,551,260 North El Camino Real,CA,92024
Noodles & Company,San Marcos,552,552,591 Grand Avenue at San Marcos,CA,92069
Noodles & Company,Roseville,554,554,1186 Roseville Pkwy,CA,95678
Noodles & Company,San Diego,559,559,3650 Rosecrans Street,CA,92110
Noodles & Company,Elk Grove,563,563,"7405 Laguna Blvd, Suite 170",CA,95758
Noodles & Company,San Diego,564,564,4545 La Jolla Village Drive,CA,92122-1212
Noodles & Company,Sacramento,565,565,2435 Fair Oaks Blvd,CA,95825
Noodles & Company,San Francisco,567,567,135 4th Street,CA,94103
Noodles & Company,San Ramon,569,569,3141 Crow Canyon Place,CA,94583
Noodles & Company,San Francisco,570,570,575 Market St.,CA,94105
Noodles & Company,Citrus Heights,571,571,6123 Sunrise Blvd.,CA,95610
Noodles & Company,Cupertino,572,572,20735 Stevens Creek Blvd.,CA,95014
Noodles & Company,Carlsbad,574,574,2521 Palomar Airport Road,CA,92011
Noodles & Company,Naperville,601,601,207 South Washington,IL,60540
Noodles & Company,Wheaton,602,602,2019 South Naperville Road,IL,60187
Noodles & Company,Deer Park,603,603,20530 North Rand Road,IL,60010
Noodles & Company,Geneva,604,604,1310 Commons Drive,IL,60134
Noodles & Company,Arlington Heights,605,605,66 S. Arlington Heights Road,IL,60005
Noodles & Company,Evanston,606,606,930 Church Street,IL,60201
Noodles & Company,Orland Park,607,607,14662 La Grange Rd,IL,60462
Noodles & Company,Bolingbrook,608,608,137 N. Weber Road,IL,60440
Noodles & Company,Elgin,610,610,895 South Randall Road,IL,60123
Noodles & Company,La Grange,611,611,1 East Burlington Avenue,IL,60525
Noodles & Company,Lake in the Hills,612,612,315 N. Randall Road,IL,60156
Noodles & Company,Glenview,613,613,1851 Tower Drive,IL,60026
Noodles & Company,Crystal Lake,615,615,4912 Northwest Highway,IL,60014
Noodles & Company,Niles,616,616,5681 West Touhy Avenue,IL,60714
Noodles & Company,Oakbrook Terrace,617,617,18W64 West 22nd Street,IL,60181
Noodles & Company,Lincolnshire,621,621,900 Milwaukee Ave,IL,60069
Noodles & Company,Park Ridge,622,622,510 Touhy,IL,60068
Noodles & Company,Gurnee,623,623,6681 Grand Ave,IL,60031
Noodles & Company,Chicago,624,624,2813 N. Broadway St,IL,60657
Noodles & Company,Naperville,626,626,2727 West 75th St,IL,60565
Noodles & Company,Skokie,627,627,4999 Old Orchard Road,IL,60077
Noodles & Company,Schaumburg,628,628,1400 N. Meacham Rd,IL,60173
Noodles & Company,Chicago,629,629,180 N Michigan Ave,IL,60601
Noodles & Company,South Barrington,630,630,100 West Higgins Rd,IL,60010
Noodles & Company,Woodridge,631,631,1001 75th St at Lemont,IL,60517
Noodles & Company,Glen Ellyn,634,634,706 Roosevelt Rd,IL,60137
Noodles & Company,Rockford,636,636,6430 E. State St.,IL,61108
Noodles & Company,River Forest,638,638,7215 Lake Street,IL,60305
Noodles & Company,Dekalb,639,639,2561 Sycamore Road,IL,60115
Noodles & Company,Chicago,640,640,2000 N Clybourn Ave,IL,60614
Noodles & Company,Vernon Hills,641,641,700 N. Milwaukee Avenue,IL,60061
Noodles & Company,Rolling Meadows,643,643,1327 Golf Road,IL,60008
Noodles & Company,Deerfield,644,644,110C South Waukegan Rd,IL,60015
Noodles & Company,Buffalo Grove,645,645,1209 West Dundee Road,IL,60089
Noodles & Company,Schaumburg,647,647,2610 West Schaumburg Road,IL,60194
Noodles & Company,Chicago,648,648,47 S. Clark Street,IL,60603
Noodles & Company,Chicago,649,649,3419 N. Southport Ave,IL,60657
Noodles & Company,Lombard,652,652,342 Yorktown Shopping Center,IL,60148
Noodles & Company,Bourbonnais,654,654,2024 Route 50,IL,60914
Noodles & Company,Chicago,656,656,30 North LaSalle,IL,60602
Noodles & Company,Peoria,657,657,4712 N. University St.,IL,61614
Noodles & Company,Norridge,658,658,4157 North Harlem,IL,60706
Noodles & Company,Oswego,659,659,2336 Route 34,IL,60543
Noodles & Company,Aurora,670,670,2365 N. Farnsworth,IL,60502
Noodles & Company,Chicago,672,672,1 South Franklin St.,IL,60606
Noodles & Company,Chicago,673,673,1100 Canal St.,IL,60607
Noodles & Company,Frankfort,674,674,21075 S. LaGrange Rd.,IL,60423
Noodles & Company,Lake Bluff,675,675,303 S. Waukegan Rd.,IL,60044
Noodles & Company,Murray,701,701,5207 South State Street,UT,84107
Noodles & Company,Salt Lake City,702,702,1152 East 2100 South,UT,84106
Noodles & Company,Midvale,703,703,6901 South 1300 East,UT,84047
Noodles & Company,Salt Lake City,704,704,358 South 700 East,UT,84102
Noodles & Company,Orem,705,705,293 East University Parkway,UT,84058
Noodles & Company,Layton,706,706,748 West Antelope Drive,UT,84041
Noodles & Company,Draper,707,707,191 East 12300 South,UT,84020
Noodles & Company,Sandy,708,708,10340 S State St,UT,84070
Noodles & Company,Logan,710,710,1430 North Main Street,UT,84321
Noodles & Company,Ogden,712,712,4245 Riverdale Road,UT,84405
Noodles & Company,West Valley City,713,713,2682 S. High Commons Way,UT,84120
Noodles & Company,West Jordan,714,714,7632 S. Campus View Dr,UT,84084
Noodles & Company,South Jordan,715,715,11429 District Dr.,UT,84095
Noodles & Company,Provo,716,716,University & Bulldog Ave.,UT,84604
Noodles & Company,Oakland,730,730,3805 Forbes Ave,PA,15213
Noodles & Company,Pittsburgh,731,731,476 McMaster Way,PA,15222
Noodles & Company,Cranberry Township,732,732,2030 Mackenzie Way,PA,16066
Noodles & Company,State College,733,733,244 West College Ave,PA,16801
Noodles & Company,Monroeville,734,734,3820 William Penn Highway,PA,15146
Noodles & Company,Wexford,735,735,10638 Perry Highway,PA,15090
Noodles & Company,Lancaster,736,736,2350 Lincoln Hwy East,PA,17602
Noodles & Company,Lancaster,737,737,2099 Fruitville Pike,PA,17601
Noodles & Company,Wasington,739,739,28 Old Mill Blvd.,PA,15301
Noodles & Company,Columbus,751,751,1390 W. 5th Ave,OH,43212
Noodles & Company,Upper Arlington,752,752,4740 Reed Rd,OH,43220
Noodles & Company,Columbus,753,753,2124 N. High St,OH,43201
Noodles & Company,Columbus,754,754,1528 Gemini Place,OH,43240
Noodles & Company,Cincinnati,756,756,3707 Isabella Ave,OH,45208
Noodles & Company,West Chester,757,757,7791 Cox Lane,OH,45069
Noodles & Company,Columbus,758,758,5032 N High St,OH,43214
Noodles & Company,Reynoldsburg,760,760,2166 Baltimore-Reynoldsburg Rd,OH,43068
Noodles & Company,Westerville,762,762,630 N. State St,OH,43082
Noodles & Company,Dublin,763,763,6104 Parkcenter Cir,OH,43017
Noodles & Company,Cincinnati,764,764,7800 Montgomery Rd,OH,45236
Noodles & Company,Florence,765,765,4960 Houston Rd,KY,41022
Noodles & Company,Powell,766,766,9733 Sawmill Pkwy,OH,43065
Noodles & Company,Beavercreek,767,767,11 Greene Blvd,OH,45432
Noodles & Company,Columbus,768,768,5069 N. Hamilton Rd,OH,43230
Noodles & Company,Cincinnati,771,771,6475 Glenway Ave.,OH,45211
Noodles & Company,Meridian,790,790,"2274 N. Eagle Rd, Ste. 100",ID,83646
Noodles & Company,Boise,791,791,535 N. Milwaukee,ID,83704
Noodles & Company,Boise,792,792,1233 S. Broadway Ave.,ID,83706
Noodles & Company,Beaverton,810,810,4655 SW Griffith Dr,OR,97005
Noodles & Company,Portland,811,811,100 NW 10th Ave.,OR,97209
Noodles & Company,Hillsboro,812,812,7216 NE Cornell Road,OR,97124
Noodles & Company,Clackamas,815,815,12190 SE 82nd Ave,OR,97086
Noodles & Company,Eugene,817,817,1053 Valley River Way,OR,97401
Noodles & Company,Vancouver,818,818,19151 SE Mill Plain Blvd.,WA,98683
Noodles & Company,Knoxville,830,830,11083 Parkside Drive,TN,37934
Noodles & Company,Nashville,831,831,2116 Green Hills Village Drive,TN,37215
Noodles & Company,Franklin,833,833,995 Meridian Blvd,TN,37067
Noodles & Company,Knoxville,834,834,1700 Cumberland Ave,TN,37916
Noodles & Company,Clarksville,836,836,2702 Wilma Rudolph Blvd.,TN,37040
Noodles & Company,Durham,851,851,2608 Erwin Rd,NC,27705
Noodles & Company,Charlotte,852,852,2201 South Blvd,NC,28203
Noodles & Company,Chapel Hill,853,853,214 W. Franklin St,NC,27514
Noodles & Company,Charlotte,854,854,8016 Providence Rd,NC,28277
Noodles & Company,Raleigh,855,855,403 Daniels St,NC,27605
Noodles & Company,Cary,856,856,200 Crossroads Blvd,NC,27518
Noodles & Company,Raleigh,857,857,8411 Brier Creek Parkway,NC,27617
Noodles & Company,Morrisville,858,858,2016 Market Center Dr.,NC,27560
Noodles & Company,Greenville,859,859,3030 Evans St.,NC,27834
Noodles & Company,Jacksonville,861,861,1345 Western Blvd.,NC,28546
Noodles & Company,Austin,910,910,2402 Guadalupe Street,TX,78705
Noodles & Company,Austin,911,911,2525 W. Anderson Lane,TX,78757
Noodles & Company,Austin,912,912,9761 Great Hills Trail,TX,78759
Noodles & Company,Killeen,913,913,3007 East Central TX Expressway,TX,76543
Noodles & Company,Austin,914,914,3300 Bee Caves Rd.,TX,78746
Noodles & Company,Lubbock,915,915,1003 University Ave.,TX,79401
Noodles & Company,Sunset Valley,916,916,5601 Brodie Lane,TX,78745
Noodles & Company,Spring,918,918,1555 Lake Woodlands Drive,TX,77380
Noodles & Company,Olathe,951,951,15208 West 119th Street,KS,66062
Noodles & Company,Overland Park,952,952,13448 Metcalf Avenue,KS,66213
Noodles & Company,Kansas City,954,954,8538 NW Prairie View Rd,MO,64153
Noodles & Company,Lee's Summit,955,955,659 NW Blue Parkway,MO,64086
Noodles & Company,Lawrence,956,956,8 West 8th Street,KS,66044
Noodles & Company,Independence,957,957,2140 Independence Center Dr,MO,64057
Noodles & Company,Kansas City,958,958,540 Nichols Rd,MO,64112
Noodles & Company,Overland Park,959,959,11339 95th St.,KS,66214
Noodles & Company,Prairie Village,960,960,7600 State Line Rd,KS,66208
Noodles & Company,Wichita,964,964,"7700 E. Kellogg, Suite 1014",KS,67207
Noodles & Company,Wichita,965,965,3300 North Rock Road,KS,67226
Noodles & Company,Manhattan,966,966,705 N. 3rd Street,KS,66502
Noodles & Company,Topeka,968,968,2110 SW Wanamaker Rd.,KS,66614
Noodles & Company,St. Louis,7001,7001,18 S. County Center Way,MO,63129
Noodles & Company,Chesterfield,7002,7002,1784 Clarkson Rd.,MO,63017
Noodles & Company,Des Peres,7003,7003,13307 Manchester Road,MO,63131
Noodles & Company,Creve Coeur,7004,7004,10925 Olive Blvd.,MO,63141
Noodles & Company,Columbia,7005,7005,406 South Ninth Street,MO,65201
Noodles & Company,St. Louis,7006,7006,64 Hampton Village Plaza,MO,63109
Noodles & Company,University City,7007,7007,6310 Delmar Blvd,MO,63130
Noodles & Company,Omaha,7101,7101,203 South 72nd Street,NE,68114
Noodles & Company,Lincoln,7102,7102,2801 Pine Lake Road,NE,68516
Noodles & Company,Lincoln,7103,7103,210 N. 14th Street,NE,68508
Noodles & Company,Omaha,7104,7104,12414 L Street,NE,68137
Noodles & Company,Lincoln,7105,7105,5001 O Street,NE,68510
Noodles & Company,Omaha,7107,7107,13110 West Dodge,NE,68154
Noodles & Company,Fargo,7201,7201,"4501 15th Avenue, South",ND,58103
Noodles & Company,Grand Forks,7202,7202,3000 32nd Ave,ND,58201
Noodles & Company,Sioux Falls,7203,7203,5007 S. Louise Ave.,SD,57108
Noodles & Company,Fargo,7204,7204,2603 Kirsten Lane,ND,58103
Noodles & Company,West Hartford,7301,7301,333 North Main Street,CT,6117
Noodles & Company,Chattanooga,7401,7401,405 Market Street,TN,37402
Noodles & Company,East Brunswick,7501,7501,683 Rt. 18 South,NJ,8816
Noodles & Company,Eatontown,7502,7502,180 Route 35 South,NJ,7724
Noodles & Company,Fair Lawn,7503,7503,16-31 Route 208,NJ,7410
Noodles & Company,Garden City,7601,7601,996 Old Country Road,NY,11530
Noodles & Company,Lexington,7701,7701,2468 Nicholasville Road,KY,40503
Noodles & Company,Shrewsbury,7901,7901,50 Boston Turnpike,MA,1545
Noodles & Company,Burlington,7902,7902,90 Middlesex Turnpike,MA,1803
Noodles & Company,Nashua,7903,7903,219 Daniel Webster Highway,NH,3060
Noodles & Company,Grand Rapids,8001,8001,2289 East Beltline,MI,49525
Noodles & Company,Grand Rapids,8002,8002,5070 28th Street SE,MI,49512
Noodles & Company,East Lansing,8004,8004,205 E. Grand River Ave,MI,48823
Noodles & Company,Portage,8005,8005,6150 S. Westnedge Avenue,MI,49002
Noodles & Company,Northville,8006,8006,17931 Haggerty Road,MI,48167
Noodles & Company,Royal Oak,8007,8007,470 S. Main Street,MI,48067
Noodles & Company,Troy,8008,8008,3119 Crooks Road,MI,48084
Noodles & Company,Ann Arbor,8009,8009,3601 Washtenaw Ave.,MI,48104
Noodles & Company,Ann Arbor,8010,8010,320 South State Street,MI,48104
Noodles & Company,Livonia,8011,8011,29459 Plymouth Rd.,MI,48150
Noodles & Company,Troy,8012,8012,6836 Rochester Rd,MI,48085
Noodles & Company,Okemos,8013,8013,1965 W Grand River Ave,MI,48864
Noodles & Company,Kalamazoo,8014,8014,5363 W Main St,MI,49009
Noodles & Company,Ann Arbor,8015,8015,2245 W. Stadium Ave.,MI,48103
Noodles & Company,Rochester Hills,8016,8016,184 N Adams Rd,MI,48309
Noodles & Company,Bingham Farms,8017,8017,30130 Telegraph Road,MI,48025
Noodles & Company,Grandville,8018,8018,3871 Rivertown Parkway SW,MI,49418
Noodles & Company,West Lafayette,9001,9001,102 N. Chauncey Ave,IN,47906
Noodles & Company,Carmel,9002,9002,1 East Carmel Drive,IN,46032
Noodles & Company,Indianapolis,9003,9003,5710 West 86th Street,IN,46278
Noodles & Company,Bloomington,9004,9004,517 E. Kirkwood Avenue,IN,47408
Noodles & Company,Indianapolis,9005,9005,927 Broad Ripple Ave,IN,46220
Noodles & Company,Noblesville,9006,9006,13230 Harrell Pkwy,IN,46060
Noodles & Company,Plainfield,9007,9007,190 S. Perry Rd,IN,46168
Noodles & Company,Indianapolis,9008,9008,903 Indiana Ave,IN,46202
Noodles & Company,Indianapolis,9009,9009,7853 S. US 31 at Shelby St,IN,46227
Noodles & Company,Indianapolis,9010,9010,121 W. Maryland St,IN,46225
Noodles & Company,Muncie,9011,9011,1416 W McGalliard Rd,IN,47304
Noodles & Company,Indianapolis,9012,9012,3450 W 86th St,IN,46268
Noodles & Company,Fishers,9013,9013,8654 E.96th St. Unit A,IN,46038
Noodles & Company,Indianapolis,9014,9014,5265 E. 82nd Street,IN,46250
Noodles & Company,Bloomington,9015,9015,2560 E. 3rd St.,IN,47401
Noodles & Company,Columbus,9016,9016,3200 Columbus Center,IN,47203
Noodles & Company,Louisville,9101,9101,1225 S. Hurstbourne Parkway,KY,40222
Noodles & Company,Normal,9501,9501,609 South Main Street,IL,61761
Noodles & Company,Champaign,9502,9502,528 East Green,IL,61820
Noodles & Company,Wausau,9503,9503,1800 Stewart St,WI,54401
Noodles & Company,Eau Claire,9504,9504,4653 Keystone Crossing,WI,54701
Noodles & Company,Stevens Point,9505,9505,101 Division Street,WI,54481
Noodles & Company,Bloomington,9506,9506,305 N. Veterans Pkwy,IL,61704
Noodles & Company,Springfield,9507,9507,2575 W. Wabash St,IL,62704
Noodles & Company,Davenport,9508,9508,5345 Elmore Ave,IA,52807
