keywords,city,Aggdata Store Number,store_number,address,state,zip_code
Olive Garden,Orlando,1002,#1002,3675 E Colonial Drive ,FL,32803
Olive Garden,Kissimmee,1005,#1005,5021 West Irlo Bronson Hwy ,FL,34746
Olive Garden,Greenwood,1007,#1007,1274 US Highway 31 ,IN,46142
Olive Garden,Indianapolis,1008,#1008,6130 E 82nd Street ,IN,46250
Olive Garden,Las Vegas,1014,#1014,1545 Flamingo Road ,NV,89119
Olive Garden,Ocala,1015,#1015,3363 SW College Road ,FL,34474
Olive Garden,City Of Industry,1016,#1016,17585 Castleton St ,CA,91748
Olive Garden,Torrance,1018,#1018,23442 Hawthorne Blvd ,CA,90505
Olive Garden,Huntsville,1021,#1021,3730 University Dr NW ,AL,35816
Olive Garden,Evansville,1022,#1022,1100 N Green River Road ,IN,47715
Olive Garden,Mishawaka,1023,#1023,6410 Grape Road ,IN,46545
Olive Garden,Tampa,1025,#1025,2801 E Busch Blvd ,FL,33612
Olive Garden,Toledo,1026,#1026,1919 S Reynolds Road ,OH,43614
Olive Garden,Bradenton,1027,#1027,4420 West 14th Street ,FL,34207
Olive Garden,Clearwater,1032,#1032,29461 US Hwy 19 North ,FL,33761
Olive Garden,Lakeland,1033,#1033,3911 US 98 N ,FL,33809
Olive Garden,Mesquite,1037,#1037,3816 Towne Crossing Blvd ,TX,75150
Olive Garden,Bridgeton,1038,#1038,3552 Pennridge Drive ,MO,63044
Olive Garden,North Richland Hills,1039,#1039,8020 Bedford/euless Road ,TX,76180
Olive Garden,Houston,1040,#1040,10830 Northwest Freeway ,TX,77092
Olive Garden,Fort Worth,1041,#1041,925 Alta Mere Drive ,TX,76116
Olive Garden,Indianapolis,1043,#1043,8155 E Washington ,IN,46219
Olive Garden,Austin,1044,#1044,8833 Burnet Road ,TX,78757
Olive Garden,Morrow,1045,#1045,1176 Mount Zion Road ,GA,30260
Olive Garden,Austin,1046,#1046,3940 S Lamar Blvd ,TX,78704
Olive Garden,Humble,1047,#1047,9632 Fm 1960 ,TX,77338
Olive Garden,Hoover,1050,#1050,3450 Galleria Circle ,AL,35244
Olive Garden,Fort Myers,1051,#1051,12870 Cleveland Avenue ,FL,33907
Olive Garden,Tulsa,1054,#1054,7019 S Memorial Drive ,OK,74133
Olive Garden,Mobile,1055,#1055,3701 Airport Blvd ,AL,36608
Olive Garden,Independence,1056,#1056,13910 E 40 Hwy ,MO,64055
Olive Garden,Canton,1057,#1057,4810 Dressler Road ,OH,44718
Olive Garden,Dayton,1058,#1058,2789 Miamisburg Centerville Rd ,OH,45459
Olive Garden,Pensacola,1060,#1060,5037 Bayou Blvd ,FL,32503
Olive Garden,Fort Lauderdale,1061,#1061,5550 N Federal Hwy ,FL,33308
Olive Garden,Warren,1062,#1062,30600 Van Dyke Road ,MI,48093
Olive Garden,Wichita Falls,1064,#1064,3916 Kemp Boulevard ,TX,76308
Olive Garden,Abilene,1065,#1065,3210 S Clack St ,TX,79606
Olive Garden,Bakersfield,1068,#1068,1701 New Stine Road ,CA,93309
Olive Garden,Pinellas Park,1069,#1069,6700 Hwy 19 ,FL,33781
Olive Garden,Duluth,1070,#1070,3565 Mall Blvd ,GA,30096
Olive Garden,Middleburg Heights,1073,#1073,17500 Bagley Road ,OH,44130
Olive Garden,Houston,1074,#1074,1010 Old Spanish Trail ,TX,77054
Olive Garden,Fairview Heights,1075,#1075,25 Ludwig Dr ,IL,62208
Olive Garden,Cuyahoga Falls,1076,#1076,480 Howe Road ,OH,44221
Olive Garden,San Antonio,1077,#1077,7920 N Ih 35 ,TX,78218
Olive Garden,Coral Springs,1078,#1078,1555 N University Dr ,FL,33071
Olive Garden,Chatsworth,1079,#1079,19724 Nordhoff Place ,CA,91311
Olive Garden,Boca Raton,1081,#1081,22161 Powerline Road ,FL,33433
Olive Garden,Orlando,1082,#1082,12361 State Road 535 ,FL,32836
Olive Garden,Sterling Heights,1083,#1083,13835 Lakeside Circle ,MI,48313
Olive Garden,Orlando,1084,#1084,1555 Sand Lake Road ,FL,32809
Olive Garden,Reno,1085,#1085,4900 S Virginia ,NV,89502
Olive Garden,Akron,1087,#1087,3924 Medina Road ,OH,44333
Olive Garden,Grand Rapids,1088,#1088,3883 28th St SE ,MI,49512
Olive Garden,Montclair,1089,#1089,9251 Monte Vista ,CA,91763
Olive Garden,Merritt Island,1091,#1091,205 E Merritt Island Causeway ,FL,32952
Olive Garden,Knoxville,1092,#1092,7206 Kingston Pike ,TN,37919
Olive Garden,Fairfield,1093,#1093,7179 Dixie Hwy ,OH,45014
Olive Garden,Tucson,1095,#1095,300 W Wetmore Road ,AZ,85705
Olive Garden,Downers Grove,1096,#1096,1211 Butterfield Road ,IL,60515
Olive Garden,Toledo,1097,#1097,5120 Monroe Street ,OH,43623
Olive Garden,Lansing,1098,#1098,16601 N Torrence Ave ,IL,60438
Olive Garden,Bloomingdale,1099,#1099,332 W Army Trail Road ,IL,60108
Olive Garden,Bloomington,1100,#1100,4701 American Blvd W ,MN,55437
Olive Garden,Vernon Hills,1101,#1101,701 N Milwaukee Avenue ,IL,60061
Olive Garden,Augusta,1102,#1102,2736 Washington Rd ,GA,30909
Olive Garden,Brea,1103,#1103,270 Brea Mall Way ,CA,92821
Olive Garden,Chattanooga,1104,#1104,2200 Hamilton Place Blvd ,TN,37421
Olive Garden,Flint,1105,#1105,3699 Miller Rd ,MI,48507
Olive Garden,Merrillville,1106,#1106,1900 Southlake Mall Drive ,IN,46410
Olive Garden,Plantation,1107,#1107,807 S University Drive ,FL,33324
Olive Garden,Livonia,1109,#1109,14000 Middlebelt Rd ,MI,48154
Olive Garden,Ann Arbor,1110,#1110,445 E Eisenhower Pkwy ,MI,48108
Olive Garden,Overland Park,1111,#1111,6750 W 95th Street ,KS,66212
Olive Garden,Macon,1112,#1112,3709 Bloomfield Rd ,GA,31206
Olive Garden,Sarasota,1114,#1114,4900 S Tamiami Trail ,FL,34231
Olive Garden,Saginaw,1115,#1115,3630 Bay Road ,MI,48603
Olive Garden,Albuquerque,1118,#1118,6301 San Mateo Blvd ,NM,87109
Olive Garden,Irving,1119,#1119,4001 W Airport Freeway ,TX,75062
Olive Garden,Carlsbad,1120,#1120,1884 Marron Rd ,CA,92008
Olive Garden,Albuquerque,1121,#1121,601 Juan Tabo Boulevard NE ,NM,87123
Olive Garden,Jensen Beach,1122,#1122,3447 NW Federal Way ,FL,34957
Olive Garden,Birmingham,1123,#1123,7701 Crestwood Blvd ,AL,35210
Olive Garden,Brandon,1124,#1124,2602 West Brandon Blvd ,FL,33511
Olive Garden,Parma,1128,#1128,8383 Day Drive ,OH,44129
Olive Garden,Columbus,1129,#1129,7160 Sawmill Road ,OH,43235
Olive Garden,Vancouver,1131,#1131,8101 NE Parkway Dr ,WA,98662
Olive Garden,North Olmsted,1133,#1133,25984 Lorain Road ,OH,44070
Olive Garden,Greenacres,1134,#1134,5801 Lake Worth Road ,FL,33463
Olive Garden,Naperville,1135,#1135,620 State Road 59 ,IL,60566
Olive Garden,Smyrna,1136,#1136,2467 Cobb Parkway SE ,GA,30080
Olive Garden,York,1137,#1137,1340 Kenneth Road ,PA,17404
Olive Garden,Tacoma,1138,#1138,1921 S 72nd Street ,WA,98408
Olive Garden,Oklahoma City,1140,#1140,2321 W I 240 Service Rd ,OK,73159
Olive Garden,Matteson,1142,#1142,5220 W 211th St ,IL,60443
Olive Garden,Fremont,1143,#1143,39145 Farwell Dr ,CA,94538
Olive Garden,Davenport,1144,#1144,330 W Kimberly Road ,IA,52806
Olive Garden,Springfield,1145,#1145,3105 Glenstone Avenue ,MO,65804
Olive Garden,West Des Moines,1146,#1146,3600 Westown Parkway ,IA,50266
Olive Garden,San Antonio,1147,#1147,6155 NW Loop 410 ,TX,78238
Olive Garden,Monroeville,1148,#1148,260 Mall Boulevard ,PA,15146
Olive Garden,Port Richey,1149,#1149,9690 US Hwy 19 ,FL,34668
Olive Garden,North Charleston,1150,#1150,2156 North Woods Blvd ,SC,29406
Olive Garden,Kennesaw,1152,#1152,429 Barrett Pkwy ,GA,30144
Olive Garden,Portage,1153,#1153,6700 Westnedge Ave S ,MI,49002
Olive Garden,Arlington Heights,1154,#1154,630 East Rand Road ,IL,60004
Olive Garden,Largo,1155,#1155,10500 Ulmerton Rd ,FL,33771
Olive Garden,West Dundee,1156,#1156,800 North 8th St ,IL,60118
Olive Garden,Pleasant Hills,1157,#1157,527 Clairton Boulevard ,PA,15236
Olive Garden,Clackamas,1158,#1158,8700 SE Sunnyside ,OR,97015
Olive Garden,Willow Grove,1159,#1159,2328 Moreland Road ,PA,19090
Olive Garden,Saint Peters,1160,#1160,5815 Suemandy Drive ,MO,63376
Olive Garden,Norfolk,1161,#1161,5920 East Va Beach Blvd ,VA,23502
Olive Garden,San Antonio,1162,#1162,13730 San Pedro ,TX,78232
Olive Garden,Pittsburgh,1163,#1163,971 Greentree Road ,PA,15220
Olive Garden,Corpus Christi,1165,#1165,5258 S Padre Island Drive ,TX,78411
Olive Garden,Houston,1166,#1166,7525 Fm 1960 W ,TX,77070
Olive Garden,Vestal,1167,#1167,1112 Vestal Pkwy E ,NY,13850
Olive Garden,Beaumont,1168,#1168,585 I-10 North ,TX,77706
Olive Garden,Winter Haven,1169,#1169,405 Cypress Garden Blvd SE ,FL,33880
Olive Garden,Kansas City,1170,#1170,500 N.W. Barry Rd ,MO,64155
Olive Garden,Leesburg,1171,#1171,10026 US Highway 441 ,FL,34788
Olive Garden,Southgate,1172,#1172,15355 Eureka Road ,MI,48195
Olive Garden,Madison,1173,#1173,"1711 Gallatin Road, North ",TN,37115
Olive Garden,Affton,1174,#1174,5529 S. Lindbergh ,MO,63123
Olive Garden,Orlando,1175,#1175,7300 W Colonial Drive ,FL,32818
Olive Garden,Champaign,1176,#1176,30 East Anthony Drive ,IL,61820
Olive Garden,Greensboro,1177,#1177,3000 High Point Road ,NC,27403
Olive Garden,Springfield,1178,#1178,2991 Veterans Parkway ,IL,62704
Olive Garden,Burbank,1179,#1179,4801 W 77th ,IL,60459
Olive Garden,North Riverside,1180,#1180,7513 W Cermak Road ,IL,60546
Olive Garden,Orlando,1181,#1181,11882 E Colonial Drive ,FL,32826
Olive Garden,Rochester Hills,1182,#1182,2615 Rochester Road S ,MI,48307
Olive Garden,Lawrenceville,1183,#1183,3345 Brunswick Pike-Rt 1 ,NJ,8648
Olive Garden,San Jose,1184,#1184,940 Blossom Hill Road ,CA,95123
Olive Garden,Virginia Beach,1185,#1185,683 Lynnhaven Parkway ,VA,23452
Olive Garden,Fort Wayne,1186,#1186,"315 Coliseum Blvd, W ",IN,46805
Olive Garden,Okemos,1187,#1187,5015 Marsh Road ,MI,48864
Olive Garden,Fargo,1188,#1188,"4339 13th Avenue, SW ",ND,58103
Olive Garden,North Little Rock,1189,#1189,2943 Lakewood Village Drive ,AR,72116
Olive Garden,Murray,1190,#1190,6305 South State St ,UT,84107
Olive Garden,Jacksonville,1191,#1191,6050 Youngerman Circle ,FL,32244
Olive Garden,Jacksonville,1192,#1192,9465 Atlantic Blvd ,FL,32225
Olive Garden,Las Vegas,1193,#1193,1361 S. Decatur Blvd ,NV,89102
Olive Garden,Victorville,1194,#1194,12330 Amargosa Rd ,CA,92392
Olive Garden,Naples,1195,#1195,1565 5th Avenue S ,FL,34102
Olive Garden,Rochester,1196,#1196,532 Jefferson Road ,NY,14623
Olive Garden,Port Charlotte,1197,#1197,1341 Tamiami Trail ,FL,33948
Olive Garden,Chesapeake,1198,#1198,1631 Ring Road ,VA,23320
Olive Garden,Springfield,1199,#1199,275 Route 22 East ,NJ,7081
Olive Garden,Maplewood,1200,#1200,1749 Beam Avenue ,MN,55109
Olive Garden,Fayetteville,1201,#1201,234 N Mc Pherson Church Rd ,NC,28303
Olive Garden,El Paso,1202,#1202,740 Sunland Park Drive ,TX,79912
Olive Garden,Chula Vista,1205,#1205,585 I Street ,CA,91910
Olive Garden,Layton,1206,#1206,675 N Ring Rd ,UT,84041
Olive Garden,Greenville,1207,#1207,2695 Laurens Road ,SC,29607
Olive Garden,Lynnwood,1209,#1209,"4221 196th Street, SW ",WA,98036
Olive Garden,Lewisville,1212,#1212,2418 S Stemmons Parkway ,TX,75067
Olive Garden,Beaverton,1213,#1213,11650 SW Canyon Road ,OR,97005
Olive Garden,East Brunswick,1214,#1214,777 Route 18 ,NJ,8816
Olive Garden,Columbia,1215,#1215,1300 Interstate 70 Dr S.W. ,MO,65203
Olive Garden,Spokane,1216,#1216,221 N Wall Street ,WA,99201
Olive Garden,Gainesville,1217,#1217,3440 SW Archer Road ,FL,32608
Olive Garden,Lubbock,1218,#1218,5702 Slide Road ,TX,79414
Olive Garden,Tucson,1219,#1219,5410 E Broadway Blvd ,AZ,85711
Olive Garden,Cypress,1220,#1220,6874 Katella Avenue ,CA,90630
Olive Garden,Montgomery,1221,#1221,2700 Eastern Boulevard ,AL,36117
Olive Garden,Waco,1222,#1222,5921 W Waco Drive ,TX,76710
Olive Garden,Topeka,1223,#1223,1925 SW Wanamaker Rd ,KS,66604
Olive Garden,Wichita,1224,#1224,323 N Rock Road ,KS,67206
Olive Garden,Antioch,1225,#1225,1131 Bell Road ,TN,37013
Olive Garden,Greenfield,1226,#1226,4760 S 76th Street ,WI,53220
Olive Garden,Orange City,1228,#1228,2530 Enterprise Road ,FL,32763
Olive Garden,Terre Haute,1229,#1229,3820 South US Hwy 41 ,IN,47802
Olive Garden,Richmond,1230,#1230,7113 West Broad Street ,VA,23294
Olive Garden,Columbia,1231,#1231,274 Harbison Blvd ,SC,29212
Olive Garden,El Paso,1232,#1232,8401 Gateway Blvd West ,TX,79925
Olive Garden,Rockford,1233,#1233,6367 E State Street ,IL,61108
Olive Garden,Scottsdale,1234,#1234,4868 E Cactus Road ,AZ,85254
Olive Garden,Tallahassee,1236,#1236,1103 Apalachee Parkway ,FL,32301
Olive Garden,Brookfield,1237,#1237,18180 Blue Mound Road ,WI,53045
Olive Garden,Talleyville,1239,#1239,305 Rocky Run Parkway ,DE,19803
Olive Garden,Richmond,1240,#1240,9750 Midlothian Turnpike ,VA,23235
Olive Garden,Sacramento,1241,#1241,1780 Challenge Way ,CA,95815
Olive Garden,Littleton,1242,#1242,5380 S Wadsworth Blvd ,CO,80123
Olive Garden,Cheektowaga,1243,#1243,2011 Walden Avenue ,NY,14225
Olive Garden,Miami,1244,#1244,8201 W Flagler ,FL,33144
Olive Garden,Roseville,1245,#1245,1525 County Road C ,MN,55113
Olive Garden,Citrus Heights,1246,#1246,5445 Sunrise Boulevard ,CA,95610
Olive Garden,Colorado Springs,1247,#1247,513 Academy Boulevard ,CO,80909
Olive Garden,Whittier,1248,#1248,13500 Whittier Blvd ,CA,90605
Olive Garden,Chino,1249,#1249,5526 Philadelphia Street ,CA,91710
Olive Garden,Aurora,1250,#1250,2390 S Havana Street ,CO,80014
Olive Garden,Boise,1251,#1251,320 N Milwaukee Street ,ID,83704
Olive Garden,Eastpointe,1252,#1252,24845 Gratiot Avenue ,MI,48021
Olive Garden,Parkersburg,1254,#1254,109 Grand Central Avenue ,WV,26101
Olive Garden,Arcadia,1255,#1255,430 E Huntington Drive ,CA,91006
Olive Garden,Clovis,1256,#1256,389 Shaw Avenue ,CA,93612
Olive Garden,Dallas,1257,#1257,9079 Vantage Point Dr ,TX,75243
Olive Garden,Everett,1258,#1258,1321 SE Everett Mall Way ,WA,98208
Olive Garden,Houston,1259,#1259,12711 Gulf Freeway ,TX,77034
Olive Garden,Warwick,1260,#1260,31 Universal Blvd ,RI,2886
Olive Garden,Columbia,1261,#1261,8315 Benson Drive ,MD,21045
Olive Garden,Falls Church,1262,#1262,3548-52 S Jefferson Street ,VA,22041
Olive Garden,Colorado Springs,1263,#1263,7815 N Academy Blvd ,CO,80920
Olive Garden,Fort Worth,1264,#1264,4700 SW Loop 820 ,TX,76109
Olive Garden,McAllen,1265,#1265,222 Expressway 83 ,TX,78501
Olive Garden,Moreno Valley,1266,#1266,22880 Centerpoint Drive ,CA,92553
Olive Garden,Irvine,1267,#1267,3755 Alton Pkwy ,CA,92606
Olive Garden,Burnsville,1268,#1268,1451 County Road 42 W ,MN,55306
Olive Garden,North Wales,1269,#1269,1200 Bethlehem Pike ,PA,19454
Olive Garden,Winston-Salem,1270,#1270,170 Hanes Mall Circle ,NC,27103
Olive Garden,Deptford,1271,#1271,1500 N Almonesson Rd ,NJ,8096
Olive Garden,Jacksonville,1272,#1272,10144 Phillips Hwy ,FL,32256
Olive Garden,Boardman,1273,#1273,853 Boardman-Poland Rd ,OH,44512
Olive Garden,Fort Walton Beach,1274,#1274,216 Miracle Strip Pkwy ,FL,32548
Olive Garden,Winter Park,1275,#1275,665 N Orlando Avenue ,FL,32789
Olive Garden,San Bernardino,1278,#1278,460 Hospitality Lane ,CA,92408
Olive Garden,Ormond Beach,1282,#1282,880 S Atlantic Avenue ,FL,32176
Olive Garden,West Melbourne,1283,#1283,2508 W New Haven Avenue ,FL,32904
Olive Garden,Plano,1284,#1284,700 N Central Expressway ,TX,75074
Olive Garden,Houston,1285,#1285,9080 SW Freeway ,TX,77074
Olive Garden,Palmdale,1286,#1286,1051 W Rancho Vista Blvd ,CA,93551
Olive Garden,Woodbridge,1287,#1287,14405 Gideon Drive ,VA,22192
Olive Garden,Roanoke,1288,#1288,1925 Valley View Blvd NW ,VA,24012
Olive Garden,Johnson City,1289,#1289,1903 N Roan Street ,TN,37601
Olive Garden,Santa Ana,1290,#1290,2800 N Main Street ,CA,92705
Olive Garden,Lincolnwood,1291,#1291,3303 W Touhy Road ,IL,60712
Olive Garden,Provo,1292,#1292,504 W 2230 North ,UT,84604
Olive Garden,Modesto,1294,#1294,2200 Plaza Parkway ,CA,95350
Olive Garden,San Francisco,1295,#1295,3251 20th Avenue ,CA,94132
Olive Garden,South Portland,1296,#1296,200 Gorham Road ,ME,4106
Olive Garden,Chesapeake,1297,#1297,4117 Chesapeake Square Blvd ,VA,23321
Olive Garden,Laguna Hills,1299,#1299,24256 El Toro Road #1 ,CA,92653
Olive Garden,Madison,1300,#1300,4320 East Town Boulevard ,WI,53704
Olive Garden,La Mesa,1301,#1301,5500 Grossmont Center Drive ,CA,91942
Olive Garden,Omaha,1302,#1302,7505 Dodge Street ,NE,68114
Olive Garden,Downey,1303,#1303,9253 Firestone Blvd ,CA,90241
Olive Garden,Eatontown,1304,#1304,230 Route 35 ,NJ,7724
Olive Garden,Salt Lake City,1306,#1306,2272 S 1300th East ,UT,84106
Olive Garden,Oklahoma City,1307,#1307,2639 W Memorial ,OK,73134
Olive Garden,Pittsburgh,1309,#1309,40 McIntyre Square Drive ,PA,15237
Olive Garden,Harrisburg,1310,#1310,5102 Jonestown Road ,PA,17112
Olive Garden,Salem,1311,#1311,1302 Lancaster Drive NE ,OR,97301
Olive Garden,Pineville,1312,#1312,9421 Pineville Matthews Road ,NC,28134
Olive Garden,Palm Desert,1313,#1313,72225 Highway 111 ,CA,92260
Olive Garden,Cary,1314,#1314,1809 Walnut Street ,NC,27511
Olive Garden,Madison,1316,#1316,7017 Mineral Point Road ,WI,53717
Olive Garden,Elkhart,1317,#1317,3003 Brittany Court ,IN,46514
Olive Garden,Kirkland,1318,#1318,11325 NE 124th Street ,WA,98034
Olive Garden,Lafayette,1319,#1319,5743 Johnston Street ,LA,70503
Olive Garden,Lexington,1320,#1320,3385 Nicholasville Road ,KY,40503
Olive Garden,Little Rock,1321,#1321,10715 N Rodney Parham Rd ,AR,72212
Olive Garden,Glendale,1322,#1322,101 N Brand Boulevard ,CA,91203
Olive Garden,Cincinnati,1323,#1323,475 Ohio Pike ,OH,45255
Olive Garden,Blasdell,1324,#1324,3701 McKinley Parkway ,NY,14219
Olive Garden,Rohnert Park,1325,#1325,6430 Redwood Drive ,CA,94928
Olive Garden,Myrtle Beach,1326,#1326,1405 N. Kings Highway ,SC,29577
Olive Garden,Louisville,1327,#1327,1320 Hurstbourne Lane ,KY,40222
Olive Garden,Highlands Ranch,1329,#1329,2520 E Co Line Road ,CO,80126
Olive Garden,Novi,1330,#1330,43300 Crescent Blvd ,MI,48375
Olive Garden,Longview,1332,#1332,104 W Loop 281 ,TX,75605
Olive Garden,Erie,1333,#1333,5945 Peach Street ,PA,16509
Olive Garden,Greensburg,1334,#1334,5163 Route 30 ,PA,15601
Olive Garden,Salinas,1335,#1335,1580 North Main Street ,CA,93906
Olive Garden,Tulsa,1337,#1337,1954 Utica Square ,OK,74114
Olive Garden,Roswell,1338,#1338,905 Holcomb Bridge Rd ,GA,30076
Olive Garden,Oxnard,1340,#1340,1891 Ventura Boulevard ,CA,93036
Olive Garden,Pittsburg,1341,#1341,4195 Century Blvd ,CA,94565
Olive Garden,Clarksville,1343,#1343,2782 Wilma Rudolph Blvd ,TN,37040
Olive Garden,Bethel Park,1345,#1345,6000 Oxford Drive ,PA,15102
Olive Garden,Green Bay,1346,#1346,2819 Oneida Street ,WI,54304
Olive Garden,Cincinnati,1347,#1347,4900 Fields-Ertel Road ,OH,45249
Olive Garden,Altoona,1349,#1349,3315 Pleasant Valley Blvd ,PA,16602
Olive Garden,Sioux Falls,1350,#1350,3121 West 41st Street ,SD,57105
Olive Garden,Gresham,1351,#1351,2330 SE Burnside Rd ,OR,97080
Olive Garden,Yakima,1352,#1352,222 Yakima Avenue ,WA,98901
Olive Garden,Harlingen,1356,#1356,1802 W Lincoln St ,TX,78552
Olive Garden,Escondido,1357,#1357,1107 W. Valley Parkway ,CA,92025
Olive Garden,San Diego,1358,#1358,3215 Sports Arena Blvd ,CA,92110
Olive Garden,Redding,1359,#1359,1025 Dana Drive ,CA,96003
Olive Garden,Palo Alto,1360,#1360,2515 El Camino Real ,CA,94306
Olive Garden,Vienna,1361,#1361,8133 Leesburg Pike ,VA,22182
Olive Garden,Las Vegas,1363,#1363,6850 W. Cheyenne Ave. ,NV,89108
Olive Garden,Laurel,1364,#1364,14650 Baltimore Ave. ,MD,20707
Olive Garden,Enfield,1365,#1365,41 Hazard Road ,CT,6082
Olive Garden,Manassas,1367,#1367,7501 Broken Branch Lane ,VA,20109
Olive Garden,Arlington,1368,#1368,4604 S. Cooper Street ,TX,76017
Olive Garden,San Diego,1369,#1369,11555 Carmel Mountain Rd ,CA,92128
Olive Garden,Bala Cynwyd,1370,#1370,83 City Line Ave ,PA,19004
Olive Garden,Racine,1371,#1371,6000 Durand Avenue ,WI,53406
Olive Garden,Philadelphia,1372,#1372,9280 E Roosevelt Blvd ,PA,19115
Olive Garden,Mesa,1375,#1375,6201 E. Southern Ave. ,AZ,85206
Olive Garden,Fort Collins,1376,#1376,3905 S. College Ave. ,CO,80525
Olive Garden,Silverdale,1377,#1377,3204 NW Randall Way ,WA,98383
Olive Garden,Raleigh,1378,#1378,4805 Capital Blvd ,NC,27616
Olive Garden,Dover,1381,#1381,263 N Dupont Hwy ,DE,19901
Olive Garden,Hayward,1382,#1382,24688 Hesperian Blvd ,CA,94545
Olive Garden,Lancaster,1383,#1383,910 Plaza Blvd ,PA,17601
Olive Garden,Lafayette,1384,#1384,4151 South Street ,IN,47905
Olive Garden,Addison,1385,#1385,4240 Beltline Rd ,TX,75001
Olive Garden,Appleton,1387,#1387,1275 N. Casaloma ,WI,54913
Olive Garden,Orange,1388,#1388,439 Boston Post Rd. ,CT,6477
Olive Garden,Orange,1389,#1389,2330 N. Tustin St. ,CA,92865
Olive Garden,Mansfield,1390,#1390,558 N Lexington Springmill Rd ,OH,44906
Olive Garden,Lake Oswego,1394,#1394,6355 SW Meadows Rd. ,OR,97035
Olive Garden,Panama City,1395,#1395,2397 SR 77 ,FL,32405
Olive Garden,Texas City,1398,#1398,10212 Emmett F. Lowry Expressway ,TX,77591
Olive Garden,Salt Lake City,1399,#1399,77 W. 200 South ,UT,84101
Olive Garden,Muncie,1401,#1401,304 W. McGalliard Rd. ,IN,47303
Olive Garden,Chico,1402,#1402,2020 Business Lane ,CA,95928
Olive Garden,Kenner,1403,#1403,1315 W. Esplanade Ave. ,LA,70065
Olive Garden,Santa Maria,1404,#1404,1210 S. Bradley Rd. ,CA,93454
Olive Garden,Duncanville,1406,#1406,639 N. Cockrell Hill ,TX,75116
Olive Garden,Hickory,1407,#1407,2261 Highway 70 ,NC,28602
Olive Garden,Pembroke Pines,1409,#1409,11425 Pines Blvd ,FL,33026
Olive Garden,Poughkeepsie,1410,#1410,2044 South Road ,NY,12601
Olive Garden,Billings,1412,#1412,2201 Grant Rd ,MT,59102
Olive Garden,Bloomington,1414,#1414,1701 E. Empire St. ,IL,61704
Olive Garden,Niles,1416,#1416,5740 Youngstown-Warren Rd ,OH,44446
Olive Garden,Westminster,1417,#1417,5551 W 88th Ave ,CO,80031
Olive Garden,Vallejo,1418,#1418,1176 Admiral Callaghan Lane ,CA,94591
Olive Garden,North Dartmouth,1419,#1419,80 North Dartmouth Mall ,MA,2747
Olive Garden,Rochester,1420,#1420,100 Paddy Creek Circle ,NY,14615
Olive Garden,Syracuse,1422,#1422,3147 Erie Blvd East ,NY,13214
Olive Garden,Monroe,1423,#1423,4781 Pecanland Mall Dr ,LA,71203
Olive Garden,Saint Louis Park,1424,#1424,5235 Wayzata Blvd ,MN,55416
Olive Garden,Whitehall,1425,#1425,715 Grape St ,PA,18052
Olive Garden,Paducah,1426,#1426,5150 Hinkleville Rd ,KY,42001
Olive Garden,Dearborn,1427,#1427,16151 Ford Rd. ,MI,48126
Olive Garden,Queensbury,1428,#1428,756 A Glen Street ,NY,12804
Olive Garden,Manchester,1429,#1429,1550 Pleasant Valley Rd ,CT,6040
Olive Garden,Bangor,1430,#1430,741 Hogan Rd ,ME,4401
Olive Garden,Grand Rapids,1431,#1431,3030 Alpine Ave NW ,MI,49544
Olive Garden,Lincoln,1432,#1432,90 Gateway ,NE,68505
Olive Garden,Boynton Beach,1433,#1433,1001 N. Congress Ave. ,FL,33426
Olive Garden,Peoria,1434,#1434,3915 W War Memorial Dr ,IL,61615
Olive Garden,Newington,1435,#1435,2048 Woodbury Ave. ,NH,3801
Olive Garden,South Attleboro,1436,#1436,1240 Newport Ave. ,MA,2703
Olive Garden,Tyler,1437,#1437,5520 S. Broadway Ave. ,TX,75703
Olive Garden,Janesville,1439,#1439,2813 Humes Rd. ,WI,53545
Olive Garden,Las Vegas,1440,#1440,80 N. Nellis Blvd. ,NV,89110
Olive Garden,Houston,1441,#1441,2750 Highway 6 ,TX,77082
Olive Garden,Middletown,1442,#1442,6710 Roosevelt Ave ,OH,45044
Olive Garden,Milwaukee,1443,#1443,8531 Brown Deer Rd. ,WI,53224
Olive Garden,Concord,1444,#1444,223 Loudon Rd. ,NH,3301
Olive Garden,Massapequa,1445,#1445,5598 Sunrise Hwy ,NY,11758
Olive Garden,Branson,1447,#1447,3790 W 76 Country Blvd ,MO,65616
Olive Garden,Olympia,1448,#1448,2400 Capital Mall Dr S.W. ,WA,98502
Olive Garden,Federal Way,1449,#1449,35030 Enchanted Pkwy ,WA,98003
Olive Garden,New York,1451,#1451,2 Times Square ,NY,10036
Olive Garden,Horseheads,1452,#1452,3288 Chambers Rd S. ,NY,14845
Olive Garden,Scottsdale,1454,#1454,3380 North Scottsdale Rd. ,AZ,85251
Olive Garden,Westbury,1455,#1455,1246 Old Country Rd ,NY,11590
Olive Garden,Saint Charles,1457,#1457,3785 E. Main St. ,IL,60174
Olive Garden,Coon Rapids,1459,#1459,150 Coon Rapids Blvd. ,MN,55433
Olive Garden,Springfield,1460,#1460,1380 Boston Rd. ,MA,1119
Olive Garden,Fairfax,1462,#1462,12980 Fair Lakes Ctr ,VA,22033
Olive Garden,Danbury,1463,#1463,36 Backus Ave. ,CT,6810
Olive Garden,Amherst,1464,#1464,3951 Maple Rd. ,NY,14226
Olive Garden,Tuscaloosa,1465,#1465,2100 McFarland Blvd E ,AL,35404
Olive Garden,Dallas,1466,#1466,10280 E. Technology Blvd ,TX,75220
Olive Garden,Asheville,1467,#1467,121 Tunnel Rd ,NC,28805
Olive Garden,Livingston,1468,#1468,277 Eisenhower Pkwy ,NJ,7039
Olive Garden,Waldorf,1469,#1469,3620 Crain Hwy ,MD,20603
Olive Garden,Fairborn,1470,#1470,2865 Centre Dr. ,OH,45324
Olive Garden,Mechanicsburg,1471,#1471,6520 Carlisle Pike ,PA,17055
Olive Garden,Joplin,1472,#1472,3031 E Hammonds Blvd ,MO,64804
Olive Garden,Middletown,1473,#1473,200 N. Galleria Dr. ,NY,10941
Olive Garden,Easton,1474,#1474,50 Kunkle Dr. ,PA,18045
Olive Garden,Cedar Rapids,1475,#1475,367 Collins Rd. ,IA,52402
Olive Garden,Eau Claire,1476,#1476,4920 Golf Rd. ,WI,54701
Olive Garden,Voorhees,1477,#1477,202 Laurel Oak Rd ,NJ,8043
Olive Garden,Henderson,1478,#1478,4400 E. Sunset Rd. ,NV,89014
Olive Garden,Clay,1479,#1479,4125 Route 31 ,NY,13041
Olive Garden,Norman,1480,#1480,117 Ed Noble Parkway ,OK,73072
Olive Garden,Heath,1481,#1481,898 Hebron Rd. ,OH,43056
Olive Garden,Mays Landing,1482,#1482,4403 Blackhorse Pike ,NJ,8330
Olive Garden,Toms River,1483,#1483,1277 Hooper Ave. ,NJ,8753
Olive Garden,Jackson,1484,#1484,3500 O'Neill Dr. ,MI,49202
Olive Garden,Hampton,1485,#1485,1049 W. Mercury Blvd ,VA,23666
Olive Garden,Lakewood,1486,#1486,7655 W. Alameda Ave. ,CO,80226
Olive Garden,Bellingham,1487,#1487,4276 Guide Meridian ,WA,98226
Olive Garden,Tempe,1488,#1488,1010 W. Elliott Rd. ,AZ,85284
Olive Garden,Waterloo,1489,#1489,1315 E. San Marnan Dr ,IA,50702
Olive Garden,Barboursville,1490,#1490,12 Mall Rd. ,WV,25504
Olive Garden,Peoria,1491,#1491,7889 W Bell Rd. ,AZ,85382
Olive Garden,Onalaska,1492,#1492,9413 State Rd 16 ,WI,54650
Olive Garden,Kokomo,1493,#1493,4015 S. Lafountain ,IN,46902
Olive Garden,Langhorne,1495,#1495,2245 E Lincoln Highway ,PA,19047
Olive Garden,Salisbury,1496,#1496,2316 N. Salisbury Blvd. ,MD,21801
Olive Garden,Grapevine,1497,#1497,301 W. State Highway 114 ,TX,76051
Olive Garden,Midland,1499,#1499,2705 W. Loop 250 N. ,TX,79705
Olive Garden,Spring,1503,#1503,26715 Interstate 45 N. ,TX,77380
Olive Garden,Colonie,1504,#1504,178 Wolf Road ,NY,12205
Olive Garden,Baltimore,1505,#1505,8245 Perry Hall Blvd ,MD,21236
Olive Garden,Fort Smith,1506,#1506,7515 Rogers Ave. ,AR,72903
Olive Garden,Centereach,1507,#1507,257 Centereach Mall ,NY,11720
Olive Garden,Jackson,1508,#1508,6347 I-55 North ,MS,39213
Olive Garden,Lancaster,1509,#1509,2093 Schorrway Dr. ,OH,43130
Olive Garden,Anderson,1510,#1510,4118 Scatterfield Rd. ,IN,46013
Olive Garden,Framingham,1511,#1511,1 Worcester Rd ,MA,1701
Olive Garden,Flagstaff,1513,#1513,2550 S. Beulah Blvd ,AZ,86001
Olive Garden,Lima,1514,#1514,1936 Roschman Ave ,OH,45804
Olive Garden,Williamsburg,1515,#1515,2150 Richmond Rd. ,VA,23185
Olive Garden,Dubuque,1516,#1516,3350 Dodge St ,IA,52003
Olive Garden,Zanesville,1517,#1517,907 Howard St. ,OH,43701
Olive Garden,Frederick,1518,#1518,5609 Spectrum Dr. ,MD,21703
Olive Garden,Williamsport,1519,#1519,1825 E Third St ,PA,17701
Olive Garden,South Burlington,1520,#1520,1025 Shelburne Rd ,VT,5403
Olive Garden,Westminster,1522,#1522,500 Gorsuch Rd ,MD,21157
Olive Garden,Hyannis,1523,#1523,1095 Iyannough Rd ,MA,2601
Olive Garden,Augusta,1524,#1524,205 Civic Center Dr ,ME,4330
Olive Garden,Wyomissing,1525,#1525,1700 Crossing Drive ,PA,19610
Olive Garden,Sanford,1526,#1526,10 Towne Center Circle ,FL,32771
Olive Garden,Eugene,1528,#1528,1077 Valley River Dr ,OR,97401
Olive Garden,Savannah,1529,#1529,11333 Abercorn St ,GA,31419
Olive Garden,Mentor,1530,#1530,7740 Mentor Ave ,OH,44060
Olive Garden,Douglasville,1531,#1531,6710 Douglas Blvd ,GA,30135
Olive Garden,Buford,1532,#1532,3220 Buford Dr ,GA,30519
Olive Garden,Cherry Hill,1533,#1533,2314 SR 38 ,NJ,8002
Olive Garden,Maple Grove,1534,#1534,12520 Elm Creek Blvd N ,MN,55369
Olive Garden,Olathe,1535,#1535,15090 West 119th Street ,KS,66062
Olive Garden,Gurnee,1536,#1536,5590 Northridge Dr ,IL,60031
Olive Garden,Austin,1537,#1537,12827 Ranch Rd 620 N ,TX,78750
Olive Garden,Scranton,1538,#1538,1500 Scranton-Carbondale Hwy ,PA,18508
Olive Garden,Concord,1539,#1539,8010 Concord Mills Blvd ,NC,28027
Olive Garden,Coeur D'Alene,1540,#1540,525 W. Canfield Ave ,ID,83815
Olive Garden,Tampa,1541,#1541,8306 Citrus Park Dr. ,FL,33625
Olive Garden,Fredericksburg,1542,#1542,2811 Plank Road ,VA,22401
Olive Garden,Waite Park,1543,#1543,12 Division St ,MN,56387
Olive Garden,Wilkes Barre,1544,#1544,561 Arena Hub Plaza ,PA,18702
Olive Garden,Frisco,1545,#1545,2886 Preston Road ,TX,75034
Olive Garden,Chesterfield,1546,#1546,17198 Chesterfield/airport Rd ,MO,63005
Olive Garden,Orlando,1547,#1547,8984 International Dr ,FL,32819
Olive Garden,Tampa,1548,#1548,17011 Palm Pointe Dr ,FL,33647
Olive Garden,Bolingbrook,1549,#1549,215 S. Weber Road ,IL,60490
Olive Garden,Muskegon,1550,#1550,1651 Sternberg Road ,MI,49444
Olive Garden,Schaumburg,1551,#1551,1925 East Golf Road ,IL,60173
Olive Garden,State College,1552,#1552,1945 Waddle Road ,PA,16803
Olive Garden,Memphis,1553,#1553,8405 US Highway 64 ,TN,38133
Olive Garden,Manchester,1554,#1554,1888 South Willow St ,NH,3103
Olive Garden,Kennewick,1555,#1555,1420 N Louisiana Ave ,WA,99336
Olive Garden,Avon,1556,#1556,10243 E US Highway 36 ,IN,46123
Olive Garden,Sterling,1557,#1557,45970 Waterview Plaza ,VA,20166
Olive Garden,Brooklyn,1558,#1558,505 Gateway Dr ,NY,11239
Olive Garden,Coralville,1559,#1559,930 25th Avenue ,IA,52241
Olive Garden,Bowie,1560,#1560,4101 Towne Center Blvd ,MD,20716
Olive Garden,Chandler,1561,#1561,3430 W. Chandler Blvd ,AZ,85226
Olive Garden,Auburn Hills,1562,#1562,700 Brown Rd ,MI,48326
Olive Garden,Santa Clarita,1563,#1563,27003 McBean Pkwy ,CA,91355
Olive Garden,Orland Park,1564,#1564,15215 South Lagrange Road ,IL,60462
Olive Garden,Sandy,1565,#1565,10540 South State Rd ,UT,84070
Olive Garden,Round Rock,1566,#1566,100 Sundance Pkwy ,TX,78681
Olive Garden,New York,1567,#1567,696 Avenue Of The Americas ,NY,10010
Olive Garden,Rock Hill,1568,#1568,519 John Ross Parkway ,SC,29730
Olive Garden,Burbank,1570,#1570,1741 N. Victory Place ,CA,91504
Olive Garden,Killeen,1571,#1571,2811 E. Central Texas Expwy ,TX,76543
Olive Garden,McKinney,1573,#1573,1700 North Central Expressway ,TX,75070
Olive Garden,Roseville,1574,#1574,1160 Galleria Blvd. ,CA,95678
Olive Garden,Columbus,1575,#1575,1250 Polaris Parkway ,OH,43240
Olive Garden,Wellington,1576,#1576,10280 Forest Hill Blvd ,FL,33414
Olive Garden,Grandville,1577,#1577,4499 Potomac Ave ,MI,49418
Olive Garden,Philadelphia,1578,#1578,1346 Chestnut Street ,PA,19107
Olive Garden,Ontario,1579,#1579,4403 E. Mills Circle ,CA,91764
Olive Garden,Grand Junction,1580,#1580,2416 Highway 6 & 50 ,CO,81505
Olive Garden,Santee,1581,#1581,9800 Mission Gorge Rd ,CA,92071
Olive Garden,Tracy,1582,#1582,3140 Naglee Road ,CA,95304
Olive Garden,Greeley,1583,#1583,2285 Greeley Mall ,CO,80631
Olive Garden,Tukwila,1584,#1584,310 Strander Blvd ,WA,98188
Olive Garden,Shreveport,1585,#1585,7150 Youree Drive ,LA,71105
Olive Garden,Omaha,1586,#1586,16929 Lakeside Hills Plaza ,NE,68130
Olive Garden,Bloomington,1587,#1587,320 North Jacobs Dr ,IN,47404
Olive Garden,Dayton,1588,#1588,6722 Miller Lane ,OH,45414
Olive Garden,Pittsburgh,1589,#1589,6000 Robinson Center Drive ,PA,15205
Olive Garden,Fayetteville,1590,#1590,3616 North Mall Ave ,AR,72703
Olive Garden,Oklahoma City,1591,#1591,1844 Northwest Expressway ,OK,73118
Olive Garden,Medford,1592,#1592,3125 Crater Lake Hwy ,OR,97504
Olive Garden,Thornton,1593,#1593,1151 East 120th Ave ,CO,80233
Olive Garden,Lithonia,1594,#1594,3011 Turner Hill Road ,GA,30038
Olive Garden,Riverdale,1595,#1595,4079 Riverdale Road ,UT,84405
Olive Garden,Puyallup,1596,#1596,3803 9th Street ,WA,98373
Olive Garden,Knoxville,1597,#1597,10923 Parkside Drive ,TN,37934
Olive Garden,Baton Rouge,1599,#1599,6911 Siegen Lane ,LA,70809
Olive Garden,Rochester,1600,#1600,380 17th Ave. NW ,MN,55901
Olive Garden,Newport News,1601,#1601,12560 Jefferson Ave ,VA,23602
Olive Garden,Albuquerque,1602,#1602,10500 Coors Blvd By-Pass NW ,NM,87114
Olive Garden,Columbus,1605,#1605,5555 G Whittlesey Blvd ,GA,31909
Olive Garden,Victor,1606,#1606,204 High Point Drive ,NY,14564
Olive Garden,Portland,1608,#1608,9830 SE Washington Street ,OR,97216
Olive Garden,Santa Fe,1609,#1609,3781 Cerrillos Rd ,NM,87505
Olive Garden,Fort Gratiot,1610,#1610,4210 24th Avenue ,MI,48059
Olive Garden,Denton,1611,#1611,2809 I-35E South ,TX,76210
Olive Garden,Memphis,1612,#1612,7778 Winchester Road ,TN,38125
Olive Garden,Waterford,1613,#1613,850 Hartford Turnpike ,CT,6385
Olive Garden,Orlando,1614,#1614,4101 Conroy Road ,FL,32839
Olive Garden,Lynchburg,1615,#1615,4038 Wards Road ,VA,24502
Olive Garden,Burleson,1616,#1616,12870 S. Freeway ,TX,76028
Olive Garden,Duluth,1618,#1618,901 Mall Dr ,MN,55811
Olive Garden,Charleston,1620,#1620,111 Cross Terrace Blvd ,WV,25309
Olive Garden,Las Vegas,1621,#1621,10800 West Charleston Blvd ,NV,89135
Olive Garden,Tucson,1622,#1622,1213 West Irvington Road ,AZ,85714
Olive Garden,Columbia,1623,#1623,10136-112 Two Notch Road ,SC,29229
Olive Garden,Laredo,1624,#1624,5319 San Dario Ave ,TX,78041
Olive Garden,Athens,1625,#1625,3666 Atlanta Highway ,GA,30606
Olive Garden,Marlborough,1626,#1626,728 Donald Lynch Blvd ,MA,1752
Olive Garden,Surprise,1627,#1627,13379 West Grand Ave ,AZ,85374
Olive Garden,Cranberry Township,1629,#1629,1716 Route 228 ,PA,16066
Olive Garden,Visalia,1630,#1630,4110 South Mooney Blvd ,CA,93277
Olive Garden,San Antonio,1631,#1631,15814 Interstate 10 West ,TX,78257
Olive Garden,Logan,1632,#1632,1220 North Main Street ,UT,84341
Olive Garden,Dunwoody,1633,#1633,4749 Ashford Dunwoody Road ,GA,30338
Olive Garden,Anderson,1634,#1634,200 Station Drive ,SC,29621
Olive Garden,Lake Charles,1635,#1635,1725 West Prien Lake Rd ,LA,70601
Olive Garden,Slidell,1637,#1637,168 Northshore Blvd ,LA,70460
Olive Garden,Rockaway,1638,#1638,323 Mt Hope Ave ,NJ,7866
Olive Garden,Tyngsboro,1639,#1639,422 Middlesex Road ,MA,1879
Olive Garden,Secaucus,1640,#1640,500 Route 3 West ,NJ,7094
Olive Garden,Wilmington,1641,#1641,5307 Market Street ,NC,28405
Olive Garden,Ramsey,1642,#1642,66 Route 17 North ,NJ,7446
Olive Garden,Greenville,1643,#1643,540 S.E. Greenville Blvd ,NC,27858
Olive Garden,Taunton,1644,#1644,1013 County Street ,MA,2780
Olive Garden,Prescott,1645,#1645,3060 Highway 69 ,AZ,86301
Olive Garden,Houma,1646,#1646,1757 Martin Luther King Drive ,LA,70360
Olive Garden,Findlay,1647,#1647,15115 US 224 East ,OH,45840
Olive Garden,West Hartford,1648,#1648,1441 New Britain Ave ,CT,6110
Olive Garden,North Myrtle Beach,1649,#1649,4701 Highway 17 N. ,SC,29582
Olive Garden,Tupelo,1650,#1650,3242 North Gloster Street ,MS,38804
Olive Garden,Hyattsville,1651,#1651,3480 East West Highway ,MD,20782
Olive Garden,Jackson,1652,#1652,1067 Vann Drive ,TN,38305
Olive Garden,Huntington Beach,1653,#1653,16811 Beach Blvd ,CA,92647
Olive Garden,Sandusky,1654,#1654,5205 Milan Road ,OH,44870
Olive Garden,College Station,1655,#1655,510 Earl Rudder Freeway South ,TX,77845
Olive Garden,Spanish Fort,1656,#1656,30500-D State Highway 181 ,AL,36527
Olive Garden,Keene,1657,#1657,2 Ashbrook Road ,NH,3431
Olive Garden,Newnan,1658,#1658,212 Newnan Crossing By-pass ,GA,30263
Olive Garden,Stoughton,1659,#1659,401 Technology Center Drive ,MA,2072
Olive Garden,Owensboro,1660,#1660,5204 Frederica Street ,KY,42301
Olive Garden,Mesa,1661,#1661,1261 Southern Ave ,AZ,85202
Olive Garden,Sevierville,1662,#1662,1570 Parkway ,TN,37862
Olive Garden,Rapid City,1664,#1664,160 Disk Dr ,SD,57701
Olive Garden,Pearland,1665,#1665,2808 Smith Ranch Road ,TX,77584
Olive Garden,Maplewood,1666,#1666,2351 Maplewood Commons Drive ,MO,63143
Olive Garden,Southaven,1667,#1667,6615 Airways Blvd ,MS,38671
Olive Garden,Christiana,1668,#1668,1279 New Churchman's Rd ,DE,19713
Olive Garden,Winchester,1669,#1669,2590 S. Pleasant Valley Road ,VA,22601
Olive Garden,Traverse City,1670,#1670,2800 N. US Hwy. 31 S. ,MI,49684
Olive Garden,Yuma,1671,#1671,1720 E. 16th Street ,AZ,85366
Olive Garden,Oakdale,1672,#1672,8367 3rd Street N. ,MN,55128
Olive Garden,Garland,1673,#1673,4840 North George Bush Hwy ,TX,75040
Olive Garden,Dorchester,1674,#1674,11 B Allstate Rd ,MA,2125
Olive Garden,Tarentum,1675,#1675,1010 Pittsburgh Mills Blvd ,PA,15084
Olive Garden,Cape Girardeau,1676,#1676,3259 William Street ,MO,63703
Olive Garden,Texarkana,1677,#1677,3101 Mall Drive ,TX,75503
Olive Garden,Temecula,1678,#1678,29025 Overland Drive ,CA,92589
Olive Garden,Hot Springs,1680,#1680,4108 Central Ave ,AR,71913
Olive Garden,Morgantown,1681,#1681,1000 University Town Centre Drive ,WV,26501
Olive Garden,Charlotte,1682,#1682,8225 Northlake Commons Blvd ,NC,28216
Olive Garden,Gastonia,1683,#1683,432 Cox Road ,NC,28054
Olive Garden,Florence,1684,#1684,2901 W Radio Rd ,SC,29501
Olive Garden,Leominster,1686,#1686,3 Orchard Hill Park Drive ,MA,1453
Olive Garden,Biddeford,1687,#1687,150 Shops Way ,ME,4005
Olive Garden,Florence,1688,#1688,375 Cox Creek Parkway ,AL,35630
Olive Garden,Destin,1689,#1689,34970 Emerald Coast Parkway ,FL,32541
Olive Garden,Hixson,1690,#1690,5525 Highway 153 ,TN,37343
Olive Garden,Burlington,1691,#1691,1809 Marketplace Drive ,WA,98233
Olive Garden,Hattiesburg,1693,#1693,4505 Hardy Street ,MS,39401
Olive Garden,Victoria,1694,#1694,7609 NE Zac Lentz Parkway ,TX,77904
Olive Garden,Dothan,1695,#1695,3360 Ross Clark Circle ,AL,36303
Olive Garden,San Angelo,1696,#1696,4399 W. Houston Harte Expy ,TX,76901
Olive Garden,Clarksville,1697,#1697,1230 Veterans Parkway ,IN,47129
Olive Garden,New Braunfels,1698,#1698,1354 Ih 35 North ,TX,78130
Olive Garden,Grove City,1699,#1699,1514 Stringtown Rd ,OH,43123
Olive Garden,Greenville,1700,#1700,3290 N. Pleasantburg Drive ,SC,29609
Olive Garden,Opelika,1701,#1701,2254 Tiger Town Parkway ,AL,36801
Olive Garden,Altamonte Springs,1702,#1702,300 West 436 ,FL,32714
Olive Garden,Louisville,1703,#1703,9730 Von Allmen Ct ,KY,40241
Olive Garden,Mankato,1704,#1704,1880 Adams Street ,MN,56001
Olive Garden,Idaho Falls,1705,#1705,1305 West Broadway St ,ID,83405
Olive Garden,Waterbury,1706,#1706,495 Union Street ,CT,6706
Olive Garden,West Wichita,1707,#1707,2641 N. Maize Rd ,KS,67205
Olive Garden,Pueblo,1708,#1708,3240 N. Elizabeth St ,CO,81008
Olive Garden,Decatur,1709,#1709,3795 US Route 51 North ,IL,62526
Olive Garden,Spartanburg,1710,#1710,1498 W.o. Ezell Blvd ,SC,29301
Olive Garden,Sioux City,1711,#1711,4930 Sergeant Road ,IA,51106
Olive Garden,Brighton,1712,#1712,6870 Whitmore Lake Rd ,MI,48116
Olive Garden,Folsom,1713,#1713,2485 Iron Point Road ,CA,95630
Olive Garden,Aurora,1714,#1714,6089 South Southlands Parkway ,CO,80016
Olive Garden,Phoenix,1715,#1715,2501 W. Happy Valley Road ,AZ,85085
Olive Garden,Cheyenne,1716,#1716,1536 Dell Range Blvd ,WY,82009
Olive Garden,Oxford,1717,#1717,401 Oxford Exchange Blvd ,AL,36203
Olive Garden,Phoenix,1718,#1718,2626 N. 75th Avenue ,AZ,85035
Olive Garden,Hagerstown,1719,#1719,17410 Valley Mall Road ,MD,21740
Olive Garden,McAllen,1720,#1720,7812 N. 10th Street ,TX,78504
Olive Garden,Memphis,1721,#1721,5679 Poplar Ave ,TN,38119
Olive Garden,Vacaville,1722,#1722,100 Nut Tree Parkway ,CA,95687
Olive Garden,Manhattan Beach,1723,#1723,2610 N. Sepulveda Blvd. ,CA,90266
Olive Garden,Wayne,1724,#1724,83 Route 23 South ,NJ,7470
Olive Garden,Saint George,1725,#1725,1340 East 170 South St. ,UT,84790
Olive Garden,Rogers,1726,#1726,1716 South 46th Street ,AR,72758
Olive Garden,Denver,1727,#1727,8314 Northfield Blvd ,CO,80238
Olive Garden,Sherman,1728,#1728,3701 U.S. Hwy 75 North ,TX,75090
Olive Garden,Rome,1729,#1729,"789 Turner McCall Blvd., Ne ",GA,30161
Olive Garden,Plymouth,1730,#1730,102 Colony Place Rd ,MA,2360
Olive Garden,Nampa,1731,#1731,16401 North Marketplace Blvd ,ID,83687
Olive Garden,Colonial Heights,1732,#1732,600 Southpark Blvd ,VA,23834
Olive Garden,Jacksonville,1733,#1733,1415 Western Blvd ,NC,28546
Olive Garden,Burlington,1734,#1734,1770 Glidewell Drive ,NC,27215
Olive Garden,Riverside,1735,#1735,3650 Tyler Street ,CA,92503
Olive Garden,Lawton,1736,#1736,4021 NW Cache Road ,OK,73505
Olive Garden,Vero Beach,1737,#1737,5945 20th Street ,FL,32966
Olive Garden,Waxahachie,1738,#1738,1302 N. Hwy 77 ,TX,75165
Olive Garden,Kissimmee,1739,#1739,1604 W. Osceola Pkwy ,FL,34741
Olive Garden,Alabaster,1740,#1740,20 S Colonial Dr #8 ,AL,35007
Olive Garden,Sebring,1741,#1741,1696 US Hwy 27 North ,FL,33870
Olive Garden,Lancaster,1742,#1742,35 S. Willowdale Drive ,PA,17602
Olive Garden,Chillicothe,1743,#1743,1417 N Bridge St ,OH,45601
Olive Garden,McDonough,1744,#1744,1961 Jonesboro Road ,GA,30253
Olive Garden,Woodbridge,1745,#1745,510 Woodbridge Center Drive ,NJ,7095
Olive Garden,Christiansburg,1746,#1746,2590 North Franklin Street ,VA,24073
Olive Garden,Chandler,1747,#1747,2930 E Germann Rd ,AZ,85286
Olive Garden,Cape Coral,1748,#1748,1910 Pine Island Road NE ,FL,33909
Olive Garden,El Paso,1749,#1749,1870 Joe Battle Blvd ,TX,79936
Olive Garden,Springfield,1750,#1750,1630 North Bechtle Ave ,OH,45504
Olive Garden,Mount Juliet,1751,#1751,401 South Mt. Juliet Road ,TN,37122
Olive Garden,Murfreesboro,1752,#1752,1710 Old Fort Parkway ,TN,37129
Olive Garden,Liberty,1753,#1753,105 North Blue Jay Drive ,MO,64068
Olive Garden,Oro Valley,1754,#1754,11905 North Oracle Rd ,AZ,85755
Olive Garden,Triadelphia,1755,#1755,510 Cabela Drive ,WV,26059
Olive Garden,Casa Grande,1756,#1756,717 N. Promenade Parkway ,AZ,85194
Olive Garden,Port Saint Lucie,1757,#1757,10221 SW Meeting St ,FL,34987
Olive Garden,Oswego,1758,#1758,2620 Route 34 ,IL,60543
Olive Garden,Meridian,1759,#1759,107 South Frontage Road ,MS,39301
Olive Garden,Reynoldsburg,1760,#1760,2439 Taylor Square Drive ,OH,43068
Olive Garden,Lufkin,1761,#1761,3801 S Medford Drive ,TX,75901
Olive Garden,Cookeville,1762,#1762,1300 Interstate Drive ,TN,38501
Olive Garden,Prattville,1763,#1763,2767 Legends Parkway ,AL,36066
Olive Garden,Springfield,1764,#1764,1001 Baltimore Pike. #1b ,PA,19064
Olive Garden,Saint Joseph,1765,#1765,5312 N Belt Highway ,MO,64506
Olive Garden,Florence,1766,#1766,7844 Mall Road ,KY,41042
Olive Garden,Clermont,1767,#1767,2495 S Highway 27 ,FL,34711
Olive Garden,Cincinnati,1768,#1768,3725 Stone Creek Blvd ,OH,45251
Olive Garden,Warner Robins,1769,#1769,3020 Watson Blvd ,GA,31093
Olive Garden,Elyria,1770,#1770,1635 West River Road ,OH,44035
Olive Garden,Temple,1771,#1771,3625 South General Bruce Dr ,TX,76504
Olive Garden,Weatherford,1772,#1772,315 Ih-20 East ,TX,76086
Olive Garden,Goodyear,1773,#1773,15411 W. McDowell Road ,AZ,85395
Olive Garden,Panama City Beach,1774,#1774,15701 Panama City Beach Parkway ,FL,32413
Olive Garden,Friendswood,1775,#1775,1310 W Bay Area Blvd ,TX,77546
Olive Garden,North Haven,1776,#1776,310 Universal Drive North ,CT,6473
Olive Garden,Owasso,1778,#1778,9072 N 121st East Ave ,OK,74055
Olive Garden,Stockton,1779,#1779,2671 W March Lane ,CA,95207
Olive Garden,Vancouver,1780,#1780,16405 SE Mill Plain Blvd ,WA,98683
Olive Garden,American Fork,1781,#1781,538 West Main Street ,UT,84003
Olive Garden,Conroe,1782,#1782,3041 I-45 North ,TX,77304
Olive Garden,San Antonio,1783,#1783,5439 W. Loop 1604 N ,TX,78254
Olive Garden,McHenry,1784,#1784,3451 Shoppers Drive ,IL,60050
Olive Garden,Sparks,1785,#1785,1481 E Lincoln Way ,NV,89434
Olive Garden,Fenton,1786,#1786,140 Gravois Bluffs Circle ,MO,63026
Olive Garden,Bismarck,1787,#1787,3400 North 14th Street ,ND,58503
Olive Garden,Allen,1788,#1788,190 East Stacy Road ,TX,75002
Olive Garden,Rocky Mount,1789,#1789,1140 N. Wesleyan Blvd ,NC,27804
Olive Garden,The Villages,1790,#1790,3680 Wedgewood Lane ,FL,32162
Olive Garden,Beachwood,1791,#1791,26000 Harvard Road ,OH,44122
Olive Garden,Salisbury,1792,#1792,1425 Klumac Road ,NC,28147
Olive Garden,Kissimmee,1793,#1793,8136 W Irlo Bronson Hwy ,FL,34747
Olive Garden,Spring Hill,1794,#1794,1098 Crossings Circle ,TN,37174
Olive Garden,Kansas City,1795,#1795,10760 Parallel Parkway ,KS,66109
Olive Garden,Stroudsburg,1796,#1796,600 Shoppes At Stroud ,PA,18360
Olive Garden,California,1797,#1797,45265 Abell House Lane ,MD,20619
Olive Garden,Canton,1798,#1798,2040 Cumming Highway ,GA,30115
Olive Garden,San Antonio,1799,#1799,7811 S Ih 35 ,TX,78224
Olive Garden,West Valley,1801,#1801,3515 Constitution Blvd ,UT,84119
Olive Garden,Homestead,1802,#1802,2575 NE 8th Street ,FL,33033
Olive Garden,Houston,1803,#1803,9750 Katy Freeway ,TX,77055
Olive Garden,West Springfield,1804,#1804,919 Riverdale Street ,MA,1089
Olive Garden,Noblesville,1805,#1805,13285 Tegler Drive ,IN,46060
Olive Garden,Bridgewater,1807,#1807,762 US Route 202 S ,NJ,8807
Olive Garden,Foxboro,1808,#1808,392 Patriot Place South ,MA,2035
Olive Garden,Piscataway,1809,#1809,1317 Centennial Ave ,NJ,8854
Olive Garden,Michigan City,1810,#1810,4441 S. Franklin St ,IN,46360
Olive Garden,Southern Pines,1811,#1811,10572 S. US 15/501 ,NC,28387
Olive Garden,Broken Arrow,1812,#1812,1301 E Hillside Dr ,OK,74012
Olive Garden,Bossier City,1813,#1813,2935 Meadow Creek Drive ,LA,71111
Olive Garden,Port Orange,1814,#1814,5447 S Williamson Blvd. ,FL,32129
Olive Garden,South Jordan,1815,#1815,11364 S River Heights Drive ,UT,84095
Olive Garden,Jacksonville,1816,#1816,13040 City Station Drive ,FL,32218
Olive Garden,Covington,1817,#1817,5001 Pinnacle Parkway ,LA,70433
Olive Garden,D'Iberville,1818,#1818,3882 Promenade Parkway ,MS,39540
Olive Garden,Collegeville,1819,#1819,1 Town Center Drive ,PA,19426
Olive Garden,Columbus,1820,#1820,4860 N. Hamilton Rd. ,OH,43230
Olive Garden,Arlington,1821,#1821,210 Lincoln Square ,TX,76011
Olive Garden,Richmond,1822,#1822,2168 Lantern Ridge Drive ,KY,40475
Olive Garden,West Watertown,1823,#1823,20988 Salmon Run Mall Loop Rd ,NY,13601
Olive Garden,Jonesboro,1824,#1824,1918 Red Wolf Blvd. ,AR,72401
Olive Garden,Methuen,1825,#1825,90 Pleasant Valley Ave ,MA,1844
Olive Garden,Hanover,1826,#1826,7061 Arundel Mills Circle ,MD,21076
Olive Garden,Richmond,1827,#1827,4467 S Laburnum Ave ,VA,23231
Olive Garden,Casper,1828,#1828,5070 East 2nd Street ,WY,82609
Olive Garden,Bend,1829,#1829,63459 Highway 97 ,OR,97701
Olive Garden,Kingston,1830,#1830,560 Kings Mall Court ,NY,12401
Olive Garden,Wake Forest,1831,#1831,12600 Capital Blvd ,NC,27587
Olive Garden,Ankeny,1832,#1832,770 SE Oralabor Rd ,IA,50021
Olive Garden,Blue Springs,1833,#1833,801 NE Coronado ,MO,64014
Olive Garden,Freehold,1834,#1834,290 W Main Street ,NJ,7728
Olive Garden,East Wenatchee,1835,#1835,615 Valley Mall Parkway ,WA,98802
Olive Garden,Kingsport,1836,#1836,1919 N Eastman Road ,TN,37660
Olive Garden,Statesboro,1837,#1837,201 Henry Blvd ,GA,30458
Olive Garden,Sugar Land,1838,#1838,5005 Sweetwater Blvd. ,TX,77479
Olive Garden,Aventura,1839,#1839,17985 Biscayne Blvd ,FL,33160
Olive Garden,Las Cruces,1840,#1840,100 N Telshor Blvd ,NM,88011
Olive Garden,Wentzville,1841,#1841,1280 W. Pearce Blvd. ,MO,63385
Olive Garden,Bowling Green,1842,#1842,3220 Scottsville Road ,KY,42104
Olive Garden,Manhattan,1843,#1843,715 Tuttle Creek Blvd ,KS,66502
Olive Garden,Alcoa,1844,#1844,244 Hamilton Crossing Dr ,TN,37701
Olive Garden,Pleasant Prairie,1845,#1845,10110 77th Street ,WI,53158
Olive Garden,Fort Worth,1846,#1846,9333 Rain Lily Trail ,TX,76177
Olive Garden,Farmington,1847,#1847,5150 East Main Street ,NM,87402
Olive Garden,Morehead City,1848,#1848,5152 Highway 70 ,NC,28557
Olive Garden,Lee's Summit,1849,#1849,650 NW Blue Parkway ,MO,64063
Olive Garden,Houston,1850,#1850,15525 Wallisville Road ,TX,77049
Olive Garden,Spokane,1851,#1851,9780 N Newport Highway ,WA,99218
Olive Garden,Louisville,1852,#1852,4811 R Outer Loop ,KY,40219
Olive Garden,Baytown,1853,#1853,6744 Garth Road ,TX,77521
Olive Garden,Inverness,1854,#1854,2151 E Gulf To Lake Hwy ,FL,34453
Olive Garden,Wilson,1855,#1855,3401 Raleigh Road Parkway W ,NC,27893
Olive Garden,Council Bluffs,1856,#1856,3707 Denmark Drive ,IA,51501
Olive Garden,Downingtown,1857,#1857,101 Quarry Road ,PA,19335
Olive Garden,Milpitas,1858,#1858,1350 Great Mall Drive ,CA,95035
Olive Garden,Gaffney,1859,#1859,1633 West Floyd Baker Blvd ,SC,29341
Olive Garden,Monroe,1861,#1861,2983 Monroe Way ,NC,28110
Olive Garden,San Antonio,1862,#1862,22503 N US Hwy 281 ,TX,78258
Olive Garden,Queen Creek,1863,#1863,21422 S Ellsworth Loop Road ,AZ,85142
Olive Garden,Wausau,1864,#1864,3650 Rib Mountain Drive ,WI,54401
Olive Garden,New Hartford,1865,#1865,4636 Commercial Dr ,NY,13413
Olive Garden,Williamsville,1866,#1866,7700 Transit Road ,NY,14221
Olive Garden,Tulalip,1867,#1867,10326 Quil Ceda Blvd ,WA,98271
Olive Garden,Worcester,1868,#1868,7 Tobias Boland Way ,MA,1607
Olive Garden,Clifton Park,1869,#1869,303 Clifton Park Center Road ,NY,12065
Olive Garden,Mansfield,1870,#1870,2031 N. US Highway 287 ,TX,76063
Olive Garden,Sierra Vista,1871,#1871,380 N Hwy 90 ,AZ,85635
Olive Garden,Manahawkin,1872,#1872,234 Stafford Park Blvd. ,NJ,8050
Olive Garden,Estero,1873,#1873,8091 Plaza Del Lago Drive ,FL,33928
Olive Garden,Danvers,1874,#1874,153 Andover St ,MA,1923
Olive Garden,Niagara Falls,1875,#1875,1532 Military Road ,NY,14304
Olive Garden,Danville,1876,#1876,120 Collins Drive ,VA,24540
Olive Garden,Weslaco,1877,#1877,801 East Expressway 83 ,TX,78596
Olive Garden,Carson City,1878,#1878,4253 S Carson Street ,NV,89701
Olive Garden,Birmingham,1879,#1879,3555 Roosevelt Blvd ,AL,35235
Olive Garden,Easton,1880,#1880,9017 Ocean Gateway ,MD,21601
Olive Garden,Gainesville,1881,#1881,1175 Dawsonville Hwy NW ,GA,30501
Olive Garden,Goldsboro,1882,#1882,803 N Berkeley Blvd ,NC,27534
Olive Garden,Bluffton,1883,#1883,1266 Fording Island Road ,SC,29910
Olive Garden,Hialeah,1884,#1884,1350 W 49th St. ,FL,33012
Olive Garden,Hanover,1885,#1885,10 Wilson Ave ,PA,17331
Olive Garden,Snellville,1886,#1886,1565 Scenic Hwy ,GA,30078
Olive Garden,Valdosta,1887,#1887,1315 N St. Augustine Rd. ,GA,31601
Olive Garden,San Luis Obispo,1888,#1888,11966 Los Osos Valley Road ,CA,93401
Olive Garden,Minot,1889,#1889,1030 24th Ave SW ,ND,58701
Olive Garden,Owings Mills,1891,#1891,6 Restaurant Park Dr ,MD,21117
Olive Garden,Elkton,1892,#1892,304 E Pulaski Hwy ,MD,21921
Olive Garden,Cleveland,1893,#1893,4499 Keith St. NW ,TN,37312
Olive Garden,Baxter,1894,#1894,7399 Garrison Road ,MN,56425
Olive Garden,Fort Myers,1895,#1895,10020 University Plaza Drive ,FL,33913
Olive Garden,Richmond,1896,#1896,11829 W Broad St ,VA,23233
Olive Garden,Langley,4346,#4346,20080 Langley Bypass ,BC,V3A9J7
Olive Garden,Grand Forks,4401,#4401,3160 32nd Ave South ,ND,58201
Olive Garden,Thousand Oaks,4402,#4402,158 W Hillcrest Drive ,CA,91360
Olive Garden,Richmond,4403,#4403,4111 National Road East ,IN,47374
Olive Garden,Fayetteville,4404,#4404,1380 Highway 85 N ,GA,30214
Olive Garden,Derby,4406,#4406,1718 N Rock Road ,KS,67037
Olive Garden,San Dimas,4407,#4407,582 N Lone Hill Ave ,CA,91773
Olive Garden,Katy,4408,#4408,21220 Katy Freeway ,TX,77449
Olive Garden,Decatur,4409,#4409,1102 Beltline Rd ,AL,35601
Olive Garden,Phoenix,4410,#4410,2710 W. North Lane ,AZ,85021
Olive Garden,Valley Stream,4411,#4411,610 W Sunrise Hwy ,NY,11581
Olive Garden,Anchorage,4412,#4412,1186 N Muldoon Rd ,AK,99504
Olive Garden,Anchorage,4413,#4413,800 E Dimond Blvd ,AK,99515
Olive Garden,Paramus,4414,#4414,1620 Bergen Town Center ,NJ,7652
Olive Garden,High Point,4415,#4415,4006 Brian Jordan Place ,NC,27265
Olive Garden,Grand Island,4416,#4416,1010 Allen Drive ,NE,68803
Olive Garden,Arden,4417,#4417,400 Airport Rd ,NC,28704
Olive Garden,Beckley,4418,#4418,4289 Robert C. Byrd Drive ,WV,25801
Olive Garden,Bristol,4419,#4419,3102 Lee Highway ,VA,24202
Olive Garden,Bourbonnais,4421,#4421,2048 N State Route 50 ,IL,60914
Olive Garden,Rosenberg,4422,#4422,24221 Southwest Freeway ,TX,77471
Olive Garden,Oshkosh,4423,#4423,1190 S Koeller St ,WI,54902
Olive Garden,Peru,4424,#4424,5223 US Hwy 251 ,IL,61354
Olive Garden,Rockwall,4425,#4425,1043 E Ih-30 ,TX,75087
Olive Garden,Stillwater,4426,#4426,2100 N. Perkins Rd. ,OK,74075
Olive Garden,Huntsville,4427,#4427,225 Interstate 45 South ,TX,77340
Olive Garden,Cutler Bay,4429,#4429,20345 S Dixie Highway ,FL,33189
Olive Garden,Turlock,4430,#4430,2749 Countryside Drive ,CA,95380
Olive Garden,Carson,4431,#4431,20532 Avalon Blvd ,CA,90746
Olive Garden,Lakeland,4432,#4432,1340 Lakeside Village Circle ,FL,33803
Olive Garden,Culver City,4433,#4433,6000 Sepulveda Blvd ,CA,90230
Olive Garden,Midland,4434,#4434,6803 Eastman Ave ,MI,48642
Olive Garden,Pasadena,4435,#4435,4641 E Sam Houston Parkway S ,TX,77505
Olive Garden,Carrollton,4436,#4436,1379 South Park Street ,GA,30117
Olive Garden,Albany,4437,#4437,2701 Dawson Road ,GA,31707
Olive Garden,Hammond,4438,#4438,1981 Hammond Square Drive ,LA,70403
Olive Garden,Chambersburg,4439,#4439,990 Norland Ave & Walker Road ,PA,17201
Olive Garden,Martinsburg,4440,#4440,891 Foxcroft Avenue ,WV,25401
Olive Garden,Holly Springs,4441,#4441,107 Grand Hill Place ,NC,27540
Olive Garden,Lake City,4442,#4442,3072 West US Highway 90 ,FL,32055
Olive Garden,Oklahoma City,4444,#4444,6330 SW 3rd St ,OK,73128
Olive Garden,Lakewood,4445,#4445,328 E Fairmount Ave ,NY,14750
Olive Garden,Uniontown,4446,#4446,517 W Main Street ,PA,15401
Olive Garden,Washington,4447,#4447,371 Washington Road ,PA,15301
Olive Garden,Bloomsburg,4449,#4449,52 Plaza Drive ,PA,17815
Olive Garden,El Centro,4450,#4450,504 E Danenberg Drive ,CA,92243
Olive Garden,Bozeman,4451,#4451,1553 N 19th Avenue ,MT,59718
Olive Garden,Myrtle Beach,4452,#4452,73 Rodeo Drive ,SC,29579
Olive Garden,Rosemead,4453,#4453,1866 Montebello Town Center ,CA,91770
Olive Garden,Carmel,4455,#4455,10206 N Michigan Road ,IN,46032
Olive Garden,Salina,4456,#4456,2820 S 9th Street ,KS,67401
Olive Garden,Columbus,4457,#4457,5450 Renner Rd ,OH,43228
Olive Garden,Tifton,4459,#4459,1208 Highway 82 West ,GA,31794
Olive Garden,Daytona Beach,4460,#4460,1780 W. International Speedway Blvd. ,FL,32114
Olive Garden,Hutchinson,4461,#4461,1700 E 17th Ave ,KS,67501
Olive Garden,Las Vegas,4462,#4462,6191 Centennial Center Blvd ,NV,89149
Olive Garden,Buena Park,4463,#4463,8386 La Palma Ave ,CA,90620
Olive Garden,Alvin,4464,#4464,162 N Hwy 35 Bypass ,TX,77511
Olive Garden,Lakewood,4465,#4465,14175 West Colfax Ave ,CO,80401
Olive Garden,San Jose,4468,#4468,2226 Eastridge Loop ,CA,95122
Olive Garden,Melrose Park,4470,#4470,1315 W North Ave ,IL,60160
Olive Garden,Mount Pleasant,4471,#4471,4070 E Bluegrass Rd ,MI,48858
Olive Garden,Pooler,4472,#4472,280 Pooler Pkway ,GA,31322
Olive Garden,West Hills,4473,#4473,6501 Fallbrook Ave ,CA,91307
Olive Garden,Houston,4477,#4477,15770 North Freeway ,TX,77090
Olive Garden,Tampa,4480,#4480,1802 N West Shore Blvd ,FL,33607
Olive Garden,Palm Coast,5802,#5802,5294 E Highway 100 ,FL,32164
Olive Garden,Brunswick,5808,#5808,600 Glynn Isles ,GA,31525
Olive Garden,Waycross,5814,#5814,2497 Memorial Drive ,GA,31501
Olive Garden,Wilkesboro,5817,#5817,1852 US Highway 421 ,NC,28697
