keywords,city,Aggdata Store Number,store_number,address,state,zip_code
Outback Steakhouse,Anchorage,210,210,101 W. 34th,AK,99503
Outback Steakhouse,Tempe,310,310,1734 E. Southern Avenue,AZ,85282
Outback Steakhouse,Glendale,311,311,5605 W. Bell Road,AZ,85308
Outback Steakhouse,Tucson,312,312,4871 E. Grant Road,AZ,85712
Outback Steakhouse,Phoenix,313,313,4715 E. Cactus Road,AZ,85032
Outback Steakhouse,Mesa,314,314,1650 S. Clearview Ave.,AZ,85208
Outback Steakhouse,Tucson,315,315,2240 W. Ina Road,AZ,85741
Outback Steakhouse,Chandler,316,316,1080 N. 54th Street,AZ,85226
Outback Steakhouse,Flagstaff,317,317,2600 E. Lucky Lane,AZ,86004
Outback Steakhouse,Yuma,321,321,328 East 16th Street,AZ,85364
Outback Steakhouse,Chandler,322,322,2520 W. Chandler Blvd.,AZ,85224
Outback Steakhouse,Surprise,323,323,14225 W. Grand Ave.,AZ,85374
Outback Steakhouse,Phoenix,324,324,9801 N. Black Canyon Hwy.,AZ,85021
Outback Steakhouse,Sierra Vista,325,325,99 S. Hwy. 92,AZ,85635
Outback Steakhouse,Mesa,326,326,1860 E. McKellips Road,AZ,85203
Outback Steakhouse,Phoenix,327,327,"7000 Mayo Blvd., #24",AZ,85054
Outback Steakhouse,Gilbert,328,328,2687 S. Market St,AZ,85296
Outback Steakhouse,North Little Rock,411,411,4401 Warden Road,AR,72116
Outback Steakhouse,Little Rock,412,412,105 Markham Park Dr.,AR,72211
Outback Steakhouse,Springdale,450,450,4808 S. Thompson,AR,72764
Outback Steakhouse,Hot Springs,451,451,180 Pakis Street,AR,71913
Outback Steakhouse,Ft. Smith,452,452,6800 Rogers Ave.,AR,72903
Outback Steakhouse,Conway,453,453,2310 Sanders St.,AR,72032
Outback Steakhouse,Jonesboro,454,454,906-C Southwest Dr.,AR,72401
Outback Steakhouse,Rogers,455,455,4509 W. Poplar Street,AR,72758
Outback Steakhouse,Pleasant Hill,511,511,150 A Longbrook Way,CA,94523
Outback Steakhouse,Fresno,512,512,2765 W. Shaw,CA,93711
Outback Steakhouse,Bakersfield,513,513,5051 Stockdale Hwy.,CA,93309
Outback Steakhouse,Cupertino,514,514,20630 Valley Green Drive,CA,95014
Outback Steakhouse,Gold River,515,515,2100 Golden Centre Lane,CA,95670
Outback Steakhouse,Campbell,516,516,1887 S. Bascom Avenue,CA,95008
Outback Steakhouse,Modesto,517,517,2045-D W. Briggsmore Avenue,CA,95350
Outback Steakhouse,Fremont,518,518,5525 Stevenson Blvd.,CA,94538
Outback Steakhouse,Rohnert Park,519,519,4619 Redwood Drive,CA,94928
Outback Steakhouse,Chico,520,520,1990 E. 20th Street,CA,95928
Outback Steakhouse,Roseville,521,521,181 N. Sunrise Ave.,CA,95661
Outback Steakhouse,Redding,522,522,910 Dana Drive,CA,96003
Outback Steakhouse,Dublin,523,523,6505 Regional Street,CA,94568
Outback Steakhouse,Salinas,524,524,1401 North Davis Road,CA,93907
Outback Steakhouse,Sausalito,525,525,196 Donahue Street,CA,94965
Outback Steakhouse,Stockton,526,526,1243 W. March Lane,CA,95207
Outback Steakhouse,Daly City,527,527,371 Gellert Blvd.,CA,94015
Outback Steakhouse,Sacramento,529,529,1340 Howe Ave.,CA,95825
Outback Steakhouse,Vacaville,530,530,521 Davis St.,CA,95688
Outback Steakhouse,San Jose,531,531,632 Blossom Hill Rd.,CA,95123
Outback Steakhouse,Pinole,532,532,1361 Fitzgerald Dr.,CA,94564
Outback Steakhouse,Milpitas,533,533,1246 Great Mall Dr.,CA,95035
Outback Steakhouse,Elk Grove,535,535,7221 Laguna Blvd.,CA,95758
Outback Steakhouse,Pittsburg,536,536,4350 Century Blvd.,CA,94565
Outback Steakhouse,San Mateo,537,537,66 31st Ave,CA,94403
Outback Steakhouse,El Cajon,551,551,722 Jamacha Road,CA,92019
Outback Steakhouse,La Mesa,552,552,5628 Lake Murray Blvd.,CA,91942
Outback Steakhouse,San Diego,553,553,4196 Clairemont Mesa Blvd.,CA,92117
Outback Steakhouse,Upland,554,554,530 N. Mountain Avenue,CA,91786
Outback Steakhouse,Poway,555,555,14701 Pomerado Road,CA,92064
Outback Steakhouse,Torrance,556,556,21880 Hawthorne Blvd.,CA,90503
Outback Steakhouse,Arcadia,557,557,166 E. Huntington Drive,CA,91006
Outback Steakhouse,Brea,558,558,30 Pointe Drive,CA,92821
Outback Steakhouse,Palm Desert,559,559,72220 Hwy. 111,CA,92260
Outback Steakhouse,Lakewood,560,560,5305 Clark Avenue,CA,90712
Outback Steakhouse,Northridge,561,561,18711 Devonshire Street,CA,91324
Outback Steakhouse,Laguna Hills,562,562,25322 Cabot Road,CA,92653
Outback Steakhouse,San Bernardino,563,563,620 E. Hospitality Lane,CA,92408
Outback Steakhouse,Palmdale,564,564,1061 Rancho Vista Blvd,CA,93551
Outback Steakhouse,Newhall,565,565,25261 The Old Road,CA,91321
Outback Steakhouse,Oxnard,566,566,2341 Lockwood Street,CA,93030
Outback Steakhouse,Thousand Oaks,567,567,137 E. Thousand Oaks Blvd.,CA,91360
Outback Steakhouse,Irvine,568,568,15433 Culver Drive,CA,92604
Outback Steakhouse,Goleta,569,569,5690 Calle Real,CA,93117
Outback Steakhouse,Costa Mesa,570,570,1670 Newport Blvd.,CA,92627
Outback Steakhouse,Norwalk,571,571,12850 Norwalk Blvd.,CA,90651
Outback Steakhouse,City of Industry,572,572,1418 Azusa Avenue,CA,91748
Outback Steakhouse,Foothill Ranch,573,573,26652 Portola Pkwy,CA,92610
Outback Steakhouse,Oceanside,574,574,2485 Vista Way,CA,92054
Outback Steakhouse,Covina,575,575,1476 N. Azusa Ave.,CA,91722
Outback Steakhouse,Corona,576,576,151 N. McKinley Street,CA,92879
Outback Steakhouse,Garden Grove,577,577,12001 Harbor Boulevard,CA,92840
Outback Steakhouse,San Diego,578,578,"1640 Camino Del Rio N., Suite 125",CA,92108
Outback Steakhouse,Temecula,579,579,40275 Winchester Rd.,CA,92591
Outback Steakhouse,Victorville,580,580,12400 - B Amargosa Rd.,CA,92392
Outback Steakhouse,Buena Park,581,581,7575 Beach Boulevard,CA,90622
Outback Steakhouse,National City,582,582,2980 Plaza Bonita,CA,91950
Outback Steakhouse,Burbank,583,583,1761 N. Victory Place,CA,91504
Outback Steakhouse,Ontario,584,584,4492 Ontario Mills Pkwy.,CA,91764
Outback Steakhouse,Long Beach,586,586,20 West Shoreline Dr.,CA,90802
Outback Steakhouse,Westminster,587,587,549 Westminster Mall,CA,92683
Outback Steakhouse,Moreno Valley,588,588,22680 Centerpoint Drive,CA,92553
Outback Steakhouse,Glendale,589,589,146 S. Brand Blvd,CA,91204
Outback Steakhouse,Littleton,610,610,8601 W. Cross Drive,CO,80123
Outback Steakhouse,Westminster,611,611,9329 N. Sheridan Blvd.,CO,80030
Outback Steakhouse,Colorado Springs,612,612,7065 Commerce Center Drive,CO,80919
Outback Steakhouse,Fort Collins,613,613,807 E. Harmony Road,CO,80525
Outback Steakhouse,Highlands Ranch,614,614,15 W. Springer Drive,CO,80126
Outback Steakhouse,Thornton,615,615,497 E. 120th Avenue,CO,80241
Outback Steakhouse,Louisville,616,616,988 Dillon Road,CO,80027
Outback Steakhouse,Colorado Springs,617,617,2825 Geyser Drive,CO,80906
Outback Steakhouse,Centennial,618,618,10443 E. Costilla Avenue,CO,80112
Outback Steakhouse,Aurora,619,619,2066 S. Abilene Street,CO,80014
Outback Steakhouse,Golden,620,620,14295 W. Colfax Avenue,CO,80401
Outback Steakhouse,Grand Junction,621,621,2432 US Hwy 6 & 50,CO,81505
Outback Steakhouse,Colorado Springs,622,622,2895 New Center Point,CO,80922
Outback Steakhouse,Denver,624,624,16301 E. 40th Ave.,CO,80239
Outback Steakhouse,Aurora,625,625,6040 S. Gun Club Rd. G-8,CO,80016
Outback Steakhouse,Castle Rock,626,626,4687 Milestone Lane,CO,80104
Outback Steakhouse,Longmont,628,628,1315 Dry Creek Dr.,CO,80503
Outback Steakhouse,Manchester,710,710,170 Hale Road,CT,6040
Outback Steakhouse,Southington,711,711,817 Queen Street,CT,6489
Outback Steakhouse,Orange,712,712,132 Marsh Hill Road,CT,6477
Outback Steakhouse,Newington,713,713,3210 Berlin Turnpike,CT,6111
Outback Steakhouse,Wilton,714,714,14 Danbury Rd.,CT,6897
Outback Steakhouse,New London,715,715,305 N. Frontage Rd.,CT,6320
Outback Steakhouse,North Haven,716,716,345 Washington Ave.,CT,6473
Outback Steakhouse,Enfield,717,717,98 Elm Street,CT,6082
Outback Steakhouse,Shelton,718,718,698 Bridgeport Ave.,CT,6484
Outback Steakhouse,Danbury,762,762,116 Newtown Rd.,CT,6810
Outback Steakhouse,Newark,810,810,27 Possum Park Mall,DE,19711
Outback Steakhouse,Rehoboth Beach,815,815,19917 Sea Blossom Blvd,DE,19971
Outback Steakhouse,Honolulu,901,901,"1765 Ala Moana Blvd,",HI,96815
Outback Steakhouse,"Kihei, Maui",903,903,281 Pi ' ikea Ave.,HI,96753
Outback Steakhouse,Honolulu,904,904,6650 Kalanianaole Hwy,HI,96825
Outback Steakhouse,Waipahu,905,905,94-810 Ukee Street,HI,96797
Outback Steakhouse,Kailua-Kona,906,906,75-5809 Alii Drive,HI,96740
Outback Steakhouse,Kapolei,907,907,302 Kamokila Blvd.,HI,96707
Outback Steakhouse,Lahaina,908,908,325 Keawe St,HI,96761
Outback Steakhouse,Tampa,1010,1010,3403 Henderson Blvd.,FL,33609
Outback Steakhouse,Tampa,1011,1011,11618 N. Dale Mabry,FL,33618
Outback Steakhouse,Sarasota,1012,1012,7207 S. Tamiami Trail,FL,34231
Outback Steakhouse,St. Petersburg,1013,1013,4088 Park Street,FL,33709
Outback Steakhouse,Largo,1014,1014,3690 E. Bay Drive,FL,33771
Outback Steakhouse,Brandon,1015,1015,2020 W Brandon Blvd. 190,FL,33511
Outback Steakhouse,Palm Harbor,1016,1016,31988 US Hwy. 19 N.,FL,34684
Outback Steakhouse,Bradenton,1017,1017,4402 W. Cortez Road,FL,34210
Outback Steakhouse,Lakeland,1019,1019,5255 S. Florida Ave.,FL,33813
Outback Steakhouse,Gainesville,1020,1020,3536 S.W. Archer Road,FL,32608
Outback Steakhouse,Ft. Myers,1021,1021,12995 S. Cleveland Avenue,FL,33907
Outback Steakhouse,Ocala,1022,1022,3215 S.W. College Road,FL,34474
Outback Steakhouse,Temple Terrace,1023,1023,11308 N. 56th Street,FL,33617
Outback Steakhouse,Sarasota,1024,1024,6390 N. Lockwood Ridge Rd.,FL,34243
Outback Steakhouse,Winter Haven,1025,1025,170 Cypress Gardens Blvd.,FL,33880
Outback Steakhouse,Port Charlotte,1026,1026,1481 Tamiami Trail,FL,33948
Outback Steakhouse,Cape Coral,1027,1027,1642 N.E. Pine Island Rd.,FL,33909
Outback Steakhouse,Spring Hill,1028,1028,4905 Commercial Way,FL,34606
Outback Steakhouse,Wesley Chapel,1029,1029,5710 Oakley Blvd.,FL,33544
Outback Steakhouse,Jacksonville,1030,1030,9773 San Jose Blvd.,FL,32257
Outback Steakhouse,Jacksonville Beach,1031,1031,3760 S. 3rd Street,FL,32250
Outback Steakhouse,Jacksonville,1032,1032,9400 Atlantic Blvd.,FL,32225
Outback Steakhouse,Orange Park,1033,1033,1775 Wells Road,FL,32073
Outback Steakhouse,St. Augustine,1034,1034,245 State Road 312,FL,32085
Outback Steakhouse,Tallahassee,1035,1035,1820 Raymond Diehl Road,FL,32308
Outback Steakhouse,Panama City,1036,1036,861 W. 23rd Street,FL,32405
Outback Steakhouse,Jacksonville,1039,1039,8145 Point Meadows Way,FL,32256
Outback Steakhouse,Palm Coast,1040,1040,45 Plaza Drive,FL,32137
Outback Steakhouse,Jacksonville,1041,1041,13245 Atlantic Blvd.,FL,32225
Outback Steakhouse,Orlando,1048,1048,10749 Narcoossee Rd,FL,32832
Outback Steakhouse,Orlando,1049,1049,12120 Lake Underhill Rd.,FL,32825
Outback Steakhouse,Altamonte Springs,1050,1050,990 N. State Road 434,FL,32714
Outback Steakhouse,Winter Park,1051,1051,1927 Aloma Avenue,FL,32792
Outback Steakhouse,Orlando,1052,1052,1301 Florida Mall Avenue,FL,32809
Outback Steakhouse,Palm Bay,1053,1053,4651 N.E. Babcock Street,FL,32905
Outback Steakhouse,Daytona Beach,1054,1054,1490 International Speedway,FL,32114
Outback Steakhouse,Kissimmee,1055,1055,3109 W. Vine Street,FL,34741
Outback Steakhouse,Merritt Island,1056,1056,"261 Merritt Sq Mall, 777 Merritt Is Cwy",FL,32952
Outback Steakhouse,Winter Springs,1057,1057,5891 Red Bug Lake Road,FL,32708
Outback Steakhouse,Ormond Beach,1058,1058,135 E. Granada Blvd.,FL,32176
Outback Steakhouse,Kissimmee,1059,1059,7804 W. Irlo Bronson Hwy.,FL,34747
Outback Steakhouse,Orlando,1060,1060,4845 S. Kirkman Rd.,FL,32811
Outback Steakhouse,Sanford,1061,1061,180 Hickman Drive,FL,32771
Outback Steakhouse,Vero Beach,1062,1062,1475 US Hwy. 1,FL,32960
Outback Steakhouse,Leesburg,1063,1063,9600 US highway 441,FL,34788
Outback Steakhouse,Clermont,1064,1064,1625 E Highway 50,FL,34711
Outback Steakhouse,New Smyrna Beach,1065,1065,429 3rd Ave.,FL,32169
Outback Steakhouse,Orlando,1066,1066,8195 Vineland Ave.,FL,32821
Outback Steakhouse,Orlando,1067,1067,9333 Airport Blvd.,FL,32827
Outback Steakhouse,Viera,1068,1068,6450 N. Wickham Rd.,FL,32940
Outback Steakhouse,St. Cloud,1069,1069,4037 13th Street,FL,34769
Outback Steakhouse,Boca Raton,1070,1070,6030 S.W. 18th St.,FL,33433
Outback Steakhouse,Plantation,1071,1071,1823 B. N. Pine Island,FL,33322
Outback Steakhouse,Coral Springs,1072,1072,650 Riverside Drive,FL,33071
Outback Steakhouse,West Palm Beach,1073,1073,871 Village Blvd.,FL,33409
Outback Steakhouse,Pembroke Pines,1074,1074,7841 Pines Blvd.,FL,33024
Outback Steakhouse,North Miami Beach,1075,1075,3161 N.E. 163rd Street,FL,33160
Outback Steakhouse,Jupiter,1076,1076,103 A-1 S. U.S. Hwy. 1,FL,33477
Outback Steakhouse,Miami,1077,1077,13145 S.W. 89th Place,FL,33176
Outback Steakhouse,Miami,1078,1078,8255 W. Flagler Street,FL,33144
Outback Steakhouse,Kendall,1079,1079,11800 Sherri Lane,FL,33183
Outback Steakhouse,Ft. Lauderdale,1080,1080,6201 N. Federal Hwy.,FL,33308
Outback Steakhouse,Naples,1081,1081,4910 Tamiami Trail N.,FL,34103
Outback Steakhouse,Delray Beach,1082,1082,1300 Linton Blvd.,FL,33444
Outback Steakhouse,Stuart,1083,1083,3101 S.E. Federal Hwy.,FL,34994
Outback Steakhouse,Ft. Lauderdale,1084,1084,1801 SE 10th Ave.,FL,33316
Outback Steakhouse,Lake Worth,1085,1085,6266 Lantana Road,FL,33463
Outback Steakhouse,Miami Lakes,1087,1087,15490 NW 77th Ct.,FL,33016
Outback Steakhouse,Islamorada,1088,1088,80001 Overseas Hwy,FL,33036
Outback Steakhouse,Key West,1089,1089,3230 N. Roosevelt Blvd.,FL,33040
Outback Steakhouse,Port St. Lucie,1091,1091,1950 NW Courtyard Circle,FL,34986
Outback Steakhouse,Davie,1092,1092,14830 Griffin Road,FL,33331
Outback Steakhouse,Palm Beach Gardens,1093,1093,10933 N. Military Trail,FL,33418
Outback Steakhouse,Royal Palm Beach,1095,1095,11101 Southern Blvd,FL,33411
Outback Steakhouse,Boca Raton,1096,1096,19595 State Rd 7,FL,33498
Outback Steakhouse,Oviedo,1097,1097,167 East Mitchell Hammock Rd.,FL,32765
Outback Steakhouse,Miami,1098,1098,5829 SW 73rd Street,FL,33143
Outback Steakhouse,Atlanta,1113,1113,2145 Lavista Road,GA,30329
Outback Steakhouse,Stone Mountain,1114,1114,1525 E. Park Place Blvd,GA,30087
Outback Steakhouse,Athens,1116,1116,3585 Atlanta Hwy.,GA,30606
Outback Steakhouse,Atlanta,1118,1118,3850 Roswell Road N.E.,GA,30342
Outback Steakhouse,Kennesaw,1119,1119,810 Ernest Barrett Pkwy NW,GA,30144
Outback Steakhouse,Douglasville,1120,1120,6331 Douglas Blvd.,GA,30135
Outback Steakhouse,Conyers,1121,1121,1188 Dogwood Drive,GA,30012
Outback Steakhouse,Suwanee,1122,1122,145 Gwinco Blvd.,GA,30024
Outback Steakhouse,Gainesville,1123,1123,655 Dawsonville Hwy.,GA,30501
Outback Steakhouse,Peachtree City,1124,1124,995 N. Peachtree Pkwy.,GA,30269
Outback Steakhouse,Canton,1125,1125,3 Reinhardt College Pkwy.,GA,30114
Outback Steakhouse,Roswell,1126,1126,655 Crossville Rd.,GA,30075
Outback Steakhouse,Dalton,1128,1128,955 Market St.,GA,30720
Outback Steakhouse,Cumming,1129,1129,1715 Market Place Blvd.,GA,30041
Outback Steakhouse,Columbus,1130,1130,5592 Whitesville Road,GA,31904
Outback Steakhouse,Augusta,1131,1131,2949 Washington Road,GA,30909
Outback Steakhouse,Macon,1132,1132,3899 Arkwright Road,GA,31210
Outback Steakhouse,Savannah,1133,1133,11196 Abercorn Expwy.,GA,31419
Outback Steakhouse,Albany,1134,1134,823 N. Westover Road,GA,31707
Outback Steakhouse,Valdosta,1135,1135,1824 Clubhouse Dr.,GA,31602
Outback Steakhouse,St. Simons Island,1136,1136,1609 Frederica Road,GA,31522
Outback Steakhouse,Warner Robins,1137,1137,3088 Watson Blvd.,GA,31093
Outback Steakhouse,Savannah,1138,1138,7 Drayton St.,GA,31401
Outback Steakhouse,Stockbridge,1170,1170,200 North Park Place,GA,30281
Outback Steakhouse,Rome,1171,1171,1404 Turner McCall Blvd.,GA,30161
Outback Steakhouse,Atlanta,1173,1173,1220 Ashford Crossing,GA,30346
Outback Steakhouse,Commerce,1174,1174,411 Pottery Factory Dr.,GA,30529
Outback Steakhouse,Johns Creek,1175,1175,"10955 Jones Bridge Rd, 120-124",GA,30022
Outback Steakhouse,Birmingham,1255,1255,281 Lakeshore Pkwy.,AL,35209
Outback Steakhouse,Hoover,1256,1256,1944 Hoover Ct.,AL,35216
Outback Steakhouse,Huntsville,1257,1257,4777 Whitesburg Dr.,AL,35802
Outback Steakhouse,Montgomery,1258,1258,1040 Eastern Blvd.,AL,36117
Outback Steakhouse,Mobile,1259,1259,901 Montlimar Drive,AL,36609
Outback Steakhouse,Birmingham,1260,1260,5231 Hwy. 280 S.,AL,35242
Outback Steakhouse,Tuscaloosa,1261,1261,5001 Oscar-Baxter Drive,AL,35405
Outback Steakhouse,Pensacola,1262,1262,601 Gregory Street,FL,32501
Outback Steakhouse,Opelika,1263,1263,2115 Pepperell Pkwy.,AL,36801
Outback Steakhouse,Dothan,1264,1264,2925 Ross Clark Circle,AL,36301
Outback Steakhouse,Birmingham,1265,1265,1725 Fulton Road,AL,35068
Outback Steakhouse,Oxford,1266,1266,196 Springbranch Dr.,AL,36203
Outback Steakhouse,Sheffield,1267,1267,4838 Hatch Ave.,AL,35660
Outback Steakhouse,Destin,1268,1268,34908 Emerald Coast Pkwy,FL,32541
Outback Steakhouse,Madison,1270,1270,7640 Highway 72 West,AL,35758
Outback Steakhouse,Prattville,1271,1271,1899 Sugar Exchange,AL,36066
Outback Steakhouse,Boise,1310,1310,7189 Overland Road,ID,83709
Outback Steakhouse,Idaho Falls,1311,1311,970 Lindsay Blvd.,ID,83402
Outback Steakhouse,Coeur d' Alene,1312,1312,1381 Northwood Center Ct.,ID,83814
Outback Steakhouse,Nampa,1313,1313,2011 W. Karcher Rd,ID,83651
Outback Steakhouse,Twin Falls,1314,1314,1965 Blue Lakes Blvd. N.,ID,83301
Outback Steakhouse,Calumet City,1410,1410,2005 River Oaks Drive,IL,60409
Outback Steakhouse,Buffalo Grove,1411,1411,720 W. Lake Cook Road,IL,60089
Outback Steakhouse,Schaumburg,1412,1412,216 E. Golf Road,IL,60173
Outback Steakhouse,Wheaton,1413,1413,50 E. Loop Road,IL,60187
Outback Steakhouse,Naperville,1414,1414,2855 W. Ogden Avenue,IL,60540
Outback Steakhouse,Bloomingdale,1415,1415,166 S. Gary Avenue,IL,60108
Outback Steakhouse,Orland Park,1416,1416,15608 Harlem Avenue,IL,60462
Outback Steakhouse,Villa Park,1417,1417,100-28 E. Roosevelt Road,IL,60181
Outback Steakhouse,Rockford,1418,1418,6007 E. State Street,IL,61108
Outback Steakhouse,Gurnee,1419,1419,5642 Northridge Drive,IL,60031
Outback Steakhouse,Skokie,1420,1420,5535 W. Touhy Avenue,IL,60077
Outback Steakhouse,Crystal Lake,1421,1421,4751 Northwest HWY,IL,60014
Outback Steakhouse,Chicago,1422,1422,8101 W. Higgins Road,IL,60631
Outback Steakhouse,South Elgin,1423,1423,365 Randall Road,IL,60177
Outback Steakhouse,Joliet,1424,1424,3241 Chicagoland Circle,IL,60431
Outback Steakhouse,Swansea,1450,1450,4390  N. Illinois Street,IL,62221
Outback Steakhouse,Champaign,1452,1452,2402 N. Prospect Avenue,IL,61821
Outback Steakhouse,Springfield,1453,1453,3201 Horizon Drive,IL,62703
Outback Steakhouse,Bloomington,1454,1454,1409 N. Veteran's Parkway,IL,61701
Outback Steakhouse,Indianapolis,1510,1510,5771 E. 86th Street,IN,46250
Outback Steakhouse,Indianapolis,1512,1512,7525 U.S. 31 S.,IN,46227
Outback Steakhouse,Indianapolis,1513,1513,3454 W. 86th Street,IN,46268
Outback Steakhouse,Terre Haute,1515,1515,3700 S. US Highway 41,IN,47802
Outback Steakhouse,Bloomington,1516,1516,3201 W. 3rd Street,IN,47404
Outback Steakhouse,Mishawaka,1517,1517,4611 Grape Road,IN,46545
Outback Steakhouse,Lafayette,1518,1518,3660 State Road 26,IN,47905
Outback Steakhouse,Evansville,1519,1519,7201 Indiana Street,IN,47715
Outback Steakhouse,Indianapolis,1520,1520,2315 Post Drive,IN,46219
Outback Steakhouse,Kokomo,1521,1521,3730 S. Reed Road,IN,46902
Outback Steakhouse,Muncie,1522,1522,3401 N. Granville Ave,IN,47303
Outback Steakhouse,Clarksville,1523,1523,1420 Park Place,IN,47129
Outback Steakhouse,Ft. Wayne,1525,1525,5455 Coventry Lane,IN,46804
Outback Steakhouse,Indianapolis,1526,1526,9140 Rockville Rd.,IN,46234
Outback Steakhouse,Merrillville,1550,1550,8117 Georgia Street,IN,46410
Outback Steakhouse,Cedar Rapids,1611,1611,3939 1st Ave. S.E.,IA,52401
Outback Steakhouse,Clive,1612,1612,10901 University Avenue,IA,50325
Outback Steakhouse,Davenport,1613,1613,1235 E. Kimberly Road,IA,52807
Outback Steakhouse,Sioux City,1614,1614,4500 Southern Hills Drive,IA,51106
Outback Steakhouse,Ankeny,1615,1615,2410 SE Tones Drive,IA,50021
Outback Steakhouse,Coralville,1616,1616,945 25th Ave.,IA,52241
Outback Steakhouse,Wichita,1711,1711,2020 N. Rock Road,KS,67206
Outback Steakhouse,Overland Park,1712,1712,9501 Quivira Drive,KS,66214
Outback Steakhouse,Topeka,1713,1713,5826 W. 21st Street,KS,66604
Outback Steakhouse,Wichita,1715,1715,233 S. Ridge Rd.,KS,67212
Outback Steakhouse,Olathe,1716,1716,15430 S. Rogers Rd.,KS,66062
Outback Steakhouse,Kansas City,1717,1717,1851 Village West Parkway,KS,66111
Outback Steakhouse,Erlanger,1801,1801,Terminal 3 (4th Floor),KY,41018
Outback Steakhouse,Ashland,1802,1802,441 Riverhill Drive,KY,41101
Outback Steakhouse,Louisville,1811,1811,4621 Shelbyville Road,KY,40207
Outback Steakhouse,Lexington,1812,1812,4001 Nicholasville Road,KY,40503
Outback Steakhouse,Louisville,1813,1813,6520 Signature Drive,KY,40213
Outback Steakhouse,Louisville,1814,1814,9498 Brownsboro Rd.,KY,40241
Outback Steakhouse,Louisville,1815,1815,8101 Bardstown Rd.,KY,40291
Outback Steakhouse,Paducah,1850,1850,3995 Hinkleville Road,KY,42001
Outback Steakhouse,Bowling Green,1851,1851,3260 Scottville Road,KY,42104
Outback Steakhouse,Crescent Springs,1893,1893,2301 Buttermilk Crossing,KY,41017
Outback Steakhouse,Richmond,1894,1894,400 Highland Park,KY,40475
Outback Steakhouse,Lexington,1895,1895,1957 Bryant Rd.,KY,40509
Outback Steakhouse,Baton Rouge,1901,1901,2415 S. Acadian Thruway,LA,70808
Outback Steakhouse,Baton Rouge,1902,1902,5280 Jones Creek Rd.,LA,70817
Outback Steakhouse,Gonzales,1903,1903,2637 S. Veteran's Blvd,LA,70737
Outback Steakhouse,Metairie,1911,1911,2746 Severn Ave.,LA,70002
Outback Steakhouse,Slidell,1912,1912,830 E. I-10 Service Rd.,LA,70461
Outback Steakhouse,Marrero,1913,1913,1601 Barataria Blvd.,LA,70072
Outback Steakhouse,Covington,1914,1914,60 Park Place Dr.,LA,70433
Outback Steakhouse,Lafayette,1921,1921,1600 W. Pinhook Road,LA,70508
Outback Steakhouse,Shreveport,1931,1931,8825 Line Ave.,LA,71106
Outback Steakhouse,Lake Charles,1941,1941,2616 Derek Drive,LA,70605
Outback Steakhouse,West Monroe,1951,1951,305 W Constitution Dr,LA,71292
Outback Steakhouse,Bossier City,1961,1961,2715 Village Lane,LA,71112
Outback Steakhouse,Alexandria,1971,1971,3217 S. McArthur Dr,LA,71303
Outback Steakhouse,Houma,1981,1981,1561 Martin Luther King Blvd.,LA,70360
Outback Steakhouse,Venice,2010,2010,4220 S. Tamiami Trail,FL,34293
Outback Steakhouse,Sebring,2011,2011,921 US 27 N,FL,33870
Outback Steakhouse,Bonita Springs,2012,2012,27230 Bay Landing Drive,FL,34135
Outback Steakhouse,Plant City,2014,2014,1203 Townsgate Court,FL,33566
Outback Steakhouse,Inverness,2015,2015,2225 Hwy. 44 West,FL,34453
Outback Steakhouse,St. Petersburg,2016,2016,1900 4th Street North,FL,33704
Outback Steakhouse,Tampa,2017,2017,11950 Sheldon Rd.,FL,33626
Outback Steakhouse,Lithia,2019,2019,16547 Fishhawk Blvd.,FL,33547
Outback Steakhouse,Bradenton,2020,2020,4510 East State Rd 64,FL,34208
Outback Steakhouse,The Villages,2021,2021,710 N. Hwy 441,FL,32159
Outback Steakhouse,Trinity,2022,2022,10860 State Rd 54,FL,34655
Outback Steakhouse,Ocala,2023,2023,4899 E. Silver Springs Blvd.,FL,34470
Outback Steakhouse,Lakeland,2024,2024,4208 US 98 North,FL,33809
Outback Steakhouse,Ft. Myers,2025,2025,10045 Gulf Center Dr.,FL,33913
Outback Steakhouse,Germantown,2130,2130,12609 Wisteria Drive,MD,20874
Outback Steakhouse,Annapolis,2131,2131,2207 Forest Drive,MD,21401
Outback Steakhouse,Frederick,2133,2133,1007 W. Patrick Street,MD,21702
Outback Steakhouse,Waldorf,2134,2134,3020 Crain Hwy.,MD,20601
Outback Steakhouse,Bowie,2135,2135,6868 Race Track Road,MD,20715
Outback Steakhouse,Bel Air,2136,2136,615 Bel Air,MD,21014
Outback Steakhouse,Baltimore,2137,2137,4215 Ebenezer Road,MD,21236
Outback Steakhouse,Ocean City,2138,2138,12741 Ocean Gateway,MD,21842
Outback Steakhouse,Ellicott City,2139,2139,4420 Long Gate Parkway,MD,21043
Outback Steakhouse,Silver Spring,2140,2140,13703 Georgia Avenue,MD,20906
Outback Steakhouse,Hunt Valley,2141,2141,134 Shawan Rd.,MD,21031
Outback Steakhouse,California,2142,2142,23415 Three Notch Road,MD,20619
Outback Steakhouse,Oxon Hill,2143,2143,6019 Oxon Hill Rd.,MD,20745
Outback Steakhouse,Largo,2144,2144,9660 Lottsford Court,MD,20774
Outback Steakhouse,Hyattsville,2145,2145,3500 E. West Hwy.,MD,20782
Outback Steakhouse,Hagerstown,2146,2146,240 Railway Lane,MD,21740
Outback Steakhouse,Glen Burnie,2147,2147,7744 Governor Ritchie Hwy.,MD,21061
Outback Steakhouse,Baltimore,2148,2148,2400 Boston St.,MD,21224
Outback Steakhouse,Salisbury,2149,2149,8245 A Dickerson Ln.,MD,21804
Outback Steakhouse,Owings Mills,2150,2150,10904 Boulevard Circle,MD,21117
Outback Steakhouse,La Plata,2151,2151,6649 Crain Highway,MD,20646
Outback Steakhouse,Laurel,2152,2152,15107 Sweitzer Lane,MD,20707
Outback Steakhouse,Prince Frederick,2153,2153,80 Central Square Drive,MD,20678
Outback Steakhouse,Peabody,2210,2210,300 Andover Street,MA,1960
Outback Steakhouse,Burlington,2211,2211,34 Cambridge Street,MA,1803
Outback Steakhouse,Tyngsboro,2212,2212,440 Middlesex Road,MA,1879
Outback Steakhouse,Randolph,2213,2213,45 Mazzeo Drive,MA,2368
Outback Steakhouse,Seekonk,2214,2214,1301 Fall River Avenue,MA,2771
Outback Steakhouse,Westborough,2215,2215,227 Turnpike Road,MA,1581
Outback Steakhouse,Bellingham,2216,2216,275 N. Main St.,MA,2019
Outback Steakhouse,Methuen,2217,2217,145-i47 Pelham Street,MA,1844
Outback Steakhouse,W. Springfield,2218,2218,1537 Riverdale St.,MA,1089
Outback Steakhouse,Norwood,2219,2219,1212 Providence Hwy.,MA,2062
Outback Steakhouse,Hyannis,2220,2220,1070 Iyannough Rd. (Route 132),MA,2601
Outback Steakhouse,Hanover,2221,2221,1775 Washington St.,MA,2339
Outback Steakhouse,Leominster,2223,2223,865 Merriam Ave.,MA,1453
Outback Steakhouse,Lowell,2225,2225,28 Reiss Ave.,MA,1851
Outback Steakhouse,Auburn,2227,2227,771 Southbridge Street,MA,1501
Outback Steakhouse,Canton,2310,2310,42871 Ford Road,MI,48187
Outback Steakhouse,West Bloomfield,2311,2311,6203 Orchard Lake Rd.,MI,48322
Outback Steakhouse,Shelby Township,2312,2312,45170 Schoenherr Rd.,MI,48315
Outback Steakhouse,Lansing,2313,2313,707 Brookside,MI,48917
Outback Steakhouse,Southgate,2314,2314,15765 Eureka Road,MI,48195-2623
Outback Steakhouse,Kentwood,2315,2315,3650 28th St. SE,MI,49512
Outback Steakhouse,Ann Arbor,2316,2316,3173 Oak Valley Drive,MI,48103
Outback Steakhouse,Roseville,2317,2317,28850 Gratiot Avenue,MI,48066
Outback Steakhouse,Livonia,2318,2318,29441 5 Mile Road,MI,48154
Outback Steakhouse,Saginaw,2319,2319,2468 Tittabawassee Rd.,MI,48604
Outback Steakhouse,Madison Heights,2320,2320,1515 W. 14 Mile Rd.,MI,48071
Outback Steakhouse,Jackson,2321,2321,1501 Boardman Rd.,MI,49202
Outback Steakhouse,Kalamazoo,2322,2322,4320 Westnedge,MI,49008
Outback Steakhouse,Grand Rapids,2323,2323,3475 Alpine NW,MI,49544
Outback Steakhouse,Flint,2324,2324,4270 Miller Road,MI,48507
Outback Steakhouse,Clarkston,2325,2325,6435 Dixie Hwy.,MI,48346
Outback Steakhouse,Brighton,2326,2326,7873 Conference Center Drive,MI,48116
Outback Steakhouse,Traverse City,2327,2327,3501 Marketplace Circle,MI,49684
Outback Steakhouse,Chesterfield Township,2328,2328,27953 23 Mile Rd,MI,48051
Outback Steakhouse,Grandville,2329,2329,3333 Century Center St. SW,MI,49418
Outback Steakhouse,Southfield,2330,2330,23501 Greenfield Road,MI,48075
Outback Steakhouse,Novi,2331,2331,48020 Grand River,MI,48374
Outback Steakhouse,Rochester,2332,2332,1880 South Rochester Rd.,MI,48307
Outback Steakhouse,Okemos,2333,2333,4880 Marsh Road,MI,48864
Outback Steakhouse,Roseville,2410,2410,2181 Snelling Avenue N.,MN,55113
Outback Steakhouse,Coon Rapids,2411,2411,8880 Springbrook Drive,MN,55433
Outback Steakhouse,Maplewood,2412,2412,1770 Beam Avenue,MN,55109
Outback Steakhouse,Burnsville,2413,2413,2034 W. County Road 42,MN,55337
Outback Steakhouse,Rochester,2414,2414,1201 S. Broadway,MN,55904
Outback Steakhouse,Inver Grove Heights,2415,2415,5723 Bishop Ave,MN,55076
Outback Steakhouse,Bloomington,2417,2417,1321 E. 78th St.,MN,55425
Outback Steakhouse,Woodbury,2419,2419,10150 Hudson Road,MN,55129
Outback Steakhouse,Hermantown,2420,2420,4255 Haines Road,MN,55811
Outback Steakhouse,Jackson,2510,2510,6030 I-55 N.,MS,39211
Outback Steakhouse,Jackson,2512,2512,194 Stonebrook Place,TN,38305
Outback Steakhouse,Cordova,2514,2514,1110 N. Germantown Pkwy,TN,38016
Outback Steakhouse,Tupelo,2515,2515,1348 N. Gloster Street,MS,38801
Outback Steakhouse,Hattiesburg,2516,2516,103 Carlisle Drive,MS,39402
Outback Steakhouse,Meridian,2517,2517,111 S. Frontage Rd.,MS,39301
Outback Steakhouse,Southaven,2518,2518,"125 Goodman Rd. W., Suite A",MS,38671
Outback Steakhouse,D'Iberville,2520,2520,3586 Sangani Blvd.,MS,39540
Outback Steakhouse,Ellisville,2611,2611,15412 Manchester Road,MO,63011
Outback Steakhouse,St. Charles,2612,2612,1620 Country Club Plaza Dr.,MO,63303
Outback Steakhouse,Columbia,2614,2614,1110 SW I-70 Dr.,MO,65203
Outback Steakhouse,Cape Girardeau,2615,2615,101 Cape West Parkway,MO,63701
Outback Steakhouse,Springfield,2616,2616,3760 S Glenstone Ave,MO,65804
Outback Steakhouse,Hazelwood,2617,2617,7900 N. Lindbergh Blvd.,MO,63042
Outback Steakhouse,St. Louis,2618,2618,5240 South Lindbergh,MO,63126
Outback Steakhouse,Joplin,2619,2619,3110 E. 36th St.,MO,64804
Outback Steakhouse,Osage Beach,2620,2620,3930 Hwy. 54,MO,65065
Outback Steakhouse,O'Fallon,2621,2621,4002 Winghaven Blvd.,MO,63366
Outback Steakhouse,Kansas City,2651,2651,7006 NW Barry Road,MO,64153
Outback Steakhouse,Lee's Summit,2652,2652,1731 NE Douglas St.,MO,64086
Outback Steakhouse,Independence,2654,2654,20000 E. Valley View Pkwy.,MO,64057
Outback Steakhouse,Billings,2710,2710,2001 Overland Ave.,MT,59102
Outback Steakhouse,Missoula,2711,2711,2415 N. Reserve,MT,59808
Outback Steakhouse,Bozeman,2712,2712,6059 East Valley Center Road,MT,59715
Outback Steakhouse,Omaha,2810,2810,7605 Cass Street,NE,68114
Outback Steakhouse,Omaha,2811,2811,2414 S. 132nd Street,NE,68144
Outback Steakhouse,Lincoln,2812,2812,633 N. 48th Street,NE,68504
Outback Steakhouse,Bellevue,2813,2813,10408 S. 15th St.,NE,68123
Outback Steakhouse,Bedford,2910,2910,95 S. River Road,NH,3110
Outback Steakhouse,Newington,2911,2911,2064 Woodbury Ave. (Suite 101),NH,3801
Outback Steakhouse,Concord,2912,2912,22 Loudon Rd.,NH,3301
Outback Steakhouse,S. Burlington,3061,3061,150 Dorset Street,VT,5403
Outback Steakhouse,Cherry Hill,3110,3110,230 Lake Drive E.,NJ,8002
Outback Steakhouse,Wayne,3111,3111,191 Berdan Avenue,NJ,7470
Outback Steakhouse,Edison,3112,3112,481 US Hwy. 1,NJ,8817
Outback Steakhouse,Rochelle Park,3113,3113,194 N. Route 17,NJ,7662
Outback Steakhouse,Old Bridge,3114,3114,"1397 US Route 9, Junction Route 9 & 34",NJ,8857
Outback Steakhouse,Brick,3115,3115,2770 Hooper Ave.,NJ,8723
Outback Steakhouse,Turnersville,3116,3116,4600 Route 42,NJ,8012
Outback Steakhouse,Green Brook,3117,3117,98 US Hwy. 22 W.,NJ,8812
Outback Steakhouse,Egg Harbor Township,3118,3118,6731 Black Horse Pike,NJ,8234
Outback Steakhouse,Middletown,3119,3119,Hwy. 35 & Woodland Dr.,NJ,7748
Outback Steakhouse,Hamilton,3120,3120,740 US Highway 130,NJ,8691
Outback Steakhouse,Deptford,3121,3121,1709 Deptford Center Rd. #200,NJ,8096
Outback Steakhouse,Marlton,3122,3122,901 Route 73 South,NJ,8053
Outback Steakhouse,Edgewater,3150,3150,539 River Road,NJ,7020
Outback Steakhouse,Springfield,3151,3151,901 Mountain Avenue,NJ,7081
Outback Steakhouse,Ledgewood,3152,3152,1070 Route 46,NJ,7852
Outback Steakhouse,Parsippany,3153,3153,1300 Route 46W,NJ,7054
Outback Steakhouse,Secaucus,3155,3155,455 Harmon Meadow Blvd.,NJ,7094
Outback Steakhouse,Butler,3156,3156,1538 Route 23 North,NJ,7405
Outback Steakhouse,Las Vegas,3211,3211,4141 S. Pecos Road,NV,89121
Outback Steakhouse,Las Vegas,3212,3212,1950 N. Rainbow Blvd.,NV,89108
Outback Steakhouse,Henderson,3213,3213,4423 E. Sunset Road,NV,89014
Outback Steakhouse,Las Vegas,3214,3214,8671 W. Sahara Avenue,NV,89117
Outback Steakhouse,Reno,3215,3215,3645 S. Virginia Street,NV,89502
Outback Steakhouse,Sparks,3216,3216,1805 E. Lincoln Way,NV,89434
Outback Steakhouse,N. Las Vegas,3217,3217,2625 Craig Road,NV,89032
Outback Steakhouse,Las Vegas,3218,3218,3411 S Las Vegas Blvd.,NV,89109
Outback Steakhouse,Laughlin,3219,3219,1900 S. Casino Dr,NV,89029
Outback Steakhouse,Las Vegas,3220,3220,7380 S. Las Vegas Blvd.,NV,89123
Outback Steakhouse,Las Vegas,3222,3222,"3785 Las Vegas Blvd, 4th Fl",NV,89109
Outback Steakhouse,White Plains,3301,3301,60 S. Broadway,NY,10601
Outback Steakhouse,Merrick,3302,3302,2124 Merrick Mall,NY,11566
Outback Steakhouse,Lindenhurst,3303,3303,612 N Wellwood Ave,NY,11757
Outback Steakhouse,E. Setauket,3304,3304,5040 Nesconset Hwy,NY,11733
Outback Steakhouse,Westbury,3305,3305,1067 Old Country Road,NY,11590
Outback Steakhouse,Island Park,3306,3306,3939 Long Beach Road,NY,11558
Outback Steakhouse,Huntington,3307,3307,839 New York Ave.,NY,11743
Outback Steakhouse,Suffern,3308,3308,30 Indian Rock Route 59,NY,10901
Outback Steakhouse,Commack,3309,3309,216 Jericho Turnpike,NY,11725
Outback Steakhouse,W. Nyack,3310,3310,4242 Palisades Center,NY,10994
Outback Steakhouse,Holbrook,3311,3311,325 Main Street,NY,11741
Outback Steakhouse,Yonkers,3312,3312,1703 Central Park Ave.,NY,10710
Outback Steakhouse,Monroe,3313,3313,215 Larkin Drive,NY,10950
Outback Steakhouse,Bayside,3330,3330,23-48 Bell Blvd.,NY,11360
Outback Steakhouse,Brooklyn,3331,3331,1475 86th St.,NY,11228
Outback Steakhouse,Elmhurst,3332,3332,88-01 Queens Blvd.,NY,11373
Outback Steakhouse,New York,3333,3333,919 Third Ave. / 56th St.,NY,10022
Outback Steakhouse,New York,3334,3334,60 W. 23rd Street,NY,10010
Outback Steakhouse,Staten Island,3335,3335,280 Marsh Ave.,NY,10314
Outback Steakhouse,Amherst,3350,3350,1551 Niagara Falls Blvd.,NY,14228
Outback Steakhouse,Colonie,3351,3351,145 Wolf Road,NY,12205
Outback Steakhouse,Vestal,3352,3352,3140 Vestal Pkwy. E.,NY,13850
Outback Steakhouse,Henrietta,3353,3353,1180 Jefferson Road,NY,14623
Outback Steakhouse,Wappingers Falls,3354,3354,1510 Route 9,NY,12590
Outback Steakhouse,Blasdell,3355,3355,S. 3670 McKinley Pkwy.,NY,14219
Outback Steakhouse,Rochester,3356,3356,1954 W. Ridge Road,NY,14626
Outback Steakhouse,Dewitt,3357,3357,3112 Erie Blvd. E.,NY,13214
Outback Steakhouse,Walkill,3358,3358,25 Crystal Run Crossing,NY,10941
Outback Steakhouse,Horseheads,3359,3359,200 Colonial Dr.,NY,14845
Outback Steakhouse,Clifton Park,3360,3360,610 Old Rt. 146,NY,12065
Outback Steakhouse,New Hartford,3361,3361,8655 Clinton Street,NY,13413
Outback Steakhouse,Liverpool,3362,3362,3946 State Rte. 31,NY,13090
Outback Steakhouse,Queensbury,3363,3363,925 State Rt 9,NY,12804
Outback Steakhouse,Nags Head,3402,3402,5220 S. Croatan Hwy.,NC,27959
Outback Steakhouse,Charlotte,3430,3430,1412-A East Blvd. Suite A,NC,28203
Outback Steakhouse,Matthews,3431,3431,9623 E. Independence Blvd.,NC,28105
Outback Steakhouse,Charlotte,3432,3432,1015 Chancellor Park Dr.,NC,28213
Outback Steakhouse,Raleigh,3440,3440,7500 Creedmoor Road,NC,27613
Outback Steakhouse,Asheville,3441,3441,30 Tunnel Road,NC,28805
Outback Steakhouse,Greensboro,3442,3442,1611 Westover Terrace,NC,27408
Outback Steakhouse,Cary,3443,3443,1289 Kildaire Farm Road,NC,27511
Outback Steakhouse,Wilmington,3444,3444,302 S. College Road,NC,28403
Outback Steakhouse,Fayetteville,3445,3445,505 N. McPherson Church Road,NC,28303
Outback Steakhouse,Durham,3446,3446,3500 Mount Moriah Road,NC,27707
Outback Steakhouse,Winston-Salem,3447,3447,505 Highland Oaks Dr.,NC,27103
Outback Steakhouse,Gastonia,3448,3448,501 N. New Hope Road,NC,28054
Outback Steakhouse,Hickory,3449,3449,1435 13th Ave. Dr. SE,NC,28602
Outback Steakhouse,Greenville,3450,3450,606 Greenville Blvd. SW,NC,27834
Outback Steakhouse,High Point,3451,3451,260 E. Parris Ave.,NC,27262
Outback Steakhouse,Southern Pines,3452,3452,100 Southern Road,NC,28387
Outback Steakhouse,Rocky Mount,3453,3453,210 Gateway Blvd.,NC,27804
Outback Steakhouse,Huntersville,3454,3454,16400 Northcross Dr.,NC,28078
Outback Steakhouse,Burlington,3455,3455,2735 Longpine Road,NC,27215
Outback Steakhouse,Goldsboro,3456,3456,2617 North Park Drive,NC,27534
Outback Steakhouse,Jacksonville,3457,3457,1045 Western Blvd,NC,28546
Outback Steakhouse,Blowing Rock,3458,3458,8280 Valley Blvd.,NC,28605
Outback Steakhouse,Raleigh,3459,3459,3105 Capital Blvd.,NC,27604
Outback Steakhouse,Hendersonville,3460,3460,250 Mitchelle Drive,NC,28792
Outback Steakhouse,Salisbury,3461,3461,1020 East Innes Street,NC,28144
Outback Steakhouse,New Bern,3462,3462,111 Howell Rd.,NC,28560
Outback Steakhouse,Charlotte,3463,3463,8338 Pineville-Matthews Rd.,NC,28226
Outback Steakhouse,Lumberton,3464,3464,223 Wintergreen Dr.,NC,28358
Outback Steakhouse,Greensboro,3465,3465,2105 Four Seasons Blvd,NC,27407
Outback Steakhouse,Morehead City,3466,3466,4937 Arendell St.,NC,28557
Outback Steakhouse,Garner,3467,3467,845 US Highway 70 West,NC,27529
Outback Steakhouse,Smithfield,3468,3468,911 Industrial Park Dr.,NC,27577
Outback Steakhouse,Statesville,3469,3469,979 Folger Drive,NC,28625
Outback Steakhouse,St. Clairsville,3601,3601,50575 Valley Frontage Road,OH,43950
Outback Steakhouse,Toledo,3620,3620,5200 Monroe Street,OH,43623
Outback Steakhouse,Maumee,3621,3621,401 W. Dussel Rd.,OH,43537
Outback Steakhouse,Perkins Township,3622,3622,4920 Milan Rd.,OH,44870
Outback Steakhouse,Lyndhurst,3630,3630,5708 Mayfield Road,OH,44124
Outback Steakhouse,Akron,3631,3631,110 Montrose W. Ave.,OH,44321
Outback Steakhouse,Boardman,3632,3632,7000 Tiffany S. Blvd.,OH,44512
Outback Steakhouse,Parma,3633,3633,6950 Ridge Road,OH,44129
Outback Steakhouse,Canton,3634,3634,4303 Whipple Ave. NW,OH,44718
Outback Steakhouse,Westlake,3635,3635,24900 Sperry Drive,OH,44145
Outback Steakhouse,Mansfield,3636,3636,820 N. Lexington Sprgmill Rd.,OH,44906
Outback Steakhouse,Macedonia,3637,3637,8250 Macedonia Commons Blvd.,OH,44056
Outback Steakhouse,Niles,3638,3638,"5555 Youngstown-Warren Rd., Unit 40",OH,44446
Outback Steakhouse,Cuyahoga Falls,3639,3639,738 Howe Avenue,OH,44221
Outback Steakhouse,Mentor,3640,3640,8595 Market St.,OH,44060
Outback Steakhouse,Independence,3641,3641,6100 Rockside Place,OH,44131
Outback Steakhouse,Cincinnati,3651,3651,11790 Springfield Pike,OH,45246
Outback Steakhouse,Cincinnati,3652,3652,8240 Montgomery Road,OH,45236
Outback Steakhouse,Cincinnati,3654,3654,7731 Five Mile Road,OH,45230
Outback Steakhouse,Cincinnati,3655,3655,9880 Colerain Avenue,OH,45251
Outback Steakhouse,Columbus,3656,3656,6000 E. Main Street,OH,43213
Outback Steakhouse,Centerville,3657,3657,"101 E. Alex Bell Road, #124",OH,45459
Outback Steakhouse,Dayton,3658,3658,6800 Miller Lane,OH,45414
Outback Steakhouse,Columbus,3660,3660,1735 Hilliard - Rome Rd,OH,43026
Outback Steakhouse,Columbus,3661,3661,2704 Bethel Rd,OH,43220
Outback Steakhouse,Findlay,3662,3662,930 Interstate Drive,OH,45840
Outback Steakhouse,Mason,3663,3663,2512 Kings Center Ct.,OH,45040
Outback Steakhouse,Cincinnati,3664,3664,6168 Glenway Avenue,OH,45211
Outback Steakhouse,Troy,3665,3665,1801 Towne Park Dr.,OH,45373
Outback Steakhouse,Oklahoma City,3711,3711,"2219 S.W. 74th, Ste. 100",OK,73159
Outback Steakhouse,Edmond,3713,3713,3600 S. Broadway,OK,73013
Outback Steakhouse,Oklahoma City,3714,3714,4144 NW Expressway,OK,73116
Outback Steakhouse,Norman,3715,3715,860 N. Interstate Drive,OK,73072
Outback Steakhouse,Lawton,3716,3716,7206 NW Cache Rd.,OK,73505
Outback Steakhouse,Tulsa,3721,3721,9006 E. 71st Street,OK,74133
Outback Steakhouse,Tulsa,3722,3722,4723 South Yale Ave.,OK,74135
Outback Steakhouse,Tulsa,3723,3723,9710 Riverside Drive,OK,74137
Outback Steakhouse,Salem,3810,3810,"2285 Lancaster Dr., NE",OR,97305
Outback Steakhouse,Portland,3811,3811,11146 SW Barnes Road,OR,97225
Outback Steakhouse,Medford,3812,3812,3613 Crater Lake Highway,OR,97504
Outback Steakhouse,Portland,3813,3813,9500 SE 82nd Ave.,OR,97266
Outback Steakhouse,Tualatin,3814,3814,8665 SW Tualatin-Sherwood Rd.,OR,97062
Outback Steakhouse,Gresham,3815,3815,2424 SE Burnside Rd.,OR,97080
Outback Steakhouse,Bend,3816,3816,1180 SE 3rd St.,OR,97702
Outback Steakhouse,Springfield,3817,3817,3463 Hutton St.,OR,97477
Outback Steakhouse,Jenkintown,3910,3910,610 Old York Road,PA,19046
Outback Steakhouse,Allentown,3911,3911,3100 W. Tilghman St.,PA,18104
Outback Steakhouse,Springfield,3912,3912,1162 Baltimore Pike,PA,19064
Outback Steakhouse,Glen Mills,3913,3913,561 Glen Eagle Square,PA,19342
Outback Steakhouse,Bensalem,3914,3914,3240 Tillman Drive,PA,19020
Outback Steakhouse,Harrisburg,3915,3915,3527 Union Deposit Rd.,PA,17109
Outback Steakhouse,Conshohocken,3916,3916,322 Ridge Pike,PA,19428
Outback Steakhouse,Lancaster,3917,3917,100 N. Pointe Blvd.,PA,17601
Outback Steakhouse,Frazer,3918,3918,675 Lancaster Ave.,PA,19355
Outback Steakhouse,Wyomissing,3919,3919,1101 Woodland Rd.,PA,19610
Outback Steakhouse,Wayne,3920,3920,299 E. Swedesford (Gateway Shopping Ctr),PA,19087
Outback Steakhouse,Mechanicsburg,3921,3921,25 Gateway Drive,PA,17055
Outback Steakhouse,Montgomeryville,3922,3922,411 Doylestown Pike,PA,18936
Outback Steakhouse,Wilkes-Barre,3923,3923,547 Arena Hub Plaza,PA,18702
Outback Steakhouse,York,3924,3924,2496 E. Market Street,PA,17402
Outback Steakhouse,Jamison,3925,3925,2520 York Rd.,PA,18929
Outback Steakhouse,Bethlehem,3926,3926,3200 Emrick Blvd.,PA,18020
Outback Steakhouse,Royersford,3927,3927,22 Anchor Parkway,PA,19468
Outback Steakhouse,Pittsburgh,3950,3950,25 McMurray Road,PA,15241
Outback Steakhouse,Pittsburgh,3951,3951,9395 McKnight Rd.,PA,15237
Outback Steakhouse,Altoona,3952,3952,100 Sheraton Dr.,PA,16602
Outback Steakhouse,Monroeville,3953,3953,3000 Mosside Blvd.,PA,15146
Outback Steakhouse,Moon Township,3954,3954,1400 Marketplace Blvd.,PA,15108
Outback Steakhouse,Erie,3956,3956,2076 Interchange Rd. Mill Creek Pavilion,PA,16565
Outback Steakhouse,State College,3957,3957,1905 Waddle Rd.,PA,16803
Outback Steakhouse,Washington,3959,3959,460 Washington Road,PA,15301
Outback Steakhouse,E. Greenwich,4010,4010,1000 Division St.,RI,2818
Outback Steakhouse,Greenville,4110,4110,21 Orchard Park Drive,SC,29615
Outback Steakhouse,Columbia,4111,4111,252 F. Harbison Blvd.,SC,29212
Outback Steakhouse,Myrtle Beach,4112,4112,7025 N. Kings Hwy.,SC,29577
Outback Steakhouse,Charleston,4113,4113,1890 Sam Rittenberg Blvd.,SC,29407
Outback Steakhouse,N. Charleston,4114,4114,7643 Rivers Avenue,SC,29406
Outback Steakhouse,Murrells Inlet,4115,4115,3270 Hwy. 17 S.,SC,29576
Outback Steakhouse,Spartanburg,4116,4116,1646 J.B. White SR Blvd.,SC,29301
Outback Steakhouse,Anderson,4117,4117,110 Interstate Blvd.,SC,29621
Outback Steakhouse,Columbia,4118,4118,7611 Two Notch Road,SC,29223
Outback Steakhouse,Florence,4119,4119,110 Dunbarton Drive,SC,29501
Outback Steakhouse,Rock Hill,4120,4120,1319 River Run Court,SC,29732
Outback Steakhouse,Hilton Head,4121,4121,20 Hatton Place,SC,29926
Outback Steakhouse,Greenwood,4122,4122,454 Bypass 72 N.W.,SC,29649
Outback Steakhouse,N. Myrtle Beach,4123,4123,1721 Hwy. 17 N.,SC,29582
Outback Steakhouse,Sumter,4124,4124,2480 Broad St.,SC,29151
Outback Steakhouse,Mt. Pleasant,4125,4125,715 Johnnie Dodds Blvd.,SC,29464
Outback Steakhouse,Beaufort,4126,4126,2113 Boundary Street,SC,29902
Outback Steakhouse,Gaffney,4127,4127,945 Factory Shops Blvd.,SC,29341
Outback Steakhouse,Easley,4128,4128,125 Southern Center Way,SC,29642
Outback Steakhouse,Myrtle Beach,4129,4129,4650 Factory Stores Blvd.,SC,29579
Outback Steakhouse,Bluffton,4130,4130,100 Buckwalter Pkwy,SC,29910
Outback Steakhouse,Aiken,4150,4150,160 Aiken Mall Rd.,SC,29801
Outback Steakhouse,Sioux Falls,4210,4210,2411 S. Carolyn Ave.,SD,57106
Outback Steakhouse,Rapid City,4211,4211,665 E. Disk Dr.,SD,57701
Outback Steakhouse,Memphis,4301,4301,2255 Union Ave.,TN,38104
Outback Steakhouse,Nashville,4310,4310,3212 West End Avenue,TN,37203
Outback Steakhouse,Chattanooga,4311,4311,2120 Hamilton Place Blvd.,TN,37421
Outback Steakhouse,Brentwood,4312,4312,8005 Moores Lane,TN,37027
Outback Steakhouse,Madison,4313,4313,1560 Gallatin Pike N.,TN,37115
Outback Steakhouse,Knoxville,4314,4314,330 N. Peters Road,TN,37922
Outback Steakhouse,Johnson City,4315,4315,3101 Browns Mill Road,TN,37601
Outback Steakhouse,Knoxville,4317,4317,314 A Merchants Drive,TN,37912
Outback Steakhouse,Cookeville,4318,4318,1390 Interstate Drive,TN,38501
Outback Steakhouse,Clarksville,4319,4319,2790 Wilma Rudolph Blvd.,TN,37040
Outback Steakhouse,Murfreesboro,4320,4320,1968 Old Ft. Pkwy.,TN,37129
Outback Steakhouse,Chattanooga,4321,4321,501-A Northgate Mall,TN,37415
Outback Steakhouse,Hermitage,4323,4323,5582 Old Hickory Blvd.,TN,37076
Outback Steakhouse,Lebanon,4324,4324,1125 Franklin Rd.,TN,37090
Outback Steakhouse,Knoxville,4325,4325,7400 Sawyer Lane,TN,37924
Outback Steakhouse,Oak Ridge,4326,4326,402 S. Illinois Ave.,TN,37830
Outback Steakhouse,Sevierville,4327,4327,611 Parkway,TN,37862
Outback Steakhouse,Cleveland,4350,4350,536 Paul Huff Pkwy.,TN,37312
Outback Steakhouse,Humble,4410,4410,9753 FM 1960 Bypass,TX,77338
Outback Steakhouse,Houston,4411,4411,5710 FM 1960 W.,TX,77069
Outback Steakhouse,Webster,4412,4412,481 W. Bay Area Blvd.,TX,77598
Outback Steakhouse,Houston,4413,4413,10001 Westheimer Rd,TX,77042
Outback Steakhouse,Conroe,4414,4414,808 Interstate 45 N.,TX,77301
Outback Steakhouse,Houston,4415,4415,4 FM 1960 W.,TX,77090
Outback Steakhouse,Katy,4416,4416,20455 Katy Freeway,TX,77450
Outback Steakhouse,San Antonio,4417,4417,16080 San Pedro Avenue,TX,78232
Outback Steakhouse,College Station,4418,4418,2102 S. Texas Ave.,TX,77840
Outback Steakhouse,Sugar Land,4420,4420,15253 S.W. Freeway,TX,77478
Outback Steakhouse,Austin,4422,4422,11600 Research Blvd.,TX,78759
Outback Steakhouse,San Antonio,4423,4423,12511 I-10 W.,TX,78230
Outback Steakhouse,Beaumont,4424,4424,2060 IH-10 S.,TX,77707
Outback Steakhouse,Corpus Christi,4425,4425,4221 S. Padre Island Dr.,TX,78411
Outback Steakhouse,San Antonio,4426,4426,5552 NW Loop 410,TX,78238
Outback Steakhouse,Houston,4427,4427,8731 West Loop South 610,TX,77096
Outback Steakhouse,Houston,4428,4428,12130 Dickinson Road,TX,77089
Outback Steakhouse,San Marcos,4429,4429,4205 I-H 35 S.,TX,78666
Outback Steakhouse,Baytown,4430,4430,5218 I-10 East,TX,77521
Outback Steakhouse,McAllen,4432,4432,1109 East Business 83,TX,78501
Outback Steakhouse,Lufkin,4433,4433,2206 S. First St.,TX,75904
Outback Steakhouse,Shenandoah,4434,4434,18326 I-45 South,TX,77384
Outback Steakhouse,Houston,4435,4435,7070 Highway 6 N.,TX,77095
Outback Steakhouse,Round Rock,4441,4441,1651 I-35 S.,TX,78664
Outback Steakhouse,Selma,4442,4442,8131 Agora Parkway,TX,78154
Outback Steakhouse,Austin,4443,4443,4211 South Lamar Blvd.,TX,78704
Outback Steakhouse,Fort Worth,4451,4451,4608 Bryant Irvin Road,TX,76132
Outback Steakhouse,Hurst,4452,4452,701 Airport Freeway,TX,76053
Outback Steakhouse,Irving,4453,4453,3510 W. Airport Freeway,TX,75062
Outback Steakhouse,Mesquite,4454,4454,3903 Towne Crossing Blvd.,TX,75150
Outback Steakhouse,Grapevine,4455,4455,1031 State Hwy. 114 W.,TX,76051
Outback Steakhouse,Dallas,4456,4456,9049 Vantage Point Drive,TX,75243
Outback Steakhouse,Plano,4457,4457,1509 N. Central Exp.,TX,75075
Outback Steakhouse,Addison,4458,4458,15180 Addison Road,TX,75001
Outback Steakhouse,Arlington,4459,4459,1151 W. I-20,TX,76015
Outback Steakhouse,Tyler,4460,4460,5704 S. Broadway,TX,75703
Outback Steakhouse,Lewisville,4461,4461,2211 S. Stemmons Fwy.,TX,75067
Outback Steakhouse,Midland,4462,4462,2314 W. Loop 250 N.,TX,79705
Outback Steakhouse,Amarillo,4463,4463,7101 I-40 W.,TX,79106
Outback Steakhouse,Lubbock,4464,4464,4015 South Loop 289,TX,79423
Outback Steakhouse,Denton,4466,4466,300 I-35 S.,TX,76205
Outback Steakhouse,Longview,4467,4467,501 E. Loop 281,TX,75605
Outback Steakhouse,Waco,4468,4468,4500 Franklin,TX,76710
Outback Steakhouse,Killeen,4469,4469,2701 E. Central Texas Expy.,TX,76543
Outback Steakhouse,El Paso,4470,4470,11875 Gateway W. Blvd.,TX,79936
Outback Steakhouse,Texarkana,4471,4471,3209 Mall Dr. - Central Mall,TX,75503
Outback Steakhouse,San Angelo,4473,4473,4505 Sherwood Way,TX,76904
Outback Steakhouse,Abilene,4474,4474,4142 Ridgemont Dr.,TX,79606
Outback Steakhouse,DeSoto,4475,4475,1101 N. I-35 East,TX,75115
Outback Steakhouse,Garland,4476,4476,4902 N President George Bush Hwy,TX,75040
Outback Steakhouse,Frisco,4477,4477,9382  State Hwy 121,TX,75035
Outback Steakhouse,Burleson,4478,4478,13265 South Freeway,TX,76028
Outback Steakhouse,Sandy,4510,4510,7770 S. 1300 E.,UT,84094
Outback Steakhouse,Layton,4511,4511,1664 N. 1200 W.,UT,84041
Outback Steakhouse,Orem,4512,4512,372 E. 1300 South,UT,84057
Outback Steakhouse,St. George,4514,4514,250 N. Red Cliff Dr. #40,UT,84790
Outback Steakhouse,Tacoma,4610,4610,3111 S. 38th Street,WA,98409
Outback Steakhouse,Seattle,4611,4611,13231 Aurora Ave. N.,WA,98133
Outback Steakhouse,Bellevue,4612,4612,"15100 S.E. 38th Street, Ste. #500",WA,98006
Outback Steakhouse,Federal Way,4613,4613,"2210 S. 320th Street, #A-6",WA,98003
Outback Steakhouse,Everett,4614,4614,"10121 Evergreen Way, # 15",WA,98204
Outback Steakhouse,Kirkland,4615,4615,12120 NE 85th Street,WA,98033
Outback Steakhouse,Spokane,4616,4616,"5628 N. Division Street, Suite B-6",WA,99207
Outback Steakhouse,Kennewick,4617,4617,6819 W. Canal Drive,WA,99336
Outback Steakhouse,Olympia,4618,4618,2615 Capital Mall Drive SW,WA,98502
Outback Steakhouse,Tukwila,4619,4619,16510 Southcenter Parkway,WA,98188
Outback Steakhouse,Vancouver,4620,4620,"8700 NE Vancouver Mall Dr., Ste. 121",WA,98661
Outback Steakhouse,Bremerton,4621,4621,5769 SR 303 NE,WA,98311
Outback Steakhouse,Spokane,4622,4622,14746 East Indiana,WA,99216
Outback Steakhouse,Burlington,4623,4623,478 Andis Rd.,WA,98233
Outback Steakhouse,Puyallup,4624,4624,12920 Meridian Ste. E.,WA,98373
Outback Steakhouse,Bothell,4625,4625,22606 Bothell-Everett Hwy.,WA,98201
Outback Steakhouse,Union Gap,4626,4626,2412 Rudkin Rd.,WA,98903
Outback Steakhouse,Seattle,4627,4627,701 Westlake Ave. North,WA,98109
Outback Steakhouse,Bristol,4701,4701,3168 Linden Dr.,VA,24202
Outback Steakhouse,Herndon,4710,4710,150 Elden Street #100,VA,20170
Outback Steakhouse,Woodbridge,4711,4711,14580 Potomac Mills Road,VA,22191
Outback Steakhouse,Clifton,4712,4712,5702 Union Mill Road,VA,20124
Outback Steakhouse,Springfield,4713,4713,6651 Backlick Road,VA,22150
Outback Steakhouse,Fairfax,4714,4714,9579 Braddock Road,VA,22032
Outback Steakhouse,Arlington,4715,4715,4821 North First Street,VA,22203
Outback Steakhouse,Richmond,4716,4716,7917 W. Broad Street,VA,23294
Outback Steakhouse,Charlottesville,4717,4717,355 Albemarle Square,VA,22901
Outback Steakhouse,Fredericksburg,4718,4718,2941 Plank Road,VA,22401
Outback Steakhouse,Vienna,4719,4719,315 Maple Ave. E.,VA,22180
Outback Steakhouse,Alexandria,4720,4720,6804 Richmond Hwy.,VA,22306
Outback Steakhouse,Fairfax,4721,4721,10060 Lee Hwy.,VA,22030
Outback Steakhouse,Sterling,4722,4722,46300 Potomac Run Pl. #150,VA,20164
Outback Steakhouse,Richmond,4723,4723,2063 Huguenot Rd.,VA,23235
Outback Steakhouse,Harrisonburg,4724,4724,261 University Blvd.,VA,22801
Outback Steakhouse,Colonial Heights,4725,4725,165 Southpark Cir,VA,23834
Outback Steakhouse,Warrenton,4726,4726,6419 Lee Highway,VA,20187
Outback Steakhouse,Mechanicsville,4727,4727,7420 Bell Creek Rd.,VA,23111
Outback Steakhouse,Midlothian,4728,4728,6821 Chital Dr.,VA,23112
Outback Steakhouse,Stafford,4729,4729,"308 Worth Ave.,Ste. 101",VA,22556
Outback Steakhouse,Winchester,4730,4730,124 Kernstown Commons Blvd.,VA,22602
Outback Steakhouse,Waynesboro,4731,4731,28 Windigrove Dr.,VA,22980
Outback Steakhouse,Virginia Beach,4750,4750,1757 Laskin Road,VA,23454
Outback Steakhouse,Virginia Beach,4751,4751,1255 Fordham Dr.,VA,23464
Outback Steakhouse,Newport News,4752,4752,12258 Jefferson Ave.,VA,23602
Outback Steakhouse,Roanoke,4755,4755,4380 Franklin Road,VA,24014
Outback Steakhouse,Williamsburg,4756,4756,3026 Richmond Road,VA,23185
Outback Steakhouse,Christiansburg,4758,4758,295 Pepper's Ferry Rd. NE,VA,24073
Outback Steakhouse,Chesapeake,4759,4759,4312 Portsmouth Blvd.,VA,23321
Outback Steakhouse,Lynchburg,4762,4762,3121 Albert Lankford Dr.,VA,24501
Outback Steakhouse,Danville,4763,4763,111 Enterprise Drive,VA,24540
Outback Steakhouse,Norfolk,4764,4764,333 Waterside Dr.,VA,23510
Outback Steakhouse,Virginia Beach,4765,4765,1113 Nimmo Pkwy.,VA,23456
Outback Steakhouse,Hampton,4766,4766,1700 West Mercury Blvd.,VA,23666
Outback Steakhouse,Madison,4810,4810,279 Junction Road,WI,53717
Outback Steakhouse,Grand Chute,4811,4811,4287 W. College Avenue,WI,54914
Outback Steakhouse,Brookfield,4812,4812,1260 S. Moorland Rd.,WI,53005
Outback Steakhouse,Onalaska,4813,4813,311 Hampton Ct.,WI,54650
Outback Steakhouse,Greenfield,4814,4814,7401 West Barnard Avenue,WI,53220
Outback Steakhouse,Madison,4815,4815,4520 East Towne Blvd.,WI,53704
Outback Steakhouse,Martinsburg,4910,4910,790 Foxcroft Ave. N.,WV,25401
Outback Steakhouse,Charleston,4953,4953,1062 Charleston Town Center,WV,25389
Outback Steakhouse,Barboursville,4954,4954,3417 U.S. Route 60 E.,WV,25504
Outback Steakhouse,Vienna,4957,4957,105 Grand Central Mall,WV,26101
Outback Steakhouse,Bridgeport,4960,4960,3000 Meadowbrook Mall Rd,WV,26330
Outback Steakhouse,Beckley,4961,4961,111 Hylton Lane,WV,25801
Outback Steakhouse,Morgantown,4962,4962,510 Venture Dr.,WV,26505
Outback Steakhouse,Princeton,4963,4963,311 Greasy Ridge Road,WV,24740
Outback Steakhouse,Evansville,5010,5010,229 Miracle Street,WY,82636
Outback Steakhouse,Cheyenne,5011,5011,1626 Fleischli Business Pkwy.,WY,82007
Outback Steakhouse,Albuquerque,5110,5110,4921 Jefferson NE,NM,87109
Outback Steakhouse,Albuquerque,5111,5111,10022 Coors Blvd. NW,NM,87114
Outback Steakhouse,Farmington,5112,5112,4921 E. Main St.,NM,87402
Outback Steakhouse,Santa Fe,5113,5113,2574 Camino Entrada,NM,87507
Outback Steakhouse,Las Cruces,5114,5114,940 N. Telshor Blvd.,NM,88011
Outback Steakhouse,South Portland,5310,5310,147 Western Ave.,ME,4106
