keywords,city,Aggdata Store Number,store_number,address,state,zip_code
Paradies,Albany,1,1 #01 #1,Albany International Airport,NY,12211
Paradies,Albany,2,2 #02 #2,Albany International Airport,NY,12211
Paradies,Albany,3,3 #03 #3,Albany International Airport,NY,12211
Paradies,Albany,4,4 #04 #4,Albany International Airport,NY,12211
Paradies,Flint,7,7 #07 #7,G3425 W. Bristol Road,MI,48507
Paradies,Flint,8,8 #08 #8,G3425 W. Bristol Road,MI,48507
Paradies,Burbank,9,9 #09 #9,2627 Hollywood Way,CA,91505
Paradies,Burbank,10,10 #010 #10,2627 Hollywood Way,CA,91505
Paradies,Burbank,11,11 #011 #11,2627 Hollywood Way,CA,91505
Paradies,Burbank,12,12 #012 #12,2627 Hollywood Way,CA,91505
Paradies,Burbank,13,13 #013 #13,2627 Hollywood Way,CA,91505
Paradies,Boise,14,14 #014 #14,3201 Airport Way Suite 300,ID,83705
Paradies,Boise,15,15 #015 #15,3201 Airport Way Suite 300,ID,83705
Paradies,Boise,16,16 #016 #16,3201 Airport Way Suite 300,ID,83705
Paradies,Windsor Locks,19,19 #019 #19,Bradley International Airport (Hartford),CT,6096
Paradies,Windsor Locks,20,20 #020 #20,Bradley International Airport (Hartford),CT,6096
Paradies,Windsor Locks,21,21 #021 #21,Bradley International Airport (Hartford),CT,6096
Paradies,Windsor Locks,22,22 #022 #22,Bradley International Airport (Hartford),CT,6096
Paradies,Cincinnati,24,24 #024 #24,Cincinnati /Northern Kentucky International,OH,45285
Paradies,Cincinnati,26,26 #026 #26,Cincinnati /Northern Kentucky International,OH,45276
Paradies,Cincinnati,28,28 #028 #28,Cincinnati /Northern Kentucky International,OH,45275
Paradies,Cincinnati,29,29 #029 #29,Cincinnati /Northern Kentucky International,OH,45278
Paradies,Cincinnati,30,30 #030 #30,Cincinnati /Northern Kentucky International,OH,45282
Paradies,Cincinnati,31,31 #031 #31,Cincinnati /Northern Kentucky International,OH,45283
Paradies,Cincinnati,32,32 #032 #32,Cincinnati /Northern Kentucky International,OH,45277
Paradies,Cincinnati,33,33 #033 #33,Cincinnati /Northern Kentucky International,OH,45279
Paradies,Cincinnati,34,34 #034 #34,Cincinnati /Northern Kentucky International,OH,45281
Paradies,Cincinnati,35,35 #035 #35,Cincinnati /Northern Kentucky International,OH,45280
Paradies,Colorado Springs,39,39 #039 #39,Colorado Springs Municipal Airport,CO,80916
Paradies,Colorado Springs,40,40 #040 #40,Colorado Springs Municipal Airport,CO,80916
Paradies,Colorado Springs,41,41 #041 #41,Colorado Springs Municipal Airport,CO,80916
Paradies,West Columbia,42,42 #042 #42,Suite #2,SC,29170
Paradies,West Columbia,43,43 #043 #43,Suite #2,SC,29170
Paradies,West Columbia,44,44 #044 #44,Suite #2,SC,29170
Paradies,West Columbia,45,45 #045 #45,Suite #2,SC,29170
Paradies,Dallas,46,46 #046 #46,Dallas/Ft. Worth International Airport,TX,75261
Paradies,Dallas,47,47 #047 #47,Dallas/Ft. Worth International Airport,TX,75261
Paradies,Dallas,48,48 #048 #48,Dallas/Ft. Worth International Airport,TX,75261
Paradies,Dallas,50,50 #050 #50,Dallas/Ft. Worth International Airport,TX,75261
Paradies,Dallas,51,51 #051 #51,Dallas/Ft. Worth International Airport,TX,75261
Paradies,Dallas,52,52 #052 #52,Dallas/Ft. Worth International Airport,TX,75261
Paradies,Dallas,53,53 #053 #53,Dallas/Ft. Worth International Airport,TX,75261
Paradies,Dallas,54,54 #054 #54,Dallas/Ft. Worth International Airport,TX,75261
Paradies,Dallas,55,55 #055 #55,Dallas/Ft. Worth International Airport,TX,75261
Paradies,Dallas,57,57 #057 #57,Dallas/Ft. Worth International Airport,TX,75261
Paradies,Dallas,58,58 #058 #58,Dallas/Ft. Worth International Airport,TX,75261
Paradies,Dallas,59,59 #059 #59,Dallas/Ft. Worth International Airport,TX,75261
Paradies,Dallas,60,60 #060 #60,Dallas/Ft. Worth International Airport,TX,75261
Paradies,Dallas,62,62 #062 #62,Dallas/Ft. Worth International Airport,TX,75261
Paradies,Dallas,63,63 #063 #63,Dallas/Ft. Worth International Airport,TX,75261
Paradies,Dallas,64,64 #064 #64,Dallas/Ft. Worth International Airport,TX,75261
Paradies,Dallas,65,65 #065 #65,Dallas/Ft. Worth International Airport,TX,75261
Paradies,Dallas,66,66 #066 #66,Dallas/Ft. Worth International Airport,TX,75261
Paradies,Dallas,67,67 #067 #67,Dallas/Ft. Worth International Airport,TX,75261
Paradies,Dallas,68,68 #068 #68,Dallas/Ft. Worth International Airport,TX,75261
Paradies,Dallas,69,69 #069 #69,Dallas/Ft. Worth International Airport,TX,75261
Paradies,Dallas,70,70 #070 #70,Dallas/Ft. Worth International Airport,TX,75261
Paradies,Madison,71,71 #071 #71,4000 International Lane,WI,53704
Paradies,Madison,72,72 #072 #72,4000 International Lane,WI,53704
Paradies,Madison,73,73 #073 #73,4000 International Lane,WI,53704
Paradies,Vandalia,74,74 #074 #74,3600 Terminal Drive,OH,45377
Paradies,Vandalia,75,75 #075 #75,3600 Terminal Drive,OH,45377
Paradies,Vandalia,76,76 #076 #76,3600 Terminal Drive,OH,45377
Paradies,Vandalia,77,77 #077 #77,3600 Terminal Drive,OH,45377
Paradies,Des Moines,80,80 #080 #80,5800 Fleur Drive,IA,50321
Paradies,Des Moines,81,81 #081 #81,5800 Fleur Drive,IA,50321
Paradies,Romulus,92,92 #092 #92,15477 Pine Road,MI,48174
Paradies,Romulus,94,94 #094 #94,15485 Pine Road,MI,48174
Paradies,Romulus,95,95 #095 #95,15474 Pine Road,MI,48174
Paradies,Romulus,96,96 #096 #96,15479 Pine Road,MI,48174
Paradies,Romulus,98,98 #098 #98,15480 Pine Road,MI,48174
Paradies,Romulus,100,100 #0100 #100,15483 Pine Road,MI,48174
Paradies,Romulus,101,101 #0101 #101,15476 Pine Road,MI,48174
Paradies,Romulus,102,102 #0102 #102,15487 Pine Road,MI,48174
Paradies,Romulus,105,105 #0105 #105,15478 Pine Road,MI,48174
Paradies,Romulus,110,110 #0110 #110,15481 Pine Road,MI,48174
Paradies,Romulus,111,111 #0111 #111,15484 Pine Road,MI,48174
Paradies,Washington,112,112 #0112 #112,PO Box 17501,DC,20041
Paradies,Washington,113,113 #0113 #113,PO Box 17501,DC,20041
Paradies,Washington,114,114 #0114 #114,PO Box 17501,DC,20041
Paradies,Fort Lauderdale,115,115 #0115 #115,100 Terminal Drive - room1020,FL,33315
Paradies,Fort Lauderdale,125,125 #0125 #125,100 Terminal Drive - room1020,FL,33315
Paradies,Fort Lauderdale,128,128 #0128 #128,100 Terminal Drive - room1020,FL,33315
Paradies,Fort Lauderdale,129,129 #0129 #129,100 Terminal Drive - room1020,FL,33315
Paradies,Kissimmee,133,133 #0133 #133,6000 W. Osceola Parkway,FL,34746
Paradies,Kissimmee,134,134 #0134 #134,6000 W. Osceola Parkway,FL,34746
Paradies,Kissimmee,135,135 #0135 #135,6000 W. Osceola Parkway,FL,34746
Paradies,Kissimmee,136,136 #0136 #136,6000 W. Osceola Parkway,FL,34746
Paradies,Milwaukee,137,137 #0137 #137,5300 South Howell Avenue,WI,53207
Paradies,Milwaukee,138,138 #0138 #138,5300 South Howell Avenue,WI,53207
Paradies,Milwaukee,139,139 #0139 #139,5300 South Howell Avenue,WI,53207
Paradies,Milwaukee,140,140 #0140 #140,5300 South Howell Avenue,WI,53207
Paradies,Milwaukee,141,141 #0141 #141,5300 South Howell Avenue,WI,53207
Paradies,Milwaukee,142,142 #0142 #142,5300 South Howell Avenue,WI,53207
Paradies,Milwaukee,143,143 #0143 #143,5300 South Howell Avenue,WI,53207
Paradies,Milwaukee,144,144 #0144 #144,5300 South Howell Avenue,WI,53207
Paradies,Houston,145,145 #0145 #145,Suite 500,TX,77032
Paradies,Houston,146,146 #0146 #146,Suite 500,TX,77032
Paradies,Houston,147,147 #0147 #147,Suite 500,TX,77032
Paradies,Houston,149,149 #0149 #149,Suite 500,TX,77032
Paradies,Houston,150,150 #0150 #150,Suite 500,TX,77032
Paradies,Houston,151,151 #0151 #151,Suite 500,TX,77032
Paradies,Houston,152,152 #0152 #152,Suite 500,TX,77032
Paradies,Houston,153,153 #0153 #153,Suite 500,TX,77032
Paradies,Houston,154,154 #0154 #154,Suite 500,TX,77032
Paradies,Houston,156,156 #0156 #156,Suite 500,TX,77032
Paradies,Houston,157,157 #0157 #157,Suite 500,TX,77032
Paradies,Houston,158,158 #0158 #158,Suite 500,TX,77032
Paradies,Houston,159,159 #0159 #159,Suite 500,TX,77032
Paradies,Houston,160,160 #0160 #160,Suite 500,TX,77032
Paradies,Houston,164,164 #0164 #164,1600 Lamar Street,TX,77010
Paradies,Huntsville,165,165 #0165 #165,Box 20034,AL,35824
Paradies,Huntsville,166,166 #0166 #166,Box 20034,AL,35824
Paradies,Ronkonkoma,172,172 #0172 #172,100 Arrivals Avenue,NY,11779
Paradies,Ronkonkoma,173,173 #0173 #173,100 Arrivals Avenue,NY,11779
Paradies,Ronkonkoma,174,174 #0174 #174,100 Arrivals Avenue,NY,11779
Paradies,Jacksonville,175,175 #0175 #175,2400 Yankee Clipper Drive,FL,32218
Paradies,Jacksonville,176,176 #0176 #176,2400 Yankee Clipper Drive,FL,32218
Paradies,Jacksonville,177,177 #0177 #177,2400 Yankee Clipper Drive,FL,32218
Paradies,Jacksonville,178,178 #0178 #178,2400 Yankee Clipper Drive,FL,32218
Paradies,Jacksonville,179,179 #0179 #179,2400 Yankee Clipper Drive,FL,32218
Paradies,Jacksonville,180,180 #0180 #180,2400 Yankee Clipper Drive,FL,32218
Paradies,Kansas City,183,183 #0183 #183,40 Rome Circle Terminal B,MO,64153
Paradies,Kansas City,184,184 #0184 #184,40 Rome Circle Terminal B,MO,64153
Paradies,Kansas City,185,185 #0185 #185,40 Rome Circle Terminal B,MO,64153
Paradies,Kansas City,186,186 #0186 #186,40 Rome Circle Terminal B,MO,64153
Paradies,Kansas City,187,187 #0187 #187,40 Rome Circle Terminal B,MO,64153
Paradies,Kansas City,188,188 #0188 #188,40 Rome Circle Terminal B,MO,64153
Paradies,Kansas City,189,189 #0189 #189,40 Rome Circle Terminal B,MO,64153
Paradies,Kansas City,190,190 #0190 #190,40 Rome Circle Terminal B,MO,64153
Paradies,Kansas City,191,191 #0191 #191,40 Rome Circle Terminal B,MO,64153
Paradies,Toronto,193,193 #0193 #193,AMF Box 3005,CA,L5P 1B2
Paradies,Toronto,194,194 #0194 #194,AMF Box 3005,CA,L5P 1B2
Paradies,Toronto,195,195 #0195 #195,AMF Box 3005,CA,L5P 1B2
Paradies,Lexington,221,221 #0221 #221,4000 Terminal Drive,KY,40510
Paradies,Lexington,223,223 #0223 #223,4000 Terminal Drive,KY,40510
Paradies,Long Beach,224,224 #0224 #224,4235 Douglas Drive,CA,90808
Paradies,Louisville,225,225 #0225 #225,600 Terminal Drive,KY,40209
Paradies,Louisville,226,226 #0226 #226,600 Terminal Drive,KY,40209
Paradies,Louisville,227,227 #0227 #227,600 Terminal Drive,KY,40209
Paradies,Louisville,228,228 #0228 #228,600 Terminal Drive,KY,40209
Paradies,Louisville,229,229 #0229 #229,600 Terminal Drive,KY,40209
Paradies,Louisville,230,230 #0230 #230,600 Terminal Drive,KY,40209
Paradies,Louisville,232,232 #0232 #232,600 Terminal Drive,KY,40209
Paradies,Las Vegas,234,234 #0234 #234,PO Box 11298,NV,89111-1298
Paradies,Alcoa,235,235 #0235 #235,Alcoa Highway,TN,37701
Paradies,Alcoa,236,236 #0236 #236,Alcoa Highway,TN,37701
Paradies,Memphis,237,237 #0237 #237,2491 Winchester Road #207,TN,38116-3859
Paradies,Memphis,238,238 #0238 #238,2491 Winchester Road #207,TN,38116-3859
Paradies,Memphis,239,239 #0239 #239,2491 Winchester Road #207,TN,38116-3859
Paradies,Memphis,240,240 #0240 #240,2491 Winchester Road #207,TN,38116-3859
Paradies,Memphis,241,241 #0241 #241,2491 Winchester Road #207,TN,38116-3859
Paradies,Memphis,242,242 #0242 #242,2491 Winchester Road #207,TN,38116-3859
Paradies,Memphis,243,243 #0243 #243,2491 Winchester Road #207,TN,38116-3859
Paradies,Memphis,245,245 #0245 #245,2491 Winchester Road #207,TN,38116-3859
Paradies,Midland,246,246 #0246 #246,9506 laForce Blvd,TX,79706
Paradies,Palm Springs,259,259 #0259 #259,3400 Tahquitz Canyon Way Suite #13,CA,92262
Paradies,Palm Springs,260,260 #0260 #260,3400 Tahquitz Canyon Way Suite #13,CA,92262
Paradies,Palm Springs,261,261 #0261 #261,3400 Tahquitz Canyon Way Suite #13,CA,92262
Paradies,Palm Springs,262,262 #0262 #262,3400 Tahquitz Canyon Way Suite #13,CA,92262
Paradies,Philadelphia,263,263 #0263 #263,8000 Essington Avenue,PA,19153
Paradies,Philadelphia,264,264 #0264 #264,8000 Essington Avenue,PA,19153
Paradies,Philadelphia,265,265 #0265 #265,8000 Essington Avenue,PA,19153
Paradies,Philadelphia,266,266 #0266 #266,8000 Essington Avenue,PA,19153
Paradies,Phoenix,267,267 #0267 #267,3400 Sky Harbor,AZ,85034
Paradies,Phoenix,269,269 #0269 #269,3400 Sky Harbor,AZ,85034
Paradies,Phoenix,270,270 #0270 #270,3400 Sky Harbor,AZ,85034
Paradies,Phoenix,271,271 #0271 #271,3400 Sky Harbor,AZ,85034
Paradies,Phoenix,272,272 #0272 #272,3400 Sky Harbor,AZ,85034
Paradies,Phoenix,273,273 #0273 #273,3400 Sky Harbor,AZ,85034
Paradies,Phoenix,274,274 #0274 #274,3400 Sky Harbor,AZ,85034
Paradies,Phoenix,276,276 #0276 #276,3400 Sky Harbor,AZ,85034
Paradies,Phoenix,277,277 #0277 #277,3400 Sky Harbor,AZ,85034
Paradies,Phoenix,278,278 #0278 #278,3400 Sky Harbor,AZ,85034
Paradies,Phoenix,279,279 #0279 #279,3400 Sky Harbor,AZ,85034
Paradies,Phoenix,280,280 #0280 #280,3400 Sky Harbor,AZ,85034
Paradies,Greensboro,281,281 #0281 #281,6415 Bryan Blvd,NC,27409
Paradies,Greensboro,282,282 #0282 #282,6415 Bryan Blvd,NC,27409
Paradies,Greensboro,283,283 #0283 #283,6415 Bryan Blvd,NC,27409
Paradies,Greensboro,284,284 #0284 #284,6415 Bryan Blvd,NC,27409
Paradies,Greensboro,285,285 #0285 #285,6415 Bryan Blvd,NC,27409
Paradies,Pittsburgh,286,286 #0286 #286,PO Box 12296,PA,15231
Paradies,Pittsburgh,287,287 #0287 #287,PO Box 12296,PA,15231
Paradies,Pittsburgh,288,288 #0288 #288,PO Box 12296,PA,15231
Paradies,Pittsburgh,289,289 #0289 #289,PO Box 12296,PA,15231
Paradies,Pittsburgh,290,290 #0290 #290,PO Box 12296,PA,15231
Paradies,Pittsburgh,291,291 #0291 #291,PO Box 12296,PA,15231
Paradies,Pittsburgh,292,292 #0292 #292,PO Box 12296,PA,15231
Paradies,Pittsburgh,293,293 #0293 #293,PO Box 12296,PA,15231
Paradies,Pittsburgh,294,294 #0294 #294,PO Box 12296,PA,15231
Paradies,Columbus,295,295 #0295 #295,4600 International Gateway,OH,43219
Paradies,Columbus,296,296 #0296 #296,4600 International Gateway,OH,43219
Paradies,Columbus,297,297 #0297 #297,4600 International Gateway,OH,43219
Paradies,Columbus,298,298 #0298 #298,4600 International Gateway,OH,43219
Paradies,Columbus,299,299 #0299 #299,4600 International Gateway,OH,43219
Paradies,Columbus,300,300 #0300 #300,4600 International Gateway,OH,43219
Paradies,Columbus,301,301 #0301 #301,4600 International Gateway,OH,43219
Paradies,Columbus,302,302 #0302 #302,4600 International Gateway,OH,43219
Paradies,Columbus,303,303 #0303 #303,4600 International Gateway,OH,43219
Paradies,Columbus,304,304 #0304 #304,4600 International Gateway,OH,43219
Paradies,Portland,305,305 #0305 #305,7000 N.E. Airport Way Suite 2606,OR,97218
Paradies,Portland,307,307 #0307 #307,7000 N.E. Airport Way Suite 2606,OR,97218
Paradies,Portland,308,308 #0308 #308,7000 N.E. Airport Way Suite 2606,OR,97218
Paradies,Portland,310,310 #0310 #310,7000 N.E. Airport Way Suite 2606,OR,97218
Paradies,Portland,312,312 #0312 #312,7000 N.E. Airport Way Suite 2606,OR,97218
Paradies,Portland,313,313 #0313 #313,1001 Westbrook Street,ME,4102
Paradies,Portland,314,314 #0314 #314,1001 Westbrook Street,ME,4102
Paradies,Moline,315,315 #0315 #315,2200 69th Avenue,IL,61265
Paradies,Moline,316,316 #0316 #316,2200 69th Avenue,IL,61265
Paradies,Morrisville,317,317 #0317 #317,Raleigh/Durham International Airport 2600 West Terminal Blvd.,NC,27623
Paradies,Morrisville,319,319 #0319 #319,Raleigh/Durham International Airport 2600 West Terminal Blvd.,NC,27623
Paradies,Morrisville,320,320 #0320 #320,Raleigh/Durham International Airport 2600 West Terminal Blvd.,NC,27623
Paradies,Morrisville,321,321 #0321 #321,Raleigh/Durham International Airport 2600 West Terminal Blvd.,NC,27623
Paradies,Morrisville,322,322 #0322 #322,Raleigh/Durham International Airport 2600 West Terminal Blvd.,NC,27623
Paradies,Morrisville,323,323 #0323 #323,Raleigh/Durham International Airport 2600 West Terminal Blvd.,NC,27623
Paradies,Morrisville,324,324 #0324 #324,Raleigh/Durham International Airport 2600 West Terminal Blvd.,NC,27623
Paradies,Morrisville,325,325 #0325 #325,Raleigh/Durham International Airport 2600 West Terminal Blvd.,NC,27623
Paradies,Morrisville,327,327 #0327 #327,Raleigh/Durham International Airport 2600 West Terminal Blvd.,NC,27623
Paradies,Reno,328,328 #0328 #328,2001 East Plumb Lane,NV,89502
Paradies,Reno,329,329 #0329 #329,2001 East Plumb Lane,NV,89502
Paradies,Reno,330,330 #0330 #330,2001 East Plumb Lane,NV,89502
Paradies,Reno,331,331 #0331 #331,2001 East Plumb Lane,NV,89502
Paradies,Reno,332,332 #0332 #332,2001 East Plumb Lane,NV,89502
Paradies,Sacramento,333,333 #0333 #333,6850 Airport Blvd,CA,95837
Paradies,Sacramento,334,334 #0334 #334,6850 Airport Blvd,CA,95837
Paradies,Sacramento,336,336 #0336 #336,6850 Airport Blvd,CA,95837
Paradies,Sacramento,338,338 #0338 #338,6850 Airport Blvd,CA,95837
Paradies,Sacramento,339,339 #0339 #339,6850 Airport Blvd,CA,95837
Paradies,San Francisco,343,343 #0343 #343,PO Box 280407,CA,94128
Paradies,Sarasota,345,345 #0345 #345,6026 Airport Circle,FL,34243-2105
Paradies,Savannah,348,348 #0348 #348,466 Airways Avenue,GA,31408
Paradies,Savannah,349,349 #0349 #349,466 Airways Avenue,GA,31408
Paradies,Savannah,350,350 #0350 #350,466 Airways Avenue,GA,31408
Paradies,Fort Myers,351,351 #0351 #351,11000 Terminal Access Road - Suite 8673,FL,33913
Paradies,Fort Myers,352,352 #0352 #352,11000 Terminal Access Road - Suite 8673,FL,33913
Paradies,Fort Myers,353,353 #0353 #353,11000 Terminal Access Road - Suite 8673,FL,33913
Paradies,Fort Myers,354,354 #0354 #354,11000 Terminal Access Road - Suite 8673,FL,33913
Paradies,Fort Myers,355,355 #0355 #355,11000 Terminal Access Road - Suite 8673,FL,33913
Paradies,Fort Myers,356,356 #0356 #356,11000 Terminal Access Road - Suite 8673,FL,33913
Paradies,Fort Myers,357,357 #0357 #357,11000 Terminal Access Road - Suite 8673,FL,33913
Paradies,Fort Myers,358,358 #0358 #358,11000 Terminal Access Road - Suite 8673,FL,33913
Paradies,Fort Myers,359,359 #0359 #359,11000 Terminal Access Road - Suite 8673,FL,33913
Paradies,Fort Myers,360,360 #0360 #360,11000 Terminal Access Road - Suite 8673,FL,33913
Paradies,Fort Myers,361,361 #0361 #361,11000 Terminal Access Road - Suite 8673,FL,33913
Paradies,Fort Myers,362,362 #0362 #362,11000 Terminal Access Road - Suite 8673,FL,33913
Paradies,Tallahassee,369,369 #0369 #369,3300 Caoital Circle SW,FL,32310
Paradies,Tallahassee,370,370 #0370 #370,3300 Caoital Circle SW,FL,32310
Paradies,Tucson,376,376 #0376 #376,7250 S. Tucson Blvd,AZ,85706
Paradies,Tucson,377,377 #0377 #377,7250 S. Tucson Blvd,AZ,85706
Paradies,Tucson,378,378 #0378 #378,7250 S. Tucson Blvd,AZ,85706
Paradies,Tucson,379,379 #0379 #379,7250 S. Tucson Blvd,AZ,85706
Paradies,Tucson,380,380 #0380 #380,7250 S. Tucson Blvd,AZ,85706
Paradies,Tucson,381,381 #0381 #381,7250 S. Tucson Blvd,AZ,85706
Paradies,Tucson,382,382 #0382 #382,7250 S. Tucson Blvd,AZ,85706
Paradies,Tulsa,383,383 #0383 #383,7777 E. Apache,OK,74115
Paradies,Tulsa,384,384 #0384 #384,7777 E. Apache,OK,74115
Paradies,Tulsa,385,385 #0385 #385,7777 E. Apache,OK,74115
Paradies,Tulsa,386,386 #0386 #386,7777 E. Apache,OK,74115
Paradies,Tulsa,387,387 #0387 #387,7777 E. Apache,OK,74115
Paradies,Tulsa,388,388 #0388 #388,7777 E. Apache,OK,74115
Paradies,Tulsa,389,389 #0389 #389,7777 E. Apache,OK,74115
Paradies,Harligen,390,390 #0390 #390,3030 Airport Drive,TX,78550
Paradies,Harligen,391,391 #0391 #391,3030 Airport Drive,TX,78550
Paradies,Richmond,392,392 #0392 #392,Box 23612 Airport Postal Station,BC,BCV7B1Y7
Paradies,Richmond,393,393 #0393 #393,Box 23612 Airport Postal Station,BC,BCV7B1Y7
Paradies,Washington,395,395 #0395 #395,Ronald Reagan Washington National Airport,DC,20001
Paradies,Washington,396,396 #0396 #396,Ronald Reagan Washington National Airport,DC,20001
Paradies,Washington,397,397 #0397 #397,Ronald Reagan Washington National Airport,DC,20001
Paradies,Washington,398,398 #0398 #398,Ronald Reagan Washington National Airport,DC,20001
Paradies,Washington,399,399 #0399 #399,Ronald Reagan Washington National Airport,DC,20001
Paradies,Washington,400,400 #0400 #400,Ronald Reagan Washington National Airport,DC,20001
Paradies,Oklahoma City,401,401 #0401 #401,7100 Terminal Drive,OK,73159
Paradies,Oklahoma City,403,403 #0403 #403,7100 Terminal Drive,OK,73159
Paradies,Oklahoma City,404,404 #0404 #404,7100 Terminal Drive,OK,73159
Paradies,Oklahoma City,405,405 #0405 #405,7100 Terminal Drive,OK,73159
Paradies,Santa Ana,406,406 #0406 #406,18601 Airport Way Suite 230A,CA,92707
Paradies,Santa Ana,407,407 #0407 #407,18601 Airport Way Suite 230A,CA,92707
Paradies,Baton Rouge,409,409 #0409 #409,9430 Jackie Cochran Avenue,LA,70807
Paradies,Baton Rouge,410,410 #0410 #410,9430 Jackie Cochran Avenue,LA,70807
Paradies,Houston,412,412 #0412 #412,Suite 500,TX,77032
Paradies,Houston,413,413 #0413 #413,Suite 500,TX,77032
Paradies,Houston,414,414 #0414 #414,Suite 500,TX,77032
Paradies,Dallas,415,415 #0415 #415,Dallas/Ft. Worth International Airport,TX,75261
Paradies,Dallas,416,416 #0416 #416,Dallas/Ft. Worth International Airport,TX,75261
Paradies,Windsor Locks,421,421 #0421 #421,Bradley International Airport (Hartford),CT,6096
Paradies,Philadelphia,422,422 #0422 #422,8000 Essington Avenue,PA,19153
Paradies,Philadelphia,423,423 #0423 #423,8000 Essington Avenue,PA,19153
Paradies,Philadelphia,424,424 #0424 #424,8000 Essington Avenue,PA,19153
Paradies,Philadelphia,425,425 #0425 #425,8000 Essington Avenue,PA,19153
Paradies,Philadelphia,426,426 #0426 #426,8000 Essington Avenue,PA,19153
Paradies,Philadelphia,427,427 #0427 #427,8000 Essington Avenue,PA,19153
Paradies,Philadelphia,428,428 #0428 #428,8000 Essington Avenue,PA,19153
Paradies,Philadelphia,429,429 #0429 #429,8000 Essington Avenue,PA,19153
Paradies,Philadelphia,430,430 #0430 #430,8000 Essington Avenue,PA,19153
Paradies,Philadelphia,431,431 #0431 #431,8000 Essington Avenue,PA,19153
Paradies,Philadelphia,432,432 #0432 #432,8000 Essington Avenue,PA,19153
Paradies,Philadelphia,433,433 #0433 #433,8000 Essington Avenue,PA,19153
Paradies,Philadelphia,434,434 #0434 #434,8000 Essington Avenue,PA,19153
Paradies,Philadelphia,435,435 #0435 #435,8000 Essington Avenue,PA,19153
Paradies,Houston,445,445 #0445 #445,Suite 500,TX,77032
Paradies,Ronkonkoma,446,446 #0446 #446,100 Arrivals Avenue,NY,11779
Paradies,Louisville,449,449 #0449 #449,600 Terminal Drive,KY,40209
Paradies,Spokane,450,450 #0450 #450,9000 W. Airport Drive,WA,99224
Paradies,Spokane,451,451 #0451 #451,9000 W. Airport Drive,WA,99224
Paradies,Spokane,452,452 #0452 #452,9000 W. Airport Drive,WA,99224
Paradies,Spokane,453,453 #0453 #453,9000 W. Airport Drive,WA,99224
Paradies,Spokane,454,454 #0454 #454,9000 W. Airport Drive,WA,99224
Paradies,Spokane,455,455 #0455 #455,9000 W. Airport Drive,WA,99224
Paradies,Spokane,456,456 #0456 #456,9000 W. Airport Drive,WA,99224
Paradies,Spokane,457,457 #0457 #457,9000 W. Airport Drive,WA,99224
Paradies,Fort Myers,458,458 #0458 #458,11000 Terminal Access Road - Suite 8673,FL,33913
Paradies,Tucson,459,459 #0459 #459,7250 S. Tucson Blvd,AZ,85706
Paradies,Tucson,460,460 #0460 #460,7250 S. Tucson Blvd,AZ,85706
Paradies,West Palm Beach,461,461 #0461 #461,Palm Beach International Airport,FL,33406
Paradies,West Palm Beach,462,462 #0462 #462,Palm Beach International Airport,FL,33406
Paradies,West Palm Beach,463,463 #0463 #463,Palm Beach International Airport,FL,33406
Paradies,West Palm Beach,464,464 #0464 #464,Palm Beach International Airport,FL,33406
Paradies,West Palm Beach,465,465 #0465 #465,Palm Beach International Airport,FL,33406
Paradies,West Palm Beach,466,466 #0466 #466,Palm Beach International Airport,FL,33406
Paradies,West Palm Beach,467,467 #0467 #467,Palm Beach International Airport,FL,33406
Paradies,West Palm Beach,468,468 #0468 #468,Palm Beach International Airport,FL,33406
Paradies,Pittsburgh,469,469 #0469 #469,PO Box 12296,PA,15231
Paradies,Lexington,470,470 #0470 #470,4000 Terminal Drive,KY,40510
Paradies,Oklahoma City,471,471 #0471 #471,7100 Terminal Drive,OK,73159
Paradies,Oklahoma City,472,472 #0472 #472,7100 Terminal Drive,OK,73159
Paradies,Richmond,473,473 #0473 #473,Box 23612 Airport Postal Station,BC,BCV7B1Y7
Paradies,Sacramento,474,474 #0474 #474,6850 Airport Blvd,CA,95837
Paradies,Philadelphia,475,475 #0475 #475,8000 Essington Avenue,PA,19153
Paradies,Long Beach,476,476 #0476 #476,4235 Douglas Drive,CA,90808
Paradies,Long Beach,477,477 #0477 #477,4235 Douglas Drive,CA,90808
Paradies,Phoenix,478,478 #0478 #478,3400 Sky Harbor,AZ,85034
Paradies,Phoenix,479,479 #0479 #479,3400 Sky Harbor,AZ,85034
Paradies,Houston,482,482 #0482 #482,Suite 500,TX,77032
Paradies,El Paso,483,483 #0483 #483,6701 Convair Road,TX,79925
Paradies,Sacramento,484,484 #0484 #484,6850 Airport Blvd,CA,95837
Paradies,Savannah,489,489 #0489 #489,466 Airways Avenue,GA,31408
Paradies,El Paso,490,490 #0490 #490,6701 Convair Road,TX,79925
Paradies,El Paso,491,491 #0491 #491,6701 Convair Road,TX,79925
Paradies,El Paso,492,492 #0492 #492,6701 Convair Road,TX,79925
Paradies,Columbus,493,493 #0493 #493,4600 International Gateway,OH,43219
Paradies,Sacramento,495,495 #0495 #495,6850 Airport Blvd,CA,95837
Paradies,Sarasota,496,496 #0496 #496,6026 Airport Circle,FL,34243-2105
Paradies,Pensacola,497,497 #0497 #497,2430 Airport Blvd.,FL,32504
Paradies,Pensacola,498,498 #0498 #498,2430 Airport Blvd.,FL,32504
Paradies,Elizabeth,499,499 #0499 #499,Suite 2,NJ,7201
Paradies,Louisville,500,500 #0500 #500,600 Terminal Drive,KY,40209
Paradies,Milwaukee,501,501 #0501 #501,5300 South Howell Avenue,WI,53207
Paradies,Milwaukee,502,502 #0502 #502,5300 South Howell Avenue,WI,53207
Paradies,Fort Myers,503,503 #0503 #503,11000 Terminal Access Road - Suite 8673,FL,33913
Paradies,Fort Myers,504,504 #0504 #504,11000 Terminal Access Road - Suite 8673,FL,33913
Paradies,Sarasota,514,514 #0514 #514,6026 Airport Circle,FL,34243-2105
Paradies,Jacksonville,515,515 #0515 #515,2400 Yankee Clipper Drive,FL,32218
Paradies,Huntsville,516,516 #0516 #516,Box 20034,AL,35824
Paradies,Morrisville,525,525 #0525 #525,Raleigh/Durham International Airport 2600 West Terminal Blvd.,NC,27623
Paradies,Morrisville,526,526 #0526 #526,Raleigh/Durham International Airport 2600 West Terminal Blvd.,NC,27623
Paradies,Jacksonville,527,527 #0527 #527,2400 Yankee Clipper Drive,FL,32218
Paradies,Jacksonville,528,528 #0528 #528,2400 Yankee Clipper Drive,FL,32218
Paradies,Jacksonville,529,529 #0529 #529,2400 Yankee Clipper Drive,FL,32218
Paradies,Indianapolis,530,530 #0530 #530,Box 64,IN,46241
Paradies,Indianapolis,531,531 #0531 #531,Box 64,IN,46241
Paradies,Indianapolis,532,532 #0532 #532,Box 64,IN,46241
Paradies,Indianapolis,533,533 #0533 #533,Box 64,IN,46241
Paradies,Indianapolis,534,534 #0534 #534,Box 64,IN,46241
Paradies,Indianapolis,535,535 #0535 #535,Box 64,IN,46241
Paradies,Indianapolis,536,536 #0536 #536,Box 64,IN,46241
Paradies,Indianapolis,537,537 #0537 #537,Box 64,IN,46241
Paradies,Elizabeth,538,538 #0538 #538,Suite 2,NJ,7201
Paradies,Fort Lauderdale,539,539 #0539 #539,100 Terminal Drive - room1020,FL,33315
Paradies,Fort Lauderdale,540,540 #0540 #540,100 Terminal Drive - room1020,FL,33315
Paradies,Fort Lauderdale,541,541 #0541 #541,100 Terminal Drive - room1020,FL,33315
Paradies,Fort Lauderdale,542,542 #0542 #542,100 Terminal Drive - room1020,FL,33315
Paradies,Fort Lauderdale,543,543 #0543 #543,100 Terminal Drive - room1020,FL,33315
Paradies,Fort Lauderdale,544,544 #0544 #544,100 Terminal Drive - room1020,FL,33315
Paradies,Fort Lauderdale,545,545 #0545 #545,100 Terminal Drive - room1020,FL,33315
Paradies,Warwick,549,549 #0549 #549,2000 Post Road,RI,2886
Paradies,Warwick,550,550 #0550 #550,2000 Post Road,RI,2886
Paradies,Warwick,551,551 #0551 #551,2000 Post Road,RI,2886
Paradies,Warwick,552,552 #0552 #552,2000 Post Road,RI,2886
Paradies,Warwick,553,553 #0553 #553,2000 Post Road,RI,2886
Paradies,Warwick,554,554 #0554 #554,2000 Post Road,RI,2886
Paradies,Warwick,555,555 #0555 #555,2000 Post Road,RI,2886
Paradies,Richmond,556,556 #0556 #556,Box 23612 Airport Postal Station,BC,BCV7B1Y7
Paradies,Richmond,558,558 #0558 #558,Box 23612 Airport Postal Station,BC,BCV7B1Y7
Paradies,West Palm Beach,559,559 #0559 #559,Palm Beach International Airport,FL,33406
Paradies,West Palm Beach,560,560 #0560 #560,Palm Beach International Airport,FL,33406
Paradies,Santa Ana,561,561 #0561 #561,18601 Airport Way Suite 230A,CA,92707
Paradies,Elizabeth,562,562 #0562 #562,Suite 2,NJ,7201
Paradies,Warwick,563,563 #0563 #563,2000 Post Road,RI,2886
Paradies,Elizabeth,567,567 #0567 #567,Suite 2,NJ,7201
Paradies,Oklahoma City,569,569 #0569 #569,7100 Terminal Drive,OK,73159
Paradies,Louisville,571,571 #0571 #571,600 Terminal Drive,KY,40209
Paradies,Sarasota,572,572 #0572 #572,6026 Airport Circle,FL,34243-2105
Paradies,Sarasota,573,573 #0573 #573,6026 Airport Circle,FL,34243-2105
Paradies,El Paso,577,577 #0577 #577,6701 Convair Road,TX,79925
Paradies,El Paso,578,578 #0578 #578,6701 Convair Road,TX,79925
Paradies,El Paso,579,579 #0579 #579,6701 Convair Road,TX,79925
Paradies,El Paso,580,580 #0580 #580,6701 Convair Road,TX,79925
Paradies,Richmond,604,604 #0604 #604,Box 23612 Airport Postal Station,BC,BCV7B1Y7
Paradies,Richmond,605,605 #0605 #605,Box 23612 Airport Postal Station,BC,BCV7B1Y7
Paradies,Richmond,606,606 #0606 #606,Box 23612 Airport Postal Station,BC,BCV7B1Y7
Paradies,Windsor Locks,608,608 #0608 #608,Bradley International Airport (Hartford),CT,6096
Paradies,West Palm Beach,609,609 #0609 #609,Palm Beach International Airport,FL,33406
Paradies,West Palm Beach,610,610 #0610 #610,Palm Beach International Airport,FL,33406
Paradies,West Palm Beach,611,611 #0611 #611,Palm Beach International Airport,FL,33406
Paradies,Kansas City,613,613 #0613 #613,40 Rome Circle Terminal B,MO,64153
Paradies,Kansas City,614,614 #0614 #614,40 Rome Circle Terminal B,MO,64153
Paradies,Kansas City,615,615 #0615 #615,40 Rome Circle Terminal B,MO,64153
Paradies,Morrisville,621,621 #0621 #621,Raleigh/Durham International Airport 2600 West Terminal Blvd.,NC,27623
Paradies,Morrisville,622,622 #0622 #622,Raleigh/Durham International Airport 2600 West Terminal Blvd.,NC,27623
Paradies,Morrisville,623,623 #0623 #623,Raleigh/Durham International Airport 2600 West Terminal Blvd.,NC,27623
Paradies,Morrisville,624,624 #0624 #624,Raleigh/Durham International Airport 2600 West Terminal Blvd.,NC,27623
Paradies,Kissimmee,625,625 #0625 #625,6000 W. Osceola Parkway,FL,34746
Paradies,Kissimmee,626,626 #0626 #626,6000 W. Osceola Parkway,FL,34746
Paradies,Palm Springs,627,627 #0627 #627,3400 Tahquitz Canyon Way Suite #13,CA,92262
Paradies,Romulus,628,628 #0628 #628,15486 Pine Road,MI,48174
Paradies,Santa Ana,636,636 #0636 #636,18601 Airport Way Suite 230A,CA,92707
Paradies,Santa Ana,637,637 #0637 #637,18601 Airport Way Suite 230A,CA,92707
Paradies,Portland,639,639 #0639 #639,1001 Westbrook Street,ME,4102
Paradies,Las Vegas,644,644 #0644 #644,PO Box 11298,NV,89111-1298
Paradies,Las Vegas,645,645 #0645 #645,PO Box 11298,NV,89111-1298
Paradies,Pittsburgh,649,649 #0649 #649,PO Box 12296,PA,15231
Paradies,Cincinnati,650,650 #0650 #650,Cincinnati /Northern Kentucky International,OH,45284
Paradies,Washington,651,651 #0651 #651,Ronald Reagan Washington National Airport,DC,20001
Paradies,Warwick,652,652 #0652 #652,2000 Post Road,RI,2886
Paradies,Romulus,654,654 #0654 #654,15482 Pine Road,MI,48174
Paradies,Romulus,655,655 #0655 #655,15475 Pine Road,MI,48174
Paradies,Romulus,656,656 #0656 #656,15488 Pine Road,MI,48174
Paradies,Romulus,657,657 #0657 #657,15489 Pine Road,MI,48174
Paradies,Elizabeth,658,658 #0658 #658,Suite 2,NJ,7201
Paradies,Dallas,673,673 #0673 #673,Dallas/Ft. Worth International Airport,TX,75261
Paradies,Long Beach,679,679 #0679 #679,4235 Douglas Drive,CA,90808
Paradies,Dallas,683,683 #0683 #683,Dallas/Ft. Worth International Airport,TX,75261
Paradies,Long Beach,685,685 #0685 #685,4235 Douglas Drive,CA,90808
Paradies,Reno,689,689 #0689 #689,2001 East Plumb Lane,NV,89502
Paradies,Reno,690,690 #0690 #690,2001 East Plumb Lane,NV,89502
Paradies,Sacramento,693,693 #0693 #693,6850 Airport Blvd,CA,95837
Paradies,Richmond,694,694 #0694 #694,Box 23612 Airport Postal Station,BC,BCV7B1Y7
Paradies,Richmond,695,695 #0695 #695,Box 23612 Airport Postal Station,BC,BCV7B1Y7
