keywords,city,Aggdata Store Number,store_number,address,state,zip_code
Pier 1 Imports,Merritt Island,1,00001 0001,780 East Merritt Island Cswy,FL,32952-3562
Pier 1 Imports,Memphis,2,00002 0002,3115 Walnut Grove Rd,TN,38111-3509
Pier 1 Imports,Pacific Grove,8,00008 0008,490 Lighthouse Ave,CA,93950-2727
Pier 1 Imports,Greensburg,11,000011 00011,5129 Route 30,PA,15601-6692
Pier 1 Imports,Vero Beach,13,000013 00013,5980 20Th St,FL,32966-1019
Pier 1 Imports,Montclair,14,000014 00014,5440 Moreno St,CA,91763-1631
Pier 1 Imports,Medford,15,000015 00015,3425 Crater Lake Hwy,OR,97504-9259
Pier 1 Imports,Annapolis,20,000020 00020,2087 West St,MD,21401-3005
Pier 1 Imports,Scottsdale,21,000021 00021,8606 East Shea Blvd,AZ,85260-6614
Pier 1 Imports,King Of Prussia,22,000022 00022,Courtside Sq 140 Allendale Rd,PA,19406-2939
Pier 1 Imports,Chicago,23,000023 00023,1350 North Wells St,IL,60610-1936
Pier 1 Imports,Mount Pleasant,26,000026 00026,1128 Market Center Blvd,SC,29464-7467
Pier 1 Imports,Metairie,28,000028 00028,800 Metairie Rd,LA,70005-4043
Pier 1 Imports,Norman,29,000029 00029,200 Norman Center Ct,OK,73072-4843
Pier 1 Imports,Redmond,30,000030 00030,7231 170Th Ave Ne,WA,98052-4485
Pier 1 Imports,Manassas,31,000031 00031,8105 Sudley Rd,VA,20109-8035
Pier 1 Imports,West Palm Beach,33,000033 00033,2041 Zip Code Place,FL,33409-3109
Pier 1 Imports,Pasadena,34,000034 00034,8140 Ritchie Hwy,MD,21122-3906
Pier 1 Imports,Fort Collins,41,000041 00041,4336 South College Ave,CO,80525-3021
Pier 1 Imports,Towson,43,000043 00043,1 East Joppa Rd,MD,21286-3119
Pier 1 Imports,Houston,44,000044 00044,1927 West Gray,TX,77019-4801
Pier 1 Imports,Atlantic Beach,45,000045 00045,1071 Atlantic Blvd,FL,32233-3348
Pier 1 Imports,Holland,46,000046 00046,2308 North Park Dr,MI,49424-9599
Pier 1 Imports,Gastonia,47,000047 00047,3734 East Franklin Blvd,NC,28056-5210
Pier 1 Imports,West Lebanon,48,000048 00048,254 Plainfield Rd,NH,03784-2001
Pier 1 Imports,Burlington,49,000049 00049,1220 S Burlington Blvd,WA,98233-3316
Pier 1 Imports,Rapid City,50,000050 00050,2220 Haines Ave,SD,57701-7809
Pier 1 Imports,Citrus Heights,51,000051 00051,6245 Sunrise Blvd,CA,95610-5911
Pier 1 Imports,Midland,55,000055 00055,3001 West Loop 250N,TX,79705-3252
Pier 1 Imports,Portland,56,000056 00056,5331 Sw Macadam,OR,97239-6104
Pier 1 Imports,Omaha,57,000057 00057,7405 Dodge St,NE,68114-3615
Pier 1 Imports,Houston,58,000058 00058,5650 Fm 1960,TX,77069-4202
Pier 1 Imports,Carle Place,61,000061 00061,216 Glen Cove,NY,11514-1224
Pier 1 Imports,Fairless Hills,63,000063 00063,630 Commerce Blvd,PA,19030-1026
Pier 1 Imports,Anaheim,64,000064 00064,8156 East Santa Ana Canyon Rd,CA,92808-1112
Pier 1 Imports,Cary,65,000065 00065,1819 Walnut St,NC,27518-9201
Pier 1 Imports,Overland Park,68,000068 00068,7076 West 105Th St,KS,66212-1803
Pier 1 Imports,Rocky Mount,69,000069 00069,1472 Jeffreys Road,NC,27804-1820
Pier 1 Imports,Dallas,70,000070 00070,5427 West Lovers Ln,TX,75209-4217
Pier 1 Imports,Harrisburg,71,000071 00071,5104 Jonestown Rd,PA,17112-2923
Pier 1 Imports,Rockwall,75,000075 00075,2707 Market Center Dr,TX,75032-6564
Pier 1 Imports,Palm Springs,76,000076 00076,3319 South Congress Ave,FL,33461-3023
Pier 1 Imports,Paramus,77,000077 00077,723 Rte 17 S,NJ,07652-3111
Pier 1 Imports,Irving,80,000080 00080,7805 N Macarthur,TX,75063-7531
Pier 1 Imports,Newark,82,000082 00082,400 Centre Blvd,DE,19702-3223
Pier 1 Imports,Marietta,83,000083 00083,1401 Johnson Ferry Rd,GA,30062-6499
Pier 1 Imports,Hamilton,86,000086 00086,920 Upper Wentworth St,ON,L9A 5C5
Pier 1 Imports,Solon,88,000088 00088,6025 Kruse Dr,OH,44139-2378
Pier 1 Imports,Austin,90,000090 00090,9828 Great Hills Trail,TX,78759-6334
Pier 1 Imports,Sandusky,91,000091 00091,5020 Milan Rd,OH,44870-5844
Pier 1 Imports,Salinas,92,000092 00092,1520 North Main St,CA,93906-5101
Pier 1 Imports,Fairborn,94,000094 00094,2781-A Centre Dr,OH,45324-2676
Pier 1 Imports,Roanoke,95,000095 00095,4952 Valley View Blvd Nw,VA,24012-2036
Pier 1 Imports,Houma,101,0000101 000101,1556 Martin Luther King Blvd,LA,70360-2404
Pier 1 Imports,Bismarck,102,0000102 000102,715 South Washington St,ND,58504-5475
Pier 1 Imports,Skokie,103,0000103 000103,9701 North Skokie Blvd,IL,60077-1383
Pier 1 Imports,Harrisonburg,104,0000104 000104,1866-A East Market St,VA,22801-5111
Pier 1 Imports,Laredo,105,0000105 000105,7509 San Dario Avenue,TX,78045-7207
Pier 1 Imports,San Francisco,107,0000107 000107,555 9Th St,CA,94103-4430
Pier 1 Imports,Franklin,108,0000108 000108,1761 Galleria Blvd,TN,37067-1602
Pier 1 Imports,Helena,110,0000110 000110,1609 11Th Ave,MT,59601-4613
Pier 1 Imports,Winchester,111,0000111 000111,2290 Legge Blvd,VA,22601-3643
Pier 1 Imports,Dallas,113,0000113 000113,138 Medallion Center,TX,75214-7805
Pier 1 Imports,Niles,114,0000114 000114,5580 Youngstown-Warren Rd,OH,44446-4800
Pier 1 Imports,New Orleans,115,0000115 000115,5300 Tchoupitoulas St,LA,70115-1903
Pier 1 Imports,Albany,116,0000116 000116,120 Wolf Rd,NY,12205-1116
Pier 1 Imports,Brookline,117,0000117 000117,1351 Beacon St,MA,02446-4909
Pier 1 Imports,San Diego,119,0000119 000119,3220 Sports Arena Blvd,CA,92110-4528
Pier 1 Imports,Bowie,120,0000120 000120,4410 Mitchellville Rd,MD,20716-3112
Pier 1 Imports,Tulsa,124,0000124 000124,5255 South Sheridan,OK,74145-7629
Pier 1 Imports,Emeryville,125,0000125 000125,5719 Christie Avenue,CA,94608-2412
Pier 1 Imports,Watertown,126,0000126 000126,21220 Pioneer Plaza Dr,NY,13601-5500
Pier 1 Imports,Coral Gables,129,0000129 000129,1224 South Dixie Hwy,FL,33146-2902
Pier 1 Imports,Louisville,132,0000132 000132,4165 Shelbyville Rd,KY,40207-3202
Pier 1 Imports,Costa Mesa,135,0000135 000135,2710 Harbor Blvd,CA,92626-5123
Pier 1 Imports,Metairie,136,0000136 000136,8832 Veterans Memorial Hwy,LA,70003-5263
Pier 1 Imports,Riverside,140,0000140 000140,3784 Tyler Street,CA,92503-4161
Pier 1 Imports,Nashville,141,0000141 000141,21 White Bridge Rd,TN,37205-1443
Pier 1 Imports,Vienna,143,0000143 000143,607 Grand Central Ave,WV,26105-2141
Pier 1 Imports,Bourbonnais,144,0000144 000144,1660 North State Rte 50,IL,60914-9304
Pier 1 Imports,London,145,0000145 000145,94 Fanshawe Pk Rd E,ON,N5X 4C5
Pier 1 Imports,North Dartmouth,147,0000147 000147,36 Faunce Corner Road,MA,02747-4280
Pier 1 Imports,Reading,148,0000148 000148,1040 Berkshire Blvd,PA,19610-1226
Pier 1 Imports,Elizabethtown,151,0000151 000151,1820 N Dixie Hwy,KY,42701-9492
Pier 1 Imports,Culver City,153,0000153 000153,11140 Jefferson Blvd,CA,90230-5522
Pier 1 Imports,Davie,155,0000155 000155,3470 South University Dr,FL,33328-2000
Pier 1 Imports,Saint Paul,157,0000157 000157,733 Grand Ave,MN,55105-3422
Pier 1 Imports,Lancaster,158,0000158 000158,806 Plaza Blvd,PA,17601-2738
Pier 1 Imports,Monroeville,160,0000160 000160,4201 Wm Penn Hwy,PA,15146-2703
Pier 1 Imports,Westminster,162,0000162 000162,405 North Center St,MD,21157-5119
Pier 1 Imports,Destin,164,0000164 000164,4424 Commons Dr. East Ste 1-A,FL,32541-3414
Pier 1 Imports,Grand Forks,166,0000166 000166,2830 South Columbia Rd,ND,58201-6008
Pier 1 Imports,Rancho Santa Margari,167,0000167 000167,30451 Avenida De Las Flores,CA,92688-3923
Pier 1 Imports,Clifton Park,169,0000169 000169,304 Clifton Park Center Rd,NY,12065-2421
Pier 1 Imports,Texarkana,170,0000170 000170,3325 Mall Dr,TX,75503-2473
Pier 1 Imports,Ottawa,171,0000171 000171,1595 Merivale Road,ON,K2G 3J4
Pier 1 Imports,Seattle,174,0000174 000174,15725 Westminster Way,WA,98133-5900
Pier 1 Imports,Hampton,177,0000177 000177,1045 West Mercury Blvd,VA,23666-3308
Pier 1 Imports,Idaho Falls,178,0000178 000178,2275 East 17Th St,ID,83404-6512
Pier 1 Imports,Austin,181,0000181 000181,14010 Us Hwy 183N Suite 200,TX,78717-5915
Pier 1 Imports,Houston,184,0000184 000184,6815 Hwy 6 N,TX,77084-1315
Pier 1 Imports,Morgantown,188,0000188 000188,750 Venture Dr,WV,26508-7306
Pier 1 Imports,Del Mar,190,0000190 000190,2671 Via De La Valle,CA,92014-1903
Pier 1 Imports,Los Angeles,191,0000191 000191,5711 Hollywood Blvd,CA,90028-6705
Pier 1 Imports,Dothan,192,0000192 000192,200 Buyers Dr,AL,36303-2286
Pier 1 Imports,Royal Oak,194,0000194 000194,31800 Woodward Ave,MI,48073-0937
Pier 1 Imports,Aliso Viejo,196,0000196 000196,26771 Aliso Creek Rd,CA,92656-2887
Pier 1 Imports,Fayetteville,197,0000197 000197,575 Cross Creek Mall,NC,28303-7245
Pier 1 Imports,Santa Monica,199,0000199 000199,3000 Wilshire Blvd,CA,90403-2302
Pier 1 Imports,Topeka,203,0000203 000203,1930 Sw Wanamaker Rd,KS,66604-3829
Pier 1 Imports,Hattiesburg,204,0000204 000204,1000 Turtle Creek Dr,MS,39402-1173
Pier 1 Imports,Albuquerque,206,0000206 000206,6670 Indian School Rd Ne,NM,87110-5309
Pier 1 Imports,Chicago,208,0000208 000208,2862-2902 North Ashland Ave,IL,60657-4042
Pier 1 Imports,Lancaster,210,0000210 000210,2015 Schorrway Dr,OH,43130-8412
Pier 1 Imports,Fayetteville,211,0000211 000211,130 Pavillion Pkwy,GA,30214-4056
Pier 1 Imports,Wichita Falls,212,0000212 000212,4400 Kemp Blvd,TX,76308-3714
Pier 1 Imports,Kennewick,213,0000213 000213,1232 North Columbia Ctr Blvd,WA,99336-1117
Pier 1 Imports,Nottingham,218,0000218 000218,8165-A Honeygo Blvd,MD,21236-8208
Pier 1 Imports,Billings,219,0000219 000219,2395 Rosebud,MT,59102-6264
Pier 1 Imports,Lynnwood,220,0000220 000220,2617 196Th St Sw,WA,98036-6919
Pier 1 Imports,San Antonio,222,0000222 000222,18120 San Pedro Ave,TX,78232-1421
Pier 1 Imports,New Bern,224,0000224 000224,2033 S Glenburnie Rd,NC,28562-5228
Pier 1 Imports,Boynton Beach,225,0000225 000225,320 North Congress Ave,FL,33426-3413
Pier 1 Imports,Cincinnati,227,0000227 000227,8063 Montgomery Rd,OH,45236-2905
Pier 1 Imports,Secaucus,228,0000228 000228,700 Plaza Dr,NJ,07094-3604
Pier 1 Imports,Atlanta,229,0000229 000229,1544 Piedmont Rd,GA,30324-5018
Pier 1 Imports,Richmond,231,0000231 000231,7496 West Broad St,VA,23294-3606
Pier 1 Imports,Toledo,232,0000232 000232,5203 Monroe St,OH,43623-3139
Pier 1 Imports,Houston,239,0000239 000239,2501 Rice Blvd,TX,77005-3220
Pier 1 Imports,Plano,240,0000240 000240,"1805 Preston Rd, Ste. A",TX,75093-5101
Pier 1 Imports,Ajax,241,0000241 000241,90 Kingston Rd E,ON,L1Z 1G1
Pier 1 Imports,Las Cruces,244,0000244 000244,3020 East Lohman Ave,NM,88011-8246
Pier 1 Imports,Bedford Hills,246,0000246 000246,792 Bedford Road,NY,10507-1525
Pier 1 Imports,San Mateo,247,0000247 000247,2003 Chess Dr,CA,94404-1567
Pier 1 Imports,Glendale,249,0000249 000249,6010 North Port Wash Rd,WI,53217-4524
Pier 1 Imports,San Jose,250,0000250 000250,1009 Blossom Hill Rd,CA,95123-1104
Pier 1 Imports,East Syracuse,251,0000251 000251,5788 Bridge St,NY,13057-2921
Pier 1 Imports,Madison,252,0000252 000252,1902 West Beltline Hwy,WI,53713-2336
Pier 1 Imports,Tonawanda,253,0000253 000253,1650 Niagara Falls Blvd,NY,14150-7529
Pier 1 Imports,Green Bay,255,0000255 000255,2281 South Oneida St,WI,54304-4711
Pier 1 Imports,Beaverton,256,0000256 000256,9307 Sw Beaverton-Hlsdale,OR,97005-3360
Pier 1 Imports,Mcallen,257,0000257 000257,614 East Expressway 83,TX,78503-1600
Pier 1 Imports,Woburn,259,0000259 000259,425 Washington St,MA,01801-2157
Pier 1 Imports,Silverdale,261,0000261 000261,3235 Nw Plaza St,WA,98383-8101
Pier 1 Imports,Gresham,264,0000264 000264,470 Nw Eastman Pkwy,OR,97030-7251
Pier 1 Imports,Madison,265,0000265 000265,7475 Mineral Point Rd,WI,53717-1720
Pier 1 Imports,Traverse City,267,0000267 000267,3180 South Airport Rd W,MI,49684-8995
Pier 1 Imports,Phoenix,268,0000268 000268,12657 North Tatum Boulevard,AZ,85032-7795
Pier 1 Imports,Bozeman,269,0000269 000269,1640 North 19Th Ave,MT,59718-3649
Pier 1 Imports,Bellingham,270,0000270 000270,245 Hartford Ave,MA,02019-3007
Pier 1 Imports,Panama City,271,0000271 000271,507 East 23Rd Street,FL,32405-5307
Pier 1 Imports,Woodbridge,272,0000272 000272,14348 Gideon Dr,VA,22192-4640
Pier 1 Imports,Spokane,273,0000273 000273,101 W. North River Dr.,WA,99201-2253
Pier 1 Imports,Middletown,279,0000279 000279,400 North Galleria Dr,NY,10941-3000
Pier 1 Imports,Grand Junction,281,0000281 000281,2454 Hwy 6 And 50,CO,81505-1117
Pier 1 Imports,Greenfield,282,0000282 000282,5170 South 76Th St,WI,53129-1112
Pier 1 Imports,Daytona Beach,283,0000283 000283,2451 West International Spdwy,FL,32114-1117
Pier 1 Imports,Las Vegas,284,0000284 000284,3181 North Rainbow Blvd,NV,89108-4578
Pier 1 Imports,San Francisco,286,0000286 000286,3535 Geary Blvd,CA,94118-3212
Pier 1 Imports,Pointe-Claire,288,0000288 000288,"183-F, Boul Hymus",QC,H9R 1E9
Pier 1 Imports,Snellville,289,0000289 000289,1708 Scenic Hwy N,GA,30078-5645
Pier 1 Imports,Bel Air,290,0000290 000290,615 Bel Air Road,MD,21014-4308
Pier 1 Imports,Harper Woods,291,0000291 000291,19233 Vernier Rd,MI,48225-1010
Pier 1 Imports,Tucson,292,0000292 000292,4415 North Oracle Rd,AZ,85705-1635
Pier 1 Imports,Minnetonka,295,0000295 000295,11315 Hwy 7,MN,55305-5300
Pier 1 Imports,Sioux City,298,0000298 000298,4265 Sergeant Rd,IA,51106-4625
Pier 1 Imports,Salisbury,300,0000300 000300,2320 North Salisbury Blvd,MD,21801-2145
Pier 1 Imports,Knoxville,303,0000303 000303,8301 Kingston Pike,TN,37919-5450
Pier 1 Imports,Cheyenne,307,0000307 000307,1345 Dell Range Blvd,WY,82009-4852
Pier 1 Imports,Phoenix,308,0000308 000308,1743 East Camelback Rd,AZ,85016-4015
Pier 1 Imports,Louisville,309,0000309 000309,2000 South Hurstborne Pkwy,KY,40220-4207
Pier 1 Imports,Savannah,312,0000312 000312,5500 Abercorn,GA,31405-6913
Pier 1 Imports,Fairlawn,313,0000313 000313,3737 West Market St,OH,44333-4538
Pier 1 Imports,Tupelo,315,0000315 000315,3836 North Gloster St,MS,38804-9730
Pier 1 Imports,Stroudsburg,318,0000318 000318,101 Pocono Commons Drive,PA,18360-7599
Pier 1 Imports,Pasadena,323,0000323 000323,422 South Lake Ave,CA,91101-3510
Pier 1 Imports,Flagstaff,325,0000325 000325,1560 South Riordan Ranch St,AZ,86001-6372
Pier 1 Imports,San Angelo,326,0000326 000326,4141 Sunset Dr,TX,76904-5615
Pier 1 Imports,Grand Rapids,329,0000329 000329,2995-28Th St Se,MI,49512-1648
Pier 1 Imports,Lexington,331,0000331 000331,1900 Pavillion Way,KY,40509-2210
Pier 1 Imports,Falls Church,332,0000332 000332,5857-A Leesburg Pike,VA,22041-2324
Pier 1 Imports,Albuquerque,334,0000334 000334,10010 Coors Blvd Nw,NM,87114-4020
Pier 1 Imports,Vancouver,336,0000336 000336,1702 West Broadway,BC,V6J  1Y
Pier 1 Imports,Santa Fe,337,0000337 000337,4056 Cerrillos,NM,87507-2605
Pier 1 Imports,Sterling Heights,338,0000338 000338,44501 Schoenherr,MI,48313-1133
Pier 1 Imports,Southbury,340,0000340 000340,775 Main Street South,CT,06488-2271
Pier 1 Imports,Bellevue,341,0000341 000341,905 Bellevue Way Ne,WA,98004-4207
Pier 1 Imports,Fort Wayne,344,0000344 000344,1750 Apple Glen Blvd,IN,46804-1725
Pier 1 Imports,Charleston,346,0000346 000346,1909 Sam Rittenburg,SC,29407-4825
Pier 1 Imports,Key West,350,0000350 000350,2716 North Roosevelt Blvd,FL,33040-3926
Pier 1 Imports,Charlotte,352,0000352 000352,4729 South Blvd,NC,28217-2117
Pier 1 Imports,Altoona,354,0000354 000354,2800 Old Rte 220,PA,16601-9337
Pier 1 Imports,Waterloo,356,0000356 000356,2602 Crossroads Blvd,IA,50702-4412
Pier 1 Imports,Merrillville,357,0000357 000357,1685 East 80Th Ave,IN,46410-5737
Pier 1 Imports,Victor,359,0000359 000359,140 Cobblestone Court Dr,NY,14564-9719
Pier 1 Imports,Hoover,361,0000361 000361,Riverchase,AL,35244-1215
Pier 1 Imports,Flint,363,0000363 000363,4310 Miller Rd,MI,48507-1253
Pier 1 Imports,Everett,364,0000364 000364,1425 Se Everett Mall Way,WA,98208-2850
Pier 1 Imports,Branford,365,0000365 000365,1078 West Main St,CT,06405-3428
Pier 1 Imports,Tallahassee,366,0000366 000366,1407 East Lafayette,FL,32301-4747
Pier 1 Imports,Alexandria,368,0000368 000368,4349 Duke St,VA,22304-2557
Pier 1 Imports,Fredericksburg,369,0000369 000369,3071 Plank Rd,VA,22401-4951
Pier 1 Imports,Elk Grove,370,0000370 000370,7440 Laguna Blvd,CA,95758-5060
Pier 1 Imports,Kahului,371,0000371 000371,270 Dairy Rd,HI,96732-2987
Pier 1 Imports,Madison,372,0000372 000372,2021 N Gallatin Rd,TN,37115-2029
Pier 1 Imports,Pineville,373,0000373 000373,10501 Centrum Pkwy,NC,28134-8814
Pier 1 Imports,Cupertino,374,0000374 000374,20610 Stevens Creek Blvd,CA,95014-2120
Pier 1 Imports,Covington,375,0000375 000375,66 Park Place,LA,70433-5183
Pier 1 Imports,Chicago,376,0000376 000376,2112 North Clybourn,IL,60614-4402
Pier 1 Imports,Mississauga,377,0000377 000377,5980 Mclaughlin Rd,ON,L5R 3X9
Pier 1 Imports,Boulder,378,0000378 000378,2530 Arapahoe,CO,80302-6711
Pier 1 Imports,Troy,380,0000380 000380,388 John R Rd,MI,48083-4542
Pier 1 Imports,Auburn,383,0000383 000383,1716 Opelika Rd,AL,36830-2866
Pier 1 Imports,Huntsville,386,0000386 000386,4806 University Dr,AL,35816-1808
Pier 1 Imports,Westmount,387,0000387 000387,"4823, Rue Sherbrooke Ouest",QC,H3Z 1G8
Pier 1 Imports,Manchester,390,0000390 000390,19 Pavilions Dr,CT,06042-8702
Pier 1 Imports,Miami,391,0000391 000391,8725 Sw 136Th St,FL,33176-5814
Pier 1 Imports,Saint-Bruno,392,0000392 000392,"1201, Boul. Des Promenades",QC,J3V 6H1
Pier 1 Imports,Indianapolis,393,0000393 000393,5602 Castleton Corners Ln,IN,46250-3500
Pier 1 Imports,Coral Springs,397,0000397 000397,751 University Dr,FL,33071-7047
Pier 1 Imports,Oak Park,400,0000400 000400,1143 West Lake St,IL,60301-1001
Pier 1 Imports,Kansas City,403,0000403 000403,6001 Nw Barry Rd,MO,64154-2527
Pier 1 Imports,Albany,404,0000404 000404,2620 Dawson Rd,GA,31707-6679
Pier 1 Imports,Gulfport,407,0000407 000407,15154 Crossroads Pkway,MS,39503-3565
Pier 1 Imports,Park City,408,0000408 000408,6535 Landmark Drive,UT,84098-5990
Pier 1 Imports,Chicago,409,0000409 000409,5304 North Broadway,IL,60640-2312
Pier 1 Imports,Minnetonka,410,0000410 000410,12970 Wayzata Blvd,MN,55305-1949
Pier 1 Imports,Cincinnati,411,0000411 000411,2689 Edmondson Road,OH,45209-1910
Pier 1 Imports,Johnson City,412,0000412 000412,2116 North Roan St,TN,37601-2536
Pier 1 Imports,Little Rock,414,0000414 000414,724 South Bowman Rd,AR,72211-3616
Pier 1 Imports,Brookfield,418,0000418 000418,17000 Nw Bluemound Rd,WI,53005-5951
Pier 1 Imports,San Diego,420,0000420 000420,12004 Carmel Mountain Rd,CA,92128-4649
Pier 1 Imports,Largo,421,0000421 000421,2351 101St Street,FL,33771-3552
Pier 1 Imports,Happy Valley,422,0000422 000422,11211 Se 82Nd Ave,OR,97086-7624
Pier 1 Imports,Lubbock,423,0000423 000423,5102 60Th Quorum,TX,79414-4300
Pier 1 Imports,Hagerstown,424,0000424 000424,17730 Garland Groh Blvd,MD,21740-2016
Pier 1 Imports,Lansing,428,0000428 000428,16709 South Torrence Ave,IL,60438-6018
Pier 1 Imports,Wilmington,429,0000429 000429,3741 Oleander Dr,NC,28403-0823
Pier 1 Imports,Springfield,431,0000431 000431,6751-A Frontier Dr,VA,22150-1412
Pier 1 Imports,Lexington,432,0000432 000432,4001 Nicholasville Rd,KY,40503-4487
Pier 1 Imports,Salt Lake City,433,0000433 000433,4850 Highland Dr,UT,84117-6007
Pier 1 Imports,Oceanside,436,0000436 000436,2555 Vista Way,CA,92054-6339
Pier 1 Imports,Albuquerque,437,0000437 000437,6001 San Mateo Ne,NM,87109-3397
Pier 1 Imports,Baytown,438,0000438 000438,6616 Garth Rd,TX,77521-8623
Pier 1 Imports,Fresno,439,0000439 000439,7457 N Blackstone Ave,CA,93720-4305
Pier 1 Imports,Warwick,445,0000445 000445,1276 Bald Hill Rd,RI,02886-4200
Pier 1 Imports,Mohegan Lake,446,0000446 000446,3125 E Main St,NY,10547-1521
Pier 1 Imports,Freehold,449,0000449 000449,4331 Route 9 Unit 1,NJ,07728-4215
Pier 1 Imports,Dublin,450,0000450 000450,4976 Dublin Blvd,CA,94568-7568
Pier 1 Imports,Paramus,452,0000452 000452,58-64 Rte 4 E,NJ,07652-2621
Pier 1 Imports,Fairfax,454,0000454 000454,11210 James Swart Circle,VA,22030-5023
Pier 1 Imports,Springfield,455,0000455 000455,3110 S Glenstone Ave,MO,65804-4404
Pier 1 Imports,Huntington Station,456,0000456 000456,7 East Jericho Turnpike,NY,11746-7301
Pier 1 Imports,Jacksonville,461,0000461 000461,9395 Atlantic Blvd,FL,32225-8218
Pier 1 Imports,Round Rock,464,0000464 000464,2701-B Parker Road,TX,78681-7992
Pier 1 Imports,Hilton Head Island,465,0000465 000465,20 Hatton Place,SC,29926-4202
Pier 1 Imports,Jensen Beach,469,0000469 000469,3520 Northwest Federal Hwy,FL,34957-4424
Pier 1 Imports,Glen Allen,470,0000470 000470,11120 W Broad Street,VA,23060-5813
Pier 1 Imports,Madison,472,0000472 000472,4260 East Towne Blvd,WI,53704-3704
Pier 1 Imports,Enfield,477,0000477 000477,34 Hazard Ave,CT,06082-3723
Pier 1 Imports,Ballwin,483,0000483 000483,15382 Manchester Rd,MO,63011-3052
Pier 1 Imports,Colma,485,0000485 000485,101 Colma Blvd,CA,94014-3232
Pier 1 Imports,Hanover,486,0000486 000486,1282 Washington St,MA,02339-1631
Pier 1 Imports,Palm Harbor,487,0000487 000487,31650 U S Hwy 19 N,FL,34684-3723
Pier 1 Imports,Ridgeland,491,0000491 000491,900 East County Line Rd,MS,39157-1922
Pier 1 Imports,Joplin,494,0000494 000494,410 Range Line Rd,MO,64801-1612
Pier 1 Imports,Spring Valley,495,0000495 000495,150 Spring Valley Market Place,NY,10977-5222
Pier 1 Imports,Oklahoma City,496,0000496 000496,5517 North Pennsylvania Ave,OK,73112-7753
Pier 1 Imports,Eagan,498,0000498 000498,1275 Promenade Place,MN,55121-2293
Pier 1 Imports,Brampton,500,0000500 000500,200 Great Lakes Drive,ON,L6R 2K7
Pier 1 Imports,Owensboro,501,0000501 000501,5221 Frederica St,KY,42301-7444
Pier 1 Imports,Canoga Park,502,0000502 000502,6500 Canoga Ave,CA,91303-2759
Pier 1 Imports,Douglasville,503,0000503 000503,2850 Chapel Hill Road,GA,30135-1766
Pier 1 Imports,Aventura,504,0000504 000504,18681 Biscayne Blvd,FL,33180-2918
Pier 1 Imports,Calgary,505,0000505 000505,3630 Brentwood Rd Nw,AB,T2L 1K8
Pier 1 Imports,Rochester,506,0000506 000506,2475 W Ridge Road,NY,14626-3033
Pier 1 Imports,Manhattan Beach,508,0000508 000508,1800 C Rosecrans Ave,CA,90266-3776
Pier 1 Imports,Gaithersburg,509,0000509 000509,30 Grand Corner Avenue,MD,20878-7303
Pier 1 Imports,Westerly,510,0000510 000510,100 Franklin Street,RI,02891-3152
Pier 1 Imports,Goshen,511,0000511 000511,4024 Elkhart Rd,IN,46526-5803
Pier 1 Imports,Warsaw,512,0000512 000512,2802 Frontage Rd,IN,46580-3912
Pier 1 Imports,Benton Harbor,513,0000513 000513,1000 E Napier Ave,MI,49022-3957
Pier 1 Imports,Winter Park,514,0000514 000514,480 N Orlando Ave,FL,32789-2912
Pier 1 Imports,Hanover,517,0000517 000517,422 Eisenhower Dr,PA,17331-5221
Pier 1 Imports,Old Saybrook,518,0000518 000518,665 Boston Post Rd,CT,06475-1521
Pier 1 Imports,Fort Myers,519,0000519 000519,4945 S Cleveland Ave,FL,33907-1399
Pier 1 Imports,Valdosta,520,0000520 000520,1819 Norman Drive,GA,31601-3502
Pier 1 Imports,Peoria,521,0000521 000521,5115 W Holiday Drive,IL,61615-9462
Pier 1 Imports,Oakville,522,0000522 000522,2501 Hampshire Gate #1,ON,L6H 6C8
Pier 1 Imports,Escondido,523,0000523 000523,1272 Auto Parkway,CA,92029-2239
Pier 1 Imports,Waterloo,524,0000524 000524,564 King Street North,ON,N2L 6L3
Pier 1 Imports,Coralville,525,0000525 000525,1401 Coral Ridge Ave,IA,52241-2801
Pier 1 Imports,Seekonk,527,0000527 000527,145 Highland Ave,MA,02771-5818
Pier 1 Imports,Macon,528,0000528 000528,2101 Eisenhower Pkwy,GA,31206-3185
Pier 1 Imports,Calgary,529,0000529 000529,5506 Signal Hill Center,AB,T3H 3P8
Pier 1 Imports,Anchorage,530,0000530 000530,8535 Old Seward Hwy,AK,99515-2015
Pier 1 Imports,Baton Rouge,531,0000531 000531,6757 Bluebonnet Blvd,LA,70836-6700
Pier 1 Imports,Columbia,532,0000532 000532,6131 Columbia Crossing Circle,MD,21045-8208
Pier 1 Imports,Watchung,534,0000534 000534,1515 Route 22 West,NJ,07069-6509
Pier 1 Imports,Cranston,535,0000535 000535,1 New London Ave,RI,02920-5600
Pier 1 Imports,Port Charlotte,536,0000536 000536,18500 Veterans Blvd,FL,33954-1035
Pier 1 Imports,Mobile,537,0000537 000537,3787 Airport Blvd,AL,36608-1617
Pier 1 Imports,Lawrence,538,0000538 000538,3211 Iowa Street,KS,66046-5205
Pier 1 Imports,Auburn Hills,540,0000540 000540,3918 Baldwin Road,MI,48326-1219
Pier 1 Imports,Buford,541,0000541 000541,1695 Mall Of Georgia Blvd,GA,30519-4929
Pier 1 Imports,Wilkes-Barre Township,542,0000542 000542,407 Arena Hub Plaza,PA,18702-6838
Pier 1 Imports,Columbus,543,0000543 000543,3970 Morse Crossing,OH,43219-3016
Pier 1 Imports,Plainfield,544,0000544 000544,2683 East Main Street,IN,46168-2767
Pier 1 Imports,Brea,545,0000545 000545,2395 East Imperial Hwy,CA,92821-6112
Pier 1 Imports,St. Catharines,546,0000546 000546,"221 Glendale Ave.,#601",ON,L2T 2K9
Pier 1 Imports,Calgary,547,0000547 000547,200-303 Shawville Blvd Se,AB,T2Y 3W6
Pier 1 Imports,Langley,548,0000548 000548,20195 Langley Bypass,BC,V3A 6K9
Pier 1 Imports,Victoria,549,0000549 000549,755 Finlayson Street,BC,V8T 4W4
Pier 1 Imports,Pennsdale,550,0000550 000550,1431 Lycoming Mall Circle,PA,17756-1825
Pier 1 Imports,Sioux Falls,552,0000552 000552,3801 West 49Th St,SD,57106-4204
Pier 1 Imports,Fort Smith,553,0000553 000553,6604 Rogers Ave,AR,72903-4064
Pier 1 Imports,Phoenix,554,0000554 000554,4717 East Ray Rd,AZ,85044-6230
Pier 1 Imports,Champaign,555,0000555 000555,2001 North Prospect Ave,IL,61822-1235
Pier 1 Imports,Carbondale,556,0000556 000556,1401 East Main St,IL,62901-3141
Pier 1 Imports,Temple,557,0000557 000557,3040 South 31St St,TX,76502-1802
Pier 1 Imports,Woodcliff Lake,560,0000560 000560,453 Chestnut Ridge Rd,NJ,07677-7679
Pier 1 Imports,Paducah,561,0000561 000561,5145 Hinkleville Rd,KY,42001-9048
Pier 1 Imports,Bloomington,562,0000562 000562,1 Auto Row Dr,IL,61704-0911
Pier 1 Imports,Tyler,565,0000565 000565,4516 South Broadway,TX,75703-1305
Pier 1 Imports,Sunset Valley,566,0000566 000566,4965 West Hwy 290,TX,78735-6705
Pier 1 Imports,Gainesville,567,0000567 000567,300 Pearl Nix Pkwy,GA,30501-4101
Pier 1 Imports,Lafayette,568,0000568 000568,3550 State Rd 38 E,IN,47905-5121
Pier 1 Imports,Virginia Beach,569,0000569 000569,3405 Virginia Beach Blvd,VA,23452-4419
Pier 1 Imports,Columbia,570,0000570 000570,1901 Bernadette Dr,MO,65203-5012
Pier 1 Imports,Birmingham,571,0000571 000571,105 Inverness Corners,AL,35242-3762
Pier 1 Imports,High Point,572,0000572 000572,1070 Mall Loop Rd,NC,27262-7656
Pier 1 Imports,Conroe,573,0000573 000573,27900 I 45 N,TX,77385-8730
Pier 1 Imports,Maple Grove,574,0000574 000574,7900 Wedgewood Ln,MN,55369-9403
Pier 1 Imports,Dickson City,575,0000575 000575,700 Commerce Blvd,PA,18519-1674
Pier 1 Imports,Oklahoma City,577,0000577 000577,13801 North Pennsylvania,OK,73134-6053
Pier 1 Imports,Willow Grove,580,0000580 000580,1134 Easton Rd,PA,19090-1922
Pier 1 Imports,Portland,581,0000581 000581,1800 N. Tomahawk Island Dr.,OR,97217-7800
Pier 1 Imports,Gainesville,583,0000583 000583,3638 Sw Archer Rd,FL,32608-2420
Pier 1 Imports,Duluth,584,0000584 000584,901 West Central Entrance,MN,55811-5469
Pier 1 Imports,Memphis,585,0000585 000585,2725 North Germantown Pkwy,TN,38133-8148
Pier 1 Imports,Fort Worth,586,0000586 000586,4901 Overton Ridge Blvd,TX,76132-1910
Pier 1 Imports,Woodbury,587,0000587 000587,8452 Tamarack Village,MN,55125-3383
Pier 1 Imports,Humble,588,0000588 000588,20524 U S Hwy 59 N,TX,77338-2412
Pier 1 Imports,Charlotte,591,0000591 000591,8802 J W Clay Blvd,NC,28262-5405
Pier 1 Imports,Sugarland,592,0000592 000592,2521 Town Center Blvd N,TX,77479-2318
Pier 1 Imports,Niles,593,0000593 000593,5637 West Touhy Ave,IL,60714-4019
Pier 1 Imports,Tacoma,594,0000594 000594,4301 South Steele St,WA,98409-7222
Pier 1 Imports,Lone Tree,595,0000595 000595,8360 South Willow St,CO,80124-2844
Pier 1 Imports,Hamden,596,0000596 000596,2335 Dixwell Ave,CT,06514-2100
Pier 1 Imports,Jacksonville,597,0000597 000597,1325 Western Blvd,NC,28546-6663
Pier 1 Imports,La Mesa,598,0000598 000598,5500 Grossmont Center Dr,CA,91942-3070
Pier 1 Imports,Encinitas,599,0000599 000599,1022 North El Camino Real,CA,92024-1320
Pier 1 Imports,Vestal,600,0000600 000600,2540 Vestal Pkwy East,NY,13850-2027
Pier 1 Imports,Sarasota,601,0000601 000601,4768 South Tamiami Trail,FL,34231-4350
Pier 1 Imports,Sanford,604,0000604 000604,401 Town Center Blvd,FL,32771-7407
Pier 1 Imports,Long Beach,610,0000610 000610,6378 Pacific Coast Hwy,CA,90803-4875
Pier 1 Imports,Aurora,611,0000611 000611,4362 East New York,IL,60504-4121
Pier 1 Imports,Myrtle Beach,612,0000612 000612,1101 Seaboard St,SC,29577-6527
Pier 1 Imports,San Leandro,613,0000613 000613,15100 Hesperian Blvd,CA,94578-3639
Pier 1 Imports,Eau Claire,617,0000617 000617,4008 Commonwealth Ave,WI,54701-9000
Pier 1 Imports,Olympia,618,0000618 000618,1309 Cooper Point Rd,WA,98502-5729
Pier 1 Imports,Saint Peters,622,0000622 000622,180 Mid-Rivers Mall Circle,MO,63376-4321
Pier 1 Imports,Mesa,629,0000629 000629,1155 South Power Rd,AZ,85206-3716
Pier 1 Imports,Newmarket,630,0000630 000630,17440 Yonge St,ON,L3Y 6Y9
Pier 1 Imports,Missoula,631,0000631 000631,2800 North Reserve,MT,59808-1308
Pier 1 Imports,San Antonio,633,0000633 000633,7080 San Pedro Ave,TX,78216-6208
Pier 1 Imports,Spokane,635,0000635 000635,9940 North Newport Hwy,WA,99218-1366
Pier 1 Imports,Cranberry Township,636,0000636 000636,20267 Rte 19 N,PA,16066-6149
Pier 1 Imports,Mays Landing,637,0000637 000637,3984 Black Horse Pike,NJ,08330-3127
Pier 1 Imports,Issaquah,639,0000639 000639,1435 11Th Ave Nw,WA,98027-5319
Pier 1 Imports,Fort Lauderdale,640,0000640 000640,1860 North Federal Hwy,FL,33305-2557
Pier 1 Imports,Whitehall,641,0000641 000641,2630 Mac Arthur Rd,PA,18052-3817
Pier 1 Imports,Fremont,642,0000642 000642,39198 Fremont Blvd. The Hub,CA,94538-1316
Pier 1 Imports,La Canada Flintridge,643,0000643 000643,2200 Foothill Blvd,CA,91011-1413
Pier 1 Imports,Forsyth,645,0000645 000645,987 S Route 51,IL,62535-1022
Pier 1 Imports,Bradenton,647,0000647 000647,4430 14Th St W,FL,34207-1425
Pier 1 Imports,Manchester,648,0000648 000648,1111 South Willow St,NH,03103-4035
Pier 1 Imports,Hot Springs,649,0000649 000649,200 Cornerstone Blvd,AR,71913-6564
Pier 1 Imports,Laurel,650,0000650 000650,3401 Fort Meade Road,MD,20724-2003
Pier 1 Imports,Twin Falls,652,0000652 000652,1676 Locust St N,ID,83301-3471
Pier 1 Imports,Meriden,654,0000654 000654,533 South Broad St,CT,06450-6661
Pier 1 Imports,Midland,655,0000655 000655,1409 Joe Mann Blvd,MI,48642-8905
Pier 1 Imports,Great Falls,656,0000656 000656,1601 Market Place Dr,MT,59404-3482
Pier 1 Imports,Northridge,657,0000657 000657,8940 Tampa Ave,CA,91324-3521
Pier 1 Imports,Lakeland,658,0000658 000658,3880 U S Hwy 98 N,FL,33809-3811
Pier 1 Imports,Saginaw,659,0000659 000659,2508 Tittabawassee Rd,MI,48604-9477
Pier 1 Imports,East York,661,0000661 000661,815 Eglinton Ave E,ON,M4G 4G9
Pier 1 Imports,Amarillo,662,0000662 000662,8511 West Interstate Hwy 40,TX,79121-2000
Pier 1 Imports,Pembroke Pines,663,0000663 000663,11575 Pines Blvd,FL,33026-4120
Pier 1 Imports,Salt Lake City,667,0000667 000667,30 West 900 South,UT,84101-2930
Pier 1 Imports,Rochester,668,0000668 000668,300 Hylan Dr,NY,14623-4216
Pier 1 Imports,Bayshore,669,0000669 000669,1871 Sunrise Hwy,NY,11706-6017
Pier 1 Imports,Winston-Salem,670,0000670 000670,1026 Hanes Mall Blvd,NC,27103-1309
Pier 1 Imports,Tuscaloosa,671,0000671 000671,1525 Skyland Blvd E,AL,35405-4231
Pier 1 Imports,Chico,674,0000674 000674,1931 East 20Th St,CA,95928-6341
Pier 1 Imports,Tampa,675,0000675 000675,16318 North Dale Mabry,FL,33618-1341
Pier 1 Imports,Ocala,677,0000677 000677,2516 Sw College Rd,FL,34471-1612
Pier 1 Imports,White Plains,680,0000680 000680,499 Tarrytown Rd,NY,10607-1339
Pier 1 Imports,Battle Creek,681,0000681 000681,5800 Beckley Rd,MI,49015-4197
Pier 1 Imports,Taylor,682,0000682 000682,14440 Pardee Road,MI,48180-6320
Pier 1 Imports,Palmdale,683,0000683 000683,1105 West Ave P,CA,93551-3935
Pier 1 Imports,Southern Pines,688,0000688 000688,9 Pinecrest Plaza,NC,28387-4301
Pier 1 Imports,Sterling,689,0000689 000689,21050 Southbank,VA,20165-7273
Pier 1 Imports,Larchmont,690,0000690 000690,1329 Boston Post Rd,NY,10538-3902
Pier 1 Imports,Yuma,693,0000693 000693,839 West 32Nd St,AZ,85364-7934
Pier 1 Imports,Germantown,694,0000694 000694,7730 Poplar Ave,TN,38138-3948
Pier 1 Imports,Brunswick,695,0000695 000695,181 Golden Isles Plaza,GA,31520-1937
Pier 1 Imports,North Attleboro,696,0000696 000696,1250 South Washington St,MA,02760-6227
Pier 1 Imports,Florence,697,0000697 000697,7606 Mall Rd,KY,41042-1404
Pier 1 Imports,Newington,698,0000698 000698,2661 Berlin Turnpike,CT,06111-4114
Pier 1 Imports,Toledo,701,0000701 000701,5225 Airport Hwy,OH,43615-6800
Pier 1 Imports,Lake Grove,704,0000704 000704,2021 Smith Haven Plaza,NY,11755-1209
Pier 1 Imports,Bakersfield,705,0000705 000705,3800 Mall View Rd,CA,93306-3029
Pier 1 Imports,Long Beach,706,0000706 000706,214 East Park Ave,NY,11561-3521
Pier 1 Imports,Batavia,707,0000707 000707,481 North Randall,IL,60510-9298
Pier 1 Imports,Mentor,708,0000708 000708,7777 Mentor Ave,OH,44060-5533
Pier 1 Imports,Santa Rosa,709,0000709 000709,2716 Santa Rosa Ave,CA,95407-6220
Pier 1 Imports,Monroe,711,0000711 000711,4681 Pecanland Mall Dr,LA,71203-7001
Pier 1 Imports,Salem,713,0000713 000713,125A South Broadway,NH,03079-3007
Pier 1 Imports,Sandy,715,0000715 000715,102 West 10600 South St,UT,84070-4128
Pier 1 Imports,Boise,722,0000722 000722,140 North Milwaukee,ID,83704-9129
Pier 1 Imports,Saint Petersburg,723,0000723 000723,4949 4Th St N,FL,33703-3800
Pier 1 Imports,Peoria,724,0000724 000724,7739 West Bell Rd,AZ,85382-3804
Pier 1 Imports,El Paso,725,0000725 000725,730 Sunland Park Dr,TX,79912-6700
Pier 1 Imports,West Melbourne,726,0000726 000726,2045 West New Haven Ave,FL,32904-3801
Pier 1 Imports,Fayetteville,729,0000729 000729,4100 North College Ave,AR,72703-5120
Pier 1 Imports,Corpus Christi,730,0000730 000730,5317 South Padre Island Dr,TX,78411-4103
Pier 1 Imports,Greenville,731,0000731 000731,420 Congaree Rd,SC,29607-2729
Pier 1 Imports,La Crosse,732,0000732 000732,3616 Hwy 157,WI,54601-1822
Pier 1 Imports,Puyallup,733,0000733 000733,4621 South Meridian,WA,98373-3409
Pier 1 Imports,Canton,736,0000736 000736,4643 Everhard Rd,OH,44718-2424
Pier 1 Imports,Woodbridge,738,0000738 000738,3900 Hwy 7,ON,L4L 1A6
Pier 1 Imports,Dayton,742,0000742 000742,2777 Miamisburg-Centerville Rd,OH,45459-3729
Pier 1 Imports,Bellingham,744,0000744 000744,4061 Meridian St,WA,98226-5516
Pier 1 Imports,Joliet,745,0000745 000745,3064 Plainfield Rd,IL,60435-1191
Pier 1 Imports,Leesburg,746,0000746 000746,502 D East Market St,VA,20176-4112
Pier 1 Imports,Norfolk,749,0000749 000749,5930 Virginia Beach Blvd,VA,23502-2402
Pier 1 Imports,Wilmington,751,0000751 000751,3660 Concord Pike,DE,19803-5022
Pier 1 Imports,Freeport,752,0000752 000752,210 East Sunrise Hwy,NY,11520-3943
Pier 1 Imports,Bristol,753,0000753 000753,594 Farmington Ave,CT,06010-3951
Pier 1 Imports,Boca Raton,757,0000757 000757,20655 Lyons Rd,FL,33434-3947
Pier 1 Imports,Clay,762,0000762 000762,4100 Rte 31,NY,13041-8704
Pier 1 Imports,Norwood,764,0000764 000764,1583 Providence Hwy,MA,02062-4635
Pier 1 Imports,Sebring,766,0000766 000766,760 U S 27 N,FL,33870-2158
Pier 1 Imports,Columbia,767,0000767 000767,250 Harbison Blvd,SC,29212-2232
Pier 1 Imports,Nashville,772,0000772 000772,3730 Hillsboro Pike,TN,37215-2118
Pier 1 Imports,Bowling Green,774,0000774 000774,2608 Scottsville Rd,KY,42104-4406
Pier 1 Imports,Abilene,775,0000775 000775,3950 South Clack St,TX,79606-2710
Pier 1 Imports,Slidell,779,0000779 000779,170 North Shore Blvd,LA,70460-6820
Pier 1 Imports,Alexandria,780,0000780 000780,2235 South Macarthur Dr,LA,71301-3052
Pier 1 Imports,Santa Maria,781,0000781 000781,230 East Betteravia Rd,CA,93455-7845
Pier 1 Imports,Saint Louis,782,0000782 000782,7320 South Lindbergh Blvd,MO,63125-4522
Pier 1 Imports,San Antonio,784,0000784 000784,11745 Ih 10 W,TX,78230-1048
Pier 1 Imports,Fort Wayne,786,0000786 000786,4224 Coldwater Rd,IN,46805-1110
Pier 1 Imports,Miami,787,0000787 000787,8415 Sw 24Th St,FL,33155-2305
Pier 1 Imports,Toms River,790,0000790 000790,621 Bay Ave,NJ,08753-3313
Pier 1 Imports,Barboursville,791,0000791 000791,150 Mall Rd,WV,25504-1823
Pier 1 Imports,Chesapeake,792,0000792 000792,4140 Portsmouth Blvd,VA,23321-2134
Pier 1 Imports,East Hanover,793,0000793 000793,375 Rte 10,NJ,07936-9998
Pier 1 Imports,Montgomeryville,794,0000794 000794,801 Horsham Rd,PA,18936-9604
Pier 1 Imports,Blasdell,795,0000795 000795,3701 Mckinley Pkwy,NY,14219-2695
Pier 1 Imports,Naples,797,0000797 000797,5062 Airport Pulling Rd N,FL,34105-2413
Pier 1 Imports,New York,800,0000800 000800,71 Fifth Ave,NY,10003-3004
Pier 1 Imports,Avon,802,0000802 000802,385 West Main St,CT,06001-4357
Pier 1 Imports,Southampton,803,0000803 000803,54 Montauk Hwy,NY,11968-4121
Pier 1 Imports,Murfreesboro,806,0000806 000806,1971 Old Fort Pkwy,TN,37129-6905
Pier 1 Imports,Temecula,809,0000809 000809,26415 Ynez Rd,CA,92591-4654
Pier 1 Imports,North Little Rock,810,0000810 000810,2601 Mccain Blvd,AR,72116-8013
Pier 1 Imports,Wauwatosa,812,0000812 000812,2545 North Mayfair Rd,WI,53226-1402
Pier 1 Imports,Clovis,813,0000813 000813,1055 Shaw Ave,CA,93612-3933
Pier 1 Imports,Hillsboro,816,0000816 000816,2483 Nw 185Th Ave,OR,97124-7077
Pier 1 Imports,Pittsburgh,821,0000821 000821,843 Freeport Rd,PA,15238-2709
Pier 1 Imports,San Clemente,822,0000822 000822,415 East Avenida Pico,CA,92672-3800
Pier 1 Imports,Arlington,823,0000823 000823,4145 South Cooper St,TX,76015-4128
Pier 1 Imports,Pittsfield,824,0000824 000824,555 Hubbard Ave,MA,01201-3876
Pier 1 Imports,Ottawa,827,0000827 000827,1163 St Laurent Blvd,ON,K1K 3B7
Pier 1 Imports,Brandon,829,0000829 000829,2111 West Brandon Blvd,FL,33511-4703
Pier 1 Imports,Dover,832,0000832 000832,1231 North Dupont Hwy,DE,19901-8703
Pier 1 Imports,Valencia,833,0000833 000833,24445 West Magic Mountain Pkwy,CA,91355-3403
Pier 1 Imports,North Charleston,834,0000834 000834,7643 North Rivers Ave,SC,29406-4073
Pier 1 Imports,Richfield,835,0000835 000835,2900 West 66Th St,MN,55423-1939
Pier 1 Imports,Nashua,836,0000836 000836,2 Northwest Blvd,NH,03063-4066
Pier 1 Imports,Danbury,841,0000841 000841,1 Sugar Hollow Rd,CT,06810-7401
Pier 1 Imports,Chesterfield,842,0000842 000842,51405 Gratiot Ave,MI,48051-2041
Pier 1 Imports,Fargo,843,0000843 000843,4330 13Th Ave Sw,ND,58103-3313
Pier 1 Imports,Burnsville,844,0000844 000844,1501 County Rd 42 W,MN,55306-6212
Pier 1 Imports,Clarksville,845,0000845 000845,2819 Wilma Rudolph Blvd Ste A,TN,37040-5156
Pier 1 Imports,Hyannis,848,0000848 000848,1070 Rte 132,MA,02601-1871
Pier 1 Imports,Bloomington,849,0000849 000849,849 Automall Rd,IN,47401-6320
Pier 1 Imports,Lafayette,852,0000852 000852,5530 Johnston St,LA,70503-5138
Pier 1 Imports,Holyoke,853,0000853 000853,98 Lower Westfield Rd,MA,01040-2712
Pier 1 Imports,Chicago Ridge,854,0000854 000854,9820 Ridgeland,IL,60415-2611
Pier 1 Imports,Comstock Park,855,0000855 000855,3909 Alpine Ave Nw,MI,49321-8350
Pier 1 Imports,Roseville,863,0000863 000863,2397 North Fairview Ave,MN,55113-2707
Pier 1 Imports,Longview,865,0000865 000865,307 West Loop 281,TX,75604-4442
Pier 1 Imports,Chattanooga,867,0000867 000867,2130 Hamilton Place Blvd,TN,37421-6026
Pier 1 Imports,Erie,871,0000871 000871,5666 Peach St,PA,16509-2682
Pier 1 Imports,Federal Way,874,0000874 000874,2424 South 320Th St,WA,98003-5419
Pier 1 Imports,Decatur,878,0000878 000878,3795 North Druid Hills Rd,GA,30033-3730
Pier 1 Imports,Racine,880,0000880 000880,2621 South Green Bay Rd,WI,53406-4948
Pier 1 Imports,Deptford,881,0000881 000881,1500 N. Almonesson Rd. Ste. 5,NJ,08096-5260
Pier 1 Imports,Delray Beach,882,0000882 000882,2975 South Federal Hwy,FL,33483-3217
Pier 1 Imports,Spokane,886,0000886 000886,14748 East Indiana,WA,99216-1814
Pier 1 Imports,Rockford,887,0000887 000887,6325 East State St,IL,61108-2540
Pier 1 Imports,Rochester,888,0000888 000888,1201 South Broadway,MN,55904-3862
Pier 1 Imports,Springfield,889,0000889 000889,2691 Veterans Pkwy,IL,62704-6401
Pier 1 Imports,Baltimore,890,0000890 000890,1809 Reisterstown Rd,MD,21208-6329
Pier 1 Imports,Clive,892,0000892 000892,8801 University Ave,IA,50325-6247
Pier 1 Imports,Pittsburgh,895,0000895 000895,200 Mcholme Dr,PA,15275-1211
Pier 1 Imports,Barrie,896,0000896 000896,70 Barrie View Dr,ON,L4N 8V4
Pier 1 Imports,Orlando,1000,00001000 0001000,525 N Alafaya Trl,FL,32828-7034
Pier 1 Imports,Edmonton,1001,00001001 0001001,1910 99 Street Nw,AB,T6N  1K
Pier 1 Imports,Camarillo,1002,00001002 0001002,135 W Ventura Blvd,CA,93010-8353
Pier 1 Imports,Jonesboro,1003,00001003 0001003,2300 E. Highland Dr. Ste. A,AR,72401-6211
Pier 1 Imports,Norwalk,1004,00001004 0001004,777 Connecticut Ave,CT,06854-1615
Pier 1 Imports,Greenwood,1005,00001005 0001005,525 Bypass 72 Nw,SC,29649-1301
Pier 1 Imports,Kerrville,1006,00001006 0001006,1304 Junction Hwy,TX,78028-4835
Pier 1 Imports,Fairview Heights,1007,00001007 0001007,6101 N Illinois St,IL,62208-2714
Pier 1 Imports,Shrewsbury,1008,00001008 0001008,606 Shrewsbury Commons Ave,PA,17361-1617
Pier 1 Imports,Edgewater,1009,00001009 0001009,11 The Promenade,NJ,07020-2126
Pier 1 Imports,Wichita,1010,00001010 0001010,1800 N Rock Road,KS,67206-4205
Pier 1 Imports,West Bend,1012,00001012 0001012,1225 W Paradise Dr,WI,53095-7827
Pier 1 Imports,Fond Du Lac,1013,00001013 0001013,516 N Rolling Meadows Dr,WI,54937-9700
Pier 1 Imports,Findlay,1015,00001015 0001015,1949 Tiffin Ave,OH,45840-6752
Pier 1 Imports,Muskegon,1016,00001016 0001016,5325 Harvey St,MI,49444-9767
Pier 1 Imports,Frisco,1017,00001017 0001017,3321 Preston Rd,TX,75034-9448
Pier 1 Imports,South Charleston,1018,00001018 0001018,36 Rhl Blvd,WV,25309-8278
Pier 1 Imports,Eugene,1019,00001019 0001019,298 Coburg Rd,OR,97401-5607
Pier 1 Imports,Kokomo,1021,00001021 0001021,1429 S Reed Rd,IN,46902-1927
Pier 1 Imports,Roseville,1022,00001022 0001022,1101 Galleria Blvd,CA,95678-1935
Pier 1 Imports,Flemington,1023,00001023 0001023,39 Reaville Ave,NJ,08822-1714
Pier 1 Imports,Folsom,1026,00001026 0001026,2775 E Bidwell St,CA,95630-6405
Pier 1 Imports,Holmdel,1028,00001028 0001028,2130 State Route 35,NJ,07733-2770
Pier 1 Imports,Braintree,1029,00001029 0001029,120 Granite St,MA,02184-1747
Pier 1 Imports,Morehead City,1030,00001030 0001030,5218 A Hwy 70 W,NC,28557-4506
Pier 1 Imports,Williamsville,1031,00001031 0001031,8420 Transit Rd,NY,14221-2818
Pier 1 Imports,Glen Allen,1033,00001033 0001033,9840 Brook Rd,VA,23059-4529
Pier 1 Imports,La Jolla,1034,00001034 0001034,8657 Villa La Jolla Dr,CA,92037-8310
Pier 1 Imports,Miami,1035,00001035 0001035,8615 Sw 124Th Ave,FL,33183-4601
Pier 1 Imports,Louisville,1036,00001036 0001036,4330 Summit Plaza Dr,KY,40241-8108
Pier 1 Imports,Covington,1037,00001037 0001037,16901 Se 272Nd St. Ste. 45,WA,98042-4906
Pier 1 Imports,Wausau,1038,00001038 0001038,3500 Rib Mountain Dr,WI,54401-7440
Pier 1 Imports,Broomfield,1039,00001039 0001039,211 East Flatiron Circle,CO,80021-8029
Pier 1 Imports,Westport,1040,00001040 0001040,1460 Post Road East,CT,06880-5500
Pier 1 Imports,Naples,1042,00001042 0001042,1000 Immokalee Rd #90,FL,34110-4800
Pier 1 Imports,California,1043,00001043 0001043,45098 Worth Ave,MD,20619-2406
Pier 1 Imports,Mcminnville,1044,00001044 0001044,2350 Ne Highway 99W,OR,97128-9202
Pier 1 Imports,Webster,1045,00001045 0001045,1855 Empire Blvd,NY,14580-2109
Pier 1 Imports,Paso Robles,1047,00001047 0001047,2169 Theater Dr,CA,93446-9647
Pier 1 Imports,Exton,1048,00001048 0001048,287 Main St,PA,19341-3701
Pier 1 Imports,Encino,1049,00001049 0001049,17150 Ventura Blvd,CA,91316-4003
Pier 1 Imports,Leominster,1050,00001050 0001050,15 Water Tower Plaza,MA,01453-2249
Pier 1 Imports,Harvey,1051,00001051 0001051,1629 Westbank Expressway,LA,70058-4312
Pier 1 Imports,Saint Clairsville,1052,00001052 0001052,50850 Valley Centre Blvd,OH,43950-1741
Pier 1 Imports,Dallas,1053,00001053 0001053,13710 Dallas Pkwy,TX,75240-1318
Pier 1 Imports,Decatur,1055,00001055 0001055,809 Beltline Rd Sw,AL,35601-6337
Pier 1 Imports,Glen Mills,1056,00001056 0001056,975 Baltimore Pike,PA,19342-1016
Pier 1 Imports,Pittsburgh,1058,00001058 0001058,7219 B Mcknight Rd,PA,15237-3509
Pier 1 Imports,Jefferson City,1059,00001059 0001059,3535 Missouri Blvd,MO,65109-5769
Pier 1 Imports,Indianapolis,1062,00001062 0001062,6810 S Emerson Ave,IN,46237-3320
Pier 1 Imports,Kingston,1064,00001064 0001064,646 Gardiners Rd,ON,K7M 3X9
Pier 1 Imports,Bloomingdale,1066,00001066 0001066,398 W Army Trail Rd Ste. 106,IL,60108-2633
Pier 1 Imports,Rocky Point,1067,00001067 0001067,291 Route 25A,NY,11778-8803
Pier 1 Imports,Dekalb,1068,00001068 0001068,2371 Sycamore Rd,IL,60115-2007
Pier 1 Imports,Hendersonville,1069,00001069 0001069,88 Highland Square Dr,NC,28792-5722
Pier 1 Imports,Las Vegas,1071,00001071 0001071,9887 South Eastern Ave,NV,89123-6949
Pier 1 Imports,Oro Valley,1072,00001072 0001072,10571 N. Oracle Rd. #102,AZ,85737-9353
Pier 1 Imports,Saint Louis,1073,00001073 0001073,1805 S Brentwood Blvd,MO,63144-1809
Pier 1 Imports,Chino,1074,00001074 0001074,3881 Grand Ave,CA,91710-5439
Pier 1 Imports,Kirkland,1075,00001075 0001075,"3220, Rue Jean-Yves",QC,H9J 2R6
Pier 1 Imports,Winnipeg,1076,00001076 0001076,785 Dakota Street,MB,R2M  5M
Pier 1 Imports,Richmond,1078,00001078 0001078,9771 Bridgeport Rd,BC,V6X  1S
Pier 1 Imports,Selma,1080,00001080 0001080,8344 Agora Parkway,TX,78154-1326
Pier 1 Imports,Rossford,1081,00001081 0001081,9848 Olde Us 20,OH,43460-1722
Pier 1 Imports,Cedar Hill,1082,00001082 0001082,304 N Highway 67,TX,75104-2157
Pier 1 Imports,Osage Beach,1083,00001083 0001083,3975 Jr Prewitt Parkway,MO,65065-8403
Pier 1 Imports,Tampa,1084,00001084 0001084,128 South Westshore Blvd,FL,33609-2539
Pier 1 Imports,Rogers,1088,00001088 0001088,475 N 46Th St,AR,72756-1831
Pier 1 Imports,Pasadena,1089,00001089 0001089,5660 Fairmont Pkwy,TX,77505-3904
Pier 1 Imports,Howell,1090,00001090 0001090,3477 E Grand River Ave,MI,48843-8552
Pier 1 Imports,Rock Hill,1091,00001091 0001091,542 John Ross Pkwy,SC,29730-8910
Pier 1 Imports,Manasquan,1092,00001092 0001092,2410 Highway 35,NJ,08736-1157
Pier 1 Imports,Wellington,1093,00001093 0001093,10510 W Forest Hill Blvd,FL,33414-3135
Pier 1 Imports,Montreal,1094,00001094 0001094,"A-8-1001,Rue Du Marche Central",QC,H4N  1J
Pier 1 Imports,San Antonio,1095,00001095 0001095,11625 Bandera Road,TX,78250-6818
Pier 1 Imports,Rehoboth Beach,1096,00001096 0001096,18742 Coastal Hwy,DE,19971-6149
Pier 1 Imports,Kamloops,1097,00001097 0001097,1055 Hillside Dr,BC,V2E  2S
Pier 1 Imports,Deer Park,1098,00001098 0001098,20530 N Rand Rd,IL,60010-7240
Pier 1 Imports,West Hartford,1099,00001099 0001099,1465 New Britain Ave,CT,06110-1659
Pier 1 Imports,Petoskey,1101,00001101 0001101,1309 Spring Street,MI,49770-8720
Pier 1 Imports,Surrey,1102,00001102 0001102,3091 152Nd Street,BC,V4P  3K
Pier 1 Imports,Abbotsford,1103,00001103 0001103,32720 S Fraser Way,BC,V2T  4M
Pier 1 Imports,Surprise,1104,00001104 0001104,13710 W Bell Road,AZ,85374-3803
Pier 1 Imports,Saint George,1106,00001106 0001106,329 South River Road,UT,84790-2118
Pier 1 Imports,Lynchburg,1107,00001107 0001107,4024-B Wards Road,VA,24502-2496
Pier 1 Imports,Christiansburg,1108,00001108 0001108,35 Conston Avenue,VA,24073-1164
Pier 1 Imports,Clarksburg,1109,00001109 0001109,499 Emily Drive,WV,26301-5512
Pier 1 Imports,Matthews,1110,00001110 0001110,2315 Matthews Township Parkway,NC,28105-2360
Pier 1 Imports,Springfield,1111,00001111 0001111,275 Rte 22 East,NJ,07081-3554
Pier 1 Imports,Shrewsbury,1112,00001112 0001112,571 Boston Turnpike,MA,01545-5977
Pier 1 Imports,Paoli,1113,00001113 0001113,82 E Lancaster Ave,PA,19301-1485
Pier 1 Imports,Midlothian,1114,00001114 0001114,4572 Commonwealth Center Pkwy,VA,23112-2766
Pier 1 Imports,Littleton,1115,00001115 0001115,7301 S Santa Fe Drive,CO,80120-2926
Pier 1 Imports,Denver,1116,00001116 0001116,2780 S Colorado Blvd,CO,80222-6613
Pier 1 Imports,Indianapolis,1117,00001117 0001117,2902 West 86Th Street,IN,46268-2196
Pier 1 Imports,Edmonton,1119,00001119 0001119,13530 137Th Avenue Nw,AB,T5L  5E
Pier 1 Imports,Ypsilanti,1120,00001120 0001120,3785 Carpenter Road,MI,48197-9606
Pier 1 Imports,Monaca,1121,00001121 0001121,135 Wagner Road,PA,15061-2421
Pier 1 Imports,Edmonton,1122,00001122 0001122,17515 Stony Plain Rd Nw,AB,T5S  2S
Pier 1 Imports,Milford,1123,00001123 0001123,98 Turnpike Square,CT,06460-2758
Pier 1 Imports,Ventura,1124,00001124 0001124,4900 Telephone Road,CA,93003-0457
Pier 1 Imports,Burlington,1125,00001125 0001125,3230 Fairview Street,ON,L7N 3H5
Pier 1 Imports,Lake Charles,1126,00001126 0001126,302 W Prien Lake Road,LA,70601-8492
Pier 1 Imports,Cuyahoga Falls,1127,00001127 0001127,392 Howe Avenue,OH,44221-4919
Pier 1 Imports,Hickory,1128,00001128 0001128,1844 Catawba Valley Blvd Se,NC,28602-4145
Pier 1 Imports,Tukwila,1129,00001129 0001129,17388 Southcenter Parkway,WA,98188-3316
Pier 1 Imports,Glastonbury,1130,00001130 0001130,2838 Main Street,CT,06033-1036
Pier 1 Imports,Lansing,1131,00001131 0001131,647 N Market Place Blvd,MI,48917-7736
Pier 1 Imports,Vacaville,1132,00001132 0001132,2070 Harbison Drive,CA,95687-3901
Pier 1 Imports,Daphne,1134,00001134 0001134,6850 Highway 90,AL,36526-9554
Pier 1 Imports,Fountain Hills,1135,00001135 0001135,16815 East Shea Blvd,AZ,85268-6666
Pier 1 Imports,Newburgh,1136,00001136 0001136,1255 Route 300,NY,12550-5007
Pier 1 Imports,El Cerrito,1137,00001137 0001137,7000 El Cerrito Plaza,CA,94530-4020
Pier 1 Imports,Lisbon,1138,00001138 0001138,160 River Road,CT,06351-1250
Pier 1 Imports,Hamilton,1139,00001139 0001139,150 Marketplace Blvd,NJ,08691-2103
Pier 1 Imports,Asheville,1140,00001140 0001140,100 River Hills Rd,NC,28805-2550
Pier 1 Imports,Foley,1141,00001141 0001141,2863 S Mckenzie St,AL,36535-3413
Pier 1 Imports,Lansing,1142,00001142 0001142,2917 Preyde Blvd,MI,48912-3693
Pier 1 Imports,La Grange,1143,00001143 0001143,15 N La Grange Road,IL,60525-2047
Pier 1 Imports,Easton,1144,00001144 0001144,219 Marlboro Ave,MD,21601-2720
Pier 1 Imports,Richmond,1145,00001145 0001145,11401 Midlothian Turnpike,VA,23235-4717
Pier 1 Imports,Anjou,1146,00001146 0001146,"7151, Boul. Des Roseraies",QC,H1M 2T5
Pier 1 Imports,Burleson,1147,00001147 0001147,1107 N Burleson Blvd,TX,76028-7009
Pier 1 Imports,South Elgin,1148,00001148 0001148,358 Randall Road,IL,60177-2261
Pier 1 Imports,Rosemere,1149,00001149 0001149,"20A, Boul. Bouthillier",QC,J7A  4B
Pier 1 Imports,Gig Harbor,1150,00001150 0001150,5160 Borgen Blvd,WA,98332-7893
Pier 1 Imports,Turlock,1153,00001153 0001153,2901 Countryside Drive,CA,95380-8401
Pier 1 Imports,North Vancouver,1154,00001154 0001154,1595 Marine Drive,BC,V7P  1T
Pier 1 Imports,Mchenry,1155,00001155 0001155,2328 N Richmond Rd,IL,60050-1430
Pier 1 Imports,Warner Robins,1156,00001156 0001156,2622 Watson Blvd,GA,31093-8073
Pier 1 Imports,Frankfort,1157,00001157 0001157,1303 Us 127 South,KY,40601-4358
Pier 1 Imports,Prescott,1158,00001158 0001158,3250 Gateway Blvd,AZ,86303-6867
Pier 1 Imports,Salem,1159,00001159 0001159,803 Lancaster Dr Ne,OR,97301-2929
Pier 1 Imports,Wyoming,1160,00001160 0001160,4950 Wilson Ave Sw,MI,49418-3135
Pier 1 Imports,Wilmington,1161,00001161 0001161,6885 Main Street,NC,28405-4168
Pier 1 Imports,Virginia Beach,1162,00001162 0001162,1169 Nimmo Parkway,VA,23456-7730
Pier 1 Imports,Santee,1163,00001163 0001163,9820 Mission Gorge Road,CA,92071-3834
Pier 1 Imports,Huntersville,1165,00001165 0001165,8805 Townley Road,NC,28078-1896
Pier 1 Imports,Flowood,1166,00001166 0001166,279 Dogwood Blvd,MS,39232-8605
Pier 1 Imports,Bakersfield,1167,00001167 0001167,9030 Rosedale Hwy,CA,93312-2160
Pier 1 Imports,Windsor,1168,00001168 0001168,4315 Walker Road,ON,N8W 3T6
Pier 1 Imports,Los Gatos,1169,00001169 0001169,636 Blossom Hill Rd,CA,95032-4514
Pier 1 Imports,Ankeny,1170,00001170 0001170,1965 Se Delaware Ave,IA,50021-3934
Pier 1 Imports,North Olmsted,1171,00001171 0001171,25953 Great Northern Shop Ctr,OH,44070-4371
Pier 1 Imports,Capitola,1173,00001173 0001173,3825 Clares Street,CA,95010-2537
Pier 1 Imports,Laguna Niguel,1174,00001174 0001174,32411 Golden Lantern,CA,92677-5338
Pier 1 Imports,Markham,1175,00001175 0001175,3135 Highway 7,ON,L3R 0T9
Pier 1 Imports,Kelso,1176,00001176 0001176,421 Three Rivers Drive,WA,98626-3126
Pier 1 Imports,Wenatchee,1177,00001177 0001177,1304 North Miller Street,WA,98801-1544
Pier 1 Imports,Orem,1178,00001178 0001178,360 E University Pkwy,UT,84058-7602
Pier 1 Imports,Redding,1179,00001179 0001179,1120 Hilltop Drive,CA,96003-3809
Pier 1 Imports,Houston,1181,00001181 0001181,1172 Fry Road,TX,77084-5805
Pier 1 Imports,Flanders,1182,00001182 0001182,30 International Dr South,NJ,07836-4110
Pier 1 Imports,Denville,1183,00001183 0001183,3056 State Route 10,NJ,07834-3423
Pier 1 Imports,Fenton,1184,00001184 0001184,160 Gravois Bluff Circle,MO,63026-7712
Pier 1 Imports,Columbus,1185,00001185 0001185,5555 Whittlesey Blvd,GA,31909-7230
Pier 1 Imports,Novato,1186,00001186 0001186,108 Vintage Way,CA,94945-5003
Pier 1 Imports,Manahawkin,1187,00001187 0001187,601 Washington Ave,NJ,08050-2800
Pier 1 Imports,Kanata,1188,00001188 0001188,501 Earl Grey Drive,ON,K2T 1K4
Pier 1 Imports,Cheektowaga,1189,00001189 0001189,1740 Walden Ave,NY,14225-4925
Pier 1 Imports,Washington,1190,00001190 0001190,351 Washington Road,PA,15301-2701
Pier 1 Imports,Moncton,1191,00001191 0001191,185 Trinity Dr,NB,E1G  2J
Pier 1 Imports,Hemet,1192,00001192 0001192,2999 W Florida Ave,CA,92545-3616
Pier 1 Imports,Charlotte,1193,00001193 0001193,5335 Ballantyne Commons Pkwy,NC,28277-0525
Pier 1 Imports,Modesto,1195,00001195 0001195,3801 Pelandale Ave,CA,95356-8304
Pier 1 Imports,Lees Summit,1196,00001196 0001196,1712 Nw Chipman Road,MO,64081-3936
Pier 1 Imports,Halifax,1197,00001197 0001197,7010 Mumford Road,NS,B3L  4W
Pier 1 Imports,Greenville,1199,00001199 0001199,714 Se Greenville Blvd,NC,27858-5141
Pier 1 Imports,Lachenaie,1200,00001200 0001200,"460, Montee Des Pionniers",QC,J6V 1N9
Pier 1 Imports,Waterford,1201,00001201 0001201,915 Hartford Turnpike,CT,06385-4265
Pier 1 Imports,San Diego,1202,00001202 0001202,5171 Mission Center Road,CA,92108-3212
Pier 1 Imports,Saint-Jerome,1203,00001203 0001203,"1085, Jean-Baptiste Rolland",QC,J7Y 4Y7
Pier 1 Imports,Youngstown,1205,00001205 0001205,550 Boardman Poland Road,OH,44512-4908
Pier 1 Imports,Regina,1206,00001206 0001206,2030 Prince Of Wales Drive,SK,S4V 3A6
Pier 1 Imports,Cumming,1207,00001207 0001207,1505 Market Place Blvd,GA,30041-7935
Pier 1 Imports,Long Beach,1208,00001208 0001208,7641 Carson Blvd,CA,90808-2367
Pier 1 Imports,Phoenix,1209,00001209 0001209,21001 N Tatum Blvd,AZ,85050-4236
Pier 1 Imports,Red Deer,1210,00001210 0001210,Unit 189,AB,T4R 3A2
Pier 1 Imports,Henderson,1212,00001212 0001212,535 N Stephanie St,NV,89014-6613
Pier 1 Imports,Huntsville,1213,00001213 0001213,2750 Carl T Jones Drive,AL,35802-4913
Pier 1 Imports,Atlanta,1214,00001214 0001214,"3101 Cobb Parkway Se, Ste 100",GA,30339-3497
Pier 1 Imports,Mcdonough,1215,00001215 0001215,1784 Jonesboro Rd,GA,30253-5900
Pier 1 Imports,Mississauga,1216,00001216 0001216,3135 Argentia Rd #4,ON,L5N 8E1
Pier 1 Imports,Orange,1217,00001217 0001217,763 S Main Street,CA,92868-4610
Pier 1 Imports,New Hartford,1218,00001218 0001218,4799 Commercial Drive,NY,13413-6211
Pier 1 Imports,Greensboro,1219,00001219 0001219,3116 Northline Ave,NC,27408-7818
Pier 1 Imports,Riverdale,1220,00001220 0001220,1087 W Riverdale Road,UT,84405-3720
Pier 1 Imports,"Saint-Dorothee, Laval",1221,00001221 0001221,"870, Autoroute Chomedey",QC,H7X 3S9
Pier 1 Imports,Greensboro,1222,00001222 0001222,1210-C Bridford Parkway,NC,27407-2645
Pier 1 Imports,Cartersville,1223,00001223 0001223,445 Cherokee Place,GA,30121-2969
Pier 1 Imports,Saratoga Springs,1224,00001224 0001224,3078 State Route 50,NY,12866-2906
Pier 1 Imports,St Augustine,1225,00001225 0001225,330 Cbl Drive,FL,32086-5165
Pier 1 Imports,Edmond,1226,00001226 0001226,1350 E 2Nd Street,OK,73034-5319
Pier 1 Imports,Avon,1228,00001228 0001228,35948 Detroit Road,OH,44011-1653
Pier 1 Imports,Saskatoon,1229,00001229 0001229,121-1715 Preston,SK,S7H 2V7
Pier 1 Imports,Kansas City,1230,00001230 0001230,8600 Ward Parkway,MO,64114-2614
Pier 1 Imports,Valparaiso,1232,00001232 0001232,150 Silhavy Road,IN,46383-6971
Pier 1 Imports,Lincoln,1233,00001233 0001233,2950 Pine Lake Road,NE,68516-6020
Pier 1 Imports,Pensacola,1234,00001234 0001234,4970 Bayou Blvd,FL,32503-2542
Pier 1 Imports,Ithaca,1235,00001235 0001235,722 South Meadow Street,NY,14850-5321
Pier 1 Imports,Quebec,1236,00001236 0001236,"1450, Boul. Lebourgneuf",QC,G2K 2M4
Pier 1 Imports,Commack,1237,00001237 0001237,118 Veterans Memorial Hwy,NY,11725-3432
Pier 1 Imports,Noblesville,1238,00001238 0001238,17070 Mercantile Blvd,IN,46060-3941
Pier 1 Imports,Plantation,1239,00001239 0001239,12160 West Sunrise Blvd,FL,33323-2227
Pier 1 Imports,Knoxville,1241,00001241 0001241,11130 Parkside Dr,TN,37934-1960
Pier 1 Imports,Miami Beach,1242,00001242 0001242,1130 5Th Street,FL,33139-6507
Pier 1 Imports,Goodyear,1243,00001243 0001243,1442 N Litchfield Road,AZ,85395-1263
Pier 1 Imports,Flower Mound,1244,00001244 0001244,6101 Long Prairie Road,TX,75028-6204
Pier 1 Imports,Stockton,1245,00001245 0001245,760 W Hammer Lane,CA,95210-3748
Pier 1 Imports,Acton,1246,00001246 0001246,145 Great Road,MA,01720-5673
Pier 1 Imports,Mooresville,1247,00001247 0001247,598 River Highway,NC,28117-8840
Pier 1 Imports,Denton,1248,00001248 0001248,1800 S. Loop 288 Ste. 360,TX,76205-4803
Pier 1 Imports,Sudbury,1250,00001250 0001250,1400 Marcus Drive,ON,P3B 4K5
Pier 1 Imports,Feasterville,1251,00001251 0001251,120 East Street Road,PA,19053-7604
Pier 1 Imports,Durham,1252,00001252 0001252,6807 Fayetteville Rd,NC,27713-8721
Pier 1 Imports,Las Vegas,1253,00001253 0001253,8945 W Charleston Blvd,NV,89117-5457
Pier 1 Imports,Granger,1254,00001254 0001254,405 University Drive E,IN,46530-4479
Pier 1 Imports,Miami,1256,00001256 0001256,10600 Nw 19Th Street,FL,33172-2542
Pier 1 Imports,Columbus,1258,00001258 0001258,1320 Polaris Parkway,OH,43240-2038
Pier 1 Imports,Fenton,1259,00001259 0001259,15250 Silver Parkway,MI,48430-3469
Pier 1 Imports,Glenview,1261,00001261 0001261,2331 Willow Road,IL,60025-7637
Pier 1 Imports,Orlando,1264,00001264 0001264,4600 Millenia Plaza Way,FL,32839-2434
Pier 1 Imports,Pearland,1265,00001265 0001265,3113 Silverlake Village Dr,TX,77584-8082
Pier 1 Imports,Winter Haven,1266,00001266 0001266,440 Citi Centre Street,FL,33880-3418
Pier 1 Imports,Palm Desert,1267,00001267 0001267,72359 Highway 111,CA,92260-2746
Pier 1 Imports,Sherwood Park,1268,00001268 0001268,2020 Sherwood Drive,AB,T8A 3H9
Pier 1 Imports,Calgary,1269,00001269 0001269,3221 Sunridge Way,AB,T1Y  7M
Pier 1 Imports,Garner,1270,00001270 0001270,230 Shenstone Blvd,NC,27529-6905
Pier 1 Imports,Nanaimo,1272,00001272 0001272,6660 Mary Ellen Dr,BC,V9V 1T7
Pier 1 Imports,West Chester,1273,00001273 0001273,7676 Voice Of America Drive,OH,45069-2794
Pier 1 Imports,Massapequa Park,1274,00001274 0001274,5220 Sunrise Highway,NY,11762-2907
Pier 1 Imports,Raleigh,1275,00001275 0001275,8391 Brier Creek Parkway,NC,27617-7303
Pier 1 Imports,Jersey City,1276,00001276 0001276,125 18Th Street,NJ,07310-1242
Pier 1 Imports,Viera,1277,00001277 0001277,7201 Shoppes Drive,FL,32940-6617
Pier 1 Imports,Central Valley,1278,00001278 0001278,9 Centre Drive,NY,10917-6501
Pier 1 Imports,Shawnee,1279,00001279 0001279,15300 Shawnee Mission Parkway,KS,66217-9312
Pier 1 Imports,Vallejo,1280,00001280 0001280,121 Plaza Drive,CA,94591-3711
Pier 1 Imports,Coeur D'Alene,1281,00001281 0001281,410 W Wilbur Ave,ID,83815-7904
Pier 1 Imports,Marquette,1282,00001282 0001282,3155 Us Highway 41 West,MI,49855-9494
Pier 1 Imports,Ancaster,1283,00001283 0001283,737 Golf Links Rd,ON,L9K 1L5
Pier 1 Imports,Howell,1284,00001284 0001284,4759 Route 9 North,NJ,07731-3385
Pier 1 Imports,Rome,1285,00001285 0001285,1438 Turner Mccall Blvd Sw,GA,30161-6072
Pier 1 Imports,Vancouver,1286,00001286 0001286,2326 West 41St Avenue,BC,V6M 2A7
Pier 1 Imports,Augusta,1287,00001287 0001287,12 Stephen King Dr,ME,04330-8082
Pier 1 Imports,Port Coquitlam,1288,00001288 0001288,2755 Lougheed Hwy,BC,V3B 5Y9
Pier 1 Imports,Kalispell,1289,00001289 0001289,2375 Us Highway 93 North,MT,59901-7531
Pier 1 Imports,Tampa,1290,00001290 0001290,17512 Dona Michelle Dr,FL,33647-3258
Pier 1 Imports,Tampa,1291,00001291 0001291,6907 Gunn Hwy,FL,33625-3817
Pier 1 Imports,Kansas City,1292,00001292 0001292,1011 W 136Th Street,MO,64145-1651
Pier 1 Imports,Chesapeake,1293,00001293 0001293,1232 Greenbrier Parkway,VA,23320-2886
Pier 1 Imports,Eden Prairie,1294,00001294 0001294,574 Prairie Center Drive,MN,55344-7945
Pier 1 Imports,Spartanburg,1295,00001295 0001295,120 Dorman Centre Drive,SC,29301-2625
Pier 1 Imports,Germantown,1296,00001296 0001296,N96W18768 County Line Road,WI,53022-4553
Pier 1 Imports,Colorado Springs,1297,00001297 0001297,1685 Briargate Pkwy Ste 311,CO,80920-8600
Pier 1 Imports,Fairfield,1298,00001298 0001298,2264 Black Rock Turnpike,CT,06825-3219
Pier 1 Imports,Watauga,1300,00001300 0001300,7608 Denton Hwy,TX,76148-2478
Pier 1 Imports,Columbia,1301,00001301 0001301,10136 Two Notch Rd,SC,29229-4399
Pier 1 Imports,Riverhead,1302,00001302 0001302,1470 Old Country Rd,NY,11901-2040
Pier 1 Imports,Antioch,1304,00001304 0001304,5739 Lone Tree Way,CA,94531-8587
Pier 1 Imports,Clearwater,1305,00001305 0001305,2713 Gulf To Bay Blvd,FL,33759-3945
Pier 1 Imports,Colorado Springs,1306,00001306 0001306,3030 New Center Point,CO,80922-2814
Pier 1 Imports,Northville,1307,00001307 0001307,17955 Haggerty Road,MI,48168-9513
Pier 1 Imports,Scottsdale,1309,00001309 0001309,16219 N Scottsdale Road,AZ,85254-1522
Pier 1 Imports,Augusta,1310,00001310 0001310,267 Robert C Daniel Jr Pkwy,GA,30909-0801
Pier 1 Imports,Alexandria,1311,00001311 0001311,3901 Jefferson Davis Hwy,VA,22305-3124
Pier 1 Imports,Gilroy,1312,00001312 0001312,6835 Camino Arroyo,CA,95020-7081
Pier 1 Imports,Kenosha,1313,00001313 0001313,6830 Greenbay Road,WI,53142-1426
Pier 1 Imports,Evansville,1314,00001314 0001314,6501 E Lloyd Expressway,IN,47715-4077
Pier 1 Imports,Cape May Court House,1316,00001316 0001316,5 Court House South Dennis,NJ,08210-1966
Pier 1 Imports,Algonquin,1317,00001317 0001317,718 South Randall Road,IL,60102-5915
Pier 1 Imports,Springfield,1318,00001318 0001318,1014 Baltimore Pike,PA,19064-2836
Pier 1 Imports,Summerville,1319,00001319 0001319,424 Azalea Square Blvd,SC,29483-7321
Pier 1 Imports,Florissant,1320,00001320 0001320,13939 New Halls Ferry Rd,MO,63033-2943
Pier 1 Imports,Conroe,1321,00001321 0001321,505 I-45 North,TX,77304-2331
Pier 1 Imports,Carson City,1322,00001322 0001322,971 Topsy Lane,NV,89705-8402
Pier 1 Imports,Riverside,1323,00001323 0001323,2800 Campus Parkway,CA,92507-0906
Pier 1 Imports,Lakewood,1324,00001324 0001324,10310 59Th Avenue Sw,WA,98499-2765
Pier 1 Imports,Merced,1325,00001325 0001325,1778 W Olive Ave,CA,95348-1201
Pier 1 Imports,Dallas,1326,00001326 0001326,10720 Preston Road,TX,75230-8853
Pier 1 Imports,Marietta,1328,00001328 0001328,3625 Dallas Hwy Sw,GA,30064-1615
Pier 1 Imports,Coon Rapids,1330,00001330 0001330,12760 Riverdale Blvd,MN,55448-1259
Pier 1 Imports,Kansas City,1331,00001331 0001331,8530 N Evanston Rd,MO,64157-1226
Pier 1 Imports,Poughkeepsie,1332,00001332 0001332,2519 South Road,NY,12601-5465
Pier 1 Imports,Falmouth,1333,00001333 0001333,23 Davis Straits Road,MA,02540-3905
Pier 1 Imports,Anderson,1334,00001334 0001334,120 Station Drive,SC,29621-1173
Pier 1 Imports,Easton,1335,00001335 0001335,4443 Southmont Way,PA,18045-4705
Pier 1 Imports,Chesterfield,1336,00001336 0001336,22 Thf Blvd,MO,63005-1150
Pier 1 Imports,Strongsville,1337,00001337 0001337,18094 Royalton Road,OH,44136-5180
Pier 1 Imports,San Jose,1339,00001339 0001339,5205 Prospect Road,CA,95129-5036
Pier 1 Imports,St Cloud,1340,00001340 0001340,3701 W Division Street,MN,56301-3300
Pier 1 Imports,Glendale,1341,00001341 0001341,545 N Glendale Avenue,CA,91206-3307
Pier 1 Imports,Southfield,1343,00001343 0001343,28538 Telegraph Road,MI,48034-7505
Pier 1 Imports,Kelowna,1344,00001344 0001344,1500 Banks Road,BC,V1X  7Y
Pier 1 Imports,Orlando,1345,00001345 0001345,2788 E Colonial Drive,FL,32803-5025
Pier 1 Imports,Avon,1346,00001346 0001346,220 Beaver Creek Place,CO,81620-4914
Pier 1 Imports,Conway,1347,00001347 0001347,701 Elsinger Blvd,AR,72032-4719
Pier 1 Imports,Whitby,1348,00001348 0001348,1635 Victoria Street East,ON,L1N  9W
Pier 1 Imports,Princeton,1349,00001349 0001349,3512 Brunswick Pike,NJ,08540-5924
Pier 1 Imports,Keene,1350,00001350 0001350,36 Ash Brook Road,NH,03431-5918
Pier 1 Imports,Upper Arlington,1352,00001352 0001352,1609 W Lane Avenue,OH,43221-3924
Pier 1 Imports,Jacksonville Beach,1353,00001353 0001353,950 Marsh Landing Parkway,FL,32250-1406
Pier 1 Imports,Millbury,1354,00001354 0001354,70 Worcester Providence Tpke,MA,01527-2652
Pier 1 Imports,Harahan,1355,00001355 0001355,1134 South Clearview Pkwy,LA,70123-7506
Pier 1 Imports,Thousand Oaks,1356,00001356 0001356,33 N Moorpark Road,CA,91360-4431
Pier 1 Imports,Hurst,1357,00001357 0001357,874 N E Mall Blvd,TX,76053-4653
Pier 1 Imports,Danvers,1358,00001358 0001358,50 Independence Way,MA,01923-3608
Pier 1 Imports,Las Vegas,1359,00001359 0001359,6680 N Durango Drive,NV,89149-4430
Pier 1 Imports,Torrance,1360,00001360 0001360,23000 Hawthorne Blvd,CA,90505-3703
Pier 1 Imports,Trinity,1361,00001361 0001361,3006 Little Road,FL,34655-1806
Pier 1 Imports,Tucson,1362,00001362 0001362,9545 E Old Spanish Trail,AZ,85748-6643
Pier 1 Imports,Omaha,1363,00001363 0001363,17110 Davenport Street,NE,68118-4097
Pier 1 Imports,Gurnee,1364,00001364 0001364,6961 Grand Avenue,IL,60031-1627
Pier 1 Imports,Waco,1365,00001365 0001365,2504 West Loop 340,TX,76711-2406
Pier 1 Imports,Tustin,1366,00001366 0001366,2822 El Camino Real,CA,92782-8901
Pier 1 Imports,Sheboygan Falls,1367,00001367 0001367,4127 State Highway 28,WI,53085-2850
Pier 1 Imports,New Hyde Park,1369,00001369 0001369,1454 Union Turnpike,NY,11040-1761
Pier 1 Imports,Manteca,1371,00001371 0001371,285 Commerce Avenue,CA,95336-5061
Pier 1 Imports,Mesa,1373,00001373 0001373,4946 South Power Road,AZ,85212-3602
Pier 1 Imports,Gilbert,1374,00001374 0001374,3763 South Gilbert Road,AZ,85296-2006
Pier 1 Imports,Vienna,1375,00001375 0001375,8311 B Leesburg Pike,VA,22182-2407
Pier 1 Imports,Phoenix,1378,00001378 0001378,2501 W. Happy Valley Pkwy #26,AZ,85027-3710
Pier 1 Imports,St Petersburg,1379,00001379 0001379,2030 Tyrone Blvd,FL,33710-4843
Pier 1 Imports,Blaine,1380,00001380 0001380,4325 Pheasant Ridge Drive,MN,55449-4540
Pier 1 Imports,Simpsonville,1381,00001381 0001381,353 Harrison Bridge Rd,SC,29680-7134
Pier 1 Imports,London,1382,00001382 0001382,Unit 101-1230 Wellington Rd,ON,N6E 1M3
Pier 1 Imports,Janesville,1383,00001383 0001383,2800 Deerfield Drive,WI,53546-4381
Pier 1 Imports,Ottawa,1385,00001385 0001385,"1009 Daze Street, Unit B",ON,K1V 2G3
Pier 1 Imports,Las Vegas,1386,00001386 0001386,4950 South Fort Apache Rd,NV,89148-1699
Pier 1 Imports,Lakewood,1387,00001387 0001387,14105 West Colfax Drive,CO,80401-3205
Pier 1 Imports,Kitchener,1388,00001388 0001388,Bldg C 655 Fairway Rd S,ON,N2C 1X4
Pier 1 Imports,Raleigh,1389,00001389 0001389,5900 Poyner Anchor Lane,NC,27616-3367
Pier 1 Imports,Catonsville,1390,00001390 0001390,6600 Baltimore National Pike,MD,21228-3911
Pier 1 Imports,Gambrills,1391,00001391 0001391,1352 Main Chapel Way,MD,21054-1658
Pier 1 Imports,Oshawa,1392,00001392 0001392,1425 Harmony Road North,ON,L1H 7K5
Pier 1 Imports,Winnipeg,1393,00001393 0001393,1545 Portage Ave,MB,R3G 3R1
Pier 1 Imports,St. John'S,1394,00001394 0001394,56 Aberdeen Avenue,NL,A1A 5T3
Pier 1 Imports,Saint John,1395,00001395 0001395,90 Consumers Drive,NB,E2J 4Z3
Pier 1 Imports,Galveston,1398,00001398 0001398,6228 Broadway Street,TX,77551-1031
Pier 1 Imports,Redlands,1399,00001399 0001399,27532 W Lugonia Ave,CA,92374-2017
Pier 1 Imports,Waldorf,1401,00001401 0001401,3237 Plaza Way,MD,20603-4861
Pier 1 Imports,Bend,1402,00001402 0001402,2620 Ne Hwy 20,OR,97701-4187
Pier 1 Imports,Birmingham,1403,00001403 0001403,317 Summit Blvd,AL,35243-3132
Pier 1 Imports,Alpharetta,1405,00001405 0001405,6551 North Point Parkway,GA,30022-4887
Pier 1 Imports,Columbus,1406,00001406 0001406,6672 Sawmill Rd,OH,43235-4943
Pier 1 Imports,Rochester Hills,1408,00001408 0001408,1336 South Rochester Road,MI,48307-3124
Pier 1 Imports,Mt Laurel,1409,00001409 0001409,1060 Nixon Drive,NJ,08054-1171
Pier 1 Imports,Bluffton,1411,00001411 0001411,32 Malphrus Road,SC,29910-6641
Pier 1 Imports,Appleton,1412,00001412 0001412,4717 Michaels Drive,WI,54913-8424
Pier 1 Imports,Mckinney,1413,00001413 0001413,2821 Craig Drive,TX,75070-4583
Pier 1 Imports,Richmond Hill,1414,00001414 0001414,8825 Yonge Street,ON,L4C 6Z1
Pier 1 Imports,Montgomery,1416,00001416 0001416,2546 Berryhill Road,AL,36117-3564
Pier 1 Imports,Portland,1417,00001417 0001417,1423 Lloyd Center,OR,97232-1303
Pier 1 Imports,Etobicoke,1419,00001419 0001419,125 The Queensway,ON,M8Y 1H6
Pier 1 Imports,Oak Park Heights,1420,00001420 0001420,5855 Krueger Lane,MN,55082-2189
Pier 1 Imports,Houston,1421,00001421 0001421,11691 Westheimer Road,TX,77077-6709
Pier 1 Imports,Camp Hill,1422,00001422 0001422,94 South 32Nd Street,PA,17011-4401
Pier 1 Imports,Mansfield,1423,00001423 0001423,120 West Debbie Lane,TX,76063-8925
Pier 1 Imports,Tucson,1424,00001424 0001424,5919 East Broadway Boulevard,AZ,85711-3903
Pier 1 Imports,West Jordan,1425,00001425 0001425,7128 South Plaza Center Drive,UT,84084-1761
Pier 1 Imports,Columbia,1426,00001426 0001426,6090 Garners Ferry Road,SC,29209-0600
Pier 1 Imports,Gainesville,1427,00001427 0001427,13261 Gateway Center Drive,VA,20155-2989
Pier 1 Imports,Wilsonville,1428,00001428 0001428,8315 Sw Jack Burns Blvd,OR,97070-4705
Pier 1 Imports,Arlington,1429,00001429 0001429,780 Road To Six Flags St East,TX,76011-4862
Pier 1 Imports,Manhattan,1430,00001430 0001430,320 Southwind Place,KS,66503-3110
Pier 1 Imports,Newport Coast,1431,00001431 0001431,8072 East Coast Highway,CA,92657-2140
Pier 1 Imports,Sturbridge,1432,00001432 0001432,110 Charlton Road,MA,01566-1538
Pier 1 Imports,Canton,1433,00001433 0001433,41872 Ford Road,MI,48187-3600
Pier 1 Imports,Pearl City,1434,00001434 0001434,1000 Kamehameha Highway,HI,96782-2596
Pier 1 Imports,Bee Cave,1435,00001435 0001435,12700 Shops Parkway,TX,78738-6599
Pier 1 Imports,Collierville,1436,00001436 0001436,3605 Houston Levee Road,TN,38017-9014
Pier 1 Imports,Thunder Bay,1437,00001437 0001437,389 Main Street,ON,P7B 5L6
Pier 1 Imports,Kemah,1438,00001438 0001438,"243 Marina Bay Dr. Stes A,B,C",TX,77565-2697
Pier 1 Imports,Mesquite,1439,00001439 0001439,19161 Lyndon B Johnson Fwy,TX,75150-6416
Pier 1 Imports,Calgary,1440,00001440 0001440,8180 11Th Street Se Ste 700,AB,T2H 3B5
Pier 1 Imports,Tavernier,1441,00001441 0001441,91214 Overseas Highway,FL,33070-2517
Pier 1 Imports,Seattle,1442,00001442 0001442,2600 Sw Barton Street,WA,98126-3952
Pier 1 Imports,Mankato,1443,00001443 0001443,1901 E Madison Avenue,MN,56001-6266
Pier 1 Imports,Meridian,1444,00001444 0001444,1250 N Eagle Road,ID,83642-3032
Pier 1 Imports,Marion,1445,00001445 0001445,1406 Twixt Town Road,IA,52302-3080
Pier 1 Imports,El Paso,1447,00001447 0001447,1327 George Dieter Drive,TX,79936-7487
Pier 1 Imports,Rancho Cucamonga,1448,00001448 0001448,10950 Foothill Blvd. Ste 100,CA,91730-7693
Pier 1 Imports,Hadley,1449,00001449 0001449,351 Russell Street,MA,01035-3536
Pier 1 Imports,Visalia,1450,00001450 0001450,4018 South Mooney Boulevard,CA,93277-9306
Pier 1 Imports,Webster,1451,00001451 0001451,1255 W Bay Area Boulevard,TX,77598-3832
Pier 1 Imports,Kissimmee,1452,00001452 0001452,3210 North John Young Parkway,FL,34741-7549
Pier 1 Imports,Jacksonville,1453,00001453 0001453,4643 River City Drive,FL,32246-7428
Pier 1 Imports,Venice,1454,00001454 0001454,4210 Tamiami Trail South,FL,34293-5105
Pier 1 Imports,Kingston,1455,00001455 0001455,1165 Ulster Avenue,NY,12401-1513
Pier 1 Imports,Grove City,1456,00001456 0001456,1711 Stringtown Road,OH,43123-9125
Pier 1 Imports,Chicago,1458,00001458 0001458,2532 North Narragansett Ave,IL,60639-1041
Pier 1 Imports,Bohemia,1459,00001459 0001459,5187 Sunrise Highway,NY,11716-4617
Pier 1 Imports,Shakopee,1460,00001460 0001460,8085 Old Carriage Court,MN,55379-3157
Pier 1 Imports,Philadelphia,1461,00001461 0001461,2310 S Christopher Columbus,PA,19148-9000
Pier 1 Imports,College Station,1463,00001463 0001463,1424 Texas Avenue South,TX,77840-2435
Pier 1 Imports,Petaluma,1464,00001464 0001464,1351 North Mcdowell Boulevard,CA,94954-1114
Pier 1 Imports,Rockaway,1465,00001465 0001465,395 Mount Hope Avenue,NJ,07866-1645
Pier 1 Imports,Beaumont,1466,00001466 0001466,4029 Dowlen Road,TX,77706-6850
Pier 1 Imports,Boucherville,1467,00001467 0001467,"1402-582, Chemin De Touraine",QC,J4B 8S5
Pier 1 Imports,Loveland,1468,00001468 0001468,1695 Rocky Mountain Avenue,CO,80538-8705
Pier 1 Imports,Olathe,1469,00001469 0001469,15340 West 119Th Street,KS,66062-1073
Pier 1 Imports,Carmel,1470,00001470 0001470,14311 Clay Terrace Blvd,IN,46032-3616
Pier 1 Imports,Guelph,1471,00001471 0001471,435 Stone Road West Unit L10,ON,N1G 2X6
Pier 1 Imports,Bellevue,1472,00001472 0001472,15600 Ne 8Th Street,WA,98008-3953
Pier 1 Imports,Plymouth,1473,00001473 0001473,80 Shops At 5 Way,MA,02360-2677
Pier 1 Imports,Corona,1474,00001474 0001474,3520 Grand Oaks,CA,92881-4642
Pier 1 Imports,Yuba City,1476,00001476 0001476,1064 Harter Road,CA,95993-2641
Pier 1 Imports,Southaven,1477,00001477 0001477,6420 Town Center Loop,MS,38671-8106
Pier 1 Imports,Kingsport,1478,00001478 0001478,2003 North Eastman Road,TN,37660-4636
Pier 1 Imports,Colonial Heights,1479,00001479 0001479,729 Southpark Boulevard,VA,23834-3606
Pier 1 Imports,Houston,1480,00001480 0001480,17725 Tomball Parkway,TX,77064-1010
Pier 1 Imports,Union Gap,1481,00001481 0001481,2507 Main Street,WA,98903-1605
Pier 1 Imports,Roseburg,1482,00001482 0001482,780 Nw Garden Valley Blvd,OR,97471-6526
Pier 1 Imports,South Lake Tahoe,1483,00001483 0001483,1069 Emerald Bay Road,CA,96150-6210
Pier 1 Imports,Atlanta,1484,00001484 0001484,6285 Roswell Road,GA,30328-3207
Pier 1 Imports,Newtown,1485,00001485 0001485,2807 South Eagle Road,PA,18940-1546
Pier 1 Imports,North Andover,1487,00001487 0001487,133 Turnpike Street,MA,01845-5032
Pier 1 Imports,Newport News,1488,00001488 0001488,12551 Jefferson Avenue,VA,23602-4494
Pier 1 Imports,Ocean,1489,00001489 0001489,1100 Highway 35,NJ,07712-3542
Pier 1 Imports,Chula Vista,1490,00001490 0001490,1830 Main Court,CA,91911-6069
Pier 1 Imports,Studio City,1491,00001491 0001491,12160 Ventura Boulevard,CA,91604-2514
Pier 1 Imports,Owasso,1492,00001492 0001492,9018 N 121St East Avenue,OK,74055-5381
Pier 1 Imports,Centerville,1493,00001493 0001493,120 North Frontage Road,UT,84014-1746
Pier 1 Imports,Stafford,1495,00001495 0001495,1250 Stafford Market Place,VA,22556-4525
Pier 1 Imports,Williamsburg,1497,00001497 0001497,4900 Monticello Avenue,VA,23188-8206
Pier 1 Imports,Houston,1500,00001500 0001500,110 Meyerland Plaza Mall,TX,77096-1607
Pier 1 Imports,Lady Lake,1501,00001501 0001501,610 North Us Highway 441,FL,32159-3777
Pier 1 Imports,Houston,1503,00001503 0001503,9421 Katy Freeway,TX,77024-1503
Pier 1 Imports,Lethbridge,1504,00001504 0001504,745 1St Avenue South,AB,T1J 5A4
Pier 1 Imports,Saint Joseph,1505,00001505 0001505,5201 North Belt Highway,MO,64506-1297
Pier 1 Imports,Pompano Beach,1506,00001506 0001506,1981 North Federal Hwy,FL,33062-1015
Pier 1 Imports,Somers Point,1507,00001507 0001507,57 Bethel Road,NJ,08244-1601
Pier 1 Imports,Clifton,1508,00001508 0001508,364 Route 3 West,NJ,07014-1900
Pier 1 Imports,Georgetown,1509,00001509 0001509,1019 West University Ave.,TX,78628-5363
Pier 1 Imports,Fort Myers,1510,00001510 0001510,17901 Summerlin Road,FL,33908-5765
Pier 1 Imports,Shreveport,1511,00001511 0001511,7051 Youree Drive,LA,71105-5108
Pier 1 Imports,Kalamazoo,1513,00001513 0001513,5130 West Main Street,MI,49009-3302
Pier 1 Imports,Mill Creek,1514,00001514 0001514,15324 Main Street,WA,98012-7361
Pier 1 Imports,Cheshire,1515,00001515 0001515,935 South Main Street,CT,06410-3418
Pier 1 Imports,Woodbridge,1517,00001517 0001517,889 Saint George Avenue,NJ,07095-2514
Pier 1 Imports,Riverdale,1518,00001518 0001518,56 State Route 23 North,NJ,07457-1602
Pier 1 Imports,Cypress,1521,00001521 0001521,25837 Highway 290,TX,77429-1049
Pier 1 Imports,Thornton,1522,00001522 0001522,16535 Washington Street,CO,80020-8907
Pier 1 Imports,Arden,1523,00001523 0001523,4 Mckenna Road,NC,28704-9201
Pier 1 Imports,Sacramento,1524,00001524 0001524,3641 North Freeway Blvd,CA,95834-2902
Pier 1 Imports,Carlisle,1525,00001525 0001525,234 Westminster Drive,PA,17013-3117
Pier 1 Imports,Mundelein,1526,00001526 0001526,3062 W. Rt 60,IL,60060-4270
Pier 1 Imports,Durango,1527,00001527 0001527,800 South Camino Del Rio,CO,81301-6898
Pier 1 Imports,Taunton,1528,00001528 0001528,9 Mozzone Boulevard,MA,02780-6965
Pier 1 Imports,Morristown,1529,00001529 0001529,513 S Davy Crockett Parkway,TN,37813-1908
Pier 1 Imports,Machesney Park,1530,00001530 0001530,1522 West Lane Road,IL,61115-1903
Pier 1 Imports,Lodi,1531,00001531 0001531,1379 S. Lower Sacramento Rd,CA,95242-9218
Pier 1 Imports,Monroe,1532,00001532 0001532,3117 West Highway 74,NC,28110-8437
Pier 1 Imports,Garland,1533,00001533 0001533,425 Town Center Boulevard,TX,75040-2966
Pier 1 Imports,Palm Beach Gardens,1535,00001535 0001535,11275 Legacy Avenue,FL,33410-3644
Pier 1 Imports,Raleigh,1536,00001536 0001536,436 Daniels Street,NC,27605-1315
Pier 1 Imports,Kailua,1538,00001538 0001538,609 Kailua Road,HI,96734-2839
Pier 1 Imports,Glenwood Springs,1539,00001539 0001539,135 East Meadows Drive,CO,81601-8745
Pier 1 Imports,Orland Park,1540,00001540 0001540,15150 South La Grange Rd,IL,60462-4349
Pier 1 Imports,Downey,1541,00001541 0001541,12080 Lakewood Blvd.,CA,90242-2659
Pier 1 Imports,Tempe,1542,00001542 0001542,1800 E Rio Salado Parkway,AZ,85281-2203
Pier 1 Imports,Pitt Meadows,1543,00001543 0001543,940-19800 Lougheed Hwy,BC,V3Y  2W
Pier 1 Imports,Allen Park,1546,00001546 0001546,3200 Fairlane Drive,MI,48101-2871
Pier 1 Imports,Lompoc,1547,00001547 0001547,609 North H Street,CA,93436-4518
Pier 1 Imports,Phillipsburg,1548,00001548 0001548,1201 New Brunswick Avenue,NJ,08865-4125
Pier 1 Imports,Scarborough,1549,00001549 0001549,420 Progress Avenue,ON,M1P 5J1
Pier 1 Imports,Fort Worth,1550,00001550 0001550,433 Carroll Street,TX,76107-2245
Pier 1 Imports,City Of Industry,1551,00001551 0001551,21650 Valley Blvd.,CA,91789-5238
Pier 1 Imports,Pottstown,1552,00001552 0001552,351 W. Schuylkill Rd Ste. A-1,PA,19465-7438
Pier 1 Imports,Eureka,1553,00001553 0001553,3300 Broadway Street,CA,95501-3821
Pier 1 Imports,Concord,1554,00001554 0001554,1975 Diamond Boulevard,CA,94520-8101
Pier 1 Imports,Lewiston,1555,00001555 0001555,2628 Nez Perce Drive,ID,83501-4121
Pier 1 Imports,Victoria,1556,00001556 0001556,117-2401C Millstream Road,BC,V9B  3R
Pier 1 Imports,Medina,1557,00001557 0001557,4959 Grande Shops Avenue,OH,44256-6789
Pier 1 Imports,Chula Vista,1558,00001558 0001558,878 Eastlake Parkway,CA,91914-4518
Pier 1 Imports,Vancouver,1559,00001559 0001559,16525 South East Mill Plain,WA,98684-9607
Pier 1 Imports,Lake Forest,1560,00001560 0001560,23620 El Toro Road,CA,92630-4786
Pier 1 Imports,Estero,1561,00001561 0001561,8052 Mediterranean Drive,FL,33928-8304
Pier 1 Imports,Southlake,1562,00001562 0001562,1275 East Southlake Blvd,TX,76092-6481
Pier 1 Imports,Stillwater,1563,00001563 0001563,2144 N Perkins,OK,74075-3075
Pier 1 Imports,Brossard,1564,00001564 0001564,"45-9550, Boul. Leduc Suite 45",QC,J4Y 0B3
Pier 1 Imports,Peoria,1565,00001565 0001565,10092 West Happy Valley Road,AZ,85383-1229
Pier 1 Imports,Port St. Lucie,1566,00001566 0001566,10888 Sw Village Pkwy,FL,34987-2357
Pier 1 Imports,Flushing,1567,00001567 0001567,191 - 24 Northern Blvd,NY,11358-2829
Pier 1 Imports,Reno,1568,00001568 0001568,6137 S Virginia St,NV,89502-6027
Pier 1 Imports,Dubuque,1569,00001569 0001569,2531 Nw Arterial,IA,52002-0493
Pier 1 Imports,Mission Viejo,1570,00001570 0001570,28371 Marguerite Parkway,CA,92692-3705
Pier 1 Imports,Burlington,1571,00001571 0001571,1389 Boone Station Drive,NC,27215-8228
Pier 1 Imports,Rego Park,1572,00001572 0001572,61-35 Junction Blvd,NY,11374-2772
Pier 1 Imports,Wichita,1573,00001573 0001573,2441 N Maize Road,KS,67205-7943
Pier 1 Imports,Ottawa,1574,00001574 0001574,3161 Greenbank Road,ON,K2J  4H
Pier 1 Imports,Concord,1575,00001575 0001575,8080 Concord Mills Rd.,NC,28027-4417
Pier 1 Imports,Victoria,1576,00001576 0001576,7903 N. Navarro St.,TX,77904-2626
Pier 1 Imports,Brighton,1577,00001577 0001577,9524 Village Place Blvd.,MI,48116-2085
Pier 1 Imports,Atlanta,1578,00001578 0001578,3232 Peachtree Rd Unit A1,GA,30305-2407
Pier 1 Imports,Dartmouth,1579,00001579 0001579,205 Hector Gate,NS,B3B  0E
Pier 1 Imports,Allen,1580,00001580 0001580,170 E Stacy Rd Suite 2314,TX,75002-8777
Pier 1 Imports,Kailua - Kona,1581,00001581 0001581,74-5586 Palani Road,HI,96740-3119
Pier 1 Imports,Bronx,1582,00001582 0001582,2146 Bartow Avenue,NY,10475-4615
Pier 1 Imports,Upper St Clair,1583,00001583 0001583,1775 N Highland Road,PA,15241-1293
Pier 1 Imports,East Brunswick,1584,00001584 0001584,615 Route 18 South,NJ,08816-3708
Pier 1 Imports,Redwood City,1585,00001585 0001585,1087 El Camino Real,CA,94063-1689
Pier 1 Imports,University Park,1586,00001586 0001586,8485 Cooper Creek Blvd.,FL,34201-2007
Pier 1 Imports,Brownsville,1587,00001587 0001587,2770 Pablo Kisel Blvd,TX,78526-4124
Pier 1 Imports,State College,1588,00001588 0001588,221 Patriot Lane,PA,16803-3066
Pier 1 Imports,Spring Hill,1589,00001589 0001589,1321 Wendy Court,FL,34607-3917
Pier 1 Imports,Millville,1590,00001590 0001590,2148 North 2Nd Street,NJ,08332-1304
Pier 1 Imports,Manhasset,1591,00001591 0001591,1435 Northern Blvd,NY,11030-3003
Pier 1 Imports,Charlottesville,1592,00001592 0001592,1951 Swanson Dr,VA,22901-0000
Pier 1 Imports,New York,1593,00001593 0001593,1110 3Rd Avenue,NY,10065-6606
Pier 1 Imports,Richmond,1594,00001594 0001594,5460 West Grand Parkway South,TX,77406-5824
Pier 1 Imports,Goleta,1595,00001595 0001595,6996 Marketplace Dr,CA,93117-2997
Pier 1 Imports,Yonkers,1596,00001596 0001596,2468 Central Park Ave,NY,10710-1125
Pier 1 Imports,Arroyo Grande,1597,00001597 0001597,901 Rancho Pkwy,CA,93420-1970
Pier 1 Imports,Ocean City,1598,00001598 0001598,12641 Ocean Gtwy,MD,21842-9588
Pier 1 Imports,Lyndhurst,1599,00001599 0001599,24703 Cedar Rd.,OH,44124-3766
Pier 1 Imports,Fairbanks,1600,00001600 0001600,340 Merhar Avenue,AK,99701-3166
Pier 1 Imports,Walnut Creek,1601,00001601 0001601,1902 Mt. Diablo Blvd.,CA,94596-4412
Pier 1 Imports,Jacksonville,1602,00001602 0001602,9625 Crosshill Blvd.,FL,32222-5830
Pier 1 Imports,Holly Springs,1603,00001603 0001603,152 Grand Hill Place,NC,27540-0000
Pier 1 Imports,Papillion,1604,00001604 0001604,7809 Towne Center Pkwy,NE,68046-2146
Pier 1 Imports,San Rafael,1605,00001605 0001605,409 3Rd Street,CA,94901-3548
Pier 1 Imports,Napa,1606,00001606 0001606,"3900 Bel Aire Plz., Ste.A",CA,94558-2823
Pier 1 Imports,Hesperia,1607,00001607 0001607,12783 Main Street,CA,92345-9110
Pier 1 Imports,Bolingbrook,1608,00001608 0001608,1116 W Boughton Rd,IL,60440-1508
Pier 1 Imports,Port Chester,1609,00001609 0001609,427 Boston Post Rd,NY,10573-4738
Pier 1 Imports,Jackson,1610,00001610 0001610,1241 Vann Dr.,TN,38305-6024
Pier 1 Imports,York,1611,00001611 0001611,2975 Concord Rd,PA,17402-7009
Pier 1 Imports,West Des Moines,1612,00001612 0001612,6305 Mills Civic Pkwy.,IA,50266-8349
Pier 1 Imports,Honolulu,1613,00001613 0001613,1170 Auahi St,HI,96814-4900
Pier 1 Imports,Staten Island,1616,00001616 0001616,2385 Richmond Ave,NY,10314-3906
Pier 1 Imports,Marina Del Rey,1617,00001617 0001617,13455 Maxella Ave,CA,90292-5683
Pier 1 Imports,Branson,1618,00001618 0001618,1041 Branson Hills Pkwy.,MO,65616-0000
Pier 1 Imports,Ann Arbor,1621,00001621 0001621,926 W. Eishenhower Pkwy,MI,48103-6448
Pier 1 Imports,Mt. Juliet,1623,00001623 0001623,600 S Mt. Juliet Road,TN,37122-6486
Pier 1 Imports,Alexandria,1624,00001624 0001624,7684 Richmond Hwy,VA,22306-2843
Pier 1 Imports,Athens,1625,00001625 0001625,1791 Oconee Connector,GA,30606-5729
Pier 1 Imports,Cherry Hill,1626,00001626 0001626,801 Haddonfield Road,NJ,08002-0000
Pier 1 Imports,Frederick,1627,00001627 0001627,2470 Osprey Way,MD,21701-1919
Pier 1 Imports,Sacramento,1628,00001628 0001628,1874 Arden Way,CA,95815-5002
Pier 1 Imports,Conyers,1629,00001629 0001629,1486-B Dogwood Dr Se,GA,30013-5089
Pier 1 Imports,Oak Brook,1630,00001630 0001630,2155 West 22Nd St,IL,60523-1218
Pier 1 Imports,Vernon Hills,1631,00001631 0001631,701 N Milwaukee Ave,IL,60061-1524
Pier 1 Imports,El Paso,1632,00001632 0001632,8889 Gateway Blvd W,TX,79925-6519
Pier 1 Imports,Davenport,1633,00001633 0001633,4235 Elmore Ave,IA,52807-0000
Pier 1 Imports,Huntington Beach,1634,00001634 0001634,18557 Main St,CA,92648-1709
Pier 1 Imports,South Portland,1636,00001636 0001636,368 Maine Mall Rd,ME,04106-3206
Pier 1 Imports,Arlington,1639,00001639 0001639,1717 Clarendon Blvd,VA,22209-2517
Pier 1 Imports,Lewisville,1643,00001643 0001643,500 E. Round Grove Rd.,TX,75067-8381
Pier 1 Imports,Wheaton,1649,00001649 0001649,110 Danada Sq.W.,IL,60189-2041
