keywords,city,Aggdata Store Number,store_number,address,state,zip_code
QuikTrip,TULSA,1,1,4970 S PEORIA AVE,OK,74105
QuikTrip,OWASSO,2,2,11502 E 76TH ST N,OK,74055
QuikTrip,COLLINSVILLE,3,3,5020 E 146TH ST N,OK,74021
QuikTrip,TULSA,5,5,10310 E 11TH ST,OK,74128
QuikTrip,BROKEN ARROW,6,6,2400 N ASPEN AVE,OK,74012
QuikTrip,TULSA,7,7,4903 E. ADMIRAL PL.,OK,74115
QuikTrip,TULSA,9,9,1617 W 51ST ST,OK,74107
QuikTrip,TULSA,10,10,7626 E. 61ST ST.,OK,74133
QuikTrip,TULSA,11,11,4545 N. LEWIS AVE.,OK,74110
QuikTrip,SAND SPRINGS,12,12,2 E. 41ST ST. S.,OK,74063
QuikTrip,TULSA,13,13,3050 S SHERIDAN RD,OK,74129
QuikTrip,TULSA,14,14,1014 S SHERIDAN RD,OK,74112
QuikTrip,TULSA,16,16,3008 E 11TH ST,OK,74104
QuikTrip,TULSA,17,17,1202 W 23RD ST S,OK,74107
QuikTrip,TULSA,18,18,3304 W. 42ND PL.,OK,74107
QuikTrip,TULSA,19,19,8105 E 21ST ST,OK,74129
QuikTrip,CLAREMORE,20,20,520 S. J.M. DAVIS BLVD.,OK,74017
QuikTrip,TULSA,21,21,3108 S. 129TH E. AVE.,OK,74134
QuikTrip,OWASSO,22,22,12902 E 86TH ST N,OK,74055
QuikTrip,SAND SPRINGS,23,23,200 S HWY 97,OK,74063
QuikTrip,TULSA,24,24,18 S 193RD EAST AVE,OK,74108
QuikTrip,TULSA,25,25,4795 S. YALE AVE,OK,74135
QuikTrip,TULSA,26,26,12910 E. 21ST ST.,OK,74134
QuikTrip,TULSA,27,27,1946 S HARVARD AVE,OK,74112
QuikTrip,TULSA,28,28,5104 S MINGO RD,OK,74146
QuikTrip,TULSA,29,29,5955 S LEWIS AVE,OK,74105
QuikTrip,TULSA,31,31,5116 S SHERIDAN RD,OK,74145
QuikTrip,BARTLESVILLE,32,32,102 S.E. WASHINGTON BLVD.,OK,74006
QuikTrip,BROKEN ARROW,33,33,2400 E KENOSHA ST,OK,74014
QuikTrip,SAPULPA,36,36,1040 E TAFT AVE,OK,74066
QuikTrip,BARTLESVILLE,37,37,1835 S.E. WASHINGTON BLVD.,OK,74006
QuikTrip,CLAREMORE,40,40,151 S FRED SWAN LN,OK,74017
QuikTrip,OWASSO,42,42,9600 N GARNETT RD,OK,74055
QuikTrip,TULSA,44,44,519 N. SHERIDAN RD.,OK,74115
QuikTrip,TULSA,45,45,1415 E. 71ST ST. S.,OK,74136
QuikTrip,BROKEN ARROW,50,50,8100 E. HIGHWAY 51,OK,74014
QuikTrip,BIXBY,51,51,15102 S MEMORIAL DR,OK,74008
QuikTrip,TULSA,53,53,1443 S DENVER AVE,OK,74119
QuikTrip,TULSA,55,55,12880 E 51st St S,OK,74134
QuikTrip,TULSA,56,56,9621 E PINE ST,OK,74115
QuikTrip,TULSA,57,57,3606 S PEORIA AVE,OK,74105
QuikTrip,TULSA,59,59,220 N GILCREASE MUSEUM RD,OK,74127
QuikTrip,OWASSO,62,62,11590 N. 140TH EAST AVE.,OK,74055
QuikTrip,CLAREMORE,66,66,24985 S HWY 66,OK,74019
QuikTrip,TULSA,69,69,10220 E. 31ST ST.,OK,74146
QuikTrip,TULSA,71,71,16505 E. ADMIRAL PL.,OK,74116
QuikTrip,TULSA,74,74,1302 S GARNETT RD,OK,74128
QuikTrip,TULSA,75,75,2749 E. ADMIRAL PL.,OK,74110
QuikTrip,TULSA,77,77,215 N GARNETT RD,OK,74116
QuikTrip,TULSA,78,78,9037 S YALE AVE,OK,74137
QuikTrip,TULSA,79,79,8081 S MEMORIAL DR,OK,74133
QuikTrip,BROKEN ARROW,80,80,501 W KENOSHA ST,OK,74012
QuikTrip,BROKEN ARROW,81,81,4705 S ELM PL,OK,74011
QuikTrip,BROKEN ARROW,82,82,1820 S ASPEN AVE,OK,74012
QuikTrip,TULSA,83,83,10738 E. 61ST ST.,OK,74133
QuikTrip,TULSA,84,84,4106 S. GARNETT RD.,OK,74146
QuikTrip,TULSA,85,85,28 N HARVARD AVE,OK,74115
QuikTrip,TULSA,90,90,1022 S UTICA AVE,OK,74104
QuikTrip,TULSA,93,93,5151 E 71ST ST,OK,74136
QuikTrip,BROKEN ARROW,94,94,4901 W HOUSTON ST,OK,74012
QuikTrip,BROKEN ARROW,95,95,3502 W KENOSHA ST,OK,74012
QuikTrip,TULSA,96,96,9555 RIVERSIDE DR.,OK,74137
QuikTrip,TULSA,97,97,10028 S MEMORIAL DR,OK,74133
QuikTrip,TULSA,99,99,7103 S 92ND EAST AVE,OK,74133
QuikTrip,JENKS,101,101,712 S ELM ST,OK,74037
QuikTrip,TULSA,102,102,6008 S. 49TH W. AVE.,OK,74107
QuikTrip,GLENPOOL,106,106,91 W. 141ST ST.,OK,74033
QuikTrip,TULSA,107,107,807 W 71ST ST,OK,74132
QuikTrip,SAPULPA,121,121,12100 S WACO AVE,OK,74066
QuikTrip,OAK GROVE,150,150,309 S. BROADWAY,MO,64075
QuikTrip,LIBERTY,151,151,655 S. 291 HWY.,MO,64068
QuikTrip,NORTH KANSAS CITY,153,153,1010 ARMOUR RD.,MO,64116
QuikTrip,INDEPENDENCE,155,155,201 E 23RD ST,MO,64055
QuikTrip,RAYTOWN,156,156,8733 E 63RD ST,MO,64133
QuikTrip,OVERLAND PARK,157,157,7400 SHAWNEE MISSION PKWY,KS,66202
QuikTrip,KANSAS CITY,159,159,10150 NE COOKINGHAM DR,MO,64157
QuikTrip,MERRIAM,160,160,9025 JOHNSON DR,KS,66202
QuikTrip,INDEPENDENCE,161,161,2601 S. 291 HWY.,MO,64057
QuikTrip,LEE'S SUMMIT,162,162,801 S.E. M-291 HWY.,MO,64063
QuikTrip,SHAWNEE,164,164,6637 NIEMAN RD.,KS,66203
QuikTrip,INDEPENDENCE,165,165,2321 LEE'S SUMMIT RD.,MO,64055
QuikTrip,SHAWNEE,166,166,11915 JOHNSON DR.,KS,66203
QuikTrip,LAWRENCE,167,167,1020 E 23RD ST,KS,66046
QuikTrip,KANSAS CITY,168,168,10232 WORNALL RD.,MO,64114
QuikTrip,KANSAS CITY,169,169,5108 N.E. VIVION RD.,MO,64119
QuikTrip,RIVERSIDE,170,170,4510 NW GATEWAY AVE,MO,64150
QuikTrip,BELTON,171,171,7920 E 171ST,MO,64012
QuikTrip,KANSAS CITY,172,172,8200 PARALLEL PKWY,KS,66112
QuikTrip,KANSAS CITY,173,173,528 N.W. ENGLEWOOD RD.,MO,64118
QuikTrip,ROELAND PARK,174,174,5055 ROE BLVD,KS,66205
QuikTrip,INDEPENDENCE,175,175,16801 E. US 24 HWY.,MO,64056
QuikTrip,KANSAS CITY,176,176,1301 WESTPORT RD.,MO,64111
QuikTrip,KANSAS CITY,178,178,10601 STATE LINE RD,MO,64114
QuikTrip,PLEASANT VALLEY,179,179,8600 PLEASANT VALLEY RD.,MO,64068
QuikTrip,BLUE SPRINGS,180,180,1128 N WOODS CHAPEL RD,MO,64015
QuikTrip,GLADSTONE,181,181,2590 N.E. 72ND ST.,MO,64118
QuikTrip,OLATHE,182,182,1301 E SANTA FE ST,KS,66061
QuikTrip,LEE'S SUMMIT,183,183,1001 S.W. BLUE PKWY.,MO,64063
QuikTrip,KANSAS CITY,184,184,4327 MAIN ST.,MO,64111
QuikTrip,SHAWNEE,185,185,10301 W 75TH ST,KS,66214
QuikTrip,GRANDVIEW,186,186,6015 E 147TH ST,MO,64030
QuikTrip,KANSAS CITY,190,190,344 W. 72ND ST.,MO,64114
QuikTrip,KANSAS CITY,193,193,601 N.W. 68TH ST.,MO,64118
QuikTrip,MISSION,194,194,4700 LAMAR AVE,KS,66202
QuikTrip,KANSAS CITY,197,197,13100 HOLMES RD,MO,64145
QuikTrip,BONNER SPRINGS,199,199,389 N 130TH ST,KS,66012
QuikTrip,LEE'S SUMMIT,200,200,120 S.W. M-150 HWY.,MO,64082
QuikTrip,INDEPENDENCE,201,201,19010 US 24 HWY.,MO,64058
QuikTrip,INDEPENDENCE,202,202,16501 E US 40 HWY,MO,64055
QuikTrip,OVERLAND PARK,203,203,7681 W. 151ST ST.,KS,66223
QuikTrip,KANSAS CITY,204,204,6641 E TRUMAN RD,MO,64126
QuikTrip,INDEPENDENCE,205,205,11101 E. 40 HWY.,MO,64055
QuikTrip,OLATHE,206,206,15650 W. 135TH ST.,KS,66062
QuikTrip,KANSAS CITY,207,207,8501 WINNER RD.,MO,64125
QuikTrip,LEE'S SUMMIT,208,208,800 N.E. WOODS CHAPEL RD.,MO,64064
QuikTrip,RAYTOWN,209,209,9323 E. 350 HWY.,MO,64133
QuikTrip,OVERLAND PARK,210,210,10700 ROE AVE,KS,66211
QuikTrip,OLATHE,212,212,18619 W. 151ST ST.,KS,66062
QuikTrip,SMITHVILLE,213,213,1407 S 169 HWY,MO,64089
QuikTrip,OLATHE,215,215,15710 S US 169 HWY,KS,66062
QuikTrip,INDEPENDENCE,216,216,4024 S. NOLAND RD.,MO,64055
QuikTrip,BLUE SPRINGS,217,217,211 NW HIGHWAY 7,MO,64014
QuikTrip,KANSAS CITY,218,218,7133 NW BARRY RD,MO,64153
QuikTrip,OLATHE,219,219,17840 W 119TH ST,KS,66061
QuikTrip,KANSAS CITY,221,221,9340 N. OAK TRAFFICWAY,MO,64155
QuikTrip,KANSAS CITY,222,222,8011 STATE LINE RD,MO,64114
QuikTrip,KANSAS CITY,224,224,6820 E. FRONT ST.,MO,64120
QuikTrip,KANSAS CITY,225,225,1251 NW BARRY RD,MO,64155
QuikTrip,SHAWNEE,226,226,20605 SHAWNEE MISSION PKWY,KS,66218
QuikTrip,KANSAS CITY,227,227,3101 SOUTHWEST BLVD,MO,64108
QuikTrip,NORTH KANSAS CITY,228,228,2525 BURLINGTON ST,MO,64116
QuikTrip,KANSAS CITY,229,229,7200 N.E. PARVIN RD.,MO,64117
QuikTrip,INDEPENDENCE,230,230,11201 E TRUMAN RD,MO,64050
QuikTrip,KANSAS CITY,231,231,4202 KANSAS AVE.,KS,66106
QuikTrip,BELTON,233,233,501 E. N. AVE.,MO,64012
QuikTrip,KANSAS CITY,234,234,6507 E. 87TH ST.,MO,64138
QuikTrip,LENEXA,235,235,11070 PFLUMM RD,KS,66215
QuikTrip,PLATTE CITY,236,236,1951 PRAIRIE VIEW RD.,MO,64079
QuikTrip,GLADSTONE,237,237,6309 N.E. ANTIOCH RD.,MO,64119
QuikTrip,KANSAS CITY,238,238,5025 NE ANTIOCH RD,MO,64119
QuikTrip,KANSAS CITY,239,239,555 N 78TH ST,KS,66112
QuikTrip,OVERLAND PARK,240,240,11902 RILEY ST,KS,66213
QuikTrip,BLUE SPRINGS,241,241,1201 N 7 HWY,MO,64014
QuikTrip,LENEXA,242,242,9530 LACKMAN RD.,KS,66219
QuikTrip,OVERLAND PARK,243,243,9901 W 87TH ST,KS,66212
QuikTrip,BLUE SPRINGS,244,244,1500 S. 7 HWY.,MO,64014
QuikTrip,INDEPENDENCE,245,245,17815 E 39TH ST,MO,64055
QuikTrip,OVERLAND PARK,246,246,7701 METCALF AVE,KS,66204
QuikTrip,HARRISONVILLE,247,247,1402 N 291 HWY,MO,64701
QuikTrip,INDEPENDENCE,248,248,4740 S ARROWHEAD DR,MO,64055
QuikTrip,GARDNER,249,249,694 E MAIN STREET,KS,66030
QuikTrip,EL DORADO,310,310,1320 W CENTRAL AVE,KS,67042
QuikTrip,WICHITA,313,313,3164 S HILLSIDE ST,KS,67216
QuikTrip,DERBY,314,314,1430 N NELSON DR,KS,67037
QuikTrip,WICHITA,315,315,1500 S MAIZE RD,KS,67209
QuikTrip,WICHITA,316,316,14402 E KELLOGG ST,KS,67230
QuikTrip,WICHITA,320,320,1021 WEST 31ST ST. S.,KS,67217
QuikTrip,WICHITA,321,321,6011 W CENTRAL AVE,KS,67212
QuikTrip,WICHITA,325,325,1414 N OLIVER AVE,KS,67208
QuikTrip,WICHITA,326,326,750 S BROADWAY,KS,67211
QuikTrip,WICHITA,327,327,12825 E 21ST ST N,KS,67230
QuikTrip,WICHITA,328,328,2801 S HYDRAULIC ST,KS,67216
QuikTrip,WICHITA,329,329,5602 E HARRY ST,KS,67218
QuikTrip,WICHITA,343,343,242 S TYLER RD,KS,67209
QuikTrip,WICHITA,345,345,4020 S MERIDIAN AVE,KS,67217
QuikTrip,WICHITA,347,347,1532 S SENECA ST,KS,67213
QuikTrip,WICHITA,349,349,1112 W DOUGLAS AVE,KS,67203
QuikTrip,WICHITA,353,353,110 S. ROCK RD.,KS,67207
QuikTrip,WICHITA,356,356,4808 S HYDRAULIC ST,KS,67216
QuikTrip,WICHITA,358,358,7120 W 21ST ST N,KS,67205
QuikTrip,WICHITA,360,360,3933 W 13TH ST N,KS,67203
QuikTrip,DERBY,363,363,2801 N ROCK RD,KS,67037
QuikTrip,WICHITA,366,366,1620 S. WEBB RD.,KS,67207
QuikTrip,WICHITA,368,368,626 W. 21ST ST. N.,KS,67203
QuikTrip,WICHITA,369,369,625 S HILLSIDE ST,KS,67211
QuikTrip,WICHITA,372,372,3106 E PAWNEE ST,KS,67211
QuikTrip,WICHITA,373,373,1610 E LINCOLN ST,KS,67211
QuikTrip,WICHITA,374,374,10315 W 13TH ST N,KS,67212
QuikTrip,WICHITA,376,376,2106 S. ROCK RD.,KS,67207
QuikTrip,WICHITA,378,378,5611 S BROADWAY ST,KS,67216
QuikTrip,WICHITA,383,383,11223 E CENTRAL AVE,KS,67206
QuikTrip,WICHITA,384,384,2510 W PAWNEE ST,KS,67213
QuikTrip,WICHITA,386,386,1010 E. DOUGLAS AVE.,KS,67211
QuikTrip,WICHITA,388,388,7991 E 37TH ST N,KS,67226
QuikTrip,WICHITA,389,389,4730 E CENTRAL AVE,KS,67208
QuikTrip,WICHITA,391,391,730 N BROADWAY ST,KS,67214
QuikTrip,WICHITA,392,392,4621 E. 47TH ST. S.,KS,67210
QuikTrip,PARK CITY,394,394,928 E. 61ST ST. N.,KS,67219
QuikTrip,WICHITA,396,396,324 S WEST ST,KS,67213
QuikTrip,TEMPE,400,400,2111 W. UNIVERSITY DRIVE,AZ,85281
QuikTrip,MESA,401,401,517 W. MCKELLIPS RD.,AZ,85201
QuikTrip,MESA,402,402,1331 S. COUNTRY CLUB DR.,AZ,85210
QuikTrip,MESA,404,404,9229 E UNIVERSITY DR,AZ,85207
QuikTrip,PHOENIX,405,405,10233 N. 19TH AVE.,AZ,85021
QuikTrip,PHOENIX,406,406,2212 E. BELL RD.,AZ,85022
QuikTrip,PHOENIX,407,407,2750 W THUNDERBIRD RD,AZ,85053
QuikTrip,TEMPE,408,408,1106 E. BROADWAY RD.,AZ,85282
QuikTrip,PHOENIX,409,409,6705 W BUCKEYE RD,AZ,85043
QuikTrip,SURPRISE,410,410,14007 W GRAND AVE,AZ,85374
QuikTrip,PHOENIX,411,411,1707 W BELL RD,AZ,85023
QuikTrip,PHOENIX,412,412,8004 N. 27TH AVE.,AZ,85051
QuikTrip,GLENDALE,413,413,4255 W. UNION HILLS DRIVE,AZ,85308
QuikTrip,GILBERT,414,414,847 N ARIZONA AVE,AZ,85233
QuikTrip,PEORIA,416,416,9020 N. 91ST AVE.,AZ,85345
QuikTrip,MESA,417,417,3563 E MAIN ST,AZ,85213
QuikTrip,PHOENIX,418,418,2009 W GLENDALE AVE,AZ,85021
QuikTrip,MESA,419,419,2311 W. BROADWAY RD.,AZ,85202
QuikTrip,PHOENIX,420,420,2450 E UNION HILLS DR,AZ,85050
QuikTrip,PHOENIX,421,421,19990 N 19TH AVE,AZ,85027
QuikTrip,TOLLESON,422,422,8302 W BUCKEYE RD,AZ,85353
QuikTrip,PHOENIX,425,425,2941 E INDIAN SCHOOL RD,AZ,85016
QuikTrip,PHOENIX,426,426,19815 N. 7TH ST.,AZ,85024
QuikTrip,CHANDLER,427,427,1995 N. ARIZONA AVE,AZ,85225
QuikTrip,PEORIA,428,428,18855 N 83RD AVE,AZ,85382
QuikTrip,TEMPE,429,429,1545 N SCOTTSDALE RD,AZ,85281
QuikTrip,PEORIA,430,430,6721 W THUNDERBIRD RD,AZ,85381
QuikTrip,MESA,431,431,1861 S. MESA DR.,AZ,85210
QuikTrip,PHOENIX,432,432,4075 S 32ND ST,AZ,85040
QuikTrip,MESA,433,433,414 S STAPLEY DR,AZ,85204
QuikTrip,PHOENIX,434,434,1915 W SOUTHERN AVE,AZ,85041
QuikTrip,PHOENIX,435,435,1610 E HIGHLAND AVE,AZ,85016
QuikTrip,APACHE JUNCTION,437,437,21 EAST OLD WEST HWY,AZ,85119
QuikTrip,MESA,438,438,1733 S. GREENFIELD RD.,AZ,85206
QuikTrip,PEORIA,439,439,7522 W DEER VALLEY RD,AZ,85382
QuikTrip,PHOENIX,440,440,321 W. INDIAN SCHOOL RD.,AZ,85013
QuikTrip,TEMPE,441,441,918 E. BASELINE RD.,AZ,85283
QuikTrip,CHANDLER,442,442,2010 S ARIZONA AVE,AZ,85286
QuikTrip,PHOENIX,443,443,4420 W. INDIAN SCHOOL RD.,AZ,85031
QuikTrip,PHOENIX,444,444,1155 N 51ST AVE,AZ,85043
QuikTrip,PHOENIX,445,445,2775 S 51ST AVE,AZ,85043
QuikTrip,GOODYEAR,446,446,550 N. DYSART RD.,AZ,85338
QuikTrip,MESA,447,447,5957 E MCDOWELL RD,AZ,85215
QuikTrip,GLENDALE,448,448,9910 W CAMELBACK RD,AZ,85307
QuikTrip,PHOENIX,449,449,2151 N. 83RD AVE.,AZ,85035
QuikTrip,PHOENIX,451,451,6702 W MCDOWELL RD,AZ,85035
QuikTrip,MESA,452,452,816 W UNIVERSITY DR,AZ,85201
QuikTrip,YOUNGTOWN,453,453,11604 W OLIVE AVE,AZ,85363
QuikTrip,PHOENIX,454,454,2725 W PEORIA AVE,AZ,85029
QuikTrip,GLENDALE,456,456,5082 N.W. GRAND AVE.,AZ,85301
QuikTrip,MESA,457,457,339 N. POWER RD.,AZ,85205
QuikTrip,PHOENIX,458,458,2836 N. 27TH AVE.,AZ,85009
QuikTrip,MESA,459,459,1141 S CRISMON RD,AZ,85208
QuikTrip,TEMPE,460,460,2195 E SOUTHERN AVE,AZ,85282
QuikTrip,PHOENIX,461,461,2535 W. CAMELBACK RD.,AZ,85017
QuikTrip,TEMPE,462,462,8810 S. HARDY DR.,AZ,85284
QuikTrip,PHOENIX,463,463,4725 E BASELINE RD,AZ,85042
QuikTrip,TEMPE,467,467,3875 S PRIEST DR,AZ,85282
QuikTrip,YOUNGTOWN,468,468,11309 NW GRAND AVE,AZ,85363
QuikTrip,GILBERT,469,469,2761 E BASELINE RD,AZ,85234
QuikTrip,GLENDALE,470,470,6702 W GLENDALE AVE,AZ,85303
QuikTrip,TOLLESON,471,471,297 N 99TH AVE,AZ,85353
QuikTrip,QUEEN CREEK,474,474,22185 S ELLSWORTH LOOP RD,AZ,85142
QuikTrip,PHOENIX,476,476,4011 E. GREENWAY RD.,AZ,85032
QuikTrip,PHOENIX,477,477,3806 W GREENWAY RD,AZ,85053
QuikTrip,MESA,478,478,5545 S POWER RD,AZ,85212
QuikTrip,PHOENIX,479,479,8233 N 7TH ST,AZ,85020
QuikTrip,PHOENIX,481,481,3855 N 75TH AVE,AZ,85033
QuikTrip,CASA GRANDE,482,482,1627 N PINAL AVE,AZ,85122
QuikTrip,PHOENIX,485,485,2019 E. CACTUS RD.,AZ,85022
QuikTrip,GILBERT,486,486,726 S GILBERT RD,AZ,85296
QuikTrip,PHOENIX,487,487,9120 W INDIAN SCHOOL RD,AZ,85037
QuikTrip,PEORIA,490,490,8877 W. THUNDERBIRD RD.,AZ,85381
QuikTrip,BUCKEYE,492,492,1850 S MILLER RD,AZ,85326
QuikTrip,LAVEEN,493,493,3445 W BASELINE RD,AZ,85339
QuikTrip,SURPRISE,494,494,11420 W BELL RD,AZ,85378
QuikTrip,QUEEN CREEK,495,495,1766 W HUNT HWY,AZ,85142
QuikTrip,MESA,496,496,2657 S POWER RD,AZ,85209
QuikTrip,PHOENIX,497,497,22202 N CAVE CREEK RD,AZ,85024
QuikTrip,MARICOPA,499,499,20530 N JOHN WAYNE PKWY,AZ,85139
QuikTrip,DES MOINES,500,500,3700 HUBBELL AVE.,IA,50317
QuikTrip,DES MOINES,501,501,2221 E. EUCLID AVE.,IA,50317
QuikTrip,WINDSOR HEIGHTS,503,503,7220 HICKMAN RD,IA,50324
QuikTrip,URBANDALE,513,513,4600 MERLE HAY RD.,IA,50322
QuikTrip,ANKENY,514,514,802 E. 1ST ST.,IA,50021
QuikTrip,DES MOINES,515,515,1421 INGERSOLL AVE,IA,50309
QuikTrip,DES MOINES,516,516,1000 E UNIVERSITY AVE,IA,50316
QuikTrip,WEST DES MOINES,517,517,1451 22ND ST,IA,50266
QuikTrip,DES MOINES,523,523,850 ARMY POST RD.,IA,50315
QuikTrip,DES MOINES,527,527,1215 6TH AVE.,IA,50314
QuikTrip,DES MOINES,530,530,2300 E. 14TH ST.,IA,50316
QuikTrip,GRIMES,531,531,1900 SE 37TH ST,IA,50111
QuikTrip,DES MOINES,534,534,2945 E UNIVERSITY AVE,IA,50317
QuikTrip,DES MOINES,535,535,1501 E GRAND AVE,IA,50316
QuikTrip,DES MOINES,538,538,4575 NW 2ND ST,IA,50313
QuikTrip,DES MOINES,541,541,2428 HUBBELL AVE.,IA,50317
QuikTrip,DES MOINES,544,544,3941 SE 14TH ST.,IA,50320
QuikTrip,DES MOINES,554,554,901 SW 63RD ST.,IA,50312
QuikTrip,DES MOINES,559,559,4024 FLEUR DR.,IA,50321
QuikTrip,DES MOINES,560,560,2300 MARTIN LUTHER KING JR PKW,IA,50310
QuikTrip,DES MOINES,562,562,4801 N.E. 14TH ST.,IA,50313
QuikTrip,CLIVE,566,566,11925 UNIVERSITY AVE.,IA,50325
QuikTrip,URBANDALE,567,567,9915 DOUGLAS AVE.,IA,50322
QuikTrip,JOHNSTON,568,568,5169 MERLE HAY RD,IA,50131
QuikTrip,COUNCIL BLUFFS,575,575,1749 W. BROADWAY,IA,51501
QuikTrip,OMAHA,579,579,1704 S. 72ND ST.,NE,68124
QuikTrip,OMAHA,580,580,6045 L STREET,NE,68117
QuikTrip,OMAHA,585,585,4720 HAMILTON ST,NE,68132
QuikTrip,BELLEVUE,586,586,1311 FORT CROOK RD. N.,NE,68005
QuikTrip,OMAHA,587,587,4404 N 72ND ST,NE,68134
QuikTrip,OMAHA,588,588,4212 S. 84TH ST.,NE,68127
QuikTrip,OMAHA,589,589,5305 N 103RD ST,NE,68134
QuikTrip,OMAHA,594,594,715 S. SADDLECREEK RD.,NE,68106
QuikTrip,OMAHA,596,596,5005 S. 108TH ST.,NE,68137
QuikTrip,OMAHA,597,597,8727 MAPLE ST,NE,68134
QuikTrip,OMAHA,599,599,13007 Q ST.,NE,68137
QuikTrip,BEL RIDGE,601,601,9099 NATURAL BRIDGE RD.,MO,63121
QuikTrip,ST CHARLES,602,602,1640 S 5TH ST,MO,63303
QuikTrip,ST. CHARLES,603,603,225 N. KINGSHIGHWAY,MO,63301
QuikTrip,ST PETERS,604,604,3847 MCCLAY RD,MO,63376
QuikTrip,BELLEFONTAINE,605,605,10845 LILAC AVE,MO,63137
QuikTrip,ST PETERS,606,606,3000 MID RIVERS MALL DR,MO,63376
QuikTrip,ST JOHN,607,607,8583 ST CHARLES ROCK RD,MO,63114
QuikTrip,ST. PETERS,608,608,391 N MAIN ST,MO,63376
QuikTrip,ST LOUIS UNINCORP,609,609,3638 BAYLESS AVE,MO,63125
QuikTrip,MAPLEWOOD,610,610,3010 BIG BEND BLVD,MO,63143
QuikTrip,HERCULANEUM,611,611,850 MCNUTT ST,MO,63048
QuikTrip,BERKELEY,612,612,6805 N. HANLEY RD.,MO,63134
QuikTrip,ST LOUIS,614,614,10793 PAGE AVE.,MO,63132
QuikTrip,HAZELWOOD,615,615,5909 HOWDERSHELL ROAD,MO,63042
QuikTrip,FERGUSON,616,616,9420 W FLORISSANT AVE,MO,63136
QuikTrip,ARNOLD,618,618,1069 JEFFCO BLVD.,MO,63010
QuikTrip,ST PETERS,619,619,4646 S ST PETERS PKWY,MO,63304
QuikTrip,BALLWIN,621,621,14800 MANCHESTER RD.,MO,63011
QuikTrip,MARYLAND HEIGHTS,622,622,11829 LACKLAND RD.,MO,63146
QuikTrip,ST. CHARLES,623,623,3889 MEXICO RD.,MO,63303
QuikTrip,ST LOUIS,624,624,9101 GRAVOIS RD,MO,63123
QuikTrip,OVERLAND,625,625,8815 PAGE AVE,MO,63114
QuikTrip,OAKLAND,626,626,9951 BIG BEND BLVD.,MO,63122
QuikTrip,FLORISSANT,627,627,150 HOWDERSHELL RD.,MO,63031
QuikTrip,ST LOUIS,628,628,2791 DUNN RD,MO,63136
QuikTrip,ST LOUIS,629,629,4453 MERAMEC BOTTOM RD.,MO,63129
QuikTrip,OVERLAND,630,630,2621 WOODSON RD.,MO,63114
QuikTrip,O'FALLON,632,632,4750 HWY. K,MO,63368
QuikTrip,ST LOUIS,633,633,3475 LEMAY FERRY RD.,MO,63125
QuikTrip,ELLISVILLE,634,634,16100 MANCHESTER RD.,MO,63011
QuikTrip,ST LOUIS DOWNTOWN,636,636,4101 GRAVOIS AVE,MO,63116
QuikTrip,ST LOUIS DOWNTOWN,638,638,2851 GRAVOIS AVE,MO,63118
QuikTrip,ST LOUIS,639,639,11802 LUSHER RD.,MO,63138
QuikTrip,O'FALLON,640,640,801 BELLEAU CREEK RD.,MO,63366
QuikTrip,ST LOUIS,641,641,604 BIG BEND RD.,MO,63021
QuikTrip,FENTON,642,642,1923 BOWLES AVE.,MO,63026
QuikTrip,O'FALLON,643,643,8601 MEXICO RD.,MO,63366
QuikTrip,MARYLAND HEIGHTS,644,644,11525 DORSETT RD.,MO,63043
QuikTrip,WELDON SPRING,645,645,5905 S HWY 94,MO,63304
QuikTrip,HIGH RIDGE,646,646,1617 GRAVOIS RD.,MO,63049
QuikTrip,ST LOUIS DOWNTOWN,648,648,3410 S KINGSHIGWAY BLVD,MO,63139
QuikTrip,GREEN PARK,649,649,6312 S LINDBERGH BLVD,MO,63123
QuikTrip,HAZELWOOD,650,650,7400 N LINDBERGH BLVD,MO,63042
QuikTrip,FENTON,652,652,2600 S OLD HWY 141,MO,63026
QuikTrip,WENTZVILLE,654,654,1140 W. PEARCE BLVD.,MO,63385
QuikTrip,EUREKA,655,655,290 E. 4TH ST.,MO,63025
QuikTrip,FENTON,656,656,1907 HAWKINS RD.,MO,63026
QuikTrip,DARDENNE PRAIRIE,657,657,1150 FEISE RD,MO,63368
QuikTrip,BRIDGETON,659,659,12700 ST. CHARLES ROCK RD.,MO,63044
QuikTrip,ST CHARLES,660,660,1500 ZUMBEHL RD,MO,63303
QuikTrip,COLUMBIA,661,661,3211 CLARK LN,MO,65202
QuikTrip,O'FALLON,662,662,955 BRYAN RD.,MO,63366
QuikTrip,WENTZVILLE,663,663,55 WENTZVILLE PKY,MO,63385
QuikTrip,BRIDGETON,664,664,11444 ST CHARLES ROCK RD,MO,63044
QuikTrip,ST LOUIS DOWNTOWN,668,668,6900 GRAVOIS AVE,MO,63116
QuikTrip,LAKE ST LOUIS,669,669,8334 HIGHWAY N,MO,63367
QuikTrip,FLORISSANT,670,670,2105 N HWY 67,MO,63033
QuikTrip,UNION,672,672,100 BOURBEUSE RIVER ACCESS,MO,63084
QuikTrip,ST CHARLES,673,673,2260 FIRST CAPITOL DR,MO,63301
QuikTrip,ST LOUIS,674,674,4435 TELEGRAPH RD,MO,63129
QuikTrip,FERGUSON,676,676,10768 W FLORISSANT AVE,MO,63136
QuikTrip,ST LOUIS,678,678,13099 TESSON FERRY RD,MO,63128
QuikTrip,MARLBOROUGH,679,679,8000 WATSON RD,MO,63119
QuikTrip,BELLEVILLE,686,686,755 SOUTH BELT W.,IL,62220
QuikTrip,GRANITE CITY,688,688,3120 NAMEOKI RD.,IL,62040
QuikTrip,BELLEVILLE,690,690,1800 LEBANON AVE,IL,62221
QuikTrip,MADISON,691,691,608 MCCAMBRIDGE AVE.,IL,62060
QuikTrip,EAST ALTON,692,692,716 W. ST. LOUIS AVE.,IL,62024
QuikTrip,EDWARDSVILLE,694,694,2490 TROY RD.,IL,62025
QuikTrip,BETHALTO,695,695,605 W. BETHALTO DR.,IL,62010
QuikTrip,GRANITE CITY,697,697,2159 MADISON AVE.,IL,62040
QuikTrip,GODFREY TOWNSHIP,698,698,2809 GODFREY RD.,IL,62035
QuikTrip,LAWRENCEVILLE,700,700,741 W. PIKE ST.,GA,30046
QuikTrip,DECATUR,701,701,4113 COVINGTON HWY,GA,30032
QuikTrip,SMYRNA,702,702,3875 S. COBB DR.,GA,30080
QuikTrip,NORCROSS,703,703,2185 BEAVER RUIN RD.,GA,30071
QuikTrip,TUCKER,704,704,1999 MOUNTAIN INDUSTRIAL BLVD.,GA,30084
QuikTrip,NORCROSS,705,705,5770 BROOKHOLLOW PKWY.,GA,30071
QuikTrip,DULUTH,706,706,2571 SATELLITE BLVD.,GA,30096
QuikTrip,DORAVILLE,707,707,4086 PLEASANTDALE RD.,GA,30340
QuikTrip,GAINESVILLE,708,708,897 W. RIDGE RD.,GA,30501
QuikTrip,ATLANTA,709,709,2805 CHAMBLEE-TUCKER RD,GA,30341
QuikTrip,DULUTH,710,710,3844 SATELLITE BLVD.,GA,30096
QuikTrip,SANDY SPRINGS,711,711,7884 ROSWELL,GA,30350
QuikTrip,DECATUR,712,712,3830 N. DECATUR RD.,GA,30032
QuikTrip,MARIETTA,713,713,1350 S COBB DR SE,GA,30060
QuikTrip,NORCROSS,714,714,1515 BEAVER RUIN RD.,GA,30093
QuikTrip,MARIETTA,715,715,1265 POWDER SPRINGS ST,GA,30067
QuikTrip,ALPHARETTA,716,716,10920 STATE BRIDGE RD.,GA,30022
QuikTrip,TUCKER,717,717,6182 S. NORCROSS TUCKER RD.,GA,30084
QuikTrip,NORCROSS,718,718,6065 SINGLETON RD.,GA,30093
QuikTrip,MARIETTA,719,719,640 FRANKLIN RD.,GA,30067
QuikTrip,LITHIA SPRINGS,720,720,611 THORNTON RD.,GA,30122
QuikTrip,ATLANTA,721,721,3292 BUFORD HWY. N.E.,GA,30329
QuikTrip,LITHONIA,722,722,7225 ROCKBRIDGE RD.,GA,30058
QuikTrip,ATLANTA,723,723,2375 N DRUID HILL RD NE,GA,30329
QuikTrip,COLLEGE PARK,724,724,5390 RIVERDALE RD.,GA,30349
QuikTrip,LAWRENCEVILLE,725,725,600 GRAYSON HIGHWAY,GA,30046
QuikTrip,RIVERDALE,726,726,93 UPPER RIVERDALE RD.,GA,30274
QuikTrip,MARIETTA,727,727,692 POWDER SPRINGS ST,GA,30064
QuikTrip,TUCKER,728,728,3317 LAWRENCEVILLE HWY.,GA,30084
QuikTrip,ATLANTA,729,729,2804 PACES FERRY RD. SE,GA,30339
QuikTrip,SANDY SPRINGS,730,730,8200 DUNWOODY PL.,GA,30350
QuikTrip,DULUTH,731,731,1565 PLEASANT HILL RD,GA,30096
QuikTrip,SMYRNA,732,732,2671 SPRING RD.,GA,30080
QuikTrip,AUSTELL,733,733,3964 FLOYD RD.,GA,30106
QuikTrip,DORAVILLE,734,734,6901 PEACHTREE INDUSTRIAL BLVD,GA,30340
QuikTrip,NORCROSS,735,735,3229 PEACHTREE CORNERS CIR.,GA,30092
QuikTrip,DECATUR,736,736,3930 FLAT SHOALS PKWY.,GA,30034
QuikTrip,JEFFERSON,737,737,5240 US HWY. 129 N.,GA,30549
QuikTrip,MABLETON,738,738,7130 MABLETON PKWY.,GA,30126
QuikTrip,TUCKER,739,739,4330 CHAMBLEE TUCKER RD,GA,30084
QuikTrip,LAWRENCEVILLE,740,740,1770 MARATHON BLVD.,GA,30045
QuikTrip,DECATUR,741,741,1910 LAWRENCEVILLE HWY.,GA,30033
QuikTrip,AUSTELL,742,742,291 SIX FLAGS DR.,GA,30168
QuikTrip,MARIETTA,743,743,1755 SCUFFLEGRIT RD.,GA,30062
QuikTrip,ATLANTA,744,744,761 SIDNEY MARCUS BLVD.,GA,30324
QuikTrip,ATLANTA,745,745,1836 BRIARCLIFF RD.,GA,30329
QuikTrip,DULUTH,746,746,3495 SATELLITE BLVD.,GA,30096
QuikTrip,LITHONIA,747,747,2776 PANOLA RD.,GA,30058
QuikTrip,NORCROSS,748,748,5095 OAKBROOK PKWY.,GA,30093
QuikTrip,MARIETTA,749,749,3110 ROSWELL RD.,GA,30062
QuikTrip,NORCROSS,750,750,6140 JIMMY CARTER BLVD.,GA,30071
QuikTrip,LAWRENCEVILLE,751,751,2949 FIVE FORKS TRICKUM RD,GA,30044
QuikTrip,KENNESAW,752,752,4340 BELLS FERRY RD.,GA,30144
QuikTrip,KENNESAW,753,753,2761 COBB PKWY.,GA,30152
QuikTrip,ROSWELL,754,754,4635 WOODSTOCK RD.,GA,30075
QuikTrip,LAWRENCEVILLE,755,755,1055 OLD PEACHTREE RD.,GA,30043
QuikTrip,JONESBORO,756,756,8805 TARA BLVD.,GA,30236
QuikTrip,ADAIRSVILLE,757,757,961 HWY. 140 N.W.,GA,30103
QuikTrip,DOUGLASVILLE,758,758,2786 CHAPEL HILL RD.,GA,30135
QuikTrip,LAWRENCEVILLE,759,759,2110 RIVERSIDE PKWY.,GA,30043
QuikTrip,RIVERDALE,760,760,7350 GEORGIA HWY. 85,GA,30274
QuikTrip,CONYERS,761,761,1340 KLONDIKE RD,GA,30094
QuikTrip,UNION CITY,763,763,4745 JONESBORO RD.,GA,30291
QuikTrip,LAWRENCEVILLE,764,764,765 BUFORD DR.,GA,30043
QuikTrip,ALPHARETTA,765,765,11700 HAYNES BRIDGE RD.,GA,30009
QuikTrip,DACULA,766,766,1750 WINDER HWY.,GA,30019
QuikTrip,SMYRNA,768,768,2180 WINDY HILL RD.,GA,30080
QuikTrip,SUWANEE,769,769,1075 PEACHTREE IND. BLVD.,GA,30024
QuikTrip,CONYERS,770,770,1395 GEORGIA HWY. 138,GA,30013
QuikTrip,OAKWOOD,771,771,3446 MUNDY MILL RD,GA,30507
QuikTrip,STOCKBRIDGE,772,772,5260 NORTH HENRY BLVD.,GA,30281
QuikTrip,CHAMBLEE,773,773,5347 PEACHTREE INDUSTRIAL BLVD,GA,30341
QuikTrip,DULUTH,774,774,3195 PEACHTREE INDUSTRIAL BLVD,GA,30097
QuikTrip,MARIETTA,775,775,105 EARNEST BARRETT PKWY. N.W.,GA,30066
QuikTrip,NORCROSS,776,776,5255 PEACHTREE PKWY.,GA,30092
QuikTrip,ATLANTA,777,777,5705 FULTON INDUSTRIAL BLVD.,GA,30336
QuikTrip,SUWANEE,778,778,3611 PEACHTREE PKWY.,GA,30024
QuikTrip,WOODSTOCK,779,779,1470 TOWNE LAKE PKWY.,GA,30189
QuikTrip,DECATUR,780,780,2753 WESLEY CHAPEL RD,GA,30034
QuikTrip,WOODSTOCK,781,781,4865 OLD HWY. 5,GA,30188
QuikTrip,ALPHARETTA,782,782,11700 COTTON CREEK ENTRY,GA,30005
QuikTrip,MCDONOUGH,783,783,50 WILLOW LANE,GA,30253
QuikTrip,DACULA,784,784,2460 HAMILTON MILL RD.,GA,30019
QuikTrip,BUFORD,785,785,2900 BUFORD DR.,GA,30519
QuikTrip,BUFORD,786,786,4080 BUFORD DR.,GA,30518
QuikTrip,ELLENWOOD,787,787,2881 FOREST PKWY,GA,30294
QuikTrip,DALLAS,788,788,491 NATHAN DEAN BLVD.,GA,30132
QuikTrip,STOCKBRIDGE,789,789,1614 HUDSON BRIDGE RD.,GA,30281
QuikTrip,LAWRENCEVILLE,790,790,3747 US HWY. 29,GA,30044
QuikTrip,MORROW,791,791,6801 MT. ZION BLVD.,GA,30260
QuikTrip,CARTERSVILLE,792,792,1364 JOE FRANK HARRIS PKWY.,GA,30120
QuikTrip,ACWORTH,793,793,6090 HWY. 92,GA,30102
QuikTrip,SNELLVILLE,794,794,2008 SCENIC HWY.,GA,30078
QuikTrip,LILBURN,795,795,4900 STONE MOUNTAIN HWY.,GA,30047
QuikTrip,LOGANVILLE,796,796,4675 ATLANTA HWY.,GA,30052
QuikTrip,ATLANTA,797,797,4050 BUFORD HWY NE,GA,30345
QuikTrip,COVINGTON,798,798,3214 HWY 278 NW,GA,30014
QuikTrip,JONESBORO,799,799,599 Spur 138,GA,30236
QuikTrip,WOODSTOCK,801,801,9765  HWY. 92,GA,30188
QuikTrip,CONYERS,802,802,2400 SALEM RD. SE,GA,30013
QuikTrip,ROSWELL,803,803,20 E CROSSVILLE RD,GA,30075
QuikTrip,SNELLVILLE,804,804,1912 MAIN ST.,GA,30078
QuikTrip,MARIETTA,806,806,1900 LOWER ROSWELL RD,GA,30068
QuikTrip,FAYETTEVILLE,807,807,1846 HWY 85 N,GA,30214
QuikTrip,DOUGLASVILLE,808,808,2042 FAIRBURN RD.,GA,30135
QuikTrip,VILLA RICA,810,810,650 HWY. 61,GA,30180
QuikTrip,ACWORTH,811,811,3888 COBB PKWY,GA,30101
QuikTrip,CUMMING,812,812,2830 KEITH BRIDGE RD,GA,30041
QuikTrip,NEWNAN,813,813,1670 HWY. 34 E.,GA,30265
QuikTrip,MORROW,814,814,7390 JONESBORO RD,GA,30260
QuikTrip,MARIETTA,815,815,671 N COBB PKWY,GA,30062
QuikTrip,SNELLVILLE,816,816,3490 CENTERVILLE HWY,GA,30039
QuikTrip,POWDER SPRINGS,817,817,1390 RICHARD D SAILORS PKWY SW,GA,30127
QuikTrip,ATHENS,819,819,1240 OCONEE CONNECTOR,GA,30606
QuikTrip,MCDONOUGH,820,820,1494 JONESBORO RD,GA,30253
QuikTrip,COVINGTON,821,821,11124 HWY 142,GA,30014
QuikTrip,BUFORD,824,824,927 GAINESVILLE HWY,GA,30518
QuikTrip,FAIRBURN,825,825,7975 SENOIA RD,GA,30213
QuikTrip,COMMERCE,828,828,30839 HWY 441,GA,30529
QuikTrip,JASPER,829,829,3353 CAMP RD,GA,30143
QuikTrip,DULUTH,831,831,4006 BUFORD HWY NW,GA,30096
QuikTrip,CARROLLTON,834,834,1676 BANKHEAD HWY,GA,30116
QuikTrip,LOCUST GROVE,837,837,4829 BILL GARDNER PKWY,GA,30248
QuikTrip,ATLANTA,838,838,2746 CLAIRMONT RD NE,GA,30329
QuikTrip,CUMMING,841,841,1655 BUFORD HWY,GA,30041
QuikTrip,MCDONOUGH,842,842,955 HIGHWAY 155,GA,30253
QuikTrip,SUWANEE,844,844,3359 HWY 317,GA,30024
QuikTrip,MARIETTA,845,845,600 S MARIETTA PKWY,GA,30060
QuikTrip,DORAVILLE,848,848,5500 BUFORD HWY NE,GA,30340
QuikTrip,DALWORTHINGTON GARDE,850,850,4200 S BOWEN RD,TX,76016
QuikTrip,NORTH RICHLAND HILLS,851,851,7541 BLVD 26,TX,76180
QuikTrip,GRAND PRAIRIE,852,852,2805 N.E. GREEN OAKS BLVD.,TX,75050
QuikTrip,GRAND PRAIRIE,853,853,1005 W PIONEER PKWY,TX,75051
QuikTrip,ARLINGTON,854,854,3532 MATLOCK RD.,TX,76015
QuikTrip,NORTH RICHLAND HILLS,855,855,6345 DAVIS BLVD,TX,76180
QuikTrip,ARLINGTON,856,856,4930 LITTLE RD,TX,76017
QuikTrip,ARLINGTON,857,857,2425 W DIVISION ST,TX,76012
QuikTrip,SOUTHLAKE,858,858,2905 E. SOUTHLAKE BLVD.,TX,76092
QuikTrip,ARLINGTON,859,859,901 E DIVISION ST,TX,76011
QuikTrip,HURST,860,860,1500 PRECINCT LINE RD,TX,76054
QuikTrip,FORT WORTH,861,861,6601 BRENTWOOD STAIR RD,TX,76112
QuikTrip,KELLER,862,862,700 S MAIN ST (HWY 377),TX,76248
QuikTrip,BEDFORD,863,863,2201 CENTRAL DR,TX,76021
QuikTrip,WATAUGA,864,864,7500 DENTON HWY.,TX,76148
QuikTrip,HURST,865,865,1400 W HURST BLVD,TX,76053
QuikTrip,WESTWORTH VILLAGE,866,866,6301 WESTWORTH BLVD,TX,76114
QuikTrip,EULESS,867,867,1100 N INDUSTRIAL BLVD,TX,76039
QuikTrip,HALTOM CITY,868,868,5400 N. BEACH ST.,TX,76137
QuikTrip,EULESS,869,869,700 S INDUSTRIAL BLVD,TX,76040
QuikTrip,ARLINGTON,870,870,4201 S COLLINS ST,TX,76018
QuikTrip,FORT WORTH,871,871,1900 ALTA MESA BLVD.,TX,76134
QuikTrip,FORT WORTH,873,873,101 W EVERMAN PKWY.,TX,76134
QuikTrip,KENNEDALE,874,874,1225 W KENNEDALE PKWY,TX,76140
QuikTrip,ARLINGTON,876,876,1425 N COOPER ST,TX,76011
QuikTrip,FT WORTH,877,877,324 CLIFFORD CENTER DR,TX,76108
QuikTrip,NORTH RICHLAND HILLS,878,878,6640 NE LOOP 820,TX,76180
QuikTrip,LAKE WORTH,879,879,6249 LAKE WORTH BLVD.,TX,76135
QuikTrip,ARLINGTON,880,880,5601 S COOPER ST,TX,76017
QuikTrip,FT WORTH,881,881,3229 ALTA MERE DR,TX,76116
QuikTrip,FT WORTH,882,882,2501 NE 28TH ST,TX,76106
QuikTrip,FT WORTH,884,884,109 E NORTHSIDE DR,TX,76164
QuikTrip,FT WORTH,885,885,1101 HEMPHILL ST,TX,76104
QuikTrip,EULESS,887,887,105 WESTPARK WAY,TX,76040
QuikTrip,HALTOM CITY,888,888,4601 DENTON HWY,TX,76117
QuikTrip,HALTOM CITY,889,889,2321 N BEACH ST,TX,76111
QuikTrip,PLANO,890,890,901 W PARK BLVD,TX,75075
QuikTrip,PLANO,892,892,1100 E. SPRING CREEK PKWY.,TX,75074
QuikTrip,PLANO,893,893,4608 W. PLANO PKWY.,TX,75093
QuikTrip,WYLIE,894,894,3459 FM 544,TX,75098
QuikTrip,PLANO,896,896,900 JUPITER RD.,TX,75074
QuikTrip,PLANO,897,897,6425 W. PARK BLVD.,TX,75093
QuikTrip,PLANO,898,898,650 K AVE,TX,75074
QuikTrip,DENTON,899,899,3300 E UNIVERSITY DR,TX,76208
QuikTrip,DALLAS,900,900,9500 FOREST LN,TX,75243
QuikTrip,GARLAND,901,901,220 W CENTERVILLE RD,TX,75041
QuikTrip,DALLAS,902,902,12100 E. NORTHWEST HWY.,TX,75218
QuikTrip,DALLAS,903,903,2968 FOREST LN.,TX,75234
QuikTrip,DALLAS,904,904,6060 SKILLMAN RD,TX,75231
QuikTrip,DENTON,905,905,321 W EAGLE DR.,TX,76201
QuikTrip,GARLAND,906,906,4906 JUPITER RD,TX,75044
QuikTrip,GARLAND,907,907,3011 N SHILOH RD,TX,75044
QuikTrip,GARLAND,908,908,2010 S SHILOH RD,TX,75042
QuikTrip,GARLAND,909,909,5825 BROADWAY BLVD,TX,75043
QuikTrip,PLANO,910,910,9635 COIT RD,TX,75024
QuikTrip,DENTON,911,911,3701 IH 35 SOUTH,TX,76210
QuikTrip,DENTON,912,912,3113 W UNIVERSITY DR,TX,76207
QuikTrip,MCKINNEY,913,913,4151 STACY RD,TX,75070
QuikTrip,MCKINNEY,914,914,7349 S CUSTER RD,TX,75070
QuikTrip,FRISCO,915,915,5530 ELDORADO PKWY,TX,75034
QuikTrip,MCKINNEY,916,916,1700 S MCDONALD ST,TX,75069
QuikTrip,THE COLONY,917,917,4850 MAIN ST,TX,75056
QuikTrip,FORT WORTH,918,918,5700 BRYANT IRVIN RD,TX,76132
QuikTrip,MCKINNEY,919,919,2285 W UNIVERSITY DR,TX,75071
QuikTrip,LITTLE ELM,920,920,2181 FM 423,TX,75068
QuikTrip,GRAND PRAIRIE,921,921,3768 S CARRIER PKWY,TX,75052
QuikTrip,DALLAS,923,923,8414 S HAMPTON RD,TX,75232
QuikTrip,DUNCANVILLE,924,924,102 E CAMP WISDOM RD,TX,75116
QuikTrip,DUNCANVILLE,925,925,925 S COCKRELL HILL RD,TX,75137
QuikTrip,LEWISVILLE,927,927,1701 S STATE HWY 121 BUS,TX,75067
QuikTrip,LEWISVILLE,928,928,801 E SH121 BUS,TX,75057
QuikTrip,CARROLLTON,930,930,1528 W. HEBRON PKWY. W.,TX,75010
QuikTrip,ROWLETT,931,931,1900 LAKEVIEW PKWY,TX,75088
QuikTrip,DALLAS,932,932,2929 FRANKFORD RD.,TX,75287
QuikTrip,DALLAS,933,933,7104 GREENVILLE AVE,TX,75231
QuikTrip,PLANO,934,934,6400 PRESTON RD,TX,75024
QuikTrip,DALLAS,936,936,3230 W. MOCKINGBIRD LANE,TX,75235
QuikTrip,FRISCO,937,937,4645 MAIN ST,TX,75034
QuikTrip,GARLAND,938,938,131 LAVON DR,TX,75040
QuikTrip,BENBROOK,939,939,9201 BENBROOK BLVD,TX,76126
QuikTrip,LAKE DALLAS,940,940,302 SWISHER RD,TX,75065
QuikTrip,LEWISVILLE,941,941,1035 W ROUND GROVE RD,TX,75067
QuikTrip,LEWISVILLE,942,942,1231 JUSTIN RD,TX,75077
QuikTrip,WAXAHACHIE,943,943,5400 N I-35E,TX,75165
QuikTrip,ARLINGTON,947,947,2023 E. LAMAR BLVD.,TX,76006
QuikTrip,ARLINGTON,950,950,701 W HARRIS RD,TX,76001
QuikTrip,MANSFIELD,951,951,1601 FM 157,TX,76063
QuikTrip,MANSFIELD,952,952,1590 E BROAD ST,TX,76063
QuikTrip,BURLESON,956,956,213 NW RENFRO ST,TX,76028
QuikTrip,FORT WORTH,957,957,12345 SOUTH FWY,TX,76028
QuikTrip,BURLESON,958,958,2690 SW WILSHIRE BLVD,TX,76028
QuikTrip,RICHARDSON,960,960,522 W BELTLINE RD,TX,75080
QuikTrip,MCKINNEY,963,963,1750 WILMETH RD,TX,75071
QuikTrip,WESTLAKE,966,966,2301 N HWY 377,TX,76262
QuikTrip,GRAPEVINE,967,967,801 IRA E WOODS AVE,TX,76051
QuikTrip,KELLER,968,968,8836 DAVIS BLVD,TX,76248
QuikTrip,COPPELL,969,969,1484 S BELTLINE RD,TX,75019
QuikTrip,DALLAS,972,972,7818 GARLAND RD,TX,75214
QuikTrip,HUTCHINS,973,973,401 E WINTERGREEN RD,TX,75141
QuikTrip,DESOTO,974,974,1235 E BELTLINE RD,TX,75115
QuikTrip,DALLAS,979,979,10101 ROYAL LANE,TX,75238
QuikTrip,BALCH SPRINGS,982,982,12631 LAKE JUNE RD,TX,75180
QuikTrip,RIVER OAKS,984,984,2601 JACKSBORO HWY,TX,76114
QuikTrip,ARLINGTON,986,986,2451 E SUBLETT RD,TX,76018
QuikTrip,SAGINAW,988,988,1100 S BLUE MOUND RD,TX,76131
QuikTrip,IRVING,994,994,4301 N BELTLINE RD,TX,75038
QuikTrip,IRVING,995,995,1718 N BELTLINE RD,TX,75061
QuikTrip,MOORESVILLE,1008,1008,161 W PLAZA DR,NC,28117
QuikTrip,MOORESVILLE,1009,1009,680 RIVER HWY,NC,28117
QuikTrip,DENVER,1017,1017,7259 NC 73 HIGHWAY,NC,28037
QuikTrip,KANNAPOLIS,1022,1022,821 CLOVERLEAF PLAZA,NC,28083
QuikTrip,CONCORD,1023,1023,1086 CONCORD PKWY N,NC,28027
QuikTrip,CONCORD,1025,1025,859 CONCORD PKWY S,NC,28027
QuikTrip,CHARLOTTE,1029,1029,4937 SUNSET RD,NC,28269
QuikTrip,HARRISBURG,1031,1031,5755 NC HWY 49 S,NC,28075
QuikTrip,GASTONIA,1042,1042,2305 N CHESTER ST,NC,28052
QuikTrip,GASTONIA,1043,1043,1843 W FRANKLIN BLVD,NC,28052
QuikTrip,GASTONIA,1045,1045,310 E LONG AVE,NC,28054
QuikTrip,INDIAN TRAIL,1054,1054,5650 W HWY 74,NC,28110
QuikTrip,CLOVER,1057,1057,4020 CHARLOTTE HWY,SC,29710
QuikTrip,CHARLOTTE,1065,1065,2326 SANDY PORTER RD,NC,28273
QuikTrip,CHARLOTTE,1071,1071,127 E WOODLAWN RD,NC,28217
QuikTrip,Fort Mill,1075,1075,891 GOLD HILL ROAD,SC,29708
QuikTrip,ROCK HILL,1098,1098,664 ANDERSON RD N,SC,29730
QuikTrip,ROCK HILL,1099,1099,1195 RIVERVIEW RD,SC,29732
QuikTrip,BOILING SPRINGS,1100,1100,140 CANDLENUT LANE,SC,29316
QuikTrip,GREENVILLE,1104,1104,2048 WADE HAMPTON BLVD,SC,29615
QuikTrip,ANDERSON,1106,1106,4535 LIBERTY HWY,SC,29621
QuikTrip,ANDERSON,1107,1107,4123 CLEMSON BLVD,SC,29621
QuikTrip,ANDERSON,1108,1108,1509 PEARMAN DAIRY RD,SC,29625
QuikTrip,ANDERSON,1109,1109,2901 N MAIN ST,SC,29621
QuikTrip,SPARTANBURG,1111,1111,7114 LONE OAK RD,SC,29303
QuikTrip,DUNCAN,1112,1112,105 SPARTANGREEN BLVD,SC,29334
QuikTrip,GREER,1113,1113,1302 W WADE HAMPTON BLVD,SC,29650
QuikTrip,GREENVILLE,1115,1115,7840 WHITE HORSE RD,SC,29611
QuikTrip,ANDERSON,1116,1116,1701 E GREENVILLE ST,SC,29621
QuikTrip,GAFFNEY,1120,1120,101 LEMMONS LN,SC,29341
QuikTrip,EASLEY,1121,1121,4855 CALHOUN MEMORIAL HWY,SC,29640
QuikTrip,PENDLETON,1127,1127,7620 HWY 76,SC,29670
QuikTrip,SPARTANBURG,1129,1129,21 FAIRVIEW CHURCH RD,SC,29303
QuikTrip,SPARTANBURG,1131,1131,489 W MAIN ST,SC,29301
QuikTrip,SPARTANBURG,1132,1132,448 E SAINT JOHN ST,SC,29302
QuikTrip,GREENVILLE,1133,1133,4701 AUGUSTA RD,SC,29605
QuikTrip,GREENVILLE,1140,1140,100 RUTHERFORD ST,SC,29609
QuikTrip,MAULDIN,1144,1144,304 W BUTLER RD,SC,29662
QuikTrip,GREENVILLE,1145,1145,1509 GROVE RD,SC,29605
QuikTrip,GREENVILLE,1147,1147,1012 WOODRUFF RD,SC,29607
QuikTrip,TEMPE,1400,1400,2150 E UNIVERSITY DR,AZ,85281
QuikTrip,GOODYEAR,1401,1401,575 N ESTRELLA PKWY,AZ,85338
QuikTrip,GILBERT,1404,1404,3720 S VAL VISTA DR,AZ,85297
QuikTrip,PHOENIX,1408,1408,2250 E THOMAS RD,AZ,85016
QuikTrip,PHOENIX,1411,1411,3605 W GLENDALE AVE,AZ,85051
QuikTrip,TEMPE,1420,1420,1190 W ELLIOT RD,AZ,85284
QuikTrip,PHOENIX,1428,1428,2840 W CACTUS RD,AZ,85029
QuikTrip,TUCSON,1450,1450,68 W RIVER RD,AZ,85704
QuikTrip,TUCSON,1452,1452,5151 E SPEEDWAY BLVD,AZ,85712
QuikTrip,TUCSON,1453,1453,1884 S CRAYCROFT RD,AZ,85711
QuikTrip,TUCSON,1454,1454,2802 N 1ST AVE,AZ,85719
QuikTrip,TUCSON,1456,1456,5565 W CORTARO FARMS RD,AZ,85742
QuikTrip,TUCSON,1460,1460,1250 S PANTANO RD,AZ,85710
QuikTrip,TUCSON,1461,1461,1401 S ALVERNON WAY,AZ,85711
QuikTrip,TUCSON,1470,1470,1375 W AJO WAY,AZ,85713
QuikTrip,ORO VALLEY,1475,1475,11045 N ORACLE RD,AZ,85737
QuikTrip,TUCSON,1476,1476,8530 E BROADWAY BLVD,AZ,85710
QuikTrip,TUCSON,1479,1479,3636 N CRAYCROFT RD,AZ,85750
QuikTrip,TUCSON,1482,1482,3345 W VALENCIA RD,AZ,85746
QuikTrip,TUCSON,1487,1487,10230 E GOLF LINKS RD,AZ,85730
QuikTrip,TUCSON,1490,1490,2345 E IRVINGTON RD,AZ,85714
QuikTrip,TUCSON,1492,1492,1425 W GRANT RD,AZ,85745
QuikTrip,TUCSON,1493,1493,1925 N KOLB RD,AZ,85715
QuikTrip,TUCSON,1496,1496,6385 E GOLF LINKS RD,AZ,85730
