keywords,city,Aggdata Store Number,store_number,address,state,zip_code
Quiznos,Centennial,1,#1,12201 E Arapahoe Rd,CO,80112
Quiznos,Raleigh,1,#1,5605 Chapel Hill Road,NC,27607
Quiznos,Boulder,2,#2,601 S Broadway St,CO,80305
Quiznos,Denver,6,#6,1001 17th St,CO,80202
Quiznos,Silverthorne,7,#7,191 Blue River Pkwy,CO,80498
Quiznos,Denver,17,#17,1275 Grant St,CO,80203
Quiznos,Littleton,23,#23,8053 S Broadway,CO,80122
Quiznos,Denver,46,#46,8400 Pena Blvd Concourse A,CO,80249
Quiznos,Logan,60,#60,1730 N Main St,UT,84341
Quiznos,Tukwila,78,#78,385 Strander Blvd,WA,98188
Quiznos,Raleigh,91,#91,6605 Falls of Neuse Rd,NC,27615
Quiznos,Palatka,95,#95,111 S State Road 19,FL,32177
Quiznos,Irving,97,#97,5330 N Macarthur Blvd,TX,75038
Quiznos,Big Bear Lake,108,#108,40616 Village Dr,CA,92315
Quiznos,Boise,114,#114,8665 W Franklin Rd,ID,83709
Quiznos,Topeka,117,#117,809 S Kansas Ave,KS,66612
Quiznos,Hays,118,#118,135 W 8th St,KS,67601
Quiznos,Newport Beach,134,#134,4341 Macarthur Blvd,CA,92660
Quiznos,Louisville,143,#143,223 S 5th St,KY,40202
Quiznos,Topeka,155,#155,5967 SW 29th St,KS,66614
Quiznos,Kennewick,158,#158,1102 N Columbia Center Blvd,WA,99336
Quiznos,Lynnwood,164,#164,3000 184th St SW,WA,98037
Quiznos,Lafayette,166,#166,5725 Johnston St,LA,70503
Quiznos,Kearney,178,#178,3004 Highway 30 W,NE,68845
Quiznos,Davenport,182,#182,2820 E 53rd St,IA,52807
Quiznos,Albuquerque,183,#183,2200 Sunport Blvd SE,NM,87106
Quiznos,Denver,188,#188,999 18th St STE 136,CO,80202
Quiznos,Florence,194,#194,2088 Florence Mall,KY,41042
Quiznos,Huntsville,222,#222,4314 University Dr NW,AL,35816
Quiznos,Cedar Rapids,234,#234,455 Edgewood Rd NW,IA,52405
Quiznos,Austin,246,#246,922 Congress Ave,TX,78701
Quiznos,Puyallup,251,#251,3500 S Meridian,WA,98373
Quiznos,Santa Clara,252,#252,495 El Camino Real,CA,95050
Quiznos,Madison,254,#254,116 West Towne Mall Food Court Gammon Rd,WI,53719
Quiznos,Santa Ana,260,#260,2266 E 17th St,CA,92705
Quiznos,Oakland,276,#276,1200 Clay St,CA,94612
Quiznos,Lake Forest,279,#279,24531 Trabuco Rd,CA,92630
Quiznos,Cedar Rapids,298,#298,600 Blairs Ferry Rd NE,IA,52402
Quiznos,Belleville,315,#315,200 E Main St,IL,62220
Quiznos,Cary,355,#355,1246 NW Maynard Rd,NC,27513
Quiznos,Lincoln,356,#356,3111 NW 12th St,NE,68521
Quiznos,Medford,364,#364,1380 Biddle Rd,OR,97504
Quiznos,Plano,377,#377,6909 Coit Rd,TX,75024
Quiznos,Richland,397,#397,950 George Washington Way,WA,99352
Quiznos,Detroit Lakes,435,#435,317 Frazee St E,MN,56501
Quiznos,Fenton,436,#436,968 S Highway Dr,MO,63026
Quiznos,Loveland,444,#444,630 E 29th St,CO,80538
Quiznos,Raleigh,453,#453,1 Exchange Plaza,NC,27601
Quiznos,Saint Louis,457,#457,9642 Olive Blvd,MO,63132
Quiznos,Bothell,475,#475,11611 NE 195th St,WA,98011
Quiznos,Greensboro,484,#484,7340 W Friendly Ave,NC,27410
Quiznos,Austin,497,#497,3637C Far West Blvd,TX,78731
Quiznos,Arlington,515,#515,1215 Jefferson Davis Hwy,VA,22202
Quiznos,Denver,524,#524,1661 Stout St,CO,80202
Quiznos,Springfield,537,#537,2043 E Independence St,MO,65804
Quiznos,Madison,540,#540,6611 McKee Rd,WI,53719
Quiznos,Madison,541,#541,5 N Pinckney St,WI,53703
Quiznos,Allen,553,#553,541 W McDermott Dr Frnt,TX,75013
Quiznos,Medford,554,#554,55 E Stewart Ave,OR,97501
Quiznos,Grants Pass,555,#555,1632 Williams Hwy,OR,97527
Quiznos,Lamar,560,#560,113 E Olive St,CO,81052
Quiznos,Costa Mesa,567,#567,1835 Newport Blvd,CA,92627
Quiznos,Salt Lake City,576,#576,1775 S 4130 W,UT,84104
Quiznos,Fargo,584,#584,4501 15th Ave S,ND,58103
Quiznos,Spring,586,#586,6700 Woodlands Pkwy,TX,77382
Quiznos,Wichita,588,#588,240 S West St,KS,67213
Quiznos,Lake Forest,595,#595,20025 Lake Forest Dr,CA,92630
Quiznos,Tyler,604,#604,5221 S Broadway Ave,TX,75703
Quiznos,Durham,612,#612,1835 Martin Luther King Jr Parkway,NC,27707
Quiznos,Burbank,622,#622,2404 W Victory Blvd,CA,91506
Quiznos,Glendale,623,#623,1500 Canada Blvd,CA,91208
Quiznos,Hazelwood,629,#629,725 Campus Ct,MO,63042
Quiznos,Dallas,643,#643,5000 Belt Line Rd,TX,75254
Quiznos,Torrance,648,#648,1441 W Knox St,CA,90501
Quiznos,Las Vegas,660,#660,4985 W Tropicana Ave,NV,89103
Quiznos,Spring,704,#704,4730 Louetta Rd,TX,77388
Quiznos,Clayton,713,#713,11689 US Highway 70 W,NC,27520
Quiznos,Greensboro,719,#719,1629 Stanley Rd,NC,27407
Quiznos,Bothell,722,#722,1427 228th St SE,WA,98021
Quiznos,Searcy,733,#733,2620 W Beebe Capps Expy,AR,72143
Quiznos,West Des Moines,744,#744,7205 Vista Dr,IA,50266
Quiznos,Irvine,745,#745,14450 Culver Dr,CA,92604
Quiznos,Neosho,769,#769,1599 Clemon Dr,MO,64850
Quiznos,Boise,772,#772,1216 N Orchard St,ID,83706
Quiznos,League City,779,#779,3020 Marina Bay Dr,TX,77573
Quiznos,Torrance,781,#781,3556 Torrance Blvd,CA,90503
Quiznos,Wichita,791,#791,550 N Webb Rd,KS,67206
Quiznos,Scottsdale,800,#800,15050 N Northsight Blvd,AZ,85260
Quiznos,Albert Lea,821,#821,726 Marshall St,MN,56007
Quiznos,San Angelo,823,#823,59 N Koenigheim St,TX,76903
Quiznos,Richmond,825,#825,707 E Main St,VA,23219
Quiznos,Iowa City,840,#840,201 S Clinton St,IA,52240
Quiznos,Tulsa,865,#865,10031 E 71st St,OK,74133
Quiznos,Frisco,870,#870,7410 Preston Rd,TX,75034
Quiznos,Charlotte,931,#931,1640 Sardis Rd N,NC,28270
Quiznos,Charlotte,935,#935,230 E WT Harris Blvd,NC,28262
Quiznos,Moses Lake,944,#944,933 N Stratford Rd,WA,98837
Quiznos,Bellevue,953,#953,500 108th Ave NE,WA,98004
Quiznos,Glen Carbon,965,#965,4219 S State Route 159,IL,62034
Quiznos,Nashville,970,#970,315 Deaderick St,TN,37238
Quiznos,Dallas,1010,#1010,325 N Saint Paul St,TX,75201
Quiznos,Bellevue,1037,#1037,12816 SE 38th St,WA,98006
Quiznos,Plantation,1042,#1042,1828A N University Dr,FL,33322
Quiznos,Houston,1043,#1043,650 W Bough Ln,TX,77024
Quiznos,Dallas,1048,#1048,1805 Sylvan Ave,TX,75208
Quiznos,El Segundo,1055,#1055,2041 Rosecrans Ave,CA,90245
Quiznos,Las Vegas,1062,#1062,901 S Rancho Dr,NV,89106
Quiznos,Burlington,1064,#1064,1038 S Burlington Blvd,WA,98233
Quiznos,Grand Forks,1075,#1075,2650 32nd Ave S,ND,58201
Quiznos,Tremonton,1082,#1082,2410 W Main St,UT,84337
Quiznos,Ramona,1115,#1115,1664 Main St,CA,92065
Quiznos,Bismarck,1118,#1118,402 E Bowen Ave,ND,58504
Quiznos,Laredo,1121,#1121,1408 E del Mar Blvd,TX,78041
Quiznos,Cleveland,1134,#1134,1301 E 9th St,OH,44114
Quiznos,Houston,1138,#1138,19859 Katy Fwy,TX,77094
Quiznos,Tulsa,1139,#1139,15 West 5th,OK,74103
Quiznos,Raleigh,1156,#1156,1440 Garner Station Blvd,NC,27603
Quiznos,Hollywood,1168,#1168,3273 Hollywood Blvd,FL,33021
Quiznos,Mission,1182,#1182,6850 Johnson Dr,KS,66202
Quiznos,Sheridan,1184,#1184,366 N Main St,WY,82801
Quiznos,Bossier City,1185,#1185,1898 Airline Dr,LA,71112
Quiznos,Houston,1191,#1191,1200 McKinney St,TX,77010
Quiznos,Dallas,1194,#1194,720 N Harwood St,TX,75201
Quiznos,Austin,1195,#1195,1702 17th St NW,MN,55912
Quiznos,La Porte,1210,#1210,1410 W Fairmont Pkwy,TX,77571
Quiznos,Pasadena,1211,#1211,4841 Fairmont Pkwy,TX,77505
Quiznos,Baton Rouge,1212,#1212,7474 Corporate Blvd,LA,70809
Quiznos,Wixom,1231,#1231,29814 S Wixom Rd,MI,48393
Quiznos,Loma Linda,1232,#1232,25566 Barton Rd,CA,92354
Quiznos,Riverside,1281,#1281,9867 Magnolia Ave,CA,92503
Quiznos,Costa Mesa,1282,#1282,545 Anton Blvd,CA,92626
Quiznos,Irvine,1287,#1287,6624 Irvine Center Dr,CA,92618
Quiznos,Springfield,1289,#1289,864 Beltline Rd,OR,97477
Quiznos,Temecula,1307,#1307,40820 Winchester Rd,CA,92591
Quiznos,Boulder,1326,#1326,1606 Conestoga St,CO,80301
Quiznos,Gardena,1341,#1341,1747 W Artesia Blvd,CA,90248
Quiznos,Las Vegas,1344,#1344,5757 Wayne Newton BLvd D Gate Terminal 1,NV,89119
Quiznos,Houston,1349,#1349,12132 Sabo Rd,TX,77089
Quiznos,Grand Forks,1350,#1350,1020 S Washington St,ND,58201
Quiznos,Lawton,1363,#1363,604 NW Sheridan Rd,OK,73505
Quiznos,Fresno,1368,#1368,2343 Kern St,CA,93721
Quiznos,Dublin,1388,#1388,4930 Dublin Blvd,CA,94568
Quiznos,Fremont,1390,#1390,39494 Fremont Blvd,CA,94538
Quiznos,Greensboro,1406,#1406,121 N Greene St,NC,27401
Quiznos,Bolingbrook,1413,#1413,769 E Boughton Rd,IL,60440
Quiznos,Monona,1419,#1419,6508 Monona Dr Bldg A,WI,53716
Quiznos,Anchorage,1425,#1425,607 W Northern Lights Blvd,AK,99503
Quiznos,Sherman Oaks,1426,#1426,15301 Ventura Blvd,CA,91403
Quiznos,Carterville,1427,#1427,"402 E. Plaza Drive,",IL,62918
Quiznos,Fresno,1428,#1428,1189 E Champlain Dr,CA,93720
Quiznos,Merced,1430,#1430,570 W Olive Ave,CA,95348
Quiznos,Oklahoma City,1432,#1432,110 N Robinson Ave,OK,73102
Quiznos,Milpitas,1462,#1462,55 N Milpitas Blvd,CA,95035
Quiznos,Salem,1464,#1464,2315 Lancaster Dr NE,OR,97305
Quiznos,Oklahoma City,1465,#1465,1020 North Stiles,OK,73104
Quiznos,Stockton,1479,#1479,1215 W March Ln,CA,95207
Quiznos,Jackson,1482,#1482,2945 Old Canton Rd,MS,39216
Quiznos,Grand Prairie,1487,#1487,2535 N State Highway 360,TX,75050
Quiznos,Humble,1490,#1490,7072 Farm to Market 1960 E,TX,77346
Quiznos,Hagerstown,1492,#1492,55 Eastern Blvd N,MD,21740
Quiznos,Liberty Lake,1493,#1493,1235 N Liberty Lake Rd,WA,99019
Quiznos,Saint Louis,1499,#1499,91 Concord Plaza,MO,63128
Quiznos,Cincinnati,1507,#1507,8 W 4th St,OH,45202
Quiznos,Norfolk,1509,#1509,2100 Market Lane,NE,68701
Quiznos,Eagle,1522,#1522,664 S Rivershore Ln,ID,83616
Quiznos,Carrollton,1529,#1529,2150 N Josey Ln,TX,75006
Quiznos,Miami,1531,#1531,2600 NW 87th Ave,FL,33172
Quiznos,Burien,1552,#1552,15623 1st Ave S,WA,98148
Quiznos,Owatonna,1566,#1566,685 W Bridge St,MN,55060
Quiznos,Castro Valley,1609,#1609,2722 Castro Valley Blvd,CA,94546
Quiznos,Goldsboro,1612,#1612,1813 Wayne Memorial Dr,NC,27534
Quiznos,Houston,1620,#1620,4310 Westheimer Rd,TX,77027
Quiznos,Orlando,1624,#1624,8475 S John Young Pkwy,FL,32819
Quiznos,Knoxville,1630,#1630,7220 Chapman Hwy,TN,37920
Quiznos,Kent,1655,#1655,25625 104th Ave SE,WA,98030
Quiznos,Bethesda,1661,#1661,4801 Montgomery Ln,MD,20814
Quiznos,Port Orchard,1663,#1663,1888 SE Sedgwick Rd,WA,98366
Quiznos,Orangevale,1679,#1679,8904 Greenback Ln,CA,95662
Quiznos,Rosemont,1710,#1710,9779 W Higgins Rd,IL,60018
Quiznos,Rockford,1724,#1724,3225 11th St,IL,61109
Quiznos,Rapid City,1730,#1730,1808B Mount Rushmore Rd,SD,57701
Quiznos,Scottsdale,1732,#1732,4280 N Drinkwater Blvd,AZ,85251
Quiznos,Lincoln,1745,#1745,375 S State Highway 65,CA,95648
Quiznos,Durham,1756,#1756,5311E S Miami Blvd,NC,27703
Quiznos,Pasco,1757,#1757,2735 W Court St,WA,99301
Quiznos,Turlock,1764,#1764,2868 W Monte Vista Ave,CA,95380
Quiznos,Saint Louis,1779,#1779,616 Olive St,MO,63101
Quiznos,Las Vegas,1784,#1784,730 E Flamingo Rd,NV,89119
Quiznos,Los Angeles,1786,#1786,8800 S Sepulveda Blvd,CA,90045
Quiznos,Santa Monica,1795,#1795,2200 Colorado Ave,CA,90404
Quiznos,Fairborn,1799,#1799,2840 Colonel Glenn Hwy,OH,45324
Quiznos,Coeur D Alene,1815,#1815,226 W Ironwood Dr,ID,83814
Quiznos,Los Banos,1829,#1829,1380B E Pacheco Blvd,CA,93635
Quiznos,Walnut Creek,1838,#1838,2236A Oak Grove Rd,CA,94598
Quiznos,Los Angeles,1844,#1844,5453 Hollywood Blvd,CA,90027
Quiznos,San Diego,1846,#1846,9430 Scranton Rd,CA,92121
Quiznos,Fargo,1847,#1847,1100 19th Ave N,ND,58102
Quiznos,Laurel,1850,#1850,13919 Baltimore Avenue,MD,20707
Quiznos,Monroe,1861,#1861,2352 Sterlington Rd,LA,71203
Quiznos,Oxnard,1867,#1867,1641 E Channel Islands Blvd,CA,93033
Quiznos,Santa Ana,1874,#1874,31 E Macarthur Cres,CA,92707
Quiznos,Santa Rosa,1876,#1876,2064 Santa Rosa Ave,CA,95407
Quiznos,Santa Rosa,1877,#1877,385A Aviation Blvd,CA,95403
Quiznos,Rohnert Park,1878,#1878,449 Rohnert Park Expy W,CA,94928
Quiznos,Rohnert Park,1879,#1879,1710 E Cotati Ave,CA,94928
Quiznos,Santa Ana,1887,#1887,200 W Santa Ana Blvd,CA,92701
Quiznos,Traverse City,1893,#1893,1696 South Garfield Ave,MI,49696
Quiznos,Elk Grove Village,1913,#1913,932 W Busse Rd,IL,60007
Quiznos,Sunrise,1932,#1932,9370 W Commercial Blvd,FL,33351
Quiznos,Bel Air,1934,#1934,573 Baltimore Pike,MD,21014
Quiznos,Urbandale,1955,#1955,11123 Plum Dr,IA,50322
Quiznos,Roseville,1959,#1959,10305 Fairway Dr,CA,95678
Quiznos,Charlotte,1961,#1961,3607 Whitehall Park Dr,NC,28273
Quiznos,Orlando,1963,#1963,7967 S Orange Blossom Trl,FL,32809
Quiznos,Anchorage,1978,#1978,220 Muldoon Rd,AK,99504
Quiznos,Houston,1994,#1994,8502 Main St,TX,77025
Quiznos,San Jose,2003,#2003,1795 Hillsdale Ave,CA,95124
Quiznos,Houston,2027,#2027,1029 Highway 6 N,TX,77079
Quiznos,Bay Shore,2037,#2037,1675 Sunrise Hwy,NY,11706
Quiznos,Seattle,2043,#2043,300 NE Northgate Way,WA,98125
Quiznos,Sacramento,2051,#2051,1049 Broadway,CA,95818
Quiznos,Hanford,2059,#2059,828 W Lacey Blvd,CA,93230
Quiznos,Corvallis,2066,#2066,700 NE Circle Blvd,OR,97330
Quiznos,North Miami,2069,#2069,11850 Biscayne Blvd,FL,33181
Quiznos,Pasadena,2098,#2098,132 E Southmore Ave,TX,77502
Quiznos,Tulsa,2105,#2105,1419 E 15th St,OK,74120
Quiznos,Brenham,2106,#2106,2155 Highway 290 W,TX,77833
Quiznos,Billings,2108,#2108,1313 Grand Ave,MT,59102
Quiznos,Kapolei,2111,#2111,590 Farrington Hwy,HI,96707
Quiznos,Jacksonville,2119,#2119,224 N Hogan St,FL,32202
Quiznos,Norridge,2124,#2124,7050 W Forest Preserve Dr,IL,60706
Quiznos,Culver City,2136,#2136,6257 Bristol Pkwy,CA,90230
Quiznos,Oxford,2150,#2150,1783 Hamric Dr E,AL,36203
Quiznos,Stafford,2152,#2152,11339 Fountain Lake Dr,TX,77477
Quiznos,Visalia,2159,#2159,200 E Acequia Ave,CA,93291
Quiznos,New Iberia,2172,#2172,616 S Lewis St,LA,70560
Quiznos,Highland,2179,#2179,12547 State Route 143,IL,62249
Quiznos,Bothell,2209,#2209,18404 120th Ave NE,WA,98011
Quiznos,Baltimore,2210,#2210,10 N Calvert St,MD,21202
Quiznos,Raleigh,2217,#2217,3201 Edwards Mill Rd,NC,27612
Quiznos,Des Plaines,2228,#2228,574 E Oakton St,IL,60018
Quiznos,Las Vegas,2229,#2229,3735 Spring Mountain Rd,NV,89102
Quiznos,Surprise,2246,#2246,14557 W Grand Ave,AZ,85374
Quiznos,Centralia,2249,#2249,400 S Poplar St,IL,62801
Quiznos,El Cajon,2264,#2264,124 W Main St,CA,92020
Quiznos,Wayne,2267,#2267,39345 Michigan Ave,MI,48184
Quiznos,Sherwood,2269,#2269,20661 SW Roy Rogers Rd,OR,97140
Quiznos,Plano,2283,#2283,2300 14th St,TX,75074
Quiznos,Lebec,2284,#2284,201 Frazier Mountain Park Rd,CA,93243
Quiznos,Sylmar,2286,#2286,12980 Foothill Blvd,CA,91342
Quiznos,Marina del Rey,2288,#2288,4317 Glencoe Ave,CA,90292
Quiznos,Saint Paul,2304,#2304,2339 Fairview Ave N,MN,55113
Quiznos,Albuquerque,2320,#2320,4500 Osuna Rd NE,NM,87109
Quiznos,Springfield,2360,#2360,6430 Brandon Ave,VA,22150
Quiznos,Round Rock,2362,#2362,603 Louis Henna Blvd,TX,78664
Quiznos,Arlington,2381,#2381,1735 North Lynn St,VA,22209
Quiznos,Odenton,2382,#2382,2288 Blue Water Blvd,MD,21113
Quiznos,Brea,2388,#2388,105 W Lambert Rd,CA,92821
Quiznos,Mundelein,2392,#2392,1156 W Maple Ave,IL,60060
Quiznos,Bellingham,2418,#2418,2925 New Market Street,WA,98226
Quiznos,Jacksonville,2423,#2423,9802 Baymeadows Rd,FL,32256
Quiznos,Rancho Dominguez,2433,#2433,901 W Victoria St,CA,90220
Quiznos,Los Angeles,2434,#2434,134 S Central Ave,CA,90012
Quiznos,Vancouver,2440,#2440,1217 Northeast 99th Street,WA,98665
Quiznos,Enid,2444,#2444,3518 West Owen K Garriott Road,OK,73703
Quiznos,Dubuque,2457,#2457,3430 Dodge St,IA,52003
Quiznos,Rogers,2464,#2464,4505 W Walnut St,AR,72756
Quiznos,Plainfield,2469,#2469,5971 Cambridge Way,IN,46168
Quiznos,Flagstaff,2515,#2515,2080 S Milton Rd,AZ,86001
Quiznos,Little Rock,2520,#2520,401 S Spring St,AR,72201
Quiznos,Alexandria,2528,#2528,4608 Kenmore Ave,VA,22304
Quiznos,Sterling Heights,2533,#2533,33233 Mound Rd,MI,48310
Quiznos,Fairbanks,2538,#2538,607 Old,AK,99701
Quiznos,Fayetteville,2555,#2555,1800 Skibo Rd,NC,28303
Quiznos,Richmond,2557,#2557,1511 N Parham Rd,VA,23229
Quiznos,Miami,2568,#2568,2490 SW 17th Ave,FL,33145
Quiznos,Woodland,2586,#2586,2000 E Main St,CA,95776
Quiznos,Los Angeles,2593,#2593,2516 S Figueroa St,CA,90007
Quiznos,Reno,2615,#2615,75 Damonte Ranch Pkwy,NV,89521
Quiznos,Reno,2616,#2616,6775 Sierra Center Pkwy,NV,89511
Quiznos,Anaheim,2625,#2625,720 N Brookhurst St,CA,92801
Quiznos,Los Angeles,2631,#2631,645 W 9th St,CA,90015
Quiznos,Los Angeles,2634,#2634,7117 W Sunset Blvd,CA,90046
Quiznos,Cape Girardeau,2642,#2642,2148 William St,MO,63703
Quiznos,Oxon Hill,2646,#2646,6215 Oxon Hill Rd,MD,20745
Quiznos,Los Alamos,2656,#2656,172 Central Park Sq,NM,87544
Quiznos,Minneapolis,2663,#2663,7610 University Ave NE,MN,55432
Quiznos,Cary,2664,#2664,2028 Kildaire Farm Rd,NC,27511
Quiznos,Anchorage,2665,#2665,9220 Lake Otis Pkwy,AK,99507
Quiznos,Chico,2675,#2675,2471 Cohasset Rd,CA,95926
Quiznos,Houston,2684,#2684,2002 Yale St,TX,77008
Quiznos,Windsor,2687,#2687,6580 Hembree Lane,CA,95492
Quiznos,Atlanta,2689,#2689,138 Peachtree St NW,GA,30303
Quiznos,Atlanta,2704,#2704,60 Upper Alabama St SW,GA,30303
Quiznos,Germantown,2722,#2722,2059 Houston Levee Rd,TN,38139
Quiznos,Bethesda,2723,#2723,4817 Saint Elmo Ave,MD,20814
Quiznos,Scottsdale,2733,#2733,9301 E Shea Blvd,AZ,85260
Quiznos,Los Angeles,2760,#2760,6767 W Sunset Blvd,CA,90028
Quiznos,Monroe,2765,#2765,1621 N 18th St,LA,71201
Quiznos,Memphis,2771,#2771,2465 Whitten Rd,TN,38133
Quiznos,Kailua,2800,#2800,108 Hekili St,HI,96734
Quiznos,Saint Paul,2805,#2805,5999 Rice Creek Pkwy,MN,55126
Quiznos,Monticello,2821,#2821,525 State Highway 25,MN,55362
Quiznos,Towson,2832,#2832,1006 Taylor Avenue,MD,21286
Quiznos,Englewood,2836,#2836,800 Englewood Pkwy,CO,80110
Quiznos,San Clemente,2839,#2839,1001 Avenida Pico,CA,92673
Quiznos,Houston,2842,#2842,2674 South Gessner Road,TX,77042
Quiznos,San Jose,2859,#2859,37 Rio Robles E,CA,95134
Quiznos,Roanoke,2873,#2873,3260 Electric Rd,VA,24018
Quiznos,Lititz,2883,#2883,1000 Lititz Pike,PA,17543
Quiznos,Lomita,2887,#2887,2169A Pacific Coast Hwy,CA,90717
Quiznos,Los Angeles,2898,#2898,3634 S Soto St,CA,90058
Quiznos,Napa,2912,#2912,1800 Soscol Ave,CA,94559
Quiznos,Glendale,2915,#2915,9230 W Northern Ave,AZ,85305
Quiznos,San Pablo,2926,#2926,15501 San Pablo Ave,CA,94806
Quiznos,Countryside,2940,#2940,6520 Joliet Rd,IL,60525
Quiznos,Van Nuys,2947,#2947,13714 1/2 Sherman Way,CA,91405
Quiznos,Pikesville,2954,#2954,1430 Reisterstown Rd,MD,21208
Quiznos,Valparaiso,2959,#2959,2620 Laporte Ave,IN,46383
Quiznos,Lewisville,2965,#2965,360 East Farm to Market 3040,TX,75057
Quiznos,Mandeville,2967,#2967,2963 Highway 190,LA,70471
Quiznos,Rockville,2977,#2977,1611 E Gude Dr,MD,20850
Quiznos,Goleta,2985,#2985,7127 Hollister Avenue,CA,93117
Quiznos,Wilmington,2990,#2990,2301 S 17th St,NC,28401
Quiznos,Arvada,3020,#3020,8770 Wadsworth Blvd,CO,80003
Quiznos,Lakewood,3021,#3021,12792 W Alameda Pkwy,CO,80228
Quiznos,Camarillo,3023,#3023,5021 Verdugo Way,CA,93012
Quiznos,Gaithersburg,3026,#3026,18568 Woodfield Rd,MD,20879
Quiznos,The Colony,3028,#3028,4679 State Highway 121,TX,75056
Quiznos,Minneapolis,3031,#3031,4406 Nathan Ln N,MN,55442
Quiznos,Center Line,3047,#3047,25009 Van Dyke Ave,MI,48015
Quiznos,The Woodlands,3054,#3054,1440A Lake Woodlands Dr,TX,77380
Quiznos,Bergenfield,3063,#3063,111 N Washington Ave,NJ,7621
Quiznos,Atlanta,3068,#3068,710 Peachtree St NE,GA,30308
Quiznos,Falls Church,3087,#3087,2837 Gallows Rd,VA,22042
Quiznos,Woodbridge,3095,#3095,2700 Potomac Mills Cir,VA,22192
Quiznos,Los Angeles,3099,#3099,11086 Santa Monica Blvd,CA,90025
Quiznos,Bremerton,3122,#3122,7058 State Highway 303 NE,WA,98311
Quiznos,Grandville,3169,#3169,4485 Canal Ave SW,MI,49418
Quiznos,Independence,3173,#3173,4201A S Noland Rd,MO,64055
Quiznos,Waukegan,3189,#3189,748 N Green Bay Rd,IL,60085
Quiznos,Secaucus,3190,#3190,290 County Ave,NJ,7094
Quiznos,Norcross,3199,#3199,5260 Peachtree Industrial Blvd,GA,30071
Quiznos,Princeton,3224,#3224,301 N Harrison St,NJ,8540
Quiznos,Fredericksburg,3226,#3226,1131 Jefferson Davis Hwy,VA,22401
Quiznos,Linden,3227,#3227,683 W Edgar Rd,NJ,7036
Quiznos,Hayward,3253,#3253,22312 Foothill Blvd,CA,94541
Quiznos,Tucson,3255,#3255,2680 E Valencia Rd,AZ,85706
Quiznos,Waldorf,3259,#3259,3062 Waldorf Market Pl,MD,20603
Quiznos,Annandale,3272,#3272,7042 Columbia Pike,VA,22003
Quiznos,Lacey,3280,#3280,1401 Marvin Rd NE,WA,98516
Quiznos,New York,3285,#3285,16 E 23rd St,NY,10010
Quiznos,Lynnwood,3287,#3287,1330 164th St SW,WA,98087
Quiznos,Falls Church,3297,#3297,3556B S Jefferson St,VA,22041
Quiznos,Boulder,3309,#3309,3040 28th St,CO,80301
Quiznos,San Jose,3311,#3311,5385 Prospect Rd,CA,95129
Quiznos,Washington,3321,#3321,400 C St SW,DC,20024
Quiznos,Washington,3322,#3322,1710 G St NW,DC,20006
Quiznos,Silver Spring,3337,#3337,2800 University Blvd W,MD,20902
Quiznos,Falls Church,3339,#3339,1067 W Broad St,VA,22046
Quiznos,Seattle,3372,#3372,821 1st Ave,WA,98104
Quiznos,Carson,3375,#3375,20810 Avalon Blvd,CA,90746
Quiznos,Wilson,3384,#3384,2861 Raleigh Rd W,NC,27896
Quiznos,Livonia,3395,#3395,37621 5 Mile Rd,MI,48154
Quiznos,Jackson,3406,#3406,1081 Vann Dr,TN,38305
Quiznos,Monterey,3411,#3411,461 Canyon del Rey Blvd,CA,93940
Quiznos,La Palma,3432,#3432,30 Centerpointe Dr,CA,90623
Quiznos,Sunnyvale,3438,#3438,251 S Mary Ave,CA,94086
Quiznos,Fairfax,3452,#3452,11725 Lee Hwy,VA,22030
Quiznos,Germantown,3474,#3474,W182N9606 Appleton Ave,WI,53022
Quiznos,Washington,3475,#3475,750 I St NW,DC,20001
Quiznos,Tulsa,3504,#3504,3944 S Garnett Rd,OK,74146
Quiznos,Granada Hills,3506,#3506,16931 Devonshire St,CA,91344
Quiznos,Sun Valley,3507,#3507,8953 Sunland Blvd,CA,91352
Quiznos,Appleton,3512,#3512,3825 E Calumet St,WI,54915
Quiznos,Miami,3535,#3535,7300 SW 117th Ave,FL,33183
Quiznos,New York,3536,#3536,304 W 34th St,NY,10001
Quiznos,Atlanta,3537,#3537,3210 Northlake Pkwy NE,GA,30345
Quiznos,Woodstock,3541,#3541,667 S Eastwood Dr,IL,60098
Quiznos,Tucson,3544,#3544,250 S Craycroft Rd,AZ,85711
Quiznos,Gainesville,3557,#3557,417 Main St SW,GA,30501
Quiznos,Franklin,3564,#3564,1874 Northwood Plz,IN,46131
Quiznos,Indianapolis,3566,#3566,5645 N Post Rd,IN,46216
Quiznos,Kaneohe,3574,#3574,45-934 Kamehameha Hwy,HI,96744
Quiznos,Poughkeepsie,3577,#3577,3434 North Rd,NY,12601
Quiznos,North Hills,3589,#3589,8625 Woodley Ave,CA,91343
Quiznos,Mesa,3607,#3607,5110 E Southern Ave,AZ,85206
Quiznos,Houston,3611,#3611,13714 Northwest Fwy,TX,77040
Quiznos,Jamestown,3621,#3621,721 1st Ave S,ND,58401
Quiznos,Mitchell,3623,#3623,2100 Highland Way,SD,57301
Quiznos,Lake Ridge,3626,#3626,12528 Dillingham Sq,VA,22192
Quiznos,Bowie,3634,#3634,10201 Martin Luther King Jr Hwy,MD,20720
Quiznos,San Bernardino,3637,#3637,5244 University Pkwy,CA,92407
Quiznos,Temecula,3640,#3640,32389 US Highway 79 S,CA,92592
Quiznos,Baldwin Park,3658,#3658,15660 Arrow Hwy,CA,91706
Quiznos,Northridge,3660,#3660,8850 Tampa Ave,CA,91324
Quiznos,Rochester,3669,#3669,101 1st Ave SW,MN,55902
Quiznos,Hialeah,3672,#3672,16733 NW 67th Ave,FL,33015
Quiznos,Sellersburg,3685,#3685,220 S Indiana Ave,IN,47172
Quiznos,Margate,3688,#3688,5501 W Atlantic Blvd,FL,33063
Quiznos,West Des Moines,3696,#3696,4800 Mills Civic Pkwy,IA,50265
Quiznos,Vancouver,3697,#3697,7620 NE 119th Pl,WA,98682
Quiznos,Huntsville,3709,#3709,5107 Moores Mill Rd,AL,35811
Quiznos,South Setauket,3723,#3723,270 Pond Path,NY,11720
Quiznos,Greenfield,3726,#3726,2045 N State St,IN,46140
Quiznos,Streetsboro,3731,#3731,9517 State Route 14,OH,44241
Quiznos,Russellville,3741,#3741,407 N Arkansas Ave,AR,72801
Quiznos,Downey,3757,#3757,12018 Lakewood Blvd,CA,90242
Quiznos,Hercules,3770,#3770,844 Willow Ave,CA,94547
Quiznos,New Albany,3813,#3813,4212 Charlestown Rd,IN,47150
Quiznos,San Francisco,3860,#3860,901 Polk St,CA,94109
Quiznos,Westland,3927,#3927,31501 Cherry Hill Rd,MI,48186
Quiznos,Kansas City,3933,#3933,1601 Village West Pkwy,KS,66111
Quiznos,Aberdeen,3963,#3963,327 W Wishkah St,WA,98520
Quiznos,Omaha,3967,#3967,10926 Q St,NE,68137
Quiznos,Dupont,3972,#3972,1520 Wilmington Dr,WA,98327
Quiznos,Indianapolis,3985,#3985,6335 Intech Commons Dr,IN,46278
Quiznos,Newark,3990,#3990,35111 Newark Blvd,CA,94560
Quiznos,Lakeville,3996,#3996,18440 Kenrick Ave,MN,55044
Quiznos,Searcy,3999,#3999,3401 E Race Ave,AR,72143
Quiznos,Hermiston,4008,#4008,1565 N 1st St,OR,97838
Quiznos,Yelm,4015,#4015,1202 E Yelm Ave,WA,98597
Quiznos,Chicago,4016,#4016,164 W Division St,IL,60610
Quiznos,West Hills,4021,#4021,8389 Topanga Canyon Boulevard,CA,91304
Quiznos,Colby,4027,#4027,700 Horton Ave,KS,67701
Quiznos,Vancouver,4037,#4037,910 NE Tenney Rd,WA,98685
Quiznos,Rainbow City,4038,#4038,3331 Rainbow Dr,AL,35906
Quiznos,Laguna Niguel,4044,#4044,32371 Golden Lantern,CA,92677
Quiznos,McKinney,4057,#4057,4550 Eldorado Pkwy,TX,75070
Quiznos,Dyersville,4063,#4063,1426 9th St SE,IA,52040
Quiznos,West Des Moines,4067,#4067,2800 University Ave,IA,50266
Quiznos,Los Angeles,4099,#4099,11909 W Olympic Blvd,CA,90064
Quiznos,Herndon,4119,#4119,617 Post St,VA,20170
Quiznos,Pendleton,4121,#4121,204 SW 20th St,OR,97801
Quiznos,Clive,4132,#4132,15700 Hickman Rd,IA,50325
Quiznos,Lumberton,4140,#4140,693 S Main St,TX,77657
Quiznos,Goodlettsville,4148,#4148,919 Conference Dr,TN,37072
Quiznos,Denver,4159,#4159,6366 E Evans Ave,CO,80222
Quiznos,Commerce Township,4200,#4200,3059 Union Lake Rd,MI,48382
Quiznos,Menlo Park,4221,#4221,604 Santa Cruz Ave,CA,94025
Quiznos,West Hempstead,4232,#4232,468 Hempstead Tpke,NY,11552
Quiznos,Raleigh,4242,#4242,4531 New Bern Avenue,NC,27610
Quiznos,Mililani,4254,#4254,95-026 Kamehameha Hwy,HI,96789
Quiznos,Spotsylvania,4257,#4257,10412 Courthouse Rd,VA,22553
Quiznos,Atlanta,4272,#4272,5440 Peachtree Industrial Blvd,GA,30341
Quiznos,Monroeville,4280,#4280,4085 William Penn Hwy,PA,15146
Quiznos,El Dorado,4281,#4281,1805 N West Ave,AR,71730
Quiznos,Freeport,4285,#4285,51 E Merrick Rd,NY,11520
Quiznos,Tucson,4297,#4297,10785 N Oracle Rd,AZ,85737
Quiznos,Duluth,4367,#4367,3095 Peachtree Industrial Blvd,GA,30097
Quiznos,Longview,4370,#4370,100 Triangle Ctr,WA,98632
Quiznos,Oregon City,4371,#4371,19709 Highway 213,OR,97045
Quiznos,Centralia,4372,#4372,136 W High St,WA,98531
Quiznos,Duvall,4376,#4376,14110 Main St NE,WA,98019
Quiznos,North Hollywood,4409,#4409,12643 Sherman Way,CA,91605
Quiznos,Denver,4425,#4425,270 W 14th Ave,CO,80204
Quiznos,Denver,4426,#4426,216 16th St,CO,80202
Quiznos,West Islip,4448,#4448,187 Sunrise Highway,NY,11795
Quiznos,Santa Rosa,4458,#4458,212 Coddingtown Ctr,CA,95401
Quiznos,Bohemia,4459,#4459,4611 Sunrise Hwy,NY,11716
Quiznos,Bloomfield,4465,#4465,588A Bloomfield Ave,NJ,7003
Quiznos,Webster,4469,#4469,26363 Lakeland Ave S,WI,54893
Quiznos,Brentwood,4491,#4491,8610 Brentwood Blvd,CA,94513
Quiznos,Orange,4494,#4494,263 Boston Post Rd,CT,6477
Quiznos,Moscow,4497,#4497,1902 S Pullman Dr,ID,83843
Quiznos,San Dimas,4511,#4511,1034 West Arrow Highway,CA,91773
Quiznos,Walnut Creek,4515,#4515,2914 N Main St,CA,94597
Quiznos,Tulsa,4533,#4533,7125 S Yale Ave,OK,74136
Quiznos,Roswell,4542,#4542,1540 Old Alabama Rd,GA,30076
Quiznos,Atlanta,4562,#4562,29 Marietta St NW,GA,30303
Quiznos,Toledo,4574,#4574,5350 Airport Hwy,OH,43615
Quiznos,Southborough,4575,#4575,154 Turnpike Rd,MA,1772
Quiznos,Los Angeles,4584,#4584,3738 S Figueroa St,CA,90007
Quiznos,Rock Springs,4590,#4590,101 Gateway Blvd,WY,82901
Quiznos,Lenexa,4600,#4600,12838 W 87th St Pkwy,KS,66215
Quiznos,Kansas City,4601,#4601,6131 NW 63rd Ter,MO,64151
Quiznos,Rosedale,4627,#4627,8639 Philadelphia Rd,MD,21237
Quiznos,Lenoir City,4632,#4632,835 Highway 321 N,TN,37771
Quiznos,Morgan Hill,4649,#4649,1049 Cochrane Road,CA,95037
Quiznos,Honolulu,4663,#4663,801 Dillingham Blvd,HI,96817
Quiznos,Southfield,4677,#4677,28300 Telegraph Rd,MI,48034
Quiznos,Stuttgart,4716,#4716,408 E 22nd St,AR,72160
Quiznos,Desoto,4723,#4723,102 E Belt Line Rd,TX,75115
Quiznos,Cleveland,4748,#4748,2151 Keith St NW,TN,37311
Quiznos,Muscatine,4750,#4750,415 Cleveland St,IA,52761
Quiznos,Mount Vernon,4803,#4803,855 Coshocton Ave Frnt,OH,43050
Quiznos,Silver Spring,4812,#4812,13868 Georgia Ave,MD,20906
Quiznos,La Mirada,4816,#4816,12740 La Mirada Blvd,CA,90638
Quiznos,Phoenix,4834,#4834,1420 E Chandler Blvd,AZ,85048
Quiznos,Bayside,4841,#4841,215-10 Northern Blvd,NY,11361
Quiznos,Harahan,4892,#4892,1130 S Clearview Pkwy,LA,70123
Quiznos,Laguna Hills,4903,#4903,23052 Lake Forest Dr,CA,92653
Quiznos,Harlingen,4916,#4916,1338 N ED Carey Dr,TX,78550
Quiznos,Belleville,4921,#4921,10954 Belleville Road,MI,48111
Quiznos,Beachwood,4947,#4947,24175 Chagrin Blvd,OH,44122
Quiznos,San Antonio,4960,#4960,6408 Callaghan Rd,TX,78229
Quiznos,Royse City,4966,#4966,117 Interstate 30 West,TX,75189
Quiznos,Rochester Hills,5011,#5011,2933 Crooks Rd,MI,48309
Quiznos,Butte,5016,#5016,2119 Amherst Ave,MT,59701
Quiznos,Eugene,5037,#5037,4355 Commerce St,OR,97402
Quiznos,Central Point,5039,#5039,1710 E Pine St,OR,97502
Quiznos,Hobbs,5071,#5071,1323 W Joe Harvey Blvd,NM,88240
Quiznos,Newark,5092,#5092,1253 New Churchmans Rd,DE,19713
Quiznos,Ukiah,5093,#5093,113 S State St,CA,95482
Quiznos,Akron,5108,#5108,76 S Main St,OH,44308
Quiznos,Duluth,5124,#5124,2702 W Michigan St,MN,55806
Quiznos,Keizer,5138,#5138,5133 River Rd N,OR,97303
Quiznos,Conway,5161,#5161,2850 Prince St,AR,72034
Quiznos,Aurora,5181,#5181,18880 E Hampden Ave,CO,80013
Quiznos,Yucca Valley,5210,#5210,57750 29 Palms Hwy,CA,92284
Quiznos,Reno,5221,#5221,2905 Northtowne Ln,NV,89512
Quiznos,Boulder,5244,#5244,5365 Spine Rd,CO,80301
Quiznos,Charlotte,5250,#5250,9020 Albemarle Rd,NC,28227
Quiznos,Snohomish,5266,#5266,1101 Avenue D,WA,98290
Quiznos,Lorain,5278,#5278,1980 Cooper Foster Park Rd W,OH,44053
Quiznos,Baltimore,5287,#5287,1100 Light St,MD,21230
Quiznos,Helena,5311,#5311,519 N Sanders St,MT,59601
Quiznos,Uniontown,5316,#5316,3651 Massillon Rd,OH,44685
Quiznos,Louisville,5333,#5333,3173 S 2nd St,KY,40208
Quiznos,Huntsville,5336,#5336,900 Bob Wallace Ave SW,AL,35801
Quiznos,Portland,5339,#5339,202 SW 4th Ave,OR,97204
Quiznos,Charlottesville,5354,#5354,1956 Abbey Rd,VA,22911
Quiznos,Frisco,5362,#5362,3245 W Main St,TX,75034
Quiznos,Catonsville,5383,#5383,5860 Baltimore National Pike,MD,21228
Quiznos,Atlanta,5384,#5384,3051 Akers Mill Rd SE,GA,30339
Quiznos,Corpus Christi,5396,#5396,6829 S Padre Island Dr,TX,78412
Quiznos,Portage,5402,#5402,5626 Portage Rd,MI,49002
Quiznos,Florence,5433,#5433,1914 W Lucas St,SC,29501
Quiznos,Windsor,5437,#5437,1550 Main St,CO,80550
Quiznos,Sioux City,5451,#5451,3401 Singing Hills Blvd,IA,51106
Quiznos,Sartell,5459,#5459,1733 Pine Cone Rd S,MN,56377
Quiznos,Minneapolis,5461,#5461,1851 Washington Ave S,MN,55454
Quiznos,Austin,5463,#5463,3926 Ed Bluestein Blvd,TX,78721
Quiznos,Martinez,5477,#5477,550 Morello Ave,CA,94553
Quiznos,Clinton,5486,#5486,59 Wal-Mart Plz,NJ,8809
Quiznos,Conneaut,5514,#5514,500 Broad St,OH,44030
Quiznos,Arvada,5526,#5526,14715 W 64th Ave,CO,80004
Quiznos,Visalia,5530,#5530,5103 W Goshen Ave,CA,93291
Quiznos,Phoenix,5538,#5538,4001 E Broadway Rd,AZ,85040
Quiznos,Sarasota,5557,#5557,5336 Clark Rd,FL,34233
Quiznos,Las Vegas,5575,#5575,6420 S Pecos Rd,NV,89120
Quiznos,Oak Creek,5602,#5602,8880 S Howell Ave,WI,53154
Quiznos,Hollywood,5608,#5608,1528 N Vermont Ave,CA,90027
Quiznos,Orange,5621,#5621,3743 W Chapman Ave,CA,92868
Quiznos,Indianapolis,5623,#5623,7305 E 96th St,IN,46250
Quiznos,Saginaw,5656,#5656,5580 State St,MI,48603
Quiznos,Williston,5671,#5671,166 Sycamore St,VT,5495
Quiznos,Hartselle,5708,#5708,587 Highway 31 NW,AL,35640
Quiznos,Dearborn Heights,5731,#5731,8471 N Telegraph Rd,MI,48127
Quiznos,South Burlington,5732,#5732,1208 Williston Rd,VT,5403
Quiznos,Cambridge,5767,#5767,600 Technology Sq,MA,2139
Quiznos,Philadelphia,5775,#5775,7717 Crittenden St,PA,19118
Quiznos,Bowie,5796,#5796,15477 Excelsior Dr,MD,20716
Quiznos,Bakersfield,5800,#5800,2625 Mount Vernon Ave,CA,93306
Quiznos,Kuttawa,5839,#5839,2299 US Highway 62 W,KY,42055
Quiznos,Mansfield,5846,#5846,111 W Debbie Ln,TX,76063
Quiznos,Oconomowoc,5874,#5874,1400C Summit Avenue,WI,53066
Quiznos,Indianapolis,5890,#5890,805 W 10th St,IN,46202
Quiznos,Ceres,5905,#5905,1240 E Whitmore Ave,CA,95307
Quiznos,Kansas City,5912,#5912,1020 Broadway Blvd.,MO,64105
Quiznos,Herndon,5913,#5913,3063 Centreville Rd,VA,20171
Quiznos,Baltimore,5916,#5916,1465 Key Hwy,MD,21230
Quiznos,Van Nuys,5949,#5949,6262 Van Nuys Blvd,CA,91401
Quiznos,Edwardsville,5982,#5982,1053 Century Dr,IL,62025
Quiznos,Parma,5991,#5991,7468 Broadview Road,OH,44134
Quiznos,Basking Ridge,5998,#5998,403 King George Rd,NJ,7920
Quiznos,Spokane,6014,#6014,1521 North Pines Road,WA,99206
Quiznos,Hinesville,6048,#6048,552 W Oglethorpe Hwy,GA,31313
Quiznos,Oakdale,6066,#6066,1053 Helmo Avenue,MN,55128
Quiznos,Los Angeles,6068,#6068,201 N Los Angeles St,CA,90012
Quiznos,Southport,6078,#6078,5130 Southport Supply Road SE,NC,28461
Quiznos,Brooklyn,6090,#6090,37 Hillel Pl,NY,11210
Quiznos,New Carrollton,6102,#6102,8310E Annapolis Road,MD,20784
Quiznos,Oakland,6116,#6116,8450C Edgewater Drive,CA,94621
Quiznos,Nampa,6124,#6124,1240 Caldwell Blvd,ID,83651
Quiznos,Marrero,6170,#6170,1855 Barataria Blvd,LA,70072
Quiznos,Arlington,6179,#6179,1555 Wilson Blvd Lbby 1,VA,22209
Quiznos,Elkridge,6198,#6198,6500 Washington Blvd,MD,21075
Quiznos,Wallingford,6204,#6204,600 N Colony Rd,CT,6492
Quiznos,Hueytown,6218,#6218,142 River Square Plz,AL,35023
Quiznos,Scotts Valley,6257,#6257,6006 La Madrona Dr,CA,95060
Quiznos,Washington,6264,#6264,1331 Pennsylvania Ave NW,DC,20004
Quiznos,Riviera Beach,6266,#6266,1850 W Blue Heron Blvd,FL,33404
Quiznos,Lafayette,6267,#6267,600 McKinley St Rm 189,LA,70503
Quiznos,Draper,6273,#6273,13551 S 200 W,UT,84020
Quiznos,Kansas City,6319,#6319,2384 Armour Rd,MO,64116
Quiznos,Huntington Beach,6335,#6335,16475 Bolsa Chica St,CA,92649
Quiznos,O Fallon,6349,#6349,8636 Mexico Rd,MO,63366
Quiznos,Tehachapi,6371,#6371,1001 W Tehachapi Blvd,CA,93561
Quiznos,Long Island City,6391,#6391,2310 Jackson Ave,NY,11101
Quiznos,Hagerstown,6394,#6394,18728 North Village,MD,21742
Quiznos,Clovis,6417,#6417,3170 Fowler Ave,CA,93611
Quiznos,Austin,6420,#6420,11301 Lakeline Blvd,TX,78717
Quiznos,Bangor,6427,#6427,659 Hogan Rd,ME,4401
Quiznos,Orange,6434,#6434,176 Strickland Dr,TX,77630
Quiznos,Cypress,6437,#6437,5950 Corporate Ave,CA,90630
Quiznos,Clinton,6447,#6447,101 Johnston Pl,MS,39056
Quiznos,Gettysburg,6461,#6461,1863 Gettysburg Village Dr,PA,17325
Quiznos,Chandler,6481,#6481,2055 W Frye Rd,AZ,85224
Quiznos,Virginia Beach,6488,#6488,1309 Fordham Drive,VA,23464
Quiznos,Hastings,6500,#6500,320 South Burlington Avenue,NE,68901
Quiznos,Hickory,6544,#6544,2101 Catawba Valley Blvd SE,NC,28602
Quiznos,Richardson,6548,#6548,1545 E Belt Line Rd,TX,75081
Quiznos,Opelousas,6549,#6549,1233 Heather Dr,LA,70570
Quiznos,Silver Spring,6559,#6559,10171 New Hampshire Ave,MD,20903
Quiznos,Siloam Springs,6575,#6575,3121 Highway 412 E,AR,72761
Quiznos,Ann Arbor,6579,#6579,3584 Plymouth Rd,MI,48105
Quiznos,Westborough,6589,#6589,290 Turnpike Rd,MA,1581
Quiznos,Brandon,6599,#6599,1040 Spillway Cir,MS,39047
Quiznos,Weatherford,6608,#6608,701 E Main St,OK,73096
Quiznos,Metropolis,6620,#6620,2105 E 5th St,IL,62960
Quiznos,Baton Rouge,6674,#6674,3930 Burbank Drive,LA,70808
Quiznos,Hartford,6677,#6677,100 Trumbull St,CT,6103
Quiznos,Washington,6679,#6679,1300 Pennsylvania Avenue Northwest Concourse 82A,DC,20004
Quiznos,Redding,6684,#6684,2475 Eureka Way,CA,96001
Quiznos,Mechanicsville,6689,#6689,6102 Brashier Blvd,VA,23111
Quiznos,Austin,6691,#6691,8201 Cross Park Dr,TX,78754
Quiznos,Norman,6703,#6703,156 12th Ave SE,OK,73071
Quiznos,Anchorage,6723,#6723,3421 E Tudor Rd,AK,99507
Quiznos,San Antonio,6731,#6731,12822 W Interstate Highway 10,TX,78249
Quiznos,Fresno,6739,#6739,1595 N Peach Ave,CA,93727
Quiznos,Thornton,6751,#6751,8426 Pearl St,CO,80229
Quiznos,West Monroe,6774,#6774,4624 Cypress St,LA,71291
Quiznos,Saint John,6782,#6782,9270 Wicker Ave,IN,46373
Quiznos,Mission,6788,#6788,808 S Shary Rd,TX,78572
Quiznos,Appleton,6800,#6800,4764 Integrity Way,WI,54913
Quiznos,Athens,6832,#6832,42 S Court St,OH,45701
Quiznos,Warrensville Heights,6870,#6870,4640 Richmond Rd,OH,44128
Quiznos,Bradenton,6910,#6910,9118 Town Center Pkwy,FL,34202
Quiznos,Las Cruces,6917,#6917,2240 E Lohman Ave,NM,88001
Quiznos,North Highlands,6925,#6925,4845 Watt Ave,CA,95660
Quiznos,University Center,6927,#6927,7400 Bay Rd,MI,48710
Quiznos,Austin,6935,#6935,4220 W William Cannon Dr,TX,78749
Quiznos,Belmont,7008,#7008,66440 Belmont Morristown Rd,OH,43718
Quiznos,Madison,7029,#7029,1591 Hughes Rd,AL,35758
Quiznos,Ellensburg,7035,#7035,409 South Main Street,WA,98926
Quiznos,Fife,7051,#7051,4756 Pacific Hwy E #130,WA,98424
Quiznos,Liverpool,7054,#7054,7425 Oswego Road,NY,13090
Quiznos,Sacramento,7063,#7063,6306 Garfield Ave,CA,95841
Quiznos,Lemoore,7084,#7084,855 N Lemoore Avenue,CA,93245
Quiznos,Emporia,7092,#7092,932 W Atlantic St,VA,23847
Quiznos,Gladstone,7114,#7114,5753 NE Antioch Rd,MO,64119
Quiznos,Jackson Hole,7124,#7124,1325 S Highway 89,WY,83001
Quiznos,Flint,7138,#7138,3818 E Court St,MI,48506
Quiznos,Springfield,7179,#7179,2701 W Lawrence Ave,IL,62704
Quiznos,Brook Park,7181,#7181,5857 Smith Rd,OH,44142
Quiznos,Tukwila,7186,#7186,13038 Interurban Ave S,WA,98168
Quiznos,Louisville,7189,#7189,11803 Shelbyville Rd,KY,40243
Quiznos,Yorba Linda,7231,#7231,21540 Yorba Linda Blvd,CA,92887
Quiznos,New York,7263,#7263,5-11 University Pl Weinstein Hall,NY,10003
Quiznos,Las Vegas,7313,#7313,365 Lewis Ave,NV,89101
Quiznos,Marlborough,7345,#7345,423 Lakeside Ave,MA,1752
Quiznos,Hayward,7354,#7354,26007 Eden Landing Rd,CA,94545
Quiznos,Sugar Mountain,7358,#7358,4004 NC Highway 105 South,NC,28604
Quiznos,Powell,7360,#7360,3450 Oconnell St,OH,43065
Quiznos,Hawthorne,7371,#7371,2909 W 120th St,CA,90250
Quiznos,West Branch,7395,#7395,401 Parkside Dr,IA,52358
Quiznos,Crystal River,7398,#7398,7911 W Gulf to Lake Highway,FL,34429
Quiznos,Seattle,7416,#7416,412 NE 70th St,WA,98115
Quiznos,Reno,7425,#7425,219 N Center St,NV,89501
Quiznos,Bakersfield,7438,#7438,5210 Olive Dr,CA,93308
Quiznos,Noblesville,7440,#7440,14300 Mundy Dr,IN,46060
Quiznos,Commerce Township,7472,#7472,760 Benstein Road,MI,48390
Quiznos,Fountain Valley,7476,#7476,18011 Newhope St,CA,92708
Quiznos,Glen Allen,7485,#7485,10210 Staples Mill Road,VA,23060
Quiznos,Everett,7553,#7553,3625 Broadway,WA,98201
Quiznos,Norman,7572,#7572,900 Asp Ave Oklahoma Memorial Union,OK,73019
Quiznos,Aptos,7577,#7577,105 Post Office Dr,CA,95003
Quiznos,Royersford,7628,#7628,1836 Ridge Pike,PA,19468
Quiznos,Jersey City,7633,#7633,2854 John F Kennedy Blvd,NJ,7306
Quiznos,Eglin AFB,7662,#7662,1701 State Road 85 N,FL,32542
Quiznos,Newark,7665,#7665,17 W Main St,DE,19716
Quiznos,Rockaway,7668,#7668,321 Mount Hope Ave,NJ,7866
Quiznos,Yuba City,7676,#7676,510 Bogue Rd,CA,95991
Quiznos,Federal Way,7686,#7686,27400 Pacific Hwy S,WA,98003
Quiznos,Bracey,7729,#7729,2883 Highway Nine O Three,VA,23919
Quiznos,New Buffalo,7793,#7793,18913 La Porte Rd,MI,49117
Quiznos,Jackson,7794,#7794,1302 East McDevitt Avenue,MI,49203
Quiznos,Alamogordo,7803,#7803,3181 N White Sands Blvd,NM,88310
Quiznos,Des Moines,7899,#7899,521 E 14th St,IA,50316
Quiznos,Rocky Mount,7909,#7909,45 Marketplace Dr,VA,24151
Quiznos,Oneonta,7937,#7937,762 State Highway 28 S,NY,13820
Quiznos,Dunn,7938,#7938,65 Sadler Rd,NC,28334
Quiznos,Shreveport,7943,#7943,733 Shreveport Barksdale Highway,LA,71105
Quiznos,Seattle,7944,#7944,411 23rd Ave S,WA,98144
Quiznos,Colonial Heights,7962,#7962,458 Charles H Dimmock Pkwy,VA,23834
Quiznos,Charlotte,7979,#7979,8031 Ardrey Kell Rd,NC,28277
Quiznos,Shoreline,7997,#7997,18336 Aurora Ave N,WA,98133
Quiznos,Niantic,8010,#8010,248 Flanders Rd,CT,6357
Quiznos,Alexandria,8024,#8024,401 Dulany St,VA,22314
Quiznos,Paso Robles,8076,#8076,2301 Theater Dr,CA,93446
Quiznos,Atlanta,8095,#8095,2441 Cheshire Bridge Rd NE,GA,30324
Quiznos,Miami,8109,#8109,4250 NW 20th St,FL,33122
Quiznos,Schertz,8129,#8129,6018 Fm 3009 Ste104,TX,78154
Quiznos,Ferndale,8184,#8184,1873 Main St,WA,98248
Quiznos,Ooltewah,8192,#8192,5030 Hunter Rd,TN,37363
Quiznos,Arbutus,8234,#8234,3611 Washington Blvd,MD,21227
Quiznos,Indianapolis,8260,#8260,7460 N Shadeland Ave Ste 100,IN,46250
Quiznos,Littleton,8275,#8275,231 Main St,NH,3561
Quiznos,San Diego,8298,#8298,9187 Clairemont Mesa Blvd,CA,92123
Quiznos,Philadelphia,8302,#8302,3401 Walnut St Frnt,PA,19104
Quiznos,Lathrop,8305,#8305,209 E Louise Ave,CA,95330
Quiznos,Steubenville,8341,#8341,100 Mall Dr,OH,43952
Quiznos,Saint Paul,8343,#8343,4300 Glumack Dr,MN,55111
Quiznos,Sunrise,8360,#8360,13955 W Sunrise Blvd,FL,33323
Quiznos,Kalamazoo,8380,#8380,148 Portage St,MI,49007
Quiznos,Lansing,8384,#8384,2250 Lake Lansing Rd,MI,48912
Quiznos,Crestview,8410,#8410,1338 N Ferdon Blvd,FL,32536
Quiznos,Philadelphia,8415,#8415,2544 Welsh Rd,PA,19152
Quiznos,Wheatfield,8425,#8425,3840 W State Road 10,IN,46392
Quiznos,Naugatuck,8446,#8446,799 New Haven Rd,CT,6770
Quiznos,Farmington Hills,8550,#8550,25890 Middlebelt Rd,MI,48336
Quiznos,Jacksonville,8568,#8568,505 Pelham Rd N,AL,36265
Quiznos,Virginia Beach,8667,#8667,4239 Holland Rd,VA,23452
Quiznos,Boca Raton,8668,#8668,777 Glades Rd,FL,33431
Quiznos,Redmond,8690,#8690,23535 NE Novelty Hill Rd,WA,98053
Quiznos,Shreveport,8702,#8702,6704 Pines Rd,LA,71129
Quiznos,Pittsburgh,8721,#8721,300 S Craig St,PA,15213
Quiznos,Grass Valley,8743,#8743,841 Sutton Way,CA,95945
Quiznos,Vancouver,8747,#8747,19111 SE 34th St,WA,98683
Quiznos,Cabot,8761,#8761,2051 W Main St,AR,72023
Quiznos,Smyrna,8800,#8800,1880 Almaville Rd,TN,37167
Quiznos,Mathews,8814,#8814,5375 Highway 308,LA,70375
Quiznos,Dickson,8829,#8829,407 Highway 46 S,TN,37055
Quiznos,Napoleon,8869,#8869,1900 American Rd,OH,43545
Quiznos,Glen Burnie,8932,#8932,6711 Ritchie Hwy Ofc,MD,21061
Quiznos,Bakersfield,8943,#8943,8110 Rosedale Hwy,CA,93312
Quiznos,Austin,9021,#9021,1000 E 41st St,TX,78751
Quiznos,Houston,9037,#9037,9344 Jones Rd,TX,77065
Quiznos,Houston,9075,#9075,2420 Gessner Dr,TX,77080
Quiznos,Houston,9087,#9087,2101 Smith St,TX,77002
Quiznos,Roebuck,9108,#9108,6200 Highway 221,SC,29376
Quiznos,Midland,9118,#9118,1301 Washington St,MI,48640
Quiznos,Woodbury,9124,#9124,10075 City Walk Dr,MN,55129
Quiznos,Key West,9147,#9147,3220 N Roosevelt Blvd,FL,33040
Quiznos,Grand Rapids,9194,#9194,4033 Cascade Rd SE,MI,49546
Quiznos,Mountain View,9264,#9264,1390 Pear Ave,CA,94043
Quiznos,Hialeah,9270,#9270,3520 W18th Ave,FL,33012
Quiznos,San Jose,9274,#9274,5978 Silver Creek Valley Rd,CA,95138
Quiznos,California,9280,#9280,128 Wood St,PA,15419
Quiznos,Colorado Springs,9338,#9338,7770 E Drennan Rd,CO,80916
Quiznos,Madison,9339,#9339,4000 International Ln,WI,53704
Quiznos,Ruston,9344,#9344,1705 N Service Rd E,LA,71270
Quiznos,Riverhead,9369,#9369,1110 Old Country Rd,NY,11901
Quiznos,Morrisville,9387,#9387,3608 Davis Dr,NC,27560
Quiznos,Chicago,9394,#9394,64 E Madison St,IL,60602
Quiznos,Indiana,9405,#9405,"599 Pratt Drive, Folger Food Court",PA,15705
Quiznos,Austin,9430,#9430,24th and Guadalupe St,TX,78713
Quiznos,Jasper,9445,#9445,140 Rowland Dr,TN,37347
Quiznos,Yakima,9469,#9469,1809 S 1st St,WA,98903
Quiznos,Norfolk,9500,#9500,Fechteler Rd Bldg M225,VA,23505
Quiznos,Dayton,9519,#9519,215 Highway 50 East,NV,89403
Quiznos,Tampa,9528,#9528,5503 W Spruce St,FL,33607
Quiznos,Saint Paul,9545,#9545,4300 Glumack Dr Concourse A,MN,55111
Quiznos,Reading,9552,#9552,505 Main St,MA,1867
Quiznos,New Windsor,9557,#9557,1130 1st St,NY,12553
Quiznos,Houston,9569,#9569,1113 Commerce St,TX,77002
Quiznos,Saint Louis,9590,#9590,258 S Florissant Rd,MO,63135
Quiznos,Chesapeake,9605,#9605,648 Grassfield Pkwy,VA,23322
Quiznos,Cut Off,9617,#9617,325 Highway 3162,LA,70345
Quiznos,Waco,9618,#9618,1311 S. 5th St,TX,76798
Quiznos,Spokane,9623,#9623,10408 W. Hwy 2,WA,99224
Quiznos,Essex Junction,9629,#9629,2 Carmichael St,VT,5452
Quiznos,Everett,9669,#9669,1130 SE Everett Mall Way,WA,98208
Quiznos,Custer,9670,#9670,49 N 5th St,SD,57730
Quiznos,Charlotte,9696,#9696,5501 Josh Birmingham Pkwy,NC,28208
Quiznos,Belle Chasse,9697,#9697,8160 Highway 23,LA,70037
Quiznos,Williamsburg,9701,#9701,6618 Mooretown Rd,VA,23188
Quiznos,Anderson,9708,#9708,4770 S Scatterfield Rd,IN,46013
Quiznos,Connersville,9756,#9756,515 W 30th St,IN,47331
Quiznos,Washington,9761,#9761,2500 S State Road 57,IN,47501
Quiznos,Wichita,9766,#9766,111 W Douglas Ave,KS,67202
Quiznos,Inglewood,9770,#9770,425 E Manchester Blvd,CA,90301
Quiznos,Rockport,9771,#9771,612 N 5th St,IN,47635
Quiznos,Mobile,9798,#9798,307 N University Blvd,AL,36608
Quiznos,Yakima,9814,#9814,5603 Summitview Ave,WA,98908
Quiznos,Laredo,9871,#9871,7305 San Dario Ave,TX,78045
Quiznos,Newark,9879,#9879,350 Martin Luther King Jr Blvd,NJ,7102
Quiznos,Rayville,9903,#9903,2204 Julia St,LA,71269
Quiznos,Yukon,9943,#9943,1751 Garth Brooks Blvd,OK,73099
Quiznos,Hampton,9957,#9957,2010 Coliseum Dr,VA,23666
Quiznos,Morgan City,9968,#9968,1229 Victor II Blvd,LA,70380
Quiznos,Las Vegas,9991,#9991,6441 N Durango Dr,NV,89149
Quiznos,Spokane,9999,#9999,2225 W Wellesley Ave,WA,99205
Quiznos,Montgomery,10030,#10030,7810 Vaughn Rd,AL,36116
Quiznos,Houston,10032,#10032,392 N Sam Houston Pkwy E,TX,77060
Quiznos,Auburn,10112,#10112,1626 Clark Street Rd,NY,13021
Quiznos,Athens,10118,#10118,915D S Jefferson St,AL,35611
Quiznos,Boise,10120,#10120,2250 E Gowen Rd,ID,83716
Quiznos,Pensacola,10123,#10123,11000 University Pkwy,FL,32514
Quiznos,San Antonio,10142,#10142,11403 O'Connor Rd,TX,78233
Quiznos,Edmond,10157,#10157,1333 N Santa Fe Ave,OK,73003
Quiznos,Marietta,10162,#10162,2595 Sandy Plains Rd,GA,30066
Quiznos,Palm Desert,10280,#10280,78010 Country Club Dr,CA,92211
Quiznos,Orlando,10282,#10282,10727 Narcoossee Rd,FL,32832
Quiznos,Kenner,10290,#10290,2315 Veterans Memorial Blvd,LA,70062
Quiznos,Virginia Beach,10294,#10294,5824 Northampton Blvd,VA,23455
Quiznos,Stephenville,10320,#10320,2101 West Washington,TX,76401
Quiznos,Blythe,10330,#10330,201 S Lovekin Blvd,CA,92225
Quiznos,Hopkinsville,10350,#10350,2717 Fort Campbell Blvd,KY,42240
Quiznos,Millsboro,10357,#10357,"28521 Dupont Blvd.,",DE,19966
Quiznos,Columbus,10394,#10394,4600 International Gtwy,OH,43219
Quiznos,Tampa,10410,#10410,5507 W Spruce St,FL,33607
Quiznos,Tulsa,10429,#10429,7777 E Apache St,OK,74115
Quiznos,Norfolk,10462,#10462,1611 Midway Rd,VA,23521
Quiznos,Medford,10499,#10499,2717 Route 112,NY,11763
Quiznos,Knoxville,10534,#10534,2117 Andy Holt Blvd,TN,37996
Quiznos,Medley,10590,#10590,9700 NW 115th Way,FL,33178
Quiznos,Liberty,10602,#10602,2009 Highway 146 BYP,TX,77575
Quiznos,West Valley,10647,#10647,2993 S 5600 W,UT,84120
Quiznos,Mobile,10657,#10657,8400 Airport Blvd,AL,36608
Quiznos,Edinburg,10668,#10668,2107 W Trenton Rd,TX,78539
Quiznos,Novi,10706,#10706,27302 Novi Rd FC 103,MI,48377
Quiznos,Midland,10747,#10747,3200 Andrews Hwy,TX,79701
Quiznos,Laredo,10754,#10754,2019 NE Bob Bullock Loop,TX,78045
Quiznos,Ontario,10763,#10763,111 N Vineyard St,CA,91761
Quiznos,Denver,10810,#10810,4505 Peoria St,CO,80239
Quiznos,San Bruno,10813,#10813,851 Cherry Ave,CA,94066
Quiznos,Spokane,10822,#10822,9000 W Airport Dr,WA,99224
Quiznos,Salina,10823,#10823,1000 E Crawford,KS,67401
Quiznos,Fairfield,10843,#10843,1586 Gateway Blvd,CA,94533
Quiznos,Dodge City,10924,#10924,2615 Gary Ave,KS,67801
Quiznos,Helena,10943,#10943,1151 Partridge Pl,MT,59602
Quiznos,Rochester,10951,#10951,10 Chestnut Hill Rd,NH,3867
Quiznos,Saint Joseph,10972,#10972,4525 Downs Dr,MO,64507
Quiznos,Caldwell,11020,#11020,2523 S 10th Ave,ID,83605
Quiznos,Fairmont,11040,#11040,200 Kingmont Rd,WV,26554
Quiznos,Post Falls,11051,#11051,3904 E Mullan Ave,ID,83854
Quiznos,Galveston,11092,#11092,2705 61st St,TX,77551
Quiznos,Portland,11125,#11125,5500 Highway 31 W,TN,37148
Quiznos,Houston,11126,#11126,10701B W Bellfort Ave,TX,77099
Quiznos,Bunker Hill,11202,#11202,4115 193rd St,KS,67626
Quiznos,San Simon,11213,#11213,2507 W Business Loop I-10 Exit 312,AZ,85632
Quiznos,Morris,11216,#11216,21 Romines Dr,IL,60450
Quiznos,Mc Graw,11235,#11235,3742 State Route 11,NY,13101
Quiznos,Conway,11239,#11239,201 S Donaghey,AR,72032
Quiznos,Louisville,11241,#11241,10 Louisville Internatl Airport,KY,40209
Quiznos,Buies Creek,11243,#11243,285 Main St,NC,27506
Quiznos,Canyon,11262,#11262,2501 4th Ave,TX,79016
Quiznos,Denver,11308,#11308,4640 Pecos St,CO,80211
Quiznos,Myrtle Beach,11387,#11387,4101 Postal Wy,SC,29579
Quiznos,New Orleans,11392,#11392,31 McAlister Dr,LA,70118
Quiznos,Washington,11517,#11517,620 Michigan Ave NE,DC,20064
Quiznos,Harrisonburg,11518,#11518,190 Blue Stone Drive MSC 3506,VA,22807
Quiznos,Wilmington,11521,#11521,601 S College Rd,NC,28403
Quiznos,Wichita Falls,11522,#11522,3410 Taft Blvd,TX,76308
Quiznos,Chapel Hill,11523,#11523,1 Medical Dr Brinkhouse-Bullitt Bldg,NC,27599
Quiznos,Abilene,11526,#11526,216 McGlothlin Campus Center,TX,79699
Quiznos,Mount Pleasant,11528,#11528,201 Bovee University Ctr,MI,48858
Quiznos,Hunker,11559,#11559,724 New Stanton Plaza Rd,PA,15639
Quiznos,Salem,11578,#11578,2755 Commercial St SE,OR,97302
Quiznos,Brighton,11584,#11584,2237 Prairie Center Pkwy,CO,80601
Quiznos,Fayetteville,11608,#11608,1021 W Dickson,AR,72701
Quiznos,Manchester,11648,#11648,1 Airport Road,NH,3103
Quiznos,city,11649,#11649,11000 Terminal Axis Road,FL,33913
Quiznos,New Orleans,11665,#11665,6600 Franklin Ave,LA,70122
Quiznos,Worcester,11736,#11736,100 Institute Rd,MA,1609
Quiznos,Rochester,11744,#11744,19810 Old Highway 99 SW,WA,98579
Quiznos,Gillette,11778,#11778,1103 E Boxelder Road Bldg A,WY,82718
Quiznos,Ottumwa,11790,#11790,627 E Pennsylvania Ave,IA,52501
Quiznos,Boise,11823,#11823,3201 Airport Way,ID,83705
Quiznos,Portland,11836,#11836,927 NW 14th Ave,OR,97209
Quiznos,Jacksonville,11869,#11869,1 UNF Dr Bldg 58W,FL,32224
Quiznos,Buttonwillow,11880,#11880,20661 Tracy Ave,CA,93206
Quiznos,Lost Hills,11881,#11881,21970 Highway 46,CA,93249
Quiznos,Sloatsburg,11884,#11884,33 North Mile Port NY State Thruway,NY,10974
Quiznos,Jacksonville,11895,#11895,101 W State St,FL,32202
Quiznos,Ann Arbor,11896,#11896,Pierpont Commons 2101 Bonisteel Ave,MI,48109
Quiznos,Detroit,11898,#11898,3990 John R Rd,MI,48201
Quiznos,Grand Rapids,11906,#11906,5500 44th St SE,MI,49512
Quiznos,Forest City,11920,#11920,247 Oak St Ext,NC,28043
Quiznos,Potsdam,11922,#11922,154 Elm St,NY,13676
Quiznos,Oklahoma City,11935,#11935,1720 Belle Isle Blvd,OK,73118
Quiznos,Hillsboro,11947,#11947,2388 NW Amberbrook Dr Off of NW Cornell Rd,OR,97006
Quiznos,Randolph,11948,#11948,214 Center Grove Rd,NJ,7869
Quiznos,South Jordan,11956,#11956,11428 S District Dr,UT,84095
Quiznos,Nashville,11962,#11962,319 Peabody St,TN,37210
Quiznos,Riverside,11969,#11969,4290 Riverwalk Pkwy,CA,92505
Quiznos,Jacksonville,11980,#11980,2400 Yankee Clipper Dr,FL,32218
Quiznos,Barrington,12007,#12007,115 N Northwest Hwy,IL,60010
Quiznos,Marquette,12013,#12013,505 Corning St,MI,49855
Quiznos,Nashua,12041,#12041,290 Main Street,NH,3060
Quiznos,Twentynine Palms,12045,#12045,6470 Desert Queen Ave,CA,92277
Quiznos,Richmond,12052,#12052,5530 W Grand Pkwy S,TX,77406
Quiznos,Mattoon,12068,#12068,1009 Charleston Ave E,IL,61938
Quiznos,Carrollton,12070,#12070,2464 Lacy Ln,TX,75006
Quiznos,Daniel Island,12088,#12088,216 Seven Farms Dr,SC,29492
Quiznos,Pattersonville,12104,#12104,New York State Thruway Mile Post 168 Westbound,NY,12137
Quiznos,Sacramento,12105,#12105,6850 Airport Blvd,CA,95837
Quiznos,Vail,12108,#12108,13160 E Colossal Cave Rd,AZ,85641
Quiznos,Harlingen,12132,#12132,3002 Heritage Way,TX,78550
Quiznos,Little Rock,12133,#12133,1 Airport Road,AR,72202
Quiznos,Forest Park,12136,#12136,5226 GA Highway 85,GA,30297
Quiznos,Cape Carteret,12142,#12142,215 WB McLean Dr,NC,28584
Quiznos,Eagle,12157,#12157,3116 E State,ID,83616
Quiznos,Irving,12168,#12168,8251 N Belt Line Rd,TX,75063
Quiznos,Anchorage,12170,#12170,5000 W International Airport Rd,AK,99502
Quiznos,North Salt Lake,12175,#12175,420 N Redwood Rd,UT,84054
Quiznos,Grand Terrace,12192,#12192,22045 Barton Rd,CA,92313
Quiznos,Baker,12240,#12240,71808 Baker Blvd,CA,92309
Quiznos,New Windsor,12251,#12251,1130 1st St,NY,12553
Quiznos,Washington,12277,#12277,80 F St NW,DC,20001
Quiznos,Pittsburg,12279,#12279,1269 California Ave,CA,94565
Quiznos,Albuquerque,12316,#12316,9935 Coors Bypass NW,NM,87114
Quiznos,Orlando,12319,#12319,1 Airport Blvd Main Terminal Food Court,FL,32827
Quiznos,Houston,12325,#12325,7670 Katy Fwy,TX,77024
Quiznos,Ardmore,12332,#12332,2401 12th Ave NW #104C,OK,73401
Quiznos,Federal Way,12356,#12356,1401 S 348th St,WA,98003
Quiznos,McDonough,12405,#12405,232 Racetrack Rd,GA,30253
Quiznos,Houston,12414,#12414,3909 Graustark St,TX,77006
Quiznos,Dateland,12426,#12426,1737 S Ave 64 E,AZ,85333
Quiznos,Lawrenceville,12429,#12429,1000 University Center Ln,GA,30043
Quiznos,Little Rock,12438,#12438,2801 S University Ave Donaghey Student Center,AR,72204
Quiznos,Knoxville,12448,#12448,1517 White Ave,TN,37916
Quiznos,Abilene,12495,#12495,1900 Pine St,TX,79601
Quiznos,Lubbock,12496,#12496,Texas Tech University Wiggins Complex,TX,79409
Quiznos,Atlanta,12542,#12542,1 Martin Luther King Jr Dr SW,GA,30334
Quiznos,Orlando,12555,#12555,4498 N Alafaya Trl,FL,32826
Quiznos,Lawrenceville,12562,#12562,4835 Sugarloaf Pkwy,GA,30044
Quiznos,Gardiner,12585,#12585,288 Lewiston Rd,ME,4345
Quiznos,Montebello,12610,#12610,137 N Montebello Blvd,CA,90640
Quiznos,Northampton,12637,#12637,2428 Main St,PA,18067
Quiznos,Fairfield,12649,#12649,1009 Oliver Road,CA,94534
Quiznos,La Quinta,12660,#12660,78742 Highway 111,CA,92253
Quiznos,Vandalia,12673,#12673,3600 Terminal Rd,OH,45377
Quiznos,Edmond,12678,#12678,100 N University Dr,OK,73034
Quiznos,Augusta,12686,#12686,3 9th St,GA,30901
Quiznos,Porter,12688,#12688,22510 US Highway 59,TX,77365
Quiznos,Lebanon,12705,#12705,240 Highway 109 N,TN,37090
Quiznos,Escondido,12708,#12708,3480 Del Lago Blvd,CA,92029
Quiznos,Duncan,12716,#12716,1211 North Highway 81,OK,73533
Quiznos,Hammond,12717,#12717,43106 S Airport Rd T. Turck Plaza - Swifties Food,LA,70403
Quiznos,Grafton,12721,#12721,1231 N Port Washington Rd,WI,53024
Quiznos,Millersville,12723,#12723,8556 Veterans Hwy,MD,21108
Quiznos,Visalia,12737,#12737,202 North Plaza Drive Plaza Drive at Hwy 198/Hwy 9,CA,93291
Quiznos,Altadena,12744,#12744,2333 Lake Ave,CA,91001
Quiznos,Carmel,12746,#12746,819 W Carmel Dr,IN,46032
Quiznos,Alcoa,12750,#12750,2055 Alcoa Highway,TN,37701
Quiznos,Covington,12759,#12759,27116 167th Pl SE,WA,98042
Quiznos,Vernal,12762,#12762,1147 West Highway 40,UT,84078
Quiznos,Tunica Resorts,12763,#12763,13615 Old Highway 61 N,MS,38664
Quiznos,Mount Pleasant,12776,#12776,2120 E Washington St,IA,52641
Quiznos,Vandalia,12779,#12779,3600 Terminal Dr,OH,45377
Quiznos,Las Vegas,12814,#12814,2901 Las Vegas Blvd S,NV,89108
Quiznos,Lanham Seabrook,12834,#12834,10631 Greenbelt Rd,MD,20706
Quiznos,Cincinnati,12850,#12850,229 W McMillan St,OH,45219
Quiznos,Las Vegas,12862,#12862,7135 W Ann Rd,NV,89130
Quiznos,West Palm Beach,12867,#12867,1000 Turnage Blvd HMS Host Building 1000,FL,33406
Quiznos,Trenton,12868,#12868,200 Uncle Pete's Rd Mile Marker 57.8 S,NJ,8691
Quiznos,Trenton,12869,#12869,75 Merrick Rd,NJ,8691
Quiznos,Medford,12878,#12878,57 Station Landing,MA,2155
Quiznos,Naperville,12879,#12879,1523 N Aurora Rd,IL,60563
Quiznos,Lolo,12890,#12890,12011 US Highway 93 S,MT,59847
Quiznos,Hamilton,12891,#12891,1987 N 1st St,MT,59840
Quiznos,Hamilton,12892,#12892,504 US Highway 93 S,MT,59840
Quiznos,Fort Myers,12911,#12911,8646 Gladiolus Dr,FL,33908
Quiznos,Roseville,12913,#12913,3031 Foothills Blvd,CA,95747
Quiznos,Castle Rock,12921,#12921,80 Plum Creek Pkwy,CO,80104
Quiznos,Fort Bragg,12927,#12927,3587 Butner Road Bldg A,NC,28310
Quiznos,Cleveland,12935,#12935,2121 Euclid Ave,OH,44115
Quiznos,Phoenix,12940,#12940,4212 W Cactus Rd,AZ,85029
Quiznos,Mount Juliet,12947,#12947,194 S Mount Juliet Rd,TN,37122
Quiznos,Fowler,12951,#12951,216 W Merced St,CA,93625
Quiznos,Lawrenceville,12959,#12959,1030 Old Peachtree Rd NW,GA,30043
Quiznos,Downers Grove,12963,#12963,1516 Butterfield Road,IL,60515
Quiznos,Lorton,12981,#12981,9433 Lorton Market St,VA,22079
Quiznos,El Paso,12990,#12990,6701 Convair Rd,TX,79925
Quiznos,Santa Cruz,12996,#12996,1010 Pacific Ave,CA,95060
Quiznos,Milwaukee,13021,#13021,5300 S Howell Ave,WI,53207
Quiznos,Clarkston,13023,#13023,6325 Sashabaw Rd,MI,48346
Quiznos,Knoxville,13048,#13048,5014 Washington Pike,TN,37917
Quiznos,Miami,13049,#13049,13710 SW 56th St,FL,33175
Quiznos,Jacksonville,13054,#13054,1250 Western Blvd,NC,28546
Quiznos,Chesterfield,13055,#13055,1006 West Blvd,SC,29709
Quiznos,Phoenix,13066,#13066,21043 N Cave Creek Rd,AZ,85024
Quiznos,Houston,13067,#13067,13050 FM 529 Rd,TX,77041
Quiznos,Dubois,13068,#13068,2807 Bee Line Hwy,PA,15801
Quiznos,Saint Louis,13070,#13070,5634 Telegraph Rd,MO,63129
Quiznos,Ozark,13092,#13092,1690 W State Highway J,MO,65721
Quiznos,Jim Thorpe,13108,#13108,256 Danner Rd,PA,18229
Quiznos,Plano,13117,#13117,"280 Legacy Parkway,",TX,75023
Quiznos,Columbia,13133,#13133,1550 N Main St,IL,62236
Quiznos,New Rochelle,13143,#13143,715 North Ave,NY,10801
Quiznos,Kansas City,13144,#13144,301 W 13th St,MO,64105
Quiznos,Kansas City,13146,#13146,56 Rome Cir SWA Hold Room,MO,64153
Quiznos,Cartersville,13153,#13153,20 S Wall St,GA,30120
Quiznos,Celebration,13175,#13175,35 Blake Blvd,FL,34747
Quiznos,Alton,13190,#13190,317 Homer M Adams Pkwy,IL,62002
Quiznos,San Jose,13192,#13192,90 Skyport Dr,CA,95110
Quiznos,Houston,13198,#13198,10920 W Little York Rd,TX,77041
Quiznos,Fort Mill,13213,#13213,1754 Highway 160 W,SC,29708
Quiznos,Oak Grove,13221,#13221,204 Segler Dr,KY,42262
Quiznos,Beaumont,13234,#13234,1668 2nd St,CA,92223
Quiznos,Aurora,13262,#13262,3015 E New York St,IL,60504
Quiznos,Norfolk,13269,#13269,1983 H St W313,VA,23511
Quiznos,Chattanooga,13272,#13272,6514 Ringgold Rd,TN,37412
Quiznos,Kingston Springs,13273,#13273,111 Luyben Hills Rd,TN,37082
Quiznos,Franklin,13274,#13274,1501 New Highway 96 W,TN,37064
Quiznos,Memphis,13275,#13275,1691 Poplar Ave,TN,38104
Quiznos,Antioch,13276,#13276,1101 Bell Rd,TN,37013
Quiznos,Anniston,13277,#13277,22 Choccolocco Rd,AL,36207
Quiznos,Tuscaloosa,13278,#13278,5101 Oscar Baxter Dr,AL,35405
Quiznos,Madison,13284,#13284,8890 Highway 72 W,AL,35758
Quiznos,Pleasant View,13285,#13285,2732 York Rd,TN,37146
Quiznos,Meridianville,13286,#13286,12245 Hwy 231 North,AL,35759
Quiznos,Gallatin,13287,#13287,985 Greensboro Dr,TN,37066
Quiznos,Murfreesboro,13288,#13288,2010 NW Broad Street,TN,37129
Quiznos,Wells,13300,#13300,1237 6th St,NV,89835
Quiznos,Frenchtown,13322,#13322,16875 Beckwith St,MT,59834
Quiznos,Memphis,13330,#13330,671 S Highland St,TN,38111
Quiznos,Littleton,13336,#13336,12482 W Ken Caryl Ave,CO,80127
Quiznos,Houston,13346,#13346,6900B Southwest Fwy,TX,77074
Quiznos,Orange City,13347,#13347,813 Lincoln Pl SE,IA,51041
Quiznos,Winchester,13348,#13348,1850 Apple Blossom Dr,VA,22601
Quiznos,Seattle,13357,#13357,17801 International Blvd CB-3,WA,98158
Quiznos,Akron,13368,#13368,13 N Hawkins Av #13,OH,44313
Quiznos,Walker,13372,#13372,312 Minnesota Ave W,MN,56484
Quiznos,Seffner,13374,#13374,11200 E Dr Martin Luther King Jr Blvd,FL,33584
Quiznos,White Lake,13383,#13383,6360 Highland Rd,MI,48383
Quiznos,Muncie,13400,#13400,2000 West University Ave,IN,47306
Quiznos,Greensboro,13406,#13406,3741B Battleground Ave,NC,27410
Quiznos,Aurora,13419,#13419,2365 N Farnsworth Ave,IL,60502
Quiznos,Livermore,13442,#13442,2476 Las Positas Rd,CA,94551
Quiznos,Auburn Hills,13454,#13454,3909 Baldwin Rd,MI,48326
Quiznos,Long Beach,13469,#13469,4406 Atlantic Ave,CA,90807
Quiznos,Lebanon,13473,#13473,1051 Murfreesboro Rd,TN,37090
Quiznos,Sacramento,13475,#13475,980 9th St,CA,95814
Quiznos,Charlotte,13479,#13479,1525 W WT Harris Blvd,NC,28262
Quiznos,North Platte,13484,#13484,201 E Leota St,NE,69101
Quiznos,Bartlett,13499,#13499,959 S IL Route 59,IL,60103
Quiznos,Greenwood Village,13542,#13542,8775 E Orchard Rd,CO,80111
Quiznos,Shepherdsville,13553,#13553,187 Adam Shepherd Pkwy,KY,40165
Quiznos,Odessa,13568,#13568,500 W 4th St,TX,79761
Quiznos,Houston,13570,#13570,5805 E Sam Houston Pkwy N,TX,77049
Quiznos,North Richland Hills,13577,#13577,6305 Precinct Line Rd,TX,76180
Quiznos,Joplin,13585,#13585,732 S Range Line Rd,MO,64801
Quiznos,Manteca,13594,#13594,127 Spreckels Ave,CA,95336
Quiznos,Burke,13627,#13627,9534 Old Keene Mill Rd,VA,22015
Quiznos,Lompoc,13630,#13630,515 W Central Ave,CA,93436
Quiznos,Los Angeles,13636,#13636,330 S Hope St,CA,90071
Quiznos,Norfolk,13640,#13640,4902 Hampton Blvd,VA,23508
Quiznos,Moosic,13642,#13642,1031 Shoppes Blvd,PA,18507
Quiznos,Mansfield,13650,#13650,3880 W 4th St,OH,44903
Quiznos,Salt Lake City,13666,#13666,4538 S Highland Dr,UT,84117
Quiznos,Missoula,13668,#13668,3275 N Reserve St,MT,59808
Quiznos,Sioux Falls,13678,#13678,2505 W Russell St,SD,57104
Quiznos,Mandeville,13731,#13731,1665 Dove Park Rd,LA,70471
Quiznos,Nashville,13756,#13756,2401 West End Ave Morgan Towers Dormitory,TN,37203
Quiznos,Charlotte,13773,#13773,901 E 4th St,NC,28204
Quiznos,Livonia,13787,#13787,36171 Plymouth Rd,MI,48150
Quiznos,Macon,13801,#13801,4659 Presidential Pkwy,GA,31206
Quiznos,Chaska,13805,#13805,232 Pioneer Trl,MN,55318
Quiznos,Spring Hill,13823,#13823,4159 Mariner Blvd,FL,34609
Quiznos,Port St Lucie,13824,#13824,8580 US Highway 1,FL,34952
Quiznos,Spring Hill,13825,#13825,4707 Commercial Way,FL,34606
Quiznos,Palm Bay,13826,#13826,1090 Malabar Rd SE,FL,32907
Quiznos,Inverness,13827,#13827,9515 East Gulf to Lake Hwy,FL,34450
Quiznos,Ft. Lauderdale,13828,#13828,3053 North Ocean Blvd,FL,33308
Quiznos,Saint Petersburg,13829,#13829,3001 66th St N,FL,33710
Quiznos,Tampa,13830,#13830,3611 W Bearss Ave,FL,33618
Quiznos,Hammond,13835,#13835,500 W Texas Ave SELU - 12 Oaks Complex,LA,70402
Quiznos,Tustin,13838,#13838,1631 Edinger Ave,CA,92780
Quiznos,Puyallup,13854,#13854,17526 Meridian E,WA,98375
Quiznos,Owens Crossroads,13855,#13855,6670 Hwy 431 South,AL,35763
Quiznos,Chattanooga,13856,#13856,8604 N Hickory Valley Rd,TN,37416
Quiznos,Cross Plains,13857,#13857,8631 Highway 25 E,TN,37049
Quiznos,Nashville,13858,#13858,1507 21st Ave S,TN,37212
Quiznos,Florence,13859,#13859,4401 Chisholm Rd,AL,35630
Quiznos,Stuart,13900,#13900,3201 SE Federal Highway,FL,34994
Quiznos,Hamilton,13901,#13901,520 W Main St,TX,76531
Quiznos,Cameron,13907,#13907,1360 NC Highway 87 S,NC,28326
Quiznos,Cheyenne,13919,#13919,200 E 17th St,WY,82001
Quiznos,Lake Charles,13925,#13925,1756 W Prien Lake Rd,LA,70601
Quiznos,Muskego,13928,#13928,S 69 W 15465 Janesville Rd,WI,53150
Quiznos,Missoula,13929,#13929,2105 S Higgins Ave,MT,59801
Quiznos,Ann Arbor,13937,#13937,5645 Jackson Rd,MI,48103
Quiznos,Richmond,13941,#13941,4001 West Broad St,VA,23230
Quiznos,Lexington,13955,#13955,2308 Sir Barton Way,KY,40509
Quiznos,Saint Louis,13965,#13965,7810 Forsyth Blvd,MO,63105
Quiznos,Lansing,13973,#13973,5405 W Saginaw Hwy,MI,48917
Quiznos,Las Vegas,13976,#13976,3318 E Flamingo Rd,NV,89121
Quiznos,Bridgman,13985,#13985,10511 Red Arrow Hwy,MI,49106
Quiznos,Lake Charles,13986,#13986,2653 Derek Dr,LA,70607
Quiznos,Washington,14003,#14003,409 3rd St SW,DC,20024
Quiznos,Lafayette,14015,#14015,607A Kaliste Saloom Rd,LA,70508
Quiznos,Wauwatosa,14016,#14016,2751 N Mayfair Road,WI,53222
Quiznos,Firebaugh,14025,#14025,1207 N Street,CA,93622
Quiznos,Cypress,14044,#14044,8190 Barker Cypress Rd,TX,77433
Quiznos,Breaux Bridge,14053,#14053,2247 Rees St Ext,LA,70517
Quiznos,Germantown,14090,#14090,1781 Kirby Pkwy,TN,38138
Quiznos,Memphis,14093,#14093,5009 Park Ave,TN,38117
Quiznos,Sacramento,14104,#14104,565 Howe Ave,CA,95825
Quiznos,Lawrence,14107,#14107,2540 Iowa St,KS,66046
Quiznos,Knoxville,14108,#14108,6216 Asheville Hwy,TN,37924
Quiznos,Ridgeland,14129,#14129,574 Highway 51,MS,39157
Quiznos,Hopelawn,14133,#14133,119 W Pond Rd,NJ,8861
Quiznos,Tampa,14156,#14156,5149 Adamo Dr,FL,33619
Quiznos,Sebastian,14157,#14157,700 US Highway 1,FL,32958
Quiznos,Bradenton,14158,#14158,6706 14th St W,FL,34207
Quiznos,Clearwater,14159,#14159,12550 49th Street N,FL,33762
Quiznos,Holiday,14160,#14160,2023 US Highway 19,FL,34691
Quiznos,New Port Richey,14161,#14161,8923 State Road 54,FL,34655
Quiznos,Riverview,14162,#14162,13179 US Highway 301 S,FL,33578
Quiznos,Port Richey,14163,#14163,8011 US Highway 19,FL,34668
Quiznos,Tampa,14164,#14164,5602 S Dale Mabry Hwy,FL,33611
Quiznos,Bradenton,14165,#14165,11002 E State Road 64,FL,34202
Quiznos,Clearwater,14166,#14166,2698 Roosevelt Blvd,FL,33760
Quiznos,Largo,14167,#14167,11800 66th St N,FL,33773
Quiznos,Clearwater,14168,#14168,1625 N McMullen Booth Rd,FL,33759
Quiznos,Palm Harbor,14169,#14169,36763 US 19,FL,34684
Quiznos,Tampa,14170,#14170,14903 Bruce B Downs Blvd,FL,33613
Quiznos,Land O Lakes,14171,#14171,11224 Land O Lakes Blvd,FL,34638
Quiznos,Seminole,14172,#14172,10544 Park Blvd,FL,33772
Quiznos,Tampa,14173,#14173,8350 E Martin Luther King Blvd,FL,33619
Quiznos,Odessa,14174,#14174,13508 State Road 54,FL,33556
Quiznos,Tampa,14175,#14175,11425 W Hillsborough Ave,FL,33635
Quiznos,Brandon,14176,#14176,915 Providence Rd,FL,33511
Quiznos,Venice,14177,#14177,350 Commercial Blvd,FL,34292
Quiznos,Valrico,14178,#14178,3353 Lithia Pinecrest Rd,FL,33596
Quiznos,Tampa,14179,#14179,10001 N Florida Ave,FL,33612
Quiznos,Spring Hill,14180,#14180,100 Mariner Blvd,FL,34609
Quiznos,St Petersburg,14181,#14181,3225 34th St N,FL,33713
Quiznos,Bradenton,14182,#14182,8604 E State Road 70,FL,34202
Quiznos,Clearwater,14183,#14183,2577 Harn Blvd,FL,33764
Quiznos,Valrico,14184,#14184,2101 East Brandon Blvd,FL,33594
Quiznos,Tampa,14185,#14185,6332 N Dale Mabry Hwy,FL,33614
Quiznos,Wesley Chapel,14186,#14186,28232 State Rd 54,FL,33543
Quiznos,Nokomis,14187,#14187,1241 N Tamiami Trl N,FL,34275
Quiznos,New Pt Richey,14188,#14188,5426 Little Rd,FL,34655
Quiznos,Palm Harbor,14189,#14189,33600 US 19 N,FL,34684
Quiznos,Sarasota,14190,#14190,600 N Washington Blvd,FL,34236
Quiznos,Clearwater,14191,#14191,5798 Roosevelt Blvd,FL,33760
Quiznos,Clearwater Beach,14192,#14192,601 Bayway Blvd,FL,33767
Quiznos,Clearwater,14193,#14193,32 Bay Esplanade,FL,33767
Quiznos,Clearwater,14194,#14194,441 Chestnut St,FL,33756
Quiznos,Clearwater,14195,#14195,2185 Drew St,FL,33765
Quiznos,Palm Harbor,14196,#14196,2734 Alt 19,FL,34683
Quiznos,Dover,14197,#14197,12877 E US Hwy 92,FL,33527
Quiznos,Masaryktown,14198,#14198,75 Broad St,FL,34604
Quiznos,Brooksville,14199,#14199,26260 Cortez Blvd,FL,34601
Quiznos,Dallas,14224,#14224,4164 N Central Expy,TX,75204
Quiznos,Dulles,14243,#14243,21100 Dulles Town Cir,VA,20166
Quiznos,Madison,14245,#14245,318 S Park Street W Washington/Vilas Avenue,WI,53715
Quiznos,Cedar City,14251,#14251,1233 Sage Dr,UT,84720
Quiznos,Lexington,14266,#14266,3191 Beaumont Centre Cir,KY,40513
Quiznos,Chatsworth,14274,#14274,630 S 3rd Ave,GA,30705
Quiznos,Burlington,14291,#14291,219 Main St # B4,VT,5401
Quiznos,Bristol,14292,#14292,3 West St,VT,5443
Quiznos,Miami,14294,#14294,7100 SW 40th St,FL,33155
Quiznos,Richmond,14309,#14309,2175 Meeker Ave,CA,94804
Quiznos,Georgetown,14320,#14320,30713 Chi Chi Drive,TX,78628
Quiznos,Sierra Vista,14326,#14326,920 E Fry Blvd,AZ,85635
Quiznos,Folsom,14332,#14332,2770 East Bidwell Street suite 700,CA,95630
Quiznos,Austin,14363,#14363,1931 E Ben White Blvd,TX,78741
Quiznos,Kissimmee,14367,#14367,2294 E Irlo Bronson Memorial Hwy,FL,34744
Quiznos,Kissimmee,14368,#14368,3200 South John Young Pkwy,FL,34746
Quiznos,Orlando,14370,#14370,11300 University Blvd,FL,32817
Quiznos,St Cloud,14371,#14371,4500 13th St,FL,34769
Quiznos,Orlando,14372,#14372,5365 International Drive,FL,32819
Quiznos,Winter Garden,14373,#14373,13707 W Colonial Dr,FL,34787
Quiznos,Daytona Beach,14374,#14374,2675 W International Speedway Blvd,FL,32114
Quiznos,Winter Springs,14375,#14375,1501 E State Road 434,FL,32708
Quiznos,Orlando,14377,#14377,5511 Clarcona Ocoee Rd,FL,32810
Quiznos,Clermont,14378,#14378,17431 US Highway 192,FL,34714
Quiznos,Leesburg,14379,#14379,9532 US Highway 441,FL,34788
Quiznos,Ormond Beach,14380,#14380,700 S Nova Rd,FL,32174
Quiznos,Orlando,14381,#14381,9520 S Orange Blossom Trl,FL,32837
Quiznos,Winter Park,14382,#14382,2617 Fairbanks Ave,FL,32789
Quiznos,Orlando,14383,#14383,7900 World Center Dr,FL,32821
Quiznos,Lake Buena Vista,14384,#14384,1000 West Car Care Ln,FL,32830
Quiznos,Lake Buena Vista,14385,#14385,1475 N Buena Vista Dr,FL,32830
Quiznos,Orlando,14386,#14386,10024 Lee Vista Blvd,FL,32829
Quiznos,Winter Garden,14387,#14387,3202 Daniels Rd,FL,34787
Quiznos,Orlando,14388,#14388,13306 S Orange Blossom Trl,FL,32837
Quiznos,Orlando,14389,#14389,2655 S Kirkman Rd,FL,32811
Quiznos,Edison,14390,#14390,789 Amboy Ave,NJ,8837
Quiznos,Woodbridge,14391,#14391,1021 Route 9 South,NJ,7095
Quiznos,Jacksonville,14392,#14392,5642 Bowden Rd,FL,32216
Quiznos,Vero Beach,14393,#14393,800 S US 1,FL,32962
Quiznos,Jacksonville,14394,#14394,4324 Atlantic Blvd,FL,32207
Quiznos,Orlando,14395,#14395,38 S Goldenrod Rd,FL,32807
Quiznos,St Augustine,14396,#14396,2505 US 1 S,FL,32086
Quiznos,North Launderdale,14397,#14397,8300 W McNab Rd,FL,33068
Quiznos,Jacksonville,14398,#14398,551 Cassat Avenue,FL,32254
Quiznos,Jacksonville,14399,#14399,13637 Beach Blvd,FL,32224
Quiznos,N Bay Village,14400,#14400,1508 79th St Causeway,FL,33141
Quiznos,Stuart,14401,#14401,100 SW Monterey Rd,FL,34994
Quiznos,Houston,14411,#14411,4505 FM 1960 Rd W,TX,77069
Quiznos,Tomah,14421,#14421,1030 E CLifton St,WI,54660
Quiznos,Elko,14424,#14424,1074 Idaho St,NV,89801
Quiznos,Fort Bragg,14425,#14425,4700 Knox Street Building B 8-1808,NC,28310
Quiznos,Davie,14440,#14440,2860 Davie Rd,FL,33314
Quiznos,Lake Worth,14441,#14441,3965 S Congress Ave,FL,33461
Quiznos,West Palm Beach,14442,#14442,6840 Okeechobee Blvd,FL,33411
Quiznos,Jacksonville,14443,#14443,8079 Ramona Blvd W,FL,32221
Quiznos,Pembroke Pines,14444,#14444,19600 Pines Blvd,FL,33029
Quiznos,Pampano Beach,14445,#14445,2350 N Powerline Rd,FL,33069
Quiznos,Miami Gardens,14446,#14446,19880 NW 27th Ave,FL,33056
Quiznos,Lehigh Acres,14447,#14447,5551 Lee Blvd,FL,33971
Quiznos,Jacksonville,14448,#14448,9651 Argyle Forest Blvd,FL,32222
Quiznos,Jacksonville,14449,#14449,7106 Blanding Blvd,FL,32244
Quiznos,St Augustine,14450,#14450,150 Hampton Point Dr,FL,32092
Quiznos,Portt Saint Lucie,14451,#14451,149 NW Bayshore Blvd,FL,34983
Quiznos,Lake Worth,14452,#14452,5975 State Road 7,FL,33449
Quiznos,Ft Lauderdale,14453,#14453,2300 SE 17th St,FL,33316
Quiznos,Doral,14455,#14455,10675 NW 41st St,FL,33178
Quiznos,Casselberry,14456,#14456,3190 S US Highway 17/92,FL,32707
Quiznos,Casselberry,14457,#14457,815 Semoran Blvd,FL,32707
Quiznos,Bonita Springs,14458,#14458,28070 Quail Nest Lane,FL,34135
Quiznos,Middleburg,14459,#14459,1545 Blanding Blvd,FL,32068
Quiznos,N Ft Myers,14460,#14460,17951 N Tamiami Trl,FL,33903
Quiznos,Estero,14461,#14461,10351 Corkscrew Rd,FL,33928
Quiznos,Homestead,14462,#14462,24435 SW 112 Ave,FL,33032
Quiznos,Hialeah,14464,#14464,7550 NW 186th St,FL,33015
Quiznos,Fort Myers,14465,#14465,14690 Metro Pkwy,FL,33912
Quiznos,Stillwater,14480,#14480,1754 Market Dr,MN,55082
Quiznos,Lakeland,14481,#14481,4410 Kathleen Rd,FL,33813
Quiznos,Wade,14483,#14483,3934 Goldsboro Rd Shell Ft Bragg Travel Plaza,NC,28395
Quiznos,Picayune,14499,#14499,822 North Highway 43,MS,39466
Quiznos,Fort Mill,14512,#14512,3477 Hwy 21 Byp,SC,29715
Quiznos,Sumter,14556,#14556,2561 Broad St,SC,29150
Quiznos,Chicago,14577,#14577,1332 S Halsted St,IL,60607
Quiznos,Camp Douglas,14615,#14615,200 US Highway 12/16,WI,54618
Quiznos,Colchester,14616,#14616,156 Roosevelt Hwy,VT,5446
Quiznos,Happy Valley,14656,#14656,9972 SE 82nd Ave,OR,97086
Quiznos,Roseville,14664,#14664,1228 Galleria Blvd,CA,95678
Quiznos,Junction,14665,#14665,2350 N Main,TX,76849
Quiznos,Glendale,14692,#14692,18589 North 59th Ave,AZ,85308
Quiznos,Lafayette,14703,#14703,535 South Boulder Rd,CO,80026
Quiznos,McMinnville,14716,#14716,1411 NE Highway 99w,OR,97128
Quiznos,Lafayette,14731,#14731,2668 Johnston St,LA,70503
Quiznos,Walla Walla,14747,#14747,7 West Alder St,WA,99362
Quiznos,Auburn,14749,#14749,1850 Grass Valley Hwy,CA,95603
Quiznos,Thornton,14753,#14753,3790 E 104th Ave,CO,80233
Quiznos,Arlington,14754,#14754,2613 W Park Row Dr,TX,76013
Quiznos,Holland,14799,#14799,12659 Riley St,MI,49424
