keywords,city,Aggdata Store Number,store_number,address,state,zip_code
Raising Cane's Chicken Fingers,Baton Rouge,#001,#001 #01 #1 1 #SHV1 #RCO1 #P1 #MRGAZ1 #MRG1 #LC1 #KDR1 #JEGI1 #GA #DBMP1 #DB1 #BWI1 #AZ1 #ARA1,3313 Highland Rd,LA,70802
Raising Cane's Chicken Fingers,Baton Rouge,#002,#002 #02 #2 2 #SHV2 #RCO2 #P2 #MRGAZ2 #MRG2 #LC2 #KDR2 #JEGI2 #GA #DBMP2 #DB2 #BWI2 #AZ2 #ARA2,202 W. Lee Dr,LA,70808
Raising Cane's Chicken Fingers,Baton Rouge,#003,#003 #03 #3 3 #SHV3 #RCO3 #P3 #MRGAZ3 #MRG3 #LC3 #KDR3 #JEGI3 #GA #DBMP3 #DB3 #BWI3 #AZ3 #ARA3,3422 Drusilla Ln,LA,70809
Raising Cane's Chicken Fingers,Denham Springs,#006,#006 #06 #6 6 #SHV6 #RCO6 #P6 #MRGAZ6 #MRG6 #LC6 #KDR6 #JEGI6 #GA #DBMP6 #DB6 #BWI6 #AZ6 #ARA6,31685 North Range Ave.,LA,70726
Raising Cane's Chicken Fingers,Baton Rouge,#007,#007 #07 #7 7 #SHV7 #RCO7 #P7 #MRGAZ7 #MRG7 #LC7 #KDR7 #JEGI7 #GA #DBMP7 #DB7 #BWI7 #AZ7 #ARA7,5020 Government St,LA,70806
Raising Cane's Chicken Fingers,Baton Rouge,#008,#008 #08 #8 8 #SHV8 #RCO8 #P8 #MRGAZ8 #MRG8 #LC8 #KDR8 #JEGI8 #GA #DBMP8 #DB8 #BWI8 #AZ8 #ARA8,"6401 Bluebonnet, Food Court Space #6",LA,70836
Raising Cane's Chicken Fingers,Lafayette,#009,#009 #09 #9 9 #SHV9 #RCO9 #P9 #MRGAZ9 #MRG9 #LC9 #KDR9 #JEGI9 #GA #DBMP9 #DB9 #BWI9 #AZ9 #ARA9,2426 West Congress St,LA,70506
Raising Cane's Chicken Fingers,Gonzales,#010,#0010 #010 #10 10 #SHV10 #RCO10 #P10 #MRGAZ10 #MRG10 #LC10 #KDR10 #JEGI10 #GA #DBMP10 #DB10 #BWI10 #AZ10 #ARA10,625 Airline Hwy,LA,70737
Raising Cane's Chicken Fingers,Baton Rouge,#011,#0011 #011 #11 11 #SHV11 #RCO11 #P11 #MRGAZ11 #MRG11 #LC11 #KDR11 #JEGI11 #GA #DBMP11 #DB11 #BWI11 #AZ11 #ARA11,6588 Siegen Ln,LA,70809
Raising Cane's Chicken Fingers,Lafayette,#012,#0012 #012 #12 12 #SHV12 #RCO12 #P12 #MRGAZ12 #MRG12 #LC12 #KDR12 #JEGI12 #GA #DBMP12 #DB12 #BWI12 #AZ12 #ARA12,2516 Kaliste Saloom Rd,LA,70508
Raising Cane's Chicken Fingers,Houma,#013,#0013 #013 #13 13 #SHV13 #RCO13 #P13 #MRGAZ13 #MRG13 #LC13 #KDR13 #JEGI13 #GA #DBMP13 #DB13 #BWI13 #AZ13 #ARA13,1723 Martin Luther King Blvd,LA,70360
Raising Cane's Chicken Fingers,Harvey,#014,#0014 #014 #14 14 #SHV14 #RCO14 #P14 #MRGAZ14 #MRG14 #LC14 #KDR14 #JEGI14 #GA #DBMP14 #DB14 #BWI14 #AZ14 #ARA14,1735 Manhattan Blvd,LA,70058
Raising Cane's Chicken Fingers,Baton Rouge,#015,#0015 #015 #15 15 #SHV15 #RCO15 #P15 #MRGAZ15 #MRG15 #LC15 #KDR15 #JEGI15 #GA #DBMP15 #DB15 #BWI15 #AZ15 #ARA15,14929 Market Street,LA,70817
Raising Cane's Chicken Fingers,Lake Charles,#016,#0016 #016 #16 16 #SHV16 #RCO16 #P16 #MRGAZ16 #MRG16 #LC16 #KDR16 #JEGI16 #GA #DBMP16 #DB16 #BWI16 #AZ16 #ARA16,4110 Ryan St,LA,70605
Raising Cane's Chicken Fingers,Slidell,#017,#0017 #017 #17 17 #SHV17 #RCO17 #P17 #MRGAZ17 #MRG17 #LC17 #KDR17 #JEGI17 #GA #DBMP17 #DB17 #BWI17 #AZ17 #ARA17,1654 Gause Blvd,LA,70458
Raising Cane's Chicken Fingers,Covington,#018,#0018 #018 #18 18 #SHV18 #RCO18 #P18 #MRGAZ18 #MRG18 #LC18 #KDR18 #JEGI18 #GA #DBMP18 #DB18 #BWI18 #AZ18 #ARA18,1270 North Hwy 190,LA,70433
Raising Cane's Chicken Fingers,Flowood,#019,#0019 #019 #19 19 #SHV19 #RCO19 #P19 #MRGAZ19 #MRG19 #LC19 #KDR19 #JEGI19 #GA #DBMP19 #DB19 #BWI19 #AZ19 #ARA19,202 E. Layfair Dr,MS,39232
Raising Cane's Chicken Fingers,Lewisville,#021,#0021 #021 #21 21 #SHV21 #RCO21 #P21 #MRGAZ21 #MRG21 #LC21 #KDR21 #JEGI21 #GA #DBMP21 #DB21 #BWI21 #AZ21 #ARA21,720 Hebron Pkwy,TX,75057
Raising Cane's Chicken Fingers,Metairie,#022,#0022 #022 #22 22 #SHV22 #RCO22 #P22 #MRGAZ22 #MRG22 #LC22 #KDR22 #JEGI22 #GA #DBMP22 #DB22 #BWI22 #AZ22 #ARA22,4036 Veterans Memorial Blvd,LA,70002
Raising Cane's Chicken Fingers,Jefferson,#023,#0023 #023 #23 23 #SHV23 #RCO23 #P23 #MRGAZ23 #MRG23 #LC23 #KDR23 #JEGI23 #GA #DBMP23 #DB23 #BWI23 #AZ23 #ARA23,919 S. Clearview Pkwy,LA,70121
Raising Cane's Chicken Fingers,Houston,#024,#0024 #024 #24 24 #SHV24 #RCO24 #P24 #MRGAZ24 #MRG24 #LC24 #KDR24 #JEGI24 #GA #DBMP24 #DB24 #BWI24 #AZ24 #ARA24,12201 Westheimer Rd.,TX,77077
Raising Cane's Chicken Fingers,Baton Rouge,#025,#0025 #025 #25 25 #SHV25 #RCO25 #P25 #MRGAZ25 #MRG25 #LC25 #KDR25 #JEGI25 #GA #DBMP25 #DB25 #BWI25 #AZ25 #ARA25,5211 Corporate Blvd,LA,70808
Raising Cane's Chicken Fingers,Shreveport,#026,#0026 #026 #26 26 #SHV26 #RCO26 #P26 #MRGAZ26 #MRG26 #LC26 #KDR26 #JEGI26 #GA #DBMP26 #DB26 #BWI26 #AZ26 #ARA26,7241 Youree Drive,LA,71105
Raising Cane's Chicken Fingers,West Monroe,#027,#0027 #027 #27 27 #SHV27 #RCO27 #P27 #MRGAZ27 #MRG27 #LC27 #KDR27 #JEGI27 #GA #DBMP27 #DB27 #BWI27 #AZ27 #ARA27,206 Thomas Road,LA,71291
Raising Cane's Chicken Fingers,Hammond,#028,#0028 #028 #28 28 #SHV28 #RCO28 #P28 #MRGAZ28 #MRG28 #LC28 #KDR28 #JEGI28 #GA #DBMP28 #DB28 #BWI28 #AZ28 #ARA28,2035 W. Thomas St.,LA,70401
Raising Cane's Chicken Fingers,Metairie (Mall),#029,#0029 #029 #29 29 #SHV29 #RCO29 #P29 #MRGAZ29 #MRG29 #LC29 #KDR29 #JEGI29 #GA #DBMP29 #DB29 #BWI29 #AZ29 #ARA29,3301 Veterans Memorial Blvd,LA,70002
Raising Cane's Chicken Fingers,Ridgeland,#030,#0030 #030 #30 30 #SHV30 #RCO30 #P30 #MRGAZ30 #MRG30 #LC30 #KDR30 #JEGI30 #GA #DBMP30 #DB30 #BWI30 #AZ30 #ARA30,930 E. County Line Road,MS,39157
Raising Cane's Chicken Fingers,New Orleans,#031,#0031 #031 #31 31 #SHV31 #RCO31 #P31 #MRGAZ31 #MRG31 #LC31 #KDR31 #JEGI31 #GA #DBMP31 #DB31 #BWI31 #AZ31 #ARA31,4009 Behrman Hwy,LA,70114
Raising Cane's Chicken Fingers,Ruston,#033,#0033 #033 #33 33 #SHV33 #RCO33 #P33 #MRGAZ33 #MRG33 #LC33 #KDR33 #JEGI33 #GA #DBMP33 #DB33 #BWI33 #AZ33 #ARA33,659 N. Service Rd. East,LA,71270
Raising Cane's Chicken Fingers,Marrero,#034,#0034 #034 #34 34 #SHV34 #RCO34 #P34 #MRGAZ34 #MRG34 #LC34 #KDR34 #JEGI34 #GA #DBMP34 #DB34 #BWI34 #AZ34 #ARA34,4817 LaPalco Blvd,LA,70072
Raising Cane's Chicken Fingers,Baton Rouge,#036,#0036 #036 #36 36 #SHV36 #RCO36 #P36 #MRGAZ36 #MRG36 #LC36 #KDR36 #JEGI36 #GA #DBMP36 #DB36 #BWI36 #AZ36 #ARA36,10020 Perkins Rd,LA,70810
Raising Cane's Chicken Fingers,Shreveport,#037,#0037 #037 #37 37 #SHV37 #RCO37 #P37 #MRGAZ37 #MRG37 #LC37 #KDR37 #JEGI37 #GA #DBMP37 #DB37 #BWI37 #AZ37 #ARA37,1046 Kings Highway,LA,71104
Raising Cane's Chicken Fingers,College Station,#038,#0038 #038 #38 38 #SHV38 #RCO38 #P38 #MRGAZ38 #MRG38 #LC38 #KDR38 #JEGI38 #GA #DBMP38 #DB38 #BWI38 #AZ38 #ARA38,1045 Texas Avenue,TX,77840
Raising Cane's Chicken Fingers,Mobile,#039,#0039 #039 #39 39 #SHV39 #RCO39 #P39 #MRGAZ39 #MRG39 #LC39 #KDR39 #JEGI39 #GA #DBMP39 #DB39 #BWI39 #AZ39 #ARA39,3200 Airport Blvd,AL,36606
Raising Cane's Chicken Fingers,Monroe,#040,#0040 #040 #40 40 #SHV40 #RCO40 #P40 #MRGAZ40 #MRG40 #LC40 #KDR40 #JEGI40 #GA #DBMP40 #DB40 #BWI40 #AZ40 #ARA40,2761 Louisville Ave,LA,71201
Raising Cane's Chicken Fingers,Alexandria,#041,#0041 #041 #41 41 #SHV41 #RCO41 #P41 #MRGAZ41 #MRG41 #LC41 #KDR41 #JEGI41 #GA #DBMP41 #DB41 #BWI41 #AZ41 #ARA41,1030 McArthur Dr,LA,71303
Raising Cane's Chicken Fingers,Dallas,#043,#0043 #043 #43 43 #SHV43 #RCO43 #P43 #MRGAZ43 #MRG43 #LC43 #KDR43 #JEGI43 #GA #DBMP43 #DB43 #BWI43 #AZ43 #ARA43,7651 Campbell Road,TX,75248
Raising Cane's Chicken Fingers,Hattiesburg,#044,#0044 #044 #44 44 #SHV44 #RCO44 #P44 #MRGAZ44 #MRG44 #LC44 #KDR44 #JEGI44 #GA #DBMP44 #DB44 #BWI44 #AZ44 #ARA44,3509 Hardy St.,MS,39402
Raising Cane's Chicken Fingers,Houston,#045,#0045 #045 #45 45 #SHV45 #RCO45 #P45 #MRGAZ45 #MRG45 #LC45 #KDR45 #JEGI45 #GA #DBMP45 #DB45 #BWI45 #AZ45 #ARA45,7531 Westheimer Rd.,TX,77063
Raising Cane's Chicken Fingers,Kenner,#046,#0046 #046 #46 46 #SHV46 #RCO46 #P46 #MRGAZ46 #MRG46 #LC46 #KDR46 #JEGI46 #GA #DBMP46 #DB46 #BWI46 #AZ46 #ARA46,3344 Williams Blvd,LA,70065
Raising Cane's Chicken Fingers,New Iberia,#047,#0047 #047 #47 47 #SHV47 #RCO47 #P47 #MRGAZ47 #MRG47 #LC47 #KDR47 #JEGI47 #GA #DBMP47 #DB47 #BWI47 #AZ47 #ARA47,1121 East Admiral Doyle Dr.,LA,70560
Raising Cane's Chicken Fingers,Laplace,#048,#0048 #048 #48 48 #SHV48 #RCO48 #P48 #MRGAZ48 #MRG48 #LC48 #KDR48 #JEGI48 #GA #DBMP48 #DB48 #BWI48 #AZ48 #ARA48,123 West Airline Hwy,LA,70068
Raising Cane's Chicken Fingers,Nacogdoches,#049,#0049 #049 #49 49 #SHV49 #RCO49 #P49 #MRGAZ49 #MRG49 #LC49 #KDR49 #JEGI49 #GA #DBMP49 #DB49 #BWI49 #AZ49 #ARA49,1831 North St,TX,75964
Raising Cane's Chicken Fingers,Lubbock,#051,#0051 #051 #51 51 #SHV51 #RCO51 #P51 #MRGAZ51 #MRG51 #LC51 #KDR51 #JEGI51 #GA #DBMP51 #DB51 #BWI51 #AZ51 #ARA51,907 University Avenue,TX,79401
Raising Cane's Chicken Fingers,Meridian,#052,#0052 #052 #52 52 #SHV52 #RCO52 #P52 #MRGAZ52 #MRG52 #LC52 #KDR52 #JEGI52 #GA #DBMP52 #DB52 #BWI52 #AZ52 #ARA52,2625 N. Hills St.,MS,39305
Raising Cane's Chicken Fingers,Lafayette,#053,#0053 #053 #53 53 #SHV53 #RCO53 #P53 #MRGAZ53 #MRG53 #LC53 #KDR53 #JEGI53 #GA #DBMP53 #DB53 #BWI53 #AZ53 #ARA53,100 E. Kaliste Saloom Rd,LA,70508
Raising Cane's Chicken Fingers,Baton Rouge,#054,#0054 #054 #54 54 #SHV54 #RCO54 #P54 #MRGAZ54 #MRG54 #LC54 #KDR54 #JEGI54 #GA #DBMP54 #DB54 #BWI54 #AZ54 #ARA54,5195 Plank Road,LA,70805
Raising Cane's Chicken Fingers,Baton Rouge,#055,#0055 #055 #55 55 #SHV55 #RCO55 #P55 #MRGAZ55 #MRG55 #LC55 #KDR55 #JEGI55 #GA #DBMP55 #DB55 #BWI55 #AZ55 #ARA55,2525 South Sherwood Forest Blvd,LA,70816
Raising Cane's Chicken Fingers,Denham Springs,#056,#0056 #056 #56 56 #SHV56 #RCO56 #P56 #MRGAZ56 #MRG56 #LC56 #KDR56 #JEGI56 #GA #DBMP56 #DB56 #BWI56 #AZ56 #ARA56,2364 S. Range Ave,LA,70726
Raising Cane's Chicken Fingers,Natchitoches,#057,#0057 #057 #57 57 #SHV57 #RCO57 #P57 #MRGAZ57 #MRG57 #LC57 #KDR57 #JEGI57 #GA #DBMP57 #DB57 #BWI57 #AZ57 #ARA57,409 Keyser Ave.,LA,71457
Raising Cane's Chicken Fingers,Houma,#058,#0058 #058 #58 58 #SHV58 #RCO58 #P58 #MRGAZ58 #MRG58 #LC58 #KDR58 #JEGI58 #GA #DBMP58 #DB58 #BWI58 #AZ58 #ARA58,945 Grand Caillou Rd.,LA,70363
Raising Cane's Chicken Fingers,Thibodaux,#059,#0059 #059 #59 59 #SHV59 #RCO59 #P59 #MRGAZ59 #MRG59 #LC59 #KDR59 #JEGI59 #GA #DBMP59 #DB59 #BWI59 #AZ59 #ARA59,301 North Canal Blvd.,LA,70301
Raising Cane's Chicken Fingers,Zachary,#060,#0060 #060 #60 60 #SHV60 #RCO60 #P60 #MRGAZ60 #MRG60 #LC60 #KDR60 #JEGI60 #GA #DBMP60 #DB60 #BWI60 #AZ60 #ARA60,5545 Main Street,LA,70791
Raising Cane's Chicken Fingers,Monroe,#061,#0061 #061 #61 61 #SHV61 #RCO61 #P61 #MRGAZ61 #MRG61 #LC61 #KDR61 #JEGI61 #GA #DBMP61 #DB61 #BWI61 #AZ61 #ARA61,"4700 Milhaven Road, Food Court Space #1052",LA,71203
Raising Cane's Chicken Fingers,Bossier City,#062,#0062 #062 #62 62 #SHV62 #RCO62 #P62 #MRGAZ62 #MRG62 #LC62 #KDR62 #JEGI62 #GA #DBMP62 #DB62 #BWI62 #AZ62 #ARA62,"2950 East Texas Street, Food Court Space #66",LA,71111
Raising Cane's Chicken Fingers,Central,#063,#0063 #063 #63 63 #SHV63 #RCO63 #P63 #MRGAZ63 #MRG63 #LC63 #KDR63 #JEGI63 #GA #DBMP63 #DB63 #BWI63 #AZ63 #ARA63,10500 Sullivan Road,LA,70818
Raising Cane's Chicken Fingers,Shreveport,#064,#0064 #064 #64 64 #SHV64 #RCO64 #P64 #MRGAZ64 #MRG64 #LC64 #KDR64 #JEGI64 #GA #DBMP64 #DB64 #BWI64 #AZ64 #ARA64,8998 Mansfield Road,LA,71118
Raising Cane's Chicken Fingers,Baton Rouge,#065,#0065 #065 #65 65 #SHV65 #RCO65 #P65 #MRGAZ65 #MRG65 #LC65 #KDR65 #JEGI65 #GA #DBMP65 #DB65 #BWI65 #AZ65 #ARA65,8899 Florida Boulevard,LA,70815
Raising Cane's Chicken Fingers,Broussard,#066,#0066 #066 #66 66 #SHV66 #RCO66 #P66 #MRGAZ66 #MRG66 #LC66 #KDR66 #JEGI66 #GA #DBMP66 #DB66 #BWI66 #AZ66 #ARA66,117 St. Nazaire Road,LA,70518
Raising Cane's Chicken Fingers,Opelousas,#067,#0067 #067 #67 67 #SHV67 #RCO67 #P67 #MRGAZ67 #MRG67 #LC67 #KDR67 #JEGI67 #GA #DBMP67 #DB67 #BWI67 #AZ67 #ARA67,1335 Union Street,LA,70570
Raising Cane's Chicken Fingers,Hammond,#068,#0068 #068 #68 68 #SHV68 #RCO68 #P68 #MRGAZ68 #MRG68 #LC68 #KDR68 #JEGI68 #GA #DBMP68 #DB68 #BWI68 #AZ68 #ARA68,1906 SW Railroad Ave.,LA,70403
Raising Cane's Chicken Fingers,Plano,#069,#0069 #069 #69 69 #SHV69 #RCO69 #P69 #MRGAZ69 #MRG69 #LC69 #KDR69 #JEGI69 #GA #DBMP69 #DB69 #BWI69 #AZ69 #ARA69,6513 W. Park Blvd.,TX,75093
Raising Cane's Chicken Fingers,Irving,#071,#0071 #071 #71 71 #SHV71 #RCO71 #P71 #MRGAZ71 #MRG71 #LC71 #KDR71 #JEGI71 #GA #DBMP71 #DB71 #BWI71 #AZ71 #ARA71,7955 N. MacArthur Blvd,TX,75063
Raising Cane's Chicken Fingers,Sulphur,#072,#0072 #072 #72 72 #SHV72 #RCO72 #P72 #MRGAZ72 #MRG72 #LC72 #KDR72 #JEGI72 #GA #DBMP72 #DB72 #BWI72 #AZ72 #ARA72,315 S. Cities Hwy,LA,70663
Raising Cane's Chicken Fingers,Prairieville,#073,#0073 #073 #73 73 #SHV73 #RCO73 #P73 #MRGAZ73 #MRG73 #LC73 #KDR73 #JEGI73 #GA #DBMP73 #DB73 #BWI73 #AZ73 #ARA73,17696 Airline Hwy,LA,70769
Raising Cane's Chicken Fingers,Bossier City,#074,#0074 #074 #74 74 #SHV74 #RCO74 #P74 #MRGAZ74 #MRG74 #LC74 #KDR74 #JEGI74 #GA #DBMP74 #DB74 #BWI74 #AZ74 #ARA74,2395 Airline Dr,LA,71111
Raising Cane's Chicken Fingers,Waco,#075,#0075 #075 #75 75 #SHV75 #RCO75 #P75 #MRGAZ75 #MRG75 #LC75 #KDR75 #JEGI75 #GA #DBMP75 #DB75 #BWI75 #AZ75 #ARA75,4212 Franklin Ave.,TX,76710
Raising Cane's Chicken Fingers,Dallas,#076,#0076 #076 #76 76 #SHV76 #RCO76 #P76 #MRGAZ76 #MRG76 #LC76 #KDR76 #JEGI76 #GA #DBMP76 #DB76 #BWI76 #AZ76 #ARA76,5030 Greenville Ave.,TX,75206
Raising Cane's Chicken Fingers,Mandeville,#079,#0079 #079 #79 79 #SHV79 #RCO79 #P79 #MRGAZ79 #MRG79 #LC79 #KDR79 #JEGI79 #GA #DBMP79 #DB79 #BWI79 #AZ79 #ARA79,3801 Highway 22,LA,70471
Raising Cane's Chicken Fingers,Frisco,#081,#0081 #081 #81 81 #SHV81 #RCO81 #P81 #MRGAZ81 #MRG81 #LC81 #KDR81 #JEGI81 #GA #DBMP81 #DB81 #BWI81 #AZ81 #ARA81,3890 Preston Rd,TX,75034
Raising Cane's Chicken Fingers,Frisco,#082,#0082 #082 #82 82 #SHV82 #RCO82 #P82 #MRGAZ82 #MRG82 #LC82 #KDR82 #JEGI82 #GA #DBMP82 #DB82 #BWI82 #AZ82 #ARA82,5220 Eldorado Parkway,TX,75034
Raising Cane's Chicken Fingers,Lewisville,#083,#0083 #083 #83 83 #SHV83 #RCO83 #P83 #MRGAZ83 #MRG83 #LC83 #KDR83 #JEGI83 #GA #DBMP83 #DB83 #BWI83 #AZ83 #ARA83,1026 W Main St,TX,75067
Raising Cane's Chicken Fingers,Plano,#085,#0085 #085 #85 85 #SHV85 #RCO85 #P85 #MRGAZ85 #MRG85 #LC85 #KDR85 #JEGI85 #GA #DBMP85 #DB85 #BWI85 #AZ85 #ARA85,1000 West 15th Street,TX,75075
Raising Cane's Chicken Fingers,Hurst,#087,#0087 #087 #87 87 #SHV87 #RCO87 #P87 #MRGAZ87 #MRG87 #LC87 #KDR87 #JEGI87 #GA #DBMP87 #DB87 #BWI87 #AZ87 #ARA87,776 Grapevine Hwy,TX,76054
Raising Cane's Chicken Fingers,Pascagoula,#088,#0088 #088 #88 88 #SHV88 #RCO88 #P88 #MRGAZ88 #MRG88 #LC88 #KDR88 #JEGI88 #GA #DBMP88 #DB88 #BWI88 #AZ88 #ARA88,4301 Denny Ave.,MS,39581
Raising Cane's Chicken Fingers,Pearland,#089,#0089 #089 #89 89 #SHV89 #RCO89 #P89 #MRGAZ89 #MRG89 #LC89 #KDR89 #JEGI89 #GA #DBMP89 #DB89 #BWI89 #AZ89 #ARA89,9527 Broadway St,TX,77584
Raising Cane's Chicken Fingers,Fort Worth,#090,#0090 #090 #90 90 #SHV90 #RCO90 #P90 #MRGAZ90 #MRG90 #LC90 #KDR90 #JEGI90 #GA #DBMP90 #DB90 #BWI90 #AZ90 #ARA90,5729 South Hulen St.,TX,76132
Raising Cane's Chicken Fingers,Lubbock,#091,#0091 #091 #91 91 #SHV91 #RCO91 #P91 #MRGAZ91 #MRG91 #LC91 #KDR91 #JEGI91 #GA #DBMP91 #DB91 #BWI91 #AZ91 #ARA91,5203 57th St,TX,79414
Raising Cane's Chicken Fingers,Gretna,#092,#0092 #092 #92 92 #SHV92 #RCO92 #P92 #MRGAZ92 #MRG92 #LC92 #KDR92 #JEGI92 #GA #DBMP92 #DB92 #BWI92 #AZ92 #ARA92,"197 Westbank Expressway, Food Court Space #1720",LA,70053
Raising Cane's Chicken Fingers,Cypress,#093,#0093 #093 #93 93 #SHV93 #RCO93 #P93 #MRGAZ93 #MRG93 #LC93 #KDR93 #JEGI93 #GA #DBMP93 #DB93 #BWI93 #AZ93 #ARA93,26302 Northwest Freeway,TX,77429
Raising Cane's Chicken Fingers,Ft. Worth,#094,#0094 #094 #94 94 #SHV94 #RCO94 #P94 #MRGAZ94 #MRG94 #LC94 #KDR94 #JEGI94 #GA #DBMP94 #DB94 #BWI94 #AZ94 #ARA94,1527 S. University Dr,TX,76107
Raising Cane's Chicken Fingers,Arlington,#095,#0095 #095 #95 95 #SHV95 #RCO95 #P95 #MRGAZ95 #MRG95 #LC95 #KDR95 #JEGI95 #GA #DBMP95 #DB95 #BWI95 #AZ95 #ARA95,3765 S. Cooper St.,TX,76015
Raising Cane's Chicken Fingers,Allen,#096,#0096 #096 #96 96 #SHV96 #RCO96 #P96 #MRGAZ96 #MRG96 #LC96 #KDR96 #JEGI96 #GA #DBMP96 #DB96 #BWI96 #AZ96 #ARA96,190 E Stacy Rd Ste 800,TX,75002
Raising Cane's Chicken Fingers,Euless,#097,#0097 #097 #97 97 #SHV97 #RCO97 #P97 #MRGAZ97 #MRG97 #LC97 #KDR97 #JEGI97 #GA #DBMP97 #DB97 #BWI97 #AZ97 #ARA97,2901 State Hwy 121,TX,76039
Raising Cane's Chicken Fingers,Addison,#098,#0098 #098 #98 98 #SHV98 #RCO98 #P98 #MRGAZ98 #MRG98 #LC98 #KDR98 #JEGI98 #GA #DBMP98 #DB98 #BWI98 #AZ98 #ARA98,4100 Beltline Rd,TX,75001
Raising Cane's Chicken Fingers,Houston,#099,#0099 #099 #99 99 #SHV99 #RCO99 #P99 #MRGAZ99 #MRG99 #LC99 #KDR99 #JEGI99 #GA #DBMP99 #DB99 #BWI99 #AZ99 #ARA99,6015 Hwy 6 N,TX,77084
Raising Cane's Chicken Fingers,Houston,#100,#00100 #0100 #100 100 #SHV100 #RCO100 #P100 #MRGAZ100 #MRG100 #LC100 #KDR100 #JEGI100 #GA #DBMP100 #DB100 #BWI100 #AZ100 #ARA100,12345 FM 1960 West,TX,77065
Raising Cane's Chicken Fingers,Rowlett,#101,#00101 #0101 #101 101 #SHV101 #RCO101 #P101 #MRGAZ101 #MRG101 #LC101 #KDR101 #JEGI101 #GA #DBMP101 #DB101 #BWI101 #AZ101 #ARA101,4509 Lakeview Pkwy,TX,75088
Raising Cane's Chicken Fingers,Moore,#102,#00102 #0102 #102 102 #SHV102 #RCO102 #P102 #MRGAZ102 #MRG102 #LC102 #KDR102 #JEGI102 #GA #DBMP102 #DB102 #BWI102 #AZ102 #ARA102,700 SW 19th Street,OK,73160
Raising Cane's Chicken Fingers,Houston,#103,#00103 #0103 #103 103 #SHV103 #RCO103 #P103 #MRGAZ103 #MRG103 #LC103 #KDR103 #JEGI103 #GA #DBMP103 #DB103 #BWI103 #AZ103 #ARA103,3007 Ella Blvd.,TX,77018
Raising Cane's Chicken Fingers,Houston,#104,#00104 #0104 #104 104 #SHV104 #RCO104 #P104 #MRGAZ104 #MRG104 #LC104 #KDR104 #JEGI104 #GA #DBMP104 #DB104 #BWI104 #AZ104 #ARA104,"5015 Westheimer Rd., Food Court Space #1470",TX,77056
Raising Cane's Chicken Fingers,Chalmette,#106,#00106 #0106 #106 106 #SHV106 #RCO106 #P106 #MRGAZ106 #MRG106 #LC106 #KDR106 #JEGI106 #GA #DBMP106 #DB106 #BWI106 #AZ106 #ARA106,8113 West Judge Perez Dr.,LA,70043
Raising Cane's Chicken Fingers,Pasadena,#107,#00107 #0107 #107 107 #SHV107 #RCO107 #P107 #MRGAZ107 #MRG107 #LC107 #KDR107 #JEGI107 #GA #DBMP107 #DB107 #BWI107 #AZ107 #ARA107,5107 Fairmont Parkway,TX,77505
Raising Cane's Chicken Fingers,Beaumont,#108,#00108 #0108 #108 108 #SHV108 #RCO108 #P108 #MRGAZ108 #MRG108 #LC108 #KDR108 #JEGI108 #GA #DBMP108 #DB108 #BWI108 #AZ108 #ARA108,"6155 Eastex Freeway, Food Court Space #656",TX,77706
Raising Cane's Chicken Fingers,College Station,#109,#00109 #0109 #109 109 #SHV109 #RCO109 #P109 #MRGAZ109 #MRG109 #LC109 #KDR109 #JEGI109 #GA #DBMP109 #DB109 #BWI109 #AZ109 #ARA109,1500 Harvey Rd. Suite 4034,TX,77840
Raising Cane's Chicken Fingers,San Antonio,#110,#00110 #0110 #110 110 #SHV110 #RCO110 #P110 #MRGAZ110 #MRG110 #LC110 #KDR110 #JEGI110 #GA #DBMP110 #DB110 #BWI110 #AZ110 #ARA110,19110 Stone Oak Parkway,TX,78258
Raising Cane's Chicken Fingers,Dallas,#111,#00111 #0111 #111 111 #SHV111 #RCO111 #P111 #MRGAZ111 #MRG111 #LC111 #KDR111 #JEGI111 #GA #DBMP111 #DB111 #BWI111 #AZ111 #ARA111,13350 Dallas Parkway Ste 3680,TX,75240
Raising Cane's Chicken Fingers,Schertz,#112,#00112 #0112 #112 112 #SHV112 #RCO112 #P112 #MRGAZ112 #MRG112 #LC112 #KDR112 #JEGI112 #GA #DBMP112 #DB112 #BWI112 #AZ112 #ARA112,6027 FM 3009,TX,78154
Raising Cane's Chicken Fingers,Oklahoma City,#114,#00114 #0114 #114 114 #SHV114 #RCO114 #P114 #MRGAZ114 #MRG114 #LC114 #KDR114 #JEGI114 #GA #DBMP114 #DB114 #BWI114 #AZ114 #ARA114,"2501 W. Memorial Rd., Food Court Space #11",OK,73134
Raising Cane's Chicken Fingers,Cedar Park,#115,#00115 #0115 #115 115 #SHV115 #RCO115 #P115 #MRGAZ115 #MRG115 #LC115 #KDR115 #JEGI115 #GA #DBMP115 #DB115 #BWI115 #AZ115 #ARA115,1456 E. Whitestone Blvd,TX,78613
Raising Cane's Chicken Fingers,Keller,#117,#00117 #0117 #117 117 #SHV117 #RCO117 #P117 #MRGAZ117 #MRG117 #LC117 #KDR117 #JEGI117 #GA #DBMP117 #DB117 #BWI117 #AZ117 #ARA117,961 Keller Parkway,TX,76248
Raising Cane's Chicken Fingers,Omaha,#118,#00118 #0118 #118 118 #SHV118 #RCO118 #P118 #MRGAZ118 #MRG118 #LC118 #KDR118 #JEGI118 #GA #DBMP118 #DB118 #BWI118 #AZ118 #ARA118,7060 Dodge Street,NE,68132
Raising Cane's Chicken Fingers,Edmond,#120,#00120 #0120 #120 120 #SHV120 #RCO120 #P120 #MRGAZ120 #MRG120 #LC120 #KDR120 #JEGI120 #GA #DBMP120 #DB120 #BWI120 #AZ120 #ARA120,1225 East 2nd St,OK,73034
Raising Cane's Chicken Fingers,Oklahoma City,#121,#00121 #0121 #121 121 #SHV121 #RCO121 #P121 #MRGAZ121 #MRG121 #LC121 #KDR121 #JEGI121 #GA #DBMP121 #DB121 #BWI121 #AZ121 #ARA121,14100 N. Pennsylvania Ave.,OK,73134
Raising Cane's Chicken Fingers,San Antonio (Bandera Rd.)/Leon Valley,#122,#00122 #0122 #122 122 #SHV122 #RCO122 #P122 #MRGAZ122 #MRG122 #LC122 #KDR122 #JEGI122 #GA #DBMP122 #DB122 #BWI122 #AZ122 #ARA122,7020 Bandera Road,TX,78238
Raising Cane's Chicken Fingers,McKinney,#123,#00123 #0123 #123 123 #SHV123 #RCO123 #P123 #MRGAZ123 #MRG123 #LC123 #KDR123 #JEGI123 #GA #DBMP123 #DB123 #BWI123 #AZ123 #ARA123,1902 N Central Expressway,TX,75069
Raising Cane's Chicken Fingers,Tulsa,#124,#00124 #0124 #124 124 #SHV124 #RCO124 #P124 #MRGAZ124 #MRG124 #LC124 #KDR124 #JEGI124 #GA #DBMP124 #DB124 #BWI124 #AZ124 #ARA124,"7021 S Memorial Dr, Food Court Space #0258",OK,74133
Raising Cane's Chicken Fingers,Missouri City,#126,#00126 #0126 #126 126 #SHV126 #RCO126 #P126 #MRGAZ126 #MRG126 #LC126 #KDR126 #JEGI126 #GA #DBMP126 #DB126 #BWI126 #AZ126 #ARA126,3833 FM 1092 Rd,TX,77459
Raising Cane's Chicken Fingers,Biloxi,#127,#00127 #0127 #127 127 #SHV127 #RCO127 #P127 #MRGAZ127 #MRG127 #LC127 #KDR127 #JEGI127 #GA #DBMP127 #DB127 #BWI127 #AZ127 #ARA127,2590 Beach Blvd,MS,39531
Raising Cane's Chicken Fingers,Tulsa,#130,#00130 #0130 #130 130 #SHV130 #RCO130 #P130 #MRGAZ130 #MRG130 #LC130 #KDR130 #JEGI130 #GA #DBMP130 #DB130 #BWI130 #AZ130 #ARA130,4810 S Yale Ave,OK,74135
Raising Cane's Chicken Fingers,Omaha,#134,#00134 #0134 #134 134 #SHV134 #RCO134 #P134 #MRGAZ134 #MRG134 #LC134 #KDR134 #JEGI134 #GA #DBMP134 #DB134 #BWI134 #AZ134 #ARA134,"10000 California Street, Food Court Space #9",NE,68114
Raising Cane's Chicken Fingers,Chesterfield,#137,#00137 #0137 #137 137 #SHV137 #RCO137 #P137 #MRGAZ137 #MRG137 #LC137 #KDR137 #JEGI137 #GA #DBMP137 #DB137 #BWI137 #AZ137 #ARA137,"291 Chesterfield Mall, Food Court Space #3",MO,63017
Raising Cane's Chicken Fingers,St. Peters,#138,#00138 #0138 #138 138 #SHV138 #RCO138 #P138 #MRGAZ138 #MRG138 #LC138 #KDR138 #JEGI138 #GA #DBMP138 #DB138 #BWI138 #AZ138 #ARA138,"1600 Mid Rivers Mall Dr, Food Court Space #1200",MO,63376
Raising Cane's Chicken Fingers,St. Louis,#139,#00139 #0139 #139 139 #SHV139 #RCO139 #P139 #MRGAZ139 #MRG139 #LC139 #KDR139 #JEGI139 #GA #DBMP139 #DB139 #BWI139 #AZ139 #ARA139,"1155 Saint Louis Galleria, Food Court Space #01",MO,63117
Raising Cane's Chicken Fingers,Boston,#ARA1,#001 #01 #1 1 #SHV1 #RCO1 #P1 #MRGAZ1 #MRG1 #LC1 #KDR1 #JEGI1 #GA #DBMP1 #DB1 #BWI1 #AZ1 #ARA1,949 Commonwealth Ave,MA,2215
Raising Cane's Chicken Fingers,Norfolk,#ARA2,#002 #02 #2 2 #SHV2 #RCO2 #P2 #MRGAZ2 #MRG2 #LC2 #KDR2 #JEGI2 #GA #DBMP2 #DB2 #BWI2 #AZ2 #ARA2,4100 Monarch Way Ste. F,VA,23508
Raising Cane's Chicken Fingers,Richmond,#ARA3,#003 #03 #3 3 #SHV3 #RCO3 #P3 #MRGAZ3 #MRG3 #LC3 #KDR3 #JEGI3 #GA #DBMP3 #DB3 #BWI3 #AZ3 #ARA3,805 West Grace Street,VA,23220
Raising Cane's Chicken Fingers,West Long Branch,#ARA4,#004 #04 #4 4 #SHV4 #RCO4 #P4 #MRGAZ4 #MRG4 #LC4 #KDR4 #JEGI4 #GA #DBMP4 #DB4 #BWI4 #AZ4 #ARA4,400 Cedar Avenue,NJ,7764
Raising Cane's Chicken Fingers,Tempe,#AZ3,#003 #03 #3 3 #SHV3 #RCO3 #P3 #MRGAZ3 #MRG3 #LC3 #KDR3 #JEGI3 #GA #DBMP3 #DB3 #BWI3 #AZ3 #ARA3,960 East University Drive,AZ,85281
Raising Cane's Chicken Fingers,San Antonio,#BWI1,#001 #01 #1 1 #SHV1 #RCO1 #P1 #MRGAZ1 #MRG1 #LC1 #KDR1 #JEGI1 #GA #DBMP1 #DB1 #BWI1 #AZ1 #ARA1,9800 Airport Blvd - T1 - Ste 170,TX,78216
Raising Cane's Chicken Fingers,Lexington,#DB1,#001 #01 #1 1 #SHV1 #RCO1 #P1 #MRGAZ1 #MRG1 #LC1 #KDR1 #JEGI1 #GA #DBMP1 #DB1 #BWI1 #AZ1 #ARA1,2201 War Admiral Way,KY,40509
Raising Cane's Chicken Fingers,Lexington,#DB2,#002 #02 #2 2 #SHV2 #RCO2 #P2 #MRGAZ2 #MRG2 #LC2 #KDR2 #JEGI2 #GA #DBMP2 #DB2 #BWI2 #AZ2 #ARA2,544 S. Upper St,KY,40508
Raising Cane's Chicken Fingers,Lexington,#DB4,#004 #04 #4 4 #SHV4 #RCO4 #P4 #MRGAZ4 #MRG4 #LC4 #KDR4 #JEGI4 #GA #DBMP4 #DB4 #BWI4 #AZ4 #ARA4,2555 Nicholasville Road,KY,40503
Raising Cane's Chicken Fingers,Nicholasville,#DB6,#006 #06 #6 6 #SHV6 #RCO6 #P6 #MRGAZ6 #MRG6 #LC6 #KDR6 #JEGI6 #GA #DBMP6 #DB6 #BWI6 #AZ6 #ARA6,551 Keene Centre Drive,KY,40356
Raising Cane's Chicken Fingers,Louisville,#DB7,#007 #07 #7 7 #SHV7 #RCO7 #P7 #MRGAZ7 #MRG7 #LC7 #KDR7 #JEGI7 #GA #DBMP7 #DB7 #BWI7 #AZ7 #ARA7,10490 Westport Road,KY,40241
Raising Cane's Chicken Fingers,Mount Pleasant,#DBMP1,#001 #01 #1 1 #SHV1 #RCO1 #P1 #MRGAZ1 #MRG1 #LC1 #KDR1 #JEGI1 #GA #DBMP1 #DB1 #BWI1 #AZ1 #ARA1,1777 Hwy 17 North,SC,29464
Raising Cane's Chicken Fingers,North Charleston,#DBMP2,#002 #02 #2 2 #SHV2 #RCO2 #P2 #MRGAZ2 #MRG2 #LC2 #KDR2 #JEGI2 #GA #DBMP2 #DB2 #BWI2 #AZ2 #ARA2,7225 Rivers Ave.,SC,29406
Raising Cane's Chicken Fingers,Athens,#GA3,#003 #03 #3 3 #SHV3 #RCO3 #P3 #MRGAZ3 #MRG3 #LC3 #KDR3 #JEGI3 #GA #DBMP3 #DB3 #BWI3 #AZ3 #ARA3,795 Baxter St,GA,30605
Raising Cane's Chicken Fingers,Shenandoah,#JEGI1,#001 #01 #1 1 #SHV1 #RCO1 #P1 #MRGAZ1 #MRG1 #LC1 #KDR1 #JEGI1 #GA #DBMP1 #DB1 #BWI1 #AZ1 #ARA1,1501 Research Forest Dr,TX,77380
Raising Cane's Chicken Fingers,Norman,#KDR1,#001 #01 #1 1 #SHV1 #RCO1 #P1 #MRGAZ1 #MRG1 #LC1 #KDR1 #JEGI1 #GA #DBMP1 #DB1 #BWI1 #AZ1 #ARA1,1130 Alameda St,OK,73071
Raising Cane's Chicken Fingers,Norman,#KDR2,#002 #02 #2 2 #SHV2 #RCO2 #P2 #MRGAZ2 #MRG2 #LC2 #KDR2 #JEGI2 #GA #DBMP2 #DB2 #BWI2 #AZ2 #ARA2,340 West 1st Street,OK,73072
Raising Cane's Chicken Fingers,Apple Valley,#LC1,#001 #01 #1 1 #SHV1 #RCO1 #P1 #MRGAZ1 #MRG1 #LC1 #KDR1 #JEGI1 #GA #DBMP1 #DB1 #BWI1 #AZ1 #ARA1,7501 150th St. West,MN,55124
Raising Cane's Chicken Fingers,Minneapolis,#LC2,#002 #02 #2 2 #SHV2 #RCO2 #P2 #MRGAZ2 #MRG2 #LC2 #KDR2 #JEGI2 #GA #DBMP2 #DB2 #BWI2 #AZ2 #ARA2,825 Washington Av SE #104,MN,55455
Raising Cane's Chicken Fingers,Las Vegas,#MRG1,#001 #01 #1 1 #SHV1 #RCO1 #P1 #MRGAZ1 #MRG1 #LC1 #KDR1 #JEGI1 #GA #DBMP1 #DB1 #BWI1 #AZ1 #ARA1,4655 W. Charleston Blvd,NV,89102
Raising Cane's Chicken Fingers,Las Vegas,#MRG2,#002 #02 #2 2 #SHV2 #RCO2 #P2 #MRGAZ2 #MRG2 #LC2 #KDR2 #JEGI2 #GA #DBMP2 #DB2 #BWI2 #AZ2 #ARA2,7550 S. Las Vegas Blvd,NV,89123
Raising Cane's Chicken Fingers,Las Vegas,#MRG3,#003 #03 #3 3 #SHV3 #RCO3 #P3 #MRGAZ3 #MRG3 #LC3 #KDR3 #JEGI3 #GA #DBMP3 #DB3 #BWI3 #AZ3 #ARA3,1120 E. Flamingo Rd,NV,89119
Raising Cane's Chicken Fingers,Las Vegas,#MRG4,#004 #04 #4 4 #SHV4 #RCO4 #P4 #MRGAZ4 #MRG4 #LC4 #KDR4 #JEGI4 #GA #DBMP4 #DB4 #BWI4 #AZ4 #ARA4,5660 Centennial Center Blvd,NV,89149
Raising Cane's Chicken Fingers,Las Vegas,#MRG5,#005 #05 #5 5 #SHV5 #RCO5 #P5 #MRGAZ5 #MRG5 #LC5 #KDR5 #JEGI5 #GA #DBMP5 #DB5 #BWI5 #AZ5 #ARA5,7135 South Rainbow,NV,89113
Raising Cane's Chicken Fingers,Phoenix,#MRGAZ1,#001 #01 #1 1 #SHV1 #RCO1 #P1 #MRGAZ1 #MRG1 #LC1 #KDR1 #JEGI1 #GA #DBMP1 #DB1 #BWI1 #AZ1 #ARA1,2715 West Peoria Ave,AZ,85018
Raising Cane's Chicken Fingers,Phoenix,#MRGAZ2,#002 #02 #2 2 #SHV2 #RCO2 #P2 #MRGAZ2 #MRG2 #LC2 #KDR2 #JEGI2 #GA #DBMP2 #DB2 #BWI2 #AZ2 #ARA2,4325 East Thomas,AZ,85018
Raising Cane's Chicken Fingers,Fort Collins,#P1,#001 #01 #1 1 #SHV1 #RCO1 #P1 #MRGAZ1 #MRG1 #LC1 #KDR1 #JEGI1 #GA #DBMP1 #DB1 #BWI1 #AZ1 #ARA1,2108 S College Ave,CO,80525
Raising Cane's Chicken Fingers,Charlottesville,#P4,#004 #04 #4 4 #SHV4 #RCO4 #P4 #MRGAZ4 #MRG4 #LC4 #KDR4 #JEGI4 #GA #DBMP4 #DB4 #BWI4 #AZ4 #ARA4,1805 N. Emmet St,VA,22901
Raising Cane's Chicken Fingers,Sugar Land,#P5,#005 #05 #5 5 #SHV5 #RCO5 #P5 #MRGAZ5 #MRG5 #LC5 #KDR5 #JEGI5 #GA #DBMP5 #DB5 #BWI5 #AZ5 #ARA5,1529 S. Highway 6,TX,77478
Raising Cane's Chicken Fingers,Columbus,#RCO1,#001 #01 #1 1 #SHV1 #RCO1 #P1 #MRGAZ1 #MRG1 #LC1 #KDR1 #JEGI1 #GA #DBMP1 #DB1 #BWI1 #AZ1 #ARA1,1816 North High St,OH,43201
Raising Cane's Chicken Fingers,Lancaster,#RCO10,#0010 #010 #10 10 #SHV10 #RCO10 #P10 #MRGAZ10 #MRG10 #LC10 #KDR10 #JEGI10 #GA #DBMP10 #DB10 #BWI10 #AZ10 #ARA10,1934 N Memorial Dr,OH,43130
Raising Cane's Chicken Fingers,Powell,#RCO11,#0011 #011 #11 11 #SHV11 #RCO11 #P11 #MRGAZ11 #MRG11 #LC11 #KDR11 #JEGI11 #GA #DBMP11 #DB11 #BWI11 #AZ11 #ARA11,9581 Sawmill Pkwy,OH,43065
Raising Cane's Chicken Fingers,Columbus,#RCO2,#002 #02 #2 2 #SHV2 #RCO2 #P2 #MRGAZ2 #MRG2 #LC2 #KDR2 #JEGI2 #GA #DBMP2 #DB2 #BWI2 #AZ2 #ARA2,2823 Olentangy River Rd,OH,43202
Raising Cane's Chicken Fingers,Columbus,#RCO3,#003 #03 #3 3 #SHV3 #RCO3 #P3 #MRGAZ3 #MRG3 #LC3 #KDR3 #JEGI3 #GA #DBMP3 #DB3 #BWI3 #AZ3 #ARA3,1320 Hamilton Rd,OH,43240
Raising Cane's Chicken Fingers,Columbus,#RCO4,#004 #04 #4 4 #SHV4 #RCO4 #P4 #MRGAZ4 #MRG4 #LC4 #KDR4 #JEGI4 #GA #DBMP4 #DB4 #BWI4 #AZ4 #ARA4,2085 Polaris Parkway,OH,43240
Raising Cane's Chicken Fingers,Grove City,#RCO5,#005 #05 #5 5 #SHV5 #RCO5 #P5 #MRGAZ5 #MRG5 #LC5 #KDR5 #JEGI5 #GA #DBMP5 #DB5 #BWI5 #AZ5 #ARA5,1944 Stringtown Rd,OH,43123
Raising Cane's Chicken Fingers,Hilliard,#RCO6,#006 #06 #6 6 #SHV6 #RCO6 #P6 #MRGAZ6 #MRG6 #LC6 #KDR6 #JEGI6 #GA #DBMP6 #DB6 #BWI6 #AZ6 #ARA6,2550 Hilliard-Rome Rd,OH,43026
Raising Cane's Chicken Fingers,Pickerington,#RCO7,#007 #07 #7 7 #SHV7 #RCO7 #P7 #MRGAZ7 #MRG7 #LC7 #KDR7 #JEGI7 #GA #DBMP7 #DB7 #BWI7 #AZ7 #ARA7,1263 Hill Road North,OH,43147
Raising Cane's Chicken Fingers,Columbus,#RCO8,#008 #08 #8 8 #SHV8 #RCO8 #P8 #MRGAZ8 #MRG8 #LC8 #KDR8 #JEGI8 #GA #DBMP8 #DB8 #BWI8 #AZ8 #ARA8,6410 Sawmill Road,OH,43235
Raising Cane's Chicken Fingers,Columbus,#RCO9,#009 #09 #9 9 #SHV9 #RCO9 #P9 #MRGAZ9 #MRG9 #LC9 #KDR9 #JEGI9 #GA #DBMP9 #DB9 #BWI9 #AZ9 #ARA9,6511 E Broad St,OH,43213
Raising Cane's Chicken Fingers,Lincoln,#SHV1,#001 #01 #1 1 #SHV1 #RCO1 #P1 #MRGAZ1 #MRG1 #LC1 #KDR1 #JEGI1 #GA #DBMP1 #DB1 #BWI1 #AZ1 #ARA1,403 N. 48th St,NE,68504
Raising Cane's Chicken Fingers,Lincoln,#SHV2,#002 #02 #2 2 #SHV2 #RCO2 #P2 #MRGAZ2 #MRG2 #LC2 #KDR2 #JEGI2 #GA #DBMP2 #DB2 #BWI2 #AZ2 #ARA2,201 N. 14th St,NE,68508
