keywords,city,Aggdata Store Number,store_number,address,state,zip_code
Red Robin Gourmet Burgers,Seattle,6178,178 #178 0178 6178,401 NE Northgate Way,WA,98125
Red Robin Gourmet Burgers,Colorado Springs,6179,179 #179 0179 6179,2230 Southgate Rd.,CO,80906
Red Robin Gourmet Burgers,Lynnwood,6180,180 #180 0180 6180,18410 33rd Avenue W.,WA,98036
Red Robin Gourmet Burgers,Redmond,6181,181 #181 0181 6181,2390 148th Ave. N.E.,WA,98052
Red Robin Gourmet Burgers,Broomfield,6182,182 #182 0182 6182,1 West FlatIron Circle,CO,80021
Red Robin Gourmet Burgers,Santa Ana,6183,183 #183 0183 6183,1307 W. Sunflower,CA,92704
Red Robin Gourmet Burgers,Dulles,6184,184 #184 0184 6184,21045 Dulles Town Circle,VA,20166
Red Robin Gourmet Burgers,Redondo Beach,6185,185 #185 0185 6185,1815 Hawthorne Blvd.,CA,90278
Red Robin Gourmet Burgers,Wenatchee,6186,186 #186 0186 6186,1306 N. Miller Avenue,WA,98801
Red Robin Gourmet Burgers,Annapolis,6187,187 #187 0187 6187,1073 Annapolis Mall,MD,21401
Red Robin Gourmet Burgers,Gaithersburg,6188,188 #188 0188 6188,701 Russell Avenue #F241,MD,20877
Red Robin Gourmet Burgers,Escondido,6190,190 #190 0190 6190,200 E. Via Rancho Pkwy,CA,92025
Red Robin Gourmet Burgers,San Diego,6191,191 #191 0191 6191,4373 La Jolla Village Drive,CA,92122
Red Robin Gourmet Burgers,Cerritos,6192,192 #192 0192 6192,360 Los Cerritos Mall,CA,90701
Red Robin Gourmet Burgers,Beaverton,6193,193 #193 0193 6193,"4105 SW 117th, Ste. F",OR,97005
Red Robin Gourmet Burgers,Clackamas,6194,194 #194 0194 6194,12530 SE 93rd Street,OR,97015
Red Robin Gourmet Burgers,Everett,6195,195 #195 0195 6195,1305 SE Everett Mall Way,WA,98208
Red Robin Gourmet Burgers,Orange,6196,196 #196 0196 6196,2199 N. Orange Mall,CA,92865
Red Robin Gourmet Burgers,San Dimas,6197,197 #197 0197 6197,565 W. Arrow Highway,CA,91773
Red Robin Gourmet Burgers,Brea,6198,198 #198 0198 6198,1080 Brea Mall,CA,92821
Red Robin Gourmet Burgers,Parker,6199,199 #199 0199 6199,9130 Crown Crest Blvd.,CO,80138
Red Robin Gourmet Burgers,Roseville,6200,200 #200 0200 6200,1184 Galleria Blvd.,CA,95678
Red Robin Gourmet Burgers,Salem,6201,201 #201 0201 6201,3760 Center Street NE,OR,97301
Red Robin Gourmet Burgers,Eugene,6203,203 #203 0203 6203,1221 Executive Pkwy.,OR,97401
Red Robin Gourmet Burgers,La Habra,6204,204 #204 0204 6204,1631 W. Imperial Hwy.,CA,90633
Red Robin Gourmet Burgers,Colorado Springs,6206,206 #206 0206 6206,3770 Bloomington Street,CO,80922
Red Robin Gourmet Burgers,Prescott,6209,209 #209 0209 6209,3055 Gateway Blvd,AZ,86303
Red Robin Gourmet Burgers,Longmont,6210,210 #210 0210 6210,2331 Clover Basin Drive,CO,80501
Red Robin Gourmet Burgers,Irvine,6211,211 #211 0211 6211,83 Fortune Drive,CA,92618
Red Robin Gourmet Burgers,Redding,6212,212 #212 0212 6212,1035 Dana Drive,CA,96003
Red Robin Gourmet Burgers,Victorville,6213,213 #213 0213 6213,14400 Bear Valley Rd. #405,CA,92392
Red Robin Gourmet Burgers,Spokane,6214,214 #214 0214 6214,9904 N. Newport Hwy.,WA,99218
Red Robin Gourmet Burgers,St. Peters,6215,215 #215 0215 6215,317 Mid Rivers Mall Drive,MO,63376
Red Robin Gourmet Burgers,Columbia,6216,216 #216 0216 6216,8640 Snowden River Pkwy,MD,21045
Red Robin Gourmet Burgers,Portland,6217,217 #217 0217 6217,10100 SW Washington Square Rd.,OR,97223
Red Robin Gourmet Burgers,Yuba City,6218,218 #218 0218 6218,1208 Colusa Avenue,CA,95991
Red Robin Gourmet Burgers,Peoria,6219,219 #219 0219 6219,16233 N. 83rd Avenue,AZ,85382
Red Robin Gourmet Burgers,Hillsboro,6220,220 #220 0220 6220,2405 SE Tualatin Hwy.,OR,97123
Red Robin Gourmet Burgers,Folsom,6221,221 #221 0221 6221,360 Palladio Parkway; #401,CA,95630
Red Robin Gourmet Burgers,Bellevue,6222,222 #222 0222 6222,408 Bellevue Square,WA,98004
Red Robin Gourmet Burgers,Chandler,6223,223 #223 0223 6223,3420 W. Chandler Blvd.,AZ,85226
Red Robin Gourmet Burgers,Hillsboro,6225,225 #225 0225 6225,2660 NW 188th Avenue,OR,97124
Red Robin Gourmet Burgers,Omaha,6226,226 #226 0226 6226,14455 W. Maple Road,NE,68116
Red Robin Gourmet Burgers,Corona,6227,227 #227 0227 6227,419 N. McKinley St.,CA,92879
Red Robin Gourmet Burgers,Citrus Heights,6228,228 #228 0228 6228,"7990 Greenback Ln., Unit J",CA,95610
Red Robin Gourmet Burgers,Omaha,6229,229 #229 0229 6229,2627 S. 180th Street,NE,68130
Red Robin Gourmet Burgers,Portland,6230,230 #230 0230 6230,1139 NE Grand Avenue,OR,97232
Red Robin Gourmet Burgers,Chino,6231,231 #231 0231 6231,3903 Grand Avenue,CA,91710
Red Robin Gourmet Burgers,Las Vegas,6232,232 #232 0232 6232,7860 W. Tropical Parkway,NV,89149
Red Robin Gourmet Burgers,Tulsa,6233,233 #233 0233 6233,9810 Riverside Drive,OK,74137
Red Robin Gourmet Burgers,Castle Rock,6234,234 #234 0234 6234,46 E. Allen Street,CO,80108
Red Robin Gourmet Burgers,Milford,6235,235 #235 0235 6235,45 Rivers Edge Drive,OH,45150
Red Robin Gourmet Burgers,Avon,6236,236 #236 0236 6236,35858 Detroit Road,OH,44011
Red Robin Gourmet Burgers,Richmond,6237,237 #237 0237 6237,11784 W. Broad Street,VA,23233
Red Robin Gourmet Burgers,Seattle,6238,238 #238 0238 6238,1101 Alaskan Way,WA,98101
Red Robin Gourmet Burgers,Santa Clara,6239,239 #239 0239 6239,3906 Rivermark Plaza,CA,95054
Red Robin Gourmet Burgers,Fairfax,6240,240 #240 0240 6240,13056 Fairlakes Shop. Ctr.,VA,22033
Red Robin Gourmet Burgers,North Olmsted,6241,241 #241 0241 6241,4949 Great Northern Blvd.,OH,44070
Red Robin Gourmet Burgers,Langhorne,6242,242 #242 0242 6242,610 Middletown Blvd.,PA,19047
Red Robin Gourmet Burgers,Issaquah,6243,243 #243 0243 6243,1085 Lake Drive,WA,98027
Red Robin Gourmet Burgers,Grapevine,6244,244 #244 0244 6244,1701 William D. Tate Ave.,TX,76051
Red Robin Gourmet Burgers,Scottsdale,6245,245 #245 0245 6245,8970 E. Shea Blvd.,AZ,85260
Red Robin Gourmet Burgers,Woodbridge,6246,246 #246 0246 6246,14090 Worth Avenue,VA,22192
Red Robin Gourmet Burgers,Lincoln,6247,247 #247 0247 6247,2707 Pine Lake Rd.,NE,68516
Red Robin Gourmet Burgers,Grand Junction,6248,248 #248 0248 6248,2530 Rimrock Avenue,CO,81505
Red Robin Gourmet Burgers,Waldorf,6249,249 #249 0249 6249,3072 Waldorf Market Place,MD,20603
Red Robin Gourmet Burgers,West Chester,6250,250 #250 0250 6250,9434 Civic Center Blvd.,OH,45069
Red Robin Gourmet Burgers,Phoenix,6251,251 #251 0251 6251,7000 E. Mayo Blvd.,AZ,85054
Red Robin Gourmet Burgers,Broken Arrow,6252,252 #252 0252 6252,4801 W. Kenosha St.,OK,74012
Red Robin Gourmet Burgers,Wilmington,6253,253 #253 0253 6253,905 International Drive,NC,28405
Red Robin Gourmet Burgers,Avondale,6254,254 #254 0254 6254,10240 W. McDowell Road,AZ,85323
Red Robin Gourmet Burgers,Woodinville,6255,255 #255 0255 6255,18029 Garden Way NE,WA,98072
Red Robin Gourmet Burgers,Redmond,6256,256 #256 0256 6256,7597 170th Ave. NE,WA,98052
Red Robin Gourmet Burgers,Spokane,6257,257 #257 0257 6257,14736 E. Indiana Ave.,WA,99216
Red Robin Gourmet Burgers,Wilsonville,6258,258 #258 0258 6258,8403 Main St.,OR,97070
Red Robin Gourmet Burgers,Owings Mills,6259,259 #259 0259 6259,4 Restaurant Park Dr.,MD,21117
Red Robin Gourmet Burgers,Portland,6260,260 #260 0260 6260,9880 SE Washington Street,OR,97216
Red Robin Gourmet Burgers,Garden Grove,6261,261 #261 0261 6261,12007 Harbor Blvd.,CA,92840
Red Robin Gourmet Burgers,Bellevue,6262,262 #262 0262 6262,3909 Factoria Blvd. SE,WA,98006
Red Robin Gourmet Burgers,Spokane,6264,264 #264 0264 6264,725 W. Main Ave.,WA,99201
Red Robin Gourmet Burgers,Henderson,6265,265 #265 0265 6265,"1300 W. Sunset Rd., #2545",NV,89014
Red Robin Gourmet Burgers,Glen Allen,6266,266 #266 0266 6266,10067 Brook Rd.,VA,23059
Red Robin Gourmet Burgers,Germantown,6267,267 #267 0267 6267,20001 Century Blvd.,MD,20874
Red Robin Gourmet Burgers,Charlottesville,6268,268 #268 0268 6268,1535 E. Rio Rd.,VA,22901
Red Robin Gourmet Burgers,Temecula,6269,269 #269 0269 6269,40820 Winchester Rd. #1070,CA,92591
Red Robin Gourmet Burgers,West Covina,6270,270 #270 0270 6270,428 Plaza Dr.,CA,91790
Red Robin Gourmet Burgers,Tacoma,6271,271 #271 0271 6271,3901 S. Steele St.,WA,98409
Red Robin Gourmet Burgers,Vancouver,6272,272 #272 0272 6272,8311 NE Vancouver Mall Rd.,WA,98662
Red Robin Gourmet Burgers,Federal Way,6273,273 #273 0273 6273,2233 S. 320th Street,WA,98003
Red Robin Gourmet Burgers,Silverdale,6274,274 #274 0274 6274,"10455 Silverdale Way, NW",WA,98383
Red Robin Gourmet Burgers,Olympia,6275,275 #275 0275 6275,"600 Cooper Point Rd., SW",WA,98502
Red Robin Gourmet Burgers,Kent,6276,276 #276 0276 6276,25207 104th Ave. SE,WA,98031
Red Robin Gourmet Burgers,Puyallup,6277,277 #277 0277 6277,3609 9th Street SW,WA,98371
Red Robin Gourmet Burgers,Des Moines,6278,278 #278 0278 6278,22705 Marine View Drive,WA,98198
Red Robin Gourmet Burgers,Vancouver,6279,279 #279 0279 6279,801 SE 160th Avenue,WA,98683
Red Robin Gourmet Burgers,Bellingham,6280,280 #280 0280 6280,"100 W. Telegraph, Bellis Fair Mall",WA,98226
Red Robin Gourmet Burgers,Burlington,6281,281 #281 0281 6281,1075 Burlington Blvd.,WA,98233
Red Robin Gourmet Burgers,Enfield,6282,282 #282 0282 6282,15 Hazard Avenue,CT,6082
Red Robin Gourmet Burgers,Manchester,6283,283 #283 0283 6283,360 Buckland Hills Drive,CT,6040
Red Robin Gourmet Burgers,Millbury,6284,284 #284 0284 6284,"70 Worcester Providence Turnpike, Suite 500",MA,1527
Red Robin Gourmet Burgers,Medford,6285,285 #285 0285 6285,499 Medford Center,OR,97504
Red Robin Gourmet Burgers,Bend,6286,286 #286 0286 6286,625 SW Powerhouse Drive,OR,97702
Red Robin Gourmet Burgers,Albany,6287,287 #287 0287 6287,"1845 14th Avenue SE, Heritage Mall",OR,97321
Red Robin Gourmet Burgers,Newark,6288,288 #288 0288 6288,1031 New Park Mall,CA,94560
Red Robin Gourmet Burgers,Concord,6289,289 #289 0289 6289,404-A Sun Valley Mall,CA,94520
Red Robin Gourmet Burgers,San Bruno,6290,290 #290 0290 6290,1274 El Camino Real,CA,94066
Red Robin Gourmet Burgers,San Jose,6291,291 #291 0291 6291,"2200 Eastridge Loop, Suite 2073",CA,95122
Red Robin Gourmet Burgers,Pleasanton,6292,292 #292 0292 6292,4503 Rosewood Drive,CA,94588
Red Robin Gourmet Burgers,San Mateo,6293,293 #293 0293 6293,2204 Bridgepointe Parkway,CA,94404
Red Robin Gourmet Burgers,Elk Grove,6294,294 #294 0294 6294,8245 Laguna Blvd.,CA,95624
Red Robin Gourmet Burgers,Beavercreek,6295,295 #295 0295 6295,2671 Fairfield Commons,OH,45431
Red Robin Gourmet Burgers,Orange Village,6296,296 #296 0296 6296,4009 Orange Place,OH,44122
Red Robin Gourmet Burgers,Tukwila,6297,297 #297 0297 6297,17300 Southcenter Pkwy.,WA,98188
Red Robin Gourmet Burgers,Boise,6298,298 #298 0298 6298,211 W. Parkcenter Blvd.,ID,83706
Red Robin Gourmet Burgers,Lakewood,6299,299 #299 0299 6299,3333 S. Wadsworth #B,CO,80227
Red Robin Gourmet Burgers,Arvada,6300,300 #300 0300 6300,7460 W. 52nd Ave.,CO,80002
Red Robin Gourmet Burgers,Greenwood Village,6302,302 #302 0302 6302,8585 E. Arapahoe Road,CO,80111
Red Robin Gourmet Burgers,Colorado Springs,6303,303 #303 0303 6303,1410 Jamboree Dr.,CO,80920
Red Robin Gourmet Burgers,Aurora,6304,304 #304 0304 6304,1491 S. Havana,CO,80012
Red Robin Gourmet Burgers,Fort Collins,6305,305 #305 0305 6305,701 E. Harmony Rd.,CO,80525
Red Robin Gourmet Burgers,Littleton,6306,306 #306 0306 6306,7708 W. Long Dr.,CO,80123
Red Robin Gourmet Burgers,Highlands Ranch,6307,307 #307 0307 6307,63 W. Centennial Blvd.,CO,80126
Red Robin Gourmet Burgers,Lone Tree,6308,308 #308 0308 6308,8355 Park Meadows Center Dr.,CO,80124
Red Robin Gourmet Burgers,Auburn,6309,309 #309 0309 6309,1002 Outlet Collection Way,WA,98001
Red Robin Gourmet Burgers,Dubuque,6310,310 #310 0310 6310,2775 Northwest Arterial,IA,52002
Red Robin Gourmet Burgers,Washington,6311,311 #311 0311 6311,20 Trinity Place,PA,15301
Red Robin Gourmet Burgers,Independence,6312,312 #312 0312 6312,6750 Rockside Road,OH,44131
Red Robin Gourmet Burgers,Greeley,6314,314 #314 0314 6314,4514 Centerplace Drive,CO,80634
Red Robin Gourmet Burgers,Boise,6315,315 #315 0315 6315,267 N. Milwaukee,ID,83704
Red Robin Gourmet Burgers,Nampa,6316,316 #316 0316 6316,2222 Cassia St.,ID,83651
Red Robin Gourmet Burgers,Albuquerque,6317,317 #317 0317 6317,10009 Coors Blvd. NW,NM,87114
Red Robin Gourmet Burgers,Schaumburg,6318,318 #318 0318 6318,120J Woodfield Mall,IL,60173
Red Robin Gourmet Burgers,Albuquerque,6319,319 #319 0319 6319,"5531 Office Blvd., NE",NM,87109
Red Robin Gourmet Burgers,Warrenville,6320,320 #320 0320 6320,28260 Diehl Road,IL,60555
Red Robin Gourmet Burgers,Yakima,6322,322 #322 0322 6322,2706 W. Nob Hill Road,WA,98902
Red Robin Gourmet Burgers,Kennewick,6323,323 #323 0323 6323,1021 N. Columbia Center Blvd.,WA,99336
Red Robin Gourmet Burgers,Billings,6324,324 #324 0324 6324,"1595 Grand Ave, Suite 210",MT,59102
Red Robin Gourmet Burgers,Hilliard,6325,325 #325 0325 6325,1865 Hilliard-Rome Road,OH,43026
Red Robin Gourmet Burgers,Calabasas,6326,326 #326 0326 6326,24005 Calabasas Road,CA,91302
Red Robin Gourmet Burgers,Canoga Park,6329,329 #329 0329 6329,"6600 Topanga Canyon, #49H",CA,91303
Red Robin Gourmet Burgers,Clovis,6330,330 #330 0330 6330,950 Shaw Ave.,CA,93612
Red Robin Gourmet Burgers,Palmdale,6332,332 #332 0332 6332,"1233 West Ave. P, Ste. 301",CA,93551
Red Robin Gourmet Burgers,Glendale,6333,333 #333 0333 6333,1187 Glendale Galleria,CA,91210
Red Robin Gourmet Burgers,La Quinta,6334,334 #334 0334 6334,78-722 Highway 111,CA,92253
Red Robin Gourmet Burgers,Bakersfield,6335,335 #335 0335 6335,2701 Ming Ave. #G15,CA,93304
Red Robin Gourmet Burgers,Visalia,6336,336 #336 0336 6336,"2015 S. Mooney Blvd., #505",CA,93277
Red Robin Gourmet Burgers,Valencia,6337,337 #337 0337 6337,"24201 Valencia Blvd., #1351",CA,91355
Red Robin Gourmet Burgers,Santa Maria,6338,338 #338 0338 6338,101 Town Center East,CA,93454
Red Robin Gourmet Burgers,Ventura,6339,339 #339 0339 6339,3301 E. Main Street #1511,CA,93003
Red Robin Gourmet Burgers,Fresno,6340,340 #340 0340 6340,7675 N. Blackstone Avenue,CA,93711
Red Robin Gourmet Burgers,Anchorage,6341,341 #341 0341 6341,"1190 N Muldoon Rd, Unit E",AK,99504
Red Robin Gourmet Burgers,Anchorage,6342,342 #342 0342 6342,401 E. Dimond Blvd.,AK,99515
Red Robin Gourmet Burgers,Rancho Mirage,6343,343 #343 0343 6343,72-797 Dinah Shore Drive,CA,92270
Red Robin Gourmet Burgers,Northridge,6344,344 #344 0344 6344,9301 Tampa Ave #128,CA,91324
Red Robin Gourmet Burgers,Newport News,6345,345 #345 0345 6345,12300 Jefferson Ave Ste 104,VA,23602
Red Robin Gourmet Burgers,Durham,6346,346 #346 0346 6346,5313 New Hope Commons Extension,NC,27707
Red Robin Gourmet Burgers,Simi Valley,6347,347 #347 0347 6347,"1555 Simi Town Center Way, #670",CA,93065
Red Robin Gourmet Burgers,Newnan,6348,348 #348 0348 6348,202 Newnan Crossing Bypass,GA,30263
Red Robin Gourmet Burgers,San Jose,6349,349 #349 0349 6349,1000 El Paseo de Saratoga,CA,95130
Red Robin Gourmet Burgers,Rogers,6368,368 #368 0368 6368,4300 Walnut Street,AR,72756
Red Robin Gourmet Burgers,Des Peres,6369,369 #369 0369 6369,13001 Manchester Road,MO,63131
Red Robin Gourmet Burgers,Turlock,6370,370 #370 0370 6370,3105 W Monte Vista Ave.,CA,95380
Red Robin Gourmet Burgers,Bolingbrook,6371,371 #371 0371 6371,250 S. Weber Rd.,IL,60490
Red Robin Gourmet Burgers,Norman,6372,372 #372 0372 6372,1050 Ed Noble Parkway,OK,73072
Red Robin Gourmet Burgers,Grove City,6373,373 #373 0373 6373,1635 Stringtown Rd.,OH,43123
Red Robin Gourmet Burgers,Tucson,6374,374 #374 0374 6374,4500 N. Oracle Road,AZ,85705
Red Robin Gourmet Burgers,Tempe,6375,375 #375 0375 6375,1375 W. Elliott,AZ,85284
Red Robin Gourmet Burgers,Raleigh,6376,376 #376 0376 6376,7860 Alexander Promenade Place,NC,27617
Red Robin Gourmet Burgers,Homestead,6377,377 #377 0377 6377,175 E. Waterfront Drive,PA,15120
Red Robin Gourmet Burgers,Lake Havasu City,6378,378 #378 0378 6378,70 Swanson Blvd.,AZ,86403
Red Robin Gourmet Burgers,Halfmoon,6379,379 #379 0379 6379,1 Halfmoon Crossing,NY,12065
Red Robin Gourmet Burgers,Latham,6380,380 #380 0380 6380,880 Loudon Rd,NY,12110
Red Robin Gourmet Burgers,Fayetteville,6381,381 #381 0381 6381,610 Towne Drive,NY,13066
Red Robin Gourmet Burgers,Allentown,6382,382 #382 0382 6382,4688A Broadway,PA,18104
Red Robin Gourmet Burgers,Easton,6383,383 #383 0383 6383,"3716 Easton-Nazareth Hwy., Northampton Crossings",PA,18045
Red Robin Gourmet Burgers,Hershey,6384,384 #384 0384 6384,621 Park Avenue,PA,17033
Red Robin Gourmet Burgers,Exton,6385,385 #385 0385 6385,600 West Uwchlan Ave.,PA,19341
Red Robin Gourmet Burgers,Mechanicsburg,6386,386 #386 0386 6386,"6560 Carlisle Pike, Suite #450",PA,17050
Red Robin Gourmet Burgers,Harrisburg,6387,387 #387 0387 6387,5125 Jonestown Road #125,PA,17112
Red Robin Gourmet Burgers,Allentown,6388,388 #388 0388 6388,1875 Airport Road,PA,18109
Red Robin Gourmet Burgers,Wilkes Barre,6389,389 #389 0389 6389,2020 Wilkes Barre Mktplace,PA,18702
Red Robin Gourmet Burgers,Trevose,6390,390 #390 0390 6390,3605 Horizon Blvd.,PA,19053
Red Robin Gourmet Burgers,Dickson City,6391,391 #391 0391 6391,1235 Commerce Blvd,PA,18519
Red Robin Gourmet Burgers,Carlisle,6392,392 #392 0392 6392,236 Westminster Drive,PA,17013
Red Robin Gourmet Burgers,Center Valley,6393,393 #393 0393 6393,"2845 Center Valley Parkway, Ste 440",PA,18034
Red Robin Gourmet Burgers,Algonquin,6394,394 #394 0394 6394,441 S. Randall Road,IL,60102
Red Robin Gourmet Burgers,Lincolnshire,6395,395 #395 0395 6395,295 Parkway Drive,IL,60069
Red Robin Gourmet Burgers,Meridian,6396,396 #396 0396 6396,1475 North Eagle Road,ID,83642
Red Robin Gourmet Burgers,Gresham,6397,397 #397 0397 6397,789 N.W. Division St.,OR,97030
Red Robin Gourmet Burgers,Fort Wayne,6398,398 #398 0398 6398,"4201 Coldwater Rd., #27",IN,46805
Red Robin Gourmet Burgers,Fairfield,6399,399 #399 0399 6399,1350 Travis Blvd.,CA,94533
Red Robin Gourmet Burgers,Mesa,6400,400 #400 0400 6400,1636 South Stapley,AZ,85206
Red Robin Gourmet Burgers,Chantilly,6401,401 #401 0401 6401,14450 Chantilly Crossing Lane,VA,20151
Red Robin Gourmet Burgers,Chesapeake,6402,402 #402 0402 6402,1024 Eden Way North,VA,23320
Red Robin Gourmet Burgers,Selma,6403,403 #403 0403 6403,8227 Agora Parkway,TX,78154
Red Robin Gourmet Burgers,San Antonio,6404,404 #404 0404 6404,"1750 N Loop 1604 E, Ste 102",TX,78232
Red Robin Gourmet Burgers,Austin,6406,406 #406 0406 6406,"13000 North IH35 SBFR, Building 5",TX,78753
Red Robin Gourmet Burgers,Clifton,6408,408 #408 0408 6408,265 NJ 3 E.,NJ,7014
Red Robin Gourmet Burgers,Novi,6409,409 #409 0409 6409,43250 Crescent Blvd.,MI,48375
Red Robin Gourmet Burgers,Pittsfield Township,6410,410 #410 0410 6410,3797 Carpenter Road,MI,48197
Red Robin Gourmet Burgers,Westland,6411,411 #411 0411 6411,36350 Warren Ave.,MI,48185
Red Robin Gourmet Burgers,Southgate,6412,412 #412 0412 6412,15777 Eureka Blvd.,MI,48195
Red Robin Gourmet Burgers,Madison Heights,6413,413 #413 0413 6413,31805 John R. Road,MI,48071
Red Robin Gourmet Burgers,Roseville,6414,414 #414 0414 6414,32051 Gratiot Ave.,MI,48066
Red Robin Gourmet Burgers,Detroit,6415,415 #415 0415 6415,18650 Ford Rd.,MI,48228
Red Robin Gourmet Burgers,Brighton,6416,416 #416 0416 6416,8522 W. Grand River,MI,48116
Red Robin Gourmet Burgers,Toledo,6417,417 #417 0417 6417,4850 Monroe Street,OH,43623
Red Robin Gourmet Burgers,Clinton Township,6418,418 #418 0418 6418,15780 Hall Rd.,MI,48038
Red Robin Gourmet Burgers,Lansing,6419,419 #419 0419 6419,6524 W. Saginaw Highway,MI,48917
Red Robin Gourmet Burgers,Livonia,6420,420 #420 0420 6420,37701 Six Mile Road,MI,48152
Red Robin Gourmet Burgers,Flint,6421,421 #421 0421 6421,4141 Miller Road,MI,48507
Red Robin Gourmet Burgers,Troy,6422,422 #422 0422 6422,5460 Corporate Drive,MI,48098
Red Robin Gourmet Burgers,Fayetteville,6423,423 #423 0423 6423,695 East Van Asche Dr.,AR,72703
Red Robin Gourmet Burgers,Virginia Beach,6424,424 #424 0424 6424,1088 Nimmo Parkway,VA,23454
Red Robin Gourmet Burgers,Phoenix,6425,425 #425 0425 6425,2501 W. Happy Valley Road,AZ,85085
Red Robin Gourmet Burgers,Monona,6426,426 #426 0426 6426,6522 Monona Drive,WI,53716
Red Robin Gourmet Burgers,Appleton,6427,427 #427 0427 6427,N109 Stoneybrook Road,WI,54915
Red Robin Gourmet Burgers,Janesville,6428,428 #428 0428 6428,2430 Humes Road,WI,53546
Red Robin Gourmet Burgers,Shoreview,6429,429 #429 0429 6429,1090 Gramsie Road,MN,55126
Red Robin Gourmet Burgers,Reno,6430,430 #430 0430 6430,4999 Kietzke Lane,NV,89509
Red Robin Gourmet Burgers,Green Bay,6431,431 #431 0431 6431,2605 Oneida St. #100,WI,54304
Red Robin Gourmet Burgers,Oshkosh,6432,432 #432 0432 6432,600 S. Koeller Street,WI,54902
Red Robin Gourmet Burgers,Madison,6433,433 #433 0433 6433,2440 East Springs Drive,WI,53704
Red Robin Gourmet Burgers,Rancho Cucamonga,6434,434 #434 0434 6434,12271 Foothill Blvd.,CA,91739
Red Robin Gourmet Burgers,Plainfield,6435,435 #435 0435 6435,12646 South Route 59,IL,60544
Red Robin Gourmet Burgers,Webster,6436,436 #436 0436 6436,905 Holt Road,NY,14580
Red Robin Gourmet Burgers,Murray,6437,437 #437 0437 6437,316 E. Winchester Blvd.,UT,84107
Red Robin Gourmet Burgers,Layton,6438,438 #438 0438 6438,1562 N. Woodland Park Dr.,UT,84041
Red Robin Gourmet Burgers,West Valley City,6439,439 #439 0439 6439,3601 S. 2700 West #B152,UT,84119
Red Robin Gourmet Burgers,Provo,6440,440 #440 0440 6440,"1200 Towne Centre, Suite 1100",UT,84601
Red Robin Gourmet Burgers,Mesa,6441,441 #441 0441 6441,6632 0E. Superstition Springs Blvd,AZ,85206
Red Robin Gourmet Burgers,Monroe,6442,442 #442 0442 6442,14797 N. Kelsey St.,WA,98272
Red Robin Gourmet Burgers,Loveland,6443,443 #443 0443 6443,6005 Sky Pond Dr,CO,80538
Red Robin Gourmet Burgers,Charlotte,6445,445 #445 0445 6445,8304 Kenbrooke Drive,NC,28262
Red Robin Gourmet Burgers,Surprise,6446,446 #446 0446 6446,14015 W. Bell Rd.,AZ,85374
Red Robin Gourmet Burgers,Charlotte,6447,447 #447 0447 6447,3415 Toringdon Way,NC,28277
Red Robin Gourmet Burgers,Sioux City,6448,448 #448 0448 6448,4900 Sergeant Road,IA,51106
Red Robin Gourmet Burgers,Chesapeake,6449,449 #449 0449 6449,2524 Chesapeake Square Ring Road,VA,23321
Red Robin Gourmet Burgers,Oswego,6450,450 #450 0450 6450,2860 Route 34,IL,60543
Red Robin Gourmet Burgers,Columbus,6451,451 #451 0451 6451,3977 Morse Crossing,OH,43219
Red Robin Gourmet Burgers,Edwardsville,6453,453 #453 0453 6453,6699 Edwardsville Crossing Dr.,IL,62025
Red Robin Gourmet Burgers,Owasso,6454,454 #454 0454 6454,9017 N. 121st E. Ave.,OK,74055
Red Robin Gourmet Burgers,Abilene,6455,455 #455 0455 6455,3549 Catclaw Drive,TX,79606
Red Robin Gourmet Burgers,Towson,6457,457 #457 0457 6457,"1238 Putty Hill Ave, Tenant #16",MD,21286
Red Robin Gourmet Burgers,South Plainfield,6458,458 #458 0458 6458,6200 Hadley Road,NJ,7080
Red Robin Gourmet Burgers,Henderson,6459,459 #459 0459 6459,9600 S. Eastern Ave,NV,89052
Red Robin Gourmet Burgers,Cranberry Township,6460,460 #460 0460 6460,1678 Route 228,PA,16066
Red Robin Gourmet Burgers,Greensburg,6461,461 #461 0461 6461,1000 Greengate Centre Blvd.,PA,15601
Red Robin Gourmet Burgers,Oklahoma City,6462,462 #462 0462 6462,13800 N. Pennsylvania Ave.,OK,73134
Red Robin Gourmet Burgers,Tarentum,6463,463 #463 0463 6463,1020 Pittsburgh Mills Circle,PA,15084
Red Robin Gourmet Burgers,Rockford,6464,464 #464 0464 6464,7029 E. State St.,IL,61108
Red Robin Gourmet Burgers,Amherst,6465,465 #465 0465 6465,4080 Maple Road,NY,14226
Red Robin Gourmet Burgers,Plymouth,6466,466 #466 0466 6466,269 Colony Place,MA,2360
Red Robin Gourmet Burgers,Louisville,6467,467 #467 0467 6467,9870 Von Allmen Court,KY,40241
Red Robin Gourmet Burgers,Grandville,6468,468 #468 0468 6468,3722 Potomac Circle,MI,49418
Red Robin Gourmet Burgers,Portage,6469,469 #469 0469 6469,5710 South Westnedge Rd.,MI,49002
Red Robin Gourmet Burgers,Commerce,6470,470 #470 0470 6470,3003 Commerce Crossing,MI,48390
Red Robin Gourmet Burgers,Kentwood,6471,471 #471 0471 6471,3195 28th Street S.E.,MI,49512
Red Robin Gourmet Burgers,Hurst,6472,472 #472 0472 6472,820 NE Mall Blvd,TX,76053
Red Robin Gourmet Burgers,Houston,6473,473 #473 0473 6473,7620 Katy Freeway #465,TX,77024
Red Robin Gourmet Burgers,Houston,6474,474 #474 0474 6474,10465 Richmond Avenue,TX,77042
Red Robin Gourmet Burgers,Shenandoah,6475,475 #475 0475 6475,19433 Interstate 45 South,TX,77385
Red Robin Gourmet Burgers,Augusta,6476,476 #476 0476 6476,52 Stephen King Drive,ME,4330
Red Robin Gourmet Burgers,Sherwood,6477,477 #477 0477 6477,21170 Langer Farms Parkway,OR,97140
Red Robin Gourmet Burgers,Lawrenceville,6478,478 #478 0478 6478,"1250 Scenic Highway, Suite 1500",GA,30045
Red Robin Gourmet Burgers,Cary,6479,479 #479 0479 6479,2260 Walnut St.,NC,27511
Red Robin Gourmet Burgers,Fayetteville,6480,480 #480 0480 6480,502 Cross Creek Mall,NC,28303
Red Robin Gourmet Burgers,Greensboro,6481,481 #481 0481 6481,1507 Highwoods Blvd.,NC,27410
Red Robin Gourmet Burgers,Charlotte,6482,482 #482 0482 6482,8425 Northlake Commons Blvd.,NC,28216
Red Robin Gourmet Burgers,Apex,6483,483 #483 0483 6483,1431 Beaver Creek Commons Dr.,NC,27502
Red Robin Gourmet Burgers,Christiansburg,6484,484 #484 0484 6484,105 Peppers Ferry Road NW,VA,24073
Red Robin Gourmet Burgers,Roanoke,6485,485 #485 0485 6485,4802 Valley View Blvd. NW,VA,24012
Red Robin Gourmet Burgers,Whittier,6486,486 #486 0486 6486,15610 Whittier Blvd.,CA,90603
Red Robin Gourmet Burgers,Riverbank,6487,487 #487 0487 6487,2367 Claribel Rd.,CA,95367
Red Robin Gourmet Burgers,Redlands,6488,488 #488 0488 6488,27476 Lugonia Ave.,CA,92374
Red Robin Gourmet Burgers,Cypress,6489,489 #489 0489 6489,5461 Katella Avenue,CA,90630
Red Robin Gourmet Burgers,Canton,6490,490 #490 0490 6490,6522 Strip Ave. NW,OH,44720
Red Robin Gourmet Burgers,Columbus,6491,491 #491 0491 6491,1021 Gemini Place,OH,43240
Red Robin Gourmet Burgers,Willoughby,6492,492 #492 0492 6492,36565 Euclid Ave.,OH,44094
Red Robin Gourmet Burgers,Independence,6493,493 #493 0493 6493,18810 E. Highway 40,MO,64055
Red Robin Gourmet Burgers,Overland Park,6494,494 #494 0494 6494,8657 W. 135th,KS,66223
Red Robin Gourmet Burgers,Wichita,6495,495 #495 0495 6495,9990 E. 13th Street,KS,67206
Red Robin Gourmet Burgers,Olathe,6496,496 #496 0496 6496,20155 W. 153rd,KS,66061
Red Robin Gourmet Burgers,Topeka,6497,497 #497 0497 6497,6230 SW 6th Street,KS,66615
Red Robin Gourmet Burgers,Overland Park,6498,498 #498 0498 6498,7111 W 95th St,KS,66212
Red Robin Gourmet Burgers,Mason,6499,499 #499 0499 6499,5013 Bowen Drive,OH,45040
Red Robin Gourmet Burgers,O'Fallon,6500,500 #500 0500 6500,1440 Mexico Loop Road East,MO,63366
Red Robin Gourmet Burgers,Chesterfield,6501,501 #501 0501 6501,17308 Chesterfield Airport Rd.,MO,63006
Red Robin Gourmet Burgers,Fenton,6502,502 #502 0502 6502,130 Gravois Bluffs Circle,MO,63026
Red Robin Gourmet Burgers,Greenfield,6503,503 #503 0503 6503,7575 Edgerton Avenue,WI,53220
Red Robin Gourmet Burgers,Apple Valley,6504,504 #504 0504 6504,15560 Cedar Ave.,MN,55124
Red Robin Gourmet Burgers,Cedar Hill,6505,505 #505 0505 6505,229 N. Highway 67,TX,75104
Red Robin Gourmet Burgers,Garland,6506,506 #506 0506 6506,5031 N Garland Ave,TX,75044
Red Robin Gourmet Burgers,Plymouth,6507,507 #507 0507 6507,2669 Campus Drive,MN,55441
Red Robin Gourmet Burgers,Pharr,6508,508 #508 0508 6508,409 S. Jackson Road,TX,78577
Red Robin Gourmet Burgers,Schererville,6509,509 #509 0509 6509,1410 US Hwy 41,IN,46375
Red Robin Gourmet Burgers,Merrillville,6510,510 #510 0510 6510,2465 Southlake Mall,IN,46410
Red Robin Gourmet Burgers,Hamilton,6511,511 #511 0511 6511,325 Marketplace Blvd.,NJ,8691
Red Robin Gourmet Burgers,Glasgow,6512,512 #512 0512 6512,2496 Pulaski Highway,DE,19702
Red Robin Gourmet Burgers,Greenville,6513,513 #513 0513 6513,"1125 Woodruff Rd., Suite 1400",SC,29607
Red Robin Gourmet Burgers,Cedar Rapids,6514,514 #514 0514 6514,4625 First Ave. S.E.,IA,52402
Red Robin Gourmet Burgers,Davenport,6515,515 #515 0515 6515,3903 East 53rd Street,IA,52807
Red Robin Gourmet Burgers,West Des Moines,6516,516 #516 0516 6516,6255 Mills Civic Pkwy.,IA,50266
Red Robin Gourmet Burgers,Mt. Juliet,6517,517 #517 0517 6517,"401 S. Mt. Juliet Road, #135",TN,37122
Red Robin Gourmet Burgers,Holland,6518,518 #518 0518 6518,3379 West Shore Dr,MI,49424
Red Robin Gourmet Burgers,Valparaiso,6520,520 #520 0520 6520,3004 John Howell Dr.,IN,46385
Red Robin Gourmet Burgers,West Hartford,6521,521 #521 0521 6521,1509 New Britain Ave.,CT,6110
Red Robin Gourmet Burgers,Columbia,6522,522 #522 0522 6522,247 Forum Drive,SC,29229
Red Robin Gourmet Burgers,Dardenne Prairie,6523,523 #523 0523 6523,7821 State Hwy. N,MO,63368
Red Robin Gourmet Burgers,Rochester,6524,524 #524 0524 6524,740 Jefferson Rd.,NY,14623
Red Robin Gourmet Burgers,Houston,6525,525 #525 0525 6525,22455 Highway 249,TX,77070
Red Robin Gourmet Burgers,Liberty,6528,528 #528 0528 6528,1919 Star Road,MO,64068
Red Robin Gourmet Burgers,Roseburg,6529,529 #529 0529 6529,2200 NW Stewart Parkway,OR,97470
Red Robin Gourmet Burgers,San Antonio,6530,530 #530 0530 6530,17403 IH-10 West,TX,78257
Red Robin Gourmet Burgers,Kenosha,6531,531 #531 0531 6531,"6610 Greenbay Road, Suite #100",WI,53142
Red Robin Gourmet Burgers,Columbus,6532,532 #532 0532 6532,5550-3 Whittlesey Blvd.,GA,31909
Red Robin Gourmet Burgers,Springfield,6533,533 #533 0533 6533,3720 South Glenstone Ave.,MO,65804
Red Robin Gourmet Burgers,Murfreesboro,6534,534 #534 0534 6534,1986 Medical Center Parkway,TN,37129
Red Robin Gourmet Burgers,Marysville,6535,535 #535 0535 6535,16814 Twin Lakes Ave,WA,98271
Red Robin Gourmet Burgers,Fairview Heights,6536,536 #536 0536 6536,6500 N. Illinois,IL,62208
Red Robin Gourmet Burgers,Montgomery,6537,537 #537 0537 6537,7005 East Chase Parkway,AL,36117
Red Robin Gourmet Burgers,Fredericksburg,6538,538 #538 0538 6538,10109 Jefferson Davis Highway,VA,22407
Red Robin Gourmet Burgers,Chambersburg,6540,540 #540 0540 6540,921 Norland Avenue,PA,17201
Red Robin Gourmet Burgers,Bartonsville,6541,541 #541 0541 6541,"250 Crossroads Mall, Route 611",PA,18321
Red Robin Gourmet Burgers,Flower Mound,6542,542 #542 0542 6542,5731 Long Prairie Rd,TX,75028
Red Robin Gourmet Burgers,Birmingham,6543,543 #543 0543 6543,5029 Pinnacle Square,AL,35235
Red Robin Gourmet Burgers,Evans,6544,544 #544 0544 6544,4241 Washington Road,GA,30809
Red Robin Gourmet Burgers,Nicholasville,6545,545 #545 0545 6545,101 East Brannon Road,KY,40356
Red Robin Gourmet Burgers,Orchard Park,6546,546 #546 0546 6546,3460 Amelia Drive,NY,14127
Red Robin Gourmet Burgers,Mooresville,6547,547 #547 0547 6547,613 River Highway,NC,28117
Red Robin Gourmet Burgers,Huntsville,6548,548 #548 0548 6548,2720 Carl T Jones Dr SE,AL,35802
Red Robin Gourmet Burgers,Jackson,6549,549 #549 0549 6549,1025 Vann Drive,TN,38305
Red Robin Gourmet Burgers,Papillion,6550,550 #550 0550 6550,11675 S. 73rd Street,NE,68046
Red Robin Gourmet Burgers,Fresno,6551,551 #551 0551 6551,3385 W Shaw Avenue,CA,93711
Red Robin Gourmet Burgers,South Jordan,6552,552 #552 0552 6552,11615 South District Main Drive,UT,84095
Red Robin Gourmet Burgers,Sparks,6553,553 #553 0553 6553,4712 Galleria Pkwy,NV,89436
Red Robin Gourmet Burgers,Collierville,6554,554 #554 0554 6554,10211 Collierville Road,TN,38017
Red Robin Gourmet Burgers,Plainfield,6555,555 #555 0555 6555,365 South Perry Road,IN,46168
Red Robin Gourmet Burgers,Fort Myers,6556,556 #556 0556 6556,"10021 Gulf Center Drive, #G225",FL,33913
Red Robin Gourmet Burgers,Wake Forest,6557,557 #557 0557 6557,11420 Capital Blvd.,NC,27587
Red Robin Gourmet Burgers,Cordova,6558,558 #558 0558 6558,1231 N. Germantown Parkway,TN,38018
Red Robin Gourmet Burgers,Burlington,6559,559 #559 0559 6559,3110 Waltham Blvd.,NC,27215
Red Robin Gourmet Burgers,Tempe,6560,560 #560 0560 6560,19 S McClintock Drive,AZ,85281
Red Robin Gourmet Burgers,Westminster,6562,562 #562 0562 6562,799 W 146th Avenue,CO,80020
Red Robin Gourmet Burgers,Norton Shores,6563,563 #563 0563 6563,5785 Harvey St.,MI,49444
Red Robin Gourmet Burgers,South Elgin,6564,564 #564 0564 6564,420 Randall Road,IL,60177
Red Robin Gourmet Burgers,Foothill Ranch,6565,565 #565 0565 6565,26522 Towne Centre Drive,CA,92610
Red Robin Gourmet Burgers,Quakertown,6566,566 #566 0566 6566,"690 N West End Blvd, Route 309",PA,18951
Red Robin Gourmet Burgers,Carmel,6567,567 #567 0567 6567,9965 N. Michigan Road,IN,46032
Red Robin Gourmet Burgers,Nashville,6568,568 #568 0568 6568,6802 Charlotte Pike,TN,37209
Red Robin Gourmet Burgers,Wareham,6569,569 #569 0569 6569,"2421 Cranberry Highway, Suite 350",MA,2571
Red Robin Gourmet Burgers,Poughkeepsie,6572,572 #572 0572 6572,"2511 South Road, Route 9",NY,12601
Red Robin Gourmet Burgers,Huntsville,6573,573 #573 0573 6573,"365 The Bridge Street, Suite 113",AL,35805
Red Robin Gourmet Burgers,Ashburn,6576,576 #576 0576 6576,43530 Yukon Drive,VA,20147
Red Robin Gourmet Burgers,Portland,6578,578 #578 0578 6578,"10005 N.E. Cascades Parkway, Ste A",OR,97220
Red Robin Gourmet Burgers,Carmel,6583,583 #583 0583 6583,14599 Clay Terrace Blvd,IN,46032
Red Robin Gourmet Burgers,Hendersonville,6592,592 #592 0592 6592,302 Indian Lake Blvd,TN,37075
Red Robin Gourmet Burgers,Renton,6593,593 #593 0593 6593,719 N 10th Street,WA,98055
Red Robin Gourmet Burgers,Coeur d'Alene,6594,594 #594 0594 6594,1501 W. Riverstone Dr.,ID,83814
Red Robin Gourmet Burgers,Cumming,6595,595 #595 0595 6595,370 Peachtree Parkway,GA,30041
Red Robin Gourmet Burgers,Manassas,6596,596 #596 0596 6596,9945 Sowder Village Square,VA,20109
Red Robin Gourmet Burgers,Maumee,6598,598 #598 0598 6598,"3100 Main Street, #1500",OH,43537
Red Robin Gourmet Burgers,Eau Claire,6599,599 #599 0599 6599,3005 Golf Road,WI,54701
Red Robin Gourmet Burgers,Covington,6601,601 #601 0601 6601,27193 185th Avenue SE,WA,98042
Red Robin Gourmet Burgers,Myrtle Beach,6603,603 #603 0603 6603,1218 N. Retail Court,SC,29577
Red Robin Gourmet Burgers,Morgan Hill,6604,604 #604 0604 6604,1045 Cochrane Road,CA,95037
Red Robin Gourmet Burgers,Louisville,6605,605 #605 0605 6605,"5000 Shelbyville Road, #1627",KY,40207
Red Robin Gourmet Burgers,Salt Lake City,6606,606 #606 0606 6606,1313 Foothill Drive,UT,84108
Red Robin Gourmet Burgers,Holyoke,6607,607 #607 0607 6607,27 Holyoke Street,MA,1040
Red Robin Gourmet Burgers,Foxboro,6608,608 #608 0608 6608,290 Patriot Place,MA,2035
Red Robin Gourmet Burgers,Wilmington,6609,609 #609 0609 6609,6100 Brandywine Parkway,DE,19803
Red Robin Gourmet Burgers,Jacksonville,6610,610 #610 0610 6610,"375 Western Blvd, Suite H3",NC,28546
Red Robin Gourmet Burgers,Noblesville,6611,611 #611 0611 6611,13215 Harrell Parkway,IN,46060
Red Robin Gourmet Burgers,Hemet,6612,612 #612 0612 6612,1900 W. Florida Avenue,CA,92545
Red Robin Gourmet Burgers,Hoffman Estates,6613,613 #613 0613 6613,2742 Sutton Road,IL,60192
Red Robin Gourmet Burgers,Menifee,6614,614 #614 0614 6614,30142 Haun Road,CA,92584
Red Robin Gourmet Burgers,Manassas,6616,616 #616 0616 6616,9665 Liberia Avenue,VA,20111
Red Robin Gourmet Burgers,Richmond,6617,617 #617 0617 6617,"11500 Midlothian Turnpike, #428",VA,23235
Red Robin Gourmet Burgers,Aurora,6618,618 #618 0618 6618,6795 S Cornerstar Way,CO,80016
Red Robin Gourmet Burgers,Skokie,6619,619 #619 0619 6619,7050 Carpenter Road,IL,60077
Red Robin Gourmet Burgers,Orland Park,6620,620 #620 0620 6620,15503 South LaGrange Rd,IL,60462
Red Robin Gourmet Burgers,Bothell,6621,621 #621 0621 6621,21215 Bothell-Everett Highway,WA,98021
Red Robin Gourmet Burgers,Chattanooga,6622,622 #622 0622 6622,"2100 Hamilton Place Blvd, Suite 317",TN,37421
Red Robin Gourmet Burgers,Bel Air,6623,623 #623 0623 6623,"602 Bel Air Road, Suite 19",MD,21014
Red Robin Gourmet Burgers,Pearland,6624,624 #624 0624 6624,"11200 Broadway St, Suite 1500",TX,77584
Red Robin Gourmet Burgers,Bloomingdale,6625,625 #625 0625 6625,152 Stratford Square,IL,60108
Red Robin Gourmet Burgers,Selinsgrove,6626,626 #626 0626 6626,111 Marketplace Blvd,PA,17870
Red Robin Gourmet Burgers,Arlington,6627,627 #627 0627 6627,421 East Interstate 20 Hwy,TX,76018
Red Robin Gourmet Burgers,Missoula,6628,628 #628 0628 6628,2901 Brooks St,MT,59801
Red Robin Gourmet Burgers,Apple Valley,6629,629 #629 0629 6629,18999 Bear Valley Road,CA,92307
Red Robin Gourmet Burgers,Washington,6630,630 #630 0630 6630,640 W Telegraph St,UT,84780
Red Robin Gourmet Burgers,Lincoln,6631,631 #631 0631 6631,751 E. Joiner Parkway,CA,95648
Red Robin Gourmet Burgers,Panama City Beach,6632,632 #632 0632 6632,100 Bluefish Drive,FL,32413
Red Robin Gourmet Burgers,Idaho Falls,6633,633 #633 0633 6633,2450 E 17th Street,ID,83404
Red Robin Gourmet Burgers,Wilbraham,6634,634 #634 0634 6634,2039 Boston Road,MA,1095
Red Robin Gourmet Burgers,Pensacola,6635,635 #635 0635 6635,5100 N 9th Avenue,FL,32504
Red Robin Gourmet Burgers,Farragut,6636,636 #636 0636 6636,11433 Parkside Drive,TN,37934
Red Robin Gourmet Burgers,Mays Landing,6637,637 #637 0637 6637,4259 Black Horse Pike,NJ,8330
Red Robin Gourmet Burgers,Evansville,6638,638 #638 0638 6638,6636 E Lloyd Expressway,IN,47715
Red Robin Gourmet Burgers,Mishawaka,6639,639 #639 0639 6639,4010 N Main Street,IN,46545
Red Robin Gourmet Burgers,Brentwood,6640,640 #640 0640 6640,2385 Sand Creek Road,CA,94513
Red Robin Gourmet Burgers,Gilbert,6641,641 #641 0641 6641,2235 S. SanTan Village Parkway,AZ,85295
Red Robin Gourmet Burgers,Lakewood,6643,643 #643 0643 6643,10311 Gravelly Lake Drive SW,WA,98499
Red Robin Gourmet Burgers,Goodyear,6644,644 #644 0644 6644,14551 W. McDowell Road,AZ,85395
Red Robin Gourmet Burgers,National City,6645,645 #645 0645 6645,"3030 Plaza Bonita Road, #2520",CA,91950
Red Robin Gourmet Burgers,Reading,6646,646 #646 0646 6646,4559 Perkiomen Ave,PA,19606
Red Robin Gourmet Burgers,Katy,6649,649 #649 0649 6649,23318 Mercantile Pkwy,TX,77449
Red Robin Gourmet Burgers,Florence,6650,650 #650 0650 6650,7250 Houston Road,KY,41042
Red Robin Gourmet Burgers,Manteca,6651,651 #651 0651 6651,873 Lifestyle Street,CA,95337
Red Robin Gourmet Burgers,Port Orange,6652,652 #652 0652 6652,5537 S. Williamson Blvd.,FL,32128
Red Robin Gourmet Burgers,Pittsburgh,6653,653 #653 0653 6653,1230 Settlers Ridge Center Drive,PA,15205
Red Robin Gourmet Burgers,Bethel Park,6654,654 #654 0654 6654,301 South Hills Village,PA,15241
Red Robin Gourmet Burgers,San Antonio,6655,655 #655 0655 6655,5631 W Loop 1604N,TX,78253
Red Robin Gourmet Burgers,Newark,6656,656 #656 0656 6656,101 W Main St,DE,19702
Red Robin Gourmet Burgers,California,6657,657 #657 0657 6657,45305 Abell House Lane,MD,20619
Red Robin Gourmet Burgers,Tampa,6658,658 #658 0658 6658,7982 Citrus Park Town Center,FL,33625
Red Robin Gourmet Burgers,Ann Arbor,6659,659 #659 0659 6659,575 Briarwood Circle,MI,48108
Red Robin Gourmet Burgers,Brookfield,6671,671 #671 0671 6671,95 N. Moorland Road,WI,53005
Red Robin Gourmet Burgers,Falls Church,6672,672 #672 0672 6672,6331 Seven Corners Center,VA,22044
Red Robin Gourmet Burgers,Rockaway,6673,673 #673 0673 6673,301 Mount Hope Avenue,NJ,7866
Red Robin Gourmet Burgers,Wesley Chapel,6675,675 #675 0675 6675,28222 Willet Way,FL,33543
Red Robin Gourmet Burgers,Bowie,6677,677 #677 0677 6677,15650 Excelsior Drive,MD,20716
Red Robin Gourmet Burgers,Milford,6683,683 #683 0683 6683,"1201 Boston Post Rd, Suite R-4",CT,6460
Red Robin Gourmet Burgers,Wasilla,6684,684 #684 0684 6684,1891 E Parks Hwy,AK,99654
Red Robin Gourmet Burgers,Carle Place,6702,702 #702 0702 6702,125 Old Country Road,NY,11514
Red Robin Gourmet Burgers,Lancaster,6703,703 #703 0703 6703,2350 Lincoln Highway East #900,PA,17603
Red Robin Gourmet Burgers,Woodland,6704,704 #704 0704 6704,2031 Bronze Star Drive,CA,95776
Red Robin Gourmet Burgers,Gurnee,6705,705 #705 0705 6705,6420 Grand Avenue,IL,60031
Red Robin Gourmet Burgers,Frederick,6708,708 #708 0708 6708,5582 Spectrum Drive,MD,21703
Red Robin Gourmet Burgers,Vacaville,6709,709 #709 0709 6709,186 Nut Tree Parkway,CA,95687
Red Robin Gourmet Burgers,Warwick,6710,710 #710 0710 6710,400 Bald Hill Road,RI,2886
Red Robin Gourmet Burgers,Lakewood,6711,711 #711 0711 6711,112 Lakewood Center Mall,CA,90712
Red Robin Gourmet Burgers,Thousand Oaks,6713,713 #713 0713 6713,170 W. Hillcrest Drive,CA,91360
Red Robin Gourmet Burgers,Miami,6714,714 #714 0714 6714,9050 SW 136th Street,FL,33176
Red Robin Gourmet Burgers,Baltimore,6715,715 #715 0715 6715,"8200 Perry Hall Blvd, #2425",MD,21236
Red Robin Gourmet Burgers,Deer Park,6716,716 #716 0716 6716,20506 North Rand Road,IL,60010
Red Robin Gourmet Burgers,Nashua,6717,717 #717 0717 6717,310 Daniel Webster Highway,NH,3060
Red Robin Gourmet Burgers,Arcadia,6718,718 #718 0718 6718,400 S. Baldwin Avenue; #2365,CA,91007
Red Robin Gourmet Burgers,Scarborough,6719,719 #719 0719 6719,800 Gallery Blvd,ME,4074
Red Robin Gourmet Burgers,Hamburg,6720,720 #720 0720 6720,125 Wilderness Trail,PA,19526
Red Robin Gourmet Burgers,Clearwater,6722,722 #722 0722 6722,27001 US Highway 19 North; #1130,FL,33761
Red Robin Gourmet Burgers,Pembroke Pines,6723,723 #723 0723 6723,11401 Pines Blvd; #892,FL,33026
Red Robin Gourmet Burgers,Riverside,6724,724 #724 0724 6724,1370 Galleria at Tyler,CA,92503
Red Robin Gourmet Burgers,Tustin,6725,725 #725 0725 6725,2667 Park Avenue,CA,92782
Red Robin Gourmet Burgers,Vancouver,6726,726 #726 0726 6726,2410 Columbia House Blvd,WA,98661
Red Robin Gourmet Burgers,Deptford,6727,727 #727 0727 6727,1750 Deptford Center Road,NJ,8096
Red Robin Gourmet Burgers,Woodbridge,6728,728 #728 0728 6728,264 Woodbridge Center Drive,NJ,7095
Red Robin Gourmet Burgers,Brandon,6729,729 #729 0729 6729,450 Brandon Town Center,FL,33511
Red Robin Gourmet Burgers,Winter Garden,6730,730 #730 0730 6730,3310 Daniels Road #102,FL,34787
Red Robin Gourmet Burgers,Amarillo,6731,731 #731 0731 6731,8720 IH40 West Frontage Road,TX,79124
Red Robin Gourmet Burgers,Puyallup,6732,732 #732 0732 6732,"16904 Meridian East, Suite 105",WA,98375
Red Robin Gourmet Burgers,Gainesville,6733,733 #733 0733 6733,6419 Newberry Road,FL,32605
Red Robin Gourmet Burgers,Oak Brook,6734,734 #734 0734 6734,552 Oak Brook Center,IL,60523
Red Robin Gourmet Burgers,Lacey,6735,735 #735 0735 6735,1110 Galaxy Drive NE #A,WA,98516
Red Robin Gourmet Burgers,Paramus,6736,736 #736 0736 6736,2220 Bergen Town Center,NJ,7652
Red Robin Gourmet Burgers,Springfield,6737,737 #737 0737 6737,2881 S. Veterans Parkway,IL,62704
Red Robin Gourmet Burgers,West Nyack,6738,738 #738 0738 6738,1000 Palisades Center Drive; A-403,NY,10993
Red Robin Gourmet Burgers,Collegeville,6739,739 #739 0739 6739,220 Plaza Drive; Suite #1,PA,19426
Red Robin Gourmet Burgers,Gambrills,6740,740 #740 0740 6740,1403 S Main Chapel Way,MD,21054
Red Robin Gourmet Burgers,St. Petersburg,6741,741 #741 0741 6741,"2468 Tyrone Blvd N, Suite 435B",FL,33710
Red Robin Gourmet Burgers,East Peoria,6742,742 #742 0742 6742,314 W. Washington Street,IL,61611
Red Robin Gourmet Burgers,Staten Island,6743,743 #743 0743 6743,2655 Richmond Avenue,NY,10314
Red Robin Gourmet Burgers,Cherry Hill,6744,744 #744 0744 6744,2100 Route 38,NJ,8002
Red Robin Gourmet Burgers,Fort Worth,6745,745 #745 0745 6745,4700 Hulen Street,TX,76132
Red Robin Gourmet Burgers,Secaucus,6746,746 #746 0746 6746,450 Harmon Meadows Boulevard,NJ,7096
Red Robin Gourmet Burgers,Hagerstown,6747,747 #747 0747 6747,17301 Valley Mall,MD,21740
Red Robin Gourmet Burgers,Baltimore,6748,748 #748 0748 6748,3821 Boston Street,MD,21224
Red Robin Gourmet Burgers,Monroeville,6749,749 #749 0749 6749,"Mall Circle Drive, Unit 703-A",PA,15146
Red Robin Gourmet Burgers,Norridge,6750,750 #750 0750 6750,4230 North Harlem Avenue,IL,60706
Red Robin Gourmet Burgers,Danbury,6751,751 #751 0751 6751,7 Backus Avenue,CT,6810
Red Robin Gourmet Burgers,Cincinnati,6752,752 #752 0752 6752,7875 Montgomery Road,OH,45236
Red Robin Gourmet Burgers,Greece,6753,753 #753 0753 6753,104 Greece Ridge Center Dr.,NY,14626
Red Robin Gourmet Burgers,Sanford,6756,756 #756 0756 6756,1630 Rinehart Road,FL,32771
Red Robin Gourmet Burgers,Plantation,6757,757 #757 0757 6757,"8000 W Broward Blvd, #422",FL,33388
Red Robin Gourmet Burgers,Wellington,6759,759 #759 0759 6759,"10300 Forest Hill Blvd, #122",FL,33414
