keywords,city,Aggdata Store Number,store_number,address,state,zip_code
Smith's Food ,Salt Lake City,70600001,#41 #401 70600001,873 E South Temple,UT,84102
Smith's Food ,Salt Lake City,70600002,#42 #402 70600002,1974 S 1100 E,UT,84106
Smith's Food ,Salt Lake City,70600028,#428 #4028 70600028,922 E 2100 S,UT,84106
Smith's Food ,Ogden,70600030,#430 #4030 70600030,4275 Harrison Blvd,UT,84403
Smith's Food ,Twin Falls,70600035,#435 #4035 70600035,1913 Addison Ave E,ID,83301
Smith's Food ,Cedar City,70600042,#442 #4042 70600042,633 S Main St,UT,84720
Smith's Food ,Salt Lake City,70600044,#444 #4044 70600044,876 E 800 S,UT,84102
Smith's Food ,Sandy,70600047,#447 #4047 70600047,2039 E 9400 S,UT,84093
Smith's Food ,Price,70600048,#448 #4048 70600048,1075 E Main St,UT,84501
Smith's Food ,Chubbuck,70600061,#461 #4061 70600061,4845 Yellowstone Ave,ID,83202
Smith's Food ,Heber City,70600063,#463 #4063 70600063,550 N Main St,UT,84032
Smith's Food ,Magna,70600065,#465 #4065 70600065,8055 W 3500 S,UT,84044
Smith's Food ,Salt Lake City,70600066,#466 #4066 70600066,4065 S Redwood Rd,UT,84123
Smith's Food ,Salt Lake City,70600069,#469 #4069 70600069,1174 W 600 N,UT,84116
Smith's Food ,Park City,70600072,#472 #4072 70600072,1725 Uinta Way,UT,84098
Smith's Food ,Pleasant Grove,70600073,#473 #4073 70600073,210 E 700 S,UT,84062
Smith's Food ,Payson,70600075,#475 #4075 70600075,632 S 100 W,UT,84651
Smith's Food ,Salt Lake City,70600077,#477 #4077 70600077,402 6th Ave,UT,84103
Smith's Food ,North Ogden,70600079,#479 #4079 70600079,2560 N 400 E,UT,84414
Smith's Food ,Salt Lake City,70600080,#480 #4080 70600080,828 S 900 W,UT,84104
Smith's Food ,Salt Lake City,70600081,#481 #4081 70600081,3470 Bengal Blvd,UT,84121
Smith's Food ,Vernal,70600082,#482 #4082 70600082,1080 W Highway 40,UT,84078
Smith's Food ,Murray,70600083,#483 #4083 70600083,665 W 5300 S,UT,84123
Smith's Food ,Midvale,70600085,#485 #4085 70600085,980 Fort Union Blvd,UT,84047
Smith's Food ,Evanston,70600086,#486 #4086 70600086,70 Yellow Creek Rd,WY,82930
Smith's Food ,Logan,70600087,#487 #4087 70600087,442 N 175 E,UT,84321
Smith's Food ,Salt Lake City,70600094,#494 #4094 70600094,455 S 500 E,UT,84102
Smith's Food ,Saratoga Springs,70600107,#4107 #40107 70600107,1320 Redwood Rd,UT,84045
Smith's Food ,Herriman,70600108,#4108 #40108 70600108,5560 W 13400 S,UT,84096
Smith's Food ,Lehi,70600119,#4119 #40119 70600119,1550 E 3500 N,UT,84043
Smith's Food ,Idaho Falls,70600121,#4121 #40121 70600121,400 S Woodruff Ave,ID,83401
Smith's Food ,Burley,70600123,#4123 #40123 70600123,937 E Main St,ID,83318
Smith's Food ,Ogden,70600131,#4131 #40131 70600131,1485 Harrison Blvd,UT,84404
Smith's Food ,Draper,70600132,#4132 #40132 70600132,212 E 12300 S,UT,84020
Smith's Food ,Salt Lake City,70600133,#4133 #40133 70600133,845 E 4500 S,UT,84107
Smith's Food ,Farmington,70600135,#4135 #40135 70600135,1316 N Highway 89,UT,84025
Smith's Food ,Provo,70600136,#4136 #40136 70600136,350 N Freedom Blvd,UT,84601
Smith's Food ,West Valley City,70600137,#4137 #40137 70600137,4643 S 4000 W,UT,84120
Smith's Food ,South Jordan,70600138,#4138 #40138 70600138,1634 W South Jordan Pkwy,UT,84095
Smith's Food ,West Jordan,70600139,#4139 #40139 70600139,7061 S Redwood Rd,UT,84084
Smith's Food ,Sunset,70600140,#4140 #40140 70600140,2353 N Main St,UT,84015
Smith's Food ,Syracuse,70600142,#4142 #40142 70600142,951 W 1700 S,UT,84075
Smith's Food ,Orem,70600144,#4144 #40144 70600144,45 S State St,UT,84058
Smith's Food ,West Valley City,70600147,#4147 #40147 70600147,5620 W 4100 S,UT,84128
Smith's Food ,Layton,70600149,#4149 #40149 70600149,1170 E Gentile St,UT,84040
Smith's Food ,Bountiful,70600151,#4151 #40151 70600151,2399 S Main St,UT,84010
Smith's Food ,Sandy,70600153,#4153 #40153 70600153,10305 S 1300 E,UT,84094
Smith's Food ,West Jordan,70600158,#4158 #40158 70600158,4080 W 9000 S,UT,84088
Smith's Food ,Great Falls,70600166,#4166 #40166 70600166,1601 Market Place Dr,MT,59404
Smith's Food ,Columbia Falls,70600168,#4168 #40168 70600168,419 Nucleus Ave,MT,59912
Smith's Food ,Bozeman,70600170,#4170 #40170 70600170,1400 N 19th Ave,MT,59718
Smith's Food ,Kalispell,70600172,#4172 #40172 70600172,195 3rd Avenue East N,MT,59901
Smith's Food ,Brigham City,70600178,#4178 #40178 70600178,156 S Main St,UT,84302
Smith's Food ,Gillette,70600180,#4180 #40180 70600180,906 Camel Dr,WY,82716
Smith's Food ,Rock Springs,70600182,#4182 #40182 70600182,2531 Foothill Blvd,WY,82901
Smith's Food ,Riverton,70600183,#4183 #40183 70600183,1200 W Main St,WY,82501
Smith's Food ,Jackson,70600184,#4184 #40184 70600184,1425 S Hwy 89,WY,83001
Smith's Food ,Casper,70600185,#4185 #40185 70600185,2405 Cy Ave,WY,82604
Smith's Food ,Green River,70600187,#4187 #40187 70600187,905 Bridger Dr,WY,82935
Smith's Food ,Lake Havasu City,70600188,#4188 #40188 70600188,80 Acoma Blvd N,AZ,86403
Smith's Food ,Saint George,70600189,#4189 #40189 70600189,20 N Bluff St,UT,84770
Smith's Food ,Kingman,70600190,#4190 #40190 70600190,3490 Stockton Hill Rd,AZ,86409
Smith's Food ,Bullhead City,70600191,#4191 #40191 70600191,1775 Lakeside Dr,AZ,86442
Smith's Food ,Las Vegas,70600311,#4311 #40311 70600311,8050 S Rainbow Blvd,NV,89139
Smith's Food ,Las Vegas,70600332,#4332 #40332 70600332,7130 N Durango Dr,NV,89149
Smith's Food ,North Las Vegas,70600334,#4334 #40334 70600334,2255 E Centennial Pkwy,NV,89081
Smith's Food ,North Las Vegas,70600338,#4338 #40338 70600338,6855 Aliante Pkwy,NV,89084
Smith's Food ,Pahrump,70600341,#4341 #40341 70600341,601 S Highway 160,NV,89048
Smith's Food ,Mesquite,70600342,#4342 #40342 70600342,350 N Sandhill Blvd,NV,89027
Smith's Food ,Reno,70600344,#4344 #40344 70600344,175 Lemmon Dr,NV,89506
Smith's Food ,North Las Vegas,70600345,#4345 #40345 70600345,5564 Camino Al Norte,NV,89031
Smith's Food ,Henderson,70600346,#4346 #40346 70600346,10616 S Eastern Ave,NV,89052
Smith's Food ,Las Vegas,70600347,#4347 #40347 70600347,9851 W Charleston Blvd,NV,89117
Smith's Food ,Henderson,70600348,#4348 #40348 70600348,1000 N Green Valley Pkwy,NV,89074
Smith's Food ,Las Vegas,70600349,#4349 #40349 70600349,10100 W Tropicana Ave,NV,89147
Smith's Food ,Henderson,70600350,#4350 #40350 70600350,4600 E Sunset Rd,NV,89014
Smith's Food ,Las Vegas,70600351,#4351 #40351 70600351,6130 W Tropicana Ave,NV,89103
Smith's Food ,Las Vegas,70600354,#4354 #40354 70600354,3850 E Flamingo Rd,NV,89121
Smith's Food ,Las Vegas,70600355,#4355 #40355 70600355,450 N Nellis Blvd,NV,89110
Smith's Food ,Carson City,70600356,#4356 #40356 70600356,599 E William St,NV,89701
Smith's Food ,Sparks,70600357,#4357 #40357 70600357,1255 Baring Blvd,NV,89434
Smith's Food ,Las Vegas,70600358,#4358 #40358 70600358,2540 S Maryland Pkwy,NV,89109
Smith's Food ,North Las Vegas,70600361,#4361 #40361 70600361,4700 W Ann Rd,NV,89031
Smith's Food ,Las Vegas,70600363,#4363 #40363 70600363,4015 S Buffalo Dr,NV,89147
Smith's Food ,Las Vegas,70600364,#4364 #40364 70600364,10600 Southern Highlands Pkwy,NV,89141
Smith's Food ,Las Vegas,70600365,#4365 #40365 70600365,6150 W Flamingo Rd,NV,89103
Smith's Food ,Henderson,70600366,#4366 #40366 70600366,55 S Valle Verde Dr,NV,89012
Smith's Food ,Las Vegas,70600370,#4370 #40370 70600370,3160 N Rainbow Blvd,NV,89108
Smith's Food ,Las Vegas,70600371,#4371 #40371 70600371,8555 W Sahara Ave,NV,89117
Smith's Food ,Las Vegas,70600372,#4372 #40372 70600372,1421 N Jones Blvd,NV,89108
Smith's Food ,Las Vegas,70600376,#4376 #40376 70600376,2385 E Windmill Ln,NV,89123
Smith's Food ,Las Vegas,70600377,#4377 #40377 70600377,850 S Rancho Dr,NV,89106
Smith's Food ,Reno,70600378,#4378 #40378 70600378,750 S Meadows Pkwy,NV,89521
Smith's Food ,Henderson,70600381,#4381 #40381 70600381,830 S Boulder Hwy,NV,89015
Smith's Food ,Las Vegas,70600383,#4383 #40383 70600383,4440 N Rancho Dr,NV,89130
Smith's Food ,Las Vegas,70600385,#4385 #40385 70600385,2211 N Rampart Blvd,NV,89128
Smith's Food ,Elko,70600388,#4388 #40388 70600388,1740 Mountain City Hwy,NV,89801
Smith's Food ,Gardnerville,70600389,#4389 #40389 70600389,1341 Us Highway 395 N,NV,89410
Smith's Food ,Wendover,70600390,#4390 #40390 70600390,1855 W Wendover Blvd,NV,89883
Smith's Food ,Dayton,70600392,#4392 #40392 70600392,2200 Us Highway 50 E,NV,89403
Smith's Food ,Las Vegas,70600394,#4394 #40394 70600394,9750 S Maryland Pkwy,NV,89183
Smith's Food ,Las Vegas,70600396,#4396 #40396 70600396,9350 W Flamingo Rd,NV,89147
Smith's Food ,Las Vegas,70600399,#4399 #40399 70600399,4840 W Desert Inn Rd,NV,89102
Smith's Food ,Farmington,70600409,#4409 #40409 70600409,600 E 20th St,NM,87401
Smith's Food ,Rio Rancho,70600413,#4413 #40413 70600413,1000 Rio Rancho Dr SE,NM,87124
Smith's Food ,Los Lunas,70600414,#4414 #40414 70600414,2580 Main St NE,NM,87031
Smith's Food ,Grants,70600415,#4415 #40415 70600415,700 E Roosevelt Ave,NM,87020
Smith's Food ,Albuquerque,70600423,#4423 #40423 70600423,6125 4th St NW,NM,87107
Smith's Food ,Edgewood,70600424,#4424 #40424 70600424,2b State Road 344,NM,87015
Smith's Food ,Taos,70600426,#4426 #40426 70600426,224 Paseo Del Pueblo Sur,NM,87571
Smith's Food ,Albuquerque,70600427,#4427 #40427 70600427,200 Tramway Blvd SE,NM,87123
Smith's Food ,White Rock,70600432,#4432 #40432 70600432,31 Sherwood Blvd,NM,87544
Smith's Food ,Albuquerque,70600439,#4439 #40439 70600439,4700 Tramway Blvd NE,NM,87111
Smith's Food ,Albuquerque,70600443,#4443 #40443 70600443,320 Yale Blvd SE,NM,87106
Smith's Food ,Bountiful,70600444,#4444 #40444 70600444,555 S 200 W,UT,84010
Smith's Food ,Albuquerque,70600446,#4446 #40446 70600446,6001 Lomas Blvd NE,NM,87110
Smith's Food ,Albuquerque,70600448,#4448 #40448 70600448,8301 Golf Course Rd NW,NM,87120
Smith's Food ,Albuquerque,70600450,#4450 #40450 70600450,8040 Academy Rd NE,NM,87111
Smith's Food ,Albuquerque,70600459,#4459 #40459 70600459,8100 Wyoming Blvd NE,NM,87113
Smith's Food ,Santa Fe,70600461,#4461 #40461 70600461,2308 Cerrillos Rd,NM,87505
Smith's Food ,Albuquerque,70600463,#4463 #40463 70600463,4800 Mcmahon Blvd NW,NM,87114
Smith's Food ,Fort Mohave,70600473,#4473 #40473 70600473,4747 S Highway 95,AZ,86426
Smith's Food ,Salt Lake City,70600475,#4475 #40475 70600475,3215 S Valley St,UT,84109
Smith's Food ,Logan,70600477,#4477 #40477 70600477,750 N Main St,UT,84321
Smith's Food ,Albuquerque,70600485,#4485 #40485 70600485,4016 Louisiana Blvd NE,NM,87110
Smith's Food ,Santa Fe,70600491,#4491 #40491 70600491,2110 S Pacheco St,NM,87505
Smith's Food ,Albuquerque,70600494,#4494 #40494 70600494,5850 Eubank Blvd NE,NM,87111
Smith's Food ,West Jordan,70600495,#4495 #40495 70600495,1820 W 9000 S,UT,84088
Smith's Food ,Albuquerque,70600496,#4496 #40496 70600496,3701 Constitution Ave NE,NM,87110
Smith's Food ,Los Alamos,70600497,#4497 #40497 70600497,535 Central Ave,NM,87544
Smith's Food ,Albuquerque,70600498,#4498 #40498 70600498,111 Coors Blvd NW,NM,87121
Smith's Food ,Socorro,70600499,#4499 #40499 70600499,901 N California St,NM,87801
