keywords,city,Aggdata Store Number,store_number,address,state,zip_code
The Vitamin Shoppe,NEW YORK,1,1 #1 Shoppe#1,139 E 57th Street Corner Lexington Ave,NY,10022
The Vitamin Shoppe,NEW YORK,2,2 #2 Shoppe#2,2086 A Broadway,NY,10023
The Vitamin Shoppe,NEW YORK,3,3 #3 Shoppe#3,244 East 86th Street,NY,10028
The Vitamin Shoppe,NEW YORK,4,4 #4 Shoppe#4,375 Avenue Of The Americas,NY,10014
The Vitamin Shoppe,NEW YORK,6,6 #6 Shoppe#6,460 7th Avenue,NY,10001
The Vitamin Shoppe,NEW YORK,7,7 #7 Shoppe#7,100 E 23rd Street,NY,10010
The Vitamin Shoppe,NEW YORK,9,9 #9 Shoppe#9,2478 Broadway,NY,10025
The Vitamin Shoppe,NEW YORK,11,11 #11 Shoppe#11,740 Broadway Astor Place,NY,10003
The Vitamin Shoppe,NEW YORK,12,12 #12 Shoppe#12,1193 3rd Ave 69th Street,NY,10022
The Vitamin Shoppe,NEW YORK,14,14 #14 Shoppe#14,2841 Broadway Near 110th Street,NY,10025
The Vitamin Shoppe,HUNTINGTON STATION,15,15 #15 Shoppe#15,191 Walt Whitman Rd,NY,11746
The Vitamin Shoppe,PARAMUS,18,18 #18 Shoppe#18,556 Route 17 North,NJ,7652
The Vitamin Shoppe,EAST BRUNSWICK,22,22 #22 Shoppe#22,415 Rt. 18 South,NJ,8816
The Vitamin Shoppe,YONKERS,23,23 #23 Shoppe#23,2363 Central Park Ave Unit 55,NY,10701
The Vitamin Shoppe,FOREST HILLS,24,24 #24 Shoppe#24,10760 Queens Blvd,NY,11375
The Vitamin Shoppe,LITTLE FALLS,25,25 #25 Shoppe#25,1565 Route 46 East,NJ,7424
The Vitamin Shoppe,JACKSON HEIGHTS,26,26 #26 Shoppe#26,81-27 37th Ave,NY,11372
The Vitamin Shoppe,UNION,27,27 #27 Shoppe#27,2702 Us Highway 22 W,NJ,7083
The Vitamin Shoppe,STATEN ISLAND,28,28 #28 Shoppe#28,2535 Richmond Avenue,NY,10314
The Vitamin Shoppe,OCEANSIDE,29,29 #29 Shoppe#29,3463 Long Beach Road,NY,11572
The Vitamin Shoppe,NANUET,30,30 #30 Shoppe#30,49 East Route 59,NY,10954
The Vitamin Shoppe,BROOKLYN,31,31 #31 Shoppe#31,469 86th Street,NY,11209
The Vitamin Shoppe,FREEHOLD,32,32 #32 Shoppe#32,3681 Route 9 North,NJ,7728
The Vitamin Shoppe,SYOSSET,33,33 #33 Shoppe#33,190 Jericho Turnpike,NY,11791
The Vitamin Shoppe,TOMS RIVER,34,34 #34 Shoppe#34,1232 Hooper Avenue,NJ,8753
The Vitamin Shoppe,METUCHEN,35,35 #35 Shoppe#35,185 Rt. 1 South Near Edison,NJ,8840
The Vitamin Shoppe,BROOKLYN,36,36 #36 Shoppe#36,32 Court Street,NY,11201
The Vitamin Shoppe,PARAMUS,37,37 #37 Shoppe#37,137 Route 4 West,NJ,7652
The Vitamin Shoppe,MERRICK,38,38 #38 Shoppe#38,2100 Merrick Road,NY,11566
The Vitamin Shoppe,PORT CHESTER,39,39 #39 Shoppe#39,535 Boston Post Road,NY,10573
The Vitamin Shoppe,LEVITTOWN,40,40 #40 Shoppe#40,3145 Hempstead Tpk.,NY,11756
The Vitamin Shoppe,BOHEMIA,41,41 #41 Shoppe#41,5171 Sunrise Hwy.,NY,11716
The Vitamin Shoppe,PRINCETON JUNCTION,42,42 #42 Shoppe#42,721 Nassau Park Blvd R,NJ,8540
The Vitamin Shoppe,MASSAPEQUA,44,44 #44 Shoppe#44,1050 Sunrise Hwy,NY,11758
The Vitamin Shoppe,WILMINGTON,46,46 #46 Shoppe#46,4609 Concord Pike,DE,19803
The Vitamin Shoppe,FALLS CHURCH,47,47 #47 Shoppe#47,5524 Leesburg Pike,VA,22041
The Vitamin Shoppe,ROCKVILLE,48,48 #48 Shoppe#48,1803 Rockville Pike,MD,20852
The Vitamin Shoppe,BRYN MAWR,49,49 #49 Shoppe#49,715 W.Lancaster Ave.,PA,19010
The Vitamin Shoppe,FAIRFAX,51,51 #51 Shoppe#51,11015-B Fairfax Blvd (Formerly Main St.),VA,22030
The Vitamin Shoppe,GAITHERSBURG,52,52 #52 Shoppe#52,300 N. Frederick Ave. Gaitherstown Plaza,MD,20877
The Vitamin Shoppe,MONTGOMERYVILLE,53,53 #53 Shoppe#53,757 Bethlehem Pike,PA,18936
The Vitamin Shoppe,FREDERICK,54,54 #54 Shoppe#54,1328 W.Patrick St.,MD,21702
The Vitamin Shoppe,VIENNA,55,55 #55 Shoppe#55,1927 Old Gallows Road,VA,22182
The Vitamin Shoppe,EAST HANOVER,56,56 #56 Shoppe#56,327 Route 10,NJ,7936
The Vitamin Shoppe,VALLEY STREAM,57,57 #57 Shoppe#57,672 W. Sunrise Hwy,NY,11581
The Vitamin Shoppe,WALDORF,58,58 #58 Shoppe#58,3144 Crain Highway Rt 301,MD,20603
The Vitamin Shoppe,OWINGS MILLS,59,59 #59 Shoppe#59,9404 Reisterstown Road,MD,21117
The Vitamin Shoppe,PHILADELPHIA,60,60 #60 Shoppe#60,1701 Chestnut St.,PA,19103
The Vitamin Shoppe,BOSTON,62,62 #62 Shoppe#62,268 Washington St.,MA,2108
The Vitamin Shoppe,MANASSAS,63,63 #63 Shoppe#63,10944 Bulloch Dr.,VA,20109
The Vitamin Shoppe,FREDERICKSBURG,64,64 #64 Shoppe#64,1471 Carl D. Silver Parkway,VA,22401
The Vitamin Shoppe,CAMBRIDGE,65,65 #65 Shoppe#65,18-28 John F.Kennedy Street,MA,2142
The Vitamin Shoppe,COLUMBIA,66,66 #66 Shoppe#66,6250 L.Columbia Crossing Circle,MD,21044
The Vitamin Shoppe,PEABODY,67,67 #67 Shoppe#67,300 Andover Street,MA,1960
The Vitamin Shoppe,SPRINGFIELD,68,68 #68 Shoppe#68,1058 Baltimore Pike,PA,19064
The Vitamin Shoppe,LAUREL,69,69 #69 Shoppe#69,14815 Baltimore Avenue,MD,20707
The Vitamin Shoppe,WHITEHALL,70,70 #70 Shoppe#70,2365 Macarthur Rd,PA,18052
The Vitamin Shoppe,SAUGUS,71,71 #71 Shoppe#71,735 Broadway,MA,1906
The Vitamin Shoppe,EATONTOWN,73,73 #73 Shoppe#73,41 Nj-36,NJ,7724
The Vitamin Shoppe,NORWALK,75,75 #75 Shoppe#75,561 Connecticut Ave,CT,6854
The Vitamin Shoppe,NEW YORK,76,76 #76 Shoppe#76,24-30 Union Square E,NY,10003
The Vitamin Shoppe,Plantation,78,78 #78 Shoppe#78,268 South University Dr.,FL,33324
The Vitamin Shoppe,WEST PALM BEACH,79,79 #79 Shoppe#79,4587 Okeechobee Blvd.,FL,33417
The Vitamin Shoppe,SOUTH MIAMI,80,80 #80 Shoppe#80,8303 South Dixie Hwy.,FL,33143
The Vitamin Shoppe,HIALEAH,81,81 #81 Shoppe#81,1195 West 49th St.,FL,33012
The Vitamin Shoppe,HOLMDEL,82,82 #82 Shoppe#82,2128 Nj-35,NJ,7733
The Vitamin Shoppe,WILMINGTON,83,83 #83 Shoppe#83,3847 Kirkwood Hwy.,DE,19808
The Vitamin Shoppe,EXTON,84,84 #84 Shoppe#84,219 North Pottstown Pike,PA,19341
The Vitamin Shoppe,STEINWAY,85,85 #85 Shoppe#85,3126 Steinway Street,NY,11103
The Vitamin Shoppe,MILFORD,86,86 #86 Shoppe#86,1260-1270 Boston Post Rd.,CT,6460
The Vitamin Shoppe,OCOEE,87,87 #87 Shoppe#87,9693 West Colonial Dr,FL,34761
The Vitamin Shoppe,ORLANDO,88,88 #88 Shoppe#88,1233 West Sand Lake Road Florida Mall,FL,32809
The Vitamin Shoppe,CORAL SPRINGS,89,89 #89 Shoppe#89,1400 University Drive,FL,33071
The Vitamin Shoppe,ORLANDO,90,90 #90 Shoppe#90,3807 East Colonial Drive,FL,32803
The Vitamin Shoppe,FORT LAUDERDALE,101,101 #101 Shoppe#101,2205 N Federal Highway,FL,33305
The Vitamin Shoppe,MANCHESTER,105,105 #105 Shoppe#105,105 Buckland Hills Drive,CT,6040
The Vitamin Shoppe,STERLING,109,109 #109 Shoppe#109,45-450 Dulles Town Crossing Plaza Suite,VA,20166
The Vitamin Shoppe,BURLINGTON,112,112 #112 Shoppe#112,47 Middlesex Trpk,MA,1803
The Vitamin Shoppe,WATER MILL,113,113 #113 Shoppe#113,760 Montauk Highway Unit 6a,NY,11976
The Vitamin Shoppe,JENSEN BEACH,114,114 #114 Shoppe#114,2960 North Federal Hwy,FL,34957
The Vitamin Shoppe,BRANDON,116,116 #116 Shoppe#116,101 Brandon Town Center Drive,FL,33511
The Vitamin Shoppe,NORTH OLMSTED,117,117 #117 Shoppe#117,26532 Lorain Road,OH,44070
The Vitamin Shoppe,WELLINGTON,118,118 #118 Shoppe#118,10590 Forrest Hill Blvd Bay 200 Wellingt,FL,33414
The Vitamin Shoppe,HARRISBURG,119,119 #119 Shoppe#119,5125 Jonestown Road Unit 145,PA,17112
The Vitamin Shoppe,ORLAND PARK,120,120 #120 Shoppe#120,15131 South La Grange Rd,IL,60462
The Vitamin Shoppe,BAY SHORE,121,121 #121 Shoppe#121,1675 Sunrise Highway,NY,11706
The Vitamin Shoppe,CHESAPEAKE,122,122 #122 Shoppe#122,1412 Greenbrier Parkway,VA,23320
The Vitamin Shoppe,CRYSTAL LAKE,123,123 #123 Shoppe#123,815 Cog Circle (Archway East Shopping Ce,IL,60014
The Vitamin Shoppe,TAMPA,124,124 #124 Shoppe#124,2201 East Fowler Avenue,FL,33612
The Vitamin Shoppe,WOODLAND HILLS,125,125 #125 Shoppe#125,21436 West Victory Blvd,CA,91367
The Vitamin Shoppe,LEDGEWOOD,126,126 #126 Shoppe#126,450 State Route 10 West,NJ,7852
The Vitamin Shoppe,MERRILLVILLE,127,127 #127 Shoppe#127,2217-B East 80th Avenue,IN,46410
The Vitamin Shoppe,ARLINGTON HEIGHTS,128,128 #128 Shoppe#128,1 West Rand Road,IL,60004
The Vitamin Shoppe,MAYFIELD HEIGHTS,129,129 #129 Shoppe#129,6255 Mayfield Road,OH,44124
The Vitamin Shoppe,GENEVA,130,130 #130 Shoppe#130,1034 Commons Drive,IL,60134
The Vitamin Shoppe,MORROW,131,131 #131 Shoppe#131,1951 Mt. Zion Road,GA,30260
The Vitamin Shoppe,SANTA ANA,132,132 #132 Shoppe#132,3929 S. Bristol Street,CA,92704
The Vitamin Shoppe,ALISO VIEJO,133,133 #133 Shoppe#133,26831 Aliso Creek Rd Unit A,CA,92656
The Vitamin Shoppe,MAYS LANDING,134,134 #134 Shoppe#134,2300 Wrangleboro Road Unit 720,NJ,8330
The Vitamin Shoppe,DEERFIELD,135,135 #135 Shoppe#135,110 S. Waukegan Rd.,IL,60015
The Vitamin Shoppe,BROOKFIELD,136,136 #136 Shoppe#136,21 Federal Road,CT,6804
The Vitamin Shoppe,SPRINGFIELD,137,137 #137 Shoppe#137,6701 Loisdale Road,VA,22150
The Vitamin Shoppe,PALMDALE,138,138 #138 Shoppe#138,39256 10th St West,CA,93551
The Vitamin Shoppe,NORTHRIDGE,139,139 #139 Shoppe#139,9100 Tampa Avenue,CA,91324
The Vitamin Shoppe,TAMPA,140,140 #140 Shoppe#140,8019 Citrus Park Dr,FL,33624
The Vitamin Shoppe,CHATTANOOGA,141,141 #141 Shoppe#141,2021 Gunbarrel Road,TN,37421
The Vitamin Shoppe,HANOVER,143,143 #143 Shoppe#143,7069-B Arundel Mills Bld,MD,21076
The Vitamin Shoppe,SAINT PETERSBURG,144,144 #144 Shoppe#144,2301 Tyrone Boulevard North,FL,33710
The Vitamin Shoppe,CALUMET CITY,145,145 #145 Shoppe#145,1243 Torrence Ave.,IL,60409
The Vitamin Shoppe,NILES,146,146 #146 Shoppe#146,8600 West Golf Road,IL,60714
The Vitamin Shoppe,CANTON,147,147 #147 Shoppe#147,4333 Everhard Rd,OH,44718
The Vitamin Shoppe,VENTURA,148,148 #148 Shoppe#148,4860 Telephone Road Suite 100a,CA,93003
The Vitamin Shoppe,Oceanside,149,149 #149 Shoppe#149,2641 A Vista Way,CA,92054
The Vitamin Shoppe,ORANGE,151,151 #151 Shoppe#151,655 South Main Street Suite 250,CA,92868
The Vitamin Shoppe,CLEARWATER,152,152 #152 Shoppe#152,2719 Gulf To Bay Blvd.,FL,33759
The Vitamin Shoppe,PINOLE,153,153 #153 Shoppe#153,1471 Fitzgerald Dr. Suite 100,CA,94564
The Vitamin Shoppe,PLANO,155,155 #155 Shoppe#155,5930 West Park Blvd. Suite 900,TX,75093
The Vitamin Shoppe,SAN DIEGO,156,156 #156 Shoppe#156,3111 Sports Arena Blvd,CA,92110
The Vitamin Shoppe,AUBURN,157,157 #157 Shoppe#157,434 Southbridge Street,MA,1501
The Vitamin Shoppe,FRISCO,158,158 #158 Shoppe#158,2995 Preston Road Bldg,TX,75034
The Vitamin Shoppe,COLUMBIA,159,159 #159 Shoppe#159,195 Harbison Blvd,SC,29212
The Vitamin Shoppe,FAYETTEVILLE,160,160 #160 Shoppe#160,5075 Morganton Rd.,NC,28314
The Vitamin Shoppe,LARKSPUR,161,161 #161 Shoppe#161,2062 Redwood Highway,CA,94904
The Vitamin Shoppe,BREA,162,162 #162 Shoppe#162,299 South Randolph Street,CA,92821
The Vitamin Shoppe,DENTON,163,163 #163 Shoppe#163,1507 S. Loop 288,TX,76210
The Vitamin Shoppe,MADISON,164,164 #164 Shoppe#164,2225 Gallatin Pike North,TN,37115
The Vitamin Shoppe,TEMECULA,165,165 #165 Shoppe#165,40758 Winchester Rd,CA,92591
The Vitamin Shoppe,ANTIOCH,166,166 #166 Shoppe#166,5779 Lone Tree Way Suite A,CA,94531
The Vitamin Shoppe,FRESNO,167,167 #167 Shoppe#167,7641 N Blackston Ave.,CA,93720
The Vitamin Shoppe,MESQUITE,168,168 #168 Shoppe#168,18661 Lbj Freeway Suite 100,TX,75150
The Vitamin Shoppe,NORTH CHARLESTON,169,169 #169 Shoppe#169,2115 Ashley Phospate Rd,SC,29418
The Vitamin Shoppe,WYOMISSING,170,170 #170 Shoppe#170,2719 N. Meridian Blvd Ste W3,PA,19610
The Vitamin Shoppe,VERNON HILLS,171,171 #171 Shoppe#171,325 North Milwaukee Ave,IL,60061
The Vitamin Shoppe,HOUSTON,172,172 #172 Shoppe#172,7009 Highway Six North,TX,77095
The Vitamin Shoppe,SKOKIE,173,173 #173 Shoppe#173,9410 North Skokie Blvd.,IL,60077
The Vitamin Shoppe,PASADENA,175,175 #175 Shoppe#175,181 South Lake Ave Unit 5,CA,91109
The Vitamin Shoppe,HUNTINGTON BEACH,176,176 #176 Shoppe#176,7672 Edinger Ave,CA,92647
The Vitamin Shoppe,SAN JOSE,177,177 #177 Shoppe#177,3150 Stevens Creek Blvd,CA,95117
The Vitamin Shoppe,LOS ALTOS,178,178 #178 Shoppe#178,4756 El Camino Real,CA,94022
The Vitamin Shoppe,REDLANDS,179,179 #179 Shoppe#179,27310 W. Lugonia Ave Suite C-4,CA,92374
The Vitamin Shoppe,CORONA,180,180 #180 Shoppe#180,3539 Grand Oaks,CA,92881
The Vitamin Shoppe,THOUSAND OAKS,181,181 #181 Shoppe#181,75 Thousand Oaks Blvd Unit B1-B3,CA,91360
The Vitamin Shoppe,CITRUS HEIGHTS,182,182 #182 Shoppe#182,6147 Sunrise Blvd.,CA,95610
The Vitamin Shoppe,LA MESA,183,183 #183 Shoppe#183,5500 Grossmont Center Dr,CA,91942
The Vitamin Shoppe,SOUTHLAKE,184,184 #184 Shoppe#184,2600 East Southlake Blvd. Suite 180,TX,76092
The Vitamin Shoppe,HOUSTON,185,185 #185 Shoppe#185,7501 Westheimer Road,TX,77063
The Vitamin Shoppe,MEMPHIS,186,186 #186 Shoppe#186,780-101 Truse Pkwy,TN,38117
The Vitamin Shoppe,FRANKLIN,187,187 #187 Shoppe#187,1770-B Galleria Blvd,TN,37067
The Vitamin Shoppe,BOYNTON BEACH,188,188 #188 Shoppe#188,302 North Congress Ave,FL,33426
The Vitamin Shoppe,DURHAM,189,189 #189 Shoppe#189,6917 Fayetteville Rd Suite 105,NC,27713
The Vitamin Shoppe,GILROY,190,190 #190 Shoppe#190,6965 Camino Arroyo Drive Suite 10,CA,95020
The Vitamin Shoppe,IRVING,191,191 #191 Shoppe#191,800 Market Place,TX,75060
The Vitamin Shoppe,THE WOODLANDS,192,192 #192 Shoppe#192,19075 Interstate 45 N,TX,77385
The Vitamin Shoppe,LOS ANGELES,193,193 #193 Shoppe#193,101 North Fairfax Ave.,CA,90036
The Vitamin Shoppe,RANCHO CUCAMONGA,194,194 #194 Shoppe#194,12181 Foothill Blvd,CA,91739
The Vitamin Shoppe,NEW YORK,195,195 #195 Shoppe#195,385 5th Ave,NY,10016
The Vitamin Shoppe,RALEIGH,196,196 #196 Shoppe#196,8421 Brier Creek Pkwy Suite 101,NC,27617
The Vitamin Shoppe,EAST POINT,197,197 #197 Shoppe#197,3440 Camp Creek Pkwy Suite 1130,GA,30344
The Vitamin Shoppe,MENTOR,198,198 #198 Shoppe#198,7837 Mentor Ave.,OH,44060
The Vitamin Shoppe,OCALA,199,199 #199 Shoppe#199,2701 Sw College Road,FL,34474
The Vitamin Shoppe,HICKORY,200,200 #200 Shoppe#200,2369 Highway 70 Se,NC,28602
The Vitamin Shoppe,BURBANK,201,201 #201 Shoppe#201,7782 S. Cicero Ave.,IL,60459
The Vitamin Shoppe,NEW YORK,202,202 #202 Shoppe#202,257 8th Ave,NY,10011
The Vitamin Shoppe,GREENSBORO,203,203 #203 Shoppe#203,4502 West Wendover Ave,NC,27409
The Vitamin Shoppe,HOUSTON,204,204 #204 Shoppe#204,19712 Katy Freeway,TX,77094
The Vitamin Shoppe,BROOKFIELD,205,205 #205 Shoppe#205,15455 West Bluemound Road Suite 300,WI,53005
The Vitamin Shoppe,COLUMBUS,207,207 #207 Shoppe#207,5555 Whittlesey Blvd Bldg 9 - Suite 1,GA,31909
The Vitamin Shoppe,WEBSTER,208,208 #208 Shoppe#208,19411 Gulf Freeway Unit 4,TX,77598
The Vitamin Shoppe,DALLAS,209,209 #209 Shoppe#209,5425 Greenville Ave,TX,75206
The Vitamin Shoppe,PHOENIX,210,210 #210 Shoppe#210,3033 W. Peoria Ave,AZ,85029
The Vitamin Shoppe,ROSEVILLE,211,211 #211 Shoppe#211,31945 Gratiot Ave,MI,48066
The Vitamin Shoppe,MATTHEWS,212,212 #212 Shoppe#212,1908 Matthews Township Pkwy,NC,28105
The Vitamin Shoppe,NEWPORT NEWS,213,213 #213 Shoppe#213,12266 Jefferson Ave,VA,23602
The Vitamin Shoppe,GREENFIELD,214,214 #214 Shoppe#214,7515 West Layton Ave,WI,53220
The Vitamin Shoppe,CHICAGO,215,215 #215 Shoppe#215,2747 North Clark Street,IL,60614
The Vitamin Shoppe,GLENDALE,216,216 #216 Shoppe#216,401 North Glendale Ave,CA,91206
The Vitamin Shoppe,BOARDMAN,217,217 #217 Shoppe#217,439 Boardman Poland Road,OH,44512
The Vitamin Shoppe,HURST,218,218 #218 Shoppe#218,1497 West Pipeline Road,TX,76053
The Vitamin Shoppe,BUFORD,219,219 #219 Shoppe#219,3226 Buford Drive,GA,30519
The Vitamin Shoppe,MILWAUKEE,220,220 #220 Shoppe#220,2543 Mayfair Road,WI,53226
The Vitamin Shoppe,YORK,221,221 #221 Shoppe#221,415 Loucks Road,PA,17404
The Vitamin Shoppe,DARIEN,222,222 #222 Shoppe#222,2415 75th Street Unit A,IL,60561
The Vitamin Shoppe,MELBOURNE,223,223 #223 Shoppe#223,1653 West New Haven Ave,FL,32904
The Vitamin Shoppe,LEWISVILLE,224,224 #224 Shoppe#224,2397 South Stemmons Fwy,TX,75067
The Vitamin Shoppe,PANAMA CITY,225,225 #225 Shoppe#225,2296 Martin Luther King Blvd Unit B,FL,32401
The Vitamin Shoppe,CENTENNIAL,226,226 #226 Shoppe#226,8283 S. Akron Street Suite 100,CO,80112
The Vitamin Shoppe,WESTLAND,227,227 #227 Shoppe#227,35599 Warren Road,MI,48185
The Vitamin Shoppe,AVONDALE,229,229 #229 Shoppe#229,10020 W. Mcdowell Suite 100,AZ,85392
The Vitamin Shoppe,CEDAR HILL,230,230 #230 Shoppe#230,719 North Highway 67,TX,75104
The Vitamin Shoppe,ALTAMONTE SPRINGS,231,231 #231 Shoppe#231,275 E. Altamonte Dr,FL,32701
The Vitamin Shoppe,HOUSTON,232,232 #232 Shoppe#232,5829 Kirby Drive,TX,77005
The Vitamin Shoppe,ORANGE PARK,233,233 #233 Shoppe#233,60 Blanding Blvd,FL,32073
The Vitamin Shoppe,INDIANAPOLIS,235,235 #235 Shoppe#235,3730 East 82nd Street,IN,46240
The Vitamin Shoppe,UPLAND,236,236 #236 Shoppe#236,1895 North Campus Ave,CA,91784
The Vitamin Shoppe,SAN JOSE,237,237 #237 Shoppe#237,5592-A Santa Teresa Blvd,CA,95123
The Vitamin Shoppe,TROY,238,238 #238 Shoppe#238,300 John R Road Suite C,MI,48083
The Vitamin Shoppe,UNION CITY,239,239 #239 Shoppe#239,32109 Union Landing Blvd,CA,94587
The Vitamin Shoppe,SEASIDE,240,240 #240 Shoppe#240,1962 Del Monte Blvd,CA,93955
The Vitamin Shoppe,BROOKLYN,241,241 #241 Shoppe#241,12 4th Ave,NY,11217
The Vitamin Shoppe,HENDERSON,242,242 #242 Shoppe#242,1205 West Sunset Rd. Suite 100,NV,89014
The Vitamin Shoppe,COLORADO SPRINGS,243,243 #243 Shoppe#243,7325 N.Academy Blvd,CO,80920
The Vitamin Shoppe,TALLAHASSEE,244,244 #244 Shoppe#244,1313 Apalachee Pkwy,FL,32301
The Vitamin Shoppe,LAKELAND,245,245 #245 Shoppe#245,3813 Us Highway 98 N,FL,33809
The Vitamin Shoppe,WACO,246,246 #246 Shoppe#246,2456 W Loop 340,TX,76711
The Vitamin Shoppe,ROUND ROCK,247,247 #247 Shoppe#247,3151 South Ih35 Suite 650,TX,78664
The Vitamin Shoppe,ATLANTA,248,248 #248 Shoppe#248,1209 Caroline St,GA,30307
The Vitamin Shoppe,BEAVERTON,249,249 #249 Shoppe#249,2711 Nw Towne Center Dr.,OR,97006
The Vitamin Shoppe,REDMOND,250,250 #250 Shoppe#250,17124 Redmond Way,WA,98052
The Vitamin Shoppe,SAN DIEGO,251,251 #251 Shoppe#251,11144 Rancho Carmel Drive,CA,92128
The Vitamin Shoppe,JACKSONVILLE,252,252 #252 Shoppe#252,4668 Town Crossing Dr Suite 101,FL,32246
The Vitamin Shoppe,JOHNSON CITY,253,253 #253 Shoppe#253,3120 Peoples St,TN,37604
The Vitamin Shoppe,GLEN ALLEN,254,254 #254 Shoppe#254,10097 Brook Rd,VA,23059
The Vitamin Shoppe,FARMINGTON HILLS,255,255 #255 Shoppe#255,30730 Orchard Lake Road,MI,48334
The Vitamin Shoppe,CARY,256,256 #256 Shoppe#256,2121 Walnut Street,NC,27511
The Vitamin Shoppe,NEW HARTFORD,257,257 #257 Shoppe#257,4610 Commercial Drive,NY,13413
The Vitamin Shoppe,WINCHESTER,258,258 #258 Shoppe#258,2500 S Pleasant Valley Road,VA,22601
The Vitamin Shoppe,MONTGOMERY,261,261 #261 Shoppe#261,7345 E.Chase Blvd,AL,36117
The Vitamin Shoppe,COLUMBIA,262,262 #262 Shoppe#262,2130 Beltline Blvd,SC,29204
The Vitamin Shoppe,ROCHESTER HILLS,263,263 #263 Shoppe#263,2603 S.Rochester Road,MI,48307
The Vitamin Shoppe,NEWINGTON,264,264 #264 Shoppe#264,3391 Berlin Tpke & Pane Rd,CT,6111
The Vitamin Shoppe,MISHAWAKA,265,265 #265 Shoppe#265,5724 Grape Ave,IN,46545
The Vitamin Shoppe,VIRGINIA BEACH,266,266 #266 Shoppe#266,233 Independence Blvd,VA,23462
The Vitamin Shoppe,PORTLAND,267,267 #267 Shoppe#267,838 Sw 4th Ave,OR,97204
The Vitamin Shoppe,AUBURN HILLS,268,268 #268 Shoppe#268,3970 Baldwin Rd,MI,48326
The Vitamin Shoppe,NEWTON UPPER FALLS,269,269 #269 Shoppe#269,230 Needham Street,MA,2464
The Vitamin Shoppe,ALLEN PARK,270,270 #270 Shoppe#270,23051 Outer Dr,MI,48101
The Vitamin Shoppe,OAKBROOK TERRACE,271,271 #271 Shoppe#271,17w700 22nd Street,IL,60181
The Vitamin Shoppe,NORRIDGE,272,272 #272 Shoppe#272,4275 N. Harlem Ave,IL,60706
The Vitamin Shoppe,ALGONQUIN,273,273 #273 Shoppe#273,1496 S.Randall Rd,IL,60102
The Vitamin Shoppe,ROCHESTER,274,274 #274 Shoppe#274,3240 Monroe Ave,NY,14534
The Vitamin Shoppe,PHOENIX,275,275 #275 Shoppe#275,1935 E. Camelback Rd,AZ,85016
The Vitamin Shoppe,MANHATTAN BEACH,276,276 #276 Shoppe#276,1800 Rosecrans Ave,CA,90266
The Vitamin Shoppe,SANTA ROSA,277,277 #277 Shoppe#277,2661 Santa Rosa Ave,CA,95407
The Vitamin Shoppe,PASADENA,278,278 #278 Shoppe#278,5683 Fairmont Parkway,TX,77505
The Vitamin Shoppe,VISALIA,279,279 #279 Shoppe#279,4009 S. Mooney Blvd,CA,93277
The Vitamin Shoppe,NEW ORLEANS,280,280 #280 Shoppe#280,4935 Magazine St,LA,70115
The Vitamin Shoppe,CHANDLER,281,281 #281 Shoppe#281,3100 W. Chandler Blvd Unit C,AZ,85226
The Vitamin Shoppe,SLIDELL,282,282 #282 Shoppe#282,179 Northshore Blvd. Suite 7,LA,70460
The Vitamin Shoppe,PHOENIX,283,283 #283 Shoppe#283,4740 E.Shea Blvd,AZ,85028
The Vitamin Shoppe,HOUSTON,285,285 #285 Shoppe#285,7504 Fm 1960 West,TX,77070
The Vitamin Shoppe,PALM BEACH GARDENS,286,286 #286 Shoppe#286,11320 Legacy Ave,FL,33410
The Vitamin Shoppe,SOUTH BURLINGTON,287,287 #287 Shoppe#287,195 Dorset Street,VT,5403
The Vitamin Shoppe,PORTLAND,289,289 #289 Shoppe#289,1337 N.Hayden Island Dr Jantzen Beach,OR,97217
The Vitamin Shoppe,BOISE,290,290 #290 Shoppe#290,347 N Milwaukee St,ID,83704
The Vitamin Shoppe,RALEIGH,291,291 #291 Shoppe#291,411 E.Six Forks Rd,NC,27609
The Vitamin Shoppe,ARLINGTON,292,292 #292 Shoppe#292,4701 S.Cooper St,TX,76017
The Vitamin Shoppe,TOLEDO,293,293 #293 Shoppe#293,5055 Monroe Street,OH,43623
The Vitamin Shoppe,ALPHARETTA,294,294 #294 Shoppe#294,6110 North Point Pkwy,GA,30022
The Vitamin Shoppe,SALISBURY,295,295 #295 Shoppe#295,2657 N.Salisbury Blvd Suite 101,MD,21801
The Vitamin Shoppe,RARITAN,296,296 #296 Shoppe#296,397 Rt 28 Somerville Circle,NJ,8869
The Vitamin Shoppe,CHEEKTOWAGA,297,297 #297 Shoppe#297,1775 Walden Ave Suite 100,NY,14225
The Vitamin Shoppe,DAYTONA BEACH,298,298 #298 Shoppe#298,2266 W International Speedway,FL,32114
The Vitamin Shoppe,MODESTO,299,299 #299 Shoppe#299,3801 Pelandale Ave,CA,95356
The Vitamin Shoppe,BRICK,300,300 #300 Shoppe#300,588 Route 70,NJ,8723
The Vitamin Shoppe,FORT WORTH,301,301 #301 Shoppe#301,4801 S.Hulen Street,TX,76132
The Vitamin Shoppe,IRVINE,302,302 #302 Shoppe#302,111 Fortune Drive Space 915,CA,92618
The Vitamin Shoppe,SHELBY,303,303 #303 Shoppe#303,14771 Hall Road,MI,48315
The Vitamin Shoppe,PALM DESERT,304,304 #304 Shoppe#304,72333 Highway 111,CA,92260
The Vitamin Shoppe,GREENVILLE,305,305 #305 Shoppe#305,"1129 Woodruff Road, Suite E",SC,29607
The Vitamin Shoppe,PLANO,307,307 #307 Shoppe#307,1001 North Central Expwy Suite 100,TX,75075
The Vitamin Shoppe,ELK GROVE,308,308 #308 Shoppe#308,8255 Laguna Blvd Suite 100,CA,95758
The Vitamin Shoppe,NORTHGLENN,309,309 #309 Shoppe#309,11985 Washington Street Unit 1,CO,80233
The Vitamin Shoppe,WINSTON-SALEM,310,310 #310 Shoppe#310,114 Hanes Mall Circle,NC,27103
The Vitamin Shoppe,WASHINGTON,311,311 #311 Shoppe#311,3100 Nw 14th St,DC,20010
The Vitamin Shoppe,GLENDALE,312,312 #312 Shoppe#312,7708 W Bell Road Arrowhead,AZ,85308
The Vitamin Shoppe,TUKWILA,313,313 #313 Shoppe#313,17401 Southcenter Pkwy Suite A,WA,98188
The Vitamin Shoppe,SAN ANTONIO,314,314 #314 Shoppe#314,17602 La Cantera Parkway,TX,78256
The Vitamin Shoppe,COLUMBUS,315,315 #315 Shoppe#315,1370 Polaris Parkway,OH,43240
The Vitamin Shoppe,ANN ARBOR,316,316 #316 Shoppe#316,3365 Washtenaw Ave,MI,48104
The Vitamin Shoppe,EDGEWATER,317,317 #317 Shoppe#317,12 The Promenade,NJ,7020
The Vitamin Shoppe,FORT COLLINS,318,318 #318 Shoppe#318,2600 S. College Avenue,CO,80525
The Vitamin Shoppe,GREENWOOD,319,319 #319 Shoppe#319,1234 Hwy 31 North,IN,46142
The Vitamin Shoppe,NEW YORK,320,320 #320 Shoppe#320,174 Broadway,NY,10038
The Vitamin Shoppe,COLORADO SPRINGS,321,321 #321 Shoppe#321,2002 Southgate Rd (Broadmoor),CO,80906
The Vitamin Shoppe,LONG BEACH,322,322 #322 Shoppe#322,5600 E. 7th St.,CA,90814
The Vitamin Shoppe,LOS ANGELES,323,323 #323 Shoppe#323,13376 Washington Blvd,CA,90066
The Vitamin Shoppe,GARDEN CITY,324,324 #324 Shoppe#324,502 Old Country Rd,NY,11530
The Vitamin Shoppe,KING OF PRUSSIA,325,325 #325 Shoppe#325,445 West Dekalb Pike,PA,19406
The Vitamin Shoppe,CLIFTON,327,327 #327 Shoppe#327,370 State Rt 3,NJ,7014
The Vitamin Shoppe,SAN ANTONIO,328,328 #328 Shoppe#328,438 Nw Loop 410 Suite 107,TX,78216
The Vitamin Shoppe,TONAWANDA,329,329 #329 Shoppe#329,1250 Niagara Falls Blvd,NY,14150
The Vitamin Shoppe,RICHMOND,330,330 #330 Shoppe#330,11440 Midlothian Tpk,VA,23235
The Vitamin Shoppe,ALBANY,331,331 #331 Shoppe#331,108 Wolf Road,NY,12205
The Vitamin Shoppe,MIDDLETOWN,332,332 #332 Shoppe#332,473 Route 211 East,NY,10940
The Vitamin Shoppe,FARMINGTON,333,333 #333 Shoppe#333,1600 S East Road,CT,6032
The Vitamin Shoppe,ORLANDO,334,334 #334 Shoppe#334,464 N Alafaya Trail,FL,32828
The Vitamin Shoppe,CHERRY HILL,335,335 #335 Shoppe#335,2010 Marlton Pike West Suite H,NJ,8002
The Vitamin Shoppe,WARWICK,336,336 #336 Shoppe#336,1376 Bald Hill Road,RI,2886
The Vitamin Shoppe,BEL AIR,337,337 #337 Shoppe#337,"699 Baltimore Pike, Unit D",MD,21014
The Vitamin Shoppe,APPLETON,338,338 #338 Shoppe#338,4359 West Wisconsin Ave,WI,54913
The Vitamin Shoppe,DEPTFORD,339,339 #339 Shoppe#339,1188 Hurffville Rd,NJ,8096
The Vitamin Shoppe,WASHINGTON TOWNSHIP,340,340 #340 Shoppe#340,771 N. Lexington Springmill Rd,OH,44906
The Vitamin Shoppe,ENCINITAS,341,341 #341 Shoppe#341,110 N. El Camino Real,CA,92024
The Vitamin Shoppe,NASHUA,342,342 #342 Shoppe#342,274 Daniel Webster Highway,NH,3060
The Vitamin Shoppe,NEW YORK,343,343 #343 Shoppe#343,509 Avenue Of The Americas,NY,10011
The Vitamin Shoppe,RICHMOND,344,344 #344 Shoppe#344,5701 W. Broad St,VA,23230
The Vitamin Shoppe,KNOXVILLE,345,345 #345 Shoppe#345,7833 Kingston Pike,TN,37919
The Vitamin Shoppe,WHITE PLAINS,346,346 #346 Shoppe#346,455 Central Ave,NY,10601
The Vitamin Shoppe,PINEVILLE,347,347 #347 Shoppe#347,9620 Pineville-Matthews Road,NC,28134
The Vitamin Shoppe,SARASOTA,348,348 #348 Shoppe#348,4104 S. Tamiami Trail,FL,34231
The Vitamin Shoppe,MIAMI,349,349 #349 Shoppe#349,16383 Sw 88th Street,FL,33196
The Vitamin Shoppe,MANHATTAN,350,350 #350 Shoppe#350,931 8th Ave,NY,10019
The Vitamin Shoppe,VERO BEACH,351,351 #351 Shoppe#351,6280 20th Street,FL,32966
The Vitamin Shoppe,BOULDER,352,352 #352 Shoppe#352,1905 29th Street Suite 1176,CO,80301
The Vitamin Shoppe,OLYMPIA,353,353 #353 Shoppe#353,1111 Cooper Point Rd Sw,WA,98502
The Vitamin Shoppe,EAST NORTHPORT,354,354 #354 Shoppe#354,4199 East Jericho Turnpike,NY,11725
The Vitamin Shoppe,NORTH MIAMI,355,355 #355 Shoppe#355,12301 Biscayne Blvd,FL,33181
The Vitamin Shoppe,BRADENTON,356,356 #356 Shoppe#356,4022 14th Street West,FL,34205
The Vitamin Shoppe,RENO,357,357 #357 Shoppe#357,6135 S. Virginia St,NV,89502
The Vitamin Shoppe,GLEN ALLEN,358,358 #358 Shoppe#358,11301 West Broad Street Bldg B Suite 101,VA,23060
The Vitamin Shoppe,MISSION VIEJO,359,359 #359 Shoppe#359,28161 Marguerite Parkway,CA,92692
The Vitamin Shoppe,SAN LUIS OBISPO,361,361 #361 Shoppe#361,1507 Froom Ranch Way,CA,93401
The Vitamin Shoppe,AIEA,362,362 #362 Shoppe#362,91-199 Kamehameha Highway,HI,96701
The Vitamin Shoppe,MANHASSET,363,363 #363 Shoppe#363,1514 Northern Blvd,NY,11030
The Vitamin Shoppe,NEW YORK,364,364 #364 Shoppe#364,639 Third Ave,NY,10017
The Vitamin Shoppe,MCALLEN,365,365 #365 Shoppe#365,North 10th St & Nolana Ave,TX,78504
The Vitamin Shoppe,ROSEVILLE,366,366 #366 Shoppe#366,1230 Roseville Parkway,CA,95678
The Vitamin Shoppe,BELLEVUE,367,367 #367 Shoppe#367,10415 Ne 4th Street,WA,98004
The Vitamin Shoppe,HONOLULU,368,368 #368 Shoppe#368,1555 Kapiolani Blvd Building 1509,HI,96814
The Vitamin Shoppe,KANEOHE,369,369 #369 Shoppe#369,46-047 Kamehameha Highway,HI,96744
The Vitamin Shoppe,WEST COVINA,370,370 #370 Shoppe#370,235 N Citrus St,CA,91791
The Vitamin Shoppe,DENVER,371,371 #371 Shoppe#371,385 S. Colorado Blvd,CO,80246
The Vitamin Shoppe,CHARLOTTESVILLE,372,372 #372 Shoppe#372,1650 Rio Road East Space 8,VA,22901
The Vitamin Shoppe,FORT WAYNE,373,373 #373 Shoppe#373,4601 Illinois Rd,IN,46804
The Vitamin Shoppe,BROWNSVILLE,375,375 #375 Shoppe#375,101 East Morrison Road,TX,78520
The Vitamin Shoppe,MYRTLE BEACH,376,376 #376 Shoppe#376,1315 Oak Forest Lane,SC,29577
The Vitamin Shoppe,LYNCHBURG,377,377 #377 Shoppe#377,3919 Wards Road Suite A,VA,24502
The Vitamin Shoppe,LITTLETON,378,378 #378 Shoppe#378,5392 S. Wadsworth Blvd,CO,80123
The Vitamin Shoppe,CHARLOTTE,379,379 #379 Shoppe#379,9815 Northlake Center Pkwy,NC,28216
The Vitamin Shoppe,BAKERSFIELD,380,380 #380 Shoppe#380,5300 Stockdale Hgwy,CA,93309
The Vitamin Shoppe,MADISON,382,382 #382 Shoppe#382,4620 East Washington Avenue,WI,53704
The Vitamin Shoppe,PENSACOLA,383,383 #383 Shoppe#383,5090 N 9th Ave,FL,32504
The Vitamin Shoppe,MADISON,384,384 #384 Shoppe#384,7066 Mineral Point Road,WI,53717
The Vitamin Shoppe,PALM COAST,385,385 #385 Shoppe#385,5234 State Road 100 Suite 101,FL,32164
The Vitamin Shoppe,AUSTIN,386,386 #386 Shoppe#386,10225 Research Blv Suite 1500,TX,78759
The Vitamin Shoppe,SAN ANTONIO,387,387 #387 Shoppe#387,5531 Nw Loop 1604 Suite 105,TX,78253
The Vitamin Shoppe,ROYAL OAK,388,388 #388 Shoppe#388,31753 Woodward Ave,MI,48073
The Vitamin Shoppe,CORPUS CHRISTI,389,389 #389 Shoppe#389,5425 S Padre Island Dr Suite 137 B,TX,78411
The Vitamin Shoppe,BOWLING GREEN,390,390 #390 Shoppe#390,2800 Scottsville Rd,KY,42104
The Vitamin Shoppe,NORTH BERGEN,391,391 #391 Shoppe#391,2100 88th Street Building F4,NJ,7047
The Vitamin Shoppe,BURLINGTON,392,392 #392 Shoppe#392,1348 Java Lane Suite 101,NC,27215
The Vitamin Shoppe,ISSAQUAH,393,393 #393 Shoppe#393,6160 E Lake Sammamish Pkwy,WA,98029
The Vitamin Shoppe,LAS VEGAS,394,394 #394 Shoppe#394,8820 W Charleston Blvd Pad J Suite 102,NV,89117
The Vitamin Shoppe,MENIFEE,395,395 #395 Shoppe#395,30120 Haun Road,CA,92584
The Vitamin Shoppe,LAHAINA,397,397 #397 Shoppe#397,305 Keawe St Suite 501,HI,96761
The Vitamin Shoppe,ANDERSON,399,399 #399 Shoppe#399,3324 N Main Street,SC,29621
The Vitamin Shoppe,KAILUA KONA,400,400 #400 Shoppe#400,74-5452 Makala Blvd Suite F108,HI,96740
The Vitamin Shoppe,POMPANO BEACH,401,401 #401 Shoppe#401,413 N Federal Hwy,FL,33062
The Vitamin Shoppe,PLANTATION,402,402 #402 Shoppe#402,1795 N University Drive,FL,33322
The Vitamin Shoppe,DEERFIELD BEACH,403,403 #403 Shoppe#403,35 South Federal Hwy,FL,33441
The Vitamin Shoppe,COCONUT CREEK,404,404 #404 Shoppe#404,5463 Lyons Rd,FL,33073
The Vitamin Shoppe,DELRAY BEACH,405,405 #405 Shoppe#405,3175 South Federal Hwy,FL,33483
The Vitamin Shoppe,Newburgh,406,406 #406 Shoppe#406,1217 Route 300,NY,12550
The Vitamin Shoppe,DEWITT,407,407 #407 Shoppe#407,3425 Erie Blvd,NY,13214
The Vitamin Shoppe,ARLINGTON,408,408 #408 Shoppe#408,1101 S. Joyce Street Suite B1,VA,22202
The Vitamin Shoppe,CITY OF INDUSTRY,409,409 #409 Shoppe#409,17501 Colima Road Suite A,CA,91748
The Vitamin Shoppe,SNELLVILLE,410,410 #410 Shoppe#410,2118 A Scenic Highway,GA,30078
The Vitamin Shoppe,FLOWER MOUND,411,411 #411 Shoppe#411,6230 Long Prairie Road Suite 100,TX,75022
The Vitamin Shoppe,Peoria,412,412 #412 Shoppe#412,5116 North Big Hollow Rd Suite 105,IL,61615
The Vitamin Shoppe,HYANNIS,414,414 #414 Shoppe#414,1070 Iyannough Road Unit 99a,MA,2601
The Vitamin Shoppe,LOS ANGELES,416,416 #416 Shoppe#416,1901 Westwood Blvd,CA,90025
The Vitamin Shoppe,PORT SAINT LUCIE,417,417 #417 Shoppe#417,1756 Sw St Lucie West Blvd Suite E,FL,34986
The Vitamin Shoppe,NEWNAN,418,418 #418 Shoppe#418,335 Newnan Crossing Bypass,GA,30265
The Vitamin Shoppe,MERRITT ISLAND,419,419 #419 Shoppe#419,800 E Merritt Island Causeway,FL,32952
The Vitamin Shoppe,DANIA BEACH,420,420 #420 Shoppe#420,1780 Stirling Road,FL,33004
The Vitamin Shoppe,PELHAM MANOR,421,421 #421 Shoppe#421,818 Pelham Parkway,NY,10803
The Vitamin Shoppe,COON RAPIDS,422,422 #422 Shoppe#422,3388 River Rapids Drive,MN,55448
The Vitamin Shoppe,NEW YORK,423,423 #423 Shoppe#423,655 Avenue Of The Americas,NY,10010
The Vitamin Shoppe,LOUISVILLE,424,424 #424 Shoppe#424,4600 Shelbyville Rd,KY,40207
The Vitamin Shoppe,WATCHUNG,425,425 #425 Shoppe#425,1579 Highway 22 West Unit 2a,NJ,7069
The Vitamin Shoppe,FORT MYERS,426,426 #426 Shoppe#426,9390-5 Six Mile Cypress Pkwy,FL,33966
The Vitamin Shoppe,HOMESTEAD,427,427 #427 Shoppe#427,380 Waterfront Dr E,PA,15120
The Vitamin Shoppe,PEARLAND,428,428 #428 Shoppe#428,11414 Broadway Blvd,TX,77584
The Vitamin Shoppe,GAINESVILLE,429,429 #429 Shoppe#429,6921 West Newberry Road,FL,32605
The Vitamin Shoppe,FORT MYERS,430,430 #430 Shoppe#430,11741 S Cleveland Ave Suite 1,FL,33907
The Vitamin Shoppe,ALLEN,432,432 #432 Shoppe#432,190 E Stacy Rd Building 300 Suite 302,TX,75013
The Vitamin Shoppe,WHEATON,433,433 #433 Shoppe#433,1901 South Naperville Rd,IL,60187
The Vitamin Shoppe,HUNTSVILLE,434,434 #434 Shoppe#434,6275 University Dr Nw Suite 42b,AL,35806
The Vitamin Shoppe,GEORGETOWN,435,435 #435 Shoppe#435,1003 West University Suite 115,TX,78628
The Vitamin Shoppe,SAN FRANCISCO,436,436 #436 Shoppe#436,1430 Van Ness Ave,CA,94109
The Vitamin Shoppe,GLEN BURNIE,437,437 #437 Shoppe#437,6731 Ritchie Hwy,MD,21061
The Vitamin Shoppe,SHREVEPORT,439,439 #439 Shoppe#439,7503 Youree Drive Suite 100,LA,71105
The Vitamin Shoppe,JUPITER,440,440 #440 Shoppe#440,903 W Indiantown Rd Suite 2,FL,33458
The Vitamin Shoppe,EL PASO,442,442 #442 Shoppe#442,1921 Zaragosa Road Suite 101,TX,79938
The Vitamin Shoppe,LAFAYETTE,443,443 #443 Shoppe#443,1 Sagamore Parkway Suite C,IN,47901
The Vitamin Shoppe,FLORENCE,444,444 #444 Shoppe#444,2590 David H Mcleod Blvd,SC,29501
The Vitamin Shoppe,BEAUMONT,445,445 #445 Shoppe#445,5899 Eastex Freeway Suite 200,TX,77701
The Vitamin Shoppe,CLERMONT,446,446 #446 Shoppe#446,1500 Oakley Seaver Drive Suite 4,FL,34711
The Vitamin Shoppe,SAINT LOUIS PARK,447,447 #447 Shoppe#447,3052 Excelsior Blvd,MN,55416
The Vitamin Shoppe,DAYTON,448,448 #448 Shoppe#448,2405 Miamisburg-Centerville Unit B1,OH,45459
The Vitamin Shoppe,LEXINGTON,449,449 #449 Shoppe#449,4005 Nicholasville Rd,KY,40503
The Vitamin Shoppe,LADY LAKE,450,450 #450 Shoppe#450,564 Us 27/441,FL,32159
The Vitamin Shoppe,CHICAGO,451,451 #451 Shoppe#451,4000 N Cicero,IL,60641
The Vitamin Shoppe,WOODBURY,452,452 #452 Shoppe#452,8960 Hudson Road,MN,55125
The Vitamin Shoppe,OVERLAND PARK,453,453 #453 Shoppe#453,11821 Metcalf,KS,66210
The Vitamin Shoppe,ALBUQUERQUE,454,454 #454 Shoppe#454,9935 Coors Bypass Suite A,NM,87114
The Vitamin Shoppe,JACKSON,455,455 #455 Shoppe#455,1133 Vann Drive,TN,38305
The Vitamin Shoppe,MANCHESTER,456,456 #456 Shoppe#456,1753 South Willow Street,NH,3103
The Vitamin Shoppe,OLATHE,457,457 #457 Shoppe#457,11963 S Black Bob Road,KS,66062
The Vitamin Shoppe,PORTLAND,458,458 #458 Shoppe#458,1407 Ne Lloyd Center,OR,97232
The Vitamin Shoppe,NEW YORK,459,459 #459 Shoppe#459,237 1st Ave,NY,10003
The Vitamin Shoppe,KANSAS CITY,460,460 #460 Shoppe#460,8948 Nw Skyview Ave Suite 1700,MO,64154
The Vitamin Shoppe,ALBUQUERQUE,461,461 #461 Shoppe#461,6010 Menaul Blvd,NM,87110
The Vitamin Shoppe,PALM HARBOR,463,463 #463 Shoppe#463,33470 Us Hwy 19 N,FL,34684
The Vitamin Shoppe,MANAHAWKIN,464,464 #464 Shoppe#464,237 Stafford Park Blvd,NJ,8050
The Vitamin Shoppe,AVON,465,465 #465 Shoppe#465,10979 East Us Highway 36,IN,46123
The Vitamin Shoppe,MESA,466,466 #466 Shoppe#466,1740 S Val Vista Dr,AZ,85204
The Vitamin Shoppe,HOUSTON,467,467 #467 Shoppe#467,13341 Westheimer Rd,TX,77077
The Vitamin Shoppe,MIAMI BEACH,468,468 #468 Shoppe#468,1101 5th Street,FL,33139
The Vitamin Shoppe,SPRINGDALE,469,469 #469 Shoppe#469,5 East Kemper Road,OH,45246
The Vitamin Shoppe,NEW YORK,470,470 #470 Shoppe#470,1513 First Ave,NY,10075
The Vitamin Shoppe,WALNUT CREEK,471,471 #471 Shoppe#471,1601 Mt Diablo Blvd,CA,94596
The Vitamin Shoppe,Matteson,472,472 #472 Shoppe#472,4803 W Lincoln,IL,60443
The Vitamin Shoppe,CHICAGO,473,473 #473 Shoppe#473,2705 Elston Ave,IL,60647
The Vitamin Shoppe,KAPOLEI,474,474 #474 Shoppe#474,4480 Kapolei Pkwy Unit 601,HI,96707
The Vitamin Shoppe,INDEPENDENCE,475,475 #475 Shoppe#475,17820 E 39th Street South Suite 101,MO,64055
The Vitamin Shoppe,BLOOMINGDALE,476,476 #476 Shoppe#476,383 W Army Trail Road,IL,60108
The Vitamin Shoppe,ESTERO,477,477 #477 Shoppe#477,23210 Via Villagio,FL,33928
The Vitamin Shoppe,PORTAGE,478,478 #478 Shoppe#478,6278 South Westnedge Ave,MI,49002
The Vitamin Shoppe,WILMINGTON,480,480 #480 Shoppe#480,3912 Oleander Drive,NC,28403
The Vitamin Shoppe,MIAMI,481,481 #481 Shoppe#481,3301 Sw 22nd Street Suite 101,FL,33145
The Vitamin Shoppe,VICTORVILLE,482,482 #482 Shoppe#482,14130 Bear Valley Road Suite 200,CA,92392
The Vitamin Shoppe,ROBINSON TOWNSHIP,483,483 #483 Shoppe#483,210 Settlers Ridge Center Dr,PA,15205
The Vitamin Shoppe,HOUSTON,484,484 #484 Shoppe#484,2423 Katy Freeway Suite D4,TX,77007
The Vitamin Shoppe,SCHAUMBURG,485,485 #485 Shoppe#485,681 East Golf Road,IL,60173
The Vitamin Shoppe,CRANBERRY TWP,486,486 #486 Shoppe#486,20273 Route 19,PA,16066
The Vitamin Shoppe,GREENVILLE,487,487 #487 Shoppe#487,701 Se Greenville Blvd,NC,27858
The Vitamin Shoppe,NAPLES,488,488 #488 Shoppe#488,6434 Naples Blvd,FL,34109
The Vitamin Shoppe,HINGHAM,489,489 #489 Shoppe#489,2 Shipyard Dr,MA,2043
The Vitamin Shoppe,HOOVER,490,490 #490 Shoppe#490,1713 Montgomery Hwy Ste 5,AL,35244
The Vitamin Shoppe,BEAVERCREEK TOWNSHI,491,491 #491 Shoppe#491,2650 N Fairfield Rd Ste B,OH,45431
The Vitamin Shoppe,DEDHAM,492,492 #492 Shoppe#492,800 Providence Hgwy,MA,2026
The Vitamin Shoppe,WEST DES MOINES,493,493 #493 Shoppe#493,6630 Mills Civic Parkway Suite 1130,IA,50265
The Vitamin Shoppe,DESTIN,494,494 #494 Shoppe#494,34737 Emerald Coast Parkway Suite 7,FL,32541
The Vitamin Shoppe,ATLANTA,495,495 #495 Shoppe#495,2937 Cobb Pkwy,GA,30339
The Vitamin Shoppe,ROSS,496,496 #496 Shoppe#496,4850 Mcknight Road,PA,15237
The Vitamin Shoppe,FLORENCE,497,497 #497 Shoppe#497,7508 Mall Road,KY,41042
The Vitamin Shoppe,CANTON,498,498 #498 Shoppe#498,110 Albany Turnpike Suite 300,CT,6019
The Vitamin Shoppe,ATLANTA,499,499 #499 Shoppe#499,1165 Perimeter Center West Suite 360,GA,30338
The Vitamin Shoppe,EVERETT,500,500 #500 Shoppe#500,1510 Se Everett Mall Way Suite A,WA,98208
The Vitamin Shoppe,ORLANDO,501,501 #501 Shoppe#501,4012 Eastgate Drive,FL,32839
The Vitamin Shoppe,NORTH HAVEN,502,502 #502 Shoppe#502,417 Universal Drive North,CT,6473
The Vitamin Shoppe,CHICAGO,503,503 #503 Shoppe#503,1590 North Clybourn Ave,IL,60614
The Vitamin Shoppe,BALA CYNWYD,504,504 #504 Shoppe#504,31 East City Ave Unit 1,PA,19004
The Vitamin Shoppe,MURFREESBORO,505,505 #505 Shoppe#505,510 North Thompson Lane,TN,37129
The Vitamin Shoppe,MOBILE,506,506 #506 Shoppe#506,3659 Airport Rd,AL,36608
The Vitamin Shoppe,ROANOKE,507,507 #507 Shoppe#507,4750 Valley View Blvd Nw Suite 80,VA,24012
The Vitamin Shoppe,BURNSVILLE,508,508 #508 Shoppe#508,550 West County Road 42,MN,55337
The Vitamin Shoppe,WOODBRIDGE,509,509 #509 Shoppe#509,14065 Shoppers Best Way,VA,22192
The Vitamin Shoppe,AVON,510,510 #510 Shoppe#510,35825 Detroit Rd,OH,44011
The Vitamin Shoppe,PHOENIX,511,511 #511 Shoppe#511,475 E Bell Road Suite 180,AZ,85022
The Vitamin Shoppe,BRONX,512,512 #512 Shoppe#512,311 E Fordham Rd,NY,10458
The Vitamin Shoppe,BALTIMORE,514,514 #514 Shoppe#514,6026-B Baltimore National Pike,MD,21228
The Vitamin Shoppe,Gambrills,515,515 #515 Shoppe#515,2385 Brandermill Blvd Suite 103,MD,21054
The Vitamin Shoppe,HOUSTON,516,516 #516 Shoppe#516,10201 Katy Freeway,TX,77024
The Vitamin Shoppe,PORTSMOUTH,517,517 #517 Shoppe#517,1600 Woodbury Avenue,NH,3801
The Vitamin Shoppe,NILES,518,518 #518 Shoppe#518,5704 Youngstown Warren Road,OH,44446
The Vitamin Shoppe,Indianapolis,519,519 #519 Shoppe#519,10110 East Washington Street,IN,46229
The Vitamin Shoppe,SPARTANBURG,520,520 #520 Shoppe#520,1501 W.O. Ezell Blvd Suite A,SC,29301
The Vitamin Shoppe,CINCINNATI,521,521 #521 Shoppe#521,9950 Waterstone Blvd,OH,45249
The Vitamin Shoppe,OSWEGO,522,522 #522 Shoppe#522,2734 Route 34,IL,60543
The Vitamin Shoppe,SEATTLE,523,523 #523 Shoppe#523,301 Ne 103rd St,WA,98125
The Vitamin Shoppe,NAPA,524,524 #524 Shoppe#524,1735 Trancas Street Suite A,CA,94558
The Vitamin Shoppe,SUNNYVALE,525,525 #525 Shoppe#525,126 East El Camino Real,CA,94087
The Vitamin Shoppe,Nashville,526,526 #526 Shoppe#526,3904 Hillsboro Pike,TN,37215
The Vitamin Shoppe,FREDERICK,527,527 #527 Shoppe#527,5525 Urbana Pike,MD,21704
The Vitamin Shoppe,EL PASO,528,528 #528 Shoppe#528,655 Sunland Park Drive J2,TX,79912
The Vitamin Shoppe,COLUMBUS,529,529 #529 Shoppe#529,4053 Morse Crossing,OH,43219
The Vitamin Shoppe,BUTLER,530,530 #530 Shoppe#530,1224 State Rt 23 North,NJ,7405
The Vitamin Shoppe,WESTMINSTER,531,531 #531 Shoppe#531,631a Baltimore Blvd.,MD,21157
The Vitamin Shoppe,COLUMBUS,532,532 #532 Shoppe#532,1540 Olentangy River Road,OH,43212
The Vitamin Shoppe,MIAMI,533,533 #533 Shoppe#533,8655 Coral Way,FL,33155
The Vitamin Shoppe,MONROEVILLE,534,534 #534 Shoppe#534,4145 William Penn Hwy Unit 1,PA,15146
The Vitamin Shoppe,BLOOMINGTON,535,535 #535 Shoppe#535,1511 East Vernon Avenue,IL,61704
The Vitamin Shoppe,PORTLAND,536,536 #536 Shoppe#536,335 Maine Mall Road,ME,4101
The Vitamin Shoppe,MELROSE PARK,537,537 #537 Shoppe#537,1350 Winston Plaza Winstone Plaza Shoppi,IL,60160
The Vitamin Shoppe,FOLSOM,538,538 #538 Shoppe#538,2405 Iron Point Rd Suite 100,CA,95630
The Vitamin Shoppe,SACRAMENTO,539,539 #539 Shoppe#539,1740 Arden Way Suite 2,CA,95815
The Vitamin Shoppe,WARNER ROBINS,540,540 #540 Shoppe#540,2971 Watson Blvd,GA,31093
The Vitamin Shoppe,PUYALLUP,541,541 #541 Shoppe#541,4227 Meridian Street S,WA,98373
The Vitamin Shoppe,ROCKWALL,542,542 #542 Shoppe#542,1035 Ih-30 Suite #101,TX,75087
The Vitamin Shoppe,Gastonia,543,543 #543 Shoppe#543,409 Cox Road,NC,28054
The Vitamin Shoppe,ITHACA,544,544 #544 Shoppe#544,719 South Meadow Drive Suite 1a,NY,14850
The Vitamin Shoppe,Kansas City,545,545 #545 Shoppe#545,9 West 62nd Terrace,MO,64113
The Vitamin Shoppe,DOVER,546,546 #546 Shoppe#546,1141 N. Dupont Highway,DE,19901
The Vitamin Shoppe,Ramsey,547,547 #547 Shoppe#547,984 Route 17 North Suite C,NJ,7446
The Vitamin Shoppe,COLUMBUS,548,548 #548 Shoppe#548,1505 Hilliard Rome Rd,OH,43228
The Vitamin Shoppe,SHREWSBURY,549,549 #549 Shoppe#549,77a Boston Turnpike,MA,1545
The Vitamin Shoppe,ST PETERS,550,550 #550 Shoppe#550,338 Mid Rivers Center Dr.,MO,63376
The Vitamin Shoppe,LINCOLN,551,551 #551 Shoppe#551,6105 O Street,NE,68505
The Vitamin Shoppe,BAYSIDE,552,552 #552 Shoppe#552,205-04 Northern Boluevard Unit 1,NY,11360
The Vitamin Shoppe,COUNCIL BLUFFS,553,553 #553 Shoppe#553,3815 Metro Drive Suite 100,IA,51501
The Vitamin Shoppe,Kissimmee,554,554 #554 Shoppe#554,3312 Greenwald Way North,FL,34741
The Vitamin Shoppe,CANARSIE,555,555 #555 Shoppe#555,8929 Ave D Unit C1,NY,11236
The Vitamin Shoppe,ST. LOUIS,556,556 #556 Shoppe#556,7025 S Lindbergh Blvd.,MO,63125
The Vitamin Shoppe,SAVANNAH,557,557 #557 Shoppe#557,7929 Abercorn Street Suite 630,GA,31406
The Vitamin Shoppe,AUSTIN,558,558 #558 Shoppe#558,4615 N Lamar Blvd Suite 303,TX,78751
The Vitamin Shoppe,REDDING,559,559 #559 Shoppe#559,1315 Churn Creek Rd Suite A-1,CA,96003
The Vitamin Shoppe,DAVENPORT,561,561 #561 Shoppe#561,5270 Elmore Ave Suite 1,IA,52807
The Vitamin Shoppe,SANTA MONICA,562,562 #562 Shoppe#562,2838 Wilshire Blvd Suite N/A,CA,90403
The Vitamin Shoppe,CHARLOTTE,563,563 #563 Shoppe#563,243 S. Kings Drive,NC,28204
The Vitamin Shoppe,BERWYN,564,564 #564 Shoppe#564,7180 W Cermak Rd Space A1,IL,60402
The Vitamin Shoppe,HAGERSTOWN,565,565 #565 Shoppe#565,1730 Massey Blvd,MD,21740
The Vitamin Shoppe,PARMA,566,566 #566 Shoppe#566,7749 Day Drive,OH,44129
The Vitamin Shoppe,TORRANCE,567,567 #567 Shoppe#567,19510 Hawthorne Blvd,CA,90503
The Vitamin Shoppe,Wichita,568,568 #568 Shoppe#568,2210 N. Rock Road,KS,67226
The Vitamin Shoppe,EVANSVILLE,569,569 #569 Shoppe#569,1031 North Green River Road Suite 104,IN,47715
The Vitamin Shoppe,Scottsdale,571,571 #571 Shoppe#571,15811 N. Frank Lloyd Wright Bl Suite 100,AZ,85260
The Vitamin Shoppe,Roseville,572,572 #572 Shoppe#572,1777 West County Road B2 Suite 215b,MN,55113
The Vitamin Shoppe,ASHEVILLE,573,573 #573 Shoppe#573,148 Tunnel Road,NC,28805
The Vitamin Shoppe,MARIETTA,574,574 #574 Shoppe#574,2555 Prado Lane Suite 1430,GA,30066
The Vitamin Shoppe,RUTHERFORD,575,575 #575 Shoppe#575,130 Rte 17 North Suite 14,NJ,7073
The Vitamin Shoppe,FREMONT,576,576 #576 Shoppe#576,43425 Christy Street Suite P4-C,CA,94538
The Vitamin Shoppe,SCHENECTADY,577,577 #577 Shoppe#577,437 Balltown Road Suite #1,NY,12304
The Vitamin Shoppe,ENCINO,578,578 #578 Shoppe#578,16624 Ventura Blvd,CA,91436
The Vitamin Shoppe,SANTA FE,579,579 #579 Shoppe#579,3538 Zafarano Drive,NM,87507
The Vitamin Shoppe,OMAHA,580,580 #580 Shoppe#580,3404/06 South 144th Street,NE,68144
The Vitamin Shoppe,HARKER HEIGHTS,581,581 #581 Shoppe#581,201 East Central Texas Expressway Suite,TX,76548
The Vitamin Shoppe,CHAMPAIGN,582,582 #582 Shoppe#582,901a W. Anthony Drive,IL,61820
The Vitamin Shoppe,SALEM,583,583 #583 Shoppe#583,291 South Broadway,NH,3079
The Vitamin Shoppe,SAINT PAUL,584,584 #584 Shoppe#584,472 Hamline Ave North,MN,55104
The Vitamin Shoppe,HAPPY VALLEY,585,585 #585 Shoppe#585,9620 Se 82nd Ave Suite C,OR,97086
The Vitamin Shoppe,SANDY,586,586 #586 Shoppe#586,10515 S. State Road,UT,84070
The Vitamin Shoppe,REGO PARK,587,587 #587 Shoppe#587,61-35 Junction Blvd,NY,11374
The Vitamin Shoppe,Edina,588,588 #588 Shoppe#588,6996 France Avenue Suite# 200,MN,55435
The Vitamin Shoppe,TACOMA,589,589 #589 Shoppe#589,3801 S Steele St,WA,98409
The Vitamin Shoppe,Louisville,590,590 #590 Shoppe#590,4000 Towne Center Drive,KY,40241
The Vitamin Shoppe,Lincolnwood,591,591 #591 Shoppe#591,7140 Mc Cormick Blvd,IL,60712
The Vitamin Shoppe,Evergreen Park,593,593 #593 Shoppe#593,2501 W 95th Street,IL,60805
The Vitamin Shoppe,AVENTURA,594,594 #594 Shoppe#594,18199 Biscayne Blvd,FL,33160
The Vitamin Shoppe,COLMA,595,595 #595 Shoppe#595,280 Metro Center 115 Colma Blvd,CA,94014
The Vitamin Shoppe,Naperville,596,596 #596 Shoppe#596,1995 West Jefferson Ave Suite 105,IL,60540
The Vitamin Shoppe,Surprise,597,597 #597 Shoppe#597,13714 W. Bell Road Suite# 100,AZ,85374
The Vitamin Shoppe,Tucson,598,598 #598 Shoppe#598,5545 E. Broadway Blvd Suite 119,AZ,85711
The Vitamin Shoppe,GRAND RAPIDS,599,599 #599 Shoppe#599,3691 28th St. Se,MI,49512
The Vitamin Shoppe,Tulsa,600,600 #600 Shoppe#600,8247 E. 71st Street Suite A,OK,74133
The Vitamin Shoppe,Springfield,601,601 #601 Shoppe#601,2802 Sw Plaza Drive,IL,62704
The Vitamin Shoppe,Medford,602,602 #602 Shoppe#602,61 Rossanley Drive,OR,97501
The Vitamin Shoppe,Laredo,603,603 #603 Shoppe#603,7305 San Dario Ave Suite 8,TX,78045
The Vitamin Shoppe,Maplewood,604,604 #604 Shoppe#604,1987 County Road D East Suite 300,MN,55109
The Vitamin Shoppe,Orem,605,605 #605 Shoppe#605,160 E. University Parkway Unit L,UT,84058
The Vitamin Shoppe,Lakewood,606,606 #606 Shoppe#606,4327 Candlewood Street,CA,90712
The Vitamin Shoppe,Braintree,607,607 #607 Shoppe#607,30 Forbes Road,MA,2184
The Vitamin Shoppe,Valencia,608,608 #608 Shoppe#608,24280 Valencia Blvd,CA,91355
The Vitamin Shoppe,La Quinta,609,609 #609 Shoppe#609,78-692 Highway 111,CA,92253
The Vitamin Shoppe,Erie,611,611 #611 Shoppe#611,7000 Peach Street,PA,16509
The Vitamin Shoppe,ORANGE,612,612 #612 Shoppe#612,1300 N. Tustin Avenue,CA,92867
The Vitamin Shoppe,Lynnwood,613,613 #613 Shoppe#613,2701 184th Street Sw Suite 100-A,WA,98037
The Vitamin Shoppe,Mc Donough,614,614 #614 Shoppe#614,1438 Highway 20 West,GA,30253
The Vitamin Shoppe,Baton Rouge,615,615 #615 Shoppe#615,7601 Andrea Drive,LA,70809
The Vitamin Shoppe,El Paso,616,616 #616 Shoppe#616,8889 Gateway,TX,79925
The Vitamin Shoppe,Redwood City,617,617 #617 Shoppe#617,1200 El Camino Real,CA,94062
The Vitamin Shoppe,Boca Raton,618,618 #618 Shoppe#618,880 N Federal Hwy,FL,33432
The Vitamin Shoppe,ROCKFORD,619,619 #619 Shoppe#619,5946 East State Street,IL,61108
The Vitamin Shoppe,GOLETA,620,620 #620 Shoppe#620,6900 Hollister Ave,CA,93117
The Vitamin Shoppe,Baytown,621,621 #621 Shoppe#621,4567 Garth Road,TX,77521
The Vitamin Shoppe,Saint Cloud,622,622 #622 Shoppe#622,4041 Division Street,MN,56301
The Vitamin Shoppe,Easton,623,623 #623 Shoppe#623,3862 Dryland Way,PA,18045
The Vitamin Shoppe,Williamsburg,624,624 #624 Shoppe#624,5226 Monticello Ave,VA,23186
The Vitamin Shoppe,Clovis,625,625 #625 Shoppe#625,1205 Herndon Ave,CA,93612
The Vitamin Shoppe,North Attleboro,626,626 #626 Shoppe#626,1400 South Washington Street,MA,2760
The Vitamin Shoppe,Duluth,627,627 #627 Shoppe#627,2104 Maple Grove Road,MN,55811
The Vitamin Shoppe,Springfield,628,628 #628 Shoppe#628,1315 East Battlefield Road,MO,65804
The Vitamin Shoppe,Beach Wood,629,629 #629 Shoppe#629,27820 Chagrin Blvd,OH,44122
The Vitamin Shoppe,Dublin,630,630 #630 Shoppe#630,3734 Fallon Road Suite 690,CA,94568
The Vitamin Shoppe,Cambridge,631,631 #631 Shoppe#631,359 Fresh Pond Parkway,MA,2138
The Vitamin Shoppe,Northville,632,632 #632 Shoppe#632,20580 Haggerty Road,MI,48167
The Vitamin Shoppe,Tucson,633,633 #633 Shoppe#633,4329 N. Oracle Road Suite 101,AZ,85705
The Vitamin Shoppe,San Ysidro,634,634 #634 Shoppe#634,"3975 Camino De La Plaza, Suite 200",CA,92173
The Vitamin Shoppe,Muncie,635,635 #635 Shoppe#635,613 East Mcgalliard Road,IN,47303
The Vitamin Shoppe,Austin,636,636 #636 Shoppe#636,5400 Brodie Lane Suite 1100,TX,78745
The Vitamin Shoppe,Elmira,637,637 #637 Shoppe#637,950 Country Road 64 Suite 120,NY,14903
The Vitamin Shoppe,Pleasant Hill,638,638 #638 Shoppe#638,2152 Contra Costa Blvd,CA,94523
The Vitamin Shoppe,Brooklyn,639,639 #639 Shoppe#639,1326 Kings Hwy,NY,11229
The Vitamin Shoppe,Las Vegas,640,640 #640 Shoppe#640,6640 N. Durango Drive Suite 190,NV,89149
The Vitamin Shoppe,Countryside,641,641 #641 Shoppe#641,6005 S. Lagrange Road,IL,60525
The Vitamin Shoppe,San Francisco,642,642 #642 Shoppe#642,2300 16th Street Suite 340b,CA,94103
The Vitamin Shoppe,Cincinnati,643,643 #643 Shoppe#643,3831 Edwards Road Suite 500,OH,45209
The Vitamin Shoppe,Macon,644,644 #644 Shoppe#644,167 Gateway Drive,GA,31210
The Vitamin Shoppe,Vacaville,645,645 #645 Shoppe#645,1615 East Monte Vista Ave Suite 103,CA,95688
The Vitamin Shoppe,Sioux Falls,646,646 #646 Shoppe#646,4207 West 41st Street,SD,57106
The Vitamin Shoppe,San Antonio,647,647 #647 Shoppe#647,1803 North Loop 1604 E Building 2 Suite,TX,78259
The Vitamin Shoppe,Alexandria,650,650 #650 Shoppe#650,7713 Fordson Road,VA,22306
The Vitamin Shoppe,El Centro,651,651 #651 Shoppe#651,500 East Danenberg Drive Suite 7,CA,92243
The Vitamin Shoppe,Athens,654,654 #654 Shoppe#654,1789 Oconee Connector Suite A,GA,30606
The Vitamin Shoppe,Baltimore,655,655 #655 Shoppe#655,3719 Boston Street Space E101,MD,21224
The Vitamin Shoppe,Noblesville,656,656 #656 Shoppe#656,17143 Mercantile Blvd,IN,46060
The Vitamin Shoppe,Highland,657,657 #657 Shoppe#657,10343 S Indianapolis Blvd,IN,46322
The Vitamin Shoppe,Venice,661,661 #661 Shoppe#661,4252 Tamiami Trail S.,FL,34293
The Vitamin Shoppe,Chicago,662,662 #662 Shoppe#662,1303 North Milwaukee Ave,IL,60622
The Vitamin Shoppe,Chicago,666,666 #666 Shoppe#666,601 West Roosevelt Blvd,IL,60607
The Vitamin Shoppe,Framingham,667,667 #667 Shoppe#667,30 Worcester Road,MA,1701
The Vitamin Shoppe,Lafayette,668,668 #668 Shoppe#668,5702 Johnston St Suite 103,LA,70503
The Vitamin Shoppe,Clarksville,669,669 #669 Shoppe#669,2807 Wilma Rudolph Blvd Unit 0015,TN,37040
The Vitamin Shoppe,Jacksonville,671,671 #671 Shoppe#671,1305 Western Blvd,NC,28546
The Vitamin Shoppe,Irvine,672,672 #672 Shoppe#672,13662 Jamboree Road Suite B,CA,92602
The Vitamin Shoppe,Salinas,673,673 #673 Shoppe#673,1974 North Main Street,CA,93906
The Vitamin Shoppe,Midland,674,674 #674 Shoppe#674,2820 W Loop 250 North Suite 200,TX,79705
The Vitamin Shoppe,San Antonio,675,675 #675 Shoppe#675,2350 Southwest Military Drive Suite 3002,TX,78224
The Vitamin Shoppe,Anderson,676,676 #676 Shoppe#676,4672 S. Scatterfield Road,IN,46013
The Vitamin Shoppe,Augusta,677,677 #677 Shoppe#677,238 Robert C. Daniel Jr. Prkwy,GA,30909
The Vitamin Shoppe,Columbia,678,678 #678 Shoppe#678,10266 Two Notch Road Suite A,SC,29229
The Vitamin Shoppe,Fort Smith,682,682 #682 Shoppe#682,4000 Phoenix Ave,AR,72903
The Vitamin Shoppe,Chino,683,683 #683 Shoppe#683,4005 Grand Ave Suite A,CA,91710
The Vitamin Shoppe,Wayne,684,684 #684 Shoppe#684,1428 Route 23 North,NJ,7470
The Vitamin Shoppe,Rossford,685,685 #685 Shoppe#685,10000 Olde Us 20 Rt 20 Retail Center,OH,43460
The Vitamin Shoppe,North Little Rock,686,686 #686 Shoppe#686,4302 East Mccain Blvd,AR,72117
The Vitamin Shoppe,Woburn,688,688 #688 Shoppe#688,103 A Commerce Way,MA,1801
The Vitamin Shoppe,Leominster,689,689 #689 Shoppe#689,40 Orchard Hill Park Drive,MA,1453
The Vitamin Shoppe,Oak Lawn,697,697 #697 Shoppe#697,6310 West 95th Street,IL,60453
The Vitamin Shoppe,BROOKLYN,701,701 #701 Shoppe#701,2439-2441 Flatbush Avenue,NY,11234
The Vitamin Shoppe,TAMPA,702,702 #702 Shoppe#702,102 North Dale Mabry Hwy,FL,33609
The Vitamin Shoppe,BOCA RATON,703,703 #703 Shoppe#703,20600 Lyons Road Somerset Shoppers Shopp,FL,33434
The Vitamin Shoppe,MIAMI,704,704 #704 Shoppe#704,8707 Sw 124th Ave Kendall Village Center,FL,33183
The Vitamin Shoppe,PEMBROKE PINES,706,706 #706 Shoppe#706,10800 Pines Boulevard,FL,33026
The Vitamin Shoppe,STAMFORD,708,708 #708 Shoppe#708,1003 High Ridge Road,CT,6905
The Vitamin Shoppe,LUTHERVILLE,709,709 #709 Shoppe#709,1313 York Road,MD,21093
The Vitamin Shoppe,MOUNT LAUREL,710,710 #710 Shoppe#710,1490 Nixon Drive East Gate Center Drive,NJ,8054
The Vitamin Shoppe,ATLANTA,712,712 #712 Shoppe#712,3261 Peachtree Road,GA,30305
The Vitamin Shoppe,DULUTH,713,713 #713 Shoppe#713,2130 Pleasant Hill Road,GA,30096
The Vitamin Shoppe,STONY BROOK,714,714 #714 Shoppe#714,1320 Stony Brook Rd,NY,11790
The Vitamin Shoppe,ABINGTON,716,716 #716 Shoppe#716,1817 Old York Road,PA,19001
The Vitamin Shoppe,ALEXANDRIA,717,717 #717 Shoppe#717,3725-B Jefferson Davis Highway Potamac Y,VA,22305
The Vitamin Shoppe,POUGHKEEPSIE,718,718 #718 Shoppe#718,1936 South Road,NY,12601
The Vitamin Shoppe,ANNAPOLIS,720,720 #720 Shoppe#720,2315 Forest Drive,MD,21401
The Vitamin Shoppe,NEW YORK,721,721 #721 Shoppe#721,651 West 181st Street,NY,10033
The Vitamin Shoppe,South Elgin,722,722 #722 Shoppe#722,414 Randall Road,IL,60177
The Vitamin Shoppe,Williamsville,728,728 #728 Shoppe#728,5095 Transit Road Suite 100,NY,14221
The Vitamin Shoppe,Norfolk,730,730 #730 Shoppe#730,729 West 21st Street,VA,23517
The Vitamin Shoppe,Lansing,733,733 #733 Shoppe#733,5924 W. Saginaw Hwy,MI,48917
The Vitamin Shoppe,Okemos,734,734 #734 Shoppe#734,2090 West Grand River Ave,MI,48864
The Vitamin Shoppe,WILLOUGHBY,801,801 #801 Shoppe#801,34877 Euclid Ave,OH,44094
