keywords,city,Aggdata Store Number,store_number,address,state,zip_code
Barnes Noble,New Hyde Park,1072,1072 #1072,1424 Union Tpke,NY,11040
Barnes Noble,San Diego,1822,1822 #1822,3150 Rosecrans Place,CA,92110
Barnes Noble,San Diego,1823,1823 #1823,8650 Genesee Ave. Ste 230,CA,92122
Barnes Noble,Studio City,1837,1837 #1837,12136 Ventura Blvd.,CA,91604
Barnes Noble,Marina Del Rey,1847,1847 #1847,13400 Maxella,CA,90292
Barnes Noble,Springfield,1884,1884 #1884,240 Route 22 West,NJ,7081
Barnes Noble,Grosse Pointe,1892,1892 #1892,19221 Mack Ave,MI,48236
Barnes Noble,North Haven,1897,1897 #1897,470 Universal Drive North,CT,6473
Barnes Noble,Norwalk,1898,1898 #1898,360 Connecticut Ave,CT,6854
Barnes Noble,Atlanta,1907,1907 #1907,2900 Peachtree Road NE Suite 310,GA,30305
Barnes Noble,Manhasset,1912,1912 #1912,1542 Northern Blvd,NY,11030
Barnes Noble,Broomall,1913,1913 #1913,1991 Sproul Rd,PA,19008
Barnes Noble,Bellevue,1915,1915 #1915,626 106th Ave NE,WA,98004
Barnes Noble,San Jose,1944,1944 #1944,3600 Stevens Creek Blvd,CA,95117
Barnes Noble,West Bountiful,1946,1946 #1946,340 South 500 West,UT,84087
Barnes Noble,Alpharetta,1955,1955 #1955,7660 Northpoint Parkway Ste 200,GA,30022
Barnes Noble,Nanuet,1960,1960 #1960,140 Rockland Plaza,NY,10954
Barnes Noble,North Dartmouth,1962,1962 #1962,392 State Road Route 6,MA,2747
Barnes Noble,Farmington,1963,1963 #1963,1599 South East Rd,CT,6032
Barnes Noble,Columbus,1968,1968 #1968,3685 W. Dublin - Granville,OH,43235
Barnes Noble,Redwood City,1971,1971 #1971,1091 El Camino Real,CA,94063
Barnes Noble,San Diego,1974,1974 #1974,12835 El Camino Real,CA,92130
Barnes Noble,San Diego,1976,1976 #1976,11744 Carmel Mountain Road,CA,92128
Barnes Noble,Woodland Park,1977,1977 #1977,1156 Route 46 West,NJ,7424
Barnes Noble,San Diego,1978,1978 #1978,7610 Hazard Center Drive #315,CA,92108
Barnes Noble,New York,1979,1979 #1979,2289 Broadway,NY,10024
Barnes Noble,Ledgewood,1980,1980 #1980,375 Route 10 E,NJ,7852
Barnes Noble,Rowland Heights,1984,1984 #1984,17490 Colima Road,CA,91748
Barnes Noble,St Petersburg,1986,1986 #1986,2501 Tyrone Boulevard,FL,33710
Barnes Noble,Braintree,1989,1989 #1989,150 Granite St,MA,2184
Barnes Noble,Raleigh,1990,1990 #1990,4325 Glenwood Ave,NC,27612
Barnes Noble,Sacramento,1996,1996 #1996,1725 Arden Way,CA,95815
Barnes Noble,Grandville,2008,2008 #2008,3700 Rivertown Parkway Ste. 2058,MI,49418
Barnes Noble,Round Rock,2009,2009 #2009,2701 Parker Road Bldg A Suite 700,TX,78681
Barnes Noble,Savannah,2015,2015 #2015,7804 Abercorn Ext. 72,GA,31406
Barnes Noble,Fairfield,2018,2018 #2018,1600 Gateway Blvd,CA,94533
Barnes Noble,Saratoga Springs,2019,2019 #2019,3029 State Route 50,NY,12866
Barnes Noble,Deerfield,2020,2020 #2020,728 North Waukegan Road,IL,60015
Barnes Noble,Staten Island,2021,2021 #2021,2245 Richmond Avenue,NY,10314
Barnes Noble,Lansing,2025,2025 #2025,5132 W. Saginaw Hwy 245,MI,48917
Barnes Noble,Lynchburg,2026,2026 #2026,4024-C Wards Road,VA,24502
Barnes Noble,Richmond,2029,2029 #2029,11640 W. Broad Street,VA,23233
Barnes Noble,Holmdel,2030,2030 #2030,2134 State Highway 35,NJ,7733
Barnes Noble,Roseville,2031,2031 #2031,1256 Galleria Boulevard,CA,95678
Barnes Noble,Deer Park,2032,2032 #2032,20600 North Rand Road,IL,60010
Barnes Noble,Ft. Wayne,2036,2036 #2036,4140 W. Jefferson Blvd. Bldg. J,IN,46804
Barnes Noble,Racine,2037,2037 #2037,2710 South Green Bay Rd,WI,53406
Barnes Noble,Phoenix,2039,2039 #2039,21001 N. Tatum Blvd. Suite 42,AZ,85050
Barnes Noble,Washington,2040,2040 #2040,555 12th St NW,DC,20004
Barnes Noble,Holland,2042,2042 #2042,3050 Beeline Road Suite 50,MI,49424
Barnes Noble,Camp Hill,2046,2046 #2046,58 South 32nd Street,PA,17011
Barnes Noble,Fort Lauderdale,2047,2047 #2047,2051 N. Federal Highway,FL,33305
Barnes Noble,Eden Prairie,2048,2048 #2048,3000 Eden Prairie Center,MN,55344
Barnes Noble,Albuquerque,2049,2049 #2049,6600 Menaul Blvd NE,NM,87110
Barnes Noble,Wyomissing,2050,2050 #2050,2751 Paper Mill Road,PA,19610
Barnes Noble,Destin,2051,2051 #2051,34904 Emerald Coast Pkwy Suite 118,FL,32541
Barnes Noble,Manchester,2052,2052 #2052,1741 South Willow Street,NH,3103
Barnes Noble,Boca Raton,2053,2053 #2053,1400 Glades Rd.,FL,33431
Barnes Noble,Ventura,2054,2054 #2054,4820 Telephone Road,CA,93003
Barnes Noble,San Antonio,2055,2055 #2055,11711 Bandera Rd.,TX,78250
Barnes Noble,Newport,2059,2059 #2059,1 Levee Way Suite 2127,KY,41071
Barnes Noble,Frisco,2060,2060 #2060,2601 Preston Rd Unit 1204,TX,75034
Barnes Noble,Glen Allen,2065,2065 #2065,9850 Brook Road,VA,23059
Barnes Noble,Pasadena,2066,2066 #2066,5656 Fairmont Parkway,TX,77505
Barnes Noble,Christiansburg,2067,2067 #2067,110 Conston Avenue,VA,24073
Barnes Noble,Arlington,2068,2068 #2068,2800 Clarendon Blvd. Suite 500,VA,22201
Barnes Noble,Battle Creek,2069,2069 #2069,5701 Beckley Rd.,MI,49015
Barnes Noble,Norcross,2070,2070 #2070,5141 Peachtree Parkway,GA,30092
Barnes Noble,Harvey,2071,2071 #2071,1601B West Bank Expressway,LA,70058
Barnes Noble,Emeryville,2072,2072 #2072,5604 Bay Street,CA,94608
Barnes Noble,Columbia,2074,2074 #2074,2208 Bernadette Drive,MO,65203
Barnes Noble,Homestead,2076,2076 #2076,100 West Bridge Street,PA,15120
Barnes Noble,Portland,2077,2077 #2077,1317 Lloyd Center,OR,97232
Barnes Noble,Pickerington,2078,2078 #2078,1738 North Hill Road,OH,43147
Barnes Noble,Mentor,2079,2079 #2079,7900 Mentor Avenue,OH,44060
Barnes Noble,Rochester,2080,2080 #2080,1201 12th Street SW Suite 425,MN,55902
Barnes Noble,Chandler,2081,2081 #2081,3111 W. Chandler Blvd #2054,AZ,85226
Barnes Noble,Smithfield,2082,2082 #2082,371 Putnam Pike Suite 330,RI,2917
Barnes Noble,Riverside,2083,2083 #2083,3485 Tyler Street,CA,92503
Barnes Noble,Aurora,2084,2084 #2084,170 S. Abilene St.,CO,80012
Barnes Noble,Green Bay,2085,2085 #2085,2498 Oneida Street,WI,54304
Barnes Noble,Exton,2086,2086 #2086,301 Main Street,PA,19341
Barnes Noble,Salt Lake City,2087,2087 #2087,6 North Rio Grande Street,UT,84101
Barnes Noble,Hadley,2088,2088 #2088,335 Russell Street,MA,1035
Barnes Noble,Los Angeles,2089,2089 #2089,189 The Grove Drive Suite K 30,CA,90036
Barnes Noble,Victorville,2090,2090 #2090,14400 Bear Valley Road Suite 107,CA,92392
Barnes Noble,Thornton,2091,2091 #2091,701 E. 120th Avenue,CO,80233
Barnes Noble,Hyannis,2092,2092 #2092,769 Iyannough Road,MA,2601
Barnes Noble,Bowie,2093,2093 #2093,15455 Emerald Way,MD,20716
Barnes Noble,Royal Oak,2094,2094 #2094,500 South Main Street,MI,48067
Barnes Noble,Fullerton,2095,2095 #2095,1923 West Malvern Avenue,CA,92833
Barnes Noble,Burnsville,2096,2096 #2096,828 West County Road 42,MN,55337
Barnes Noble,Midlothian,2097,2097 #2097,4600 Commonwealth Center Parkway,VA,23112
Barnes Noble,Duluth,2098,2098 #2098,1600 Miller Trunk Hwy. #L25,MN,55811
Barnes Noble,Wellington,2100,2100 #2100,10500 West Forest Hill Blvd.,FL,33414
Barnes Noble,Columbus,2101,2101 #2101,5555 Whittlesey Blvd. Suite 1800,GA,31909
Barnes Noble,Escondido,2104,2104 #2104,810 West Valley Parkway,CA,92025
Barnes Noble,Geneva,2106,2106 #2106,102 Commons Drive,IL,60134
Barnes Noble,Ann Arbor,2107,2107 #2107,3235 Washtenaw Ave,MI,48104
Barnes Noble,Elizabethtown,2108,2108 #2108,1980 N. Dixie Hwy,KY,42701
Barnes Noble,Durham,2109,2109 #2109,8030 Renaissance Parkway Suite 855,NC,27713
Barnes Noble,Apple Valley,2110,2110 #2110,14880 Florence Trail,MN,55124
Barnes Noble,Torrance,2111,2111 #2111,21500 Hawthorne Blvd,CA,90503
Barnes Noble,Fresno,2112,2112 #2112,7849 North Blackstone Avenue,CA,93720
Barnes Noble,El Cerrito,2113,2113 #2113,6050 El Cerrito Plaza,CA,94530
Barnes Noble,Boston,2115,2115 #2115,800 Boylston Street Suite 179,MA,2199
Barnes Noble,Scottsdale,2116,2116 #2116,7030 E Greenway Parkway Ste 150,AZ,85254
Barnes Noble,Bozeman,2117,2117 #2117,2825 West Main St,MT,59718
Barnes Noble,Huntersville,2118,2118 #2118,8725 Townley Road,NC,28078
Barnes Noble,McAllen,2119,2119 #2119,4005 N. 10th Street,TX,78504
Barnes Noble,Orlando,2120,2120 #2120,7900 W. Sand Lake Road,FL,32819
Barnes Noble,Ithaca,2122,2122 #2122,614 South Meadow,NY,14850
Barnes Noble,Dekalb,2123,2123 #2123,2439 Sycamore Road,IL,60115
Barnes Noble,Wausau,2125,2125 #2125,3400 Rib Mountain Drive,WI,54401
Barnes Noble,Raleigh,2126,2126 #2126,5959 Triangle Town Blvd Unit 2107,NC,27616
Barnes Noble,Beaumont,2127,2127 #2127,4155 Dowlen Road,TX,77706
Barnes Noble,Las Vegas,2128,2128 #2128,8915 W. Charleston,NV,89117
Barnes Noble,Johnson City,2129,2129 #2129,3030 Franklin Terrace,TN,37604
Barnes Noble,Palm Desert,2130,2130 #2130,72-840 Highway 111 Suite 425,CA,92260
Barnes Noble,Harrisonburg,2131,2131 #2131,289 Burgess Rd.,VA,22801
Barnes Noble,Enfield,2132,2132 #2132,25 Hazard Ave,CT,6082
Barnes Noble,New Hartford,2133,2133 #2133,4811 Commercial Drive,NY,13413
Barnes Noble,Rogers,2134,2134 #2134,261 N. 46th Street,AR,72756
Barnes Noble,Santee,2135,2135 #2135,9938 Mission Gorge Road,CA,92071
Barnes Noble,West Jordan,2137,2137 #2137,7157 Plaza Center Drive,UT,84084
Barnes Noble,Valparaiso,2138,2138 #2138,150 Silhavy Road Suite 120,IN,46383
Barnes Noble,Huntsville,2139,2139 #2139,2750 Carl T. Jones Parkway Suite 75,AL,35802
Barnes Noble,Bridgewater,2140,2140 #2140,319 Route 202/206,NJ,8807
Barnes Noble,Irvine,2141,2141 #2141,426 Spectrum Drive,CA,92618
Barnes Noble,Mesa,2143,2143 #2143,1758 South Val Vista Drive,AZ,85204
Barnes Noble,Las Cruces,2144,2144 #2144,700 S. Telshor Blvd. #1390,NM,88011
Barnes Noble,Salisbury,2145,2145 #2145,2618 North Salisbury Blvd.,MD,21801
Barnes Noble,Rome,2146,2146 #2146,1442 Turner-McCall Blvd,GA,30161
Barnes Noble,Goodyear,2147,2147 #2147,1446 N. Litchfield Road,AZ,85338
Barnes Noble,Murray,2148,2148 #2148,5249 South State Street,UT,84107
Barnes Noble,Noblesville,2149,2149 #2149,17090 Mercantile Blvd.,IN,46060
Barnes Noble,Fresh Meadows,2151,2151 #2151,176-60 Union Turnpike,NY,11366
Barnes Noble,Humble,2152,2152 #2152,20131 Highway 59,TX,77338
Barnes Noble,Oceanside,2153,2153 #2153,2615 Vista Way,CA,92054
Barnes Noble,Woodmere,2154,2154 #2154,28801 Chagrin Blvd,OH,44122
Barnes Noble,Westlake,2155,2155 #2155,198 Crocker Park Boulevard,OH,44145
Barnes Noble,Wilmington,2156,2156 #2156,850 Inspiration Drive,NC,28405
Barnes Noble,Marietta,2157,2157 #2157,3625 Dallas Hwy SW Suite 400,GA,30064
Barnes Noble,Warwick,2159,2159 #2159,1350-B Bald Hill Rd,RI,2886
Barnes Noble,Middletown,2160,2160 #2160,1311 West Main Road,RI,2842
Barnes Noble,Jefferson City,2161,2161 #2161,3535 Missouri Blvd.,MO,65109
Barnes Noble,Edison,2162,2162 #2162,55 Parsonage Road,NJ,8837
Barnes Noble,Merced,2164,2164 #2164,1720 West Olive Ave,CA,95348
Barnes Noble,Baltimore,2166,2166 #2166,1819 Reisterstown Rd.,MD,21208
Barnes Noble,Manchester,2167,2167 #2167,270 Buckland Hills Dr. Suite 1024,CT,6040
Barnes Noble,Waterloo,2168,2168 #2168,1518 Flammang Drive,IA,50702
Barnes Noble,Midland,2169,2169 #2169,6800 Eastman Ave Space F630,MI,48642
Barnes Noble,West Chester,2170,2170 #2170,9455 Civic Centre Blvd,OH,45069
Barnes Noble,Raleigh,2171,2171 #2171,8431 Brier Creek Parkway,NC,27617
Barnes Noble,Worcester,2172,2172 #2172,541 D Lincoln Street,MA,1605
Barnes Noble,Antioch,2173,2173 #2173,5709 Lone Tree Way,CA,94531
Barnes Noble,Madison,2174,2174 #2174,#1 East Towne Mall,WI,53704
Barnes Noble,Hoover,2175,2175 #2175,171 Main St.,AL,35244
Barnes Noble,Sioux City,2179,2179 #2179,4400 Sergeant Rd Unit 550,IA,51106
Barnes Noble,Schenectady,2180,2180 #2180,402 Balltown Road,NY,12304
Barnes Noble,Gilroy,2181,2181 #2181,6825 Camino Arroyo,CA,95020
Barnes Noble,N. Little Rock,2182,2182 #2182,4000 McCain Blvd,AR,72116
Barnes Noble,Houston,2183,2183 #2183,7026 Hwy 6 North,TX,77095
Barnes Noble,Kansas City,2184,2184 #2184,8625 Northwest Prairie View Rd Spac,MO,64153
Barnes Noble,West Dundee,2185,2185 #2185,1468 Springhill Mall Blvd,IL,60118
Barnes Noble,Spanish Fort,2186,2186 #2186,30500 State Hwy 181 Suite 414,AL,36527
Barnes Noble,Altamonte Springs,2188,2188 #2188,451 Altamonte Drive,FL,32701
Barnes Noble,Morgantown,2189,2189 #2189,3000 University Towne Centre Dr.,WV,26501
Barnes Noble,Minnetonka,2190,2190 #2190,13131 Ridgedale Drive,MN,55305
Barnes Noble,Howell,2191,2191 #2191,4831 US Hwy 9,NJ,7731
Barnes Noble,Chesterfield,2192,2192 #2192,1600 Clarkson Road,MO,63017
Barnes Noble,Denton,2193,2193 #2193,2201 I-35 East South Space N01B,TX,76205
Barnes Noble,Hingham,2194,2194 #2194,96 Derby Street Suite 300,MA,2043
Barnes Noble,Virginia Beach,2195,2195 #2195,701 Lynnhaven Pkwy,VA,23452
Barnes Noble,Louisville,2196,2196 #2196,4100 Summit Plaza Drive,KY,40241
Barnes Noble,Liverpool,2197,2197 #2197,3956 Route 31,NY,13090
Barnes Noble,Altoona,2198,2198 #2198,175 Falon Lane,PA,16602
Barnes Noble,The Woodlands,2200,2200 #2200,1201 Lake Woodlands Dr. #3008,TX,77381
Barnes Noble,Redlands,2201,2201 #2201,27460 Lugonia Ave,CA,92374
Barnes Noble,White Plains,2202,2202 #2202,230 Main St,NY,10601
Barnes Noble,Monroeville,2203,2203 #2203,700 Mall Circle Drive,PA,15146
Barnes Noble,Atlanta,2204,2204 #2204,1217 Caroline Street at Moreland Av,GA,30307
Barnes Noble,Corona,2205,2205 #2205,2470 Tuscany Street Suite 101,CA,92881
Barnes Noble,Millbury,2206,2206 #2206,70 Worcester Providence Turnpike #5,MA,1527
Barnes Noble,Ft Worth,2207,2207 #2207,4801 Overton Ridge Blvd suite 100,TX,76132
Barnes Noble,San Bruno,2208,2208 #2208,1150 El Camino Real Space 277,CA,94066
Barnes Noble,Surprise,2209,2209 #2209,13719 West Bell Road,AZ,85374
Barnes Noble,Easton,2210,2210 #2210,4445 Southmont Way,PA,18045
Barnes Noble,Phoenix,2211,2211 #2211,2501 West Happy Valley Road Ste 20,AZ,85085
Barnes Noble,Gilbert,2212,2212 #2212,3807 S. Gilbert Rd.,AZ,85296
Barnes Noble,Brookfield,2213,2213 #2213,95 N. Moorland Road Unit C-1,WI,53005
Barnes Noble,Jacksonville,2214,2214 #2214,10280 Midtown Parkway,FL,32246
Barnes Noble,Newburgh,2215,2215 #2215,1245 Route 300 (Union Ave),NY,12550
Barnes Noble,Carle Place,2216,2216 #2216,91 Old Country Road,NY,11514
Barnes Noble,Hamilton,2217,2217 #2217,425 Marketplace Boulevard,NJ,8691
Barnes Noble,Seattle,2218,2218 #2218,2600 SW Barton St Suite E-1,WA,98126
Barnes Noble,West Des Moines,2220,2220 #2220,101 Jordan Creek Parkway Unit 12170,IA,50266
Barnes Noble,Greenville,2221,2221 #2221,1125 Woodruff Road Suite 1810,SC,29607
Barnes Noble,Garland,2222,2222 #2222,190 Cedar Sage Drive Unit #BB01,TX,75040
Barnes Noble,Canton,2223,2223 #2223,110 Albany Tpk #305,CT,6019
Barnes Noble,Collierville,2224,2224 #2224,4610 Merchants Park Circle Suite 521,TN,38017
Barnes Noble,Newport Beach,2225,2225 #2225,401 Newport Center Drive Suite A215,CA,92660
Barnes Noble,Kingston,2226,2226 #2226,1177 Ulster Avenue,NY,12401
Barnes Noble,Maplewood,2227,2227 #2227,3001 White Bear Ave North Ste 1030,MN,55109
Barnes Noble,Hackensack,2228,2228 #2228,187 Riverside Square,NJ,7601
Barnes Noble,Webster,2229,2229 #2229,1070 Ridge Road,NY,14580
Barnes Noble,Palm Beach Gardens,2230,2230 #2230,11380 Legacy Ave,FL,33410
Barnes Noble,Loveland,2231,2231 #2231,5835 Sky Pond Drive,CO,80537
Barnes Noble,Fenton,2232,2232 #2232,721 Gravois Road,MO,63026
Barnes Noble,Pittsburgh,2233,2233 #2233,301 South Hills Village,PA,15241
Barnes Noble,New York,2234,2234 #2234,555 Fifth Avenue,NY,10017
Barnes Noble,Fairbanks,2235,2235 #2235,421 Mehar Avenue,AK,99701
Barnes Noble,Evanston,2236,2236 #2236,1630 Sherman Avenue,IL,60201
Barnes Noble,St Peters,2237,2237 #2237,320 Mid Rivers Center Drive,MO,63376
Barnes Noble,McLean,2238,2238 #2238,7851 L. Tysons Corner Center,VA,22102
Barnes Noble,Dallas,2239,2239 #2239,5959 Royal Lane Suite 616,TX,75230
Barnes Noble,Milford,2240,2240 #2240,1375 Boston Post Road,CT,6460
Barnes Noble,Southlake,2241,2241 #2241,1430 Plaza Place,TX,76092
Barnes Noble,Montclair,2242,2242 #2242,5183 Montclair Plaza Lane,CA,91763
Barnes Noble,Tempe,2243,2243 #2243,2000 E.Rio Salado Pkwy #1032,AZ,85281
Barnes Noble,Flint,2244,2244 #2244,4370 Miller Road Unit E-10,MI,48507
Barnes Noble,Aurora,2245,2245 #2245,6300 S. Main Street Suite N101,CO,80016
Barnes Noble,Idaho Falls,2246,2246 #2246,2300 East 17th Street Suite #1101,ID,83404
Barnes Noble,San Jose,2247,2247 #2247,2200 Eastridge Loop Space 1420,CA,95122
Barnes Noble,La Crosse,2248,2248 #2248,3800 State Road 16,WI,54601
Barnes Noble,Honolulu,2249,2249 #2249,1450 Ala Moana Blvd. STE 1272,HI,96814
Barnes Noble,Jonesboro,2250,2250 #2250,3000 East Highland Drive Suite 410,AR,72401
Barnes Noble,Green Oak Township,2251,2251 #2251,9605 Green Oak Village Place,MI,48116
Barnes Noble,Glendale,2252,2252 #2252,5755 N Bayshore Drive,WI,53217
Barnes Noble,Allen Park,2253,2253 #2253,3120 Fairlane Drive,MI,48101
Barnes Noble,Pineville,2254,2254 #2254,11025 Carolina Place,NC,28134
Barnes Noble,New York,2255,2255 #2255,97 Warren Street,NY,10007
Barnes Noble,Snellville,2256,2256 #2256,1350 Scenic Highway Suite 100,GA,30078
Barnes Noble,Frederick,2257,2257 #2257,5500 Buckeystown Pike,MD,21703
Barnes Noble,Fairview Heights,2258,2258 #2258,6510 N.Illinois Street,IL,62208
Barnes Noble,Center Valley,2259,2259 #2259,2960 Center Valley Pkwy Ste 742,PA,18034
Barnes Noble,Plainfield,2260,2260 #2260,2540 Futura Pkwy. #135,IN,46168
Barnes Noble,Portland,2262,2262 #2262,12000 SE 82nd Avenue,OR,97086
Barnes Noble,Baton Rouge,2263,2263 #2263,7707 Bluebonnet Blvd #100,LA,70810
Barnes Noble,The Villages,2264,2264 #2264,1055 Old Camp Road,FL,32162
Barnes Noble,Williamsburg,2265,2265 #2265,5101 Main Street,VA,23188
Barnes Noble,Bee Cave,2267,2267 #2267,12701 Hill Country Blvd Ste O-140,TX,78738
Barnes Noble,Dallas,2268,2268 #2268,5301 Beltline Road Suite 118,TX,75254
Barnes Noble,Sacramento,2269,2269 #2269,3561 N.Freeway Blvd,CA,95834
Barnes Noble,Mankato,2270,2270 #2270,1850 Adams Street # 404,MN,56001
Barnes Noble,Highland Village,2271,2271 #2271,4100 Deer Creek Suite 100,TX,75077
Barnes Noble,Cape Girardeau,2272,2272 #2272,3049 William Street Ste 219A,MO,63703
Barnes Noble,Corte Madera,2274,2274 #2274,313 Corte Madera Town Center,CA,94925
Barnes Noble,Albany,2275,2275 #2275,131 Colonie Center Suite 355,NY,12205
Barnes Noble,Lahaina,2276,2276 #2276,325 Keawe #101,HI,96761
Barnes Noble,Sugar Land,2277,2277 #2277,16535 Southwest Frwy Suite 4000,TX,77479
Barnes Noble,New York,2278,2278 #2278,150 East 86th Street,NY,10028
Barnes Noble,West Hartford,2279,2279 #2279,60 Isham Road,CT,6107
Barnes Noble,Seattle,2280,2280 #2280,401 NE Northgate Way #1100,WA,98125
Barnes Noble,Silverdale,2281,2281 #2281,10315 Silverdale Way NW,WA,98383
Barnes Noble,Florence,2282,2282 #2282,2701 David Mcleod Blvd Unit # 1200,SC,29501
Barnes Noble,Estero,2283,2283 #2283,23130 Fashion Drive,FL,33928
Barnes Noble,Chula Vista,2284,2284 #2284,2015 Birch Road Suite 700,CA,91915
Barnes Noble,Burlington,2285,2285 #2285,3125 Waltham Blvd,NC,27215
Barnes Noble,Stamford,2286,2286 #2286,100 Greyrock Place Suite H009,CT,6901
Barnes Noble,Huntsville,2287,2287 #2287,300 The Bridge Street NW,AL,35806
Barnes Noble,Cherry Hill,2288,2288 #2288,911 Haddonfield Road,NJ,8002
Barnes Noble,Myrtle Beach,2289,2289 #2289,3346 Reed Street,SC,29577
Barnes Noble,Lincolnshire,2290,2290 #2290,920 N. Milwaukee Avenue,IL,60069
Barnes Noble,Minot,2291,2291 #2291,2400 SW 10th Street Ste 15,ND,58701
Barnes Noble,Murfreesboro,2292,2292 #2292,2615 Medical Center Pkwy,TN,37129
Barnes Noble,Roanoke,2294,2294 #2294,4802 Valley View Blvd NW,VA,24012
Barnes Noble,Tuscaloosa,2295,2295 #2295,1800 McFarland Road East Suite 200,AL,35404
Barnes Noble,Glendora,2296,2296 #2296,1315 E Gladstone Street,CA,91740
Barnes Noble,Newnan,2297,2297 #2297,342 Newnan Crossing Bypass,GA,30265
Barnes Noble,Maumee,2298,2298 #2298,3100 Main St #1400,OH,43537
Barnes Noble,Chino Hills,2300,2300 #2300,3625 Grand Ave,CA,91709
Barnes Noble,Buffalo,2301,2301 #2301,4401 Transit Road Suite 800,NY,14221
Barnes Noble,Glendale,2303,2303 #2303,210 Americana Way,CA,91210
Barnes Noble,Bolingbrook,2304,2304 #2304,631 E. Boughton Road Suite 100,IL,60440
Barnes Noble,Cedar Hill,2305,2305 #2305,305 West FM 1382 Suite 520,TX,75104
Barnes Noble,Buffalo,2306,2306 #2306,3701 McKinley Parkway,NY,14219
Barnes Noble,Jacksonville,2307,2307 #2307,308 Jacksonville Mall,NC,28546
Barnes Noble,Rockford,2308,2308 #2308,7200 Harrison Ste 5,IL,61112
Barnes Noble,Hampton,2309,2309 #2309,5100 Kilgore Ave,VA,23666
Barnes Noble,Dothan,2310,2310 #2310,4601 Montgomery Hwy #100,AL,36303
Barnes Noble,McAllen,2311,2311 #2311,3300 Expressway 83 # 1100,TX,78501
Barnes Noble,Hendersonville,2312,2312 #2312,300 Indian Lake Blvd Suite 340,TN,37075
Barnes Noble,Fort Wayne,2313,2313 #2313,4201 Coldwater Rd Suite B-01,IN,46805
Barnes Noble,Richmond,2314,2314 #2314,11500 Midlothian Tnpk Space 440,VA,23235
Barnes Noble,Pembroke Pines,2315,2315 #2315,14572 SW 5th St Suite 10140,FL,33027
Barnes Noble,Charlotte,2317,2317 #2317,4020 Sharon Road,NC,28211
Barnes Noble,Ridgeland,2318,2318 #2318,1000 Highland Colony Pkwy Ste 3008,MS,39157
Barnes Noble,Wichita,2319,2319 #2319,1920 N. Rock Road,KS,67206
Barnes Noble,Ocala,2320,2320 #2320,4414 SW College Road Ste 500,FL,34474
Barnes Noble,Houston,2321,2321 #2321,2030 W. Gray Street,TX,77019
Barnes Noble,Whitehall,2323,2323 #2323,801 Lehigh Lifestyle Center,PA,18052
Barnes Noble,Harker Heights,2324,2324 #2324,201 E.Central Expressway,TX,76548
Barnes Noble,Lake Grove,2325,2325 #2325,600 Smith Haven Mall,NY,11755
Barnes Noble,Asheville,2326,2326 #2326,33 Town Square Boulevard Suite 100,NC,28803
Barnes Noble,East Northport,2327,2327 #2327,4000 East Jericho Turnpike,NY,11731
Barnes Noble,Greenwood,2329,2329 #2329,1251 US 31 North,IN,46142
Barnes Noble,Cumming,2330,2330 #2330,410 Peachtree Pkwy,GA,30041
Barnes Noble,St. George,2331,2331 #2331,1720 East Red Cliffs Drive,UT,84790
Barnes Noble,Boulder,2333,2333 #2333,2999 Pearl Street,CO,80301
Barnes Noble,Macon,2334,2334 #2334,5080 Riverside Drive,GA,31210
Barnes Noble,Winter Garden,2335,2335 #2335,3049 Daniels Rd,FL,34787
Barnes Noble,Pearland,2336,2336 #2336,11200 Broadway Unit 500,TX,77584
Barnes Noble,Chattanooga,2337,2337 #2337,2100 Hamilton Place Boulevard,TN,37421
Barnes Noble,Livingston,2340,2340 #2340,112 Eisenhower Parkway,NJ,7039
Barnes Noble,Arlington,2342,2342 #2342,3881 S. Cooper St # 2027,TX,76015
Barnes Noble,Hurst,2344,2344 #2344,861 NE Mall Blvd,TX,76053
Barnes Noble,Tupelo,2346,2346 #2346,1001 Barnes Crossing Rd #104,MS,38804
Barnes Noble,Asheville,2347,2347 #2347,3 South Tunnel Road,NC,28805
Barnes Noble,Gilbert,2348,2348 #2348,2150 East Williams Field Rd #105,AZ,85295
Barnes Noble,Wesley Chapel,2349,2349 #2349,28152 Paseo Dr Suite 100,FL,33543
Barnes Noble,Des Peres,2350,2350 #2350,113 West County Center,MO,63131
Barnes Noble,Bensalem,2351,2351 #2351,300 Neshaminy Mall,PA,19020
Barnes Noble,Overland Park,2352,2352 #2352,11323 W 95th Street,KS,66214
Barnes Noble,San Antonio,2353,2353 #2353,15900 La Cantera Parkway Bldg 27,TX,78256
Barnes Noble,Columbus,2354,2354 #2354,1560 Polaris Parkway,OH,43240
Barnes Noble,Grand Rapids,2356,2356 #2356,3195 28th St. SE Suite B116,MI,49512
Barnes Noble,Mishawaka,2358,2358 #2358,6501 North Grape Road,IN,46545
Barnes Noble,Augusta,2359,2359 #2359,3450 Wrightsboro Road,GA,30909
Barnes Noble,Oak Brook,2361,2361 #2361,297 Oakbrook Center,IL,60523
Barnes Noble,San Antonio,2362,2362 #2362,11503 NW Military Parkway Suite 100,TX,78231
Barnes Noble,Eatontown,2363,2363 #2363,180 Route 35,NJ,7724
Barnes Noble,Lubbock,2364,2364 #2364,6002 Slide Road Suite 68203,TX,79414
Barnes Noble,Newark,2366,2366 #2366,340 Christiana Mall,DE,19702
Barnes Noble,Pittsburgh,2367,2367 #2367,800 Settlers Ridge Center Drive,PA,15205
Barnes Noble,Princeton,2368,2368 #2368,3535 US Highway 1 Suite 400,NJ,8540
Barnes Noble,Fredericksburg,2369,2369 #2369,1220 Carl D. Silver Parkway,VA,22401
Barnes Noble,El Paso,2370,2370 #2370,8889 Gateway Blvd. West Suite 120,TX,79925
Barnes Noble,Tigard,2371,2371 #2371,7227 SW Bridgeport Rd.,OR,97224
Barnes Noble,Indianapolis,2372,2372 #2372,8675 River Crossing Blvd,IN,46240
Barnes Noble,Schaumburg,2508,2508 #2508,590 East Golf Road,IL,60173
Barnes Noble,Danbury,2511,2511 #2511,15 Backus Ave,CT,6810
Barnes Noble,Edina,2514,2514 #2514,3225 W 69th,MN,55435
Barnes Noble,Minneapolis,2516,2516 #2516,3216 West Lake St,MN,55416
Barnes Noble,Woodbury,2518,2518 #2518,7020 Valley Creek Plaza,MN,55125
Barnes Noble,Columbus,2527,2527 #2527,3280 Tremont Road,OH,43221
Barnes Noble,Bellevue,2530,2530 #2530,15600 NE 8th Ave Suite Q1,WA,98008
Barnes Noble,Lincoln,2535,2535 #2535,5150 O Street,NE,68510
Barnes Noble,Austin,2536,2536 #2536,10000 Research Blvd #158,TX,78759
Barnes Noble,Irvine,2539,2539 #2539,4600 Barranca Parkway,CA,92604
Barnes Noble,Ladue,2542,2542 #2542,8871 Ladue Rd.,MO,63124
Barnes Noble,Massapequa Park,2547,2547 #2547,5224 Sunrise Highway,NY,11762
Barnes Noble,Tampa,2550,2550 #2550,213 N Dale Mabry,FL,33609
Barnes Noble,Skokie,2552,2552 #2552,5405 Touhy Ave,IL,60077
Barnes Noble,Glendale,2554,2554 #2554,960 S Colorado Blvd,CO,80246
Barnes Noble,Rochester,2555,2555 #2555,15 First Street SW,MN,55902
Barnes Noble,Greenville,2558,2558 #2558,735 Haywood Rd,SC,29607
Barnes Noble,Charlottesville,2559,2559 #2559,1035 Emmet St Suite A,VA,22903
Barnes Noble,Phoenix,2560,2560 #2560,10235 N Metro Parkway East,AZ,85051
Barnes Noble,Bayside,2562,2562 #2562,23-80 Bell Blvd.,NY,11360
Barnes Noble,Minneapolis,2564,2564 #2564,801 Nicollet Mall,MN,55402
Barnes Noble,Springfield,2565,2565 #2565,3111 South Veterans Pkwy,IL,62704
Barnes Noble,Plano,2566,2566 #2566,2201 Preston Rd Suite E,TX,75093
Barnes Noble,Walnut Creek,2569,2569 #2569,1149 S. Main St.,CA,94596
Barnes Noble,Erie,2572,2572 #2572,5909 Peach St,PA,16509
Barnes Noble,Kansas City,2574,2574 #2574,420 W 47th Street,MO,64112
Barnes Noble,Santa Monica,2575,2575 #2575,1201 3rd Street,CA,90401
Barnes Noble,Orlando,2576,2576 #2576,8358 S Orange Blossom Tr,FL,32809
Barnes Noble,Houston,2582,2582 #2582,3003 W Holcombe Blvd,TX,77025
Barnes Noble,Tulsa,2585,2585 #2585,8620 E 71 Street,OK,74133
Barnes Noble,Plano,2586,2586 #2586,801 West 15th St Suite E,TX,75075
Barnes Noble,Cedar Rapids,2587,2587 #2587,333 Collins Rd NE Bldg 1,IA,52402
Barnes Noble,Portage,2588,2588 #2588,6134 South Westnedge Ave,MI,49002
Barnes Noble,Bloomington,2590,2590 #2590,1701 E Empire,IL,61704
Barnes Noble,Toledo,2591,2591 #2591,4940 Monroe St,OH,43623
Barnes Noble,Plantation,2592,2592 #2592,591 South University Dr,FL,33324
Barnes Noble,Greenfield,2594,2594 #2594,4935 South 76th St,WI,53220
Barnes Noble,Brandon,2595,2595 #2595,122 Brandon Town Center,FL,33511
Barnes Noble,Paramus,2597,2597 #2597,765 Route 17 South,NJ,7652
Barnes Noble,Santa Rosa,2603,2603 #2603,700 4th Street,CA,95404
Barnes Noble,Salem,2605,2605 #2605,125 S Broadway Route 28,NH,3079
Barnes Noble,Fargo,2606,2606 #2606,1201 42 St SW,ND,58103
Barnes Noble,Tukwila,2607,2607 #2607,300 Andover Park W Ste 200,WA,98188
Barnes Noble,Colorado Springs,2608,2608 #2608,795 Citadel Drive East,CO,80909
Barnes Noble,Freehold,2609,2609 #2609,3981 US Hwy 9,NJ,7728
Barnes Noble,Ft. Collins,2611,2611 #2611,4045 S. College,CO,80525
Barnes Noble,Roseville,2614,2614 #2614,2100 North Snelling Ave,MN,55113
Barnes Noble,Issaquah,2617,2617 #2617,1530 11th Avenue NW,WA,98027
Barnes Noble,New York,2618,2618 #2618,160 E 54th Street,NY,10022
Barnes Noble,Skokie,2622,2622 #2622,55 Old Orchard Center,IL,60077
Barnes Noble,St. Paul,2623,2623 #2623,2080 Ford Parkway,MN,55116
Barnes Noble,Tyler,2624,2624 #2624,4916 South Broadway,TX,75703
Barnes Noble,Orem,2626,2626 #2626,330 East 1300 South,UT,84058
Barnes Noble,Rochester Hills,2627,2627 #2627,2800 S. Rochester Road,MI,48307
Barnes Noble,West Bloomfield,2629,2629 #2629,6800 Orchard Lake Rd,MI,48322
Barnes Noble,Durham,2631,2631 #2631,5400 New Hope Commons,NC,27707
Barnes Noble,Naples,2632,2632 #2632,5377 Tamiami Trail,FL,34108
Barnes Noble,El Paso,2634,2634 #2634,705 Sunland Park Dr,TX,79912
Barnes Noble,Houston,2635,2635 #2635,7626 Westheimer,TX,77063
Barnes Noble,Virginia Beach,2637,2637 #2637,4485 Virginia Beach Blvd,VA,23462
Barnes Noble,Midvale,2639,2639 #2639,7119 South 1300 East St,UT,84047
Barnes Noble,Santa Clarita,2642,2642 #2642,23630 Valencia Blvd.,CA,91355
Barnes Noble,Houston,2643,2643 #2643,12850 Memorial Drive Suite 1600,TX,77024
Barnes Noble,Framingham,2645,2645 #2645,1 Worcester Rd,MA,1701
Barnes Noble,Cary,2647,2647 #2647,760 SE Maynard,NC,27511
Barnes Noble,Northville,2648,2648 #2648,17111 Haggerty Rd.,MI,48168
Barnes Noble,Long Beach,2651,2651 #2651,6326 East Pacific Coast Hwy,CA,90803
Barnes Noble,Olympia,2653,2653 #2653,1530 Black Lake Blvd SW,WA,98502
Barnes Noble,Florence,2654,2654 #2654,7663 Mall Rd,KY,41042
Barnes Noble,Marietta,2656,2656 #2656,50 Barrett Pkwy Suite 3000 Bldg. 3,GA,30066
Barnes Noble,Lewisville,2657,2657 #2657,2325 S Stemmons Fwy Suite 401,TX,75067
Barnes Noble,Little Rock,2658,2658 #2658,11500 Financial Ctr Pkwy,AR,72211
Barnes Noble,Pittsfield,2661,2661 #2661,555 Hubbard Ave,MA,1201
Barnes Noble,Omaha,2662,2662 #2662,3333 Oakview Dr,NE,68144
Barnes Noble,Twin Falls,2663,2663 #2663,1239 A Pole Line Rd East,ID,83301
Barnes Noble,Marlton,2664,2664 #2664,200 West Route 70,NJ,8053
Barnes Noble,Amarillo,2665,2665 #2665,2415 Soncy Road,TX,79124
Barnes Noble,Leawood,2668,2668 #2668,4751 West 117th Street,KS,66211
Barnes Noble,Houston,2670,2670 #2670,2450 State Hwy 6,TX,77077
Barnes Noble,Webster,2671,2671 #2671,1029 W Bay Area Blvd,TX,77598
Barnes Noble,Cheyenne,2674,2674 #2674,1851 Dell Range Blvd,WY,82009
Barnes Noble,New York,2675,2675 #2675,33 East 17th Street,NY,10003
Barnes Noble,San Luis Obispo,2676,2676 #2676,894 Marsh St Bldg G,CA,93401
Barnes Noble,Vancouver,2679,2679 #2679,7700 NE Fourth Plain Blvd,WA,98662
Barnes Noble,Scottsdale,2680,2680 #2680,10500 N. 90th Street,AZ,85258
Barnes Noble,Bellingham,2682,2682 #2682,4099 Meridian St.,WA,98226
Barnes Noble,Jacksonville,2683,2683 #2683,11112 San Jose Boulevard Suite 8,FL,32223
Barnes Noble,San Antonio,2685,2685 #2685,6065 NW Loop 410 #185,TX,78238
Barnes Noble,Midland,2686,2686 #2686,2617 West Loop 250 N,TX,79705
Barnes Noble,Carbondale,2691,2691 #2691,1300 East Main Street,IL,62901
Barnes Noble,Evansville,2692,2692 #2692,624 South Green River Rd,IN,47715
Barnes Noble,Oklahoma City,2694,2694 #2694,6100 North May Ave,OK,73112
Barnes Noble,Vernon Hills,2695,2695 #2695,720 Hawthorne Center,IL,60061
Barnes Noble,Fort Gratiot,2696,2696 #2696,4325 24th Avenue,MI,48059
Barnes Noble,Fairless Hills,2697,2697 #2697,210 Commerce Blvd,PA,19030
Barnes Noble,Brentwood,2701,2701 #2701,1701 Mallory Lane,TN,37027
Barnes Noble,Orlando,2704,2704 #2704,2418 E Colonial Drive,FL,32803
Barnes Noble,Louisville,2705,2705 #2705,801 South Hurstbourne Pkwy,KY,40222
Barnes Noble,Federal Way,2706,2706 #2706,31325 Pacific Highway South,WA,98003
Barnes Noble,Waco,2708,2708 #2708,4909 W Waco Dr.,TX,76710
Barnes Noble,Ft. Myers,2711,2711 #2711,13751 Tamiami Trail,FL,33912
Barnes Noble,Falls Church,2712,2712 #2712,6260 Seven Corners Center,VA,22044
Barnes Noble,Forest Hills,2713,2713 #2713,70-00 Austin St,NY,11375
Barnes Noble,Champaign,2714,2714 #2714,65 East Market View Dr.,IL,61820
Barnes Noble,Burbank,2715,2715 #2715,731 N San Fernando Blvd.,CA,91502
Barnes Noble,Westminster,2718,2718 #2718,9370 Sheridan Blvd,CO,80030
Barnes Noble,Madison,2720,2720 #2720,7433 Mineral Point Road,WI,53717
Barnes Noble,Fayetteville,2721,2721 #2721,4144 North College Avenue,AR,72703
Barnes Noble,Joliet,2723,2723 #2723,2621 Plainfield Road,IL,60435
Barnes Noble,Youngstown,2724,2724 #2724,381 Boardman-Poland Rd,OH,44512
Barnes Noble,Oklahoma City,2725,2725 #2725,13800 North May Ave,OK,73134
Barnes Noble,Topeka,2726,2726 #2726,6130 SW 17th St,KS,66615
Barnes Noble,Littleton,2728,2728 #2728,8136 West Bowles Avene,CO,80123
Barnes Noble,Rancho Cucamonga,2729,2729 #2729,11090 Foothill Blvd,CA,91730
Barnes Noble,Lafayette,2730,2730 #2730,5705 Johnston St,LA,70503
Barnes Noble,Mansfield,2731,2731 #2731,832 N. Lexington Springmill,OH,44906
Barnes Noble,Independence,2732,2732 #2732,19120 East 39th Street,MO,64057
Barnes Noble,La Mesa,2733,2733 #2733,5500 Grossmont Ctr Dr Suite 331,CA,91942
Barnes Noble,Chesapeake,2735,2735 #2735,1212 Greenbrier Pkwy,VA,23320
Barnes Noble,Sarasota,2737,2737 #2737,4010 S. Tamiami Tr,FL,34231
Barnes Noble,Coral Gables,2739,2739 #2739,152 Miracle Mile,FL,33134
Barnes Noble,Boise,2740,2740 #2740,1315 North Milwaukee,ID,83704
Barnes Noble,Bloomington,2741,2741 #2741,2813 East 3rd St.,IN,47408
Barnes Noble,Augusta,2742,2742 #2742,9 Market Place Dr,ME,4330
Barnes Noble,Huntington Beach,2743,2743 #2743,7881 Edinger Ave. #110,CA,92647
Barnes Noble,Henderson,2745,2745 #2745,567 North Stephanie,NV,89014
Barnes Noble,Peoria,2746,2746 #2746,7685 West Bell Road,AZ,85382
Barnes Noble,Holyoke,2747,2747 #2747,7 Holyoke Street,MA,1040
Barnes Noble,Beaverton,2748,2748 #2748,18300 NW Evergreen Pkwy,OR,97006
Barnes Noble,Maple Grove,2749,2749 #2749,8040 Wedgewood Lane,MN,55369
Barnes Noble,Bethesda,2750,2750 #2750,4801 Bethesda Avenue,MD,20814
Barnes Noble,Thousand Oaks,2751,2751 #2751,160 S. Westlake Blvd.,CA,91362
Barnes Noble,Bowling Green,2753,2753 #2753,1680 Campbell Lane,KY,42104
Barnes Noble,Lone Tree,2755,2755 #2755,8374 S. Willow Street,CO,80124
Barnes Noble,Yuma,2756,2756 #2756,819 W 32nd Street,AZ,85364
Barnes Noble,Spartanburg,2758,2758 #2758,1489 W.O. Ezell Blvd,SC,29301
Barnes Noble,Winston-Salem,2761,2761 #2761,1925 Hampton Inn Court,NC,27103
Barnes Noble,Daytona Beach,2763,2763 #2763,1900 W International Spdway,FL,32114
Barnes Noble,Rockville,2764,2764 #2764,12089 Rockville Pike,MD,20852
Barnes Noble,Billings,2765,2765 #2765,530 S 24th Street West,MT,59102
Barnes Noble,Tampa,2767,2767 #2767,11802 N. Dale Mabry Highway,FL,33618
Barnes Noble,Metairie,2768,2768 #2768,3721 Veterans Boulevard,LA,70002
Barnes Noble,Bourbonnais,2769,2769 #2769,1577 North State Route 50,IL,60914
Barnes Noble,Medford,2771,2771 #2771,1400 Biddle Road,OR,97501
Barnes Noble,Las Vegas,2772,2772 #2772,2191 N Rainbow Blvd.,NV,89108
Barnes Noble,Newport News,2773,2773 #2773,12170 Jefferson Avenue,VA,23602
Barnes Noble,Costa Mesa,2774,2774 #2774,901 B South Coast Drive Ste 150,CA,92626
Barnes Noble,Greenville,2775,2775 #2775,3040 Evans Street,NC,27834
Barnes Noble,S. Burlington,2776,2776 #2776,102 Dorset Street,VT,5403
Barnes Noble,Dayton,2777,2777 #2777,2619 Miamisburg-Centerville Rd,OH,45459
Barnes Noble,Peoria,2778,2778 #2778,5001 N. Big Hollow Road,IL,61615
Barnes Noble,Missoula,2779,2779 #2779,2640 N. Reserve Street,MT,59808
Barnes Noble,Chicago,2780,2780 #2780,1441 West Webster Avenue,IL,60614
Barnes Noble,Phoenix,2781,2781 #2781,4847 East Ray Road,AZ,85044
Barnes Noble,Willow Grove,2782,2782 #2782,102 Park Avenue,PA,19090
Barnes Noble,Anchorage,2784,2784 #2784,200 East Northern Lights Blvd,AK,99503
Barnes Noble,Encinitas,2785,2785 #2785,1040 N. El Camino Real Drive,CA,92024
Barnes Noble,Blaine,2786,2786 #2786,710 County Highway 10 NE,MN,55434
Barnes Noble,Rochester,2790,2790 #2790,3349 Monroe Avenue,NY,14618
Barnes Noble,Nashua,2791,2791 #2791,235 Daniel Webster Hwy,NH,3060
Barnes Noble,Miami,2792,2792 #2792,12405 N Kendall Drive,FL,33186
Barnes Noble,Coral Springs,2793,2793 #2793,2790 University Drive,FL,33065
Barnes Noble,Atlanta,2794,2794 #2794,2952 Cobb Pkwy.,GA,30339
Barnes Noble,Greensboro,2795,2795 #2795,3102 Northline Avenue,NC,27408
Barnes Noble,St. Augustine,2796,2796 #2796,1930 U.S. 1 South,FL,32086
Barnes Noble,Moorestown,2797,2797 #2797,1311 Nixon Drive,NJ,8057
Barnes Noble,Saugus,2798,2798 #2798,444A Broadway,MA,1906
Barnes Noble,San Antonio,2802,2802 #2802,321 NW Loop 410 #104,TX,78216
Barnes Noble,Brick,2803,2803 #2803,44 Brick Plaza,NJ,8723
Barnes Noble,Tucson,2804,2804 #2804,7325 N. LaCholla Blvd. Ste 100,AZ,85741
Barnes Noble,Modesto,2805,2805 #2805,3501 McHenry Avenue Suite E,CA,95356
Barnes Noble,High Point,2806,2806 #2806,906 Mall Loop Road,NC,27262
Barnes Noble,Norman,2807,2807 #2807,540 Ed Noble Parkway,OK,73072
Barnes Noble,Muskegon,2808,2808 #2808,5275 Harvey Street,MI,49444
Barnes Noble,Cincinnati,2809,2809 #2809,9891 Waterstone Blvd,OH,45249
Barnes Noble,Lafayette,2810,2810 #2810,2323 Sagamore Parkway South,IN,47905
Barnes Noble,Sandy,2811,2811 #2811,10180 S. State Street,UT,84070
Barnes Noble,Charlotte,2812,2812 #2812,3327 Pineville-Matthews Road,NC,28226
Barnes Noble,Pembroke Pines,2814,2814 #2814,11820 Pines Blvd,FL,33026
Barnes Noble,Chico,2815,2815 #2815,2031 Dr Martin Luther King Pkwy,CA,95928
Barnes Noble,Jensen Beach,2816,2816 #2816,3001 NW Federal Highway,FL,34957
Barnes Noble,Bel Air,2817,2817 #2817,620 Marketplace Drive,MD,21014
Barnes Noble,Corpus Christi,2818,2818 #2818,5129 Blanche D Moore Drive,TX,78411
Barnes Noble,Cranberry Township,2819,2819 #2819,1000 Cranberry Sq Dr.,PA,16066
Barnes Noble,Eagan,2820,2820 #2820,1291 Promenade Place,MN,55121
Barnes Noble,Memphis,2822,2822 #2822,2774 N Germantown Parkway,TN,38133
Barnes Noble,Irvine,2823,2823 #2823,13712 Jamboree Road,CA,92602
Barnes Noble,Elmira,2825,2825 #2825,821 County Road 64,NY,14903
Barnes Noble,State College,2826,2826 #2826,365 Benner Pike,PA,16801
Barnes Noble,Bellingham,2829,2829 #2829,270 Hartford Avenue,MA,2019
Barnes Noble,Shelby Township,2830,2830 #2830,14165 Hall Road,MI,48315
Barnes Noble,Ellicott City,2831,2831 #2831,4300 Montgomery Road,MD,21043
Barnes Noble,Lakewood,2832,2832 #2832,5711 Main Street SW,WA,98499
Barnes Noble,West Melbourne,2834,2834 #2834,1955 W. New Haven,FL,32904
Barnes Noble,Omaha,2836,2836 #2836,7400 Dodge Street Suite #325,NE,68114
Barnes Noble,Baton Rouge,2837,2837 #2837,2590 CitiPlace Court,LA,70808
Barnes Noble,Knoxville,2838,2838 #2838,8029 Kingston Pike,TN,37919
Barnes Noble,Pueblo,2840,2840 #2840,4300 North Freeway,CO,81008
Barnes Noble,Saginaw,2841,2841 #2841,3311 Tittabawassee Road,MI,48604
Barnes Noble,Albuquerque,2842,2842 #2842,3701-A Ellison Drive NW,NM,87114
Barnes Noble,Merritt Island,2844,2844 #2844,780 E. Merritt Island Causeway,FL,32952
Barnes Noble,Tulsa,2845,2845 #2845,5231 East 41st Street,OK,74135
Barnes Noble,Atlanta,2846,2846 #2846,120 Perimeter Center West Ste 300,GA,30346
Barnes Noble,Houston,2847,2847 #2847,5303 FM 1960 West,TX,77069
Barnes Noble,Rochester,2848,2848 #2848,330 Greece Ridge Center Drive,NY,14626
Barnes Noble,Tallahassee,2849,2849 #2849,2415 N Monroe Street,FL,32303
Barnes Noble,Philadelphia,2850,2850 #2850,1805 Walnut Street,PA,19103
Barnes Noble,Bakersfield,2851,2851 #2851,4001 California Avenue,CA,93309
Barnes Noble,Grand Junction,2852,2852 #2852,2451 Patterson Road,CO,81505
Barnes Noble,Denver,2854,2854 #2854,500 16 Street,CO,80202
Barnes Noble,Shreveport,2856,2856 #2856,6646 Youree Drive,LA,71105
Barnes Noble,Bismarck,2857,2857 #2857,565 South 7th Street,ND,58504
Barnes Noble,Birmingham,2858,2858 #2858,201 Summit Boulevard Suite 100,AL,35243
Barnes Noble,Clearwater,2859,2859 #2859,23654 US 19 North,FL,33765
Barnes Noble,Columbus,2860,2860 #2860,1739 Olentangy River Road,OH,43212
Barnes Noble,Bloomingdale,2861,2861 #2861,200 South Gary Avenue,IL,60108
Barnes Noble,Glastonbury,2862,2862 #2862,175 Glastonbury Blvd.,CT,6033
Barnes Noble,Colorado Springs,2863,2863 #2863,1565 Briargate Blvd,CO,80920
Barnes Noble,Westport,2864,2864 #2864,1076 Post Road East,CT,6880
Barnes Noble,Morrow,2865,2865 #2865,1939 Mount Zion Road,GA,30260
Barnes Noble,Annapolis,2866,2866 #2866,2516 Solomon's Island Rd.,MD,21401
Barnes Noble,Alexandria,2867,2867 #2867,3651 Jefferson Davis Hwy,VA,22305
Barnes Noble,Columbia,2868,2868 #2868,3400 Forest Drive,SC,29204
Barnes Noble,Devon,2869,2869 #2869,150 West Swedesford Road,PA,19333
Barnes Noble,Roanoke,2870,2870 #2870,4478 Electric Road Southwest,VA,24018
Barnes Noble,Redding,2871,2871 #2871,1260 Churn Creek Rd.,CA,96003
Barnes Noble,Arlington Heights,2872,2872 #2872,13 West Rand Road,IL,60004
Barnes Noble,Beavercreek,2873,2873 #2873,2720 Towne Drive # 200,OH,45431
Barnes Noble,Boynton Beach,2874,2874 #2874,333 N. Congress Avenue,FL,33436
Barnes Noble,College Station,2875,2875 #2875,711 Texas Avenue,TX,77840
Barnes Noble,Brooklyn,2876,2876 #2876,267 7th Avenue,NY,11215
Barnes Noble,Lakewood,2877,2877 #2877,14347 West Colfax Avenue,CO,80401
Barnes Noble,S. Miami,2878,2878 #2878,5701 Sunset Drive Suite 196,FL,33143
Barnes Noble,Kennewick,2879,2879 #2879,1321 N. Columbia Center Blvd.,WA,99336
Barnes Noble,Greensburg,2880,2880 #2880,5155 Route 30,PA,15601
Barnes Noble,Baltimore,2881,2881 #2881,601 E. Pratt Street,MD,21202
Barnes Noble,Aliso Viejo,2882,2882 #2882,26751 Aliso Creek Road,CA,92656
Barnes Noble,Dallas,2884,2884 #2884,7700 West Northwest Hwy. Ste. 300,TX,75225
Barnes Noble,Citrus Heights,2885,2885 #2885,6111 Sunrise Blvd.,CA,95610
Barnes Noble,Poughkeepsie,2886,2886 #2886,2518 South Road,NY,12601
Barnes Noble,Bend,2887,2887 #2887,2690 NE Highway 20,OR,97701
Barnes Noble,Lynnwood,2888,2888 #2888,19401 Alderwood Mall Parkway,WA,98036
Barnes Noble,Yonkers,2889,2889 #2889,2614 Central Park Avenue,NY,10710
Barnes Noble,Baltimore,2890,2890 #2890,8123 Honeygo Blvd. Suite E,MD,21236
Barnes Noble,Deptford,2891,2891 #2891,1553 Almonesson Road,NJ,8096
Barnes Noble,Tucson,2892,2892 #2892,5130 E. Broadway,AZ,85711
Barnes Noble,Waterbury,2893,2893 #2893,235 Union Street,CT,6706
Barnes Noble,Great Falls,2895,2895 #2895,1601 Market Place Drive Suite 65,MT,59404
Barnes Noble,Mohegan Lake,2897,2897 #2897,3089 E Main Street,NY,10547
Barnes Noble,Pittsburgh,2898,2898 #2898,926 Freeport Road,PA,15238
Barnes Noble,Akron,2902,2902 #2902,4015 Medina Road,OH,44333
Barnes Noble,Leominster,2903,2903 #2903,120 Watertower Plaza,MA,1453
Barnes Noble,Naperville,2904,2904 #2904,47 East Chicago Ave. Suite #132,IL,60540
Barnes Noble,West Nyack,2905,2905 #2905,4416 Palisades Center Drive,NY,10994
Barnes Noble,Layton,2907,2907 #2907,1780 North Woodland Park Drive,UT,84041
Barnes Noble,Dewitt,2908,2908 #2908,3454 Erie Boulevard East,NY,13214
Barnes Noble,San Jose,2909,2909 #2909,5353 Almaden Expressway Bldg. B,CA,95118
Barnes Noble,Woodinville,2910,2910 #2910,18025 Garden Way N.E.,WA,98072
Barnes Noble,Long Beach,2911,2911 #2911,7651 Carson St,CA,90808
Barnes Noble,Hilton Head Island,2914,2914 #2914,20 Hatton Place Suite 200,SC,29926
Barnes Noble,Charleston,2915,2915 #2915,7620 Rivers Ave,SC,29406
Barnes Noble,Lancaster,2916,2916 #2916,1700 H Fruitville Pike,PA,17601
Barnes Noble,Coralville,2917,2917 #2917,1451 Coral Ridge Ave. Suite 1108,IA,52241
Barnes Noble,Charleston,2919,2919 #2919,1812 Rittenberg Blvd,SC,29407
Barnes Noble,Stockton,2920,2920 #2920,4950 Pacific Avenue Space 319,CA,95207
Barnes Noble,West Des Moines,2921,2921 #2921,4550 University Avenue,IA,50266
Barnes Noble,Chicago,2922,2922 #2922,1130 North State Street,IL,60610
Barnes Noble,Troy,2923,2923 #2923,396 John R. Road,MI,48083
Barnes Noble,East Brunswick,2924,2924 #2924,753 Rt 18 Brunswick Square Space 318,NJ,8816
Barnes Noble,Columbus,2925,2925 #2925,4005 Townsfair Way,OH,43219
Barnes Noble,Pensacola,2926,2926 #2926,1200 Airport Blvd.,FL,32504
Barnes Noble,San Antonio,2927,2927 #2927,18030 HWY 281N Suite #140,TX,78232
Barnes Noble,Austin,2928,2928 #2928,5601 Brodie Lane Suite 300,TX,78745
Barnes Noble,Springfield,2931,2931 #2931,3055 South Glenstone,MO,65804
Barnes Noble,Clifton,2932,2932 #2932,395 Route 3 East,NJ,7014
Barnes Noble,Carmel,2933,2933 #2933,14790 Greyhound Plaza,IN,46032
Barnes Noble,Fayetteville,2934,2934 #2934,121 Glensford Rd,NC,28314
Barnes Noble,Walpole,2935,2935 #2935,82 Providence Highway,MA,2032
Barnes Noble,San Mateo,2936,2936 #2936,11 West Hillsdale Blvd.,CA,94403
Barnes Noble,Fairfax,2937,2937 #2937,12193 Fair Lakes Promenade Drive,VA,22033
Barnes Noble,Reno,2938,2938 #2938,5555 S. Virginia St.,NV,89502
Barnes Noble,Lincoln,2939,2939 #2939,2910 Pine Lake Road,NE,68516
Barnes Noble,Towson,2940,2940 #2940,1 East Joppa Road Suite 100,MD,21286
Barnes Noble,Salt Lake City,2941,2941 #2941,1104 East 2100 South,UT,84106
Barnes Noble,Dublin,2942,2942 #2942,4972 Dublin Boulevard,CA,94568
Barnes Noble,Austin,2943,2943 #2943,14010 US Hwy. 183,TX,78717
Barnes Noble,Wauwatosa,2944,2944 #2944,2500 N. Mayfair Rd Suite 196,WI,53226
Barnes Noble,Oviedo,2945,2945 #2945,1260 Oviedo Mall Blvd,FL,32765
Barnes Noble,Clark,2946,2946 #2946,1180 Raritan Road,NJ,7066
Barnes Noble,Hickory,2947,2947 #2947,2405 Hwy 70 S.E.,NC,28602
Barnes Noble,Manassas,2948,2948 #2948,8117 Sudley Road,VA,20109
Barnes Noble,Wilmington,2949,2949 #2949,4801Concord Pike,DE,19803
Barnes Noble,Spokane,2951,2951 #2951,15310 E. Indiana Ave.,WA,99216
Barnes Noble,Lexington,2953,2953 #2953,1932 Pavilion Way,KY,40509
Barnes Noble,Orange,2954,2954 #2954,791 South Main Street Suite 100,CA,92868
Barnes Noble,Calabasas,2956,2956 #2956,4735 Commons Way,CA,91302
Barnes Noble,Seattle,2957,2957 #2957,600 Pine St Suite 107,WA,98101
Barnes Noble,Amherst,2958,2958 #2958,1565 Niagara Falls Blvd Suite 300,NY,14228
Barnes Noble,Crystal Lake,2959,2959 #2959,5380 Route 14,IL,60014
Barnes Noble,Gulfport,2961,2961 #2961,15246 Crossroads Parkway,MS,39503
Barnes Noble,Flagstaff,2962,2962 #2962,701 S. Milton Rd,AZ,86001
Barnes Noble,Bay Shore,2963,2963 #2963,842 Sunrise Highway,NY,11706
Barnes Noble,Orland Park,2964,2964 #2964,160 Orland Park Place,IL,60462
Barnes Noble,Brooklyn,2965,2965 #2965,106 Court Street,NY,11201
Barnes Noble,Burlington,2966,2966 #2966,98 Middlesex Pkwy,MA,1803
Barnes Noble,St. Cloud,2967,2967 #2967,3940 Division Street,MN,56301
Barnes Noble,Sioux Falls,2968,2968 #2968,3700 West 41st Street,SD,57106
Barnes Noble,Bloomington,2969,2969 #2969,118 E. Broadway Suite 238,MN,55425
Barnes Noble,Davenport,2970,2970 #2970,320 W. Kimberly Road,IA,52806
Barnes Noble,Gaithersburg,2971,2971 #2971,21 Grand Corner Ave.,MD,20878
Barnes Noble,Buford,2972,2972 #2972,3333 Buford Drive Space VA01,GA,30519
Barnes Noble,Mt. Pleasant,2973,2973 #2973,1716 Towne Centre Way,SC,29464
Barnes Noble,Athens,2974,2974 #2974,3650 Atlanta Highway,GA,30606
Barnes Noble,North Wales,2976,2976 #2976,1271 Knapp Road,PA,19454
Barnes Noble,Grand Chute,2977,2977 #2977,4705 West Grande Market Drive,WI,54915
Barnes Noble,Eugene,2978,2978 #2978,1163 Valley River Center,OR,97401
Barnes Noble,Bronx,2979,2979 #2979,290 Baychester Ave.,NY,10475
Barnes Noble,Morris Plains,2980,2980 #2980,1940 Route 10 West,NJ,7950
Barnes Noble,Vestal,2981,2981 #2981,2443 Vestal Parkway East,NY,13850
Barnes Noble,Springfield,2982,2982 #2982,6646 Loisdale Road,VA,22150
Barnes Noble,Mandeville,2983,2983 #2983,3414 Highway 190 Suite 10,LA,70471
Barnes Noble,San Diego,2984,2984 #2984,10775 Westview Parkway,CA,92126
Barnes Noble,North Brunswick,2985,2985 #2985,869 Route 1 South,NJ,8902
Barnes Noble,Manhattan Beach,2986,2986 #2986,1800 Rosecrans Avenue Building B,CA,90266
Barnes Noble,Newington,2988,2988 #2988,45 Gosling Road The Crossings at Fo,NH,3801
Barnes Noble,Temecula,2991,2991 #2991,40570 Winchester Rd.,CA,92591
Barnes Noble,Plymouth Meeting,2992,2992 #2992,2300 Chemical Road,PA,19462
Barnes Noble,Peabody,2993,2993 #2993,210 Andover Street,MA,1960
Barnes Noble,Palmdale,2994,2994 #2994,39228 10th Street West,CA,93551
Barnes Noble,Richmond,2995,2995 #2995,5501 West Broad Street,VA,23230
Barnes Noble,Wilkes-Barre,2996,2996 #2996,421 Arena Hub Plaza,PA,18702
Barnes Noble,Spokane,2997,2997 #2997,4750 North Division Street,WA,99207
Barnes Noble,Orlando,2998,2998 #2998,481 N. Alafaya Trail,FL,32828
