Keywords,city,Agg store_number,store_number,address,state,zip_code
Bed Bath & Beyond,Springfield,1,#1 #01 BEDBATH&BEYOND#001 BEDBATH&BEYOND#01 BEDBATH&BEYOND#1 BEDBATH&BEYOND01,715 Morris Turnpike,NJ,7081
Bed Bath & Beyond,Lawrence,2,#2 #02 BEDBATH&BEYOND#002 BEDBATH&BEYOND#02 BEDBATH&BEYOND#2 BEDBATH&BEYOND02,"365 Rockaway Turnpike, Unit 40",NY,11559
Bed Bath & Beyond,Huntington Station,3,#3 #03 BEDBATH&BEYOND#003 BEDBATH&BEYOND#03 BEDBATH&BEYOND#3 BEDBATH&BEYOND03,340 Walt Whitman Road,NY,11746
Bed Bath & Beyond,Danbury,5,#5 #05 BEDBATH&BEYOND#005 BEDBATH&BEYOND#05 BEDBATH&BEYOND#5 BEDBATH&BEYOND05,13 Sugar Hollow Road,CT,6810
Bed Bath & Beyond,Huntington Beach,23,#23 #023 BEDBATH&BEYOND#0023 BEDBATH&BEYOND#023 BEDBATH&BEYOND#23 BEDBATH&BEYOND023,7777 Edinger Avenue,CA,92648
Bed Bath & Beyond,Lawrenceville,7,#7 #07 BEDBATH&BEYOND#007 BEDBATH&BEYOND#07 BEDBATH&BEYOND#7 BEDBATH&BEYOND07,3371 U.S. Highway 1,NJ,8648
Bed Bath & Beyond,Canoga Park,8,#8 #08 BEDBATH&BEYOND#008 BEDBATH&BEYOND#08 BEDBATH&BEYOND#8 BEDBATH&BEYOND08,6530 Canoga Avenue,CA,91303
Bed Bath & Beyond,Paramus,9,#9 #09 BEDBATH&BEYOND#009 BEDBATH&BEYOND#09 BEDBATH&BEYOND#9 BEDBATH&BEYOND09,Route 17 North and Ridgewood Avenue,NJ,7652
Bed Bath & Beyond,Norwalk,12,#12 #012 BEDBATH&BEYOND#0012 BEDBATH&BEYOND#012 BEDBATH&BEYOND#12 BEDBATH&BEYOND012,542 Westport Avenue,CT,6851
Bed Bath & Beyond,West Nyack,16,#16 #016 BEDBATH&BEYOND#0016 BEDBATH&BEYOND#016 BEDBATH&BEYOND#16 BEDBATH&BEYOND016,1406 Palisades Center Drive,NY,10994
Bed Bath & Beyond,Los Angeles,20,#20 #020 BEDBATH&BEYOND#0020 BEDBATH&BEYOND#020 BEDBATH&BEYOND#20 BEDBATH&BEYOND020,11854 West Olympic Boulevard,CA,90064
Bed Bath & Beyond,Falls Church,29,#29 #029 BEDBATH&BEYOND#0029 BEDBATH&BEYOND#029 BEDBATH&BEYOND#29 BEDBATH&BEYOND029,5810 Crossroads Center Way,VA,22041
Bed Bath & Beyond,Santa Rosa,24,#24 #024 BEDBATH&BEYOND#0024 BEDBATH&BEYOND#024 BEDBATH&BEYOND#24 BEDBATH&BEYOND024,2785 Santa Rosa Avenue,CA,95407
Bed Bath & Beyond,Studio City,25,#25 #025 BEDBATH&BEYOND#0025 BEDBATH&BEYOND#025 BEDBATH&BEYOND#25 BEDBATH&BEYOND025,12555 Ventura Boulevard,CA,91604
Bed Bath & Beyond,Oakland,26,#26 #026 BEDBATH&BEYOND#0026 BEDBATH&BEYOND#026 BEDBATH&BEYOND#26 BEDBATH&BEYOND026,590 2nd Street,CA,94607
Bed Bath & Beyond,Philadelphia,30,#30 #030 BEDBATH&BEYOND#0030 BEDBATH&BEYOND#030 BEDBATH&BEYOND#30 BEDBATH&BEYOND030,1417 Franklin Mills Circle,PA,19154
Bed Bath & Beyond,Plano,61,#61 #061 BEDBATH&BEYOND#0061 BEDBATH&BEYOND#061 BEDBATH&BEYOND#61 BEDBATH&BEYOND061,801 West 15th Street,TX,75075
Bed Bath & Beyond,Fairfax,65,#65 #065 BEDBATH&BEYOND#0065 BEDBATH&BEYOND#065 BEDBATH&BEYOND#65 BEDBATH&BEYOND065,12100 Fairfax Towne Center,VA,22033
Bed Bath & Beyond,Stamford,6,#6 #06 BEDBATH&BEYOND#006 BEDBATH&BEYOND#06 BEDBATH&BEYOND#6 BEDBATH&BEYOND06,2275 Summer Street,CT,6905
Bed Bath & Beyond,Deerfield,32,#32 #032 BEDBATH&BEYOND#0032 BEDBATH&BEYOND#032 BEDBATH&BEYOND#32 BEDBATH&BEYOND032,96 S. Waukegan Road,IL,60015
Bed Bath & Beyond,Cherry Hill,27,#27 #027 BEDBATH&BEYOND#0027 BEDBATH&BEYOND#027 BEDBATH&BEYOND#27 BEDBATH&BEYOND027,2130 Marlton Pike West,NJ,8002
Bed Bath & Beyond,San Diego,31,#31 #031 BEDBATH&BEYOND#0031 BEDBATH&BEYOND#031 BEDBATH&BEYOND#31 BEDBATH&BEYOND031,1750 Camino Del Rio North,CA,92108
Bed Bath & Beyond,Rockville,33,#33 #033 BEDBATH&BEYOND#0033 BEDBATH&BEYOND#033 BEDBATH&BEYOND#33 BEDBATH&BEYOND033,1519 Rockville Pike,MD,20852
Bed Bath & Beyond,Gurnee,36,#36 #036 BEDBATH&BEYOND#0036 BEDBATH&BEYOND#036 BEDBATH&BEYOND#36 BEDBATH&BEYOND036,6132 Grand Avenue,IL,60031
Bed Bath & Beyond,Lake Grove,37,#37 #037 BEDBATH&BEYOND#0037 BEDBATH&BEYOND#037 BEDBATH&BEYOND#37 BEDBATH&BEYOND037,2045 Smith Haven Plaza,NY,11755
Bed Bath & Beyond,San Francisco,38,#38 #038 BEDBATH&BEYOND#0038 BEDBATH&BEYOND#038 BEDBATH&BEYOND#38 BEDBATH&BEYOND038,555 9th Street,CA,94103
Bed Bath & Beyond,Schaumburg,39,#39 #039 BEDBATH&BEYOND#0039 BEDBATH&BEYOND#039 BEDBATH&BEYOND#39 BEDBATH&BEYOND039,915 East Golf Road,IL,60173
Bed Bath & Beyond,Albany,40,#40 #040 BEDBATH&BEYOND#0040 BEDBATH&BEYOND#040 BEDBATH&BEYOND#40 BEDBATH&BEYOND040,32 Wolf Road,NY,12205
Bed Bath & Beyond,Casselberry,41,#41 #041 BEDBATH&BEYOND#0041 BEDBATH&BEYOND#041 BEDBATH&BEYOND#41 BEDBATH&BEYOND041,5803 South U.S. 17/92,FL,32707
Bed Bath & Beyond,New York,42,#42 #042 BEDBATH&BEYOND#0042 BEDBATH&BEYOND#042 BEDBATH&BEYOND#42 BEDBATH&BEYOND042,620 Sixth Ave between 18th and 19th Street,NY,10011
Bed Bath & Beyond,Farmington Hills,43,#43 #043 BEDBATH&BEYOND#0043 BEDBATH&BEYOND#043 BEDBATH&BEYOND#43 BEDBATH&BEYOND043,31075 Orchard Lake Road,MI,48334
Bed Bath & Beyond,Troy,44,#44 #044 BEDBATH&BEYOND#0044 BEDBATH&BEYOND#044 BEDBATH&BEYOND#44 BEDBATH&BEYOND044,650 John R. Road,MI,48083
Bed Bath & Beyond,Miami,46,#46 #046 BEDBATH&BEYOND#0046 BEDBATH&BEYOND#046 BEDBATH&BEYOND#46 BEDBATH&BEYOND046,8380 South Dixie Highway,FL,33143
Bed Bath & Beyond,Tucson,47,#47 #047 BEDBATH&BEYOND#0047 BEDBATH&BEYOND#047 BEDBATH&BEYOND#47 BEDBATH&BEYOND047,4811 East Grant Road,AZ,85712
Bed Bath & Beyond,Warrensville Heights,48,#48 #048 BEDBATH&BEYOND#0048 BEDBATH&BEYOND#048 BEDBATH&BEYOND#48 BEDBATH&BEYOND048,4031 Richmond Road,OH,44122
Bed Bath & Beyond,Sterling Heights,49,#49 #049 BEDBATH&BEYOND#0049 BEDBATH&BEYOND#049 BEDBATH&BEYOND#49 BEDBATH&BEYOND049,12020 Hall Road,MI,48313
Bed Bath & Beyond,Los Angeles,50,#50 #050 BEDBATH&BEYOND#0050 BEDBATH&BEYOND#050 BEDBATH&BEYOND#50 BEDBATH&BEYOND050,142 South San Vicente Boulevard,CA,90048
Bed Bath & Beyond,Webster,51,#51 #051 BEDBATH&BEYOND#0051 BEDBATH&BEYOND#051 BEDBATH&BEYOND#51 BEDBATH&BEYOND051,19801 Gulf Freeway,TX,77598
Bed Bath & Beyond,Columbia,52,#52 #052 BEDBATH&BEYOND#0052 BEDBATH&BEYOND#052 BEDBATH&BEYOND#52 BEDBATH&BEYOND052,9021 Snowden River Parkway,MD,21046
Bed Bath & Beyond,Downers Grove,53,#53 #053 BEDBATH&BEYOND#0053 BEDBATH&BEYOND#053 BEDBATH&BEYOND#53 BEDBATH&BEYOND053,1548 Butterfield Road,IL,60515
Bed Bath & Beyond,Westlake,54,#54 #054 BEDBATH&BEYOND#0054 BEDBATH&BEYOND#054 BEDBATH&BEYOND#54 BEDBATH&BEYOND054,30083 Detroit Road,OH,44145
Bed Bath & Beyond,West Palm Beach,55,#55 #055 BEDBATH&BEYOND#0055 BEDBATH&BEYOND#055 BEDBATH&BEYOND#55 BEDBATH&BEYOND055,2025 Okeechobee Boulevard,FL,33409
Bed Bath & Beyond,Fairfax,56,#56 #056 BEDBATH&BEYOND#0056 BEDBATH&BEYOND#056 BEDBATH&BEYOND#56 BEDBATH&BEYOND056,9666 Main Street,VA,22031
Bed Bath & Beyond,Atlanta,57,#57 #057 BEDBATH&BEYOND#0057 BEDBATH&BEYOND#057 BEDBATH&BEYOND#57 BEDBATH&BEYOND057,130 Perimeter Center West,GA,30346
Bed Bath & Beyond,King of Prussia,58,#58 #058 BEDBATH&BEYOND#0058 BEDBATH&BEYOND#058 BEDBATH&BEYOND#58 BEDBATH&BEYOND058,"224 West DeKalb Pike, Unit 15",PA,19406
Bed Bath & Beyond,Hialeah,59,#59 #059 BEDBATH&BEYOND#0059 BEDBATH&BEYOND#059 BEDBATH&BEYOND#59 BEDBATH&BEYOND059,1700 West 49th Street,FL,33012
Bed Bath & Beyond,Fairlawn,60,#60 #060 BEDBATH&BEYOND#0060 BEDBATH&BEYOND#060 BEDBATH&BEYOND#60 BEDBATH&BEYOND060,"3750 West Market Street, Unit K",OH,44333
Bed Bath & Beyond,Sunrise,34,#34 #034 BEDBATH&BEYOND#0034 BEDBATH&BEYOND#034 BEDBATH&BEYOND#34 BEDBATH&BEYOND034,"12801 West Sunrise Boulevard, Anchor C",FL,33323
Bed Bath & Beyond,Houston,62,#62 #062 BEDBATH&BEYOND#0062 BEDBATH&BEYOND#062 BEDBATH&BEYOND#62 BEDBATH&BEYOND062,700 Meyerland Plaza,TX,77096
Bed Bath & Beyond,Chicago,63,#63 #063 BEDBATH&BEYOND#0063 BEDBATH&BEYOND#063 BEDBATH&BEYOND#63 BEDBATH&BEYOND063,1800 North Clybourn Avenue,IL,60614
Bed Bath & Beyond,Wilmette,64,#64 #064 BEDBATH&BEYOND#0064 BEDBATH&BEYOND#064 BEDBATH&BEYOND#64 BEDBATH&BEYOND064,3232 Lake Avenue,IL,60091
Bed Bath & Beyond,Annapolis,35,#35 #035 BEDBATH&BEYOND#0035 BEDBATH&BEYOND#035 BEDBATH&BEYOND#35 BEDBATH&BEYOND035,"200 Harker Place, Suite 200",MD,21401
Bed Bath & Beyond,Kennesaw,66,#66 #066 BEDBATH&BEYOND#0066 BEDBATH&BEYOND#066 BEDBATH&BEYOND#66 BEDBATH&BEYOND066,840 Ernest W Barrett Parkway Northwest,GA,30144
Bed Bath & Beyond,Dallas,67,#67 #067 BEDBATH&BEYOND#0067 BEDBATH&BEYOND#067 BEDBATH&BEYOND#67 BEDBATH&BEYOND067,13900 Dallas Parkway,TX,75240
Bed Bath & Beyond,Denver,68,#68 #068 BEDBATH&BEYOND#0068 BEDBATH&BEYOND#068 BEDBATH&BEYOND#68 BEDBATH&BEYOND068,2500 East First Avenue,CO,80206
Bed Bath & Beyond,Brandon,69,#69 #069 BEDBATH&BEYOND#0069 BEDBATH&BEYOND#069 BEDBATH&BEYOND#69 BEDBATH&BEYOND069,320 Brandon Town Center Drive,FL,33511
Bed Bath & Beyond,Duluth,80,#80 #080 BEDBATH&BEYOND#0080 BEDBATH&BEYOND#080 BEDBATH&BEYOND#80 BEDBATH&BEYOND080,3675 Satellite Boulevard,GA,30096
Bed Bath & Beyond,Dallas,82,#82 #082 BEDBATH&BEYOND#0082 BEDBATH&BEYOND#082 BEDBATH&BEYOND#82 BEDBATH&BEYOND082,8005 Park Lane,TX,75231
Bed Bath & Beyond,Palm Desert,83,#83 #083 BEDBATH&BEYOND#0083 BEDBATH&BEYOND#083 BEDBATH&BEYOND#83 BEDBATH&BEYOND083,72459 Highway 111,CA,92260
Bed Bath & Beyond,Austin,84,#84 #084 BEDBATH&BEYOND#0084 BEDBATH&BEYOND#084 BEDBATH&BEYOND#84 BEDBATH&BEYOND084,"9333 Research Boulevard, Suite A4",TX,78759
Bed Bath & Beyond,Tulsa,86,#86 #086 BEDBATH&BEYOND#0086 BEDBATH&BEYOND#086 BEDBATH&BEYOND#86 BEDBATH&BEYOND086,10011 East 71st Street,OK,74133
Bed Bath & Beyond,Overland Park,87,#87 #087 BEDBATH&BEYOND#0087 BEDBATH&BEYOND#087 BEDBATH&BEYOND#87 BEDBATH&BEYOND087,12035 Metcalf Avenue,KS,66213
Bed Bath & Beyond,Houston,88,#88 #088 BEDBATH&BEYOND#0088 BEDBATH&BEYOND#088 BEDBATH&BEYOND#88 BEDBATH&BEYOND088,10515 Katy Freeway,TX,77024
Bed Bath & Beyond,Gaithersburg,89,#89 #089 BEDBATH&BEYOND#0089 BEDBATH&BEYOND#089 BEDBATH&BEYOND#89 BEDBATH&BEYOND089,558 North Frederick Avenue,MD,20877
Bed Bath & Beyond,Orlando,90,#90 #090 BEDBATH&BEYOND#0090 BEDBATH&BEYOND#090 BEDBATH&BEYOND#90 BEDBATH&BEYOND090,"5295 International Drive, Suite 100",FL,32819
Bed Bath & Beyond,Indianapolis,91,#91 #091 BEDBATH&BEYOND#0091 BEDBATH&BEYOND#091 BEDBATH&BEYOND#91 BEDBATH&BEYOND091,8655 North River Crossing Boulevard,IN,46240
Bed Bath & Beyond,Boca Raton,92,#92 #092 BEDBATH&BEYOND#0092 BEDBATH&BEYOND#092 BEDBATH&BEYOND#92 BEDBATH&BEYOND092,20560 State Road 7,FL,33498
Bed Bath & Beyond,Vienna,94,#94 #094 BEDBATH&BEYOND#0094 BEDBATH&BEYOND#094 BEDBATH&BEYOND#94 BEDBATH&BEYOND094,2051 Chain Bridge Road,VA,22182
Bed Bath & Beyond,Northridge,95,#95 #095 BEDBATH&BEYOND#0095 BEDBATH&BEYOND#095 BEDBATH&BEYOND#95 BEDBATH&BEYOND095,8959 Tampa Avenue,CA,91324
Bed Bath & Beyond,Merrillville,96,#96 #096 BEDBATH&BEYOND#0096 BEDBATH&BEYOND#096 BEDBATH&BEYOND#96 BEDBATH&BEYOND096,2520 East 79th Avenue,IN,46410
Bed Bath & Beyond,Austin,97,#97 #097 BEDBATH&BEYOND#0097 BEDBATH&BEYOND#097 BEDBATH&BEYOND#97 BEDBATH&BEYOND097,5400 Brodie Lane,TX,78745
Bed Bath & Beyond,Hoover,98,#98 #098 BEDBATH&BEYOND#0098 BEDBATH&BEYOND#098 BEDBATH&BEYOND#98 BEDBATH&BEYOND098,1771 Montgomery Highway,AL,35216
Bed Bath & Beyond,Tampa,99,#99 #099 BEDBATH&BEYOND#0099 BEDBATH&BEYOND#099 BEDBATH&BEYOND#99 BEDBATH&BEYOND099,13123 North Dale Mabry Highway,FL,33618
Bed Bath & Beyond,Miami,100,#100 #0100 BEDBATH&BEYOND#00100 BEDBATH&BEYOND#0100 BEDBATH&BEYOND#100 BEDBATH&BEYOND0100,12010 North Kendall Drive,FL,33186
Bed Bath & Beyond,Ontario,101,#101 #0101 BEDBATH&BEYOND#00101 BEDBATH&BEYOND#0101 BEDBATH&BEYOND#101 BEDBATH&BEYOND0101,4646 Mills Circle,CA,91764
Bed Bath & Beyond,Burlington,102,#102 #0102 BEDBATH&BEYOND#00102 BEDBATH&BEYOND#0102 BEDBATH&BEYOND#102 BEDBATH&BEYOND0102,3 Abbott Park,MA,1803
Bed Bath & Beyond,Alpharetta,103,#103 #0103 BEDBATH&BEYOND#00103 BEDBATH&BEYOND#0103 BEDBATH&BEYOND#103 BEDBATH&BEYOND0103,6050 North Point Parkway,GA,30022
Bed Bath & Beyond,Houston,104,#104 #0104 BEDBATH&BEYOND#00104 BEDBATH&BEYOND#0104 BEDBATH&BEYOND#104 BEDBATH&BEYOND0104,2306 Highway 6 South,TX,77077
Bed Bath & Beyond,Manhasset,105,#105 #0105 BEDBATH&BEYOND#00105 BEDBATH&BEYOND#0105 BEDBATH&BEYOND#105 BEDBATH&BEYOND0105,2103 Northern Boulevard,NY,11030
Bed Bath & Beyond,Chesapeake,106,#106 #0106 BEDBATH&BEYOND#00106 BEDBATH&BEYOND#0106 BEDBATH&BEYOND#106 BEDBATH&BEYOND0106,1324 Greenbrier Parkway,VA,23320
Bed Bath & Beyond,Independence,107,#107 #0107 BEDBATH&BEYOND#00107 BEDBATH&BEYOND#0107 BEDBATH&BEYOND#107 BEDBATH&BEYOND0107,19950 East Jackson Drive,MO,64057
Bed Bath & Beyond,Rockford,108,#108 #0108 BEDBATH&BEYOND#00108 BEDBATH&BEYOND#0108 BEDBATH&BEYOND#108 BEDBATH&BEYOND0108,6309 East State Street,IL,61108
Bed Bath & Beyond,Framingham,109,#109 #0109 BEDBATH&BEYOND#00109 BEDBATH&BEYOND#0109 BEDBATH&BEYOND#109 BEDBATH&BEYOND0109,84 Worcester Road,MA,1702
Bed Bath & Beyond,Charlottesville,110,#110 #0110 BEDBATH&BEYOND#00110 BEDBATH&BEYOND#0110 BEDBATH&BEYOND#110 BEDBATH&BEYOND0110,975A North Emmet Street,VA,22903
Bed Bath & Beyond,Rochester,112,#112 #0112 BEDBATH&BEYOND#00112 BEDBATH&BEYOND#0112 BEDBATH&BEYOND#112 BEDBATH&BEYOND0112,3349 Monroe Avenue,NY,14618
Bed Bath & Beyond,Northville,113,#113 #0113 BEDBATH&BEYOND#00113 BEDBATH&BEYOND#0113 BEDBATH&BEYOND#113 BEDBATH&BEYOND0113,17223 Haggerty Road,MI,48167
Bed Bath & Beyond,Virginia Beach,114,#114 #0114 BEDBATH&BEYOND#00114 BEDBATH&BEYOND#0114 BEDBATH&BEYOND#114 BEDBATH&BEYOND0114,220 Constitution Drive,VA,23462
Bed Bath & Beyond,Edgewater,115,#115 #0115 BEDBATH&BEYOND#00115 BEDBATH&BEYOND#0115 BEDBATH&BEYOND#115 BEDBATH&BEYOND0115,489 River Road,NJ,7020
Bed Bath & Beyond,Humble,116,#116 #0116 BEDBATH&BEYOND#00116 BEDBATH&BEYOND#0116 BEDBATH&BEYOND#116 BEDBATH&BEYOND0116,20514 Highway 59 North,TX,77338
Bed Bath & Beyond,Lone Tree,117,#117 #0117 BEDBATH&BEYOND#00117 BEDBATH&BEYOND#0117 BEDBATH&BEYOND#117 BEDBATH&BEYOND0117,8467 South Yosemite,CO,80124
Bed Bath & Beyond,Atlanta,118,#118 #0118 BEDBATH&BEYOND#00118 BEDBATH&BEYOND#0118 BEDBATH&BEYOND#118 BEDBATH&BEYOND0118,1 Buckhead Loop,GA,30326
Bed Bath & Beyond,North Canton,119,#119 #0119 BEDBATH&BEYOND#00119 BEDBATH&BEYOND#0119 BEDBATH&BEYOND#119 BEDBATH&BEYOND0119,6725 Strip Avenue Northwest,OH,44720
Bed Bath & Beyond,Memphis,121,#121 #0121 BEDBATH&BEYOND#00121 BEDBATH&BEYOND#0121 BEDBATH&BEYOND#121 BEDBATH&BEYOND0121,2810 North Germantown Parkway,TN,38133
Bed Bath & Beyond,Irvine,122,#122 #0122 BEDBATH&BEYOND#00122 BEDBATH&BEYOND#0122 BEDBATH&BEYOND#122 BEDBATH&BEYOND0122,13692 Jamboree Road,CA,92602
Bed Bath & Beyond,Charlotte,123,#123 #0123 BEDBATH&BEYOND#00123 BEDBATH&BEYOND#0123 BEDBATH&BEYOND#123 BEDBATH&BEYOND0123,3413 Pineville-Matthews Road,NC,28226
Bed Bath & Beyond,Bethel Park,125,#125 #0125 BEDBATH&BEYOND#00125 BEDBATH&BEYOND#0125 BEDBATH&BEYOND#125 BEDBATH&BEYOND0125,1700 Oxford Drive,PA,15102
Bed Bath & Beyond,Stafford,126,#126 #0126 BEDBATH&BEYOND#00126 BEDBATH&BEYOND#0126 BEDBATH&BEYOND#126 BEDBATH&BEYOND0126,12520 Fountain Lake Circle,TX,77477
Bed Bath & Beyond,Santa Clara,127,#127 #0127 BEDBATH&BEYOND#00127 BEDBATH&BEYOND#0127 BEDBATH&BEYOND#127 BEDBATH&BEYOND0127,5201 Stevens Creek Boulevard,CA,95051
Bed Bath & Beyond,Naples,128,#128 #0128 BEDBATH&BEYOND#00128 BEDBATH&BEYOND#0128 BEDBATH&BEYOND#128 BEDBATH&BEYOND0128,5351 North Airport Pulling Road,FL,34109
Bed Bath & Beyond,Arlington,129,#129 #0129 BEDBATH&BEYOND#00129 BEDBATH&BEYOND#0129 BEDBATH&BEYOND#129 BEDBATH&BEYOND0129,4000 Retail Connection Way,TX,76018
Bed Bath & Beyond,Holyoke,130,#130 #0130 BEDBATH&BEYOND#00130 BEDBATH&BEYOND#0130 BEDBATH&BEYOND#130 BEDBATH&BEYOND0130,39 Holyoke Street,MA,1040
Bed Bath & Beyond,Vestal,131,#131 #0131 BEDBATH&BEYOND#00131 BEDBATH&BEYOND#0131 BEDBATH&BEYOND#131 BEDBATH&BEYOND0131,3120 Vestal Parkway East,NY,13850
Bed Bath & Beyond,Madison,132,#132 #0132 BEDBATH&BEYOND#00132 BEDBATH&BEYOND#0132 BEDBATH&BEYOND#132 BEDBATH&BEYOND0132,215 Junction Road,WI,53717
Bed Bath & Beyond,Naperville,133,#133 #0133 BEDBATH&BEYOND#00133 BEDBATH&BEYOND#0133 BEDBATH&BEYOND#133 BEDBATH&BEYOND0133,704 South Route 59,IL,60540
Bed Bath & Beyond,San Antonio,134,#134 #0134 BEDBATH&BEYOND#00134 BEDBATH&BEYOND#0134 BEDBATH&BEYOND#134 BEDBATH&BEYOND0134,11745 West IH 10,TX,78230
Bed Bath & Beyond,Mount Prospect,1087,#1087 #01087 BEDBATH&BEYOND#001087 BEDBATH&BEYOND#01087 BEDBATH&BEYOND#1087 BEDBATH&BEYOND01087,1057 North Elmhurst Road,IL,60056
Bed Bath & Beyond,Tigard,136,#136 #0136 BEDBATH&BEYOND#00136 BEDBATH&BEYOND#0136 BEDBATH&BEYOND#136 BEDBATH&BEYOND0136,16800 Southwest 72nd Avenue,OR,97224
Bed Bath & Beyond,Golden,137,#137 #0137 BEDBATH&BEYOND#00137 BEDBATH&BEYOND#0137 BEDBATH&BEYOND#137 BEDBATH&BEYOND0137,14383 West Colfax Avenue,CO,80401
Bed Bath & Beyond,Thousand Oaks,138,#138 #0138 BEDBATH&BEYOND#00138 BEDBATH&BEYOND#0138 BEDBATH&BEYOND#138 BEDBATH&BEYOND0138,121 South Westlake Boulevard,CA,91362
Bed Bath & Beyond,Oceanside,139,#139 #0139 BEDBATH&BEYOND#00139 BEDBATH&BEYOND#0139 BEDBATH&BEYOND#139 BEDBATH&BEYOND0139,2120 Vista Way,CA,92054
Bed Bath & Beyond,Cheektowaga,140,#140 #0140 BEDBATH&BEYOND#00140 BEDBATH&BEYOND#0140 BEDBATH&BEYOND#140 BEDBATH&BEYOND0140,3781 Union Road,NY,14225
Bed Bath & Beyond,San Antonio,141,#141 #0141 BEDBATH&BEYOND#00141 BEDBATH&BEYOND#0141 BEDBATH&BEYOND#141 BEDBATH&BEYOND0141,255 East Basse Road,TX,78209
Bed Bath & Beyond,Pembroke Pines,146,#146 #0146 BEDBATH&BEYOND#00146 BEDBATH&BEYOND#0146 BEDBATH&BEYOND#146 BEDBATH&BEYOND0146,11470 Pines Boulevard,FL,33026
Bed Bath & Beyond,Manchester,147,#147 #0147 BEDBATH&BEYOND#00147 BEDBATH&BEYOND#0147 BEDBATH&BEYOND#147 BEDBATH&BEYOND0147,141 Highlands Boulevard Drive,MO,63011
Bed Bath & Beyond,Birmingham,148,#148 #0148 BEDBATH&BEYOND#00148 BEDBATH&BEYOND#0148 BEDBATH&BEYOND#148 BEDBATH&BEYOND0148,313 Summit Boulevard,AL,35243
Bed Bath & Beyond,Braintree,149,#149 #0149 BEDBATH&BEYOND#00149 BEDBATH&BEYOND#0149 BEDBATH&BEYOND#149 BEDBATH&BEYOND0149,400 Grossman Drive,MA,2184
Bed Bath & Beyond,Boynton Beach,150,#150 #0150 BEDBATH&BEYOND#00150 BEDBATH&BEYOND#0150 BEDBATH&BEYOND#150 BEDBATH&BEYOND0150,371 North Congress Avenue,FL,33426
Bed Bath & Beyond,Kansas City,151,#151 #0151 BEDBATH&BEYOND#00151 BEDBATH&BEYOND#0151 BEDBATH&BEYOND#151 BEDBATH&BEYOND0151,8201 Northwest Roanridge Road,MO,64151
Bed Bath & Beyond,Grapevine,152,#152 #0152 BEDBATH&BEYOND#00152 BEDBATH&BEYOND#0152 BEDBATH&BEYOND#152 BEDBATH&BEYOND0152,3000 Grapevine Mills Parkway,TX,76051
Bed Bath & Beyond,Pittsburgh,153,#153 #0153 BEDBATH&BEYOND#00153 BEDBATH&BEYOND#0153 BEDBATH&BEYOND#153 BEDBATH&BEYOND0153,7507 McKnight Road,PA,15237
Bed Bath & Beyond,Jacksonville,154,#154 #0154 BEDBATH&BEYOND#00154 BEDBATH&BEYOND#0154 BEDBATH&BEYOND#154 BEDBATH&BEYOND0154,8801-1 Southside Boulevard,FL,32256
Bed Bath & Beyond,Augusta,155,#155 #0155 BEDBATH&BEYOND#00155 BEDBATH&BEYOND#0155 BEDBATH&BEYOND#155 BEDBATH&BEYOND0155,"221 Robert C. Daniel, Jr. Parkway",GA,30909
Bed Bath & Beyond,Glen Allen,156,#156 #0156 BEDBATH&BEYOND#00156 BEDBATH&BEYOND#0156 BEDBATH&BEYOND#156 BEDBATH&BEYOND0156,10050 West Broad Street,VA,23060
Bed Bath & Beyond,St. Peters,157,#157 #0157 BEDBATH&BEYOND#00157 BEDBATH&BEYOND#0157 BEDBATH&BEYOND#157 BEDBATH&BEYOND0157,281 Mid Rivers Mall Drive,MO,63376
Bed Bath & Beyond,San Mateo,158,#158 #0158 BEDBATH&BEYOND#00158 BEDBATH&BEYOND#0158 BEDBATH&BEYOND#158 BEDBATH&BEYOND0158,2280 Bridgepointe Parkway,CA,94404
Bed Bath & Beyond,East Hanover,159,#159 #0159 BEDBATH&BEYOND#00159 BEDBATH&BEYOND#0159 BEDBATH&BEYOND#159 BEDBATH&BEYOND0159,180 Route 10 West,NJ,7936
Bed Bath & Beyond,Iselin,160,#160 #0160 BEDBATH&BEYOND#00160 BEDBATH&BEYOND#0160 BEDBATH&BEYOND#160 BEDBATH&BEYOND0160,1 Ronson Road,NJ,8830
Bed Bath & Beyond,Wynnewood,161,#161 #0161 BEDBATH&BEYOND#00161 BEDBATH&BEYOND#0161 BEDBATH&BEYOND#161 BEDBATH&BEYOND0161,70 East Wynnewood Road,PA,19096
Bed Bath & Beyond,Oklahoma City,164,#164 #0164 BEDBATH&BEYOND#00164 BEDBATH&BEYOND#0164 BEDBATH&BEYOND#164 BEDBATH&BEYOND0164,2848 Northwest 63rd Street,OK,73116
Bed Bath & Beyond,Bloomington,165,#165 #0165 BEDBATH&BEYOND#00165 BEDBATH&BEYOND#0165 BEDBATH&BEYOND#165 BEDBATH&BEYOND0165,7961 Southtown Center,MN,55431
Bed Bath & Beyond,Roseville,166,#166 #0166 BEDBATH&BEYOND#00166 BEDBATH&BEYOND#0166 BEDBATH&BEYOND#166 BEDBATH&BEYOND0166,30801 Gratiot Avenue,MI,48066
Bed Bath & Beyond,Lexington,167,#167 #0167 BEDBATH&BEYOND#00167 BEDBATH&BEYOND#0167 BEDBATH&BEYOND#167 BEDBATH&BEYOND0167,3220 Nicholasville Road,KY,40503
Bed Bath & Beyond,Snellville,168,#168 #0168 BEDBATH&BEYOND#00168 BEDBATH&BEYOND#0168 BEDBATH&BEYOND#168 BEDBATH&BEYOND0168,1905 Scenic Highway,GA,30078
Bed Bath & Beyond,Waldorf,169,#169 #0169 BEDBATH&BEYOND#00169 BEDBATH&BEYOND#0169 BEDBATH&BEYOND#169 BEDBATH&BEYOND0169,3270 Crain Highway,MD,20603
Bed Bath & Beyond,Fairview Heights,170,#170 #0170 BEDBATH&BEYOND#00170 BEDBATH&BEYOND#0170 BEDBATH&BEYOND#170 BEDBATH&BEYOND0170,6611 North Illinois Street,IL,62208
Bed Bath & Beyond,Oviedo,171,#171 #0171 BEDBATH&BEYOND#00171 BEDBATH&BEYOND#0171 BEDBATH&BEYOND#171 BEDBATH&BEYOND0171,"1115 Vidina Place, Suite 175",FL,32765
Bed Bath & Beyond,Newport News,172,#172 #0172 BEDBATH&BEYOND#00172 BEDBATH&BEYOND#0172 BEDBATH&BEYOND#172 BEDBATH&BEYOND0172,12132A Jefferson Avenue,VA,23602
Bed Bath & Beyond,Dublin,173,#173 #0173 BEDBATH&BEYOND#00173 BEDBATH&BEYOND#0173 BEDBATH&BEYOND#173 BEDBATH&BEYOND0173,4882 Dublin Boulevard,CA,94568
Bed Bath & Beyond,Owings Mills,174,#174 #0174 BEDBATH&BEYOND#00174 BEDBATH&BEYOND#0174 BEDBATH&BEYOND#174 BEDBATH&BEYOND0174,10300 Reisterstown Road,MD,21117
Bed Bath & Beyond,Seattle,175,#175 #0175 BEDBATH&BEYOND#00175 BEDBATH&BEYOND#0175 BEDBATH&BEYOND#175 BEDBATH&BEYOND0175,1930 3rd Avenue,WA,98101
Bed Bath & Beyond,Shawnee,176,#176 #0176 BEDBATH&BEYOND#00176 BEDBATH&BEYOND#0176 BEDBATH&BEYOND#176 BEDBATH&BEYOND0176,15400 Shawnee Mission Parkway,KS,66217
Bed Bath & Beyond,Knoxville,177,#177 #0177 BEDBATH&BEYOND#00177 BEDBATH&BEYOND#0177 BEDBATH&BEYOND#177 BEDBATH&BEYOND0177,244 Morrell Road,TN,37919
Bed Bath & Beyond,St. Petersburg,178,#178 #0178 BEDBATH&BEYOND#00178 BEDBATH&BEYOND#0178 BEDBATH&BEYOND#178 BEDBATH&BEYOND0178,2060 66th Street North,FL,33710
Bed Bath & Beyond,Valencia,179,#179 #0179 BEDBATH&BEYOND#00179 BEDBATH&BEYOND#0179 BEDBATH&BEYOND#179 BEDBATH&BEYOND0179,25540 The Old Road,CA,91381
Bed Bath & Beyond,Greece,180,#180 #0180 BEDBATH&BEYOND#00180 BEDBATH&BEYOND#0180 BEDBATH&BEYOND#180 BEDBATH&BEYOND0180,112 Greece Ridge Center Drive,NY,14626
Bed Bath & Beyond,Williston,181,#181 #0181 BEDBATH&BEYOND#00181 BEDBATH&BEYOND#0181 BEDBATH&BEYOND#181 BEDBATH&BEYOND0181,115 Trader Lane,VT,5495
Bed Bath & Beyond,Springfield,182,#182 #0182 BEDBATH&BEYOND#00182 BEDBATH&BEYOND#0182 BEDBATH&BEYOND#182 BEDBATH&BEYOND0182,857 Baltimore Pike,PA,19064
Bed Bath & Beyond,Pasadena,183,#183 #0183 BEDBATH&BEYOND#00183 BEDBATH&BEYOND#0183 BEDBATH&BEYOND#183 BEDBATH&BEYOND0183,3341 East Foothill Boulevard,CA,91107
Bed Bath & Beyond,Redmond,184,#184 #0184 BEDBATH&BEYOND#00184 BEDBATH&BEYOND#0184 BEDBATH&BEYOND#184 BEDBATH&BEYOND0184,7589 170th Avenue Northeast,WA,98052
Bed Bath & Beyond,Wilmington,185,#185 #0185 BEDBATH&BEYOND#00185 BEDBATH&BEYOND#0185 BEDBATH&BEYOND#185 BEDBATH&BEYOND0185,1020 Brandywine Parkway,DE,19803
Bed Bath & Beyond,Yorba Linda,186,#186 #0186 BEDBATH&BEYOND#00186 BEDBATH&BEYOND#0186 BEDBATH&BEYOND#186 BEDBATH&BEYOND0186,23041 Savi Ranch Parkway,CA,92887
Bed Bath & Beyond,Geneva,187,#187 #0187 BEDBATH&BEYOND#00187 BEDBATH&BEYOND#0187 BEDBATH&BEYOND#187 BEDBATH&BEYOND0187,1584 South Randall Road,IL,60134
Bed Bath & Beyond,Frederick,188,#188 #0188 BEDBATH&BEYOND#00188 BEDBATH&BEYOND#0188 BEDBATH&BEYOND#188 BEDBATH&BEYOND0188,5413 Urbana Pike,MD,21704
Bed Bath & Beyond,Crystal Lake,190,#190 #0190 BEDBATH&BEYOND#00190 BEDBATH&BEYOND#0190 BEDBATH&BEYOND#190 BEDBATH&BEYOND0190,6000 Northwest Highway,IL,60014
Bed Bath & Beyond,Midlothian,192,#192 #0192 BEDBATH&BEYOND#00192 BEDBATH&BEYOND#0192 BEDBATH&BEYOND#192 BEDBATH&BEYOND0192,11609 Midlothian Turnpike,VA,23113
Bed Bath & Beyond,Milford,193,#193 #0193 BEDBATH&BEYOND#00193 BEDBATH&BEYOND#0193 BEDBATH&BEYOND#193 BEDBATH&BEYOND0193,1212 Boston Post Road,CT,6460
Bed Bath & Beyond,Fort Collins,194,#194 #0194 BEDBATH&BEYOND#00194 BEDBATH&BEYOND#0194 BEDBATH&BEYOND#194 BEDBATH&BEYOND0194,110 West Troutman Parkway,CO,80525
Bed Bath & Beyond,Columbus,195,#195 #0195 BEDBATH&BEYOND#00195 BEDBATH&BEYOND#0195 BEDBATH&BEYOND#195 BEDBATH&BEYOND0195,3750 Easton Marketplace,OH,43219
Bed Bath & Beyond,Towson,196,#196 #0196 BEDBATH&BEYOND#00196 BEDBATH&BEYOND#0196 BEDBATH&BEYOND#196 BEDBATH&BEYOND0196,1238 Putty Hill Avenue,MD,21286
Bed Bath & Beyond,Aventura,197,#197 #0197 BEDBATH&BEYOND#00197 BEDBATH&BEYOND#0197 BEDBATH&BEYOND#197 BEDBATH&BEYOND0197,19205 Biscayne Boulevard,FL,33180
Bed Bath & Beyond,Midvale,198,#198 #0198 BEDBATH&BEYOND#00198 BEDBATH&BEYOND#0198 BEDBATH&BEYOND#198 BEDBATH&BEYOND0198,7210 South Union Park Avenue,UT,84047
Bed Bath & Beyond,Columbia,199,#199 #0199 BEDBATH&BEYOND#00199 BEDBATH&BEYOND#0199 BEDBATH&BEYOND#199 BEDBATH&BEYOND0199,136 Harbison Boulevard,SC,29212
Bed Bath & Beyond,Colorado Springs,200,#200 #0200 BEDBATH&BEYOND#00200 BEDBATH&BEYOND#0200 BEDBATH&BEYOND#200 BEDBATH&BEYOND0200,1790 East Woodmen Road,CO,80920
Bed Bath & Beyond,Grand Rapids,202,#202 #0202 BEDBATH&BEYOND#00202 BEDBATH&BEYOND#0202 BEDBATH&BEYOND#202 BEDBATH&BEYOND0202,4901 28th Street Southeast,MI,49512
Bed Bath & Beyond,Solon,204,#204 #0204 BEDBATH&BEYOND#00204 BEDBATH&BEYOND#0204 BEDBATH&BEYOND#204 BEDBATH&BEYOND0204,6025 Kruse Drive,OH,44139
Bed Bath & Beyond,Auburn Hills,205,#205 #0205 BEDBATH&BEYOND#00205 BEDBATH&BEYOND#0205 BEDBATH&BEYOND#205 BEDBATH&BEYOND0205,4780 Baldwin Road,MI,48326
Bed Bath & Beyond,Reno,208,#208 #0208 BEDBATH&BEYOND#00208 BEDBATH&BEYOND#0208 BEDBATH&BEYOND#208 BEDBATH&BEYOND0208,4983 South Virginia Street,NV,89502
Bed Bath & Beyond,Lincoln,211,#211 #0211 BEDBATH&BEYOND#00211 BEDBATH&BEYOND#0211 BEDBATH&BEYOND#211 BEDBATH&BEYOND0211,2960 Pine Lake Road,NE,68516
Bed Bath & Beyond,Chula Vista,212,#212 #0212 BEDBATH&BEYOND#00212 BEDBATH&BEYOND#0212 BEDBATH&BEYOND#212 BEDBATH&BEYOND0212,394 East H Street,CA,91910
Bed Bath & Beyond,Stuart,213,#213 #0213 BEDBATH&BEYOND#00213 BEDBATH&BEYOND#0213 BEDBATH&BEYOND#213 BEDBATH&BEYOND0213,2450 Northwest Federal Highway,FL,34994
Bed Bath & Beyond,Clearwater,214,#214 #0214 BEDBATH&BEYOND#00214 BEDBATH&BEYOND#0214 BEDBATH&BEYOND#214 BEDBATH&BEYOND0214,23668 U.S. Highway 19 North,FL,33765
Bed Bath & Beyond,Mishawaka,215,#215 #0215 BEDBATH&BEYOND#00215 BEDBATH&BEYOND#0215 BEDBATH&BEYOND#215 BEDBATH&BEYOND0215,5802 Grape Road,IN,46545
Bed Bath & Beyond,Vancouver,216,#216 #0216 BEDBATH&BEYOND#00216 BEDBATH&BEYOND#0216 BEDBATH&BEYOND#216 BEDBATH&BEYOND0216,"7809-B Vancouver Plaza Drive, Unit 200",WA,98662
Bed Bath & Beyond,Fremont,218,#218 #0218 BEDBATH&BEYOND#00218 BEDBATH&BEYOND#0218 BEDBATH&BEYOND#218 BEDBATH&BEYOND0218,39125 Fremont Boulevard,CA,94538
Bed Bath & Beyond,Brentwood,219,#219 #0219 BEDBATH&BEYOND#00219 BEDBATH&BEYOND#0219 BEDBATH&BEYOND#219 BEDBATH&BEYOND0219,53 Brentwood Promenade Court,MO,63144
Bed Bath & Beyond,Grand Chute,222,#222 #0222 BEDBATH&BEYOND#00222 BEDBATH&BEYOND#0222 BEDBATH&BEYOND#222 BEDBATH&BEYOND0222,4721 West Grande Market Drive,WI,54913
Bed Bath & Beyond,San Jose,223,#223 #0223 BEDBATH&BEYOND#00223 BEDBATH&BEYOND#0223 BEDBATH&BEYOND#223 BEDBATH&BEYOND0223,5353 Almaden Expressway,CA,95118
Bed Bath & Beyond,Brick,224,#224 #0224 BEDBATH&BEYOND#00224 BEDBATH&BEYOND#0224 BEDBATH&BEYOND#224 BEDBATH&BEYOND0224,51 Chambersbridge Road,NJ,8723
Bed Bath & Beyond,Fresno,225,#225 #0225 BEDBATH&BEYOND#00225 BEDBATH&BEYOND#0225 BEDBATH&BEYOND#225 BEDBATH&BEYOND0225,7497 North Blackstone Avenue,CA,93720
Bed Bath & Beyond,Hurst,226,#226 #0226 BEDBATH&BEYOND#00226 BEDBATH&BEYOND#0226 BEDBATH&BEYOND#226 BEDBATH&BEYOND0226,853 Northeast Mall Drive,TX,76053
Bed Bath & Beyond,Jenkintown,227,#227 #0227 BEDBATH&BEYOND#00227 BEDBATH&BEYOND#0227 BEDBATH&BEYOND#227 BEDBATH&BEYOND0227,905 York Road,PA,19046
Bed Bath & Beyond,Little Rock,228,#228 #0228 BEDBATH&BEYOND#00228 BEDBATH&BEYOND#0228 BEDBATH&BEYOND#228 BEDBATH&BEYOND0228,12309 Chenal Parkway,AR,72211
Bed Bath & Beyond,Manassas,229,#229 #0229 BEDBATH&BEYOND#00229 BEDBATH&BEYOND#0229 BEDBATH&BEYOND#229 BEDBATH&BEYOND0229,11060 Bulloch Drive,VA,20109
Bed Bath & Beyond,Norman,231,#231 #0231 BEDBATH&BEYOND#00231 BEDBATH&BEYOND#0231 BEDBATH&BEYOND#231 BEDBATH&BEYOND0231,530 Ed Noble Parkway,OK,73072
Bed Bath & Beyond,Glendale,233,#233 #0233 BEDBATH&BEYOND#00233 BEDBATH&BEYOND#0233 BEDBATH&BEYOND#233 BEDBATH&BEYOND0233,7340 West Bell Road,AZ,85308
Bed Bath & Beyond,Ann Arbor,234,#234 #0234 BEDBATH&BEYOND#00234 BEDBATH&BEYOND#0234 BEDBATH&BEYOND#234 BEDBATH&BEYOND0234,3645 Washtenaw Avenue,MI,48104
Bed Bath & Beyond,Sarasota,235,#235 #0235 BEDBATH&BEYOND#00235 BEDBATH&BEYOND#0235 BEDBATH&BEYOND#235 BEDBATH&BEYOND0235,6567 South Tamiami Trail,FL,34231
Bed Bath & Beyond,Daytona Beach,236,#236 #0236 BEDBATH&BEYOND#00236 BEDBATH&BEYOND#0236 BEDBATH&BEYOND#236 BEDBATH&BEYOND0236,2500 West International Speedway Boulevard,FL,32114
Bed Bath & Beyond,Mt. Pleasant,237,#237 #0237 BEDBATH&BEYOND#00237 BEDBATH&BEYOND#0237 BEDBATH&BEYOND#237 BEDBATH&BEYOND0237,1744 Town Centre Way,SC,29464
Bed Bath & Beyond,Tampa,238,#238 #0238 BEDBATH&BEYOND#00238 BEDBATH&BEYOND#0238 BEDBATH&BEYOND#238 BEDBATH&BEYOND0238,12803 Citrus Plaza Drive,FL,33625
Bed Bath & Beyond,Farmington,239,#239 #0239 BEDBATH&BEYOND#00239 BEDBATH&BEYOND#0239 BEDBATH&BEYOND#239 BEDBATH&BEYOND0239,1603 Southeast Road,CT,6032
Bed Bath & Beyond,Holland,240,#240 #0240 BEDBATH&BEYOND#00240 BEDBATH&BEYOND#0240 BEDBATH&BEYOND#240 BEDBATH&BEYOND0240,1230 South Holland Sylvania Road,OH,43528
Bed Bath & Beyond,Davenport,242,#242 #0242 BEDBATH&BEYOND#00242 BEDBATH&BEYOND#0242 BEDBATH&BEYOND#242 BEDBATH&BEYOND0242,4022 East 53rd Street,IA,52807
Bed Bath & Beyond,Olathe,243,#243 #0243 BEDBATH&BEYOND#00243 BEDBATH&BEYOND#0243 BEDBATH&BEYOND#243 BEDBATH&BEYOND0243,15335 West 119th Street,KS,66062
Bed Bath & Beyond,Providence,244,#244 #0244 BEDBATH&BEYOND#00244 BEDBATH&BEYOND#0244 BEDBATH&BEYOND#244 BEDBATH&BEYOND0244,"24 Providence Place, Space M1",RI,2903
Bed Bath & Beyond,Gainesville,245,#245 #0245 BEDBATH&BEYOND#00245 BEDBATH&BEYOND#0245 BEDBATH&BEYOND#245 BEDBATH&BEYOND0245,6855 Newberry Road,FL,32605
Bed Bath & Beyond,Elmsford,247,#247 #0247 BEDBATH&BEYOND#00247 BEDBATH&BEYOND#0247 BEDBATH&BEYOND#247 BEDBATH&BEYOND0247,251 East Main Street,NY,10523
Bed Bath & Beyond,Lynnwood,250,#250 #0250 BEDBATH&BEYOND#00250 BEDBATH&BEYOND#0250 BEDBATH&BEYOND#250 BEDBATH&BEYOND0250,3115 196th Street Southwest,WA,98036
Bed Bath & Beyond,Whitehall,251,#251 #0251 BEDBATH&BEYOND#00251 BEDBATH&BEYOND#0251 BEDBATH&BEYOND#251 BEDBATH&BEYOND0251,1223 Whitehall Mall,PA,18052
Bed Bath & Beyond,Bridgewater,252,#252 #0252 BEDBATH&BEYOND#00252 BEDBATH&BEYOND#0252 BEDBATH&BEYOND#252 BEDBATH&BEYOND0252,155 Promenade Boulevard,NJ,8807
Bed Bath & Beyond,Modesto,254,#254 #0254 BEDBATH&BEYOND#00254 BEDBATH&BEYOND#0254 BEDBATH&BEYOND#254 BEDBATH&BEYOND0254,3900 Sisk Road,CA,95356
Bed Bath & Beyond,Buford,255,#255 #0255 BEDBATH&BEYOND#00255 BEDBATH&BEYOND#0255 BEDBATH&BEYOND#255 BEDBATH&BEYOND0255,"1705 Mall of Georgia Boulevard, Suite 4",GA,30519
Bed Bath & Beyond,Elizabeth,258,#258 #0258 BEDBATH&BEYOND#00258 BEDBATH&BEYOND#0258 BEDBATH&BEYOND#258 BEDBATH&BEYOND0258,651 Kapkowski Road,NJ,7201
Bed Bath & Beyond,Westbury,260,#260 #0260 BEDBATH&BEYOND#00260 BEDBATH&BEYOND#0260 BEDBATH&BEYOND#260 BEDBATH&BEYOND0260,950 Merchants Concourse,NY,11590
Bed Bath & Beyond,Pleasant Hill,261,#261 #0261 BEDBATH&BEYOND#00261 BEDBATH&BEYOND#0261 BEDBATH&BEYOND#261 BEDBATH&BEYOND0261,15 Crescent Drive,CA,94523
Bed Bath & Beyond,Concord,263,#263 #0263 BEDBATH&BEYOND#00263 BEDBATH&BEYOND#0263 BEDBATH&BEYOND#263 BEDBATH&BEYOND0263,8241 Concord Mills Boulevard,NC,28027
Bed Bath & Beyond,Mandeville,265,#265 #0265 BEDBATH&BEYOND#00265 BEDBATH&BEYOND#0265 BEDBATH&BEYOND#265 BEDBATH&BEYOND0265,3414 Highway 190,LA,70471
Bed Bath & Beyond,Eatontown,266,#266 #0266 BEDBATH&BEYOND#00266 BEDBATH&BEYOND#0266 BEDBATH&BEYOND#266 BEDBATH&BEYOND0266,92 Route 36,NJ,7724
Bed Bath & Beyond,Douglasville,267,#267 #0267 BEDBATH&BEYOND#00267 BEDBATH&BEYOND#0267 BEDBATH&BEYOND#267 BEDBATH&BEYOND0267,6680 Douglas Boulevard,GA,30135
Bed Bath & Beyond,Asheville,268,#268 #0268 BEDBATH&BEYOND#00268 BEDBATH&BEYOND#0268 BEDBATH&BEYOND#268 BEDBATH&BEYOND0268,83 South Tunnel Road,NC,28805
Bed Bath & Beyond,Springfield,269,#269 #0269 BEDBATH&BEYOND#00269 BEDBATH&BEYOND#0269 BEDBATH&BEYOND#269 BEDBATH&BEYOND0269,6642 Loisdale Road,VA,22150
Bed Bath & Beyond,Taylorsville,270,#270 #0270 BEDBATH&BEYOND#00270 BEDBATH&BEYOND#0270 BEDBATH&BEYOND#270 BEDBATH&BEYOND0270,5670 South Redwood Road,UT,84123
Bed Bath & Beyond,Harrisburg,271,#271 #0271 BEDBATH&BEYOND#00271 BEDBATH&BEYOND#0271 BEDBATH&BEYOND#271 BEDBATH&BEYOND0271,5125 Jonestown Road,PA,17112
Bed Bath & Beyond,Katy,272,#272 #0272 BEDBATH&BEYOND#00272 BEDBATH&BEYOND#0272 BEDBATH&BEYOND#272 BEDBATH&BEYOND0272,5000 Katy Mills Circle,TX,77494
Bed Bath & Beyond,Palm Beach Gardens,273,#273 #0273 BEDBATH&BEYOND#00273 BEDBATH&BEYOND#0273 BEDBATH&BEYOND#273 BEDBATH&BEYOND0273,2410 PGA Boulevard,FL,33410
Bed Bath & Beyond,Mission Viejo,275,#275 #0275 BEDBATH&BEYOND#00275 BEDBATH&BEYOND#0275 BEDBATH&BEYOND#275 BEDBATH&BEYOND0275,25732 El Paseo,CA,92691
Bed Bath & Beyond,Orland Park,276,#276 #0276 BEDBATH&BEYOND#00276 BEDBATH&BEYOND#0276 BEDBATH&BEYOND#276 BEDBATH&BEYOND0276,Orland Park Place,IL,60462
Bed Bath & Beyond,Fayetteville,278,#278 #0278 BEDBATH&BEYOND#00278 BEDBATH&BEYOND#0278 BEDBATH&BEYOND#278 BEDBATH&BEYOND0278,3816 North Mall Avenue,AR,72703
Bed Bath & Beyond,Littleton,279,#279 #0279 BEDBATH&BEYOND#00279 BEDBATH&BEYOND#0279 BEDBATH&BEYOND#279 BEDBATH&BEYOND0279,7421 West Bowles Avenue,CO,80123
Bed Bath & Beyond,Marietta,280,#280 #0280 BEDBATH&BEYOND#00280 BEDBATH&BEYOND#0280 BEDBATH&BEYOND#280 BEDBATH&BEYOND0280,4475 Roswell Road,GA,30062
Bed Bath & Beyond,Simi Valley,281,#281 #0281 BEDBATH&BEYOND#00281 BEDBATH&BEYOND#0281 BEDBATH&BEYOND#281 BEDBATH&BEYOND0281,2631 Tapo Canyon Road,CA,93063
Bed Bath & Beyond,Orlando,282,#282 #0282 BEDBATH&BEYOND#00282 BEDBATH&BEYOND#0282 BEDBATH&BEYOND#282 BEDBATH&BEYOND0282,397 North Alafaya Trail,FL,32828
Bed Bath & Beyond,Brunswick,283,#283 #0283 BEDBATH&BEYOND#00283 BEDBATH&BEYOND#0283 BEDBATH&BEYOND#283 BEDBATH&BEYOND0283,197 Golden Isles Plaza,GA,31520
Bed Bath & Beyond,Santa Ana,284,#284 #0284 BEDBATH&BEYOND#00284 BEDBATH&BEYOND#0284 BEDBATH&BEYOND#284 BEDBATH&BEYOND0284,3900 South Bristol Street,CA,92704
Bed Bath & Beyond,Fort Myers,285,#285 #0285 BEDBATH&BEYOND#00285 BEDBATH&BEYOND#0285 BEDBATH&BEYOND#285 BEDBATH&BEYOND0285,13499 South Cleveland Avenue,FL,33907
Bed Bath & Beyond,Westland,288,#288 #0288 BEDBATH&BEYOND#00288 BEDBATH&BEYOND#0288 BEDBATH&BEYOND#288 BEDBATH&BEYOND0288,35120 Central City Parkway,MI,48185
Bed Bath & Beyond,Middletown,289,#289 #0289 BEDBATH&BEYOND#00289 BEDBATH&BEYOND#0289 BEDBATH&BEYOND#289 BEDBATH&BEYOND0289,1515 Route 35 North,NJ,7748
Bed Bath & Beyond,Normal,290,#290 #0290 BEDBATH&BEYOND#00290 BEDBATH&BEYOND#0290 BEDBATH&BEYOND#290 BEDBATH&BEYOND0290,1700 East College Avenue,IL,61761
Bed Bath & Beyond,Coral Springs,291,#291 #0291 BEDBATH&BEYOND#00291 BEDBATH&BEYOND#0291 BEDBATH&BEYOND#291 BEDBATH&BEYOND0291,4631 North University Drive,FL,33065
Bed Bath & Beyond,Orem,292,#292 #0292 BEDBATH&BEYOND#00292 BEDBATH&BEYOND#0292 BEDBATH&BEYOND#292 BEDBATH&BEYOND0292,50 West University Parkway,UT,84057
Bed Bath & Beyond,Louisville,293,#293 #0293 BEDBATH&BEYOND#00293 BEDBATH&BEYOND#0293 BEDBATH&BEYOND#293 BEDBATH&BEYOND0293,996 Breckinridge Lane,KY,40207
Bed Bath & Beyond,Salt Lake City,294,#294 #0294 BEDBATH&BEYOND#00294 BEDBATH&BEYOND#0294 BEDBATH&BEYOND#294 BEDBATH&BEYOND0294,1169 Wilmington Avenue,UT,84106
Bed Bath & Beyond,Beverly Hills,295,#295 #0295 BEDBATH&BEYOND#00295 BEDBATH&BEYOND#0295 BEDBATH&BEYOND#295 BEDBATH&BEYOND0295,31535 Southfield Road,MI,48025
Bed Bath & Beyond,North Wales,296,#296 #0296 BEDBATH&BEYOND#00296 BEDBATH&BEYOND#0296 BEDBATH&BEYOND#296 BEDBATH&BEYOND0296,1261 Knapp Road,PA,19454
Bed Bath & Beyond,Boston,297,#297 #0297 BEDBATH&BEYOND#00297 BEDBATH&BEYOND#0297 BEDBATH&BEYOND#297 BEDBATH&BEYOND0297,401 Park Drive,MA,2215
Bed Bath & Beyond,Bluffton,298,#298 #0298 BEDBATH&BEYOND#00298 BEDBATH&BEYOND#0298 BEDBATH&BEYOND#298 BEDBATH&BEYOND0298,1460 Fording Island Road,SC,29910
Bed Bath & Beyond,Cincinnati,301,#301 #0301 BEDBATH&BEYOND#00301 BEDBATH&BEYOND#0301 BEDBATH&BEYOND#301 BEDBATH&BEYOND0301,2719 Edmondson Road,OH,45209
Bed Bath & Beyond,Wyomissing,302,#302 #0302 BEDBATH&BEYOND#00302 BEDBATH&BEYOND#0302 BEDBATH&BEYOND#302 BEDBATH&BEYOND0302,2771 Paper Mill Road,PA,19610
Bed Bath & Beyond,Watchung,303,#303 #0303 BEDBATH&BEYOND#00303 BEDBATH&BEYOND#0303 BEDBATH&BEYOND#303 BEDBATH&BEYOND0303,1511 U.S. Highway 22,NJ,7069
Bed Bath & Beyond,Plymouth Meeting,304,#304 #0304 BEDBATH&BEYOND#00304 BEDBATH&BEYOND#0304 BEDBATH&BEYOND#304 BEDBATH&BEYOND0304,2410 Chemical Road,PA,19462
Bed Bath & Beyond,Round Rock,305,#305 #0305 BEDBATH&BEYOND#00305 BEDBATH&BEYOND#0305 BEDBATH&BEYOND#305 BEDBATH&BEYOND0305,2701A Parker Road,TX,78681
Bed Bath & Beyond,Arlington,306,#306 #0306 BEDBATH&BEYOND#00306 BEDBATH&BEYOND#0306 BEDBATH&BEYOND#306 BEDBATH&BEYOND0306,900 Army Navy Drive,VA,22202
Bed Bath & Beyond,Roseville,307,#307 #0307 BEDBATH&BEYOND#00307 BEDBATH&BEYOND#0307 BEDBATH&BEYOND#307 BEDBATH&BEYOND0307,1120 Galleria Boulevard,CA,95678
Bed Bath & Beyond,Charlotte,309,#309 #0309 BEDBATH&BEYOND#00309 BEDBATH&BEYOND#0309 BEDBATH&BEYOND#309 BEDBATH&BEYOND0309,9559 South Boulevard,NC,28273
Bed Bath & Beyond,Everett,310,#310 #0310 BEDBATH&BEYOND#00310 BEDBATH&BEYOND#0310 BEDBATH&BEYOND#310 BEDBATH&BEYOND0310,7 Mystic View Road,MA,2149
Bed Bath & Beyond,Simsbury,311,#311 #0311 BEDBATH&BEYOND#00311 BEDBATH&BEYOND#0311 BEDBATH&BEYOND#311 BEDBATH&BEYOND0311,532 Bushy Hill Road,CT,6070
Bed Bath & Beyond,Visalia,312,#312 #0312 BEDBATH&BEYOND#00312 BEDBATH&BEYOND#0312 BEDBATH&BEYOND#312 BEDBATH&BEYOND0312,3125 South Mooney Boulevard,CA,93277
Bed Bath & Beyond,Athens,313,#313 #0313 BEDBATH&BEYOND#00313 BEDBATH&BEYOND#0313 BEDBATH&BEYOND#313 BEDBATH&BEYOND0313,3660 Atlanta Highway,GA,30606
Bed Bath & Beyond,Kennewick,314,#314 #0314 BEDBATH&BEYOND#00314 BEDBATH&BEYOND#0314 BEDBATH&BEYOND#314 BEDBATH&BEYOND0314,1220 North Columbia Center Boulevard,WA,99336
Bed Bath & Beyond,Colma,315,#315 #0315 BEDBATH&BEYOND#00315 BEDBATH&BEYOND#0315 BEDBATH&BEYOND#315 BEDBATH&BEYOND0315,19 Colma Boulevard,CA,94014
Bed Bath & Beyond,North Brunswick,316,#316 #0316 BEDBATH&BEYOND#00316 BEDBATH&BEYOND#0316 BEDBATH&BEYOND#316 BEDBATH&BEYOND0316,871 Route 1 South,NJ,8902
Bed Bath & Beyond,Winston Salem,317,#317 #0317 BEDBATH&BEYOND#00317 BEDBATH&BEYOND#0317 BEDBATH&BEYOND#317 BEDBATH&BEYOND0317,1020 Hanes Mall Boulevard,NC,27103
Bed Bath & Beyond,Midland,318,#318 #0318 BEDBATH&BEYOND#00318 BEDBATH&BEYOND#0318 BEDBATH&BEYOND#318 BEDBATH&BEYOND0318,"3001 West Loop, 250 North",TX,79705
Bed Bath & Beyond,Eugene,319,#319 #0319 BEDBATH&BEYOND#00319 BEDBATH&BEYOND#0319 BEDBATH&BEYOND#319 BEDBATH&BEYOND0319,95 Oakway Center,OR,97401
Bed Bath & Beyond,Shrewsbury,320,#320 #0320 BEDBATH&BEYOND#00320 BEDBATH&BEYOND#0320 BEDBATH&BEYOND#320 BEDBATH&BEYOND0320,571 Boston Turnpike,MA,1545
Bed Bath & Beyond,Lafayette,321,#321 #0321 BEDBATH&BEYOND#00321 BEDBATH&BEYOND#0321 BEDBATH&BEYOND#321 BEDBATH&BEYOND0321,3617 Ambassador Caffrey Parkway,LA,70503
Bed Bath & Beyond,Champaign,322,#322 #0322 BEDBATH&BEYOND#00322 BEDBATH&BEYOND#0322 BEDBATH&BEYOND#322 BEDBATH&BEYOND0322,63 East Marketview Drive,IL,61820
Bed Bath & Beyond,Pickerington,323,#323 #0323 BEDBATH&BEYOND#00323 BEDBATH&BEYOND#0323 BEDBATH&BEYOND#323 BEDBATH&BEYOND0323,1750 Hill Road North,OH,43147
Bed Bath & Beyond,Hagerstown,324,#324 #0324 BEDBATH&BEYOND#00324 BEDBATH&BEYOND#0324 BEDBATH&BEYOND#324 BEDBATH&BEYOND0324,11716 Garland Groh Boulevard,MD,21740
Bed Bath & Beyond,Buena Park,325,#325 #0325 BEDBATH&BEYOND#00325 BEDBATH&BEYOND#0325 BEDBATH&BEYOND#325 BEDBATH&BEYOND0325,8390 On the Mall,CA,90620
Bed Bath & Beyond,Wichita,326,#326 #0326 BEDBATH&BEYOND#00326 BEDBATH&BEYOND#0326 BEDBATH&BEYOND#326 BEDBATH&BEYOND0326,1800 North Rock Road,KS,67206
Bed Bath & Beyond,Johnson City,327,#327 #0327 BEDBATH&BEYOND#00327 BEDBATH&BEYOND#0327 BEDBATH&BEYOND#327 BEDBATH&BEYOND0327,3211 People Street,TN,37604
Bed Bath & Beyond,Fargo,328,#328 #0328 BEDBATH&BEYOND#00328 BEDBATH&BEYOND#0328 BEDBATH&BEYOND#328 BEDBATH&BEYOND0328,4340 13th Avenue Southwest,ND,58103
Bed Bath & Beyond,Grand Forks,329,#329 #0329 BEDBATH&BEYOND#00329 BEDBATH&BEYOND#0329 BEDBATH&BEYOND#329 BEDBATH&BEYOND0329,3841 32nd Avenue South,ND,58201
Bed Bath & Beyond,Fort Worth,330,#330 #0330 BEDBATH&BEYOND#00330 BEDBATH&BEYOND#0330 BEDBATH&BEYOND#330 BEDBATH&BEYOND0330,4931 Overton Ridge Road,TX,76132
Bed Bath & Beyond,San Luis Obispo,331,#331 #0331 BEDBATH&BEYOND#00331 BEDBATH&BEYOND#0331 BEDBATH&BEYOND#331 BEDBATH&BEYOND0331,317 Madonna Road,CA,93405
Bed Bath & Beyond,Hanover,332,#332 #0332 BEDBATH&BEYOND#00332 BEDBATH&BEYOND#0332 BEDBATH&BEYOND#332 BEDBATH&BEYOND0332,7000 Arundel Mills Circle South,MD,21076
Bed Bath & Beyond,Meridian,333,#333 #0333 BEDBATH&BEYOND#00333 BEDBATH&BEYOND#0333 BEDBATH&BEYOND#333 BEDBATH&BEYOND0333,1350 North Eagle Road,ID,83642
Bed Bath & Beyond,Chino Hills,334,#334 #0334 BEDBATH&BEYOND#00334 BEDBATH&BEYOND#0334 BEDBATH&BEYOND#334 BEDBATH&BEYOND0334,13021 Peyton Drive,CA,91709
Bed Bath & Beyond,Peoria,335,#335 #0335 BEDBATH&BEYOND#00335 BEDBATH&BEYOND#0335 BEDBATH&BEYOND#335 BEDBATH&BEYOND0335,4800 North University Street,IL,61614
Bed Bath & Beyond,Newtown,336,#336 #0336 BEDBATH&BEYOND#00336 BEDBATH&BEYOND#0336 BEDBATH&BEYOND#336 BEDBATH&BEYOND0336,20 West Road,PA,18940
Bed Bath & Beyond,Homestead,337,#337 #0337 BEDBATH&BEYOND#00337 BEDBATH&BEYOND#0337 BEDBATH&BEYOND#337 BEDBATH&BEYOND0337,490 Waterfront Drive East,PA,15120
Bed Bath & Beyond,Colorado Springs,338,#338 #0338 BEDBATH&BEYOND#00338 BEDBATH&BEYOND#0338 BEDBATH&BEYOND#338 BEDBATH&BEYOND0338,2180 Southgate Road,CO,80906
Bed Bath & Beyond,Franklin,339,#339 #0339 BEDBATH&BEYOND#00339 BEDBATH&BEYOND#0339 BEDBATH&BEYOND#339 BEDBATH&BEYOND0339,545 Cool Springs Boulevard,TN,37067
Bed Bath & Beyond,Oxnard,340,#340 #0340 BEDBATH&BEYOND#00340 BEDBATH&BEYOND#0340 BEDBATH&BEYOND#340 BEDBATH&BEYOND0340,251 West Esplanade Drive,CA,93036
Bed Bath & Beyond,Southlake,341,#341 #0341 BEDBATH&BEYOND#00341 BEDBATH&BEYOND#0341 BEDBATH&BEYOND#341 BEDBATH&BEYOND0341,2930 East Southlake Boulevard,TX,76092
Bed Bath & Beyond,Cedar Rapids,342,#342 #0342 BEDBATH&BEYOND#00342 BEDBATH&BEYOND#0342 BEDBATH&BEYOND#342 BEDBATH&BEYOND0342,4840 1st Avenue Northeast,IA,52402
Bed Bath & Beyond,Grandville,343,#343 #0343 BEDBATH&BEYOND#00343 BEDBATH&BEYOND#0343 BEDBATH&BEYOND#343 BEDBATH&BEYOND0343,4830 Wilson Avenue Southwest,MI,49418
Bed Bath & Beyond,Birmingham,344,#344 #0344 BEDBATH&BEYOND#00344 BEDBATH&BEYOND#0344 BEDBATH&BEYOND#344 BEDBATH&BEYOND0344,1640 Gadsden Highway,AL,35235
Bed Bath & Beyond,Pittsburgh,345,#345 #0345 BEDBATH&BEYOND#00345 BEDBATH&BEYOND#0345 BEDBATH&BEYOND#345 BEDBATH&BEYOND0345,976 Freeport Road,PA,15238
Bed Bath & Beyond,Gresham,346,#346 #0346 BEDBATH&BEYOND#00346 BEDBATH&BEYOND#0346 BEDBATH&BEYOND#346 BEDBATH&BEYOND0346,719 Northwest 12th Street,OR,97030
Bed Bath & Beyond,Royal Palm Beach,347,#347 #0347 BEDBATH&BEYOND#00347 BEDBATH&BEYOND#0347 BEDBATH&BEYOND#347 BEDBATH&BEYOND0347,540 North State Road 7,FL,33411
Bed Bath & Beyond,Marlton,348,#348 #0348 BEDBATH&BEYOND#00348 BEDBATH&BEYOND#0348 BEDBATH&BEYOND#348 BEDBATH&BEYOND0348,740 Route 73 South,NJ,8053
Bed Bath & Beyond,Greenville,349,#349 #0349 BEDBATH&BEYOND#00349 BEDBATH&BEYOND#0349 BEDBATH&BEYOND#349 BEDBATH&BEYOND0349,1117 Woodruff Road,SC,29607
Bed Bath & Beyond,Danvers,350,#350 #0350 BEDBATH&BEYOND#00350 BEDBATH&BEYOND#0350 BEDBATH&BEYOND#350 BEDBATH&BEYOND0350,180 Endicott Street,MA,1923
Bed Bath & Beyond,Bloomington,351,#351 #0351 BEDBATH&BEYOND#00351 BEDBATH&BEYOND#0351 BEDBATH&BEYOND#351 BEDBATH&BEYOND0351,280 North Gates Drive,IN,47404
Bed Bath & Beyond,Amarillo,352,#352 #0352 BEDBATH&BEYOND#00352 BEDBATH&BEYOND#0352 BEDBATH&BEYOND#352 BEDBATH&BEYOND0352,3000 Soncy Road,TX,79124
Bed Bath & Beyond,Radnor,353,#353 #0353 BEDBATH&BEYOND#00353 BEDBATH&BEYOND#0353 BEDBATH&BEYOND#353 BEDBATH&BEYOND0353,550 East Lancaster Avenue,PA,19087
Bed Bath & Beyond,Jackson,354,#354 #0354 BEDBATH&BEYOND#00354 BEDBATH&BEYOND#0354 BEDBATH&BEYOND#354 BEDBATH&BEYOND0354,6370 Ridgewood Court Drive,MS,39211
Bed Bath & Beyond,Westminster,355,#355 #0355 BEDBATH&BEYOND#00355 BEDBATH&BEYOND#0355 BEDBATH&BEYOND#355 BEDBATH&BEYOND0355,7225 West 88th Avenue,CO,80021
Bed Bath & Beyond,El Paso,356,#356 #0356 BEDBATH&BEYOND#00356 BEDBATH&BEYOND#0356 BEDBATH&BEYOND#356 BEDBATH&BEYOND0356,1327 George Dieter Drive,TX,79936
Bed Bath & Beyond,Youngstown,358,#358 #0358 BEDBATH&BEYOND#00358 BEDBATH&BEYOND#0358 BEDBATH&BEYOND#358 BEDBATH&BEYOND0358,550 Boardman Poland Road,OH,44512
Bed Bath & Beyond,Davie,359,#359 #0359 BEDBATH&BEYOND#00359 BEDBATH&BEYOND#0359 BEDBATH&BEYOND#359 BEDBATH&BEYOND0359,1801 South University Drive,FL,33324
Bed Bath & Beyond,Stow,360,#360 #0360 BEDBATH&BEYOND#00360 BEDBATH&BEYOND#0360 BEDBATH&BEYOND#360 BEDBATH&BEYOND0360,4290 Kent Road,OH,44224
Bed Bath & Beyond,New York,361,#361 #0361 BEDBATH&BEYOND#00361 BEDBATH&BEYOND#0361 BEDBATH&BEYOND#361 BEDBATH&BEYOND0361,410 East 61st Street and 1st Avenue,NY,10021
Bed Bath & Beyond,Spokane,362,#362 #0362 BEDBATH&BEYOND#00362 BEDBATH&BEYOND#0362 BEDBATH&BEYOND#362 BEDBATH&BEYOND0362,5628 North Division Street,WA,99208
Bed Bath & Beyond,Greenwood,363,#363 #0363 BEDBATH&BEYOND#00363 BEDBATH&BEYOND#0363 BEDBATH&BEYOND#363 BEDBATH&BEYOND0363,"723 U.S. 31 North, Suite A",IN,46142
Bed Bath & Beyond,Taylor,364,#364 #0364 BEDBATH&BEYOND#00364 BEDBATH&BEYOND#0364 BEDBATH&BEYOND#364 BEDBATH&BEYOND0364,23871 Eureka Road,MI,48180
Bed Bath & Beyond,Bangor,365,#365 #0365 BEDBATH&BEYOND#00365 BEDBATH&BEYOND#0365 BEDBATH&BEYOND#365 BEDBATH&BEYOND0365,6 Bangor Mall Boulevard,ME,4401
Bed Bath & Beyond,Rochester,366,#366 #0366 BEDBATH&BEYOND#00366 BEDBATH&BEYOND#0366 BEDBATH&BEYOND#366 BEDBATH&BEYOND0366,40 25th Street Southeast,MN,55904
Bed Bath & Beyond,Spartanburg,367,#367 #0367 BEDBATH&BEYOND#00367 BEDBATH&BEYOND#0367 BEDBATH&BEYOND#367 BEDBATH&BEYOND0367,205 West Blackstock Road,SC,29301
Bed Bath & Beyond,Novi,368,#368 #0368 BEDBATH&BEYOND#00368 BEDBATH&BEYOND#0368 BEDBATH&BEYOND#368 BEDBATH&BEYOND0368,43610 West Oaks Drive,MI,48377
Bed Bath & Beyond,Okemos,369,#369 #0369 BEDBATH&BEYOND#00369 BEDBATH&BEYOND#0369 BEDBATH&BEYOND#369 BEDBATH&BEYOND0369,1982 West Grand River Avenue,MI,48864
Bed Bath & Beyond,Columbus,370,#370 #0370 BEDBATH&BEYOND#00370 BEDBATH&BEYOND#0370 BEDBATH&BEYOND#370 BEDBATH&BEYOND0370,3708 West Dublin-Granville Road,OH,43235
Bed Bath & Beyond,Tukwila,371,#371 #0371 BEDBATH&BEYOND#00371 BEDBATH&BEYOND#0371 BEDBATH&BEYOND#371 BEDBATH&BEYOND0371,400 Strander Boulevard,WA,98188
Bed Bath & Beyond,Warwick,372,#372 #0372 BEDBATH&BEYOND#00372 BEDBATH&BEYOND#0372 BEDBATH&BEYOND#372 BEDBATH&BEYOND0372,"1500 Bald Hill Road, Suite B",RI,2886
Bed Bath & Beyond,Bellevue,374,#374 #0374 BEDBATH&BEYOND#00374 BEDBATH&BEYOND#0374 BEDBATH&BEYOND#374 BEDBATH&BEYOND0374,15600 Northeast 8th Street,WA,98008
Bed Bath & Beyond,Evansville,375,#375 #0375 BEDBATH&BEYOND#00375 BEDBATH&BEYOND#0375 BEDBATH&BEYOND#375 BEDBATH&BEYOND0375,280 North Green River Road,IN,47715
Bed Bath & Beyond,Glen Allen,376,#376 #0376 BEDBATH&BEYOND#00376 BEDBATH&BEYOND#0376 BEDBATH&BEYOND#376 BEDBATH&BEYOND0376,9900 Brook Road,VA,23059
Bed Bath & Beyond,Wilkes-Barre,377,#377 #0377 BEDBATH&BEYOND#00377 BEDBATH&BEYOND#0377 BEDBATH&BEYOND#377 BEDBATH&BEYOND0377,435 Arena Hub Plaza,PA,18702
Bed Bath & Beyond,Rochester Hills,378,#378 #0378 BEDBATH&BEYOND#00378 BEDBATH&BEYOND#0378 BEDBATH&BEYOND#378 BEDBATH&BEYOND0378,1242 South Rochester Road,MI,48307
Bed Bath & Beyond,Wichita,379,#379 #0379 BEDBATH&BEYOND#00379 BEDBATH&BEYOND#0379 BEDBATH&BEYOND#379 BEDBATH&BEYOND0379,2441 North Maize Road,KS,67205
Bed Bath & Beyond,Bayamon,381,#381 #0381 BEDBATH&BEYOND#00381 BEDBATH&BEYOND#0381 BEDBATH&BEYOND#381 BEDBATH&BEYOND0381,"Plaza del Sol, 725 West Main Avenue",PR,961
Bed Bath & Beyond,Houston,382,#382 #0382 BEDBATH&BEYOND#00382 BEDBATH&BEYOND#0382 BEDBATH&BEYOND#382 BEDBATH&BEYOND0382,6575 Highway 6 North,TX,77084
Bed Bath & Beyond,Hawthorne,383,#383 #0383 BEDBATH&BEYOND#00383 BEDBATH&BEYOND#0383 BEDBATH&BEYOND#383 BEDBATH&BEYOND0383,14351 Hindry Avenue,CA,90250
Bed Bath & Beyond,Los Angeles,384,#384 #0384 BEDBATH&BEYOND#00384 BEDBATH&BEYOND#0384 BEDBATH&BEYOND#384 BEDBATH&BEYOND0384,1557 Vine Street,CA,90028
Bed Bath & Beyond,Boca Raton,385,#385 #0385 BEDBATH&BEYOND#00385 BEDBATH&BEYOND#0385 BEDBATH&BEYOND#385 BEDBATH&BEYOND0385,1400C Glades Road,FL,33431
Bed Bath & Beyond,Slidell,386,#386 #0386 BEDBATH&BEYOND#00386 BEDBATH&BEYOND#0386 BEDBATH&BEYOND#386 BEDBATH&BEYOND0386,127 Northshore Boulevard,LA,70460
Bed Bath & Beyond,Tallahassee,388,#388 #0388 BEDBATH&BEYOND#00388 BEDBATH&BEYOND#0388 BEDBATH&BEYOND#388 BEDBATH&BEYOND0388,1574 Governors Square Boulevard,FL,32301
Bed Bath & Beyond,Mays Landing,389,#389 #0389 BEDBATH&BEYOND#00389 BEDBATH&BEYOND#0389 BEDBATH&BEYOND#389 BEDBATH&BEYOND0389,190 Hamilton Commons,NJ,8330
Bed Bath & Beyond,Louisville,390,#390 #0390 BEDBATH&BEYOND#00390 BEDBATH&BEYOND#0390 BEDBATH&BEYOND#390 BEDBATH&BEYOND0390,4350 Summit Plaza Drive,KY,40241
Bed Bath & Beyond,Springdale,391,#391 #0391 BEDBATH&BEYOND#00391 BEDBATH&BEYOND#0391 BEDBATH&BEYOND#391 BEDBATH&BEYOND0391,485 East Kemper Road,OH,45246
Bed Bath & Beyond,Macon,392,#392 #0392 BEDBATH&BEYOND#00392 BEDBATH&BEYOND#0392 BEDBATH&BEYOND#392 BEDBATH&BEYOND0392,4667 Presidential Parkway,GA,31206
Bed Bath & Beyond,Dulles,393,#393 #0393 BEDBATH&BEYOND#00393 BEDBATH&BEYOND#0393 BEDBATH&BEYOND#393 BEDBATH&BEYOND0393,45575 Dulles Eastern Plaza,VA,20166
Bed Bath & Beyond,Yonkers,394,#394 #0394 BEDBATH&BEYOND#00394 BEDBATH&BEYOND#0394 BEDBATH&BEYOND#394 BEDBATH&BEYOND0394,2141 Central Park Avenue,NY,10710
Bed Bath & Beyond,Fort Wayne,395,#395 #0395 BEDBATH&BEYOND#00395 BEDBATH&BEYOND#0395 BEDBATH&BEYOND#395 BEDBATH&BEYOND0395,4020 West Jefferson Boulevard,IN,46804
Bed Bath & Beyond,El Cerrito,397,#397 #0397 BEDBATH&BEYOND#00397 BEDBATH&BEYOND#0397 BEDBATH&BEYOND#397 BEDBATH&BEYOND0397,6000 El Cerrito Plaza,CA,94530
Bed Bath & Beyond,Shreveport,398,#398 #0398 BEDBATH&BEYOND#00398 BEDBATH&BEYOND#0398 BEDBATH&BEYOND#398 BEDBATH&BEYOND0398,7070 Youree Drive,LA,71105
Bed Bath & Beyond,Holland,399,#399 #0399 BEDBATH&BEYOND#00399 BEDBATH&BEYOND#0399 BEDBATH&BEYOND#399 BEDBATH&BEYOND0399,3050 Beeline Road,MI,49424
Bed Bath & Beyond,Destin,400,#400 #0400 BEDBATH&BEYOND#00400 BEDBATH&BEYOND#0400 BEDBATH&BEYOND#400 BEDBATH&BEYOND0400,4441 Commons Drive East,FL,32541
Bed Bath & Beyond,Ramsey,401,#401 #0401 BEDBATH&BEYOND#00401 BEDBATH&BEYOND#0401 BEDBATH&BEYOND#401 BEDBATH&BEYOND0401,225 Interstate Shopping Center,NJ,7446
Bed Bath & Beyond,Greendale,402,#402 #0402 BEDBATH&BEYOND#00402 BEDBATH&BEYOND#0402 BEDBATH&BEYOND#402 BEDBATH&BEYOND0402,5445 South 76th Street,WI,53129
Bed Bath & Beyond,Memphis,403,#403 #0403 BEDBATH&BEYOND#00403 BEDBATH&BEYOND#0403 BEDBATH&BEYOND#403 BEDBATH&BEYOND0403,870 South White Station Road,TN,38117
Bed Bath & Beyond,Frisco,404,#404 #0404 BEDBATH&BEYOND#00404 BEDBATH&BEYOND#0404 BEDBATH&BEYOND#404 BEDBATH&BEYOND0404,2930 Preston Road,TX,75034
Bed Bath & Beyond,Huntsville,405,#405 #0405 BEDBATH&BEYOND#00405 BEDBATH&BEYOND#0405 BEDBATH&BEYOND#405 BEDBATH&BEYOND0405,6888 Governors West,AL,35806
Bed Bath & Beyond,Plano,406,#406 #0406 BEDBATH&BEYOND#00406 BEDBATH&BEYOND#0406 BEDBATH&BEYOND#406 BEDBATH&BEYOND0406,6401 West Plano Parkway,TX,75093
Bed Bath & Beyond,Bakersfield,407,#407 #0407 BEDBATH&BEYOND#00407 BEDBATH&BEYOND#0407 BEDBATH&BEYOND#407 BEDBATH&BEYOND0407,5000 Stockdale Highway,CA,93309
Bed Bath & Beyond,Northglenn,408,#408 #0408 BEDBATH&BEYOND#00408 BEDBATH&BEYOND#0408 BEDBATH&BEYOND#408 BEDBATH&BEYOND0408,341 West 104th Avenue,CO,80234
Bed Bath & Beyond,Elk Grove,409,#409 #0409 BEDBATH&BEYOND#00409 BEDBATH&BEYOND#0409 BEDBATH&BEYOND#409 BEDBATH&BEYOND0409,9145 West Stockton Boulevard,CA,95758
Bed Bath & Beyond,Mohegan Lake,410,#410 #0410 BEDBATH&BEYOND#00410 BEDBATH&BEYOND#0410 BEDBATH&BEYOND#410 BEDBATH&BEYOND0410,3061 East Main Street,NY,10547
Bed Bath & Beyond,Encino,411,#411 #0411 BEDBATH&BEYOND#00411 BEDBATH&BEYOND#0411 BEDBATH&BEYOND#411 BEDBATH&BEYOND0411,17401 Ventura Boulevard,CA,91316
Bed Bath & Beyond,Seal Beach,412,#412 #0412 BEDBATH&BEYOND#00412 BEDBATH&BEYOND#0412 BEDBATH&BEYOND#412 BEDBATH&BEYOND0412,12390 Seal Beach Boulevard,CA,90740
Bed Bath & Beyond,Muskegon,413,#413 #0413 BEDBATH&BEYOND#00413 BEDBATH&BEYOND#0413 BEDBATH&BEYOND#413 BEDBATH&BEYOND0413,5540 Harvey Street,MI,49444
Bed Bath & Beyond,Apple Valley,414,#414 #0414 BEDBATH&BEYOND#00414 BEDBATH&BEYOND#0414 BEDBATH&BEYOND#414 BEDBATH&BEYOND0414,14910 Florence Trail,MN,55124
Bed Bath & Beyond,Kildeer,415,#415 #0415 BEDBATH&BEYOND#00415 BEDBATH&BEYOND#0415 BEDBATH&BEYOND#415 BEDBATH&BEYOND0415,20505 North Rand Road,IL,60047
Bed Bath & Beyond,Boulder,416,#416 #0416 BEDBATH&BEYOND#00416 BEDBATH&BEYOND#0416 BEDBATH&BEYOND#416 BEDBATH&BEYOND0416,1741 28th Street,CO,80301
Bed Bath & Beyond,Puyallup,417,#417 #0417 BEDBATH&BEYOND#00417 BEDBATH&BEYOND#0417 BEDBATH&BEYOND#417 BEDBATH&BEYOND0417,4102D South Meridian Street,WA,98373
Bed Bath & Beyond,Wilmington,418,#418 #0418 BEDBATH&BEYOND#00418 BEDBATH&BEYOND#0418 BEDBATH&BEYOND#418 BEDBATH&BEYOND0418,352 South College Road,NC,28403
Bed Bath & Beyond,Saginaw,420,#420 #0420 BEDBATH&BEYOND#00420 BEDBATH&BEYOND#0420 BEDBATH&BEYOND#420 BEDBATH&BEYOND0420,4420 Bay Road,MI,48603
Bed Bath & Beyond,Coon Rapids,421,#421 #0421 BEDBATH&BEYOND#00421 BEDBATH&BEYOND#0421 BEDBATH&BEYOND#421 BEDBATH&BEYOND0421,12773 Riverdale Boulevard,MN,55448
Bed Bath & Beyond,Henderson,422,#422 #0422 BEDBATH&BEYOND#00422 BEDBATH&BEYOND#0422 BEDBATH&BEYOND#422 BEDBATH&BEYOND0422,621 Marks Street,NV,89014
Bed Bath & Beyond,Flanders,423,#423 #0423 BEDBATH&BEYOND#00423 BEDBATH&BEYOND#0423 BEDBATH&BEYOND#423 BEDBATH&BEYOND0423,30 International Drive,NJ,7836
Bed Bath & Beyond,Port Charlotte,424,#424 #0424 BEDBATH&BEYOND#00424 BEDBATH&BEYOND#0424 BEDBATH&BEYOND#424 BEDBATH&BEYOND0424,18700 Veterans Boulevard,FL,33954
Bed Bath & Beyond,Avon,425,#425 #0425 BEDBATH&BEYOND#00425 BEDBATH&BEYOND#0425 BEDBATH&BEYOND#425 BEDBATH&BEYOND0425,10350 East U.S. Highway 36,IN,46123
Bed Bath & Beyond,Jacksonville,426,#426 #0426 BEDBATH&BEYOND#00426 BEDBATH&BEYOND#0426 BEDBATH&BEYOND#426 BEDBATH&BEYOND0426,1305 Western Boulevard,NC,28546
Bed Bath & Beyond,Gastonia,427,#427 #0427 BEDBATH&BEYOND#00427 BEDBATH&BEYOND#0427 BEDBATH&BEYOND#427 BEDBATH&BEYOND0427,3018 East Franklin Boulevard,NC,28056
Bed Bath & Beyond,Clive,428,#428 #0428 BEDBATH&BEYOND#00428 BEDBATH&BEYOND#0428 BEDBATH&BEYOND#428 BEDBATH&BEYOND0428,11101 University Avenue,IA,50325
Bed Bath & Beyond,Temple,429,#429 #0429 BEDBATH&BEYOND#00429 BEDBATH&BEYOND#0429 BEDBATH&BEYOND#429 BEDBATH&BEYOND0429,2112 Southwest HK Dodgen Loop,TX,76504
Bed Bath & Beyond,San Antonio,430,#430 #0430 BEDBATH&BEYOND#00430 BEDBATH&BEYOND#0430 BEDBATH&BEYOND#430 BEDBATH&BEYOND0430,1730 North FM 1604 East,TX,78232
Bed Bath & Beyond,Hillsboro,431,#431 #0431 BEDBATH&BEYOND#00431 BEDBATH&BEYOND#0431 BEDBATH&BEYOND#431 BEDBATH&BEYOND0431,18043 Northwest Evergreen Parkway,OR,97006
Bed Bath & Beyond,Exton,432,#432 #0432 BEDBATH&BEYOND#00432 BEDBATH&BEYOND#0432 BEDBATH&BEYOND#432 BEDBATH&BEYOND0432,108 Bartlett Avenue,PA,19341
Bed Bath & Beyond,South Portland,433,#433 #0433 BEDBATH&BEYOND#00433 BEDBATH&BEYOND#0433 BEDBATH&BEYOND#433 BEDBATH&BEYOND0433,200 Running Hill Road,ME,4106
Bed Bath & Beyond,Battle Creek,434,#434 #0434 BEDBATH&BEYOND#00434 BEDBATH&BEYOND#0434 BEDBATH&BEYOND#434 BEDBATH&BEYOND0434,12765 Harper Village Drive,MI,49014
Bed Bath & Beyond,Matthews,435,#435 #0435 BEDBATH&BEYOND#00435 BEDBATH&BEYOND#0435 BEDBATH&BEYOND#435 BEDBATH&BEYOND0435,10530 Northeast Parkway,NC,28105
Bed Bath & Beyond,Aurora,436,#436 #0436 BEDBATH&BEYOND#00436 BEDBATH&BEYOND#0436 BEDBATH&BEYOND#436 BEDBATH&BEYOND0436,5560 South Parker Road,CO,80015
Bed Bath & Beyond,Anderson,437,#437 #0437 BEDBATH&BEYOND#00437 BEDBATH&BEYOND#0437 BEDBATH&BEYOND#437 BEDBATH&BEYOND0437,146 Station Drive,SC,29621
Bed Bath & Beyond,Dillon,438,#438 #0438 BEDBATH&BEYOND#00438 BEDBATH&BEYOND#0438 BEDBATH&BEYOND#438 BEDBATH&BEYOND0438,318 Dillon Ridge Road,CO,80435
Bed Bath & Beyond,Gambrills,439,#439 #0439 BEDBATH&BEYOND#00439 BEDBATH&BEYOND#0439 BEDBATH&BEYOND#439 BEDBATH&BEYOND0439,"2382 Brandermill Boulevard, Suite 102",MD,21054
Bed Bath & Beyond,Hickory,440,#440 #0440 BEDBATH&BEYOND#00440 BEDBATH&BEYOND#0440 BEDBATH&BEYOND#440 BEDBATH&BEYOND0440,1835 Catawba Valley Boulevard,NC,28602
Bed Bath & Beyond,Durham,441,#441 #0441 BEDBATH&BEYOND#00441 BEDBATH&BEYOND#0441 BEDBATH&BEYOND#441 BEDBATH&BEYOND0441,1515 North Pointe Drive,NC,27705
Bed Bath & Beyond,Houston,442,#442 #0442 BEDBATH&BEYOND#00442 BEDBATH&BEYOND#0442 BEDBATH&BEYOND#442 BEDBATH&BEYOND0442,3102 Kirby Drive,TX,77098
Bed Bath & Beyond,Pasadena,443,#443 #0443 BEDBATH&BEYOND#00443 BEDBATH&BEYOND#0443 BEDBATH&BEYOND#443 BEDBATH&BEYOND0443,5636 Fairmont Parkway,TX,77505
Bed Bath & Beyond,Lees Summit,444,#444 #0444 BEDBATH&BEYOND#00444 BEDBATH&BEYOND#0444 BEDBATH&BEYOND#444 BEDBATH&BEYOND0444,1648 Northwest Chipman Road,MO,64081
Bed Bath & Beyond,Beaverton,445,#445 #0445 BEDBATH&BEYOND#00445 BEDBATH&BEYOND#0445 BEDBATH&BEYOND#445 BEDBATH&BEYOND0445,2780 SW Cedar Hills Blvd.,OR,97005
Bed Bath & Beyond,Flint,446,#446 #0446 BEDBATH&BEYOND#00446 BEDBATH&BEYOND#0446 BEDBATH&BEYOND#446 BEDBATH&BEYOND0446,3605 Miller Road,MI,48507
Bed Bath & Beyond,Erie,447,#447 #0447 BEDBATH&BEYOND#00447 BEDBATH&BEYOND#0447 BEDBATH&BEYOND#447 BEDBATH&BEYOND0447,6720 Peach Street,PA,16509
Bed Bath & Beyond,Elmira,448,#448 #0448 BEDBATH&BEYOND#00448 BEDBATH&BEYOND#0448 BEDBATH&BEYOND#448 BEDBATH&BEYOND0448,"830 Consumer Square Plaza,  County Route 64",NY,14903
Bed Bath & Beyond,Warrington,449,#449 #0449 BEDBATH&BEYOND#00449 BEDBATH&BEYOND#0449 BEDBATH&BEYOND#449 BEDBATH&BEYOND0449,1015 Main Street,PA,18976
Bed Bath & Beyond,Auburn,450,#450 #0450 BEDBATH&BEYOND#00450 BEDBATH&BEYOND#0450 BEDBATH&BEYOND#450 BEDBATH&BEYOND0450,366 Southbridge Street,MA,1501
Bed Bath & Beyond,Cincinnati,452,#452 #0452 BEDBATH&BEYOND#00452 BEDBATH&BEYOND#0452 BEDBATH&BEYOND#452 BEDBATH&BEYOND0452,650 Eastgate South Drive,OH,45245
Bed Bath & Beyond,Manchester,453,#453 #0453 BEDBATH&BEYOND#00453 BEDBATH&BEYOND#0453 BEDBATH&BEYOND#453 BEDBATH&BEYOND0453,169B Hale Road,CT,6040
Bed Bath & Beyond,Fort Lauderdale,454,#454 #0454 BEDBATH&BEYOND#00454 BEDBATH&BEYOND#0454 BEDBATH&BEYOND#454 BEDBATH&BEYOND0454,2701 North Federal Highway,FL,33306
Bed Bath & Beyond,Maple Grove,456,#456 #0456 BEDBATH&BEYOND#00456 BEDBATH&BEYOND#0456 BEDBATH&BEYOND#456 BEDBATH&BEYOND0456,7950 Wedgewood Lane North,MN,55369
Bed Bath & Beyond,Eagan,457,#457 #0457 BEDBATH&BEYOND#00457 BEDBATH&BEYOND#0457 BEDBATH&BEYOND#457 BEDBATH&BEYOND0457,1295 Promenade Place,MN,55121
Bed Bath & Beyond,North Olmsted,458,#458 #0458 BEDBATH&BEYOND#00458 BEDBATH&BEYOND#0458 BEDBATH&BEYOND#458 BEDBATH&BEYOND0458,25975 Great Northern Plaza,OH,44070
Bed Bath & Beyond,Monrovia,459,#459 #0459 BEDBATH&BEYOND#00459 BEDBATH&BEYOND#0459 BEDBATH&BEYOND#459 BEDBATH&BEYOND0459,650 West Huntington Drive,CA,91016
Bed Bath & Beyond,St.Louis,460,#460 #0460 BEDBATH&BEYOND#00460 BEDBATH&BEYOND#0460 BEDBATH&BEYOND#460 BEDBATH&BEYOND0460,10770 Sunset Hills Plaza,MO,63127
Bed Bath & Beyond,Pittsburgh,461,#461 #0461 BEDBATH&BEYOND#00461 BEDBATH&BEYOND#0461 BEDBATH&BEYOND#461 BEDBATH&BEYOND0461,160 Quinn Drive,PA,15275
Bed Bath & Beyond,Centerville,462,#462 #0462 BEDBATH&BEYOND#00462 BEDBATH&BEYOND#0462 BEDBATH&BEYOND#462 BEDBATH&BEYOND0462,261 East Alex Bell Road,OH,45459
Bed Bath & Beyond,Bellingham,463,#463 #0463 BEDBATH&BEYOND#00463 BEDBATH&BEYOND#0463 BEDBATH&BEYOND#463 BEDBATH&BEYOND0463,4255 Meridian Street,WA,98226
Bed Bath & Beyond,North Raleigh,464,#464 #0464 BEDBATH&BEYOND#00464 BEDBATH&BEYOND#0464 BEDBATH&BEYOND#464 BEDBATH&BEYOND0464,9521 Strickland Road,NC,27615
Bed Bath & Beyond,Lynchburg,466,#466 #0466 BEDBATH&BEYOND#00466 BEDBATH&BEYOND#0466 BEDBATH&BEYOND#466 BEDBATH&BEYOND0466,4026 Wards Road,VA,24502
Bed Bath & Beyond,Brooklyn,467,#467 #0467 BEDBATH&BEYOND#00467 BEDBATH&BEYOND#0467 BEDBATH&BEYOND#467 BEDBATH&BEYOND0467,459 Gateway Drive,NY,11239
Bed Bath & Beyond,Middletown,468,#468 #0468 BEDBATH&BEYOND#00468 BEDBATH&BEYOND#0468 BEDBATH&BEYOND#468 BEDBATH&BEYOND0468,470 Route 211 East,NY,10940
Bed Bath & Beyond,Mount Vernon,469,#469 #0469 BEDBATH&BEYOND#00469 BEDBATH&BEYOND#0469 BEDBATH&BEYOND#469 BEDBATH&BEYOND0469,500 East Sandford Boulevard,NY,10550
Bed Bath & Beyond,Columbus,470,#470 #0470 BEDBATH&BEYOND#00470 BEDBATH&BEYOND#0470 BEDBATH&BEYOND#470 BEDBATH&BEYOND0470,5555 Whittlesey Boulevard,GA,31909
Bed Bath & Beyond,Grand Junction,471,#471 #0471 BEDBATH&BEYOND#00471 BEDBATH&BEYOND#0471 BEDBATH&BEYOND#471 BEDBATH&BEYOND0471,2464 U.S. Highway 6 & 50,CO,81505
Bed Bath & Beyond,Lakewood,472,#472 #0472 BEDBATH&BEYOND#00472 BEDBATH&BEYOND#0472 BEDBATH&BEYOND#472 BEDBATH&BEYOND0472,5830 Lakewood Towne Center Boulevard,WA,98499
Bed Bath & Beyond,Cumming,473,#473 #0473 BEDBATH&BEYOND#00473 BEDBATH&BEYOND#0473 BEDBATH&BEYOND#473 BEDBATH&BEYOND0473,1545 Marketplace Boulevard,GA,30041
Bed Bath & Beyond,Santee,474,#474 #0474 BEDBATH&BEYOND#00474 BEDBATH&BEYOND#0474 BEDBATH&BEYOND#474 BEDBATH&BEYOND0474,9918 Mission Gorge Road,CA,92071
Bed Bath & Beyond,Torrance,475,#475 #0475 BEDBATH&BEYOND#00475 BEDBATH&BEYOND#0475 BEDBATH&BEYOND#475 BEDBATH&BEYOND0475,2595 Pacific Coast Highway,CA,90505
Bed Bath & Beyond,Nashville,476,#476 #0476 BEDBATH&BEYOND#00476 BEDBATH&BEYOND#0476 BEDBATH&BEYOND#476 BEDBATH&BEYOND0476,7657 Highway 70 South,TN,37221
Bed Bath & Beyond,Totowa,477,#477 #0477 BEDBATH&BEYOND#00477 BEDBATH&BEYOND#0477 BEDBATH&BEYOND#477 BEDBATH&BEYOND0477,545 Route 46,NJ,7512
Bed Bath & Beyond,Corvallis,478,#478 #0478 BEDBATH&BEYOND#00478 BEDBATH&BEYOND#0478 BEDBATH&BEYOND#478 BEDBATH&BEYOND0478,1725 Northwest 9th Street,OR,97330
Bed Bath & Beyond,Rancho Santa Margarita,479,#479 #0479 BEDBATH&BEYOND#00479 BEDBATH&BEYOND#0479 BEDBATH&BEYOND#479 BEDBATH&BEYOND0479,22235 El Paseo,CA,92688
Bed Bath & Beyond,Melbourne,480,#480 #0480 BEDBATH&BEYOND#00480 BEDBATH&BEYOND#0480 BEDBATH&BEYOND#480 BEDBATH&BEYOND0480,1555 West New Haven Avenue,FL,32904
Bed Bath & Beyond,Lewisville,481,#481 #0481 BEDBATH&BEYOND#00481 BEDBATH&BEYOND#0481 BEDBATH&BEYOND#481 BEDBATH&BEYOND0481,420 East FM 3040,TX,75067
Bed Bath & Beyond,Woodbury,482,#482 #0482 BEDBATH&BEYOND#00482 BEDBATH&BEYOND#0482 BEDBATH&BEYOND#482 BEDBATH&BEYOND0482,8250 Tamarack Village,MN,55125
Bed Bath & Beyond,Greenville,483,#483 #0483 BEDBATH&BEYOND#00483 BEDBATH&BEYOND#0483 BEDBATH&BEYOND#483 BEDBATH&BEYOND0483,3160 Evans Street,NC,27834
Bed Bath & Beyond,Jacksonville,484,#484 #0484 BEDBATH&BEYOND#00484 BEDBATH&BEYOND#0484 BEDBATH&BEYOND#484 BEDBATH&BEYOND0484,6001-24 Argyle Forest Boulevard,FL,32244
Bed Bath & Beyond,Las Vegas,485,#485 #0485 BEDBATH&BEYOND#00485 BEDBATH&BEYOND#0485 BEDBATH&BEYOND#485 BEDBATH&BEYOND0485,2100 North Rainbow Boulevard,NV,89108
Bed Bath & Beyond,Skokie,486,#486 #0486 BEDBATH&BEYOND#00486 BEDBATH&BEYOND#0486 BEDBATH&BEYOND#486 BEDBATH&BEYOND0486,5545 West Touhy Avenue,IL,60077
Bed Bath & Beyond,Hyannis,487,#487 #0487 BEDBATH&BEYOND#00487 BEDBATH&BEYOND#0487 BEDBATH&BEYOND#487 BEDBATH&BEYOND0487,621 Iyannough Road,MA,2601
Bed Bath & Beyond,Vacaville,488,#488 #0488 BEDBATH&BEYOND#00488 BEDBATH&BEYOND#0488 BEDBATH&BEYOND#488 BEDBATH&BEYOND0488,128 Browns Valley Parkway,CA,95688
Bed Bath & Beyond,Redding,489,#489 #0489 BEDBATH&BEYOND#00489 BEDBATH&BEYOND#0489 BEDBATH&BEYOND#489 BEDBATH&BEYOND0489,1140 Hilltop Drive,CA,96003
Bed Bath & Beyond,Springfield,490,#490 #0490 BEDBATH&BEYOND#00490 BEDBATH&BEYOND#0490 BEDBATH&BEYOND#490 BEDBATH&BEYOND0490,3308 South Glenstone Avenue,MO,65804
Bed Bath & Beyond,Metairie,492,#492 #0492 BEDBATH&BEYOND#00492 BEDBATH&BEYOND#0492 BEDBATH&BEYOND#492 BEDBATH&BEYOND0492,4410 Veterans Boulevard,LA,70006
Bed Bath & Beyond,LaHabra,494,#494 #0494 BEDBATH&BEYOND#00494 BEDBATH&BEYOND#0494 BEDBATH&BEYOND#494 BEDBATH&BEYOND0494,1320 South Beach Boulevard,CA,90631
Bed Bath & Beyond,Chicago,495,#495 #0495 BEDBATH&BEYOND#00495 BEDBATH&BEYOND#0495 BEDBATH&BEYOND#495 BEDBATH&BEYOND0495,530 North State Street,IL,60654
Bed Bath & Beyond,Jackson,496,#496 #0496 BEDBATH&BEYOND#00496 BEDBATH&BEYOND#0496 BEDBATH&BEYOND#496 BEDBATH&BEYOND0496,1132 Jackson Crossing,MI,49202
Bed Bath & Beyond,McDonough,497,#497 #0497 BEDBATH&BEYOND#00497 BEDBATH&BEYOND#0497 BEDBATH&BEYOND#497 BEDBATH&BEYOND0497,1898 Jonesboro Road,GA,30253
Bed Bath & Beyond,Layton,498,#498 #0498 BEDBATH&BEYOND#00498 BEDBATH&BEYOND#0498 BEDBATH&BEYOND#498 BEDBATH&BEYOND0498,2159 Harris Boulevard,UT,84041
Bed Bath & Beyond,Mequon,499,#499 #0499 BEDBATH&BEYOND#00499 BEDBATH&BEYOND#0499 BEDBATH&BEYOND#499 BEDBATH&BEYOND0499,11110 North Port Washington Road,WI,53092
Bed Bath & Beyond,Florence,500,#500 #0500 BEDBATH&BEYOND#00500 BEDBATH&BEYOND#0500 BEDBATH&BEYOND#500 BEDBATH&BEYOND0500,2853-C David McLeod Boulevard,SC,29501
Bed Bath & Beyond,Beavercreek,501,#501 #0501 BEDBATH&BEYOND#00501 BEDBATH&BEYOND#0501 BEDBATH&BEYOND#501 BEDBATH&BEYOND0501,2720 Towne Drive,OH,45431
Bed Bath & Beyond,Corpus Christi,502,#502 #0502 BEDBATH&BEYOND#00502 BEDBATH&BEYOND#0502 BEDBATH&BEYOND#502 BEDBATH&BEYOND0502,4717 South Padre Island Drive,TX,78411
Bed Bath & Beyond,Las Vegas,503,#503 #0503 BEDBATH&BEYOND#00503 BEDBATH&BEYOND#0503 BEDBATH&BEYOND#503 BEDBATH&BEYOND0503,10950 West Charleston Boulevard,NV,89135
Bed Bath & Beyond,The Woodlands,504,#504 #0504 BEDBATH&BEYOND#00504 BEDBATH&BEYOND#0504 BEDBATH&BEYOND#504 BEDBATH&BEYOND0504,1560 Lake Woodlands Drive,TX,77380
Bed Bath & Beyond,Carlsbad,505,#505 #0505 BEDBATH&BEYOND#00505 BEDBATH&BEYOND#0505 BEDBATH&BEYOND#505 BEDBATH&BEYOND0505,1905 Calle Barcelona,CA,92009
Bed Bath & Beyond,Chicago,506,#506 #0506 BEDBATH&BEYOND#00506 BEDBATH&BEYOND#0506 BEDBATH&BEYOND#506 BEDBATH&BEYOND0506,2838 North Broadway,IL,60657
Bed Bath & Beyond,Oceanside,507,#507 #0507 BEDBATH&BEYOND#00507 BEDBATH&BEYOND#0507 BEDBATH&BEYOND#507 BEDBATH&BEYOND0507,3640 Long Beach Road,NY,11572
Bed Bath & Beyond,Huntsville,508,#508 #0508 BEDBATH&BEYOND#00508 BEDBATH&BEYOND#0508 BEDBATH&BEYOND#508 BEDBATH&BEYOND0508,2750 Carl T. Jones Drive Southeast,AL,35802
Bed Bath & Beyond,Vineland,509,#509 #0509 BEDBATH&BEYOND#00509 BEDBATH&BEYOND#0509 BEDBATH&BEYOND#509 BEDBATH&BEYOND0509,3849 South Delsea Drive,NJ,8360
Bed Bath & Beyond,Brighton,510,#510 #0510 BEDBATH&BEYOND#00510 BEDBATH&BEYOND#0510 BEDBATH&BEYOND#510 BEDBATH&BEYOND0510,8467 West Grand River,MI,48116
Bed Bath & Beyond,New Hartford,511,#511 #0511 BEDBATH&BEYOND#00511 BEDBATH&BEYOND#0511 BEDBATH&BEYOND#511 BEDBATH&BEYOND0511,4805 Commercial Drive,NY,13413
Bed Bath & Beyond,Elizabethtown,512,#512 #0512 BEDBATH&BEYOND#00512 BEDBATH&BEYOND#0512 BEDBATH&BEYOND#512 BEDBATH&BEYOND0512,1998 North Dixie Avenue,KY,42701
Bed Bath & Beyond,Panama City,513,#513 #0513 BEDBATH&BEYOND#00513 BEDBATH&BEYOND#0513 BEDBATH&BEYOND#513 BEDBATH&BEYOND0513,2140 Martin Luther King Jr. Boulevard,FL,32405
Bed Bath & Beyond,Mesquite,514,#514 #0514 BEDBATH&BEYOND#00514 BEDBATH&BEYOND#0514 BEDBATH&BEYOND#514 BEDBATH&BEYOND0514,2705 North Mesquite Drive,TX,75150
Bed Bath & Beyond,DeWitt,515,#515 #0515 BEDBATH&BEYOND#00515 BEDBATH&BEYOND#0515 BEDBATH&BEYOND#515 BEDBATH&BEYOND0515,3409 Erie Boulevard East,NY,13214
Bed Bath & Beyond,Lithonia,516,#516 #0516 BEDBATH&BEYOND#00516 BEDBATH&BEYOND#0516 BEDBATH&BEYOND#516 BEDBATH&BEYOND0516,2924 Turner Hill Road,GA,30038
Bed Bath & Beyond,North Little Rock,517,#517 #0517 BEDBATH&BEYOND#00517 BEDBATH&BEYOND#0517 BEDBATH&BEYOND#517 BEDBATH&BEYOND0517,4122 McCain Boulevard,AR,72117
Bed Bath & Beyond,Vero Beach,518,#518 #0518 BEDBATH&BEYOND#00518 BEDBATH&BEYOND#0518 BEDBATH&BEYOND#518 BEDBATH&BEYOND0518,6150 20th Street,FL,32966
Bed Bath & Beyond,Beaumont,519,#519 #0519 BEDBATH&BEYOND#00519 BEDBATH&BEYOND#0519 BEDBATH&BEYOND#519 BEDBATH&BEYOND0519,3975 Dowlen Road,TX,77706
Bed Bath & Beyond,Portage,520,#520 #0520 BEDBATH&BEYOND#00520 BEDBATH&BEYOND#0520 BEDBATH&BEYOND#520 BEDBATH&BEYOND0520,5930 South Westnedge Avenue,MI,49024
Bed Bath & Beyond,Hamden,521,#521 #0521 BEDBATH&BEYOND#00521 BEDBATH&BEYOND#0521 BEDBATH&BEYOND#521 BEDBATH&BEYOND0521,2045 Dixwell Avenue,CT,6514
Bed Bath & Beyond,Lakewood,522,#522 #0522 BEDBATH&BEYOND#00522 BEDBATH&BEYOND#0522 BEDBATH&BEYOND#522 BEDBATH&BEYOND0522,75 Lakewood Center Mall,CA,90712
Bed Bath & Beyond,Ocala,523,#523 #0523 BEDBATH&BEYOND#00523 BEDBATH&BEYOND#0523 BEDBATH&BEYOND#523 BEDBATH&BEYOND0523,2701 Southwest College Road,FL,34474
Bed Bath & Beyond,Santa Fe,524,#524 #0524 BEDBATH&BEYOND#00524 BEDBATH&BEYOND#0524 BEDBATH&BEYOND#524 BEDBATH&BEYOND0524,3320 Cerrillos Road,NM,87507
Bed Bath & Beyond,Pensacola,525,#525 #0525 BEDBATH&BEYOND#00525 BEDBATH&BEYOND#0525 BEDBATH&BEYOND#525 BEDBATH&BEYOND0525,5450 North 9th Avenue,FL,32504
Bed Bath & Beyond,Lafayette,526,#526 #0526 BEDBATH&BEYOND#00526 BEDBATH&BEYOND#0526 BEDBATH&BEYOND#526 BEDBATH&BEYOND0526,3555 State Road 38 East,IN,47905
Bed Bath & Beyond,Larkspur,527,#527 #0527 BEDBATH&BEYOND#00527 BEDBATH&BEYOND#0527 BEDBATH&BEYOND#527 BEDBATH&BEYOND0527,2601 Larkspur Landing Circle,CA,94939
Bed Bath & Beyond,Liverpool,528,#528 #0528 BEDBATH&BEYOND#00528 BEDBATH&BEYOND#0528 BEDBATH&BEYOND#528 BEDBATH&BEYOND0528,3853 State Route 31,NY,13090
Bed Bath & Beyond,Savannah,529,#529 #0529 BEDBATH&BEYOND#00529 BEDBATH&BEYOND#0529 BEDBATH&BEYOND#529 BEDBATH&BEYOND0529,7400 Abercorn Street,GA,31406
Bed Bath & Beyond,Waterloo,530,#530 #0530 BEDBATH&BEYOND#00530 BEDBATH&BEYOND#0530 BEDBATH&BEYOND#530 BEDBATH&BEYOND0530,1522 Flammang Drive,IA,50702
Bed Bath & Beyond,Racine,531,#531 #0531 BEDBATH&BEYOND#00531 BEDBATH&BEYOND#0531 BEDBATH&BEYOND#531 BEDBATH&BEYOND0531,2360 South Green Bay Road,WI,53406
Bed Bath & Beyond,Buffalo,532,#532 #0532 BEDBATH&BEYOND#00532 BEDBATH&BEYOND#0532 BEDBATH&BEYOND#532 BEDBATH&BEYOND0532,1583 Niagara Falls Boulevard,NY,14228
Bed Bath & Beyond,Madison,533,#533 #0533 BEDBATH&BEYOND#00533 BEDBATH&BEYOND#0533 BEDBATH&BEYOND#533 BEDBATH&BEYOND0533,2156 Gallatin Pike North,TN,37115
Bed Bath & Beyond,Manalapan,534,#534 #0534 BEDBATH&BEYOND#00534 BEDBATH&BEYOND#0534 BEDBATH&BEYOND#534 BEDBATH&BEYOND0534,13 Route 9 South,NJ,7726
Bed Bath & Beyond,McAllen,535,#535 #0535 BEDBATH&BEYOND#00535 BEDBATH&BEYOND#0535 BEDBATH&BEYOND#535 BEDBATH&BEYOND0535,620 East Expressway 83,TX,78503
Bed Bath & Beyond,Turlock,536,#536 #0536 BEDBATH&BEYOND#00536 BEDBATH&BEYOND#0536 BEDBATH&BEYOND#536 BEDBATH&BEYOND0536,2851 Countryside Drive,CA,95380
Bed Bath & Beyond,Laredo,537,#537 #0537 BEDBATH&BEYOND#00537 BEDBATH&BEYOND#0537 BEDBATH&BEYOND#537 BEDBATH&BEYOND0537,7609 San Dario Avenue,TX,78045
Bed Bath & Beyond,Riverside,538,#538 #0538 BEDBATH&BEYOND#00538 BEDBATH&BEYOND#0538 BEDBATH&BEYOND#538 BEDBATH&BEYOND0538,3700 Tyler Street,CA,92503
Bed Bath & Beyond,Redwood City,539,#539 #0539 BEDBATH&BEYOND#00539 BEDBATH&BEYOND#0539 BEDBATH&BEYOND#539 BEDBATH&BEYOND0539,1950 El Camino Real,CA,94063
Bed Bath & Beyond,Capitola,540,#540 #0540 BEDBATH&BEYOND#00540 BEDBATH&BEYOND#0540 BEDBATH&BEYOND#540 BEDBATH&BEYOND0540,3555 Clares Street,CA,95010
Bed Bath & Beyond,White Marsh,541,#541 #0541 BEDBATH&BEYOND#00541 BEDBATH&BEYOND#0541 BEDBATH&BEYOND#541 BEDBATH&BEYOND0541,5210 Campbell Boulevard,MD,21236
Bed Bath & Beyond,Nashua,542,#542 #0542 BEDBATH&BEYOND#00542 BEDBATH&BEYOND#0542 BEDBATH&BEYOND#542 BEDBATH&BEYOND0542,"261 Daniel Webster Highway, Unit 1",NH,3060
Bed Bath & Beyond,Largo,543,#543 #0543 BEDBATH&BEYOND#00543 BEDBATH&BEYOND#0543 BEDBATH&BEYOND#543 BEDBATH&BEYOND0543,10500 Ulmerton Road,FL,33771
Bed Bath & Beyond,Edmond,544,#544 #0544 BEDBATH&BEYOND#00544 BEDBATH&BEYOND#0544 BEDBATH&BEYOND#544 BEDBATH&BEYOND0544,412 South Bryant Avenue,OK,73034
Bed Bath & Beyond,Fayetteville,545,#545 #0545 BEDBATH&BEYOND#00545 BEDBATH&BEYOND#0545 BEDBATH&BEYOND#545 BEDBATH&BEYOND0545,123 Pavilion Parkway,GA,30214
Bed Bath & Beyond,Antioch,546,#546 #0546 BEDBATH&BEYOND#00546 BEDBATH&BEYOND#0546 BEDBATH&BEYOND#546 BEDBATH&BEYOND0546,5301 Hickory Hollow Parkway,TN,37013
Bed Bath & Beyond,Tyler,547,#547 #0547 BEDBATH&BEYOND#00547 BEDBATH&BEYOND#0547 BEDBATH&BEYOND#547 BEDBATH&BEYOND0547,4820 South Broadway Avenue,TX,75703
Bed Bath & Beyond,Houma,548,#548 #0548 BEDBATH&BEYOND#00548 BEDBATH&BEYOND#0548 BEDBATH&BEYOND#548 BEDBATH&BEYOND0548,1636 Martin Luther King Boulevard,LA,70360
Bed Bath & Beyond,DeKalb,549,#549 #0549 BEDBATH&BEYOND#00549 BEDBATH&BEYOND#0549 BEDBATH&BEYOND#549 BEDBATH&BEYOND0549,2530 Sycamore Road,IL,60115
Bed Bath & Beyond,Middletown,550,#550 #0550 BEDBATH&BEYOND#00550 BEDBATH&BEYOND#0550 BEDBATH&BEYOND#550 BEDBATH&BEYOND0550,288 East Main Road,RI,2842
Bed Bath & Beyond,Bradenton,551,#551 #0551 BEDBATH&BEYOND#00551 BEDBATH&BEYOND#0551 BEDBATH&BEYOND#551 BEDBATH&BEYOND0551,825 Cortez Road West,FL,34207
Bed Bath & Beyond,Minnetonka,552,#552 #0552 BEDBATH&BEYOND#00552 BEDBATH&BEYOND#0552 BEDBATH&BEYOND#552 BEDBATH&BEYOND0552,11240 Wayzata Boulevard,MN,55305
Bed Bath & Beyond,East Elmhurst,553,#553 #0553 BEDBATH&BEYOND#00553 BEDBATH&BEYOND#0553 BEDBATH&BEYOND#553 BEDBATH&BEYOND0553,72-15 25th Avenue,NY,11370
Bed Bath & Beyond,Harrisonburg,554,#554 #0554 BEDBATH&BEYOND#00554 BEDBATH&BEYOND#0554 BEDBATH&BEYOND#554 BEDBATH&BEYOND0554,283 Burgess Road,VA,22801
Bed Bath & Beyond,Saratoga Springs,555,#555 #0555 BEDBATH&BEYOND#00555 BEDBATH&BEYOND#0555 BEDBATH&BEYOND#555 BEDBATH&BEYOND0555,3064 Route 50,NY,12866
Bed Bath & Beyond,St.Augustine,556,#556 #0556 BEDBATH&BEYOND#00556 BEDBATH&BEYOND#0556 BEDBATH&BEYOND#556 BEDBATH&BEYOND0556,320 Cobblestone Drive,FL,32086
Bed Bath & Beyond,Chattanooga,558,#558 #0558 BEDBATH&BEYOND#00558 BEDBATH&BEYOND#0558 BEDBATH&BEYOND#558 BEDBATH&BEYOND0558,2040 Hamilton Place Boulevard,TN,37421
Bed Bath & Beyond,Coeur d'Alene,559,#559 #0559 BEDBATH&BEYOND#00559 BEDBATH&BEYOND#0559 BEDBATH&BEYOND#559 BEDBATH&BEYOND0559,440 West Wilbur Avenue,ID,83815
Bed Bath & Beyond,Fayetteville,560,#560 #0560 BEDBATH&BEYOND#00560 BEDBATH&BEYOND#0560 BEDBATH&BEYOND#560 BEDBATH&BEYOND0560,5075 Morganton Road,NC,28314
Bed Bath & Beyond,Dubuque,561,#561 #0561 BEDBATH&BEYOND#00561 BEDBATH&BEYOND#0561 BEDBATH&BEYOND#561 BEDBATH&BEYOND0561,2475 Northwest Arterial,IA,52002
Bed Bath & Beyond,Eureka,562,#562 #0562 BEDBATH&BEYOND#00562 BEDBATH&BEYOND#0562 BEDBATH&BEYOND#562 BEDBATH&BEYOND0562,3300 Broadway Street,CA,95501
Bed Bath & Beyond,Carson City,563,#563 #0563 BEDBATH&BEYOND#00563 BEDBATH&BEYOND#0563 BEDBATH&BEYOND#563 BEDBATH&BEYOND0563,911 Topsy Lane,NV,89705
Bed Bath & Beyond,Carmel,564,#564 #0564 BEDBATH&BEYOND#00564 BEDBATH&BEYOND#0564 BEDBATH&BEYOND#564 BEDBATH&BEYOND0564,1950 East Greyhound Pass,IN,46033
Bed Bath & Beyond,New York,565,#565 #0565 BEDBATH&BEYOND#00565 BEDBATH&BEYOND#0565 BEDBATH&BEYOND#565 BEDBATH&BEYOND0565,1932 Broadway at 65th Street,NY,10023
Bed Bath & Beyond,Schenectady,566,#566 #0566 BEDBATH&BEYOND#00566 BEDBATH&BEYOND#0566 BEDBATH&BEYOND#566 BEDBATH&BEYOND0566,436 Balltown Road,NY,12304
Bed Bath & Beyond,Kingston,567,#567 #0567 BEDBATH&BEYOND#00567 BEDBATH&BEYOND#0567 BEDBATH&BEYOND#567 BEDBATH&BEYOND0567,1187 Ulster Avenue,NY,12401
Bed Bath & Beyond,San Diego,568,#568 #0568 BEDBATH&BEYOND#00568 BEDBATH&BEYOND#0568 BEDBATH&BEYOND#568 BEDBATH&BEYOND0568,8150 Mira Mesa Boulevard,CA,92126
Bed Bath & Beyond,Bel Air,570,#570 #0570 BEDBATH&BEYOND#00570 BEDBATH&BEYOND#0570 BEDBATH&BEYOND#570 BEDBATH&BEYOND0570,559 Baltimore Pike,MD,21014
Bed Bath & Beyond,Cedar Park,571,#571 #0571 BEDBATH&BEYOND#00571 BEDBATH&BEYOND#0571 BEDBATH&BEYOND#571 BEDBATH&BEYOND0571,"11066 Pecan Park Boulevard, Building 1",TX,78613
Bed Bath & Beyond,North Charleston,572,#572 #0572 BEDBATH&BEYOND#00572 BEDBATH&BEYOND#0572 BEDBATH&BEYOND#572 BEDBATH&BEYOND0572,7250 Rivers Avenue,SC,29406
Bed Bath & Beyond,Issaquah,574,#574 #0574 BEDBATH&BEYOND#00574 BEDBATH&BEYOND#0574 BEDBATH&BEYOND#574 BEDBATH&BEYOND0574,775 Northwest Gilman Boulevard,WA,98027
Bed Bath & Beyond,Mentor,576,#576 #0576 BEDBATH&BEYOND#00576 BEDBATH&BEYOND#0576 BEDBATH&BEYOND#576 BEDBATH&BEYOND0576,9700 Mentor Avenue,OH,44060
Bed Bath & Beyond,Guaynabo,577,#577 #0577 BEDBATH&BEYOND#00577 BEDBATH&BEYOND#0577 BEDBATH&BEYOND#577 BEDBATH&BEYOND0577,Roosevelt Avenue Corner-San Patricio Avenue,PR,968
Bed Bath & Beyond,Baton Rouge,578,#578 #0578 BEDBATH&BEYOND#00578 BEDBATH&BEYOND#0578 BEDBATH&BEYOND#578 BEDBATH&BEYOND0578,9001 Florida Boulevard,LA,70815
Bed Bath & Beyond,Miami,579,#579 #0579 BEDBATH&BEYOND#00579 BEDBATH&BEYOND#0579 BEDBATH&BEYOND#579 BEDBATH&BEYOND0579,10640 Northwest 19th Street,FL,33172
Bed Bath & Beyond,Lake Charles,580,#580 #0580 BEDBATH&BEYOND#00580 BEDBATH&BEYOND#0580 BEDBATH&BEYOND#580 BEDBATH&BEYOND0580,1768 West Prien Lake Road,LA,70601
Bed Bath & Beyond,Palmdale,581,#581 #0581 BEDBATH&BEYOND#00581 BEDBATH&BEYOND#0581 BEDBATH&BEYOND#581 BEDBATH&BEYOND0581,39421 10th Street West,CA,93551
Bed Bath & Beyond,Monroe,582,#582 #0582 BEDBATH&BEYOND#00582 BEDBATH&BEYOND#0582 BEDBATH&BEYOND#582 BEDBATH&BEYOND0582,4239 Pecanland Mall Drive,LA,71203
Bed Bath & Beyond,Antioch,583,#583 #0583 BEDBATH&BEYOND#00583 BEDBATH&BEYOND#0583 BEDBATH&BEYOND#583 BEDBATH&BEYOND0583,5719 Lone Tree Way,CA,94531
Bed Bath & Beyond,Springfield,584,#584 #0584 BEDBATH&BEYOND#00584 BEDBATH&BEYOND#0584 BEDBATH&BEYOND#584 BEDBATH&BEYOND0584,3251 South Veterans Parkway,IL,62704
Bed Bath & Beyond,College Station,585,#585 #0585 BEDBATH&BEYOND#00585 BEDBATH&BEYOND#0585 BEDBATH&BEYOND#585 BEDBATH&BEYOND0585,1430 Texas Avenue South,TX,77840
Bed Bath & Beyond,Hazelwood,586,#586 #0586 BEDBATH&BEYOND#00586 BEDBATH&BEYOND#0586 BEDBATH&BEYOND#586 BEDBATH&BEYOND0586,5555 St. Louis Mills Boulevard,MO,63042
Bed Bath & Beyond,Chico,587,#587 #0587 BEDBATH&BEYOND#00587 BEDBATH&BEYOND#0587 BEDBATH&BEYOND#587 BEDBATH&BEYOND0587,2101 Dr. Martin Luther King Jr. Parkway,CA,95928
Bed Bath & Beyond,Chicago Ridge,588,#588 #0588 BEDBATH&BEYOND#00588 BEDBATH&BEYOND#0588 BEDBATH&BEYOND#588 BEDBATH&BEYOND0588,9650 South Ridgeland Avenue,IL,60415
Bed Bath & Beyond,Mobile,590,#590 #0590 BEDBATH&BEYOND#00590 BEDBATH&BEYOND#0590 BEDBATH&BEYOND#590 BEDBATH&BEYOND0590,3725 Airport Boulevard,AL,36608
Bed Bath & Beyond,Avondale,591,#591 #0591 BEDBATH&BEYOND#00591 BEDBATH&BEYOND#0591 BEDBATH&BEYOND#591 BEDBATH&BEYOND0591,10060 West McDowell Road,AZ,85323
Bed Bath & Beyond,Charleston,592,#592 #0592 BEDBATH&BEYOND#00592 BEDBATH&BEYOND#0592 BEDBATH&BEYOND#592 BEDBATH&BEYOND0592,946 Orleans Road,SC,29407
Bed Bath & Beyond,Columbia,593,#593 #0593 BEDBATH&BEYOND#00593 BEDBATH&BEYOND#0593 BEDBATH&BEYOND#593 BEDBATH&BEYOND0593,10136 Two Notch Road,SC,29229
Bed Bath & Beyond,Madison,594,#594 #0594 BEDBATH&BEYOND#00594 BEDBATH&BEYOND#0594 BEDBATH&BEYOND#594 BEDBATH&BEYOND0594,4275 Lien Road,WI,53704
Bed Bath & Beyond,Cincinnati,595,#595 #0595 BEDBATH&BEYOND#00595 BEDBATH&BEYOND#0595 BEDBATH&BEYOND#595 BEDBATH&BEYOND0595,6068 Glenway Avenue,OH,45211
Bed Bath & Beyond,Jackson,596,#596 #0596 BEDBATH&BEYOND#00596 BEDBATH&BEYOND#0596 BEDBATH&BEYOND#596 BEDBATH&BEYOND0596,1081 Vann Drive,TN,38305
Bed Bath & Beyond,Shelton,597,#597 #0597 BEDBATH&BEYOND#00597 BEDBATH&BEYOND#0597 BEDBATH&BEYOND#597 BEDBATH&BEYOND0597,862 Bridgeport Avenue,CT,6484
Bed Bath & Beyond,Hollywood,598,#598 #0598 BEDBATH&BEYOND#00598 BEDBATH&BEYOND#0598 BEDBATH&BEYOND#598 BEDBATH&BEYOND0598,5511 Sheridan Street,FL,33021
Bed Bath & Beyond,Corona,603,#603 #0603 BEDBATH&BEYOND#00603 BEDBATH&BEYOND#0603 BEDBATH&BEYOND#603 BEDBATH&BEYOND0603,2563 Tuscany Street,CA,92881
Bed Bath & Beyond,Carbondale,604,#604 #0604 BEDBATH&BEYOND#00604 BEDBATH&BEYOND#0604 BEDBATH&BEYOND#604 BEDBATH&BEYOND0604,1265 East Main Street,IL,62901
Bed Bath & Beyond,Parker,605,#605 #0605 BEDBATH&BEYOND#00605 BEDBATH&BEYOND#0605 BEDBATH&BEYOND#605 BEDBATH&BEYOND0605,11435 Twenty Mile Road,CO,80134
Bed Bath & Beyond,Surprise,606,#606 #0606 BEDBATH&BEYOND#00606 BEDBATH&BEYOND#0606 BEDBATH&BEYOND#606 BEDBATH&BEYOND0606,13723 West Bell Road,AZ,85374
Bed Bath & Beyond,Cleveland,607,#607 #0607 BEDBATH&BEYOND#00607 BEDBATH&BEYOND#0607 BEDBATH&BEYOND#607 BEDBATH&BEYOND0607,4766 Ridge Road,OH,44144
Bed Bath & Beyond,Gilroy,608,#608 #0608 BEDBATH&BEYOND#00608 BEDBATH&BEYOND#0608 BEDBATH&BEYOND#608 BEDBATH&BEYOND0608,6725 Camino Arroyo,CA,95020
Bed Bath & Beyond,Seattle,609,#609 #0609 BEDBATH&BEYOND#00609 BEDBATH&BEYOND#0609 BEDBATH&BEYOND#609 BEDBATH&BEYOND0609,2600 Southwest Barton Street,WA,98126
Bed Bath & Beyond,Lansing,610,#610 #0610 BEDBATH&BEYOND#00610 BEDBATH&BEYOND#0610 BEDBATH&BEYOND#610 BEDBATH&BEYOND0610,5845 West Saginaw Highway,MI,48917
Bed Bath & Beyond,Keene,612,#612 #0612 BEDBATH&BEYOND#00612 BEDBATH&BEYOND#0612 BEDBATH&BEYOND#612 BEDBATH&BEYOND0612,32 Ash Brook Road,NH,3431
Bed Bath & Beyond,Orlando,613,#613 #0613 BEDBATH&BEYOND#00613 BEDBATH&BEYOND#0613 BEDBATH&BEYOND#613 BEDBATH&BEYOND0613,730 Sand Lake Road,FL,32809
Bed Bath & Beyond,Lufkin,614,#614 #0614 BEDBATH&BEYOND#00614 BEDBATH&BEYOND#0614 BEDBATH&BEYOND#614 BEDBATH&BEYOND0614,4505 South Medford Drive,TX,75901
Bed Bath & Beyond,Abilene,615,#615 #0615 BEDBATH&BEYOND#00615 BEDBATH&BEYOND#0615 BEDBATH&BEYOND#615 BEDBATH&BEYOND0615,3417 Catclaw Drive,TX,79606
Bed Bath & Beyond,Newton,616,#616 #0616 BEDBATH&BEYOND#00616 BEDBATH&BEYOND#0616 BEDBATH&BEYOND#616 BEDBATH&BEYOND0616,27A Route 206,NJ,7860
Bed Bath & Beyond,Stafford,617,#617 #0617 BEDBATH&BEYOND#00617 BEDBATH&BEYOND#0617 BEDBATH&BEYOND#617 BEDBATH&BEYOND0617,1190 Stafford Market Place,VA,22556
Bed Bath & Beyond,Kokomo,618,#618 #0618 BEDBATH&BEYOND#00618 BEDBATH&BEYOND#0618 BEDBATH&BEYOND#618 BEDBATH&BEYOND0618,1411 South Reed Road,IN,46902
Bed Bath & Beyond,Plattsburgh,619,#619 #0619 BEDBATH&BEYOND#00619 BEDBATH&BEYOND#0619 BEDBATH&BEYOND#619 BEDBATH&BEYOND0619,73 Centre Drive,NY,12901
Bed Bath & Beyond,Southington,621,#621 #0621 BEDBATH&BEYOND#00621 BEDBATH&BEYOND#0621 BEDBATH&BEYOND#621 BEDBATH&BEYOND0621,835 Queen Street,CT,6489
Bed Bath & Beyond,Kansas City,622,#622 #0622 BEDBATH&BEYOND#00622 BEDBATH&BEYOND#0622 BEDBATH&BEYOND#622 BEDBATH&BEYOND0622,8520 North Evanston Avenue,MO,64157
Bed Bath & Beyond,Frankfort,623,#623 #0623 BEDBATH&BEYOND#00623 BEDBATH&BEYOND#0623 BEDBATH&BEYOND#623 BEDBATH&BEYOND0623,11165 West Lincoln Highway,IL,60423
Bed Bath & Beyond,Fort Worth,624,#624 #0624 BEDBATH&BEYOND#00624 BEDBATH&BEYOND#0624 BEDBATH&BEYOND#624 BEDBATH&BEYOND0624,7616 Denton Highway,TX,76148
Bed Bath & Beyond,Arlington,625,#625 #0625 BEDBATH&BEYOND#00625 BEDBATH&BEYOND#0625 BEDBATH&BEYOND#625 BEDBATH&BEYOND0625,800 Road To Six Flags East,TX,76011
Bed Bath & Beyond,Idaho Falls,626,#626 #0626 BEDBATH&BEYOND#00626 BEDBATH&BEYOND#0626 BEDBATH&BEYOND#626 BEDBATH&BEYOND0626,3011 South 25th East,ID,83406
Bed Bath & Beyond,Jersey City,627,#627 #0627 BEDBATH&BEYOND#00627 BEDBATH&BEYOND#0627 BEDBATH&BEYOND#627 BEDBATH&BEYOND0627,400 Luis Munoz Marin Boulevard,NJ,7302
Bed Bath & Beyond,Joliet,628,#628 #0628 BEDBATH&BEYOND#00628 BEDBATH&BEYOND#0628 BEDBATH&BEYOND#628 BEDBATH&BEYOND0628,2850 Plainfield Road,IL,60435
Bed Bath & Beyond,Farmingdale,629,#629 #0629 BEDBATH&BEYOND#00629 BEDBATH&BEYOND#0629 BEDBATH&BEYOND#629 BEDBATH&BEYOND0629,251 Airport Plaza Boulevard,NY,11735
Bed Bath & Beyond,Roanoke,630,#630 #0630 BEDBATH&BEYOND#00630 BEDBATH&BEYOND#0630 BEDBATH&BEYOND#630 BEDBATH&BEYOND0630,1421 Towne Square Boulevard Northwest,VA,24012
Bed Bath & Beyond,Norridge,631,#631 #0631 BEDBATH&BEYOND#00631 BEDBATH&BEYOND#0631 BEDBATH&BEYOND#631 BEDBATH&BEYOND0631,4107 North Harlem Avenue,IL,60706
Bed Bath & Beyond,Lubbock,632,#632 #0632 BEDBATH&BEYOND#00632 BEDBATH&BEYOND#0632 BEDBATH&BEYOND#632 BEDBATH&BEYOND0632,6241 Slide Road,TX,79414
Bed Bath & Beyond,Portland,633,#633 #0633 BEDBATH&BEYOND#00633 BEDBATH&BEYOND#0633 BEDBATH&BEYOND#633 BEDBATH&BEYOND0633,9918 Southeast Washington Street,OR,97216
Bed Bath & Beyond,Stoughton,634,#634 #0634 BEDBATH&BEYOND#00634 BEDBATH&BEYOND#0634 BEDBATH&BEYOND#634 BEDBATH&BEYOND0634,1360 Park Street,MA,2072
Bed Bath & Beyond,Stockton,635,#635 #0635 BEDBATH&BEYOND#00635 BEDBATH&BEYOND#0635 BEDBATH&BEYOND#635 BEDBATH&BEYOND0635,10822 Trinity Parkway,CA,95219
Bed Bath & Beyond,Sacramento,636,#636 #0636 BEDBATH&BEYOND#00636 BEDBATH&BEYOND#0636 BEDBATH&BEYOND#636 BEDBATH&BEYOND0636,3611 North Freeway Boulevard,CA,95834
Bed Bath & Beyond,Cedar Hill,637,#637 #0637 BEDBATH&BEYOND#00637 BEDBATH&BEYOND#0637 BEDBATH&BEYOND#637 BEDBATH&BEYOND0637,723 North Highway 67,TX,75104
Bed Bath & Beyond,Columbus,752,#752 #0752 BEDBATH&BEYOND#00752 BEDBATH&BEYOND#0752 BEDBATH&BEYOND#752 BEDBATH&BEYOND0752,1786 Hilliard Rome Road,OH,43026
Bed Bath & Beyond,Plainview,754,#754 #0754 BEDBATH&BEYOND#00754 BEDBATH&BEYOND#0754 BEDBATH&BEYOND#754 BEDBATH&BEYOND0754,401 South Oyster Bay Road,NY,11803
Bed Bath & Beyond,Parsippany,755,#755 #0755 BEDBATH&BEYOND#00755 BEDBATH&BEYOND#0755 BEDBATH&BEYOND#755 BEDBATH&BEYOND0755,790 Route 46,NJ,7054
Bed Bath & Beyond,Hooksett,756,#756 #0756 BEDBATH&BEYOND#00756 BEDBATH&BEYOND#0756 BEDBATH&BEYOND#756 BEDBATH&BEYOND0756,103 Quality Drive,NH,3106
Bed Bath & Beyond,Cranberry Township,757,#757 #0757 BEDBATH&BEYOND#00757 BEDBATH&BEYOND#0757 BEDBATH&BEYOND#757 BEDBATH&BEYOND0757,20111 Route 19,PA,16066
Bed Bath & Beyond,Columbus,758,#758 #0758 BEDBATH&BEYOND#00758 BEDBATH&BEYOND#0758 BEDBATH&BEYOND#758 BEDBATH&BEYOND0758,1125 North National Road,IN,47201
Bed Bath & Beyond,Sanford,759,#759 #0759 BEDBATH&BEYOND#00759 BEDBATH&BEYOND#0759 BEDBATH&BEYOND#759 BEDBATH&BEYOND0759,111 Towne Center Boulevard,FL,32771
Bed Bath & Beyond,East Wenatchee,760,#760 #0760 BEDBATH&BEYOND#00760 BEDBATH&BEYOND#0760 BEDBATH&BEYOND#760 BEDBATH&BEYOND0760,511 Valley Mall Parkway,WA,98802
Bed Bath & Beyond,Lawrence,761,#761 #0761 BEDBATH&BEYOND#00761 BEDBATH&BEYOND#0761 BEDBATH&BEYOND#761 BEDBATH&BEYOND0761,3106 Iowa Street,KS,66046
Bed Bath & Beyond,Traverse City,762,#762 #0762 BEDBATH&BEYOND#00762 BEDBATH&BEYOND#0762 BEDBATH&BEYOND#762 BEDBATH&BEYOND0762,3301 North U.S. 31,MI,49684
Bed Bath & Beyond,Raynham,763,#763 #0763 BEDBATH&BEYOND#00763 BEDBATH&BEYOND#0763 BEDBATH&BEYOND#763 BEDBATH&BEYOND0763,600 South Street West,MA,2767
Bed Bath & Beyond,Park City,764,#764 #0764 BEDBATH&BEYOND#00764 BEDBATH&BEYOND#0764 BEDBATH&BEYOND#764 BEDBATH&BEYOND0764,1678 West Redstone Center Drive,UT,84098
Bed Bath & Beyond,Fredericksburg,765,#765 #0765 BEDBATH&BEYOND#00765 BEDBATH&BEYOND#0765 BEDBATH&BEYOND#765 BEDBATH&BEYOND0765,3700 Plank Road,VA,22407
Bed Bath & Beyond,Tucson,766,#766 #0766 BEDBATH&BEYOND#00766 BEDBATH&BEYOND#0766 BEDBATH&BEYOND#766 BEDBATH&BEYOND0766,6310 North Oracle Road,AZ,85704
Bed Bath & Beyond,Port Chester,767,#767 #0767 BEDBATH&BEYOND#00767 BEDBATH&BEYOND#0767 BEDBATH&BEYOND#767 BEDBATH&BEYOND0767,25 Waterfront Place,NY,10573
Bed Bath & Beyond,Mason,768,#768 #0768 BEDBATH&BEYOND#00768 BEDBATH&BEYOND#0768 BEDBATH&BEYOND#768 BEDBATH&BEYOND0768,5800 Deerfield Boulevard,OH,45040
Bed Bath & Beyond,Waco,769,#769 #0769 BEDBATH&BEYOND#00769 BEDBATH&BEYOND#0769 BEDBATH&BEYOND#769 BEDBATH&BEYOND0769,2512 West Loop 340,TX,76711
Bed Bath & Beyond,East Northport,770,#770 #0770 BEDBATH&BEYOND#00770 BEDBATH&BEYOND#0770 BEDBATH&BEYOND#770 BEDBATH&BEYOND0770,3083 Jericho Turnpike,NY,11731
Bed Bath & Beyond,Omaha,771,#771 #0771 BEDBATH&BEYOND#00771 BEDBATH&BEYOND#0771 BEDBATH&BEYOND#771 BEDBATH&BEYOND0771,255 North 170th Street,NE,68118
Bed Bath & Beyond,Myrtle Beach,772,#772 #0772 BEDBATH&BEYOND#00772 BEDBATH&BEYOND#0772 BEDBATH&BEYOND#772 BEDBATH&BEYOND0772,2400 Coastal Grand Circle,SC,29577
Bed Bath & Beyond,Spanish Fort,773,#773 #0773 BEDBATH&BEYOND#00773 BEDBATH&BEYOND#0773 BEDBATH&BEYOND#773 BEDBATH&BEYOND0773,30500 Highway 181,AL,36527
Bed Bath & Beyond,Durham,774,#774 #0774 BEDBATH&BEYOND#00774 BEDBATH&BEYOND#0774 BEDBATH&BEYOND#774 BEDBATH&BEYOND0774,3616 Witherspoon Boulevard,NC,27707
Bed Bath & Beyond,Easton,775,#775 #0775 BEDBATH&BEYOND#00775 BEDBATH&BEYOND#0775 BEDBATH&BEYOND#775 BEDBATH&BEYOND0775,4449 Southmont Way,PA,18045
Bed Bath & Beyond,Redlands,776,#776 #0776 BEDBATH&BEYOND#00776 BEDBATH&BEYOND#0776 BEDBATH&BEYOND#776 BEDBATH&BEYOND0776,27450 West Lugonia Avenue,CA,92374
Bed Bath & Beyond,Washington City,777,#777 #0777 BEDBATH&BEYOND#00777 BEDBATH&BEYOND#0777 BEDBATH&BEYOND#777 BEDBATH&BEYOND0777,844 West Telegraph Street,UT,84780
Bed Bath & Beyond,Sherman,778,#778 #0778 BEDBATH&BEYOND#00778 BEDBATH&BEYOND#0778 BEDBATH&BEYOND#778 BEDBATH&BEYOND0778,3710 Town Center Street,TX,75092
Bed Bath & Beyond,Columbia,779,#779 #0779 BEDBATH&BEYOND#00779 BEDBATH&BEYOND#0779 BEDBATH&BEYOND#779 BEDBATH&BEYOND0779,6090 Garners Ferry Road,SC,29209
Bed Bath & Beyond,Woodbridge,780,#780 #0780 BEDBATH&BEYOND#00780 BEDBATH&BEYOND#0780 BEDBATH&BEYOND#780 BEDBATH&BEYOND0780,14101 Crossing Place,VA,22192
Bed Bath & Beyond,Poughkeepsie,781,#781 #0781 BEDBATH&BEYOND#00781 BEDBATH&BEYOND#0781 BEDBATH&BEYOND#781 BEDBATH&BEYOND0781,2020 South Road,NY,12601
Bed Bath & Beyond,Ogden,783,#783 #0783 BEDBATH&BEYOND#00783 BEDBATH&BEYOND#0783 BEDBATH&BEYOND#783 BEDBATH&BEYOND0783,4113 Riverdale Road,UT,84405
Bed Bath & Beyond,Mansfield,784,#784 #0784 BEDBATH&BEYOND#00784 BEDBATH&BEYOND#0784 BEDBATH&BEYOND#784 BEDBATH&BEYOND0784,2259 Walker Lake Road,OH,44903
Bed Bath & Beyond,Wethersfield,785,#785 #0785 BEDBATH&BEYOND#00785 BEDBATH&BEYOND#0785 BEDBATH&BEYOND#785 BEDBATH&BEYOND0785,1065 Silas Deane Highway,CT,6109
Bed Bath & Beyond,Rosemead,786,#786 #0786 BEDBATH&BEYOND#00786 BEDBATH&BEYOND#0786 BEDBATH&BEYOND#786 BEDBATH&BEYOND0786,3560 Rosemead Boulevard,CA,91770
Bed Bath & Beyond,Grove City,787,#787 #0787 BEDBATH&BEYOND#00787 BEDBATH&BEYOND#0787 BEDBATH&BEYOND#787 BEDBATH&BEYOND0787,1747 Stringtown Road,OH,43123
Bed Bath & Beyond,Mount Laurel,788,#788 #0788 BEDBATH&BEYOND#00788 BEDBATH&BEYOND#0788 BEDBATH&BEYOND#788 BEDBATH&BEYOND0788,8 Centerton Road,NJ,8054
Bed Bath & Beyond,Monroeville,789,#789 #0789 BEDBATH&BEYOND#00789 BEDBATH&BEYOND#0789 BEDBATH&BEYOND#789 BEDBATH&BEYOND0789,3739 William Penn Highway,PA,15146
Bed Bath & Beyond,Las Cruces,790,#790 #0790 BEDBATH&BEYOND#00790 BEDBATH&BEYOND#0790 BEDBATH&BEYOND#790 BEDBATH&BEYOND0790,2200 East Lohman Avenue,NM,88001
Bed Bath & Beyond,Forest Park,791,#791 #0791 BEDBATH&BEYOND#00791 BEDBATH&BEYOND#0791 BEDBATH&BEYOND#791 BEDBATH&BEYOND0791,215 Harlem Avenue,IL,60130
Bed Bath & Beyond,Lexington,800,#800 #0800 BEDBATH&BEYOND#00800 BEDBATH&BEYOND#0800 BEDBATH&BEYOND#800 BEDBATH&BEYOND0800,2321 Sir Barton Way,KY,40509
Bed Bath & Beyond,Tupelo,801,#801 #0801 BEDBATH&BEYOND#00801 BEDBATH&BEYOND#0801 BEDBATH&BEYOND#801 BEDBATH&BEYOND0801,3946 North Gloster Street,MS,38802
Bed Bath & Beyond,West Jordan,802,#802 #0802 BEDBATH&BEYOND#00802 BEDBATH&BEYOND#0802 BEDBATH&BEYOND#802 BEDBATH&BEYOND0802,7142 South Plaza Center Drive,UT,84084
Bed Bath & Beyond,Texarkana,803,#803 #0803 BEDBATH&BEYOND#00803 BEDBATH&BEYOND#0803 BEDBATH&BEYOND#803 BEDBATH&BEYOND0803,4248 St. Michael Drive,TX,75503
Bed Bath & Beyond,Upper Arlington,804,#804 #0804 BEDBATH&BEYOND#00804 BEDBATH&BEYOND#0804 BEDBATH&BEYOND#804 BEDBATH&BEYOND0804,1717 West Lane Avenue,OH,43221
Bed Bath & Beyond,Germantown,805,#805 #0805 BEDBATH&BEYOND#00805 BEDBATH&BEYOND#0805 BEDBATH&BEYOND#805 BEDBATH&BEYOND0805,12940 Middlebrook Road,MD,20874
Bed Bath & Beyond,Carolina,806,#806 #0806 BEDBATH&BEYOND#00806 BEDBATH&BEYOND#0806 BEDBATH&BEYOND#806 BEDBATH&BEYOND0806,"State Road #3, Km 14.1",PR,983
Bed Bath & Beyond,Kissimmee,808,#808 #0808 BEDBATH&BEYOND#00808 BEDBATH&BEYOND#0808 BEDBATH&BEYOND#808 BEDBATH&BEYOND0808,3212 North John Young Parkway,FL,34741
Bed Bath & Beyond,Jacksonville,809,#809 #0809 BEDBATH&BEYOND#00809 BEDBATH&BEYOND#0809 BEDBATH&BEYOND#809 BEDBATH&BEYOND0809,9337 Atlantic Boulevard,FL,32225
Bed Bath & Beyond,Somerville,810,#810 #0810 BEDBATH&BEYOND#00810 BEDBATH&BEYOND#0810 BEDBATH&BEYOND#810 BEDBATH&BEYOND0810,119 Middlesex Avenue,MA,2145
Bed Bath & Beyond,Tracy,811,#811 #0811 BEDBATH&BEYOND#00811 BEDBATH&BEYOND#0811 BEDBATH&BEYOND#811 BEDBATH&BEYOND0811,2886 West Grant Line Road,CA,95377
Bed Bath & Beyond,Bend,812,#812 #0812 BEDBATH&BEYOND#00812 BEDBATH&BEYOND#0812 BEDBATH&BEYOND#812 BEDBATH&BEYOND0812,63455 North Highway 97,OR,97701
Bed Bath & Beyond,Mayfield Heights,813,#813 #0813 BEDBATH&BEYOND#00813 BEDBATH&BEYOND#0813 BEDBATH&BEYOND#813 BEDBATH&BEYOND0813,1371 SOM Center Road,OH,44124
Bed Bath & Beyond,Indianapolis,814,#814 #0814 BEDBATH&BEYOND#00814 BEDBATH&BEYOND#0814 BEDBATH&BEYOND#814 BEDBATH&BEYOND0814,6010 West 86th Street,IN,46278
Bed Bath & Beyond,Valparaiso,815,#815 #0815 BEDBATH&BEYOND#00815 BEDBATH&BEYOND#0815 BEDBATH&BEYOND#815 BEDBATH&BEYOND0815,91 Silhavy Road,IN,46383
Bed Bath & Beyond,St. Cloud,816,#816 #0816 BEDBATH&BEYOND#00816 BEDBATH&BEYOND#0816 BEDBATH&BEYOND#816 BEDBATH&BEYOND0816,3959 Second Street South,MN,56301
Bed Bath & Beyond,Hamilton,817,#817 #0817 BEDBATH&BEYOND#00817 BEDBATH&BEYOND#0817 BEDBATH&BEYOND#817 BEDBATH&BEYOND0817,3451 Princeton Road,OH,45011
Bed Bath & Beyond,Westminster,819,#819 #0819 BEDBATH&BEYOND#00819 BEDBATH&BEYOND#0819 BEDBATH&BEYOND#819 BEDBATH&BEYOND0819,200 Clifton Boulevard,MD,21157
Bed Bath & Beyond,Goleta,820,#820 #0820 BEDBATH&BEYOND#00820 BEDBATH&BEYOND#0820 BEDBATH&BEYOND#820 BEDBATH&BEYOND0820,189 North Fairview Avenue,CA,93117
Bed Bath & Beyond,Ventura,821,#821 #0821 BEDBATH&BEYOND#00821 BEDBATH&BEYOND#0821 BEDBATH&BEYOND#821 BEDBATH&BEYOND0821,4040 East Main Street,CA,93003
Bed Bath & Beyond,Elyria,822,#822 #0822 BEDBATH&BEYOND#00822 BEDBATH&BEYOND#0822 BEDBATH&BEYOND#822 BEDBATH&BEYOND0822,445 Midway Boulevard,OH,44035
Bed Bath & Beyond,Altoona,823,#823 #0823 BEDBATH&BEYOND#00823 BEDBATH&BEYOND#0823 BEDBATH&BEYOND#823 BEDBATH&BEYOND0823,197 Falon Lane,PA,16602
Bed Bath & Beyond,Ithaca,824,#824 #0824 BEDBATH&BEYOND#00824 BEDBATH&BEYOND#0824 BEDBATH&BEYOND#824 BEDBATH&BEYOND0824,131 Fairgrounds Memorial Parkway,NY,14850
Bed Bath & Beyond,McKinney,825,#825 #0825 BEDBATH&BEYOND#00825 BEDBATH&BEYOND#0825 BEDBATH&BEYOND#825 BEDBATH&BEYOND0825,3190 South Central Expressway,TX,75070
Bed Bath & Beyond,Johnstown,826,#826 #0826 BEDBATH&BEYOND#00826 BEDBATH&BEYOND#0826 BEDBATH&BEYOND#826 BEDBATH&BEYOND0826,340 Town Centre Drive,PA,15904
Bed Bath & Beyond,West Des Moines,827,#827 #0827 BEDBATH&BEYOND#00827 BEDBATH&BEYOND#0827 BEDBATH&BEYOND#827 BEDBATH&BEYOND0827,6805 Mills Civic Parkway,IA,50266
Bed Bath & Beyond,Auburn,828,#828 #0828 BEDBATH&BEYOND#00828 BEDBATH&BEYOND#0828 BEDBATH&BEYOND#828 BEDBATH&BEYOND0828,217 Grant Avenue,NY,13021
Bed Bath & Beyond,Newburgh,829,#829 #0829 BEDBATH&BEYOND#00829 BEDBATH&BEYOND#0829 BEDBATH&BEYOND#829 BEDBATH&BEYOND0829,1399 Route 300,NY,12550
Bed Bath & Beyond,San Leandro,830,#830 #0830 BEDBATH&BEYOND#00830 BEDBATH&BEYOND#0830 BEDBATH&BEYOND#830 BEDBATH&BEYOND0830,15555 East 14th Street,CA,94578
Bed Bath & Beyond,Raleigh,832,#832 #0832 BEDBATH&BEYOND#00832 BEDBATH&BEYOND#0832 BEDBATH&BEYOND#832 BEDBATH&BEYOND0832,3604 Sumner Boulevard,NC,27616
Bed Bath & Beyond,Melbourne,833,#833 #0833 BEDBATH&BEYOND#00833 BEDBATH&BEYOND#0833 BEDBATH&BEYOND#833 BEDBATH&BEYOND0833,2291 Town Center Avenue,FL,32940
Bed Bath & Beyond,Hermitage,834,#834 #0834 BEDBATH&BEYOND#00834 BEDBATH&BEYOND#0834 BEDBATH&BEYOND#834 BEDBATH&BEYOND0834,4646 Lebanon Pike,TN,37076
Bed Bath & Beyond,Seekonk,836,#836 #0836 BEDBATH&BEYOND#00836 BEDBATH&BEYOND#0836 BEDBATH&BEYOND#836 BEDBATH&BEYOND0836,35 Highland Avenue,MA,2771
Bed Bath & Beyond,Brookfield,837,#837 #0837 BEDBATH&BEYOND#00837 BEDBATH&BEYOND#0837 BEDBATH&BEYOND#837 BEDBATH&BEYOND0837,14 Candlewood Lake Road,CT,6804
Bed Bath & Beyond,Highlands Ranch,838,#838 #0838 BEDBATH&BEYOND#00838 BEDBATH&BEYOND#0838 BEDBATH&BEYOND#838 BEDBATH&BEYOND0838,9315 Dorchester Street,CO,80129
Bed Bath & Beyond,Green Bay,839,#839 #0839 BEDBATH&BEYOND#00839 BEDBATH&BEYOND#0839 BEDBATH&BEYOND#839 BEDBATH&BEYOND0839,825 Pilgrim Way,WI,54304
Bed Bath & Beyond,Miami,840,#840 #0840 BEDBATH&BEYOND#00840 BEDBATH&BEYOND#0840 BEDBATH&BEYOND#840 BEDBATH&BEYOND0840,18437 South Dixie Highway,FL,33157
Bed Bath & Beyond,Concord,841,#841 #0841 BEDBATH&BEYOND#00841 BEDBATH&BEYOND#0841 BEDBATH&BEYOND#841 BEDBATH&BEYOND0841,10 Loudon Road,NH,3301
Bed Bath & Beyond,Howell,842,#842 #0842 BEDBATH&BEYOND#00842 BEDBATH&BEYOND#0842 BEDBATH&BEYOND#842 BEDBATH&BEYOND0842,4075 Route 9,NJ,7731
Bed Bath & Beyond,West Babylon,843,#843 #0843 BEDBATH&BEYOND#00843 BEDBATH&BEYOND#0843 BEDBATH&BEYOND#843 BEDBATH&BEYOND0843,825 West Montauk Highway,NY,11704
Bed Bath & Beyond,North Dartmouth,844,#844 #0844 BEDBATH&BEYOND#00844 BEDBATH&BEYOND#0844 BEDBATH&BEYOND#844 BEDBATH&BEYOND0844,458 State Road (Route 6),MA,2747
Bed Bath & Beyond,Victoria,845,#845 #0845 BEDBATH&BEYOND#00845 BEDBATH&BEYOND#0845 BEDBATH&BEYOND#845 BEDBATH&BEYOND0845,7808 Zac Lentz Parkway,TX,77904
Bed Bath & Beyond,Pompano Beach,846,#846 #0846 BEDBATH&BEYOND#00846 BEDBATH&BEYOND#0846 BEDBATH&BEYOND#846 BEDBATH&BEYOND0846,3459 North Federal Highway,FL,33064
Bed Bath & Beyond,Topeka,848,#848 #0848 BEDBATH&BEYOND#00848 BEDBATH&BEYOND#0848 BEDBATH&BEYOND#848 BEDBATH&BEYOND0848,1900 Southwest Wanamaker Road,KS,66604
Bed Bath & Beyond,Pittsfield,849,#849 #0849 BEDBATH&BEYOND#00849 BEDBATH&BEYOND#0849 BEDBATH&BEYOND#849 BEDBATH&BEYOND0849,665 Merrill Road,MA,1201
Bed Bath & Beyond,Bohemia,850,#850 #0850 BEDBATH&BEYOND#00850 BEDBATH&BEYOND#0850 BEDBATH&BEYOND#850 BEDBATH&BEYOND0850,5131 Sunrise Highway,NY,11716
Bed Bath & Beyond,San Angelo,851,#851 #0851 BEDBATH&BEYOND#00851 BEDBATH&BEYOND#0851 BEDBATH&BEYOND#851 BEDBATH&BEYOND0851,4169 Sunset Drive,TX,76904
Bed Bath & Beyond,Pearland,1001,#1001 #01001 BEDBATH&BEYOND#001001 BEDBATH&BEYOND#01001 BEDBATH&BEYOND#1001 BEDBATH&BEYOND01001,2750 Smith Ranch Road,TX,77584
Bed Bath & Beyond,San Antonio,1002,#1002 #01002 BEDBATH&BEYOND#001002 BEDBATH&BEYOND#01002 BEDBATH&BEYOND#1002 BEDBATH&BEYOND01002,6001 Northwest Loop 410,TX,78238
Bed Bath & Beyond,Vernon Hills,1003,#1003 #01003 BEDBATH&BEYOND#001003 BEDBATH&BEYOND#01003 BEDBATH&BEYOND#1003 BEDBATH&BEYOND01003,413 Milwaukee Avenue,IL,60061
Bed Bath & Beyond,Victorville,1004,#1004 #01004 BEDBATH&BEYOND#001004 BEDBATH&BEYOND#01004 BEDBATH&BEYOND#1004 BEDBATH&BEYOND01004,12410 Amargosa Road,CA,92392
Bed Bath & Beyond,Canton,1005,#1005 #01005 BEDBATH&BEYOND#001005 BEDBATH&BEYOND#01005 BEDBATH&BEYOND#1005 BEDBATH&BEYOND01005,41936 Ford Road,MI,48187
Bed Bath & Beyond,Walker,1006,#1006 #01006 BEDBATH&BEYOND#001006 BEDBATH&BEYOND#01006 BEDBATH&BEYOND#1006 BEDBATH&BEYOND01006,3410 Alpine Avenue Northwest,MI,49544
Bed Bath & Beyond,Dover,1007,#1007 #01007 BEDBATH&BEYOND#001007 BEDBATH&BEYOND#01007 BEDBATH&BEYOND#1007 BEDBATH&BEYOND01007,875 Central Avenue,NH,3820
Bed Bath & Beyond,Staten Island,1009,#1009 #01009 BEDBATH&BEYOND#001009 BEDBATH&BEYOND#01009 BEDBATH&BEYOND#1009 BEDBATH&BEYOND01009,2795 Richmond Avenue,NY,10314
Bed Bath & Beyond,Port Richey,1010,#1010 #01010 BEDBATH&BEYOND#001010 BEDBATH&BEYOND#01010 BEDBATH&BEYOND#1010 BEDBATH&BEYOND01010,9642 U.S. Highway 19,FL,34668
Bed Bath & Beyond,Aberdeen,1011,#1011 #01011 BEDBATH&BEYOND#001011 BEDBATH&BEYOND#01011 BEDBATH&BEYOND#1011 BEDBATH&BEYOND01011,11088 North U.S. 15-501,NC,28315
Bed Bath & Beyond,Greeley,1012,#1012 #01012 BEDBATH&BEYOND#001012 BEDBATH&BEYOND#01012 BEDBATH&BEYOND#1012 BEDBATH&BEYOND01012,4735 West 29th Street,CO,80634
Bed Bath & Beyond,Pueblo,1013,#1013 #01013 BEDBATH&BEYOND#001013 BEDBATH&BEYOND#01013 BEDBATH&BEYOND#1013 BEDBATH&BEYOND01013,5737 North Elizabeth Street,CO,81008
Bed Bath & Beyond,Atlanta,1014,#1014 #01014 BEDBATH&BEYOND#001014 BEDBATH&BEYOND#01014 BEDBATH&BEYOND#1014 BEDBATH&BEYOND01014,1235 Caroline Street Northeast,GA,30307
Bed Bath & Beyond,Staten Island,1015,#1015 #01015 BEDBATH&BEYOND#001015 BEDBATH&BEYOND#01015 BEDBATH&BEYOND#1015 BEDBATH&BEYOND01015,2700 Veterans Road West,NY,10309
Bed Bath & Beyond,Rockaway,1017,#1017 #01017 BEDBATH&BEYOND#001017 BEDBATH&BEYOND#01017 BEDBATH&BEYOND#1017 BEDBATH&BEYOND01017,202 Enterprise Drive,NJ,7866
Bed Bath & Beyond,Alabaster,1018,#1018 #01018 BEDBATH&BEYOND#001018 BEDBATH&BEYOND#01018 BEDBATH&BEYOND#1018 BEDBATH&BEYOND01018,300 Colonial Promenade Parkway,AL,35007
Bed Bath & Beyond,Paramus,1019,#1019 #01019 BEDBATH&BEYOND#001019 BEDBATH&BEYOND#01019 BEDBATH&BEYOND#1019 BEDBATH&BEYOND01019,300 Ikea Drive,NJ,7652
Bed Bath & Beyond,Burbank,1020,#1020 #01020 BEDBATH&BEYOND#001020 BEDBATH&BEYOND#01020 BEDBATH&BEYOND#1020 BEDBATH&BEYOND01020,201 East Magnolia Boulevard,CA,91501
Bed Bath & Beyond,Omaha,1021,#1021 #01021 BEDBATH&BEYOND#001021 BEDBATH&BEYOND#01021 BEDBATH&BEYOND#1021 BEDBATH&BEYOND01021,1220 South 71st Street,NE,68106
Bed Bath & Beyond,Burlington,1022,#1022 #01022 BEDBATH&BEYOND#001022 BEDBATH&BEYOND#01022 BEDBATH&BEYOND#1022 BEDBATH&BEYOND01022,1463 University Drive,NC,27215
Bed Bath & Beyond,Fairfield,1023,#1023 #01023 BEDBATH&BEYOND#001023 BEDBATH&BEYOND#01023 BEDBATH&BEYOND#1023 BEDBATH&BEYOND01023,2260 Kings Highway,CT,6824
Bed Bath & Beyond,Rockwall,1024,#1024 #01024 BEDBATH&BEYOND#001024 BEDBATH&BEYOND#01024 BEDBATH&BEYOND#1024 BEDBATH&BEYOND01024,963 Interstate 30 East,TX,75087
Bed Bath & Beyond,Upland,1025,#1025 #01025 BEDBATH&BEYOND#001025 BEDBATH&BEYOND#01025 BEDBATH&BEYOND#1025 BEDBATH&BEYOND01025,1865 North Campus Avenue,CA,91784
Bed Bath & Beyond,Saugus,1026,#1026 #01026 BEDBATH&BEYOND#001026 BEDBATH&BEYOND#01026 BEDBATH&BEYOND#1026 BEDBATH&BEYOND01026,367 Broadway,MA,1906
Bed Bath & Beyond,Williamsburg,1027,#1027 #01027 BEDBATH&BEYOND#001027 BEDBATH&BEYOND#01027 BEDBATH&BEYOND#1027 BEDBATH&BEYOND01027,4900 Monticello Avenue,VA,23188
Bed Bath & Beyond,Lakeland,1028,#1028 #01028 BEDBATH&BEYOND#001028 BEDBATH&BEYOND#01028 BEDBATH&BEYOND#1028 BEDBATH&BEYOND01028,1500 Town Center Drive,FL,33803
Bed Bath & Beyond,Hattiesburg,1029,#1029 #01029 BEDBATH&BEYOND#001029 BEDBATH&BEYOND#01029 BEDBATH&BEYOND#1029 BEDBATH&BEYOND01029,1000 Turtle Creek Drive,MS,39402
Bed Bath & Beyond,La Quinta,1030,#1030 #01030 BEDBATH&BEYOND#001030 BEDBATH&BEYOND#01030 BEDBATH&BEYOND#1030 BEDBATH&BEYOND01030,79-110 Highway 111,CA,92253
Bed Bath & Beyond,Aurora,1031,#1031 #01031 BEDBATH&BEYOND#001031 BEDBATH&BEYOND#01031 BEDBATH&BEYOND#1031 BEDBATH&BEYOND01031,23901 East Orchard Road,CO,80016
Bed Bath & Beyond,Westchester,1032,#1032 #01032 BEDBATH&BEYOND#001032 BEDBATH&BEYOND#01032 BEDBATH&BEYOND#1032 BEDBATH&BEYOND01032,8820 South Sepulveda Boulevard,CA,90045
Bed Bath & Beyond,North Attleborough,1034,#1034 #01034 BEDBATH&BEYOND#001034 BEDBATH&BEYOND#01034 BEDBATH&BEYOND#1034 BEDBATH&BEYOND01034,1360 South Washington Street,MA,2760
Bed Bath & Beyond,Knoxville,1035,#1035 #01035 BEDBATH&BEYOND#001035 BEDBATH&BEYOND#01035 BEDBATH&BEYOND#1035 BEDBATH&BEYOND01035,11263 Parkside Drive,TN,37934
Bed Bath & Beyond,Columbus,1036,#1036 #01036 BEDBATH&BEYOND#001036 BEDBATH&BEYOND#01036 BEDBATH&BEYOND#1036 BEDBATH&BEYOND01036,1170 Polaris Parkway,OH,43240
Bed Bath & Beyond,Missouri City,1037,#1037 #01037 BEDBATH&BEYOND#001037 BEDBATH&BEYOND#01037 BEDBATH&BEYOND#1037 BEDBATH&BEYOND01037,5752 Highway 6,TX,77459
Bed Bath & Beyond,Brookfield,1038,#1038 #01038 BEDBATH&BEYOND#001038 BEDBATH&BEYOND#01038 BEDBATH&BEYOND#1038 BEDBATH&BEYOND01038,605 Main Street,WI,53045
Bed Bath & Beyond,Kinnelon,1039,#1039 #01039 BEDBATH&BEYOND#001039 BEDBATH&BEYOND#01039 BEDBATH&BEYOND#1039 BEDBATH&BEYOND01039,1160 SR 23 North,NJ,7405
Bed Bath & Beyond,Manahawkin,1040,#1040 #01040 BEDBATH&BEYOND#001040 BEDBATH&BEYOND#01040 BEDBATH&BEYOND#1040 BEDBATH&BEYOND01040,205 Route 72 West,NJ,8050
Bed Bath & Beyond,St. Joseph,1041,#1041 #01041 BEDBATH&BEYOND#001041 BEDBATH&BEYOND#01041 BEDBATH&BEYOND#1041 BEDBATH&BEYOND01041,5201 North Belt Highway,MO,64506
Bed Bath & Beyond,State College,1042,#1042 #01042 BEDBATH&BEYOND#001042 BEDBATH&BEYOND#01042 BEDBATH&BEYOND#1042 BEDBATH&BEYOND01042,313 Benner Pike,PA,16801
Bed Bath & Beyond,Granville,1043,#1043 #01043 BEDBATH&BEYOND#001043 BEDBATH&BEYOND#01043 BEDBATH&BEYOND#1043 BEDBATH&BEYOND01043,4031 University Town Centre Drive,WV,26534
Bed Bath & Beyond,Plymouth,1044,#1044 #01044 BEDBATH&BEYOND#001044 BEDBATH&BEYOND#01044 BEDBATH&BEYOND#1044 BEDBATH&BEYOND01044,200 Colony Place,MA,2360
Bed Bath & Beyond,Alexandria,1045,#1045 #01045 BEDBATH&BEYOND#001045 BEDBATH&BEYOND#01045 BEDBATH&BEYOND#1045 BEDBATH&BEYOND01045,7690 Richmond Highway,VA,22306
Bed Bath & Beyond,Allen Park,1046,#1046 #01046 BEDBATH&BEYOND#001046 BEDBATH&BEYOND#01046 BEDBATH&BEYOND#1046 BEDBATH&BEYOND01046,3180 Fairlane Drive,MI,48101
Bed Bath & Beyond,San Diego,1047,#1047 #01047 BEDBATH&BEYOND#001047 BEDBATH&BEYOND#01047 BEDBATH&BEYOND#1047 BEDBATH&BEYOND01047,10537 4S Commons Drive,CA,92127
Bed Bath & Beyond,Estero,1048,#1048 #01048 BEDBATH&BEYOND#001048 BEDBATH&BEYOND#01048 BEDBATH&BEYOND#1048 BEDBATH&BEYOND01048,8020 Mediterranean Drive,FL,33928
Bed Bath & Beyond,Lincoln,1049,#1049 #01049 BEDBATH&BEYOND#001049 BEDBATH&BEYOND#01049 BEDBATH&BEYOND#1049 BEDBATH&BEYOND01049,5040 North 27th Street,NE,68521
Bed Bath & Beyond,Tulsa,1050,#1050 #01050 BEDBATH&BEYOND#001050 BEDBATH&BEYOND#01050 BEDBATH&BEYOND#1050 BEDBATH&BEYOND01050,5352 East Skelly Drive,OK,74135
Bed Bath & Beyond,Goldsboro,1051,#1051 #01051 BEDBATH&BEYOND#001051 BEDBATH&BEYOND#01051 BEDBATH&BEYOND#1051 BEDBATH&BEYOND01051,1203 North Berkeley Boulevard,NC,27534
Bed Bath & Beyond,Thornton,1052,#1052 #01052 BEDBATH&BEYOND#001052 BEDBATH&BEYOND#01052 BEDBATH&BEYOND#1052 BEDBATH&BEYOND01052,16531 Washington Street,CO,80602
Bed Bath & Beyond,Crestview Hills,1053,#1053 #01053 BEDBATH&BEYOND#001053 BEDBATH&BEYOND#01053 BEDBATH&BEYOND#1053 BEDBATH&BEYOND01053,2757 Town Center Boulevard,KY,41017
Bed Bath & Beyond,Yuba City,1054,#1054 #01054 BEDBATH&BEYOND#001054 BEDBATH&BEYOND#01054 BEDBATH&BEYOND#1054 BEDBATH&BEYOND01054,1060 Harter Road,CA,95993
Bed Bath & Beyond,Webster,1055,#1055 #01055 BEDBATH&BEYOND#001055 BEDBATH&BEYOND#01055 BEDBATH&BEYOND#1055 BEDBATH&BEYOND01055,921 Holt Road,NY,14580
Bed Bath & Beyond,Blasdell,1056,#1056 #01056 BEDBATH&BEYOND#001056 BEDBATH&BEYOND#01056 BEDBATH&BEYOND#1056 BEDBATH&BEYOND01056,3701 McKinley Parkway,NY,14219
Bed Bath & Beyond,Salisbury,1057,#1057 #01057 BEDBATH&BEYOND#001057 BEDBATH&BEYOND#01057 BEDBATH&BEYOND#1057 BEDBATH&BEYOND01057,2653 North Salisbury Boulevard,MD,21801
Bed Bath & Beyond,Homewood,1058,#1058 #01058 BEDBATH&BEYOND#001058 BEDBATH&BEYOND#01058 BEDBATH&BEYOND#1058 BEDBATH&BEYOND01058,17910 South Halsted Street,IL,60430
Bed Bath & Beyond,Williamsville,1059,#1059 #01059 BEDBATH&BEYOND#001059 BEDBATH&BEYOND#01059 BEDBATH&BEYOND#1059 BEDBATH&BEYOND01059,4401 Transit Road,NY,14221
Bed Bath & Beyond,Clarksville,1060,#1060 #01060 BEDBATH&BEYOND#001060 BEDBATH&BEYOND#01060 BEDBATH&BEYOND#1060 BEDBATH&BEYOND01060,1025 Veterans Parkway,IN,47129
Bed Bath & Beyond,Huber Heights,1061,#1061 #01061 BEDBATH&BEYOND#001061 BEDBATH&BEYOND#01061 BEDBATH&BEYOND#1061 BEDBATH&BEYOND01061,8284 Old Troy Pike Road,OH,45424
Bed Bath & Beyond,Paducah,1062,#1062 #01062 BEDBATH&BEYOND#001062 BEDBATH&BEYOND#01062 BEDBATH&BEYOND#1062 BEDBATH&BEYOND01062,5187 Hinkleville Road,KY,42001
Bed Bath & Beyond,Culver City,1063,#1063 #01063 BEDBATH&BEYOND#001063 BEDBATH&BEYOND#01063 BEDBATH&BEYOND#1063 BEDBATH&BEYOND01063,10822 Jefferson Boulevard,CA,90230
Bed Bath & Beyond,Bolingbrook,1064,#1064 #01064 BEDBATH&BEYOND#001064 BEDBATH&BEYOND#01064 BEDBATH&BEYOND#1064 BEDBATH&BEYOND01064,734 East Boughton Road,IL,60440
Bed Bath & Beyond,Joplin,1065,#1065 #01065 BEDBATH&BEYOND#001065 BEDBATH&BEYOND#01065 BEDBATH&BEYOND#1065 BEDBATH&BEYOND01065,409 South Geneva Avenue,MO,64801
Bed Bath & Beyond,Raleigh,1067,#1067 #01067 BEDBATH&BEYOND#001067 BEDBATH&BEYOND#01067 BEDBATH&BEYOND#1067 BEDBATH&BEYOND01067,6270 Glenwood Avenue,NC,27612
Bed Bath & Beyond,Longview,1068,#1068 #01068 BEDBATH&BEYOND#001068 BEDBATH&BEYOND#01068 BEDBATH&BEYOND#1068 BEDBATH&BEYOND01068,200 Triangle Shopping Center Road,WA,98632
Bed Bath & Beyond,Cypress,1069,#1069 #01069 BEDBATH&BEYOND#001069 BEDBATH&BEYOND#01069 BEDBATH&BEYOND#1069 BEDBATH&BEYOND01069,25839 U.S. Highway 290,TX,77433
Bed Bath & Beyond,Riverside,1070,#1070 #01070 BEDBATH&BEYOND#001070 BEDBATH&BEYOND#01070 BEDBATH&BEYOND#1070 BEDBATH&BEYOND01070,2660 Canyon Springs Parkway,CA,92507
Bed Bath & Beyond,Everett,1071,#1071 #01071 BEDBATH&BEYOND#001071 BEDBATH&BEYOND#01071 BEDBATH&BEYOND#1071 BEDBATH&BEYOND01071,1130 Southeast Everett Mall Way,WA,98208
Bed Bath & Beyond,Boise,1072,#1072 #01072 BEDBATH&BEYOND#001072 BEDBATH&BEYOND#01072 BEDBATH&BEYOND#1072 BEDBATH&BEYOND01072,3615 South Federal Way,ID,83705
Bed Bath & Beyond,Kalispell,1073,#1073 #01073 BEDBATH&BEYOND#001073 BEDBATH&BEYOND#01073 BEDBATH&BEYOND#1073 BEDBATH&BEYOND01073,2411 Highway 93 North,MT,59901
Bed Bath & Beyond,Glenwood Springs,1074,#1074 #01074 BEDBATH&BEYOND#001074 BEDBATH&BEYOND#01074 BEDBATH&BEYOND#1074 BEDBATH&BEYOND01074,115 East Meadows Drive,CO,81601
Bed Bath & Beyond,Sheboygan,1075,#1075 #01075 BEDBATH&BEYOND#001075 BEDBATH&BEYOND#01075 BEDBATH&BEYOND#1075 BEDBATH&BEYOND01075,3347 Kohler Memorial Drive,WI,53081
Bed Bath & Beyond,Downey,1078,#1078 #01078 BEDBATH&BEYOND#001078 BEDBATH&BEYOND#01078 BEDBATH&BEYOND#1078 BEDBATH&BEYOND01078,12060 Lakewood Boulevard,CA,90242
Bed Bath & Beyond,Aberdeen,1079,#1079 #01079 BEDBATH&BEYOND#001079 BEDBATH&BEYOND#01079 BEDBATH&BEYOND#1079 BEDBATH&BEYOND01079,1121 Highway 34,NJ,7747
Bed Bath & Beyond,Brownsville,1080,#1080 #01080 BEDBATH&BEYOND#001080 BEDBATH&BEYOND#01080 BEDBATH&BEYOND#1080 BEDBATH&BEYOND01080,3000 Pablo Kisel Boulevard,TX,78526
Bed Bath & Beyond,Washington,1081,#1081 #01081 BEDBATH&BEYOND#001081 BEDBATH&BEYOND#01081 BEDBATH&BEYOND#1081 BEDBATH&BEYOND01081,709 7th Street Northwest,DC,20001
Bed Bath & Beyond,Toledo,1082,#1082 #01082 BEDBATH&BEYOND#001082 BEDBATH&BEYOND#01082 BEDBATH&BEYOND#1082 BEDBATH&BEYOND01082,5135 Monroe Street,OH,43623
Bed Bath & Beyond,City of Industry,1083,#1083 #01083 BEDBATH&BEYOND#001083 BEDBATH&BEYOND#01083 BEDBATH&BEYOND#1083 BEDBATH&BEYOND01083,21640 Valley Boulevard,CA,91789
Bed Bath & Beyond,Watertown,1084,#1084 #01084 BEDBATH&BEYOND#001084 BEDBATH&BEYOND#01084 BEDBATH&BEYOND#1084 BEDBATH&BEYOND01084,21855 Towne Center Drive,NY,13601
Bed Bath & Beyond,South Bend,1085,#1085 #01085 BEDBATH&BEYOND#001085 BEDBATH&BEYOND#01085 BEDBATH&BEYOND#1085 BEDBATH&BEYOND01085,1290 East Ireland Road,IN,46614
Bed Bath & Beyond,Dedham,1093,#1093 #01093 BEDBATH&BEYOND#001093 BEDBATH&BEYOND#01093 BEDBATH&BEYOND#1093 BEDBATH&BEYOND01093,820 Providence Highway,MA,2026
Bed Bath & Beyond,Wausau,1088,#1088 #01088 BEDBATH&BEYOND#001088 BEDBATH&BEYOND#01088 BEDBATH&BEYOND#1088 BEDBATH&BEYOND01088,3575 Rib Mountain Drive,WI,54401
Bed Bath & Beyond,Hixson,1089,#1089 #01089 BEDBATH&BEYOND#001089 BEDBATH&BEYOND#01089 BEDBATH&BEYOND#1089 BEDBATH&BEYOND01089,"5591 Highway 153, Suite 112",TN,37343
Bed Bath & Beyond,Leominster,1090,#1090 #01090 BEDBATH&BEYOND#001090 BEDBATH&BEYOND#01090 BEDBATH&BEYOND#1090 BEDBATH&BEYOND01090,76 Orchard Hill Park Drive,MA,1453
Bed Bath & Beyond,Rio Grande,1091,#1091 #01091 BEDBATH&BEYOND#001091 BEDBATH&BEYOND#01091 BEDBATH&BEYOND#1091 BEDBATH&BEYOND01091,3201 Route 9 South,NJ,8242
Bed Bath & Beyond,Murrieta,1097,#1097 #01097 BEDBATH&BEYOND#001097 BEDBATH&BEYOND#01097 BEDBATH&BEYOND#1097 BEDBATH&BEYOND01097,24450 Village Walk Place,CA,92562
Bed Bath & Beyond,Atlanta,1094,#1094 #01094 BEDBATH&BEYOND#001094 BEDBATH&BEYOND#01094 BEDBATH&BEYOND#1094 BEDBATH&BEYOND01094,2939 Cobb Parkway,GA,30339
Bed Bath & Beyond,Rocky Mount,1095,#1095 #01095 BEDBATH&BEYOND#001095 BEDBATH&BEYOND#01095 BEDBATH&BEYOND#1095 BEDBATH&BEYOND01095,1100 North Wesleyan Boulevard,NC,27804
Bed Bath & Beyond,Clifton,1096,#1096 #01096 BEDBATH&BEYOND#001096 BEDBATH&BEYOND#01096 BEDBATH&BEYOND#1096 BEDBATH&BEYOND01096,404 State Route 3 West,NJ,7014
Bed Bath & Beyond,Dorchester,1100,#1100 #01100 BEDBATH&BEYOND#001100 BEDBATH&BEYOND#01100 BEDBATH&BEYOND#1100 BEDBATH&BEYOND01100,8 Allstate Road,MA,2125
Bed Bath & Beyond,Sparks,1098,#1098 #01098 BEDBATH&BEYOND#001098 BEDBATH&BEYOND#01098 BEDBATH&BEYOND#1098 BEDBATH&BEYOND01098,195 Los Altos Parkway,NV,89436
Bed Bath & Beyond,Inglewood,1099,#1099 #01099 BEDBATH&BEYOND#001099 BEDBATH&BEYOND#01099 BEDBATH&BEYOND#1099 BEDBATH&BEYOND01099,3480 West Century Boulevard,CA,90303
Bed Bath & Beyond,Mountain View,1102,#1102 #01102 BEDBATH&BEYOND#001102 BEDBATH&BEYOND#01102 BEDBATH&BEYOND#1102 BEDBATH&BEYOND01102,2470 Charleston Road,CA,94043
Bed Bath & Beyond,Austin,1101,#1101 #01101 BEDBATH&BEYOND#001101 BEDBATH&BEYOND#01101 BEDBATH&BEYOND#1101 BEDBATH&BEYOND01101,9600 South IH-35 Service Road SB,TX,78748
Bed Bath & Beyond,Rego Park,135,#135 #0135 BEDBATH&BEYOND#00135 BEDBATH&BEYOND#0135 BEDBATH&BEYOND#135 BEDBATH&BEYOND0135,96-05 Queens Boulevard,NY,11374
Bed Bath & Beyond,Laguna Niguel,1103,#1103 #01103 BEDBATH&BEYOND#001103 BEDBATH&BEYOND#01103 BEDBATH&BEYOND#1103 BEDBATH&BEYOND01103,32391 Golden Lantern,CA,92677
Bed Bath & Beyond,Medina,1104,#1104 #01104 BEDBATH&BEYOND#001104 BEDBATH&BEYOND#01104 BEDBATH&BEYOND#1104 BEDBATH&BEYOND01104,4949 Grand Shops Avenue,OH,44256
Bed Bath & Beyond,Tucson,1105,#1105 #01105 BEDBATH&BEYOND#001105 BEDBATH&BEYOND#01105 BEDBATH&BEYOND#1105 BEDBATH&BEYOND01105,9590 East 22nd Street,AZ,85748
Bed Bath & Beyond,Colorado Springs,1106,#1106 #01106 BEDBATH&BEYOND#001106 BEDBATH&BEYOND#01106 BEDBATH&BEYOND#1106 BEDBATH&BEYOND01106,5944 Barnes Road,CO,80922
Bed Bath & Beyond,San Marcos,1107,#1107 #01107 BEDBATH&BEYOND#001107 BEDBATH&BEYOND#01107 BEDBATH&BEYOND#1107 BEDBATH&BEYOND01107,1050 McKinley Place Drive,TX,78666
Bed Bath & Beyond,Longmont,1108,#1108 #01108 BEDBATH&BEYOND#001108 BEDBATH&BEYOND#01108 BEDBATH&BEYOND#1108 BEDBATH&BEYOND01108,205 Ken Pratt Boulevard,CO,80501
Bed Bath & Beyond,Jonesboro,1109,#1109 #01109 BEDBATH&BEYOND#001109 BEDBATH&BEYOND#01109 BEDBATH&BEYOND#1109 BEDBATH&BEYOND01109,3000 East Highland Drive,AR,72401
Bed Bath & Beyond,Miami,1110,#1110 #01110 BEDBATH&BEYOND#001110 BEDBATH&BEYOND#01110 BEDBATH&BEYOND#1110 BEDBATH&BEYOND01110,3301 Coral Way,FL,33145
Bed Bath & Beyond,Henrietta,1111,#1111 #01111 BEDBATH&BEYOND#001111 BEDBATH&BEYOND#01111 BEDBATH&BEYOND#1111 BEDBATH&BEYOND01111,720 Jefferson Road,NY,14623
Bed Bath & Beyond,Rutland,1112,#1112 #01112 BEDBATH&BEYOND#001112 BEDBATH&BEYOND#01112 BEDBATH&BEYOND#1112 BEDBATH&BEYOND01112,322 Route 7 South,VT,5701
Bed Bath & Beyond,Ocean City,1113,#1113 #01113 BEDBATH&BEYOND#001113 BEDBATH&BEYOND#01113 BEDBATH&BEYOND#1113 BEDBATH&BEYOND01113,12641 Ocean Gateway,MD,21842
Bed Bath & Beyond,Pocatello,1114,#1114 #01114 BEDBATH&BEYOND#001114 BEDBATH&BEYOND#01114 BEDBATH&BEYOND#1114 BEDBATH&BEYOND01114,1732 Hurley Drive,ID,83202
Bed Bath & Beyond,Bozeman,1115,#1115 #01115 BEDBATH&BEYOND#001115 BEDBATH&BEYOND#01115 BEDBATH&BEYOND#1115 BEDBATH&BEYOND01115,2155 West Cattail Street,MT,59718
Bed Bath & Beyond,Conroe,1117,#1117 #01117 BEDBATH&BEYOND#001117 BEDBATH&BEYOND#01117 BEDBATH&BEYOND#1117 BEDBATH&BEYOND01117,2920 Interstate 45 North,TX,77303
Bed Bath & Beyond,Mira Loma,1118,#1118 #01118 BEDBATH&BEYOND#001118 BEDBATH&BEYOND#01118 BEDBATH&BEYOND#1118 BEDBATH&BEYOND01118,6365 Pats Ranch Road,CA,91752
Bed Bath & Beyond,Peachtree City,1119,#1119 #01119 BEDBATH&BEYOND#001119 BEDBATH&BEYOND#01119 BEDBATH&BEYOND#1119 BEDBATH&BEYOND01119,1245 North Peachtree Parkway,GA,30269
Bed Bath & Beyond,Spring Valley,1120,#1120 #01120 BEDBATH&BEYOND#001120 BEDBATH&BEYOND#01120 BEDBATH&BEYOND#1120 BEDBATH&BEYOND01120,14 B Spring Valley Marketplace,NY,10977
Bed Bath & Beyond,Campbell,1121,#1121 #01121 BEDBATH&BEYOND#001121 BEDBATH&BEYOND#01121 BEDBATH&BEYOND#1121 BEDBATH&BEYOND01121,515 East Hamilton Avenue,CA,95008
Bed Bath & Beyond,Knightdale,1124,#1124 #01124 BEDBATH&BEYOND#001124 BEDBATH&BEYOND#01124 BEDBATH&BEYOND#1124 BEDBATH&BEYOND01124,1008 Shoppes at Midway Drive,NC,27545
Bed Bath & Beyond,Naples,1125,#1125 #01125 BEDBATH&BEYOND#001125 BEDBATH&BEYOND#01125 BEDBATH&BEYOND#1125 BEDBATH&BEYOND01125,13585 Tamiami Trail North,FL,34110
Bed Bath & Beyond,Greensboro,1126,#1126 #01126 BEDBATH&BEYOND#001126 BEDBATH&BEYOND#01126 BEDBATH&BEYOND#1126 BEDBATH&BEYOND01126,1618 Highwoods Boulevard,NC,27410
Bed Bath & Beyond,Keizer,1127,#1127 #01127 BEDBATH&BEYOND#001127 BEDBATH&BEYOND#01127 BEDBATH&BEYOND#1127 BEDBATH&BEYOND01127,6180 Ulali Drive,OR,97303
Bed Bath & Beyond,Olympia,1129,#1129 #01129 BEDBATH&BEYOND#001129 BEDBATH&BEYOND#01129 BEDBATH&BEYOND#1129 BEDBATH&BEYOND01129,2405 4th Avenue West,WA,98501
Bed Bath & Beyond,Vancouver,1130,#1130 #01130 BEDBATH&BEYOND#001130 BEDBATH&BEYOND#01130 BEDBATH&BEYOND#1130 BEDBATH&BEYOND01130,16701 South East Mill Plain Boulevard,WA,98684
Bed Bath & Beyond,Jacksonville,1131,#1131 #01131 BEDBATH&BEYOND#001131 BEDBATH&BEYOND#01131 BEDBATH&BEYOND#1131 BEDBATH&BEYOND01131,13221 City Station Drive,FL,32218
Bed Bath & Beyond,Delray Beach,1132,#1132 #01132 BEDBATH&BEYOND#001132 BEDBATH&BEYOND#01132 BEDBATH&BEYOND#1132 BEDBATH&BEYOND01132,14824 South Military Trail,FL,33484
Bed Bath & Beyond,Albuquerque,1133,#1133 #01133 BEDBATH&BEYOND#001133 BEDBATH&BEYOND#01133 BEDBATH&BEYOND#1133 BEDBATH&BEYOND01133,3601 Old Airport Road,NM,87114
Bed Bath & Beyond,Aiken,1134,#1134 #01134 BEDBATH&BEYOND#001134 BEDBATH&BEYOND#01134 BEDBATH&BEYOND#1134 BEDBATH&BEYOND01134,339 Fabian Drive,SC,29803
Bed Bath & Beyond,Mechanicsburg,1135,#1135 #01135 BEDBATH&BEYOND#001135 BEDBATH&BEYOND#01135 BEDBATH&BEYOND#1135 BEDBATH&BEYOND01135,6416 Carlisle Pike,PA,17050
Bed Bath & Beyond,Lake Elsinore,1136,#1136 #01136 BEDBATH&BEYOND#001136 BEDBATH&BEYOND#01136 BEDBATH&BEYOND#1136 BEDBATH&BEYOND01136,29231 Central Avenue,CA,92532
Bed Bath & Beyond,San Marcos,1137,#1137 #01137 BEDBATH&BEYOND#001137 BEDBATH&BEYOND#01137 BEDBATH&BEYOND#1137 BEDBATH&BEYOND01137,165 South Las Posas Road,CA,92078
Bed Bath & Beyond,Jacksonville Beach,1138,#1138 #01138 BEDBATH&BEYOND#001138 BEDBATH&BEYOND#01138 BEDBATH&BEYOND#1138 BEDBATH&BEYOND01138,4054 South 3rd Street,FL,33250
Bed Bath & Beyond,Folsom,1139,#1139 #01139 BEDBATH&BEYOND#001139 BEDBATH&BEYOND#01139 BEDBATH&BEYOND#1139 BEDBATH&BEYOND01139,2385 Iron Point Road,CA,95630
Bed Bath & Beyond,American Fork,1140,#1140 #01140 BEDBATH&BEYOND#001140 BEDBATH&BEYOND#01140 BEDBATH&BEYOND#1140 BEDBATH&BEYOND01140,773 West Grassland Drive,UT,84003
Bed Bath & Beyond,Peoria,1141,#1141 #01141 BEDBATH&BEYOND#001141 BEDBATH&BEYOND#01141 BEDBATH&BEYOND#1141 BEDBATH&BEYOND01141,24760 North Lake Pleasant Parkway,AZ,85383
Bed Bath & Beyond,Rogers,1142,#1142 #01142 BEDBATH&BEYOND#001142 BEDBATH&BEYOND#01142 BEDBATH&BEYOND#1142 BEDBATH&BEYOND01142,2203 Promenade Boulevard,AR,72758
Bed Bath & Beyond,Orlando,1143,#1143 #01143 BEDBATH&BEYOND#001143 BEDBATH&BEYOND#01143 BEDBATH&BEYOND#1143 BEDBATH&BEYOND01143,3228 East Colonial Drive,FL,32803
Bed Bath & Beyond,North Logan,1144,#1144 #01144 BEDBATH&BEYOND#001144 BEDBATH&BEYOND#01144 BEDBATH&BEYOND#1144 BEDBATH&BEYOND01144,1650 North Main Street,UT,84341
Bed Bath & Beyond,Bloomington,1145,#1145 #01145 BEDBATH&BEYOND#001145 BEDBATH&BEYOND#01145 BEDBATH&BEYOND#1145 BEDBATH&BEYOND01145,731 College Mall Road South,IN,47401
Bed Bath & Beyond,Las Vegas,1146,#1146 #01146 BEDBATH&BEYOND#001146 BEDBATH&BEYOND#01146 BEDBATH&BEYOND#1146 BEDBATH&BEYOND01146,6564 North Decatur Boulevard,NV,89131
Bed Bath & Beyond,Loveland,1147,#1147 #01147 BEDBATH&BEYOND#001147 BEDBATH&BEYOND#01147 BEDBATH&BEYOND#1147 BEDBATH&BEYOND01147,1605 Fall River Drive,CO,80538
Bed Bath & Beyond,Yuma,1148,#1148 #01148 BEDBATH&BEYOND#001148 BEDBATH&BEYOND#01148 BEDBATH&BEYOND#1148 BEDBATH&BEYOND01148,1212 South Castle Dome Avenue,AZ,85365
Bed Bath & Beyond,Sioux Falls,1149,#1149 #01149 BEDBATH&BEYOND#001149 BEDBATH&BEYOND#01149 BEDBATH&BEYOND#1149 BEDBATH&BEYOND01149,3800 South Louise Avenue,SD,57106
Bed Bath & Beyond,Augusta,1150,#1150 #01150 BEDBATH&BEYOND#001150 BEDBATH&BEYOND#01150 BEDBATH&BEYOND#1150 BEDBATH&BEYOND01150,42 Whitten Road,ME,4330
Bed Bath & Beyond,Alameda,1152,#1152 #01152 BEDBATH&BEYOND#001152 BEDBATH&BEYOND#01152 BEDBATH&BEYOND#1152 BEDBATH&BEYOND01152,2246 South Shore Center,CA,94501
Bed Bath & Beyond,Topsham,1153,#1153 #01153 BEDBATH&BEYOND#001153 BEDBATH&BEYOND#01153 BEDBATH&BEYOND#1153 BEDBATH&BEYOND01153,131 Topsham Fair Mall Road,ME,4086
Bed Bath & Beyond,Petoskey,1154,#1154 #01154 BEDBATH&BEYOND#001154 BEDBATH&BEYOND#01154 BEDBATH&BEYOND#1154 BEDBATH&BEYOND01154,910 Spring Street,MI,49770
Bed Bath & Beyond,Wichita Falls,1155,#1155 #01155 BEDBATH&BEYOND#001155 BEDBATH&BEYOND#01155 BEDBATH&BEYOND#1155 BEDBATH&BEYOND01155,3201 Lawrence Road,TX,76308
Bed Bath & Beyond,Missoula,1157,#1157 #01157 BEDBATH&BEYOND#001157 BEDBATH&BEYOND#01157 BEDBATH&BEYOND#1157 BEDBATH&BEYOND01157,3017 Paxson Street,MT,59801
Bed Bath & Beyond,Lake Worth,1158,#1158 #01158 BEDBATH&BEYOND#001158 BEDBATH&BEYOND#01158 BEDBATH&BEYOND#1158 BEDBATH&BEYOND01158,6038 Azle Avenue,TX,76135
Bed Bath & Beyond,Nampa,1159,#1159 #01159 BEDBATH&BEYOND#001159 BEDBATH&BEYOND#01159 BEDBATH&BEYOND#1159 BEDBATH&BEYOND01159,16390 North Marketplace Boulevard,ID,83687
Bed Bath & Beyond,McHenry,1160,#1160 #01160 BEDBATH&BEYOND#001160 BEDBATH&BEYOND#01160 BEDBATH&BEYOND#1160 BEDBATH&BEYOND01160,3340 Shoppers Drive,IL,60050
Bed Bath & Beyond,Austin,1161,#1161 #01161 BEDBATH&BEYOND#001161 BEDBATH&BEYOND#01161 BEDBATH&BEYOND#1161 BEDBATH&BEYOND01161,1201 Barbara Jordan Boulevard,TX,78723
Bed Bath & Beyond,Oswego,1163,#1163 #01163 BEDBATH&BEYOND#001163 BEDBATH&BEYOND#01163 BEDBATH&BEYOND#1163 BEDBATH&BEYOND01163,1600 Douglas Road,IL,60543
Bed Bath & Beyond,Midland,1164,#1164 #01164 BEDBATH&BEYOND#001164 BEDBATH&BEYOND#01164 BEDBATH&BEYOND#1164 BEDBATH&BEYOND01164,1118 Joe Mann Boulevard,MI,48642
Bed Bath & Beyond,Vancouver,1165,#1165 #01165 BEDBATH&BEYOND#001165 BEDBATH&BEYOND#01165 BEDBATH&BEYOND#1165 BEDBATH&BEYOND01165,9306 Northeast 5th Avenue,WA,98665
Bed Bath & Beyond,Auburn,1167,#1167 #01167 BEDBATH&BEYOND#001167 BEDBATH&BEYOND#01167 BEDBATH&BEYOND#1167 BEDBATH&BEYOND01167,730 Center Street,ME,4210
Bed Bath & Beyond,Helena,1168,#1168 #01168 BEDBATH&BEYOND#001168 BEDBATH&BEYOND#01168 BEDBATH&BEYOND#1168 BEDBATH&BEYOND01168,2027 Cromwell Dixon Lane,MT,59601
Bed Bath & Beyond,Oxford,1169,#1169 #01169 BEDBATH&BEYOND#001169 BEDBATH&BEYOND#01169 BEDBATH&BEYOND#1169 BEDBATH&BEYOND01169,1000 Oxford Exchange Boulevard,AL,36203
Bed Bath & Beyond,Gainesville,1170,#1170 #01170 BEDBATH&BEYOND#001170 BEDBATH&BEYOND#01170 BEDBATH&BEYOND#1170 BEDBATH&BEYOND01170,1025 Dawsonville Highway,GA,30501
Bed Bath & Beyond,Wadsworth,1171,#1171 #01171 BEDBATH&BEYOND#001171 BEDBATH&BEYOND#01171 BEDBATH&BEYOND#1171 BEDBATH&BEYOND01171,1143 Williams Reserve Boulevard,OH,44281
Bed Bath & Beyond,Port Arthur,1172,#1172 #01172 BEDBATH&BEYOND#001172 BEDBATH&BEYOND#01172 BEDBATH&BEYOND#1172 BEDBATH&BEYOND01172,3100 Highway 365,TX,77642
Bed Bath & Beyond,East Knoxville,1173,#1173 #01173 BEDBATH&BEYOND#001173 BEDBATH&BEYOND#01173 BEDBATH&BEYOND#1173 BEDBATH&BEYOND01173,5433 Washington Pike,TN,37918
Bed Bath & Beyond,Enfield,1174,#1174 #01174 BEDBATH&BEYOND#001174 BEDBATH&BEYOND#01174 BEDBATH&BEYOND#1174 BEDBATH&BEYOND01174,20 Hazard Avenue,CT,6082
Bed Bath & Beyond,Anchorage,1175,#1175 #01175 BEDBATH&BEYOND#001175 BEDBATH&BEYOND#01175 BEDBATH&BEYOND#1175 BEDBATH&BEYOND01175,601 East Dimond Boulevard,AK,99515
Bed Bath & Beyond,Glendora,1176,#1176 #01176 BEDBATH&BEYOND#001176 BEDBATH&BEYOND#01176 BEDBATH&BEYOND#1176 BEDBATH&BEYOND01176,1405 East Gladstone Street,CA,91740
Bed Bath & Beyond,Washington,1177,#1177 #01177 BEDBATH&BEYOND#001177 BEDBATH&BEYOND#01177 BEDBATH&BEYOND#1177 BEDBATH&BEYOND01177,3100 14th Street Northwest,DC,20010
Bed Bath & Beyond,York,1178,#1178 #01178 BEDBATH&BEYOND#001178 BEDBATH&BEYOND#01178 BEDBATH&BEYOND#1178 BEDBATH&BEYOND01178,2845 Concord Road,PA,17402
Bed Bath & Beyond,Mooresville,1179,#1179 #01179 BEDBATH&BEYOND#001179 BEDBATH&BEYOND#01179 BEDBATH&BEYOND#1179 BEDBATH&BEYOND01179,627 River Highway,NC,28117
Bed Bath & Beyond,El Centro,1181,#1181 #01181 BEDBATH&BEYOND#001181 BEDBATH&BEYOND#01181 BEDBATH&BEYOND#1181 BEDBATH&BEYOND01181,520 East Danenberg Drive,CA,92243
Bed Bath & Beyond,Cincinnati,1182,#1182 #01182 BEDBATH&BEYOND#001182 BEDBATH&BEYOND#01182 BEDBATH&BEYOND#1182 BEDBATH&BEYOND01182,3681 Stone Creek Boulevard,OH,45251
Bed Bath & Beyond,Dothan,1183,#1183 #01183 BEDBATH&BEYOND#001183 BEDBATH&BEYOND#01183 BEDBATH&BEYOND#1183 BEDBATH&BEYOND01183,4863 Montgomery Highway,AL,36303
Bed Bath & Beyond,Papillion,1184,#1184 #01184 BEDBATH&BEYOND#001184 BEDBATH&BEYOND#01184 BEDBATH&BEYOND#1184 BEDBATH&BEYOND01184,7651 Towne Center Parkway,NE,68046
Bed Bath & Beyond,Milford,1186,#1186 #01186 BEDBATH&BEYOND#001186 BEDBATH&BEYOND#01186 BEDBATH&BEYOND#1186 BEDBATH&BEYOND01186,230 Fortune Boulevard,MA,1757
Bed Bath & Beyond,Orange City,1187,#1187 #01187 BEDBATH&BEYOND#001187 BEDBATH&BEYOND#01187 BEDBATH&BEYOND#1187 BEDBATH&BEYOND01187,963 Harley Strickland Boulevard,FL,32763
Bed Bath & Beyond,Gulf Shores,1190,#1190 #01190 BEDBATH&BEYOND#001190 BEDBATH&BEYOND#01190 BEDBATH&BEYOND#1190 BEDBATH&BEYOND01190,3800 Gulf Shores Parkway,AL,36542
Bed Bath & Beyond,Meridian,1191,#1191 #01191 BEDBATH&BEYOND#001191 BEDBATH&BEYOND#01191 BEDBATH&BEYOND#1191 BEDBATH&BEYOND01191,131 South Frontage Road,MS,39301
Bed Bath & Beyond,Sewell,1192,#1192 #01192 BEDBATH&BEYOND#001192 BEDBATH&BEYOND#01192 BEDBATH&BEYOND#1192 BEDBATH&BEYOND01192,141 Tuckahoe Road,NJ,8080
Bed Bath & Beyond,Las Vegas,1193,#1193 #01193 BEDBATH&BEYOND#001193 BEDBATH&BEYOND#01193 BEDBATH&BEYOND#1193 BEDBATH&BEYOND01193,7175 Arroyo Crossing Parkway,NV,89113
Bed Bath & Beyond,New York,1194,#1194 #01194 BEDBATH&BEYOND#001194 BEDBATH&BEYOND#01194 BEDBATH&BEYOND#1194 BEDBATH&BEYOND01194,270 Greenwich St btw Warren & Murray St,NY,10007
Bed Bath & Beyond,Port St. Lucie,1195,#1195 #01195 BEDBATH&BEYOND#001195 BEDBATH&BEYOND#01195 BEDBATH&BEYOND#1195 BEDBATH&BEYOND01195,10856 Southwest Village Parkway,FL,34987
Bed Bath & Beyond,Aurora,1196,#1196 #01196 BEDBATH&BEYOND#001196 BEDBATH&BEYOND#01196 BEDBATH&BEYOND#1196 BEDBATH&BEYOND01196,3511 North Salida Court,CO,80011
Bed Bath & Beyond,Anchorage,1197,#1197 #01197 BEDBATH&BEYOND#001197 BEDBATH&BEYOND#01197 BEDBATH&BEYOND#1197 BEDBATH&BEYOND01197,3090 Mountain View Drive,AK,99501
Bed Bath & Beyond,Bristol,1198,#1198 #01198 BEDBATH&BEYOND#001198 BEDBATH&BEYOND#01198 BEDBATH&BEYOND#1198 BEDBATH&BEYOND01198,16660 Highlands Center Boulevard,VA,24202
Bed Bath & Beyond,Beaumont,1199,#1199 #01199 BEDBATH&BEYOND#001199 BEDBATH&BEYOND#01199 BEDBATH&BEYOND#1199 BEDBATH&BEYOND01199,1642 East 2nd Street,CA,92223
Bed Bath & Beyond,Santa Clarita,1200,#1200 #01200 BEDBATH&BEYOND#001200 BEDBATH&BEYOND#01200 BEDBATH&BEYOND#1200 BEDBATH&BEYOND01200,19211 Golden Valley Road,CA,91387
Bed Bath & Beyond,Christiansburg,1201,#1201 #01201 BEDBATH&BEYOND#001201 BEDBATH&BEYOND#01201 BEDBATH&BEYOND#1201 BEDBATH&BEYOND01201,135 Shoppers Way Northwest,VA,24073
Bed Bath & Beyond,Bossier City,1202,#1202 #01202 BEDBATH&BEYOND#001202 BEDBATH&BEYOND#01202 BEDBATH&BEYOND#1202 BEDBATH&BEYOND01202,2900 Meadow Creek Drive,LA,71111
Bed Bath & Beyond,Willowbrook,1203,#1203 #01203 BEDBATH&BEYOND#001203 BEDBATH&BEYOND#01203 BEDBATH&BEYOND#1203 BEDBATH&BEYOND01203,7175 Kingery Highway,IL,60527
Bed Bath & Beyond,Harvey,1205,#1205 #01205 BEDBATH&BEYOND#001205 BEDBATH&BEYOND#01205 BEDBATH&BEYOND#1205 BEDBATH&BEYOND01205,901 Manhattan Boulevard,LA,70058
Bed Bath & Beyond,Tampa,1206,#1206 #01206 BEDBATH&BEYOND#001206 BEDBATH&BEYOND#01206 BEDBATH&BEYOND#1206 BEDBATH&BEYOND01206,6222 Commerce Palms Boulevard,FL,33647
Bed Bath & Beyond,Seattle,1207,#1207 #01207 BEDBATH&BEYOND#001207 BEDBATH&BEYOND#01207 BEDBATH&BEYOND#1207 BEDBATH&BEYOND01207,401 Northeast Northgate Way,WA,98125
Bed Bath & Beyond,Batavia,1208,#1208 #01208 BEDBATH&BEYOND#001208 BEDBATH&BEYOND#01208 BEDBATH&BEYOND#1208 BEDBATH&BEYOND01208,4222 Veterans Memorial Drive,NY,14020
Bed Bath & Beyond,Wesley Chapel,1209,#1209 #01209 BEDBATH&BEYOND#001209 BEDBATH&BEYOND#01209 BEDBATH&BEYOND#1209 BEDBATH&BEYOND01209,5845 Wesley Grove Boulevard,FL,33544
Bed Bath & Beyond,Great Falls,1210,#1210 #01210 BEDBATH&BEYOND#001210 BEDBATH&BEYOND#01210 BEDBATH&BEYOND#1210 BEDBATH&BEYOND01210,1200 10th Avenue South,MT,59405
Bed Bath & Beyond,Sebring,1211,#1211 #01211 BEDBATH&BEYOND#001211 BEDBATH&BEYOND#01211 BEDBATH&BEYOND#1211 BEDBATH&BEYOND01211,1748 U.S. 27 North,FL,33870
Bed Bath & Beyond,Euless,1212,#1212 #01212 BEDBATH&BEYOND#001212 BEDBATH&BEYOND#01212 BEDBATH&BEYOND#1212 BEDBATH&BEYOND01212,2800 Highway 121,TX,76039
Bed Bath & Beyond,Chesterfield,1213,#1213 #01213 BEDBATH&BEYOND#001213 BEDBATH&BEYOND#01213 BEDBATH&BEYOND#1213 BEDBATH&BEYOND01213,50551 Waterside Drive,MI,48051
Bed Bath & Beyond,Virginia Beach,1214,#1214 #01214 BEDBATH&BEYOND#001214 BEDBATH&BEYOND#01214 BEDBATH&BEYOND#1214 BEDBATH&BEYOND01214,3312 Princess Anne Road,VA,23456
Bed Bath & Beyond,Brooksville,1215,#1215 #01215 BEDBATH&BEYOND#001215 BEDBATH&BEYOND#01215 BEDBATH&BEYOND#1215 BEDBATH&BEYOND01215,7187 Coastal Blvd,FL,34613
Bed Bath & Beyond,Casper,1216,#1216 #01216 BEDBATH&BEYOND#001216 BEDBATH&BEYOND#01216 BEDBATH&BEYOND#1216 BEDBATH&BEYOND01216,601 Southeast Wyoming Boulevard,WY,82609
Bed Bath & Beyond,Springfield,1217,#1217 #01217 BEDBATH&BEYOND#001217 BEDBATH&BEYOND#01217 BEDBATH&BEYOND#1217 BEDBATH&BEYOND01217,1604 North Bechtle Avenue,OH,45504
Bed Bath & Beyond,Coralville,1218,#1218 #01218 BEDBATH&BEYOND#001218 BEDBATH&BEYOND#01218 BEDBATH&BEYOND#1218 BEDBATH&BEYOND01218,2515 Corridor Way,IA,52241
Bed Bath & Beyond,Torrington,1219,#1219 #01219 BEDBATH&BEYOND#001219 BEDBATH&BEYOND#01219 BEDBATH&BEYOND#1219 BEDBATH&BEYOND01219,1914 East Main Street,CT,6790
Bed Bath & Beyond,Wilson,1221,#1221 #01221 BEDBATH&BEYOND#001221 BEDBATH&BEYOND#01221 BEDBATH&BEYOND#1221 BEDBATH&BEYOND01221,3401 Raleigh Road Parkway West,NC,27896
Bed Bath & Beyond,Moscow,1222,#1222 #01222 BEDBATH&BEYOND#001222 BEDBATH&BEYOND#01222 BEDBATH&BEYOND#1222 BEDBATH&BEYOND01222,1966 Pullman Road,ID,83843
Bed Bath & Beyond,Triadelphia,1223,#1223 #01223 BEDBATH&BEYOND#001223 BEDBATH&BEYOND#01223 BEDBATH&BEYOND#1223 BEDBATH&BEYOND01223,555 Cabela Drive,WV,26059
Bed Bath & Beyond,Cheyenne,1225,#1225 #01225 BEDBATH&BEYOND#001225 BEDBATH&BEYOND#01225 BEDBATH&BEYOND#1225 BEDBATH&BEYOND01225,5214 Rue Terre,WY,82009
Bed Bath & Beyond,Perrysburg,1226,#1226 #01226 BEDBATH&BEYOND#001226 BEDBATH&BEYOND#01226 BEDBATH&BEYOND#1226 BEDBATH&BEYOND01226,10027 Fremont Pike,OH,43551
Bed Bath & Beyond,Foxborough,1227,#1227 #01227 BEDBATH&BEYOND#001227 BEDBATH&BEYOND#01227 BEDBATH&BEYOND#1227 BEDBATH&BEYOND01227,330 Patriot Place,MA,2035
Bed Bath & Beyond,Albuquerque,1228,#1228 #01228 BEDBATH&BEYOND#001228 BEDBATH&BEYOND#01228 BEDBATH&BEYOND#1228 BEDBATH&BEYOND01228,8850 Holly Avenue Northeast,NM,87122
Bed Bath & Beyond,Marina,1229,#1229 #01229 BEDBATH&BEYOND#001229 BEDBATH&BEYOND#01229 BEDBATH&BEYOND#1229 BEDBATH&BEYOND01229,117 General Stilwell Drive,CA,93933
Bed Bath & Beyond,New Hyde Park,1230,#1230 #01230 BEDBATH&BEYOND#001230 BEDBATH&BEYOND#01230 BEDBATH&BEYOND#1230 BEDBATH&BEYOND01230,1490 Union Turnpike,NY,11040
Bed Bath & Beyond,Suwanee,1233,#1233 #01233 BEDBATH&BEYOND#001233 BEDBATH&BEYOND#01233 BEDBATH&BEYOND#1233 BEDBATH&BEYOND01233,2623 Peachtree Parkway,GA,30024
Bed Bath & Beyond,Lady Lake,1234,#1234 #01234 BEDBATH&BEYOND#001234 BEDBATH&BEYOND#01234 BEDBATH&BEYOND#1234 BEDBATH&BEYOND01234,546 North Highway 27/441,FL,32159
Bed Bath & Beyond,Oneonta,1235,#1235 #01235 BEDBATH&BEYOND#001235 BEDBATH&BEYOND#01235 BEDBATH&BEYOND#1235 BEDBATH&BEYOND01235,5006 State Highway 23,NY,13820
Bed Bath & Beyond,Canandaigua,1236,#1236 #01236 BEDBATH&BEYOND#001236 BEDBATH&BEYOND#01236 BEDBATH&BEYOND#1236 BEDBATH&BEYOND01236,328 Eastern Boulevard,NY,14424
Bed Bath & Beyond,Morehead City,1237,#1237 #01237 BEDBATH&BEYOND#001237 BEDBATH&BEYOND#01237 BEDBATH&BEYOND#1237 BEDBATH&BEYOND01237,5160 Highway 70,NC,28557
Bed Bath & Beyond,Waterford,1238,#1238 #01238 BEDBATH&BEYOND#001238 BEDBATH&BEYOND#01238 BEDBATH&BEYOND#1238 BEDBATH&BEYOND01238,850 Hartford Turnpike,CT,6385
Bed Bath & Beyond,Weatherford,1239,#1239 #01239 BEDBATH&BEYOND#001239 BEDBATH&BEYOND#01239 BEDBATH&BEYOND#1239 BEDBATH&BEYOND01239,225 Adams Drive,TX,76086
Bed Bath & Beyond,Syracuse,1241,#1241 #01241 BEDBATH&BEYOND#001241 BEDBATH&BEYOND#01241 BEDBATH&BEYOND#1241 BEDBATH&BEYOND01241,3597 West Genesee Street,NY,13219
Bed Bath & Beyond,Noblesville,1242,#1242 #01242 BEDBATH&BEYOND#001242 BEDBATH&BEYOND#01242 BEDBATH&BEYOND#1242 BEDBATH&BEYOND01242,14139 Town Center Boulevard,IN,46060
Bed Bath & Beyond,Glenmont,1243,#1243 #01243 BEDBATH&BEYOND#001243 BEDBATH&BEYOND#01243 BEDBATH&BEYOND#1243 BEDBATH&BEYOND01243,388 Feura Bush Road,NY,12077
Bed Bath & Beyond,Portsmouth,1244,#1244 #01244 BEDBATH&BEYOND#001244 BEDBATH&BEYOND#01244 BEDBATH&BEYOND#1244 BEDBATH&BEYOND01244,100 Durgin Lane,NH,3801
Bed Bath & Beyond,Flushing,1246,#1246 #01246 BEDBATH&BEYOND#001246 BEDBATH&BEYOND#01246 BEDBATH&BEYOND#1246 BEDBATH&BEYOND01246,"40-24 College Point Boulevard, Suite D426",NY,11354
Bed Bath & Beyond,Montgomery,1247,#1247 #01247 BEDBATH&BEYOND#001247 BEDBATH&BEYOND#01247 BEDBATH&BEYOND#1247 BEDBATH&BEYOND01247,7971 Eastchase Parkway,AL,36117
Bed Bath & Beyond,Gainesville,1248,#1248 #01248 BEDBATH&BEYOND#001248 BEDBATH&BEYOND#01248 BEDBATH&BEYOND#1248 BEDBATH&BEYOND01248,8135 Stonewall Shops Square,VA,20155
Bed Bath & Beyond,Council Bluffs,1249,#1249 #01249 BEDBATH&BEYOND#001249 BEDBATH&BEYOND#01249 BEDBATH&BEYOND#1249 BEDBATH&BEYOND01249,3706 Metro Drive,IA,51501
Bed Bath & Beyond,Manhattan,1250,#1250 #01250 BEDBATH&BEYOND#001250 BEDBATH&BEYOND#01250 BEDBATH&BEYOND#1250 BEDBATH&BEYOND01250,425 3rd Place,KS,66502
Bed Bath & Beyond,Muncy,1251,#1251 #01251 BEDBATH&BEYOND#001251 BEDBATH&BEYOND#01251 BEDBATH&BEYOND#1251 BEDBATH&BEYOND01251,290 South Lycoming Mall Road,PA,17756
Bed Bath & Beyond,Cleveland,1252,#1252 #01252 BEDBATH&BEYOND#001252 BEDBATH&BEYOND#01252 BEDBATH&BEYOND#1252 BEDBATH&BEYOND01252,4540 Frontage Road Northwest,TN,37312
Bed Bath & Beyond,Harker Heights,1253,#1253 #01253 BEDBATH&BEYOND#001253 BEDBATH&BEYOND#01253 BEDBATH&BEYOND#1253 BEDBATH&BEYOND01253,201 East Central Texas Expressway,TX,76548
Bed Bath & Beyond,Waynesboro,1254,#1254 #01254 BEDBATH&BEYOND#001254 BEDBATH&BEYOND#01254 BEDBATH&BEYOND#1254 BEDBATH&BEYOND01254,821D Town Center Drive,VA,22980
Bed Bath & Beyond,Suffolk,1255,#1255 #01255 BEDBATH&BEYOND#001255 BEDBATH&BEYOND#01255 BEDBATH&BEYOND#1255 BEDBATH&BEYOND01255,6253A College Drive,VA,23435
Bed Bath & Beyond,Machesney Park,1256,#1256 #01256 BEDBATH&BEYOND#001256 BEDBATH&BEYOND#01256 BEDBATH&BEYOND#1256 BEDBATH&BEYOND01256,1005 West Lane Road,IL,61115
Bed Bath & Beyond,Hingham,1258,#1258 #01258 BEDBATH&BEYOND#001258 BEDBATH&BEYOND#01258 BEDBATH&BEYOND#1258 BEDBATH&BEYOND01258,9 Shipyard Drive,MA,2043
Bed Bath & Beyond,Flowood,1259,#1259 #01259 BEDBATH&BEYOND#001259 BEDBATH&BEYOND#01259 BEDBATH&BEYOND#1259 BEDBATH&BEYOND01259,760 Mackenzie Lane,MS,39232
Bed Bath & Beyond,Sandy,1260,#1260 #01260 BEDBATH&BEYOND#001260 BEDBATH&BEYOND#01260 BEDBATH&BEYOND#1260 BEDBATH&BEYOND01260,10433 South State Street,UT,84070
Bed Bath & Beyond,Lake St. Louis,1261,#1261 #01261 BEDBATH&BEYOND#001261 BEDBATH&BEYOND#01261 BEDBATH&BEYOND#1261 BEDBATH&BEYOND01261,4 Meadows Circle Drive,MO,63367
Bed Bath & Beyond,Mansfield,1262,#1262 #01262 BEDBATH&BEYOND#001262 BEDBATH&BEYOND#01262 BEDBATH&BEYOND#1262 BEDBATH&BEYOND01262,1551 North U.S. Highway 287,TX,76063
Bed Bath & Beyond,Bullhead City,1263,#1263 #01263 BEDBATH&BEYOND#001263 BEDBATH&BEYOND#01263 BEDBATH&BEYOND#1263 BEDBATH&BEYOND01263,3699 Highway 95,AZ,86442
Bed Bath & Beyond,Bourbonnais,1264,#1264 #01264 BEDBATH&BEYOND#001264 BEDBATH&BEYOND#01264 BEDBATH&BEYOND#1264 BEDBATH&BEYOND01264,2056 North State Route 50,IL,60914
Bed Bath & Beyond,Warner Robins,1265,#1265 #01265 BEDBATH&BEYOND#001265 BEDBATH&BEYOND#01265 BEDBATH&BEYOND#1265 BEDBATH&BEYOND01265,3060 Watson Boulevard,GA,31093
Bed Bath & Beyond,Apple Valley,1266,#1266 #01266 BEDBATH&BEYOND#001266 BEDBATH&BEYOND#01266 BEDBATH&BEYOND#1266 BEDBATH&BEYOND01266,18815 Bear Valley Road,CA,92308
Bed Bath & Beyond,Spring Hill,1267,#1267 #01267 BEDBATH&BEYOND#001267 BEDBATH&BEYOND#01267 BEDBATH&BEYOND#1267 BEDBATH&BEYOND01267,1030 Crossings Boulevard,TN,37174
Bed Bath & Beyond,Sarasota,1268,#1268 #01268 BEDBATH&BEYOND#001268 BEDBATH&BEYOND#01268 BEDBATH&BEYOND#1268 BEDBATH&BEYOND01268,111 North Cattlemen Road,FL,34232
Bed Bath & Beyond,Fort Myers,1272,#1272 #01272 BEDBATH&BEYOND#001272 BEDBATH&BEYOND#01272 BEDBATH&BEYOND#1272 BEDBATH&BEYOND01272,3248 Forum Boulevard,FL,33905
Bed Bath & Beyond,Tulsa,1273,#1273 #01273 BEDBATH&BEYOND#001273 BEDBATH&BEYOND#01273 BEDBATH&BEYOND#1273 BEDBATH&BEYOND01273,7410 South Olympia Avenue,OK,74132
Bed Bath & Beyond,Fort Smith,1275,#1275 #01275 BEDBATH&BEYOND#001275 BEDBATH&BEYOND#01275 BEDBATH&BEYOND#1275 BEDBATH&BEYOND01275,3955 Phoenix Avenue,AR,72903
Bed Bath & Beyond,Dayville,1276,#1276 #01276 BEDBATH&BEYOND#001276 BEDBATH&BEYOND#01276 BEDBATH&BEYOND#1276 BEDBATH&BEYOND01276,2109 Killingly Commons Drive,CT,6241
Bed Bath & Beyond,Selinsgrove,1277,#1277 #01277 BEDBATH&BEYOND#001277 BEDBATH&BEYOND#01277 BEDBATH&BEYOND#1277 BEDBATH&BEYOND01277,490 Marketplace Blvd,PA,17870
Bed Bath & Beyond,Moore,1278,#1278 #01278 BEDBATH&BEYOND#001278 BEDBATH&BEYOND#01278 BEDBATH&BEYOND#1278 BEDBATH&BEYOND01278,2150 South Service Road,OK,73160
Bed Bath & Beyond,Hemet,1281,#1281 #01281 BEDBATH&BEYOND#001281 BEDBATH&BEYOND#01281 BEDBATH&BEYOND#1281 BEDBATH&BEYOND01281,1165 South Sanderson Avenue,CA,92545
Bed Bath & Beyond,Branson,1282,#1282 #01282 BEDBATH&BEYOND#001282 BEDBATH&BEYOND#01282 BEDBATH&BEYOND#1282 BEDBATH&BEYOND01282,1057 Branson Hills Parkway,MO,65616
Bed Bath & Beyond,Chicago,1283,#1283 #01283 BEDBATH&BEYOND#001283 BEDBATH&BEYOND#01283 BEDBATH&BEYOND#1283 BEDBATH&BEYOND01283,555 West Roosevelt Road,IL,60607
Bed Bath & Beyond,Opelika,1284,#1284 #01284 BEDBATH&BEYOND#001284 BEDBATH&BEYOND#01284 BEDBATH&BEYOND#1284 BEDBATH&BEYOND01284,2746 Enterprise Drive,AL,36801
Bed Bath & Beyond,Hot Springs,1285,#1285 #01285 BEDBATH&BEYOND#001285 BEDBATH&BEYOND#01285 BEDBATH&BEYOND#1285 BEDBATH&BEYOND01285,1454 Higdon Ferry Road,AR,71913
Bed Bath & Beyond,Harlingen,1286,#1286 #01286 BEDBATH&BEYOND#001286 BEDBATH&BEYOND#01286 BEDBATH&BEYOND#1286 BEDBATH&BEYOND01286,2817 West Expressway 83 Frontage,TX,78550
Bed Bath & Beyond,Leesburg,1288,#1288 #01288 BEDBATH&BEYOND#001288 BEDBATH&BEYOND#01288 BEDBATH&BEYOND#1288 BEDBATH&BEYOND01288,532 Fort Evans Road,VA,20176
Bed Bath & Beyond,Alexandria,1289,#1289 #01289 BEDBATH&BEYOND#001289 BEDBATH&BEYOND#01289 BEDBATH&BEYOND#1289 BEDBATH&BEYOND01289,3437 Masonic Drive,LA,71301
Bed Bath & Beyond,Germantown,1290,#1290 #01290 BEDBATH&BEYOND#001290 BEDBATH&BEYOND#01290 BEDBATH&BEYOND#1290 BEDBATH&BEYOND01290,2005 Exeter Road,TN,38138
Bed Bath & Beyond,West El Paso,1291,#1291 #01291 BEDBATH&BEYOND#001291 BEDBATH&BEYOND#01291 BEDBATH&BEYOND#1291 BEDBATH&BEYOND01291,655 Sunland Park Road,TX,79912
Bed Bath & Beyond,Quincy,1292,#1292 #01292 BEDBATH&BEYOND#001292 BEDBATH&BEYOND#01292 BEDBATH&BEYOND#1292 BEDBATH&BEYOND01292,5110 Broadway Street,IL,62305
Bed Bath & Beyond,Plaistow,1294,#1294 #01294 BEDBATH&BEYOND#001294 BEDBATH&BEYOND#01294 BEDBATH&BEYOND#1294 BEDBATH&BEYOND01294,58 Plaistow Road,NH,3865
Bed Bath & Beyond,Bronx,1296,#1296 #01296 BEDBATH&BEYOND#001296 BEDBATH&BEYOND#01296 BEDBATH&BEYOND#1296 BEDBATH&BEYOND01296,610 Exterior Streeet,NY,10451
Bed Bath & Beyond,Strongsville,1297,#1297 #01297 BEDBATH&BEYOND#001297 BEDBATH&BEYOND#01297 BEDBATH&BEYOND#1297 BEDBATH&BEYOND01297,16700 Royalton Road,OH,44136
Bed Bath & Beyond,Martinsburg,1298,#1298 #01298 BEDBATH&BEYOND#001298 BEDBATH&BEYOND#01298 BEDBATH&BEYOND#1298 BEDBATH&BEYOND01298,172 Retail Commons Parkway,WV,25403
Bed Bath & Beyond,Stowe,1300,#1300 #01300 BEDBATH&BEYOND#001300 BEDBATH&BEYOND#01300 BEDBATH&BEYOND#1300 BEDBATH&BEYOND01300,170 Upland Square Drive,PA,19464
Bed Bath & Beyond,Canton,1302,#1302 #01302 BEDBATH&BEYOND#001302 BEDBATH&BEYOND#01302 BEDBATH&BEYOND#1302 BEDBATH&BEYOND01302,1810 Cumming Highway,GA,30115
Bed Bath & Beyond,Paso Robles,1303,#1303 #01303 BEDBATH&BEYOND#001303 BEDBATH&BEYOND#01303 BEDBATH&BEYOND#1303 BEDBATH&BEYOND01303,2449 Golden Hill Road,CA,93446
Bed Bath & Beyond,Cape Coral,1304,#1304 #01304 BEDBATH&BEYOND#001304 BEDBATH&BEYOND#01304 BEDBATH&BEYOND#1304 BEDBATH&BEYOND01304,1827 Northeast Pine Island Road,FL,33909
Bed Bath & Beyond,Palm Springs,1305,#1305 #01305 BEDBATH&BEYOND#001305 BEDBATH&BEYOND#01305 BEDBATH&BEYOND#1305 BEDBATH&BEYOND01305,"5200 East Ramon Road, Building B",CA,92264
Bed Bath & Beyond,Homestead,1306,#1306 #01306 BEDBATH&BEYOND#001306 BEDBATH&BEYOND#01306 BEDBATH&BEYOND#1306 BEDBATH&BEYOND01306,2595 Northeast 10th Court,FL,33033
Bed Bath & Beyond,Prescott,1307,#1307 #01307 BEDBATH&BEYOND#001307 BEDBATH&BEYOND#01307 BEDBATH&BEYOND#1307 BEDBATH&BEYOND01307,"3250 Gateway Boulevard, Suite 508",AZ,86303
Bed Bath & Beyond,Schererville,1308,#1308 #01308 BEDBATH&BEYOND#001308 BEDBATH&BEYOND#01308 BEDBATH&BEYOND#1308 BEDBATH&BEYOND01308,124 U.S. Highway 41,IN,46375
Bed Bath & Beyond,Hamilton,1309,#1309 #01309 BEDBATH&BEYOND#001309 BEDBATH&BEYOND#01309 BEDBATH&BEYOND#1309 BEDBATH&BEYOND01309,160 Marketplace Boulevard,NJ,8691
Bed Bath & Beyond,Billings,1310,#1310 #01310 BEDBATH&BEYOND#001310 BEDBATH&BEYOND#01310 BEDBATH&BEYOND#1310 BEDBATH&BEYOND01310,2821 King Avenue West,MT,59102
Bed Bath & Beyond,Flemington,1311,#1311 #01311 BEDBATH&BEYOND#001311 BEDBATH&BEYOND#01311 BEDBATH&BEYOND#1311 BEDBATH&BEYOND01311,276 Route 202/31,NJ,8822
Bed Bath & Beyond,Collierville,1312,#1312 #01312 BEDBATH&BEYOND#001312 BEDBATH&BEYOND#01312 BEDBATH&BEYOND#1312 BEDBATH&BEYOND01312,4610 Merchants Park Circle,TN,38017
Bed Bath & Beyond,Southaven,1313,#1313 #01313 BEDBATH&BEYOND#001313 BEDBATH&BEYOND#01313 BEDBATH&BEYOND#1313 BEDBATH&BEYOND01313,6400 Towne Center Loop,MS,38671
Bed Bath & Beyond,Riverhead,1314,#1314 #01314 BEDBATH&BEYOND#001314 BEDBATH&BEYOND#01314 BEDBATH&BEYOND#1314 BEDBATH&BEYOND01314,"1440 Old Country Road, Suite 300",NY,11901
Bed Bath & Beyond,Vallejo,1315,#1315 #01315 BEDBATH&BEYOND#001315 BEDBATH&BEYOND#01315 BEDBATH&BEYOND#1315 BEDBATH&BEYOND01315,"105 Plaza Drive, Suite 107",CA,94591
Bed Bath & Beyond,Hadley,1316,#1316 #01316 BEDBATH&BEYOND#001316 BEDBATH&BEYOND#01316 BEDBATH&BEYOND#1316 BEDBATH&BEYOND01316,337 Russell Street,MA,1035
Bed Bath & Beyond,Selma,1317,#1317 #01317 BEDBATH&BEYOND#001317 BEDBATH&BEYOND#01317 BEDBATH&BEYOND#1317 BEDBATH&BEYOND01317,8262 Agora Parkway,TX,78154
Bed Bath & Beyond,Toms River,1318,#1318 #01318 BEDBATH&BEYOND#001318 BEDBATH&BEYOND#01318 BEDBATH&BEYOND#1318 BEDBATH&BEYOND01318,1240 Hooper Avenue,NJ,8753
Bed Bath & Beyond,Milpitas,1319,#1319 #01319 BEDBATH&BEYOND#001319 BEDBATH&BEYOND#01319 BEDBATH&BEYOND#1319 BEDBATH&BEYOND01319,147 Great Mall Drive,CA,95035
Bed Bath & Beyond,Amherst,1320,#1320 #01320 BEDBATH&BEYOND#001320 BEDBATH&BEYOND#01320 BEDBATH&BEYOND#1320 BEDBATH&BEYOND01320,"123 Route 101A, Space E",NH,3031
Bed Bath & Beyond,Durango,1321,#1321 #01321 BEDBATH&BEYOND#001321 BEDBATH&BEYOND#01321 BEDBATH&BEYOND#1321 BEDBATH&BEYOND01321,800 South Camino Del Rio,CO,81301
Bed Bath & Beyond,Aiea,1326,#1326 #01326 BEDBATH&BEYOND#001326 BEDBATH&BEYOND#01326 BEDBATH&BEYOND#1326 BEDBATH&BEYOND01326,98-145 Kaonohi Street,HI,96701
Bed Bath & Beyond,Stroudsburg,1327,#1327 #01327 BEDBATH&BEYOND#001327 BEDBATH&BEYOND#01327 BEDBATH&BEYOND#1327 BEDBATH&BEYOND01327,500 Shoppes at Stroud,PA,18360
Bed Bath & Beyond,Lancaster,1331,#1331 #01331 BEDBATH&BEYOND#001331 BEDBATH&BEYOND#01331 BEDBATH&BEYOND#1331 BEDBATH&BEYOND01331,"2350 Lincoln Highway East, Suite 100",PA,17602
Bed Bath & Beyond,Union Gap,1332,#1332 #01332 BEDBATH&BEYOND#001332 BEDBATH&BEYOND#01332 BEDBATH&BEYOND#1332 BEDBATH&BEYOND01332,1740 East Washington Avenue,WA,98903
Bed Bath & Beyond,Rapid City,1333,#1333 #01333 BEDBATH&BEYOND#001333 BEDBATH&BEYOND#01333 BEDBATH&BEYOND#1333 BEDBATH&BEYOND01333,1365 Eglin Street,SD,57701
Bed Bath & Beyond,Burlington,1336,#1336 #01336 BEDBATH&BEYOND#001336 BEDBATH&BEYOND#01336 BEDBATH&BEYOND#1336 BEDBATH&BEYOND01336,1915 Marketplace Drive,WA,98233
Bed Bath & Beyond,Winter Garden,1338,#1338 #01338 BEDBATH&BEYOND#001338 BEDBATH&BEYOND#01338 BEDBATH&BEYOND#1338 BEDBATH&BEYOND01338,3215 Daniels Road,FL,34787
Bed Bath & Beyond,Medford,1339,#1339 #01339 BEDBATH&BEYOND#001339 BEDBATH&BEYOND#01339 BEDBATH&BEYOND#1339 BEDBATH&BEYOND01339,"1600 North Riverside Avenue, Suite 1094",OR,97501
Bed Bath & Beyond,Christiana,1341,#1341 #01341 BEDBATH&BEYOND#001341 BEDBATH&BEYOND#01341 BEDBATH&BEYOND#1341 BEDBATH&BEYOND01341,331 West Main Street,DE,19702
Bed Bath & Beyond,Columbia,1342,#1342 #01342 BEDBATH&BEYOND#001342 BEDBATH&BEYOND#01342 BEDBATH&BEYOND#1342 BEDBATH&BEYOND01342,205 North Stadium Boulevard,MO,65203
Bed Bath & Beyond,Winchester,1343,#1343 #01343 BEDBATH&BEYOND#001343 BEDBATH&BEYOND#01343 BEDBATH&BEYOND#1343 BEDBATH&BEYOND01343,2540 South Pleasant Valley Road,VA,22601
Bed Bath & Beyond,Florence,1344,#1344 #01344 BEDBATH&BEYOND#001344 BEDBATH&BEYOND#01344 BEDBATH&BEYOND#1344 BEDBATH&BEYOND01344,356A Cox Creek Parkway,AL,35630
Bed Bath & Beyond,Victor,1346,#1346 #01346 BEDBATH&BEYOND#001346 BEDBATH&BEYOND#01346 BEDBATH&BEYOND#1346 BEDBATH&BEYOND01346,20 Square Drive,NY,14564
Bed Bath & Beyond,Duluth,1349,#1349 #01349 BEDBATH&BEYOND#001349 BEDBATH&BEYOND#01349 BEDBATH&BEYOND#1349 BEDBATH&BEYOND01349,1303 Miller Trunk Highway,MN,55811
Bed Bath & Beyond,Clarksville,1350,#1350 #01350 BEDBATH&BEYOND#001350 BEDBATH&BEYOND#01350 BEDBATH&BEYOND#1350 BEDBATH&BEYOND01350,2829 Wilma Rudolph Boulevard,TN,37040
Bed Bath & Beyond,Apopka,1353,#1353 #01353 BEDBATH&BEYOND#001353 BEDBATH&BEYOND#01353 BEDBATH&BEYOND#1353 BEDBATH&BEYOND01353,2239 East Semoran Boulevard,FL,32703
Bed Bath & Beyond,Roseville,1356,#1356 #01356 BEDBATH&BEYOND#001356 BEDBATH&BEYOND#01356 BEDBATH&BEYOND#1356 BEDBATH&BEYOND01356,"2480 North Fairview, Suite 115A",MN,55113
Bed Bath & Beyond,White Lake Township,1361,#1361 #01361 BEDBATH&BEYOND#001361 BEDBATH&BEYOND#01361 BEDBATH&BEYOND#1361 BEDBATH&BEYOND01361,9050 Highland Road,MI,48386
Bed Bath & Beyond,Nashville,1363,#1363 #01363 BEDBATH&BEYOND#001363 BEDBATH&BEYOND#01363 BEDBATH&BEYOND#1363 BEDBATH&BEYOND01363,211 Opry Mills Drive,TN,32714
Bed Bath & Beyond,Sandusky,1364,#1364 #01364 BEDBATH&BEYOND#001364 BEDBATH&BEYOND#01364 BEDBATH&BEYOND#1364 BEDBATH&BEYOND01364,"4020 Milan Road, Unit 910",OH,44870
Bed Bath & Beyond,Longview,1365,#1365 #01365 BEDBATH&BEYOND#001365 BEDBATH&BEYOND#01365 BEDBATH&BEYOND#1365 BEDBATH&BEYOND01365,"422 West Loop 281, Suite 200",TX,75605
Bed Bath & Beyond,Honolulu,1370,#1370 #01370 BEDBATH&BEYOND#001370 BEDBATH&BEYOND#01370 BEDBATH&BEYOND#1370 BEDBATH&BEYOND01370,"1200 Ala Moana Boulevard, Suite 500",HI,96814
Bed Bath & Beyond,Silverdale,1372,#1372 #01372 BEDBATH&BEYOND#001372 BEDBATH&BEYOND#01372 BEDBATH&BEYOND#1372 BEDBATH&BEYOND01372,"9991 Mickelberry Road Northwest, Unit 103",WA,98383
Bed Bath & Beyond,Kenosha,1374,#1374 #01374 BEDBATH&BEYOND#001374 BEDBATH&BEYOND#01374 BEDBATH&BEYOND#1374 BEDBATH&BEYOND01374,"7450 Green Bay Road, Suite A",WI,53142
Bed Bath & Beyond,Houston,45,#45 #045 BEDBATH&BEYOND#0045 BEDBATH&BEYOND#045 BEDBATH&BEYOND#45 BEDBATH&BEYOND045,"17355 Tomball Parkway, Suite 1J",TX,77064
Bed Bath & Beyond,Auburn,85,#85 #085 BEDBATH&BEYOND#0085 BEDBATH&BEYOND#085 BEDBATH&BEYOND#85 BEDBATH&BEYOND085,"1101 Outlet Collection Way, Suite 1260",WA,98001
Bed Bath & Beyond,Phoenix,93,#93 #093 BEDBATH&BEYOND#0093 BEDBATH&BEYOND#093 BEDBATH&BEYOND#93 BEDBATH&BEYOND093,10845 North Tatum Boulevard,AZ,85028
Bed Bath & Beyond,Albuquerque,111,#111 #0111 BEDBATH&BEYOND#00111 BEDBATH&BEYOND#0111 BEDBATH&BEYOND#111 BEDBATH&BEYOND0111,"2451 San Mateo Boulevard Northeast, Suite D",NM,87110
Bed Bath & Beyond,Cary,124,#124 #0124 BEDBATH&BEYOND#00124 BEDBATH&BEYOND#0124 BEDBATH&BEYOND#124 BEDBATH&BEYOND0124,405 Cross Roads Boulevard,NC,27518
Bed Bath & Beyond,Chandler,189,#189 #0189 BEDBATH&BEYOND#00189 BEDBATH&BEYOND#0189 BEDBATH&BEYOND#189 BEDBATH&BEYOND0189,850 North 54th Street,AZ,85226
Bed Bath & Beyond,Deptford,207,#207 #0207 BEDBATH&BEYOND#00207 BEDBATH&BEYOND#0207 BEDBATH&BEYOND#207 BEDBATH&BEYOND0207,1755 Deptford Center Road,NJ,8096
Bed Bath & Beyond,Baton Rouge,248,#248 #0248 BEDBATH&BEYOND#00248 BEDBATH&BEYOND#0248 BEDBATH&BEYOND#248 BEDBATH&BEYOND0248,10505 South Mall Drive,LA,70809
Bed Bath & Beyond,Greensboro,357,#357 #0357 BEDBATH&BEYOND#00357 BEDBATH&BEYOND#0357 BEDBATH&BEYOND#357 BEDBATH&BEYOND0357,"4217 West Wendover Avenue, Suite E",NC,27407
Bed Bath & Beyond,Salem,380,#380 #0380 BEDBATH&BEYOND#00380 BEDBATH&BEYOND#0380 BEDBATH&BEYOND#380 BEDBATH&BEYOND0380,"265 South Broadway, Suite 4",NH,3079
Bed Bath & Beyond,Mesa,491,#491 #0491 BEDBATH&BEYOND#00491 BEDBATH&BEYOND#0491 BEDBATH&BEYOND#491 BEDBATH&BEYOND0491,2039 North Power Road,AZ,85215
Bed Bath & Beyond,Denton,557,#557 #0557 BEDBATH&BEYOND#00557 BEDBATH&BEYOND#0557 BEDBATH&BEYOND#557 BEDBATH&BEYOND0557,"2315 Colorado Boulevard, Suite 180",TX,76205
Bed Bath & Beyond,Sacramento,569,#569 #0569 BEDBATH&BEYOND#00569 BEDBATH&BEYOND#0569 BEDBATH&BEYOND#569 BEDBATH&BEYOND0569,2725 Marconi Avenue,CA,95821
Bed Bath & Beyond,Phoenix,573,#573 #0573 BEDBATH&BEYOND#00573 BEDBATH&BEYOND#0573 BEDBATH&BEYOND#573 BEDBATH&BEYOND0573,7000 East Mayo Blvd,AZ,85054
Bed Bath & Beyond,D'Iberville,589,#589 #0589 BEDBATH&BEYOND#00589 BEDBATH&BEYOND#0589 BEDBATH&BEYOND#589 BEDBATH&BEYOND0589,3951 Promenade Parkway,MS,39540
Bed Bath & Beyond,Murfreesboro,611,#611 #0611 BEDBATH&BEYOND#00611 BEDBATH&BEYOND#0611 BEDBATH&BEYOND#611 BEDBATH&BEYOND0611,"2615 Medical Center Parkway, Suite 1200",TN,37129
Bed Bath & Beyond,Chandler,807,#807 #0807 BEDBATH&BEYOND#00807 BEDBATH&BEYOND#0807 BEDBATH&BEYOND#807 BEDBATH&BEYOND0807,3445 West Frye Road,AZ,85226
Bed Bath & Beyond,Phoenix,835,#835 #0835 BEDBATH&BEYOND#00835 BEDBATH&BEYOND#0835 BEDBATH&BEYOND#835 BEDBATH&BEYOND0835,10214 North Metro Parkway,AZ,85051
Bed Bath & Beyond,Gilbert,1033,#1033 #01033 BEDBATH&BEYOND#001033 BEDBATH&BEYOND#01033 BEDBATH&BEYOND#1033 BEDBATH&BEYOND01033,2793 South Market Street,AZ,85296
Bed Bath & Beyond,Flagstaff,1076,#1076 #01076 BEDBATH&BEYOND#001076 BEDBATH&BEYOND#01076 BEDBATH&BEYOND#1076 BEDBATH&BEYOND01076,1325 South Plaza Way,AZ,86001
Bed Bath & Beyond,Phoenix,1077,#1077 #01077 BEDBATH&BEYOND#001077 BEDBATH&BEYOND#01077 BEDBATH&BEYOND#1077 BEDBATH&BEYOND01077,1919 East Camelback Road,AZ,85016
Bed Bath & Beyond,Mesa,1151,#1151 #01151 BEDBATH&BEYOND#001151 BEDBATH&BEYOND#01151 BEDBATH&BEYOND#1151 BEDBATH&BEYOND01151,1834 South Signal Butte Road,AZ,85209
Bed Bath & Beyond,Mesa,1162,#1162 #01162 BEDBATH&BEYOND#001162 BEDBATH&BEYOND#01162 BEDBATH&BEYOND#1162 BEDBATH&BEYOND01162,837 North Dobson Road,AZ,85201
Bed Bath & Beyond,Tucson,1224,#1224 #01224 BEDBATH&BEYOND#001224 BEDBATH&BEYOND#01224 BEDBATH&BEYOND#1224 BEDBATH&BEYOND01224,5225 South Calle Santa Cruz,AZ,85706
Bed Bath & Beyond,Phoenix,1231,#1231 #01231 BEDBATH&BEYOND#001231 BEDBATH&BEYOND#01231 BEDBATH&BEYOND#1231 BEDBATH&BEYOND01231,34750 N. North Valley Parkway,AZ,85086
Bed Bath & Beyond,Casa Grande,1232,#1232 #01232 BEDBATH&BEYOND#001232 BEDBATH&BEYOND#01232 BEDBATH&BEYOND#1232 BEDBATH&BEYOND01232,1004 North Promenade Parkway,AZ,85222
Bed Bath & Beyond,Queen Creek,1257,#1257 #01257 BEDBATH&BEYOND#001257 BEDBATH&BEYOND#01257 BEDBATH&BEYOND#1257 BEDBATH&BEYOND01257,21258 South Ellsworth Loop Road,AZ,85142
Bed Bath & Beyond,Capitol Heights,1369,#1369 #01369 BEDBATH&BEYOND#001369 BEDBATH&BEYOND#01369 BEDBATH&BEYOND#1369 BEDBATH&BEYOND01369,1741 Ritchie Station Court,MD,20743
Bed Bath & Beyond,Grand Island,1375,#1375 #01375 BEDBATH&BEYOND#001375 BEDBATH&BEYOND#01375 BEDBATH&BEYOND#1375 BEDBATH&BEYOND01375,3416 West State Street,NE,68803
Bed Bath & Beyond,Osage Beach,1378,#1378 #01378 BEDBATH&BEYOND#001378 BEDBATH&BEYOND#01378 BEDBATH&BEYOND#1378 BEDBATH&BEYOND01378,4627 Osage Beach Parkway,MO,65065
Bed Bath & Beyond,Niagara Falls,1385,#1385 #01385 BEDBATH&BEYOND#001385 BEDBATH&BEYOND#01385 BEDBATH&BEYOND#1385 BEDBATH&BEYOND01385,1520 Military Road,NY,14304
Bed Bath & Beyond,Bowling Green,1386,#1386 #01386 BEDBATH&BEYOND#001386 BEDBATH&BEYOND#01386 BEDBATH&BEYOND#1386 BEDBATH&BEYOND01386,"2300 Gary Farms Boulevard, Suite 400",KY,42104
