keywords,city,Aggdata Store Number,store_number,address,state,zip_code
Beef O Brady's,Bradenton,1,#1,4925 Cortez Road,FL,34210
Beef O Brady's,Brandon,2,#2,210 S Kings Ave,FL,33511
Beef O Brady's,Apollo Beach,3,#3,205 Apollo Beach Blvd,FL,33572
Beef O Brady's,Valrico,4,#4,4330 Bell Shoals Rd,FL,33596
Beef O Brady's,Plant City,5,#5,2418 Jim Redman Pkwy,FL,33566
Beef O Brady's,Lakeland,6,#6,4810 S Florida Ave,FL,33813
Beef O Brady's,Tampa,8,#8,15784 N Dale Mabry Hwy,FL,33618
Beef O Brady's,Winter Haven,9,#9,300 Cypress Garden Blvd,FL,33880
Beef O Brady's,Tampa,11,#11,2819 S MacDill Ave,FL,33629
Beef O Brady's,Zephyrhills,12,#12,7833 Gall Blvd,FL,33541
Beef O Brady's,DeLand,14,#14,2667 S Woodland Blvd,FL,32720
Beef O Brady's,Land O' Lakes,15,#15,21539 Village Lakes Shopping Center,FL,34639
Beef O Brady's,Melbourne,17,#17,1316 S. Babcock St.,FL,32901
Beef O Brady's,Sebring,18,#18,2940 US 27 N,FL,33870
Beef O Brady's,Tallahassee,21,#21,1800 Thomasville Rd,FL,32303
Beef O Brady's,Seffner,22,#22,812 W Martin Luther King Blvd,FL,33584
Beef O Brady's,Lakeland,23,#23,1070 Wedgewood Estates Blvd,FL,33809
Beef O Brady's,Port Charlotte,24,#24,1825 Tamiami Trail,FL,33948
Beef O Brady's,New Port Richey,25,#25,8717-6 Little Rd,FL,34654
Beef O Brady's,Leesburg,27,#27,"27405 US Hwy 27, Suite 109",FL,34748
Beef O Brady's,Riverview,28,#28,9622 US 301 S,FL,33569
Beef O Brady's,Seminole,29,#29,10799 Park Blvd,FL,33772
Beef O Brady's,Gainesville,31,#31,1999 NW 43rd St,FL,32605
Beef O Brady's,Brooksville,32,#32,13180 Cortez Blvd,FL,34613
Beef O Brady's,Tallahassee,37,#37,"2910 Kerry Forest Pkwy, #A-7",FL,32308
Beef O Brady's,Viera,41,#41,"5410 Murrell Rd, Suite 101",FL,32955
Beef O Brady's,Oviedo,44,#44,"1817 E Broadway, Bldg 6",FL,32765
Beef O Brady's,Dothan,45,#45,"2743 Montgomery Hwy, #1010",AL,36303
Beef O Brady's,Naples,46,#46,"7385 Radio Rd, #101",FL,34104
Beef O Brady's,Wesley Chapel,49,#49,27315 State Rd 54 W,FL,33543
Beef O Brady's,Lithia,50,#50,16773-16775 Fishhawk Blvd,FL,33547
Beef O Brady's,Lake City,51,#51,"857 SW Main Blvd, Suite #100",FL,32025
Beef O Brady's,Gainesville,52,#52,6500 SW Archer Rd,FL,32608
Beef O Brady's,Fernandina Beach,55,#55,1916 S 14th St,FL,32034
Beef O Brady's,Peachtree City,56,#56,"100 Peachtree Pkwy N, Suite 18",GA,30269
Beef O Brady's,Louisville,58,#58,241 Blankenbaker Pkwy,KY,40243
Beef O Brady's,Tampa,59,#59,8810 N Himes Ave,FL,33614
Beef O Brady's,Crystal River,60,#60,6738 W Gulf to Lake Hwy,FL,34429
Beef O Brady's,Auburndale,61,#61,102 W Polk St,FL,33823
Beef O Brady's,Thomasville,62,#62,1508 E Jackson St,GA,31792
Beef O Brady's,Louisville,65,#65,5628 Bardstown Rd,KY,40291
Beef O Brady's,Bradenton,67,#67,1795 Lakewood Ranch Blvd,FL,34202
Beef O Brady's,Pensacola,70,#70,6907 N 9th Ave,FL,32504
Beef O Brady's,St. Cloud,71,#71,2926 13th St,FL,34769
Beef O Brady's,Cocoa,72,#72,"2301 Hwy 524, #170-175",FL,32922
Beef O Brady's,Valrico,73,#73,2561 E State Rd 60,FL,33594
Beef O Brady's,Lake Wales,75,#75,19598 Hwy 27,FL,33853
Beef O Brady's,Estero,84,#84,"20301 Grande Oaks Shoppes Blvd, #108",FL,33928
Beef O Brady's,Cumming,86,#86,2619 Freedom Pkwy,GA,30041
Beef O Brady's,Ruskin,91,#91,723 Cypress Village Blvd,FL,33573
Beef O Brady's,Niceville,95,#95,"4538 E. Hwy 20, Suite #10",FL,32578
Beef O Brady's,The Villages,97,#97,8720 SE 165 Mulberry Lane,FL,32162
Beef O Brady's,Palm Bay,100,#100,"3450 Bayside Lakes Blvd, #101-102",FL,32909
Beef O Brady's,Merritt Island,101,#101,"1450 N. Courtenay Parkway, #36",FL,32953
Beef O Brady's,Lutz,102,#102,18421 US Hwy 41,FL,33549
Beef O Brady's,D'lberville,104,#104,3680-L Sangani Blvd,MS,39540
Beef O Brady's,Lynn Haven,105,#105,"2310 S Hwy 77, Suite #350",FL,32444
Beef O Brady's,Ft. Mill,108,#108,"940 Market St, #110",SC,29708
Beef O Brady's,Maumelle,109,#109,"115 Audubon Dr, #10",AR,72113
Beef O Brady's,Winter Garden,113,#113,"13750 W Colonial Dr, Suite #130",FL,34787
Beef O Brady's,Saginaw,115,#115,"4880 Gratiot Rd, Bldg A, Suite #5-7",MI,48638
Beef O Brady's,Melbourne,116,#116,3030 Lake Washington Rd,FL,32935
Beef O Brady's,Apopka,119,#119,1410 N Rock Springs Rd,FL,32712
Beef O Brady's,Columbia,120,#120,4561 Hard Scrabble Rd,SC,29229
Beef O Brady's,Columbia,121,#121,"2742 North Lake Dr, #104",SC,29212
Beef O Brady's,Myrtle Beach,123,#123,3689 Renee Dr,SC,29579
Beef O Brady's,Davenport,126,#126,45653 US Hwy 27,FL,33897
Beef O Brady's,Lake Placid,128,#128,110 Plaza Ave,FL,33852
Beef O Brady's,Tampa,131,#131,10920 Cross Creek Blvd,FL,33647
Beef O Brady's,Englewood,136,#136,"1951 S McCall Rd, #700",FL,34223
Beef O Brady's,St. Petersburg,137,#137,4775 34th St S,FL,33711
Beef O Brady's,Bartow,144,#144,120 E Van Fleet Dr,FL,33830
Beef O Brady's,Savannah,146,#146,"461 Johnny Mercer Blvd, Suite #11",GA,31410
Beef O Brady's,North Richland Hills,147,#147,"8245 Precinct Line Rd, #230",TX,76180
Beef O Brady's,Centerville,148,#148,953 S Main St,OH,45458
Beef O Brady's,The Villages,156,#156,3539 Wedgewood Lane,FL,32162
Beef O Brady's,Arden,157,#157,2625 Hendersonville Rd,NC,28704
Beef O Brady's,Cocoa Beach,160,#160,5675 North Atlantic Avenue,FL,32931
Beef O Brady's,Ft. Myers,161,#161,"18911 S Tamiami Trail, #17",FL,33908
Beef O Brady's,Palatka,169,#169,201 N. 1st Street,FL,32177
Beef O Brady's,Lehigh Acres,177,#177,3114 Lee Blvd,FL,33971
Beef O Brady's,Haines City,178,#178,902 Old Polk City Road,FL,33844
Beef O Brady's,Okeechobee,180,#180,608 S Parrott Ave,FL,34974
Beef O Brady's,Brooksville,184,#184,7601 Horse Lake Rd.,FL,34601
Beef O Brady's,Callaway,200,#200,842 N. Tyndall Pkwy.,FL,32404
Beef O Brady's,Panama City Beach,211,#211,"13800 Panama City Beach Pkwy, Suite 110-111",FL,32407
Beef O Brady's,Odessa,212,#212,8568 Gunn Highway,FL,33556
Beef O Brady's,North Port,227,#227,1037 N Sumter Blvd,FL,34286
Beef O Brady's,Floyds Knobs,230,#230,105 LaFollette Station,IN,47119
Beef O Brady's,Hilliard,236,#236,6340 Scioto-Darby Creek Rd,OH,43026
Beef O Brady's,LaGrange,247,#247,1220 Market St,KY,40031
Beef O Brady's,Cooper City,252,#252,8655 Stirling Rd,FL,33328
Beef O Brady's,Newport News,253,#253,309 Oyster Point Rd,VA,23602
Beef O Brady's,Titusville,255,#255,"2825 Garden St, Suite 9",FL,32796
Beef O Brady's,Riverview,258,#258,13326 Lincoln Rd,FL,33569
Beef O Brady's,De Funiak Springs,264,#264,1310 US Hwy 331 S,FL,32433
Beef O Brady's,Bourbonnais,272,#272,547 Main St NW,IL,60914
Beef O Brady's,Tallahassee,277,#277,1208 Capital Circle SE,FL,32301
Beef O Brady's,Fayetteville,278,#278,5540 Camden Rd,NC,28306
Beef O Brady's,Fayetteville,279,#279,229 Hay Street Suite A,NC,28301
Beef O Brady's,Cape Coral,280,#280,2481 Del Prado Blvd. N,FL,33909
Beef O Brady's,Cape Coral,283,#283,"3015 Pine Island Rd SW, #101",FL,33991
Beef O Brady's,Frederick,284,#284,6956 Crestwood Blvd,MD,21703
Beef O Brady's,Bushnell,286,#286,2586 W CR 48,FL,33513
Beef O Brady's,Marianna,289,#289,4944 Malloy Plaza East,FL,32448
Beef O Brady's,Pensacola,290,#290,2101 West Nine Mile Road,FL,32534
Beef O Brady's,Union,293,#293,1597 Cavalry Dr.,KY,41091
Beef O Brady's,Mobile,296,#296,4419 Rangline Rd.,AL,36619
Beef O Brady's,Semmes,304,#304,3385 Schillingers Road N. Suite 1,AL,36575
Beef O Brady's,Amarillo,305,#305,"7306 SW 34th Ave, #7",TX,79121
Beef O Brady's,Granger,313,#313,12479 State Rd 23,IN,46530
Beef O Brady's,Beavercreek,317,#317,3347 Seajay Dr. (Beaver Valley Shopping Center),OH,45430
Beef O Brady's,Owensboro,327,#327,"3189 Fairview Dr, Suite E",KY,42303
Beef O Brady's,Satellite Beach,335,#335,724 S Patrick Dr,FL,32937
Beef O Brady's,Wildwood,341,#341,840 S Main St,FL,34785
Beef O Brady's,The Villages,348,#348,353 Colony Blvd. Suite 100,FL,32162
Beef O Brady's,Jefferson,350,#350,1679 Old Pendergrass Rd,GA,30549
Beef O Brady's,Ft. Myers,353,#353,13650 Fiddlesticks Blvd,FL,33912
Beef O Brady's,Arcadia,355,#355,1703 E Oak St,FL,34266
Beef O Brady's,Inverness,356,#356,1231 Hwy 41 N,FL,34450
Beef O Brady's,Dade City,360,#360,14136 7th St,FL,33525
Beef O Brady's,Spanish Fort,373,#373,"6450 US Hwy 90, Suite J",AL,36527
Beef O Brady's,Punta Gorda,374,#374,1105 Taylor Road,FL,33950
Beef O Brady's,Prattville,377,#377,2776 Legends Parkway,AL,36066
Beef O Brady's,Enterprise,397,#397,"621 Boll Weevil Circle, Suite 32-A",AL,36330
Beef O Brady's,Clewiston,398,#398,892 W Sugarland Hwy,FL,33440
Beef O Brady's,Frankfort,400,#400,"111 Westridge Dr, Suite A",KY,40601
Beef O Brady's,Naples,402,#402,3883 Tamiami Trail East,FL,34112
Beef O Brady's,Brimfield,407,#407,3975 Cascades Blvd.,OH,44240
Beef O Brady's,Bentonville,408,#408,2500 SW 14th St. Ste #108,AR,72712
Beef O Brady's,Johnson City,410,#410,2913 Boones Creek Road,TN,37615
Beef O Brady's,Parrish,412,#412,8913 US 301 North,FL,34219
Beef O Brady's,Bainbridge,413,#413,"1408 N. Tallahassee Highway, Suite J",GA,39819
Beef O Brady's,Alexandria,415,#415,5803 Coliseum Blvd. Suite A,LA,71303
Beef O Brady's,Land O' Lakes,416,#416,7040 Land O Lakes Blvd. #108,FL,34637
Beef O Brady's,Ocala,418,#418,3434 East Silver Springs Blvd.,FL,34470
Beef O Brady's,Dallas,429,#429,"76 Seven Hills Blvd, #105",GA,30132
Beef O Brady's,Athens,430,#430,"1860 Barnett Shoals Rd, 101",GA,30605
Beef O Brady's,Lubbock,432,#432,5510 4th Street Suite 280,TX,79416
Beef O Brady's,Peru,433,#433,911 West Main Street,IN,46970
Beef O Brady's,Cape Girardeau,435,#435,"1812  Carondalet Ave., Ste 1100",MO,63701
Beef O Brady's,Cedar Rapids,439,#439,"5240 Edgewood Rd, NE",IA,52411
Beef O Brady's,Elizabethtown,440,#440,2413 Ring Road,KY,42701
Beef O Brady's,Ft. Myers,441,#441,11841 Palm Beach Blvd,FL,33905
Beef O Brady's,Ooltewah,442,#442,5958 Snow Hill Rd. Suite 100-112,TN,37363
Beef O Brady's,Clemson,444,#444,101 Canoy Lane,SC,29631
Beef O Brady's,Corydon,446,#446,2402 Landmark Way NE,IN,47112
Beef O Brady's,Wadsworth,447,#447,1090 Williams Reserve Blvd.,OH,44281
Beef O Brady's,Georgetown,450,#450,1133 N. Fraser St.,SC,29440
Beef O Brady's,Brooksville,451,#451,31120 Cortez Blvd.,FL,34602
Beef O Brady's,Andalusia,453,#453,300 Westgate Plaza,AL,36420
Beef O Brady's,Tampa,463,#463,4103 Cedar Dr.,FL,33620
Beef O Brady's,Andover,464,#464,"15190 Bluebird St., #114",MN,55304
Beef O Brady's,Newport,465,#465,1723 Monmouth St.,KY,41071
Beef O Brady's,Belleview,469,#469,4496 SE 100th Place,FL,34420
Beef O Brady's,Spring Hill,470,#470,"14387 Spring Hill Dr., Suite 400",FL,34609
Beef O Brady's,Newburgh,471,#471,"8177 Bell Oaks Dr., Ste. A",IN,47630
Beef O Brady's,Tampa,473,#473,9331 E. Adamo Dr.,FL,33619
Beef O Brady's,LaBelle,474,#474,21 S. Lee St.,FL,33935
Beef O Brady's,Orlando,475,#475,12789 Waterford Lakes Parkway,FL,32828
Beef O Brady's,Brownsville,477,#477,"3457 Old Hwy 77, #100",TX,78520
Beef O Brady's,Crawfordville,488,#488,"10 Preston Circle, Suite A",FL,32327
Beef O Brady's,St. Pete Beach,489,#489,5600 Gulf Blvd,FL,33706
Beef O Brady's,Ocala,490,#490,11100 SW 93rd Court Rd #12,FL,34481
Beef O Brady's,Moultrie,491,#491,1 N. Main Street Suite 103,GA,31768
Beef O Brady's,Sarasota,496,#496,3578 Clark Road,FL,34231
Beef O Brady's,Hoover,498,#498,5519 Grove Blvd.,AL,35226
Beef O Brady's,Auburn,500,#500,"1849 Ogletree Road, #400",AL,36830
Beef O Brady's,Deltona,507,#507,2160 Howland Blvd.,FL,32738
Beef O Brady's,Vero Beach,508,#508,782 S. US Hwy 1,FL,32962
Beef O Brady's,Monticello,509,#509,254 West Broadway,MN,55362
Beef O Brady's,Lutz,511,#511,18835 SR 54,FL,33558
Beef O Brady's,Palm Harbor,512,#512,1100 Tarpon Woods Blvd.,FL,34685
Beef O Brady's,Meridian,514,#514,1161 Bonita Lakes Circle,MS,39301
Beef O Brady's,Elizabethton,517,#517,173 Hudson Drive,TN,37643
Beef O Brady's,Clermont,519,#519,1642 East Hwy 50,FL,34711
Beef O Brady's,Hebron,520,#520,1990 North Bend Rd.,KY,41048
Beef O Brady's,Ft. Smith,521,#521,12200 Highway 71 South,AR,72916
Beef O Brady's,Stow,524,#524,3732 Darrow Rd.,OH,44224
Beef O Brady's,Lake Jackson,527,#527,145 Oyster Creek Drive,TX,77566
Beef O Brady's,Chiefland,531,#531,7050 NW 140th St,FL,32626
Beef O Brady's,Meridian,533,#533,"1505 South Eagle Road, #190",ID,83642
Beef O Brady's,Tampa,534,#534,4516 South Dale Mabry Hwy,FL,33611
Beef O Brady's,Kingsport,535,#535,300 Clinchfield St. #180,TN,37660
Beef O Brady's,Hudson,536,#536,14851 State Road 52,FL,34669
Beef O Brady's,Batesville,537,#537,3000 Jennings Lane,AR,72501
Beef O Brady's,Largo,539,#539,13847-C Walsingham Road,FL,33774
Beef O Brady's,Hesperia,540,#540,12728 Main Street,CA,92345
Beef O Brady's,Starkville,541,#541,1275 Stark Road,MS,39759
Beef O Brady's,Temple Terrace,543,#543,9311 N. 56th Street,FL,33617
Beef O Brady's,Clearwater,544,#544,2471 N. McMullen Booth Rd,FL,33759
Beef O Brady's,McAllen,546,#546,2011 South 10th Street,TX,78503
Beef O Brady's,Louisville,547,#547,3101 South 2nd Street,KY,40208
Beef O Brady's,Bradenton,549,#549,4925 Cortez Road,FL,34210
Beef O Brady's,Springdale,550,#550,370 Glensprings Drive,OH,45246
Beef O Brady's,Pearland,554,#554,6200 West Broadway Street,TX,77581
Beef O Brady's,St. Francis,559,#559,23212 St. Francis Blvd. #700,MN,55070
Beef O Brady's,Fuquay-Varina,560,#560,305 South Main Street,NC,27526
Beef O Brady's,Great Falls,562,#562,1600 Fox Farm Road,MT,59404
Beef O Brady's,Umatilla,563,#563,9 North Central Avenue,FL,32784
Beef O Brady's,New Smyrna Beach,565,#565,1610 South Dixie Freeway,FL,32168
Beef O Brady's,Sioux Falls,566,#566,4021 North Bobhalla Drive,SD,57107
Beef O Brady's,Billings,567,#567,1223 Grand Avenue,MT,59102
Beef O Brady's,Wesley Chapel,568,#568,1660 Bruce B Downs Blvd,FL,33543
Beef O Brady's,Bradenton,571,#571,4286 53rd Ave. East,FL,34203
Beef O Brady's,Pensacola,575,#575,22 S. Palafox Street,FL,32502
Beef O Brady's,Surprise,576,#576,13699 North Litchfield Road,AZ,85379
Beef O Brady's,Chandler,577,#577,6045 West Chandler Blvd.,AZ,85226
Beef O Brady's,Sioux Falls,580,#580,2210 West 69th Street,SD,57108
