keywords,city,Aggdata Store Number,store_number,address,state,zip_code
Books-A-Million,Dalton,303,0000303 00303,816 Walnut Square Blvd,GA,30721
Books-A-Million,Janesville,493,0000493 00493,2500 Milton Ave,WI,53545
Books-A-Million,Abilene,105,0000105 00105,4310 Buffalo Gap Road,TX,79606
Books-A-Million,Acworth,106,0000106 00106,3372 North Cobb Parkway,GA,30101
Books-A-Million,Alabaster,108,0000108 00108,300 Colonial Promenade Parkway,AL,35007
Books-A-Million,Albany,111,0000111 00111,2601 Dawson Road,GA,31707
Books-A-Million,Aiken,114,0000114 00114,2441 Whiskey Road Ste 100 & 110,SC,29803
Books-A-Million,Alexandria,116,0000116 00116,3660 North Boulevard,LA,71301
Books-A-Million,Alexandria,118,0000118 00118,6230-I N. Kings Highway,VA,22303
Books-A-Million,Ames,119,0000119 00119,1200 South Duff Ave,IA,50010
Books-A-Million,Anderson,124,0000124 00124,3131 North Main Street,SC,29621
Books-A-Million,Hanover,134,0000134 00134,7000 Arundel Mills Circle,MD,21076
Books-A-Million,Asheboro,139,0000139 00139,130 Randolph Mall,NC,27205
Books-A-Million,Lawrenceville,149,0000149 00149,5900 Sugarloaf Parkkway,GA,30043
Books-A-Million,Auburn,153,0000153 00153,550 Center Street,ME,17402
Books-A-Million,Aurora,155,0000155 00155,195 Fox Valley Center,IL,60504
Books-A-Million,Barboursville,158,0000158 00158,120 Mall Rd.,WV,25504
Books-A-Million,Butler,159,0000159 00159,101 Clearview Circle,PA,16001
Books-A-Million,Bangor,163,0000163 00163,116 Bangor Mall Blvd.,ME,4401
Books-A-Million,Baton Rouge,167,0000167 00167,2380 Towne Center Blvd,LA,70806
Books-A-Million,Beverly Hills,174,0000174 00174,31150 Southfield Road,MI,48026
Books-A-Million,Biloxi,176,0000176 00176,2600 Beach Boulevard,MS,39531
Books-A-Million,Birmingham,180,0000180 00180,757 Brookwood Village,AL,35209
Books-A-Million,Birmingham,181,0000181 00181,5287 Highway 280 South,AL,35242
Books-A-Million,Trussville,216,0000216 00216,1624 Gadsden Highway,AL,35173
Books-A-Million,Bridgeport,222,0000222 00222,2399 Meadowbrook Road,WV,26330
Books-A-Million,Brandon,224,0000224 00224,839 Brandon Town Center Mall,FL,33511
Books-A-Million,Bradenton,225,0000225 00225,4225 14th Street West,FL,34205
Books-A-Million,Bristol,226,0000226 00226,16700 Highlands Center Blvd,VA,24202
Books-A-Million,Brunswick,230,0000230 00230,163 Golden Isles Plaza,GA,31520
Books-A-Million,Branson,231,0000231 00231,985 Branson Hills Parkway,MO,65616
Books-A-Million,Canton,232,0000232 00232,1810 Cumming Highway,GA,30114
Books-A-Million,North Canton,233,0000233 00233,6751 Strip Ave. NW,OH,44720
Books-A-Million,Charleston,234,0000234 00234,2107 Charleston Town Center,WV,25389
Books-A-Million,Charlotte,236,0000236 00236,14151 Steele Creek Road,NC,28273
Books-A-Million,Charleston,239,0000239 00239,2150 Northwoods Boulevard,SC,29406
Books-A-Million,Charleston,240,0000240 00240,212 RHL Boulevard,WV,25309
Books-A-Million,Hixson,242,0000242 00242,5230 Highway 153,TN,37343
Books-A-Million,Chicago,243,0000243 00243,144 S. Clark Street,IL,60603
Books-A-Million,Clarksville,252,0000252 00252,125 South Hampton Drive,TN,37040
Books-A-Million,Clarksville,253,0000253 00253,757 East Lewis and Clark Parkway,IN,47129
Books-A-Million,Cuyahoga Falls,254,0000254 00254,335 Howe Ave,OH,44221
Books-A-Million,Chicago Ridge,255,0000255 00255,444 Chicago Ridge Mall,IL,60415
Books-A-Million,Cleveland,265,0000265 00265,4560 Frontage Road,TN,37312
Books-A-Million,Fairview Park,267,0000267 00267,3230 Westgate,OH,44126
Books-A-Million,Columbia,276,0000276 00276,6151 Columbi Crossing Cr.,MD,21045
Books-A-Million,Columbia,277,0000277 00277,164 Forum Dr.,SC,29229
Books-A-Million,Columbus,280,0000280 00280,1434 Old Aberdeen Rd,MS,39701
Books-A-Million,Columbus,282,0000282 00282,3507 Manchester Expressway,GA,31909
Books-A-Million,Concord,283,0000283 00283,76 Fort Eddy Rd.,NH,3301
Books-A-Million,Concord,284,0000284 00284,1480 Concord Parkway North,NC,28025
Books-A-Million,Concord,286,0000286 00286,8301 Concord Mills Blvd.,NC,28027
Books-A-Million,Cookeville,290,0000290 00290,401 West Jackson Street,TN,38501
Books-A-Million,Corbin,291,0000291 00291,1000 East Cumberland Gap Parkway,KY,40701
Books-A-Million,Corinth,292,0000292 00292,802 Cass Street,MS,38834
Books-A-Million,Cullman,299,0000299 00299,719 2nd Avenue NW,AL,35055
Books-A-Million,Cumberland,301,0000301 00301,Country Club Mall,MD,21502
Books-A-Million,Beavercreek,313,0000313 00313,4453 Walnut St.,OH,45440
Books-A-Million,Spanish Fort,315,0000315 00315,22000 Town Center Avenue,AL,36527
Books-A-Million,Daytona Beach,316,0000316 00316,1700 W. International Speedway Blvd.,FL,32114
Books-A-Million,Decatur,321,0000321 00321,1682 Beltline Road Southwest,AL,35601
Books-A-Million,Davenport,322,0000322 00322,4000 East 53rd St,IA,52807
Books-A-Million,Defiance,325,0000325 00325,1500 North Clinton Street,OH,43512
Books-A-Million,Destin,328,0000328 00328,4250 Legendary Drive,FL,32541
Books-A-Million,Dothan,341,0000341 00341,3525 Ross Clark Circle,AL,36303
Books-A-Million,Dubuque,343,0000343 00343,555 John F. Kennedy Rd,IA,52001
Books-A-Million,Dulles,344,0000344 00344,21100 Dulles Town Center Circle,VA,20166
Books-A-Million,Eau Claire,350,0000350 00350,4030 Commonwealth Ave,WI,54701
Books-A-Million,Edwardsville,351,0000351 00351,6601 Edwardsville Crossing Dr.,IL,62045
Books-A-Million,Exton,355,0000355 00355,298 Exton Square,PA,19341
Books-A-Million,Erie,359,0000359 00359,654 Millcreek Mall,PA,16565
Books-A-Million,Findlay,369,0000369 00369,1800 Tiffin Ave,OH,45840
Books-A-Million,Florence,377,0000377 00377,318 Cox Creek Parkway,AL,35630
Books-A-Million,Fredericksburg,378,0000378 00378,137 Spotsylvania Mall,VA,22407
Books-A-Million,Fort Lauderdale,381,0000381 00381,12801 West Sunrise,FL,33323
Books-A-Million,Fort Myers,386,0000386 00386,9360 Dynasty Drive,FL,33905
Books-A-Million,Ft. Myers,387,0000387 00387,4125 Cleveland Avenue,FL,33901
Books-A-Million,Fort Smith,390,0000390 00390,4145 Phoenix Avenue,AR,72903
Books-A-Million,Fort Walton Beach,393,0000393 00393,417-C Mary Ester Cut-Off NW,FL,32548
Books-A-Million,Fultondale,394,0000394 00394,3429 Lowery Parkway,AL,35068
Books-A-Million,Gadsden,395,0000395 00395,1001 Rainbow Drive,AL,35901
Books-A-Million,Gainesville,397,0000397 00397,2601 Northwest 13th Street,FL,32609
Books-A-Million,Gainesville,398,0000398 00398,6111 Newberry Road,FL,32605
Books-A-Million,Gainesville,400,0000400 00400,150 Pearl Nix Parkway,GA,30501
Books-A-Million,Gastonia,403,0000403 00403,3710 East Franklin Blvd.,NC,28054
Books-A-Million,Goldsboro,409,0000409 00409,1101-D Berkeley Blvd.,NC,27534
Books-A-Million,Grapevine,413,0000413 00413,3000 Grapevine Mills Parkway,TX,76051
Books-A-Million,Greenbelt,415,0000415 00415,6118 Greenbelt Road,MD,20770
Books-A-Million,Griffin,420,0000420 00420,1635 North Expressway,GA,30223
Books-A-Million,Gulf Shores,421,0000421 00421,3800 Gulf Shores Parkway,AL,36542
Books-A-Million,Hagerstown,422,0000422 00422,17301 Valley Mall Road,MD,21740
Books-A-Million,Hammond,423,0000423 00423,Hammond Square:  325 Palace Dr.,LA,70403
Books-A-Million,Hanover,424,0000424 00424,1155 Carlisle Street,PA,17331
Books-A-Million,Harrisburg,427,0000427 00427,5125 Jonestown Rd,PA,17112
Books-A-Million,Harrisonburg,428,0000428 00428,1925 East Market Street,VA,22801
Books-A-Million,Hattiesburg,431,0000431 00431,6143 Highway 98,MS,39402
Books-A-Million,Houma,441,0000441 00441,1539 Martin Luther King Boulevard,LA,70360
Books-A-Million,Hot Springs,442,0000442 00442,450 Corner Stone Market,AR,71913
Books-A-Million,Huntsville,445,0000445 00445,1001-7 North Memorial Parkway,AL,35801
Books-A-Million,Indianapolis,464,0000464 00464,5750 West 86th Street,IN,46278
Books-A-Million,Jackson,471,0000471 00471,1081 Vann Drive,TN,38305
Books-A-Million,Jackson,476,0000476 00476,4950 155 North,MS,39211
Books-A-Million,Jacksonville,486,0000486 00486,738 Marsh Landing Parkway,FL,32250
Books-A-Million,Orange Park,487,0000487 00487,25A 1910 Wells Road,FL,32073
Books-A-Million,Jacksonville,488,0000488 00488,9400 Atlantic Boulevard,FL,32225
Books-A-Million,Johnstown,509,0000509 00509,500 Galleria Drive,PA,15904
Books-A-Million,Johnson City,511,0000511 00511,2116 North Roan Street,TN,37601
Books-A-Million,Joplin,512,0000512 00512,423 South Range Line Road,MO,64801
Books-A-Million,Katy,515,0000515 00515,5000 Katy Mills Circle,TX,77494
Books-A-Million,Kansas City,517,0000517 00517,1859 West Village Parkway,KS,66111
Books-A-Million,Kissimmee,520,0000520 00520,2605 W. Osceola Parkway,FL,34741
Books-A-Million,Kingsport,524,0000524 00524,2626 East Stone Drive,TN,37660
Books-A-Million,Knoxville,530,0000530 00530,8513 Kingston Pike,TN,37919
Books-A-Million,Kokomo,560,0000560 00560,1117 South Reed Road (US 31),IN,46902
Books-A-Million,Laredo,568,0000568 00568,5300 San Dario Avenue,TX,78041
Books-A-Million,Lafayette,569,0000569 00569,4419 Ambassador Caffery,LA,70508
Books-A-Million,Lancaster,571,0000571 00571,828 Park City Center,PA,17601
Books-A-Million,Leesburg,573,0000573 00573,59-B Catoctin Circle N.E.,VA,20176
Books-A-Million,Lakeland,575,0000575 00575,1520 Towne Center Drive,FL,33803
Books-A-Million,Laurel,576,0000576 00576,351 Montrose Ave,MD,20707
Books-A-Million,Lake Charles,577,0000577 00577,2934 Ryan Street,LA,70601
Books-A-Million,Lexington,578,0000578 00578,918A North Lake Drive,SC,29072
Books-A-Million,Leesburg,579,0000579 00579,10401 US Highway 441,FL,34788
Books-A-Million,North Little Rock,581,0000581 00581,2747 Lakewood Village Drive,AR,72116
Books-A-Million,Longview,584,0000584 00584,422 West Loop 281,TX,75605
Books-A-Million,Louisville,586,0000586 00586,992 Breckenridge Lane,KY,40207
Books-A-Million,Mays Landing,590,0000590 00590,2200 Wrangleboro Rd.,NJ,8330
Books-A-Million,Madison,591,0000591 00591,7830 Highway 72 West,AL,35758
Books-A-Million,Martinsburg,593,0000593 00593,300 Retail Commons Parkway,WV,25403
Books-A-Million,Mccomb,596,0000596 00596,1722 Smithdale Road,MS,39648
Books-A-Million,McLean,597,0000597 00597,1451 Chain Bridge Road,VA,22101
Books-A-Million,McDonough,598,0000598 00598,1774 Jonesboro Road,GA,30253
Books-A-Million,Southhaven,609,0000609 00609,135 Towne Square Blvd.,MS,38671
Books-A-Million,Meridian,616,0000616 00616,131 S. Frontage Road,MS,39301
Books-A-Million,Merrillville,619,0000619 00619,2060 Southlake Mall,IN,46410
Books-A-Million,Merritt Island,622,0000622 00622,777 East Merrit Island Causeway,FL,32952
Books-A-Million,Middlesboro,623,0000623 00623,US Highway 25 East,KY,40965
Books-A-Million,Monaca,629,0000629 00629,222 Beaver Valley Mall Rt 18,PA,15061
Books-A-Million,Monroe,631,0000631 00631,1201 Lamy Lane,LA,71201
Books-A-Million,Monroe,633,0000633 00633,2121 North Monroe Street,MI,48161
Books-A-Million,Montgomery,636,0000636 00636,1534 Eastern Boulevard,AL,36117
Books-A-Million,Montgomery,637,0000637 00637,Montgomery/East Chase,AL,36117
Books-A-Million,Morgantown,639,0000639 00639,Glenmark Centre,WV,26508
Books-A-Million,Mt. Juliet,647,0000647 00647,401 South Juliet Road,TN,37122
Books-A-Million,Myrtle Beach,652,0000652 00652,800 Coastal Grand Circle,SC,29577
Books-A-Million,Muncie,653,0000653 00653,3501 North Grandville Avenue,IN,47303
Books-A-Million,Murfreesboro,654,0000654 00654,1720 Old Fort Parkway,TN,37129
Books-A-Million,Myrtle Beach,658,0000658 00658,10177 North Kings Highway,SC,29572
Books-A-Million,Murrells Inlet,660,0000660 00660,10125 Highway 17 Bypass,SC,29576
Books-A-Million,Nashville,662,0000662 00662,6718 Charlotte Pike,TN,37209
Books-A-Million,Madison,663,0000663 00663,1789 Gallatin Pike North,TN,37115
Books-A-Million,Natchez,665,0000665 00665,350 John R. Junkin Drive,MS,39120
Books-A-Million,New Bern,669,0000669 00669,3005 Claredon Boulevard,NC,28562
Books-A-Million,New Smyrna Beach,678,0000678 00678,1944 State Road 44,FL,32168
Books-A-Million,North Conway,681,0000681 00681,1500 White Mountain Highway,NH,3860
Books-A-Million,Niles,684,0000684 00684,5555 Youngstown Warren Rd,OH,44446
Books-A-Million,Opelika,723,0000723 00723,2243 Tigertown Parkway,AL,36801
Books-A-Million,Omaha,728,0000728 00728,12220 K Plaza,NE,68137
Books-A-Million,Casselberry,732,0000732 00732,5775 South U.S. Highway 17-92,FL,32707
Books-A-Million,Orlando-Sanford,734,0000734 00734,200 North Entrance Road,FL,32771
Books-A-Million,Davenport,736,0000736 00736,5600 Grand View Parkway,FL,33837
Books-A-Million,Owensboro,743,0000743 00743,4606 Frederica Street,KY,42301
Books-A-Million,Oxford,746,0000746 00746,900 Quintard Drive,AL,36203
Books-A-Million,Paducah,748,0000748 00748,2929 James-Sanders Boulevard,KY,42001
Books-A-Million,Panama City,750,0000750 00750,811 East 23rd Street,FL,32405
Books-A-Million,Peachtree City,751,0000751 00751,The Avenue at Peachtree City,GA,30269
Books-A-Million,Paramus,752,0000752 00752,700 Paramus Park,NJ,7652
Books-A-Million,Pennsdale,753,0000753 00753,300 Lycoming Mall Circle,PA,17756
Books-A-Million,Pensacola,756,0000756 00756,6235 North Davis Highway,FL,32504
Books-A-Million,Philadelphia,764,0000764 00764,901 E. Market Street,PA,19107
Books-A-Million,Pigeon Forge,767,0000767 00767,190 Collier Dr.,TN,37864
Books-A-Million,Pottstown,768,0000768 00768,351 W. Schuylkill Road,PA,19465
Books-A-Million,Woodbridge,769,0000769 00769,2700 Potomac Mills Circle,VA,22192
Books-A-Million,Port Charlotte,777,0000777 00777,1825 Tamiami Trail,FL,33948
Books-A-Million,Port Richey,781,0000781 00781,9570 US Highway 19 North,FL,34668
Books-A-Million,Prattville,783,0000783 00783,2724 Legends Parkway,AL,36066
Books-A-Million,Rapid City,785,0000785 00785,2130 North Haines Ave,SD,57701
Books-A-Million,Colonial Heights,786,0000786 00786,1891 Southpark Circle,VA,23834
Books-A-Million,Midlothian,788,0000788 00788,15701 Westchester Commons Main St,VA,23113
Books-A-Million,Rocky Mount,793,0000793 00793,1100 N Weslayen Blvd.,NC,27804
Books-A-Million,Rock Hill,794,0000794 00794,540 John Ross Parkway,SC,29730
Books-A-Million,Salisbury,820,0000820 00820,1935 Jake Alexander Boulevard West,NC,28144
Books-A-Million,Salina,821,0000821 00821,2259 South 9th Street,KS,67401
Books-A-Million,Sandusky,822,0000822 00822,4314 Milan Rd,OH,44870
Books-A-Million,Selinsgrove,823,0000823 00823,1 Susquehana Valley Mall Drive,PA,17870
Books-A-Million,San Antonio,826,0000826 00826,5347 W. Loop 1604 N.,TX,78253
Books-A-Million,Sarasota,829,0000829 00829,6591 S. Tamiami Trail,FL,34231
Books-A-Million,Scranton,834,0000834 00834,100 Viewmont Mall,PA,18508
Books-A-Million,Sherman,837,0000837 00837,Sherman Town Center,TX,75092
Books-A-Million,Sebring,838,0000838 00838,1716 US 27 North,FL,33870
Books-A-Million,Bossier City,842,0000842 00842,2001 Airline Drive,LA,71111
Books-A-Million,Slidell,844,0000844 00844,150 North Shore Boulevard,LA,70460
Books-A-Million,Sumter,848,0000848 00848,1057 Broad Street,SC,29150
Books-A-Million,South Portland,851,0000851 00851,430 Gorham Rd,ME,4106
Books-A-Million,Somerset,852,0000852 00852,4150 South Highway 27,KY,42501
Books-A-Million,Spring Hill,853,0000853 00853,1040 Crossings Blvd.,TN,37174
Books-A-Million,Statesville,855,0000855 00855,1619 East Broad Street,NC,28677
Books-A-Million,Hazelwood,856,0000856 00856,5555 St. Louis Mills Boulevard,MO,63042
Books-A-Million,Statesboro,857,0000857 00857,343 Henry Blvd.,GA,30458
Books-A-Million,Southern Pines,858,0000858 00858,38 Pinecrest Plaza,NC,28387
Books-A-Million,St. Clairsville,859,0000859 00859,67800 Mall Road,OH,43950
Books-A-Million,Waynesboro,860,0000860 00860,801-A Town Center Drive,VA,22980
Books-A-Million,Springfield,861,0000861 00861,1250 Baltimore Pike,PA,19064
Books-A-Million,Tallahassee,872,0000872 00872,3521 Thomasville Road,FL,32308
Books-A-Million,Terre Haute,875,0000875 00875,3370 South US Hwy 41,IN,47802
Books-A-Million,Texarkana,877,0000877 00877,3501 Mall Drive,TX,75503
Books-A-Million,Perrysburg,890,0000890 00890,The Town Center at Levis Commons,OH,43551
Books-A-Million,Traverse City,893,0000893 00893,2612 Crossings Circle,MI,49684
Books-A-Million,Trumbull,894,0000894 00894,5065 Main Street,CT,6611
Books-A-Million,Tulsa,895,0000895 00895,7404 S. Olympia Ave.,OK,74132
Books-A-Million,Tuscaloosa,904,0000904 00904,900 Skyland Boulevard East,AL,35405
Books-A-Million,Valdosta,920,0000920 00920,1705 Norman Drive,GA,31601
Books-A-Million,Venice,922,0000922 00922,4230 South Tamiami Trail,FL,34293
Books-A-Million,Vero Beach,923,0000923 00923,2006 58th Ave.,FL,32966
Books-A-Million,Vicksburg,925,0000925 00925,3505 Pemberton Square Boulevard,MS,39180
Books-A-Million,Vero Beach,926,0000926 00926,6200 20th Street,FL,32966
Books-A-Million,Viera,927,0000927 00927,2251 Town Center Avenue,FL,32940
Books-A-Million,Vineland,928,0000928 00928,3849 South Delsea Drive,NJ,8360
Books-A-Million,Valley Stream,929,0000929 00929,1061 Green Acres Mall,NY,11580
Books-A-Million,Virginia Beach,931,0000931 00931,3312 Princess Anne Road,VA,23456
Books-A-Million,Waldorf,941,0000941 00941,3304 A Crain Hwy,MD,6835
Books-A-Million,Westminster,942,0000942 00942,400 North Center Street,MD,21157
Books-A-Million,Warner Robins,944,0000944 00944,2620 Watson Boulevard,GA,31093
Books-A-Million,Washington,948,0000948 00948,11 Dupont Circle N.W.,DC,20036
Books-A-Million,Wichita Falls,949,0000949 00949,3111 Midwestern Parkway,TX,76308
Books-A-Million,Williamsburg,951,0000951 00951,1252 Richmond Road,VA,23187
Books-A-Million,Wilmington,953,0000953 00953,3737 Oleander Drive,NC,28403
Books-A-Million,Winchester,954,0000954 00954,2198 South Pleasant Valley Road,VA,22601
Books-A-Million,Triadelphia,956,0000956 00956,520 Cabela Drive,WV,26059
Books-A-Million,Waterford,957,0000957 00957,915 Hartford Tpke,CT,6385
Books-A-Million,West Lebanon,958,0000958 00958,285 Plainfield Rd,NH,3784
Books-A-Million,York,962,0000962 00962,3000 Whiteford Rd.,PA,17402
Books-A-Million,Chambersburg,256,0000256 00256,3055 Black Gap Rd,PA,17202
Books-A-Million,Fond Du Lac,379,0000379 00379,835 West Johnson St,WI,54935
Books-A-Million,Mobile,626,0000626 00626,3962 Airport Boulevard,AL,36606
Books-A-Million,Morristown,640,0000640 00640,2550 East Morris Boulevard,TN,37813
Books-A-Million,Oak Ridge,711,0000711 00711,310 S Illinois Ave,TN,37830
Books-A-Million,Rockaway,798,0000798 00798,301 Mount Hope Ave,NJ,7866
Books-A-Million,Stroudsburg,862,0000862 00862,344 Stroud Mall Rd,PA,18360
