keywords,city,Aggdata Store Number,store_number,address,state,zip_code
Boston Market,Norwood,3,3,111 Lenox Street,MA,2062
Boston Market,Fitchburg,4,4,152 Whalon St.,MA,1420
Boston Market,Waltham,13,13,1099 Lexington Street,MA,2452
Boston Market,Brockton,14,14,756 Belmont Street,MA,2301
Boston Market,Framingham,15,15,341 Cochituate Rd,MA,1701
Boston Market,E. Longmeadow,23,23,14 Maple Street,MA,1028
Boston Market,Manchester,27,27,14 March Avenue,NH,3103
Boston Market,Saugus,29,29,168 Broadway,MA,1906
Boston Market,Bexley,35,35,2741 E. Main Street,OH,43209
Boston Market,Philadelphia,41,41,4600 City Line Avenue,PA,19131
Boston Market,Mount Kisco,54,54,130 North Bedford Rd,NY,10549
Boston Market,Danbury,56,56,61 Newtown Road,CT,6810
Boston Market,Grosse Pointe Woods,59,59,20195 Mack Road,MI,48236
Boston Market,Pittsburgh,60,60,1736 Washington Rd.,PA,15241
Boston Market,Warren,68,68,26021 Hoover Road,MI,48089
Boston Market,Shaker Heights,76,76,16773 Chagrin Blvd,OH,44120
Boston Market,Southfield,77,77,29940 Southfield Road,MI,48076
Boston Market,Tampa,80,80,5501 East Fowler Avenue,FL,33617
Boston Market,Alexandria,87,87,4809 Beauregard St.,VA,22312
Boston Market,Brooklyn,90,90,4742 Ridge Road,OH,44144
Boston Market,Old Greenwich,92,92,1345 E. Putnam Avenue,CT,6870
Boston Market,Cranston,96,96,185 Sockanoset Cross Rd,RI,2920
Boston Market,Clearwater,97,97,2300 Gulf To Bay,FL,33765
Boston Market,Mesquite,98,98,1230 Town East Blvd.,TX,75150
Boston Market,Safety Harbor,101,101,1847 Enterprise Road East,FL,34695
Boston Market,Fairfax,102,102,13059 Lee Jackson Memorial Highway,VA,22033
Boston Market,Garland,104,104,730 W. Centerville Rd.,TX,75041
Boston Market,Park Ridge,106,106,150 Kinderkamack Rd,NJ,7656
Boston Market,Philadelphia,111,111,9113 E. Roosevelt Blvd.,PA,19114
Boston Market,Duncanville,112,112,789 W Wheatland Rd.,TX,75116
Boston Market,Tampa,113,113,7503 W. Waters Avenue,FL,33615
Boston Market,Fairlawn,115,115,"3750 W. Market St, Unit F",OH,44333
Boston Market,Fairfield,117,117,1982 Black Rock Turnpike,CT,6825
Boston Market,Stamford,118,118,1081 High Ridge Road,CT,6905
Boston Market,Succasunna,119,119,247 Route 10 East,NJ,7876
Boston Market,Arlington,120,120,4402 Little Road,TX,76016
Boston Market,Ft. Lee,121,121,1605 Lemoine Avenue,NJ,7024
Boston Market,Pompano Beach,123,123,2451 N. Federal Hwy,FL,33064
Boston Market,Saratoga Springs,126,126,204 Broadway Avenue,NY,12866
Boston Market,Brandon,131,131,1401 W. Brandon Blvd.,FL,33511
Boston Market,Boynton Beach,132,132,9929 Military Trail South No.53,FL,33436
Boston Market,Clinton Township,135,135,37105 Gratiot Avenue,MI,48038
Boston Market,Rochester Hills,136,136,3200 Walton Blvd,MI,48309
Boston Market,Annapolis,137,137,2307A Forest Drive,MD,21401
Boston Market,Lyndhurst,139,139,5096 Mayfield Road,OH,44124
Boston Market,Winter Park,140,140,840 N. Orlando Avenue,FL,32789
Boston Market,Ft. Lauderdale,141,141,1500 South Federal Hwy,FL,33316
Boston Market,Monroeville,146,146,3776 William Penn Hwy,PA,15146
Boston Market,West Hartford,148,148,1240 Farmington Ave.,CT,6107
Boston Market,Ellicott City,153,153,9380 Baltimore National Pike,MD,21042
Boston Market,Langhorne,154,154,360 N Oxford Valley Road,PA,19047
Boston Market,Dallas,157,157,4635 Frankford Road,TX,75287
Boston Market,Pittsburgh,160,160,4826 McKnight Road,PA,15237
Boston Market,Bradenton,162,162,5002 Cortez West,FL,34210
Boston Market,Westmont,166,166,101 W. Ogden Ave.,IL,60559
Boston Market,Parma,167,167,1350 W. Pleasant Valley Rd,OH,44134
Boston Market,Charter Township of,169,169,13993 Hall Rd.,MI,48315
Boston Market,Buffalo Grove,170,170,150 N McHenry Road,IL,60089
Boston Market,Wellington,172,172,12792 Forest Hills Blvd.,FL,33414
Boston Market,Waldwick,174,174,20 Wyckoff Avenue,NJ,7463
Boston Market,Coral Springs,175,175,2525 University Drive,FL,33065
Boston Market,Altamonte Springs,177,177,429 W. S.R. 436,FL,32714
Boston Market,Reston,180,180,1492 Northpoint Village Center,VA,20194
Boston Market,Troy,185,185,5137 Rochester Road,MI,48098
Boston Market,Irving,188,188,2705 N. Beltline Rd,TX,75062
Boston Market,Miami,190,190,18601 S. Dixie Highway,FL,33157
Boston Market,Boca Raton,192,192,9959 Glades Rd.,FL,33434
Boston Market,Pembroke Pines,193,193,8559 Pines Blvd,FL,33024
Boston Market,North Miami Bch.,194,194,16251 W. Dixie Hwy,FL,33160
Boston Market,Union,195,195,523 Chestnut Street,NJ,7083
Boston Market,Palm Harbor,196,196,33163 US Hwy 19 North,FL,34684
Boston Market,Raleigh,198,198,9500 Strickland Road,NC,27615
Boston Market,Cuyahoga Falls,202,202,699 Howe Avenue,OH,44221
Boston Market,Park Ridge,205,205,800 Devon Ave.,IL,60068
Boston Market,Greenwood Village,207,207,8507 E. Arapahoe Road,CO,80112
Boston Market,Lilburn,210,210,4774 Hwy. 29 NW,GA,30047
Boston Market,Mamaroneck,211,211,667 W. Boston Post Road,NY,10543
Boston Market,Lake Mary,212,212,4335 W. Lake Mary Blvd.,FL,32746
Boston Market,Hollywood,213,213,3249 Hollywood Blvd.,FL,33021
Boston Market,Littleton,218,218,8500 W. Crestline Ave.,CO,80123
Boston Market,New Hyde Park,225,225,2091 Hillside Avenue,NY,11040
Boston Market,Arlington,226,226,4960 S. Cooper,TX,76017
Boston Market,Lewisville,227,227,1570 W. Main St.,TX,75067
Boston Market,Ft. Lauderdale,230,230,1781 E. Commercial Blvd.,FL,33334
Boston Market,Oviedo,231,231,120 W. Mitchell Hammock,FL,32765
Boston Market,Latham,232,232,753 New Loudon Rd.,NY,12110
Boston Market,Selden,234,234,964-966 Middle Country Rd.,NY,11784
Boston Market,Greensboro,239,239,5615 W. Friendly Ave.,NC,27410
Boston Market,Roswell,240,240,1555-A Holcomb Bridge Rd.,GA,30076
Boston Market,Severna Park,246,246,586 Governor Ritchie Hwy,MD,21146
Boston Market,Waterford,248,248,5160 Highland Road,MI,48327
Boston Market,Holland,249,249,6550 Airport Hwy.,OH,43528
Boston Market,Toledo,250,250,3808 Secor Road,OH,43606
Boston Market,Tamarac,253,253,5815 N. University Dr.,FL,33321
Boston Market,Tampa,257,257,2708 W. Martin Luther King,FL,33607
Boston Market,West Palm Beach,258,258,2024 N. Military Trail,FL,33409
Boston Market,Solon,259,259,34295 Aurora Road,OH,44139
Boston Market,Schaumburg,260,260,24 W. Golf Road,IL,60173
Boston Market,Strongsville,261,261,14375 Pearl Road,OH,44136
Boston Market,Stone Mountain,262,262,4754 Redan Road,GA,30083
Boston Market,Mentor,264,264,9361 Mentor Avenue,OH,44060
Boston Market,Pleasant Hills,266,266,98 Clairton Road,PA,15236
Boston Market,Weston,267,267,1435 North Park Dr.,FL,33326
Boston Market,Ft. Lauderdale,268,268,2309 N. Federal Hwy,FL,33305
Boston Market,Ft. Myers,269,269,12916 S. Cleveland Ave.,FL,33907
Boston Market,Pittsburgh,270,270,5200 Baum Blvd.,PA,15224
Boston Market,Phoenix,272,272,8001 N. 19th Ave.,AZ,85021
Boston Market,North Miami,273,273,12500 Biscayne Blvd.,FL,33168
Boston Market,Tampa,274,274,16215 N. Dale Mabry,FL,33618
Boston Market,Palm Bay,275,275,4701 Babcock St. NE,FL,32905
Boston Market,Paramus,277,277,743 State Rt 17 S,NJ,7652
Boston Market,Plantation,279,279,330 S. University Dr.,FL,33324
Boston Market,Valley Stream,280,280,168 West Merrick Road,NY,11580
Boston Market,Plano,281,281,701 W. 15th St.,TX,75075
Boston Market,Glendale,282,282,6665 W. Bell Rd.,AZ,85306
Boston Market,Phoenix,284,284,4716 E. Ray Rd.,AZ,85044
Boston Market,Cincinnati,285,285,"2692 Madison Rd, Ste A-1",OH,45208
Boston Market,Livonia,289,289,19055 Middlebelt Rd.,MI,48152
Boston Market,Naperville,290,290,1309 S Naper Boulevard,IL,60563
Boston Market,Fayetteville,292,292,1909 Skibo Road,NC,28314
Boston Market,Hurst,293,293,494 Grapevine Hwy,TX,76054
Boston Market,Boca Raton,296,296,799 N. Federal Highway,FL,33432
Boston Market,Chicago,300,300,1562 North Wells,IL,60610-1308
Boston Market,Tempe,301,301,1804 E. Elliot Rd.,AZ,85283
Boston Market,Tucson,302,302,6960 E. 22nd St.,AZ,85710
Boston Market,Raleigh,306,306,4558-A Capital Blvd.,NC,27604
Boston Market,Lombard,309,309,150 E Roosevelt Rd,IL,60148
Boston Market,Bethpage,311,311,3962 Hempstead Tpke.,NY,11714
Boston Market,Reynoldsburg,312,312,6330 Tussing Road,OH,43068
Boston Market,East Brunswick,316,316,300 RT-18,NJ,8816
Boston Market,Emerson,319,319,175 Kinderkamack,NJ,7630
Boston Market,Glen Burnie,321,321,7931 Governor Ritchie Hwy,MD,21061
Boston Market,Lodi,323,323,314 Essex Street,NJ,7644
Boston Market,Dallas,325,325,3797 Forest Ln. Suite 325,TX,75244
Boston Market,Plano,328,328,2104 Preston Rd.,TX,75093
Boston Market,Springfield,329,329,1387 Boston Rd,MA,1119
Boston Market,Cincinnati,330,330,9430 Fields Ertel Rd.,OH,45249
Boston Market,Columbia,331,331,9061 Snowden River Pkwy,MD,21045
Boston Market,North Richland Hills,332,332,6000 Rufe Snow Dr.,TX,76180
Boston Market,Indianapolis,333,333,1244 W. 86th St,IN,46260
Boston Market,Marietta,334,334,3606 Sandy Plains Rd,GA,30066
Boston Market,West Palm Beach,337,337,4380 Forest Hill Blvd,FL,33406
Boston Market,New City,340,340,32 N Main Street,NY,10956
Boston Market,Howell,345,345,4159 U.S. 9,NJ,7731
Boston Market,Longwood,347,347,1951 W. State Road 434,FL,32750
Boston Market,Orlando,348,348,250 E Michigan St,FL,32806
Boston Market,Melbourne,349,349,2450 N Wickham Rd,FL,32935
Boston Market,Plano,351,351,6917 Independence Pkwy,TX,75023
Boston Market,Coppell,356,356,804 Mac Arthur,TX,75019-4212
Boston Market,Margate,357,357,5681 W. Atlantic Blvd,FL,33063
Boston Market,Charlotte,359,359,829 Providence Road,NC,28207
Boston Market,Newark,361,361,1050 S. College Ave.,DE,19711
Boston Market,Philadelphia,367,367,451 Franklin Mills Circle,PA,19154
Boston Market,Abington,370,370,1776 Old York Road,PA,19001
Boston Market,North Haven,372,372,135 Washington Ave.,CT,6473
Boston Market,Yonkers,373,373,3100 Xavier Drive,NY,10701
Boston Market,Colorado Springs,375,375,1015 N. Academy Blvd.,CO,80909
Boston Market,Wilmington,376,376,3130 Kirkwood Highway,DE,19808
Boston Market,Philadelphia,381,381,7240 Torresdale Ave.,PA,19135
Boston Market,Claymont,382,382,3603 Philadelphia Pk.,DE,19703
Boston Market,Norristown,388,388,18 E. Germantown Pk E. Norriton Twp,PA,19401
Boston Market,Somers Point,390,390,210 New Road,NJ,8244
Boston Market,Clifton Heights,392,392,5200 Baltimore Pk.,PA,19018
Boston Market,Philadelphia,394,394,3901 Chestnut St.,PA,19104
Boston Market,Philadelphia,399,399,6350 Roosevelt Blvd.,PA,19149
Boston Market,Blackwood,400,400,5716 Black Horse Pike,NJ,8012
Boston Market,Wilmington,404,404,1611 Pennsylvania Ave.,DE,19806
Boston Market,Whitehall,406,406,1415 Grape Street,PA,18052
Boston Market,Dublin,409,409,5150 Tuttle Crossing Blvd.,OH,43017
Boston Market,Pittsburgh,410,410,978 Greentree Road,PA,15220
Boston Market,Cranberry Township,411,411,20290 Route 19,PA,16066
Boston Market,Chapel Hill,414,414,1800 E. Franklin St.,NC,27514
Boston Market,Glendale,415,415,5470 Port Washington Rd,WI,53217
Boston Market,Tamarac,416,416,3102 W. Commercial Blvd,FL,33309
Boston Market,Freeport,418,418,168 Atlantic Avenue,NY,11520
Boston Market,Mt. Prospect,421,421,1000 S Elmhurst,IL,60056
Boston Market,Bayside,423,423,23-90 Bell Blvd,NY,11360
Boston Market,Omaha,424,424,704 N. 114th St.,NE,68154
Boston Market,Brookfield,425,425,18340 W Bluemound Rd,WI,53005
Boston Market,Tempe,426,426,3435 S. McClintock Dr.,AZ,85282
Boston Market,Sacramento,428,428,4644 Madison Ave.,CA,95841
Boston Market,Sterling Heights,430,430,4051 15 Mile Road,MI,48310
Boston Market,Pikesville,432,432,1317 Reisterstown Road,MD,21208
Boston Market,Owings Mills,433,433,10237 Reisterstown Rd.,MD,21117
Boston Market,Homewood,435,435,17855 S Halsted St.,IL,60430
Boston Market,Matthews,436,436,9550 E. Independence Blvd.,NC,28105
Boston Market,Jupiter,437,437,80 Intracoastal Pointe Dr.,FL,33477
Boston Market,Indianapolis,439,439,9961 E. Washington St.,IN,46229
Boston Market,Waukegan,440,440,905-919 N. Green Bay Rd.,IL,60085
Boston Market,Phoenix,442,442,4002 East Thunderbird Road,AZ,85032
Boston Market,Tucson,443,443,6610 East Grant Rd.,AZ,85715
Boston Market,Tucson,444,444,1903 E. Speedway Blvd.,AZ,85719
Boston Market,Addison,445,445,15050 Marsh Ln.,TX,75001
Boston Market,Albuquerque,447,447,340 Eubank Blvd. NE,NM,87123
Boston Market,Burke,448,448,9278-A Old Keene Mill Road,VA,22015
Boston Market,Greensburg,450,450,1000 E. Pittsburgh St.,PA,15601
Boston Market,Sacramento,454,454,2300 Fair Oaks Blvd.,CA,95825
Boston Market,Hicksville,463,463,100 N. Broadway,NY,11801
Boston Market,Deer Park,464,464,1605 Deer Park Avenue,NY,11729
Boston Market,Arlington,467,467,2046 Wilson Blvd,VA,22201
Boston Market,Arlington,468,468,3233 Columbia Pike,VA,22204
Boston Market,Boca Raton,474,474,7020 Beracasa Way,FL,33433
Boston Market,Tucson,476,476,4405 N. First Ave.,AZ,85719
Boston Market,Cary,480,480,1397 Kildaire Farm Road,NC,27511
Boston Market,Arlington,482,482,2561 E. Pioneer Pkwy,TX,76010-8365
Boston Market,University Heights,483,483,2184 Warrensville Ctr. Rd.,OH,44118
Boston Market,Crystal Lake,485,485,6000 NW Highway,IL,60014
Boston Market,Hialeah,489,489,16709 NW 67th Ave,FL,33014
Boston Market,Philadelphia,490,490,3680 Aramingo Ave.,PA,19134
Boston Market,Woodbury,495,495,891 Hurffville Rd,NJ,8096
Boston Market,Quakertown,496,496,69 N. West End. Blvd.,PA,18951
Boston Market,Westminster,498,498,9269 Sheridan Blvd.,CO,80031
Boston Market,Canton,501,501,43450 Ford Rd.,MI,48187
Boston Market,Fresno,510,510,110 E. Bullard,CA,93711
Boston Market,Duluth,513,513,4215 Pleasant Hill Rd.,GA,30096
Boston Market,St. Petersburg,516,516,9595 4th St N,FL,33702
Boston Market,Toledo,524,524,930 W. Alexis Rd.,OH,43612
Boston Market,Phoenix,525,525,5101 N. Central Ave.,AZ,85012
Boston Market,Trenton,527,527,3555 West Rd.,MI,48183
Boston Market,Gurnee,528,528,6415 Grand Avenue,IL,60031
Boston Market,Scarsdale,533,533,654 Central Park Ave.,NY,10583
Boston Market,Sterling,536,536,46286 Cranston Street,VA,20165
Boston Market,Pembroke Pines,537,537,50 S. Flamingo Rd.,FL,33029
Boston Market,Westland,539,539,36440 Ford Rd.,MI,48185
Boston Market,Dearborn,543,543,5651 Mercury Dr.,MI,48126
Boston Market,Woodside,546,546,5124 Northern Boulevard,NY,11377
Boston Market,Stone Mountain,553,553,"5170 Stone Mtn. Highway, Ste. E",GA,30087
Boston Market,Albuquerque,554,554,5640 Wyoming Blvd. NE,NM,87109
Boston Market,Oak Lawn,558,558,9267 S. Cicero Ave.,IL,60453
Boston Market,Gainesville,559,559,6483 Newberry Road,FL,32605
Boston Market,Kissimmee,560,560,3251 W Vine Street,FL,34741
Boston Market,Asheville,561,561,1644 Hendersonville Hwy,NC,28803
Boston Market,Holland,562,562,"638 16th Street, East",MI,49423
Boston Market,Joliet,565,565,1866 Jefferson,IL,60436
Boston Market,Shawnee,566,566,11600 Shawnee Mission Pkwy.,KS,66203-3358
Boston Market,Hagerstown,567,567,1620 Wesel Blvd.,MD,21740
Boston Market,Naples,569,569,5088 Airport Pulling Rd N,FL,34105
Boston Market,Manchester,572,572,1542 Pleasant Valley Road,CT,6040
Boston Market,River Forest,575,575,7211 Lake Street,IL,60305
Boston Market,N. Olmsted,576,576,26440 Lorain Road,OH,44070
Boston Market,Roseville,578,578,5003 Foothills Blvd.,CA,95747
Boston Market,Stratford,582,582,935 Barnum Avenue Cut Off,CT,6614
Boston Market,Dallas,584,584,14750 Preston Rd.,TX,75254-7808
Boston Market,Quincy,594,594,126 Granite Street,MA,2169
Boston Market,Newington,596,596,2495 Berlin Tpke,CT,6111
Boston Market,Lindenhurst,597,597,163 East Montauk Hwy,NY,11757
Boston Market,Allen Park,600,600,15424 Southfield Rd.,MI,48101
Boston Market,Aurora,601,601,966 N Route 59,IL,60504
Boston Market,Lansdale,602,602,1758 Allentown Road,PA,19446
Boston Market,Glastonbury,606,606,2834 Main Street,CT,6033
Boston Market,Flushing,608,608,171-50 Northern Blvd.,NY,11358
Boston Market,Winter Haven,609,609,150 Cypress Gardens Blvd SE,FL,33880
Boston Market,Columbus,613,613,4310 W. Broad St.,OH,43228
Boston Market,Buffalo,617,617,2380 Delaware Ave.,NY,14216
Boston Market,Houston,623,623,7616 Westheimer,TX,77063-4617
Boston Market,Irvine,624,624,13125 Jamboree Road,CA,92782
Boston Market,Overland Park,625,625,12120 College Blvd.,KS,66210
Boston Market,Van Nuys,631,631,14480 Sherman Way,CA,91405
Boston Market,Miami,636,636,8070 NW 36th St,FL,33166
Boston Market,Carlsbad,637,637,2606 El Camino Real,CA,92008
Boston Market,Indianapolis,638,638,7554 Shadeland Avenue,IN,46250
Boston Market,Dover,639,639,1151 N. Dupont Hwy,DE,19901
Boston Market,Fresh Meadows,641,641,61-45 188th St,NY,11365
Boston Market,Woodbridge,646,646,13815 Smoketown Road,VA,22192
Boston Market,Huntington Beach,647,647,16972 Goldenwest Street,CA,92647
Boston Market,Flemington,650,650,Route 202/31 & Reaville Ave.,NJ,8822
Boston Market,Houston,654,654,7910 FM 1960 Rd. W,TX,77070
Boston Market,Brick Township,657,657,580 Brick Blvd,NJ,8723
Boston Market,Northvale,662,662,275 Livingston Ave,NJ,7647
Boston Market,Staten Island,663,663,1465 Forest Avenue,NY,10302
Boston Market,Monterey Park,664,664,2020 Atlantic Blvd.,CA,91754
Boston Market,Crestwood,668,668,13201 S. Cicero Avenue,IL,60445
Boston Market,Munster,669,669,8032 Calumet Ave.,IN,46321
Boston Market,Fresno,671,671,637 E. Nees,CA,93720
Boston Market,East Haven,672,672,96 Frontage Rd.,CT,6512
Boston Market,Lincoln,673,673,500 N. 48th Street,NE,68504
Boston Market,Houston,674,674,7086 Hwy 6 N.,TX,77095
Boston Market,Alexandria,676,676,6650 Richmond Highway,VA,22306
Boston Market,Toms River,677,677,141 Route 37 East at Hooper Road,NJ,8753
Boston Market,Baltimore,683,683,6336 York Road,MD,21212
Boston Market,Frederick,693,693,1350 West Patrick Street,MD,21703
Boston Market,New York,695,695,271 W. 23rd Street,NY,10011
Boston Market,North Arlington,696,696,491 Ridge Road,NJ,7031
Boston Market,Phoenix,698,698,236 East Bell Road,AZ,85022
Boston Market,Bristol,700,700,45 Farmington Ave,CT,6010
Boston Market,Bloomfield,701,701,417 Cottage Grove Rd.,CT,6002
Boston Market,Miami Beach,704,704,1750 Alton Rd.,FL,33139
Boston Market,Greenbelt,705,705,6228-A Greenbelt Rd.,MD,20770
Boston Market,Skokie,718,718,3641 Dempster,IL,60076
Boston Market,St. Louis Park,719,719,5300 Excelsior Blvd.,MN,55416
Boston Market,Glenview,720,720,1401 Waukegan Road,IL,60025
Boston Market,Houston,723,723,9460 Jones Rd.,TX,77064
Boston Market,Port Orange,734,734,1037 Dunlawton Avenue,FL,32127-7968
Boston Market,El Cajon,735,735,706 Fletcher Parkway,CA,92020
Boston Market,McLean,761,761,1408 Chain Bridge Rd.,VA,22101
Boston Market,Milwaukee,762,762,3511 South 27th Street,WI,53221
Boston Market,Ocala,763,763,2650 SW College Road,FL,34471-1652
Boston Market,Clearwater,766,766,4001 E. Bay Drive,FL,33764
Boston Market,Port Richey,768,768,9203 US Hwy 19,FL,34668
Boston Market,Orlando,770,770,4201 E Colonial Drive,FL,32803
Boston Market,Lawrence,782,782,435 Winthrop Rd.,MA,1843
Boston Market,Meriden,786,786,755 East Main St,CT,6450
Boston Market,Charlotte,791,791,1001 Chancellor Park Drive,NC,28213
Boston Market,Aspen Hill,796,796,3825 Aspen Hill Road,MD,20906
Boston Market,Amherst,805,805,4185 Maple Rd,NY,14226
Boston Market,Overland Park,808,808,12005 Metcalf,KS,66213
Boston Market,Tallahassee,810,810,2329 N. Monroe Street,FL,32303-4733
Boston Market,Marlborough,812,812,189 Boston Post Rd. West,MA,1752
Boston Market,Melrose Park,822,822,830 W. North Ave.,IL,60160
Boston Market,Dublin,824,824,6515 Sawmill Rd.,OH,43017
Boston Market,Chicago,825,825,1424-28 E 53rd,IL,60615
Boston Market,Bolingbrook,831,831,285 N. Weber Rd.,IL,60440
Boston Market,Elgin,833,833,205 S. Randall Road,IL,60123-5548
Boston Market,Rancho Cucamonga,842,842,10890 Foothill Blvd.,CA,91730
Boston Market,Westchester,850,850,8901 S. Sepulveda Blvd.,CA,90045
Boston Market,Shirley,852,852,803 Montauk Highway,NY,11967
Boston Market,Seminole,859,859,7820 113th Street,FL,33772
Boston Market,Laguna Niguel,873,873,27100 Alicia Parkway,CA,92677
Boston Market,East Islip,875,875,23 W. Main St.,NY,11730
Boston Market,Ridgewood,879,879,60-18 Metropolitan Avenue,NY,11385
Boston Market,Chandler,880,880,1010 N. Alma School Road,AZ,85224
Boston Market,Lawrence,915,915,"343 Rockaway Turnpike, Unit 280",NY,11559
Boston Market,Newark,916,916,300 University Plaza,DE,19702
Boston Market,Scottsdale,918,918,2712 N. Scottsdale Road,AZ,85251
Boston Market,Orlando,920,920,4621 South Kirkman Road,FL,32811-2832
Boston Market,Sandy Springs,934,934,5903 Roswell Rd,GA,30328
Boston Market,Atlanta,935,935,2535 Briarcliff Road,GA,30329
Boston Market,Bel Air,939,939,600 Marketplace Drive,MD,21014
Boston Market,Bronx,950,950,3371-85 East Tremont Avenue,NY,10465
Boston Market,Clifton,965,965,1342 Clifton Ave.,NJ,7013
Boston Market,Costa Mesa,969,969,2799 Harbor Boulevard,CA,92626
Boston Market,Dallas,971,971,6333 E. Mockingbird Lane No.165,TX,75214
Boston Market,Detroit,976,976,18610 Livernois,MI,48221
Boston Market,Ewing Township,983,983,1729 N. Olden Ave.,NJ,8638
Boston Market,Fairfax,984,984,4090 Jermantown Road,VA,22030
Boston Market,Fairview Heights,986,986,6535 North Illinois,IL,62208
Boston Market,Forest Hills,990,990,106-24 71st Avenue,NY,11375
Boston Market,Somerset,993,993,900 Easton Ave. Franklin Township,NJ,8873
Boston Market,Fremont,994,994,3966 Mowry Avenue,CA,94538
Boston Market,Ft. Worth,997,997,6030 S. Hulen St.,TX,76132
Boston Market,Fullerton,998,998,3370 Yorba Linda Blvd.,CA,92831
Boston Market,Gaithersburg,999,999,596 - B Frederick Avenue (Route 355),MD,20877
Boston Market,Hallandale,1007,1007,1665 E. Hallandale Beach Blvd.,FL,33009
Boston Market,Hamilton,1008,1008,770 ROUTE 33,NJ,8619
Boston Market,Hampton,1009,1009,2034 Coliseum Drive,VA,23666
Boston Market,Sugar Land,1020,1020,2410 HWY 6,TX,77479
Boston Market,Rockville,1031,1031,5290 Randolph Road,MD,20852
Boston Market,Lake Worth,1039,1039,6520 Lake Worth Rd.,FL,33467
Boston Market,Lawndale,1050,1050,17100 Hawthorne Blvd.,CA,90260
Boston Market,Medford,1064,1064,616 Fellsway,MA,2155
Boston Market,Miami,1067,1067,3600 SW 22nd Street,FL,33145
Boston Market,Middletown,1069,1069,1185 Rt 35,NJ,7748
Boston Market,Mt. Holly,1072,1072,514 High Street,NJ,8060
Boston Market,Novi,1083,1083,43363 Crescent Blvd,MI,48376
Boston Market,Ozone Park,1092,1092,83-02 Atlantic Avenue,NY,11416
Boston Market,Philadelphia,1095,1095,31 Snyder Ave,PA,19148
Boston Market,Pottstown,1101,1101,223 Shoemaker Road,PA,19465
Boston Market,Providence,1103,1103,633 N. Main Street,RI,2904
Boston Market,Richfield,1107,1107,700 W. 78th Street,MN,55423
Boston Market,Roseville,1114,1114,2720 Lincoln Drive,MN,55113
Boston Market,San Dimas,1121,1121,952 Arrow Highway,CA,91773
Boston Market,San Jose,1126,1126,880 Blossom Hill Road,CA,95123
Boston Market,San Jose,1128,1128,5399 Prospect Road,CA,95130
Boston Market,Santa Clarita,1133,1133,26543 Bouquet Canyon Road,CA,91350
Boston Market,Scottsdale,1137,1137,15784 North Frank Lloyd Wright Blvd.,AZ,85260
Boston Market,Shrewsbury,1139,1139,1103 Broad Street,NJ,07702-4315
Boston Market,Silver Spring,1140,1140,11297 New Hampshire Avenue,MD,20904
Boston Market,Staten Island,1152,1152,2530 Hylan Boulevard,NY,10306
Boston Market,Staten Island,1153,1153,854 Arthur Kill Road,NY,10312
Boston Market,Swampscott,1157,1157,505 Paradise Rd,MA,1907
Boston Market,Wilmington,1158,1158,3900 Concord Pike,DE,19803
Boston Market,Vero Beach,1164,1164,1775 US Highway 1,FL,32960
Boston Market,Virginia Beach,1165,1165,3981 Virginia Beach Boulevard,VA,23452
Boston Market,Middletown,1169,1169,400 Route 211 East,NY,10940
Boston Market,West Allis,1173,1173,2678 S 108th Street,WI,53227
Boston Market,West Chester,1176,1176,726 E. Gay Street,PA,19380
Boston Market,Westbury,1179,1179,419 Old Country Road,NY,11590
Boston Market,Wheaton,1181,1181,625 S. County Farm Rd.,IL,60187
Boston Market,Wheat Ridge,1182,1182,3820 N. Wadsworth Blvd.,CO,80033
Boston Market,Chesapeake,1225,1225,1300 Greenbrier Parkway,VA,23320
Boston Market,Desoto,1292,1292,735 E. Pleasant Run Road,TX,75115
Boston Market,Oakland,1297,1297,5152 Broadway,CA,94611-4620
Boston Market,Santa Clara,1300,1300,2006 El Camino Real,CA,95050
Boston Market,Allentown,1323,1323,385 S. Cedar Crest Blvd.,PA,18103
Boston Market,San Diego,1333,1333,5502 Balboa Ave,CA,92111
Boston Market,San Jose,1334,1334,1554 S. Bascom Avenue,CA,95125
Boston Market,Daly City,1384,1384,332 Gellert Boulevard,CA,94015
Boston Market,San Francisco,1386,1386,"2300 16th Street., Suite 100",CA,94103
Boston Market,Rochester,1412,1412,942 Jefferson Road,NY,14623
Boston Market,Ormond Beach,1430,1430,1425 W. Granada Blvd.,FL,32174
Boston Market,Cleveland,1466,1466,14833 Detroit Ave.,OH,44107
Boston Market,Moorestown,1539,1539,1201 Nixon Drive,NJ,8057
Boston Market,Downey,1551,1551,8606 Firestone Blvd.,CA,90241
Boston Market,Lancaster,1585,1585,1242 Lititz Pike Manheim Township,PA,17601
Boston Market,Reno,1588,1588,4801 Kietzke Lane,NV,89502
Boston Market,Brooklyn,1589,1589,1972 Ralph Avenue,NY,11234
Boston Market,Atlanta,1602,1602,2014 Powers Ferry Road SE,GA,30339
Boston Market,Chelmsford,1630,1630,40 Drum Hill Rd.,MA,1824
Boston Market,Spring,1647,1647,4841 Louetta Road,TX,77388-4422
Boston Market,Avenel,1658,1658,1560 St. Georges Avenue,NJ,7001
Boston Market,Clifton,1659,1659,1160 US Highway 46,NJ,7013
Boston Market,East Orange,1660,1660,471 Central Avenue,NJ,7018
Boston Market,Edison,1661,1661,878 US Rt. 1 North bound,NJ,8817
Boston Market,Fair Lawn,1662,1662,21-20 Broadway,NJ,7410
Boston Market,Hackensack,1664,1664,180 Hackensack Avenue,NJ,7602
Boston Market,Mahwah,1667,1667,395 Route 17 North,NJ,7430
Boston Market,Woodside,1669,1669,50-01 Queens Boulevard,NY,11377
Boston Market,Union,1671,1671,2650 US Highway 22,NJ,7083
Boston Market,West Hempstead,1672,1672,603 Hempstead Turnpike,NY,11552
Boston Market,Lansing,1719,1719,6435 South Cedar St.,MI,48911
Boston Market,Houston,1723,1723,4672 Beechnut Street,TX,77096
Boston Market,East Hanover,1728,1728,332 Rt. 10,NJ,7936
Boston Market,Richmond Heights,1741,1741,6690 Clayton Rd.,MO,63117
Boston Market,Aurora,1755,1755,14110 E. Illiff Ave.,CO,80014-1466
Boston Market,Waldorf,1779,1779,3295 Crain Highway,MD,20603-4848
Boston Market,Boston,1782,1782,245 Massachusetts Ave,MA,2115
Boston Market,Milford,1786,1786,1454-60 Boston Post Road,CT,6460
Boston Market,Blasdell,1809,1809,4408 Milestrip Road,NY,14219-2553
Boston Market,Geneva,1823,1823,1873 South Randall Road,IL,60134
Boston Market,Albany,1833,1833,1225 Western Avenue,NY,12203
Boston Market,Wilton,1841,1841,14 Danbury Road,CT,6897
Boston Market,Countryside,1863,1863,20 Plainfield Road,IL,60525
Boston Market,Burbank,1890,1890,4320 Riverside Drive,CA,91505
Boston Market,San Diego,1904,1904,11846 Carmel Mountain Road,CA,92128
Boston Market,Vineland,1918,1918,301 S. Main Rd.,NJ,8360
Boston Market,Dorchester,1959,1959,1010 Morrissey Boulevard,MA,2122
Boston Market,Pleasant Hill,1961,1961,2180 Contra Costa Blvd.,CA,94523
Boston Market,Austin,1981,1981,"4607 Braker Lane, Suite 100",TX,78759-5723
Boston Market,Denver,1990,1990,500 Grant Street,CO,80203
Boston Market,Houston,2037,2037,1915 W. Gray St.,TX,77019-4801
Boston Market,Ridgefield,2092,2092,321 Broad Ave.,NJ,7657
Boston Market,Lake Ronkonkoma,2096,2096,605 Portion Rd.,NY,11779
Boston Market,Fishkill,2238,2238,18 Westage Drive,NY,12524
Boston Market,Irving,2272,2272,5487 N. MacArthur Blvd.,TX,75038
Boston Market,Southlake,2287,2287,125 Davis Boulevard,TX,76092-8209
Boston Market,Oakland,2288,2288,"3060 East 9th Street, Suite E",CA,94601
Boston Market,Grand Prairie,2334,2334,404 Westchase Dr.,TX,75052-3205
Boston Market,Commack,2351,2351,2170 Jericho Turnpike,NY,11725
Boston Market,Norfolk,2396,2396,472 Military Highway,VA,23502
Boston Market,Glendale,2407,2407,5825 W. Peoria Ave.,AZ,85302
Boston Market,Deerfield Beach,2450,2450,1802 W. Hillsboro Blvd.,FL,33442
Boston Market,Indianapolis,2454,2454,5665 Georgetown Road,IN,46254
Boston Market,Indianapolis,2463,2463,7910 South US 31,IN,46227
Boston Market,Chicago,2520,2520,3020 N Ashland Ave,IL,60657
Boston Market,Gambrills,2729,2729,1070 Maryland Route 3 North,MD,21054
Boston Market,Riverdale,2791,2791,6121 Kenilworth Ave,MD,20737-2156
Boston Market,Framingham,3203,3203,"7WEST, MILEPOST 115, MASS TURNPIKE",MA,1701
Boston Market,Ludlow,3204,3204,Mass Turnpike - Service Area 4W Milepost,MA,1056
Boston Market,Westborough,3205,3205,Mass Turnpike - Service Area 6A Milepost,MA,1581
Boston Market,Pittsburgh,3206,3206,300 Davis Blvd.,PA,15275
Boston Market,Orlando,3210,3210,12140 Lake Underhill Road,FL,32828
Boston Market,Worcester,3212,3212,14 Park Avenue,MA,1605
Boston Market,Aventura,3213,3213,21175 Biscayne Blvd.,FL,33180-1215
Boston Market,Tampa,3217,3217,17507 Preserve Walk Lane,FL,33647
Boston Market,Fall River,3230,3230,30 12th Street,MA,2720
Boston Market,New York,3255,3255,885 10th Avenue,NY,10019
Boston Market,Dallas,3260,3260,11717 N. Central Expressway,TX,75243
Boston Market,Hialeah,3301,3301,1001 West 49th Unit 1,FL,33012
Boston Market,Syracuse,3501,3501,9090 Destiny USA Drive #FC10,NY,13204
