keywords,city,Aggdata Store Number,store_number,address,state,zip_code
Buckle,Kearney,1,#1,2407 W 24th Street P.O. Box 1480,NE,68845
Buckle,Columbus,2,#2,118 E 24th Street,NE,68601
Buckle,Norfolk,4,#4,1700 Market Lane,NE,68701
Buckle,Wichita,5,#5,7700 E Kellogg Space R-3,KS,67207
Buckle,Hays,6,#6,2918 Vine Street Suite 300,KS,67601
Buckle,Grand Island,7,#7,3404 W 13th Street Space 132,NE,68803
Buckle,Storm Lake,8,#8,521 Lake Avenue,IA,50588
Buckle,Scottsbluff,9,#9,2302 Frontage Road Suite 27,NE,69361
Buckle,Salina,10,#10,2259 South 9th Space 50,KS,67401
Buckle,Great Bend,11,#11,1313 Main Street,KS,67530
Buckle,McCook,13,#13,218 N Highway 83 Space 1,NE,69001
Buckle,North Platte,14,#14,1000 S Dewey Space 120,NE,69101
Buckle,Liberal,15,#15,1533 N Kansas Avenue,KS,67901
Buckle,Dodge City,16,#16,2601 Central,KS,67801
Buckle,Beatrice,17,#17,2205 N 6th Street Space 20,NE,68310
Buckle,Lincoln,18,#18,6100 O Street Space 141,NE,68505
Buckle,Spencer,19,#19,901 11th Street SW,IA,51301
Buckle,Sterling,20,#20,1305 W Main Street,CO,80751
Buckle,Garden City,22,#22,2214 E Kansas Avenue,KS,67846
Buckle,Carroll,23,#23,529 N Adams,IA,51401
Buckle,Manhattan,24,#24,100 Manhattan Town Ctr Suite 695,KS,66502
Buckle,Emporia,25,#25,1682 Industrial Road,KS,66801
Buckle,Wichita,26,#26,4600 W Kellogg Dr.,KS,67209
Buckle,Pittsburg,27,#27,202 E Centennial,KS,66762
Buckle,Kearney,28,#28,5019 2nd Avenue Suite 36,NE,68847
Buckle,Lawrence,29,#29,805 Massachusetts Street,KS,66044
Buckle,Ponca City,30,#30,2101 N 14th Street,OK,74601
Buckle,Mason City,31,#31,100 S. Federal Ave. Space 106,IA,50401
Buckle,Hutchinson,32,#32,1500 East 11th Ave. Suite 40,KS,67501
Buckle,Sioux City,33,#33,4400 Sergeant Rd. Space 408,IA,51106
Buckle,Bartlesville,34,#34,2350 SE Washington Blvd Space 218,OK,74006
Buckle,Fremont,35,#35,920 E 23rd Street Space D-06,NE,68025
Buckle,Columbia,36,#36,2300 Bernadette Drive Space 614,MO,65203
Buckle,Council Bluffs,37,#37,1751 Madison Avenue Space 510,IA,51501
Buckle,Ardmore,39,#39,1211 N Commerce Space B3,OK,73401
Buckle,Joplin,40,#40,101 N Range Line Road Space B-11-4,MO,64801
Buckle,Stillwater,43,#43,719 N Perkins Road,OK,74075
Buckle,Sedalia,44,#44,890 Thompson Blvd.,MO,65301
Buckle,Fayetteville,45,#45,4201 N Shiloh Dr.,AR,72703
Buckle,Jonesboro,46,#46,3000 E Highland Dr Space 213,AR,72401
Buckle,Fort Smith,47,#47,5111 Rogers Ave Space 142,AR,72903
Buckle,Jefferson City,48,#48,3600 Country Club Dr Space 1118,MO,65109
Buckle,Lawton,49,#49,143 Central Mall,OK,73501
Buckle,Topeka,50,#50,1801 SW Wanamaker Rd Space A-07-B,KS,66604
Buckle,Madison,52,#52,20 E Towne Mall,WI,53704
Buckle,Sioux Falls,53,#53,4001 W 41st Street Ste 30,SD,57106
Buckle,Muskogee,54,#54,501 N Main Space 80,OK,74401
Buckle,Little Rock,55,#55,6000 W Markham Space 3054,AR,72205
Buckle,Shawnee,57,#57,4901 N Kickapoo St Space 1578,OK,74801
Buckle,Saint Joseph,58,#58,3702 Frederick Ave Suite 40,MO,64506
Buckle,Rapid City,59,#59,2200 N Maple Ave Space 224,SD,57701
Buckle,Davenport,60,#60,320 W Kimberly Rd Space 165,IA,52806
Buckle,Waterloo,62,#62,2060 Crossroads Blvd Space 227,IA,50702
Buckle,Norman,63,#63,3505 W Main St Ste 435,OK,73072
Buckle,Ames,64,#64,2801 Grand Ave,IA,50010
Buckle,West Burlington,65,#65,550 S Gear Ave Suite 44,IA,52655
Buckle,Madison,67,#67,66 West Towne Mall Unit A-8,WI,53719
Buckle,Des Moines,68,#68,1551 Valley West Dr Space 113,IA,50266
Buckle,Fort Collins,69,#69,215 East Foothills Pkwy Ste E11,CO,80525
Buckle,La Crosse,70,#70,3800 State Road 16 Suite 116,WI,54601
Buckle,Dubuque,71,#71,555 John F Kennedy Rd Unit 435,IA,52002
Buckle,Cedar Falls,72,#72,6301 University Ave. Ste 1015,IA,50613
Buckle,Carbondale,73,#73,1237 E Main St Suite 1000,IL,62901
Buckle,Rockford,75,#75,7200 Harrison Ave Space G69,IL,61112
Buckle,Saint Cloud,76,#76,4201 W Division St Suite 24,MN,56301
Buckle,Quincy,77,#77,33rd & Broadway Space 3359,IL,62301
Buckle,Appleton,78,#78,4301 W Wisconsin Ave Ste 317,WI,54913
Buckle,Eau Claire,80,#80,4800 Golf  Rd Ste406,WI,54701
Buckle,Mankato,81,#81,1850 Adams St Space 314,MN,56001
Buckle,Peoria,82,#82,2200 W War Memorial Dr Ste 104,IL,61613
Buckle,Omaha,83,#83,3001 S 144th St G5,NE,68144
Buckle,Grand Forks,84,#84,2800 Columbia Rd Suite 110,ND,58201
Buckle,Cedar Rapids,85,#85,4444 1st Avenue NE Suite 103,IA,52402
Buckle,Duluth,86,#86,1600 Miller Trunk Hwy,MN,55811
Buckle,Merrillville,87,#87,2168 Southlake Mall Ste 528,IN,46410
Buckle,Fairview Heights,88,#88,204 Saint Clair Square,IL,62208
Buckle,Greeley,89,#89,1964 Greeley Mall Suite 30,CO,80631
Buckle,Enid,90,#90,4125 W Owen K Garriot Rd Space F7,OK,73703
Buckle,Springfield,91,#91,2825 S Glenstone Ave Suite P9,MO,65804
Buckle,Overland Park,92,#92,11225 W 95th St,KS,66214
Buckle,Ann Arbor,93,#93,440 Briarwood Circle,MI,48108
Buckle,Okemos,94,#94,1982 W Grand River Ave Suite 325,MI,48864
Buckle,Lubbock,95,#95,6002 Slide Rd Suite F14,TX,79414
Buckle,Tulsa,96,#96,7021 S Memorial Dr Ste 109a,OK,74133
Buckle,Fort Wayne,97,#97,4201 Coldwater Rd Space L7,IN,46805
Buckle,Evansville,98,#98,800 N Green River Rd Space 0071,IN,47715
Buckle,Rochester,100,#100,414 Apache Mall,MN,55902
Buckle,Amarillo,103,#103,7701 I-40 West Space 326,TX,79121
Buckle,Clarksville,104,#104,757 E. Lewis and Clark Pkwy Space 524,IN,47129
Buckle,Fort Gratiot,105,#105,4350 24th Ave Ste. 534,MI,48059
Buckle,Champaign,107,#107,2000 North Neil St Ste. 150,IL,61820
Buckle,Midland,108,#108,6800 Eastman Ave Suite 125,MI,48642
Buckle,Saginaw,109,#109,4862 Fashion Square Mall,MI,48604
Buckle,Louisville,110,#110,5000 Shelbyville Rd Space 1685,KY,40207
Buckle,Mentor,111,#111,7850 Mentor Ave Space 744,OH,44060
Buckle,Portage,112,#112,6650 S Westnedge Space 239,MI,49024
Buckle,Lexington,113,#113,3401 Nicholasville Rd Space H-842,KY,40503
Buckle,Indianapolis,114,#114,6020 East 82nd St.,IN,46250
Buckle,Traverse City,115,#115,3200 S Airport Rd W Ste 220,MI,49684
Buckle,Battle Creek,116,#116,5775 Beckley Rd Space 229,MI,49015
Buckle,Oklahoma City,117,#117,1901 Northwest Expwy Ste 2011,OK,73118
Buckle,Mishawaka,119,#119,6501 N Grape Rd Space 410,IN,46545
Buckle,Toledo,120,#120,5001 Monroe St Space 1830,OH,43623
Buckle,Independence,121,#121,1066 E. Independence Ctr,MO,64057
Buckle,Greendale,122,#122,5300 S 76th St Suite 1560,WI,53129
Buckle,Bourbonnais,124,#124,1602 N State Route 50 Ste 128,IL,60914
Buckle,Texarkana,126,#126,49 Central Mall,TX,75503
Buckle,Muncie,127,#127,3501 N Granville,IN,47303
Buckle,Roseville,129,#129,137 Rosedale Mall Space 627,MN,55113
Buckle,North Little Rock,130,#130,3929 McCain Blvd Space 17FA,AR,72116
Buckle,Fargo,131,#131,3902 13th Ave S Ste. 313,ND,58103
Buckle,Wichita Falls,132,#132,3111 Midwestern Pkwy,TX,76308
Buckle,Twin Falls,133,#133,1485 Pole Line Rd E Space 197,ID,83301
Buckle,Findlay,134,#134,1800 Tiffin Ave Room 401,OH,45840
Buckle,Great Falls,135,#135,1200 10th Avenue S Space 25,MT,59405
Buckle,Grand Rapids,139,#139,3175 28th Street SE Space E-112,MI,49512
Buckle,Fond Du Lac,140,#140,835 W Johnson St Space D-04,WI,54935
Buckle,Aberdeen,141,#141,3315 6th Avenue SE Space 23,SD,57401
Buckle,Terre Haute,142,#142,3401 S US Highway 41 Space D1B,IN,47802
Buckle,San Angelo,143,#143,4001 Sunset Dr Space 1028,TX,76904
Buckle,Clovis,144,#144,2801 N Prince Space 167,NM,88101
Buckle,Pueblo,145,#145,3523 Dillon Dr Space F-9,CO,81008
Buckle,Midland,146,#146,4511 N Midkiff Dr Space F6,TX,79705
Buckle,Missoula,147,#147,2901 Brooks St Suite C-7,MT,59801
Buckle,Holland,148,#148,12331 James St Suite 102,MI,49424
Buckle,Longview,149,#149,3500 McCann Rd.,TX,75601
Buckle,Bloomington,150,#150,3040 E Third St,IN,47401
Buckle,Abilene,151,#151,4310 Buffalo Gap Rd Ste 1382,TX,79606
Buckle,Billings,152,#152,300 S 24th Street W Ste. E02,MT,59102
Buckle,Idaho Falls,153,#153,2300 E 17th St,ID,83404
Buckle,Wausau,154,#154,D-440 Wausau Center,WI,54403
Buckle,Bismarck,155,#155,715 Kirkwood Mall,ND,58504
Buckle,Springfield,158,#158,2501 W Wabash,IL,62704
Buckle,Greenwood,159,#159,1251 US 31 N Space D-4A,IN,46142
Buckle,Lafayette,160,#160,2415 Sagamore Pkwy S Space C-5B,IN,47905
Buckle,Cedar Park,161,#161,11200 Lakeline Mall Dr Space M-13,TX,78613
Buckle,Piqua,162,#162,987 E Ash St Space B-6,OH,45356
Buckle,Cape Girardeau,163,#163,255 W Park Mall,MO,63701
Buckle,Bozeman,164,#164,2825 W Main Space 4E,MT,59718
Buckle,Cheyenne,165,#165,1400 Dell Range Blvd Space 16,WY,82009
Buckle,Minnetonka,166,#166,12343 Wayzata Blvd Space 129,MN,55305
Buckle,Tyler,167,#167,4601 S Broadway Space B-5,TX,75703
Buckle,Lancaster,168,#168,1635 River Valley Circle S,OH,43130
Buckle,Paducah,169,#169,5101 Hinkleville Rd Space 575,KY,42002
Buckle,Flint,170,#170,3375 S Linden Rd Space 160,MI,48507
Buckle,Albuquerque,171,#171,6600 Menaul Blvd NE H0009,NM,87110
Buckle,Albuquerque,172,#172,10000 Coors Blvd  Byp NW Suite C209,NM,87114
Buckle,Grand Junction,173,#173,2424 Highway 6 & 50 Space 326,CO,81505
Buckle,Colorado Springs,174,#174,750 Citadel Drive E Suite 2226A,CO,80909
Buckle,Oklahoma City,175,#175,2501 W Memorial Dr Space 151,OK,73134
Buckle,Bloomington,176,#176,203 E Broadway,MN,55425
Buckle,Littleton,177,#177,8505 Park Meadows Center Dr Space 2048,CO,80124
Buckle,Peru,178,#178,3940 Route 251 Suite B14,IL,61354
Buckle,Moscow,180,#180,2006 W Pullman,ID,83843
Buckle,Arlington,181,#181,3811 S Cooper Suite 1212,TX,76015
Buckle,Memphis,182,#182,2760 N Germantown Pkwy Space 217,TN,38133
Buckle,Ridgeland,183,#183,1200 E County Line Rd Suite 126,MS,39157
Buckle,College Station,184,#184,1500 Harvey Rd Suite 2022,TX,77840
Buckle,Bowling Green,185,#185,2625 Scottsville Rd Suite 222,KY,42101
Buckle,Sherman,186,#186,4800 N Texamo Pkwy Suite B 310,TX,75090
Buckle,Mesquite,187,#187,2114 Town East Mall Suite 2114,TX,75150
Buckle,Flagstaff,188,#188,4650 N Highway 89 Space C-14,AZ,86004
Buckle,Bossier City,189,#189,2950 E Texas St P.O. Box 618,LA,71111
Buckle,Orland Park,190,#190,524 Orland Sq. Shopping Ctr Suite E07,IL,60462
Buckle,Waco,191,#191,6001 W Waco Dr Suite 114,TX,76710
Buckle,Tupelo,192,#192,1001 Barnes Crossing Space 208,MS,38801
Buckle,Monroe,193,#193,4700 Millhaven Rd Space 1532,LA,71203
Buckle,Spokane,194,#194,14700 E Indiana Space 1032,WA,99216
Buckle,Austin,195,#195,2901  S Capitol of Texas Hwy,TX,78746
Buckle,Janesville,196,#196,2500 Milton Ave Space 164,WI,53545
Buckle,Baton Rouge,197,#197,6401 Bluebonnet Space 2108,LA,70836
Buckle,Plano,198,#198,811 N Central Expwy Space 2030,TX,75075
Buckle,Farmington,199,#199,4601 E Main Suite 270,NM,87402
Buckle,Fort Dodge,200,#200,217 S. 25th St Space C18,IA,50501
Buckle,Sugar Land,201,#201,16535 SW Freeway Space 170,TX,77479
Buckle,Lafayette,203,#203,5725 Johnson St Space 176,LA,70503
Buckle,Pensacola,204,#204,5100 N Ninth Ave Space L1105A,FL,32504
Buckle,Lewisville,205,#205,2401 S Stemmons Frwy Space 2394,TX,75067
Buckle,Houston,206,#206,5085 Westheimer Suite 3860,TX,77056
Buckle,Murray,207,#207,6191 S. State St. Ste 374,UT,84107
Buckle,Kalispell,209,#209,20 N Main St Suite 141,MT,59901
Buckle,Coralville,210,#210,1451 Coral Ridge Ave Space 408,IA,52241
Buckle,Wauwatosa,211,#211,2500 N Mayfair Rd Space 618,WI,53226
Buckle,Chubbuck,212,#212,4155 Yellowstone Ave Space 1185,ID,83202
Buckle,Kennewick,214,#214,1321 N Columbia Ctr Blvd,WA,99336
Buckle,Bloomington,215,#215,1615 E Empire Space B4,IL,61701
Buckle,Lake Charles,216,#216,556 W Prien Lake Rd,LA,70601
Buckle,Aurora,217,#217,1084 Fox Valley Ctr,IL,60504
Buckle,Metairie,218,#218,3301 Veteran's Pkwy Ste 61,LA,70002
Buckle,Raleigh,220,#220,4325 Glenwood Ave Suite 1007,NC,27612
Buckle,Lincoln,221,#221,2950 Pine Lake Rd Suite B,NE,68516
Buckle,Colorado Springs,222,#222,1710 Briargate Blvd Space 415,CO,80920
Buckle,Knoxville,224,#224,7600 Kingston Pike Space 1017,TN,37919
Buckle,Tampa,225,#225,8021 Citrus Park Town Ctr Space 1040,FL,33625
Buckle,Tucson,226,#226,4500 N Oracle Suite 460,AZ,85705
Buckle,Fayetteville,227,#227,419 Cross Creek Mall,NC,28303
Buckle,San Antonio,228,#228,6301 NW Loop 410 Space H10B,TX,78238
Buckle,Corpus Christi,229,#229,5488 South Padre Island Drive Ste 1618,TX,78411
Buckle,Salem,230,#230,480 Center Street NE Space 124,OR,97301
Buckle,Boise,231,#231,350 N Milwaukee Suite 1089,ID,83704
Buckle,Charleston,232,#232,3000 Charleston Town Ctr Ste 2017,WV,25389
Buckle,Johnson City,233,#233,2011 N Roan St Suite 23,TN,37601
Buckle,Kennesaw,234,#234,400 Ernest Barrett Pkwy Space 1510,GA,30144
Buckle,Meridian,235,#235,1210 Bonita Lakes Circle Space 1070,MS,39301
Buckle,Beaumont,236,#236,6155 Eastex Freeway Ste 240,TX,77706
Buckle,Columbus,238,#238,135 Town Center at Easton,OH,43219
Buckle,Altoona,239,#239,5580 Goods Lane Suite 1109,PA,16602
Buckle,Bakersfield,240,#240,2701 Ming Ave Space 342VPC,CA,93304
Buckle,Friendswood,241,#241,1134 Baybrook Mall,TX,77546
Buckle,Logan,242,#242,1300 North Main Suite 1167,UT,84341
Buckle,Buford,243,#243,3333 Buford Dr Suite 2077,GA,30519
Buckle,Birmingham,245,#245,2000 Riverchase Galleria Space 290,AL,35244
Buckle,Chattanooga,246,#246,2100 Hamilton Place Blvd Ste 144,TN,37421
Buckle,Winston-Salem,247,#247,3320 Silas Creek Pkwy Suite 752,NC,27103
Buckle,Douglasville,248,#248,6700 Douglas Blvd. Space 2055,GA,30135
Buckle,Grandville,249,#249,3700 Rivertown Pkwy SW Space 2074,MI,49418
Buckle,Houma,250,#250,5953 West Park Ave Suite 2049,LA,70364
Buckle,Saint Peters,251,#251,1600 Mid Rivers Mall Dr. Ste 1238,MO,63376
Buckle,Beavercreek,252,#252,2727 Fairfield Commons Blvd Space  W273,OH,45431
Buckle,Layton,253,#253,1076 Layton Hills Mall Space 1091,UT,84041
Buckle,El Paso,254,#254,8401 Gateway Blvd. West Space T01E,TX,79925
Buckle,Hurst,255,#255,1101 Melbourne Rd Suite 3035,TX,76053
Buckle,Saint George,256,#256,1770 Red Cliffs Drive Space 148,UT,84790
Buckle,Canton,257,#257,4182 Belden Village Mall,OH,44718
Buckle,Fresno,258,#258,559 E Shaw Ave Space D-1,CA,93710
Buckle,Gainesville,259,#259,6337 Newberry Rd,FL,32605
Buckle,Union Gap,261,#261,2529 Main St Suite 166,WA,98903
Buckle,Erie,263,#263,654 Millcreek Mall Unit 255,PA,16565
Buckle,Racine,264,#264,5724 Durand Ave Space D424,WI,53406
Buckle,Greenville,265,#265,700 Haywood Rd Suite 2002,SC,29607
Buckle,Lufkin,267,#267,4600 S Medford Dr Space 1078,TX,75901
Buckle,Jackson,268,#268,2021 N Highland Ave Space D-4,TN,38305
Buckle,Fort Worth,269,#269,2014 Green Oaks Rd,TX,76116
Buckle,Broomfield,270,#270,1 W Flat Iron Dr Space 1084,CO,80021
Buckle,Jackson,271,#271,1816 W Michigan Ave,MI,49202
Buckle,Barboursville,272,#272,1 Mall Drive Unit 190,WV,25504
Buckle,Frisco,273,#273,2601 Preston Rd Suite 2252,TX,75034
Buckle,Biloxi,274,#274,2600 Beach Blvd Suite 9,MS,39531
Buckle,Roseville,275,#275,1151 Galleria Blvd Suite 248,CA,95678
Buckle,Hickory,276,#276,1960 Highway 70 SE Space 142,NC,28602
Buckle,Sandy,277,#277,10450 S State St Space 1228,UT,84070
Buckle,Sterling Heights,278,#278,14600 Lakeside Circle Space 2040,MI,48313
Buckle,Asheville,279,#279,3 S Tunnel Rd Suite L50,NC,28805
Buckle,McAllen,280,#280,2200 S 10th St Space M05,TX,78503
Buckle,Wilmington,281,#281,6835 Conservation Way Suite 2,NC,28405
Buckle,Burnsville,282,#282,2309 Burnsville Center,MN,55306
Buckle,Taylor,283,#283,23000 Eureka,MI,48180
Buckle,Eugene,284,#284,204 Valley River Ctr E12B,OR,97401
Buckle,West Dundee,285,#285,1390 Spring Hill Mall,IL,60118
Buckle,Modesto,286,#286,3401 Dale Rd Space 449,CA,95356
Buckle,Victoria,287,#287,7800 N Navarro Suite 365,TX,77904
Buckle,Killeen,288,#288,2100 South W.S. Young Dr Space 1248,TX,76543
Buckle,Fort Wayne,289,#289,4120 W Jefferson Space H7,IN,46804
Buckle,Ogden,290,#290,3651 Wall Ave Suite 1190,UT,84405
Buckle,Eden Prairie,291,#291,8251 Flying Cloud Dr,MN,55344
Buckle,Roanoke,292,#292,4802 Valley View Blvd NW Space UB75,VA,24012
Buckle,Muskegon,293,#293,5600 Harvey St Suite 1064,MI,49444
Buckle,East Wenatchee,294,#294,511 Valley Mall Pkwy Space A4,WA,98802
Buckle,Chico,295,#295,1950 E 20th St Suite D-403,CA,95928
Buckle,Tukwila,296,#296,681 Southcenter Mall,WA,98188
Buckle,Chandler,297,#297,3111 W Chandler Blvd Space 2182,AZ,85226
Buckle,Columbus,298,#298,1500 Polaris Pkwy Space 2164,OH,43240
Buckle,Edina,299,#299,2655 Southdale Center,MN,55435
Buckle,Santa Rosa,300,#300,2040 Santa Rosa Plaza,CA,95401
Buckle,Phoenix,301,#301,4550 E Cactus Suite 254,AZ,85032
Buckle,Pittsburgh,302,#302,100 Robinson Centre Dr Space 2430,PA,15205
Buckle,Salt Lake City,303,#303,131 S Rio Grande St,UT,84101
Buckle,Durham,304,#304,6910 Fayetteville Rd. Ste. 2220,NC,27713
Buckle,Prescott,305,#305,3250 Gateway Blvd Suite 266,AZ,86303
Buckle,Franklin,306,#306,1800 Galleria Blvd Space 1440,TN,37067
Buckle,Redding,307,#307,900 Dana Drive Suite D-1,CA,96003
Buckle,Leawood,308,#308,5227 W 117th St,KS,66211
Buckle,Hattiesburg,309,#309,1000 Turtle Creek Dr Suite 520,MS,39402
Buckle,Green Bay,310,#310,697 Bay Park Square,WI,54304
Buckle,Brookfield,311,#311,95 N Moorland Rd Unit D5,WI,53005
Buckle,Huntsville,312,#312,2801 Memorial Park SW Space 281,AL,35801
Buckle,Montgomery,313,#313,6840 E Chase Pkwy Space A120,AL,36117
Buckle,Cincinnati,314,#314,11700 Princeton Pike Space A-10,OH,45246
Buckle,Tulsa,315,#315,4107 S Yale Ave Space 129,OK,74135
Buckle,El Cajon,316,#316,479 Parkway Plaza,CA,92020
Buckle,Temecula,317,#317,40820 Winchester Rd Ste 1280,CA,92591
Buckle,Vancouver,318,#318,8700 NE Vancouver Mall,WA,98662
Buckle,Concord,319,#319,422 Sunvalley Mall,CA,94520
Buckle,Bellingham,320,#320,1 Bellis Pkwy Space 613,WA,98226
Buckle,Florence,321,#321,2108 Florence Mall,KY,41042
Buckle,Reno,322,#322,5170 Meadowood Mall Circle Space F120,NV,89502
Buckle,Provo,323,#323,1200 Towne Centre Blvd Space 1028,UT,84601
Buckle,Tuscaloosa,324,#324,1701 MacFarland Blvd E Suite 165,AL,35404
Buckle,Omaha,325,#325,10000 California St Suite 3611,NE,68114
Buckle,Maple Grove,326,#326,12437 Elm Creek Blvd North,MN,55369
Buckle,Richmond,327,#327,11800 Broad St Space 2044,VA,23233
Buckle,Littleton,328,#328,8501 W Bowles Ave Space 1C318,CO,80123
Buckle,Saint Louis,330,#330,416 S County Centerway,MO,63129
Buckle,Glendale,331,#331,7700 W Arrowhead Towne Center Suite 2184,AZ,85308
Buckle,Kansas City,332,#332,7107 NW 86th Terrace,MO,64153
Buckle,Mesa,333,#333,6555 E Southern Ave Space 1310,AZ,85206
Buckle,Murfreesboro,334,#334,1720 Old Fort Pkwy Space D150,TN,37129
Buckle,Houston,335,#335,303 Memorial City Mall Ste. 375,TX,77024
Buckle,Orem,336,#336,575 E University Pkwy E82,UT,84097
Buckle,The Woodlands,337,#337,1201 Lake Woodlands Dr Ste 2198,TX,77380
Buckle,Humble,338,#338,20131 Highway 59N Space 1164,TX,77338
Buckle,Knoxville,339,#339,3001 Knoxville Circle Dr Suite T16A,TN,37924
Buckle,Des Moines,340,#340,101 Jordan Creek Pkwy Space 12130,IA,50266
Buckle,Spokane,341,#341,4750 N Division Space 1226,WA,99207
Buckle,Rancho Cucamonga,342,#342,12553 N Main Street,CA,91739
Buckle,Monroeville,343,#343,200 Monroeville Mall Space 128,PA,15146
Buckle,Jacksonville,344,#344,10281 Midtown Pkwy Suite 251,FL,32246
Buckle,Lynnwood,345,#345,3000 184th St SW Suite 242,WA,98037
Buckle,Chesterfield,346,#346,291 Chesterfield Center Ste. 164,MO,63017
Buckle,Brandon,347,#347,556 Brandon Town Center Dr,FL,33511
Buckle,Schaumburg,348,#348,5 Woodfield Mall Ste D-110,IL,60173
Buckle,Houston,349,#349,1476 Willowbrook Mall,TX,77070
Buckle,Silverdale,350,#350,10315 Silverdale Way NW Space B-6,WA,98383
Buckle,San Antonio,351,#351,15900 La Cantera Pkwy Space 6690,TX,78256
Buckle,Charlotte,352,#352,6801 Northlake Mall Dr Suite 121,NC,28216
Buckle,Woodbury,353,#353,9000 Hudson Rd Suite 608,MN,55125
Buckle,Collierville,354,#354,4650 Merchant's Park Cir Suite 826,TN,38017
Buckle,Loveland,355,#355,5897 Skypond Dr Space K 124,CO,80538
Buckle,Alpharetta,356,#356,2080 N Point Circle,GA,30022
Buckle,Dayton,357,#357,2700 Miamisburg-Centerville Space 650,OH,45459
Buckle,Youngstown,358,#358,7401 Market St Space 747,OH,44512
Buckle,Reno,359,#359,13987 S Virginia St Suite 706,NV,89511
Buckle,Shreveport,361,#361,1133 St Vincent Ave,LA,71104
Buckle,Orange Park,362,#362,1910 Wells Rd,FL,32073
Buckle,Panama City,363,#363,2258 Martin Luther King Blvd,FL,32405
Buckle,Valencia,364,#364,24201 Valencia Blvd Space 2020,CA,91355
Buckle,Kansas City,365,#365,1837 Village W Pkwy Suite B-105,KS,66111
Buckle,Altamonte Springs,366,#366,451 East Altamonte Dr Suite 1285,FL,32701
Buckle,Rochester Hills,367,#367,148 N Adams Rd,MI,48309
Buckle,Plainfield,368,#368,2499 Futura Park Way Suite 140,IN,46168
Buckle,Rogers,369,#369,2203 Promenade Blvd Suite 3145,AR,72758
Buckle,Mobile,370,#370,3216A Bell Air Mall Space B10,AL,36606
Buckle,Birmingham,372,#372,5024 Pinnacle Square Space 116,AL,35235
Buckle,Estero,373,#373,23141 Fashion Dr Suite 101,FL,33928
Buckle,Denver,374,#374,8316 Northfield Blvd Suite 1650,CO,80238
Buckle,Goodlettsville,375,#375,1000 Rivergate Pkwy Suite 1509,TN,37072
Buckle,Southlake,376,#376,257 Grand Ave,TX,76092
Buckle,Pittsburgh,377,#377,301 South Hills Village Suite 2065,PA,15241
Buckle,Puyallup,378,#378,3500 S Meridian Suite 640,WA,98373
Buckle,Tallahassee,379,#379,1500 Apalachee Pkwy,FL,32301
Buckle,Strongsville,380,#380,500  South Park Center,OH,44136
Buckle,Naples,381,#381,1960 Tamiami Trail N,FL,34102
Buckle,Medford,382,#382,1600 N Riverside Ave Space 2101,OR,97501
Buckle,Daytona Beach,383,#383,1700 W Int'l Speedway Blvd Space 562,FL,32114
Buckle,Sarasota,384,#384,8201 S Tamiami Trail Space 76,FL,34238
Buckle,Tempe,385,#385,2000 E Rio Salado Pkwy Space 1237,AZ,85281
Buckle,Vienna,386,#386,100 Grand Central Ave Suite 256,WV,26105
Buckle,Fort Worth,387,#387,4800 S Hulen St Suite 2050,TX,76132
Buckle,Lombard,388,#388,364 Yorktown Shopping Ctr 364,IL,60148
Buckle,Olympia,389,#389,625 Black Lake Blvd Suite 362,WA,98502
Buckle,Irvine,390,#390,71 Fortune Dr Suite 950,CA,92618
Buckle,Clearwater,391,#391,27001 US Highway 19 N Suite 1047,FL,33761
Buckle,Maumee,392,#392,3100 Main St Space 1360,OH,43537
Buckle,Gilbert,393,#393,2200 E Williams Field Rd Suite 109,AZ,85295
Buckle,Happy Valley,394,#394,12000 SE 82nd Ave,OR,97086
Buckle,Dublin,395,#395,5043 Tuttle Crossing Blvd Space 284,OH,43016
Buckle,Highland Village,396,#396,1700 Cottonwood Creek,TX,75077
Buckle,Cedar Hill,397,#397,305 W FM 1382 Suite 510,TX,75104
Buckle,South Jordan,398,#398,11560 S District Main Dr Suite 500,UT,84095
Buckle,Virginia Beach,399,#399,701 Lynnhaven Pkwy Space C6,VA,23452
Buckle,Annapolis,400,#400,1145 Annapolis Mall,MD,21401
Buckle,Noblesville,401,#401,13904 Town Center Blvd Space 100,IN,46060
Buckle,Columbia,402,#402,100 Columbiana Cir Space 1450,SC,29212
Buckle,Towson,403,#403,825 Dulaney Valley Rd,MD,21204
Buckle,Sanford,404,#404,261 Towne Center Cir,FL,32771
Buckle,Pleasanton,405,#405,2225 Stoneridge Mall Rd,CA,94588
Buckle,Augusta,407,#407,3450 Wrightsboro Dr,GA,30909
Buckle,Palm Desert,408,#408,72840 Highway 111 Suite V423,CA,92260
Buckle,Pearland,409,#409,11200 Broadway St Suite 1340,TX,77584
Buckle,Coeur d'Alene,410,#410,2009 N Main St,ID,83814
Buckle,Henderson,411,#411,1300 W Sunset Rd Suite 1653,NV,89014
Buckle,Alexandria,412,#412,3437 Masonic Dr Suite 1146,LA,71301
Buckle,Wesley Chapel,413,#413,28211 Paseo Dr. Building 9 Unit 140,FL,33543
Buckle,Myrtle Beach,414,#414,2000 Coastal Grand Cir Suite 455,SC,29577
Buckle,Pittsburgh,415,#415,1000 Ross Park Mall Dr Suite L06,PA,15237
Buckle,Columbia,416,#416,10300 Little Patuxent Pkwy Suite 2645,MD,21044
Buckle,Buffalo,417,#417,One Walden Galleria Suite D110,NY,14225
Buckle,Whitehall,418,#418,272 Lehigh Valley Mall,PA,18052
Buckle,Westlake,419,#419,263 Crocker Park Blvd,OH,44145
Buckle,Destin,420,#420,4108 Legendary Dr Suite A103,FL,32541
Buckle,Savannah,421,#421,7804 Abercorn St Suite 25,GA,31406
Buckle,Newport News,422,#422,12300 Jefferson Ave Suite 220,VA,23602
Buckle,Pineville,423,#423,11025 Carolina Place Pkwy Suite C17,NC,28134
Buckle,Mays Landing,424,#424,4403 Black Horse Pike Suite 256,NJ,8330
Buckle,Fairlawn,425,#425,3265 W Market St Suite 164A,OH,44333
Buckle,Tucson,426,#426,5870 E Broadway Blvd Suite 109,AZ,85711
Buckle,Des Peres,427,#427,26 W County Ctr Space 1080,MO,63131
Buckle,Garland,428,#428,450 Coneflower Dr,TX,75040
Buckle,Jensen Beach,429,#429,3050 NW Federal Hwy,FL,34957
Buckle,San Antonio,430,#430,7400 San Pedro Ave Space 718,TX,78216
Buckle,Scottsdale,431,#431,7014 E  Camelback Rd Suite 2093,AZ,85251
Buckle,Nashville,432,#432,2126 Abbott Martin Rd Suite 179,TN,37215
Buckle,Dallas,433,#433,8687 N Central Expressway Suite 2128,TX,75225
Buckle,North Wales,434,#434,230 Montgomery Mall Suite 1011A,PA,19454
Buckle,Novi,435,#435,27484 Novi Rd,MI,48377
Buckle,Lima,436,#436,2400 Elida Rd Suite 140A,OH,45805
Buckle,Ocala,437,#437,3100 SW College Rd Suite 348A,FL,34474
Buckle,Austin,438,#438,11010 Domain Dr Suite 108,TX,78758
Buckle,Fairview,439,#439,212 Town Place,TX,75069
Buckle,San Rafael,440,#440,5800 Northgate Drive Suite 053,CA,94903
Buckle,Bellevue,441,#441,182 Bellevue Square,WA,98004
Buckle,Orlando,443,#443,8001 S Orange Blossom Trl Space 490,FL,32809
Buckle,Deptford,444,#444,1750 Deptford Center Rd Space 2023,NJ,8096
Buckle,Albany,446,#446,1 Crossgates Mall Rd Space L207,NY,12203
Buckle,Clarksville,447,#447,2801 Wilma Rudolph Ave Unit 550,TN,37040
Buckle,Sacramento,448,#448,1689 Arden Way Suite 2038,CA,95815
Buckle,Cincinnati,449,#449,7875 Montgomery Rd Suite 1249,OH,45236
Buckle,Victor,450,#450,222 Eastview Mall,NY,14564
Buckle,Minot,451,#451,2400 10th Street SW Suite 514,ND,58701
Buckle,Beachwood,452,#452,26300 Cedar Rd Suite 2315,OH,44122
Buckle,Lancaster,453,#453,743 Park City Ctr,PA,17601
Buckle,Jacksonville,454,#454,375 Jacksonville Mall,NC,28546
Buckle,Orlando,455,#455,501 N Alafaya Trail,FL,32828
Buckle,Lees Summit,456,#456,880 NW Blue Pkwy,MO,64086
Buckle,Las Vegas,457,#457,3200 Las Vegas Blvd S Suite 1000,NV,89109
Buckle,Troy,458,#458,2800 W. Big Beaver Rd. Ste. W-314,MI,48084-3237
Buckle,Deer Park,459,#459,20530 N. Rand Rd Ste.232,IL,60010-7239
Buckle,Tacoma,460,#460,4502 S. Steele St. Space 646A,WA,98409-7225
Buckle,Joliet,461,#461,3340 Mall Loop Dr SPC 1048,IL,60431
Buckle,Columbus,462,#462,3131 Manchester Expy Ste. 10,GA,31909
Buckle,St. Louis,463,#463,1155 St Louis Galleria STE2122,MO,63117
Buckle,Jacksonville,464,#464,10300 Southside Blvd.,FL,32256-0770
Buckle,Morgantown,465,#465,9611 Mall Rd,WV,26501
Buckle,Macon,466,#466,5080 Riverside Dr Ste 320,GA,31210
Buckle,Providence,467,#467,151 Providence Place Suite 4120,RI,2903
Buckle,Natick,468,#468,1245 Worcester St. Space 2169,MA,01760-1515
Buckle,Scottsdale,469,#469,15147 N. Scottsdale Rd STE 175,AZ,85254
Buckle,Mandeville,470,#470,3470 Highway  190,LA,70471
Buckle,Tigard,471,#471,9636 SW Washington Sq Rd,OR,97223
Buckle,Bend,472,#472,425 SW Powerhouse Dr,OR,97702
Buckle,Charlottesville,473,#473,1601 E  Rio Rd Suite 12143,VA,22901
Buckle,Niles,474,#474,5555 Youngstown Warren Rd. STE 409,OH,44446-4840
Buckle,Casper,475,#475,601 SE Wyoming Blvd,WY,82609
Buckle,Greenville,476,#476,714 Greenville Blvd. SE Suite E 4,NC,27858
Buckle,Las Cruces,477,#477,700 S. Telshor Blvd. Suite 1432,NM,88011
Buckle,Greensburg,479,#479,5256 Route 30 Suite 213,PA,15601-7781
Buckle,Denver,480,#480,3000 E. 1st Avenue Suite 228,CO,80206
Buckle,Palmdale,481,#481,1233 Rancho Vista Blvd. Ste. 109,CA,93551-3951
Buckle,Orlando,482,#482,4200 Conroy Rd. Ste D109,FL,32839-2404
Buckle,Fredericksburg,483,#483,245 Spotsylvania Towne Centre,VA,22407-1125
Buckle,Gurnee,484,#484,6170 W. Grand Ave.,IL,60031
Buckle,Syracuse,485,#485,1 Destiny USA Dr. Ste B105,NY,13204
Buckle,Huntsville,486,#486,365 The Bridge St. Ste 117,AL,35806
Buckle,Beavercreek,487,#487,4480 Cedar Park Dr.,OH,45440-1382
Buckle,Ashland,488,#488,500 Winchester Ave. Ste 330,KY,41101-7366
Buckle,Valdosta,489,#489,1702 Norman Dr. Ste. 1210,GA,31601-7482
Buckle,Bridgeport,490,#490,2399 Meadowbrook Rd Ste. 670,WV,26330-9018
Buckle,Florence,491,#491,301 Cox Creek Parkway Ste 1306,AL,35630-8904
Buckle,Laredo,492,#492,5300 San Dario Ave. Ste 164,TX,78041-3036
Buckle,Denton,493,#493,2201 S. Interstate 35 E Ste. 16A,TX,76205
Buckle,Lake Jackson,494,#494,100 Highway 332 Ste 1190,TX,77566-4040
Buckle,Grapevine,495,#495,3000 Grapevine Mills Pkwy Ste 520,TX,76051
Buckle,Dallas,496,#496,13350 Dallas Pkwy Ste 2380,TX,75240
Buckle,Anchorage,497,#497,320 W. 5th Ave. Ste 210,AK,99501
Buckle,Atlanta,498,#498,1321 Cumberland Mall,GA,30339
Buckle,Concord,499,#499,8441 Concord Mills Blvd,NC,28027
Buckle,Kay,500,#500,5000 Katy Mills Circle,TX,77494
Buckle,Kearney,991,#991,2900 W 24th St,NE,68845
Buckle,Kearney,999,#999,2915 W. 16th St,NE,68845
