keywords,city,Agg store_number,store_number,address,state,zip_code
Buffalo Wild Wings,West St. Paul,9,09 9 009,1458 South Robert Street,MN,55118-3140
Buffalo Wild Wings,Cincinnati,10,010 10 0010,A7 2692 Madison Road,OH,45208-1323
Buffalo Wild Wings,Lexington,15,015 15 0015,Suite 104 1080 South Broadway,KY,40504-4108
Buffalo Wild Wings,Middletown,18,018 18 0018,12901 Shelbyville Road,KY,40243-1538
Buffalo Wild Wings,Bowling Green,19,019 19 0019,1760 Scottsville Road,KY,42104-3350
Buffalo Wild Wings,Dublin,20,020 20 0020,6595 Perimeter Loop Drive,OH,43017-3208
Buffalo Wild Wings,Pittsburgh,21,021 21 0021,480 Home Drive,PA,15275-1204
Buffalo Wild Wings,Gahanna,23,023 23 0023,1380 Cherry Bottom Road,OH,43230-6771
Buffalo Wild Wings,Florence,25,025 25 0025,8840 Bankers Street,KY,41042-4212
Buffalo Wild Wings,Overland Park,26,026 26 0026,7030 West 105th Street,KS,66212-1803
Buffalo Wild Wings,Omaha,27,027 27 0027,4287 South 144th Street,NE,68137-1053
Buffalo Wild Wings,Apple Valley,28,028 28 0028,14658 Cedar Avenue South,MN,55124-8554
Buffalo Wild Wings,Cincinnati,29,029 29 0029,8405 Colerain Avenue,OH,45239-3926
Buffalo Wild Wings,Owensboro,32,032 32 0032,4736 Frederica Street,KY,42301-7462
Buffalo Wild Wings,Jeffersontown,35,035 35 0035,9134 Taylorsville Road,KY,40299-1752
Buffalo Wild Wings,Omaha,39,039 39 0039,205 North 76th Street,NE,68114-3639
Buffalo Wild Wings,Elk River,40,040 40 0040,778 Freeport Avenue,MN,55330-2645
Buffalo Wild Wings,Forest Park,42,042 42 0042,1081 Smiley Avenue,OH,45240-1835
Buffalo Wild Wings,Evansville,45,045 45 0045,715 North Green River Road,IN,47715-2415
Buffalo Wild Wings,Lexington,49,049 49 0049,3090 Old Todds Road,KY,40508-5004
Buffalo Wild Wings,Evansville,50,050 50 0050,5405 Pearl Drive,IN,47712-8102
Buffalo Wild Wings,Plymouth,55,055 55 0055,3505 Vicksburg Lane,MN,55447-1342
Buffalo Wild Wings,Iowa City,56,056 56 0056,Suite 120 201 Clinton Street,IA,52240-4011
Buffalo Wild Wings,Wichita,58,058 58 0058,Suite 190 3236 North Rock Road,KS,67226-1360
Buffalo Wild Wings,Columbus,59,059 59 0059,1690 Georgesville Square Dr,OH,43228-3691
Buffalo Wild Wings,West Chester,60,060 60 0060,9243 Schulze Drive,OH,45069-6528
Buffalo Wild Wings,Cincinnati,61,061 61 0061,7714 Montgomery Road,OH,45236-4286
Buffalo Wild Wings,Lawrence,64,064 64 0064,1012 Massachusetts St,KS,66044-3061
Buffalo Wild Wings,Appleton,65,065 65 0065,3201 E. Calumet Street,WI,54915-4766
Buffalo Wild Wings,Wichita,66,066 66 0066,Suite 105 2413 N Maize Road,KS,67205-7944
Buffalo Wild Wings,Bellevue,67,067 67 0067,Suite 100 10525 S. 15th St.,NE,68123-4085
Buffalo Wild Wings,Crystal,69,069 69 0069,5590 West Broadway,MN,55428-3551
Buffalo Wild Wings,Cincinnati,70,070 70 0070,4550 Glendale Milford Road,OH,45242-3710
Buffalo Wild Wings,Memphis,71,071 71 0071,8385 US 64 #101,TN,38133-8187
Buffalo Wild Wings,Omaha,72,072 72 0072,#100 14615 West Maple Street,NE,68116-8191
Buffalo Wild Wings,Fayetteville,73,073 73 0073,2097 Skibo Road,NC,28314-2207
Buffalo Wild Wings,Manhattan,74,074 74 0074,1231 Moro Street,KS,66502-5352
Buffalo Wild Wings,Milford,75,075 75 0075,175 Rivers Edge Drive,OH,45150-1458
Buffalo Wild Wings,Coon Rapids,76,076 76 0076,3395 River Rapids Drive,MN,55448-4105
Buffalo Wild Wings,Delaware,77,077 77 0077,475 N. Houk Road,OH,43015-1427
Buffalo Wild Wings,Lee's Summit,79,079 79 0079,1806 N.W. Chipman Road,MO,64081-3938
Buffalo Wild Wings,Wausau,81,081 81 0081,1819 West Stewart Avenue,WI,54401-5373
Buffalo Wild Wings,Ashwaubenon,82,082 82 0082,Suite 100 2101 South Oneida Street,WI,54304-4616
Buffalo Wild Wings,Columbus,83,083 83 0083,2137 Polaris Parkway,OH,43240-2022
Buffalo Wild Wings,Murfreesboro,84,084 84 0084,207 Stones River Mall Blvd.,TN,37129-6343
Buffalo Wild Wings,Hiram,85,085 85 0085,5000 Jimmy Lee Smith Parkway,GA,30141-2769
Buffalo Wild Wings,Lithonia,86,086 86 0086,7322 Stonecrest Concourse,GA,30038-2687
Buffalo Wild Wings,Marietta,87,087 87 0087,Suite 106 125 Barrett Pkwy,GA,30066-3331
Buffalo Wild Wings,Chanhassen,88,088 88 0088,550 W. 79th Street,MN,55317-9530
Buffalo Wild Wings,Champlin,89,089 89 0089,11580 Theater Drive,MN,55316-2749
Buffalo Wild Wings,Memphis,91,091 91 0091,3770 Hack's Cross Road,TN,38125-2303
Buffalo Wild Wings,Independence,92,092 92 0092,20110 East Jackson Drive,MO,64057-1690
Buffalo Wild Wings,St Cloud,93,093 93 0093,Suite 111 3701 West Division Street,MN,56301-3301
Buffalo Wild Wings,Eau Claire,94,094 94 0094,4612 Keystone Crossing,WI,54701-5051
Buffalo Wild Wings,Centennial,95,095 95 0095,Suite 200 8255 South Chester Street,CO,80112-3551
Buffalo Wild Wings,Olive Branch,96,096 96 0096,7995 Craft- Goodman Frontage Rd,MS,38654-6609
Buffalo Wild Wings,Ft Wright,97,097 97 0097,Suite A 3441 Valley Plaza Parkway,KY,41017-8176
Buffalo Wild Wings,Grand Prairie,98,098 98 0098,2315 Interstate 20 West,TX,75052-3927
Buffalo Wild Wings,Douglasville,99,099 99 0099,6790 Douglas Blvd,GA,30135-1599
Buffalo Wild Wings,Dallas,100,0100 100 00100,#100 5000 Belt Line Road,TX,75254-6752
Buffalo Wild Wings,Keller,101,0101 101 00101,2017 South Main Street,TX,76248-5122
Buffalo Wild Wings,Cedar Hill,102,0102 102 00102,430 East Pleasant Run Road,TX,75104-1848
Buffalo Wild Wings,Irving,103,0103 103 00103,1200 Market Place,TX,75063-7228
Buffalo Wild Wings,Charlotte,104,0104 104 00104,2530 Sardis Road North,NC,28227-7723
Buffalo Wild Wings,Winston Salem,105,0105 105 00105,1045 Hanes Mall Blvd.,NC,27103-1310
Buffalo Wild Wings,Lakewood,106,0106 106 00106,5138 S. Wadsworth Blvd,CO,80123-2218
Buffalo Wild Wings,Atlanta,107,0107 107 00107,8371 Roswell Road,GA,30350-2810
Buffalo Wild Wings,Superior,108,0108 108 00108,404 Marshall Road,CO,80027-8623
Buffalo Wild Wings,Alpharetta,109,0109 109 00109,2375 Mansell Road,GA,30022-1529
Buffalo Wild Wings,DeKalb,110,0110 110 00110,2466 Sycamore Road,IL,60115-2050
Buffalo Wild Wings,Longmont,111,0111 111 00111,2303 Clover Basin Drive,CO,80503-7603
Buffalo Wild Wings,Garner,113,0113 113 00113,148 Shenstone Blvd.,NC,27529-6902
Buffalo Wild Wings,Colorado Springs,114,0114 114 00114,7425 N. Academy Blvd.,CO,80920-3204
Buffalo Wild Wings,Columbus,115,0115 115 00115,5555 Whittlesey Parkway,GA,31909-7212
Buffalo Wild Wings,Grapevine,116,0116 116 00116,1525 William D. Tate,TX,76051-3965
Buffalo Wild Wings,Sherman,117,0117 117 00117,4066 N. US Hwy. 75,TX,75090-0529
Buffalo Wild Wings,Maplewood,118,0118 118 00118,3085 White Bear Ave. N.,MN,55109-1309
Buffalo Wild Wings,Rockwall,119,0119 119 00119,Suite 101 951 E. Interstate Hwy. 30,TX,75087-4824
Buffalo Wild Wings,Burleson,120,0120 120 00120,12832 SOUTH FWY # I-35,TX,76028-7008
Buffalo Wild Wings,Charlotte,121,0121 121 00121,Ste. 230 440 E McCullough Dr.,NC,28262-3313
Buffalo Wild Wings,Ft. Collins,122,0122 122 00122,Unit 2A 150 E. Harmony Rd.,CO,80525-8007
Buffalo Wild Wings,Savage,123,0123 123 00123,7551 Egan Dr.,MN,55378-2201
Buffalo Wild Wings,Lewisville,124,0124 124 00124,2613 S. Stemmons Freeway,TX,75067-4137
Buffalo Wild Wings,Greeley,125,0125 125 00125,Unit A 4711 W. 29th St.,CO,80634-8377
Buffalo Wild Wings,Oakdale,126,0126 126 00126,8346 3rd St. North,MN,55128-5439
Buffalo Wild Wings,Pueblo,127,0127 127 00127,5821 N. Elizabeth St.,CO,81008-2179
Buffalo Wild Wings,Opelika,128,0128 128 00128,2257 Tiger Town Pkwy.,AL,36801-5495
Buffalo Wild Wings,Geneva,129,0129 129 00129,820 Commons Drive,IL,60134-2520
Buffalo Wild Wings,High Point,130,0130 130 00130,Suite 115 5836 Samet Drive,NC,27265-3657
Buffalo Wild Wings,Memphis,131,0131 131 00131,3448 Poplar Ave.,TN,38111-4653
Buffalo Wild Wings,Kenosha,132,0132 132 00132,7114 118th Ave,WI,53142-7335
Buffalo Wild Wings,Davenport,133,0133 133 00133,4860 Utica Ridge Road,IA,52807-3056
Buffalo Wild Wings,Spring,134,0134 134 00134,Suite A 21322 Kuykendahl Rd.,TX,77379-2608
Buffalo Wild Wings,West Des Moines,135,0135 135 00135,6925 Mills Civic Pkwy #116,IA,50266-8134
Buffalo Wild Wings,Lakewood,136,0136 136 00136,415 South Wadsworth Blvd.,CO,80226-3132
Buffalo Wild Wings,Westminster,137,0137 137 00137,10436 Town Center Dr #100,CO,80021-6082
Buffalo Wild Wings,Houston,138,0138 138 00138,Suite F 5815 E. Sam Houston Pkwy.,TX,77049-2524
Buffalo Wild Wings,Cypress,140,0140 140 00140,Suite E 25704 HIGHWAY 290,TX,77429-1011
Buffalo Wild Wings,Plano,141,0141 141 00141,Suite 100 3625 Central Expressway,TX,75023-6926
Buffalo Wild Wings,Rosenberg,142,0142 142 00142,Suite 502 2727 Mercantile Dr.,TX,77471-6199
Buffalo Wild Wings,Columbus,143,0143 143 00143,152 Graceland Blvd.,OH,43214-1530
Buffalo Wild Wings,Lebanon,144,0144 144 00144,1248 Columbus Ave.,OH,45036-8363
Buffalo Wild Wings,Columbus,145,0145 145 00145,2151 North High Street,OH,43201-1118
Buffalo Wild Wings,Dubuque,146,0146 146 00146,2805 NW Arterial,IA,52002-0500
Buffalo Wild Wings,Baxter,147,0147 147 00147,Suite 100 14643 Edgewood Drive,MN,56425-9770
Buffalo Wild Wings,Southaven,148,0148 148 00148,Lot 2 7188 Airways Blvd.,MS,38671-6104
Buffalo Wild Wings,Topeka,149,0149 149 00149,Suite 400 1227 SW Wanamaker Rd,KS,66604-4145
Buffalo Wild Wings,Conroe,150,0150 150 00150,Suite 500 2948 I-45N,TX,77303-7901
Buffalo Wild Wings,Cedar Rapids,151,0151 151 00151,Suite 101 1100 Blairs Ferry Rd,IA,52402-1276
Buffalo Wild Wings,Coralville,152,0152 152 00152,Suite 1 2500 Corridor Way,IA,52241-7600
Buffalo Wild Wings,Cicero,153,0153 153 00153,Suite 300 5671 East Circle Drive,NY,13039-8944
Buffalo Wild Wings,Kansas City,154,0154 154 00154,9207 NE Highway 152,MO,64158-7608
Buffalo Wild Wings,Dallas,155,0155 155 00155,Suite 176 4140 Lemmon Avenue,TX,75219-3700
Buffalo Wild Wings,Oshkosh,156,0156 156 00156,500 South Koeller Street,WI,54902-5548
Buffalo Wild Wings,Ft. Worth,157,0157 157 00157,5908 Quebec Street,TX,76135-3605
Buffalo Wild Wings,Oak Park Heights,158,0158 158 00158,5991 Norwich Avenue North,MN,55082-1290
Buffalo Wild Wings,Oswego,159,0159 159 00159,1550 Douglas Road,IL,60543-5108
Buffalo Wild Wings,Sioux City,160,0160 160 00160,Suite 355 5001 Sergeant Road,IA,51106-4775
Buffalo Wild Wings,Mansfield,161,0161 161 00161,1716 North US Highway 287,TX,76063-7534
Buffalo Wild Wings,Cincinnati,162,0162 162 00162,200 Calhoun Street,OH,45219-1595
Buffalo Wild Wings,Watertown,163,0163 163 00163,1290 Arsenal Road,NY,13601-2294
Buffalo Wild Wings,Hudson,164,0164 164 00164,913 Pearson DR,WI,54016-8741
Buffalo Wild Wings,South Elgin,165,0165 165 00165,402 Randall Road,IL,60177-3325
Buffalo Wild Wings,Shorewood,166,0166 166 00166,1023 Brookforest Drive,IL,60404-8849
Buffalo Wild Wings,West Bend,167,0167 167 00167,705 West Paradise Drive,WI,53095-8530
Buffalo Wild Wings,Marysville,168,0168 168 00168,651 Coleman's Crossing Blvd.,OH,43040-7063
Buffalo Wild Wings,Auburn,169,0169 169 00169,1612 Clark Street,NY,13021-9520
Buffalo Wild Wings,Belton,170,0170 170 00170,1121 East North Avenue,MO,64012-5105
Buffalo Wild Wings,Mason City,171,0171 171 00171,4175 4th Street SW,IA,50401-7346
Buffalo Wild Wings,Virginia Beach,172,0172 172 00172,Suite 755 3300 Princess Anne Road,VA,23456-2605
Buffalo Wild Wings,Smyrna,173,0173 173 00173,430 Sam Ridley Parkway West,TN,37167-5620
Buffalo Wild Wings,N. Las Vegas,174,0174 174 00174,190 West Craig Road,NV,89032-1190
Buffalo Wild Wings,Henderson,175,0175 175 00175,Suite 121 10271 S. Eastern Avenue,NV,89052-3980
Buffalo Wild Wings,Henderson,176,0176 176 00176,617 Mall Ring Circle,NV,89014-8621
Buffalo Wild Wings,Las Vegas,177,0177 177 00177,Suite 118-121 7345 South Durango Drive,NV,89113-3608
Buffalo Wild Wings,Las Vegas,178,0178 178 00178,4280 Hualapi #108,NV,89147-8397
Buffalo Wild Wings,Las Vegas,179,0179 179 00179,Suite 110 6640 N. Durango Drive,NV,89149-6681
Buffalo Wild Wings,North Las Vegas,180,0180 180 00180,Suite 101 150 E Centennial Parkway,NV,89084-1337
Buffalo Wild Wings,Henderson,181,0181 181 00181,65 Horizon Ridge Parkway,NV,89002-7912
Buffalo Wild Wings,Las Vegas,182,0182 182 00182,Suite 120 7430 Las Vegas Blvd. South,NV,89123-1063
Buffalo Wild Wings,Concord,183,0183 183 00183,289 George Bay Court,NC,28027-7599
Buffalo Wild Wings,Whitehall,184,0184 184 00184,3920 East Broad Street,OH,43213-1143
Buffalo Wild Wings,Waukegan,185,0185 185 00185,3961 Fountain Square Place,IL,60085-6705
Buffalo Wild Wings,Aurora,186,0186 186 00186,Suite 104 1460 North Orchard Road,IL,60504-7901
Buffalo Wild Wings,Newport News,187,0187 187 00187,12150 Jefferson Avenue,VA,23602-6908
Buffalo Wild Wings,Lombard,188,0188 188 00188,207 East Roosevelt Road,IL,60148-4555
Buffalo Wild Wings,Gibsonia,189,0189 189 00189,500 Grandview Xing Drive Suite 90,PA,15044-7100
Buffalo Wild Wings,Thornton,190,0190 190 00190,10090 Grant Street,CO,80229-2018
Buffalo Wild Wings,Arlington,192,0192 192 00192,Suite 101 1301 N. Collins,TX,76011-5026
Buffalo Wild Wings,St Joseph,193,0193 193 00193,5403 North Belt Highway,MO,64506-1277
Buffalo Wild Wings,Garland,194,0194 194 00194,Suite 100 5125 George Bush Freeway,TX,75040-2763
Buffalo Wild Wings,Mesa,195,0195 195 00195,6560 E. Superstition Springs Blvd.,AZ,85206-4323
Buffalo Wild Wings,Ft. Worth,196,0196 196 00196,5601 South Hulen,TX,76132-2260
Buffalo Wild Wings,Bedford,197,0197 197 00197,1933 Airport Freeway,TX,76021-5732
Buffalo Wild Wings,Mesquite,198,0198 198 00198,3900 Pavillion Ct,TX,75150-6520
Buffalo Wild Wings,Chesapeake,199,0199 199 00199,1308 Greenbrier Parkway,VA,23320-0619
Buffalo Wild Wings,Eagan,200,0200 200 00200,1280 Promenade Place,MN,55121-2299
Buffalo Wild Wings,Cincinnati,201,0201 201 00201,11363 Montgomery Road,OH,45249-2312
Buffalo Wild Wings,Rockford,202,0202 202 00202,6275 East State Street,IL,61108-2514
Buffalo Wild Wings,Rochester,203,0203 203 00203,780 Jefferson Road,NY,14623-3232
Buffalo Wild Wings,Chesapeake,204,0204 204 00204,216 Carmichael Way,VA,23322-2183
Buffalo Wild Wings,Ankeny,205,0205 205 00205,Suite 117 1690 SE Delaware Drive,IA,50021-4694
Buffalo Wild Wings,Knightdale,206,0206 206 00206,6700 Knightdale Blvd,NC,27545-9654
Buffalo Wild Wings,McKinney,207,0207 207 00207,Suite 610 2035 N. Central Expressway,TX,75070-3683
Buffalo Wild Wings,Burlington,208,0208 208 00208,3128 Walden Lane,NC,27215-8236
Buffalo Wild Wings,Pewaukee,209,0209 209 00209,Suite A 1273 Capitol Drive,WI,53072-2526
Buffalo Wild Wings,Monticello,210,0210 210 00210,9221 Cedar Street,MN,55362-4507
Buffalo Wild Wings,Machesney,211,0211 211 00211,1513 West Lane Rd,IL,61115-1902
Buffalo Wild Wings,Papillion,212,0212 212 00212,11651 South 73rd Street,NE,68046-1510
Buffalo Wild Wings,Powell,213,0213 213 00213,3878 Attucks Drive,OH,43065-6082
Buffalo Wild Wings,Brighton,214,0214 214 00214,2025 Prairie Center Parkway,CO,80601-7015
Buffalo Wild Wings,Overland Park,215,0215 215 00215,13749 Metcalf Avenue,KS,66223-7899
Buffalo Wild Wings,Onalaska,216,0216 216 00216,3132 Market Place,WI,54650-6705
Buffalo Wild Wings,Waxahachie,217,0217 217 00217,1635 Highway 77 North,TX,75165-7812
Buffalo Wild Wings,Alcoa,218,0218 218 00218,224 Hamilton Crossings Drive,TN,37701-2262
Buffalo Wild Wings,Oak Creek,219,0219 219 00219,8171 S Howell Avenue,WI,53154-8345
Buffalo Wild Wings,Carrollton,220,0220 220 00220,Suite 100 3320 E. Hebron Parkway,TX,75010-4422
Buffalo Wild Wings,Gallatin,221,0221 221 00221,1109 Nashville Pike,TN,37066-3109
Buffalo Wild Wings,Spring Hill,222,0222 222 00222,1018 Crossings Blvd,TN,37174-2787
Buffalo Wild Wings,Clarksville,223,0223 223 00223,1112 Veterans Parkway,IN,47129-2370
Buffalo Wild Wings,Weatherford,224,0224 224 00224,320 Adams Drive,TX,76086-6732
Buffalo Wild Wings,Richmond,225,0225 225 00225,5520 W Grand Parkway S,TX,77406-5879
Buffalo Wild Wings,Virginia Beach,226,0226 226 00226,Suite 100 2133 Upton Rd,VA,23454-1195
Buffalo Wild Wings,Lakeville,227,0227 227 00227,18425 Orchard Trail,MN,55044-6695
Buffalo Wild Wings,Janesville,228,0228 228 00228,Suite 110 2929 Milton Avenue,WI,53545-0253
Buffalo Wild Wings,Gainesville,229,0229 229 00229,5143 Wellington Rd,VA,20155-4053
Buffalo Wild Wings,Pensacola,230,0230 230 00230,5153 Bayou Blvd,FL,32503-2101
Buffalo Wild Wings,Moline,231,0231 231 00231,4408 16th Street,IL,61265-7012
Buffalo Wild Wings,Victoria,232,0232 232 00232,7905 N Navarro St #1000,TX,77904-2626
Buffalo Wild Wings,Newport,233,0233 233 00233,83 Carothers Rd,KY,41071-2415
Buffalo Wild Wings,Circleville,234,0234 234 00234,152 Summit Avenue,OH,43113-2210
Buffalo Wild Wings,Independence,235,0235 235 00235,2004 Centennial Blvd,KY,41051-7046
Buffalo Wild Wings,Wilson,236,0236 236 00236,2800 W Raleigh Rd Parkway,NC,27896-8656
Buffalo Wild Wings,Council Bluffs,238,0238 238 00238,Suite 100 3701 Metro Drive,IA,51501-7738
Buffalo Wild Wings,Hermitage,239,0239 239 00239,5215 Old Hickory Blvd,TN,37076-2571
Buffalo Wild Wings,Hendersonville,240,0240 240 00240,310 Indian Lake Blvd,TN,37075-6217
Buffalo Wild Wings,Dulles,241,0241 241 00241,21980 Colorado Drive,VA,20166-2509
Buffalo Wild Wings,Derby,242,0242 242 00242,Suite 100 1918 North Rock Road,KS,67037-3780
Buffalo Wild Wings,Mt. Juliet,243,0243 243 00243,100 Adams Lane,TN,37122-6311
Buffalo Wild Wings,Gastonia,244,0244 244 00244,422 Cox Rd.,NC,28056-0609
Buffalo Wild Wings,Williamsburg,245,0245 245 00245,4918 Courthouse Street,VA,23188-2687
Buffalo Wild Wings,Valdosta,246,0246 246 00246,1553 Baytree Rd,GA,31602-2787
Buffalo Wild Wings,Chandler,247,0247 247 00247,Suite V120 3163 W Chandler Blvd,AZ,85226-4964
Buffalo Wild Wings,Chattanooga,248,0248 248 00248,120 Market Street,TN,37402-1017
Buffalo Wild Wings,Waukesha,249,0249 249 00249,Ste 106 1180 West Sunset Drive,WI,53189-8422
Buffalo Wild Wings,Richmond,250,0250 250 00250,Ste 100 2139 Lantern Ridge Road,KY,40475-6011
Buffalo Wild Wings,Nashville,251,0251 251 00251,Suite 110 6816 Charlotte Pike,TN,37209-4277
Buffalo Wild Wings,Tomball,252,0252 252 00252,Suite 104 14215 FM 2920,TX,77377-5505
Buffalo Wild Wings,Paducah,253,0253 253 00253,2916 James Sanders Blvd,KY,42001-9471
Buffalo Wild Wings,Asheville,254,0254 254 00254,4 Tunnel Road,NC,28805-1230
Buffalo Wild Wings,Duluth,255,0255 255 00255,1307 Miller Trunk Highway,MN,55811-5605
Buffalo Wild Wings,Hixson,256,0256 256 00256,5744 Highway 153,TN,37343-3727
Buffalo Wild Wings,Knoxville,257,0257 257 00257,11431 Parkside Drive,TN,37934-1974
Buffalo Wild Wings,Willowbrook,258,0258 258 00258,7111 South Kingery Highway,IL,60527-5525
Buffalo Wild Wings,Charlotte,259,0259 259 00259,Suite B 400 E. Martin Luther King Jr Blvd,NC,28202-2343
Buffalo Wild Wings,Horseheads,260,0260 260 00260,Unit G2 1631 County Road 64,NY,14845-8135
Buffalo Wild Wings,DES MOINES,263,0263 263 00263,4345 MERLE HAY ROAD,IA,50310-1411
Buffalo Wild Wings,Thornton,264,0264 264 00264,16540 N. Washington Street,CO,80023-8964
Buffalo Wild Wings,Greenville,265,0265 265 00265,Suite 1300 1125 Woodruff Road,SC,29607-4158
Buffalo Wild Wings,Phoenix,266,0266 266 00266,Suite 1241 2510 W. Happy Valley Road,AZ,85085-1879
Buffalo Wild Wings,ITHACA,267,0267 267 00267,"Suite 200 410 Elmira Road, Bldg #3",NY,14850-8739
Buffalo Wild Wings,SUFFOLK,268,0268 268 00268,Suite 67 7386 Harbour Town Parkway,VA,23435-3470
Buffalo Wild Wings,Denton,269,0269 269 00269,Suite 110 1400 Loop 288,TX,76205-4706
Buffalo Wild Wings,Baytown,270,0270 270 00270,6604 Garth Road,TX,77521-8623
Buffalo Wild Wings,Tempe,271,0271 271 00271,Suite 104 705 S. Rural Road,AZ,85281-2045
Buffalo Wild Wings,Modesto,272,0272 272 00272,Suite 830 3401 Dale Road,CA,95356-0505
Buffalo Wild Wings,Frisco,273,0273 273 00273,Suite 8 3211 Preston Road,TX,75034-9020
Buffalo Wild Wings,CITRUS HEIGHTS,274,0274 274 00274,6301 SUNRISE BLVD,CA,95610-5912
Buffalo Wild Wings,Stevens Pt,275,0275 275 00275,Suite H 5370 Highway 10 East,WI,54482-8304
Buffalo Wild Wings,Cedar Falls,276,0276 276 00276,6406 University Avenue,IA,50613-5217
Buffalo Wild Wings,Colorado Springs,277,0277 277 00277,2905 Geyser Drive,CO,80906-4039
Buffalo Wild Wings,Clifton Park,278,0278 278 00278,Store #130 22 Clifton Country Road,NY,12065-3957
Buffalo Wild Wings,Brunswick,279,0279 279 00279,718 Glynn Isles Parkway,GA,31525-2935
Buffalo Wild Wings,Woodbridge,280,0280 280 00280,14466 Potomac Mills Road,VA,22192-6802
Buffalo Wild Wings,Glendale,281,0281 281 00281,N-145 590 W. Northshore Drive,WI,53217-4533
Buffalo Wild Wings,Owatonna,282,0282 282 00282,1100 West Frontage Road,MN,55060-5666
Buffalo Wild Wings,Folsom,283,0283 283 00283,2759 East Bidwell Street,CA,95630-6405
Buffalo Wild Wings,Fresno,284,0284 284 00284,3065 E. Shaw Ave,CA,93710-8206
Buffalo Wild Wings,Lufkin,285,0285 285 00285,Suite 100 105 Miles Way,TX,75901-5943
Buffalo Wild Wings,Kingsport,286,0286 286 00286,1721 East Stone Drive,TN,37660-4611
Buffalo Wild Wings,Hamburg,287,0287 287 00287,3540 McKinley Parkway,NY,14219-2600
Buffalo Wild Wings,Stafford,288,0288 288 00288,1050 Stafford Marketplace,VA,22556-4523
Buffalo Wild Wings,Leesburg,289,0289 289 00289,524 Fort Evans Road,VA,20176-4097
Buffalo Wild Wings,Oshawa,290,0290 290 00290,903 Taunton Road East,ON,L1H 7K5
Buffalo Wild Wings,Arlington,291,0291 291 00291,Suite R-015 2450 Crystal Drive,VA,22202-3887
Buffalo Wild Wings,Minneapolis,292,0292 292 00292,Suite 100 2001 SE University Avenue,MN,55414-2275
Buffalo Wild Wings,Jacksonville,293,0293 293 00293,13230 City Station Drive,FL,32218-7227
Buffalo Wild Wings,Highland Village,294,0294 294 00294,3780 Justin Road (FM 407,TX,75077-3328
Buffalo Wild Wings,Stockton,295,0295 295 00295,4751 Pacific Avenue,CA,95207-6301
Buffalo Wild Wings,Kansas City,296,0296 296 00296,8441 NW Prairie View Road,MO,64153-1842
Buffalo Wild Wings,Easton,297,0297 297 00297,3798 Dryland Way,PA,18045-8351
Buffalo Wild Wings,Cranberry Township,298,0298 298 00298,20215 Route 19,PA,16066-6146
Buffalo Wild Wings,Olathe,299,0299 299 00299,12110 S. Strang Line Road,KS,66062-5219
Buffalo Wild Wings,Aurora,300,0300 300 00300,10500 East Garden Drive,CO,80012-7003
Buffalo Wild Wings,Oxnard,301,0301 301 00301,1600 East Gonzales Road,CA,93036-3700
Buffalo Wild Wings,Wilkins Township,302,0302 302 00302,3469 William Penn Highway,PA,15235-5412
Buffalo Wild Wings,Ames,303,0303 303 00303,400 S. Duff Avenue,IA,50010-6614
Buffalo Wild Wings,Sevierville,304,0304 304 00304,1430 Hurley Drive,TN,37862-6903
Buffalo Wild Wings,Clarksville,305,0305 305 00305,110 S Hampton Place,TN,37040-5033
Buffalo Wild Wings,Downingtown,306,0306 306 00306,103 Quarry Road,PA,19335-3419
Buffalo Wild Wings,Niagara Falls,307,0307 307 00307,Suite 100 1594 Military Rd.,NY,14304-1732
Buffalo Wild Wings,Cerritos,308,0308 308 00308,11255 E 183rd Street,CA,90703-5417
Buffalo Wild Wings,Cedar Rapids,309,0309 309 00309,2020 Edgewood Road SW,IA,52404-2340
Buffalo Wild Wings,Philadelphia,310,0310 310 00310,9701 Roosevelt Road,PA,19114-1010
Buffalo Wild Wings,Katy,311,0311 311 00311,19910 Park Row,TX,77449-4915
Buffalo Wild Wings,Sicklerville,312,0312 312 00312,627 Cross Keys Road,NJ,08081-9562
Buffalo Wild Wings,Grand Island,313,0313 313 00313,809 Allen Drive,NE,68803-3337
Buffalo Wild Wings,Orange Park,314,0314 314 00314,1940 Wells Road,FL,32073-2384
Buffalo Wild Wings,Downey,315,0315 315 00315,193 Stonewood Court,CA,90241-3904
Buffalo Wild Wings,East Gwillimbury,316,0316 316 00316,18287 Yonge Street,ON,L9N 0A2
Buffalo Wild Wings,Fairfield,317,0317 317 00317,3417 Princeton Road,OH,45011-7976
Buffalo Wild Wings,West Mifflin,318,0318 318 00318,9996 Mountain View Drive,PA,15122-2470
Buffalo Wild Wings,Bloomington,319,0319 319 00319,S312 312 South Avenue,MN,55425-5527
Buffalo Wild Wings,Langhorne,320,0320 320 00320,2763 E Lincoln Highway,PA,19047-3028
Buffalo Wild Wings,Terre Haute,321,0321 321 00321,Town South Plaza 3718 South U.S. Hwy 41,IN,47802-4106
Buffalo Wild Wings,Visalia,322,0322 322 00322,4125 Mooney Blvd,CA,93277-9147
Buffalo Wild Wings,Loveland,323,0323 323 00323,1505 Rocky Mountain Avenue,CO,80538-8715
Buffalo Wild Wings,Guelph,324,0324 324 00324,35 Harvard Road,ON,N1G 4V8
Buffalo Wild Wings,Mississauga,325,0325 325 00325,3015 Argentia Road,ON,L5N 8E1
Buffalo Wild Wings,Augusta,326,0326 326 00326,120 Robert C Daniel Parkway,GA,30909-0809
Buffalo Wild Wings,Norfolk,327,0327 327 00327,Suite 150 420 Monticello Avenue,VA,23510-2577
Buffalo Wild Wings,West Melbourne,328,0328 328 00328,4325 Norfolk Parkway,FL,32904-8603
Buffalo Wild Wings,Tonawanda,329,0329 329 00329,1620 Niagara Falls Blvd,NY,14150-7529
Buffalo Wild Wings,Berwyn,330,0330 330 00330,7130 Cermak Road,IL,60402-2115
Buffalo Wild Wings,Tacoma,331,0331 331 00331,4219 S Steele St,WA,98409-7371
Buffalo Wild Wings,Centerville,332,0332 332 00332,2926 Watson Blvd,GA,31028-1245
Buffalo Wild Wings,Industry,333,0333 333 00333,1576 S. Azusa Avenue,CA,91748-1603
Buffalo Wild Wings,San Jose,334,0334 334 00334,1620 Saratoga Avenue,CA,95129-5113
Buffalo Wild Wings,Denver,335,0335 335 00335,Suite 830 7607 E 36th Avenue,CO,80238-2598
Buffalo Wild Wings,Lexington Park,336,0336 336 00336,46370 Lexington Village Way,MD,20653-5541
Buffalo Wild Wings,Plainfield,338,0338 338 00338,Suite 117 2683 East Main Street,IN,46168-2766
Buffalo Wild Wings,Lawrence,339,0339 339 00339,Suite A12 10625 Pendleton Pike,IN,46236-3098
Buffalo Wild Wings,Cleveland,340,0340 340 00340,625 Paul Huff Parkway,TN,37312-2970
Buffalo Wild Wings,Waldorf,341,0341 341 00341,11215 Mall Circle,MD,20603-4865
Buffalo Wild Wings,Schaumburg,342,0342 342 00342,"1430 N, Meacham Road",IL,60173-4808
Buffalo Wild Wings,Spartanburg,343,0343 343 00343,1494 W O Ezell Blvd,SC,29301-1553
Buffalo Wild Wings,Franklin,344,0344 344 00344,320 Spring Creek Drive,TN,37067-1380
Buffalo Wild Wings,Manassas,345,0345 345 00345,10061 Market Circle,VA,20110-2120
Buffalo Wild Wings,Millville,346,0346 346 00346,2164 N 2nd Street,NJ,08332-1304
Buffalo Wild Wings,Santee,347,0347 347 00347,254 Town Center Parkway,CA,92071-5803
Buffalo Wild Wings,Lehi,348,0348 348 00348,92 N 1200 East,UT,84043-9552
Buffalo Wild Wings,Los Angeles,349,0349 349 00349,7060 Hollywood Blvd,CA,90028-6014
Buffalo Wild Wings,Durham,350,0350 350 00350,6709 Fayetteville Road,NC,27713-8719
Buffalo Wild Wings,Lynnwood,351,0351 351 00351,18508 33rd Avenue West,WA,98037-4714
Buffalo Wild Wings,Albany,352,0352 352 00352,2822 Nottingham Way,GA,31707-7630
Buffalo Wild Wings,Jackson,353,0353 353 00353,1242 Vann Drive,TN,38305-6001
Buffalo Wild Wings,Grand Chute,354,0354 354 00354,4601 W. College Avenue,WI,54914-8507
Buffalo Wild Wings,Roseville,355,0355 355 00355,1777 West Country Rd B2,MN,55113-3007
Buffalo Wild Wings,London,356,0356 356 00356,425 Southdale Rd W #3,ON,N6P 1M7
Buffalo Wild Wings,Morrisville,357,0357 357 00357,1300 Village Market Place,NC,27560-7509
Buffalo Wild Wings,Dayton,358,0358 358 00358,1900 Brown Street,OH,45409-2459
Buffalo Wild Wings,Centerville,359,0359 359 00359,6210 Wilmington Pike,OH,45459-7019
Buffalo Wild Wings,West Carrollton,360,0360 360 00360,2082 South Alex Road,OH,45449-2491
Buffalo Wild Wings,Fairborn,361,0361 361 00361,2776 Centre Drive,OH,45324-2668
Buffalo Wild Wings,Huber Heights,362,0362 362 00362,7875 Wayne Town Blvd,OH,45424-2063
Buffalo Wild Wings,Oxford,363,0363 363 00363,10 East Walnut Street,OH,45056-1836
Buffalo Wild Wings,Springboro,364,0364 364 00364,774 North Main Street,OH,45066-8944
Buffalo Wild Wings,Englewood,365,0365 365 00365,891 South Main Street,OH,45322-2814
Buffalo Wild Wings,Kettering,366,0366 366 00366,262 East Stroop Road,OH,45429-2826
Buffalo Wild Wings,Richmond,367,0367 367 00367,4661 National Road East,IN,47374-3733
Buffalo Wild Wings,Columbia,368,0368 368 00368,4500 Devine Street,SC,29205-3614
Buffalo Wild Wings,LEXINGTON,369,0369 369 00369,Suite A 5570 Sunset Blvd.,SC,29072-7966
Buffalo Wild Wings,COLUMBIA,370,0370 370 00370,10056 Two Notch Road,SC,29223-4396
Buffalo Wild Wings,Florence,371,0371 371 00371,2599 David McLeod Blvd.,SC,29501-4041
Buffalo Wild Wings,Columbia,372,0372 372 00372,1000 Bower Parkway,SC,29212-3704
Buffalo Wild Wings,Barrie,373,0373 373 00373,139 Park Place Blvd,ON L4N,6P1
Buffalo Wild Wings,Glen Mills,374,0374 374 00374,920 Baltimore Pike,PA,19342-3335
Buffalo Wild Wings,Phoenix,375,0375 375 00375,2700 West North Lane,AZ,85051-1519
Buffalo Wild Wings,Beaufort,376,0376 376 00376,121 Robert Smalls Parkway,SC,29906-4218
Buffalo Wild Wings,Layton,377,0377 377 00377,695 W. South Ring Road,UT,84041-4879
Buffalo Wild Wings,Grand Junction,378,0378 378 00378,2412 Hwy 6 & 50,CO,81505-1102
Buffalo Wild Wings,Arlington,379,0379 379 00379,Suite 130 950 N Glebe Road,VA,22203-4181
Buffalo Wild Wings,Calgary,380,0380 380 00380,9697 Macleod Trail,AB T2J,0P6
Buffalo Wild Wings,Highlands Ranch,381,0381 381 00381,980 Sgt Jon Stiles Drive,CO,80129-2274
Buffalo Wild Wings,Tucson,382,0382 382 00382,4329 N Oracle Rd #135,AZ,85705-1633
Buffalo Wild Wings,Frankfort,383,0383 383 00383,111 Jett Blvd,KY,40601-7778
Buffalo Wild Wings,York,384,0384 384 00384,105 N Northern Way,PA,17402-2400
Buffalo Wild Wings,Cookeville,385,0385 385 00385,1385 Interstate Drive,TN,38501-4130
Buffalo Wild Wings,Greensburg,386,0386 386 00386,6215 Route 30,PA,15601-6399
Buffalo Wild Wings,Calgary,387,0387 387 00387,2620 32nd St NE,AB T1Y,6B8
Buffalo Wild Wings,Hickory,388,0388 388 00388,2410 Highway 70 SE,NC,28602-8301
Buffalo Wild Wings,Brentwood,389,0389 389 00389,6051 Lonetree Way,CA,94513-5328
Buffalo Wild Wings,Long Beach,390,0390 390 00390,6314 E. Pacific Coast Highway,CA,90803-4804
Buffalo Wild Wings,Puyallup,391,0391 391 00391,13215 Meridian East,WA,98374-5634
Buffalo Wild Wings,Bloomingdale,392,0392 392 00392,140 S Gary Avenue,IL,60108-2225
Buffalo Wild Wings,Cincinnati,393,0393 393 00393,7741 Beechmont Avenue,OH,45255-4203
Buffalo Wild Wings,Johnson City,394,0394 394 00394,2035 Hamilton Place Drive,TN,37604-7923
Buffalo Wild Wings,Chula Vista,395,0395 395 00395,555 Broadway #116,CA,91910-5340
Buffalo Wild Wings,Goodyear,396,0396 396 00396,13311 W McDowell Road,AZ,85395-2631
Buffalo Wild Wings,Hanover,397,0397 397 00397,81 Wilson Avenue,PA,17331-5207
Buffalo Wild Wings,Gainesville,398,0398 398 00398,1185 Dawsonville Highway Northwest,GA,30501-2601
Buffalo Wild Wings,Wellington,399,0399 399 00399,2837 South State Road 7,FL,85305-3151
Buffalo Wild Wings,Mechanicsburg,400,0400 400 00400,6385 Carlisle Pike,PA,17050-2309
Buffalo Wild Wings,South Jordan,401,0401 401 00401,11332 South River Heights Road,UT,84095-5131
Buffalo Wild Wings,West Valley City,402,0402 402 00402,Suite A 2927 S 5600 West,UT,84120-1302
Buffalo Wild Wings,Cheyenne,403,0403 403 00403,1740 Prairie Avenue,WY,82009-4829
Buffalo Wild Wings,Charlotte,404,0404 404 00404,14157 Steele Creek Road,NC,28273-3968
Buffalo Wild Wings,Riverdale,405,0405 405 00405,702 West Riverdale Road,UT,84405-3715
Buffalo Wild Wings,Midvale,406,0406 406 00406,985 Fort Union Avenue,UT,84047-1713
Buffalo Wild Wings,Milwaukee,407,0407 407 00407,1123 North Water Street,WI,53202-6637
Buffalo Wild Wings,Wauwatosa,408,0408 408 00408,2635 North Mayfair,WI,53226-1302
Buffalo Wild Wings,West Allis,409,0409 409 00409,2950 South 108th Street,WI,53227-3520
Buffalo Wild Wings,New Berlin,410,0410 410 00410,15306 West Beloit Road,WI,53151-7447
Buffalo Wild Wings,Monona,411,0411 411 00411,6544 Monona Drive,WI,53716-4032
Buffalo Wild Wings,Fitchburg,412,0412 412 00412,Suite F 6227 McKee Road,WI,53719-5178
Buffalo Wild Wings,Madison,413,0413 413 00413,240 East Towne Mall,WI,53704-3716
Buffalo Wild Wings,Madison,414,0414 414 00414,789 University Avenue,WI,53715-1037
Buffalo Wild Wings,Milwaukee,415,0415 415 00415,3636 South 27th Street,WI,53221-1303
Buffalo Wild Wings,Seaside,416,0416 416 00416,Suite D3 1553 Fremont Blvd,CA,93955-4302
Buffalo Wild Wings,Harrisburg,417,0417 417 00417,4600 Jonestown Rd #89,PA,17109-6214
Buffalo Wild Wings,Brookfield,418,0418 418 00418,16750 W Blue Mound Rd,WI,53005-5960
Buffalo Wild Wings,Federal Way,419,0419 419 00419,2005 S. 320th Street,WA,98063-5415
Buffalo Wild Wings,Sacramento,420,0420 420 00420,Suite 100 3600 N. Freeway Blvd,CA,95834-2904
Buffalo Wild Wings,Dothan,421,0421 421 00421,3400 Montgomery Highway,AL,36303-2111
Buffalo Wild Wings,Virginia Beach,422,0422 422 00422,356 Laskin Road,VA,23451-3020
Buffalo Wild Wings,San Jose,423,0423 423 00423,859 Blossom Hill Road,CA,95123-2705
Buffalo Wild Wings,Daly City,424,0424 424 00424,5B Serramonte Center,CA,94015-2345
Buffalo Wild Wings,Tracy,425,0425 425 00425,2796 Naglee Road,CA,95304-7309
Buffalo Wild Wings,Sandy,426,0426 426 00426,11266 South State Street,UT,84070-5113
Buffalo Wild Wings,Mooresville,427,0427 427 00427,479 River Highway,NC,28117-6828
Buffalo Wild Wings,Naperville,428,0428 428 00428,2555 West 75th Street,IL,60540-9441
Buffalo Wild Wings,Warrenville,429,0429 429 00429,28241 Diehl Road,IL,60555-3934
Buffalo Wild Wings,Woodridge,430,0430 430 00430,6450 Route 53,IL,60517-1262
Buffalo Wild Wings,Rock Hill,431,0431 431 00431,Meeting Blvd,SC,29730-5189
Buffalo Wild Wings,Vaughan,432,0432 432 00432,3580 Major Mackenzie Drive W,ON L4L,1A6
Buffalo Wild Wings,Logan,433,0433 433 00433,43 E. 1400 North,UT,84341-2354
Buffalo Wild Wings,Mays Landing,434,0434 434 00434,4311 Black Horse Pike,NJ,08330-3101
Buffalo Wild Wings,Hamilton,435,0435 435 00435,524 Centennial Pkwy North,ON L8E,0G2
Buffalo Wild Wings,Ajax,436,0436 436 00436,130 Kingston Rd E #J1,ON L1Z,1G1
Buffalo Wild Wings,Lakewood,437,0437 437 00437,4678 Daneland Street,CA,90712-2502
Buffalo Wild Wings,Olympia,438,0438 438 00438,1614 Black Lake Road,WA,98502-5627
Buffalo Wild Wings,Holly Springs,439,0439 439 00439,121 Grand Hill Place,NC,27540-4415
Buffalo Wild Wings,Windsor,440,0440 440 00440,3100 Howard Ave,ON,N8X 3Y8
Buffalo Wild Wings,Oakville,441,0441 441 00441,#A3 2501 Hyde Park Gate,ON,L6H 1A6
Buffalo Wild Wings,Houston,442,0442 442 00442,2525 Rice Boulevard,TX,77005-3220
Buffalo Wild Wings,Houston,443,0443 443 00443,#4A 17195 Tomball Parkway,TX,77064-1166
Buffalo Wild Wings,Houston,444,0444 444 00444,#780 11803 Westheimer,TX,77077-6796
Buffalo Wild Wings,Houston,445,0445 445 00445,Suite C 510 Gray Street,TX,77002-8690
Buffalo Wild Wings,Houston,446,0446 446 00446,Suite 210 3651 Weslayan Street,TX,77027-6829
Buffalo Wild Wings,Houston,447,0447 447 00447,Suite 100 3939 Washington Avenue,TX,77007-5603
Buffalo Wild Wings,Marysville,448,0448 448 00448,17020 Twin Lakes Avenue,WA,98270-0000
Buffalo Wild Wings,Brockton,449,0449 449 00449,500 Westgate Drive,MA,02301-1816
Buffalo Wild Wings,Coral Springs,450,0450 450 00450,5840 Wiles Road,FL,33067-2158
Buffalo Wild Wings,Tallahassee,452,0452 452 00452,392 South Magnolia Drive,FL,32301-2926
Buffalo Wild Wings,Scottsdale,453,0453 453 00453,8870 E Indian Bend Road,AZ,85250-8525
Buffalo Wild Wings,Corona,454,0454 454 00454,2670 Tuscany St #101,CA,92881-4655
Buffalo Wild Wings,Hemet,455,0455 455 00455,3575 West Stetson Avenue,CA,92881-4655
Buffalo Wild Wings,Palm Desert,456,0456 456 00456,72-920 Highway 111,CA,92260-3314
Buffalo Wild Wings,Sherman Oaks,457,0457 457 00457,15301 Ventura Blvd,CA,91403-3102
Buffalo Wild Wings,St Paul,458,0458 458 00458,80 N. Snelling Avenue,MN,55104-6759
Buffalo Wild Wings,Fond du Lac,459,0459 459 00459,121 N. Pioneer Road,WI,54935-9402
Buffalo Wild Wings,Surprise,460,0460 460 00460,13882 W. Bell Road,AZ,85374-3812
Buffalo Wild Wings,Spokane Valley,461,0461 461 00461,14702 E Indiana Avenue,WA,99216-1451
Buffalo Wild Wings,Dartmouth,462,0462 462 00462,186 Dartmouth Mall,MA,02747-4200
Buffalo Wild Wings,Glendale,463,0463 463 00463,9404 W Westgate Blvd C107,AZ,85305-3151
Buffalo Wild Wings,Encinitas,464,0464 464 00464,1068 North El Camino Real,CA,92024-1320
Buffalo Wild Wings,Racine,465,0465 465 00465,5880 Durand Avenue,WI,53406-5041
Buffalo Wild Wings,Georgetown,466,0466 466 00466,106 Magnolia Dr,KY,40324-8001
Buffalo Wild Wings,HAMILTON,467,0467 467 00467,1015 GOLF LINKS ROAD,ON L9K,1L6
Buffalo Wild Wings,Charlotte,468,0468 468 00468,9402 Northlake W Dr #103,NC,28216-0000
Buffalo Wild Wings,St George,469,0469 469 00469,221 South River Road,UT,84790-2116
Buffalo Wild Wings,Hampton,470,0470 470 00470,4201 Kilgore Avenue,VA,23666-2062
Buffalo Wild Wings,Secaucus,471,0471 471 00471,470 Harmon Meadow Blvd,NJ,07094-3618
Buffalo Wild Wings,Los Angeles,472,0472 472 00472,6081 Center Dr,CA,90045-8830
Buffalo Wild Wings,Williamsport,473,0473 473 00473,25 Liberty Lane,PA,17701-3802
Buffalo Wild Wings,Whitehall,474,0474 474 00474,1225 Grape Street,PA,18052-5100
Buffalo Wild Wings,Muscatine,475,0475 475 00475,2608 2nd Avenue,IA,52761-5654
Buffalo Wild Wings,Mission Valley,476,0476 476 00476,1640 Camino Del Rio N,CA,92108-1534
Buffalo Wild Wings,Carson,477,0477 477 00477,736 Del Amo Blvd,CA,90746-3309
Buffalo Wild Wings,Tukwila,478,0478 478 00478,225 Tukwila Parkway,WA,98188-2829
Buffalo Wild Wings,Blaine,479,0479 479 00479,109TH AV NE AND HWY 65 CENTRAL Suite 300,MN,55449-4670
Buffalo Wild Wings,Manitowoc,480,0480 480 00480,4140 Harbor Town Lane,WI,54220-5851
Buffalo Wild Wings,Macon,481,0481 481 00481,169 Tom Hill Sr Blvd,GA,31210-1816
Buffalo Wild Wings,Mansfield,482,0482 482 00482,321 School Street,MA,02048-1811
Buffalo Wild Wings,Des Moines,483,0483 483 00483,3311 SE 14th Street,IA,50320-1333
Buffalo Wild Wings,STATESBORO,484,0484 484 00484,442 Northside Drive East,GA,30458-7104
Buffalo Wild Wings,Salinas,485,0485 485 00485,1988 N Main Street,CA,93906-2005
Buffalo Wild Wings,McHenry,486,0486 486 00486,3343 Shoppers Drive,IL,60051-5405
Buffalo Wild Wings,JACKSONVILLE,487,0487 487 00487,9550 Baymeadows Rd,FL,32256-0770
Buffalo Wild Wings,San Diego,488,0488 488 00488,3615 Midway Drive,CA,92110
Buffalo Wild Wings,Scottsdale,489,0489 489 00489,5701 E. Frank Lloyd Wright Blvd.,AZ,85254
Buffalo Wild Wings,Arvada,3003,03003 3003 003003,8350 West 80th Avenue,CO,80005-4471
Buffalo Wild Wings,Ashland,3004,03004 3004 003004,630 Claremont Avenue,OH,44805-3025
Buffalo Wild Wings,Canton,3006,03006 3006 003006,5062 Dressler Road NW,OH,44718-2518
Buffalo Wild Wings,Columbus,3007,03007 3007 003007,5240 Bethel Centre Mall,OH,43220-2085
Buffalo Wild Wings,Boardman,3008,03008 3008 003008,7401 Market Street #801,OH,44512-5639
Buffalo Wild Wings,Indianapolis,3011,03011 3011 003011,8440 Castleton Corner Drive,IN,46250-3579
Buffalo Wild Wings,Charlottesville,3014,03014 3014 003014,1935 Arlington Boulevard,VA,22903-1519
Buffalo Wild Wings,East Lansing,3019,03019 3019 003019,360 Albert Avenue,MI,48823-4366
Buffalo Wild Wings,Grand Rapids,3024,03024 3024 003024,2035 28th Street South East,MI,49508-1594
Buffalo Wild Wings,Harrison,3027,03027 3027 003027,200 Biggs Blvd.,OH,45030-2723
Buffalo Wild Wings,Harrisonburg,3028,03028 3028 003028,1007 S Main Street,VA,22801-3110
Buffalo Wild Wings,Heath,3029,03029 3029 003029,603 Hebron Road,OH,43056-1404
Buffalo Wild Wings,Huntington,3030,03030 3030 003030,746 Fourth Avenue,WV,25701-1424
Buffalo Wild Wings,Lancaster,3036,03036 3036 003036,1283 North Memorial Drive,OH,43130-1626
Buffalo Wild Wings,Louisville,3038,03038 3038 003038,6801 Dixie Highway,KY,40258-3913
Buffalo Wild Wings,Lincoln,3039,03039 3039 003039,1328 P Street,NE,68508-1513
Buffalo Wild Wings,Mankato,3041,03041 3041 003041,12 Civic Center Plaza 1715,MN,56001-7785
Buffalo Wild Wings,Massillon,3043,03043 3043 003043,235 Lincoln Way West,OH,44647-6577
Buffalo Wild Wings,Medina,3044,03044 3044 003044,5050 Eastpointe Drive,OH,44256-8236
Buffalo Wild Wings,Morgantown,3048,03048 3048 003048,268 High Street,WV,26505-5423
Buffalo Wild Wings,Mt. Pleasant,3049,03049 3049 003049,1904 South Mission Street,MI,48858-4423
Buffalo Wild Wings,Niles,3051,03051 3051 003051,950 Great East Plaza,OH,44446-4818
Buffalo Wild Wings,Schererville,3060,03060 3060 003060,1200 Indianapolis Boulevard (Rt. 41),IN,46375-1310
Buffalo Wild Wings,Sioux Falls,3061,03061 3061 003061,909 West Avenue North,SD,57104-5721
Buffalo Wild Wings,Sterling Heights,3065,03065 3065 003065,44671 Mound Road,MI,48314-1321
Buffalo Wild Wings,Cincinnati,3074,03074 3074 003074,2178 Anderson Ferry Road,OH,45238-3328
Buffalo Wild Wings,Troy,3081,03081 3081 003081,2313 West Main Street,OH,45373-8484
Buffalo Wild Wings,Blacksburg,3083,03083 3083 003083,Suite 200 211 Prices Fork Road,VA,24060-3576
Buffalo Wild Wings,Saint Clairsville,3084,03084 3084 003084,50633 Valley Frontage Road,OH,43950-1721
Buffalo Wild Wings,Elyria,3086,03086 3086 003086,239 Midway Blvd,OH,44035-2781
Buffalo Wild Wings,Fargo,3087,03087 3087 003087,1515 19th Avenue North,ND,58102-1811
Buffalo Wild Wings,Richmond,3089,03089 3089 003089,Suite 10 7801 West Broad Street,VA,23294-6308
Buffalo Wild Wings,Athens,3091,03091 3091 003091,23 West Union,OH,45701-2819
Buffalo Wild Wings,Champaign,3092,03092 3092 003092,907 West Marketview Drive,IL,61822-1227
Buffalo Wild Wings,Austintown,3097,03097 3097 003097,6000 Mahoning Ave.,OH,44515-2240
Buffalo Wild Wings,Oklahoma City,3098,03098 3098 003098,#108 & 110 4130 N.W. Expressway,OK,73116-1600
Buffalo Wild Wings,Slidell,3100,03100 3100 003100,815 Brownswitch Road,LA,70458-5335
Buffalo Wild Wings,Fenton,3101,03101 3101 003101,3190 Silver Lake Road,MI,48430-1321
Buffalo Wild Wings,Ridgeland,3102,03102 3102 003102,808 Lake Harbour Drive,MS,39157-1004
Buffalo Wild Wings,W. Lafayette,3105,03105 3105 003105,360 Brown Street,IN,47906-3243
Buffalo Wild Wings,Shenandoah,3107,03107 3107 003107,Suite 100 19075 I-45 South,TX,77385-8771
Buffalo Wild Wings,Parkersburg,3108,03108 3108 003108,100 Lakeview Center,WV,26101-1060
Buffalo Wild Wings,Fort Walton Beach,3109,03109 3109 003109,99 Eglin Parkway #3A,FL,32548-4956
Buffalo Wild Wings,Westland,3110,03110 3110 003110,6677 N. Wayne Rd.,MI,48185-7007
Buffalo Wild Wings,Winchester,3111,03111 3111 003111,5 Weems Lane,VA,22601-3601
Buffalo Wild Wings,Marion,3112,03112 3112 003112,1573 Marion Mount Gilead Rd,OH,43302-5819
Buffalo Wild Wings,Rochester,3113,03113 3113 003113,3458 55th St. NW,MN,55901-0123
Buffalo Wild Wings,Hilliard,3114,03114 3114 003114,1710 Hilliard-Rome Rd,OH,43026-7534
Buffalo Wild Wings,Ballwin,3116,03116 3116 003116,15240 Manchester Road,MO,63011-4601
Buffalo Wild Wings,Michigan City,3117,03117 3117 003117,5000 South Franklin,IN,46360-7803
Buffalo Wild Wings,Grand Rapids,3118,03118 3118 003118,2121 Celebration Drive NE #100,MI,49525-9579
Buffalo Wild Wings,Algonquin,3119,03119 3119 003119,461 South Randall Road,IL,60102-9702
Buffalo Wild Wings,Mansfield,3120,03120 3120 003120,2016 W. Fourth Street,OH,44906-1711
Buffalo Wild Wings,Lyndhurst,3121,03121 3121 003121,5433 Mayfield Road,OH,44124-2923
Buffalo Wild Wings,Grand Forks,3122,03122 3122 003122,2717 Columbia Road South,ND,58201-6005
Buffalo Wild Wings,Elmhurst,3123,03123 3123 003123,149 North York Street,IL,60126-2814
Buffalo Wild Wings,Strongsville,3124,03124 3124 003124,8465 Pearl Road,OH,44136-1639
Buffalo Wild Wings,Indianapolis,3125,03125 3125 003125,2514 Lake Circle Drive,IN,46268-4220
Buffalo Wild Wings,Orland Park,3126,03126 3126 003126,15888 La Grange Rd,IL,60462-4702
Buffalo Wild Wings,Brownsville,3128,03128 3128 003128,2100 FM 802,TX,78526-2864
Buffalo Wild Wings,Novi,3130,03130 3130 003130,44375 Twelve Mile Rd,MI,48377-2533
Buffalo Wild Wings,Cape Girardeau,3132,03132 3132 003132,2136 William Street,MO,63703-5847
Buffalo Wild Wings,Birmingham,3133,03133 3133 003133,Suite 100 2772 John Hawkins Parkway,AL,35244-3104
Buffalo Wild Wings,Baton Rouge,3134,03134 3134 003134,7524 Blue Bonnet Blvd,LA,70810-1627
Buffalo Wild Wings,Hattiesburg,3136,03136 3136 003136,3 Churchill St,MS,39402-1622
Buffalo Wild Wings,Fredericksburg,3138,03138 3138 003138,1638 Carl D. Silver Parkway,VA,22401-4924
Buffalo Wild Wings,Sidney,3141,03141 3141 003141,2080 Michigan St.,OH,45365-9004
Buffalo Wild Wings,Mt Clemens,3143,03143 3143 003143,48 Market Street,MI,48043-5677
Buffalo Wild Wings,Harlingen,3144,03144 3144 003144,Suite D 1500 W. Harrison,TX,78550-6026
Buffalo Wild Wings,Anderson,3145,03145 3145 003145,1808 Applewood Center Drive,IN,46013-3084
Buffalo Wild Wings,Goshen,3147,03147 3147 003147,1829 Rieth Blvd.,IN,46526-5831
Buffalo Wild Wings,Pasadena,3148,03148 3148 003148,5875 Fairmont Parkway,TX,77505-3907
Buffalo Wild Wings,Lubbock,3149,03149 3149 003149,8212 University Avenue,TX,79423-3112
Buffalo Wild Wings,Wooster,3150,03150 3150 003150,4122 Burbank Road,OH,44691-9077
Buffalo Wild Wings,Valparaiso,3151,03151 3151 003151,212 East Lincolnway,IN,46383-5691
Buffalo Wild Wings,Southgate,3152,03152 3152 003152,13655 Eureka Drive,MI,48195-1332
Buffalo Wild Wings,Wilmington,3153,03153 3153 003153,143 Fairway Drive,OH,45177-8992
Buffalo Wild Wings,Plainfield,3154,03154 3154 003154,11820 South Route 59,IL,60585-5652
Buffalo Wild Wings,Walker,3155,03155 3155 003155,3050 Alpine Avenue,MI,49544-8213
Buffalo Wild Wings,Maumee,3157,03157 3157 003157,425 West Dussel Drive,OH,43537-4208
Buffalo Wild Wings,Richmond,3158,03158 3158 003158,1501 East Cary Street,VA,23219-4251
Buffalo Wild Wings,Roanoke,3160,03160 3160 003160,4335 Starkey Road,VA,24018-0610
Buffalo Wild Wings,Fort Wayne,3161,03161 3161 003161,1425 West Dupont Road,IN,46825-1001
Buffalo Wild Wings,Chillicothe,3162,03162 3162 003162,1080 North Bridge Street,OH,45601-1789
Buffalo Wild Wings,Birmingham,3163,03163 3163 003163,4507 Riverview Parkway #108,AL,35242-4821
Buffalo Wild Wings,Abilene,3164,03164 3164 003164,4401 Ridgemont Drive,TX,79606-8703
Buffalo Wild Wings,Muskegon,3165,03165 3165 003165,5648 South Harvey Street,MI,49444-8766
Buffalo Wild Wings,St. Charles,3167,03167 3167 003167,1465 Bass Pro Drive,MO,63301-2467
Buffalo Wild Wings,Skokie,3169,03169 3169 003169,7020 Carpenter Road,IL,60077-3236
Buffalo Wild Wings,Canal Winchester,3170,03170 3170 003170,6340 Prentiss School St.,OH,43110-2037
Buffalo Wild Wings,Streetsboro,3171,03171 3171 003171,9062 State Route 14,OH,44241-5628
Buffalo Wild Wings,Indianapolis,3172,03172 3172 003172,8020 US 31 South,IN,46227-6226
Buffalo Wild Wings,North Myrtle Beach,3173,03173 3173 003173,518 Highway 17 North,SC,29582-2904
Buffalo Wild Wings,Peoria,3174,03174 3174 003174,5121 West American Prairie Drive,IL,61615-9239
Buffalo Wild Wings,Lafayette,3175,03175 3175 003175,Suite 700 4415 Ambassador Caffery Parkway,LA,70508-6771
Buffalo Wild Wings,Flagstaff,3176,03176 3176 003176,Suite 550 2700 S. Woodlands Village Blvd.,AZ,86001-2975
Buffalo Wild Wings,Louisville,3177,03177 3177 003177,1055 Bardstown Road,KY,40204-1317
Buffalo Wild Wings,Clinton Township,3179,03179 3179 003179,15745 15 Mile Road,MI,48035-2101
Buffalo Wild Wings,Findley,3180,03180 3180 003180,15080 Flag City Drive,OH,45840-8896
Buffalo Wild Wings,Corpus Christi,3182,03182 3182 003182,2001 South Padre Island Drive,TX,78416-1142
Buffalo Wild Wings,Bolingbrook,3183,03183 3183 003183,777 East Boughton Road,IL,60440-2281
Buffalo Wild Wings,Gilbert,3184,03184 3184 003184,970 South Gilbert Rd.,AZ,85296-3434
Buffalo Wild Wings,Moore,3185,03185 3185 003185,2601 South Service Rd.,OK,73160-3314
Buffalo Wild Wings,Defiance,3186,03186 3186 003186,1120 Hotel Drive,OH,43512-6777
Buffalo Wild Wings,Fargo,3188,03188 3188 003188,1501 42nd St. SW,ND,58103-3321
Buffalo Wild Wings,Brandon,3189,03189 3189 003189,2055 Badlands Drive,FL,33511-2810
Buffalo Wild Wings,Washington,3190,03190 3190 003190,8669 26 Mile Rd.,MI,48094-2967
Buffalo Wild Wings,Round Lake Beach,3191,03191 3191 003191,500 East Rollins Road,IL,60073-1336
Buffalo Wild Wings,San Antonio,3192,03192 3192 003192,5860 De Zavala Road,TX,78249-2281
Buffalo Wild Wings,Gilbert,3194,03194 3194 003194,1475 W. Elliot Road,AZ,85233-5101
Buffalo Wild Wings,Tucson,3195,03195 3195 003195,68 N. Harrison Road,AZ,85748-3260
Buffalo Wild Wings,Fort Wayne,3196,03196 3196 003196,10524 Maysville Road,IN,46835-9244
Buffalo Wild Wings,Orlando,3197,03197 3197 003197,7004 International Drive,FL,32819-8222
Buffalo Wild Wings,Edmond,3199,03199 3199 003199,1333 N. Santa Fe Suite 106,OK,73003-3677
Buffalo Wild Wings,Beaumont,3201,03201 3201 003201,Suite 11 3939 Dowlen Road,TX,77706-6876
Buffalo Wild Wings,Toledo,3202,03202 3202 003202,6710 West Central Avenue,OH,43617-1132
Buffalo Wild Wings,Howell,3203,03203 3203 003203,900 S. Latson Road,MI,48843-7595
Buffalo Wild Wings,Lake Orion,3204,03204 3204 003204,770 North Lapeer Road,MI,48362-1529
Buffalo Wild Wings,Orlando,3205,03205 3205 003205,12511 State Route 535,FL,32836-6724
Buffalo Wild Wings,Webster,3206,03206 3206 003206,"528 West Bay Area Blvd. Webster Plaza, Suite 400",TX,77598-4150
Buffalo Wild Wings,Hammond,3207,03207 3207 003207,2730 West Thomas Street,LA,70401-2839
Buffalo Wild Wings,Bismarck,3208,03208 3208 003208,218 S. 3rd Street,ND,58504-5517
Buffalo Wild Wings,Lincoln,3209,03209 3209 003209,Suite 100 7301 S. 27th Street,NE,68512-4870
Buffalo Wild Wings,Frankfort,3210,03210 3210 003210,20596 S. LaGrange Road,IL,60423-1302
Buffalo Wild Wings,Romeoville,3213,03213 3213 003213,74 S. Weber Road,IL,60446-4947
Buffalo Wild Wings,Avon Lake,3214,03214 3214 003214,32914 Walker Road,OH,44012-1437
Buffalo Wild Wings,Odessa,3215,03215 3215 003215,4241 N. Grandview Ave.,TX,79762-5843
Buffalo Wild Wings,Springfield,3216,03216 3216 003216,900 E. Battlefield Rd,MO,65807-4811
Buffalo Wild Wings,Mt. Prospect,3217,03217 3217 003217,301 E. Euclid,IL,60056-1288
Buffalo Wild Wings,San Angelo,3218,03218 3218 003218,4251 Sherwood Way,TX,76901-3552
Buffalo Wild Wings,Creve Coeur,3219,03219 3219 003219,12653 Olive Blvd.,MO,63141-6352
Buffalo Wild Wings,Ann Arbor,3222,03222 3222 003222,205 S. State Street,MI,48104-2037
Buffalo Wild Wings,Portsmouth,3223,03223 3223 003223,1611 Chillicothe Street,OH,45662-3477
Buffalo Wild Wings,Canton,3224,03224 3224 003224,41980 Ford Road,MI,48187-3647
Buffalo Wild Wings,Fishers,3225,03225 3225 003225,13977 Trade Center Dr.,IN,46037-9721
Buffalo Wild Wings,Bear,3226,03226 3226 003226,1887 Pulaski Hwy,DE,19701-1731
Buffalo Wild Wings,Bentonville,3227,03227 3227 003227,2707 SE Moberly Lane,AR,72712-4191
Buffalo Wild Wings,Killeen,3228,03228 3228 003228,2401 E Central Texas Expressway,TX,76543-5310
Buffalo Wild Wings,Mentor,3229,03229 3229 003229,9566 Diamond Centre Dr.,OH,44060-1876
Buffalo Wild Wings,Muncie,3230,03230 3230 003230,838 E. McGalliard Rd.,IN,47303-2081
Buffalo Wild Wings,St. Louis,3231,03231 3231 003231,570 South County Center Way,MO,63129-1065
Buffalo Wild Wings,Birmingham,3232,03232 3232 003232,Suite 101 5915 Trussville Crossing Parkway,AL,35235-8640
Buffalo Wild Wings,Bloomington,3233,03233 3233 003233,3220 East Empire,IL,61704-5426
Buffalo Wild Wings,Huntsville,3234,03234 3234 003234,2750 Carl T. Jones Drive SE,AL,35802-4913
Buffalo Wild Wings,San Antonio,3235,03235 3235 003235,7903 Pat Booker Road,TX,78233-2602
Buffalo Wild Wings,Yuma,3236,03236 3236 003236,1317 South Yuma Palms Parkway,AZ,85365-1716
Buffalo Wild Wings,Pearland,3237,03237 3237 003237,9415 Broadway,TX,77584-5514
Buffalo Wild Wings,College Station,3238,03238 3238 003238,903 University Dr.,TX,77840-2118
Buffalo Wild Wings,Ferndale,3239,03239 3239 003239,280 W 9 Mile Rd.,MI,48220-1794
Buffalo Wild Wings,Wilmington,3240,03240 3240 003240,5533 Carolina Beach Road,NC,28412-2607
Buffalo Wild Wings,Bloomington,3242,03242 3242 003242,1350 W. Bloomfield Road,IN,47403-2001
Buffalo Wild Wings,Wichita Falls,3243,03243 3243 003243,Suite 180 3111 Midwestern Parkway,TX,76308-2827
Buffalo Wild Wings,Lynchburg,3244,03244 3244 003244,3812 Wards Road,VA,24502-2966
Buffalo Wild Wings,Bay City,3245,03245 3245 003245,4050 Wilder Rd.,MI,48706-2232
Buffalo Wild Wings,East Peoria,3246,03246 3246 003246,833 West Camp St.,IL,61611-7218
Buffalo Wild Wings,Rancho Cucamonga,3247,03247 3247 003247,8188 Day Creek Blvd. #140,CA,91739-8556
Buffalo Wild Wings,Prescott Valley,3248,03248 3248 003248,2985 N Centre Court,AZ,86314-1252
Buffalo Wild Wings,Bossier City,3249,03249 3249 003249,"375 Boardwalk Blvd., Building L",LA,71111-4379
Buffalo Wild Wings,Glen Allen,3250,03250 3250 003250,1090 Virginia Center Parkway,VA,23059-4673
Buffalo Wild Wings,Hagerstown,3252,03252 3252 003252,230 Railway La.,MD,21740-6936
Buffalo Wild Wings,Fort Wayne,3253,03253 3253 003253,5519 Coventry Lane,IN,46804-7144
Buffalo Wild Wings,Riverview,3254,03254 3254 003254,13416 Boyette Road,FL,33569-5706
Buffalo Wild Wings,Westminster,3257,03257 3257 003257,404 Englar Road,MD,21157-4852
Buffalo Wild Wings,Tinley Park,3258,03258 3258 003258,7301 West 183rd Street,IL,60477-4502
Buffalo Wild Wings,Mankato,3259,03259 3259 003259,301 St. Andrews Drive,MN,56001-8594
Buffalo Wild Wings,Monroe,3260,03260 3260 003260,1766 N. Telegraph Road,MI,48162-9204
Buffalo Wild Wings,Fayetteville,3261,03261 3261 003261,32 West Joyce Blvd.,AR,72703-6211
Buffalo Wild Wings,Stillwater,3262,03262 3262 003262,1701 N. Perkins Road,OK,74075-2991
Buffalo Wild Wings,San Antonio,3263,03263 3263 003263,"3158 SE Military, Bldg. 5",TX,78223-3976
Buffalo Wild Wings,Lake Charles,3264,03264 3264 003264,Suite E 1776 West Prien Lake Road,LA,70601-8361
Buffalo Wild Wings,Carmel,3265,03265 3265 003265,2510 East 146th Street,IN,46033-7714
Buffalo Wild Wings,Billings,3266,03266 3266 003266,411 South 24 West,MT,59102-6201
Buffalo Wild Wings,Midland,3267,03267 3267 003267,6728 Eastman Avenue,MI,48642-7800
Buffalo Wild Wings,Sarasota,3269,03269 3269 003269,4067 Clark Road,FL,34233-2401
Buffalo Wild Wings,Midland,3271,03271 3271 003271,5107 W. Wadley,TX,79707-5108
Buffalo Wild Wings,Port Chester,3272,03272 3272 003272,44 Westchester Avenue,NY,10573-4324
Buffalo Wild Wings,Laredo,3273,03273 3273 003273,6629 San Dario Avenue,TX,78041-2500
Buffalo Wild Wings,Oldsmar,3274,03274 3274 003274,"4058 Tampa Road, Suite #1",FL,34677-3229
Buffalo Wild Wings,Roanoke,3275,03275 3275 003275,"4802 Valley View Blvd., NW",VA,24012-2001
Buffalo Wild Wings,Midlothian,3277,03277 3277 003277,12056 Southshore Pointe Drive,VA,23112-2088
Buffalo Wild Wings,New Rochelle,3278,03278 3278 003278,33 LeCount Place,NY,10801-6454
Buffalo Wild Wings,San Antonio,3279,03279 3279 003279,115 SW Loop 410,TX,78245-2167
Buffalo Wild Wings,Waco,3280,03280 3280 003280,4225 Franklin Avenue,TX,76710-6905
Buffalo Wild Wings,Dover,3281,03281 3281 003281,680 South Bay Road,DE,19901-4604
Buffalo Wild Wings,Carbondale,3282,03282 3282 003282,1435 East Main,IL,62901-3141
Buffalo Wild Wings,Fenton,3283,03283 3283 003283,150 Gravois Bluffs Circle,MO,63026-7712
Buffalo Wild Wings,Danville,3284,03284 3284 003284,3415 Riverside Drive,VA,24541-4631
Buffalo Wild Wings,Alabaster,3285,03285 3285 003285,840 Colonial Prommenade Parkway,AL,35007-3125
Buffalo Wild Wings,New Port Richey,3286,03286 3286 003286,10936 State Road 54,FL,34655-2269
Buffalo Wild Wings,Morehead,3287,03287 3287 003287,250 Newtowne Square,KY,40351-1477
Buffalo Wild Wings,Joplin,3289,03289 3289 003289,430 South Geneva Avenue,MO,64801-5596
Buffalo Wild Wings,Erie,3290,03290 3290 003290,2099 Interchange Road,PA,16509-8315
Buffalo Wild Wings,San Antonio,3291,03291 3291 003291,18410 US Highway 281 North,TX,78259-7609
Buffalo Wild Wings,Hillsboro,3292,03292 3292 003292,Suite 1440 2219 NW Allie Avenue,OR,97124-9085
Buffalo Wild Wings,Vernon Hills,3293,03293 3293 003293,361 West Town Line Road,IL,60061-4331
Buffalo Wild Wings,OFallon,3294,03294 3294 003294,1424 Central Park Circle,IL,62269-1785
Buffalo Wild Wings,Hoffman Estates,3295,03295 3295 003295,2540 New Sutton Road,IL,60192
Buffalo Wild Wings,Milford,3296,03296 3296 003296,1201 Boston Post Road,CT,06460-2703
Buffalo Wild Wings,Lafayette,3297,03297 3297 003297,2715 South Creasy Lane,IN,47905-5201
Buffalo Wild Wings,Hot Springs,3298,03298 3298 003298,4104 Central Avenue,AR,71913-7293
Buffalo Wild Wings,Middletown,3299,03299 3299 003299,540 West Main Street,DE,19709-1057
Buffalo Wild Wings,Columbus,3300,03300 3300 003300,2035 Jonathon Moore Pike,IN,47201-9081
Buffalo Wild Wings,Mishawaka,3301,03301 3301 003301,4343 North Grape Road,IN,46545-2606
Buffalo Wild Wings,Dearborn,3303,03303 3303 003303,22216 Michigan Avenue,MI,48124-2225
Buffalo Wild Wings,Longview,3304,03304 3304 003304,3072 North Eastman Road,TX,75605-5093
Buffalo Wild Wings,Orlando,3306,03306 3306 003306,"504 North Alafaya Trail, Suite 102",FL,32828-4368
Buffalo Wild Wings,Lawton,3307,03307 3307 003307,2506 NW Cache Road,OK,73505-5220
Buffalo Wild Wings,Myrtle Beach,3308,03308 3308 003308,1990 Oakheart Road,SC,29579-1265
Buffalo Wild Wings,Broken Arrow,3309,03309 3309 003309,1151 North 20th Street,OK,74012-2374
Buffalo Wild Wings,Brighton,3310,03310 3310 003310,9745 Village Place Blvd.,MI,48116-2087
Buffalo Wild Wings,Nottingham,3311,03311 3311 003311,8200 Perry Hall Blvd.,MD,21236-4901
Buffalo Wild Wings,Warren,3312,03312 3312 003312,29287 Mound Road Heritage Village,MI,48092-2006
Buffalo Wild Wings,Springfield,3313,03313 3313 003313,2725 North Kansas Expressway,MO,65803-1113
Buffalo Wild Wings,Wyoming,3314,03314 3314 003314,2720 44th Street SW,MI,49519-4108
Buffalo Wild Wings,Shreveport,3315,03315 3315 003315,7441 Youree Drive,LA,71105-5535
Buffalo Wild Wings,Perrysburg,3316,03316 3316 003316,26567 North Dixie Highway #142,OH,43551-1787
Buffalo Wild Wings,Springfield,3317,03317 3317 003317,4420 Wabash Avenue,IL,62711-9663
Buffalo Wild Wings,Springdale,3318,03318 3318 003318,6938 West Sunset,AR,72762-0772
Buffalo Wild Wings,Colonial Heights,3319,03319 3319 003319,1156 Temple Avenue,VA,23834-2979
Buffalo Wild Wings,Tuscaloosa,3320,03320 3320 003320,2710 McFarland Blvd. East,AL,35405-1806
Buffalo Wild Wings,Ironton,3321,03321 3321 003321,1001 Ironton Hills,OH,45638-9704
Buffalo Wild Wings,Windsor,3322,03322 3322 003322,703 Poquonock Ave,CT,06095-2259
Buffalo Wild Wings,Amarillo,3323,03323 3323 003323,5416 South Coulter,TX,79119-6384
Buffalo Wild Wings,Murrieta,3324,03324 3324 003324,Suite 104 & 105 40484 Murrieta Hot Springs Road,CA,92563-6437
Buffalo Wild Wings,Reno,3325,03325 3325 003325,13967 South Virginia Street #914,NV,89511-8999
Buffalo Wild Wings,Indianapolis,3326,03326 3326 003326,Unit 790A 10202 E Washington Street,IN,46229-2684
Buffalo Wild Wings,Savoy,3327,03327 3327 003327,1335 Savoy Plaza Drive,IL,61874-9457
Buffalo Wild Wings,Portage,3328,03328 3328 003328,6530 US Highway 6,IN,46368-5147
Buffalo Wild Wings,Summerville,3329,03329 3329 003329,109 Grandview Drive #1,SC,29483-6938
Buffalo Wild Wings,Edwardsville,3330,03330 3330 003330,249 Harvard Drive,IL,62025-2702
Buffalo Wild Wings,Brooklyn,3331,03331 3331 003331,139 Flatbush Avenue,NY,11217-1450
Buffalo Wild Wings,Sandusky,3332,03332 3332 003332,814 Crossing Road,OH,44870-8904
Buffalo Wild Wings,Chino Hills,3333,03333 3333 003333,3160 Chino Avenue,CA,91709-3518
Buffalo Wild Wings,Mason,3334,03334 3334 003334,6050 Snider Road,OH,45040-2628
Buffalo Wild Wings,Martinsburg,3335,03335 3335 003335,"796 Foxcroft Avenue, Suite 205",WV,25401-1838
Buffalo Wild Wings,Oregon,3336,03336 3336 003336,3555 Navarre Avenue,OH,43616-3459
Buffalo Wild Wings,Kissimmee,3337,03337 3337 003337,1307 East Osceola Parkway,FL,34744-1605
Buffalo Wild Wings,Sikeston,3338,03338 3338 003338,231 North Main,MO,63801-4211
Buffalo Wild Wings,Sugar Land,3339,03339 3339 003339,"1401 Highway 6, Building B",TX,77478-5127
Buffalo Wild Wings,North Port,3341,03341 3341 003341,4301 Aiden Lane,FL,34287-4917
Buffalo Wild Wings,Greenwood,3342,03342 3342 003342,1077 North Emerson Avenue,IN,46143-6697
Buffalo Wild Wings,Sierra Vista,3343,03343 3343 003343,205 South Hwy 92,AZ,85635-3641
Buffalo Wild Wings,Riverview,3345,03345 3345 003345,10607 Big Bend Road,FL,33579-7176
Buffalo Wild Wings,Irvine,3347,03347 3347 003347,14110 Culver Drive,CA,92604
Buffalo Wild Wings,Clearwater,3348,03348 3348 003348,21688 US Highway 19 N,FL,33765-2834
Buffalo Wild Wings,Stamford,3349,03349 3349 003349,208 Summer Street,CT,06901-2306
Buffalo Wild Wings,Centereach,3350,03350 3350 003350,1986 Middle Country Road,NY,11720-3535
Buffalo Wild Wings,Torrance,3351,03351 3351 003351,"3525 West Carson Street, Suite 163",CA,90503-5738
Buffalo Wild Wings,Macomb,3352,03352 3352 003352,1724 East Jackson,IL,61455-2531
Buffalo Wild Wings,Vincennes,3353,03353 3353 003353,2407 North 6th Street,IN,47591-2457
Buffalo Wild Wings,Merrillville,3354,03354 3354 003354,2515 Southlake Mall Drive,IN,46410-6688
Buffalo Wild Wings,Aurora,3355,03355 3355 003355,18865 Giles Road,OH,44202-8797
Buffalo Wild Wings,Greenville,3356,03356 3356 003356,426-B East Arlington Blvd.,NC,27858-5850
Buffalo Wild Wings,Marion,3357,03357 3357 003357,Unit 35 1129 North Baldwin Avenue,IN,46952-2557
Buffalo Wild Wings,Poplar Bluff,3358,03358 3358 003358,1429 Westwood Blvd.,MO,63901-3315
Buffalo Wild Wings,Bullhead City,3359,03359 3359 003359,2040 Highway 95,AZ,86442-6003
Buffalo Wild Wings,Petoskey,3360,03360 3360 003360,Suite 110 2180 Anderson Road,MI,49770-9255
Buffalo Wild Wings,Oklahoma City,3361,03361 3361 003361,6910 SW 3rd,OK,73128-2203
Buffalo Wild Wings,Waterford,3362,03362 3362 003362,5223 Highland Road,MI,48327-1916
Buffalo Wild Wings,Houma,3363,03363 3363 003363,1783 Martin Luther King Blvd.,LA,70360-2485
Buffalo Wild Wings,West Nyack,3364,03364 3364 003364,4640 Palisades Center Drive Palisades Center,NY,10994-6806
Buffalo Wild Wings,Auburn,3365,03365 3365 003365,1071 Smaltz Way,IN,46706-9599
Buffalo Wild Wings,Bozeman,3366,03366 3366 003366,2047 West Oak,MT,59718-6157
Buffalo Wild Wings,Bourbonnais,3367,03367 3367 003367,2012 North State Route 50,IL,60914-4410
Buffalo Wild Wings,Crawfordsville,3368,03368 3368 003368,Suite A 1807 S US Highway 231,IN,47933-9418
Buffalo Wild Wings,Quincy,3369,03369 3369 003369,6120 Broadway,IL,62305-7923
Buffalo Wild Wings,Portland,3371,03371 3371 003371,327 SW Morrison Street,OR,97204-2415
Buffalo Wild Wings,Tyler,3372,03372 3372 003372,7916A South Broadway,TX,75703-5242
Buffalo Wild Wings,College Park,3373,03373 3373 003373,10240 Baltimore Avenue,MD,20740-4200
Buffalo Wild Wings,Wilmington,3374,03374 3374 003374,2062 Limestone Road,DE,19808-5506
Buffalo Wild Wings,Huntsville,3375,03375 3375 003375,5901 University Drive,AL,35806-2506
Buffalo Wild Wings,Kalamazoo,3376,03376 3376 003376,3209 Stadium Drive,MI,49008-1528
Buffalo Wild Wings,Ypsilanti,3378,03378 3378 003378,Unit 1 216 James L Hart Parkway,MI,48197-9254
Buffalo Wild Wings,Tucson,3379,03379 3379 003379,1390 West Irvington Road,AZ,85746-4103
Buffalo Wild Wings,Bridgeport,3380,03380 3380 003380,45 Betten Court,WV,26330-9267
Buffalo Wild Wings,Mechanicsville,3381,03381 3381 003381,7230 Bell Creek Road,VA,23111-3506
Buffalo Wild Wings,Matoon,3382,03382 3382 003382,124 Dettro Drive,IL,61938-9012
Buffalo Wild Wings,Grand Blanc,3383,03383 3383 003383,Suite 102 8251 Trillium Circle Avenue,MI,48439-2478
Buffalo Wild Wings,Mira Loma,3384,03384 3384 003384,Suite 650 12411 Limonite Avenue,CA,91752-2451
Buffalo Wild Wings,Port Arthur,3385,03385 3385 003385,"8845 Memorial Blvd., Suite 200",TX,77640-1875
Buffalo Wild Wings,North Charleston,3387,03387 3387 003387,4959 Center Point Drive #104,SC,29418-6990
Buffalo Wild Wings,Albuquerue,3388,03388 3388 003388,8505 Montgomery Drive NE,NM,87111-2303
Buffalo Wild Wings,Galesburg,3389,03389 3389 003389,2683 Seminary Street,IL,61401-1213
Buffalo Wild Wings,Wentzville,3390,03390 3390 003390,1285 West Pearce,MO,63385-3410
Buffalo Wild Wings,Columbus,3391,03391 3391 003391,968 West Fifth Avenue,OH,43212-2699
Buffalo Wild Wings,Culpeper,3392,03392 3392 003392,763 Nalles Mill Road,VA,22701-2520
Buffalo Wild Wings,Enid,3393,03393 3393 003393,2126 North Van Buren Avenue,OK,73703-2523
Buffalo Wild Wings,Austin,3395,03395 3395 003395,"13000 North IH 35, Bldg 4",TX,78753
Buffalo Wild Wings,Houston,3396,03396 3396 003396,"7800 Airport Blvd., C-104",TX,77061
Buffalo Wild Wings,Las Cruces,3397,03397 3397 003397,Suite 600 2750 Mall Drive,NM,88011-8703
Buffalo Wild Wings,Lubbock,3398,03398 3398 003398,6320 19th Street,TX,79407-1404
Buffalo Wild Wings,Moundsville,3400,03400 3400 003400,6 Walmart Drive,WV,26041-1187
Buffalo Wild Wings,New Haven,3402,03402 3402 003402,74-76 Church Street,CT,06510-3349
Buffalo Wild Wings,Palmdale,3403,03403 3403 003403,40155 10th Street West,CA,93551-3012
Buffalo Wild Wings,Panama City,3404,03404 3404 003404,Suite 100 701 South Pier Park Drive,FL,32413-2171
Buffalo Wild Wings,White Plains,3405,03405 3405 003405,1 Mamaroneck Avenue,NY,10601
Buffalo Wild Wings,Troy,3407,03407 3407 003407,1873 East Big Beaver Road,MI,48083-2007
Buffalo Wild Wings,North Babylon,3408,03408 3408 003408,1112 Deer Park Avenue,NY,11703-3102
Buffalo Wild Wings,Portland,3409,03409 3409 003409,9810 NE Cascades Parkway,OR,97220-6825
Buffalo Wild Wings,Rochester Hills,3410,03410 3410 003410,1234 Walton Road,MI,48307-6900
Buffalo Wild Wings,Speedway,3411,03411 3411 003411,"6129 Crawfordsville Road, Unit B",IN,46224-3735
Buffalo Wild Wings,Louisville,3412,03412 3412 003412,4600 Shelbyville Road,KY,40207-3326
Buffalo Wild Wings,Effingham,3413,03413 3413 003413,Suite 1 1001 Avenue of Mid America,IL,62401
Buffalo Wild Wings,Forsyth,3415,03415 3415 003415,851 South US Route 51,IL,62535-9759
Buffalo Wild Wings,Indianapolis,3416,03416 3416 003416,7 East Washington Street,IN,46204-3504
Buffalo Wild Wings,Glen Allen,3417,03417 3417 003417,4300 Pouncey Tract Road,VA,23060-5830
Buffalo Wild Wings,Casselberry,3418,03418 3418 003418,900 State Road 436,FL,32707-5600
Buffalo Wild Wings,Lake Forest,3419,03419 3419 003419,23600 Rockfield Blvd.,CA,92630-1624
Buffalo Wild Wings,Del City,3420,03420 3420 003420,5500 Tinker Diagonal,OK,73115-4612
Buffalo Wild Wings,Apple Valley,3421,03421 3421 003421,18965 Bear Valley Road,CA,92308-2713
Buffalo Wild Wings,Minot,3422,03422 3422 003422,3820 South Broadway,ND,58701-7536
Buffalo Wild Wings,St. Peters,3423,03423 3423 003423,Suite C 179 Mid Rivers Mall Drive,MO,63376-4309
Buffalo Wild Wings,Belleville,3424,03424 3424 003424,5600 Belleville Crossing Street,IL,62226-3104
Buffalo Wild Wings,Cedar Park,3425,03425 3425 003425,4710 183A Toll Road,TX,78613-7697
Buffalo Wild Wings,Lima,3426,03426 3426 003426,2948 Allentown Road,OH,45805-1722
Buffalo Wild Wings,Ijamsville,3427,03427 3427 003427,3335 Worthington Blvd.,MD,21754
Buffalo Wild Wings,Livonia,3428,03428 3428 003428,37651 6 Mile Road,MI,48152-2601
Buffalo Wild Wings,Bowie,3429,03429 3429 003429,10601 Martin Luther King Jr. Highway,MD,20720-4217
Buffalo Wild Wings,LaPorte,3430,03430 3430 003430,23 Pine Lake Avenue,IN,46350
Buffalo Wild Wings,Danbury,3431,03431 3431 003431,26 Backus Avenue,CT,6810
Buffalo Wild Wings,Crystal Lake,3432,03432 3432 003432,5755 Northwest Highway,IL,60014-8018
Buffalo Wild Wings,Mobile,3433,03433 3433 003433,6341 Airport Blvd.,AL,36608-3131
Buffalo Wild Wings,Crown Point,3434,03434 3434 003434,1600 East Summit Street,IN,46307-2793
Buffalo Wild Wings,Meridian,3435,03435 3435 003435,3223 East Louise Drive,ID,83646-5073
Buffalo Wild Wings,Dublin,3436,03436 3436 003436,3712 Dublin Blvd.,CA,94568-7352
Buffalo Wild Wings,Coldwater,3437,03437 3437 003437,704 East Chicago Street,MI,49036-2070
Buffalo Wild Wings,Cutler Bay,3438,03438 3438 003438,"20505 S Dixie Highway, Suite 555A",FL,33189-1215
Buffalo Wild Wings,Tulsa,3439,03439 3439 003439,7568 South Olympia Avenue,OK,74132-1854
Buffalo Wild Wings,Farmington,3440,03440 3440 003440,615 Maple Valley Drive,MO,63640-1993
Buffalo Wild Wings,Flint,3441,03441 3441 003441,G/3192 South Linden Road,MI,48507-3014
Buffalo Wild Wings,Port Huron,3442,03442 3442 003442,Suite 1 4355 24th Avenue,MI,48059-3856
Buffalo Wild Wings,Jefferson City,3443,03443 3443 003443,707-B Stoneridge Parkway,MO,65109
Buffalo Wild Wings,Newark,3444,03444 3444 003444,100 Elkton Road,DE,19711-7963
Buffalo Wild Wings,Fairview Park,3445,03445 3445 003445,3011 Westgate Mall,OH,44126-1308
Buffalo Wild Wings,Danville,3446,03446 3446 003446,3101 North Vermilion Street,IL,61832-1312
Buffalo Wild Wings,Lansing,3447,03447 3447 003447,3720 Ridge Road,IL,60438-3319
Buffalo Wild Wings,Amarillo,3448,03448 3448 003448,9511 I-40 East,TX,79118
Buffalo Wild Wings,Little Rock,3449,03449 3449 003449,14800 Cantrell Road,AR,72223-4244
Buffalo Wild Wings,Springfield,3450,03450 3450 003450,1960 North Bechtle Avenue,OH,45504
Buffalo Wild Wings,Weslaco,3451,03451 3451 003451,1909 West Expressway 83,TX,78596-4340
Buffalo Wild Wings,Honolulu,3452,03452 3452 003452,1778 Ala Moana Boulevard,HI,96815-1605
Buffalo Wild Wings,Arvada,3453,03453 3453 003453,15570 West 64th Avenue,CO,80007-6875
Buffalo Wild Wings,Atlanta,3454,03454 3454 003454,Suite 105 3535 Peachtree Road NE,GA,30326-3287
Buffalo Wild Wings,San Antonio,3455,03455 3455 003455,7823 Zarzamora,TX,78224
Buffalo Wild Wings,Helena,3456,03456 3456 003456,3190 North Sanders Street,MT,59602
Buffalo Wild Wings,El Paso,3457,03457 3457 003457,10497 Gateway Blvd. West,TX,79925-7905
Buffalo Wild Wings,Wood Village,3458,03458 3458 003458,22849 NE Glisan Street,OR,97060
Buffalo Wild Wings,Hicksville,3459,03459 3459 003459,358 B Broadway Mall,NY,11801
Buffalo Wild Wings,Chicago Ridge,3460,03460 3460 003460,111 Chicago ridge Mall,IL,60415
Buffalo Wild Wings,Miami,3461,03461 3461 003461,"11401 NW 12th Street, Ste E526 Dolphin Mall",FL,33172
Buffalo Wild Wings,Calumet City,3462,03462 3462 003462,1250 Torrence Avenue,IL,60409-5511
Buffalo Wild Wings,Buena Park,3463,03463 3463 003463,8301b On the Mall,CA,90620
Buffalo Wild Wings,Rockville,3464,03464 3464 003464,33-C Maryland Avenue,MD,20850-0315
Buffalo Wild Wings,Charleston,3465,03465 3465 003465,2501 Mountaineer Blvd.,WV,25309-9439
Buffalo Wild Wings,Burbank,3466,03466 3466 003466,127 East Palm Avenue,CA,91502
Buffalo Wild Wings,McAllen,3467,03467 3467 003467,3520 East Expressway 83,TX,78501-8362
Buffalo Wild Wings,Angola,3468,03468 3468 003468,202 East Harcourt,IN,46703-2793
Buffalo Wild Wings,Laurel,3469,03469 3469 003469,1826 Jefferson Street,MS,39440-4268
Buffalo Wild Wings,Austin,3470,03470 3470 003470,7604 I-35 North,TX,78752
Buffalo Wild Wings,BURLINGTON,3471,03471 3471 003471,555 Shelburne Road,VT,5401
Buffalo Wild Wings,Nampa,3472,03472 3472 003472,2101 N Cassia St #2111,ID,83651-1461
Buffalo Wild Wings,Bel Air,3473,03473 3473 003473,"5 Bel Air South Parkway, Suite P1649",MD,21015-6091
Buffalo Wild Wings,Fishers,3474,03474 3474 003474,13868 East 116th Street,IN,46037-9721
Buffalo Wild Wings,Kissimmee,3476,03476 3476 003476,3099 Formosa Gardens Blvd.,FL,34747
Buffalo Wild Wings,Peru,3477,03477 3477 003477,2807 Plaza Drive,IL,61354-1283
Buffalo Wild Wings,Albuquerque,3478,03478 3478 003478,10015 Coors Blvd. NW,NM,87114-4019
Buffalo Wild Wings,Cross Lanes,3479,03479 3479 003479,70 Nitro Market Place Blvd.,WV,25313
Buffalo Wild Wings,Austin,3482,03482 3482 003482,Building D 901 Little Texas Lane,TX,78745
Buffalo Wild Wings,Jamacia,3483,03483 3483 003483,Room 471.005 JFK International Terminal 4,NY,11430
Buffalo Wild Wings,West Covina,3484,03484 3484 003484,2548 East Workman Avenue,CA,91791
Buffalo Wild Wings,North Brunswick,3485,03485 3485 003485,2241 Route 1 South,NJ,08902-4402
Buffalo Wild Wings,Avon,3486,03486 3486 003486,9875 E US Highway 36,IN,46123-7954
Buffalo Wild Wings,Farmville,3487,03487 3487 003487,1403 South Main Street,VA,23901
Buffalo Wild Wings,Morehead City,3488,03488 3488 003488,"5136 Highway 70, Suite B",NC,28557
Buffalo Wild Wings,Eatontown,3489,03489 3489 003489,180 Rte 35 #2004a,NJ,7724
Buffalo Wild Wings,Big Rapids,3490,03490 3490 003490,1264 Perry Avenue,MI,49307
Buffalo Wild Wings,Seymour,3492,03492 3492 003492,2008 East Tipton Street,IN,47274
Buffalo Wild Wings,Bay Shore,3493,03493 3493 003493,1701 Sunrise Highway,NY,11706
Buffalo Wild Wings,Beaverton,3494,03494 3494 003494,11995 SW Beaverton Hillsdale Highway,OR,97005
Buffalo Wild Wings,Houston,3495,03495 3495 003495,5805 Highway 6 North,TX,77084
Buffalo Wild Wings,Evanston,3496,03496 3496 003496,1741 Maple Avenue,IL,60201
Buffalo Wild Wings,Bartlesville,3497,03497 3497 003497,"2350 SE Washington Blvd., Ste 418",OK,74006
Buffalo Wild Wings,Brea,3499,03499 3499 003499,240 South Brea Blvd.,CA,92821
Buffalo Wild Wings,Rapid City,3500,03500 3500 003500,715 Mountain View Road,SD,57702
Buffalo Wild Wings,Shawnee,3501,03501 3501 003501,4901 North Kickapoo Avenue #6705,OK,74804
Buffalo Wild Wings,Holland,3502,03502 3502 003502,2899 West Shore Drive,MI,49424
Buffalo Wild Wings,San Antonio,3503,03503 3503 003503,5411 West 1604 North,TX,78253
Buffalo Wild Wings,Owings Mills,3504,03504 3504 003504,10391 Reisterstown Road,MD,21117
Buffalo Wild Wings,Chesterfield Township,3505,03505 3505 003505,51346 Gratiot Avenue,MI,48051
Buffalo Wild Wings,Fairfield,3506,03506 3506 003506,"Solano Mall 1350 Travis Blvd., Suite #1510-A",CA,94533
Buffalo Wild Wings,MOORHEAD,3507,03507 3507 003507,2201 1st Avenue North,MN,56560
Buffalo Wild Wings,MARQUETTE,3508,03508 3508 003508,2500 US Highway 41 West,MI,49855
Buffalo Wild Wings,NORTHBROOK,3509,03509 3509 003509,1018 Willow Road,IL,60062
Buffalo Wild Wings,Muskogee,3510,03510 3510 003510,1130 West Shawnee Street,OK,74401
Buffalo Wild Wings,Moreno Valley,3511,03511 3511 003511,12450 Day Street,CA,92553
Buffalo Wild Wings,Vancouver,3513,03513 3513 003513,7704 NE 5th Avenue,WA,98665
Buffalo Wild Wings,Mission Viejo,3514,03514 3514 003514,"27741 Crown Valley Pkwy, Suite 303",CA,92691
Buffalo Wild Wings,Sterling,3515,03515 3515 003515,"4304 E Lincolnway Avenue, Suite A",IL,61081
Buffalo Wild Wings,Twin Falls,3517,03517 3517 003517,1239 Pole Line Rd E #303,ID,83301
Buffalo Wild Wings,Waynesboro,3518,03518 3518 003518,437a Tiffany Drive,VA,22980
Buffalo Wild Wings,D'IBERVILLE,3519,03519 3519 003519,3850 Promenade Parkway,MS,39540
Buffalo Wild Wings,ANNAPOLIS,3520,03520 3520 003520,2337-A Forest Drive,MD,21401
Buffalo Wild Wings,SAGINAW,3521,03521 3521 003521,2690 Tittabawasee Road,MI,48604
Buffalo Wild Wings,KOKOMO,3522,03522 3522 003522,Unit 119 1780 East Boulevard,IN,46902-2454
Buffalo Wild Wings,COLUMBIA,3523,03523 3523 003523,505 East Nifong Blvd.,MO,65203
Buffalo Wild Wings,ALEXANDRIA,3524,03524 3524 003524,2711 South MacArthur Drive,LA,71301
Buffalo Wild Wings,BROWNSBURG,3525,03525 3525 003525,"1551 North Green Street, Suite Q",IN,46112
Buffalo Wild Wings,SPRINGFIELD,3526,03526 3526 003526,2808 North Dirksen Parkway,IL,62702
Buffalo Wild Wings,BAKERSFIELD,3527,03527 3527 003527,5677 Gosford Road,CA,93313
Buffalo Wild Wings,MERIDIAN,3528,03528 3528 003528,114 Highway 11/80 East,MS,39301
Buffalo Wild Wings,Clermont,3529,03529 3529 003529,2465 South Highway 27,FL,34714
Buffalo Wild Wings,Greencastle,3531,03531 3531 003531,1310 Indianapolis Road,IN,46135
Buffalo Wild Wings,Wilmington,3532,03532 3532 003532,206 Old Eastwood Road,NC,28403
Buffalo Wild Wings,JACKSONVILLE,3533,03533 3533 003533,4175 Western Blvd.,NC,28546
Buffalo Wild Wings,SAUGUS,3534,03534 3534 003534,180 Main Street,MA,1906
Buffalo Wild Wings,HUTCHINSON,3535,03535 3535 003535,1040 Highway 15 South,MN,55350
Buffalo Wild Wings,Florence,3536,03536 3536 003536,2870 Florence Blvd.,AL,35630
Buffalo Wild Wings,Hanover,3537,03537 3537 003537,"7000 Arundel Mills Circle, Room R003",MD,21076
Buffalo Wild Wings,MT VERNON,3538,03538 3538 003538,227 Potomac Blvd.,IL,62864
Buffalo Wild Wings,COVINGTON,3539,03539 3539 003539,3019 Pinnacle Parkway,LA,70433
Buffalo Wild Wings,VACAVILLE,3540,03540 3540 003540,1601 East Monte Vista Avenue,CA,95688
Buffalo Wild Wings,BURLINGTON,3541,03541 3541 003541,974 Lawrence Drive,IA,52601
Buffalo Wild Wings,FT MYERS,3543,03543 3543 003543,"9390 Dynasty Drive, Suite 101",FL,33905
Buffalo Wild Wings,SOUTH PORTLAND,3544,03544 3544 003544,85 Western Avenue,ME,4106
Buffalo Wild Wings,Ft. Bliss,3545,03545 3545 003545,"1617 Pleasonton Road, Suite G-101",TX,79906
Buffalo Wild Wings,Los Angeles,3546,03546 3546 003546,3939 Crenshaw Blvd.,CA,90008
Buffalo Wild Wings,IDAHO FALLS,3547,03547 3547 003547,1430 Milligan Road,ID,83402
Buffalo Wild Wings,POCATELLO,3549,03549 3549 003549,4200 Pole Line Road,ID,83202
Buffalo Wild Wings,SIOUX FALLS,3550,03550 3550 003550,2601 South Louise Avenue,SD,57106
Buffalo Wild Wings,Daytona Beach,3551,03551 3551 003551,2479 International Speedway Blvd,FL,32114
Buffalo Wild Wings,Fitchburg,3552,03552 3552 003552,150 Whalon,MA,1420
Buffalo Wild Wings,TEXARKANA,3553,03553 3553 003553,4320 Saint Michael Street,TX,75503
Buffalo Wild Wings,WARSAW,3554,03554 3554 003554,376 Enterprise Drive,IN,46580
Buffalo Wild Wings,DANVERS,3555,03555 3555 003555,100 Independence Way,MA,1923
Buffalo Wild Wings,TRAVERSE CITY,3556,03556 3556 003556,"3480 South Airport Road West, Suite A",MI,49684
Buffalo Wild Wings,SOUTH BEND,3557,03557 3557 003557,326 W. Ireland Road,IN,46614
Buffalo Wild Wings,ALISO VIEJO,3558,03558 3558 003558,26711 Aliso Creek Road #100B,CA,92656
Buffalo Wild Wings,LAKELAND,3559,03559 3559 003559,3750 Highway 98,FL,33809
Buffalo Wild Wings,EL PASO,3560,03560 3560 003560,"655 Sunland Park Drive, Suite K-1",TX,79912
Buffalo Wild Wings,FREDERICKSBURG,3561,03561 3561 003561,10107 Southpoint Parkway,VA,22407
Buffalo Wild Wings,PASADENA,3562,03562 3562 003562,1000 S. Fair Oaks Avenue,CA,91105
Buffalo Wild Wings,Bridgewater,3563,03563 3563 003563,970 US-22,NJ,8807
Buffalo Wild Wings,Homewood,3564,03564 3564 003564,17510 Halsted Street,IL,60430
Buffalo Wild Wings,Battle Creek,3565,03565 3565 003565,5775 Beckley Rd #655,MI,49015
Buffalo Wild Wings,Kirkwood,3566,03566 3566 003566,1244 South Kirkwood Road,MO,63122
Buffalo Wild Wings,Lansing,3567,03567 3567 003567,718 Delta Commerce Drive,MI,48917
Buffalo Wild Wings,Watchung,3568,03568 3568 003568,1599 US Highway 22 West,NJ,7069
Buffalo Wild Wings,Watertown,3569,03569 3569 003569,2700 9th Ave SE #100,SD,57201
Buffalo Wild Wings,Tulsa,3571,03571 3571 003571,6222 East 41st Street,OK,74135
Buffalo Wild Wings,Fort Smith,3572,03572 3572 003572,6550 Rogers Avenue,AR,72903
Buffalo Wild Wings,Baton Rouge,3573,03573 3573 003573,"3260 Highland Road, Suite 2 & 3",LA,70802
Buffalo Wild Wings,Tualatin,3574,03574 3574 003574,8505 SW Tualatin Sherwood Road,OR,97062
Buffalo Wild Wings,Orange,3575,03575 3575 003575,"20 City Boulevard, Suite 901",CA,92868
Buffalo Wild Wings,South Miami,3576,03576 3576 003576,"5701 Sunset Drive, Suite B-13A",FL,33143
Buffalo Wild Wings,Conway,3577,03577 3577 003577,675 Amity Road,AR,72032
Buffalo Wild Wings,Mcallen,3578,03578 3578 003578,4424 N. 10th Street,TX,78504
Buffalo Wild Wings,MOUNT HOPE,3579,03579 3579 003579,214 Cross Road Drive,WV,25880
Buffalo Wild Wings,Starkville,3580,03580 3580 003580,703 Spring Street,MS,39759
Buffalo Wild Wings,Waterford,3581,03581 3581 003581,850 Hartford Turnpike,CT,6385
Buffalo Wild Wings,Logansport,3582,03582 3582 003582,"3900 Lexington Road, Suite 100",IN,46947
Buffalo Wild Wings,Riverhead,3583,03583 3583 003583,1761 Old Country Road,NY,11901
Buffalo Wild Wings,Auburn,3584,03584 3584 003584,648 Turner Street #2,ME,4210
Buffalo Wild Wings,Brentwood,3585,03585 3585 003585,1210 Strassner Drive,MO,63144
Buffalo Wild Wings,Concord,3586,03586 3586 003586,8 Loudon Road,NH,3301
Buffalo Wild Wings,St. Robert,3587,03587 3587 003587,136 Old Route 66,MO,65584
Buffalo Wild Wings,Bangor,3588,03588 3588 003588,461 Stillwater Avenue,ME,4401
Buffalo Wild Wings,Missoula,3589,03589 3589 003589,2615 Radio Way,MT,59808
Buffalo Wild Wings,St. Marys,3590,03590 3590 003590,442 Fortman Drive,OH,45885
Buffalo Wild Wings,University Park,3591,03591 3591 003591,5235 University Parkway,FL,34201
Buffalo Wild Wings,Newington,3592,03592 3592 003592,"Fox Run Mall 50 Fox Run Road, #128",NH,3801
Buffalo Wild Wings,Huntington Beach,3593,03593 3593 003593,"7811 Edinger Avenue, Suite 124",CA,92647
Buffalo Wild Wings,North Haven,3594,03594 3594 003594,350 Universal Drive North,CT,6473
Buffalo Wild Wings,Warrensville Heights,3596,03596 3596 003596,26200 Harvard Road,OH,44122
Buffalo Wild Wings,Zanesville,3598,03598 3598 003598,1352 Brandywine Boulevard,OH,43701
Buffalo Wild Wings,Metairie,3599,03599 3599 003599,3434 Veterans Memorial Blvd.,LA,70002
Buffalo Wild Wings,Orlando,3600,03600 3600 003600,11400 University Drive,FL,32817
Buffalo Wild Wings,Morgantown,3601,03601 3601 003601,1099 Suncrest Town Center Drive,WV,26505
Buffalo Wild Wings,Manchester,3603,03603 3603 003603,112 Buckland Street,CT,6042
Buffalo Wild Wings,Farmingdale,3604,03604 3604 003604,"1080 Broad Hollow Road, Route 110",NY,11735
Buffalo Wild Wings,Portland,3605,03605 3605 003605,"1200 NE Broadway Street, Suite 20",OR,97232
Buffalo Wild Wings,Reynoldsburg,3606,03606 3606 003606,2386 Taylor Square Drive,OH,43068
Buffalo Wild Wings,Tupelo,3607,03607 3607 003607,3485 Tupelo Commons,MS,38804
Buffalo Wild Wings,Brookings,3608,03608 3608 003608,1801 6th Street,SD,57006
Buffalo Wild Wings,Grand Rapids,3610,03610 3610 003610,8 Ionia Avenue NW,MI,49503-4114
Buffalo Wild Wings,Anchorage,3611,03611 3611 003611,3400 C Street,AK,99503
Buffalo Wild Wings,Rehoboth Beach,3612,03612 3612 003612,19930 Lighthouse Plaza Blvd.,DE,19971
Buffalo Wild Wings,Corvallis,3613,03613 3613 003613,1820 NW 9th Street,OR,97330
Buffalo Wild Wings,Middletown,3614,03614 3614 003614,567 Route 211 East,NY,10941
Buffalo Wild Wings,BOWLING GREEN,3615,03615 3615 003615,1550 East Wooster,OH,43402
Buffalo Wild Wings,BRICK,3616,03616 3616 003616,2770 Hooper Avenue,NJ,8723
Buffalo Wild Wings,Westbury,3617,03617 3617 003617,737 Merrick Avenue,NY,11590
Buffalo Wild Wings,SALEM,3619,03619 3619 003619,3892 Center Street,OR,97301
Buffalo Wild Wings,SPARKS,3620,03620 3620 003620,1560 East Lincoln Way,NV,89434
Buffalo Wild Wings,Sherwood,3621,03621 3621 003621,4600 Silver Creek Drive,AR,72120
Buffalo Wild Wings,FREDERICK,3622,03622 3622 003622,210 Shorebird Street,MD,21701
Buffalo Wild Wings,WATERBURY,3623,03623 3623 003623,315 Union Street,CT,6706
Buffalo Wild Wings,WILLISTON,3624,03624 3624 003624,417 Reiger Drive,ND,58801
Buffalo Wild Wings,Forest Hills,3625,03625 3625 003625,107-16 71st Avenue,NY,11375
Buffalo Wild Wings,Plattsburg,3626,03626 3626 003626,200 Consumer Square Mall,NY,12901
Buffalo Wild Wings,West Monroe,3627,03627 3627 003627,"205 Constitution, Suite 4",LA,71292
Buffalo Wild Wings,Rochester,3628,03628 3628 003628,"160 Washington Street, Suite 103",NH,3839
Buffalo Wild Wings,San Ramon,3629,03629 3629 003629,200 Montgomery Street,CA,94583
Buffalo Wild Wings,Oxford,3630,03630 3630 003630,2315 West Jackson Avenue,MS,38655
Buffalo Wild Wings,Naples,3631,03631 3631 003631,3290 Tamiami Trail East,FL,34112
Buffalo Wild Wings,Detroit,3632,03632 3632 003632,1218 Randolph Street,MI,48226
Buffalo Wild Wings,Orlando,3633,03633 3633 003633,10761 International Drive,FL,32821
Buffalo Wild Wings,Rockaway,3634,03634 3634 003634,343 Mount Hope Avenue,NJ,7866
Buffalo Wild Wings,GARDENDALE,3636,03636 3636 003636,2505 Caufield Drive,AL,35071
Buffalo Wild Wings,Jefferson,3637,03637 3637 003637,909 Clearview Parkway,LA,70121
Buffalo Wild Wings,Largo,3638,03638 3638 003638,10500 Ulmerton Road # 476,FL,33771
Buffalo Wild Wings,Pearl City,3639,03639 3639 003639,Suite 227 & 228 1000 Kamehameha Highway,HI,96782
Buffalo Wild Wings,Gallipolis,3640,03640 3640 003640,215 Upper River Road,OH,45631
Buffalo Wild Wings,Mt. Vernon,3641,03641 3641 003641,907 Coshocton Avenue,OH,43050
Buffalo Wild Wings,Norman,3643,03643 3643 003643,3010 Classen Blvd.,OK,73072
Buffalo Wild Wings,New Bern,3644,03644 3644 003644,"3102 Dr. MLK Jr. Blvd., Suite #624",NC,28562
Buffalo Wild Wings,Tampa,3645,03645 3645 003645,1625 East 7th Avenue,FL,33605
Buffalo Wild Wings,Claremore,3646,03646 3646 003646,2080 South Highway 66,OK,74019
Buffalo Wild Wings,Casper,3648,03648 3648 003648,5071 East 2nd Street,WY,82609
Buffalo Wild Wings,Kent,3649,03649 3649 003649,176 East Main Street,OH,44240
Buffalo Wild Wings,Louisville,3650,03650 3650 003650,10206 Westport Road,KY,40241
Buffalo Wild Wings,Wappingers Falls,3651,03651 3651 003651,1794 South Road,NY,12590
Buffalo Wild Wings,Staten Island,3652,03652 3652 003652,1447 Richmond Avenue,NY,10314
Buffalo Wild Wings,Santa Fe,3653,03653 3653 003653,3501 Zafarano Drive,NM,87507
Buffalo Wild Wings,Houston,3654,03654 3654 003654,9435 Katy Freeway,TX,77024
Buffalo Wild Wings,Chesterfield,3655,03655 3655 003655,17276 Chesterfield Airport Road,MO,63005
Buffalo Wild Wings,O'Fallon,3656,03656 3656 003656,2352 Highway K,MO,63366
Buffalo Wild Wings,Springfield,3657,03657 3657 003657,2770 Gateway Street,OR,97477
Buffalo Wild Wings,Alamogordo,3658,03658 3658 003658,839 South White Sands Blvd.,NM,88310
Buffalo Wild Wings,Albuquerque,3659,03659 3659 003659,6001 Iliff Road NW,NM,87121
Buffalo Wild Wings,Lapeer,3660,03660 3660 003660,700 South Main Street #101A,MI,48446
Buffalo Wild Wings,Sault Ste. Marie,3661,03661 3661 003661,4536 I-75 Business Spur,MI,49783
Buffalo Wild Wings,Southington,3663,03663 3663 003663,774 Queen Street,CT,6489
Buffalo Wild Wings,Gaithersburg,3664,03664 3664 003664,668 Clopper Road,MD,20878
Buffalo Wild Wings,Shelbyville,3665,03665 3665 003665,1623 East Michigan Road,IN,46176
Buffalo Wild Wings,Hobbs,3666,03666 3666 003666,1120 Joe Harvey Blvd.,NM,88240
Buffalo Wild Wings,Aventura,3668,03668 3668 003668,18721 Biscayne Boulevard,FL,33180
Buffalo Wild Wings,Albuquerque,3670,03670 3670 003670,1700 Towne Center Lane,NM,87106
Buffalo Wild Wings,Carson City,3671,03671 3671 003671,3815 South Carson Street,NV,89701
Buffalo Wild Wings,Atlanta,3672,03672 3672 003672,6000 N Terminal Parkway,GA,30320
Buffalo Wild Wings,Salisbury,3673,03673 3673 003673,"2734 North Salisbury Blvd., Suite 5B",MD,21801
Buffalo Wild Wings,Fremont,3674,03674 3674 003674,"2200 Sean Drive, Suite L",OH,43420
Buffalo Wild Wings,Chester,3675,03675 3675 003675,12312 Bermuda Crossroads Lane,VA,23831
Buffalo Wild Wings,Livermore,3676,03676 3676 003676,1790 North First Street,CA,94550
Buffalo Wild Wings,Indianapolis,3678,03678 3678 003678,2747 East 62nd Street,IN,46220
Buffalo Wild Wings,Medford,3679,03679 3679 003679,1700 Delta Waters Road,OR,97504
Buffalo Wild Wings,Parsippany,3680,03680 3680 003680,1540 US Highway 46 W,NJ,7054
Buffalo Wild Wings,Woodhaven,3681,03681 3681 003681,20990 West Road,MI,48183
Buffalo Wild Wings,Gaylord,3682,03682 3682 003682,2305 Snowdrift Drive,MI,49735
Buffalo Wild Wings,Russellville,3683,03683 3683 003683,2212 East Parkway,AR,72802
Buffalo Wild Wings,Bemidji,3684,03684 3684 003684,225 Paul Bunyan Drive NW,MN,56601
Buffalo Wild Wings,Decatur,3685,03685 3685 003685,945 Wimberly Drive Southwest,AL,35603
Buffalo Wild Wings,Bonita Springs,3686,03686 3686 003686,25271 Chamber of Commerce Drive,FL,34134
Buffalo Wild Wings,Canyon Country,3687,03687 3687 003687,19252 Soledad Canyon Road,CA,91351
Buffalo Wild Wings,Chicago,3689,03689 3689 003689,1832 North Clybourn,IL,60614
Buffalo Wild Wings,St. Clair Shores,3692,03692 3692 003692,23117 Harper Road,MI,48080
Buffalo Wild Wings,Farmington Hills,3693,03693 3693 003693,31205 Orchard Lake Road,MI,48334
Buffalo Wild Wings,Shrewsbury,3694,03694 3694 003694,476 Boston Turnpike,MA,1545
Buffalo Wild Wings,New York,3695,03695 3695 003695,253 West 47th Street,NY,10036
Buffalo Wild Wings,Petaluma,3698,03698 3698 003698,"401 Kenilworth Drive, Suite 810",CA,94952
Buffalo Wild Wings,Ann Arbor,3699,03699 3699 003699,3150 Boardwalk Drive,MI,48108
Buffalo Wild Wings,Rolla,3700,03700 3700 003700,1811 North Bishop,MO,65401
Buffalo Wild Wings,New Castle,3701,03701 3701 003701,1715 South Memorial Drive,IN,47362
Buffalo Wild Wings,Lebanon,3702,03702 3702 003702,Suite G 2470 North Lebanon Street,IN,46052
Buffalo Wild Wings,Brownwood,3703,03703 3703 003703,511 W. Commerce Street,TX,76801
Buffalo Wild Wings,Wethersfield,3707,03707 3707 003707,1267 Silas Deane Highway,CT,6109
Buffalo Wild Wings,Buckhannon,3711,03711 3711 003711,2 North Ridge Drive,WV,26201
