keywords,city,Aggdata Store Number,store_number,address,state,zip_code
Caribou Coffee,Richfield,1278,1278 #1278 AP1278 AR1278 BK1278,Best Buy Corporate Headquarters 2 (not open to the public),MN,55423
Caribou Coffee,Topeka,8080,8080 #8080 AP8080 AR8080 BK8080,2951 SW Wanamaker Road,KS,66614
Caribou Coffee,Indianapolis,8082,8082 #8082 AP8082 AR8082 BK8082,980 West Walnut Street,IN,46202
Caribou Coffee,New Richmond,8119,8119 #8119 AP8119 AR8119 BK8119,110 West 4th Street,WI,54017
Caribou Coffee,Madison,8135,8135 #8135 AP8135 AR8135 BK8135,3801 East Washington Av,WI,53704
Caribou Coffee,Peoria,8155,8155 #8155 AP8155 AR8155 BK8155,4125 Sheridan Road,IL,61614
Caribou Coffee,Iowa City,8174,8174 #8174 AP8174 AR8174 BK8174,1720 Waterfront Dr,IA,52240
Caribou Coffee,Shakopee,8239,8239 #8239 AP8239 AR8239 BK8239,1 Valleyfair Drive,MN,55379
Caribou Coffee,Kansas City,8240,8240 #8240 AP8240 AR8240 BK8240,4545 Northeast Worlds of Fun Drive,MO,64161
Caribou Coffee,Charlotte,8258,8258 #8258 AP8258 AR8258 BK8258,1021 Morehead Medical Drive,NC,28204
Caribou Coffee,Cedar Rapids,8259,8259 #8259 AP8259 AR8259 BK8259,3235 Oakland Road NE,IA,52403
Caribou Coffee,Waukee,8293,8293 #8293 AP8293 AR8293 BK8293,1025 E Hickman Rd,IA,50263
Caribou Coffee,Edina,101,101 #101 AP101 AR101 BK101,4408 France Avenue South,MN,55424
Caribou Coffee,Wayzata,103,103 #103 AP103 AR103 BK103,609 East Lake Street,MN,55391
Caribou Coffee,Minneapolis,104,104 #104 AP104 AR104 BK104,651 Nicollet Mall,MN,55402
Caribou Coffee,Minneapolis,106,106 #106 AP106 AR106 BK106,222 South 9th Street,MN,55402
Caribou Coffee,St. Paul,108,108 #108 AP108 AR108 BK108,2134 Ford Parkway,MN,55116
Caribou Coffee,St. Paul,110,110 #110 AP110 AR110 BK110,1055 Grand Avenue,MN,55105
Caribou Coffee,Minneapolis,111,111 #111 AP111 AR111 BK111,1116 Nicollet Mall,MN,55402
Caribou Coffee,St. Paul,112,112 #112 AP112 AR112 BK112,757 Grand Avenue,MN,55105
Caribou Coffee,Minnetonka,114,114 #114 AP114 AR114 BK114,13081 Ridgedale Drive,MN,55305
Caribou Coffee,St. Louis Park,115,115 #115 AP115 AR115 BK115,3777 Park Center Blvd,MN,55416
Caribou Coffee,Chanhassen,116,116 #116 AP116 AR116 BK116,800 West 78th Street,MN,55317
Caribou Coffee,Edina,117,117 #117 AP117 AR117 BK117,Byerly's,MN,55435
Caribou Coffee,Eden Prairie,118,118 #118 AP118 AR118 BK118,16506 West 78th Street,MN,55344
Caribou Coffee,Roseville,119,119 #119 AP119 AR119 BK119,1601 West County Road C,MN,55113
Caribou Coffee,Burnsville,120,120 #120 AP120 AR120 BK120,Byerly's,MN,55337
Caribou Coffee,St. Louis Park,121,121 #121 AP121 AR121 BK121,5350 Excelsior Boulevard,MN,55416
Caribou Coffee,North Oaks,124,124 #124 AP124 AR124 BK124,113 Village Center Drive,MN,55127
Caribou Coffee,Woodbury,125,125 #125 AP125 AR125 BK125,8320 City Center Drive,MN,55125
Caribou Coffee,Roseville,126,126 #126 AP126 AR126 BK126,2714 Lincoln Drive,MN,55113
Caribou Coffee,Minnetonka,127,127 #127 AP127 AR127 BK127,1808 South Plymouth Road,MN,55305
Caribou Coffee,Edina,128,128 #128 AP128 AR128 BK128,7101 France Avenue,MN,55435
Caribou Coffee,Eagan,129,129 #129 AP129 AR129 BK129,2149 Cliff Road,MN,55122
Caribou Coffee,Minnetonka,130,130 #130 AP130 AR130 BK130,10997 Red Circle Drive,MN,55343
Caribou Coffee,Golden Valley,131,131 #131 AP131 AR131 BK131,5725 Duluth Street,MN,55422
Caribou Coffee,Eagan,132,132 #132 AP132 AR132 BK132,1299 Promenade Place,MN,55121
Caribou Coffee,Maple Grove,133,133 #133 AP133 AR133 BK133,8073 Wedgewood Lane North,MN,55369
Caribou Coffee,St. Louis Park,134,134 #134 AP134 AR134 BK134,1650 Park Place Boulevard,MN,55416
Caribou Coffee,St. Paul,135,135 #135 AP135 AR135 BK135,1959 Suburban Avenue,MN,55119
Caribou Coffee,Edina,136,136 #136 AP136 AR136 BK136,5195 Southdale Center,MN,55435
Caribou Coffee,White Bear Lake,138,138 #138 AP138 AR138 BK138,4733 Highway 61,MN,55110
Caribou Coffee,Coon Rapids,139,139 #139 AP139 AR139 BK139,3536 Main Street,MN,55448
Caribou Coffee,Eagan,141,141 #141 AP141 AR141 BK141,1380 Duckwood Drive #101,MN,55123
Caribou Coffee,Roseville,142,142 #142 AP142 AR142 BK142,Rosedale Center,MN,55113
Caribou Coffee,St. Paul,143,143 #143 AP143 AR143 BK143,444 Cedar Street,MN,55101
Caribou Coffee,Minneapolis,144,144 #144 AP144 AR144 BK144,1450 West Lake Street,MN,55408
Caribou Coffee,Wayzata,145,145 #145 AP145 AR145 BK145,1151 East Wayzata Blvd,MN,55391
Caribou Coffee,Bloomington,146,146 #146 AP146 AR146 BK146,5159 West 98th Street,MN,55437
Caribou Coffee,Plymouth,147,147 #147 AP147 AR147 BK147,3500 Vicksburg Lane,MN,55447
Caribou Coffee,Burnsville,148,148 #148 AP148 AR148 BK148,1100 East County Road 42,MN,55337
Caribou Coffee,Plymouth,150,150 #150 AP150 AR150 BK150,4130 Berkshire Lane,MN,55446
Caribou Coffee,Eagan,151,151 #151 AP151 AR151 BK151,Thomson Reuters (not open to the public),MN,55123
Caribou Coffee,Brooklyn Park,152,152 #152 AP152 AR152 BK152,8559 Edinburgh Centre Drive North,MN,55443-3724
Caribou Coffee,Minneapolis,153,153 #153 AP153 AR153 BK153,3044 Excelsior Boulevard #103,MN,55416
Caribou Coffee,Maplewood,154,154 #154 AP154 AR154 BK154,3001 White Bear Avenue,MN,55109
Caribou Coffee,Maplewood,155,155 #155 AP155 AR155 BK155,2515 White Bear Ave,MN,55109
Caribou Coffee,Apple Valley,156,156 #156 AP156 AR156 BK156,14638 Cedar Avenue,MN,55124
Caribou Coffee,Minneapolis,157,157 #157 AP157 AR157 BK157,733 Marquette Avenue South #223,MN,55402
Caribou Coffee,Maple Grove,158,158 #158 AP158 AR158 BK158,12880 Elm Creek Boulevard,MN,55369
Caribou Coffee,Edina,159,159 #159 AP159 AR159 BK159,4999 France Avenue South,MN,55410
Caribou Coffee,Minneapolis,160,160 #160 AP160 AR160 BK160,225 South Sixth Street,MN,55402
Caribou Coffee,St. Paul,161,161 #161 AP161 AR161 BK161,401 Robert Street,MN,55101
Caribou Coffee,Minneapolis,162,162 #162 AP162 AR162 BK162,2300 Hennepin Ave.,MN,55405
Caribou Coffee,Stillwater,163,163 #163 AP163 AR163 BK163,1830 Market Drive,MN,55082
Caribou Coffee,Minneapolis,164,164 #164 AP164 AR164 BK164,50 S. 6th Street,MN,55402
Caribou Coffee,Minneapolis,167,167 #167 AP167 AR167 BK167,800 Nicollet Mall,MN,55405
Caribou Coffee,Edina,168,168 #168 AP168 AR168 BK168,5816 Lincoln Drive,MN,55436
Caribou Coffee,Richfield,170,170 #170 AP170 AR170 BK170,6228 Penn Avenue South,MN,55423
Caribou Coffee,St. Cloud,171,171 #171 AP171 AR171 BK171,2423 Division Street West,MN,56301
Caribou Coffee,Minnetonka,172,172 #172 AP172 AR172 BK172,12569 Wayzata Blvd. Suite 1150,MN,55343
Caribou Coffee,Hudson,173,173 #173 AP173 AR173 BK173,105 Carmichael Road,WI,54016
Caribou Coffee,Elk River,175,175 #175 AP175 AR175 BK175,19260 Freeport Street NW A-109B,MN,55330
Caribou Coffee,New Hope,176,176 #176 AP176 AR176 BK176,4210 Winnetka Avenue,MN,55428
Caribou Coffee,Eden Prairie,177,177 #177 AP177 AR177 BK177,8251 Flying Cloud Drive,MN,55344
Caribou Coffee,Minneapolis,178,178 #178 AP178 AR178 BK178,"200 South 6th Street, Suite 292",MN,55402
Caribou Coffee,Blaine,179,179 #179 AP179 AR179 BK179,12417 Ulysses Street,MN,55434
Caribou Coffee,Brooklyn Center,180,180 #180 AP180 AR180 BK180,5711 Xerxes Avenue North,MN,55430-2817
Caribou Coffee,Rosemount,181,181 #181 AP181 AR181 BK181,3868 150th Street West,MN,55608
Caribou Coffee,Blaine,182,182 #182 AP182 AR182 BK182,4345 Pheasant Ridge Drive,MN,55449
Caribou Coffee,Edina,183,183 #183 AP183 AR183 BK183,5131 Edina Industrial Boulevard,MN,55439
Caribou Coffee,Plymouth,184,184 #184 AP184 AR184 BK184,3455 Vicksburg Lane,MN,55447
Caribou Coffee,St. Cloud,185,185 #185 AP185 AR185 BK185,4101 West Division Street,MN,55301
Caribou Coffee,Chanhassen,186,186 #186 AP186 AR186 BK186,920 West 78th Street,MN,55317
Caribou Coffee,Blaine,187,187 #187 AP187 AR187 BK187,8601 Springbrook Drive NE,MN,55433
Caribou Coffee,Plymouth,188,188 #188 AP188 AR188 BK188,1400 County  Road 101,MN,55447
Caribou Coffee,Rochester,189,189 #189 AP189 AR189 BK189,3900 Market Place Drive NW,MN,55901
Caribou Coffee,Burnsville,190,190 #190 AP190 AR190 BK190,14204 Burnhaven Drive,MN,55306
Caribou Coffee,West St. Paul,192,192 #192 AP192 AR192 BK192,1193 South Robert Street,MN,55118
Caribou Coffee,Bloomington,193,193 #193 AP193 AR193 BK193,3835 West Old Shakopee Rd,MN,55431
Caribou Coffee,Hopkins,196,196 #196 AP196 AR196 BK196,1601 Highway 7,MN,55305
Caribou Coffee,White Bear Lake,198,198 #198 AP198 AR198 BK198,2681 County Road E,MN,55110
Caribou Coffee,Atlanta,207,207 #207 AP207 AR207 BK207,4520 Roswell Road NE,GA,30342
Caribou Coffee,Atlanta,213,213 #213 AP213 AR213 BK213,1000 Piedmont Avenue NE,GA,30309-3787
Caribou Coffee,Atlanta,217,217 #217 AP217 AR217 BK217,3487 Northside Parkway,GA,30327
Caribou Coffee,Atlanta,221,221 #221 AP221 AR221 BK221,303 Peachtree Street NE,GA,30308
Caribou Coffee,Atlanta,225,225 #225 AP225 AR225 BK225,3261 Peachtree Road NE,GA,30305
Caribou Coffee,Atlanta,242,242 #242 AP242 AR242 BK242,231 Peachtree Street,GA,30303
Caribou Coffee,Chapel Hill,305,305 #305 AP305 AR305 BK305,110 West Franklin Street,NC,27514
Caribou Coffee,Cary,306,306 #306 AP306 AR306 BK306,109 Maynard Road,NC,27511
Caribou Coffee,Raleigh,307,307 #307 AP307 AR307 BK307,8201 Brier Creek Parkway,NC,27617
Caribou Coffee,Chapel Hill,308,308 #308 AP308 AR308 BK308,1406 East Franklin Street,NC,27514
Caribou Coffee,Greensboro,311,311 #311 AP311 AR311 BK311,3109 Northline Avenue,NC,27408
Caribou Coffee,Charlotte,403,403 #403 AP403 AR403 BK403,4327 Park Road,NC,28209
Caribou Coffee,Charlotte,406,406 #406 AP406 AR406 BK406,100 North Tryon Street,NC,28202
Caribou Coffee,Charlotte,408,408 #408 AP408 AR408 BK408,7804 Fairview Road,NC,28226
Caribou Coffee,Chicago,703,703 #703 AP703 AR703 BK703,55 West Monroe,IL,60603
Caribou Coffee,Chicago,708,708 #708 AP708 AR708 BK708,3300 North Broadway,IL,60657
Caribou Coffee,Glen Ellyn,709,709 #709 AP709 AR709 BK709,495 West Roosevelt Road,IL,60137
Caribou Coffee,Chicago,711,711 #711 AP711 AR711 BK711,3025 Clark Street,IL,60657
Caribou Coffee,Chicago,718,718 #718 AP718 AR718 BK718,Madison and LaSalle,IL,60603
Caribou Coffee,Oak Park,720,720 #720 AP720 AR720 BK720,423 North Harlem Avenue,IL,60302
Caribou Coffee,Winnetka,727,727 #727 AP727 AR727 BK727,819 Elm Street,IL,60093
Caribou Coffee,Chicago,738,738 #738 AP738 AR738 BK738,311 West Monroe Street,IL,60694
Caribou Coffee,Chicago,741,741 #741 AP741 AR741 BK741,3240 North Ashland Avenue,IL,60657
Caribou Coffee,Wauwatosa,748,748 #748 AP748 AR748 BK748,418 North Mayfair Road,WI,53226
Caribou Coffee,Chicago,753,753 #753 AP753 AR753 BK753,3500 North Halsted,IL,60657-1713
Caribou Coffee,Chicago,754,754 #754 AP754 AR754 BK754,811 West Maxwell,IL,60608-1508
Caribou Coffee,Geneva,755,755 #755 AP755 AR755 BK755,507 South Third Street,IL,60134
Caribou Coffee,Chicago,756,756 #756 AP756 AR756 BK756,41 East 8th Street,IL,60605-2168
Caribou Coffee,Chicago,762,762 #762 AP762 AR762 BK762,20 North Michigan Ave,IL,60602
Caribou Coffee,Downers Grove,765,765 #765 AP765 AR765 BK765,5100 Main Street,IL,60515
Caribou Coffee,Waukesha,772,772 #772 AP772 AR772 BK772,1890A Meadow Lane,WI,53151
Caribou Coffee,Wheaton,776,776 #776 AP776 AR776 BK776,390 West Front Street,IL,60187
Caribou Coffee,Chicago,778,778 #778 AP778 AR778 BK778,600 North Kingsbury Street,IL,60610
Caribou Coffee,Chicago,779,779 #779 AP779 AR779 BK779,200 North LaSalle Street,IL,60601
Caribou Coffee,Monona,783,783 #783 AP783 AR783 BK783,115 East Broadway,WI,53716
Caribou Coffee,Northbrook,786,786 #786 AP786 AR786 BK786,1347 Shermer Road,IL,60062
Caribou Coffee,Naperville,787,787 #787 AP787 AR787 BK787,686 East Ogden Avenue,IL,60563
Caribou Coffee,Lake Forest,788,788 #788 AP788 AR788 BK788,620-624 North Western Avenue,IL,60045
Caribou Coffee,Chicago,790,790 #790 AP790 AR790 BK790,1611 North Damen Avenue,IL,60647
Caribou Coffee,Lake Geneva,794,794 #794 AP794 AR794 BK794,883 Main Street,WI,53147
Caribou Coffee,Long Grove,798,798 #798 AP798 AR798 BK798,"4196 IL Route 83, Suite A",IL,60047
Caribou Coffee,Gambrills,802,802 #802 AP802 AR802 BK802,2638 Chapel Lake Drive,MD,21054
Caribou Coffee,Rockville,803,803 #803 AP803 AR803 BK803,5562 Norbeck Road,MD,20853
Caribou Coffee,Washington,804,804 #804 AP804 AR804 BK804,1101 17th Street NW,DC,20036
Caribou Coffee,Washington,806,806 #806 AP806 AR806 BK806,1400 14th Street Northwest,DC,20005
Caribou Coffee,Bethesda,807,807 #807 AP807 AR807 BK807,7629 Old Georgetown Road,MD,20814
Caribou Coffee,Springfield,808,808 #808 AP808 AR808 BK808,8938 Burke Lake Road,VA,22151-1004
Caribou Coffee,Silver Spring,809,809 #809 AP809 AR809 BK809,1316 East West Highway,MD,20910-3232
Caribou Coffee,Washington,810,810 #810 AP810 AR810 BK810,601 13th Street,DC,20005-3807
Caribou Coffee,Fairfax,812,812 #812 AP812 AR812 BK812,11947 Grand Commons Avenue,VA,22030
Caribou Coffee,Bristow,813,813 #813 AP813 AR813 BK813,12713 Braemar Village Plaza,VA,20136
Caribou Coffee,Washington,814,814 #814 AP814 AR814 BK814,1701 Pennsylvania Avenue,DC,20006
Caribou Coffee,Hunt Valley,818,818 #818 AP818 AR818 BK818,110 Shawan Road,MD,21030
Caribou Coffee,Bethesda,825,825 #825 AP825 AR825 BK825,7101 Democracy Boulevard,MD,20817
Caribou Coffee,Baltimore,829,829 #829 AP829 AR829 BK829,1 North Charles Street,MD,21201
Caribou Coffee,Washington,832,832 #832 AP832 AR832 BK832,1800 M Street,DC,20036
Caribou Coffee,Washington,834,834 #834 AP834 AR834 BK834,1156 15th Street,DC,20005
Caribou Coffee,Fairfax,836,836 #836 AP836 AR836 BK836,11750 Fair Oaks,VA,22033
Caribou Coffee,Ashburn,837,837 #837 AP837 AR837 BK837,42385 Ryan Road,VA,20148
Caribou Coffee,Arlington,838,838 #838 AP838 AR838 BK838,4115 South Campbell Avenue,VA,22206
Caribou Coffee,Vienna,839,839 #839 AP839 AR839 BK839,332 Maple Avenue East,VA,22180
Caribou Coffee,Fairfax,840,840 #840 AP840 AR840 BK840,3985 Pickett Road,VA,22031
Caribou Coffee,Falls Church,843,843 #843 AP843 AR843 BK843,7500 Leesburg Pike,VA,22043
Caribou Coffee,Cottage Grove,1101,1101 #1101 AP1101 AR1101 BK1101,7145 East Point Douglas Road,MN,55016
Caribou Coffee,Anoka,1102,1102 #1102 AP1102 AR1102 BK1102,3507 Round Lake Blvd,MN,55303
Caribou Coffee,Mankato,1103,1103 #1103 AP1103 AR1103 BK1103,1901 Madison Avenue,MN,56001
Caribou Coffee,Rochester,1104,1104 #1104 AP1104 AR1104 BK1104,Apache Mall,MN,55902
Caribou Coffee,Richfield,1105,1105 #1105 AP1105 AR1105 BK1105,Best Buy Corporate Headquarters (not open to the public),MN,55423-3645
Caribou Coffee,Lakeville,1106,1106 #1106 AP1106 AR1106 BK1106,17450 Kenwood Trail,MN,55044-9219
Caribou Coffee,Minneapolis,1107,1107 #1107 AP1107 AR1107 BK1107,4606 Nicollet Avenue South,MN,55409-2507
Caribou Coffee,Chaska,1108,1108 #1108 AP1108 AR1108 BK1108,160  Pioneer Trail,MN,55318
Caribou Coffee,Coon Rapids,1109,1109 #1109 AP1109 AR1109 BK1109,2022 Northdale Blvd,MN,55433-3003
Caribou Coffee,Ramsey,1110,1110 #1110 AP1110 AR1110 BK1110,14050 St. Francis Blvd,MN,55303-5926
Caribou Coffee,Eden Prairie,1111,1111 #1111 AP1111 AR1111 BK1111,13250 Technology Drive,MN,55344
Caribou Coffee,Mankato,1112,1112 #1112 AP1112 AR1112 BK1112,1850 Adams Street,MN,56001-4840
Caribou Coffee,Minnetonka,1113,1113 #1113 AP1113 AR1113 BK1113,11210 Wayzata Blvd,MN,55305-2058
Caribou Coffee,Duluth,1114,1114 #1114 AP1114 AR1114 BK1114,627 West Central Entrance,MN,55811
Caribou Coffee,Duluth,1115,1115 #1115 AP1115 AR1115 BK1115,307 Canal Park,MN,55802-2315
Caribou Coffee,Champlin,1116,1116 #1116 AP1116 AR1116 BK1116,11468 Jefferson Court,MN,55316
Caribou Coffee,Hastings,1117,1117 #1117 AP1117 AR1117 BK1117,1823 Market Blvd,MN,55033-3492
Caribou Coffee,Lakeville,1118,1118 #1118 AP1118 AR1118 BK1118,17605 Glasgow Avenue,MN,55044
Caribou Coffee,Minneapolis,1119,1119 #1119 AP1119 AR1119 BK1119,501 Washington Avenue,MN,55415-1127
Caribou Coffee,Golden Valley,1120,1120 #1120 AP1120 AR1120 BK1120,General Mills (not open to the public),MN,55426
Caribou Coffee,Edina,1121,1121 #1121 AP1121 AR1121 BK1121,6805 York Avenue South,MN,55435-2516
Caribou Coffee,Shakopee,1122,1122 #1122 AP1122 AR1122 BK1122,8048 Old Carriage Court,MN,55379
Caribou Coffee,Lakeville,1123,1123 #1123 AP1123 AR1123 BK1123,18444 Kenrick Avenue,MN,55044-9288
Caribou Coffee,Savage,1124,1124 #1124 AP1124 AR1124 BK1124,7745 Egan Drive,MN,55378-2207
Caribou Coffee,Lino Lakes,1125,1125 #1125 AP1125 AR1125 BK1125,730 Apollo Drive,MN,55014-3035
Caribou Coffee,Rochester,1126,1126 #1126 AP1126 AR1126 BK1126,101 First Avenue Southwest,MN,55902
Caribou Coffee,Bloomington,1127,1127 #1127 AP1127 AR1127 BK1127,8000 Normandale Center Drive,MN,55437
Caribou Coffee,Eden Prairie,1128,1128 #1128 AP1128 AR1128 BK1128,11611 Leona Road,MN,55344-3804
Caribou Coffee,Roseville,1129,1129 #1129 AP1129 AR1129 BK1129,1127 Larpenteur Avenue West,MN,55113
Caribou Coffee,Menomonie,1130,1130 #1130 AP1130 AR1130 BK1130,2321 Highway 25 North,WI,54751
Caribou Coffee,Onalaska,1131,1131 #1131 AP1131 AR1131 BK1131,1202 County Road PH,WI,54650
Caribou Coffee,Shakopee,1132,1132 #1132 AP1132 AR1132 BK1132,1361 Heather Street,MN,55379-3520
Caribou Coffee,Blaine,1133,1133 #1133 AP1133 AR1133 BK1133,10400 Baltimore Street,MN,55449
Caribou Coffee,Brainerd,1134,1134 #1134 AP1134 AR1134 BK1134,425 - 8th Ave Northeast,MN,56401-2806
Caribou Coffee,Duluth,1135,1135 #1135 AP1135 AR1135 BK1135,1600 Miller Trunk Highway,MN,55811-5640
Caribou Coffee,St. Paul,1136,1136 #1136 AP1136 AR1136 BK1136,68 Snelling Avenue South,MN,55105-1901
Caribou Coffee,Grand Forks,1137,1137 #1137 AP1137 AR1137 BK1137,2400 South Washington Street,ND,58201
Caribou Coffee,Bemidji,1138,1138 #1138 AP1138 AR1138 BK1138,Paul Bunyan Drive &  Hwy 197,MN,56601
Caribou Coffee,Brooklyn Park,1139,1139 #1139 AP1139 AR1139 BK1139,7635 Jolly Lane,MN,55428-1221
Caribou Coffee,Arden Hills,1140,1140 #1140 AP1140 AR1140 BK1140,3673 Lexington Avenue North,MN,55126
Caribou Coffee,Brooklyn Center,1141,1141 #1141 AP1141 AR1141 BK1141,3900 Lakebreeze Avenue North,MN,55429
Caribou Coffee,White Bear Lake,1142,1142 #1142 AP1142 AR1142 BK1142,1080 Highway 96,MN,55127
Caribou Coffee,Crystal,1143,1143 #1143 AP1143 AR1143 BK1143,351 Willow Bend,MN,55428-3969
Caribou Coffee,St. Paul,1144,1144 #1144 AP1144 AR1144 BK1144,1817 Randolph Avenue,MN,55105-2157
Caribou Coffee,Inver Grove Heights,1145,1145 #1145 AP1145 AR1145 BK1145,9008 Cahill Avenue,MN,55077
Caribou Coffee,Baxter,1146,1146 #1146 AP1146 AR1146 BK1146,15175 Edgewood Drive,MN,56425
Caribou Coffee,Fargo,1148,1148 #1148 AP1148 AR1148 BK1148,1450 - 25th Street SW,ND,58103
Caribou Coffee,St. Louis Park,1149,1149 #1149 AP1149 AR1149 BK1149,8208 Highway 7,MN,55426
Caribou Coffee,Edina,1151,1151 #1151 AP1151 AR1151 BK1151,3945 West 50th Street,MN,55435
Caribou Coffee,Woodbury,1152,1152 #1152 AP1152 AR1152 BK1152,9955-9965 Hudson Place,MN,55125
Caribou Coffee,Orono,1153,1153 #1153 AP1153 AR1153 BK1153,3333 Shoreline Drive,MN,55391
Caribou Coffee,Sioux City,1155,1155 #1155 AP1155 AR1155 BK1155,2799 Hamilton Boulevard,IA,51104-4049
Caribou Coffee,Alexandria,1156,1156 #1156 AP1156 AR1156 BK1156,4911 Highway 29,MN,56308
Caribou Coffee,Grand Rapids,1157,1157 #1157 AP1157 AR1157 BK1157,2020 South Pokegama Avenue,MN,55744
Caribou Coffee,Burnsville,1158,1158 #1158 AP1158 AR1158 BK1158,12601 Nicollet Avenue,MN,55337
Caribou Coffee,Maple Grove,1160,1160 #1160 AP1160 AR1160 BK1160,12850 Bass Lake Road,MN,55369
Caribou Coffee,Monticello,1161,1161 #1161 AP1161 AR1161 BK1161,100 6th Street,MN,55362
Caribou Coffee,Northfield,1162,1162 #1162 AP1162 AR1162 BK1162,400 West 5th Street,MN,55057
Caribou Coffee,Tonka Bay,1164,1164 #1164 AP1164 AR1164 BK1164,5663 Manitou Road,MN,55331
Caribou Coffee,Rogers,1165,1165 #1165 AP1165 AR1165 BK1165,13635 Northdale Boulevard,MN,55374
Caribou Coffee,St. Paul,1166,1166 #1166 AP1166 AR1166 BK1166,2340 West 7th Street,MN,55116
Caribou Coffee,Oakdale,1167,1167 #1167 AP1167 AR1167 BK1167,8360 3rd Street North,MN,55128
Caribou Coffee,New Hope,1168,1168 #1168 AP1168 AR1168 BK1168,9420 36th Avenue North,MN,55427
Caribou Coffee,St. Anthony,1169,1169 #1169 AP1169 AR1169 BK1169,2700 39th Avenue NE  #A120,MN,55421
Caribou Coffee,Mendota Heights,1172,1172 #1172 AP1172 AR1172 BK1172,720 Main Street,MN,55118
Caribou Coffee,Mounds View,1173,1173 #1173 AP1173 AR1173 BK1173,2585 County Road 10,MN,55112
Caribou Coffee,West Fargo,1175,1175 #1175 AP1175 AR1175 BK1175,1625 13th Avenue East,ND,58078
Caribou Coffee,Cherry Hills,1176,1176 #1176 AP1176 AR1176 BK1176,1400 East Hampden Avenue,CO,80113
Caribou Coffee,Big Lake,1178,1178 #1178 AP1178 AR1178 BK1178,726 Martin Avenue,MN,55309
Caribou Coffee,Albertville,1182,1182 #1182 AP1182 AR1182 BK1182,11008 61st Street Northeast,MN,55301
Caribou Coffee,Andover,1183,1183 #1183 AP1183 AR1183 BK1183,1966 Bunker Lake Boulevard NW,MN,55304
Caribou Coffee,Shorewood,1184,1184 #1184 AP1184 AR1184 BK1184,23520 Highway 7,MN,55331
Caribou Coffee,Rochester,1185,1185 #1185 AP1185 AR1185 BK1185,1148 Second Street,MN,55902
Caribou Coffee,Red Wing,1186,1186 #1186 AP1186 AR1186 BK1186,726 Main Street,MN,55066
Caribou Coffee,Coralville,1187,1187 #1187 AP1187 AR1187 BK1187,2445 2nd Street,IA,52241
Caribou Coffee,Hibbing,1188,1188 #1188 AP1188 AR1188 BK1188,4100 9th Avenue Northwest,MN,55746
Caribou Coffee,Cambridge,1189,1189 #1189 AP1189 AR1189 BK1189,1595 Second Avenue Northeast,MN,55008
Caribou Coffee,Ramsey,1190,1190 #1190 AP1190 AR1190 BK1190,7988 Sunwood Drive NW,MN,55303
Caribou Coffee,Minneapolis,1191,1191 #1191 AP1191 AR1191 BK1191,100 South 5th Street,MN,55402
Caribou Coffee,Long Lake,1192,1192 #1192 AP1192 AR1192 BK1192,2073 West Wayzata Boulevard,MN,55356
Caribou Coffee,Clive,1193,1193 #1193 AP1193 AR1193 BK1193,12655 University Avenue,IA,50325
Caribou Coffee,Englewood,1194,1194 #1194 AP1194 AR1194 BK1194,12624 Washington Lane,CO,80112
Caribou Coffee,West Des Moines,1195,1195 #1195 AP1195 AR1195 BK1195,5545 Mills Civic Parkway,IA,50266
Caribou Coffee,St. Cloud,1196,1196 #1196 AP1196 AR1196 BK1196,4135 West Division Street,MN,56301
Caribou Coffee,Maplewood,1197,1197 #1197 AP1197 AR1197 BK1197,3100 White Bear Avenue North,MN,55109
Caribou Coffee,Des Moines,1200,1200 #1200 AP1200 AR1200 BK1200,3220 Ingersoll Avenue,IA,50312
Caribou Coffee,Little Canada,1201,1201 #1201 AP1201 AR1201 BK1201,3354 Rice Street,MN,55126
Caribou Coffee,Westminster,1202,1202 #1202 AP1202 AR1202 BK1202,2721 West 120th Avenue,CO,80031
Caribou Coffee,Sioux Falls,1203,1203 #1203 AP1203 AR1203 BK1203,1924 South Minnesota Avenue,SD,57105
Caribou Coffee,Inver Grove Heights,1205,1205 #1205 AP1205 AR1205 BK1205,5743 Blaine Avenue,MN,55076
Caribou Coffee,Burnsville,1208,1208 #1208 AP1208 AR1208 BK1208,2001 Cliff Road East,MN,55337
Caribou Coffee,Elk River,1211,1211 #1211 AP1211 AR1211 BK1211,19425 Evans Street Northwest,MN,55330
Caribou Coffee,Plymouth,1213,1213 #1213 AP1213 AR1213 BK1213,10160 6th Avenue North,MN,55411
Caribou Coffee,Duluth,1214,1214 #1214 AP1214 AR1214 BK1214,1600 Woodland Avenue,MN,55803
Caribou Coffee,Aurora,1216,1216 #1216 AP1216 AR1216 BK1216,13700 East Colfax,CO,80011
Caribou Coffee,Minneapolis,1218,1218 #1218 AP1218 AR1218 BK1218,1730 New Brighton Boulevard,MN,55413
Caribou Coffee,Alexandria,1219,1219 #1219 AP1219 AR1219 BK1219,Nokomis Square,MN,56308
Caribou Coffee,Sioux Falls,1220,1220 #1220 AP1220 AR1220 BK1220,4001 West 41st Street,SD,57106
Caribou Coffee,Maple Grove,1221,1221 #1221 AP1221 AR1221 BK1221,11627 Fountains Drive North,MN,55369
Caribou Coffee,Minnetonka,1222,1222 #1222 AP1222 AR1222 BK1222,14444 Excelsior Boulevard,MN,55345
Caribou Coffee,Eagan,1223,1223 #1223 AP1223 AR1223 BK1223,2864 Highway 55,MN,55121
Caribou Coffee,Osseo,1225,1225 #1225 AP1225 AR1225 BK1225,8881 Jefferson Highway,MN,55369
Caribou Coffee,Willmar,1226,1226 #1226 AP1226 AR1226 BK1226,2319 1st Street South,MN,56201
Caribou Coffee,Owatonna,1227,1227 #1227 AP1227 AR1227 BK1227,2350 43rd Street NW #105,MN,55060
Caribou Coffee,Brooklyn Park,1229,1229 #1229 AP1229 AR1229 BK1229,9638 Colorado Lane North,MN,55445
Caribou Coffee,Minnetonka,1231,1231 #1231 AP1231 AR1231 BK1231,3434 County Road 101,MN,55343
Caribou Coffee,St. Louis Park,1232,1232 #1232 AP1232 AR1232 BK1232,5551 Lake Street,MN,55416
Caribou Coffee,Bloomington,1234,1234 #1234 AP1234 AR1234 BK1234,7950 Penn Avenue South,MN,55431
Caribou Coffee,Spring Lake Park,1235,1235 #1235 AP1235 AR1235 BK1235,8097 Highway 65,MN,55432
Caribou Coffee,Merriam,1238,1238 #1238 AP1238 AR1238 BK1238,8722 Shawnee Mission Parkway,KS,66202
Caribou Coffee,Rochester,1239,1239 #1239 AP1239 AR1239 BK1239,Kahler Inn,MN,55901
Caribou Coffee,Chaska,1243,1243 #1243 AP1243 AR1243 BK1243,1004 Gateway Drive,MN,55318
Caribou Coffee,Kansas City,1244,1244 #1244 AP1244 AR1244 BK1244,6370 North Lucerne,MO,64151
Caribou Coffee,Minnetonka,1245,1245 #1245 AP1245 AR1245 BK1245,11400 Highway 7,MN,55343
Caribou Coffee,Plymouth,1246,1246 #1246 AP1246 AR1246 BK1246,4345 Nathan Lane North,MN,55442
Caribou Coffee,St. Cloud,1249,1249 #1249 AP1249 AR1249 BK1249,2510 West Division Street,MN,56301
Caribou Coffee,Roseville,1250,1250 #1250 AP1250 AR1250 BK1250,2111 Snelling Avenue North,MN,55113
Caribou Coffee,Chicago,1251,1251 #1251 AP1251 AR1251 BK1251,222 South Riverside,IL,60606
Caribou Coffee,Minneapolis,1252,1252 #1252 AP1252 AR1252 BK1252,Hubert H. Humphrey Terminal,MN,55450
Caribou Coffee,Minneapolis,1253,1253 #1253 AP1253 AR1253 BK1253,25 University Avenue Southeast,MN,55414
Caribou Coffee,Minneapolis,1257,1257 #1257 AP1257 AR1257 BK1257,917 Washington Avenue SE,MN,55414
Caribou Coffee,Elk River,1258,1258 #1258 AP1258 AR1258 BK1258,18157 Carson Court,MN,55330
Caribou Coffee,Minnetonka,1259,1259 #1259 AP1259 AR1259 BK1259,"6001 Shady Oak Road, Suite 300",MN,55343
Caribou Coffee,Maplewood,1260,1260 #1260 AP1260 AR1260 BK1260,1720 Rice Street,MN,55113
Caribou Coffee,Westminster,1263,1263 #1263 AP1263 AR1263 BK1263,10611 Westminster Boulevard,CO,80020
Caribou Coffee,Plymouth,1264,1264 #1264 AP1264 AR1264 BK1264,"2720 Annapolis Circle, Suite F",MN,55441
Caribou Coffee,Minneapolis,1265,1265 #1265 AP1265 AR1265 BK1265,4745 Cedar Avenue South,MN,55407
Caribou Coffee,St. Paul,1267,1267 #1267 AP1267 AR1267 BK1267,230 Spring Street,MN,55102
Caribou Coffee,Monticello,1268,1268 #1268 AP1268 AR1268 BK1268,1523 7th Street East,MN,55362
Caribou Coffee,Minneapolis,1270,1270 #1270 AP1270 AR1270 BK1270,900 2nd Avenue South,MN,55402
Caribou Coffee,Rochester,1271,1271 #1271 AP1271 AR1271 BK1271,4662 Maine Avenue SE,MN,55904
Caribou Coffee,Roseville,1272,1272 #1272 AP1272 AR1272 BK1272,2218 County Road D,MN,55112
Caribou Coffee,St. Paul,1273,1273 #1273 AP1273 AR1273 BK1273,Medtronic (not open to the public),MN,55112
Caribou Coffee,Richfield,1274,1274 #1274 AP1274 AR1274 BK1274,1700 66th Street East,MN,55423
Caribou Coffee,Medina,1275,1275 #1275 AP1275 AR1275 BK1275,325 Clydesdale Trail,MN,55340
Caribou Coffee,Mound,1276,1276 #1276 AP1276 AR1276 BK1276,5401 Shoreline Drive,MN,55364
Caribou Coffee,St. Louis Park,1277,1277 #1277 AP1277 AR1277 BK1277,5330 Cedar Lake Road,MN,55416
Caribou Coffee,Minneapolis,1280,1280 #1280 AP1280 AR1280 BK1280,1201 Hennepin Avenue,MN,55403
Caribou Coffee,Oakbrook Terrace,1281,1281 #1281 AP1281 AR1281 BK1281,17W633 Roosevelt Road,IL,60181
Caribou Coffee,Arlington Heights,1282,1282 #1282 AP1282 AR1282 BK1282,1017 W. Dundee Road,IL,60004
Caribou Coffee,Oakdale,1283,1283 #1283 AP1283 AR1283 BK1283,7009 10th Street North,MN,55128
Caribou Coffee,Minnetonka,1287,1287 #1287 AP1287 AR1287 BK1287,4754 Country Road 101,MN,55345
Caribou Coffee,Ankeny,1289,1289 #1289 AP1289 AR1289 BK1289,909 SE Oralabor Road,IA,50021
Caribou Coffee,Eau Claire,1290,1290 #1290 AP1290 AR1290 BK1290,4732 Golf Road,WI,54701
Caribou Coffee,Denver,1291,1291 #1291 AP1291 AR1291 BK1291,951 16th Street Mall,CO,80202
Caribou Coffee,Eau Claire,1292,1292 #1292 AP1292 AR1292 BK1292,2112 Hastings Way,WI,54701
Caribou Coffee,Minneapolis,1293,1293 #1293 AP1293 AR1293 BK1293,7150 Humphrey Drive,MN,55450
Caribou Coffee,Detroit,8003,8003 #8003 AP8003 AR8003 BK8003,Detroit Metropolitan Wayne County Airport McNamara Terminal,MI,48242
Caribou Coffee,Atlanta,8031,8031 #8031 AP8031 AR8031 BK8031,Hartsfield-Jackson Atlanta International Airport,GA,30320
Caribou Coffee,Manhattan,8060,8060 #8060 AP8060 AR8060 BK8060,121 K-State Student Union,KS,66506
Caribou Coffee,Ames,8061,8061 #8061 AP8061 AR8061 BK8061,The Hub,IA,50011
Caribou Coffee,Indianapolis,8069,8069 #8069 AP8069 AR8069 BK8069,Indiana University Campus Center,IN,46202
Caribou Coffee,Champaign,8070,8070 #8070 AP8070 AR8070 BK8070,2901 Kirby,IL,61821
Caribou Coffee,SPRINGFIELD,8071,8071 #8071 AP8071 AR8071 BK8071,3001 S VETERANS PKY,IL,62704
Caribou Coffee,Grand Island,8072,8072 #8072 AP8072 AR8072 BK8072,115 Wilmar Avenue,NE,68803
Caribou Coffee,Des Moines,8073,8073 #8073 AP8073 AR8073 BK8073,4605 Fleur Drive,IA,50321
Caribou Coffee,Fargo,8076,8076 #8076 AP8076 AR8076 BK8076,4151 45th Street South,ND,58104
Caribou Coffee,Fargo,8077,8077 #8077 AP8077 AR8077 BK8077,4101 13th Avenue South,ND,58103
Caribou Coffee,Fargo,8078,8078 #8078 AP8078 AR8078 BK8078,1532 32nd Avenue South,ND,58103
Caribou Coffee,Lincoln,8079,8079 #8079 AP8079 AR8079 BK8079,1601 North 84th Street,NE,68505
Caribou Coffee,Lincoln,8081,8081 #8081 AP8081 AR8081 BK8081,5010 O Street,NE,68510
Caribou Coffee,Quincy,8083,8083 #8083 AP8083 AR8083 BK8083,4830 Broadway,IL,62301
Caribou Coffee,Auburn University,8089,8089 #8089 AP8089 AR8089 BK8089,231 Mell Street,AL,36849
Caribou Coffee,Kearney,8092,8092 #8092 AP8092 AR8092 BK8092,1616 - 2nd Avenue,NE,68847
Caribou Coffee,Hudson,8098,8098 #8098 AP8098 AR8098 BK8098,2351 Coulee Road,WI,54016
Caribou Coffee,Sauk Rapids,8100,8100 #8100 AP8100 AR8100 BK8100,110 First Street South,MN,56379
Caribou Coffee,West Bloomfield,8107,8107 #8107 AP8107 AR8107 BK8107,6777 West Maple Road,MI,48322
Caribou Coffee,Altoona,8110,8110 #8110 AP8110 AR8110 BK8110,100 8th Street. SW,IA,50009
Caribou Coffee,Rochester,8118,8118 #8118 AP8118 AR8118 BK8118,1315 6th Street NW,MN,55901
Caribou Coffee,Champaign,8120,8120 #8120 AP8120 AR8120 BK8120,331 Stoughton Street,IL,61820
Caribou Coffee,Moline,8121,8121 #8121 AP8121 AR8121 BK8121,750 - 42nd Avenue Drive,IL,61265
Caribou Coffee,Auburn,8125,8125 #8125 AP8125 AR8125 BK8125,2030 Connector Street,AL,36849
Caribou Coffee,Charlotte,8128,8128 #8128 AP8128 AR8128 BK8128,2001 Vail Avenue,NC,28207
Caribou Coffee,Mission,8129,8129 #8129 AP8129 AR8129 BK8129,6655 Martway,KS,66202
Caribou Coffee,Kansas City,8131,8131 #8131 AP8131 AR8131 BK8131,8301 North Saint Clair Avenue,MO,64151
Caribou Coffee,Manhattan,8134,8134 #8134 AP8134 AR8134 BK8134,601 Third Place,KS,66502
Caribou Coffee,Watertown,8136,8136 #8136 AP8136 AR8136 BK8136,1320 - 9th Avenue SE,SD,57201
Caribou Coffee,Columbia,8146,8146 #8146 AP8146 AR8146 BK8146,405 East Nifong Blvd,MO,65201
Caribou Coffee,Lincoln,8147,8147 #8147 AP8147 AR8147 BK8147,6001 Village Drive,NE,68516
Caribou Coffee,Columbia,8153,8153 #8153 AP8153 AR8153 BK8153,25 Conley Road,MO,65201
Caribou Coffee,Omaha,8154,8154 #8154 AP8154 AR8154 BK8154,14591 Stony Brook Boulevard,NE,68137
Caribou Coffee,Mishawaka,8162,8162 #8162 AP8162 AR8162 BK8162,314 N. Ironwood Dr.,IN,46544
Caribou Coffee,Charlotte,8163,8163 #8163 AP8163 AR8163 BK8163,1000 Blythe Boulevard,NC,28203
Caribou Coffee,Council Bluffs,8165,8165 #8165 AP8165 AR8165 BK8165,2323 West Broadway,IA,51501
Caribou Coffee,Liberty,8166,8166 #8166 AP8166 AR8166 BK8166,109 N Blue Jay Dr.,MO,64068
Caribou Coffee,St. Joseph,8167,8167 #8167 AP8167 AR8167 BK8167,201 N Belt Hwy,MO,64506
Caribou Coffee,Worthington,8169,8169 #8169 AP8169 AR8169 BK8169,1235 Oxford Street,MN,56187
Caribou Coffee,Stillwater,8171,8171 #8171 AP8171 AR8171 BK8171,470 Student Union,OK,74078
Caribou Coffee,Stevensville,8172,8172 #8172 AP8172 AR8172 BK8172,5637 Cleveland Avenue,MI,49127
Caribou Coffee,Sioux Falls,8173,8173 #8173 AP8173 AR8173 BK8173,1231 E. 57th Street,SD,57108
Caribou Coffee,Omaha,8176,8176 #8176 AP8176 AR8176 BK8176,747 North 132nd St,NE,68154
Caribou Coffee,Austin,8177,8177 #8177 AP8177 AR8177 BK8177,1001 18th Avenue NW,MN,55912
Caribou Coffee,Walcott,8182,8182 #8182 AP8182 AR8182 BK8182,755 W. Iowa Rd.,IA,52773
Caribou Coffee,Albert Lea,8183,8183 #8183 AP8183 AR8183 BK8183,2708 Bridge Street,MN,56007
Caribou Coffee,Charlotte,8184,8184 #8184 AP8184 AR8184 BK8184,10628 Park Road,NC,28210
Caribou Coffee,Sycamore,8185,8185 #8185 AP8185 AR8185 BK8185,2700 DeKalb Ave,IL,60178
Caribou Coffee,Springfield,8193,8193 #8193 AP8193 AR8193 BK8193,1720 W Battlefield Road,MO,65807
Caribou Coffee,Kansas City,8194,8194 #8194 AP8194 AR8194 BK8194,5330 NW 64th St.,MO,64151
Caribou Coffee,Blue Springs,8201,8201 #8201 AP8201 AR8201 BK8201,625 Wesy Highway 40,MO,64014
Caribou Coffee,Omaha,8202,8202 #8202 AP8202 AR8202 BK8202,1000 South 178th Street,NE,68118
Caribou Coffee,Eau Claire,8203,8203 #8203 AP8203 AR8203 BK8203,1201 South Hastings Way,WI,54701
Caribou Coffee,Burbank,8204,8204 #8204 AP8204 AR8204 BK8204,47051 Highway 50,SD,57010
Caribou Coffee,Lawrence,8205,8205 #8205 AP8205 AR8205 BK8205,3504 Clinton Parkway,KS,66047
Caribou Coffee,Quincy,8207,8207 #8207 AP8207 AR8207 BK8207,520 N 24th Street,IL,62301
Caribou Coffee,Mitchell,8214,8214 #8214 AP8214 AR8214 BK8214,1305 West Havens,SD,57301
Caribou Coffee,Waverly,8232,8232 #8232 AP8232 AR8232 BK8232,1311 4th Street Southwest,IA,50677
Caribou Coffee,Faribault,8233,8233 #8233 AP8233 AR8233 BK8233,1920 Grant Stree Northwest,MN,55021
Caribou Coffee,Fairmont,8235,8235 #8235 AP8235 AR8235 BK8235,907 South State Street,MN,56031
Caribou Coffee,JOPLIN,8237,8237 #8237 AP8237 AR8237 BK8237,4240 Highway 43,MO,64801
Caribou Coffee,Kenly,8238,8238 #8238 AP8238 AR8238 BK8238,I-95,NC,27542
Caribou Coffee,Bloomington,8253,8253 #8253 AP8253 AR8253 BK8253,1 State Farm Plaza,IL,61710
Caribou Coffee,Atlanta,8254,8254 #8254 AP8254 AR8254 BK8254,Hartsfield-Jackson Atlanta International Airport,GA,30337
Caribou Coffee,Morton,8269,8269 #8269 AP8269 AR8269 BK8269,39375 County Highway 24,MN,56270
Caribou Coffee,Fairfield,8292,8292 #8292 AP8292 AR8292 BK8292,1310 West Burlington Ave.,IA,52556
Caribou Coffee,Kansas City,8294,8294 #8294 AP8294 AR8294 BK8294,8371 N St Clair Ave,MO,64151
Caribou Coffee,Liberty,8295,8295 #8295 AP8295 AR8295 BK8295,200 N Hwy 291,MO,64068
Caribou Coffee,Sartell,8296,8296 #8296 AP8296 AR8296 BK8296,1725 Pine Cone Road South,MN,56377
Caribou Coffee,Denver,8298,8298 #8298 AP8298 AR8298 BK8298,5073 S Syracuse St.,CO,80237
Caribou Coffee,Summit,8299,8299 #8299 AP8299 AR8299 BK8299,45789 US Highway 12,SD,57266
Caribou Coffee,Springfield,8301,8301 #8301 AP8301 AR8301 BK8301,210 East Carpenter Street,IL,62702
Caribou Coffee,Findlay,8315,8315 #8315 AP8315 AR8315 BK8315,2021 Broad Avenue,OH,45840
Caribou Coffee,Peru,8317,8317 #8317 AP8317 AR8317 BK8317,3130 May Road,IL,61357
Caribou Coffee,Percival,8318,8318 #8318 AP8318 AR8318 BK8318,2496 210th Avenue,IA,51648
Caribou Coffee,Cedar Rapids,8323,8323 #8323 AP8323 AR8323 BK8323,202 10th Street SE,IA,52401
Caribou Coffee,Overland Park,8324,8324 #8324 AP8324 AR8324 BK8324,8501 West 95th St,KS,66212
Caribou Coffee,St. Peter,8342,8342 #8342 AP8342 AR8342 BK8342,612 South Minnesota Ave,MN,56082
Caribou Coffee,Sugar Land,8352,8352 #8352 AP8352 AR8352 BK8352,13833 U.S. 59,TX,77478
Caribou Coffee,Minneapolis,122,122 #122 AP122 AR122 BK122,MSP Airport,MN,55111
Caribou Coffee,Bloomington,140,140 #140 AP140 AR140 BK140,Mall of America,MN,55425
Caribou Coffee,St. Paul,191,191 #191 AP191 AR191 BK191,56 East 6th Street,MN,55101
Caribou Coffee,Raleigh,312,312 #312 AP312 AR312 BK312,3300 Duraleigh Road,NC,27612
Caribou Coffee,St. Paul,1174,1174 #1174 AP1174 AR1174 BK1174,4300 Glumack Drive,MN,55111
Caribou Coffee,Minneapolis,1279,1279 #1279 AP1279 AR1279 BK1279,555 Nicollet Mall,MN,55402
Caribou Coffee,Oakdale,1288,1288 #1288 AP1288 AR1288 BK1288,6014 Highway 36,MN,55128
Caribou Coffee,Lakewood,1294,1294 #1294 AP1294 AR1294 BK1294,14630 W. Colfax Ave,CO,80401
Caribou Coffee,Anoka,1295,1295 #1295 AP1295 AR1295 BK1295,101 West Main Street,MN,55303
Caribou Coffee,Detroit Lakes,1298,1298 #1298 AP1298 AR1298 BK1298,139 Veterans Memorial Parkway,MN,56501
Caribou Coffee,Bloomington,1299,1299 #1299 AP1299 AR1299 BK1299,Mall of America S226,MN,55425
Caribou Coffee,West Des Moines,1301,1301 #1301 AP1301 AR1301 BK1301,1551 Valley West Drive,IA,50266
Caribou Coffee,Richmond,8014,8014 #8014 AP8014 AR8014 BK8014,Richmond International Airport,VA,23250
Caribou Coffee,Denver,8045,8045 #8045 AP8045 AR8045 BK8045,8500 Pea Blvd,CO,80249
Caribou Coffee,Detroit,8074,8074 #8074 AP8074 AR8074 BK8074,Detroit Metropolitan Wayne County Airport,MI,48242
Caribou Coffee,Overland Park,8280,8280 #8280 AP8280 AR8280 BK8280,9050 W 135th Street,KS,66221
Caribou Coffee,Detroit,8282,8282 #8282 AP8282 AR8282 BK8282,Detroit Metro Airport,MI,48242
Caribou Coffee,Boulder,8297,8297 #8297 AP8297 AR8297 BK8297,1207 Pearl St,CO,80302
Caribou Coffee,Warroad,8353,8353 #8353 AP8353 AR8353 BK8353,310 Main Avenue,MN,56763
Caribou Coffee,St. Paul,8357,8357 #8357 AP8357 AR8357 BK8357,2133 Hudson Road,MN,55119
Caribou Coffee,Fargo,8359,8359 #8359 AP8359 AR8359 BK8359,1433 South University Drive,ND,58103
Caribou Coffee,River Falls,8371,8371 #8371 AP8371 AR8371 BK8371,303 S. Main St.,WI,54022
Caribou Coffee,Waterloo,AP8350,8350 #8350 AP8350 AR8350 BK8350,3700 University Avenue,IA,50701
Caribou Coffee,St. Joseph,AP8354,8354 #8354 AP8354 AR8354 BK8354,205 North Belt Highway,MO,64506
Caribou Coffee,Pleasant Hill,AP8355,8355 #8355 AP8355 AR8355 BK8355,4910 Maple Dr,IA,50327
Caribou Coffee,Fargo,AR8360,8360 #8360 AP8360 AR8360 BK8360,2510 Broadway,ND,58102
Caribou Coffee,Minneapolis,BK8316,8316 #8316 AP8316 AR8316 BK8316,515 Delaware Street SE,MN,55455
