keywords,city,Aggdata Store Number,store_number,address,state,zip_code
Casual Male XL,Rochester,1174,#1174,951 Jefferson Road,NY,14623
Casual Male XL,Manhattan,1292,#1292,1830 South Road,NY,12601
Casual Male XL,Pleasant Hill,1417,#1417,4938 S. Staples Street,TX,78411
Casual Male XL,Lakewood,1540,#1540,695 6th Avenue,NY,10010
Casual Male XL,San Francisco,1708,#1708,651 Contra Costa Blvd,CA,94523
Casual Male XL,Beverly Hills,1746,#1746,4437 Candlewood Street,CA,90712
Casual Male XL,Boston,5000,#5000,700 Mission Street,CA,94103
Casual Male XL,New York,5008,#5008,9737 Wilshire Blvd,CA,90212
Casual Male XL,Dallas,5012,#5012,399 Boylston Street,MA,2116
Casual Male XL,Washington,5013,#5013,1301 Avenue Of The Americas,NY,10019
Casual Male XL,Aventura,5014,#5014,11661 Preston Road,TX,75230
Casual Male XL,Manhasset,5016,#5016,1020 Connecticut Avenue NW,DC,20036
Casual Male XL,Boca Raton,5025,#5025,18801-A Biscayne Blvd,FL,33180
Casual Male XL,Chicago,5029,#5029,1625 Northern Boulevard,NY,11030
Casual Male XL,Atlanta,5103,#5103,2301 Glades Road,FL,33431
Casual Male XL,Lenexa,9011,#9011,113 East Chicago Avenue,IL,60611
Casual Male XL,Vernon Hills,9015,#9015,3157 Peachtree Rd North East,GA,30305
Casual Male XL,Columbus,9053,#9053,9702 Quivira Road,KS,66215
Casual Male XL,Memphis,9054,#9054,701 North Milwaukee Avenue,IL,60061
Casual Male XL,Saint Louis,9055,#9055,1113 Kenney Center,OH,43220
Casual Male XL,Lathrup Village,9056,#9056,847 S White Station Road,TN,38117
Casual Male XL,Allen Park,9058,#9058,1026 S Brentwood Blvd,MO,63117
Casual Male XL,Novi,9059,#9059,26300 Southfield Road,MI,48076
Casual Male XL,Sterling Heights,9060,#9060,3480 Fairlane Drive,MI,48101
Casual Male XL,Totowa,9063,#9063,43263 Crescent Blvd.,MI,48375
Casual Male XL,Menlo Park,9064,#9064,13967 Lakeside Circle,MI,48313
Casual Male XL,Rockville,9066,#9066,540 Us Highway 46,NJ,7512
Casual Male XL,Mesquite,9067,#9067,236 Lafayette Road,NJ,8837
Casual Male XL,Houston,9070,#9070,11503-A Rockville Pike,MD,20852
Casual Male XL,Arlington,9072,#9072,1725 N Town East Blvd,TX,75150
Casual Male XL,Escondido,9074,#9074,5393 Westheimer Road,TX,77056
Casual Male XL,Northridge,9076,#9076,4100 S Cooper Street,TX,76015
Casual Male XL,Columbia,9080,#9080,1004 West Valley Parkway #23,CA,92025
Casual Male XL,Warwick,9082,#9082,19422 Nordhoff Street,CA,91324
Casual Male XL,North Dartmouth,9084,#9084,"6435 Dobbin Road, Unit 26",MD,21045
Casual Male XL,Tyngsboro,9105,#9105,800 Bald Hill Road,RI,2886
Casual Male XL,Hometown,9112,#9112,21 Faunce Corner Rd,MA,2747
Casual Male XL,Oakbrook Terrace,9117,#9117,440 Middlesex Road,MA,1879
Casual Male XL,Newport News,9119,#9119,8735 S Cicero Ave,IL,60456
Casual Male XL,Greenwood,9120,#9120,17 W 180 22Nd Street,IL,60181
Casual Male XL,Tonawanda,9123,#9123,12233 Jefferson Avenue,VA,23602
Casual Male XL,Columbia,9127,#9127,723 US Highway 31 N,IN,46142
Casual Male XL,North Charleston,9131,#9131,1228-1230 Niagara Falls Bvld,NY,14150
Casual Male XL,Hanover,9137,#9137,1005 Bower Parkway,SC,29212
Casual Male XL,West Springfield,9139,#9139,7620 Rivers Avenue,SC,29406
Casual Male XL,Mebane,9142,#9142,1410 Washington Street,MA,2339
Casual Male XL,Albany,9144,#9144,223-227 Memorial Avenue,MA,1089
Casual Male XL,Myrtle Beach,9147,#9147,4000 Arrowhead Blvd,NC,27302
Casual Male XL,Oklahoma City,9149,#9149,110 Wolf Road,NY,12205
Casual Male XL,Madison,9152,#9152,4630 Factory Stores Blvd,SC,29579
Casual Male XL,Woodbridge,9155,#9155,5401 N. May Avenue,OK,73112
Casual Male XL,Dedham,9157,#9157,2021 Gallatin Pike North,TN,37115
Casual Male XL,Niagara Falls,9159,#9159,13289 Worth Avenue,VA,22192
Casual Male XL,Merrillville,9160,#9160,735 Providence Hwy,MA,2026
Casual Male XL,Orlando,9161,#9161,242 Andover Street,MA,1960
Casual Male XL,Rochester,9166,#9166,1630 Military Road,NY,14304
Casual Male XL,Milford,9171,#9171,2217A E 80Th Avenue,IN,46410
Casual Male XL,Greensboro,9172,#9172,5728 International Drive,FL,32819
Casual Male XL,Virginia Beach,9174,#9174,3333 W Henrietta Rd,NY,14623
Casual Male XL,Paramus,9175,#9175,1501 Boston Post Road,CT,6460
Casual Male XL,Union,9176,#9176,3806-A High Point Road,NC,27407
Casual Male XL,Roseville,9178,#9178,"116 South Independence Boulevard, Suite 106",VA,23462
Casual Male XL,Greenfield,9180,#9180,450 N State St Route 17,NJ,7652
Casual Male XL,Salem,9186,#9186,2456 US Hwy 22,NJ,7083
Casual Male XL,Lake Grove,9187,#9187,"2480 Fairview Ave. N, Space 145",MN,55113
Casual Male XL,Brookfield,9190,#9190,4751 S 76Th Street,WI,53220
Casual Male XL,Burlington,9191,#9191,346 S Broadway,NH,3079
Casual Male XL,Toms River,9193,#9193,137 Alexander Avenue,NY,11755
Casual Male XL,Minnetonka,9194,#9194,17445 W. Bluemound Road,WI,53045
Casual Male XL,Pleasant Prairie,9197,#9197,91 Middlesex Turnpike,MA,1803
Casual Male XL,Nanuet,9199,#9199,1232 Hooper Avenue,NJ,8753
Casual Male XL,Mishawaka,9201,#9201,1501 Plymouth Road,MN,55305
Casual Male XL,Yonkers,9202,#9202,11601 108Th St Suite 528,WI,53158
Casual Male XL,Ann Arbor,9204,#9204,38 Rockland Plaza,NY,10954
Casual Male XL,Brooklyn,9205,#9205,5776 Grape Rd,IN,46545
Casual Male XL,Fairless Hills,9207,#9207,2369 Central Park Ave,NY,10710
Casual Male XL,Columbus,9208,#9208,3576 Washtenaw Avenue,MI,48104
Casual Male XL,North Olmsted,9211,#9211,2472 Flatbush Avenue,NY,11234
Casual Male XL,Antioch,9213,#9213,625 Commerce Blvd,PA,19030
Casual Male XL,Wichita,9217,#9217,1154 Polaris Parkway,OH,43240
Casual Male XL,Saginaw,9220,#9220,4626 Great Northern Boulevard,OH,44070
Casual Male XL,Glen Burnie,9221,#9221,5295 Hickory Hollow Parkway,TN,37013
Casual Male XL,Taylor,9223,#9223,8303 East Kellogg Street,KS,67207
Casual Male XL,Lincoln,9224,#9224,4434 Bay Road,MI,48603
Casual Male XL,Flint,9225,#9225,6718 E Ritchie Highway,MD,21061
Casual Male XL,Springfield,9227,#9227,23007 Eureka Road,MI,48180
Casual Male XL,Greenbelt,9229,#9229,101 South 48Th Street,NE,68510
Casual Male XL,Lake George,9232,#9232,5106 Whipple Highway,OH,44718
Casual Male XL,Pigeon Forge,9235,#9235,4385 Miller Road,MI,48507
Casual Male XL,Omaha,9236,#9236,220 Baltimore Pike,PA,19064
Casual Male XL,Joliet,9241,#9241,7565 Greenbelt Rd Space 205,MD,20770
Casual Male XL,Lawrenceville,9242,#9242,1492 Rte 9,NY,12845
Casual Male XL,North Randle,9250,#9250,"315 St. Clair Square, 315",IL,62208
Casual Male XL,Toledo,9251,#9251,"2655 Teaster Lane, Pigeon River Crossing",TN,37863
Casual Male XL,Erie,9252,#9252,611 N. 98th Street,NE,68114
Casual Male XL,Bloomington,9254,#9254,1359 N Larkin Street,IL,60435
Casual Male XL,Matteson,9256,#9256,3256 Brunswick Pike,NJ,8648
Casual Male XL,Kittery,9257,#9257,4755 Northfield Road,OH,44128
Casual Male XL,Grand Rapids,9258,#9258,5212 Monroe Street,OH,43623
Casual Male XL,Springfield,9260,#9260,6815 Peach Street Space A-13,PA,16509
Casual Male XL,Pittsburgh,9270,#9270,1407 N Veterans Parkway,IL,61704
Casual Male XL,Hamden,9271,#9271,4724 W Lincoln Highway,IL,60443
Casual Male XL,Poughkeepsie,9272,#9272,8 Dexter Lane,ME,3904
Casual Male XL,Dover,9273,#9273,3931 28Th Street,MI,49512
Casual Male XL,Little Rock,9274,#9274,2450 Wabash,IL,62704
Casual Male XL,Portage,9280,#9280,4801 Mcknight Road,PA,15237
Casual Male XL,Wilkes Barre,9286,#9286,1869 Dixwell Ave,CT,6514
Casual Male XL,Clive,9292,#9292,1955 South Road,NY,12601
Casual Male XL,Monroeville,9298,#9298,1037 N Dupont Hwy,DE,19901
Casual Male XL,Danbury,9302,#9302,1216 S University Ave,AR,72204
Casual Male XL,Lancaster,9304,#9304,5743 S Westnedge Avenue,MI,49002
Casual Male XL,Sioux Falls,9306,#9306,677H Kidder Street,PA,18702
Casual Male XL,Smithfield,9309,#9309,8801 University Avenue,IA,50325
Casual Male XL,Fargo,9311,#9311,3832 William Penn Highway,PA,15146
Casual Male XL,Roseville,9312,#9312,109 Federal Road,CT,6811
Casual Male XL,Carle Place,9316,#9316,35 S Willowdale Drive,PA,17602
Casual Male XL,Saint Louis,9319,#9319,3500 W 41St St,SD,57106
Casual Male XL,St Peters,9323,#9323,1025 Industrial Pk Drive,NC,27577
Casual Male XL,South Portland,9324,#9324,4340 13Th Ave Sw,ND,58103
Casual Male XL,District Heights,9327,#9327,30160 Gratiot St,MI,48066
Casual Male XL,Pittsburgh,9330,#9330,152 Glen Cove Rd,NY,11514
Casual Male XL,Tulsa,9331,#9331,4016 Lemay Ferry Road,MO,63129
Casual Male XL,Evansville,9333,#9333,4083 Veterans Memorial Parkway,MO,63376
Casual Male XL,Houston,9336,#9336,220 Maine Mall Road,ME,4106
Casual Male XL,Lansing,9340,#9340,5736 Silver Hill Rd,MD,20747
Casual Male XL,Fort Wayne,9343,#9343,5205 Campbells Run Road,PA,15205
Casual Male XL,Massapequa,9347,#9347,8228 E 61 Street,OK,74133
Casual Male XL,Deptford,9349,#9349,1530 N Green River Road,IN,47715
Casual Male XL,Bronx,9356,#9356,6898 Southwest Freeway,TX,77074
Casual Male XL,Cincinnati,9360,#9360,5849 W Saginaw Hwy,MI,48917
Casual Male XL,Indianapolis,9361,#9361,501 Coliseum Blvd E,IN,46805
Casual Male XL,Shrewsbury,9365,#9365,17395 Tomball Parkway,TX,77064
Casual Male XL,Waldorf,9367,#9367,5060A Sunrise Highway,NY,11762
Casual Male XL,Louisville,9371,#9371,1730 Clements Bridge Road,NJ,8096
Casual Male XL,Philadelphia,9374,#9374,2094 Bartow Avenue,NY,10475
Casual Male XL,Miamisburg,9375,#9375,"11711 Princeton Pike, Suite 961",OH,45246
Casual Male XL,Boardman,9377,#9377,8480 Castleton Corner Drive,IN,46250
Casual Male XL,Staten Island,9379,#9379,80A Boston Tpke,MA,1545
Casual Male XL,Cedar Hill,9380,#9380,3376 Crain Highway,MD,20601
Casual Male XL,Wilmington,9381,#9381,5063 Shelbyville Road,KY,40207
Casual Male XL,Amarillo,9383,#9383,2329 Cottman Avenue,PA,19149
Casual Male XL,Mentor,9384,#9384,7924 Springboro Pike,OH,45342
Casual Male XL,King Of Prussia,9387,#9387,926 Boardman-Poland Road,OH,44512
Casual Male XL,Secaucus,9388,#9388,2295 Richmond Ave,NY,10314
Casual Male XL,Johnson City,9390,#9390,"305 W. FM 1382, Space #543",TX,75104
Casual Male XL,Humble,9391,#9391,3924 Kirkwood Hwy Rte 2,DE,19808
Casual Male XL,Lubbock,9393,#9393,2221 I-40 W,TX,79109
Casual Male XL,Knoxville,9395,#9395,7619 Mentor Ave,OH,44060
Casual Male XL,Peoria,9396,#9396,"150 Allendale Road Bldg #1, 2nd Floor",PA,19406
Casual Male XL,Pineville,9400,#9400,200 Mill Creek Drive Unit A,NJ,7094
Casual Male XL,Burnsville,9401,#9401,310 Reynolds Rd,NY,13790
Casual Male XL,Natick,9403,#9403,19723 Eastex Freeway Hwy,TX,77338
Casual Male XL,San Antonio,9404,#9404,4408 50Th Street,TX,79414
Casual Male XL,Albuquerque,9405,#9405,7922 Kingston Pike,TN,37919
Casual Male XL,Valley Stream,9406,#9406,3526-3528 University Avenue,IL,61604
Casual Male XL,Corpus Christi,9407,#9407,10610 D Centrum Pkwy,NC,28134
Casual Male XL,Laredo,9409,#9409,712 W County Road 42,MN,55337
Casual Male XL,Fort Worth,9412,#9412,1298 Worcester Street,MA,1760
Casual Male XL,Dallas,9413,#9413,510 NW Loop 410,TX,78216
Casual Male XL,Harrisburg,9414,#9414,6601 Menaul Blvd Ne,NM,87110
Casual Male XL,Appleton,9415,#9415,320 W Sunrise Hwy,NY,11581
Casual Male XL,El Paso,9417,#9417,5118-C S Staples Street,TX,78411
Casual Male XL,Orange Park,9419,#9419,5504 San Bernardo Ave,TX,78041
Casual Male XL,Jacksonville,9421,#9421,4621 S Hulen Street,TX,76132
Casual Male XL,Miami,9422,#9422,13340 Preston Road,TX,75240
Casual Male XL,Scranton,9424,#9424,3501 Paxton Street,PA,17111
Casual Male XL,Bay Shore,9428,#9428,1111 N Mutual Way,WI,54913
Casual Male XL,Cherry Hill,9429,#9429,8889 Gateway Blvd W,TX,79925
Casual Male XL,Schaumburg,9432,#9432,66A Blanding Blvd,FL,32073
Casual Male XL,Whitehall,9433,#9433,9402 Arlington Expressway,FL,32225
Casual Male XL,Buffalo,9434,#9434,1749 Ne 163Rd Street,FL,33162
Casual Male XL,Succasunna,9442,#9442,861 Williston Road,VT,5403
Casual Male XL,Richmond,9444,#9444,Rte 6 Scranton-Carbondale Hwy,PA,18508
Casual Male XL,East Brunswick,9445,#9445,1757 Sunrise Hwy,NY,11706
Casual Male XL,Lafayette,9447,#9447,220 Haddonfield Road,NJ,8002
Casual Male XL,Midland,9451,#9451,1985 East Golf Road,IL,60173
Casual Male XL,Lafayette,9454,#9454,2367 Macarthur Road,PA,18052
Casual Male XL,Colorado Springs,9456,#9456,2130 Walden Ave,NY,14225
Casual Male XL,Baton Rouge,9458,#9458,288 Rte 10 W,NJ,7876
Casual Male XL,Brandon,9460,#9460,"11736 West Broad Street, Suite 110",VA,23233
Casual Male XL,Champaign,9461,#9461,326 Rte 18,NJ,8816
Casual Male XL,Austin,9466,#9466,2128 Sagamore Pkwy S,IN,47905
Casual Male XL,Naperville,9469,#9469,4410 N Midkiff Rd,TX,79705
Casual Male XL,Alpharetta,9471,#9471,3501 Ambassador Caffery,LA,70503
Casual Male XL,Miami,9473,#9473,507 N Academy Blvd,CO,80909
Casual Male XL,Altamonte Springs,9478,#9478,9490 Airline Hwy,LA,70815
Casual Male XL,Lewisville,9482,#9482,2406 West Brandon Boulevard,FL,33511
Casual Male XL,Springfield,9484,#9484,1006 W Anthony Dr,IL,61820
Casual Male XL,Birch Run,9486,#9486,10515 N MoPac Expressway,TX,78759
Casual Male XL,Bloomfield,9489,#9489,618 South Route 59 Naper W Plz,IL,60540
Casual Male XL,Lexington,9490,#9490,7681 N Point Pkwy,GA,30022
Casual Male XL,Raleigh,9491,#9491,9492 South Dixie Highway,FL,33156
Casual Male XL,Altoona,9494,#9494,620 E Altamonte Dr,FL,32701
Casual Male XL,Syracuse,9500,#9500,"2403 S. Stemmons Freeway, Suite 100 ABC",TX,75067
Casual Male XL,Annapolis,9501,#9501,1418 E Battlefield,MO,65804
Casual Male XL,Duluth,9502,#9502,12150 S Beyer Rd,MI,48415
Casual Male XL,Towson,9503,#9503,135 Bloomfield Ave,NJ,7003
Casual Male XL,Ft Myers,9504,#9504,3270 Nicholasville Rd,KY,40503
Casual Male XL,Elmhurst,9505,#9505,"4601 Creedmoor Road, Suite 105",NC,27612
Casual Male XL,Augusta,9506,#9506,240 Park Hills Plaza,PA,16602
Casual Male XL,W Palm Beach,9507,#9507,3514 W Genesee St,NY,13219
Casual Male XL,Ocala,9509,#9509,2091 West Street,MD,21401
Casual Male XL,Birmingham,9510,#9510,1950 Pleasant Hill Road,GA,30096
Casual Male XL,Madison,9513,#9513,815 Goucher Blvd,MD,21286
Casual Male XL,Branson,9516,#9516,4455 Cleveland Ave,FL,33901
Casual Male XL,Greenville,9518,#9518,89-55 Queens Blvd,NY,11373
Casual Male XL,Somerville,9521,#9521,3435 Wrightsboro Road,GA,30909
Casual Male XL,New York,9523,#9523,1990 N Military Trail,FL,33409
Casual Male XL,Sunrise,9524,#9524,3558 Sw College Rd,FL,34474
Casual Male XL,Tyler,9526,#9526,1723 Montgomery Hwy S,AL,35244
Casual Male XL,Lauderdale Lakes,9527,#9527,523 South Gammon Road,WI,53711
Casual Male XL,Conroe,9529,#9529,300 Tanger Boulevard,MO,65616
Casual Male XL,Frederick,9530,#9530,2410 Laurens Rd,SC,29607
Casual Male XL,Calhoun,9534,#9534,936 Rte 22 E,NJ,8876
Casual Male XL,Loveland,9540,#9540,291 Third Ave,NY,10010
Casual Male XL,Daytona Beach,9541,#9541,13001 W. Sunrise Boulevard,FL,33323
Casual Male XL,Asheville,9545,#9545,4217 S Broadway Ave,TX,75701
Casual Male XL,Jeffersonville,9551,#9551,3196 N State Rd 7,FL,33319
Casual Male XL,Manchester,9553,#9553,1111 League Line Rd,TX,77303
Casual Male XL,Edinburgh,9554,#9554,1170 W Patrick St,MD,21702
Casual Male XL,Huntsville,9558,#9558,455 Belwood Rd Se,GA,30701
Casual Male XL,Vienna,9566,#9566,5732 Mcwhinney Blvd,CO,80538
Casual Male XL,Howell,9567,#9567,2110 W Internatl Speedway Blvd,FL,32114
Casual Male XL,Denver,9568,#9568,64 Tunnel Rd,NC,28805
Casual Male XL,Waterloo,9571,#9571,8115 Factory Shops Blvd,OH,43128
Casual Male XL,Roanoke,9573,#9573,1470 Pleasant Valley Rd,CT,6040
Casual Male XL,Willow Grove,9576,#9576,11747 N Executive Dr,IN,46124
Casual Male XL,Bowling Green,9581,#9581,4710-B University Drive,AL,35816
Casual Male XL,Jackson,9582,#9582,"8027 Leesburg Pike, Ste 200",VA,22182
Casual Male XL,Vero Beach,9585,#9585,1475 N Burkhart Road,MI,48855
Casual Male XL,Orland Park,9587,#9587,210 St Paul St,CO,80206
Casual Male XL,Tilton,9588,#9588,655 Rte 318,NY,13165
Casual Male XL,Rockford,9589,#9589,1919 Valley View Blvd Nw,VA,24012
Casual Male XL,Houston,9591,#9591,311 W Moreland Rd,PA,19090
Casual Male XL,Westminster,9592,#9592,2522 Scottsville Rd,KY,42104
Casual Male XL,San Marcos,9595,#9595,1039 E County Line Rd,MS,39211
Casual Male XL,Commerce,9598,#9598,1757 94Th Drive,FL,32966
Casual Male XL,Morrow,9604,#9604,9396 W 159Th St,IL,60462
Casual Male XL,Mays Landing,9605,#9605,120 Laconia Rd,NH,3276
Casual Male XL,Topeka,9610,#9610,6376 E State St,IL,61108
Casual Male XL,Fredericksburg,9612,#9612,19504 Katy Freeway,TX,77094
Casual Male XL,Webster,9613,#9613,8725 Sheridan Blvd,CO,80003
Casual Male XL,Johnson Creek,9615,#9615,4015 Interstate Hwy 35,TX,78666
Casual Male XL,Albertville,9616,#9616,800 Steven B Tanger Blvd,GA,30529
Casual Male XL,Foley,9617,#9617,6715 Jonesboro Rd,GA,30260
Casual Male XL,Vacaville,9618,#9618,430 Consumer Square,NJ,8330
Casual Male XL,Saint Augustine,9623,#9623,1930 Sw Wanamaker Rd,KS,66604
Casual Male XL,Williamsburg,9624,#9624,3200 Plank Rd,VA,22407
Casual Male XL,Gettysburg,9625,#9625,19419 Gulf Freeway,TX,77598
Casual Male XL,Tannersville,9627,#9627,622 W Linmar Lane,WI,53038
Casual Male XL,Folsom,9629,#9629,6415 Labeaux Ave Ne,MN,55301
Casual Male XL,Hagerstown,9630,#9630,2601 South Mckenzie St,AL,36535
Casual Male XL,Grove City,9631,#9631,131 Nut Tree Road,CA,95687
Casual Male XL,Columbus,9632,#9632,2700 State Road 16,FL,32092
Casual Male XL,Osage Beach,9633,#9633,112-A Tanger Dr,IA,52361
Casual Male XL,Rehoboth Beach,9635,#9635,1863 Gettysburg Village Dr,PA,17325
Casual Male XL,Gulfport,9636,#9636,1000 Route 611,PA,18372
Casual Male XL,Bossier City,9640,#9640,13000 Folsom Blvd,CA,95630
Casual Male XL,Tulare,9642,#9642,550 Prime Outlets Blvd,MD,21740
Casual Male XL,Jackson,9643,#9643,1911 Leesburg Grove City Rd,PA,16127
Casual Male XL,Los Angeles,9644,#9644,"7 Glenwood Road, Suite E",CT,6413
Casual Male XL,Michigan City,9662,#9662,5091 E Main St,OH,43213
Casual Male XL,Allen,9665,#9665,"4540 Osage Beach Parkway, Suite N4",MO,65065
Casual Male XL,Mercedes,9668,#9668,18701 Coastal Highway Unit 3,DE,19971
Casual Male XL,Round Rock,9670,#9670,10737 Factory Shops Blvd,MS,39503
Casual Male XL,Pottstown,9677,#9677,640 Boardwalk Blvd,LA,71111
Casual Male XL,Cypress,9680,#9680,1483 Retherford St,CA,93274
Casual Male XL,Washington,9683,#9683,537 Monmouth Rd,NJ,8527
Casual Male XL,Woodland Hills,9685,#9685,100 Citadel Drive,CA,90040
Casual Male XL,Lawndale,9686,#9686,1740 Lighthouse Place,IN,46360
Casual Male XL,San Jose,9689,#9689,820 W Stacy Rd,TX,75013
Casual Male XL,Emeryville,9691,#9691,5001 East Expressway 83,TX,78570
Casual Male XL,Sacramento,9693,#9693,4401 N Ih 35 Ste 869,TX,78664
Casual Male XL,Dublin,9696,#9696,18 Lightcap Road,PA,19464
Casual Male XL,Modesto,9697,#9697,29300 Hempstead Road,TX,77433
Casual Male XL,Fresno,9698,#9698,2200 Tanger Boulevard,PA,15301
Casual Male XL,San Bernadino,9701,#9701,6041 Topanga Canyon Boulevard,CA,91367
Casual Male XL,Phoenix,9703,#9703,16129 S Hawthorne Blvd,CA,90260
Casual Male XL,Santa Rosa,9704,#9704,1202 El Camino Real,CA,94066
Casual Male XL,Bakersfield,9705,#9705,319 South Winchester Blvd,CA,95128
Casual Male XL,Irvine,9709,#9709,1151 40Th Street,CA,94608
Casual Male XL,Stockton,9710,#9710,1701 Ethan Way,CA,95815
Casual Male XL,Las Vegas,9711,#9711,8000 Amador Valley Blvd,CA,94568
Casual Male XL,Fullerton,9713,#9713,3200 Sisk Road,CA,95356
Casual Male XL,San Jose,9714,#9714,4935-B North Blackstone Avenue,CA,93726
Casual Male XL,Beaverton,9715,#9715,798 Inland Ctr Dr,CA,92408
Casual Male XL,West Covina,9716,#9716,1705 E. Camelback Road,AZ,85016
Casual Male XL,San Leandro,9718,#9718,1911 Santa Rosa Ave,CA,95407
Casual Male XL,Tucson,9720,#9720,1381 W. Sunset Road,NV,89014
Casual Male XL,Spokane,9721,#9721,3699 Ming Ave,CA,93309
Casual Male XL,Lake Elsinore,9723,#9723,13766 Jamboree Road,CA,92602
Casual Male XL,San Diego,9727,#9727,5756 Pacific Ave,CA,95207
Casual Male XL,Culver City,9728,#9728,5015 Tacoma Mall Blvd.,WA,98409
Casual Male XL,Victorville,9731,#9731,4211 Paradise Road,NV,89169
Casual Male XL,Salem,9732,#9732,1620 S Harbor Blvd,CA,92832
Casual Male XL,Reno,9733,#9733,882 Blossom Hill Rd,CA,95123
Casual Male XL,Valencia,9735,#9735,8705 Sw Hall Blvd,OR,97008
Casual Male XL,Kennesaw,9736,#9736,330 S Vincent Ave,CA,91790
Casual Male XL,Jonesboro,9737,#9737,15099 Hesperian Blvd,CA,94578
Casual Male XL,Independence,9739,#9739,4055 N Oracle Rd,AZ,85705
Casual Male XL,Chandler,9742,#9742,6010 N Division St,WA,99208
Casual Male XL,Florence,9744,#9744,72-840 HIGHWAY 111,CA,92260
Casual Male XL,Winston Salem,9745,#9745,17600 Collier Ave,CA,92530
Casual Male XL,Long Beach,9747,#9747,2990 Midway Dr,CA,92110
Casual Male XL,Oxnard,9748,#9748,5592 S Sepulveda Blvd,CA,90230
Casual Male XL,Columbia,9752,#9752,12125 N Parker Avenue,OR,97217
Casual Male XL,Davenport,9756,#9756,12544-B Amargosa Rd,CA,92392
Casual Male XL,Marion,9757,#9757,1132 Lancaster Drive Ne,OR,97301
Casual Male XL,Lake Forest,9761,#9761,5595 South Virginia Street,NV,89502
Casual Male XL,El Cajon,9768,#9768,25640 The Old Road,CA,91381
Casual Male XL,South Charleston,9769,#9769,440 Barrett Pkwy,GA,30144
Casual Male XL,Lone Tree,9775,#9775,2108 South Caraway,AR,72401
Casual Male XL,Largo,9777,#9777,19110 A East 39Th St,MO,64057
Casual Male XL,Wyomissing,9778,#9778,2830 West Chandler Blvd,AZ,85224
Casual Male XL,Akron,9780,#9780,7634 Mall Road,KY,41042
Casual Male XL,Shenandoah,9783,#9783,3258 Silas Creek Pkwy,NC,27103
Casual Male XL,Chicago,9787,#9787,7601 Carson Blvd,CA,90808
Casual Male XL,Saint Charles,9789,#9789,301 W Esplanade Drive,CA,93030
Casual Male XL,Philadelphia,9791,#9791,2101 West Broadway,MO,65203
Casual Male XL,East Rutherford,9792,#9792,902 West Kimberly Road,IA,52806
Casual Male XL,Tampa,9793,#9793,1392 Twixt Town Road,IA,52302
Casual Male XL,Skokie,9795,#9795,23600 El Toro Rd Suite A & B,CA,92630
Casual Male XL,Kansas City,9798,#9798,700 N Johnson Avenue,CA,92020
Casual Male XL,Lynnwood,9799,#9799,90 Rhl Blvd,WV,25309
Casual Male XL,Hazlet,9800,#9800,9078 Westview Rd,CO,80124
Casual Male XL,Temecula,9801,#9801,10359 Ulmerton Road,FL,33771
Casual Male XL,Greensburg,9802,#9802,2777 Papermill Road,PA,19610
Casual Male XL,Metairie,9805,#9805,4014 B Medina Road,OH,44333
Casual Male XL,Downey,9806,#9806,19075 I-45 South (Northbound),TX,77385
Casual Male XL,Tukwila,9808,#9808,1730 W Fullerton Ave,IL,60614
Casual Male XL,Orlando,9810,#9810,962 South Randall Rd,IL,60174
Casual Male XL,Middletown,9813,#9813,"2306 W Oregon Ave, Space F-3",PA,19145
Casual Male XL,New Hyde Park,9816,#9816,89 Route 17 South,NJ,7073
Casual Male XL,Glendale,9817,#9817,8015 Citrus Park Drive,FL,33625
Casual Male XL,Clackamas,9818,#9818,9410-A Skokie Blvd,IL,60077
Casual Male XL,Rancho Cucamonga,9820,#9820,8401 N Mercier Avenue,MO,64155
Casual Male XL,Ogden,9821,#9821,19220 Alderwood Mall Pkwy,WA,98036
Casual Male XL,Murray,9826,#9826,2872 Highway 35 South,NJ,7730
Casual Male XL,Meridian,9828,#9828,40620 Winchester Road,CA,92591
Casual Male XL,Billings,9829,#9829,5240 Route 30,PA,15601
Casual Male XL,Gilbert,9840,#9840,3750 Veterans Memorial Blvd,LA,70002
Casual Male XL,Westport,9842,#9842,12136 Lakewood Blvd,CA,90242
Casual Male XL,Frisco,9843,#9843,17401 Southcenter Pkwy,WA,98188
Casual Male XL,Aurora,9844,#9844,464 N Alafaya Trail Suite 108,FL,32828
Casual Male XL,Orlando,9846,#9846,444 Route 211 East- Suite 3,NY,10940
Casual Male XL,Brea,9847,#9847,1444 Union Turnpike,NY,11040
Casual Male XL,Humble,9849,#9849,"7530 W. Bell Road, Ste 103",AZ,85308
Casual Male XL,Poughkeepsie,9850,#9850,8864 S.E. Sunnyside Road,OR,97015
Casual Male XL,Corpus Christi,9851,#9851,12455 Victoria Garden Lane,CA,91739
Casual Male XL,Peabody,9852,#9852,2028 West Big Beaver Road,MI,48084
Casual Male XL,Canton,9855,#9855,4001 Riverdale Road #A,UT,84405
Casual Male XL,Fairview Heights,9856,#9856,6170 South State St,UT,84107
Casual Male XL,Houston,9858,#9858,3427 East Fairview Road,ID,83642
Casual Male XL,South Burlington,9859,#9859,585 South 24Th Street West,MT,59102
Casual Male XL,Clinton,9860,#9860,2285 Eastbaseline Road,AZ,85234
Casual Male XL,San Bruno,9862,#9862,1505 Post Road East,CT,6880
Casual Male XL,Henderson,9863,#9863,"2943 Preston Road, Suite 1450",TX,75034
Casual Male XL,Tacoma,9864,#9864,14182 East Cedar Avenue,CO,80012
Casual Male XL,Palm Desert,9865,#9865,4012 Eastgate Drive,FL,32839
Casual Male XL,Portland,9866,#9866,429 S. Associated Road,CA,92821
Casual Male XL,Troy,9867,#9867,10010 FM 1960 Bypass Road West,TX,77338
Casual Male XL,Homestead,9868,#9868,280 E. Waterfront Drive,PA,15120
Casual Male XL,Columbus,9869,#9869,1424 Gemini Place,OH,43240
Casual Male XL,San Diego,9870,#9870,1640 Camino Del Rio North,CA,92108
Casual Male XL,Woodmere,9871,#9871,27079 Chagrin Blvd,OH,44060
Casual Male XL,Staten Island,9872,#9872,2194 Richmond Ave,NY,10314
