keywords,city,Aggdata Store Number,store_number,address,state,zip_code
Cinnabon,Puyallup,3,3 #3 #03,3500 South Meridian,WA,98373
Cinnabon,Moreno Valley,7,7 #7 #07,22500 Town Center #1111,CA,92553
Cinnabon,El Paso,8,8 #8 #08,8401 Gateway West,TX,79925
Cinnabon,Asheville,9,9 #9 #09,"3 South Tunnel Road, A-9",NC,28805
Cinnabon,Kennewick,15,15 #15 #015,511 Columbia Center,WA,90336
Cinnabon,Rockford,18,18 #18 #018,"7200 Harrison RD, #H52",IL,61112
Cinnabon,Montclair,22,22 #22 #022,5192 Montclair Plaza,CA,91763
Cinnabon,Kaneohe,23,23 #23 #023,"Location No.18, 46-056 Kamehamehaha Hwy C01",HI,96744
Cinnabon,San Jose,25,25 #25 #025,359 Eastridge Mall #d-25,CA,95122
Cinnabon,Eugene,28,28 #28 #028,12 Valley River Center,OR,97401
Cinnabon,Wauwatosa,33,33 #33 #033,2500 N. Mayfair Road,WI,53226
Cinnabon,Merrillville,36,36 #36 #036,2190 Southlake Mall,IN,46410
Cinnabon,Lafayette,37,37 #37 #037,2415 Sagamore Pkwy Lane,IN,47905
Cinnabon,Northridge,41,41 #41 #041,"9301 Tampa Ave., Space 108",CA,91324
Cinnabon,Tacoma,42,42 #42 #042,"4502 S. Steele Street, # 364",WA,98409
Cinnabon,Torrance,43,43 #43 #043,21880 Hawthorne Blvd. #335B,CA,90503
Cinnabon,Alea,47,47 #47 #047,604 Pearlridge Downtown,HI,96701
Cinnabon,Brea,56,56 #56 #056,2152 Brea Mall,CA,92821
Cinnabon,Lima,61,61 #61 #061,2400 Elida Road,OH,45805
Cinnabon,Sterling Heights,64,64 #64 #064,14600 Lakeside Circle,MI,48313
Cinnabon,Schaumburg,65,65 #65 #065,D203 Woodfield Mall,IL,60173
Cinnabon,Dayton,67,67 #67 #067,2700 Miamisburg-Centerville,OH,45459
Cinnabon,Westminster,74,74 #74 #074,2052 Westminster Mall,CA,92683
Cinnabon,Canton,77,77 #77 #077,4224 Belden Mall NW,OH,44718
Cinnabon,Sacramento,79,79 #79 #079,"1689 Arden Way, #2002",CA,95815
Cinnabon,Spokane,80,80 #80 #080,14700 East Indiana Avenue,WA,99216
Cinnabon,Spokane,81,81 #81 #081,"N. 4750 Division Street, #163",WA,99207
Cinnabon,Concord,84,84 #84 #084,"110 Sun Valley Mall, A135L",CA,94520
Cinnabon,Fairfield,86,86 #86 #086,1350 Travis Blvd.,CA,94533
Cinnabon,Richmond,87,87 #87 #087,1315 Hilltop Mall Road # B,CA,94806
Cinnabon,Glendale,89,89 #89 #089,1130 Glendale Galleria I,CA,91210
Cinnabon,Lombard,91,91 #91 #091,203 Yorktown Mall,IL,60148
Cinnabon,Knoxville,94,94 #94 #094,7600 Kingston Pike,TN,37919
Cinnabon,Bakersfield,96,96 #96 #096,2701 Ming Avenue #0148,CA,93304
Cinnabon,Montebello,99,99 #99 #099,2136 Montebello Town Ctr BU-16,CA,90640
Cinnabon,Salinas,100,100 #100 #0100,446 Northridge Mall,CA,93906
Cinnabon,Cerritos,104,104 #104 #0104,141 Los Cerritos Center,CA,90703
Cinnabon,Jacksonville,106,106 #106 #0106,10300 Southside Blvd. # 2671,FL,32256
Cinnabon,Philadelphia,112,112 #112 #0112,1101 Market Street,PA,19107
Cinnabon,Pensacola,117,117 #117 #0117,5100 N. 9th Ave.,FL,32504
Cinnabon,Modesto,118,118 #118 #0118,431 Vintage Faire Mall,CA,95350
Cinnabon,San Jose,124,124 #124 #0124,"925 Blossom Hill Road, # 1115",CA,95123
Cinnabon,Indianapolis,125,125 #125 #0125,49 West Maryland Avenue D18,IN,46204
Cinnabon,Houston,126,126 #126 #0126,"800 Gessner, #778",TX,77024
Cinnabon,Houston,128,128 #128 #0128,1198 Willowbrook Lane,TX,77070
Cinnabon,Friendswood,131,131 #131 #0131,"500 Baybrook, #1080",TX,77546
Cinnabon,Gainesville,142,142 #142 #0142,6329 M Newberry Road,FL,32605
Cinnabon,Bellingham,146,146 #146 #0146,"1 Bellis Fair Parkway, Space # 518",WA,98226
Cinnabon,Terre Haute,153,153 #153 #0153,3401 South US Highway 41,IN,47802
Cinnabon,Hillsboro,161,161 #161 #0161,23105 SW TV Highway,OR,97123
Cinnabon,Ann Arbor,168,168 #168 #0168,448 Briarwood Circle,MI,48108
Cinnabon,Louisville,171,171 #171 #0171,5000 Shelbyville Road,KY,40270
Cinnabon,Albuquerque,174,174 #174 #0174,"10000 Coors Bypass NW, SP D7",NM,87114
Cinnabon,Santa Rosa,175,175 #175 #0175,1066 Santa Rosa Plaza,CA,95401
Cinnabon,Denver,181,181 #181 #0181,3000 East First Avenue,CO,80206
Cinnabon,Santa Ana,183,183 #183 #0183,"2800 N. Main Street, # 568",CA,92701
Cinnabon,Deptford,186,186 #186 #0186,"1750 Deptford Center Road, 2B-19C",NJ,8096
Cinnabon,Buford,198,198 #198 #0198,"3333 Buford Drive, St. 1079",GA,30519
Cinnabon,Orland Park,205,205 #205 #0205,144 Orland Square,IL,60462
Cinnabon,Palm Desert,216,216 #216 #0216,72840 Highway 111,CA,92260
Cinnabon,Redondo Beach,219,219 #219 #0219,1815 Hawthorne Blvd # 369,CA,90278
Cinnabon,Mobile,235,235 #235 #0235,3299 Bel Air Mall,AL,36606
Cinnabon,El Centro,241,241 #241 #0241,3451 South Dogwood Ave.,CA,92243
Cinnabon,Sunrise,243,243 #243 #0243,"12801 Sunrise Blvd, #265",FL,33323
Cinnabon,San Bruno,244,244 #244 #0244,1150 El Camino Real,CA,94066
Cinnabon,Downey,248,248 #248 #0248,251 Stonewood Street C-07,CA,90241
Cinnabon,Stockton,256,256 #256 #0256,4950 Pacific Ave. Suite #303,CA,95207
Cinnabon,Prince William,259,259 #259 #0259,2700 Potomac Mills Circle,VA,22192
Cinnabon,Wichita Falls,260,260 #260 #0260,3111 Midwestern Parkway,TX,76308
Cinnabon,Fairfax,261,261 #261 #0261,"11750 Fair Oaks, Unit # 11933U",VA,22033
Cinnabon,Hayward,262,262 #262 #0262,One Southland Mall,CA,94545
Cinnabon,Citrus Heights,274,274 #274 #0274,6041 Sunrise Mall,CA,95610
Cinnabon,Tulsa,275,275 #275 #0275,7021 South Memorial Drive # 268,OK,74133
Cinnabon,San Antonio,281,281 #281 #0281,"849 East Commerce, Suite # 133",TX,78206
Cinnabon,Sunrise,282,282 #282 #0282,12801 Sunrise Blvd. Suite #711,FL,33323
Cinnabon,Des Moines,289,289 #289 #0289,"101 Jordan Creek Pkwy, Space 2082",IA,50266
Cinnabon,Aurora,292,292 #292 #0292,195 Fox Valley Center,IL,60504
Cinnabon,Pearland,296,296 #296 #0296,11200 Broadway Suite #1210,TX,77584
Cinnabon,Roseville,299,299 #299 #0299,1151 Galleria Blvd.,CA,95678
Cinnabon,College Station,300,300 #300 #0300,2210 Harvey Mitchell Parkway South,TX,77845
Cinnabon,Las Vegas,309,309 #309 #0309,3411 Las Vegas Blvd.,NV,89109
Cinnabon,Auburn Hills,310,310 #310 #0310,"4000 Baldwin Road, #521",MI,48326
Cinnabon,Macon,311,311 #311 #0311,3661 Eisenhower Parkway,GA,31206
Cinnabon,Jersey City,318,318 #318 #0318,"30 Mall Drive, West",NJ,7310
Cinnabon,Thousand Oaks,348,348 #348 #0348,284 West Hillcrest Drive,CA,91360
Cinnabon,Yonkers,364,364 #364 #0364,6 K Mall Walk,NY,10704
Cinnabon,Vernon Hills,366,366 #366 #0366,122 Hawthorn Center #610,IL,60061
Cinnabon,Culver City,399,399 #399 #0399,"6000 S. Sepulveda Blvd., No. 2410",CA,90230
Cinnabon,City of Industry,437,437 #437 #0437,"1600 Azusa Avenue, Suite K-5",CA,91748
Cinnabon,Billings,439,439 #439 #0439,300 South 24th Street W,MT,59102
Cinnabon,Houston,443,443 #443 #0443,"5015 Westheimer, #1403",TX,77056
Cinnabon,Albany,458,458 #458 #0458,2601 Dawson Road,GA,31707
Cinnabon,Central Valley,556,556 #556 #0556,498 Red Apple Court,NY,10917
Cinnabon,Burbank,581,581 #581 #0581,"201 E. Magnolia, Suite 376",CA,91502
Cinnabon,Fresno,592,592 #592 #0592,505 East Shaw Drive,CA,93710
Cinnabon,Newark,634,634 #634 #0634,715 Christiana Mall Unit #1536,DE,19702
Cinnabon,Annapolis,636,636 #636 #0636,1016 Annapolis Mall Road,MD,21401
Cinnabon,Douglasville,637,637 #637 #0637,6700 Douglas Blvd. Suite 2495,GA,30165
Cinnabon,Palmdale,639,639 #639 #0639,"1233 Rancho Vista Blvd, #753",CA,93551
Cinnabon,Bellevue,674,674 #674 #0674,1038 Bellevue Square,WA,98004
Cinnabon,San Diego,694,694 #694 #0694,467 Horton Plaza # 335,CA,92101-6150
Cinnabon,Arcadia,793,793 #793 #0793,400 S. Baldwin Avenue,CA,91007
Cinnabon,Columbus,800,800 #800 #0800,3131 Manchester Expressway,GA,31099
Cinnabon,Flint,801,801 #801 #0801,3341 S. Linden,MI,48507
Cinnabon,Niagara Falls,818,818 #818 #0818,1900 Military Road,NY,14304
Cinnabon,Anchorage,821,821 #821 #0821,5000 West International Airport Road,AK,99502
Cinnabon,Canton,822,822 #822 #0822,5400 Lauby Road NW,OH,44720-1598
Cinnabon,Cleveland,828,828 #828 #0828,5300 Riverside Dr. Space MT-280,OH,44135
Cinnabon,Angola,830,830 #830 #0830,Mile Marker 447 NY State Thruway,NY,14006
Cinnabon,Johnson City,832,832 #832 #0832,601-635 Harry L. Drive,NY,13790
Cinnabon,Jensen Beach,862,862 #862 #0862,3312 NW Federal Highway,FL,34957
Cinnabon,Charlotte,866,866 #866 #0866,6801 Northlake Mall,NC,28216
Cinnabon,Las Vegas,874,874 #874 #0874,3850 Las Vegas Blvd. South,NV,89109
Cinnabon,Vancouver,877,877 #877 #0877,8700 N.E Vancouver Mall Drive,WA,98662
Cinnabon,Valencia,912,912 #912 #0912,24201 Valencia Blvd. #110,CA,91355
Cinnabon,Troy,913,913 #913 #0913,"498 West 14 Mile Road, Ste. A",MI,48083
Cinnabon,McLean,917,917 #917 #0917,1960 Chain Bridge Rd #G3LB,VA,22102
Cinnabon,Humble,924,924 #924 #0924,20131 Highway 59,TX,77338
Cinnabon,Scranton,962,962 #962 #0962,300 Lackawanna Avenue,PA,18503
Cinnabon,Bloomingdale,964,964 #964 #0964,206 Stratford Square,IL,60108
Cinnabon,Wayne,981,981 #981 #0981,3102 Willowbrook #E2,NJ,7470
Cinnabon,Rockaway,982,982 #982 #0982,Rt. 80 & Mt. Hope Avenue,NJ,7866
Cinnabon,Edison,1007,1007 #1007 #01007,389 Menlo Park,NJ,8837
Cinnabon,Woodbridge,1021,1021 #1021 #01021,Woodbridge Ctr Dr Space # 155,NJ,7095
Cinnabon,Paramus,1026,1026 #1026 #01026,1 Garden State Plaza,NJ,7652
Cinnabon,Laughlin,1032,1032 #1032 #01032,2900 S Casino Drive,NV,89029
Cinnabon,Albuquerque,1049,1049 #1049 #01049,"6600 Menaul Blvd NE, Sp#S-5",NM,87110
Cinnabon,Lancaster,1062,1062 #1062 #01062,604 Park City Center,PA,17601
Cinnabon,Cherry Hill,1072,1072 #1072 #01072,"NJ Turnpike, Mile Marker 30.2S",NJ,8034
Cinnabon,Bloomington,1075,1075 #1075 #01075,E. 180 Broadway,MN,55425
Cinnabon,Maplewood,1076,1076 #1076 #01076,1054 Maplewood Mall,MN,55109
Cinnabon,Burnsville,1079,1079 #1079 #01079,1078 Burnsville Center,MN,55306
Cinnabon,Winston-Salem,1081,1081 #1081 #01081,1148 Hanes Mall,NC,27103
Cinnabon,Cary,1082,1082 #1082 #01082,1105 Walnut Street,NC,27511
Cinnabon,Greensboro,1091,1091 #1091 #01091,222 Four Seasons Town Ctr,NC,27407
Cinnabon,Concord,1095,1095 #1095 #01095,8111 Concord Mall Dr.,NC,28027
Cinnabon,Raleigh,1096,1096 #1096 #01096,5959 Triangle Town Blvd FU2083,NC,27616
Cinnabon,Valley Stream,1098,1098 #1098 #01098,1122 Green Acres Mall #71,NY,11581
Cinnabon,Lake Grove,1103,1103 #1103 #01103,Route 25 & Route 347 Site A22,NY,11755
Cinnabon,Elmhurst,1106,1106 #1106 #01106,"90-15 Queens Blvd., Sp. 201-202",NY,11373
Cinnabon,Brooklyn,1108,1108 #1108 #01108,5174 Kings Plaza,NY,11234
Cinnabon,Portland,1114,1114 #1114 #01114,1109 Lloyd Center,OR,97232
Cinnabon,Phoenix,1115,1115 #1115 #01115,9617 Metro Parkway,AZ,85051
Cinnabon,Glendale,1120,1120 #1120 #01120,"7700 W Arrowhead Town Ctr, #2196",AZ,85308
Cinnabon,Tucson,1122,1122 #1122 #01122,4500 N. Oracle Road # 126,AZ,85705
Cinnabon,Visalia,1135,1135 #1135 #01135,2031 S Mooney Blvd,CA,93277
Cinnabon,Sioux City,1140,1140 #1140 #01140,"4400 Sargent Road, # 201",IA,51106
Cinnabon,Hazelwood,1143,1143 #1143 #01143,4785 Park 370 Boulevard,MO,63042
Cinnabon,Charlotte,1149,1149 #1149 #01149,5501 Josh Birmingham Parkway,NC,28208
Cinnabon,Savannah,1152,1152 #1152 #01152,7804 Abercorn Street,GA,31406
Cinnabon,Cranbury,1156,1156 #1156 #01156,Route 2 Box 23,NJ,8512
Cinnabon,Las Vegas,1159,1159 #1159 #01159,PO Box 11007,NV,89119
Cinnabon,Las Vegas,1166,1166 #1166 #01166,PO Box 11007,NV,89119
Cinnabon,Las Vegas,1178,1178 #1178 #01178,PO Box 11007,NV,89119
Cinnabon,Las Vegas,1190,1190 #1190 #01190,PO Box 11007,NV,89119
Cinnabon,Bedford,1212,1212 #1212 #01212,Between Exits 11 & 12 Westbound,PA,15522
Cinnabon,Richfield,1218,1218 #1218 #01218,"NJ Turnpike, Mile Marker 116 E.",NJ,7657
Cinnabon,Clyde,1222,1222 #1222 #01222,1012 North County Rd. 260,OH,43410
Cinnabon,Clyde,1234,1234 #1234 #01234,888 North County Rd. 260,OH,43410
Cinnabon,Elizabeth,1255,1255 #1255 #01255,651 Kapkowski Rd.,NJ,7201
Cinnabon,San Antonio,1263,1263 #1263 #01263,"Ft. Sam Houston Food Court, Bldg 2420",TX,78234
Cinnabon,Mt Laurel,1273,1273 #1273 #01273,5 Hartford Road,NJ,8054
Cinnabon,Ft. Gordon,1283,1283 #1283 #01283,"AAFES Fd Ct,Bldg38200, 3rd Ave",GA,30905
Cinnabon,Ft. Lewis,1315,1315 #1315 #01315,Main Store FdCt Bld 5280 41stDiv.,WA,98433
Cinnabon,Travis AFB,1347,1347 #1347 #01347,461 Skymaster Drive,CA,94535
Cinnabon,Lawton,1357,1357 #1357 #01357,38 Central Mall,OK,73501
Cinnabon,Brooklyn,1372,1372 #1372 #01372,8612 3rd Ave.,NY,11209
Cinnabon,Hanover,1387,1387 #1387 #01387,7000 Arundel Mills Blvd.,MD,21076
Cinnabon,Stateline,1395,1395 #1395 #01395,18 Hwy 50,NV,89448
Cinnabon,Marlboro,1410,1410 #1410 #01410,"601 Donald Lynch Blvd, #N-139",MA,1752
Cinnabon,Manchester,1411,1411 #1411 #01411,"1500 South Willow Street, E127",NH,3130
Cinnabon,Indianapolis,1413,1413 #1413 #01413,3919 Lafayette  Road,IN,46254
Cinnabon,Austin,1414,1414 #1414 #01414,218 S. Lamar Blvd.,TX,78704
Cinnabon,Austin,1416,1416 #1416 #01416,13201 F.M. 620,TX,78717
Cinnabon,Springdale,1417,1417 #1417 #01417,1919 West Sunset Ave.,AR,72764
Cinnabon,Fort Smith,1426,1426 #1426 #01426,7010 Rogers Ave.,AR,72903
Cinnabon,Rogers,1430,1430 #1430 #01430,2709 West Walnut,AR,72756
Cinnabon,El Cajon,1444,1444 #1444 #01444,647 Parkway Plaza,CA,92020
Cinnabon,Carlsbad,1450,1450 #1450 #01450,2525 El Camino Real,CA,92008
Cinnabon,Garden City,1451,1451 #1451 #01451,630 Old Country Road,NY,11530
Cinnabon,Dalton,1459,1459 #1459 #01459,1325 W. Walnut Ave.,GA,30720
Cinnabon,National City,1460,1460 #1460 #01460,"3030 Plaza Bonita Rd., Suite FC2",CA,91950
Cinnabon,Columbus,1465,1465 #1465 #01465,"153 Easton Town Ctr Mall,  A111",OH,43219
Cinnabon,Hyattsville,1483,1483 #1483 #01483,"3500 East-West Hwy, #G",MD,20782
Cinnabon,Waldorf,1491,1491 #1491 #01491,11110 Mall Circle,MD,20603
Cinnabon,Montgomery,1493,1493 #1493 #01493,5501 Atlanta Highway,AL,36117
Cinnabon,Happy Valley,1500,1500 #1500 #01500,12000 SE 82nd  Ave. Suite # 2181,OR,97086
Cinnabon,Orlando,1514,1514 #1514 #01514,"6000 Universal Blvd., Ste 745",FL,32819
Cinnabon,Seattle,1517,1517 #1517 #01517,"401 Northgate Way, NE, Space #471",WA,98125
Cinnabon,Silverdale,1519,1519 #1519 #01519,"10315 Silverdale Way, NW",WA,98383
Cinnabon,Cincinnati,1525,1525 #1525 #01525,11700 Princeton Pike (D-3),OH,45251
Cinnabon,Dearborn,1534,1534 #1534 #01534,"18900 MI Avenue, G118",MI,48126
Cinnabon,Riverside,1549,1549 #1549 #01549,1341 Galleria @Tyler E-21,CA,92503
Cinnabon,Tallahassee,1554,1554 #1554 #01554,1500 Apalachee Parkway,FL,32301-3006
Cinnabon,Las Vegas,1558,1558 #1558 #01558,3480 South Maryland Parkway,NV,89169
Cinnabon,Plantation,1561,1561 #1561 #01561,"8000 Broward Blvd., # 507",FL,33388
Cinnabon,Reno,1572,1572 #1572 #01572,5230 Meadowood Mall Center,NV,89502
Cinnabon,Mays Landing,1580,1580 #1580 #01580,"4403 Black Horse Pike, Space 2126",NJ,8330
Cinnabon,Whitehall,1584,1584 #1584 #01584,Grape Street & MacArthur,PA,18052
Cinnabon,Henderson,1589,1589 #1589 #01589,1300 West Sunset #2801,NV,89014
Cinnabon,Hilo,1592,1592 #1592 #01592,111 East Puaninako Street,HI,96720
Cinnabon,San Mateo,1593,1593 #1593 #01593,206 Hillsdale Mall,CA,94403
Cinnabon,WA,1618,1618 #1618 #01618,"#43 National Hall, National Airport",DC,20001
Cinnabon,Atlanta,1629,1629 #1629 #01629,"1000 Cumberland Mall, Sp. 1302",GA,30339
Cinnabon,Frisco,1636,1636 #1636 #01636,"2601 Preston Road, #2134",TX,75034
Cinnabon,Aurora,1641,1641 #1641 #01641,14200 East Alameda Avenue,CO,80012
Cinnabon,Columbus,1653,1653 #1653 #01653,"1500 Polaris Parkway, #2260",OH,43240
Cinnabon,Carson,1657,1657 #1657 #01657,"20700 Avalon Blvd., Suite #620",CA,90746
Cinnabon,Daly City,1659,1659 #1659 #01659,3 Serramonte Center,CA,94015
Cinnabon,Honolulu,1665,1665 #1665 #01665,1450 Ala Moana Blvd. #1105,HI,96814
Cinnabon,Flower Mound,1674,1674 #1674 #01674,3851 Long Prairie Road,TX,75028
Cinnabon,Midland,1686,1686 #1686 #01686,5211 West Wadley,TX,79707
Cinnabon,Texas City,1688,1688 #1688 #01688,"3325 Palmer Highway, Suite C",TX,77590
Cinnabon,Wichita,1690,1690 #1690 #01690,8710 W. Central Avenue,KS,67212
Cinnabon,Belton,1709,1709 #1709 #01709,1012 East 2nd Ave.,TX,76513
Cinnabon,Houston,1715,1715 #1715 #01715,"8751 Highway 6 South, Suite Z",TX,77083
Cinnabon,Tempe,1716,1716 #1716 #01716,1401 West Southern Ave.,AZ,85282
Cinnabon,Athens,1729,1729 #1729 #01729,1490 Baxter St.,GA,30606
Cinnabon,Topeka,1730,1730 #1730 #01730,2019 Gage,KS,66604
Cinnabon,Lafayette,1731,1731 #1731 #01731,2968 Johnston St.,LA,70503
Cinnabon,Omaha,1734,1734 #1734 #01734,2782 South 129th Avenue,NE,68144
Cinnabon,Ruidoso,1740,1740 #1740 #01740,2812 Sudderth Drive,NM,88345
Cinnabon,Norman,1743,1743 #1743 #01743,2030 W. Lindsey,OK,73069
Cinnabon,Oklahoma City,1747,1747 #1747 #01747,1505 S.W. 74th St.,OK,73159
Cinnabon,Oklahoma City,1748,1748 #1748 #01748,3323 N.W. Expressway,OK,73112
Cinnabon,Oklahoma City,1750,1750 #1750 #01750,8425 N. Rockwell Ave.,OK,73132
Cinnabon,Oklahoma City,1752,1752 #1752 #01752,2620 W. Memorial Rd.,OK,73134
Cinnabon,Memphis,1754,1754 #1754 #01754,4758 Poplar Avenue,TN,38117
Cinnabon,Amarillo,1760,1760 #1760 #01760,"3440 Bell Street, Ste. 322",TX,79109
Cinnabon,Amarillo,1762,1762 #1762 #01762,"1619 Kentucky, Ste. 1350",TX,79109
Cinnabon,Austin,1768,1768 #1768 #01768,2545 W. Anderson Lane,TX,78757
Cinnabon,Austin,1790,1790 #1790 #01790,5105 Balcones Woods Dr.,TX,78759-4821
Cinnabon,Austin,1795,1795 #1795 #01795,13201 F.M. 620,TX,78717
Cinnabon,College Station,1805,1805 #1805 #01805,107 South College Avenue,TX,77840
Cinnabon,College Station,1806,1806 #1806 #01806,2210 Harvey Mitchell Parkway South,TX,77845
Cinnabon,Corpus Christi,1807,1807 #1807 #01807,4218 South Alameda,TX,78412
Cinnabon,Corpus Christi,1808,1808 #1808 #01808,11326 Leopard Street,TX,78410
Cinnabon,Denton,1814,1814 #1814 #01814,2410 South I-35 East,TX,76205
Cinnabon,Fort Worth,1824,1824 #1824 #01824,6216 Camp Bowie,TX,76116
Cinnabon,Watauga,1832,1832 #1832 #01832,6237 Rufe Snow,TX,76148
Cinnabon,Hillsboro,1844,1844 #1844 #01844,200 IH 35 N.W.,TX,76645
Cinnabon,Houston,1845,1845 #1845 #01845,10001 Westheimer #2126,TX,77042
Cinnabon,Houston,1850,1850 #1850 #01850,8200 S. Main St. Suite 100,TX,77025
Cinnabon,Baytown,1861,1861 #1861 #01861,4010 Garth Road,TX,77521
Cinnabon,Houston,1863,1863 #1863 #01863,14510 Memorial Drive,TX,77079
Cinnabon,Lubbock,1866,1866 #1866 #01866,3715 19th Street,TX,79410
Cinnabon,San Antonio,1870,1870 #1870 #01870,11803 Blanco Road,TX,78216
Cinnabon,Lewisville,1873,1873 #1873 #01873,450 E. Round Grove Road,TX,75067
Cinnabon,Atlanta,1894,1894 #1894 #01894,"2980 Cobb Pkwy., Ste. 208",GA,30339
Cinnabon,Austin,1901,1901 #1901 #01901,1915 Guadalupe Street,TX,78705
Cinnabon,Kingwood,1914,1914 #1914 #01914,1263 Kingwood Drive,TX,77339
Cinnabon,Santa Fe,1917,1917 #1917 #01917,3401 Cerrillos Road,NM,87501
Cinnabon,Sugar Land,1928,1928 #1928 #01928,15287 SW Freeway,TX,77478
Cinnabon,Houston,1929,1929 #1929 #01929,13236 B NW Freeway,TX,77040
Cinnabon,Spring,1940,1940 #1940 #01940,20920 Kuykendahl,TX,77379
Cinnabon,Waco,1952,1952 #1952 #01952,621 North Valley Mills Drive,TX,76710
Cinnabon,Friendswood,1989,1989 #1989 #01989,109 East Parkwood,TX,77546-5177
Cinnabon,El Paso,2013,2013 #2013 #02013,"1840 Lee Trevino, Suite 705",TX,79936
Cinnabon,Anderson,2053,2053 #2053 #02053,603 East Greenville St.,SC,29621
Cinnabon,Tulsa,2064,2064 #2064 #02064,2343 E. 71st St.,OK,74136
Cinnabon,Midland,2066,2066 #2066 #02066,1109 Andrews Highway,TX,79701
Cinnabon,Sierra Vista,2088,2088 #2088 #02088,3900 E. Fry Blvd.,AZ,85635-2910
Cinnabon,Phoenix,2100,2100 #2100 #02100,4445 E. Thomas Rd.,AZ,85018
Cinnabon,Houston,2107,2107 #2107 #02107,8254 Highway 6 North,TX,77095
Cinnabon,Huntsville,2108,2108 #2108 #02108,4319 University Dr.,AL,35816
Cinnabon,Gainesville,2114,2114 #2114 #02114,302-A Broad Street S.E.,GA,30501
Cinnabon,Euless,2126,2126 #2126 #02126,2323 West Airport Freeway,TX,76040
Cinnabon,Hoover,2127,2127 #2127 #02127,103 Inverness Corners,AL,35242
Cinnabon,Columbia,2141,2141 #2141 #02141,529 Bush River Road,SC,29210
Cinnabon,Springfield,2142,2142 #2142 #02142,4132 S. Campbell,MO,65807
Cinnabon,Joplin,2143,2143 #2143 #02143,531 Rangeline Road,MO,64801
Cinnabon,Nacogdoches,2150,2150 #2150 #02150,2608 North Street,TX,75965
Cinnabon,Austin,2153,2153 #2153 #02153,218 S. Lamar Blvd.,TX,78704
Cinnabon,Edina,2160,2160 #2160 #02160,3425 West 66th Street,MN,55435
Cinnabon,Grand Prairie,2166,2166 #2166 #02166,2035 N. Highway 360,TX,75050
Cinnabon,Evansville,2171,2171 #2171 #02171,301 N. Green River Rd.,IN,47715
Cinnabon,Grapevine,2176,2176 #2176 #02176,1801 S. Main Street,TX,76051
Cinnabon,San Angelo,2229,2229 #2229 #02229,302 West Harris,TX,76903
Cinnabon,Huntsville,2234,2234 #2234 #02234,11120 Memorial Pkwy. SW,AL,35803
Cinnabon,Montgomery,2255,2255 #2255 #02255,5055 Carmichael Rd.,AL,36106
Cinnabon,Bloomington,2263,2263 #2263 #02263,508 I. A. A. Drive,IL,61701
Cinnabon,Fort Worth,2277,2277 #2277 #02277,1548 Eastchase Parkway,TX,76120
Cinnabon,Irving,2291,2291 #2291 #02291,7530 N. MacArthur Blvd.,TX,75063
Cinnabon,Franklin,2344,2344 #2344 #02344,3589 Dixie Highway,OH,45005
Cinnabon,Sweetwater,2350,2350 #2350 #02350,204 South East Georgia Street,TX,79556
Cinnabon,Waco,2361,2361 #2361 #02361,1508 IH 35,TX,76706
Cinnabon,Houston,2384,2384 #2384 #02384,"6969 Gulf Freeway, Ste. 100",TX,77087
Cinnabon,NY,2387,2387 #2387 #02387,625 8th Avenue,NY,10036
Cinnabon,Veradale,2429,2429 #2429 #02429,901 Sullivan Road,WA,99037
Cinnabon,Humble,2442,2442 #2442 #02442,9781 F.M. 1960 Bypass West,TX,77338
Cinnabon,Greer,2445,2445 #2445 #02445,103 Old Boiling Springs Road,SC,29650
Cinnabon,Bend,2449,2449 #2449 #02449,62080 N.E. 27th Street,OR,97701
Cinnabon,Rio Rancho,2449,2449 #2449 #02449,1701 Rio Rancho Dr.,NM,87124
Cinnabon,Tomball,2467,2467 #2467 #02467,28431 Tomball Parkway,TX,77375
Cinnabon,Cedar Hill,2476,2476 #2476 #02476,207 East FM Road 1382,TX,75104
Cinnabon,Bastrop,2480,2480 #2480 #02480,492 State Highway 71 West,TX,78602
Cinnabon,Brea,2498,2498 #2498 #02498,"2500 E. Imperial Hwy., Ste. 196",CA,92821
Cinnabon,Greenville,2499,2499 #2499 #02499,6834 South Wesley,TX,75402
Cinnabon,Springfield,2500,2500 #2500 #02500,1316 North Glenstone,MO,65802
Cinnabon,Haltom City,2504,2504 #2504 #02504,6360 North Beach,TX,76137
Cinnabon,Dallas,2505,2505 #2505 #02505,7804 Forest Lane,TX,75230
Cinnabon,Tucson,2508,2508 #2508 #02508,3270 E. Valencia,AZ,85706
Cinnabon,Goodyear,2512,2512 #2512 #02512,395 N. Litchfield Rd.,AZ,85338
Cinnabon,Longmont,2514,2514 #2514 #02514,1266 S. Hover St.,CO,80501
Cinnabon,Rockwall,2527,2527 #2527 #02527,706 East Interstate 30,TX,75087
Cinnabon,Broken Arrow,2532,2532 #2532 #02532,1250 E. Kenosha,OK,74012
Cinnabon,Jackson,2538,2538 #2538 #02538,2451 Lakeland Drive,MS,39232
Cinnabon,Mansfield,2578,2578 #2578 #02578,2002 US Hwy 287 North,TX,76063
Cinnabon,Georgetown,2582,2582 #2582 #02582,601 S. IH-35,TX,78626
Cinnabon,Bismarck,2588,2588 #2588 #02588,2000 North 12th Street,ND,58501
Cinnabon,Greenwood Village,2589,2589 #2589 #02589,9624 East Arapahoe Road,CO,80112
Cinnabon,Denver,2590,2590 #2590 #02590,"2720 S. Colorado Blvd., Ste. 708",CO,80222
Cinnabon,Fort Worth,2597,2597 #2597 #02597,3216 S.E. Loop 820,TX,76140-1032
Cinnabon,Grand Prairie,2599,2599 #2599 #02599,2519 West I-20,TX,75052
Cinnabon,Dallas,2600,2600 #2600 #02600,8235 North Stemmons Freeway,TX,75247
Cinnabon,Colorado Springs,2601,2601 #2601 #02601,8310 Razorback Rd.,CO,80920
Cinnabon,Lexington,2609,2609 #2609 #02609,4001 Nicholasville Rd.,KY,40503
Cinnabon,Louisville,2633,2633 #2633 #02633,10531 Fischer Park Dr.,KY,40241
Cinnabon,Granbury,2637,2637 #2637 #02637,1100 Waters Edge Drive,TX,76048
Cinnabon,Weatherford,2639,2639 #2639 #02639,1831 South Main Street,TX,76086
Cinnabon,Alexandria,2651,2651 #2651 #02651,959 MacArthur Dr.,LA,71303
Cinnabon,Mission,2666,2666 #2666 #02666,6350 Johnson Dr.,KS,66202
Cinnabon,Terrell,2670,2670 #2670 #02670,1610 State Highway 34 South,TX,75160
Cinnabon,Alpharetta,2676,2676 #2676 #02676,3345 Old Milton Parkway,GA,30005
Cinnabon,Franklin,2701,2701 #2701 #02701,1708 Galleria Blvd.,TN,37067-6186
Cinnabon,Olathe,2742,2742 #2742 #02742,12221 S. Strangline Rd.,KS,66062
Cinnabon,Highlands Ranch,2750,2750 #2750 #02750,"537 W. Highlands Ranch Pky., Ste. 108",CO,80129
Cinnabon,Mesa,2751,2751 #2751 #02751,408 W. Juanita Ave.,AZ,85210
Cinnabon,Scottsdale,2782,2782 #2782 #02782,10070 N. 90th St.,AZ,85258
Cinnabon,Schertz,2785,2785 #2785 #02785,17604 North IH 35,TX,78154
Cinnabon,Green Bay,2877,2877 #2877 #02877,2420 West Mason Street,WI,54303
Cinnabon,Hobbs,2887,2887 #2887 #02887,1710 W. Joe Harvey Blvd.,NM,88240
Cinnabon,Peachtree City,2895,2895 #2895 #02895,2771 W. Highway 54,GA,30269
Cinnabon,Des Peres,2899,2899 #2899 #02899,80 West Center Drive #1225 A,MO,63131
Cinnabon,Tuscaloosa,2902,2902 #2902 #02902,405 15th St. East,AL,35401
Cinnabon,Albuquerque,2915,2915 #2915 #02915,"6001 San Mateo Blvd., Ste. G5",NM,87109
Cinnabon,Cedar Park,2918,2918 #2918 #02918,110 East Whitestone Blvd.,TX,78613
Cinnabon,Fort Worth,2923,2923 #2923 #02923,2410 Westport Parkway,TX,76177
Cinnabon,League City,3360,3360 #3360 #03360,221 South FM 270,TX,77573
Cinnabon,Phoenix,3377,3377 #3377 #03377,9016 N. Black Canyon Highway,AZ,85051
Cinnabon,San Antonio,3403,3403 #3403 #03403,1530 North Loop 1604 East,TX,78232
Cinnabon,San Antonio,3413,3413 #3413 #03413,12834 I-10 W.,TX,78249
Cinnabon,Kansas City,3448,3448 #3448 #03448,9300 N.E. Barry Rd.,MO,64157
Cinnabon,Abilene,3452,3452 #3452 #03452,1018 N. Judge Ely Blvd.,TX,79601
Cinnabon,Gastonia,3466,3466 #3466 #03466,3735 East Franklin Blvd.,NC,28056
Cinnabon,Lufkin,3484,3484 #3484 #03484,4601 South Medford,TX,75901
Cinnabon,Sunset Valley,3487,3487 #3487 #03487,"5601 Brodie Ln., Ste. 1700",TX,78745
Cinnabon,Fort Worth,3496,3496 #3496 #03496,4608 Bryant Irvin Rd. #430,TX,76132
Cinnabon,San Antonio,3497,3497 #3497 #03497,7990 Bandera Road,TX,78250
Cinnabon,Sanford,3498,3498 #3498 #03498,"112 Starport Way, Sanford FL.2",FL,32773
Cinnabon,Arlington,3499,3499 #3499 #03499,"5001 South Cooper Street, Ste. 101",TX,76017
Cinnabon,San Antonio,3500,3500 #3500 #03500,11010 Culebra Road,TX,78253
Cinnabon,San Antonio,3501,3501 #3501 #03501,"25235 IH-10, Ste 101",TX,78257
Cinnabon,IL,3511,3511 #3511 #03511,444 IL Ridge Mall,IL,60415
Cinnabon,Tulsa,3512,3512 #3512 #03512,4905 E. 41st Street,OK,74135
Cinnabon,Carrollton,3518,3518 #3518 #03518,3328 East Hebron,TX,75010
Cinnabon,Irving,3546,3546 #3546 #03546,4970 North O'Connor Road,TX,75062
Cinnabon,Newark,3581,3581 #3581 #03581,530 JFK Memorial HWY.I-95 Delaware Turnpike,DE,19702-5427
Cinnabon,League City,3613,3613 #3613 #03613,1635 FM 646,TX,77573
Cinnabon,Port Arthur,3614,3614 #3614 #03614,"8745 Memorial Blvd., Ste. 100",TX,77640
Cinnabon,Lincoln,3653,3653 #3653 #03653,4320 N. 27th Street,NE,68521
Cinnabon,Midwest City,3663,3663 #3663 #03663,2400 S. Air Depot,OK,73110
Cinnabon,Moore,3699,3699 #3699 #03699,631 SW 19th Street,OK,73160
Cinnabon,Harker Heights,3702,3702 #3702 #03702,103 West Central Texas Expressway,TX,76548
Cinnabon,Panama City Beach,3776,3776 #3776 #03776,"600 Pier Park Drive, Suite 100",FL,32413
Cinnabon,Escondido,3787,3787 #3787 #03787,"200 East Via Rancho Parkway, #425",CA,92025
Cinnabon,Magnolia,3791,3791 #3791 #03791,"6209 FM 1488, Suite A",TX,77354
Cinnabon,Willis,3799,3799 #3799 #03799,"12709 I45 South, Suite 600",TX,77318
Cinnabon,Brenham,3801,3801 #3801 #03801,2606 Highway 36 South,TX,77833
Cinnabon,Anchorage,3818,3818 #3818 #03818,321 E. Dimond Blvd.,AK,99515
Cinnabon,Colorado Springs,3829,3829 #3829 #03829,4560 Centennial Blvd.,CO,80919
Cinnabon,Round Rock,3831,3831 #3831 #03831,2700-B Parker Drive,TX,78681
Cinnabon,San Antonio,3836,3836 #3836 #03836,8311 Highway 151,TX,78245
Cinnabon,Seguin,3854,3854 #3854 #03854,330 North 123 Bypass,TX,78155
Cinnabon,Marble Falls,3856,3856 #3856 #03856,2410 Highway 281,TX,78654
Cinnabon,Toms River,3857,3857 #3857 #03857,1201 Hooper Avenue,NJ,8753
Cinnabon,Austin,3858,3858 #3858 #03858,"500 Canyon Ridge Drive, Bldg. G",TX,78753
Cinnabon,Cleburne,3859,3859 #3859 #03859,1216 W. Henderson,TX,76033
Cinnabon,Houston,3860,3860 #3860 #03860,76 Yale Street,TX,77077
Cinnabon,Wichita,3869,3869 #3869 #03869,7700 East Kellogg Drive,KS,67207
Cinnabon,Euless,3878,3878 #3878 #03878,2830 SH 121 North,TX,76039
Cinnabon,Denton,4002,4002 #4002 #04002,416 West University Drive,TX,76209
Cinnabon,Coppell,4075,4075 #4075 #04075,135 S. Denton Tap Road,TX,75019
Cinnabon,Tulsa,4442,4442 #4442 #04442,10205 S. Memorial,OK,74133
Cinnabon,Overland Park,4449,4449 #4449 #04449,12071 Metcalf Ave.,KS,66213
Cinnabon,Huntsville,4450,4450 #4450 #04450,118 IH45 South,TX,77340
Cinnabon,Temple,4451,4451 #4451 #04451,"2668 S. 31st Street, Suite A",TX,76504
Cinnabon,Lake Havasu City,4452,4452 #4452 #04452,2144 McCulloch Blvd. N,AZ,86403-6714
Cinnabon,Houston,4454,4454 #4454 #04454,"5603 FM 1960 W., Suite C",TX,77069
Cinnabon,Austin,4455,4455 #4455 #04455,"6301 W. Parmer Lane, Suite 608",TX,78729
Cinnabon,Joplin,4462,4462 #4462 #04462,"3120 S. Main St., Suite 13",MO,64804
Cinnabon,Katy,4568,4568 #4568 #04568,502 S. Mason Road,TX,77450
Cinnabon,Pearland,4608,4608 #4608 #04608,9121 Broadway,TX,77584
Cinnabon,Freehold,4611,4611 #4611 #04611,3710 Route 9,NJ,7728
Cinnabon,Fort Worth,4612,4612 #4612 #04612,6000 Camp Bowie Blvd,TX,76116
Cinnabon,Houston,4614,4614 #4614 #04614,"815 Walker Street, #T-26",TX,77002
Cinnabon,El Paso,4759,4759 #4759 #04759,"7040 N. Mesa Street, #B1",TX,79912
Cinnabon,Skokie,4764,4764 #4764 #04764,4999 Old Orchard Center,IL,60077
Cinnabon,Arlington,4783,4783 #4783 #04783,3811 South Cooper Street # 2024,TX,76051
Cinnabon,San Antonio,4795,4795 #4795 #04795,20821 US Hwy 281,TX,78258
Cinnabon,Englewood,4879,4879 #4879 #04879,39 Nathaniel Place,NJ,7631
Cinnabon,Buda,4888,4888 #4888 #04888,125 North FM 1626,TX,78610
Cinnabon,Kyle,4889,4889 #4889 #04889,19350 IH 35 South,TX,78640
Cinnabon,Orem,4892,4892 #4892 #04892,"575 East University Parkway, Suite B-48",UT,84097
Cinnabon,Ft. Bliss,4893,4893 #4893 #04893,"1613 Pleasonton Road, Suite 8-108, Ft. Bliss TX",TX,79925
Cinnabon,White Plains,4896,4896 #4896 #04896,"100 Main Street,",NY,10601
Cinnabon,Beavercreek,4899,4899 #4899 #04899,2727 Fairfield Commons #W221,OH,45431
Cinnabon,Austin,4901,4901 #4901 #04901,"8300 North FM 620, Building A, Suite 100",TX,78726
Cinnabon,The Colony,4902,4902 #4902 #04902,6360 North Josey Lane,TX,75056
Cinnabon,Dallas,4925,4925 #4925 #04925,19160 Preston Road,TX,75252
Cinnabon,Christiansburg,4936,4936 #4936 #04936,782 New River Road,VA,24073
Cinnabon,Anchorage,4949,4949 #4949 #04949,"W. 50th Ave Old Airport Rd, B-X Terminal",AK,99502
Cinnabon,Pittsburgh,4969,4969 #4969 #04969,"1000 Airport Blvd, Spaces NE-1 & NE-1A",PA,15231
Cinnabon,Boise,4984,4984 #4984 #04984,350 N.Milwaukee Avenue,ID,83704
Cinnabon,OK City,4998,4998 #4998 #04998,1505 S.W. 74th St.,OK,73159
Cinnabon,OK City,5000,5000 #5000 #05000,8425 N. Rockwell Ave.,OK,73132
Cinnabon,OK City,5001,5001 #5001 #05001,2620 W. Memorial Rd.,OK,73134
Cinnabon,Tulsa,5003,5003 #5003 #05003,2343 E. 71st St.,OK,74136
Cinnabon,Broken Arrow,5005,5005 #5005 #05005,1250 E. Kenosha,OK,74012
Cinnabon,Moorestown,5030,5030 #5030 #05030,400 S. Route 38,NJ,8057
Cinnabon,Houston,5034,5034 #5034 #05034,7501 S.W. Freeway,TX,77074
Cinnabon,Philadelphia,5035,5035 #5035 #05035,4600 City Line Avenue,PA,19131
Cinnabon,Ontario,5050,5050 #5050 #05050,"One Mills Circle, FC-01",CA,91764
Cinnabon,Stillwater,5055,5055 #5055 #05055,310 North Perkins Road,OK,74075
Cinnabon,Galveston,5091,5091 #5091 #05091,"500 Seawall Boulevard, Suite 410",TX,77550
Cinnabon,Mary Esther,5107,5107 #5107 #05107,180 Mary Esther Boulevard,FL,32569
Cinnabon,Missouri City,5113,5113 #5113 #05113,"5320 Highway 6, Suite 160",TX,77459
Cinnabon,Lincoln,5118,5118 #5118 #05118,100 Twin River Rd.,RI,2865
Cinnabon,Houston,5147,5147 #5147 #05147,"9746 Katy Freeway, Suite 700",TX,77055
Cinnabon,Nashville,5159,5159 #5159 #05159,336 Opry Mills Drive,TN,37214
Cinnabon,Suwanee,5198,5198 #5198 #05198,2941 Lawrenceville-Suwanee Road,GA,30024
Cinnabon,Stephenville,5201,5201 #5201 #05201,2012 West Washington Street,TX,76401
Cinnabon,Auburn,5203,5203 #5203 #05203,131 North Dean Road,AL,36830
Cinnabon,Livermore Valley,5204,5204 #5204 #05204,2774 Paragon Outlets Drive,CA,94551
Cinnabon,Rochester,5216,5216 #5216 #05216,"101 First Avenue SW, Suite 15",MN,55902
Cinnabon,Northeast,5217,5217 #5217 #05217,I-95 JFK Memorial Highway Mile Post 97,MD,21901
Cinnabon,Garland,5218,5218 #5218 #05218,605 Town Square Blvd. #605,TX,75040
Cinnabon,Selinsgrove,5220,5220 #5220 #05220,One Susquehanna Valley Mall Drive,PA,17870
Cinnabon,Erie,5221,5221 #5221 #05221,642 Millcreek Mall,PA,16565
Cinnabon,Atlantic City,5225,5225 #5225 #05225,"One Atlantic Ocean, Space BW 200",NJ,8401
Cinnabon,San Antonio,5228,5228 #5228 #05228,9800 Airport Blvd.,TX,78216
Cinnabon,Houston,5254,5254 #5254 #05254,4001 Richmond Ave. Suite A,TX,77027
Cinnabon,Raleigh,5265,5265 #5265 #05265,4325 Glenwood Avenue,NC,27615
Cinnabon,Grand Island,5301,5301 #5301 #05301,2511 N Diers Ave.,NE,68803
Cinnabon,Aurora,5308,5308 #5308 #05308,1304 Q Street,NE,68818
Cinnabon,Grand Island,5309,5309 #5309 #05309,3212 S. Locust,NE,68801
Cinnabon,St. Paul,5624,5624 #5624 #05624,514 2nd Street,NE,68873
Cinnabon,Omaha,5802,5802 #5802 #05802,11108 I-80 Frontage Road (Sapp Brothers Drive),NE,68128
Cinnabon,Fremont,5955,5955 #5955 #05955,Hwy 30 & Hwy 275 [3441 E. 24th Street],NE,68025
Cinnabon,Paris,6033,6033 #6033 #06033,3598 Lamar Avenue,TX,75460
Cinnabon,Hapeville,6038,6038 #6038 #06038,861 Virginia Ave,GA,30354
Cinnabon,Wichita,6042,6042 #6042 #06042,6507 E. Central #85,KS,67206
Cinnabon,Houston,6043,6043 #6043 #06043,12485 Westheimer Road,TX,77077
Cinnabon,Colorado Springs,6044,6044 #6044 #06044,2381 N. Academy Blvd.,CO,80909
Cinnabon,Pigeon Forge,6135,6135 #6135 #06135,131 The Island Drive Ste. 3104,TN,37863
Cinnabon,Pasadena,6166,6166 #6166 #06166,3834 Spencer Hwy.,TX,77504
Cinnabon,Columbia,6170,6170 #6170 #06170,10300 Little Patuxent Parkway,MD,21044
Cinnabon,San Antonio,6175,6175 #6175 #06175,2514 Nacogdoches Road,TX,78217
Cinnabon,Livingston,6179,6179 #6179 #06179,122 Eisenhower Parkway,NJ,7039
Cinnabon,Lakewood,6188,6188 #6188 #06188,14500 W. Colfax Avenue,CO,91362
Cinnabon,Lakewood,6189,6189 #6189 #06189,14500 W. Colfax Avenue,CO,91362
Cinnabon,Tigard,6205,6205 #6205 #06205,9473 SW WA Sq. Rd,OR,97223
Cinnabon,Laughlin,6211,6211 #6211 #06211,1650 S. Casino Drive,NV,89029
Cinnabon,Belmar,6215,6215 #6215 #06215,"Garden Street Pkwy, MileMarker 100",NJ,7718
Cinnabon,McGuire AFB,6217,6217 #6217 #06217,"Bldng 3452, Broidy Ave",NJ,8641
Cinnabon,Las Vegas,6233,6233 #6233 #06233,P. O. box 11007,NV,89119
Cinnabon,Phoenix,6256,6256 #6256 #06256,3400 Sky Harbor Blvd,AZ,85034
Cinnabon,Phoenix,6288,6288 #6288 #06288,"3400 Sky Harbor Blvd,",AZ,85034
Cinnabon,Charlotte,6335,6335 #6335 #06335,"PO Box 19066, Concourse A",NC,28219
Cinnabon,Southside Pennsgrove,6337,6337 #6337 #06337,1 Stumpy Lane MM 5.4,NJ,8069
Cinnabon,WA,6338,6338 #6338 #06338,P. O. Box 16316,DC,20041
Cinnabon,Lawrenceville,6339,6339 #6339 #06339,5900 Sugar Loaf Pkwy,GA,30043
Cinnabon,Ft. Jackson,6340,6340 #6340 #06340,Building 4110 Moseby Street,SC,29207
Cinnabon,Universal City,6341,6341 #6341 #06341,100 Universal City,CA,91603
Cinnabon,Universal City,6342,6342 #6342 #06342,1000 Universal City,CA,91608
Cinnabon,NY,6343,6343 #6343 #06343,Concourse Level,NY,10119
Cinnabon,Charlotte,6344,6344 #6344 #06344,14523 Carowinds Blvd.,NC,28273
Cinnabon,Colorado Springs,6345,6345 #6345 #06345,1869 S. Nevada Ave,CO,80905
Cinnabon,Placerville,6346,6346 #6346 #06346,3023 Forni Rd,CA,95667
Cinnabon,Corsicana,6347,6347 #6347 #06347,3101 Mountain Dr,TX,75109
Cinnabon,San Antonio,6348,6348 #6348 #06348,8534 Perrin-Beitel Rd,TX,78217
Cinnabon,San Antonio,6349,6349 #6349 #06349,9827 Potranco Rd,TX,78251
Cinnabon,Norridge,6351,6351 #6351 #06351,4208 Harlem Avenue,IL,60634
Cinnabon,Lakewood,6352,6352 #6352 #06352,14500 W. Colfax Avenue,CA,90714
Cinnabon,Milpitas,6353,6353 #6353 #06353,175 Great Mall Drive,CA,95035
Cinnabon,Cupertino,6355,6355 #6355 #06355,"10123 North Wolfe Road, #2021",CA,95014
Cinnabon,Odessa,6356,6356 #6356 #06356,5003 John Ben Sheppard Parkway,TX,79762
Cinnabon,Florence,6357,6357 #6357 #06357,1935 West Palmetto Street,SC,29501
Cinnabon,Tulsa,6358,6358 #6358 #06358,10205 South Memorial,OK,74137
Cinnabon,Gaithersburg,6369,6369 #6369 #06369,701 Russell Ave,MD,20877
Cinnabon,Auburn,6432,6432 #6432 #06432,"1101 Outlet Collection Way, Suite #1268",WA,98001
Cinnabon,Brookfield,6610,6610 #6610 #06610,95 N. Moorland Road,WI,53005
Cinnabon,Kansas City,6702,6702 #6702 #06702,4545 Worlds of Fun Ave.,MO,64161
Cinnabon,Waco,6800,6800 #6800 #06800,1508 I H 35,TX,76706
Cinnabon,Sierra Vista,6808,6808 #6808 #06808,3900 E. Fry Blvd.,AZ,85635
Cinnabon,Shakopee,7002,7002 #7002 #07002,Valleyfair Theme Park,MN,55379
Cinnabon,Ocean City,7003,7003 #7003 #07003,"901 N. Atlantic Ave., #3",MD,21842
Cinnabon,Copperas Cove,7005,7005 #7005 #07005,#80 Cove Terrace,TX,76522
Cinnabon,New Braunfels,7008,7008 #7008 #07008,1776 Independence Drive,TX,78130
Cinnabon,Las Cruces,7014,7014 #7014 #07014,1763 University Blvd,NM,88001
Cinnabon,Houston,7015,7015 #7015 #07015,4440 N. McCarty Street,TX,77090
Cinnabon,Ehrenberg,7101,7101 #7101 #07101,"I-10, Exit 1 S. Frontage Road",AZ,85334
Cinnabon,Knoxville,7201,7201 #7201 #07201,7210 Straw Plains Pike,TN,37914
Cinnabon,Knoxville,7325,7325 #7325 #07325,800 Watt Rd.,TN,37932
Cinnabon,Cheyenne,7326,7326 #7326 #07326,"8020 Campstool Road (I-80, Exit 367)",WY,82007
Cinnabon,Bath,7408,7408 #7408 #07408,7767 State Road 53,NY,14810
Cinnabon,Winchester,7459,7459 #7459 #07459,1530 Rest Churchu Road,VA,22624
Cinnabon,Carmel Church,7802,7802 #7802 #07802,24279 Rogers Clark Blvd.,VA,22546
Cinnabon,Milford,7805,7805 #7805 #07805,433 Old Gate Lane,CT,6460
Cinnabon,Morgantown,7806,7806 #7806 #07806,2309 Smithtown Road (I-19/ Exit 146),WV,26508
Cinnabon,Port Huron,8101,8101 #8101 #08101,2424 Wadhams Road,MI,48074
Cinnabon,Harrisonburg,8102,8102 #8102 #08102,"3634 North Valley Pike (I-81, Exit 251)",VA,22802
Cinnabon,Williston,8103,8103 #8103 #08103,13553 64th Street NW,ND,58801
Cinnabon,New Haven,8104,8104 #8104 #08104,3105 Doyle Road,IN,46774
Cinnabon,Altoona,8109,8109 #8109 #08109,"3231 Adventureland Drive (I-80 & US 65, Exit 142)",IA,50009
Cinnabon,Big Springs,8202,8202 #8202 #08202,I-80  Big Springs Road,NE,69122
Cinnabon,Brooklyn Center,8203,8203 #8203 #08203,1180 Shingle Creek Crossing,MN,55412
Cinnabon,Tucson,8206,8206 #8206 #08206,5570 E. Travel Plaza Way,AZ,85756
Cinnabon,Williams,8208,8208 #8208 #08208,3040 220th Street,IA,50271
Cinnabon,Charleston,8301,8301 #8301 #08301,"I - 57, Exit 12",MO,63834
Cinnabon,Fargo,8302,8302 #8302 #08302,3150 39th. St.,ND,58102
Cinnabon,Vandalia,8303,8303 #8303 #08303,I-75 (Exit 64)- Northwest Quandrant,OH,45377
Cinnabon,Von Ormy,8406,8406 #8406 #08406,"14555 IH35 South (I-35, Exit 140)",TX,78073
Cinnabon,Flatwoods,8407,8407 #8407 #08407,2000 Sutton Lane,WV,26621
Cinnabon,Caddo Valley,8408,8408 #8408 #08408,"I-30, Exit 78, Northwest Quadrant",AR,71923
Cinnabon,Oakwood,8515,8515 #8515 #08515,"503 N. Oakwood Street (I-74, Exit 206)",IL,61858
Cinnabon,Jonesboro,8545,8545 #8545 #08545,"1605 Stadium Blvd (Opening November 19, 2013)",AR,72401
Cinnabon,Jonesboro,8636,8636 #8636 #08636,1605 Stadium Blvd (Inside Schlotzsky's!),AR,72401
Cinnabon,Wichita,8701,8701 #8701 #08701,1140 S. Rock Road,KS,67207
Cinnabon,Tyler,8731,8731 #8731 #08731,"4601 S. Broadway Ave., Ste. K105",TX,75703
Cinnabon,Kingsland,8764,8764 #8764 #08764,491 St. Mary's Road,GA,31558
Cinnabon,Canton,8801,8801 #8801 #08801,2330 Faircrest Street,OH,44706
Cinnabon,Belmont,8806,8806 #8806 #08806,I-70 (Exit 208-SE),OH,43718
Cinnabon,Cotulla,8807,8807 #8807 #08807,"I-35, Exit 69 / NW",TX,78014
Cinnabon,Baltimore,8814,8814 #8814 #08814,2401 Liberty Heights Avenue,MD,21215
Cinnabon,Winchester,8819,8819 #8819 #08819,Apple Blossom Mall,VA,22601
Cinnabon,Novi,8857,8857 #8857 #08857,Upper Level Near JC Penney,MI,48377
Cinnabon,Elkton,8865,8865 #8865 #08865,221 Belle Hill Road (I-95 Exit 109-A),MD,21921
Cinnabon,Ruther Glen,8868,8868 #8868 #08868,23866 Rogers Clark Blvd.,VA,22546
Cinnabon,Joplin,8869,8869 #8869 #08869,11570 Hwy FF @ I-44 U.S. 71 (Exit 11-A),MO,64804
Cinnabon,Lebanon,8886,8886 #8886 #08886,921 Murfreesboro @ I-40 (Exit 238),TN,37090
Cinnabon,Pigeon Forge,8893,8893 #8893 #08893,4035 Parkway,TN,37863
Cinnabon,San Antonio,9017,9017 #9017 #09017,4105 Loop 1604 (I-37/ Exit 125),TX,78264
Cinnabon,Altoona,9018,9018 #9018 #09018,5580 Goods Lane,PA,16602
Cinnabon,Baltimore,9025,9025 #9025 #09025,6901 Security Blvd.,MD,21244
Cinnabon,Canyon,9026,9026 #9026 #09026,901 S 23rd,TX,79015
Cinnabon,Waxahachie,9054,9054 #9054 #09054,507 Highway 77N,TX,75165
Cinnabon,Belgrade,9074,9074 #9074 #09074,6505 Jackrabbit Lane,MT,59701
Cinnabon,Atlanta,9077,9077 #9077 #09077,4400 Ashford Dunwoody Road,GA,30338
Cinnabon,Lincoln,9083,9083 #9083 #09083,121 Honda Drive,AL,35096
Cinnabon,Lost Hills,9094,9094 #9094 #09094,14808 Warren Street,CA,93249
Cinnabon,Hesperia,9103,9103 #9103 #09103,8701  Highway 395,CA,92345
Cinnabon,Boron,9204,9204 #9204 #09204,5725 Highway 58,CA,93516
Cinnabon,Salinas,9205,9205 #9205 #09205,951 Work Street,CA,93901
Cinnabon,Madera,9213,9213 #9213 #09213,22717  Avenue 18 1/2,CA,93637
Cinnabon,North Palm Springs,9215,9215 #9215 #09215,6605 N. Indian Canyon Drive,CA,92258
Cinnabon,Tampa,9302,9302 #9302 #09302,11555 East Sligh Avenue,FL,33584
Cinnabon,Minooka,9901,9901 #9901 #09901,301 Ridge Road,IL,60447
Cinnabon,Hebron,9903,9903 #9903 #09903,18011 Colorado Street,IN,46341
Cinnabon,Crossville,9904,9904 #9904 #09904,2449 Genesis Road,TN,38571
Cinnabon,Hagerstown,9936,9936 #9936 #09936,11633 Greencastle Pike,MD,21740
Cinnabon,Meridian,9946,9946 #9946 #09946,1555 Tommy Webb Drive,MS,37307
Cinnabon,Burbank,9980,9980 #9980 #09980,10048 Avon Lake Road,CA,44214
Cinnabon,Central Point,9983,9983 #9983 #09983,1600 East Pine Street,OR,97502
Cinnabon,Brooks,9988,9988 #9988 #09988,4220 Brooklake Road,OR,97305
Cinnabon,Bentleyville,9991,9991 #9991 #09991,205 Wilson Road,PA,15314
Cinnabon,Cayce,9994,9994 #9994 #09994,3008 Highway 321,SC,29033
