keywords,city,Agg store_number,store_number,address,state,zip_code
Denny's,LAS VEGAS,2,2 #2,1826 S LAS VEGAS BLVD,NV,89104
Denny's,PASADENA,75,75 #75,2627 E COLORADO BLVD,CA,91107
Denny's,BAKERSFIELD,103,103 #103,2851 WHITE LANE,CA,93304
Denny's,NOGALES,116,116 #116,683 NORTH GRAND AVE,AZ,85621
Denny's,BALDWIN PARK,145,145 #145,14550 BALDWIN PK TOWNE CENTER,CA,91706
Denny's,LOS ANGELES,149,149 #149,635 S. VERMONT AVE.,CA,90005
Denny's,NO HOLLYWOOD,164,164 #164,11377 BURBANK BLVD.,CA,91601
Denny's,SYLMAR,166,166 #166,12861 ENCINITAS AVE,CA,91342
Denny's,CAMARILLO,168,168 #168,1659 E DAILEY DR,CA,93010
Denny's,SAN JOSE,170,170 #170,2401 LANAI AVE,CA,95122
Denny's,VAN NUYS,205,205 #205,15540 ROSCOE BOULEVA,CA,91406
Denny's,MIAMI,219,219 #219,3600 BISCAYNE BLVD,FL,33137
Denny's,FT. LAUDERDALE,252,252 #252,5000 N.FEDERAL HWY,FL,33308
Denny's,LAREDO,260,260 #260,3600 SANTA URSULA,TX,78041
Denny's,EMERYVILLE,276,276 #276,1776 POWELL STREET,CA,94608
Denny's,OAKLAND,296,296 #296,601 HEGENBERGER,CA,94621
Denny's,TORRANCE,305,305 #305,21270 HAWTHORNE BLVD,CA,90503
Denny's,DALY CITY,321,321 #321,#2 SERRA MONTE,CA,94015
Denny's,GILROY,392,392 #392,8425 SAN YSIDRO AVE,CA,95020
Denny's,CARBONDALE,408,408 #408,1915 W SYCAMORE,IL,62901
Denny's,CORTE MADERA,440,440 #440,5839 PARADISE DR,CA,94925
Denny's,MONTEBELLO,449,449 #449,2727 VIA CAMPO,CA,90640
Denny's,FREMONT,459,459 #459,5280 MOWRY AVE,CA,94538
Denny's,HOLLYWOOD,485,485 #485,2800 N. 28TH TERRACE,FL,33020
Denny's,PITTSBURGH,604,604 #604,271 CLAIRTON BLVD,PA,15236
Denny's,ORLANDO,653,653 #653,5825 INTERNATIONAL,FL,32819
Denny's,OAK LAWN,663,663 #663,9217 S. CICERO AVE,IL,60453
Denny's,AUSTIN,686,686 #686,7100 NORTH I-35,TX,78752
Denny's,HOUSTON,691,691 #691,11320 NORTH FREEWAY,TX,77037
Denny's,ALBANY,714,714 #714,114 WOLF ROAD,NY,12205
Denny's,BELLEVILLE,719,719 #719,1130 S.ILLINOIS ST.,IL,62220
Denny's,BATTLE CREEK,720,720 #720,4785 BECKLEY ROAD,MI,49015
Denny's,HOUSTON,818,818 #818,9810 GULF FREEWAY,TX,77034
Denny's,SAN DIEGO,891,891 #891,2420 CORONADO AVE,CA,92154
Denny's,PHOENIX,893,893 #893,5002 NORTH SEVENTH ST,AZ,85014
Denny's,BLOOMINGTON,898,898 #898,701 ELDORADO RD,IL,61704
Denny's,AUSTIN,1008,1008 #1008,2320 S INTERREGIONAL,TX,78704
Denny's,MCALLEN,1012,1012 #1012,1110 SO 10TH ST,TX,78501
Denny's,SCOTTSDALE,1023,1023 #1023,3315 N SCOTTSDALE,AZ,85251
Denny's,MARGATE,1039,1039 #1039,650 N. STATE ROAD #7,FL,33063
Denny's,FT WORTH,1047,1047 #1047,4400 SOUTH FREEWAY,TX,76115
Denny's,ANTIOCH,1059,1059 #1059,2006 SOMERSVILLE RD,CA,94509
Denny's,HIALEAH,1063,1063 #1063,1000 W 49TH ST,FL,33012
Denny's,SAN JOSE,1065,1065 #1065,2484 BERRYESSA RD,CA,95133
Denny's,ANNAPOLIS,1093,1093 #1093,2095 WEST ST,MD,21401
Denny's,MIAMI,1106,1106 #1106,19313 SO DIXIE HGWY,FL,33157
Denny's,ALTOONA,1112,1112 #1112,220 PARK HILLS PLZ,PA,16602
Denny's,KILLEEN,1119,1119 #1119,1108 S. FORT HOOD RD,TX,76541
Denny's,LOST HILLS,1138,1138 #1138,I-5 HWY 46,CA,93249
Denny's,LOS ANGELES,1144,1144 #1144,5751 SUNSET BLVD,CA,90028
Denny's,PHOENIX,1153,1153 #1153,3456 W BETHANY HOME,AZ,85017
Denny's,AURORA,1164,1164 #1164,4330 FOX VALLEY,IL,60504
Denny's,SAN JOSE,1186,1186 #1186,1015 BLOSSOM HILL RD,CA,95123
Denny's,SALINAS,1220,1220 #1220,2005 N MAIN STREET,CA,93906
Denny's,ORLANDO,1229,1229 #1229,7660 INTERNATIONAL,FL,32819
Denny's,PLANTATION,1231,1231 #1231,1727 N. UNIVERSITY,FL,33322
Denny's,COALINGA,1241,1241 #1241,25026 WEST DORRIS,CA,93210
Denny's,HAYWARD,1261,1261 #1261,30163 INDUSTRIAL,CA,94544
Denny's,YORK,1263,1263 #1263,1199 LOUCK ROAD,PA,17404
Denny's,SAN DIEGO,1268,1268 #1268,1065 CAMINO DEL RIO,CA,92108
Denny's,JOHNSTOWN,1285,1285 #1285,3156 ELTON ROAD,PA,15904
Denny's,MOLINE,1287,1287 #1287,2601 52ND AVENUE,IL,61265
Denny's,GARLAND,1292,1292 #1292,457 W. INTERSTATE 30,TX,75043
Denny's,JACKSON,1293,1293 #1293,2560 AIRPORT ROAD,MI,49202
Denny's,SAN ANTONIO,1297,1297 #1297,6859 HIGHWAY 90 WEST,TX,78227
Denny's,NORWALK,1300,1300 #1300,12616 PIONEER BLVD,CA,90650
Denny's,SAN JOSE,1318,1318 #1318,1390 SOUTH FIRST ST.,CA,95110
Denny's,MANSFIELD,1325,1325 #1325,720 N LEXINGTON-,OH,44906
Denny's,MIAMI,1337,1337 #1337,8503 SW 40TH ST,FL,33155
Denny's,MIAMI LAKES,1338,1338 #1338,16935 NW 67TH AVE,FL,33015
Denny's,MECHANICSBURG,1342,1342 #1342,5505 CARLISLE PIKE,PA,17050
Denny's,HOUSTON,1373,1373 #1373,11901 E FREEWAY,TX,77029
Denny's,BAKERSFIELD,1375,1375 #1375,2627 BUCK OWENS BLVD,CA,93308
Denny's,CHINO,1376,1376 #1376,12180 CENTRAL AVE,CA,91710
Denny's,NEW KENSINGTON,1394,1394 #1394,209 TARENTUM BRIDGE,PA,15068
Denny's,FRIENDSWOOD,1396,1396 #1396,19212 GULF FWY,TX,77546
Denny's,SAN JOSE,1405,1405 #1405,1001 E CAPITOL,CA,95121
Denny's,FRESNO,1420,1420 #1420,30 E HERNDON AVE,CA,93720
Denny's,MORENO VALLEY,1442,1442 #1442,24952 SUNNYMEAD BLVD,CA,92553
Denny's,WYOMING,1471,1471 #1471,715 44TH ST S W,MI,49509
Denny's,PLANO,1475,1475 #1475,1830 NO CENTRAL,TX,75074
Denny's,SAGINAW,1499,1499 #1499,2435 TITTABAWASSEE,MI,48604
Denny's,CLOVIS,1505,1505 #1505,710 W SHAW AVENUE,CA,93612
Denny's,ANAHEIM,1509,1509 #1509,1610 S HARBOR BLVD,CA,92802
Denny's,SAN ANTONIO,1516,1516 #1516,903 E COMMERCE ST,TX,78205
Denny's,ST LOUIS,1545,1545 #1545,6441 S LINDBERG BLVD,MO,63123
Denny's,PHOENIX,1552,1552 #1552,2717 W BELL RD,AZ,85053
Denny's,CRANBERRY TOWNSHIP,1556,1556 #1556,1346 OLD FREEDOM RD,PA,16066
Denny's,HONOLULU,1563,1563 #1563,205 LEWERS ST,HI,96815
Denny's,ST CLAIRSVILLE,1584,1584 #1584,68296 RED ROOF LANE,OH,43950
Denny's,KISSIMMEE,1592,1592 #1592,7631 W. IRLO BRONSON,FL,34747
Denny's,HAMPTON,1594,1594 #1594,1040 W MERCURY BLVD,VA,23666
Denny's,VIRGINIA BEACH,1595,1595 #1595,198 NEWTOWN RD,VA,23462
Denny's,BOCA RATON,1640,1640 #1640,1311 W PALMETTO PARK,FL,33486
Denny's,SANTA MONICA,1645,1645 #1645,1560 LINCOLN BLVD,CA,90401
Denny's,ONTARIO,1647,1647 #1647,502 N VINEYARD,CA,91764
Denny's,WILMINGTON,1669,1669 #1669,1440 W PACIFIC COAST,CA,90744
Denny's,WALDORF,1671,1671 #1671,2975 CRAIN HIGHWAY,MD,20601
Denny's,CHULA VISTA,1719,1719 #1719,110 BONITA RD,CA,91910
Denny's,HOLLYWOOD,1728,1728 #1728,6100 SUNSET,CA,90028
Denny's,VAN NUYS,1736,1736 #1736,14445 SHERMAN WAY,CA,91405
Denny's,SAN DIEGO,1743,1743 #1743,6970 ALVARADO,CA,92120
Denny's,BELLFLOWER,1752,1752 #1752,17230 LAKEWOOD BLVD,CA,90706
Denny's,BUENA PARK,1765,1765 #1765,7740 ORANGETHORPE,CA,90621
Denny's,NATIONAL CITY,1766,1766 #1766,424 W. MILE OF CARS,CA,91950
Denny's,KISSIMMEE,1773,1773 #1773,5855 W. IRLO BRONSON,FL,34746
Denny's,ORLANDO,1796,1796 #1796,9880 INTERNATIONAL,FL,32819
Denny's,METAIRIE,1800,1800 #1800,5910 VETERANS,LA,70003
Denny's,CORAL GABLES,1804,1804 #1804,1 MIRACLE MILE,FL,33134
Denny's,VIRGINIA BEACH,1826,1826 #1826,3337 VIRGINIA BEACH,VA,23452
Denny's,LATROBE,1829,1829 #1829,3870 ROUTE 30,PA,15650
Denny's,WASHINGTON,1838,1838 #1838,1395 W CHESTNUT ST,PA,15301
Denny's,BELLE VERNON,1839,1839 #1839,855 ROSTRAVER RD,PA,15012
Denny's,FREDERICK,1848,1848 #1848,1207 WEST PATRICK ST,MD,21701
Denny's,LOS ANGELES,1865,1865 #1865,400 N VERMONT AVENUE,CA,90004
Denny's,SUNNY ISLES BEACH,1880,1880 #1880,17550 COLLINS AVE,FL,33160
Denny's,LOS ANGELES,1918,1918 #1918,5535 W CENTURY,CA,90045
Denny's,BAKERSFIELD,1922,1922 #1922,2309 PANAMA LANE,CA,93307
Denny's,OCEANSIDE,1935,1935 #1935,487 HARBOR DR,CA,92054
Denny's,TULARE,1941,1941 #1941,795 E PROSPERITY AVE,CA,93274
Denny's,MESA,1970,1970 #1970,1150 S COUNTRY CLUB,AZ,85210
Denny's,NORTH HOLLYWOOD,1990,1990 #1990,13136 SHERMAN WAY,CA,91605
Denny's,SIERRA VISTA,1991,1991 #1991,2397 FRY BLVD,AZ,85635
Denny's,ST PETERS,2012,2012 #2012,3939 VETERANS,MO,63376
Denny's,AKRON,2063,2063 #2063,2943 S. ARLINGTON RD,OH,44312
Denny's,FREDERICKSBURG,2065,2065 #2065,5325 JEFFERSON DAVIS,VA,22408
Denny's,WINCHESTER,2068,2068 #2068,1601 MARTINSBURG,VA,22603
Denny's,LAS VEGAS,2110,2110 #2110,3771 S LAS VEGAS BLVD,NV,89109
Denny's,LOS ANGELES,2125,2125 #2125,3060 SAN FERNANDO RD,CA,90065
Denny's,EL SEGUNDO,2126,2126 #2126,2555 EL SEGUNDO BLVD,CA,90245
Denny's,ARCADIA,2129,2129 #2129,7 EAST HUNTINGTON DR,CA,91006
Denny's,VISALIA,2134,2134 #2134,2332 SOUTH MOONEY,CA,93277
Denny's,DALLAS,2144,2144 #2144,1415 MEDICAL DIST. DR,TX,75207
Denny's,LAS VEGAS,2269,2269 #2269,3001 S LAS VEGAS BLVD,NV,89109
Denny's,MONTEREY,2271,2271 #2271,398 FREMONT STREET,CA,93940
Denny's,LAS VEGAS,2274,2274 #2274,7200 S LAS VEGAS BLVD,NV,89119
Denny's,FRESNO,2276,2276 #2276,530 SOUTH CLOVIS AVE,CA,93727
Denny's,SURPRISE,2279,2279 #2279,14799 WEST GRAND AVE,AZ,85374
Denny's,MT. VERNON,2292,2292 #2292,4610 BROADWAY,IL,62864
Denny's,JACKSON,2293,2293 #2293,28 SAN PEBBLE ROAD,TN,38305
Denny's,HOUSTON,2297,2297 #2297,15919 NORTH FREEWAY,TX,77090
Denny's,CARLISLE,2300,2300 #2300,1501 HARRISBURG PIKE,PA,17015
Denny's,BAYTOWN,2307,2307 #2307,1876 EAST FREEWAY,TX,77521
Denny's,CLEAR BROOK,2309,2309 #2309,1530 REST CHURCH RD,VA,22624
Denny's,WALTON,2313,2313 #2313,13019 WALTON VERONA,KY,41094
Denny's,RUTHER GLEN,2315,2315 #2315,24279 ROGER CLARK BLVD,VA,22546
Denny's,MATTHEWS,2318,2318 #2318,703 STATE HWY 80,MO,63867
Denny's,SULLIVAN,2320,2320 #2320,825 NORTH LOOP DRIVE,MO,63080
Denny's,FAIRVIEW,2323,2323 #2323,1420 HWY 96 NORTH,TN,37062
Denny's,FT CHISWELL,2324,2324 #2324,139 FACTORY OUTLET DR,VA,24360
Denny's,FRANKLIN,2325,2325 #2325,4380 SOUTH NASHVILLE RD,KY,42134
Denny's,JACKSON,2326,2326 #2326,1125 BUCKSNORT ROAD,GA,30233
Denny's,WYTHEVILLE,2328,2328 #2328,3249 CHAPMAN ROAD,VA,24382
Denny's,HOPE HULL (TYSON),2329,2329 #2329,900 TYSON RD,AL,36043
Denny's,DOTHAN,2331,2331 #2331,2190 ROSS CLARK CIRCLE,AL,36301
Denny's,PEARL,2332,2332 #2332,685 HWY 80 EAST,MS,39208
Denny's,LAS VEGAS,2337,2337 #2337,450 FREMONT STREET,NV,89101
Denny's,OCEANSIDE,2340,2340 #2340,605 COLLEGE BLVD,CA,92057
Denny's,MIAMI,2342,2342 #2342,12000 N KENDALL DRIVE,FL,33186
Denny's,MILLERSPORT,2343,2343 #2343,10480 BALTIMORE,OH,43046
Denny's,KAPOLEI,3006,3006 #3006,"4470 KAPOLEI PARKWAY, STE 800",HI,96707
Denny's,FONTANA,6001,6001 #6001,17009-A VALLEY BLVD.,CA,92335
Denny's,STATE COLLEGE,6007,6007 #6007,1860 N ATHERTON ST,PA,16801
Denny's,KELSO,6008,6008 #6008,110 KELSO DR,WA,98626
Denny's,SAN ANGELO,6013,6013 #6013,427 W AVENUE I,TX,76901
Denny's,SALISBURY,6014,6014 #6014,405 PUNKIN COURT,MD,21804
Denny's,MIDLAND,6016,6016 #6016,3701 W WALL AVE,TX,79703
Denny's,CRESCENT CITY,6023,6023 #6023,1225 5TH ST,CA,95531
Denny's,BIG SPRING,6027,6027 #6027,1710 E 3RD ST,TX,79720
Denny's,ORLANDO,6039,6039 #6039,12375 STATE RD 535,FL,32836
Denny's,LAVALE,6040,6040 #6040,1239 NATIONAL HWY,MD,21502
Denny's,GLEN BURNIE,6041,6041 #6041,6302 RITCHIE HWY,MD,21061
Denny's,SAN ANTONIO,6054,6054 #6054,6801 BLANCO RD,TX,78216
Denny's,DURANGO,6058,6058 #6058,666 CAMINO DEL RIO,CO,81301
Denny's,ARTESIA,6059,6059 #6059,16907 S PIONEER BLVD,CA,90701
Denny's,BISHOP,6064,6064 #6064,1014 N MAIN ST,CA,93514
Denny's,SAN DIMAS,6076,6076 #6076,548 W ARROW HWY,CA,91773
Denny's,GRAND JUNCTION,6091,6091 #6091,710 HORIZON DR,CO,81501
Denny's,ROCKLIN,6104,6104 #6104,4460 ROCKLIN RD,CA,95677
Denny's,PALM COAST,6106,6106 #6106,7 KINGS HWY,FL,32137
Denny's,MONONA,6107,6107 #6107,1201 E BROADWAY,WI,53716
Denny's,EDGEWOOD,6140,6140 #6140,1803 EDGEWOOD RD,MD,21040
Denny's,GALLOWAY,6150,6150 #6150,242 E WHITE HORSE PIKE,NJ,8205
Denny's,REDDING,6160,6160 #6160,542 E CYPRESS ST,CA,96002
Denny's,BATTLEBORO,6171,6171 #6171,7135 NC #4,NC,27809
Denny's,CORPUS CHRISTI,6177,6177 #6177,5165 INTERSTATE 37,TX,78408
Denny's,CORPUS CHRISTI,6179,6179 #6179,4918 S PADRE ISLAND DR,TX,78411
Denny's,WENATCHEE,6206,6206 #6206,1337 N WENATCHEE AVE,WA,98801
Denny's,FRESNO,6209,6209 #6209,3120 N BLACKSTONE AVE,CA,93703
Denny's,FRESNO,6210,6210 #6210,2568 S EAST AVE,CA,93706
Denny's,ALBUQUERQUE,6212,6212 #6212,2400 SAN MATEO BLVD NE,NM,87110
Denny's,SANTA FE,6213,6213 #6213,3004 CERRILLOS RD,NM,87507
Denny's,ALBUQUERQUE,6214,6214 #6214,11261 MENAUL BLVD NE,NM,87112
Denny's,MERCED,6217,6217 #6217,1128 W 13TH ST,CA,95341
Denny's,LOS ANGELES,6220,6220 #6220,8601 S BELLANCA AVE,CA,90045
Denny's,VICTORIA,6224,6224 #6224,7601 NAVARRO ST,TX,77904
Denny's,SAN ANTONIO,6226,6226 #6226,7138 NW LOOP 410,TX,78238
Denny's,EL CAJON,6227,6227 #6227,2691 NAVAJO RD,CA,92020
Denny's,LOS ANGELES,6231,6231 #6231,530 RAMIREZ ST,CA,90012
Denny's,ROSWELL,6234,6234 #6234,2200 N MAIN ST,NM,88220
Denny's,CARLSBAD,6236,6236 #6236,810 W PIERCE ST,NM,88220
Denny's,BISMARCK,6240,6240 #6240,405 S 7TH ST,ND,58504
Denny's,ST GEORGE,6260,6260 #6260,1215 S MAIN ST,UT,84770
Denny's,PERRYVILLE,6262,6262 #6262,41 HEATHER LANE,MD,21903
Denny's,SAN DIEGO,6265,6265 #6265,2445 EL CAJON BLVD,CA,92104
Denny's,SAN ANTONIO,6276,6276 #6276,7122 INTERSTATE 35-S,TX,78224
Denny's,DOSWELL,6288,6288 #6288,16102 THEME PARKWAY,VA,23047
Denny's,SALEM,6291,6291 #6291,1812 W MAIN ST,IL,62881
Denny's,BEDFORD,6296,6296 #6296,4276 BUSINESS ROUTE 220,PA,15522
Denny's,ALBUQUERQUE,6301,6301 #6301,1602 COORS ROAD NW,NM,87121
Denny's,COSTA MESA,6302,6302 #6302,3170 HARBOR BLVD,CA,92626
Denny's,TEMPE,6306,6306 #6306,825 S 48TH ST,AZ,85281
Denny's,FORT COLLINS,6313,6313 #6313,420 CENTRO WAY,CO,80524
Denny's,ROTHSCHILD,6318,6318 #6318,1500 COUNTY HWY XX,WI,54474
Denny's,PHOENIX,6320,6320 #6320,2120 E CACTUS RD,AZ,85022
Denny's,SCOTTSDALE,6348,6348 #6348,9160 E INDIAN BEND RD,AZ,85256
Denny's,ARLINGTON,6351,6351 #6351,2202 STATE RT 530 NE,WA,98223
Denny's,PORTLAND,6353,6353 #6353,1220 BRIGHTON AVE,ME,4102
Denny's,AUBURN,6354,6354 #6354,211 COURT ST,ME,4210
Denny's,PORTLAND,6355,6355 #6355,1091-1107 CONGRESS ST,ME,4102
Denny's,GLENDALE,6356,6356 #6356,10614 N 43RD AVE,AZ,85306
Denny's,PEORIA,6357,6357 #6357,8737 NW GRAND AVE,AZ,85345
Denny's,ELDERSBURG,6360,6360 #6360,6400 RIDGE RD,MD,21784
Denny's,HOLBROOK,6361,6361 #6361,2510 NAVAJO BLVD,AZ,86025
Denny's,SPRINGFIELD,6363,6363 #6363,987 KRUSE WAY,OR,97477
Denny's,SOUTH BURLINGTON,6365,6365 #6365,730 SHELBURNE RD,VT,5403
Denny's,ORLANDO,6366,6366 #6366,11915 E COLONIAL DR,FL,32825
Denny's,SALEM,6369,6369 #6369,3155 RYAN DR SE,OR,97301
Denny's,HAWTHORNE,6370,6370 #6370,13201 HAWTHORNE BLVD,CA,90250
Denny's,RIDGECREST,6371,6371 #6371,104 CHINA LAKE BLVD,CA,93555
Denny's,PHOENIX,6372,6372 #6372,4120 N 51ST AVE,AZ,85031
Denny's,ANAHEIM,6377,6377 #6377,1168 W KATELLA AVE,CA,92802
Denny's,LAKE ST LOUIS,6378,6378 #6378,1300 LAKE ST LOUIS BLVD,MO,63367
Denny's,OCOEE,6379,6379 #6379,11261 W COLONIAL DR,FL,34761
Denny's,EL CAJON,6392,6392 #6392,665 N MOLLISON AVE,CA,92021
Denny's,ST PETERSBURG,6394,6394 #6394,4999 34TH ST NORTH,FL,33714
Denny's,WISCONSIN DELLS,6399,6399 #6399,600 S FRONTAGE RD,WI,53965
Denny's,EASTON,6402,6402 #6402,8493 OCEAN GATEWAY,MD,21601
Denny's,CALEXICO,6403,6403 #6403,110 W COLE RD,CA,92231
Denny's,SANTA ROSA,6408,6408 #6408,2483 HISTORIC RT 66,NM,88435
Denny's,MT VERNON,6415,6415 #6415,1610 RICHMOND ST,KY,40456
Denny's,YORBA LINDA,6418,6418 #6418,22611 OAK CREST CIRCLE,CA,92887
Denny's,ALBUQUERQUE,6419,6419 #6419,2608 CENTRAL SE,NM,87106
Denny's,SILVER SPRINGS,6421,6421 #6421,5751 E SILVER SPRINGS BLVD,FL,34488
Denny's,PHOENIX,6423,6423 #6423,2360 W NORTHERN AVE,AZ,85021
Denny's,FT MYERS,6424,6424 #6424,9340 MARKETPLACE RD,FL,33912
Denny's,ORLANDO,6425,6425 #6425,5725 TG LEE BLVD,FL,32822
Denny's,LA HABRA,6449,6449 #6449,1150 S BEACH BLVD,CA,90631
Denny's,IRVING,6450,6450 #6450,8120 ESTERS BLVD,TX,75063
Denny's,MOJAVE,6451,6451 #6451,16262 SIERRA HWY,CA,93501
Denny's,TERRE HAUTE,6452,6452 #6452,233 S 3RD ST,IN,47807
Denny's,VINELAND,6455,6455 #6455,1001 W LANDIS AVE,NJ,8360
Denny's,BARSTOW,6456,6456 #6456,2830 LENWOOD RD,CA,92311
Denny's,OAKLAND,6460,6460 #6460,1000 STARLITE PLAZA,MD,21550
Denny's,MESQUITE,6470,6470 #6470,4004 EMPORIUM CIRCLE,TX,75150
Denny's,SCOTTSDALE,6476,6476 #6476,7605 E MCDOWELL RD,AZ,85260
Denny's,W LEBANON,6478,6478 #6478,261 PLAINFIELD ROAD,NH,3784
Denny's,SELMA,6481,6481 #6481,55 JR ROAD,NC,27576
Denny's,CORDELE,6484,6484 #6484,2115 E 16TH AVE,GA,31015
Denny's,EFFINGHAM,6486,6486 #6486,1307 N KELLER DR,IL,62401
Denny's,LA MESA,6488,6488 #6488,4235 SPRING ST,CA,91941
Denny's,OWENSBORO,6497,6497 #6497,4545 FREDERICA STREET,KY,42301
Denny's,EUSTIS,6505,6505 #6505,16150 US HWY 441,FL,32726
Denny's,MOKENA,6506,6506 #6506,19099 S OLD LAGRANGE RD,IL,60448
Denny's,STONY CREEK,6511,6511 #6511,10404 BLUE STAR HWY,VA,23882
Denny's,DANBURY,6512,6512 #6512,61 NEWTOWN RD,CT,6810
Denny's,LAKEWOOD,6513,6513 #6513,2634 E CARSON ST,CA,90712
Denny's,BURBANK,6514,6514 #6514,1010 W ALAMEDA AVE,CA,91506
Denny's,TUCSON,6515,6515 #6515,3655 E SPEEDWAY BLVD,AZ,85716
Denny's,ABILENE,6519,6519 #6519,120 EAST I-20,TX,79601
Denny's,ORLANDO,6520,6520 #6520,440 S SEMORAN BLVD,FL,32807
Denny's,JACKSON,6521,6521 #6521,200 S HWY 49,CA,95642
Denny's,RUTLAND,6529,6529 #6529,"361 S. MAIN ST., US RT 7 SO.",VT,5701
Denny's,WOODBURN,6530,6530 #6530,2919 NEWBERG HWY,OR,97071
Denny's,FARGO,6533,6533 #6533,4437 13TH AVE SW,ND,58103
Denny's,PRESCOTT VALLEY,6534,6534 #6534,7925 E HWY 69,AZ,86312
Denny's,CITY OF COMMERCE,6536,6536 #6536,7268 E GAGE AVE,CA,90040
Denny's,JANESVILLE,6541,6541 #6541,632 MIDLAND RD,WI,53546
Denny's,CAMP VERDE,6545,6545 #6545,1630 W HIGHWAY 260,AZ,86322
Denny's,OCEAN CITY,6555,6555 #6555,11201 COASTAL HWY,MD,21842
Denny's,PHOENIX,6556,6556 #6556,1401 N 75TH AVE,AZ,85043
Denny's,ENGLEWOOD,6573,6573 #6573,275 W HAMPDEN AVE,CO,80110
Denny's,SPOKANE,6581,6581 #6581,NORTH 6 PINES,WA,99206
Denny's,COEUR D' ALENE,6582,6582 #6582,2300 N 4TH ST,ID,83814
Denny's,HENDERSON,6588,6588 #6588,1524 DABNEY DR,NC,27536
Denny's,CORONA,6590,6590 #6590,165 MCKINLEY ST,CA,92879
Denny's,BROOKSVILLE,6591,6591 #6591,31015 CORTEZ BLVD,FL,34602
Denny's,KERRVILLE,6593,6593 #6593,209 SIDNEY BAKER BLVD,TX,78028
Denny's,SAVANNAH,6594,6594 #6594,1 GATEWAY BLVD,GA,31419
Denny's,BALTIMORE,6600,6600 #6600,1995 E JOPPA RD,MD,21234
Denny's,ARDMORE,6605,6605 #6605,2705 W BROADWAY,OK,73401
Denny's,SAN BERNARDINO,6606,6606 #6606,5975 N PALM AVE,CA,92407
Denny's,SAN FRANCISCO,6607,6607 #6607,495 BEACH ST,CA,94133
Denny's,SALINA,6609,6609 #6609,1525 S STATE ST,UT,84654
Denny's,PHOENIX,6612,6612 #6612,3205 E BELL RD,AZ,85032
Denny's,LEESBURG,6613,6613 #6613,2480 CITRUS BLVD,FL,34748
Denny's,TUCSON,6614,6614 #6614,2630 E VALENCIA RD,AZ,85706
Denny's,PEORIA,6619,6619 #6619,8131 W BELL RD,AZ,85382
Denny's,STOCKTON,6620,6620 #6620,3950 WATERLOO RD,CA,95215
Denny's,SHOW LOW,6624,6624 #6624,4471 WHITE MOUNTAIN RD,AZ,85901
Denny's,RALEIGH,6625,6625 #6625,3215 WAKE FOREST RD,NC,27609
Denny's,OMAHA,6635,6635 #6635,3509 S 84TH ST,NE,68124
Denny's,BOISE,6639,6639 #6639,2580 AIRPORT WAY,ID,83705
Denny's,NAMPA,6640,6640 #6640,607 NORTHSIDE BLVD,ID,83687
Denny's,KEYSER,6641,6641 #6641,RR3 BOX 3188,WV,26726-9415
Denny's,TEMPE,6644,6644 #6644,1994 W BASELINE,AZ,85283
Denny's,MESA,6648,6648 #6648,1330 S POWER RD,AZ,85206
Denny's,GALLUP,6649,6649 #6649,3810 E HWY 66,NM,87301
Denny's,VALDOSTA,6650,6650 #6650,1328 ST AUGUSTINE RD,GA,31602
Denny's,TUSTIN,6652,6652 #6652,1571 EL CAMINO REAL,CA,92780
Denny's,SARASOTA,6653,6653 #6653,3701 BEE RIDGE RD,FL,34233
Denny's,TEXARKANA,6656,6656 #6656,5104 N STATE LINE,AR,71854
Denny's,GLENDALE,6669,6669 #6669,5161 W THUNDERBIRD RD,AZ,85306
Denny's,OKLAHOMA CITY,6670,6670 #6670,3130 DOUGLAS BLVD,OK,73150
Denny's,WILLIAMS,6671,6671 #6671,2550 W ROUTE 66,AZ,86046
Denny's,HOPEWELL,6672,6672 #6672,5111 OAKLAWN BLVD,VA,23860
Denny's,AMARILLO,6673,6673 #6673,2116 S GEORGIA ST,TX,79109
Denny's,AMARILLO,6674,6674 #6674,1710 I-40 EAST,TX,79103
Denny's,LUBBOCK,6675,6675 #6675,607 AVENUE Q,TX,79401
Denny's,LUBBOCK,6676,6676 #6676,4718 SLIDE RD,TX,79414
Denny's,WICHITA FALLS,6677,6677 #6677,1206 CENTRAL FRWY N,TX,76301
Denny's,ROYAL PALM BEACH,6679,6679 #6679,300 CIVIC CENTER WAY,FL,33411
Denny's,STOCKTON,6686,6686 #6686,5033 S HWY 99 E FRONTAGE RD,CA,95215
Denny's,PAYSON,6688,6688 #6688,312 S BEELINE HWY,AZ,85541
Denny's,BILLINGS,6689,6689 #6689,501 N 27TH ST,MT,59101
Denny's,WEST HAVEN,6691,6691 #6691,487 SAWMILL RD,CT,6516
Denny's,BURLESON,6693,6693 #6693,868 NE ASBURY BLVD,TX,76028
Denny's,RICHLAND,6694,6694 #6694,1301A GEORGE WASHINGTON WAY,WA,99354
Denny's,KENNEWICK,6695,6695 #6695,2801 W KENNEWICK,WA,99336
Denny's,PENDLETON,6696,6696 #6696,610 TUTUILLA RD,OR,97801
Denny's,LA GRANDE,6697,6697 #6697,2604 ISLAND AVE,OR,97850
Denny's,CONCORD,6699,6699 #6699,1313 WILLOW PASS RD,CA,94520
Denny's,UPLAND,6702,6702 #6702,825 W FOOTHILL BLVD,CA,91786
Denny's,FT BRAGG,6703,6703 #6703,901 N MAIN ST,CA,95437
Denny's,CARSON,6706,6706 #6706,600 CARSON PLAZA DR,CA,90746
Denny's,LAYTON,6708,6708 #6708,991 N 400 W,UT,84041
Denny's,TREMONTON,6710,6710 #6710,2341 W MAIN ST,UT,84337
Denny's,VIERA,6713,6713 #6713,8175 N WICKHAM RD,FL,32940
Denny's,N AURORA,6714,6714 #6714,412 S LINCOLNWAY,IL,60542
Denny's,SANTA ANA,6715,6715 #6715,1501 W 17TH ST,CA,92706
Denny's,TUCSON,6716,6716 #6716,4920 W INA RD,AZ,85741
Denny's,HERKIMER,6717,6717 #6717,701 MOHAWK ST,NY,13350
Denny's,SANFORD,6719,6719 #6719,4650 W STATE RD,FL,32771
Denny's,EVANSVILLE,6738,6738 #6738,3901 HWY 41 N,IN,47711
Denny's,S JORDAN,6739,6739 #6739,10646 S 300 WS,UT,84095
Denny's,GREEN VALLEY,6742,6742 #6742,18875 S I-19 FRONTAGE RD.,AZ,85614
Denny's,TUCSON,6743,6743 #6743,3702 E IRVINGTON RD,AZ,85714
Denny's,CASA GRANDE,6750,6750 #6750,1851 E FLORENCE BLVD,AZ,85122
Denny's,ONTARIO,6753,6753 #6753,76 E. GOODFELLOW ST,OR,97914
Denny's,GURNEE,6754,6754 #6754,6429 GRAND AVE,IL,60031
Denny's,COTTONWOOD,6755,6755 #6755,2211 E HWY 89A,AZ,86326
Denny's,GOODYEAR,6758,6758 #6758,1218 N LITCHFIELD RD,AZ,85338
Denny's,CORPUS CHRISTI,6759,6759 #6759,2931 HWY 77,TX,78410
Denny's,CHANDLER,6760,6760 #6760,7400 W CHANDLER BLVD,AZ,85226
Denny's,OAKDALE,6763,6763 #6763,1555 EAST F ST,CA,95361
Denny's,ELK GROVE,6766,6766 #6766,8707 ELK GROVE BLVD,CA,95624
Denny's,ROUND ROCK,6768,6768 #6768,2700 NORTH IH-35,TX,78681
Denny's,FOUNTAIN HILLS,6769,6769 #6769,17053 E SHEA BLVD,AZ,85268
Denny's,RANCHO CUCAMONGA,6770,6770 #6770,11899 FOOTHILLS BLVD,CA,91730
Denny's,SCHERTZ,6771,6771 #6771,17455 IH 35 N,TX,78154
Denny's,VENTURA,6772,6772 #6772,2148 E HARBOR,CA,93001
Denny's,PORT HUENEME,6773,6773 #6773,2511 N VENTURA RD,CA,93041
Denny's,OXNARD,6774,6774 #6774,1255 N OXNARD,CA,93030
Denny's,NEWCASTLE,6775,6775 #6775,681 NEWCASTLE RD,CA,95658
Denny's,RIVERSIDE,6780,6780 #6780,3530 MADISON ST,CA,92504
Denny's,WILSONVILLE,6781,6781 #6781,30175 SW PARKWAY AVE,OR,97070
Denny's,GRAND PRAIRIE,6782,6782 #6782,408 WESTCHASE DRIVE,TX,75052
Denny's,IDAHO FALLS,6787,6787 #6787,950 LINDSEY BLVD,ID,83401
Denny's,BRANSON,6788,6788 #6788,2335 W HWY 76,MO,65616
Denny's,RESEDA,6789,6789 #6789,7600 RESEDA BLVD,CA,91335
Denny's,WINTER PARK,6795,6795 #6795,3096 ALOMA AVE,FL,32792
Denny's,FLORIDA CITY,6796,6796 #6796,401 SE 1ST AVE,FL,33034
Denny's,HOUSTON,6797,6797 #6797,13031 FM 1960 W,TX,77065
Denny's,NIAGARA FALLS,6798,6798 #6798,443 MAIN ST,NY,14301
Denny's,MCKINLEYVILLE,6799,6799 #6799,1500 ANA SPARKS WAY,CA,95519
Denny's,PORTLAND,6800,6800 #6800,425 NE HASSALO ST,OR,97232
Denny's,PORTLAND,6801,6801 #6801,11950 N. CENTER STREET,OR,97217
Denny's,PORTLAND,6803,6803 #6803,8787 SW SCHOLLS FERRY RD,OR,97223-4409
Denny's,HAPPY VALLEY,6804,6804 #6804,12101 SE 82ND AVE,OR,97086
Denny's,PORTLAND,6806,6806 #6806,10428 S E STARK,OR,97216
Denny's,THE DALLES,6807,6807 #6807,1710 W 6TH AVE,OR,97058
Denny's,CLACKAMAS,6810,6810 #6810,15815 SE 82ND DR,OR,97015
Denny's,SALEM,6811,6811 #6811,3680 MARKET ST NE,OR,97301
Denny's,LAKE ELSINORE,6816,6816 #6816,31760 GRAPE ST,CA,92532
Denny's,ROSENBURG,6818,6818 #6818,27960 SW FREEWAY,TX,77471
Denny's,REDWOOD CITY,6820,6820 #6820,1201 BROADWAY,CA,94063
Denny's,ORLANDO,6822,6822 #6822,11037 INTERNATIONAL DR,FL,32821
Denny's,LAKELAND,6824,6824 #6824,4325 S FLORIDA AVE,FL,33813
Denny's,BRANDON,6825,6825 #6825,1301 W. BRANDON BLVD,FL,33511
Denny's,CITY OF COMMERCE,6826,6826 #6826,5142 TRIGGS ST,CA,90022
Denny's,EVANSVILLE,6827,6827 #6827,351 N GREEN RIVER RD,IN,47715
Denny's,ENCINITAS,6828,6828 #6828,135 ENCINITAS BLVD,CA,92024
Denny's,PORT ST LUCIE,6832,6832 #6832,10111 S US 1,FL,34952
Denny's,FT LAUDERDALE,6833,6833 #6833,1661 S FEDERAL HWY,FL,33316
Denny's,MADISONVILLE,6834,6834 #6834,20 RUBY DRIVE,KY,42431
Denny's,MOAB,6835,6835 #6835,989 N HWY 191,UT,84532
Denny's,SHAWNEE,6840,6840 #6840,4903 N HARRISON,OK,74801
Denny's,TAMPA,6844,6844 #6844,2004 N DALE MABRY HWY,FL,33607
Denny's,SHELTON,6845,6845 #6845,E 301 WALLACE-KNEELAND BLVD,WA,98584
Denny's,ONTARIO,6846,6846 #6846,1409 E 4TH ST,CA,91762
Denny's,POMONA,6847,6847 #6847,1504 GILLETTE RD,CA,91768
Denny's,VICTORVILLE,6851,6851 #6851,14244 VALLEY CENTER DR,CA,92392
Denny's,WEST COVINA,6854,6854 #6854,645 N AZUSA,CA,91791
Denny's,CORDELIA,6855,6855 #6855,260 PITTMAN RD,CA,94585
Denny's,MT JACKSON,6857,6857 #6857,250 CONICVILLE BLVD.,VA,22842
Denny's,CRYSTAL RIVER,6861,6861 #6861,2380 NW HWY 19,FL,34428
Denny's,CARPENTERSVILLE,6862,6862 #6862,200 SPRINGHILL DR,IL,60110
Denny's,THOUSAND PALMS,6863,6863 #6863,72244 VARNER RD,CA,92276
Denny's,RUBIDOUX,6864,6864 #6864,6875 VALLEY WAY,CA,92509
Denny's,LOS ANGELES,6865,6865 #6865,3750 WILSHIRE BLVD,CA,90010
Denny's,CEDAR CITY,6867,6867 #6867,255 N 1100 WEST,UT,84720
Denny's,PAGE,6869,6869 #6869,669 SCENIC VIEW DR,AZ,86040
Denny's,SPOKANE,6870,6870 #6870,3711 S GEIGER BLVD,WA,99224
Denny's,SAN BERNARDINO,6871,6871 #6871,702 E HIGHLAND AVE,CA,92404
Denny's,SAN FRANCISCO,6873,6873 #6873,816 MISSION ST,CA,94103
Denny's,BILLINGS,6875,6875 #6875,2010 OVERLAND AVE,MT,59102
Denny's,FALLBROOK,6876,6876 #6876,713 SOUTH MAIN ST,CA,92028
Denny's,JASPER,6878,6878 #6878,3850 NEWTON ST,IN,47546
Denny's,EVANSVILLE,6879,6879 #6879,5212 WESTON RD,IN,47713
Denny's,STOCKTON,6881,6881 #6881,4747 PACIFIC AVE.,CA,95207
Denny's,EVANSVILLE,6882,6882 #6882,19501 ELPHERS RD,IN,47711
Denny's,MISSOULA,6884,6884 #6884,2922 BROOKS ST,MT,59801
Denny's,LATHROP,6886,6886 #6886,16851 HARLAN RD,CA,95330
Denny's,BROOKLYN CENTER,6887,6887 #6887,6405 JAMES CIRCLE N,MN,55430
Denny's,OKLAHOMA CITY,6888,6888 #6888,3030 SOUTH I-35,OK,73129
Denny's,SALEM,6891,6891 #6891,2039 W MAIN ST,VA,24153
Denny's,HAGERSTOWN,6892,6892 #6892,1630 DUAL HWY,MD,21740
Denny's,RICHMOND HILL,6893,6893 #6893,3944 HIGHWAY 17 S,GA,31324
Denny's,MANTECA,6895,6895 #6895,1135 S MAIN ST,CA,95336
Denny's,DALE,6896,6896 #6896,812 N. CONNER COURT,IN,47523
Denny's,DEMING,6899,6899 #6899,120 N PLATINUM,NM,88030
Denny's,EDMOND,6900,6900 #6900,1100 E 2ND ST,OK,73034
Denny's,MAYWOOD,6903,6903 #6903,5900 ATLANTIC BLVD,CA,90270
Denny's,CHINO HILLS,6904,6904 #6904,3370 GRAND AVE,CA,91709
Denny's,CANOGA PARK,6906,6906 #6906,8330 TOPANGA CANYON BLVD,CA,91306
Denny's,LAMAR,6907,6907 #6907,54 SE 1ST LANE,MO,64759
Denny's,EL PASO,6909,6909 #6909,9567 DYER ST,TX,79924
Denny's,EL PASO,6910,6910 #6910,6144 GATEWAY E,TX,79905
Denny's,EL PASO,6912,6912 #6912,11045 GATEWAY W,TX,79935
Denny's,TUCSON,6913,6913 #6913,555 N FREEWAY,AZ,85745
Denny's,TUCSON,6914,6914 #6914,6484 E BROADWAY,AZ,85710
Denny's,TUCSON,6915,6915 #6915,5000 ORACLE RD,AZ,85704
Denny's,SANTA CLARA,6917,6917 #6917,1745 EL CAMINO REAL,CA,95050
Denny's,SAN LEANDRO,6918,6918 #6918,1803 MARINA BLVD,CA,94577
Denny's,SAN LEANDRO,6919,6919 #6919,15015 FREEDOM AVE,CA,94578
Denny's,SAN JOSE,6921,6921 #6921,1490 N 1ST ST,CA,95112
Denny's,BARTOW,6923,6923 #6923,1035 N BROADWAY,FL,33830
Denny's,DAYTONA BEACH,6925,6925 #6925,3162 S ATLANTIC AVE,FL,32118
Denny's,PORT ORANGE,6926,6926 #6926,1641 DUNLAWTON AVE,FL,32127
Denny's,NEW SMYRNA BEACH,6927,6927 #6927,1830 STATE RD 44,FL,32168
Denny's,SANFORD,6929,6929 #6929,3771 ORLANDO DR,FL,32773
Denny's,HOUSTON,6930,6930 #6930,12405 WESTHEIMER RD,TX,77077
Denny's,SPRING HILL,6931,6931 #6931,1445 WENDY COURT,FL,34607
Denny's,BENSON,6932,6932 #6932,825 N OCOTILLO RD,AZ,86502
Denny's,BAYTOWN,6936,6936 #6936,7207 GARTH ROAD,TX,77521
Denny's,BIG BEAR,6940,6940 #6940,41196 BIG BEAR BLVD,CA,92315
Denny's,PHOENIX,6942,6942 #6942,2525 W DEER VALLEY RD,AZ,85027
Denny's,EL PASO,6944,6944 #6944,11315 MONTWOOD DR,TX,79936
Denny's,ROME,6951,6951 #6951,200 S JAMES ST,NY,13440
Denny's,YUCCA VALLEY,6952,6952 #6952,56895 29 PALMS HWY,CA,92284
Denny's,SPOKANE,6954,6954 #6954,2022 N ARGONNE RD,WA,99212
Denny's,HANOVER,6955,6955 #6955,1365 MELLON RD,MD,21076
Denny's,WILSON,6957,6957 #6957,2806 RALEIGH RD PARKWAY W,NC,27893
Denny's,GREENVILLE,6958,6958 #6958,808 S MEMORIAL DR,NC,27834
Denny's,EL RENO,6959,6959 #6959,2703 S COUNTRY CLUB RD,OK,73036
Denny's,CHULA VISTA,6962,6962 #6962,692 E ST,CA,91910
Denny's,PONTOON BEACH,6963,6963 #6963,4111 TIMBERLAKE DRIVE,IL,62040
Denny's,MCALESTER,6966,6966 #6966,600 S 69 BYPASS,OK,74501
Denny's,DAYTONA BEACH,6970,6970 #6970,1446 INT'L SPEEDWAY BLVD,FL,32114
Denny's,ROANOKE,6973,6973 #6973,3429 ORANGE AVE,VA,24012
Denny's,LA PUENTE,6977,6977 #6977,15553 VALLEY BLVD,CA,91744
Denny's,DIXON,6979,6979 #6979,1250 STRATFORD AVE,CA,95620
Denny's,SOCORRO,6981,6981 #6981,913 CALIFORNIA ST,NM,87801
Denny's,TURLOCK,6984,6984 #6984,1991 LANDERS AVE,CA,95380
Denny's,DUARTE,6986,6986 #6986,1060 HUNTINGTON DR,CA,91010
Denny's,EL MONTE,6988,6988 #6988,3540 N PECK RD,CA,91731
Denny's,FOUNTAIN VALLEY,6994,6994 #6994,16205 BROOKHURST ST,CA,92708
Denny's,MIDDLETON,7000,7000 #7000,8302 GREENWAY BLVD.,WI,53562
Denny's,ANAHEIM,7005,7005 #7005,1420 N STATE COLLEGE BLVD,CA,92806
Denny's,TYLER,7006,7006 #7006,3244 GENTRY PKWY,TX,75702
Denny's,WAUKESHA,7010,7010 #7010,2300 W ST PAUL AVE,WI,53188
Denny's,PLANT CITY,7013,7013 #7013,2001 S FRONTAGE RD,FL,33566
Denny's,FAYETTEVILLE,7016,7016 #7016,2589 W 6TH ST,AR,72704
Denny's,PALM BAY,7017,7017 #7017,840 PALM BAY RD NE,FL,32905
Denny's,MIAMI,7018,7018 #7018,3850 SW 137TH AVE,FL,33175
Denny's,EUREKA,7019,7019 #7019,1717 W 5TH ST,MO,63025
Denny's,LOS ANGELES,7020,7020 #7020,821 W JEFFERSON BLVD,CA,90007
Denny's,TEMPE,7025,7025 #7025,650 N SCOTTSDALE RD,AZ,85281
Denny's,FT MYERS,7030,7030 #7030,8030 GLADIOLUS DR,FL,33908
Denny's,KATY,7037,7037 #7037,1579 FRY ROAD,TX,77505
Denny's,CLEAR LAKE,7040,7040 #7040,2411 HWY 18 E,IA,50428
Denny's,PICO RIVERA,7042,7042 #7042,8600 E WHITTIER BLVD,CA,90660
Denny's,WHITTIER,7043,7043 #7043,11891 WHITTIER BLVD,CA,90601
Denny's,ST. AUGUSTINE,7047,7047 #7047,1300 N PONCE DE LEON BLVD,FL,32084
Denny's,FERNDALE,7048,7048 #7048,5720 BARRETT RD,WA,98248
Denny's,HOUSTON,7052,7052 #7052,4999 HWY 6 N,TX,77084
Denny's,ST GEORGE,7053,7053 #7053,155 N 1000 EAST ST,UT,84770
Denny's,MIDDLETOWN,7060,7060 #7060,"655 S MAIN ST, RT 17",CT,6457
Denny's,NORTHFIELD,7061,7061 #7061,335 TILTON RD,NJ,8225
Denny's,HANFORD,7062,7062 #7062,1635 GLENDALE AVE.,CA,93230
Denny's,WARRENTON,7063,7063 #7063,429 E. VETERANS MEMORIAL,MO,63383
Denny's,NORCROSS,7071,7071 #7071,5534 JIMMY CARTER BLVD,GA,30093
Denny's,COLUMBUS,7075,7075 #7075,3239 MACON RD,GA,31907
Denny's,HEMET,7081,7081 #7081,2675 W FLORIDA AVE,CA,92545
Denny's,ISSAQUAH,7084,7084 #7084,720 GILMAN BLVD NW,WA,98027
Denny's,LAKE HAVASU CITY,7085,7085 #7085,1620 MCCULLOCH BLVD,AZ,86403
Denny's,NEEDLES,7086,7086 #7086,1400 J ST,CA,92363
Denny's,MISSOURI CITY,7088,7088 #7088,6131 HWY 6 S,TX,77459
Denny's,SAVANNAH,7089,7089 #7089,6801 ABERCORN ST,GA,31405
Denny's,HESPERIA,7095,7095 #7095,13165 MAIN ST,CA,92345
Denny's,LAKESIDE,7096,7096 #7096,13584 CAMINO CANADA,CA,92040
Denny's,SYLMAR,7097,7097 #7097,13201 GLADSTONE AVE,CA,91342
Denny's,ATWATER,7098,7098 #7098,1601 SYCAMORE AVE,CA,95301
Denny's,POINCIANA,7102,7102 #7102,840 CYPRESS BLVD,FL,34759
Denny's,ELLSWORTH,7105,7105 #7105,75 HIGH ST,ME,4605
Denny's,RATON,7117,7117 #7117,430 CLAYTON RD,NM,87740
Denny's,WICKENBURG,7118,7118 #7118,1010 N TEGNER RD,AZ,85390
Denny's,TOOELE,7128,7128 #7128,925 N MAIN ST,UT,84074
Denny's,BOTHELL,7129,7129 #7129,22833 BOTHELL HWY SE,WA,98021
Denny's,COON RAPIDS,7131,7131 #7131,3565 NORTHDALE BLVD,MN,55448
Denny's,MIAMI,7134,7134 #7134,15235 SW 137TH AVE,FL,33177
Denny's,TEHACHAPI,7135,7135 #7135,9000 MAGELLAN ST,CA,93561
Denny's,ORANGEVALE,7136,7136 #7136,8841 GREENBACK LN,CA,95662
Denny's,NORTHRIDGE,7142,7142 #7142,17018 DEVONSHIRE ST,CA,91325
Denny's,EL PASO,7143,7143 #7143,4690 WOODROW BEAN,TX,79924
Denny's,WESTBROOK,7144,7144 #7144,28 FLAT ROCK PLACE,CT,6498
Denny's,WASHINGTON,7145,7145 #7145,4445 BENNING RD NE,DC,20019
Denny's,MICHIGAN CITY,7147,7147 #7147,5800 S FRANKLIN ST,IN,46360
Denny's,E GREENBUSH,7153,7153 #7153,126 TROY RD,NY,12061
Denny's,NORCO,7156,7156 #7156,1360 N HAMNER AVE,CA,92860
Denny's,EL PASO,7157,7157 #7157,6650 MONTANA AVE,TX,79925
Denny's,ELYRIA,7158,7158 #7158,640 TILLOTSON ST,OH,44035
Denny's,SPRING,7159,7159 #7159,7720 LOUETTA RD,TX,77379
Denny's,ORLANDO,7160,7160 #7160,3957 S KIRKMAN RD,FL,32811
Denny's,SAN ANTONIO,7163,7163 #7163,4510 FREDERICKSBURG RD,TX,78201
Denny's,TWENTYNINE PALMS,7164,7164 #7164,73669-91 TWENTYNINE PALMS HWY,CA,92277
Denny's,ROGERS,7165,7165 #7165,13450 ROGERS DR,MN,55374
Denny's,CORTEZ,7170,7170 #7170,2059 E MAIN ST,CO,81321
Denny's,FARMINGTON,7171,7171 #7171,600 SCOTT AVE,NM,87401
Denny's,PLANTATION,7172,7172 #7172,12100 W SUNRISE BLVD,FL,33323
Denny's,LA PORTE,7173,7173 #7173,928 HWY 146 S,TX,77571
Denny's,DANA POINT,7174,7174 #7174,34242 DEL OBISPO,CA,92629
Denny's,ONEIDA,7175,7175 #7175,1078 GLENWOOD AVENUE,NY,13421
Denny's,BANGOR,7176,7176 #7176,120 HASKELL RD,ME,4401
Denny's,HERMISTON,7178,7178 #7178,2265 HWY 395 S,OR,97838
Denny's,WICHITA FALLS,7179,7179 #7179,4301 KEMP BLVD,TX,76308
Denny's,PALMDALE,7180,7180 #7180,1257 RANCHO VISTA BLVD,CA,93551
Denny's,AUGUSTA,7181,7181 #7181,123 CIVIC CENTER DR,ME,4330
Denny's,TUSCOLA,7185,7185 #7185,1104 TUSCOLA BLVD,IL,61953
Denny's,BREEZEWOOD,7186,7186 #7186,16414 LINCOLN HWY,PA,15533
Denny's,EL CERRITO,7188,7188 #7188,11344 SAN PABLO AVE,CA,94530
Denny's,LODI,7189,7189 #7189,701 E KETTLEMAN LANE,CA,95240
Denny's,SACRAMENTO,7191,7191 #7191,5460 FLORIN RD,CA,95823
Denny's,MAPLEWOOD,7195,7195 #7195,3050 WHITE BEAR AVE,MN,55109
Denny's,MAPLEWOOD,7197,7197 #7197,255 N CENTURY AVE,MN,55119
Denny's,PORTAGE,7200,7200 #7200,6171 MELTON DR,IN,46368
Denny's,DENVER,7203,7203 #7203,1605 NW FEDERAL BLVD,CO,80204
Denny's,AURORA,7205,7205 #7205,1505 S HAVANA,CO,80012
Denny's,AURORA,7206,7206 #7206,14400 E 6TH AVE,CO,80011
Denny's,ENFIELD,7207,7207 #7207,111 ELM ST,CT,6082
Denny's,SOUTHINGTON,7208,7208 #7208,621 QUEEN ST,CT,6489
Denny's,VERNON,7209,7209 #7209,35 TALCOTVILLE RD,CT,6066
Denny's,SAN ANTONIO,7210,7210 #7210,2210 LOOP 410 SE,TX,78220
Denny's,LONG BEACH,7211,7211 #7211,601 N LONG BEACH BLVD,CA,90802
Denny's,LONG BEACH,7212,7212 #7212,3333 ATLANTIC AVE,CA,90807
Denny's,SHERMAN OAKS,7213,7213 #7213,5525 N SEPULVEDA BLVD,CA,91411
Denny's,SOUTH GATE,7214,7214 #7214,5811 E FIRESTONE BLVD,CA,90280
Denny's,POST FALLS,7215,7215 #7215,1670 SCHNEIDMILLER AVE,ID,83854
Denny's,CHANDLER,7216,7216 #7216,1750 W CHANDLER BLVD,AZ,85224
Denny's,SUNNYVALE,7217,7217 #7217,311 S MATHILDA,CA,94086
Denny's,SUNNYVALE,7218,7218 #7218,814 AHWANEE AVE,CA,94085
Denny's,SANTA CLARA,7219,7219 #7219,3715 EL CAMINO REAL,CA,95050
Denny's,GLEN CARBON,7220,7220 #7220,27 JUNCTION DR,IL,62034
Denny's,ONEONTA,7224,7224 #7224,4979 STATE HWY 23,NY,13820
Denny's,EL CAJON,7225,7225 #7225,1202 W MAIN ST,CA,92021
Denny's,FREDERICKSBURG,7226,7226 #7226,1035 HWY 16 S,TX,78624
Denny's,MEDINA TOWNSHIP,7228,7228 #7228,3105 MEDINA ROAD,OH,44256
Denny's,BEAVER DAM,7229,7229 #7229,1748 US HWY 231 S,KY,42320
Denny's,SHEPHERDSVILLE,7230,7230 #7230,200 S LAKEVIEW DR,KY,40165
Denny's,N RICHLAND HILLS,7231,7231 #7231,8025 GLENVIEW DR,TX,76180
Denny's,FT WORTH,7233,7233 #7233,6737 CAMP BOWIE BLVD,TX,76116
Denny's,DALLAS,7234,7234 #7234,10433 N CENTRAL EXPWY,TX,75231
Denny's,ODESSA,7236,7236 #7236,105 W 42ND ST,TX,79764
Denny's,GALT,7237,7237 #7237,1055 C ST,CA,95632
Denny's,RIVERSIDE,7239,7239 #7239,2955 VAN BUREN BLVD,CA,92503-5674
Denny's,LAS VEGAS,7242,7242 #7242,5045 W TROPICANA,NV,89103
Denny's,LAS VEGAS,7243,7243 #7243,9320 S EASTERN AVE,NV,89123
Denny's,MARSHALL,7244,7244 #7244,804 US HIGHWAY 27 N,MI,49068
Denny's,TROY,7246,7246 #7246,1 MERLIN DRIVE,MO,63379
Denny's,LITCHFIELD,7247,7247 #7247,1407 W HUDSON BLVD,IL,62056
Denny's,TUCSON,7249,7249 #7249,1510 W VALENCIA RD,AZ,85706
Denny's,RENO,7252,7252 #7252,1100 E PLUMB LANE,NV,89502
Denny's,ALHAMBRA,7253,7253 #7253,369 W MAIN ST,CA,91801
Denny's,DALLAS,7254,7254 #7254,9009 SKILLMAN RD,TX,75243
Denny's,MCALLEN,7255,7255 #7255,401 E NOLANA AVE,TX,78504
Denny's,RUIDOSO DOWNS,7256,7256 #7256,26137 W. HWY 70,NM,88346
Denny's,KIHEI,7258,7258 #7258,2463 S KIHEI RD,HI,96753
Denny's,KAILUA-KONA,7259,7259 #7259,75-1027 HENRY ST,HI,96740
Denny's,MEADOWS PLACE,7260,7260 #7260,11511 W AIRPORT BLVD,TX,77477
Denny's,GREENWOOD,7261,7261 #7261,1253 S PARK BLVD,IN,46143
Denny's,FOREST HILL,7263,7263 #7263,3228 SE LOOP 820,TX,76140
Denny's,KANSAS CITY,7265,7265 #7265,1600 BROADWAY BLVD.,MO,64108
Denny's,TOPEKA,7268,7268 #7268,1500 WANNAMAKER RD,KS,66604
Denny's,TOPEKA,7269,7269 #7269,3210 SW TOPEKA BLVD,KS,66611
Denny's,RAYTOWN,7270,7270 #7270,8810 E 350 HWY,MO,64133
Denny's,NAPA,7277,7277 #7277,1000 IMOLA AVE,CA,94559
Denny's,PATTERSON,7279,7279 #7279,15001 ROGERS RD,CA,95363
Denny's,PUYALLUP,7281,7281 #7281,626 S HILL PARK DR,WA,98373
Denny's,GARDENA,7282,7282 #7282,18620 WESTERN AVE,CA,90248
Denny's,REDLANDS,7284,7284 #7284,9 W REDLANDS BLVD,CA,92373
Denny's,RAPID CITY,7285,7285 #7285,2206 NORTH LACROSS DR,SD,57701
Denny's,SANTEE,7287,7287 #7287,140 TOWN CENTER PKWY,CA,92071
Denny's,HOUSTON,7290,7290 #7290,2316 SOUTHMORE RD,TX,77004
Denny's,ORANGE CITY,7291,7291 #7291,1012 SAXON BLVD,FL,32763
Denny's,SHELBYVILLE,7294,7294 #7294,102 LEE BLVD,IN,46176
Denny's,SAN CLEMENTE,7295,7295 #7295,529 AVENIDA PICO,CA,92672
Denny's,TUCSON,7297,7297 #7297,4040 EAST 22ND ST,AZ,85711
Denny's,TRUTH OR CONSEQUENCES,7298,7298 #7298,2255 N DATE ST,NM,87901
Denny's,AUSTIN,7300,7300 #7300,10930 LAKELINE MALL DR,TX,78717
Denny's,HIALEAH GARDENS,7302,7302 #7302,11701 OKEECHOBEE RD,FL,33018
Denny's,BOERNE,7303,7303 #7303,435 W BANDERA ST,TX,78006
Denny's,QUEENSBURY,7305,7305 #7305,248 QUAKER RD,NY,12804
Denny's,RIALTO,7306,7306 #7306,1377 W FOOTHILL BLVD,CA,92376
Denny's,N BRANCH,7307,7307 #7307,38681 TANGER DR,MN,55056
Denny's,MONTGOMERY VILLAGE,7308,7308 #7308,19290 MONTGOMERY VILLAGE AVE,MD,20886
Denny's,LOCUST GROVE,7312,7312 #7312,1020 TANGER RD,GA,30248
Denny's,RIVIERA BEACH,7319,7319 #7319,4102 W. BLUE HERON BLVD,FL,33404
Denny's,BLOOMINGTON,7325,7325 #7325,815 E 78TH ST,MN,55420
Denny's,WESTWOOD,7328,7328 #7328,1060 TIVERTON AVE,CA,90024
Denny's,LUMBERTON,7330,7330 #7330,101 WINTERGREEN DR,NC,28358
Denny's,ROCKFORD,7331,7331 #7331,7375 E STATE ST,IL,61108-2686
Denny's,S OGDEN,7338,7338 #7338,5805 S HARRISON BLVD,UT,84403
Denny's,SAN ANTONIO,7342,7342 #7342,6703 FM78,TX,78244
Denny's,THE VILLAGES,7343,7343 #7343,1577 BELLA CRUZ DR,FL,32159
Denny's,KEY WEST,7346,7346 #7346,925 DUVAL ST,FL,33040
Denny's,ANAHEIM,7347,7347 #7347,2005 E KATELLA AVE,CA,92806
Denny's,IRVINE,7348,7348 #7348,14962 SAND CANYON DR,CA,92618
Denny's,AUGUSTA,7350,7350 #7350,3026 WASHINGTON RD,GA,30907
Denny's,BANNING,7351,7351 #7351,6305 JOSHUA PALMER WAY,CA,92220
Denny's,BEAUMONT,7353,7353 #7353,449 E 4TH ST,CA,92223
Denny's,LANCASTER,7354,7354 #7354,2005 W AVE K,CA,93536
Denny's,ST MICHAELS,7355,7355 #7355,392 W HWY 264,AZ,86511
Denny's,AUSTIN,7356,7356 #7356,1601 IH35 N,TX,78702
Denny's,UTICA,7357,7357 #7357,180 N GENESEE ST,NY,13501
Denny's,ST LOUIS,7359,7359 #7359,11266 MIDLAND BLVD,MO,63114
Denny's,ST LOUIS,7363,7363 #7363,1515 S HAMPTON AVE,MO,63139
Denny's,SELMA,7369,7369 #7369,2763 HIGHLAND AVE,CA,93662
Denny's,WICHITA,7370,7370 #7370,5700 W KELLOGG,KS,67209
Denny's,WICHITA,7372,7372 #7372,4024 E HARRY ST,KS,67218
Denny's,TITUSVILLE,7374,7374 #7374,3500 CHANEY HWY,FL,32780
Denny's,EL CAJON,7375,7375 #7375,2642 JAMACHA RD,CA,92019
Denny's,RED BLUFF,7376,7376 #7376,48 ANTELOPE BLVD,CA,96080
Denny's,SACRAMENTO,7377,7377 #7377,5120 INTERSTATE AVE,CA,95842
Denny's,RANCHO CORDOVA,7378,7378 #7378,2474 SUNRISE BLVD,CA,95670
Denny's,SACRAMENTO,7379,7379 #7379,7401 ELSIE AVE.,CA,95828
Denny's,AUBURN,7381,7381 #7381,2480 GRASS VALLEY HWY,CA,95603
Denny's,WHITTIER,7383,7383 #7383,8425 S PIONEER BLVD,CA,90606
Denny's,BAKERSFIELD,7386,7386 #7386,8710 ROSEDALE HWY,CA,93312
Denny's,ANTIOCH,7387,7387 #7387,4823 LONE TREE WAY,CA,94531
Denny's,SAN JOSE,7388,7388 #7388,1140 HILLSDALE AVE,CA,95118
Denny's,SALIDA,7390,7390 #7390,4324 SALIDA BLVD,CA,95368
Denny's,MONTROSE,7394,7394 #7394,1515 VENTURE WAY,CO,81401
Denny's,WATERLOO,7395,7395 #7395,959 N ILINOIS RT 3,IL,62298
Denny's,LAKE WALES,7397,7397 #7397,4541 MACEY LANE,FL,33853
Denny's,LAKE DELTON,7398,7398 #7398,1090 WISCONSIN DELLS PKWY S,WI,53940
Denny's,YOUNGSTOWN,7401,7401 #7401,4020 BELMONT AVE,OH,44505
Denny's,BOARDMAN TWP,7402,7402 #7402,154 BOARDMAN-CANFIELD RD,OH,44512
Denny's,HERMITAGE,7403,7403 #7403,2079 E STATE ST,PA,16148
Denny's,AUSTINTOWN,7404,7404 #7404,4927 MAHONING AVE,OH,44515
Denny's,LAUREL,7406,7406 #7406,314 WASHINGTON BLVD,MD,20707
Denny's,ALEXANDRIA,7408,7408 #7408,7214 RICHMOND HWY,VA,22306
Denny's,WOODBRIDGE,7409,7409 #7409,13775 JEFF DAVIS HWY,VA,22191
Denny's,MANASSAS,7410,7410 #7410,8201 SUDLEY RD,VA,20109
Denny's,FAIRFAX,7411,7411 #7411,10473 LEE HWY,VA,22030
Denny's,DALE CITY,7412,7412 #7412,2861 DALE BLVD,VA,22193
Denny's,PITTSBURGH,7413,7413 #7413,2180 GREENTREE RD,PA,15220
Denny's,DANVILLE,7414,7414 #7414,807 CAMINO RAMON,CA,94526
Denny's,PLEASANTON,7415,7415 #7415,6455 OWEN DR,CA,94566
Denny's,CAMPBELL,7416,7416 #7416,2060 S BASCOM AVE,CA,95008
Denny's,DALLAS,7421,7421 #7421,2425 WALNUT HILL LANE,TX,75229
Denny's,CLERMONT,7422,7422 #7422,25 TOWN CENTER BLVD,FL,34711
Denny's,UNIONTOWN,7423,7423 #7423,653 W MAIN ST,PA,15401
Denny's,MONROE,7424,7424 #7424,18824 STATE RT 2,WA,98272
Denny's,LYNWOOD,7425,7425 #7425,11195 LONG BEACH BLVD,CA,90262
Denny's,MADISON,7427,7427 #7427,6190 S STATE RD 53,FL,32340
Denny's,MIAMI,7428,7428 #7428,11350 NW 41ST ST,FL,33178
Denny's,ARLINGTON HEIGHTS,7431,7431 #7431,17 W ALGONQUIN RD,IL,60005
Denny's,ARVADA,7432,7432 #7432,7945 N WADSWORTH,CO,80003
Denny's,GRANTS,7434,7434 #7434,1700 SIDNEY DR,NM,87020
Denny's,TORRANCE,7435,7435 #7435,3060 SEPULVEDA BLVD.,CA,90505
Denny's,GALLUP,7437,7437 #7437,836 N US 491,NM,87301
Denny's,VAN NUYS,7438,7438 #7438,16575 SHERMAN WAY,CA,91406
Denny's,ORLANDO,7439,7439 #7439,8243 S JOHN YOUNG PKWY,FL,32819
Denny's,VALLEJO,7441,7441 #7441,250 FAIRGROUNDS DR,CA,94589
Denny's,SAN JOSE,7442,7442 #7442,2077 N 1ST ST,CA,95131
Denny's,HOUSTON,7443,7443 #7443,6969 GULF FREEWAY,TX,77087
Denny's,SAN MARCOS,7445,7445 #7445,731 W SAN MARCOS BLVD,CA,92069
Denny's,MINOT,7446,7446 #7446,2701 S BROADWAY,ND,58701
Denny's,ANAHEIM,7448,7448 #7448,210 S EUCLID ST,CA,92802
Denny's,EUREKA,7449,7449 #7449,136 5TH ST,CA,95501
Denny's,ORMOND BEACH,7450,7450 #7450,110 WILLIAMSON BLVD,FL,32174
Denny's,PETALUMA,7453,7453 #7453,4986 PETALUMA BLVD,CA,94952
Denny's,HALLANDALE BEACH,7454,7454 #7454,1025 W HALLANDALE BCH BLVD,FL,33009
Denny's,N MIAMI,7455,7455 #7455,12105 BISCAYNE BLVD,FL,33181
Denny's,POMPANO BEACH,7456,7456 #7456,2671 N FEDERAL HWY,FL,33064
Denny's,HOLLYWOOD,7457,7457 #7457,404 S 60TH AVE,FL,33023
Denny's,FT LAUDERDALE,7458,7458 #7458,3151 NW 9TH AVE,FL,33309
Denny's,MIAMI,7459,7459 #7459,7411 NW 36TH ST,FL,33166
Denny's,MIAMI,7462,7462 #7462,9545 W FLAGLER ST,FL,33174
Denny's,OAKLAND PARK,7464,7464 #7464,911 E COMMERCIAL BLVD,FL,33334
Denny's,BOCA RATON,7465,7465 #7465,3249 N FEDERAL HWY,FL,33431
Denny's,N MIAMI,7466,7466 #7466,1450 MIAMI GARDENS DR NE,FL,33179
Denny's,MIAMI,7467,7467 #7467,5825 NW 36TH ST,FL,33166
Denny's,CHESTER,7470,7470 #7470,12441 REDWATER CREEK RD,VA,23831
Denny's,LEBEC,7471,7471 #7471,9046 LOOP RD E,CA,93243
Denny's,COLORADO SPRINGS,7472,7472 #7472,315 W BIJOU ST,CO,80905
Denny's,COLORADO SPRINGS,7473,7473 #7473,302 N ACADEMY BLVD,CO,80909
Denny's,COLORADO SPRINGS,7474,7474 #7474,1450 HARRISON RD,CO,80906
Denny's,PUEBLO,7476,7476 #7476,3600 N FRWY,CO,81003
Denny's,COLORADO SPRINGS,7477,7477 #7477,8125 N ACADEMY BLVD,CO,80920
Denny's,MURRAY,7478,7478 #7478,420 W 4500 S,UT,84123
Denny's,SALT LAKE CITY,7480,7480 #7480,1701 WEST N TEMPLE,UT,84116
Denny's,MIDVALE,7481,7481 #7481,401 W 7200 S,UT,84047
Denny's,PROVO,7482,7482 #7482,1680 N 200 W,UT,84601
Denny's,OGDEN,7483,7483 #7483,1250 WASHINGTON BLVD,UT,84404
Denny's,SALT LAKE CITY,7484,7484 #7484,250 W 500 S,UT,84101
Denny's,KANSAS CITY,7491,7491 #7491,6887 E FRONT ST,MO,64120
Denny's,N KANSAS CITY,7492,7492 #7492,2117 TANEY ST,MO,64116
Denny's,GILBERT,7493,7493 #7493,1661 E WARNER RD,AZ,85296
Denny's,MERRIAM,7494,7494 #7494,9001 W 63RD ST,KS,66203
Denny's,WESTMINSTER,7496,7496 #7496,400 ENGLAR RD,MD,21157
Denny's,RAMONA,7497,7497 #7497,1946 MAIN ST,CA,92065
Denny's,ZANESVILLE,7499,7499 #7499,10 AIRPORT RD,OH,43701
Denny's,HUNTINGTON BEACH,7500,7500 #7500,18477 BEACH BLVD,CA,92648
Denny's,TUJUNGA,7501,7501 #7501,7577 FOOTHILL BLVD,CA,91042
Denny's,ENNIS,7502,7502 #7502,301 NORTH I-45,TX,75119
Denny's,WETHERSFIELD,7503,7503 #7503,1298 SILAS DEANE HWY,CT,6109
Denny's,SEDALIA,7505,7505 #7505,2401 W BROADWAY,MO,65301
Denny's,BAYONET POINT,7508,7508 #7508,12105 US HIGHWAY 19 N,FL,34667
Denny's,BRADENTON,7510,7510 #7510,610 44TH AVE W,FL,34207
Denny's,BYRON,7516,7516 #7516,309 GEORGIA HWY 49 N,GA,31008
Denny's,CARLSBAD,7517,7517 #7517,1048 CARLSBAD VILLAGE DR,CA,92008
Denny's,N LAS VEGAS,7518,7518 #7518,4280 W CRAIG RD,NV,89031
Denny's,STREETSBORO,7519,7519 #7519,9449 STATE ROAD 14,OH,44241
Denny's,O' FALLON,7522,7522 #7522,737 W HWY 50,IL,62269
Denny's,PARMA,7530,7530 #7530,8111 DAY DR,OH,44129
Denny's,PERRIS,7531,7531 #7531,570 E 4TH ST,CA,92570
Denny's,FIFE,7533,7533 #7533,5110 PACIFIC HWY E,WA,98424
Denny's,BELLEVUE,7536,7536 #7536,649 116TH AVE NE,WA,98004
Denny's,TACOMA,7539,7539 #7539,5924 6TH AVE,WA,98406
Denny's,CENTRALIA,7541,7541 #7541,1052A HARRISON AVE,WA,98531
Denny's,CHEHALIS,7542,7542 #7542,118 INTERSTATE AVE,WA,98532
Denny's,TACOMA,7544,7544 #7544,8614 S HOSMER,WA,98444
Denny's,KIRKLAND,7545,7545 #7545,12106 NE 124TH,WA,98034
Denny's,FEDERAL WAY,7546,7546 #7546,34726 S 16TH,WA,98003
Denny's,BREMERTON,7547,7547 #7547,5004 KITSAP WAY,WA,98312
Denny's,TACOMA,7548,7548 #7548,6112 100TH ST SW,WA,98499
Denny's,INDIANAPOLIS,7556,7556 #7556,6288 E 82ND ST,IN,46250
Denny's,MERRILLVILLE,7557,7557 #7557,720 E 81ST ST,IN,46410
Denny's,LAFAYETTE,7559,7559 #7559,4260 STATE RD 26 E,IN,47905
Denny's,INDIANAPOLIS,7560,7560 #7560,6241 CRAWFORDSVILLE RD,IN,46224
Denny's,INDIANAPOLIS,7561,7561 #7561,8901 US 31 SOUTH,IN,46227
Denny's,INDIANAPOLIS,7562,7562 #7562,8808 N MICHIGAN RD,IN,46268
Denny's,BLOOMINGTON,7563,7563 #7563,2160 N WALNUT ST,IN,47401
Denny's,LOS ANGELES,7566,7566 #7566,11700 WILMINGTON AVE,CA,90059
Denny's,N PEKIN,7567,7567 #7567,115 RADIO CITY DR,IL,61554
Denny's,CORONA,7568,7568 #7568,1833 W 6TH ST,CA,92882
Denny's,LOS ANGELES,7569,7569 #7569,888 S FIGUEROA ST,CA,90017
Denny's,HOUSTON,7570,7570 #7570,2735 BAY AREA BLVD,TX,77058
Denny's,KINGWOOD,7571,7571 #7571,22671 EASTEX FRWY,TX,77339
Denny's,HOUSTON,7572,7572 #7572,12862 NW FREEWAY,TX,77040
Denny's,POMONA,7581,7581 #7581,3012 W TEMPLE AVE,CA,91766
Denny's,WARWICK,7583,7583 #7583,"444 QUAKER LANE, #5",RI,2886
Denny's,BROWNSVILLE,7584,7584 #7584,1875 N EXPRESSWAY,TX,78520
Denny's,FULLERTON,7585,7585 #7585,1101 S HARBOR BLVD,CA,92832
Denny's,PALM SPRINGS,7587,7587 #7587,1201 N PALM CANYON DR,CA,92262
Denny's,INDIO,7589,7589 #7589,82120 HWY 111,CA,92201
Denny's,CATHEDRAL CITY,7590,7590 #7590,69050 HWY 111,CA,92234
Denny's,HUDSON,7591,7591 #7591,1000 GATEWAY BLVD,WI,54016
Denny's,ORANGE,7593,7593 #7593,1695 E LINCOLN AVE,CA,92865
Denny's,SANTA ANA,7594,7594 #7594,2314 E 17TH ST,CA,92701
Denny's,REDONDO BEACH,7595,7595 #7595,1760 AVIATION BLVD,CA,90278
Denny's,KINGDOM CITY,7596,7596 #7596,3294 GOLD RD,MO,65262
Denny's,MURRIETA,7599,7599 #7599,25365 MADISON AVE,CA,92562
Denny's,YEMASSEE,7600,7600 #7600,3536 POINT SOUTH DR,SC,29945
Denny's,EL PASO,7603,7603 #7603,510 ZARAGOSA RD,TX,79907
Denny's,DANVERS,7606,7606 #7606,152 ENDICOTT ST,MA,1923
Denny's,LEOMINSTER,7608,7608 #7608,38 COMMERCIAL RD,MA,1453
Denny's,SALEM,7609,7609 #7609,92 CLUFF CROSSING RD,NH,3079
Denny's,NASHUA,7610,7610 #7610,34 GUSABEL AVENUE,NH,3063
Denny's,WORCESTER,7611,7611 #7611,494 LINCOLN ST,MA,1605
Denny's,LAWRENCE,7612,7612 #7612,160 WINTHROP AVE,MA,1843
Denny's,CHICOPEE FALLS,7613,7613 #7613,467 MEMORIAL DR,MA,1020
Denny's,HOLYOKE,7614,7614 #7614,2173 NORTHAMPTON ST,MA,1040
Denny's,BENTONVILLE,7615,7615 #7615,2209 SE WALTON BLVD,AR,72712
Denny's,SHELBY,7616,7616 #7616,2025 E DIXON BLVD,NC,28150
Denny's,HEMPSTEAD,7617,7617 #7617,100 COTTONWOOD,TX,77445
Denny's,CASTAIC,7618,7618 #7618,31724 CASTAIC RD,CA,91384
Denny's,SPRING,7621,7621 #7621,20015 I-45 N,TX,77388
Denny's,HANOVER PARK,7623,7623 #7623,1086 LAKE ST,IL,60133
Denny's,SCHAUMBURG,7624,7624 #7624,1700 E HIGGINS RD,IL,60173
Denny's,TEXAS CITY,7626,7626 #7626,1201 HWY 146 N,TX,77590
Denny's,HUMBLE,7627,7627 #7627,19450 HWY 59,TX,77338
Denny's,GALVESTON,7629,7629 #7629,1410 SEAWALL BLVD,TX,77550
Denny's,HUNTSVILLE,7630,7630 #7630,3018 W 11TH ST,TX,77340
Denny's,COLLEGE STATION,7631,7631 #7631,607 TEXAS AVE,TX,77840
Denny's,LAS VEGAS,7632,7632 #7632,310 N NELLIS BLVD,NV,89110
Denny's,LAS VEGAS,7633,7633 #7633,"7071 W CRAIG RD, #101",NV,89129
Denny's,TOMBALL,7634,7634 #7634,14010 FM 2920,TX,77375
Denny's,SPINDALE,7635,7635 #7635,1493 US HWY 74-A BYPASS,NC,28160
Denny's,W PALM BEACH,7636,7636 #7636,2705 OKEECHOBEE BLVD,FL,33409
Denny's,STUART,7637,7637 #7637,2331 S FEDERAL HWY,FL,34994
Denny's,PALM BEACH,7641,7641 #7641,3000 S CONGRESS AVE,FL,33461
Denny's,W LAKE WORTH,7642,7642 #7642,6496 LAKE WORTH RD,FL,33463
Denny's,TERRELL,7644,7644 #7644,1102 FM 148,TX,75160
Denny's,MOORESVILLE,7645,7645 #7645,378 WEST PLAZA DRIVE,NC,28117
Denny's,CHARLOTTE,7646,7646 #7646,4541 SUNSET RD,NC,28216
Denny's,KERNERSVILLE,7648,7648 #7648,975 S MAIN ST,NC,27284
Denny's,DAVENPORT,7654,7654 #7654,44111 S US 27,FL,33837
Denny's,PLACENTIA,7656,7656 #7656,108 E ORANGETHORPE AVE,CA,92870
Denny's,VISALIA,7658,7658 #7658,200 S AKERS ST,CA,93291
Denny's,CAPE GIRARDEAU,7660,7660 #7660,161 WEST ST,MO,63701
Denny's,CAMERON PARK,7661,7661 #7661,3446 COACH LANE,CA,95682
Denny's,LIMON,7664,7664 #7664,2455 6TH ST,CO,80828
Denny's,HOUSTON,7666,7666 #7666,3332 S LOOP W,TX,77025
Denny's,MINNEAPOLIS,7670,7670 #7670,2700 E LAKE ST,MN,55406
Denny's,N LAS VEGAS,7671,7671 #7671,3230 LOSEE RD,NV,89030
Denny's,NOVI,7672,7672 #7672,27750 NOVI RD,MI,48377
Denny's,LAS VEGAS,7674,7674 #7674,8000 W SAHARA AVE,NV,89117
Denny's,OREM,7677,7677 #7677,485 N STATE ST,UT,84057
Denny's,ONTARIO,7679,7679 #7679,715 N MILLIKEN AVE,CA,91764
Denny's,SAN DIEGO,7680,7680 #7680,4365 UNIVERSITY AVE,CA,92105
Denny's,MELBOURNE,7681,7681 #7681,950 N WICKHAM RD,FL,32935
Denny's,DOUGLAS,7682,7682 #7682,401 N CHIRICAHUA RD,AZ,85607
Denny's,HOUSTON,7684,7684 #7684,7300 WASHINGTON AVE,TX,77007
Denny's,HOUSTON,7685,7685 #7685,8199 SW FRWY,TX,77074
Denny's,HOUSTON,7686,7686 #7686,8999 RICHMOND AVE,TX,77063
Denny's,HOUSTON,7687,7687 #7687,925 N WILCREST,TX,77079
Denny's,SUGAR LAND,7689,7689 #7689,1422 STATE HWY 6 S,TX,77478
Denny's,BLYTHE,7690,7690 #7690,876 W DONLON ST,CA,92225
Denny's,SUN VALLEY,7691,7691 #7691,8022 VINELAND AVE,CA,91352
Denny's,"KAHULUI, MAUI",7694,7694 #7694,430 KELE ST,HI,96732
Denny's,MEMPHIS,7695,7695 #7695,166 UNION AVE,TN,38103
Denny's,VINCENNES,7696,7696 #7696,2728 N 6TH ST,IN,47591
Denny's,LIVE OAK,7697,7697 #7697,12816 IH35 N,TX,78233
Denny's,CANBY,7698,7698 #7698,1369 SE 1ST AVE,OR,97013
Denny's,HAZELWOOD,7699,7699 #7699,5789 CAMPUS PKWY,MO,63042
Denny's,FLORISSANT,7700,7700 #7700,2925 N HWY 67,MO,63033
Denny's,COLLINSVILLE,7701,7701 #7701,522 RAMADA BLVD,IL,62234
Denny's,ST LOUIS,7702,7702 #7702,10575 WATSON RD,MO,63127
Denny's,COVENTRY,7704,7704 #7704,785 CENTRE OF NEW ENGLAND BLVD,RI,2816
Denny's,INDIANAPOLIS,7705,7705 #7705,2490 POST RD,IN,46219
Denny's,LEBANON,7706,7706 #7706,1524 W SOUTH ST,IN,46052
Denny's,LONG BEACH,7708,7708 #7708,2860 N BELLFLOWER BLVD,CA,90815
Denny's,FONTANA,7709,7709 #7709,13479 BASELINE AVE,CA,92336
Denny's,DALLAS,7710,7710 #7710,2030 MARKET CTR BLVD,TX,75207
Denny's,DALLAS,7711,7711 #7711,8233 EAST R.L. THORNTON FRWY.,TX,75228
Denny's,DALLAS,7712,7712 #7712,4400 N CENTRAL EXPWY,TX,75206
Denny's,DALLAS,7713,7713 #7713,7120 S COCKRELL HILL,TX,75236
Denny's,CORONA,7715,7715 #7715,2379 COMPTON AVE,CA,92881
Denny's,ANAHEIM,7718,7718 #7718,2080 S HARBOR BLVD,CA,92802
Denny's,DELANO,7719,7719 #7719,14390 COUNTY LINE RD,CA,93215
Denny's,CHINO HILLS,7720,7720 #7720,15459 FAIRFIELD RANCH RD,CA,91710
Denny's,MIDVALE,7722,7722 #7722,7051 S 1300 E,UT,84047
Denny's,BERNALILLO,7723,7723 #7723,254 US 550,NM,87004
Denny's,SANTA ROSA,7724,7724 #7724,1000 W. STEELE LANE,CA,95403
Denny's,SANTA ROSA,7725,7725 #7725,115 BAKER AVE,CA,95407
Denny's,UKIAH,7726,7726 #7726,105 POMEROY,CA,95482
Denny's,FAIRFIELD,7727,7727 #7727,1360 HOLIDAY LANE,CA,94534
Denny's,SALINAS,7728,7728 #7728,975 E BLANCO RD,CA,93906
Denny's,FAIRFIELD,7729,7729 #7729,2980 TRAVIS BLVD,CA,94534
Denny's,BAKERSFIELD,7732,7732 #7732,4440 GOSFORD RD,CA,93311
Denny's,VALENCIA,7734,7734 #7734,27541 WAYNE MILLS PLACE,CA,91355
Denny's,SPRINGDALE,7736,7736 #7736,4861 W SUNSET AVE,AR,72762
Denny's,AVENEL,7737,7737 #7737,1286 ST GEORGES AVE,NJ,7001
Denny's,BORDENTOWN,7738,7738 #7738,221 US HWY 130,NJ,8505
Denny's,EUGENE,7740,7740 #7740,3652 GLENWOOD DR,OR,97403
Denny's,KLAMATH FALLS,7741,7741 #7741,2947 S 6TH ST,OR,97603
Denny's,GRANTS PASS,7742,7742 #7742,115 NE MORGAN LANE,OR,97526
Denny's,ROSEBURG,7743,7743 #7743,350 W HARVARD,OR,97470
Denny's,PLACERVILLE,7746,7746 #7746,99 FAIR LANE DR,CA,95667
Denny's,SANTA BARBARA,7747,7747 #7747,3614 STATE ST,CA,93105
Denny's,W SACRAMENTO,7749,7749 #7749,1235 HARBOR BLVD.,CA,95691
Denny's,BAKERSFIELD,7750,7750 #7750,8011 E BRUNDAGE LANE,CA,93307
Denny's,COLUMBIA,7753,7753 #7753,342 HARBISON BLVD,SC,29212
Denny's,HOUSTON,7754,7754 #7754,7707 STEUBNER AIRLINE RD,TX,77088
Denny's,HOUSTON,7755,7755 #7755,11099 NW FRWY,TX,77092
Denny's,FT WORTH,7756,7756 #7756,6480 NORTH FRWY,TX,76137
Denny's,LOS ANGELES,7757,7757 #7757,3740 S. CRENSHAW BLVD.,CA,90016
Denny's,CLARKSBURG,7759,7759 #7759,489 EMILY DR,WV,26301
Denny's,MADERA,7760,7760 #7760,22717 AVE 18 1/2,CA,93637
Denny's,PORTERVILLE,7761,7761 #7761,1262 W HENDERSON AVE,CA,93257
Denny's,HENDERSON,7764,7764 #7764,1201 W WARM SPRINGS RD,NV,89014
Denny's,LAS VEGAS,7765,7765 #7765,6300 W CHARLESTON #110,NV,89102
Denny's,PALMDALE,7777,7777 #7777,37050 47TH ST E,CA,93552
Denny's,SARATOGA SPRINGS,7779,7779 #7779,468 LOUDEN ROAD,NY,12866
Denny's,SAN DIEGO,7780,7780 #7780,4280 CLAIREMONT MESA BLVD,CA,92117
Denny's,INDIANAPOLIS,7781,7781 #7781,3512 S KEYSTONE AVE,IN,46227
Denny's,INDIANAPOLIS,7782,7782 #7782,4795 KENTUCKY AVE,IN,46221
Denny's,WESLACO,7783,7783 #7783,1416 W EXPWY 83,TX,78596
Denny's,YUCAIPA,7784,7784 #7784,33540 YUCAIPA BLVD,CA,92399
Denny's,SIOUX FALLS,7786,7786 #7786,4001 E 10TH ST,SD,57103
Denny's,RIO GRANDE CITY,7787,7787 #7787,4756 E HWY 83,TX,78582
Denny's,FT WORTH,7789,7789 #7789,4601 S HULEN RD,TX,76132
Denny's,SEAGOVILLE,7790,7790 #7790,400 N HIGHWAY 175,TX,75159
Denny's,HOUSTON,7792,7792 #7792,12697 GESSNER RD,TX,77064
Denny's,APPLE VALLEY,7793,7793 #7793,7805 150TH ST NW,MN,55124
Denny's,FULLERTON,7794,7794 #7794,2920 E NUTWOOD AVE,CA,92831
Denny's,SUN CITY,7795,7795 #7795,3747 SUN CITY CENTER BLVD,FL,33573
Denny's,ANTHEM,7796,7796 #7796,4121 W ANTHEM WAY,AZ,85086
Denny's,CYPRESS,7797,7797 #7797,26050 HIGHWAY 290,TX,77429
Denny's,MOORPARK,7800,7800 #7800,832 NEW LOS ANGELES AVE,CA,93021
Denny's,RED OAK,7801,7801 #7801,408 N I-35 EAST SERVICE ROAD,TX,75154
Denny's,BURBANK,7802,7802 #7802,2525 NORTH HOLLYWOOD WAY,CA,91505
Denny's,PASADENA,7804,7804 #7804,4125 SPENCER HWY,TX,77504
Denny's,BAKERSFIELD,7805,7805 #7805,35175 7TH STANDARD ROAD,CA,93308
Denny's,W. COVINA,7806,7806 #7806,132 N. GRAND AVE,CA,91791
Denny's,CONROE,7807,7807 #7807,2243 STONESIDE RD,TX,77303
Denny's,SEBRING,7808,7808 #7808,4390 US HIGHWAY 27,FL,33870
Denny's,EDINBURG,7810,7810 #7810,2301 WEST UNIVERSITY DRIVE,TX,78539
Denny's,CLAREMONT,7811,7811 #7811,820 SOUTH INDIAN HILL BLVD.,CA,91711
Denny's,HOUSTON,7814,7814 #7814,6711 SAM HOUSTON PARKWAY SOUTH,TX,77072
Denny's,FRESNO,7815,7815 #7815,1746 W. SHAW AVE,CA,93711
Denny's,CERES,7816,7816 #7816,1507 HERNDON RD.,CA,95307
Denny's,GOLETA,7818,7818 #7818,5677 CALLE REAL,CA,93117
Denny's,PORTERVILLE,7820,7820 #7820,360 MONTGOMERY AVE,CA,93257
Denny's,WARRENTON,7821,7821 #7821,7323 COMFORT INN DRIVE,VA,20187
Denny's,HENDERSON,7822,7822 #7822,1956 US HWY 41 N,KY,42420
Denny's,MISSION,7824,7824 #7824,116 SOUTH SHARY RD,TX,78572
Denny's,LAS VEGAS,7825,7825 #7825,7341 W LAKE MEAD BLVD,NV,89128
Denny's,STRASBURG,7826,7826 #7826,119 HITE LANE,VA,22657
Denny's,OAKLAND CITY,7827,7827 #7827,1989 SOUTH STATE ROAD 57,IN,47660
Denny's,LAS VEGAS,7828,7828 #7828,5585 SIMMONS ST,NV,89031
Denny's,WILDOMAR,7830,7830 #7830,23857 CLINTON KEITH RD.,CA,92595
Denny's,LEAGUE CITY,7832,7832 #7832,2940 SOUTH HIGHWAY 45,TX,77573
Denny's,LAKE WORTH,7833,7833 #7833,3543 JIM WRIGHT FREEWAY,TX,76135
Denny's,ALBANY,7835,7835 #7835,3435 SPICER ROAD,OR,97321
Denny's,KATY,7836,7836 #7836,2405 TEX MATI DR,TX,77494
Denny's,HUMBLE,7838,7838 #7838,6920 FM1960,TX,77346
Denny's,MERIDIAN,7839,7839 #7839,3155 E. FAIRVIEW AVENUE,ID,83642
Denny's,ADELANTO,7840,7840 #7840,14240 US HIGHWAY 395,CA,92301
Denny's,CAMBRIDGE,7841,7841 #7841,2301 SOUTHGATE PARKWAY,OH,43725
Denny's,CAMBRIDGE,7842,7842 #7842,781 SUNBURST HIGHWAY,MD,21613
Denny's,MIRA LOMA,7843,7843 #7843,"6285 PATS RANCH ROAD, SUITE A",CA,91752
Denny's,BRUNSWICK,7845,7845 #7845,370 MILLENNIUM BLVD,GA,31525
Denny's,LEWISVILLE,7846,7846 #7846,2267 S STEMMONS FREEWAY,TX,75067
Denny's,SAN FERNANDO,7847,7847 #7847,1041 TRUMAN STREET,CA,91340
Denny's,SURFSIDE BEACH,7849,7849 #7849,1200 US HIGHWAY 17 NORTH,SC,29575
Denny's,MYRTLE BEACH,7850,7850 #7850,800 S. KINGS HWY,SC,29577
Denny's,N. MYRTLE BEACH,7851,7851 #7851,730 HIGHWAY 17 SOUTH,SC,29582
Denny's,N. CHARLESTON,7852,7852 #7852,2280 ASHLEY PHOSPHATE RD,SC,29406
Denny's,ARLINGTON,7853,7853 #7853,839 N. WATSON ROAD,TX,76011
Denny's,DEL MAR,7855,7855 #7855,2203 VIA DE LA VALLE,CA,92014
Denny's,SAN DIEGO,7856,7856 #7856,6908 MIRAMAR ROAD,CA,92121
Denny's,SAN DIEGO,7857,7857 #7857,16686 BERNARDO CENTER DR.,CA,92128
Denny's,PASADENA,7858,7858 #7858,909 WEST PASADENA,TX,77506
Denny's,WOODLANDS,7859,7859 #7859,28669 I-45 NORTH,TX,77381
Denny's,SEATTLE,7860,7860 #7860,14821 FIRST AVE. SOUTH,WA,98168
Denny's,TACOMA,7861,7861 #7861,11755 PACIFIC HIGHWAY,WA,98499
Denny's,LYNNWOOD,7862,7862 #7862,4109 196TH PLACE,WA,98036
Denny's,TACOMA,7863,7863 #7863,10802 PACIFIC AVE. SOUTH,WA,98444
Denny's,BELLEVUE,7864,7864 #7864,2233 148TH AVE NE,WA,98007
Denny's,SEATAC,7865,7865 #7865,18623 PACIFIC HWY SOUTH,WA,98188
Denny's,FEDERAL WAY,7866,7866 #7866,2132 S 320TH ST.,WA,98003
Denny's,EVERETT,7867,7867 #7867,2903 PACIFIC AVE.,WA,98201
Denny's,EVERETT,7868,7868 #7868,132 128 ST SW,WA,98204
Denny's,UNION GAP,7869,7869 #7869,2603 RUDKIN RD,WA,98903
Denny's,EVERETT,7870,7870 #7870,8417 EVERGREEN WAY,WA,98208
Denny's,KENT,7871,7871 #7871,1246 NORTH CENTRAL AVE.,WA,98032
Denny's,BELLINGHAM,7872,7872 #7872,161 TELEGRAPH RD.,WA,98226
Denny's,LACEY,7873,7873 #7873,108 COLLEGE STREET SE,WA,98516
Denny's,RENTON,7874,7874 #7874,4750 NE LK WASHINGTON,WA,98056
Denny's,SEATAC,7875,7875 #7875,17206 PACIFIC HWY,WA,98188
Denny's,AUBURN,7876,7876 #7876,521 AUBURN WAY S,WA,98002
Denny's,MT. VERNON,7878,7878 #7878,100 EAST COLLEGE WAY,WA,98273
Denny's,IRVING,7879,7879 #7879,4115 WEST AIRPORT,TX,75062
Denny's,GARLAND,7880,7880 #7880,12733 INTERSTATE 635,TX,75041
Denny's,EULESS,7881,7881 #7881,1015 SPUR 350 WEST,TX,76039
Denny's,DALLAS,7882,7882 #7882,13689 N. CENTRAL EXP.,TX,75243
Denny's,SPRING,7883,7883 #7883,6504 FM 2920,TX,77379
Denny's,ALBUQUERQUE,7884,7884 #7884,5201 SAN ANTONIO DRIVE,NM,87109
Denny's,LOS LUNAS,7885,7885 #7885,1875 EMILIO LOPEZ LOOP,NM,87031
Denny's,PACIFICA,7887,7887 #7887,500 LINDA MAR BLVD.,CA,94044
Denny's,FREMONT,7888,7888 #7888,46645 MISSION BLVD.,CA,94539
Denny's,VALLEJO,7889,7889 #7889,4355 SONOMA BLVD.,CA,94589
Denny's,OTSEGO,7891,7891 #7891,9020 QUADAY AVE NE,MN,55330
Denny's,VISTA,7892,7892 #7892,540 W VISTA WAY,CA,92083
Denny's,BUTTONWILLOW,7893,7893 #7893,20672 TRACY AVE.,CA,93206
Denny's,SAN DIEGO,7894,7894 #7894,1601 ROSECRANS ST.,CA,92106
Denny's,SAN DIEGO,7895,7895 #7895,5445 KEARNY VILLA RD.,CA,92123
Denny's,SAN DIEGO,7896,7896 #7896,3920 W. POINT LOMA,CA,92110
Denny's,SAN DIEGO,7897,7897 #7897,3704 CAMINO DEL RIO W,CA,92110
Denny's,DAVIE,7898,7898 #7898,5645 SOUTH UNIVERSITY DR.,FL,33328
Denny's,SANTA CLARITA,7899,7899 #7899,16401 DELONE ST.,CA,91387
Denny's,CANYON COUNTRY,7900,7900 #7900,18932 W. SOLEDAD CANYON RD,CA,91351
Denny's,RICHMOND,7901,7901 #7901,6598 W. BROAD STREET,VA,23230
Denny's,SPARTANBURG,7902,7902 #7902,2306 REIDVILLE ROAD,SC,29301
Denny's,GREENVILLE,7903,7903 #7903,2521 WADE HAMPTON,SC,29615
Denny's,BOILING SPRINGS,7905,7905 #7905,115 SLOAN GARDEN ROAD,SC,29316
Denny's,ANDERSON,7906,7906 #7906,3401 CLEMSON BOULEVARD,SC,29621
Denny's,DALLAS,7907,7907 #7907,4567 FRANKFORD ROAD,TX,75287
Denny's,EAST LANSING,7908,7908 #7908,2701 EAST GRAND RIVER,MI,48823
Denny's,KENTWOOD,7909,7909 #7909,"3900 28TH STREET, SE",MI,49512
Denny's,LANSING,7910,7910 #7910,7330 W. SAGINAW HIGHWAY,MI,48917
Denny's,HOLLAND,7911,7911 #7911,631 EAST 24TH STREET,MI,49423
Denny's,TIFFIN,7912,7912 #7912,315 W. MARKET STREET,OH,44883
Denny's,FINDLAY,7913,7913 #7913,1051 INTERSTATE COURT,OH,45840
Denny's,LAS VEGAS,7914,7914 #7914,2380 E TROPICANA AVE,NV,89119
Denny's,JARRELL,7915,7915 #7915,11710 IH 35,TX,76537
Denny's,BRENHAM,7916,7916 #7916,2951 STATE HWY 36 SOUTH,TX,77833
Denny's,HOUSTON,7917,7917 #7917,9766-B KATY FRWY,TX,77055
Denny's,GRAND ISLAND,7918,7918 #7918,3333 RAMADA ROAD,NE,68801
Denny's,HUMBLE,7919,7919 #7919,9655 N. SAM HOUSTON PARKWAY E,TX,77396
Denny's,PEARLAND,7920,7920 #7920,11221 BROADWAY BLVD,TX,77581
Denny's,ROSSFORD,7926,7926 #7926,1122 BUCK ROAD,OH,43460
Denny's,MONROE,7927,7927 #7927,1224 N. DIXIE HIGHWAY,MI,48162
Denny's,PLYMOUTH,7928,7928 #7928,39550 ANN ARBOR ROAD,MI,48170
Denny's,FRENCH LICK,7929,7929 #7929,"8695 JACK CARNES WAY, N",IN,47432
Denny's,BROWNSVILLE,7930,7930 #7930,6131 PAREDES LINE RD.,TX,78526
Denny's,LANCASTER,7931,7931 #7931,1028 WEST AVE I,CA,93534
Denny's,WASCO,7932,7932 #7932,1804 HIGHWAY 46,CA,93280
Denny's,KAUFMAN,7933,7933 #7933,2200 S WASHINGTON STREET,TX,75142
Denny's,STOCKTON,7934,7934 #7934,642 WEST CHARTER WAY,CA,95206
Denny's,TRACY,7935,7935 #7935,3718 NO TRACY BLVD.,CA,95304
Denny's,MENTOR,7936,7936 #7936,7700 MENTOR AVENUE,OH,44060
Denny's,WILLOUGHBY,7937,7937 #7937,34725 EUCLID AVENUE,OH,44094
Denny's,CLEVELAND,7938,7938 #7938,6850 BROOK PARK ROAD,OH,44129
Denny's,FREMONT,7939,7939 #7939,1750 CEDAR STREET,OH,43420
Denny's,MERRITT ISLAND,7940,7940 #7940,75 E. MERRITT ISLAND,FL,32952
Denny's,LARGO,7942,7942 #7942,940 MISSOURI AVE.,FL,33770
Denny's,CLEARWATER,7943,7943 #7943,26489 US HWY. 19 NO.,FL,33761
Denny's,ST. PETERSBURG,7944,7944 #7944,4000 34TH ST. SOUTH,FL,33711
Denny's,NEW PORT RICHEY,7945,7945 #7945,4442 US HWY 19 S,FL,34652
Denny's,TAMPA,7946,7946 #7946,1700 E. FOWLER AVE.,FL,33612
Denny's,ALTAMONTE SPRINGS,7947,7947 #7947,255 E. ALTAMONTE DR.,FL,32701
Denny's,WINTER PARK,7948,7948 #7948,2684 LEE ROAD,FL,32789
Denny's,CASSELBERRY,7949,7949 #7949,198 E. SEMORAN BLVD.,FL,32707
Denny's,LAKELAND,7951,7951 #7951,3204 N. US HWY 98,FL,33805
Denny's,COCOA BEACH,7952,7952 #7952,1245 N. ATLANTIC AVE.,FL,32931
Denny's,ORLANDO,7954,7954 #7954,8076 S. ORANGE AVE.,FL,32809
Denny's,MELBOURNE,7955,7955 #7955,4530 W. NEW HAVEN,FL,32904
Denny's,TAMPA,7956,7956 #7956,5603 E. HILLSBOROUGH,FL,33610
Denny's,DAYTONA BEACH,7958,7958 #7958,2701 N. ATLANTIC AVE.,FL,32118
Denny's,KISSIMMEE,7959,7959 #7959,2051 E. IRLO BRONSON,FL,34744
Denny's,OCALA,7961,7961 #7961,3801 WEST SILVER SPRINGS BLVD.,FL,34482
Denny's,PORT CHARLOTTE,7964,7964 #7964,1340 TAMIAMI TRAIL,FL,33948
Denny's,ENGLEWOOD,7965,7965 #7965,1910 SOUTH MCCALL RD.,FL,34223
Denny's,WINTER HAVEN,7966,7966 #7966,894 CYPRESS GARDEN,FL,33880
Denny's,GILBERT,7967,7967 #7967,1368 N. COOPER RD.,AZ,85233
Denny's,NEWHALL,7968,7968 #7968,25341 CHIQUELLA DR.,CA,91381
Denny's,LAS CRUCES,7970,7970 #7970,740 S. MAIN ST.,NM,88001
Denny's,KINGMAN,7971,7971 #7971,3255 E. ANDY DEVINE,AZ,86401
Denny's,ALAMOGORDO,7972,7972 #7972,930 S. WHITE SANDS,NM,88310
Denny's,FLAGSTAFF,7973,7973 #7973,2306 E. LUCKY LANE,AZ,86004
Denny's,PRESCOTT,7974,7974 #7974,1316 IRON SPRING,AZ,86305
Denny's,FLAGSTAFF,7975,7975 #7975,2122 S. MILTON ROAD,AZ,86001
Denny's,BELLEVILLE,7978,7978 #7978,2033 RAWSONVILLE ROAD,MI,48111
Denny's,TAYLOR,7979,7979 #7979,20565 EUREKA ROAD,MI,48180
Denny's,ROYSE CITY,7980,7980 #7980,201 W HWY I-30,TX,75189
Denny's,HICKORY HILLS,7981,7981 #7981,7627 W. 95TH STREET,IL,60457
Denny's,OAK PARK,7982,7982 #7982,711 NORTH HARLEM AVENUE,IL,60302
Denny's,CALUMET CITY,7983,7983 #7983,1380 TORRENCE AVENUE,IL,60409
Denny's,BARSTOW,7984,7984 #7984,1201 E. MAIN ST.,CA,92311
Denny's,GARDEN GROVE,7985,7985 #7985,13302 HARBOR BLVD.,CA,92843
Denny's,ORANGE,7986,7986 #7986,3000 W. CHAPMAN AVE.,CA,92868
Denny's,NORTH CHARLESTON,7987,7987 #7987,5270 INTERNATIONAL BLVD,SC,29418
Denny's,TEMPLE CITY,7988,7988 #7988,5603 ROSEMEAD BLVD.,CA,91780
Denny's,REDLANDS,7989,7989 #7989,1180 ALABAMA ST.,CA,92374
Denny's,COLTON,7990,7990 #7990,160 WEST VALLEY BLVD.,CA,92324
Denny's,GLENDORA,7991,7991 #7991,546 W. BASELINE RD.,CA,91740
Denny's,COLTON,7992,7992 #7992,1190 S. MT. VERNON,CA,92324
Denny's,OKLAHOMA CITY,7994,7994 #7994,315 S. MERIDIAN AVENUE,OK,73108
Denny's,OKLAHOMA CITY,7996,7996 #7996,1617 SW 74TH STREET,OK,73159
Denny's,SIMI VALLEY,7997,7997 #7997,2460 N. SYCAMORE,CA,93065
Denny's,LAS VEGAS,7998,7998 #7998,9310 W. TROPICANA AVE,NV,89147
Denny's,GLENDALE,8000,8000 #8000,9856 W. CAMELBACK RD.,AZ,85305
Denny's,PHOENIX,8001,8001 #8001,3160 W. CAREFREE,AZ,85086
Denny's,TERRE HAUTE,8002,8002 #8002,3442 US HIGHWAY 41,IN,47802
Denny's,ST. AUGUSTINE,8003,8003 #8003,2455 STATE ROAD 16,FL,32084
Denny's,JACKSONVILLE,8004,8004 #8004,8409 BLANDING BLVD.,FL,32244
Denny's,JACKSONVILLE,8005,8005 #8005,8215 DIX ELLIS TRAIL,FL,32256
Denny's,JACKSONVILLE,8006,8006 #8006,1071 AIRPORT ROAD,FL,32218
Denny's,JACKSONVILLE,8007,8007 #8007,10445 ATLANTIC BLVD,FL,32225
Denny's,JACKSONVILLE,8008,8008 #8008,13874 BEACH BLVD,FL,32224
Denny's,KATY,8009,8009 #8009,6920 S. FRY ROAD,TX,77494
Denny's,SOUTH LAKE TAHOE,8010,8010 #8010,2870 S. LAKE TAHOE BLVD.,CA,96150
Denny's,CARSON CITY,8011,8011 #8011,2299 N. CARSON ST.,NV,89706
Denny's,NEWBURY PARK,8012,8012 #8012,2830 CAMINO DEL RIOS NORTH,CA,91320
Denny's,WEATHERFORD,8013,8013 #8013,235 I-20 EAST,TX,76086
Denny's,LAKE WORTH,8014,8014 #8014,4541 HYPOLUXO ROAD,FL,33463
Denny's,TAMARAC,8015,8015 #8015,5710 UNIVERSITY DRIVE,FL,33321
Denny's,LOS ANGELES,8019,8019 #8019,4760 EAST CESAR E CHAVEZ AVENUE,CA,90022
Denny's,HOUSTON,8020,8020 #8020,12501 GULF FREEWAY,TX,77034
Denny's,MARYSVILLE,8021,8021 #8021,630 TENTH ST.,CA,95901
Denny's,MODESTO,8022,8022 #8022,110 MCHENRY ST.,CA,95354
Denny's,ROSEVILLE,8023,8023 #8023,122 SUNRISE AVE.,CA,95661
Denny's,MODESTO,8024,8024 #8024,2052 W. ORANGEBURG ST.,CA,95350
Denny's,WOODLAND,8025,8025 #8025,1568 E. MAIN ST.,CA,95776
Denny's,SACRAMENTO,8026,8026 #8026,7900 COLLEGE TOWN DR.,CA,95826
Denny's,CITRUS HEIGHTS,8027,8027 #8027,6215 SUNRISE BLVD.,CA,95610
Denny's,SACRAMENTO,8028,8028 #8028,3520 AUBURN BLVD.,CA,95821
Denny's,AUBURN,8029,8029 #8029,1800 AUBURN RAVINE,CA,95603
Denny's,WILLIAMS,8030,8030 #8030,4TH ST. & WILLIAMS,CA,95987
Denny's,STOCKTON,8031,8031 #8031,2670 W. MARCH LANE,CA,95207
Denny's,WOODLAND,8032,8032 #8032,21 BERNARD COURT,CA,95695
Denny's,CARMICHAEL,8033,8033 #8033,7433 FAIR OAKS BLVD.,CA,95608
Denny's,MODESTO,8034,8034 #8034,1525 MCHENRY AVE.,CA,95350
Denny's,SACRAMENTO,8036,8036 #8036,1322 HOWE AVE.,CA,95825
Denny's,OCEANSIDE,8039,8039 #8039,2273 EL CAMINO REAL,CA,92054
Denny's,BALTIMORE,8040,8040 #8040,8025 BELAIR ROAD,MD,21236
Denny's,DUNDALK,8041,8041 #8041,1412 MERRIT BOULEVARD,MD,21222
Denny's,LODI,8042,8042 #8042,15237 THORNTON ROAD,CA,95242
Denny's,WICHITA,8045,8045 #8045,8030 E. KELLOGG DRIVE NORTH,KS,67208
Denny's,OGALLALA,8046,8046 #8046,201 CHUCK WAGON RD.,NE,69153
Denny's,APPLE VALLEY,8047,8047 #8047,20242 HWY 18,CA,92307
Denny's,THATCHER,8048,8048 #8048,2875 W HIGHWAY 70,AZ,85552
Denny's,SPRINGFIELD,8049,8049 #8049,2599 W. WABASH AVENUE,IL,62704
Denny's,SPRINGFIELD,8050,8050 #8050,2905 ADLAI STEVENSON,IL,62703
Denny's,MORGANTON,8051,8051 #8051,1209 BURKEMOUNT AVENUE,NC,28655
Denny's,BLACK MOUNTAIN,8052,8052 #8052,581 SOUTH HIGHWAY 9,NC,28711
Denny's,ASHEVILLE,8053,8053 #8053,1 REGENT PARK BOULEVARD,NC,28806
Denny's,HENDERSONVILLE,8054,8054 #8054,1550 FOUR SEASONS,NC,28792
Denny's,HOFFMAN ESTATES,8055,8055 #8055,1175 NORTH ROSELLE ROAD,IL,60169
Denny's,FRANKLIN PARK,8056,8056 #8056,2447 MANNHEIM ROAD,IL,60131
Denny's,OAKBROOK TERRACE,8057,8057 #8057,17 W 660 22ND STREET,IL,60181
Denny's,BAKER,8058,8058 #8058,72415 BAKER BLVD,CA,92309
Denny's,PARIS,8059,8059 #8059,3040 NE LOOP 286,TX,75460
Denny's,ONTARIO,8062,8062 #8062,2421 S. ARCHIBALD,CA,91761
Denny's,FT. GRATIOT,8063,8063 #8063,4010 24TH AVENUE,MI,48059
Denny's,LONG BEACH,8065,8065 #8065,5570 PACIFIC COAST HIGHWAY,CA,90804
Denny's,SANTA MARIA,8066,8066 #8066,1019 EAST MAIN ST.,CA,93454
Denny's,KING CITY,8067,8067 #8067,1129 BROADWAY,CA,93930
Denny's,PASO ROBLES,8068,8068 #8068,1310 24TH ST.,CA,93446
Denny's,PISMO BEACH,8069,8069 #8069,611 FIVE CITIES DR.,CA,93449
Denny's,SAN LUIS OBISPO,8070,8070 #8070,208 MADONNA RD.,CA,93405
Denny's,MYRTLE BEACH,8072,8072 #8072,124 LOYOLA DRIVE,SC,29588
Denny's,FRESNO,8073,8073 #8073,141 ABBY ST.,CA,93701
Denny's,KINGSBURG,8074,8074 #8074,801 SIERRA,CA,93631
Denny's,LOS BANOS,8075,8075 #8075,1491 WEST PACHECO,CA,93635
Denny's,EL MONTE,8076,8076 #8076,9804 E. FLAIR DRIVE,CA,91731
Denny's,BLAINE,8078,8078 #8078,8850 UNIVERSITY DRIVE,MN,55434
Denny's,ROCHESTER,8079,8079 #8079,1226 S. BROADWAY,MN,55904
Denny's,BLOOMINGTON,8080,8080 #8080,4209 W. AMERICAN BLVD,MN,55437
Denny's,MADISON,8081,8081 #8081,1798 THIERER ROAD,WI,53704
Denny's,RACINE,8082,8082 #8082,5501 WASHINGTON AVENUE,WI,53406
Denny's,MADISON,8083,8083 #8083,433 S. GAMMON ROAD,WI,53719
Denny's,MILWAUKEE,8084,8084 #8084,4925 S. HOWELL AVENUE,WI,53207
Denny's,WAUKEGAN,8085,8085 #8085,3890 N. POINT BOULEVARD,IL,60085
Denny's,MILWAUKEE,8086,8086 #8086,8001 W. BROWN DEER ROAD,WI,53223
Denny's,BOURBONNAIS,8087,8087 #8087,1303 ARMOUR ROAD,IL,60914
Denny's,PEWAUKEE,8088,8088 #8088,2801 N. GRANDVIEW BOULEVARD,WI,53072
Denny's,HIGHLAND PARK,8089,8089 #8089,2063 SKOKIE VALLEY,IL,60035
Denny's,GREEN BAY,8090,8090 #8090,2894 S. ONEIDA STREET,WI,54303
Denny's,CAROL STREAM,8091,8091 #8091,363 S. SCHMALE ROAD,IL,60188
Denny's,MILWAUKEE,8092,8092 #8092,3801 S 27TH STREET,WI,53221
Denny's,WAUWATOSA,8093,8093 #8093,11155 WEST NORTH AVENUE,WI,53226
Denny's,MELROSE PARK,8094,8094 #8094,8349 WEST NORTH AVENUE,IL,60160
Denny's,JOLIET,8095,8095 #8095,2531 PLAINFIELD ROAD,IL,60435
Denny's,N LAS VEGAS,8096,8096 #8096,2400 NORTH RANCHO DR,NV,89130
Denny's,HAWTHORNE,8097,8097 #8097,14301 INGLEWOOD,CA,90250
Denny's,JAMESTOWN,8098,8098 #8098,1 GIANT CROSSING,NM,87347
Denny's,DALEVILLE,8099,8099 #8099,15876 W. COMMERCE RD,IN,47334
Denny's,COLONIAL HEIGHTS,8100,8100 #8100,801 SOUTH AVE,VA,23834
Denny's,RICHMOND,8101,8101 #8101,11161 RESEARCH PLAZA WAY,VA,23236
Denny's,KINGSLAND,8102,8102 #8102,1222 BOONE ST,GA,31548
Denny's,CALIMESA,8103,8103 #8103,1184 CALIMESA BLVD,CA,92320
Denny's,CLEVELAND,8105,8105 #8105,4331 W. 150TH STREET,OH,44135
Denny's,HIGHLAND HEIGHTS,8106,8106 #8106,6207 WILSON MILLS ROAD,OH,44143
Denny's,HARLINGEN,8107,8107 #8107,4703 S EXPRESSWAY 77/83,TX,78550
Denny's,CHAMBERSBURG,8109,8109 #8109,1071 WAYNE AVENUE,PA,17201
Denny's,LEHI,8110,8110 #8110,101 N. 1200TH EAST,UT,84043
Denny's,NEW BRAUNFELS,8111,8111 #8111,1348 NORTH IH 35,TX,78130
Denny's,ASHLAND,8112,8112 #8112,738 STATE RT 250 E,OH,44805
Denny's,TILLAMOOK,8113,8113 #8113,2230 MAIN AVENUE NORTH,OR,97141
Denny's,SAN ANTONIO,8114,8114 #8114,9550 I-10 WEST,TX,78230
Denny's,SYRACUSE,8116,8116 #8116,6591 THOMPSON ROAD,NY,13206
Denny's,N. SYRACUSE,8117,8117 #8117,201 LAWRENCE ROAD,NY,13212
Denny's,NIAGARA FALLS,8118,8118 #8118,8020 NIAGARA FALLS,NY,14304
Denny's,SYRACUSE,8119,8119 #8119,103 ELWOOD DAVIS ROAD,NY,13212
Denny's,BUFFALO,8121,8121 #8121,2215 DELAWARE AVE.,NY,14216
Denny's,CHEEKTOWAGA,8122,8122 #8122,4610 GENESEE ST.,NY,14225
Denny's,ORCHARD PARK,8123,8123 #8123,3165 SOUTH WESTERN BLVD.,NY,14127
Denny's,LOCKPORT,8124,8124 #8124,5699 TRANSIT ROAD,NY,14094
Denny's,ROCHESTER,8126,8126 #8126,2890 W. RIDGE ROAD,NY,14626
Denny's,ROCHESTER,8127,8127 #8127,911 JEFFERSON ROAD,NY,14623
Denny's,VICTOR,8128,8128 #8128,7503 MAIN ST. - FISHER,NY,14564
Denny's,CANANDAIGUA,8129,8129 #8129,160 EASTERN BLVD.,NY,14424
Denny's,GENESEO,8130,8130 #8130,4240 LAKEVILLE ROAD,NY,14454
Denny's,SYRACUSE,8131,8131 #8131,3414 ERIE BLVD,NY,13214
Denny's,AUBURN,8132,8132 #8132,176 GRANT AVE.,NY,13021
Denny's,CAMILLUS,8133,8133 #8133,5300 W. GENESSEE ST.,NY,13031
Denny's,CICERO,8134,8134 #8134,7873 BREWERTON ROAD,NY,13212
Denny's,W. SENECA,8135,8135 #8135,1881 RIDGE ROAD,NY,14224
Denny's,AMHERST,8136,8136 #8136,3920 MAPLE ROAD,NY,14226
Denny's,HAMBURG,8137,8137 #8137,5092 CAMP RD.,NY,14075
Denny's,BUFFALO,8138,8138 #8138,4445 MAIN ST.,NY,14226
Denny's,FREDONIA,8139,8139 #8139,10390 BENNET ROAD,NY,14063
Denny's,BATAVIA,8140,8140 #8140,364 W. MAIN ST.,NY,14020
Denny's,PAINTED POST,8141,8141 #8141,118 VICTORY HIGHWAY,NY,14870
Denny's,HORSEHEADS,8142,8142 #8142,950 CHEMUNG ST.,NY,14845
Denny's,AMHERST,8143,8143 #8143,900 N. LEAVITT AVENUE,OH,44001
Denny's,WILLOWBROOK,8144,8144 #8144,7737 S. KINGERY HWY,IL,60527
Denny's,MIAMI GARDENS,8145,8145 #8145,19780 NW 27TH AVENUE,FL,33056
Denny's,SAN ANTONIO,8146,8146 #8146,6000 N. PANAM,TX,78218
Denny's,SAN ANTONIO,8147,8147 #8147,13535 SAN PEDRO AVE,TX,78232
Denny's,SAN ANTONIO,8148,8148 #8148,6854 INGRAM RD,TX,78238
Denny's,GOLDEN,8149,8149 #8149,3291 YOUNGFIELD SERVICE ROAD,CO,80401
Denny's,THOMASVILLE,8150,8150 #8150,103 SEDGEHILL DR,NC,27360
Denny's,LAKEWOOD,8151,8151 #8151,5520 SOUTH STREET,CA,90713
Denny's,MUSKOGEE,8152,8152 #8152,635 SOUTH 32ND STREET,OK,74401
Denny's,TULSA,8153,8153 #8153,45 NORTH SHERIDAN ROAD,OK,74115
Denny's,PENSACOLA,8154,8154 #8154,7748 N. DAVIS HIGHWAY,FL,32514
Denny's,FT. WALTON BEACH,8155,8155 #8155,543 N. EGLIN PARKWAY,FL,32547
Denny's,MOBILE,8156,8156 #8156,812 S. BELTLINE HIGHWAY,AL,36609
Denny's,PENSACOLA,8157,8157 #8157,4625 MOBILE HIGHWAY,FL,32506
Denny's,OCEAN SPRINGS,8158,8158 #8158,7541 N. WASHINGTON STREET,MS,39564
Denny's,PENSACOLA,8159,8159 #8159,535 WEST NINE MILE ROAD,FL,32534
Denny's,STANTON,8160,8160 #8160,12924 BEACH BLVD.,CA,90680
Denny's,MARION,8161,8161 #8161,1050 MT. VERNON AVE.,OH,43302
Denny's,OROVILLE,8162,8162 #8162,2470 ORO DAM BLVD,CA,95966
Denny's,SAN JACINTO,8163,8163 #8163,1290 NORTH STATE ST,CA,92583
Denny's,MONROEVILLE,8165,8165 #8165,3980 WILLIAM PENN HIGHWAY,PA,15146
Denny's,N. VERSAILLES,8166,8166 #8166,1829 LINCOLN HIGHWAY,PA,15137
Denny's,BULLHEAD CITY,8167,8167 #8167,1762 HIGHWAY 95,AZ,86442
Denny's,PITTSBURGH,8168,8168 #8168,7319 MCKNIGHT RD,PA,15237
Denny's,W. MIFFLIN,8169,8169 #8169,2200 LEBANON CHURCH ROAD,PA,15122
Denny's,APPLE VALLEY,8170,8170 #8170,18989 BEAR VALLEY ROAD,CA,92308
Denny's,KILGORE,8171,8171 #8171,4315 TEXAS STATE HWY 42 NORTH,TX,75662
Denny's,FENTON,8172,8172 #8172,1096 S.HIGHWAY DRIVE,MO,63026
Denny's,FRESNO,8173,8173 #8173,1121 N. PARKWAY DR.,CA,93728
Denny's,ESCONDIDO,8174,8174 #8174,510 W. MISSION AVE,CA,92025
Denny's,SAN DIEGO,8175,8175 #8175,9898 MIRA MESA BLVD.,CA,92131
Denny's,TEMECULA,8176,8176 #8176,28915 RANCHO CALIFORNIA ROAD,CA,92590
Denny's,LAKE FOREST,8177,8177 #8177,23515 EL TORO RD,CA,92630
Denny's,JOPLIN,8178,8178 #8178,3602 RANGE LINE ROAD,MO,64801
Denny's,WOODLAND HILLS,8180,8180 #8180,22027 BURBANK BLVD.,CA,91364
Denny's,WOODLAND HILLS,8181,8181 #8181,20137 VENTURA BLVD.,CA,91364
Denny's,PRYOR,8182,8182 #8182,385 MID AMERICA DRIVE,OK,74361
Denny's,CORSICANA,8183,8183 #8183,2801 SOUTH HWY 287,TX,75110
Denny's,BRYAN,8184,8184 #8184,2890 HARVEY MITCHELL PARKWAY,TX,77807
Denny's,LAS VEGAS,8189,8189 #8189,3330 W TROPICANA AVENUE,NV,89103
Denny's,DENTON,8190,8190 #8190,4007 N. INTERSTATE 35,TX,76207
Denny's,WILKES-BARRE,8191,8191 #8191,488 KIDDER ST.,PA,18702
Denny's,SCRANTON,8192,8192 #8192,410 SCRANTON CARBONDALE HWY,PA,18508
Denny's,VESTAL,8193,8193 #8193,4024 VESTAL PARKWAY EAST,NY,13850
Denny's,BINGHAMTON,8194,8194 #8194,1250 UPPER FRONT ST.,NY,13901
Denny's,NEWBURGH,8195,8195 #8195,1283 RT 300,NY,12550
Denny's,MIDDLETOWN,8196,8196 #8196,411 ROUTE 211 EAST,NY,10940
Denny's,WILLIAMSPORT,8197,8197 #8197,1716 E. 3RD ST.,PA,17701
Denny's,BLOOMSBURG,8198,8198 #8198,131 PAPERMILL RD.,PA,17815
Denny's,SELINSGROVE,8199,8199 #8199,RT. 11 & 15 SUSQUEHANNA MALL,PA,17870
Denny's,SANTA ANA,8500,8500 #8500,2530 S BRISTOL STREET,CA,92704
Denny's,RANCHO PALOS VERDES,8501,8501 #8501,29019 WESTERN AVENUE,CA,90275
Denny's,IRWIN,8502,8502 #8502,9174 LINCOLN HWY,PA,15642
Denny's,GUN BARREL CITY,8504,8504 #8504,1015 WEST MAIN ST,TX,75156
Denny's,KETTLEMAN CITY,8505,8505 #8505,27585 BERNARD DRIVE,CA,93239
Denny's,ROWLAND HEIGHTS,8508,8508 #8508,1425 S. NOGALES,CA,91748
Denny's,NORTH CANTON,8509,8509 #8509,3960 EVERHARD ROAD NW,OH,44709
Denny's,NORTH OLMSTED,8510,8510 #8510,25912 LORAIN ROAD,OH,44070
Denny's,CANTON,8511,8511 #8511,4646 TUSCARAWAS,OH,44708
Denny's,NEW PHILADELPHIA,8512,8512 #8512,1256 W. HIGH EXTENSION,OH,44663
Denny's,DAYTON,8513,8513 #8513,1136 SOUTH MAIN STREET,OH,45409
Denny's,OAKLAND,8514,8514 #8514,800 JOHN LONG RD,OR,97462
Denny's,UNION POINT,8515,8515 #8515,3600 HIGHWAY 77 SOUTH,GA,30669
Denny's,KISSIMMEE,8516,8516 #8516,1515 E OSCEOLA PARKWAY,FL,34744
Denny's,SANGER,8517,8517 #8517,536 ACADEMY AVE,CA,93657
Denny's,WATERTOWN,8518,8518 #8518,1142 ARSENAL ST,NY,13601
Denny's,HACIENDA HEIGHTS,8519,8519 #8519,1150 SO SEVENTH AVE.,CA,91745
Denny's,UPLAND,8520,8520 #8520,385 S. MOUNTAIN AVE.,CA,91786
Denny's,VENICE,8523,8523 #8523,1763 TAMIAMI TRAIL,FL,34293
Denny's,INDEPENDENCE,8524,8524 #8524,3939 S NOLAND,MO,64108
Denny's,OVERLAND PARK,8525,8525 #8525,10480 METCALF,KS,66212
Denny's,LENEXA,8526,8526 #8526,9471 LENEXA DR,KS,66215
Denny's,SOUTH SAN FRANCISCO,8527,8527 #8527,10 AIRPORT BLVD,CA,94080
Denny's,ST JOSEPH,8528,8528 #8528,4016 FREDERICK BLVD,MO,64506
Denny's,KANSAS CITY,8529,8529 #8529,3832 BLUE RIDGE CUTOFF,MO,64133
Denny's,BLUE SPRINGS,8530,8530 #8530,1105 N 7 HWY,MO,64015
Denny's,INDEPENDENCE,8531,8531 #8531,2500 SM 291 HWY,MO,64055
Denny's,COLUMBIA,8532,8532 #8532,1100 KNIPP STREET,MO,65203
Denny's,GREENSBURG,8533,8533 #8533,200 WEST DRIVE,PA,15601
Denny's,MESQUITE,8534,8534 #8534,114 HWY 80,TX,75149
Denny's,AUSTIN,8535,8535 #8535,7619 E BEN WHITE BOULEVARD,TX,78741
Denny's,REDDING,8536,8536 #8536,2608 HILLTOP DR.,CA,96002
Denny's,PLEASANT HILL,8537,8537 #8537,612 CONTRA COSTA BLVD.,CA,94523
Denny's,SAN MATEO,8538,8538 #8538,2920 S. NORFOLK,CA,94403
Denny's,SALINAS,8539,8539 #8539,1255 DE LA TORRE,CA,93905
Denny's,SANTA CRUZ,8540,8540 #8540,1515 OCEAN ST.,CA,95060
Denny's,MONTEREY,8541,8541 #8541,2137 NORTH FREMONT ST.,CA,93940
Denny's,CHICO,8542,8542 #8542,675 MANZANITA COURT,CA,95926
Denny's,MARINA,8543,8543 #8543,110 RESERVATION ROAD,CA,93933
Denny's,MORGAN HILL,8544,8544 #8544,875 COCHRANE RD.,CA,95037
Denny's,HUNTSVILLE,8545,8545 #8545,4874 UNIVERSITY DRIVE,AL,35816
Denny's,CULLMAN,8546,8546 #8546,"5931 ALABAMA HIGHWAY, #157",AL,35056
Denny's,CLEVELAND,8547,8547 #8547,1011 PAUL HUFF HIGHWAY,TN,37312
Denny's,PIGEON FORGE,8548,8548 #8548,3716 PARKWAY,TN,37863
Denny's,CONCORD,8549,8549 #8549,8031 CONCORD MILLS BLVD,NC,28027
Denny's,PHOENIX,8550,8550 #8550,2801 NO. BLACK CANYON,AZ,85009
Denny's,PHOENIX,8551,8551 #8551,9030 N. BLACK CANYON HIGHWAY,AZ,85051
Denny's,TEMPE,8552,8552 #8552,1343 W. BROADWAY,AZ,85282
Denny's,TEMPE,8553,8553 #8553,4403 S. RURAL RD.,AZ,85282
Denny's,MESA,8554,8554 #8554,1210 E. MAIN,AZ,85203
Denny's,YOUNGTOWN,8555,8555 #8555,11121 GRAND AVE.,AZ,85363
Denny's,JOPLIN,8556,8556 #8556,11570 HWY FF,MO,64804
Denny's,AMARILLO,8557,8557 #8557,9601 I-40 EAST EXIT 76,TX,79111
Denny's,SAN ANTONIO,8558,8558 #8558,1815 NORTH FOSTER RD,TX,78244
Denny's,WHITELAND,8559,8559 #8559,4982 NORTH 350 EAST,IN,46184
Denny's,PAHRUMP,8560,8560 #8560,240 S. NEVADA HWY. 160,NV,89048
Denny's,ALBUQUERQUE,8561,8561 #8561,9911 AVALON RD NW,NM,87105
Denny's,LAS VEGAS,8563,8563 #8563,5318 BOULDER HIGHWAY,NV,89122
Denny's,RESACA,8564,8564 #8564,288 RESACA BEACH BLVD,GA,30735
Denny's,RIPON,8565,8565 #8565,1501 N JACK TONE ROAD,CA,95366
Denny's,MIDWAY,8566,8566 #8566,32670 BLUE STAR HWY,FL,32343
Denny's,INDIANAPOLIS,8567,8567 #8567,1720 WEST THOMPSON RD,IN,46217
Denny's,WEST HAVEN,8568,8568 #8568,1172 W 2100 ST,UT,84401
Denny's,BEAVERDAM,8569,8569 #8569,420 E MAIN ST,OH,45808
Denny's,ST. AUGUSTINE,8570,8570 #8570,950 STATE ROAD 206 WEST,FL,32086
Denny's,BAKERSFIELD,8571,8571 #8571,17047 ZACHARY AVENUE,CA,93308
Denny's,MILL HALL,8572,8572 #8572,5609 NITTANY VALLEY DRIVE,PA,17751
Denny's,SIOUX FALLS,8573,8573 #8573,5201 GRANITE LANE,SD,57107
Denny's,PHOENIX,8574,8574 #8574,6700 WEST LATHAM,AZ,85043
Denny's,MISSION VIEJO,8575,8575 #8575,24445 ALICIA PARKWAY,CA,92691
Denny's,FOOTHILL RANCH,8576,8576 #8576,26712 PORTOLA PARKWAY,CA,92610
Denny's,KNOXVILLE,8577,8577 #8577,800 WATT RD,TN,37932
Denny's,ELOY,8579,8579 #8579,16189 S SUNSHINE BLVD,AZ,85131
Denny's,ORANGE,8580,8580 #8580,7112 I-10 WEST,TX,77632
Denny's,OAK GROVE,8581,8581 #8581,18750 HERNDON / OAK GROVE RD,KY,42262
Denny's,PECULIAR,8582,8582 #8582,21921 S. EAST OUTER ROAD,MO,64078
Denny's,TEXARKANA,8583,8583 #8583,8300 STATE HIGHWAY 108,AR,71854
Denny's,PECOS,8584,8584 #8584,100 E PINEHURST,TX,79772
Denny's,HOUSTON,8585,8585 #8585,6060 HILLCROFT ST,TX,77081
Denny's,GULFPORT,8586,8586 #8586,9351 CANAL RD,MS,39503
Denny's,WHARTON,8588,8588 #8588,10367 HIGHWAY 59,TX,77488
Denny's,WINSLOW,8589,8589 #8589,400 TRANSCON LANE,AZ,86047
Denny's,BERKSHIRE,8590,8590 #8590,7735 STATE RD RT 37,OH,43074
Denny's,WACO,8591,8591 #8591,2409 SOUTH NEW ROAD,TX,76711
Denny's,GRAND LEDGE,8592,8592 #8592,7800 WEST GRAND RIVER AVE,MI,48837
Denny's,PITTSBURGH,8593,8593 #8593,2701 FREEPORT RD.,PA,15238
Denny's,TULSA,8594,8594 #8594,121 NORTH 129 EAST AVE,OK,74116
Denny's,GRETNA,8595,8595 #8595,15010 SOUTH STATE HWY 31,NE,68028
Denny's,TYE,8596,8596 #8596,101 N FM 707,TX,79563
Denny's,CALDWELL,8597,8597 #8597,3512 FRANKLIN ROAD,ID,83605
Denny's,CHECOTAH,8598,8598 #8598,1255 W GENTRY ST,OK,74426
Denny's,SEAL BEACH,8599,8599 #8599,2940 WESTMINSTER AVE,CA,90740
Denny's,BLACKSBURG,8600,8600 #8600,1011 N MOUNTAIN ST,SC,29702
Denny's,MANHATTAN,8602,8602 #8602,204 TUTTLE CREEK BLVD.,KS,66502
Denny's,BLACK RIVER FALLS,8603,8603 #8603,780 HWY 54,WI,54615
Denny's,GREAT FALLS,8604,8604 #8604,3715 31ST STREET SW,MT,59404
Denny's,AUSTINBURG,8605,8605 #8605,2349 CENTER ROAD,OH,44010
Denny's,BURLINGTON,8606,8606 #8606,415 S LINCOLN STREET,CO,80807
Denny's,DALLAS,8607,8607 #8607,7425 BONNIE VIEW ROAD,TX,75241
Denny's,HEBRON,8608,8608 #8608,3231 EAST 181ST STREET,IN,46341
Denny's,BRUNSWICK,8609,8609 #8609,2990 US HWY 17 SOUTH,GA,31523
Denny's,TUCUMCARI,8610,8610 #8610,2021 S MOUNTAIN RD,NM,88401
Denny's,PERRYSBURG,8611,8611 #8611,26415 WARNS RD,OH,43551
Denny's,CORFU,8612,8612 #8612,8484 ALLEGHENY ROAD,NY,14036
Denny's,SAYRE,8613,8613 #8613,2400 SOUTH 4TH ROUTE,OK,73662
Denny's,NORTH EAST,8614,8614 #8614,1 CENTER DRIVE,MD,21901
Denny's,BROOKSHIRE,8615,8615 #8615,204 S WALLER,TX,77423
Denny's,SOUTH BELOIT,8616,8616 #8616,16049 WILLOWBROOK RD,IL,61080
Denny's,FOUNTAIN,8617,8617 #8617,6715 MESA RIDGE PARKWAY,CO,80817
Denny's,HAUBSTADT,8618,8618 #8618,844 EAST 1250 S,IN,47639
Denny's,CANTON,8619,8619 #8619,17400 N HWY 20,TX,75103
Denny's,INDEPENDENCE,8620,8620 #8620,6100 ROCKSIDE RD.,OH,44131
Denny's,BIRMINGHAM,8621,8621 #8621,224 DANIEL PAYNE DRIVE N,AL,35207
Denny's,OAK CREEK,8623,8623 #8623,9650 SOUTH 20TH STREET,WI,53154
Denny's,NORTH PLATTE,8624,8624 #8624,3400 NEWBERRY ROAD,NE,69101
Denny's,NEW CANEY,8625,8625 #8625,23412 SH 242,TX,77357
Denny's,LEBEC,8626,8626 #8626,42810 FRAZIER MT. PARK ROAD,CA,93243
Denny's,GREENWOOD,8627,8627 #8627,9510 GREENWOOD ROAD,LA,71033
Denny's,LASALLE,8628,8628 #8628,343 CIVIC ROAD,IL,61301
Denny's,PEMBROKE PINES,8629,8629 #8629,"10800 PINES BLVD., SUITE #15",FL,33026
Denny's,SPRINGVILLE,8630,8630 #8630,1460 N 1750 W,UT,84663
Denny's,JEFFERSONVILLE,8631,8631 #8631,9935 STATE ROUTE 41,OH,43128
Denny's,EFFINGHAM,8632,8632 #8632,1701 WEST EVERGREEN AVENUE,IL,62401
Denny's,EDINBURG,8633,8633 #8633,1305 E MONTE CRISTO,TX,78542
Denny's,VANDALIA,8634,8634 #8634,4 INTERSTATE DRIVE,IL,62471
Denny's,NEW MILFORD,8635,8635 #8635,1623 OLIVER ROAD,PA,18834
Denny's,SOLEDAD,8636,8636 #8636,3064 H DE LA ROSA SR. STREET,CA,93960
Denny's,HUBBARD,8637,8637 #8637,2226 NORTH MAIN,OH,44425
Denny's,WOODLAND PARK,8638,8638 #8638,100 MORNING SUN DRIVE,CO,80863
Denny's,ROCK HILL,8639,8639 #8639,2435 MT. HOLLY ROAD,SC,29730
Denny's,CORNING,8641,8641 #8641,2120 SOUTH AVENUE,CA,96021
Denny's,HAW RIVER,8642,8642 #8642,1043 JIMMIE KERR ROAD,NC,27258
Denny's,CLOVIS,8643,8643 #8643,1151 HERNDON AVE,CA,93612
Denny's,KINGMAN,8644,8644 #8644,3300 E ANDY DEVINE AVE,AZ,86401
Denny's,ROCKPORT,8645,8645 #8645,1075 COMMERCIAL STREET,ME,4856
Denny's,WASHINGTON,8646,8646 #8646,1250 BLADENSBURG RD NE,DC,20002
Denny's,LORDSBURG,8647,8647 #8647,11 OLD HIGHWAY 70,NM,88045
Denny's,PRIMM,8648,8648 #8648,31900 S LAS VEGAS BLVD.,NV,89019
Denny's,YUMA,8649,8649 #8649,11255 E. SOUTH FRONTAGE RD,AZ,85367
Denny's,SMITHTON,8650,8650 #8650,122 FITZ HENRY ROAD,PA,15479
Denny's,TALLAHASSEE,8652,8652 #8652,2690 N MONROE ST,FL,32303
Denny's,SOUTH PADRE ISLAND,8653,8653 #8653,1100 PADRE BLVD.,TX,78597
Denny's,MILWAUKEE,8654,8654 #8654,7822 W CAPITOL DR,WI,53222
Denny's,CHAMPAIGN,8655,8655 #8655,702 W TOWN CENTER BLVD.,IL,61822
Denny's,BEDFORD,8656,8656 #8656,1035 JAMES AVE,IN,47421
Denny's,GENEVA,8657,8657 #8657,813 CANANDAIGUA RD,NY,14456
Denny's,LAS VEGAS,8659,8659 #8659,3081 S. MARYLAND PARK,NV,89109
Denny's,NEPTUNE BEACH,8660,8660 #8660,200 N 3RD ST,FL,32266
Denny's,ROSEVILLE,8661,8661 #8661,5181 FOOTHILLS BLVD.,CA,95747
Denny's,SPICELAND,8662,8662 #8662,5300 S STATE RT 3,IN,47385
Denny's,ANTHONY,8664,8664 #8664,3001 MOUNTAIN PASS BLVD,TX,79821
Denny's,SEATTLE,8665,8665 #8665,2762 4TH AVENUE S,WA,98134
Denny's,COLUMBIA,8666,8666 #8666,5901 FAIRFIELD DR,SC,29203
Denny's,GARY,8668,8668 #8668,3150 GRANT ST,IN,46408
Denny's,CLIVE,8669,8669 #8669,11820 HICKMAN ROAD,IA,50325
Denny's,WINNIE,8670,8670 #8670,46000 I-10 EAST,TX,77665
Denny's,LAKE POINT,8671,8671 #8671,1605 EAST SADDLEBACK BLVD,UT,84074
Denny's,CLIFTON,8673,8673 #8673,3205 I-70 BUSINESS LOOP,CO,81520
Denny's,EL PASO - FT BLISS,8674,8674 #8674,FT. BLISS,TX,79906
Denny's,NEPHI,8675,8675 #8675,1597 S MAIN ST,UT,84648
Denny's,SALT LAKE CITY,8676,8676 #8676,2025 S 900 W,UT,84104
Denny's,EL PASO,8677,8677 #8677,1301 NORTH HORIZON BLVD,TX,79927
Denny's,PALESTINE,8681,8681 #8681,"2350 WEST OAK ST., #100",TX,75801
Denny's,KENLY,8682,8682 #8682,1800 PRINCETON-KENLY ROAD,NC,27542
Denny's,MAGNOLIA,8683,8683 #8683,6111 FM 1488,TX,77354
Denny's,LAKE STATION,8684,8684 #8684,1401 RIPLEY STREET,IN,46405
Denny's,BEATTY,8685,8685 #8685,900 HWY 95 NORTH,NV,89003
Denny's,PANORAMA CITY,8686,8686 #8686,8500 VAN NUYS BLVD.,CA,91402
Denny's,LAUGHLIN,8687,8687 #8687,2700 S. CASINO DR,NV,89029
Denny's,BUCKEYE,8688,8688 #8688,441 S. WATSON RD,AZ,85326
Denny's,SAN TAN VALLEY,8689,8689 #8689,1758 W. HUNT HIGHWAY,AZ,85143
Denny's,LAKEWOOD,8690,8690 #8690,11605 CARSON ST.,CA,90715
Denny's,DAVENPORT,8691,8691 #8691,8200 NW BLVD,IA,52806
Denny's,PEMBROKE PINES,8692,8692 #8692,1290 N. UNIVERSITY DR.,FL,33024
Denny's,BROOKVILLE,8693,8693 #8693,246 ALLEGHENY BLVD,PA,15825
Denny's,CENTEREACH,8694,8694 #8694,255 CENTEREACH MALL,NY,11720
Denny's,TUBA CITY,8695,8695 #8695,2 LEGACY LANE,AZ,86045
Denny's,HOUSTON,8696,8696 #8696,2120 NO LOOP WEST,TX,77018
Denny's,HOUSTON,8697,8697 #8697,1760 WEST FM 1960,TX,77090
Denny's,CORAL GABLES,8698,8698 #8698,1150 SOUTH DIXIE HIGHWAY,FL,33146
Denny's,LEVITTOWN,8701,8701 #8701,2716 HEMPSTEAD TURNPIKE,NY,11756
Denny's,VACAVILLE,8703,8703 #8703,1701 E. MONTE VISTA AVE,CA,95688
Denny's,WAYLAND,8704,8704 #8704,102 FORE DRIVE,MO,63472
Denny's,DOWNEY,8705,8705 #8705,8350 E. FIRESTONE BLVD.,CA,90241
Denny's,LAREDO,8706,8706 #8706,1011 BELTWAY PARKWAY,TX,78045
Denny's,EL CENTRO,8707,8707 #8707,1445 OCOTILLO DRIVE,CA,92243
Denny's,YUMA,8708,8708 #8708,1435 E 16TH ST.,AZ,85365
Denny's,EL CENTRO,8709,8709 #8709,3403 DOGWOOD AVE.,CA,92243
Denny's,LAKE PARK,8710,8710 #8710,7001 LAKE PARK - BELLVILLE RD,GA,31636
Denny's,CARTHAGE,8711,8711 #8711,1058 US 59 S,TX,75633
Denny's,ARLINGTON,8712,8712 #8712,4820 W SUBLETT ROAD,TX,76017
Denny's,DENVER,8713,8713 #8713,12090 E. 40TH AVE.,CO,80239
Denny's,DENVER,8714,8714 #8714,900 WEST ALAMEDA AVE.,CO,80223
Denny's,BOULDER,8715,8715 #8715,2905 BASELINE RD.,CO,80303
Denny's,LAKEWOOD,8716,8716 #8716,3580 SO WADSWORTH,CO,80235
Denny's,LAKEWOOD,8717,8717 #8717,565 UNION BLVD.,CO,80228
Denny's,WHEATRIDGE,8718,8718 #8718,9930 W. 49TH AVE.,CO,80033
Denny's,THORNTON,8719,8719 #8719,350 EAST 104TH AVE.,CO,80233
Denny's,AURORA,8720,8720 #8720,16751 E 32ND AVE,CO,80011
Denny's,FRESNO,8721,8721 #8721,1110 EAST SHAW ST.,CA,93710
Denny's,CULVER CITY,8722,8722 #8722,10700 JEFFERSON BLVD.,CA,90230
Denny's,NORTHRIDGE,8723,8723 #8723,9001 TAMPA AVE.,CA,91324
Denny's,FAIRPORT,8724,8724 #8724,4 PERINTON HILLS MALL,NY,14450
Denny's,MCKINNEY,8726,8726 #8726,1615 N CENTRAL EXPRESSWAY,TX,75070
Denny's,NORWICH,8727,8727 #8727,75 N BROAD ST,NY,13815
Denny's,ROSEVILLE,8728,8728 #8728,31831 GRATIOT AVE.,MI,48066
Denny's,ANN ARBOR,8729,8729 #8729,3310 WASHTENAW RD.,MI,48104
Denny's,STERLING HEIGHTS,8730,8730 #8730,44945 WOODRIDGE,MI,48313
Denny's,HAINES CITY,8731,8731 #8731,35649 US HWY 27 NORTH,FL,33844
Denny's,SCHENECTADY,8732,8732 #8732,60 NOTT TERRACE,NY,12308
Denny's,RENO,8733,8733 #8733,680 N. WELLS AVE.,NV,89512
Denny's,SPARKS,8734,8734 #8734,205 NUGGET AVE.,NV,89431
Denny's,HIGHLANDS RANCH,8735,8735 #8735,1164 SARGENT JON STILES DRIVE,CO,80129
Denny's,KALAMAZOO,8736,8736 #8736,3817 CORK STREET,MI,49001
Denny's,GRAND RAPIDS,8737,8737 #8737,3127 PLAINFIELD NE,MI,49505
Denny's,SACRAMENTO,8738,8738 #8738,4441 E COMMERCE WAY,CA,95834
Denny's,ATASCADERO,8740,8740 #8740,6910 EL CAMINO REAL,CA,93422
Denny's,HOBBS,8741,8741 #8741,5114 N. LOVINGTON HIGHWAY,NM,88240
Denny's,PACIFIC BEACH,8742,8742 #8742,800 GARNET AVE.,CA,92109
Denny's,SAN DIEGO,8743,8743 #8743,7676 FRIARS RD.,CA,92108
Denny's,NATIONAL CITY,8744,8744 #8744,1904 SWEETWATER RD.,CA,91950
Denny's,SAN YSIDRO,8745,8745 #8745,130 E CALLE PRIMERO,CA,92173
Denny's,PLOVER,8746,8746 #8746,1250 COMMERCE PLACE,WI,54467
Denny's,IRVINE,8747,8747 #8747,14160 CULVER DRIVE,CA,92604
Denny's,RIVERSIDE,8748,8748 #8748,1245 UNIVERSITY AVE.,CA,92507
Denny's,BELLFLOWER,8749,8749 #8749,9312 ROSECRANS,CA,90706
Denny's,ST CHARLES,8750,8750 #8750,1423 S. 5TH STREET,MO,63301
Denny's,CARLE PLACE,8751,8751 #8751,371 OLD COUNTRY ROAD,NY,11514
Denny's,ST. GEORGE,8752,8752 #8752,113 MOTEL DRIVE,SC,29477
Denny's,SACRAMENTO,8753,8753 #8753,300 BERCUT DRIVE,CA,95814
Denny's,SHREVEPORT,8754,8754 #8754,9080 MANSFIELD RD,LA,71118
Denny's,JACKSONVILLE,8755,8755 #8755,2207 N. MARINE BLVD,NC,28546
Denny's,WILLIAMSBURG,8756,8756 #8756,409 BYPASS RD,VA,23185
Denny's,APPLETON,8757,8757 #8757,3470 WEST COLLEGE AVENUE,WI,54914
Denny's,ELKO,8758,8758 #8758,2405 MOUTAIN CITY HWY,NV,89801
Denny's,GRAND FORKS,8759,8759 #8759,3770 32ND AVENUE S,ND,58201
Denny's,MENOMONIE,8761,8761 #8761,1827 N. BROADWAY ST,WI,54751
Denny's,BAKERSFIELD,8762,8762 #8762,2684 MT. VERNON AVE,CA,93306
Denny's,WESTLEY,8763,8763 #8763,"JOE'S TRUCK PLAZA, 4415 HOWARD R",CA,95387
Denny's,ST. MATTHEWS,8764,8764 #8764,4030 DUTCHMAN'S LANE,KY,40207
Denny's,CLARKSVILLE,8765,8765 #8765,943 E. LEWIS & CLARK PARKWAY,IN,47129
Denny's,LEXINGTON,8766,8766 #8766,1880 NEWTON PIKE,KY,40511
Denny's,BOWLING GREEN,8767,8767 #8767,4700 SCOTTSVILLE RD,KY,42104
Denny's,ELIZABETHTOWN,8768,8768 #8768,2008 N. MULBERRY AVE,KY,42701
Denny's,LOUISVILLE,8769,8769 #8769,434 EASTERN PARKWAY,KY,40217
Denny's,LEXINGTON,8770,8770 #8770,1949 NICHOLASVILLE RD,KY,40503
Denny's,WADDY,8771,8771 #8771,1670 WADDY RD,KY,40076
Denny's,CATLETTSBURG,8772,8772 #8772,15236 STATE ROUTE 180,KY,41129
Denny's,LANGHORNE,8773,8773 #8773,640 EAST LINCOLN HIGHWAY,PA,19047
Denny's,ESSINGTON,8774,8774 #8774,47 INDUSTRIAL HIGHWAY,PA,19029
Denny's,ALLENTOWN,8775,8775 #8775,1871 CATASAUQUA ROAD,PA,18109
Denny's,CLIFTON HEIGHTS,8776,8776 #8776,5321 BALTIMORE PIKE,PA,19018
Denny's,NEWARK,8777,8777 #8777,80 MACINTOSH PLAZA,DE,19713
Denny's,CARNEY'S POINT,8778,8778 #8778,326 SLAPES CORNER ROAD,NJ,8069
Denny's,SAN DIEGO,8779,8779 #8779,MCAS MIRAMAR,CA,92145
Denny's,NEW HAVEN,8780,8780 #8780,1467 WHALLEY AVE,CT,6515
Denny's,N SMITHFIELD,8781,8781 #8781,44 DOWLING VILLAGE BLVD.,RI,2896
Denny's,LANCASTER,8782,8782 #8782,4757 TRANSIT RD,NY,14043
Denny's,ROLLA,8783,8783 #8783,1419 MARTIN SPRINGS RD.,MO,65401
Denny's,BURLEY,8786,8786 #8786,611 N. OVERLAND AVE.,ID,83318
Denny's,CAPE CORAL,8787,8787 #8787,1306 DEL PRADO BLVD,FL,33990
Denny's,CHESAPEAKE,8788,8788 #8788,1401 TINTERN ST,VA,23320
Denny's,LUFKIN,8789,8789 #8789,1910 E DENMAN AVE,TX,75901-6206
Denny's,NORMAL,8790,8790 #8790,1615 N. MAIN,IL,61761
Denny's,GUSTINE,8791,8791 #8791,12820 ST. HWY 33,CA,95322
Denny's,KEY LARGO,8792,8792 #8792,97630 OVERSEAS HWY,FL,33037
Denny's,MILPITAS,8794,8794 #8794,333 S. ABBOTT,CA,95035
Denny's,SAN PABLO,8795,8795 #8795,2526 SAN PABLO,CA,94806
Denny's,FT. PIERCE,8796,8796 #8796,100 N. KINGS HIGHWAY,FL,34945
Denny's,SAN ANTONIO,8797,8797 #8797,29933 STATE ROAD 52,FL,33576
Denny's,KISSIMMEE,8798,8798 #8798,2509 W. VINE STREET,FL,34741
Denny's,KISSIMMEE,8799,8799 #8799,4783 W. IRLO,FL,34746
Denny's,ORLANDO,8800,8800 #8800,8747 INTERNATIONAL,FL,32819
Denny's,FAYETTEVILLE,8801,8801 #8801,5505 RAEFORD RD,NC,28304
Denny's,ABILENE,8802,8802 #8802,3314 S CLACK STREET,TX,79601
Denny's,SPANAWAY,8803,8803 #8803,20420 MOUNTAIN HIGHWAY,WA,98387
Denny's,BARSTOW,8805,8805 #8805,2611 FISHER RD.,CA,92311
Denny's,OAKHURST,8806,8806 #8806,40650 HWY 41,CA,93644
Denny's,ALORTON,8807,8807 #8807,140 RACEHORSE DRIVE,IL,62205
Denny's,PONTOON BEACH,8808,8808 #8808,1310 E. CHAIN OF ROCKS RD.,IL,62040
Denny's,WARRENTON,8809,8809 #8809,#1 CAMP BRANCH RD.,MO,63383
Denny's,HARTFORD,8810,8810 #8810,539 FLATBUSH AVE,CT,6106
Denny's,MARYLAND HEIGHTS,8811,8811 #8811,12319 DORSETT ROAD,MO,63043
Denny's,EAST BRUNSWICK,8812,8812 #8812,752 HWY #18,NJ,8816
Denny's,CLEMENTON,8813,8813 #8813,1410 BLACKWOOD CLEMENTON RD,NJ,8021
Denny's,TURNERSVILLE,8814,8814 #8814,5550 ROUTE 42,NJ,8012
Denny's,ARNOLD,8815,8815 #8815,1203 DRURY LANE,MO,63010
Denny's,LANCASTER,8816,8816 #8816,2204 COLUMBIA AVE,PA,17603
Denny's,BOLINGBROOK,8817,8817 #8817,126 FRONTAGE ROAD,IL,60440
Denny's,SCHILLER PARK,8818,8818 #8818,4824 NO. RIVER ROAD,IL,60176
Denny's,PALATINE,8819,8819 #8819,975 E. DUNDEE ROAD,IL,60074
Denny's,VERNON HILLS,8820,8820 #8820,890 MILWAUKEE AVENUE,IL,60061
Denny's,ORLAND PARK,8821,8821 #8821,#20 ORLAND SQUARE DRIVE,IL,60462
Denny's,NORRIDGE,8822,8822 #8822,4609 N. HARLEM AVENUE,IL,60706
Denny's,GILMAN,8823,8823 #8823,815 HWY 24 W,IL,60938
Denny's,CHEYENNE,8824,8824 #8824,2250 ETCHEPARE DR.,WY,82007
Denny's,ROCK SPRINGS,8825,8825 #8825,650 STAGECOACH DR.,WY,82901
Denny's,RAWLINS,8826,8826 #8826,#1 FLYING J WAY,WY,82301
Denny's,PLANO,8827,8827 #8827,1305 PRESTON ROAD,TX,75093
Denny's,ARLINGTON,8828,8828 #8828,4928 S. COOPER,TX,76017
Denny's,WILMER,8830,8830 #8830,201 N. HWY. I-45,TX,75172
Denny's,GILBERT,8832,8832 #8832,3971 SOUTH GILBERT RD,AZ,85297
Denny's,LONGVIEW,8833,8833 #8833,3126 S. EASTMAN RD.,TX,75602
Denny's,FERNLEY,8844,8844 #8844,480 TRUCK INN WAY,NV,89408
Denny's,BOSSIER CITY,8846,8846 #8846,1832 OLD MINDEN ROAD,LA,71111
Denny's,DURHAM,8848,8848 #8848,"7021 HIGHWAY 751, #901",NC,27707
Denny's,MIAMI BEACH,8850,8850 #8850,7140 COLLINS AVENUE,FL,33140
Denny's,LATHAM,8852,8852 #8852,697 TROY-SCHENECTADY RD,NY,12110
Denny's,CORTLAND,8853,8853 #8853,1 RIVER ST,NY,13045
Denny's,TOLEDO,8854,8854 #8854,6920 W. CENTRAL AVE.,OH,43615
Denny's,SCOTTSBURG,8856,8856 #8856,175 SOUTH HONEYRUN PARKWAY,IN,47170
Denny's,WAIPAHU,8861,8861 #8861,94-305 KUNIA ROAD,HI,96797
Denny's,KANEOHE,8862,8862 #8862,"45-480 KANEOHE BAY DRIVE, STE B1",HI,96744
Denny's,SAN JOSE,8863,8863 #8863,910 SARATOGA AVE,CA,95129
Denny's,CORINTH,8864,8864 #8864,8000 S. I-35 EAST,TX,76205
Denny's,CHARLOTTE,8870,8870 #8870,516 TYVOLA RD,NC,28217
Denny's,ROCKWALL,8871,8871 #8871,670 EAST INTERSTATE 30,TX,75032
Denny's,JACKSONVILLE,8872,8872 #8872,1702 S. JACKSON ST.,TX,75766
Denny's,EDMONDS,8874,8874 #8874,8431 244TH ST. SW,WA,98026
Denny's,HENDERSON,8875,8875 #8875,100 US HIGHWAY 79 S,TX,75652
Denny's,GAINESVILLE,8880,8880 #8880,1701 BROWNS BRIDGE RD,GA,30501
Denny's,RALEIGH,8890,8890 #8890,4380 FAYETTEVILLE RD.,NC,27603
Denny's,PIGEON FORGE,8891,8891 #8891,2480 PARKWAY,TN,37863
Denny's,TALLAHASSEE,8901,8901 #8901,875 TRADITIONS WAY,FL,32306
Denny's,MOSCOW,8902,8902 #8902,"LIVING LEARNING COMMUNITY, BLDG",ID,83844
Denny's,FLAGSTAFF,8903,8903 #8903,NORTHERN ARIZONA UNIVERSITY,AZ,86011
Denny's,POMONA,8905,8905 #8905,3801 W. TEMPLE AVENUE,CA,91768
Denny's,AUBURN,8906,8906 #8906,230 CONNECTOR DR,AL,36849
Denny's,CLEVELAND,8908,8908 #8908,CASE WESTERN RESERVE UNIVERSITY,OH,44106
Denny's,FT. LAUDERDALE,8909,8909 #8909,NOVA SOUTHEASTERN UNIVERSITY,FL,33314
Denny's,YOUNGSTOWN,8910,8910 #8910,YOUNGSTOWN STATE UNIVERSITY,OH,44555
Denny's,LAS VEGAS,8912,8912 #8912,NELLIS AIR FORCE BASE,NV,89191
Denny's,DAYTON,8915,8915 #8915,WRIGHT STATE UNIVERSITY,OH,45435
Denny's,ANCHORAGE,9000,9000 #9000,2900 DENALI,AK,99503
Denny's,ANCHORAGE,9002,9002 #9002,3850 DEBARR ROAD,AK,99508
Denny's,FAIRBANKS,9003,9003 #9003,1929 AIRPORT WAY,AK,99701
Denny's,FT SMITH,9212,9212 #9212,5910 ROGERS AVE,AR,72903
Denny's,WEST MEMPHIS,9233,9233 #9233,3000 SERVICE LOOP RD,AR,72301
Denny's,LITTLE ROCK,9238,9238 #9238,310 S SHACKLEFORD DR,AR,72211
Denny's,RUSSELLVILLE,9239,9239 #9239,43 BRADLEY COVE RD,AR,72802
Denny's,NIAGARA FALLS,6352,6352 #6352,5905 VICTORIA AVE,ON,L2G 3L8
Denny's,WILLIAMS LAKE,6446,6446 #6446,664 OLIVER ST,BC,V2G 1M6
Denny's,PRINCE GEORGE,6490,6490 #6490,1650 CENTRAL ST,BC,V2M 3C2
Denny's,KINGSTON,6495,6495 #6495,33 BENSON ST,ON,K7K 5W2
Denny's,VERNON,6501,6501 #6501,4201-32ND ST,BC,V1T 5P3
Denny's,TERRACE,6544,6544 #6544,4828 HWY 16 W,BC,V8G 1L6
Denny's,LETHBRIDGE,6550,6550 #6550,421 MAYOR MAGRATH DR,AB,T1J 3L8
Denny's,KELOWNA,6575,6575 #6575,2130 HARVEY AVE,BC,V1Y6E8
Denny's,CRANBROOK,6576,6576 #6576,405 CRANBROOK ST,BC,V1C 3R5
Denny's,CHUBBUCK,6638,6638 #6638,4310 YELLOWSTONE AVE,ID,83202
Denny's,EDMONTON,6647,6647 #6647,17635 STONY PLAIN RD,AB,T5S 1E3
Denny's,PENTICTON,6681,6681 #6681,939 BURNABY AVE W,BC,V2A 1G7
Denny's,VANCOUVER,6786,6786 #6786,1098 DAVIE ST,BC,V6E 1M3
Denny's,KAMLOOPS,6852,6852 #6852,570 COLUMBIA ST,BC,V2C 2V1
Denny's,EDMONTON,6859,6859 #6859,5011 25TH AVE,AB,T6L 7A7
Denny's,EDMONTON,6860,6860 #6860,3604 CALGARY TRAIL N.,AB,T6J 7A9
Denny's,OTTAWA,6866,6866 #6866,2208 S KEYS SHOPPING CTR,ON,K1V 1J6
Denny's,SHERWOOD PARK,6937,6937 #6937,44-975 BROADMORE BLVD,AB,T8A 0Z6
Denny's,N DELTA,6960,6960 #6960,8487 120TH ST,BC,V4C 6R2
Denny's,EDMONTON,6971,6971 #6971,10803 - 104TH AVE NW,AB,T5J 4Z5
Denny's,CALGARY,6972,6972 #6972,5015 4TH ST NE,AB,T2K 6K2
Denny's,LANGLEY,7034,7034 #7034,#201-8855 202ND ST,BC,V1M 2N9
Denny's,REVELSTOKE,7055,7055 #7055,1891 FRASER DR,BC,V0E 2S0
Denny's,KAMLOOPS,7092,7092 #7092,898 TRANQUILLE RD,BC,V2B 3J4
Denny's,CALGARY,7100,7100 #7100,138 CROWFOOT WAY NW,AB,T3G 4M4
Denny's,BELLEVILLE,7127,7127 #7127,398 N FRONT ST,ON,K8P 3C9
Denny's,GRANDE PRAIRIE,7155,7155 #7155,9805-100TH ST,AB,T8V 6X3
Denny's,PORT COQUITLAM,7162,7162 #7162,2325 OTTAWA ST,BC,V3B 8A4
Denny's,QUESNEL,7289,7289 #7289,940 CHEW AVE N,BC,V2J 6R8
Denny's,CALGARY,7367,7367 #7367,4515-25TH ST SE,AB,T2B 3R9
Denny's,KINGSTON,7391,7391 #7391,670 GARDINERS RD,ON,K7M 3X9
Denny's,SASKATOON,7418,7418 #7418,310 CIRCLE DR W,SK,S7L 2Y5
Denny's,BRAMPTON,7490,7490 #7490,2452 QUEEN ST E,ON,L6S 5X9
Denny's,RED DEER,7582,7582 #7582,2930 GOETZ AVE,AB,T4R 1M4
Denny's,NEPEAN,7602,7602 #7602,1380 CLYDE AVE,ON,K2G 1Y7
Denny's,MISSISSAUGA,7657,7657 #7657,40 COURTNEY PARK DR E,ON,L5T 2Y3
Denny's,VANCOUVER,7766,7766 #7766,1296 W BROADWAY ST,BC,V6H 1G6
Denny's,VICTORIA,7767,7767 #7767,3100 DOUGLAS ST,BC,V8Z 3X2
Denny's,VANCOUVER,7768,7768 #7768,622 SW MARINE DR,BC,V6P 5Y1
Denny's,CALGARY,7769,7769 #7769,7215 MACLEOD TRAIL,AB,T2H 0L8
Denny's,CALGARY,7770,7770 #7770,"2450 16TH AVE, NW",AB,T2M 0M5
Denny's,COQUITLAM,7772,7772 #7772,500 AUSTIN AVE,BC,V3J 3M7
Denny's,N VANCOUVER,7773,7773 #7773,2050 MARINE DR,BC,V7P 1V7
Denny's,BURNABY,7774,7774 #7774,5605 KINGS WAY,BC,V5G 2G4
Denny's,CALGARY,7775,7775 #7775,1804 19TH ST NE,AB,T2E 4Y3
Denny's,REGINA,7809,7809 #7809,1800 E VICTORIA AVE,SK,S4N6E6
Denny's,CALGARY,7831,7831 #7831,117 BOWRIDGE DRIVE NE,AB,T3B 3P6
Denny's,WINNIPEG,7837,7837 #7837,1750 SARGENT AVE,MB,R3H 0C7
Denny's,OAKVILLE,7924,7924 #7924,125 CROSS AVE,ON,L6J 2W7
Denny's,WHITBY,7925,7925 #7925,75 CONSUMERS LANE,ON,L1N9S2
Denny's,CALGARY,8179,8179 #8179,8001 11TH ST SE,AB,T2H 0B8
Denny's,ABBOTSFORD,8521,8521 #8521,32720 SIMON AVENUE,BC,V2T 0B8
Denny's,LONDON,8578,8578 #8578,3700 HIGHBURY AVE. SOUTH,ON,N6N 1P3
Denny's,CALGARY,8601,8601 #8601,11511 - 40 ST. SE,AB,T2Z 4V6
Denny's,HEADINGLEY,8622,8622 #8622,4100 PORTAGE AVENUE,MB,R4H 1C5
Denny's,SASKATOON,8640,8640 #8640,3850 IDYLWYLD DRIVE N,SK,S7P 0A1
Denny's,SHERWOOD PARK,8658,8658 #8658,50 PEMBINA ROAD,AB,T8H 2G9
Denny's,NAPANEE,8667,8667 #8667,628 COUNTY ROAD #41 RR6,ON,K7R 3L1
Denny's,KAMLOOPS,8672,8672 #8672,175 KOKANEE WAY,BC,V2C 6Z2
Denny's,LANCASTER,8678,8678 #8678,20382 OLD HIGHWAY,ON,K0C 1N0
Denny's,RICHMOND,8725,8725 #8725,10211 ST. EDWARDS DR,BC,V6X2M9
Denny's,OKOTOKS,8739,8739 #8739,57 RIVERSIDE GATE,AB,T1S 0J2
Denny's,EDMONTON,8784,8784 #8784,16818 118 AVENUE NW,AB,T5V 1M8
Denny's,TORONTO,8831,8831 #8831,"123 DUNDAS STREET WEST, Opening Soon",ON,M5G 1C4
Denny's,ROCHESTER,8845,8845 #8845,286 17TH AVENUE NW,MN,55901
Denny's,COLLEGE PARK,8857,8857 #8857,8424 BALTIMORE AVE,MD,20740
Denny's,VERNAL,8858,8858 #8858,2097 W. HIGHWAY 40,UT,84078
Denny's,BROOKS,8866,8866 #8866,1260 E CASSILS RD,AB,T1R 1B7
Denny's,WACO,8868,8868 #8868,709 N. I-35,TX,76705
Denny's,FORT ERIE,8879,8879 #8879,1637 PETTIT ROAD,CN,L2A 5M4
Denny's,CALGARY,8911,8911 #8911,HA112-151 DR. CARPENTER CIR NW,AB,T2M 3G1
