keywords,city,Aggdata Store Number,store_number,address,state,zip_code
Dickey's Barbecue Pit,Dallas,1,1 XX-1 XX1 XX-001 XX001 XX01 XX01X XX-1XXX,4610 N. Central Expressway,TX,75206
Dickey's Barbecue Pit,Plano,2,2 XX-2 XX2 XX-002 XX002 XX02 XX02X XX-2XXX,1211 14th Street,TX,75074
Dickey's Barbecue Pit,Grand Prairie,3,3 XX-3 XX3 XX-003 XX003 XX03 XX03X XX-3XXX,2469 Dalworth Street,TX,75050
Dickey's Barbecue Pit,Dallas,4,4 XX-4 XX4 XX-004 XX004 XX04 XX04X XX-4XXX,7770 Forest Lane,TX,75230
Dickey's Barbecue Pit,Dallas,5,5 XX-5 XX5 XX-005 XX005 XX05 XX05X XX-5XXX,2445 W. Northwest Highway Ste 106,TX,75220
Dickey's Barbecue Pit,Plano,6,6 XX-6 XX6 XX-006 XX006 XX06 XX06X XX-6XXX,1441 Coit Road,TX,75075
Dickey's Barbecue Pit,Dallas,7,7 XX-7 XX7 XX-007 XX007 XX07 XX07X XX-7XXX,2919 Forest Lane,TX,75234
Dickey's Barbecue Pit,Dallas,8,8 XX-8 XX8 XX-008 XX008 XX08 XX08X XX-8XXX,14999 Preston Road Ste 100C,TX,75254
Dickey's Barbecue Pit,Mesquite,9,9 XX-9 XX9 XX-009 XX009 XX09 XX09X XX-9XXX,3700 Gus Thomasson,TX,75150
Dickey's Barbecue Pit,Irving,10,10 XX-10 XX10 XX-0010 XX0010 XX010 XX010X XX-10XXX,5330 N. MacArthur Boulevard,TX,75038
Dickey's Barbecue Pit,Richardson,11,11 XX-11 XX11 XX-0011 XX0011 XX011 XX011X XX-11XXX,1150 North Plano Road,TX,75081
Dickey's Barbecue Pit,DFW Airport,12,12 XX-12 XX12 XX-0012 XX0012 XX012 XX012X XX-12XXX,"D/FW Airport, Terminal A, Gate 19",TX,75261
Dickey's Barbecue Pit,DFW Airport,13,13 XX-13 XX13 XX-0013 XX0013 XX013 XX013X XX-13XXX,"D/FW Airport, Terminal C, Gate 6",TX,75261
Dickey's Barbecue Pit,DFW Airport,14,14 XX-14 XX14 XX-0014 XX0014 XX014 XX014X XX-14XXX,"D/FW Airport, Terminal E, Gate 12",TX,75261
Dickey's Barbecue Pit,Centennial,15,15 XX-15 XX15 XX-0015 XX0015 XX015 XX015X XX-15XXX,10230 E. Arapahoe Road,CO,80112
Dickey's Barbecue Pit,Plano,16,16 XX-16 XX16 XX-0016 XX0016 XX016 XX016X XX-16XXX,4032 Preston Road,TX,75093
Dickey's Barbecue Pit,Dallas,17,17 XX-17 XX17 XX-0017 XX0017 XX017 XX017X XX-17XXX,726 N. Harwood,TX,75201
Dickey's Barbecue Pit,Dallas,18,18 XX-18 XX18 XX-0018 XX0018 XX018 XX018X XX-18XXX,2324 McKinney Avenue,TX,75201
Dickey's Barbecue Pit,DeSoto,19,19 XX-19 XX19 XX-0019 XX0019 XX019 XX019X XX-19XXX,1001 N. Beckley Ste 116A,TX,75115
Dickey's Barbecue Pit,Coppell,20,20 XX-20 XX20 XX-0020 XX0020 XX020 XX020X XX-20XXX,801 South Denton Tap Road,TX,75019
Dickey's Barbecue Pit,Allen,21,21 XX-21 XX21 XX-0021 XX0021 XX021 XX021X XX-21XXX,405 Central Expressway South,TX,75013
Dickey's Barbecue Pit,Rowlett,22,22 XX-22 XX22 XX-0022 XX0022 XX022 XX022X XX-22XXX,1700 Dalrock Road,TX,75088
Dickey's Barbecue Pit,The Colony,23,23 XX-23 XX23 XX-0023 XX0023 XX023 XX023X XX-23XXX,5745 E. TX-121,TX,75056
Dickey's Barbecue Pit,Arlington,24,24 XX-24 XX24 XX-0024 XX0024 XX024 XX024X XX-24XXX,5530 S. Cooper,TX,76017
Dickey's Barbecue Pit,Arlington,25,25 XX-25 XX25 XX-0025 XX0025 XX025 XX025X XX-25XXX,1801 Ballpark Way,TX,76006
Dickey's Barbecue Pit,Fort Worth,26,26 XX-26 XX26 XX-0026 XX0026 XX026 XX026X XX-26XXX,1989 Colonial Parkway,TX,76110
Dickey's Barbecue Pit,Fort Worth,27,27 XX-27 XX27 XX-0027 XX0027 XX027 XX027X XX-27XXX,451 University Drive,TX,76107
Dickey's Barbecue Pit,Keller,28,28 XX-28 XX28 XX-0028 XX0028 XX028 XX028X XX-28XXX,711 Keller Parkway,TX,76248
Dickey's Barbecue Pit,Dallas,29,29 XX-29 XX29 XX-0029 XX0029 XX029 XX029X XX-29XXX,1201 Elm Street Ste LL5,TX,75270
Dickey's Barbecue Pit,Sherman,31,31 XX-31 XX31 XX-0031 XX0031 XX031 XX031X XX-31XXX,529 W. Lamar Street,TX,75090
Dickey's Barbecue Pit,Frisco,32,32 XX-32 XX32 XX-0032 XX0032 XX032 XX032X XX-32XXX,7070 Preston Rd.,TX,75034
Dickey's Barbecue Pit,Forney,33,33 XX-33 XX33 XX-0033 XX0033 XX033 XX033X XX-33XXX,120 E. Highway 80,TX,75126
Dickey's Barbecue Pit,McKinney,34,34 XX-34 XX34 XX-0034 XX0034 XX034 XX034X XX-34XXX,600 N. Central Expressway,TX,75070
Dickey's Barbecue Pit,Waxahachie,35,35 XX-35 XX35 XX-0035 XX0035 XX035 XX035X XX-35XXX,1009 Highway 77 North,TX,75165
Dickey's Barbecue Pit,Dallas,37,37 XX-37 XX37 XX-0037 XX0037 XX037 XX037X XX-37XXX,3254 Irving Blvd.,TX,75247
Dickey's Barbecue Pit,Wylie,38,38 XX-38 XX38 XX-0038 XX0038 XX038 XX038X XX-38XXX,1301 Century Way,TX,75098
Dickey's Barbecue Pit,Hurst,39,39 XX-39 XX39 XX-0039 XX0039 XX039 XX039X XX-39XXX,1858 Precinct Line Road,TX,76054
Dickey's Barbecue Pit,Corsicana,40,40 XX-40 XX40 XX-0040 XX0040 XX040 XX040X XX-40XXX,1509 W. 7th Ave.,TX,75110
Dickey's Barbecue Pit,Buffalo,41,41 XX-41 XX41 XX-0041 XX0041 XX041 XX041X XX-41XXX,2710 W. Commerce,TX,75831
Dickey's Barbecue Pit,Addison,42,42 XX-42 XX42 XX-0042 XX0042 XX042 XX042X XX-42XXX,3711 Belt Line Road,TX,75001
Dickey's Barbecue Pit,Bedford,43,43 XX-43 XX43 XX-0043 XX0043 XX043 XX043X XX-43XXX,"501 N. Industrial Blvd., Ste. 100",TX,76021
Dickey's Barbecue Pit,Flower Mound,44,44 XX-44 XX44 XX-0044 XX0044 XX044 XX044X XX-44XXX,3320 Long Prairie Road,TX,75022
Dickey's Barbecue Pit,Carrollton,45,45 XX-45 XX45 XX-0045 XX0045 XX045 XX045X XX-45XXX,3220 E. Hebron Parkway,TX,75010
Dickey's Barbecue Pit,Fort Worth,46,46 XX-46 XX46 XX-0046 XX0046 XX046 XX046X XX-46XXX,5412 Blue Mound Road,TX,76106
Dickey's Barbecue Pit,Roanoke,47,47 XX-47 XX47 XX-0047 XX0047 XX047 XX047X XX-47XXX,"1224 N. Hwy. 377, Suite 221",TX,76262
Dickey's Barbecue Pit,Taylors,48,48 XX-48 XX48 XX-0048 XX0048 XX048 XX048X XX-48XXX,6001 Wade Hampton Blvd.,SC,29687
Dickey's Barbecue Pit,Dallas,49,49 XX-49 XX49 XX-0049 XX0049 XX049 XX049X XX-49XXX,9004 Garland Road,TX,75218
Dickey's Barbecue Pit,The Woodlands,50,50 XX-50 XX50 XX-0050 XX0050 XX050 XX050X XX-50XXX,10700 Kuykendahl Road,TX,77381
Dickey's Barbecue Pit,College Station,51,51 XX-51 XX51 XX-0051 XX0051 XX051 XX051X XX-51XXX,2297 Earl Rudder Fwy S,TX,77845
Dickey's Barbecue Pit,Hattiesburg,52,52 XX-52 XX52 XX-0052 XX0052 XX052 XX052X XX-52XXX,50 Cross Creek Pkwy,MS,39402
Dickey's Barbecue Pit,Louisville,53,53 XX-53 XX53 XX-0053 XX0053 XX053 XX053X XX-53XXX,459 S. McCaslin Blvd.,CO,80027
Dickey's Barbecue Pit,San Antonio,54,54 XX-54 XX54 XX-0054 XX0054 XX054 XX054X XX-54XXX,7247 Bandera Road,TX,78238
Dickey's Barbecue Pit,Cary,55,55 XX-55 XX55 XX-0055 XX0055 XX055 XX055X XX-55XXX,200 Crossroads Blvd.,NC,27518
Dickey's Barbecue Pit,Topeka,56,56 XX-56 XX56 XX-0056 XX0056 XX056 XX056X XX-56XXX,609 NW Hwy 24,KS,66608
Dickey's Barbecue Pit,Scottsdale,57,57 XX-57 XX57 XX-0057 XX0057 XX057 XX057X XX-57XXX,7337 East Shea Boulevard,AZ,85260
Dickey's Barbecue Pit,Cedar Hill,58,58 XX-58 XX58 XX-0058 XX0058 XX058 XX058X XX-58XXX,642 Uptown Blvd.,TX,75104
Dickey's Barbecue Pit,Valley Park,59,59 XX-59 XX59 XX-0059 XX0059 XX059 XX059X XX-59XXX,932 Meramec Station Rd Suite K,MO,63088
Dickey's Barbecue Pit,Chino,60,60 XX-60 XX60 XX-0060 XX0060 XX060 XX060X XX-60XXX,11971 Central Ave. Ste A,CA,91710
Dickey's Barbecue Pit,Dallas,61,61 XX-61 XX61 XX-0061 XX0061 XX061 XX061X XX-61XXX,"2525 Wycliff Avenue, Ste. 130",TX,75219
Dickey's Barbecue Pit,Raleigh,62,62 XX-62 XX62 XX-0062 XX0062 XX062 XX062X XX-62XXX,170 East Davie Street,NC,27601
Dickey's Barbecue Pit,Durham,63,63 XX-63 XX63 XX-0063 XX0063 XX063 XX063X XX-63XXX,5318 New Hope Commons Drive,NC,27707
Dickey's Barbecue Pit,Fremont,64,64 XX-64 XX64 XX-0064 XX0064 XX064 XX064X XX-64XXX,43321 Boscell Road Ste P9-B,CA,94538
Dickey's Barbecue Pit,Denton,65,65 XX-65 XX65 XX-0065 XX0065 XX065 XX065X XX-65XXX,3721 S I-35E,TX,76208
Dickey's Barbecue Pit,McKinney,66,66 XX-66 XX66 XX-0066 XX0066 XX066 XX066X XX-66XXX,8628 Hwy. 121,TX,75070
Dickey's Barbecue Pit,Lubbock,67,67 XX-67 XX67 XX-0067 XX0067 XX067 XX067X XX-67XXX,5412 Slide Road Ste 100,TX,79414
Dickey's Barbecue Pit,Bethlehem,68,68 XX-68 XX68 XX-0068 XX0068 XX068 XX068X XX-68XXX,3221 Schoenersville Rd.,PA,18017
Dickey's Barbecue Pit,Little Elm,69,69 XX-69 XX69 XX-0069 XX0069 XX069 XX069X XX-69XXX,2587 FM-423 Ste. 100 Eldorado Pkwy. At FM-423,TX,75068
Dickey's Barbecue Pit,Las Vegas,70,70 XX-70 XX70 XX-0070 XX0070 XX070 XX070X XX-70XXX,7430 Las Vegas Blvd. South Ste 100,NV,89123
Dickey's Barbecue Pit,Houston,71,71 XX-71 XX71 XX-0071 XX0071 XX071 XX071X XX-71XXX,1911 Taylor Street,TX,77007
Dickey's Barbecue Pit,Watkinsville,72,72 XX-72 XX72 XX-0072 XX0072 XX072 XX072X XX-72XXX,2131 Hog Mountain Rd. and Experiment Station,GA,30677
Dickey's Barbecue Pit,Rancho Cucamonga,73,73 XX-73 XX73 XX-0073 XX0073 XX073 XX073X XX-73XXX,9670 Haven Ave.,CA,91730
Dickey's Barbecue Pit,Carrollton,74,74 XX-74 XX74 XX-0074 XX0074 XX074 XX074X XX-74XXX,1630 Valwood Pkwy.,TX,75006
Dickey's Barbecue Pit,Lakewood,76,76 XX-76 XX76 XX-0076 XX0076 XX076 XX076X XX-76XXX,3140 S. Wadsworth,CO,80227
Dickey's Barbecue Pit,Reno,77,77 XX-77 XX77 XX-0077 XX0077 XX077 XX077X XX-77XXX,395 East Plumb Lane,NV,89502
Dickey's Barbecue Pit,Fontana,78,78 XX-78 XX78 XX-0078 XX0078 XX078 XX078X XX-78XXX,16391 Sierra Lakes Pkwy,CA,92336
Dickey's Barbecue Pit,Milton,79,79 XX-79 XX79 XX-0079 XX0079 XX079 XX079X XX-79XXX,13075 Highway 9 North,GA,30004
Dickey's Barbecue Pit,Atlanta,80,80 XX-80 XX80 XX-0080 XX0080 XX080 XX080X XX-80XXX,6631 Roswell Rd. Ste. I,GA,30328
Dickey's Barbecue Pit,Lebanon,81,81 XX-81 XX81 XX-0081 XX0081 XX081 XX081X XX-81XXX,2540 Granite Lane,MO,65536
Dickey's Barbecue Pit,Maple Grove,82,82 XX-82 XX82 XX-0082 XX0082 XX082 XX082X XX-82XXX,11631 Fountains Dr,MN,55369
Dickey's Barbecue Pit,San Antonio,83,83 XX-83 XX83 XX-0083 XX0083 XX083 XX083X XX-83XXX,834 NW Loop 410 Ste 105,TX,78216
Dickey's Barbecue Pit,Lubbock,84,84 XX-84 XX84 XX-0084 XX0084 XX084 XX084X XX-84XXX,5217 98th Street Ste 900,TX,79424
Dickey's Barbecue Pit,Midland,85,85 XX-85 XX85 XX-0085 XX0085 XX085 XX085X XX-85XXX,5210 W. Wadley Ste 100,TX,79707
Dickey's Barbecue Pit,Davenport,86,86 XX-86 XX86 XX-0086 XX0086 XX086 XX086X XX-86XXX,4706 Utica Ridge Road,IA,52807
Dickey's Barbecue Pit,Morgan Hill,87,87 XX-87 XX87 XX-0087 XX0087 XX087 XX087X XX-87XXX,1031 Cochrane Ave.,CA,95037
Dickey's Barbecue Pit,Lowell,88,88 XX-88 XX88 XX-0088 XX0088 XX088 XX088X XX-88XXX,105 S. Dixieland Rd.,AR,72745
Dickey's Barbecue Pit,Overland Park,89,89 XX-89 XX89 XX-0089 XX0089 XX089 XX089X XX-89XXX,7284 W. 121st St.,KS,66213
Dickey's Barbecue Pit,Kansas City,90,90 XX-90 XX90 XX-0090 XX0090 XX090 XX090X XX-90XXX,9000 NW Skyview Ave,MO,64154
Dickey's Barbecue Pit,Southlake,91,91 XX-91 XX91 XX-0091 XX0091 XX091 XX091X XX-91XXX,260 N. Kimball Avenue,TX,76092
Dickey's Barbecue Pit,Magnolia,92,92 XX-92 XX92 XX-0092 XX0092 XX092 XX092X XX-92XXX,6011 FM 1488,TX,77355
Dickey's Barbecue Pit,Delaware,93,93 XX-93 XX93 XX-0093 XX0093 XX093 XX093X XX-93XXX,820 Sunbury Rd.,OH,43015
Dickey's Barbecue Pit,Roseville,94,94 XX-94 XX94 XX-0094 XX0094 XX094 XX094X XX-94XXX,701 Pleasant Grove Blvd Ste 150,CA,95678
Dickey's Barbecue Pit,Livermore,95,95 XX-95 XX95 XX-0095 XX0095 XX095 XX095X XX-95XXX,1524 N. Vasco Road,CA,94551
Dickey's Barbecue Pit,Shakopee,96,96 XX-96 XX96 XX-0096 XX0096 XX096 XX096X XX-96XXX,8088 Old Carriage Court North,MN,55379
Dickey's Barbecue Pit,San Angelo,97,97 XX-97 XX97 XX-0097 XX0097 XX097 XX097X XX-97XXX,4520 Sherwood Way Ste 109,TX,76901
Dickey's Barbecue Pit,Laurel,98,98 XX-98 XX98 XX-0098 XX0098 XX098 XX098X XX-98XXX,2159 Hwy 15 N,MS,39440
Dickey's Barbecue Pit,Rock Springs,99,99 XX-99 XX99 XX-0099 XX0099 XX099 XX099X XX-99XXX,76 Gateway Blvd.,WY,82901
Dickey's Barbecue Pit,Houston,100,100 XX-100 XX100 XX-00100 XX00100 XX0100 XX0100X XX-100XXX,1109 B Bay Area Blvd.,TX,77062
Dickey's Barbecue Pit,Greenville,101,101 XX-101 XX101 XX-00101 XX00101 XX0101 XX0101X XX-101XXX,3103 E. Tenth Street,NC,27858
Dickey's Barbecue Pit,Coon Rapids,102,102 XX-102 XX102 XX-00102 XX00102 XX0102 XX0102X XX-102XXX,"13131 Riverdale Dr., Ste. 100",MN,55448
Dickey's Barbecue Pit,Burnsville,103,103 XX-103 XX103 XX-00103 XX00103 XX0103 XX0103X XX-103XXX,250 East Travelers Trail,MN,55337
Dickey's Barbecue Pit,Wesley Chapel,104,104 XX-104 XX104 XX-00104 XX00104 XX0104 XX0104X XX-104XXX,"2653 Bruce B. Downs Blvd., Ste. 101",FL,33544
Dickey's Barbecue Pit,Rapid City,105,105 XX-105 XX105 XX-00105 XX00105 XX0105 XX0105X XX-105XXX,1565 Haines Ave Ste E,SD,57701
Dickey's Barbecue Pit,Southern Pines,106,106 XX-106 XX106 XX-00106 XX00106 XX0106 XX0106X XX-106XXX,10564 S. US Highway 15/501,NC,28387
Dickey's Barbecue Pit,Winston-Salem,107,107 XX-107 XX107 XX-00107 XX00107 XX0107 XX0107X XX-107XXX,615 Jonestown Road,NC,27103
Dickey's Barbecue Pit,High Point,108,108 XX-108 XX108 XX-00108 XX00108 XX0108 XX0108X XX-108XXX,5872 Samet Drive,NC,27265
Dickey's Barbecue Pit,Norman,110,110 XX-110 XX110 XX-00110 XX00110 XX0110 XX0110X XX-110XXX,115 SE 12th St Ste 110,OK,73071
Dickey's Barbecue Pit,Schererville,111,111 XX-111 XX111 XX-00111 XX00111 XX0111 XX0111X XX-111XXX,713B Indianapolis Blvd.,IN,46375
Dickey's Barbecue Pit,Mission,112,112 XX-112 XX112 XX-00112 XX00112 XX0112 XX0112X XX-112XXX,2521 E. US Expressway Suite 100,TX,78572
Dickey's Barbecue Pit,Belton,113,113 XX-113 XX113 XX-00113 XX00113 XX0113 XX0113X XX-113XXX,11824 FM 2305,TX,76513
Dickey's Barbecue Pit,Snyder,114,114 XX-114 XX114 XX-00114 XX00114 XX0114 XX0114X XX-114XXX,4509 College Ave.,TX,79549
Dickey's Barbecue Pit,Orem,115,115 XX-115 XX115 XX-00115 XX00115 XX0115 XX0115X XX-115XXX,1385 South State St,UT,84097
Dickey's Barbecue Pit,American Fork,116,116 XX-116 XX116 XX-00116 XX00116 XX0116 XX0116X XX-116XXX,599 W Pacific Drive,UT,84003
Dickey's Barbecue Pit,West Valley,117,117 XX-117 XX117 XX-00117 XX00117 XX0117 XX0117X XX-117XXX,"2592 South 5600 West, Ste. 103",UT,84120
Dickey's Barbecue Pit,Nacogdoches,118,118 XX-118 XX118 XX-00118 XX00118 XX0118 XX0118X XX-118XXX,3505 South St.,TX,75964
Dickey's Barbecue Pit,Eagan,119,119 XX-119 XX119 XX-00119 XX00119 XX0119 XX0119X XX-119XXX,"3090 Courthouse Ln., Ste. 100",MN,55121
Dickey's Barbecue Pit,Highlands Ranch,120,120 XX-120 XX120 XX-00120 XX00120 XX0120 XX0120X XX-120XXX,4004 Red Cedar Drive,CO,80126
Dickey's Barbecue Pit,Pleasanton,121,121 XX-121 XX121 XX-00121 XX00121 XX0121 XX0121X XX-121XXX,6654 Koll Center Parkway,CA,94566
Dickey's Barbecue Pit,Meridian,122,122 XX-122 XX122 XX-00122 XX00122 XX0122 XX0122X XX-122XXX,103 South Frontage Rd.,MS,39301
Dickey's Barbecue Pit,Wheaton,124,124 XX-124 XX124 XX-00124 XX00124 XX0124 XX0124X XX-124XXX,206 Danada Square W,IL,60187
Dickey's Barbecue Pit,Plymouth,125,125 XX-125 XX125 XX-00125 XX00125 XX0125 XX0125X XX-125XXX,3195 Vicksburg Ln.,MN,55447
Dickey's Barbecue Pit,Allentown,126,126 XX-126 XX126 XX-00126 XX00126 XX0126 XX0126X XX-126XXX,1042 Mill Creek Rd.,PA,18106
Dickey's Barbecue Pit,Portage,127,127 XX-127 XX127 XX-00127 XX00127 XX0127 XX0127X XX-127XXX,6200 U.S. 6,IN,46368
Dickey's Barbecue Pit,Sunset Valley,128,128 XX-128 XX128 XX-00128 XX00128 XX0128 XX0128X XX-128XXX,5207 Brodie Ste 115,TX,78745
Dickey's Barbecue Pit,Burleson,129,129 XX-129 XX129 XX-00129 XX00129 XX0129 XX0129X XX-129XXX,251 Southwest Wilshire Blvd Ste 126,TX,76028
Dickey's Barbecue Pit,Peachtree City,130,130 XX-130 XX130 XX-00130 XX00130 XX0130 XX0130X XX-130XXX,Brealinn Village SC 460 Crosstown Rd.,GA,30269
Dickey's Barbecue Pit,Tulsa,131,131 XX-131 XX131 XX-00131 XX00131 XX0131 XX0131X XX-131XXX,6044 S. Yale Ave,OK,74135
Dickey's Barbecue Pit,Broken Arrow,132,132 XX-132 XX132 XX-00132 XX00132 XX0132 XX0132X XX-132XXX,820 North Aspen,OK,74012
Dickey's Barbecue Pit,Idaho Falls,133,133 XX-133 XX133 XX-00133 XX00133 XX0133 XX0133X XX-133XXX,2090 E 17th St,ID,83404
Dickey's Barbecue Pit,St. George,134,134 XX-134 XX134 XX-00134 XX00134 XX0134 XX0134X XX-134XXX,2610 S. Pioneer Rd.,UT,84790
Dickey's Barbecue Pit,Rogers,135,135 XX-135 XX135 XX-00135 XX00135 XX0135 XX0135X XX-135XXX,14165 James Rd.,MN,55374
Dickey's Barbecue Pit,Troy,136,136 XX-136 XX136 XX-00136 XX00136 XX0136 XX0136X XX-136XXX,3672 Rochester Rd.,MI,48083
Dickey's Barbecue Pit,Eau Claire,137,137 XX-137 XX137 XX-00137 XX00137 XX0137 XX0137X XX-137XXX,311 E. Clairemont Avenue,WI,54701
Dickey's Barbecue Pit,Irving,138,138 XX-138 XX138 XX-00138 XX00138 XX0138 XX0138X XX-138XXX,2912 N. Belt Line Rd.,TX,75062
Dickey's Barbecue Pit,Meridian,139,139 XX-139 XX139 XX-00139 XX00139 XX0139 XX0139X XX-139XXX,"2845 E. Overland Road, Ste. 190",ID,83642
Dickey's Barbecue Pit,Redondo Beach,140,140 XX-140 XX140 XX-00140 XX00140 XX0140 XX0140X XX-140XXX,407 N. Pacific Coast Hwy Ste 102,CA,90277
Dickey's Barbecue Pit,Queensbury,141,141 XX-141 XX141 XX-00141 XX00141 XX0141 XX0141X XX-141XXX,"756 Upper Glen Street, Unit 8",NY,12804
Dickey's Barbecue Pit,Clifton Park,142,142 XX-142 XX142 XX-00142 XX00142 XX0142 XX0142X XX-142XXX,"22 Clifton Country Road, Unit 47",NY,12065
Dickey's Barbecue Pit,Garland,143,143 XX-143 XX143 XX-00143 XX00143 XX0143 XX0143X XX-143XXX,1413 W. Buckingham Rd.,TX,75042
Dickey's Barbecue Pit,Gramling,144,144 XX-144 XX144 XX-00144 XX00144 XX0144 XX0144X XX-144XXX,13921 Asheville Hwy,SC,29348
Dickey's Barbecue Pit,Lewisville,145,145 XX-145 XX145 XX-00145 XX00145 XX0145 XX0145X XX-145XXX,717 Hebron Pkwy Ste. 130 Lake Pointe Town Crossing,TX,75057
Dickey's Barbecue Pit,Los Angeles,146,146 XX-146 XX146 XX-00146 XX00146 XX0146 XX0146X XX-146XXX,9035 Reseda Blvd,CA,91324
Dickey's Barbecue Pit,Kyle,147,147 XX-147 XX147 XX-00147 XX00147 XX0147 XX0147X XX-147XXX,"5695 Kyle Parkway, Suite 100",TX,78640
Dickey's Barbecue Pit,Fargo,148,148 XX-148 XX148 XX-00148 XX00148 XX0148 XX0148X XX-148XXX,"3402 13th Ave. S, Ste. A",ND,58103
Dickey's Barbecue Pit,Bonney Lake,149,149 XX-149 XX149 XX-00149 XX00149 XX0149 XX0149X XX-149XXX,21109 St. Route 410 E Ste G4A,WA,98391
Dickey's Barbecue Pit,Lewisville,150,150 XX-150 XX150 XX-00150 XX00150 XX0150 XX0150X XX-150XXX,1511 FM 407 Suite 118A,TX,75077
Dickey's Barbecue Pit,Lincoln,151,151 XX-151 XX151 XX-00151 XX00151 XX0151 XX0151X XX-151XXX,2662 Cornhusker Hwy Ste 9,NE,68521
Dickey's Barbecue Pit,Lincoln,152,152 XX-152 XX152 XX-00152 XX00152 XX0152 XX0152X XX-152XXX,"1226 P Street, Ste. 101",NE,68508
Dickey's Barbecue Pit,Lincoln,153,153 XX-153 XX153 XX-00153 XX00153 XX0153 XX0153X XX-153XXX,6125 Apples Way Ste. 209,NE,68516
Dickey's Barbecue Pit,Knightdale,154,154 XX-154 XX154 XX-00154 XX00154 XX0154 XX0154X XX-154XXX,2001-C Widewaters Pkwy,NC,27545
Dickey's Barbecue Pit,Raleigh,155,155 XX-155 XX155 XX-00155 XX00155 XX0155 XX0155X XX-155XXX,14460 New Falls of Neuse Road,NC,27614
Dickey's Barbecue Pit,Richmond,156,156 XX-156 XX156 XX-00156 XX00156 XX0156 XX0156X XX-156XXX,7037 Forest Hill Avenue A,VA,23225
Dickey's Barbecue Pit,Glen Allen,157,157 XX-157 XX157 XX-00157 XX00157 XX0157 XX0157X XX-157XXX,9809 West Broad Street,VA,23060
Dickey's Barbecue Pit,Pooler,158,158 XX-158 XX158 XX-00158 XX00158 XX0158 XX0158X XX-158XXX,"1109 US Hwy 80. East, Unit E",GA,31322
Dickey's Barbecue Pit,Savannah,159,159 XX-159 XX159 XX-00159 XX00159 XX0159 XX0159X XX-159XXX,13051 Abercorn Street,GA,31419
Dickey's Barbecue Pit,St. Cloud,160,160 XX-160 XX160 XX-00160 XX00160 XX0160 XX0160X XX-160XXX,"2956 W Division Street, Ste. 3",MN,56301
Dickey's Barbecue Pit,Daytona Beach,161,161 XX-161 XX161 XX-00161 XX00161 XX0161 XX0161X XX-161XXX,"2525 W International Speedway Blvd., Ste. 200",FL,32114
Dickey's Barbecue Pit,Siloam Springs,162,162 XX-162 XX162 XX-00162 XX00162 XX0162 XX0162X XX-162XXX,1951 Hwy 412 East,AR,72761
Dickey's Barbecue Pit,Modesto,163,163 XX-163 XX163 XX-00163 XX00163 XX0163 XX0163X XX-163XXX,2816 McHenry Ave.,CA,95350
Dickey's Barbecue Pit,Round Rock,164,164 XX-164 XX164 XX-00164 XX00164 XX0164 XX0164X XX-164XXX,"661 Louis Henna Blvd., Suite 330",TX,78664
Dickey's Barbecue Pit,Kennesaw,165,165 XX-165 XX165 XX-00165 XX00165 XX0165 XX0165X XX-165XXX,1610 Ridenour Blvd,GA,30144
Dickey's Barbecue Pit,Conroe,166,166 XX-166 XX166 XX-00166 XX00166 XX0166 XX0166X XX-166XXX,1418 N. Loop 336 West,TX,77304
Dickey's Barbecue Pit,Mesa,167,167 XX-167 XX167 XX-00167 XX00167 XX0167 XX0167X XX-167XXX,"1914 S. Power Rd., Ste. 101",AZ,85206
Dickey's Barbecue Pit,Fort Worth,168,168 XX-168 XX168 XX-00168 XX00168 XX0168 XX0168X XX-168XXX,6219 Oakmont Blvd.,TX,76132
Dickey's Barbecue Pit,Moline,169,169 XX-169 XX169 XX-00169 XX00169 XX0169 XX0169X XX-169XXX,3419 Avenue of the Cities,IL,61265
Dickey's Barbecue Pit,Miramar,170,170 XX-170 XX170 XX-00170 XX00170 XX0170 XX0170X XX-170XXX,11338 Miramar Parkway,FL,33025
Dickey's Barbecue Pit,Huntsville,171,171 XX-171 XX171 XX-00171 XX00171 XX0171 XX0171X XX-171XXX,601-C Hwy 75N,TX,77320
Dickey's Barbecue Pit,Greeley,172,172 XX-172 XX172 XX-00172 XX00172 XX0172 XX0172X XX-172XXX,2331 23rd Ave,CO,80634
Dickey's Barbecue Pit,Plattsburgh,173,173 XX-173 XX173 XX-00173 XX00173 XX0173 XX0173X XX-173XXX,75 Smithfield Blvd,NY,12901
Dickey's Barbecue Pit,Raleigh,174,174 XX-174 XX174 XX-00174 XX00174 XX0174 XX0174X XX-174XXX,6552 Glenwood Ave,NC,27612
Dickey's Barbecue Pit,Draper,175,175 XX-175 XX175 XX-00175 XX00175 XX0175 XX0175X XX-175XXX,163 E. 13800 S. & Bangerter Hwy E-6 Draper,UT,84020
Dickey's Barbecue Pit,Taylorsville,176,176 XX-176 XX176 XX-00176 XX00176 XX0176 XX0176X XX-176XXX,"5578 S. Redwood Road, Ste. D",UT,84123
Dickey's Barbecue Pit,Medina,177,177 XX-177 XX177 XX-00177 XX00177 XX0177 XX0177X XX-177XXX,960 North Court Street,OH,44256
Dickey's Barbecue Pit,Celina,178,178 XX-178 XX178 XX-00178 XX00178 XX0178 XX0178X XX-178XXX,"2750 S. Preston Road, Ste. 112",TX,75009
Dickey's Barbecue Pit,Madison,179,179 XX-179 XX179 XX-00179 XX00179 XX0179 XX0179X XX-179XXX,4833 Annamark Drive,WI,53704
Dickey's Barbecue Pit,Seminole,180,180 XX-180 XX180 XX-00180 XX00180 XX0180 XX0180X XX-180XXX,701 N. Main,TX,79360
Dickey's Barbecue Pit,Flowood,181,181 XX-181 XX181 XX-00181 XX00181 XX0181 XX0181X XX-181XXX,268 Dogwood Blvd,MS,39232
Dickey's Barbecue Pit,Frisco,182,182 XX-182 XX182 XX-00182 XX00182 XX0182 XX0182X XX-182XXX,6851 Warren Parkway. Ste. 205,TX,75034
Dickey's Barbecue Pit,Madison,183,183 XX-183 XX183 XX-00183 XX00183 XX0183 XX0183X XX-183XXX,175 Grandview Blvd. Suite 910,MS,39110
Dickey's Barbecue Pit,Concord,184,184 XX-184 XX184 XX-00184 XX00184 XX0184 XX0184X XX-184XXX,5434 Ygnacio Valley Rd.,CA,94521
Dickey's Barbecue Pit,North Branch,185,185 XX-185 XX185 XX-00185 XX00185 XX0185 XX0185X XX-185XXX,5466 St. Croix Trail,MN,55056
Dickey's Barbecue Pit,Reno,186,186 XX-186 XX186 XX-00186 XX00186 XX0186 XX0186X XX-186XXX,290 Lemmon Drive Ste 102,NV,89506
Dickey's Barbecue Pit,Rowlett,187,187 XX-187 XX187 XX-00187 XX00187 XX0187 XX0187X XX-187XXX,5701 President George Bush Turnpike  Suite #110,TX,75089
Dickey's Barbecue Pit,Marshall,189,189 XX-189 XX189 XX-00189 XX00189 XX0189 XX0189X XX-189XXX,900 Clarice Ave,MN,56258
Dickey's Barbecue Pit,Reno,190,190 XX-190 XX190 XX-00190 XX00190 XX0190 XX0190X XX-190XXX,1650 Robb Dr,NV,89523
Dickey's Barbecue Pit,Spring,191,191 XX-191 XX191 XX-00191 XX00191 XX0191 XX0191X XX-191XXX,"7316 Louetta Road, Suite B 300",TX,77379
Dickey's Barbecue Pit,Hickory,192,192 XX-192 XX192 XX-00192 XX00192 XX0192 XX0192X XX-192XXX,1036 Lenoir Rhyne Blvd. SE,NC,28602
Dickey's Barbecue Pit,Abilene,193,193 XX-193 XX193 XX-00193 XX00193 XX0193 XX0193X XX-193XXX,5001 HWY 277 South,TX,79605
Dickey's Barbecue Pit,San Antonio,194,194 XX-194 XX194 XX-00194 XX00194 XX0194 XX0194X XX-194XXX,"6531 FM 78, Ste. 102",TX,78244
Dickey's Barbecue Pit,Campbell,195,195 XX-195 XX195 XX-00195 XX00195 XX0195 XX0195X XX-195XXX,1402 Camden Ave,CA,95008
Dickey's Barbecue Pit,Santa Maria,196,196 XX-196 XX196 XX-00196 XX00196 XX0196 XX0196X XX-196XXX,2212 South Bradley Road Ste D-3,CA,93454
Dickey's Barbecue Pit,San Jose,197,197 XX-197 XX197 XX-00197 XX00197 XX0197 XX0197X XX-197XXX,5391 Prospect Road,CA,95129
Dickey's Barbecue Pit,Carson City,198,198 XX-198 XX198 XX-00198 XX00198 XX0198 XX0198X XX-198XXX,"3250 Retail Drive, Ste 100",NV,89706
Dickey's Barbecue Pit,Fort Worth,199,199 XX-199 XX199 XX-00199 XX00199 XX0199 XX0199X XX-199XXX,951 North Beach St,TX,76111
Dickey's Barbecue Pit,San Luis Obispo,200,200 XX-200 XX200 XX-00200 XX00200 XX0200 XX0200X XX-200XXX,"799 Foothill Blvd,  Ste A",CA,93405
Dickey's Barbecue Pit,Lynden,201,201 XX-201 XX201 XX-00201 XX00201 XX0201 XX0201X XX-201XXX,"8082 Guide Meridian Road ,  Ste 103",WA,98264
Dickey's Barbecue Pit,Springfield,202,202 XX-202 XX202 XX-00202 XX00202 XX0202 XX0202X XX-202XXX,1360 Republic Road,MO,65804
Dickey's Barbecue Pit,Nixa,203,203 XX-203 XX203 XX-00203 XX00203 XX0203 XX0203X XX-203XXX,111 N. Massey Blvd,MO,65714
Dickey's Barbecue Pit,Eden Prairie,204,204 XX-204 XX204 XX-00204 XX00204 XX0204 XX0204X XX-204XXX,13250 Technology Dr.,MN,55344
Dickey's Barbecue Pit,Midwest City,205,205 XX-205 XX205 XX-00205 XX00205 XX0205 XX0205X XX-205XXX,408 S. Air Depot,OK,73110
Dickey's Barbecue Pit,Pleasant Hill,206,206 XX-206 XX206 XX-00206 XX00206 XX0206 XX0206X XX-206XXX,2634 Pleasant Hill Rd,CA,94523
Dickey's Barbecue Pit,Green Bay,207,207 XX-207 XX207 XX-00207 XX00207 XX0207 XX0207X XX-207XXX,895 Lombardi Ave,WI,54304
Dickey's Barbecue Pit,Heber City,208,208 XX-208 XX208 XX-00208 XX00208 XX0208 XX0208X XX-208XXX,595 South Main St,UT,84032
Dickey's Barbecue Pit,Wichita Falls,209,209 XX-209 XX209 XX-00209 XX00209 XX0209 XX0209X XX-209XXX,3911 Lawrence Rd  Suite 600,TX,76308
Dickey's Barbecue Pit,Auburn,210,210 XX-210 XX210 XX-00210 XX00210 XX0210 XX0210X XX-210XXX,"1118 Outlet Collection Way SW, Ste 105",WA,98001
Dickey's Barbecue Pit,Columbia,211,211 XX-211 XX211 XX-00211 XX00211 XX0211 XX0211X XX-211XXX,"10136 Two Notch Road, Ste. 100-B",SC,29229
Dickey's Barbecue Pit,Bemidji,212,212 XX-212 XX212 XX-00212 XX00212 XX0212 XX0212X XX-212XXX,"1000 Paul Bunyan Drive, Ste 100",MN,56601
Dickey's Barbecue Pit,Porterville,213,213 XX-213 XX213 XX-00213 XX00213 XX0213 XX0213X XX-213XXX,73 N Main Street,CA,93257
Dickey's Barbecue Pit,Salt Lake City,214,214 XX-214 XX214 XX-00214 XX00214 XX0214 XX0214X XX-214XXX,1830 S 335 W Suite B,UT,84115
Dickey's Barbecue Pit,South Jordan,215,215 XX-215 XX215 XX-00215 XX00215 XX0215 XX0215X XX-215XXX,689 W South Jordan Parkway,UT,84095
Dickey's Barbecue Pit,Tomball,216,216 XX-216 XX216 XX-00216 XX00216 XX0216 XX0216X XX-216XXX,"28155 Tomball Parkway, #2",TX,77375
Dickey's Barbecue Pit,Menomonie,217,217 XX-217 XX217 XX-00217 XX00217 XX0217 XX0217X XX-217XXX,1320 N. Broadway,WI,54751
Dickey's Barbecue Pit,Oklahoma City,218,218 XX-218 XX218 XX-00218 XX00218 XX0218 XX0218X XX-218XXX,"2800 NW 63rd St,  STE 500",OK,73116
Dickey's Barbecue Pit,Elk Grove,219,219 XX-219 XX219 XX-00219 XX00219 XX0219 XX0219X XX-219XXX,"5110 Laguna Blvd, Suite 120",CA,95758
Dickey's Barbecue Pit,Nampa,221,221 XX-221 XX221 XX-00221 XX00221 XX0221 XX0221X XX-221XXX,1807 12th Avenue Rd,ID,83686
Dickey's Barbecue Pit,Petal,222,222 XX-222 XX222 XX-00222 XX00222 XX0222 XX0222X XX-222XXX,1225 Highway 42,MS,39465
Dickey's Barbecue Pit,West Jordan,223,223 XX-223 XX223 XX-00223 XX00223 XX0223 XX0223X XX-223XXX,"7742 Campus View Drive, Suite 130/Building B",UT,84084
Dickey's Barbecue Pit,Folsom,224,224 XX-224 XX224 XX-00224 XX00224 XX0224 XX0224X XX-224XXX,1016 Riley Street Ste 4,CA,95630
Dickey's Barbecue Pit,Colorado Springs,225,225 XX-225 XX225 XX-00225 XX00225 XX0225 XX0225X XX-225XXX,1466 Garden of the Gods Road Suite 160,CO,80907
Dickey's Barbecue Pit,Balch Springs,226,226 XX-226 XX226 XX-00226 XX00226 XX0226 XX0226X XX-226XXX,13000 Seagoville Rd,TX,75180
Dickey's Barbecue Pit,Athens,227,227 XX-227 XX227 XX-00227 XX00227 XX0227 XX0227X XX-227XXX,810 Hawthorne Ave,GA,30606
Dickey's Barbecue Pit,Scottsdale,228,228 XX-228 XX228 XX-00228 XX00228 XX0228 XX0228X XX-228XXX,"7919 E. Thomas Road, Suite 111",AZ,85251
Dickey's Barbecue Pit,Tempe,229,229 XX-229 XX229 XX-00229 XX00229 XX0229 XX0229X XX-229XXX,"521 S. College Avenue, Suite 9",AZ,85281
Dickey's Barbecue Pit,Sanford,230,230 XX-230 XX230 XX-00230 XX00230 XX0230 XX0230X XX-230XXX,2278 Jefferson Davis Hwy,NC,27330
Dickey's Barbecue Pit,North Richland Hills,231,231 XX-231 XX231 XX-00231 XX00231 XX0231 XX0231X XX-231XXX,5209 Rufe Snow drive,TX,76180
Dickey's Barbecue Pit,Grand Island,232,232 XX-232 XX232 XX-00232 XX00232 XX0232 XX0232X XX-232XXX,"217 E. Stolley Park Road, Suite I",NE,68801
Dickey's Barbecue Pit,Kearney,233,233 XX-233 XX233 XX-00233 XX00233 XX0233 XX0233X XX-233XXX,222 West 42nd Street,NE,68847
Dickey's Barbecue Pit,Cumming,234,234 XX-234 XX234 XX-00234 XX00234 XX0234 XX0234X XX-234XXX,415 Peachtree Parkway Ste 255,GA,30041
Dickey's Barbecue Pit,Grand Forks,235,235 XX-235 XX235 XX-00235 XX00235 XX0235 XX0235X XX-235XXX,623 S. Washington Street,ND,58201
Dickey's Barbecue Pit,Vernal,236,236 XX-236 XX236 XX-00236 XX00236 XX0236 XX0236X XX-236XXX,"2085 W. Highway 40, Ste. A",UT,84078
Dickey's Barbecue Pit,Midvale,237,237 XX-237 XX237 XX-00237 XX00237 XX0237 XX0237X XX-237XXX,"1098 East Fort Union Blvd, Suite 23",UT,84047
Dickey's Barbecue Pit,Ogden,238,238 XX-238 XX238 XX-00238 XX00238 XX0238 XX0238X XX-238XXX,"185 W 12th Street, Ste. D & E ",UT,84404
Dickey's Barbecue Pit,Sandy,239,239 XX-239 XX239 XX-00239 XX00239 XX0239 XX0239X XX-239XXX,9228 S. Village Shop Dr,UT,84094
Dickey's Barbecue Pit,Washington,240,240 XX-240 XX240 XX-00240 XX00240 XX0240 XX0240X XX-240XXX,855 West Telegraph St,UT,84780
Dickey's Barbecue Pit,Westminster,241,241 XX-241 XX241 XX-00241 XX00241 XX0241 XX0241X XX-241XXX,8715 Sheridan Blvd.,CO,80003
Dickey's Barbecue Pit,Odessa,242,242 XX-242 XX242 XX-00242 XX00242 XX0242 XX0242X XX-242XXX,6105 E Highway 191  TX,TX,79762
Dickey's Barbecue Pit,Tallahassee,243,243 XX-243 XX243 XX-00243 XX00243 XX0243 XX0243X XX-243XXX,8159 Woodville Highway,FL,32305
Dickey's Barbecue Pit,Naugatuck,244,244 XX-244 XX244 XX-00244 XX00244 XX0244 XX0244X XX-244XXX,160 Rubber Avenue,CT,6770
Dickey's Barbecue Pit,Olympia,245,245 XX-245 XX245 XX-00245 XX00245 XX0245 XX0245X XX-245XXX,1001 Cooper Point Rd SW,WA,98502
Dickey's Barbecue Pit,Georgetown,246,246 XX-246 XX246 XX-00246 XX00246 XX0246 XX0246X XX-246XXX,723 West University Avenue,TX,78626
Dickey's Barbecue Pit,Savage,247,247 XX-247 XX247 XX-00247 XX00247 XX0247 XX0247X XX-247XXX,4000 Country Rd 42,MN,55378
Dickey's Barbecue Pit,Bastrop,248,248 XX-248 XX248 XX-00248 XX00248 XX0248 XX0248X XX-248XXX,Woodland Village 696 Hwy 71 West,TX,78602
Dickey's Barbecue Pit,San Ramon,249,249 XX-249 XX249 XX-00249 XX00249 XX0249 XX0249X XX-249XXX,3191-D Crow Canyon Place,CA,94583
Dickey's Barbecue Pit,Anna,250,250 XX-250 XX250 XX-00250 XX00250 XX0250 XX0250X XX-250XXX,807 S Central Expwy Suite 300,TX,75409
Dickey's Barbecue Pit,Jackson,251,251 XX-251 XX251 XX-00251 XX00251 XX0251 XX0251X XX-251XXX,12240 Industry Blvd Suite 74,CA,95642
Dickey's Barbecue Pit,Dallas,252,252 XX-252 XX252 XX-00252 XX00252 XX0252 XX0252X XX-252XXX,8006 Cedar Springs Ste. c2190,TX,75235
Dickey's Barbecue Pit,Levelland,253,253 XX-253 XX253 XX-00253 XX00253 XX0253 XX0253X XX-253XXX,512 South College Avenue,TX,79336
Dickey's Barbecue Pit,Jacksonville,254,254 XX-254 XX254 XX-00254 XX00254 XX0254 XX0254X XX-254XXX,9825 San Jose Blvd.,FL,32257
Dickey's Barbecue Pit,Rancho Cordova,255,255 XX-255 XX255 XX-00255 XX00255 XX0255 XX0255X XX-255XXX,2320 Sunrise Boulevard,CA,95670
Dickey's Barbecue Pit,Beckley,256,256 XX-256 XX256 XX-00256 XX00256 XX0256 XX0256X XX-256XXX,1002 N. Eisenhower Dr.,WV,25801
Dickey's Barbecue Pit,Fort Myers,257,257 XX-257 XX257 XX-00257 XX00257 XX0257 XX0257X XX-257XXX,13499 US 41 SE,FL,33907
Dickey's Barbecue Pit,Boca Raton,258,258 XX-258 XX258 XX-00258 XX00258 XX0258 XX0258X XX-258XXX,21073 Powerline Rd,FL,33433
Dickey's Barbecue Pit,Humble,259,259 XX-259 XX259 XX-00259 XX00259 XX0259 XX0259X XX-259XXX,9759 FM 1960 Bypass Rd W,TX,77338
Dickey's Barbecue Pit,Sacramento,260,260 XX-260 XX260 XX-00260 XX00260 XX0260 XX0260X XX-260XXX,"4630 Natomas Blvd., Suite 130",CA,95835
Dickey's Barbecue Pit,Sacramento,261,261 XX-261 XX261 XX-00261 XX00261 XX0261 XX0261X XX-261XXX,1901 J Street,CA,95816
Dickey's Barbecue Pit,Katy,262,262 XX-262 XX262 XX-00262 XX00262 XX0262 XX0262X XX-262XXX,390 Mason Road,TX,77450
Dickey's Barbecue Pit,Kearney,263,263 XX-263 XX263 XX-00263 XX00263 XX0263 XX0263X XX-263XXX,3060 E 1st Street,NE,68847
Dickey's Barbecue Pit,Temecula,264,264 XX-264 XX264 XX-00264 XX00264 XX0264 XX0264X XX-264XXX,"40315 Winchester Rd., Ste. D",CA,92591
Dickey's Barbecue Pit,Philadelphia,265,265 XX-265 XX265 XX-00265 XX00265 XX0265 XX0265X XX-265XXX,200 Canal Place Suite #180,MS,39350
Dickey's Barbecue Pit,Asheville,266,266 XX-266 XX266 XX-00266 XX00266 XX0266 XX0266X XX-266XXX,1636 Hendersonville Rd,NC,28803
Dickey's Barbecue Pit,San Bruno,267,267 XX-267 XX267 XX-00267 XX00267 XX0267 XX0267X XX-267XXX,"1212 El Camino Real, Ste. C-D",CA,94066
Dickey's Barbecue Pit,Grand Prairie,268,268 XX-268 XX268 XX-00268 XX00268 XX0268 XX0268X XX-268XXX,3710 S. Carrier Parkway,TX,75052
Dickey's Barbecue Pit,Valparaiso,269,269 XX-269 XX269 XX-00269 XX00269 XX0269 XX0269X XX-269XXX,2310 Laporte Ave,IN,46383
Dickey's Barbecue Pit,Kenosha,270,270 XX-270 XX270 XX-00270 XX00270 XX0270 XX0270X XX-270XXX,"11880 74th Place, Ste. C",WI,53142
Dickey's Barbecue Pit,Mansfield,271,271 XX-271 XX271 XX-00271 XX00271 XX0271 XX0271X XX-271XXX,3807 East Broad Street,TX,76063
Dickey's Barbecue Pit,Mountain View,272,272 XX-272 XX272 XX-00272 XX00272 XX0272 XX0272X XX-272XXX,570 North Shoreline Blvd.,CA,94043
Dickey's Barbecue Pit,Commerce Township,273,273 XX-273 XX273 XX-00273 XX00273 XX0273 XX0273X XX-273XXX,4825 Carroll Lake Road,MI,48382
Dickey's Barbecue Pit,Missoula,274,274 XX-274 XX274 XX-00274 XX00274 XX0274 XX0274X XX-274XXX,143 West Broadway,MT,59802
Dickey's Barbecue Pit,Cortland,275,275 XX-275 XX275 XX-00275 XX00275 XX0275 XX0275X XX-275XXX,160 Clinton Avenue,NY,13045
Dickey's Barbecue Pit,Rifle,276,276 XX-276 XX276 XX-00276 XX00276 XX0276 XX0276X XX-276XXX,117th West 4th Street,CO,81650
Dickey's Barbecue Pit,Duncanville,277,277 XX-277 XX277 XX-00277 XX00277 XX0277 XX0277X XX-277XXX,106 E Highway 67,TX,75137
Dickey's Barbecue Pit,Lodi,278,278 XX-278 XX278 XX-00278 XX00278 XX0278 XX0278X XX-278XXX,1379 South Lower Sacramento Rd,CA,95242
Dickey's Barbecue Pit,Bakersfield,279,279 XX-279 XX279 XX-00279 XX00279 XX0279 XX0279X XX-279XXX,3505 Coffee Road,CA,93312
Dickey's Barbecue Pit,Fairfax,280,280 XX-280 XX280 XX-00280 XX00280 XX0280 XX0280X XX-280XXX,11199-F Lee Hwy,VA,22030
Dickey's Barbecue Pit,Carrollton,281,281 XX-281 XX281 XX-00281 XX00281 XX0281 XX0281X XX-281XXX,2626 N. Josey Lane #112,TX,75007
Dickey's Barbecue Pit,Ventura,282,282 XX-282 XX282 XX-00282 XX00282 XX0282 XX0282X XX-282XXX,6100 Telegraph Rd Ste F,CA,93003
Dickey's Barbecue Pit,Raleigh,283,283 XX-283 XX283 XX-00283 XX00283 XX0283 XX0283X XX-283XXX,7841 Alexander Promenade,NC,27617
Dickey's Barbecue Pit,Spring,284,284 XX-284 XX284 XX-00284 XX00284 XX0284 XX0284X XX-284XXX,1614 Louetta Road,TX,77388
Dickey's Barbecue Pit,Mankato,285,285 XX-285 XX285 XX-00285 XX00285 XX0285 XX0285X XX-285XXX,501 Holly Lane,MN,56001
Dickey's Barbecue Pit,Oviedo,286,286 XX-286 XX286 XX-00286 XX00286 XX0286 XX0286X XX-286XXX,"5414 Deep Lake Road, Suite 1152",FL,32765
Dickey's Barbecue Pit,Norriton,287,287 XX-287 XX287 XX-00287 XX00287 XX0287 XX0287X XX-287XXX,65 E. Germantown Pike,PA,19401
Dickey's Barbecue Pit,Limerick,288,288 XX-288 XX288 XX-00288 XX00288 XX0288 XX0288X XX-288XXX,"301 N. Lewis Road, Suite 110",PA,19468
Dickey's Barbecue Pit,Brentwood,289,289 XX-289 XX289 XX-00289 XX00289 XX0289 XX0289X XX-289XXX,2500 Sand Creek Road,CA,94513
Dickey's Barbecue Pit,Lynchburg,290,290 XX-290 XX290 XX-00290 XX00290 XX0290 XX0290X XX-290XXX,4017 Wards Road,VA,24502
Dickey's Barbecue Pit,State College,291,291 XX-291 XX291 XX-00291 XX00291 XX0291 XX0291X XX-291XXX,333 Benner Pike,PA,16801
Dickey's Barbecue Pit,Starke,292,292 XX-292 XX292 XX-00292 XX00292 XX0292 XX0292X XX-292XXX,2540 Commercial Drive,FL,32091
Dickey's Barbecue Pit,Lufkin,293,293 XX-293 XX293 XX-00293 XX00293 XX0293 XX0293X XX-293XXX,4001 South Medford Dr,TX,75901
Dickey's Barbecue Pit,Wausau,294,294 XX-294 XX294 XX-00294 XX00294 XX0294 XX0294X XX-294XXX,2111 Stewart Ave,WI,54401
Dickey's Barbecue Pit,Billings,295,295 XX-295 XX295 XX-00295 XX00295 XX0295 XX0295X XX-295XXX,2519 Montana Ave,MT,59101
Dickey's Barbecue Pit,Dallas,296,296 XX-296 XX296 XX-00296 XX00296 XX0296 XX0296X XX-296XXX,"4475 Adler Drive, Suite 106",TX,75211
Dickey's Barbecue Pit,Layton,297,297 XX-297 XX297 XX-00297 XX00297 XX0297 XX0297X XX-297XXX,2056 N. Hill Field Rd,UT,84041
Dickey's Barbecue Pit,Farmington,298,298 XX-298 XX298 XX-00298 XX00298 XX0298 XX0298X XX-298XXX,290 North Central Avenue,UT,84025
Dickey's Barbecue Pit,Kerrville,299,299 XX-299 XX299 XX-00299 XX00299 XX0299 XX0299X XX-299XXX,881 Junction Highway,TX,78028
Dickey's Barbecue Pit,Highland,300,300 XX-300 XX300 XX-00300 XX00300 XX0300 XX0300X XX-300XXX,8359 Indianapolis Boulevard,IN,46322
Dickey's Barbecue Pit,Covington,301,301 XX-301 XX301 XX-00301 XX00301 XX0301 XX0301X XX-301XXX,"69292 HWY 21, STE 300",LA,70433
Dickey's Barbecue Pit,Austin,302,302 XX-302 XX302 XX-00302 XX00302 XX0302 XX0302X XX-302XXX,11416 RR 620 North,TX,78726
Dickey's Barbecue Pit,Brea,303,303 XX-303 XX303 XX-00303 XX00303 XX0303 XX0303X XX-303XXX,2435 East Imperial Highway Unit E,CA,92821
Dickey's Barbecue Pit,Hollister,304,304 XX-304 XX304 XX-00304 XX00304 XX0304 XX0304X XX-304XXX,551 McCray Street,CA,95023
Dickey's Barbecue Pit,Fort Collins,305,305 XX-305 XX305 XX-00305 XX00305 XX0305 XX0305X XX-305XXX,2721 South College Avenue,CO,80525
Dickey's Barbecue Pit,Winchester,306,306 XX-306 XX306 XX-00306 XX00306 XX0306 XX0306X XX-306XXX,2524 South Pleasant Valley Road,VA,22601
Dickey's Barbecue Pit,Cedar City,307,307 XX-307 XX307 XX-00307 XX00307 XX0307 XX0307X XX-307XXX,"1190 South Sage Dr., Ste. D&E",UT,84720
Dickey's Barbecue Pit,Alpharetta,308,308 XX-308 XX308 XX-00308 XX00308 XX0308 XX0308X XX-308XXX,"3070 Windward Plaza, Suite E",GA,30005
Dickey's Barbecue Pit,D'Iberville,309,309 XX-309 XX309 XX-00309 XX00309 XX0309 XX0309X XX-309XXX,3821 Promenade Parkway #A,MS,39540
Dickey's Barbecue Pit,Chaska,310,310 XX-310 XX310 XX-00310 XX00310 XX0310 XX0310X XX-310XXX,214 Pioneer Trail,MN,55318
Dickey's Barbecue Pit,Spokane,311,311 XX-311 XX311 XX-00311 XX00311 XX0311 XX0311X XX-311XXX,12628 North Division Street,WA,99218
Dickey's Barbecue Pit,Plainfield,312,312 XX-312 XX312 XX-00312 XX00312 XX0312 XX0312X XX-312XXX,2551 East Main Street Suite 100,IN,46168
Dickey's Barbecue Pit,Tyler,314,314 XX-314 XX314 XX-00314 XX00314 XX0314 XX0314X XX-314XXX,1501 W. Southwest Loop 323,TX,75701
Dickey's Barbecue Pit,Pasadena,315,315 XX-315 XX315 XX-00315 XX00315 XX0315 XX0315X XX-315XXX,2363 E. Colorado Blvd,CA,91107
Dickey's Barbecue Pit,Glendive,316,316 XX-316 XX316 XX-00316 XX00316 XX0316 XX0316X XX-316XXX,"1515 West Bell Street, Ste. B1/B2",MT,59330
Dickey's Barbecue Pit,Stroudsburg,317,317 XX-317 XX317 XX-00317 XX00317 XX0317 XX0317X XX-317XXX,290 Frantz Road,PA,18360
Dickey's Barbecue Pit,Houston,318,318 XX-318 XX318 XX-00318 XX00318 XX0318 XX0318X XX-318XXX,6383 Westheimer Road,TX,77057
Dickey's Barbecue Pit,Searcy,319,319 XX-319 XX319 XX-00319 XX00319 XX0319 XX0319X XX-319XXX,407 S. Main Street,AR,72143
Dickey's Barbecue Pit,Rogers,320,320 XX-320 XX320 XX-00320 XX00320 XX0320 XX0320X XX-320XXX,"4204 West Green Acres Road, Suite 140",AR,72758
Dickey's Barbecue Pit,Twin Falls,321,321 XX-321 XX321 XX-00321 XX00321 XX0321 XX0321X XX-321XXX,799 Cheney Dr.,ID,83301
Dickey's Barbecue Pit,Red Oak,322,322 XX-322 XX322 XX-00322 XX00322 XX0322 XX0322X XX-322XXX,502 N. Interstate 35,TX,75154
Dickey's Barbecue Pit,Turlock,323,323 XX-323 XX323 XX-00323 XX00323 XX0323 XX0323X XX-323XXX,3140 Country Side Drive,CA,95380
Dickey's Barbecue Pit,Princeton,324,324 XX-324 XX324 XX-00324 XX00324 XX0324 XX0324X XX-324XXX,501 East Princeton Dr,TX,75407
Dickey's Barbecue Pit,Tuscaloosa,325,325 XX-325 XX325 XX-00325 XX00325 XX0325 XX0325X XX-325XXX,9750 Hwy 69 South,AL,35405
Dickey's Barbecue Pit,Bellevue,326,326 XX-326 XX326 XX-00326 XX00326 XX0326 XX0326X XX-326XXX,"14150 NE 20th Street, Suite E",WA,98007
Dickey's Barbecue Pit,Simi Valley,327,327 XX-327 XX327 XX-00327 XX00327 XX0327 XX0327X XX-327XXX,2902 Tapo Canyon Road,CA,93063
Dickey's Barbecue Pit,North Charleston,328,328 XX-328 XX328 XX-00328 XX00328 XX0328 XX0328X XX-328XXX,"7620 Rivers Avenue, Suite 375",SC,29406
Dickey's Barbecue Pit,Sophia,330,330 XX-330 XX330 XX-00330 XX00330 XX0330 XX0330X XX-330XXX,837 Robert C Byrd Dr,WV,25921
Dickey's Barbecue Pit,Livingston,331,331 XX-331 XX331 XX-00331 XX00331 XX0331 XX0331X XX-331XXX,11978 Highway 59 North ,TX,77351
Dickey's Barbecue Pit,Vacaville,332,332 XX-332 XX332 XX-00332 XX00332 XX0332 XX0332X XX-332XXX,150 Nut Tree Pkwy,CA,95687
Dickey's Barbecue Pit,Everett,333,333 XX-333 XX333 XX-00333 XX00333 XX0333 XX0333X XX-333XXX,"617 SW 128th Street, Suite 107",WA,98204
Dickey's Barbecue Pit,Bryant,334,334 XX-334 XX334 XX-00334 XX00334 XX0334 XX0334X XX-334XXX,3213 Main St #1,AR,72022
Dickey's Barbecue Pit,Sheboygan,335,335 XX-335 XX335 XX-00335 XX00335 XX0335 XX0335X XX-335XXX,2719 Calumet Drive,WI,53083
Dickey's Barbecue Pit,Charlotte,336,336 XX-336 XX336 XX-00336 XX00336 XX0336 XX0336X XX-336XXX,15201 B John J Delaney,NC,28277
Dickey's Barbecue Pit,Cleburne,337,337 XX-337 XX337 XX-00337 XX00337 XX0337 XX0337X XX-337XXX,2002 N. Main Street,TX,76033
Dickey's Barbecue Pit,Florence,338,338 XX-338 XX338 XX-00338 XX00338 XX0338 XX0338X XX-338XXX,2003 West Lucas,SC,29501
Dickey's Barbecue Pit,Pewaukee,339,339 XX-339 XX339 XX-00339 XX00339 XX0339 XX0339X XX-339XXX,1273 Capitol Drive,WI,53072
Dickey's Barbecue Pit,Eugene,340,340 XX-340 XX340 XX-00340 XX00340 XX0340 XX0340X XX-340XXX,1680 Coburg Road,OR,97401
Dickey's Barbecue Pit,Pendleton,341,341 XX-341 XX341 XX-00341 XX00341 XX0341 XX0341X XX-341XXX,715 Southgate,OR,97801
Dickey's Barbecue Pit,Eau Claire,342,342 XX-342 XX342 XX-00342 XX00342 XX0342 XX0342X XX-342XXX,6202 Chuck Lane,WI,54703
Dickey's Barbecue Pit,Eastvale,343,343 XX-343 XX343 XX-00343 XX00343 XX0343 XX0343X XX-343XXX,12569 Limonite Ave. Ste. 330,CA,91752
Dickey's Barbecue Pit,Golden,344,344 XX-344 XX344 XX-00344 XX00344 XX0344 XX0344X XX-344XXX,"17121 South Golden Road, Unit C-100",CO,80401
Dickey's Barbecue Pit,Fairmont,345,345 XX-345 XX345 XX-00345 XX00345 XX0345 XX0345X XX-345XXX,9329 Middletown Mall,WV,26554
Dickey's Barbecue Pit,Glenview,346,346 XX-346 XX346 XX-00346 XX00346 XX0346 XX0346X XX-346XXX,1448 Waukegan Road,IL,60025
Dickey's Barbecue Pit,Rockwall,347,347 XX-347 XX347 XX-00347 XX00347 XX0347 XX0347X XX-347XXX,2951 Ridge Road Ste 119,TX,75032
Dickey's Barbecue Pit,Myrtle Beach,348,348 XX-348 XX348 XX-00348 XX00348 XX0348 XX0348X XX-348XXX,3735 Oleander Dr,SC,29577
Dickey's Barbecue Pit,Beaumont,349,349 XX-349 XX349 XX-00349 XX00349 XX0349 XX0349X XX-349XXX,1668 E 2nd Street,CA,92223
Dickey's Barbecue Pit,Castro Valley,350,350 XX-350 XX350 XX-00350 XX00350 XX0350 XX0350X XX-350XXX,3835 E Castro Valley Blvd,CA,94552
Dickey's Barbecue Pit,Hemet,351,351 XX-351 XX351 XX-00351 XX00351 XX0351 XX0351X XX-351XXX,1127 South Sanderson Ave,CA,92545
Dickey's Barbecue Pit,Mentor,352,352 XX-352 XX352 XX-00352 XX00352 XX0352 XX0352X XX-352XXX,9434 Mentor Avenue,OH,44060
Dickey's Barbecue Pit,Sunnyvale,353,353 XX-353 XX353 XX-00353 XX00353 XX0353 XX0353X XX-353XXX,1255 S. Mary Ave.,CA,94087
Dickey's Barbecue Pit,Corpus Christi,354,354 XX-354 XX354 XX-00354 XX00354 XX0354 XX0354X XX-354XXX,"4037 Saratoga Blvd, Ste. D",TX,78413
Dickey's Barbecue Pit,Clarksville,355,355 XX-355 XX355 XX-00355 XX00355 XX0355 XX0355X XX-355XXX,2345 Madison Street.,TN,37043
Dickey's Barbecue Pit,Las Vegas,356,356 XX-356 XX356 XX-00356 XX00356 XX0356 XX0356X XX-356XXX,5597 S. Rainbow Ste 110,NV,89118
Dickey's Barbecue Pit,Hanford,357,357 XX-357 XX357 XX-00357 XX00357 XX0357 XX0357X XX-357XXX,240 NORTH 12TH AVENUE,CA,93230
Dickey's Barbecue Pit,Lee's Summit,358,358 XX-358 XX358 XX-00358 XX00358 XX0358 XX0358X XX-358XXX,1736 NW Chipman Rd.,MO,64081
Dickey's Barbecue Pit,Philadelphia,359,359 XX-359 XX359 XX-00359 XX00359 XX0359 XX0359X XX-359XXX,650 South Street,PA,19147
Dickey's Barbecue Pit,Granbury,360,360 XX-360 XX360 XX-00360 XX00360 XX0360 XX0360X XX-360XXX,3906 US Hwy 377 East,TX,76048
Dickey's Barbecue Pit,Appleton,361,361 XX-361 XX361 XX-00361 XX00361 XX0361 XX0361X XX-361XXX,W3192 County Road KK,WI,54915
Dickey's Barbecue Pit,Visalia,362,362 XX-362 XX362 XX-00362 XX00362 XX0362 XX0362X XX-362XXX,"4119 South Mooney Blvd., Suite K-1",CA,93277
Dickey's Barbecue Pit,Fredericksburg,363,363 XX-363 XX363 XX-00363 XX00363 XX0363 XX0363X XX-363XXX,"10008 Southpoint Parkway, Suite 100 ",VA,22407
Dickey's Barbecue Pit,Puyallup,364,364 XX-364 XX364 XX-00364 XX00364 XX0364 XX0364X XX-364XXX,3932 S. Meridian,WA,98373
Dickey's Barbecue Pit,Tacoma,365,365 XX-365 XX365 XX-00365 XX00365 XX0365 XX0365X XX-365XXX,"8425 S. Hosmer St., Suite 106",WA,98444
Dickey's Barbecue Pit,Parma,366,366 XX-366 XX366 XX-00366 XX00366 XX0366 XX0366X XX-366XXX,7769 Day Drive,OH,44129
Dickey's Barbecue Pit,Tracy,367,367 XX-367 XX367 XX-00367 XX00367 XX0367 XX0367X XX-367XXX,"2610 S. Tracy Blvd., Units C & D",CA,95376
Dickey's Barbecue Pit,The Woodlands,369,369 XX-369 XX369 XX-00369 XX00369 XX0369 XX0369X XX-369XXX,25919 I 45 N. Suite. A,TX,77380
Dickey's Barbecue Pit,Coldwater,370,370 XX-370 XX370 XX-00370 XX00370 XX0370 XX0370X XX-370XXX,445 E. Chicago Street,MI,49036
Dickey's Barbecue Pit,Big Spring,371,371 XX-371 XX371 XX-00371 XX00371 XX0371 XX0371X XX-371XXX,"2602 South Gregg Street, Suite E-2 ",TX,79720
Dickey's Barbecue Pit,Amelia,372,372 XX-372 XX372 XX-00372 XX00372 XX0372 XX0372X XX-372XXX,1227 Ohio Pike,OH,45102
Dickey's Barbecue Pit,Austin,373,373 XX-373 XX373 XX-00373 XX00373 XX0373 XX0373X XX-373XXX,"5350 Burnet Rd, Suite 1",TX,78756
Dickey's Barbecue Pit,Lakewood,375,375 XX-375 XX375 XX-00375 XX00375 XX0375 XX0375X XX-375XXX,"1509 Wadsworth Blvd, Unit B",CO,80214
Dickey's Barbecue Pit,Lehi,376,376 XX-376 XX376 XX-00376 XX00376 XX0376 XX0376X XX-376XXX,2951 W. Clubhouse Drive,UT,84042
Dickey's Barbecue Pit,Frederick,377,377 XX-377 XX377 XX-00377 XX00377 XX0377 XX0377X XX-377XXX,"1700 Kingfisher Drive, Suite 24/25",MD,21701
Dickey's Barbecue Pit,Gambrills,378,378 XX-378 XX378 XX-00378 XX00378 XX0378 XX0378X XX-378XXX,1121 State Route 3 N,MD,21054
Dickey's Barbecue Pit,West Milwaukee,382,382 XX-382 XX382 XX-00382 XX00382 XX0382 XX0382X XX-382XXX,2149 Miller Park Way,WI,53219
Dickey's Barbecue Pit,Fayetteville,383,383 XX-383 XX383 XX-00383 XX00383 XX0383 XX0383X XX-383XXX,"535 South Glynn Street, Suite 1002",GA,30214
Dickey's Barbecue Pit,Bossier City,384,384 XX-384 XX384 XX-00384 XX00384 XX0384 XX0384X XX-384XXX,2620 Beene Blvd.,LA,71111
Dickey's Barbecue Pit,Monroe,385,385 XX-385 XX385 XX-00385 XX00385 XX0385 XX0385X XX-385XXX,1102 Oliver Road,LA,71201
Dickey's Barbecue Pit,Garden City,386,386 XX-386 XX386 XX-00386 XX00386 XX0386 XX0386X XX-386XXX,6708 N. Glenwood St.,ID,83714
Dickey's Barbecue Pit,Vienna,387,387 XX-387 XX387 XX-00387 XX00387 XX0387 XX0387X XX-387XXX,2750-J Gallows Road,VA,22180
Dickey's Barbecue Pit,Cotulla,388,388 XX-388 XX388 XX-00388 XX00388 XX0388 XX0388X XX-388XXX,"649 Las Palmas Blvd., Unit 1-2",TX,78014
Dickey's Barbecue Pit,Clinton,389,389 XX-389 XX389 XX-00389 XX00389 XX0389 XX0389X XX-389XXX,"1917 W. 1800 N., Suite D8",UT,84015
Dickey's Barbecue Pit,Lumberton,390,390 XX-390 XX390 XX-00390 XX00390 XX0390 XX0390X XX-390XXX,795 S. Main Street,TX,77657
Dickey's Barbecue Pit,Plymouth,391,391 XX-391 XX391 XX-00391 XX00391 XX0391 XX0391X XX-391XXX,44741 Five Mile Rd.,MI,48170
Dickey's Barbecue Pit,Virginia Beach,401,401 XX-401 XX401 XX-00401 XX00401 XX0401 XX0401X XX-401XXX,"1544 Laskin Rd., Unit 212",VA,23451
Dickey's Barbecue Pit,Omaha,411,411 XX-411 XX411 XX-00411 XX00411 XX0411 XX0411X XX-411XXX,12241 West Center Road,NE,68144
Dickey's Barbecue Pit,Vernon,421,421 XX-421 XX421 XX-00421 XX00421 XX0421 XX0421X XX-421XXX,4201 College Dr.,TX,76384
Dickey's Barbecue Pit,Yonkers,431,431 XX-431 XX431 XX-00431 XX00431 XX0431 XX0431X XX-431XXX,1789 Central Park Ave,NY,10710
Dickey's Barbecue Pit,Pinole,441,441 XX-441 XX441 XX-00441 XX00441 XX0441 XX0441X XX-441XXX,1473 Fitzgerald Drive,CA,94564
Dickey's Barbecue Pit,Aurora,451,451 XX-451 XX451 XX-00451 XX00451 XX0451 XX0451X XX-451XXX,"10551 East Garden Drive, Ste 106",CO,80012
Dickey's Barbecue Pit,Seaside,461,461 XX-461 XX461 XX-00461 XX00461 XX0461 XX0461X XX-461XXX,880 Broadway Ave Ste. C,CA,93955
Dickey's Barbecue Pit,Fayetteville,471,471 XX-471 XX471 XX-00471 XX00471 XX0471 XX0471X XX-471XXX,"3316 W Grove Dr., Suite 4",AR,72704
Dickey's Barbecue Pit,Sharpsburg,481,481 XX-481 XX481 XX-00481 XX00481 XX0481 XX0481X XX-481XXX,15 Thomas Grace Annex Lane Suite 200,GA,30277
Dickey's Barbecue Pit,Dallas,491,491 XX-491 XX491 XX-00491 XX00491 XX0491 XX0491X XX-491XXX,"6243 Retail Rd., Suite 400B",TX,75231
Dickey's Barbecue Pit,Gulfport,501,501 XX-501 XX501 XX-00501 XX00501 XX0501 XX0501X XX-501XXX,"11240 Hwy 49N, Suite B",MS,39503
Dickey's Barbecue Pit,Clinton Township,511,511 XX-511 XX511 XX-00511 XX00511 XX0511 XX0511X XX-511XXX,41700 Garfield Rd.,MI,48038
Dickey's Barbecue Pit,St. Petersburg,521,521 XX-521 XX521 XX-00521 XX00521 XX0521 XX0521X XX-521XXX,2119 Tyrone Blvd.,FL,33710
Dickey's Barbecue Pit,Stockton,531,531 XX-531 XX531 XX-00531 XX00531 XX0531 XX0531X XX-531XXX,5350 Pacific Avenue Unit J-2,CA,95207
Dickey's Barbecue Pit,Kent,541,541 XX-541 XX541 XX-00541 XX00541 XX0541 XX0541X XX-541XXX,1428 W. Meeker Street Suite 102,WA,98032
Dickey's Barbecue Pit,Colorado Springs,551,551 XX-551 XX551 XX-00551 XX00551 XX0551 XX0551X XX-551XXX,4146 Austin Bluffs Pkwy,CO,80918
Dickey's Barbecue Pit,Richland,561,561 XX-561 XX561 XX-00561 XX00561 XX0561 XX0561X XX-561XXX,1201 Highway 49 South #5,MS,39218
Dickey's Barbecue Pit,Richfield,571,571 XX-571 XX571 XX-00571 XX00571 XX0571 XX0571X XX-571XXX,78 W 1500 S Suite 102&103,UT,84071
Dickey's Barbecue Pit,MechanicsBurg,581,581 XX-581 XX581 XX-00581 XX00581 XX0581 XX0581X XX-581XXX,6520 Carlisle Pike,PA,17050
Dickey's Barbecue Pit,Hermantown,591,591 XX-591 XX591 XX-00591 XX00591 XX0591 XX0591X XX-591XXX,4960 Miller Trunk Highway,MN,55811
Dickey's Barbecue Pit,Columbia,601,601 XX-601 XX601 XX-00601 XX00601 XX0601 XX0601X XX-601XXX,1412 Forum Blvd. Suite 130,MT,65203
Dickey's Barbecue Pit,Phoenix,611,611 XX-611 XX611 XX-00611 XX00611 XX0611 XX0611X XX-611XXX,"402 E. Greenway Parkway, Suite 2",AZ,85022
Dickey's Barbecue Pit,Tucson,621,621 XX-621 XX621 XX-00621 XX00621 XX0621 XX0621X XX-621XXX,7850 N. Oracle,AZ,85704
Dickey's Barbecue Pit,Louisville,631,631 XX-631 XX631 XX-00631 XX00631 XX0631 XX0631X XX-631XXX,285 North Hubbards Lane,KY,40207
Dickey's Barbecue Pit,Blakeslee,641,641 XX-641 XX641 XX-00641 XX00641 XX0641 XX0641X XX-641XXX,123 Meadow Rd. PO BOX 1232,PA,18610
Dickey's Barbecue Pit,Waunakee,651,651 XX-651 XX651 XX-00651 XX00651 XX0651 XX0651X XX-651XXX,102 N. Madison St.,WI,53597
Dickey's Barbecue Pit,Centerville,661,661 XX-661 XX661 XX-00661 XX00661 XX0661 XX0661X XX-661XXX,14260 G&H Centerville Square,VA,20121
Dickey's Barbecue Pit,Rochester Hills,671,671 XX-671 XX671 XX-00671 XX00671 XX0671 XX0671X XX-671XXX,1418 N. Rochester Rd.,MI,48307
Dickey's Barbecue Pit,Omaha,681,681 XX-681 XX681 XX-00681 XX00681 XX0681 XX0681X XX-681XXX,"15825 West Maple Road, Suite 107",NE,68116
Dickey's Barbecue Pit,Falls City,691,691 XX-691 XX691 XX-00691 XX00691 XX0691 XX0691X XX-691XXX,117 E. 17th,NE,68355
Dickey's Barbecue Pit,Lebanon,701,701 XX-701 XX701 XX-00701 XX00701 XX0701 XX0701X XX-701XXX,2210 S Santiam Hwy,OR,97355
Dickey's Barbecue Pit,Clarksburg,721,721 XX-721 XX721 XX-00721 XX00721 XX0721 XX0721X XX-721XXX,"550 Emily Dr., Ste. 22",WV,26301
Dickey's Barbecue Pit,Mandan,731,731 XX-731 XX731 XX-00731 XX00731 XX0731 XX0731X XX-731XXX,310 6TH AVENUE SE SUITE 2,ND,58554
Dickey's Barbecue Pit,Hobbs,741,741 XX-741 XX741 XX-00741 XX00741 XX0741 XX0741X XX-741XXX,1010 W. Joe Harvey Blvd,NM,88240
Dickey's Barbecue Pit,Minot,751,751 XX-751 XX751 XX-00751 XX00751 XX0751 XX0751X XX-751XXX,1720 S. Broadway,ND,58701
Dickey's Barbecue Pit,Fairfield,761,761 XX-761 XX761 XX-00761 XX00761 XX0761 XX0761X XX-761XXX,1586 Gateway Blvd Suite C-7,CA,94533
Dickey's Barbecue Pit,Lancaster,771,771 XX-771 XX771 XX-00771 XX00771 XX0771 XX0771X XX-771XXX,2481 Lincoln Highway East,PA,17602
Dickey's Barbecue Pit,Louisville,781,781 XX-781 XX781 XX-00781 XX00781 XX0781 XX0781X XX-781XXX,9930 Linn Station Rd. 304,KY,40223
Dickey's Barbecue Pit,Kennewick,791,791 XX-791 XX791 XX-00791 XX00791 XX0791 XX0791X XX-791XXX,122 S Ely St,WA,99336
Dickey's Barbecue Pit,Yuba City,801,801 XX-801 XX801 XX-00801 XX00801 XX0801 XX0801X XX-801XXX,871 Gray Ave.,CA,95991
Dickey's Barbecue Pit,Ferndale,811,811 XX-811 XX811 XX-00811 XX00811 XX0811 XX0811X XX-811XXX,23123 Woodward Avenue,MI,48220
Dickey's Barbecue Pit,Port Orchard,821,821 XX-821 XX821 XX-00821 XX00821 XX0821 XX0821X XX-821XXX,"1800 Mile Hill Drive, Suite 170 & 180",WA,98366
Dickey's Barbecue Pit,Lexington,831,831 XX-831 XX831 XX-00831 XX00831 XX0831 XX0831X XX-831XXX,1301 Winchester Rd. 325,KY,40505
Dickey's Barbecue Pit,Newark,841,841 XX-841 XX841 XX-00841 XX00841 XX0841 XX0841X XX-841XXX,"5829 Jarvis Ave, Suite A & B",CA,94560
Dickey's Barbecue Pit,Tacoma,851,851 XX-851 XX851 XX-00851 XX00851 XX0851 XX0851X XX-851XXX,"5104 6th Avenue, Suite 102",WA,98406
Dickey's Barbecue Pit,Liberty,861,861 XX-861 XX861 XX-00861 XX00861 XX0861 XX0861X XX-861XXX,600 S. 291 Highway,MT,64068
Dickey's Barbecue Pit,Cheyenne,871,871 XX-871 XX871 XX-00871 XX00871 XX0871 XX0871X XX-871XXX,"1400 Dell Range Blvd, Suite 085A",WY,82009
Dickey's Barbecue Pit,Kingwood,881,881 XX-881 XX881 XX-00881 XX00881 XX0881 XX0881X XX-881XXX,532 Kingwood Drive,TX,77339
Dickey's Barbecue Pit,Palmdale,891,891 XX-891 XX891 XX-00891 XX00891 XX0891 XX0891X XX-891XXX,1125 W. Rancho Blvd STE B,CA,93551
Dickey's Barbecue Pit,Davis,901,901 XX-901 XX901 XX-00901 XX00901 XX0901 XX0901X XX-901XXX,640 Covell Boulevard,CA,95616
Dickey's Barbecue Pit,Slidell,911,911 XX-911 XX911 XX-00911 XX00911 XX0911 XX0911X XX-911XXX,61103-61123 Airport Road,LA,70460
Dickey's Barbecue Pit,Castle Rock,921,921 XX-921 XX921 XX-00921 XX00921 XX0921 XX0921X XX-921XXX,323 Metzler Dr Ste #101,CO,80108
Dickey's Barbecue Pit,Kimball Junction,931,931 XX-931 XX931 XX-00931 XX00931 XX0931 XX0931X XX-931XXX,1784 UINTA WAY SUITE E-2,UT,84098
Dickey's Barbecue Pit,New Orleans,941,941 XX-941 XX941 XX-00941 XX00941 XX0941 XX0941X XX-941XXX,6005 Jefferson Hwy,LA,70123
Dickey's Barbecue Pit,San Marcos,951,951 XX-951 XX951 XX-00951 XX00951 XX0951 XX0951X XX-951XXX,"763 Center Drive, Suite 103",CA,92069
Dickey's Barbecue Pit,Bellevue,961,961 XX-961 XX961 XX-00961 XX00961 XX0961 XX0961X XX-961XXX,"4102 Twin Creek Drive, Suite 116",NE,68123
Dickey's Barbecue Pit,Visalia,971,971 XX-971 XX971 XX-00971 XX00971 XX0971 XX0971X XX-971XXX,227 E. Main St.,CA,93291
Dickey's Barbecue Pit,Farmers Branch,981,981 XX-981 XX981 XX-00981 XX00981 XX0981 XX0981X XX-981XXX,"13605 Midway Road, Suite 120",TX,75244
Dickey's Barbecue Pit,Riverton,991,991 XX-991 XX991 XX-00991 XX00991 XX0991 XX0991X XX-991XXX,"12575 South Rhetski Lane, Suite 103",UT,84065
Dickey's Barbecue Pit,Houston,1001,1001 XX-1001 XX1001 XX-001001 XX001001 XX01001 XX01001X XX-1001XXX,6184 HIGHWAY 6 NORTH,TX,77084
Dickey's Barbecue Pit,Eagle,1011,1011 XX-1011 XX1011 XX-001011 XX001011 XX01011 XX01011X XX-1011XXX,12 N. Fisher Park Way,ID,83616
Dickey's Barbecue Pit,Tuscaloosa,1021,1021 XX-1021 XX1021 XX-001021 XX001021 XX01021 XX01021X XX-1021XXX,"1800 McFarland Blvd., Suite 524",AL,35404
Dickey's Barbecue Pit,Logan,1031,1031 XX-1031 XX1031 XX-001031 XX001031 XX01031 XX01031X XX-1031XXX,1400 N. Main St. Ste 120 & 130,UT,84341
Dickey's Barbecue Pit,Weatherford,1041,1041 XX-1041 XX1041 XX-001041 XX001041 XX01041 XX01041X XX-1041XXX,235 Interstate 20,TX,76086
Dickey's Barbecue Pit,Nampa,1051,1051 XX-1051 XX1051 XX-001051 XX001051 XX01051 XX01051X XX-1051XXX,16365 N. Marketplace Blvd.,ID,83687
Dickey's Barbecue Pit,Huntsville,1061,1061 XX-1061 XX1061 XX-001061 XX001061 XX01061 XX01061X XX-1061XXX,"6886 Governors W, Suite 112",AL,34806
Dickey's Barbecue Pit,Newton,1071,1071 XX-1071 XX1071 XX-001071 XX001071 XX01071 XX01071X XX-1071XXX,214 E 12th St.,KS,67114
Dickey's Barbecue Pit,Thornton,1081,1081 XX-1081 XX1081 XX-001081 XX001081 XX01081 XX01081X XX-1081XXX,"9740 Grant Street, Ste. 105",CO,80229
Dickey's Barbecue Pit,Canton,1091,1091 XX-1091 XX1091 XX-001091 XX001091 XX01091 XX01091X XX-1091XXX,66 New Clyde Hwy,NC,28721
Dickey's Barbecue Pit,Tooele,1101,1101 XX-1101 XX1101 XX-001101 XX001101 XX01101 XX01101X XX-1101XXX,1000 North and Main Street,UT,84074
Dickey's Barbecue Pit,Fletcher,1111,1111 XX-1111 XX1111 XX-001111 XX001111 XX01111 XX01111X XX-1111XXX,"235 St. John's Avenue, Ste 10&12",NC,28732
Dickey's Barbecue Pit,Gillette,1121,1121 XX-1121 XX1121 XX-001121 XX001121 XX01121 XX01121X XX-1121XXX,2610 S. Douglas Hwy,WY,82718
Dickey's Barbecue Pit,Brenham,1131,1131 XX-1131 XX1131 XX-001131 XX001131 XX01131 XX01131X XX-1131XXX,Southwest Corner of Hwy 290 & SH 36,TX,77833
Dickey's Barbecue Pit,Frisco,1141,1141 XX-1141 XX1141 XX-001141 XX001141 XX01141 XX01141X XX-1141XXX,6065 Sports Village Rd.,TX,75034
Dickey's Barbecue Pit,Andrews,1151,1151 XX-1151 XX1151 XX-001151 XX001151 XX01151 XX01151X XX-1151XXX,1317 N. Main Street,TX,79714
Dickey's Barbecue Pit,Brentwood,1161,1161 XX-1161 XX1161 XX-001161 XX001161 XX01161 XX01161X XX-1161XXX,"8113 Moores Lane, Ste 1900",TN,37027
Dickey's Barbecue Pit,Northport,1171,1171 XX-1171 XX1171 XX-001171 XX001171 XX01171 XX01171X XX-1171XXX,"13580 HWY 43 North, Suite 3 & 4",AL,35475
Dickey's Barbecue Pit,Colorado Springs,1181,1181 XX-1181 XX1181 XX-001181 XX001181 XX01181 XX01181X XX-1181XXX,811 Cheyenne Meadows Road #12,CO,80906
Dickey's Barbecue Pit,Lathrop,1191,1191 XX-1191 XX1191 XX-001191 XX001191 XX01191 XX01191X XX-1191XXX,15338 South Harlan Road,CA,95330
Dickey's Barbecue Pit,Corpus Christi,1201,1201 XX-1201 XX1201 XX-001201 XX001201 XX01201 XX01201X XX-1201XXX,4938 South Staples Street E-7,TX,78411
Dickey's Barbecue Pit,Ferndale,1211,1211 XX-1211 XX1211 XX-001211 XX001211 XX01211 XX01211X XX-1211XXX,2054 Main Street,WA,98320
Dickey's Barbecue Pit,Lawrence,1221,1221 XX-1221 XX1221 XX-001221 XX001221 XX01221 XX01221X XX-1221XXX,305 Rockaway Turnpike,NY,11559
Dickey's Barbecue Pit,Johnson City,1231,1231 XX-1231 XX1231 XX-001231 XX001231 XX01231 XX01231X XX-1231XXX,1805 W State of Franklin Ste 400,TN,37604
Dickey's Barbecue Pit,Tupelo,1261,1261 XX-1261 XX1261 XX-001261 XX001261 XX01261 XX01261X XX-1261XXX,"3946 N Gloster, Suite 3952F",MS,38804
Dickey's Barbecue Pit,Sacramento,1271,1271 XX-1271 XX1271 XX-001271 XX001271 XX01271 XX01271X XX-1271XXX,6013 Florin Road #200,CA,95823
Dickey's Barbecue Pit,Tracy,1281,1281 XX-1281 XX1281 XX-001281 XX001281 XX01281 XX01281X XX-1281XXX,"2469 Naglee Rd, Ste 4D",CA,95304
Dickey's Barbecue Pit,Las Vegas,1291,1291 XX-1291 XX1291 XX-001291 XX001291 XX01291 XX01291X XX-1291XXX,6584 N Decatur Blvd Ste 100,NV,89131
