keywords,city,Aggdata Store Number,store_number,address,state,zip_code
Dress Barn,Mcallen,3,3 03 #3,7600 North 10Th Street,TX,78504
Dress Barn,Virginia Beach,4,4 04 #4,1169 Nimmo Parkway,VA,23456
Dress Barn,Las Vegas,6,6 06 #6,755 S Grand Central Parkway,NV,89106
Dress Barn,Jonesboro,11,11 011 #11,3000 East Highland Drive,AR,72401
Dress Barn,Harahan,12,12 012 #12,1200 S. Clearview  Parkway,LA,70123
Dress Barn,Scarsdale,14,14 014 #14,777 White Plains Road,NY,10583
Dress Barn,Seaside,19,19 019 #19,1111 North Roosevelt Dr,OR,97138
Dress Barn,Barboursville,20,20 020 #20,2068 Thunderingherd Drive,WV,25504
Dress Barn,Gilroy,21,21 021 #21,681 Leavesley Road,CA,95020
Dress Barn,Kokomo,23,23 023 #23,2152 East Blvd,IN,46902
Dress Barn,Visalia,24,24 024 #24,2116 South Mooney Blvd,CA,93277
Dress Barn,Greenburgh,25,25 025 #25,389 Tarrytown Road,NY,10607
Dress Barn,Indianapolis,27,27 027 #27,2670 Lake Circle Drive,IN,46268
Dress Barn,Medina,28,28 028 #28,1163 N. Court Street,OH,44256
Dress Barn,West Fargo,30,30 030 #30,1500 East 13Th Ave,ND,58078
Dress Barn,Shreveport,31,31 031 #31,7044 Youree Drive,LA,71105
Dress Barn,Valley Stream,34,34 034 #34,300 West Sunrise Highway,NY,11580
Dress Barn,Conway,35,35 035 #35,763 Elsinger Blvd,AR,72032
Dress Barn,St. Joseph,39,39 039 #39,5201 N. Belt Highway,MO,64506
Dress Barn,Story City,40,40 040 #40,324 Factory Outlet Drive 1,IA,50248
Dress Barn,Grove City,51,51 051 #51,1911 Leesburg/Grove City Road,PA,16127
Dress Barn,Huntley,52,52 052 #52,11800 Freeman Road,IL,60142
Dress Barn,Olathe,54,54 054 #54,14665 West 119Th Street,KS,66062
Dress Barn,Boise,55,55 055 #55,331 North Milwaukee Street,ID,83704
Dress Barn,Monroe,57,57 057 #57,3019 West Highway 74,NC,28110
Dress Barn,Houston,58,58 058 #58,6531 State Highway 6 North,TX,77084
Dress Barn,Las Vegas,59,59 059 #59,7971 West Tropical Parkway,NV,89149
Dress Barn,Poughkeepsie,60,60 060 #60,2536 South Road,NY,12601
Dress Barn,Spanish Fort,61,61 061 #61,10200 Eastern Shore Blvd.,AL,36527
Dress Barn,Rossford,62,62 062 #62,9874 Olde U.S. 20,OH,43460
Dress Barn,Louisville,65,65 065 #65,4131 Towne Center Drive,KY,40241
Dress Barn,Ankeny,67,67 067 #67,1719 S.E. Delaware Ave,IA,50021
Dress Barn,Florida City,69,69 069 #69,250 East Palm Drive,FL,33034
Dress Barn,Arlington,72,72 072 #72,1102 A West Arbrook Boulevard,TX,76015
Dress Barn,Falls Church,73,73 073 #73,6308 Seven Corners Center,VA,22044
Dress Barn,Wichita,75,75 075 #75,2441 N. Maize Road,KS,67205
Dress Barn,Huntsville,76,76 076 #76,2750 Carl T Jones Drive Se,AL,35802
Dress Barn,Reynoldsburg,78,78 078 #78,2927 Taylor Road S.W.,OH,43068
Dress Barn,Hershey,80,80 080 #80,87 Outlet Square,PA,17033
Dress Barn,Rochester,82,82 082 #82,1601 Penfield Road,NY,14625
Dress Barn,New Hartford,83,83 083 #83,4785 Commerical Drive,NY,13413
Dress Barn,Sheybogan Falls,84,84 084 #84,4061 State Highway,WI,53085
Dress Barn,Glendale,86,86 086 #86,9420 West Northern Ave.,AZ,85305
Dress Barn,Blaine,88,88 088 #88,4255 Pheasant Ridge Drive,MN,55449
Dress Barn,Woodbridge,90,90 090 #90,2700 Potomac Mills Circle,VA,22192
Dress Barn,Mt Prospect,91,91 091 #91,1121 Mt Prospect Plaza,IL,60056
Dress Barn,Vestal,92,92 092 #92,2317 Vestal Parkway East,NY,13850
Dress Barn,Bakersfield,93,93 093 #93,9210 Rosedale Highway,CA,93312
Dress Barn,Green Bay,94,94 094 #94,303 Bay Park Plaza,WI,54304
Dress Barn,Metairie,96,96 096 #96,8855 Veterans Memorial Boulevard,LA,70003
Dress Barn,Warren,100,100 0100 #100,26417 Hoover Road,MI,48089
Dress Barn,Farmington,102,102 0102 #102,33025 Grand River,MI,48336
Dress Barn,Avon,104,104 0104 #104,10349 East Us Highway 36,IN,46123
Dress Barn,Perryville,106,106 0106 #106,68 Heather Lane,MD,21903
Dress Barn,Auburn,109,109 0109 #109,1101 Supermall Way,WA,98001
Dress Barn,Glen Allen,110,110 0110 #110,9920 Brook Road,VA,23059
Dress Barn,Elk Grove,111,111 0111 #111,9630 Bruceville Road,CA,95757
Dress Barn,Shawnee,114,114 0114 #114,15420 Shawnee Mission Parkway,KS,66217
Dress Barn,Aurora,115,115 0115 #115,1650 Premium Outlets Blvd,IL,60502
Dress Barn,Winston Salem,116,116 0116 #116,2101 Peters Creek Parkway,NC,27127
Dress Barn,Davenport,117,117 0117 #117,4018 E. 53Rd Street,IA,52807
Dress Barn,Asheville,119,119 0119 #119,800 Fairview Road,NC,28803
Dress Barn,Mesa,120,120 0120 #120,2055 S Power Rd,AZ,85209
Dress Barn,Hagerstown,121,121 0121 #121,435 Premium Outlets Blvd,MD,21740
Dress Barn,Tarentum,124,124 0124 #124,Pittsburgh Mills Circle,PA,15084
Dress Barn,Covingtonn,126,126 0126 #126,69328 Highway 21,LA,70433
Dress Barn,San Bruno,128,128 0128 #128,1150 El Camino Real,CA,94066
Dress Barn,Lawrenceville,129,129 0129 #129,5900 Sugarloaf Parkway,GA,30043
Dress Barn,Omaha,130,130 0130 #130,3109 Oak View Plaza,NE,68144
Dress Barn,Philadelphia,131,131 0131 #131,9161 Roosevelt Blvd,PA,19114
Dress Barn,Medford,132,132 0132 #132,6750 West Frontage Road,MN,55049
Dress Barn,Selma,133,133 0133 #133,8246 Agora Parkway,TX,78154
Dress Barn,Bala Cynwyd,134,134 0134 #134,71 East City Line Avenue,PA,19004
Dress Barn,Whitestone,135,135 0135 #135,153-45 Cross Island Parkway,NY,11357
Dress Barn,Peoria,137,137 0137 #137,5201 War Memorial Drive,IL,61615
Dress Barn,Robinsonville,139,139 0139 #139,13118 U.S. Highway 61 North,MS,38664
Dress Barn,Flowood,140,140 0140 #140,136 Promenade Blvd.,MS,39232
Dress Barn,Greenville,141,141 0141 #141,3040 Evans Street,NC,27834
Dress Barn,Lakewood,143,143 0143 #143,14500 West Colfax Avenue,CO,80401
Dress Barn,Greenbelt,145,145 0145 #145,7525 Greenbelt Road,MD,20770
Dress Barn,Springfield,146,146 0146 #146,6358 Springfield Plaza,VA,22150
Dress Barn,Albertville,148,148 0148 #148,6415 Labeaux Ave N.E.,MN,55301
Dress Barn,Stafford,149,149 0149 #149,1150 Stafford Marketplace,VA,22556
Dress Barn,Terrell,151,151 0151 #151,301 Tanger Drive,TX,75160
Dress Barn,Mehlville,152,152 0152 #152,4476 Lemay Ferry Road,MO,63129
Dress Barn,Jacksonville,154,154 0154 #154,651 Commerce Center Dr,FL,32225
Dress Barn,Batesville,156,156 0156 #156,325 Lakewood Drive,MS,38606
Dress Barn,El Cerrito,159,159 0159 #159,430 El Cerrito Plaza,CA,94530
Dress Barn,Fontana,160,160 0160 #160,14980 Summit Ave,CA,92336
Dress Barn,Elmira,161,161 0161 #161,845 County Route 64,NY,14903
Dress Barn,Burlington,163,163 0163 #163,478 Fashion Way,WA,98233
Dress Barn,Oak Lawn,164,164 0164 #164,8724 South Cicero Avenue,IL,60453
Dress Barn,Gambrills,165,165 0165 #165,2640 Chapel Lake Drive,MD,21054
Dress Barn,Williamsburg,166,166 0166 #166,132 Tanger Drive,IA,52361
Dress Barn,Downers Grove,167,167 0167 #167,7303 Lemont Road,IL,60516
Dress Barn,Hoffman Estates,168,168 0168 #168,16 Golf Rose Center,IL,60169
Dress Barn,Palmdale,169,169 0169 #169,39449 10Th Street West,CA,93551
Dress Barn,Lexington,175,175 0175 #175,5454 Sunset Boulevard,SC,29072
Dress Barn,Hillsboro,176,176 0176 #176,104 I-35 Highway,TX,76645
Dress Barn,Shenandoah,177,177 0177 #177,19075 Interstate 45 S,TX,77385
Dress Barn,West Bend,180,180 0180 #180,1670 S. Main Street,WI,53095
Dress Barn,Briarcliff Manor,181,181 0181 #181,1860 Pleasantville Rd,NY,10510
Dress Barn,Greenville,182,182 0182 #182,1117 Woodruff Road,SC,29607
Dress Barn,St. Augustine,183,183 0183 #183,500 Prime Outlet Boulevard,FL,32084
Dress Barn,Crossville,188,188 0188 #188,228 Interstate Dr,TN,38555
Dress Barn,Mchenry,189,189 0189 #189,2346 North Richmond Road,IL,60050
Dress Barn,Silver Spring,190,190 0190 #190,13677 Connecticut Avenue,MD,20906
Dress Barn,Pasco,191,191 0191 #191,5244 Outlet Drive,WA,99301
Dress Barn,Morgantown,192,192 0192 #192,4051 University Town Center Drive,WV,26501
Dress Barn,Huntsville,193,193 0193 #193,6275 North West University Drive,AL,35806
Dress Barn,Round Rock,197,197 0197 #197,2701 Parker Road,TX,78681
Dress Barn,Baton Rouge,198,198 0198 #198,10517 South Mall Drive,LA,70810
Dress Barn,Huntersville,199,199 0199 #199,9747A Sam Furr Road,NC,28078
Dress Barn,New York,200,200 0200 #200,1180 Avenue Of The Americas,NY,10036
Dress Barn,Glendale,202,202 0202 #202,89-89 Union Turnpike,NY,11385
Dress Barn,Orem,203,203 0203 #203,575 E. University Pkwy,UT,84097
Dress Barn,Calhoun,204,204 0204 #204,455 Belwood Drive,GA,30701
Dress Barn,Frederick,205,205 0205 #205,7280 Guilford Drive,MD,21704
Dress Barn,Dickson City,207,207 0207 #207,1132 Commerce Boulevard,PA,18508
Dress Barn,Spokane,208,208 0208 #208,15533 East Broadway,WA,99037
Dress Barn,Houston,212,212 0212 #212,250 Meyerland Plaza,TX,77096
Dress Barn,Richmond,213,213 0213 #213,1601 Willow Lawn Drive,VA,23230
Dress Barn,Brookfield,214,214 0214 #214,16900-F West Bluemound Road,WI,53005
Dress Barn,West Branch,215,215 0215 #215,2990 Cook Road,MI,48661
Dress Barn,Indianapolis,217,217 0217 #217,5025 East 82Nd Street,IN,46250
Dress Barn,Severna Park,219,219 0219 #219,558H Governor Ritchie Highway,MD,21146
Dress Barn,Mankato,220,220 0220 #220,1901 Madison Avenue,MN,56001
Dress Barn,Indianapolis,221,221 0221 #221,4850 East Southport Road,IN,46237
Dress Barn,South Bend,222,222 0222 #222,1290 East Ireland Road,IN,46614
Dress Barn,Tulalip,224,224 0224 #224,10600 Quilceda Blvd. #414,WA,98271
Dress Barn,Branson,225,225 0225 #225,4240 Gretna Road,MO,65616
Dress Barn,Shelby Township,226,226 0226 #226,13917 Hall Road,MI,48315
Dress Barn,Orland Park,228,228 0228 #228,15806 Lagrange Road,IL,60462
Dress Barn,Newton,229,229 0229 #229,601 Se 36 Street,KS,67114
Dress Barn,Phoenix,231,231 0231 #231,4250 West Anthem Way,AZ,85086
Dress Barn,Austell,234,234 0234 #234,1757 East-West Connector,GA,30106
Dress Barn,Tulare,235,235 0235 #235,1463 Retherford St,CA,93274
Dress Barn,Rego Park,237,237 0237 #237,95-24 63Rd Road,NY,11374
Dress Barn,Hodgkins,238,238 0238 #238,9430 Joliet Road,IL,60525
Dress Barn,Lake Charles,239,239 0239 #239,3431 Derek Drive,LA,70607
Dress Barn,Sanford,241,241 0241 #241,1901 W.P. Ball Blvd.,FL,32771-7210
Dress Barn,Johnstown,243,243 0243 #243,300 Town Centre Drive,PA,15904
Dress Barn,Concord,245,245 0245 #245,8111 Concord Mills Blvd,NC,28027
Dress Barn,Wilmington,247,247 0247 #247,4715 New Centre Drive,NC,28405
Dress Barn,Rochester,248,248 0248 #248,310 Greece Ridge Center Drive,NY,14626
Dress Barn,St. Louis,249,249 0249 #249,7269 Watson Road,MO,63119
Dress Barn,Modesto,251,251 0251 #251,3440 Mchenry Avenue,CA,95350
Dress Barn,Commerce,253,253 0253 #253,800 Steven B. Tanger Boulevard,GA,30529
Dress Barn,Staten Island,254,254 0254 #254,985 Richmond Avenue,NY,10314
Dress Barn,Snellville,255,255 0255 #255,1630 Highway 124,GA,30078
Dress Barn,Locust Grove,256,256 0256 #256,1000 Tanger Drive,GA,30248
Dress Barn,Dawsonville,258,258 0258 #258,800 Highway 400,GA,30534
Dress Barn,Colonie,259,259 0259 #259,1440 Central Avenue,NY,12205
Dress Barn,Belleville,262,262 0262 #262,5720 North Belt West,IL,62223
Dress Barn,Amarillo,263,263 0263 #263,3120 Soncy Road @ I-40,TX,79124
Dress Barn,Laughlin,265,265 0265 #265,1955 S. Casino Drive,NV,89029
Dress Barn,Summerville,267,267 0267 #267,416 Azalea Square Boulevard,SC,29483
Dress Barn,Springfield,269,269 0269 #269,3409 Freedom Drive,IL,62703
Dress Barn,Brea,273,273 0273 #273,2500 East Imperial Highway,CA,92821
Dress Barn,Colorado Springs,274,274 0274 #274,1770 East Woodmen Road,CO,80920
Dress Barn,Dubuque,277,277 0277 #277,2485 Nw Arterial,IA,52002
Dress Barn,Waterloo,280,280 0280 #280,665 Route #318,NY,13165
Dress Barn,Willow Grove,281,281 0281 #281,134 Park Avenue,PA,19090
Dress Barn,Wayne,285,285 0285 #285,125 East Swedesford Road,PA,19087
Dress Barn,Allen Park,288,288 0288 #288,3240 Fairlane Dr,MI,48101
Dress Barn,Colonial Heights,290,290 0290 #290,723 Southpark Boulevard,VA,23834
Dress Barn,Kingstowne,291,291 0291 #291,5840 Kingstowne Center,VA,22315
Dress Barn,Hot Springs,292,292 0292 #292,309 Cornerstone Blvd.,AR,71913
Dress Barn,Howell,294,294 0294 #294,1475 N. Burkhart Road,MI,48843
Dress Barn,Gresham,297,297 0297 #297,1090 Northwest Norman Avenue,OR,97030
Dress Barn,Burbank,298,298 0298 #298,9911 Avon Lake Road,OH,44214
Dress Barn,Gettysburg,300,300 0300 #300,1863 Gettysburg Village Drive,PA,17325
Dress Barn,Gaffney,301,301 0301 #301,645 Factory Shops Boulevard,SC,29341
Dress Barn,El Paso,306,306 0306 #306,6101 Gateway West Op-1B,TX,79925
Dress Barn,Thornwood,307,307 0307 #307,996 Broadway,NY,10594
Dress Barn,Mohegan Lake,309,309 0309 #309,3131 East Main Street,NY,10547
Dress Barn,Tucson,310,310 0310 #310,7401 North Lacholla Boulevard,AZ,85741
Dress Barn,Livonia,313,313 0313 #313,37217 6 Mile Road,MI,48152
Dress Barn,Austin,314,314 0314 #314,5601 Brodie Lane,TX,78745
Dress Barn,Fairview Heights,318,318 0318 #318,10850 Lincoln Trail,IL,62208
Dress Barn,St. Louis Park,320,320 0320 #320,8332 Highway 7,MN,55426
Dress Barn,West Hemstead,321,321 0321 #321,526 Hempstead Turnpike,NY,11552
Dress Barn,Independence,322,322 0322 #322,20050 E. Jackson Drive,MO,64057
Dress Barn,Plainfield,324,324 0324 #324,12736 South Route 59,IL,60585
Dress Barn,Hampton,325,325 0325 #325,43 Coliseum Drive,VA,23666
Dress Barn,Florissant,327,327 0327 #327,11240 W. Florissant Road,MO,63033
Dress Barn,Brentwood,329,329 0329 #329,8550 Eager Road,MO,63144
Dress Barn,Monroe,335,335 0335 #335,4219 Pecan Land Mall Dr,LA,71201
Dress Barn,Troy,344,344 0344 #344,310 John R. Road,MI,48084
Dress Barn,Johnson City,345,345 0345 #345,3211 Peoples Street,TN,37604
Dress Barn,Alpine,347,347 0347 #347,5005 Willows Road,CA,91901
Dress Barn,Aurora,348,348 0348 #348,23901 E.Orchard Rd,CO,80016
Dress Barn,Little Rock,349,349 0349 #349,12801 Chenal Parkway,AR,72211
Dress Barn,Fairfax,350,350 0350 #350,9600P Main Street,VA,22031
Dress Barn,Opelika,352,352 0352 #352,2127 Tigertown Parkway,AL,36801
Dress Barn,Grove City,353,353 0353 #353,1715 Stringtown Road,OH,43123
Dress Barn,Geneva,354,354 0354 #354,1536 Randall Road,IL,60134
Dress Barn,Cerritos,355,355 0355 #355,12859 Towne Center Drive,CA,90703
Dress Barn,Boaz,356,356 0356 #356,301 Elizabeth Street,AL,35957
Dress Barn,Palatine,360,360 0360 #360,727 East Dundee Road,IL,60074
Dress Barn,Bear,361,361 0361 #361,408 Eden Circle,DE,19701
Dress Barn,Granger,363,363 0363 #363,335 E University Drive,IN,46530
Dress Barn,El Paso,365,365 0365 #365,1319 George Dieter Drive,TX,79936
Dress Barn,Aurora,366,366 0366 #366,14180 E. Ellsworth Avenue,CO,80012
Dress Barn,Warminster,368,368 0368 #368,812 West Street Road,PA,18974
Dress Barn,Crystal,369,369 0369 #369,133 Willow Bend,MN,55428
Dress Barn,Germantown,371,371 0371 #371,20938 Fredrick Ave,MD,20874
Dress Barn,Grapevine,372,372 0372 #372,3000 Grapevine Mills Parkway,TX,76051
Dress Barn,Burleson,374,374 0374 #374,1121 North Burleson Boulevard,TX,76028
Dress Barn,Kissimmee,375,375 0375 #375,3204 North John Young Parkway,FL,34741
Dress Barn,Montgomery,376,376 0376 #376,2460 Berryhill Road,AL,36117
Dress Barn,Mechanicsburg,381,381 0381 #381,6520 Carlisie Pike,PA,17050
Dress Barn,Tabb,383,383 0383 #383,5005 Victory Boulevard,VA,23693
Dress Barn,La Habra,384,384 0384 #384,1326 S. Beach Boulevard,CA,90631
Dress Barn,Smithfield,390,390 0390 #390,1025 Industrial Park Drive,NC,27577
Dress Barn,Wilmington,391,391 0391 #391,3232 Kirkwood Highway,DE,19808
Dress Barn,Hattiesburg,394,394 0394 #394,6143 Highway 98 Suite 60,MS,39402
Dress Barn,Joplin,396,396 0396 #396,405 South Geneva Ave,MO,64801
Dress Barn,Southlake,399,399 0399 #399,2910 East Southlake Blvd,TX,76092
Dress Barn,Cranberry Township,400,400 0400 #400,2011 Route 19,PA,16066
Dress Barn,Patchogue,401,401 0401 #401,499-17 West Sunrise Highway,NY,11772
Dress Barn,Camarillo,402,402 0402 #402,950 Camarillo Center Drive,CA,93010
Dress Barn,Bellport,403,403 0403 #403,10 Farber Drive,NY,11713
Dress Barn,Jackson,404,404 0404 #404,1081 Vann Drive,TN,38305
Dress Barn,Sioux City,405,405 0405 #405,5001 Sergeant Road,IA,51106
Dress Barn,Savannah,408,408 0408 #408,11 Gateway Boulevard South,GA,31419
Dress Barn,Birch Run,411,411 0411 #411,12365 South Beyer Road,MI,48415
Dress Barn,Oklahoma City,412,412 0412 #412,2230 West Memorial Road,OK,73134
Dress Barn,Tempe,415,415 0415 #415,5000 Arizona Mills Circle,AZ,85282
Dress Barn,Lancaster,416,416 0416 #416,35 South Willowdale Drive,PA,17602
Dress Barn,Conroe,417,417 0417 #417,1111 League Line Road,TX,77303
Dress Barn,Laurel,419,419 0419 #419,332 Domer Avenue,MD,20707
Dress Barn,Fredricksburg,420,420 0420 #420,1370 Carl D. Silver Parkway,VA,22401
Dress Barn,Johnson Creek,424,424 0424 #424,575 West Linmar Lane,WI,53038
Dress Barn,Lakewood,425,425 0425 #425,10330 Suite B 59Th Avenue Sw,WA,98499
Dress Barn,California,430,430 0430 #430,45147 First Colony Way,MD,20619
Dress Barn,San Diego,431,431 0431 #431,8160 Mira Mesa Boulevard,CA,92126
Dress Barn,Gilbert,432,432 0432 #432,1093 East Baseline,AZ,85233
Dress Barn,West Chester,437,437 0437 #437,7616 Voice Of America Ctr Dr,OH,45069
Dress Barn,Newburgh,438,438 0438 #438,1433 Route 300,NY,12550
Dress Barn,Amherst,439,439 0439 #439,1565 Niagara Falls Boulevard,NY,14228
Dress Barn,Garner,442,442 0442 #442,2620 Timber Drive,NC,27529
Dress Barn,Alexandria,443,443 0443 #443,3501 Jefferson Davis Highway,VA,22305
Dress Barn,Hurst,446,446 0446 #446,829 Northeast Mall Boulevard,TX,76053
Dress Barn,Blowing Rock,447,447 0447 #447,310 Shoppes On The Parkway,NC,28605
Dress Barn,Jacksonville,449,449 0449 #449,10261 River Marsh Drive,FL,32246
Dress Barn,Pembroke Pines,450,450 0450 #450,450 North University Drive,FL,33024
Dress Barn,San Marcos,455,455 0455 #455,4015 Interstate 35 South,TX,78666
Dress Barn,Byron,456,456 0456 #456,Highway 49 & I-75,GA,31008
Dress Barn,Lebanon,457,457 0457 #457,270 Outlet Village Drive,TN,37090
Dress Barn,Hazelwood,458,458 0458 #458,5555 St. Mills Boulevard,MO,63042
Dress Barn,Bossier City,460,460 0460 #460,530 Boardwalk Blvd.,LA,71111
Dress Barn,Plainfield,461,461 0461 #461,2685 East Main Street,IN,46168
Dress Barn,Carmichael,463,463 0463 #463,4758 Manzinita Avenue,CA,95608
Dress Barn,Quakertown,465,465 0465 #465,210 N West End Boulevard,PA,18951
Dress Barn,Watertown,466,466 0466 #466,1300 Arsenal Street,NY,13601
Dress Barn,Slidell,468,468 0468 #468,61115 Airport Road,LA,70460
Dress Barn,Edinburgh,469,469 0469 #469,11710 North East Executive Drive,IN,46124
Dress Barn,N. Myrtle Beach,470,470 0470 #470,10823 Kings Road,SC,29572
Dress Barn,Canton,471,471 0471 #471,1441 Riverstone Parkway,GA,30114
Dress Barn,Carrollton,473,473 0473 #473,2662 North Josey Lane,TX,75007
Dress Barn,Denton,474,474 0474 #474,1800 South Loop 288,TX,76205
Dress Barn,Savannah,476,476 0476 #476,7400 Abercorn Street,GA,31406
Dress Barn,Algonquin,477,477 0477 #477,726 S. Randall Road,IL,60102
Dress Barn,Walker,480,480 0480 #480,3165 Alpine Avenue Nw,MI,49544
Dress Barn,Leesburg,481,481 0481 #481,241 Fort Evans Road,VA,20176
Dress Barn,Kansas City,483,483 0483 #483,1101 W. 136Th St,MO,64145
Dress Barn,Lafayette,484,484 0484 #484,4401 Ambassador Caffery Parkway,LA,70508
Dress Barn,Katy,491,491 0491 #491,5000 Katy Mills Circle,TX,77494
Dress Barn,Albuquerque,492,492 0492 #492,5001 Montegomery Boulevard,NM,87109
Dress Barn,Burtonsville,493,493 0493 #493,15709 Columbia Pike,MD,20866
Dress Barn,Woodbury,495,495 0495 #495,7150 Valley Creek Plaza,MN,55125
Dress Barn,Charleston,496,496 0496 #496,77 Rhl Blvd.,WV,25309
Dress Barn,Gastonia,497,497 0497 #497,3670 East Franklin Boulevard,NC,28054
Dress Barn,Antioch,499,499 0499 #499,5749 Lone Tree Way,CA,94531
Dress Barn,Rockford,500,500 0500 #500,7200 Harrison Avenue,IL,61112
Dress Barn,Oshkosh,501,501 0501 #501,3001 South Washburn Street,WI,54904
Dress Barn,Bel Air,504,504 0504 #504,5 Bel Air South Parkway,MD,21015
Dress Barn,North Bend,506,506 0506 #506,461 South Fork Avenue Sw,WA,98045
Dress Barn,Lake George,507,507 0507 #507,1444 State Route 9,NY,12845
Dress Barn,Lincoln City,508,508 0508 #508,1500 Se East Devils Lake Road East,OR,97367
Dress Barn,Greensboro,510,510 0510 #510,1206-D Bridford Parkway,NC,27407
Dress Barn,Phoenix,511,511 0511 #511,21001 North Tatum Boulevard,AZ,85050
Dress Barn,Wilkes Barre,512,512 0512 #512,3340 Wikes Barre Township Commons,PA,18702
Dress Barn,Folsom,513,513 0513 #513,13000 Folsom Boulevard,CA,95630
Dress Barn,Richardson,516,516 0516 #516,1361 West Campbell Road,TX,75080
Dress Barn,Harrisburg,517,517 0517 #517,5125 Jonestown Road,PA,17112
Dress Barn,Virginia Beach,518,518 0518 #518,4000 Virginia Beach Blvd,VA,23452
Dress Barn,Bloomington,519,519 0519 #519,7971 Southtown Center,MN,55431
Dress Barn,Coralville,520,520 0520 #520,2799 Commerce Drive,IA,52241
Dress Barn,Sutton,523,523 0523 #523,66 Skidmore Lane,WV,26601
Dress Barn,Parma,524,524 0524 #524,1183 Pleasant Valley Rd,OH,44134
Dress Barn,Springfield,526,526 0526 #526,7541 Huntsman Boulevard,VA,22153
Dress Barn,Washington,527,527 0527 #527,50 Trinity Point Drive,PA,15301
Dress Barn,Nags Head,528,528 0528 #528,7100 South Croatan Highway,NC,27959
Dress Barn,Valparaiso,529,529 0529 #529,91 Silhavy Road,IN,46383
Dress Barn,Waco,532,532 0532 #532,2420 West Loop 340,TX,76711
Dress Barn,Lexington,533,533 0533 #533,1984 Pavilion Way,KY,40509
Dress Barn,Houma,539,539 0539 #539,1753 Martin Luther King Blvd,LA,70360
Dress Barn,Melrose Park,540,540 0540 #540,1036 W. North Avenue,IL,60160
Dress Barn,Kansas City,543,543 0543 #543,8570 N. Evanston Rd,MO,64157
Dress Barn,Gonzales,544,544 0544 #544,2200 Tanger Blvd,LA,70737
Dress Barn,Madison,550,550 0550 #550,2289 Gallatin Pike North,TN,37115
Dress Barn,Hauppauge,551,551 0551 #551,381C Nesconset Highway,NY,11788
Dress Barn,Port Jefferson,554,554 0554 #554,1096 Route 112,NY,11776
Dress Barn,Fremont,555,555 0555 #555,655 W State Road,IN,46737
Dress Barn,Alexandria,556,556 0556 #556,3654A King Street,VA,22305
Dress Barn,Pasadena,561,561 0561 #561,5750 Fairmont Parkway,TX,77505
Dress Barn,Monroeville,562,562 0562 #562,53 Miracle Mile Shopping Center,PA,15146
Dress Barn,Cheektowaga,564,564 0564 #564,3801 Union Road,NY,14225
Dress Barn,Gaithersburg,567,567 0567 #567,801 Center Point Way,MD,20878
Dress Barn,Oklahoma City,569,569 0569 #569,8416 Northwest Expressway,OK,73162
Dress Barn,Evansville,570,570 0570 #570,6501 East Lloyd Expressway,IN,47715
Dress Barn,Freeport,573,573 0573 #573,228 E Sunrise Highway,NY,11520
Dress Barn,Houston,575,575 0575 #575,1200 Mckinney Street,TX,77010
Dress Barn,Homewood,576,576 0576 #576,17840 S.Halstead Ave,IL,60430
Dress Barn,Anderson,579,579 0579 #579,1757 State Highway 273,CA,96007
Dress Barn,Vicksburg,580,580 0580 #580,4000 South Frontage Road,MS,39180
Dress Barn,Tuscola,581,581 0581 #581,4019 Tuscola Blvd,IL,61953
Dress Barn,Normal,583,583 0583 #583,314 South Towanda Ave,IL,61761
Dress Barn,Salisbury,586,586 0586 #586,127 East North Pointe Drive,MD,21804
Dress Barn,State College,588,588 0588 #588,319 Benner Pike,PA,16801
Dress Barn,Foley,590,590 0590 #590,2601 South Mackenzie Street,AL,36535
Dress Barn,Racine,591,591 0591 #591,5630 Washington Avenue,WI,53406
Dress Barn,Dalton,592,592 0592 #592,1001 Market Street,GA,30720
Dress Barn,Manassas,595,595 0595 #595,10854 Sudley Manor Road,VA,20110
Dress Barn,Pigeon Forge,597,597 0597 #597,2652 Teaster Lane,TN,37863
Dress Barn,Cumming,598,598 0598 #598,533 Lakeland Plaza,GA,30040
Dress Barn,Houston,603,603 0603 #603,7714 Fm 1960 West,TX,77070
Dress Barn,St. Augustine,606,606 0606 #606,2700 State Road 16,FL,32092
Dress Barn,Chicago,608,608 0608 #608,2536 N. Narragansett Ave,IL,60639
Dress Barn,Rehoboth Beach,610,610 0610 #610,36496 Seaside Outlet Drive,DE,19971
Dress Barn,Wilmington,614,614 0614 #614,2305 Concord Pike,DE,19803
Dress Barn,San Antonio,615,615 0615 #615,6065 N.W. Loop 410,TX,78238
Dress Barn,San Antonio,617,617 0617 #617,17700 Us Highway 281,TX,78232
Dress Barn,Troutdale,618,618 0618 #618,450 Nw 257Th Drive Suite 502,OR,97060
Dress Barn,Vacaville,619,619 0619 #619,331F Nut Tree Road,CA,95687
Dress Barn,Beaumont,620,620 0620 #620,4015 Dowlen Road,TX,77706
Dress Barn,Gurnee,622,622 0622 #622,6170 West Grand Avenue,IL,60031
Dress Barn,Michigan City,623,623 0623 #623,405 Lighthouse Place,IN,46360
Dress Barn,Upper Marlboro,624,624 0624 #624,908 Largo Center Drive,MD,20772
Dress Barn,Tannersville,626,626 0626 #626,1000 Route 611,PA,18372
Dress Barn,Largo,628,628 0628 #628,10500 Ulmerton Road,FL,33771
Dress Barn,Ellenton,631,631 0631 #631,5541 Factory Shops Boulevard,FL,34222
Dress Barn,Lansing,632,632 0632 #632,434 Frandor Avenue,MI,48912
Dress Barn,Florence,634,634 0634 #634,7731 Mall Road,KY,41042
Dress Barn,East Northport,635,635 0635 #635,4000 E. Jericho Turnpike,NY,11731
Dress Barn,Chicago,636,636 0636 #636,6193 North Lincoln Avenue,IL,60659
Dress Barn,Mcdonough,637,637 0637 #637,1914 Jonesboro Road,GA,30253
Dress Barn,Park City,641,641 0641 #641,6699 Landmark Drive,UT,84098
Dress Barn,Orlando,643,643 0643 #643,351 Alafaya Trail,FL,32828
Dress Barn,Brooklyn,646,646 0646 #646,2117 Ralph Avenue,NY,11234
Dress Barn,Dublin,647,647 0647 #647,4860 Dublin Blvd,CA,94568
Dress Barn,St. Charles,648,648 0648 #648,2133 Zumbehl Road,MO,63303
Dress Barn,Mechanicsville,649,649 0649 #649,7225 Bell Creek Road,VA,23111
Dress Barn,Gaylord,651,651 0651 #651,802 Edelweiss Parkway,MI,49735
Dress Barn,St. George,652,652 0652 #652,250 North Red Cliffs Drive,UT,84790
Dress Barn,Dearborn Heights,653,653 0653 #653,26478 Ford Road,MI,48127
Dress Barn,Avon,655,655 0655 #655,35886 Detroit Rd,OH,44011
Dress Barn,Sherman,656,656 0656 #656,3900 Town Center St.,TX,75092
Dress Barn,Grandville,661,661 0661 #661,4830 Wilson Avenue,MI,49418
Dress Barn,Springfield,664,664 0664 #664,3326 South Glenstone Ave,MO,65804
Dress Barn,North Branch,667,667 0667 #667,38500 Tanger Drive,MN,55056
Dress Barn,Lake Park,670,670 0670 #670,5177 Mill Road,GA,31636
Dress Barn,Kimball,673,673 0673 #673,1661 North Range Road,MI,48074
Dress Barn,Fairfax,676,676 0676 #676,13015 Lee Jackson Memorial Highway,VA,22033
Dress Barn,Sterling,677,677 0677 #677,45575 Dulles Eastern Plaza,VA,20166
Dress Barn,Chesterfield,678,678 0678 #678,136 Thf Blvd,MO,63005
Dress Barn,Sacramento,679,679 0679 #679,4710 Natomas Blvd,CA,95835
Dress Barn,Carle Place,685,685 0685 #685,190 Glen Cove Road,NY,11514
Dress Barn,Wyomissing,686,686 0686 #686,2765 Paper Mill Rd,PA,19610
Dress Barn,Cape Girardeau,687,687 0687 #687,258 Siemers Drive,MO,63701
Dress Barn,Irving,688,688 0688 #688,7763 North Macarthur Blvd,TX,75063
Dress Barn,Sevierville,693,693 0693 #693,1645 Parkway,TN,37862
Dress Barn,Blasdell,696,696 0696 #696,3540 Mckinley Parkway,NY,14219
Dress Barn,Levittown,699,699 0699 #699,3509 Hempstead Turnpike,NY,11756
Dress Barn,Fresh Meadows,704,704 0704 #704,61-38 190Th St.,NY,11365
Dress Barn,Ann Arbor,706,706 0706 #706,3625 Washtenaw Avenue,MI,48104
Dress Barn,Osage Beach,707,707 0707 #707,4540 Highway 54,MO,65065
Dress Barn,Lancaster,709,709 0709 #709,317 Outlet Drive,PA,17602
Dress Barn,Hyattsville,710,710 0710 #710,7564 Annapolis Road,MD,20784
Dress Barn,Woodstock,711,711 0711 #711,132 Woodstock Square,GA,30189
Dress Barn,Louisville,713,713 0713 #713,3620 S. Hurstbourne Parkway,KY,40299
Dress Barn,Jeffersonville,714,714 0714 #714,8350 Factory Shops Boulevard,OH,43128
Dress Barn,Nashville,716,716 0716 #716,380 Opry Mills Drive,TN,37214
Dress Barn,Las Vegas,719,719 0719 #719,8740 West Charleston Boulevard,NV,89117
Dress Barn,Orlando,720,720 0720 #720,8200 Vineland Avenue,FL,32821
Dress Barn,Midlothian,723,723 0723 #723,4841 Commonwealth Centre Parkway,VA,23112
Dress Barn,Pueblo,728,728 0728 #728,5783 North Elizabeth St,CO,81008
Dress Barn,Webster,730,730 0730 #730,1040 Ridge Road,NY,14580
Dress Barn,West Babylon,731,731 0731 #731,831 West Montauk Highway,NY,11704
Dress Barn,Clay,732,732 0732 #732,4155 Route 31,NY,13041
Dress Barn,Hagerstown,736,736 0736 #736,17682 Garland Groh Boulevard,MD,21740
Dress Barn,Coon Rapids,739,739 0739 #739,12761 Riverdale Boulevard Nw,MN,55448
Dress Barn,Crystal Lake,740,740 0740 #740,5460 North West Highway,IL,60014
Dress Barn,Northglenn,741,741 0741 #741,10640 Melody Drive,CO,80234
Dress Barn,Miner,742,742 0742 #742,100 Outlet Drive,MO,63801
Dress Barn,Arvada,745,745 0745 #745,8031 Wadsworth Boulevard,CO,80003
Dress Barn,Estero,746,746 0746 #746,10801 Corkscrew Road,FL,33928
Dress Barn,Rothschild,747,747 0747 #747,10101 Market Street,WI,54474
Dress Barn,Burlington,749,749 0749 #749,1451 University Commons Drive,NC,27215
Dress Barn,E Norriton,750,750 0750 #750,2840 Dekalb Pike,PA,19401
Dress Barn,Allen,752,752 0752 #752,820 Stacy Road West,TX,75013
Dress Barn,Massapequa,753,753 0753 #753,5260 Sunrise Highway,NY,11762-2907
Dress Barn,Redwood City,754,754 0754 #754,1035 El Camino Real,CA,94063
Dress Barn,Mesquite,756,756 0756 #756,19149 Lbj Freeway,TX,75150
Dress Barn,Hanover,759,759 0759 #759,7000 Arundel Mills Circle,MD,21076
Dress Barn,Bowie,760,760 0760 #760,15639 Emerald Way,MD,20716
Dress Barn,Las Vegas,763,763 0763 #763,7400 South Las Vegas Boulevard,NV,89123
Dress Barn,Niles,767,767 0767 #767,5670 West Touhy Avenue,IL,60714
Dress Barn,Lake Elsinore,768,768 0768 #768,17600 Collier Avenue,CA,92530
Dress Barn,Greenville,769,769 0769 #769,3243 North Pleasantburg Drive,SC,29609
Dress Barn,West Jordan,770,770 0770 #770,7067 South Plaza Center Drive,UT,84084
Dress Barn,Woodburn,771,771 0771 #771,1001 Arney Road,OR,97071
Dress Barn,Georgetown,772,772 0772 #772,1021 W.University Ave,TX,78628
Dress Barn,Fayetteville,773,773 0773 #773,2065-7 Skibo Road,NC,28314
Dress Barn,Lincoln,775,775 0775 #775,3010 Pine Lake Road,NE,68516
Dress Barn,Rochester,776,776 0776 #776,70 25Th Street Se,MN,55904
Dress Barn,Middletown,777,777 0777 #777,88 Dunning Road,NY,10940
Dress Barn,Draper,778,778 0778 #778,175 East 12300 South,UT,84020
Dress Barn,Cordova,780,780 0780 #780,1713 North  Germantown Parkway,TN,38016
Dress Barn,Stockton,782,782 0782 #782,10758 Trinity Parkway,CA,95219
Dress Barn,Calexico,783,783 0783 #783,2451 Rockwood Avenue,CA,92231
Dress Barn,Southfield,785,785 0785 #785,19831 West Twelve Mile Road,MI,48076
Dress Barn,Roseville,787,787 0787 #787,2100 N. Snelling Avenue,MN,55113
Dress Barn,Fountain Valley,788,788 0788 #788,18309 Brookhurst Street,CA,92708
Dress Barn,Bend,789,789 0789 #789,61334 S.Highway 97,OR,97702
Dress Barn,South Haven,790,790 0790 #790,195 Goodman Road West,MS,38671
Dress Barn,Arlington,794,794 0794 #794,1625 Crystal Square Arcade,VA,22202
Dress Barn,El Paso,795,795 0795 #795,750 Sunland Park Drive,TX,79912
Dress Barn,Cedar Hill,797,797 0797 #797,416 E FM 1382,TX,75104
Dress Barn,San Dimas,798,798 0798 #798,810 West Arrow Highway,CA,91773
Dress Barn,San Antonio,799,799 0799 #799,11649 Bandera Road,TX,78250
Dress Barn,Bronx,805,805 0805 #805,2270 Bartow Avenue,NY,10475
Dress Barn,Branson,810,810 0810 #810,115 Branson Landing Blvd,MO,65616
Dress Barn,New York,820,820 0820 #820,125 Maiden Lane,NY,10038
Dress Barn,Clinton,826,826 0826 #826,8767 Branch Avenue,MD,20735
Dress Barn,Harrisburg,832,832 0832 #832,11 N. Third St,PA,17101
Dress Barn,Lansdale,842,842 0842 #842,2333 Welsh Rd,PA,19446
Dress Barn,Vero Beach,856,856 0856 #856,1824 94Th Drive,FL,32966
Dress Barn,Chesapeake,857,857 0857 #857,1224 Greenbrier Parkway,VA,23320
Dress Barn,Myrtle Beach,873,873 0873 #873,4633 Factory Store Boulevard,SC,29579
Dress Barn,Silverthorne,875,875 0875 #875,246 South Rainbow Drive,CO,80498
Dress Barn,Crestview Hills,876,876 0876 #876,2834 Town Center Blvd,KY,41017
Dress Barn,Queenstown,887,887 0887 #887,421 Outlet Center Drive,MD,21658
Dress Barn,Washington,894,894 0894 #894,1009 Connecticut Avenue Nw,DC,20036
Dress Barn,Appleton,903,903 0903 #903,4741 Grand Market Drive,WI,54913
Dress Barn,New Hyde Park,908,908 0908 #908,697-A Hillside Avenue,NY,11040
Dress Barn,Westminster,909,909 0909 #909,400 North Center Street,MD,21157
Dress Barn,Pearland,912,912 0912 #912,10416 Broadway,TX,77584
Dress Barn,Clearwater,913,913 0913 #913,2729 Gulf To Bay Boulevard,FL,33755
Dress Barn,Bellevue,914,914 0914 #914,15600 Ne 8Th Street,WA,98008
Dress Barn,Parkchester,915,915 0915 #915,1451 Metropolitan Avenue,NY,10462
Dress Barn,Cypress,930,930 0930 #930,25833 Us Highway 290,TX,77429
Dress Barn,Portchester,932,932 0932 #932,501-503 Boston Post Rd,NY,10573
Dress Barn,N Charleston,1002,1002 01002 #1002,4840 Tanger Outlet Blvd,SC,29418
Dress Barn,Pleasant Prairie,1003,1003 01003 #1003,11211 120Th Ave #Co49,WI,53158
Dress Barn,Baraboo,1004,1004 01004 #1004,210 Gasser Road,WI,53913
Dress Barn,Cedar Rapids,1005,1005 01005 #1005,4601 1St Ave SE,IA,52402
Dress Barn,Baltimore,1007,1007 01007 #1007,8200 Perry Hall Road,MD,21236
Dress Barn,Omaha,1009,1009 01009 #1009,6336 N. 73Rd Plaza,NE,68122
Dress Barn,Stillwater,1010,1010 01010 #1010,2060 Perkins Rd,OK,74075
Dress Barn,Fredericksburg,1011,1011 01011 #1011,9763 Jefferson Davis Hwy,VA,22407
Dress Barn,Vancouver,1012,1012 01012 #1012,16511 S.E Mill Plain Rd,WA,98684
Dress Barn,Tucson,1013,1013 01013 #1013,9650 E.22Nd Street,AZ,85748
Dress Barn,Pinellas Park,1015,1015 01015 #1015,7170 Us Highway 19 North,FL,33781
Dress Barn,Lafayette,1016,1016 01016 #1016,200 South Creasy Lane,IN,47905
Dress Barn,Altoona,1017,1017 01017 #1017,160 Falon Lane,PA,16602
Dress Barn,Pittsburgh,1018,1018 01018 #1018,140 Quinn Drive,PA,15275
Dress Barn,York,1019,1019 01019 #1019,1249 Carlisle Rd,PA,17404
Dress Barn,Brownsville,1020,1020 01020 #1020,421 East Morrison Rd,TX,78526
Dress Barn,W Des Moines,1023,1023 01023 #1023,4100 University Ave,IA,50266
Dress Barn,Eau Claire,1024,1024 01024 #1024,4800 Golf Road,WI,54701
Dress Barn,Quincy,1025,1025 01025 #1025,3347 Broadway,IL,62301
Dress Barn,Portage,1026,1026 01026 #1026,6650 South Westnedge Ave,MI,49024
Dress Barn,Alabaster,1027,1027 01027 #1027,320 Colonial Promenade Pkway,AL,35007-3112
Dress Barn,Bismarck,1028,1028 01028 #1028,929 West Interstate Ave,ND,58503
Dress Barn,Sioux Falls,1029,1029 01029 #1029,2814 S Louise Ave,SD,57106
Dress Barn,Austin,1030,1030 01030 #1030,10515 N Mopac Expy,TX,78759
Dress Barn,Papillion,1032,1032 01032 #1032,7721 Towne Center Parkway,NE,68046
Dress Barn,Waldorf,1033,1033 01033 #1033,3021 Waldorf Market Place,MD,20603
Dress Barn,Concord,1034,1034 01034 #1034,6330 Bayfield Parkway,NC,28027
Dress Barn,Peoria,1035,1035 01035 #1035,24650 N. Lake Pleasant Pkwy.,AZ,85383
Dress Barn,Tempe,1036,1036 01036 #1036,55 S Mcclintock Rd,AZ,85281
Dress Barn,Mira Loma,1037,1037 01037 #1037,12327 Limonite Ave,CA,91752
Dress Barn,Royal Palm Beach,1038,1038 01038 #1038,11041 Southern Blvd,FL,33411
Dress Barn,Oswego,1039,1039 01039 #1039,1682 Douglas Rd,IL,60543
Dress Barn,Green Oak Twp,1040,1040 01040 #1040,9850 Village Place,MI,48116
Dress Barn,Rosenberg,1043,1043 01043 #1043,24006 Commercial Drive,TX,77471
Dress Barn,Aurora,1045,1045 01045 #1045,18845 North Marketplace Dr,OH,44202
Dress Barn,Greensboro,1047,1047 01047 #1047,1612 Highwoods Blvd,NC,27401
Dress Barn,Charlotte,1048,1048 01048 #1048,14151 Steele Creek Rd,NC,28273
Dress Barn,Davie,1050,1050 01050 #1050,1978 S University Drive,FL,33324
Dress Barn,Waynesboro,1051,1051 01051 #1051,831B Town Center Dr,VA,22980
Dress Barn,Greeley,1052,1052 01052 #1052,4530 Center Place Dr,CO,80634
Dress Barn,Henrietta,1053,1053 01053 #1053,720 Jefferson Rd,NY,14623
Dress Barn,Norman,1054,1054 01054 #1054,1510 24Th Avenue Northwest,OK,73069
Dress Barn,San Antonio,1055,1055 01055 #1055,17802 Lacantera Parkway,TX,78257
Dress Barn,Riverdale,1056,1056 01056 #1056,4209 S Riverdale Rd,UT,84405
Dress Barn,Chesterfield Township,1057,1057 01057 #1057,50439 Waterside Drive,MI,48051
Dress Barn,Cape Coral,1058,1058 01058 #1058,519 S.W.Pine Island Rd,FL,33993
Dress Barn,Winter Garden,1060,1060 01060 #1060,3179 Daniels Rd,FL,34787
Dress Barn,Orlando,1061,1061 01061 #1061,4967 International Dr,FL,32819
Dress Barn,Moreno Valley,1062,1062 01062 #1062,27180 Eucalyptus Ave,CA,92555
Dress Barn,Ammon,1063,1063 01063 #1063,3019 South 25Th East,ID,83406
Dress Barn,Pt St Lucie,1064,1064 01064 #1064,10748 Sw Village Parkway,FL,34987
Dress Barn,Canutillo,1065,1065 01065 #1065,7051 South Desert Blvd.,TX,79835
Dress Barn,Portland,1066,1066 01066 #1066,9963 Ne Cascades Parkway,OR,97220
Dress Barn,Carmel,1067,1067 01067 #1067,1874 Route 6,NY,10512
Dress Barn,Tukwila,1068,1068 01068 #1068,17250 Southcenter Parkway,WA,98188
Dress Barn,Mayfield Heights,1070,1070 01070 #1070,1546 Golden Gate Plaza,OH,44124
Dress Barn,Scarsdale,1071,1071 01071 #1071,913A Central Park Ave.,NY,10583
Dress Barn,Kingsport,1072,1072 01072 #1072,2626 East Stone Drive,TN,37660
Dress Barn,Tupelo,1073,1073 01073 #1073,921 Kings Crossing Drive,MS,38804
Dress Barn,Collierville,1074,1074 01074 #1074,10263 East Shelby Drive,TN,38017
Dress Barn,Noblesville,1075,1075 01075 #1075,14002 Hoard Dr,IN,46060
Dress Barn,Las Vegas,1076,1076 01076 #1076,7285 Arroyo Crossing Parkway,NV,89113
Dress Barn,Canton,1077,1077 01077 #1077,47220 Michigan Ave,MI,48188
Dress Barn,Sebring,1078,1078 01078 #1078,1736 Us 27 North,FL,33870
Dress Barn,Corvallis,1079,1079 01079 #1079,1550 Northwest 9Th St,OR,97330
Dress Barn,Pottstown,1080,1080 01080 #1080,18 Lightcap Road,PA,19464
Dress Barn,Salt Lake City,1081,1081 01081 #1081,1200 East Brickyard Road,UT,84106
Dress Barn,Apple Valley,1082,1082 01082 #1082,19105 Bear Valley Road,CA,92308
Dress Barn,Oxford,1083,1083 01083 #1083,1300 Oxford Exchange Blvd,AL,36203
Dress Barn,San Antonio,1084,1084 01084 #1084,23014 Us Highway 281 North,TX,78258
Dress Barn,Knoxville,1085,1085 01085 #1085,5415 Washington Pike,TN,37918
Dress Barn,Midlothian,1087,1087 01087 #1087,177 Perimeter Dr,VA,23113
Dress Barn,Richmond,1088,1088 01088 #1088,2043 Lantern Ridge Dr,KY,40475
Dress Barn,Florence,1089,1089 01089 #1089,1945 West Palmetto Ave,SC,29501
Dress Barn,Bristol,1090,1090 01090 #1090,16620 Highlands Ctr Blvd,VA,24202
Dress Barn,Akron,1091,1091 01091 #1091,3891 Medina Road,OH,44333
Dress Barn,San Marcos,1093,1093 01093 #1093,3939 Interstate 35 S,TX,78666
Dress Barn,Logan,1094,1094 01094 #1094,1475 North Main St,UT,84341
Dress Barn,Alameda,1095,1095 01095 #1095,2298A South Shore Center,CA,94501
Dress Barn,Humble,1096,1096 01096 #1096,7015 Fm 1960 East,TX,77346
Dress Barn,Clarence,1097,1097 01097 #1097,5043 Transit Rd,NY,14221
Dress Barn,Spring Hill,1098,1098 01098 #1098,1028 Crossings Blvd,TN,37174
Dress Barn,Grand Junction,1099,1099 01099 #1099,632 Market St,CO,81505
Dress Barn,Branson,1100,1100 01100 #1100,1013 Branson Hills Pkwy,MO,65616
Dress Barn,Richmond,1101,1101 01101 #1101,4501 S Labrnum Ave,VA,23231
Dress Barn,Council Bluffs,1102,1102 01102 #1102,3706 Metro Drive,IA,51501
Dress Barn,Tulsa,1103,1103 01103 #1103,7418 South Olympia Ave West,OK,74132
Dress Barn,Santa Clarita,1104,1104 01104 #1104,19269 Golden Valley Rd,CA,91387
Dress Barn,Ft Collins,1105,1105 01105 #1105,2912 Council Tree Ave,CO,80525
Dress Barn,Ft Smith,1106,1106 01106 #1106,3935 Phoenix Ave,AR,72903
Dress Barn,Derby,1107,1107 01107 #1107,1936 North Rock Rd,KS,67037
Dress Barn,Ft Worth,1108,1108 01108 #1108,9530 Sage Meadow Trail,TX,76177
Dress Barn,Triadelphia,1110,1110 01110 #1110,574 Cabela Drive,WV,26059
Dress Barn,Washington,1111,1111 01111 #1111,2200 Tanger Blvd,PA,15301
Dress Barn,Staten Island,1112,1112 01112 #1112,2935 Veterans Road West,NY,10309
Dress Barn,Glen Mills,1113,1113 01113 #1113,301 Town Center Drive,PA,19342
Dress Barn,Atwater,1114,1114 01114 #1114,1100 Commerce Ave,CA,95301
Dress Barn,Mercedes,1115,1115 01115 #1115,5001 East Expressway 83,TX,78570
Dress Barn,Rapid City,1118,1118 01118 #1118,1641 Eglin St,SD,57701
Dress Barn,Lafayette,1119,1119 01119 #1119,3001 Louisiana Ave,LA,70501
Dress Barn,O'Fallon,1120,1120 01120 #1120,2128 Highway K,MO,63368
Dress Barn,Branson,1121,1121 01121 #1121,300 Tanger Blvd,MO,65616
Dress Barn,Kansas City,1123,1123 01123 #1123,9050 Nw Skyview Ave,MO,64154
Dress Barn,Plattsburgh,1124,1124 01124 #1124,60 Smithfield Blvd,NY,12901
Dress Barn,Rogers,1125,1125 01125 #1125,2203 Promenade Blvd,AR,72758
Dress Barn,Farragut,1127,1127 01127 #1127,11443 Parkside Drive,TN,37934
Dress Barn,Ft Wayne,1128,1128 01128 #1128,1034 Thomas Rd,IN,46804
Dress Barn,Murfreesboro,1129,1129 01129 #1129,2615 Medical Center Parkway,TN,37129
Dress Barn,New Braunfels,1130,1130 01130 #1130,255 Creekside Way,TX,78130
Dress Barn,Spokane,1131,1131 01131 #1131,4727 North Division St,WA,99207-1403
Dress Barn,Cheyenne,1132,1132 01132 #1132,5116 Frontier Mall Drive,WY,82009
Dress Barn,Pelham,1133,1133 01133 #1133,853 Pelham Parkway,NY,10803
Dress Barn,Houston,1134,1134 01134 #1134,5820 E Sam Houston Parkway North,TX,77049
Dress Barn,D'Iberville,1135,1135 01135 #1135,3944 Promenade Pkwy,MS,39540
Dress Barn,Duluth,1136,1136 01136 #1136,1600 Miller Trunk Highway,MN,55811
Dress Barn,Pismo Beach,1137,1137 01137 #1137,333 Five Cities Drive,CA,93449
Dress Barn,Macon,1138,1138 01138 #1138,5080 Riverside Drive,GA,31210
Dress Barn,Monroe,1139,1139 01139 #1139,406 Premium Outlet Drive,OH,45050-1820
Dress Barn,Manteca,1140,1140 01140 #1140,2250 Daniels Street,CA,95337
Dress Barn,Hickory,1141,1141 01141 #1141,2185 Us Highway 70Se,NC,28602
Dress Barn,Jefferson City,1142,1142 01142 #1142,3535 Missouri Blvd,MO,65109
Dress Barn,Minot,1143,1143 01143 #1143,2400 10Th St Sw,ND,58701
Dress Barn,Corona,1144,1144 01144 #1144,3347 Grand Oaks,CA,92881
Dress Barn,Thousand Oaks,1145,1145 01145 #1145,275 N. Moorpark Rd,CA,91360
Dress Barn,Chandler,1148,1148 01148 #1148,4976 Premium Outlets Way,AZ,85226
Dress Barn,Lee'S Summit,1149,1149 01149 #1149,840 N.W. Blue Parkway,MO,64086
Dress Barn,Washington,1150,1150 01150 #1150,1300 F Street Nw,DC,20004
Dress Barn,Myrtle Beach,1151,1151 01151 #1151,2000 Coastal Grand Circle,SC,29577
Dress Barn,Grand Island,1152,1152 01152 #1152,3420 West State Street,NE,68803
Dress Barn,Leeds,1153,1153 01153 #1153,"6200 Grand River Blvd, East",AL,35094
Dress Barn,Houston,1154,1154 01154 #1154,13256 Northwest Freeway,TX,77040
Dress Barn,Lincoln,1155,1155 01155 #1155,"3 Gateway, Space 100",NE,68505
Dress Barn,Strongsville,1156,1156 01156 #1156,500 Southpark Center,OH,44136
Dress Barn,Parkersburg,1157,1157 01157 #1157,100 Grand Central Ave,WV,26105
Dress Barn,North Olmsted,1159,1159 01159 #1159,4954 Great Northern Mall,OH,44070
Dress Barn,Rockwall,1160,1160 01160 #1160,1023 East I.H. 30,TX,75087
Dress Barn,Syracuse,1162,1162 01162 #1162,3581 West Genesee St,NY,13219
Dress Barn,St Cloud,1163,1163 01163 #1163,4201 West Division St,MN,56301
Dress Barn,Springfield,1164,1164 01164 #1164,400 South State Rd,PA,19064
Dress Barn,Wheaton,1165,1165 01165 #1165,86 Danada Square West St,IL,60189
Dress Barn,Auburn Hills,1166,1166 01166 #1166,4560 Baldwin Road,MI,48326
Dress Barn,Oklahoma City,1167,1167 01167 #1167,7642 West Reno Ave,OK,73127
Dress Barn,Frankfort,1168,1168 01168 #1168,7000 John Davis Dr,KY,40601
Dress Barn,Morrisville,1169,1169 01169 #1169,3009 Market Center Drive,NC,27560
Dress Barn,Waterloo,1171,1171 01171 #1171,1419 Flammang Road,IA,50702
Dress Barn,Saginaw,1172,1172 01172 #1172,4787 Fashion Square Mall,MI,48604
Dress Barn,Woodhaven,1173,1173 01173 #1173,19247 West Road,MI,48183
Dress Barn,Burnsville,1174,1174 01174 #1174,2067 Burnsville Center,MN,55306
Dress Barn,Madison,1175,1175 01175 #1175,141 East Towne Mall,WI,53704
Dress Barn,Sarasota,1176,1176 01176 #1176,125 North Cattlemen Road,FL,34243
Dress Barn,Billings,1177,1177 01177 #1177,300 S 24Th Street West,MT,59102
Dress Barn,Wentzville,1178,1178 01178 #1178,1259 West Pearce Blvd,MO,63385
Dress Barn,Brooklyn,1180,1180 01180 #1180,1100-1144 Kings Highway,NY,11229
Dress Barn,Chattanooga,1181,1181 01181 #1181,2100 Hamilton Place Blvd,TN,37421
Dress Barn,Roseville,1183,1183 01183 #1183,1240 Galleria Blvd,CA,95678
Dress Barn,Hollywood,1184,1184 01184 #1184,5156 Sheridan Plaza,FL,33021
Dress Barn,Novi,1185,1185 01185 #1185,43193 Cresent Blvd,MI,48375
Dress Barn,Manhattan,1188,1188 01188 #1188,Highway 24,KS,66502
Dress Barn,Champaign,1189,1189 01189 #1189,1901 N Market Street,IL,61822
Dress Barn,Fresno,1190,1190 01190 #1190,7560 N Blackstone Ave,CA,93720
Dress Barn,Kansas City,1191,1191 01191 #1191,1829 Village West Parkway,KS,66111
Dress Barn,Syracuse,1192,1192 01192 #1192,306 Hiawattha Blvd W,NY,13204
Dress Barn,Centereach,1193,1193 01193 #1193,217 Middle Country Road,NY,11720
Dress Barn,Philadelphia,1195,1195 01195 #1195,2300 W Oregon Ave,PA,19145
Dress Barn,Fenton,1196,1196 01196 #1196,185 Gravois Bluffs Plaza Dr,MO,63026
Dress Barn,Bethlehem,1197,1197 01197 #1197,77 Sands Blvd,PA,18015
Dress Barn,Vernon Hills,1198,1198 01198 #1198,122 Hawthorn Center,IL,60061
Dress Barn,Orlando,1199,1199 01199 #1199,15629 State Rd 535,FL,32821-6316
Dress Barn,Glendale,1200,1200 01200 #1200,6800 N 95Th Ave,AZ,85305
Dress Barn,Des Peres,1201,1201 01201 #1201,80 West County Center,MO,63131
Dress Barn,Blue Springs,1202,1202 01202 #1202,1342 Ne Coronado Suite,MO,64014
Dress Barn,Marietta,1203,1203 01203 #1203,4101 Roswell Rd,GA,30062
Dress Barn,Willamsburg,1204,1204 01204 #1204,5225 Settler Market Blvd,VA,23188
Dress Barn,Rochester Hills,1207,1207 01207 #1207,2867 S Rochester Road,MI,48307
Dress Barn,Wichita,1208,1208 01208 #1208,8143 E Kellogg Dr,KS,67207
Dress Barn,Denver,1209,1209 01209 #1209,2540 S Colorado Blvd,CO,80222
Dress Barn,Bronx,1210,1210 01210 #1210,2129-2139 White Plains Road,NY,10462
Dress Barn,Grand Forks,1211,1211 01211 #1211,2800 Columbia Road,ND,58201
Dress Barn,Hilliard,1212,1212 01212 #1212,1888 Hilliard Rome Road,OH,43026
Dress Barn,Greensburg,1213,1213 01213 #1213,5256 Route 30,PA,15601
Dress Barn,Layton,1214,1214 01214 #1214,2155 N Harris Blvd,UT,84041
Dress Barn,Dayton,1215,1215 01215 #1215,2700 Miamisburg Centerville Road,OH,45459
Dress Barn,Durham,1216,1216 01216 #1216,1058  West Club Blvd,NC,27701
Dress Barn,Texas City,1217,1217 01217 #1217,5885 Gulf Freeway,TX,77591
Dress Barn,Columbia,1218,1218 01218 #1218,661-1 Promenade Place,SC,29229
Dress Barn,Pensacola,1219,1219 01219 #1219,5100 North 9Th Ave,FL,32504
Dress Barn,Casper,1220,1220 01220 #1220,475 Newport Road,WY,82609
Dress Barn,Terre Haute,1221,1221 01221 #1221,3401 S Route 41,IN,47802
Dress Barn,Wichita Falls,1223,1223 01223 #1223,3201 Lawrence Road,TX,76308
Dress Barn,Tulsa,1224,1224 01224 #1224,11007 East 71St,OK,74133
Dress Barn,Huntington,1226,1226 01226 #1226,350 Walt Whitman Rd,NY,11746
Dress Barn,Citrus Heights,1227,1227 01227 #1227,7953 Greenback Lane,CA,95611
Dress Barn,Fairview Park,1228,1228 01228 #1228,3160 Westgate Drive,OH,44126
Dress Barn,Lawton,1229,1229 01229 #1229,1906 Nw 82Nd Street,OK,73505
Dress Barn,Nanuet,1230,1230 01230 #1230,159 Rockland Plaza,NY,10954
Dress Barn,Bloomingdale,1231,1231 01231 #1231,364-250 W. Army Trail Road,IL,60108
Dress Barn,Lima,1232,1232 01232 #1232,2400 Elindra Rd,OH,45805
Dress Barn,Exton,1233,1233 01233 #1233,135 E Swedesford Rd,PA,19341
Dress Barn,Muncie,1234,1234 01234 #1234,3501 Granville Ave,IN,47303
Dress Barn,Boca Raton,1235,1235 01235 #1235,8903 Glades Road,FL,33434
Dress Barn,Schererville,1236,1236 01236 #1236,1525 Us Highway 41,IN,46375
Dress Barn,Clovis,1237,1237 01237 #1237,1245 Herndon Ave,CA,93612
Dress Barn,Fayetteville,1238,1238 01238 #1238,368 E Joyce Blvd,AR,72703
Dress Barn,Matthews,1239,1239 01239 #1239,10035 E Independence,NC,28105
Dress Barn,Detroit,1240,1240 01240 #1240,19181 Mack Ace,MI,48236
Dress Barn,Ocean City,1241,1241 01241 #1241,12641 Ocean Gateway,MD,21842
Dress Barn,Oceanside,1242,1242 01242 #1242,3539 Long Beach Road,NY,11572
Dress Barn,Atlanta,1243,1243 01243 #1243,"915 Ridgewalk, Parkway",GA,30188
Dress Barn,Gretna,1244,1244 01244 #1244,14333 Nebraska 31,NE,68028
Dress Barn,Pearl,1245,1245 01245 #1245,200 Bass Pro Dr,MS,39208
Dress Barn,Kennesaw,1246,1246 01246 #1246,425 Ernest Barrett Parkway,GA,30144
Dress Barn,Elizabethtown,1247,1247 01247 #1247,1970 N Dixie Highway,KY,42701
Dress Barn,Washington,1248,1248 01248 #1248,1936 Charlottes Way,MO,63090
Dress Barn,Timonium,1249,1249 01249 #1249,2143 A York Road,MD,21093
Dress Barn,Gretna,1250,1250 01250 #1250,197 Westbank Expressway,LA,70053
Dress Barn,Dover,1252,1252 01252 #1252,1033 North Dupont Highway,DE,19901
Dress Barn,Brandon,1256,1256 01256 #1256,2476 West Brandon Blvd,FL,33511
Dress Barn,Grand Rapids,1257,1257 01257 #1257,3535 28Th Street,MI,49512
Dress Barn,Brooklyn,1258,1258 01258 #1258,4780 Ridge Rd,OH,44144
Dress Barn,Lacrosse,1259,1259 01259 #1259,"3800 State Road, 16",WI,54601
Dress Barn,Missoula,1260,1260 01260 #1260,2901 Brooks St,MT,59801
Dress Barn,Tucson,1263,1263 01263 #1263,1193 W Irvington Rd,AZ,85714
Dress Barn,Mobile,1264,1264 01264 #1264,3201 Airport Blvd,AL,36606
Dress Barn,Centennial,1267,1267 01267 #1267,9595 East County Line Rd,CO,80112
Dress Barn,Castle Rock,1269,1269 01269 #1269,5050 Factory Shops Blvd,CO,80108
Dress Barn,Niagara Falls,1271,1271 01271 #1271,1888 Military Road,NY,14304
Dress Barn,Queens,2810,2810 02810 #2810,61-24 190Th Street,NY,11365
Dress Barn,Lincoln City,2814,2814 02814 #2814,1500 Se-East Devils Lake Road,OR,97367
Dress Barn,Smithfield,2815,2815 02815 #2815,1025 Industrial Park Drive,NC,27577
Dress Barn,Pigeon Forge,2816,2816 02816 #2816,2632 Teaster Lane,TN,37863
Dress Barn,Tannersville,2824,2824 02824 #2824,1000 Route 611,PA,18372
Dress Barn,Birch Run,2829,2829 02829 #2829,12365 South Beyer Road,MI,48415
Dress Barn,New Hyde Park,2837,2837 02837 #2837,1700 Lakeville Road,NY,11040
Dress Barn,Folsom,2860,2860 02860 #2860,13000 Folsom Boulevard,CA,95630
Dress Barn,Bala Cynwyd,2865,2865 02865 #2865,67 East City Line Avenue,PA,19004
Dress Barn,Lancaster,2883,2883 02883 #2883,35 South Willowdale Drive,PA,17602
Dress Barn,Troutdale,2906,2906 02906 #2906,450 Nw 257Th Drive Suite 208,OR,97060
Dress Barn,Bel Air,2912,2912 02912 #2912,5 Bel Air South Parkway,MD,21015
Dress Barn,Osage Beach,2936,2936 02936 #2936,4540 East Highway 54,MO,65065
Dress Barn,Wilmington,2938,2938 02938 #2938,3220 Kirkwood Highway,DE,19808
Dress Barn,Aspen Hill,2944,2944 02944 #2944,13617 Connecticut Ave,MD,20906
Dress Barn,Chesapeake,2945,2945 02945 #2945,1412 Greenbrier Parkway,VA,23320
Dress Barn,Myrtle Beach,2947,2947 02947 #2947,4630 Factory Stores Boulevard,SC,29579
Dress Barn,Port Chester,2948,2948 02948 #2948,509 Boston Post Road,NY,10573
Dress Barn,Bellevue,2951,2951 02951 #2951,15600 Ne 8Th St,WA,98008
Dress Barn,Norwalk,2,2 02 #2,574 Main Avenue,CT,6851
Dress Barn,Danbury,8,8 08 #8,132 Federal Road,CT,6811
Dress Barn,Avon,9,9 09 #9,20 C Stockwell Drive,MA,2322
Dress Barn,Branford,10,10 010 #10,945 West Main Street,CT,6405
Dress Barn,West Orange,15,15 015 #15,495 Prospect Avenue,NJ,7052
Dress Barn,Rocky Hill,16,16 016 #16,38 Town Line Road,CT,6067
Dress Barn,Paramus,22,22 022 #22,162 West Route 4 Eastbound,NJ,7652
Dress Barn,West Hartford,29,29 029 #29,1473 New Britain Avenue,CT,6110
Dress Barn,Orange,44,44 044 #44,220 Indian River Road,CT,6477
Dress Barn,North Hampton,46,46 046 #46,45 Lafayette Road/Us Rt 1,NH,3862
Dress Barn,Shelton,48,48 048 #48,874 Bridgeport Avenue,CT,6484
Dress Barn,Westwood,56,56 056 #56,700-70 Broadway,NJ,7675
Dress Barn,Dedham,66,66 066 #66,765 Providence Turnpike,MA,2026
Dress Barn,Kittery,74,74 074 #74,345 U.S. Route 1,ME,3904
Dress Barn,Howell,81,81 081 #81,4747 Route 9 North,NJ,7731
Dress Barn,Cherry Hill,123,123 0123 #123,1606 North Kings Highway,NJ,8034
Dress Barn,Hamilton Township,127,127 0127 #127,1013 White Horse Avenue,NJ,8610
Dress Barn,Everett,144,144 0144 #144,16 Mystic View Rd,MA,2149
Dress Barn,Seekonk,173,173 0173 #173,31 Commerce Way,MA,2771
Dress Barn,Trumbull,179,179 0179 #179,100 Hawley Lane,CT,6611
Dress Barn,Tewksbury,227,227 0227 #227,10 Main Street,MA,1876
Dress Barn,Clifton,230,230 0230 #230,525 Piaget Avenue,NJ,7011
Dress Barn,Wallingford,232,232 0232 #232,932 North Colony Road,CT,6492
Dress Barn,Westbrook,240,240 0240 #240,314 Flat Rock Place,CT,6498
Dress Barn,Somerset,257,257 0257 #257,940 Easton Avenue,NJ,8873
Dress Barn,Atlantic City,260,260 0260 #260,108 North Michigan Ave,NJ,8401
Dress Barn,Ramsey,279,279 0279 #279,Franklin Turnpike & Route 17 South,NJ,7446
Dress Barn,Tilton,286,286 0286 #286,120 Laconia Road,NH,3276
Dress Barn,Elizabeth,287,287 0287 #287,651 Kapowski Road,NJ,7201
Dress Barn,Lee,303,303 0303 #303,420 Premium Outlet Blvd.,MA,1238
Dress Barn,Matawan,305,305 0305 #305,351-H Route 34,NJ,7747
Dress Barn,Beverly,316,316 0316 #316,37 Dodge Street,MA,1915
Dress Barn,Westerly,319,319 0319 #319,100 G2 Franklin Street,RI,2891
Dress Barn,Manchester,328,328 0328 #328,68 March Avenue,NH,3103
Dress Barn,North Conway,332,332 0332 #332,Route 16,NH,3860
Dress Barn,Toms River,334,334 0334 #334,1366 Hooper Avenue,NJ,8753
Dress Barn,Warwick,359,359 0359 #359,399 Bald Hill Road,RI,2886
Dress Barn,Franklin,362,362 0362 #362,155 Franklin Village Drive,MA,2038
Dress Barn,Raynham,373,373 0373 #373,266 Route 44,MA,2767
Dress Barn,Wayne,379,379 0379 #379,"Preakness Shopping Center, Hamburg Turnpike",NJ,7470
Dress Barn,West Springfield,385,385 0385 #385,935 Riverdale Street,MA,1089
Dress Barn,Mt Laurel,388,388 0388 #388,18 Centerton Road,NJ,8054
Dress Barn,Shrewsbury,392,392 0392 #392,50 Boston Turnpike,MA,1545
Dress Barn,Wrentham,397,397 0397 #397,1 Premium Outlets Boulevard,MA,2093
Dress Barn,Florham Park,418,418 0418 #418,176 Columbia Turnpike,NJ,7932
Dress Barn,East Windsor,422,422 0422 #422,319 Route 130,NJ,8520
Dress Barn,Quincy,429,429 0429 #429,100 Granite Street,MA,2169
Dress Barn,Stoneham,435,435 0435 #435,99 Main Street,MA,2180
Dress Barn,Waltham,452,452 0452 #452,1088 Lexington Street,MA,2452
Dress Barn,South Dennis,454,454 0454 #454,"516 Route 134, Box 5",MA,2660
Dress Barn,Southbury,475,475 0475 #475,100 Main Street North,CT,6488
Dress Barn,Nashua,486,486 0486 #486,375 Amherst Street Route 101A,NH,3063
Dress Barn,N.Dartmouth,494,494 0494 #494,375 Faunce Corner Road,MA,2747
Dress Barn,Deptford,522,522 0522 #522,1500 Al Monesson Road,NJ,8096
Dress Barn,Springfield,525,525 0525 #525,354 A Cooley Street,MA,1128
Dress Barn,Westfield,535,535 0535 #535,425-429 East Main Street,MA,1085
Dress Barn,Succasunna,538,538 0538 #538,275-360 Route 10 East,NJ,7876
Dress Barn,Norwich,542,542 0542 #542,42 Town Street,CT,6360
Dress Barn,Parsippany,549,549 0549 #549,3077 Route 46,NJ,7054
Dress Barn,Watchung,572,572 0572 #572,Route 22 West,NJ,7060
Dress Barn,Cheshire,577,577 0577 #577,193 Highland Avenue,CT,6410
Dress Barn,Natick,584,584 0584 #584,1300 Worcester Road,MA,1760
Dress Barn,No. Attleboro,594,594 0594 #594,1250 S. Washington Street,MA,2760
Dress Barn,Clifton,599,599 0599 #599,1065 Bloomfield Ave,NJ,7012
Dress Barn,Newport,604,604 0604 #604,199 Connel Highway,RI,2840
Dress Barn,Lebanon,605,605 0605 #605,"Evergreen Parkway, Suite 114",MO,65536
Dress Barn,Paramus,629,629 0629 #629,Route 4 East,NJ,7652
Dress Barn,Flemington,660,660 0660 #660,276 Us Highway 202 & 31,NJ,8822
Dress Barn,Hamden,665,665 0665 #665,2100 Dixwell Avenue,CT,6514
Dress Barn,Bristol,681,681 0681 #681,683 Farmington Avenue,CT,6010
Dress Barn,Union,682,682 0682 #682,1745 Route 22 & Morris Avenue,NJ,7083
Dress Barn,Middletown,690,690 0690 #690,848 Washington Street,CT,6457
Dress Barn,Kearny,692,692 0692 #692,270 Passaic Avenue,NJ,7032
Dress Barn,Leominster,695,695 0695 #695,70 Watertower Place,MA,1453
Dress Barn,Burlington,697,697 0697 #697,555 Shelburne Road,VT,5401
Dress Barn,Brattleboro,703,703 0703 #703,580 Canal Street,VT,5301
Dress Barn,Garwood,705,705 0705 #705,300 South Avenue,NJ,7027
Dress Barn,Plainville,726,726 0726 #726,275 New Britain Avenue,CT,6062
Dress Barn,Bridgewater,737,737 0737 #737,333 Us Route 202-206,NJ,8807
Dress Barn,Linden,757,757 0757 #757,1601 West Edger Road,NJ,7036
Dress Barn,Manchester,758,758 0758 #758,1500 Pleasant Valley Road,CT,6042
Dress Barn,Lincoln,761,761 0761 #761,622 George Washington Hwy,RI,2865
Dress Barn,Edgewater,851,851 0851 #851,513 River Road,NJ,7020
Dress Barn,Wall,869,869 0869 #869,1933 State Highway,NJ,7719
Dress Barn,Hackensack,896,896 0896 #896,380 West Pleasantview Avenue,NJ,7601
Dress Barn,Sturbridge,1006,1006 01006 #1006,100-120 Charlton Rd,MA,1566
Dress Barn,Bangor,1008,1008 01008 #1008,496 Stillwater Ave,ME,4401
Dress Barn,South Plainfield,1022,1022 01022 #1022,6303 Hadley Road,NJ,7080
Dress Barn,Millville,1041,1041 01041 #1041,2106 North 2Nd Street,NJ,8332
Dress Barn,Biddeford,1044,1044 01044 #1044,113 Shops Way,ME,4005
Dress Barn,So Portland,1046,1046 01046 #1046,198 Main Mall Road,ME,4106
Dress Barn,Dayville,1109,1109 01109 #1109,2123 Killingly Commons Dr,CT,6241
Dress Barn,Torrington,1126,1126 01126 #1126,59 South Main St,CT,6790
Dress Barn,Stamford,1146,1146 01146 #1146,2165 Summer Street,CT,6905
Dress Barn,Enfield,1147,1147 01147 #1147,24 Hazard Ave.,CT,6082
Dress Barn,Wareham,1158,1158 01158 #1158,2421 Cranberry Highway,MA,2571
Dress Barn,Augusta,1161,1161 01161 #1161,14 Stephen King Drive,ME,4330
Dress Barn,Northborough,1170,1170 01170 #1170,9110 Shops Way,MA,1532
Dress Barn,Epping,1179,1179 01179 #1179,24 Calef Highway,NH,3042
Dress Barn,Turnersville,1182,1182 01182 #1182,3501 Rte 42,NJ,8012
Dress Barn,Mays Landing,1186,1186 01186 #1186,170 Hamilton Commons,NJ,8330
Dress Barn,Rockaway,1194,1194 01194 #1194,301 Mt Hope Ave,NJ,7866
Dress Barn,Nashua,1205,1205 01205 #1205,261 Daniel Webster Highway,NH,3060
Dress Barn,Waterford,1206,1206 01206 #1206,850 Hartford Turnpike,CT,6385
Dress Barn,Loveland,1222,1222 01222 #1222,"Outlets At Loveland, Space A140",CO,80538
Dress Barn,Norwell,1225,1225 01225 #1225,10 Washington Street,MA,2061
Dress Barn,Somersworth,1253,1253 01253 #1253,172 Tri City Plaza,NH,3878
Dress Barn,Concord,1270,1270 01270 #1270,270 Loudon Rd,NH,3301
Dress Barn,Wayne,2802,2802 02802 #2802,"Preakness Shopping Center, Hamburg Turnpike",NJ,7470
Dress Barn,Hamilton Township,2826,2826 02826 #2826,1029 White Horse Avenue,NJ,8610
Dress Barn,Kittery,2847,2847 02847 #2847,345 U.S. Route 1,ME,3904
Dress Barn,Parsippany,2870,2870 02870 #2870,3085 Route 46,NJ,7054
Dress Barn,Shelton,2887,2887 02887 #2887,876 Bridgeport Avenue,CT,6484
