keywords,city,Aggdata Store Number,store_number,address,state,zip_code
Family Christian,DAYTONA BEACH,14,CHR#14 CHR#140014X CHR#1400014X CHR#14000014X CHR#140014XMOBILE,2286 W INTERNATIONAL SPEEDWAY,FL,32114-1124
Family Christian,WEST MELBOURNE,15,CHR#15 CHR#150015X CHR#1500015X CHR#15000015X CHR#150015XMOBILE,"205 PALM BAY ROAD NE, Suite 137",FL,32904-8612
Family Christian,FLINT,25,CHR#25 CHR#250025X CHR#2500025X CHR#25000025X CHR#250025XMOBILE,G3577 MILLER RD STE 5,MI,48507-1272
Family Christian,LOMBARD,26,CHR#26 CHR#260026X CHR#2600026X CHR#26000026X CHR#260026XMOBILE,2820C S HIGHLAND AVE,IL,60148-7140
Family Christian,NAPERVILLE,28,CHR#28 CHR#280028X CHR#2800028X CHR#28000028X CHR#280028XMOBILE,936 S STATE RTE 59,IL,60540-9530
Family Christian,ELK GROVE VILLAGE,31,CHR#31 CHR#310031X CHR#3100031X CHR#31000031X CHR#310031XMOBILE,855 MEACHAM RD,IL,60007-3073
Family Christian,MONROEVILLE,38,CHR#38 CHR#380038X CHR#3800038X CHR#38000038X CHR#380038XMOBILE,3747 WILLIAM PENN HWY SPACE R,PA,15146-2125
Family Christian,BEAVERCREEK,41,CHR#41 CHR#410041X CHR#4100041X CHR#41000041X CHR#410041XMOBILE,2742 N FAIRFIELD RD,OH,45431-1779
Family Christian,LEXINGTON,43,CHR#43 CHR#430043X CHR#4300043X CHR#43000043X CHR#430043XMOBILE,127 W TIVERTON WAY STE 128,KY,40503-4488
Family Christian,SAGINAW,45,CHR#45 CHR#450045X CHR#4500045X CHR#45000045X CHR#450045XMOBILE,4721 BAY RD,MI,48604-2527
Family Christian,MIAMI,46,CHR#46 CHR#460046X CHR#4600046X CHR#46000046X CHR#460046XMOBILE,7710 N KENDALL DR,FL,33156-7523
Family Christian,SOUTH BEND,47,CHR#47 CHR#470047X CHR#4700047X CHR#47000047X CHR#470047XMOBILE,1290 E IRELAND RD STE 500,IN,46614-3462
Family Christian,PARKERSBURG,48,CHR#48 CHR#480048X CHR#4800048X CHR#48000048X CHR#480048XMOBILE,204 LAKEVIEW CENTER STE 9,WV,26101-1053
Family Christian,MADISON,49,CHR#49 CHR#490049X CHR#4900049X CHR#49000049X CHR#490049XMOBILE,1746 EAGAN RD,WI,53704-3748
Family Christian,MIAMISBURG,50,CHR#50 CHR#500050X CHR#5000050X CHR#50000050X CHR#500050XMOBILE,1 PRESTIGE PLAZA,OH,45342-3767
Family Christian,MATTESON,51,CHR#51 CHR#510051X CHR#5100051X CHR#51000051X CHR#510051XMOBILE,4559 LINCOLN HWY,IL,60443-2318
Family Christian,ST LOUIS,53,CHR#53 CHR#530053X CHR#5300053X CHR#53000053X CHR#530053XMOBILE,10807 W FLORISSANT AVE,MO,63136-2405
Family Christian,BARTLETT,54,CHR#54 CHR#540054X CHR#5400054X CHR#54000054X CHR#540054XMOBILE,6025 STAGE RD STE 36,TN,38134-8313
Family Christian,STERLING HEIGHTS,57,CHR#57 CHR#570057X CHR#5700057X CHR#57000057X CHR#570057XMOBILE,44943 SCHOENHERR RD,MI,48313-1141
Family Christian,MERRILLVILLE,62,CHR#62 CHR#620062X CHR#6200062X CHR#62000062X CHR#620062XMOBILE,1932 EAST 80TH,IN,46410-5735
Family Christian,WINSTON-SALEM,66,CHR#66 CHR#660066X CHR#6600066X CHR#66000066X CHR#660066XMOBILE,1608 S STRATFORD RD STE  612B,NC,27103-2924
Family Christian,CHESTERFIELD,68,CHR#68 CHR#680068X CHR#6800068X CHR#68000068X CHR#680068XMOBILE,74 THF BLVD,MO,63005-1150
Family Christian,COLUMBIA,74,CHR#74 CHR#740074X CHR#7400074X CHR#74000074X CHR#740074XMOBILE,715 FASHION DR STE 6,SC,29229
Family Christian,LOUISVILLE,77,CHR#77 CHR#770077X CHR#7700077X CHR#77000077X CHR#770077XMOBILE,4649 OUTER LOOP,KY,40219-3970
Family Christian,INDIANAPOLIS,78,CHR#78 CHR#780078X CHR#7800078X CHR#78000078X CHR#780078XMOBILE,9985 E WASHINGTON ST,IN,46229-3039
Family Christian,CINCINNATI,82,CHR#82 CHR#820082X CHR#8200082X CHR#82000082X CHR#820082XMOBILE,4530 EASTGATE BLVD,OH,45245-1256
Family Christian,OLYMPIA,83,CHR#83 CHR#830083X CHR#8300083X CHR#83000083X CHR#830083XMOBILE,3315 PACIFIC AVE SE STE B2,WA,98501-2171
Family Christian,WEST DES MOINES,85,CHR#85 CHR#850085X CHR#8500085X CHR#85000085X CHR#850085XMOBILE,7105 MILLS CIVIC PKWY STE 160,IA,50266-8023
Family Christian,WEST MIFFLIN,87,CHR#87 CHR#870087X CHR#8700087X CHR#87000087X CHR#870087XMOBILE,2365 MOUNTAIN VIEW DR,PA,15122-2435
Family Christian,WACO,89,CHR#89 CHR#890089X CHR#8900089X CHR#89000089X CHR#890089XMOBILE,105 S NEW RD,TX,76710-6984
Family Christian,FORT WAYNE,90,CHR#90 CHR#900090X CHR#9000090X CHR#90000090X CHR#900090XMOBILE,5509 COLDWATER RD,IN,46825-5448
Family Christian,FREDERICKSBURG,93,CHR#93 CHR#930093X CHR#9300093X CHR#93000093X CHR#930093XMOBILE,1879 CARL D SILVER PKWY,VA,22401-4969
Family Christian,FRANKLIN,95,CHR#95 CHR#950095X CHR#9500095X CHR#95000095X CHR#950095XMOBILE,3461 TOWNE BLVD,OH,45005-5530
Family Christian,BOWLING GREEN,97,CHR#97 CHR#970097X CHR#9700097X CHR#97000097X CHR#970097XMOBILE,2425 SCOTTSVILLE RD STE 100,KY,42104-4457
Family Christian,DAVENPORT,98,CHR#98 CHR#980098X CHR#9800098X CHR#98000098X CHR#980098XMOBILE,102 E KIMBERLY RD,IA,52806-5922
Family Christian,ALTAMONTE SPRINGS,102,CHR#102 CHR#10200102X CHR#102000102X CHR#1020000102X CHR#10200102XMOBILE,515 E ALTAMONTE DR STE 7,FL,32701-4732
Family Christian,ROANOKE,105,CHR#105 CHR#10500105X CHR#105000105X CHR#1050000105X CHR#10500105XMOBILE,4365 STARKEY RD #5&6,VA,24018-0610
Family Christian,EVERETT,110,CHR#110 CHR#11000110X CHR#110000110X CHR#1100000110X CHR#11000110XMOBILE,811 SE EVERETT MALL WAY,WA,98208-3736
Family Christian,LANSING,111,CHR#111 CHR#11100111X CHR#111000111X CHR#1110000111X CHR#11100111XMOBILE,5132 S CEDAR ST,MI,48911-3801
Family Christian,AMARILLO,114,CHR#114 CHR#11400114X CHR#114000114X CHR#1140000114X CHR#11400114XMOBILE,7408 SW 34TH AVE,TX,79121-1408
Family Christian,GREENVILLE,115,CHR#115 CHR#11500115X CHR#115000115X CHR#1150000115X CHR#11500115XMOBILE,1451 WOODRUFF RD #20,SC,29607-5781
Family Christian,GAITHERSBURG,120,CHR#120 CHR#12000120X CHR#120000120X CHR#1200000120X CHR#12000120XMOBILE,18302 CONTOUR RD UNIT 3,MD,20877-2614
Family Christian,AUGUSTA,121,CHR#121 CHR#12100121X CHR#121000121X CHR#1210000121X CHR#12100121XMOBILE,204 ROBERT C DANIEL JR PKWY,GA,30909-0802
Family Christian,DURHAM,126,CHR#126 CHR#12600126X CHR#126000126X CHR#1260000126X CHR#12600126XMOBILE,1720 GUESS RD #85,NC,27701-1165
Family Christian,NOVI,127,CHR#127 CHR#12700127X CHR#127000127X CHR#1270000127X CHR#12700127XMOBILE,43520 WEST OAKS DR,MI,48377-3302
Family Christian,FLORENCE,132,CHR#132 CHR#13200132X CHR#132000132X CHR#1320000132X CHR#13200132XMOBILE,7901 MALL RD,KY,41042-1409
Family Christian,CHESAPEAKE,137,CHR#137 CHR#13700137X CHR#137000137X CHR#1370000137X CHR#13700137XMOBILE,4200 PORTSMOUTH BLVD,VA,23321-2135
Family Christian,RICHMOND,141,CHR#141 CHR#14100141X CHR#141000141X CHR#1410000141X CHR#14100141XMOBILE,11500 MIDLOTHIAN TURNPIKE,VA,23235-4761
Family Christian,PITTSBURGH,144,CHR#144 CHR#14400144X CHR#144000144X CHR#1440000144X CHR#14400144XMOBILE,1120 PARK MANOR STE 102,PA,15205-4801
Family Christian,NORTH CHARLESTON,145,CHR#145 CHR#14500145X CHR#145000145X CHR#1450000145X CHR#14500145XMOBILE,2150 NORTHWOODS BLVD.,SC,29406-4006
Family Christian,CINCINNATI,147,CHR#147 CHR#14700147X CHR#147000147X CHR#1470000147X CHR#14700147XMOBILE,9577 COLERAIN AVE STE 220,OH,45251-2005
Family Christian,MILWAUKEE,149,CHR#149 CHR#14900149X CHR#149000149X CHR#1490000149X CHR#14900149XMOBILE,8653 W BROWN DEER RD,WI,53224-2114
Family Christian,FAIRFIELD,153,CHR#153 CHR#15300153X CHR#153000153X CHR#1530000153X CHR#15300153XMOBILE,461 US ROUTE 46,NJ,07004-1911
Family Christian,SAVANNAH,154,CHR#154 CHR#15400154X CHR#154000154X CHR#1540000154X CHR#15400154XMOBILE,14045 ABERCORN ST STE 34,GA,31419-1960
Family Christian,MANASSAS,157,CHR#157 CHR#15700157X CHR#157000157X CHR#1570000157X CHR#15700157XMOBILE,10404 PORTSMOUTH RD,VA,20109-8032
Family Christian,CARY,161,CHR#161 CHR#16100161X CHR#161000161X CHR#1610000161X CHR#16100161XMOBILE,232 CROSSROADS BLVD,NC,27518-6894
Family Christian,JACKSONVILLE,162,CHR#162 CHR#16200162X CHR#162000162X CHR#1620000162X CHR#16200162XMOBILE,9041 SOUTHSIDE BLVD STE 138A,FL,32256-6741
Family Christian,PANAMA CITY,164,CHR#164 CHR#16400164X CHR#164000164X CHR#1640000164X CHR#16400164XMOBILE,2256 MARTIN LUTHER KING JR BLV,FL,32405-5321
Family Christian,COLUMBIA,165,CHR#165 CHR#16500165X CHR#165000165X CHR#1650000165X CHR#16500165XMOBILE,275 HARBISON BLVD STE B,SC,29212-2222
Family Christian,SOUTH HOLLAND,168,CHR#168 CHR#16800168X CHR#168000168X CHR#1680000168X CHR#16800168XMOBILE,550 E 162ND ST,IL,60473-2392
Family Christian,STONE MOUNTAIN,170,CHR#170 CHR#17000170X CHR#170000170X CHR#1700000170X CHR#17000170XMOBILE,5370 STONE MTN HYWY STE 1120,GA,30087-3575
Family Christian,OKEMOS,173,CHR#173 CHR#17300173X CHR#173000173X CHR#1730000173X CHR#17300173XMOBILE,4926 MARSH RD,MI,48864-1153
Family Christian,MADISON,177,CHR#177 CHR#17700177X CHR#177000177X CHR#1770000177X CHR#17700177XMOBILE,2162 N GALLATIN RD,TN,37115-2204
Family Christian,DANVILLE,191,CHR#191 CHR#19100191X CHR#191000191X CHR#1910000191X CHR#19100191XMOBILE,325 PIEDMONT DR,VA,24540-4028
Family Christian,KALAMAZOO,201,CHR#201 CHR#20100201X CHR#201000201X CHR#2010000201X CHR#20100201XMOBILE,4413 S WESTNEDGE AVE,MI,49008-3209
Family Christian,GREAT FALLS,206,CHR#206 CHR#20600206X CHR#206000206X CHR#2060000206X CHR#20600206XMOBILE,1200 10TH AVE S,MT,59405-4413
Family Christian,FAYETTEVILLE,213,CHR#213 CHR#21300213X CHR#213000213X CHR#2130000213X CHR#21300213XMOBILE,637 EAST JOYCE BLVD,AR,72703-6189
Family Christian,EL PASO,215,CHR#215 CHR#21500215X CHR#215000215X CHR#2150000215X CHR#21500215XMOBILE,9801 GATEWAY BLVD W,TX,79925-7513
Family Christian,BOZEMAN,226,CHR#226 CHR#22600226X CHR#226000226X CHR#2260000226X CHR#22600226XMOBILE,1707 OAK ST STE A,MT,59715-2125
Family Christian,LAKE ORION,231,CHR#231 CHR#23100231X CHR#231000231X CHR#2310000231X CHR#23100231XMOBILE,4826 S BALDWIN RD,MI,48359-2115
Family Christian,GAINESVILLE,232,CHR#232 CHR#23200232X CHR#232000232X CHR#2320000232X CHR#23200232XMOBILE,6747 W NEWBERRY RD,FL,32605-4312
Family Christian,CEDAR PARK,235,CHR#235 CHR#23500235X CHR#235000235X CHR#2350000235X CHR#23500235XMOBILE,11066 PECAN PARK BLVD STE 203,TX,78613-1516
Family Christian,PINELLAS PARK,242,CHR#242 CHR#24200242X CHR#242000242X CHR#2420000242X CHR#24200242XMOBILE,7348 US HWY 19 NORTH,FL,33781-4600
Family Christian,CHULA VISTA,247,CHR#247 CHR#24700247X CHR#247000247X CHR#2470000247X CHR#24700247XMOBILE,610 PALOMAR STE 1501,CA,91911-7134
Family Christian,SANTEE,249,CHR#249 CHR#24900249X CHR#249000249X CHR#2490000249X CHR#24900249XMOBILE,214 TOWN CENTER PARKWAY,CA,92071-5803
Family Christian,GAINESVILLE,250,CHR#250 CHR#25000250X CHR#250000250X CHR#2500000250X CHR#25000250XMOBILE,662 DAWSONVILLE HWY,GA,30501-2612
Family Christian,FARMINGTON,253,CHR#253 CHR#25300253X CHR#253000253X CHR#2530000253X CHR#25300253XMOBILE,3030 E MAIN ST STE G1,NM,87402-7639
Family Christian,CLARKSVILLE,256,CHR#256 CHR#25600256X CHR#256000256X CHR#2560000256X CHR#25600256XMOBILE,1020 VETERANS PKWY STE 700,IN,47129-2390
Family Christian,POMPANO BEACH,257,CHR#257 CHR#25700257X CHR#257000257X CHR#2570000257X CHR#25700257XMOBILE,1161 S FEDERAL HWY,FL,33062-7066
Family Christian,BATTLE CREEK,258,CHR#258 CHR#25800258X CHR#258000258X CHR#2580000258X CHR#25800258XMOBILE,5700 BECKLEY RD STE B2,MI,49015-4184
Family Christian,CANTON,261,CHR#261 CHR#26100261X CHR#261000261X CHR#2610000261X CHR#26100261XMOBILE,44412 FORD RD,MI,48187-2942
Family Christian,ELKHART,267,CHR#267 CHR#26700267X CHR#267000267X CHR#2670000267X CHR#26700267XMOBILE,3701 S MAIN ST,IN,46517-3106
Family Christian,CEDAR RAPIDS,272,CHR#272 CHR#27200272X CHR#272000272X CHR#2720000272X CHR#27200272XMOBILE,4701 FIRST AVE SE STE 10,IA,52402-3211
Family Christian,BOYNTON BEACH,282,CHR#282 CHR#28200282X CHR#282000282X CHR#2820000282X CHR#28200282XMOBILE,1100 N CONGRESS AVE STE 130,FL,33426-3335
Family Christian,NAPLES,293,CHR#293 CHR#29300293X CHR#293000293X CHR#2930000293X CHR#29300293XMOBILE,5042 AIRPORT PULLING RD N,FL,34105-2407
Family Christian,HENDERSON,296,CHR#296 CHR#29600296X CHR#296000296X CHR#2960000296X CHR#29600296XMOBILE,657 N STEPHANIE ST,NV,89014-2634
Family Christian,COLORADO SPRINGS,300,CHR#300 CHR#30000300X CHR#300000300X CHR#3000000300X CHR#30000300XMOBILE,687 N ACADEMY BLVD,CO,80909-8304
Family Christian,CEDAR HILL,321,CHR#321 CHR#32100321X CHR#321000321X CHR#3210000321X CHR#32100321XMOBILE,707 N HIGHWAY 67  STE 170,TX,75104-2177
Family Christian,SAN ANGELO,332,CHR#332 CHR#33200332X CHR#332000332X CHR#3320000332X CHR#33200332XMOBILE,4112 SUNSET DR,TX,76904-5614
Family Christian,OXNARD,346,CHR#346 CHR#34600346X CHR#346000346X CHR#3460000346X CHR#34600346XMOBILE,1821 E VENTURA BLVD,CA,93036-1819
Family Christian,SUGAR LAND,349,CHR#349 CHR#34900349X CHR#349000349X CHR#3490000349X CHR#34900349XMOBILE,1959 LAKESIDE PLAZA DR,TX,77479-4226
Family Christian,THORNTON,359,CHR#359 CHR#35900359X CHR#359000359X CHR#3590000359X CHR#35900359XMOBILE,9927 GRANT ST,CO,80229-2157
Family Christian,LAKEWOOD,367,CHR#367 CHR#36700367X CHR#367000367X CHR#3670000367X CHR#36700367XMOBILE,COLORADO MILLS,CO,80401-3246
Family Christian,ESCONDIDO,369,CHR#369 CHR#36900369X CHR#369000369X CHR#3690000369X CHR#36900369XMOBILE,1356 W VALLEY PKWY STE A13,CA,92029-2138
Family Christian,BRANDON,373,CHR#373 CHR#37300373X CHR#373000373X CHR#3730000373X CHR#37300373XMOBILE,2454 W BRANDON BLVD,FL,33511-4717
Family Christian,GRANDVILLE,385,CHR#385 CHR#38500385X CHR#385000385X CHR#3850000385X CHR#38500385XMOBILE,3819 RIVERTOWN PKWY SW STE 100,MI,49418-3071
Family Christian,MONTGOMERY,386,CHR#386 CHR#38600386X CHR#386000386X CHR#3860000386X CHR#38600386XMOBILE,6507 ATLANTA HWY,AL,36117-4226
Family Christian,TOLLESON,393,CHR#393 CHR#39300393X CHR#393000393X CHR#3930000393X CHR#39300393XMOBILE,9897 W MCDOWELL RD STE 310,AZ,85353
Family Christian,DOUGLASVILLE,398,CHR#398 CHR#39800398X CHR#398000398X CHR#3980000398X CHR#39800398XMOBILE,2838 CHAPEL HILL RD,GA,30135-1706
Family Christian,LENEXA,401,CHR#401 CHR#40100401X CHR#401000401X CHR#4010000401X CHR#40100401XMOBILE,9580 QUIVIRA RD,KS,66215-1670
Family Christian,HIGHLAND,404,CHR#404 CHR#40400404X CHR#404000404X CHR#4040000404X CHR#40400404XMOBILE,4060 HIGHLAND AVE STE B,CA,92346-2637
Family Christian,MOBILE,405,CHR#405 CHR#40500405X CHR#405000405X CHR#4050000405X CHR#40500405XMOBILE,7765 AIRPORT BLVD STE 915,AL,36608-5036
Family Christian,OXFORD,407,CHR#407 CHR#40700407X CHR#407000407X CHR#4070000407X CHR#40700407XMOBILE,700 S QUINTARD DR STE 54,AL,36203-1855
Family Christian,CARLSBAD,408,CHR#408 CHR#40800408X CHR#408000408X CHR#4080000408X CHR#40800408XMOBILE,1842 MARRON RD  STE G,CA,92008-1172
Family Christian,LAS VEGAS,409,CHR#409 CHR#40900409X CHR#409000409X CHR#4090000409X CHR#40900409XMOBILE,2300 NORTH RAINBOW BLVD #114,NV,89108-7350
Family Christian,BURLINGTON,414,CHR#414 CHR#41400414X CHR#414000414X CHR#4140000414X CHR#41400414XMOBILE,1429 UNIVERSITY DR,NC,27215-8792
Family Christian,MANTECA,419,CHR#419 CHR#41900419X CHR#419000419X CHR#4190000419X CHR#41900419XMOBILE,1015 S MAIN ST,CA,95337-5703
Family Christian,STAUNTON,422,CHR#422 CHR#42200422X CHR#422000422X CHR#4220000422X CHR#42200422XMOBILE,90 LEE JACKSON HWY STE 1257,VA,24401-5585
Family Christian,ALTON,425,CHR#425 CHR#42500425X CHR#425000425X CHR#4250000425X CHR#42500425XMOBILE,118 ALTON SQUARE,IL,62002-5917
Family Christian,OCOEE,426,CHR#426 CHR#42600426X CHR#426000426X CHR#4260000426X CHR#42600426XMOBILE,9567 W COLONIAL DR,FL,34761-6948
Family Christian,CRANBERRY TOWNSHIP,429,CHR#429 CHR#42900429X CHR#429000429X CHR#4290000429X CHR#42900429XMOBILE,1717 ROUTE 228 STE H,PA,16066-6499
Family Christian,FAYETTEVILLE,432,CHR#432 CHR#43200432X CHR#432000432X CHR#4320000432X CHR#43200432XMOBILE,2043 SKIBO RD STE 2,NC,28314-2231
Family Christian,STOCKTON,433,CHR#433 CHR#43300433X CHR#433000433X CHR#4330000433X CHR#43300433XMOBILE,1119 W MARCH LANE,CA,95207-6212
Family Christian,HICKORY,434,CHR#434 CHR#43400434X CHR#434000434X CHR#4340000434X CHR#43400434XMOBILE,1916 CATAWBA VALLEY BLVD SE,NC,28602-4146
Family Christian,JACKSONVILLE,435,CHR#435 CHR#43500435X CHR#435000435X CHR#4350000435X CHR#43500435XMOBILE,9310 ARLINGTON EXPWY,FL,32225-8213
Family Christian,SIOUX CITY,436,CHR#436 CHR#43600436X CHR#436000436X CHR#4360000436X CHR#43600436XMOBILE,5001 SERGEANT RD STE 92,IA,51106-4773
Family Christian,FULTONDALE,446,CHR#446 CHR#44600446X CHR#446000446X CHR#4460000446X CHR#44600446XMOBILE,COLONIAL PROMENADE FULTONDALE,AL,35068-1677
Family Christian,FRESNO,448,CHR#448 CHR#44800448X CHR#448000448X CHR#4480000448X CHR#44800448XMOBILE,3072 WEST SHAW AVE,CA,93711-3217
Family Christian,WICHITA,450,CHR#450 CHR#45000450X CHR#450000450X CHR#4500000450X CHR#45000450XMOBILE,8113 E KELLOGG DRIVE # 400,KS,67207-1809
Family Christian,HOLLYWOOD,451,CHR#451 CHR#45100451X CHR#451000451X CHR#4510000451X CHR#45100451XMOBILE,3251 HOLLYWOOD BLVD STE 230,FL,33021-6906
Family Christian,FRISCO,454,CHR#454 CHR#45400454X CHR#454000454X CHR#4540000454X CHR#45400454XMOBILE,2930 PRESTON RD STE 300,TX,75034-9439
Family Christian,ORLANDO,456,CHR#456 CHR#45600456X CHR#456000456X CHR#4560000456X CHR#45600456XMOBILE,745 N ALAFAYA TRAIL,FL,32828-7047
Family Christian,GEORGETOWN,470,CHR#470 CHR#47000470X CHR#470000470X CHR#4700000470X CHR#47000470XMOBILE,1013 W UNIV AVE STE 195,TX,78628-5343
Family Christian,ALGONQUIN,471,CHR#471 CHR#47100471X CHR#471000471X CHR#4710000471X CHR#47100471XMOBILE,2216 S RANDALLL RD,IL,60102-5929
Family Christian,SAN ANTONIO,474,CHR#474 CHR#47400474X CHR#474000474X CHR#4740000474X CHR#47400474XMOBILE,CITY BASE LANDING,TX,78223-3977
Family Christian,ARLINGTON HEIGHTS,475,CHR#475 CHR#47500475X CHR#475000475X CHR#4750000475X CHR#47500475XMOBILE,ARLINGTON HEIGHTS PROMENADE,IL,60004-3103
Family Christian,SCOTTSDALE,476,CHR#476 CHR#47600476X CHR#476000476X CHR#4760000476X CHR#47600476XMOBILE,8684 E RAINTREE DR STE 101,AZ,85260-2614
Family Christian,STRONGSVILLE,477,CHR#477 CHR#47700477X CHR#477000477X CHR#4770000477X CHR#47700477XMOBILE,17100 ROYALTON RD STE B,OH,44136-4441
Family Christian,SAINT LOUIS,478,CHR#478 CHR#47800478X CHR#478000478X CHR#4780000478X CHR#47800478XMOBILE,140 S COUNTY CENTER WAY,MO,63129-1087
Family Christian,ELKRIDGE,479,CHR#479 CHR#47900479X CHR#479000479X CHR#4790000479X CHR#47900479XMOBILE,6630 MARIE CURIE DR STE A,MD,21075-6456
Family Christian,BATAVIA,481,CHR#481 CHR#48100481X CHR#481000481X CHR#4810000481X CHR#48100481XMOBILE,135 N RANDALL RD,IL,60510-9209
Family Christian,FORT MYERS,482,CHR#482 CHR#48200482X CHR#482000482X CHR#4820000482X CHR#48200482XMOBILE,9924 GULF COAST MAIN STE A125,FL,33913-8956
Family Christian,ST PETERS,483,CHR#483 CHR#48300483X CHR#483000483X CHR#4830000483X CHR#48300483XMOBILE,167 MID RIVERS MALL DR,MO,63376-4309
Family Christian,BOWIE,485,CHR#485 CHR#48500485X CHR#485000485X CHR#4850000485X CHR#48500485XMOBILE,15451 EXCELSIOR DR SPC H03,MD,20716-2208
Family Christian,TROY,486,CHR#486 CHR#48600486X CHR#486000486X CHR#4860000486X CHR#48600486XMOBILE,302 JOHN R RD,MI,48083-4542
Family Christian,GLEN ALLEN,488,CHR#488 CHR#48800488X CHR#488000488X CHR#4880000488X CHR#48800488XMOBILE,1080 VIRGINIA CENTER PARKWAY S,VA,23059-4677
Family Christian,SAN ANTONIO,489,CHR#489 CHR#48900489X CHR#489000489X CHR#4890000489X CHR#48900489XMOBILE,11643 BANDERA RD,TX,78250-6818
Family Christian,MESA,490,CHR#490 CHR#49000490X CHR#490000490X CHR#4900000490X CHR#49000490XMOBILE,1826 S SIGNAL BUTTE RD STE 101,AZ,85209-2227
Family Christian,MISSION,491,CHR#491 CHR#49100491X CHR#491000491X CHR#4910000491X CHR#49100491XMOBILE,2505 E EXPRESSWAY 83 STE 500,TX,78572-6697
Family Christian,LADY LAKE,498,CHR#498 CHR#49800498X CHR#498000498X CHR#4980000498X CHR#49800498XMOBILE,562 N US HIGHWAY 441,FL,32159-3776
Family Christian,ROCKFORD,499,CHR#499 CHR#49900499X CHR#499000499X CHR#4990000499X CHR#49900499XMOBILE,6249 E STATE ST RM A03A,IL,61108-2514
Family Christian,EXTON,500,CHR#500 CHR#50000500X CHR#500000500X CHR#5000000500X CHR#50000500XMOBILE,197 W LINCOLN HWY STE 600,PA,19341-2618
Family Christian,TUCSON,502,CHR#502 CHR#50200502X CHR#502000502X CHR#5020000502X CHR#50200502XMOBILE,4336 N ORACLE RD STE 100,AZ,85705-1689
Family Christian,EVANSVILLE,13,CHR#13 CHR#130013X CHR#1300013X CHR#13000013X CHR#130013XMOBILE,701 N GREEN RIVER RD,IN,47715-2477
Family Christian,ORLAND PARK,16,CHR#16 CHR#160016X CHR#1600016X CHR#16000016X CHR#160016XMOBILE,15121 S LA GRANGE RD,IL,60462-3708
Family Christian,BOISE,21,CHR#21 CHR#210021X CHR#2100021X CHR#21000021X CHR#210021XMOBILE,8085 FAIRVIEW AVE,ID,83704-8424
Family Christian,HOLLAND,27,CHR#27 CHR#270027X CHR#2700027X CHR#27000027X CHR#270027XMOBILE,3155 WEST SHORE DR,MI,49424-7509
Family Christian,CHARLOTTE,30,CHR#30 CHR#300030X CHR#3000030X CHR#30000030X CHR#300030XMOBILE,1848 GALLERIA BLVD STE B,NC,28270-2476
Family Christian,ALTOONA,33,CHR#33 CHR#330033X CHR#3300033X CHR#33000033X CHR#330033XMOBILE,120 BYRON AVE,PA,16602-4106
Family Christian,ALPHARETTA,34,CHR#34 CHR#340034X CHR#3400034X CHR#34000034X CHR#340034XMOBILE,6350 N POINT PKWY STE 610,GA,30022-3009
Family Christian,KENNESAW,35,CHR#35 CHR#350035X CHR#3500035X CHR#35000035X CHR#350035XMOBILE,440 ERNEST W BARRETT PKWY STE,GA,30144-4918
Family Christian,DULUTH,40,CHR#40 CHR#400040X CHR#4000040X CHR#40000040X CHR#400040XMOBILE,3330 SATELLITE BLVD,GA,30096-8600
Family Christian,WALKER,42,CHR#42 CHR#420042X CHR#4200042X CHR#42000042X CHR#420042XMOBILE,3343A ALPINE RD NW,MI,49544-1632
Family Christian,GRAND RAPIDS,64,CHR#64 CHR#640064X CHR#6400064X CHR#64000064X CHR#640064XMOBILE,3120 28TH ST SE STE B,MI,49512-1629
Family Christian,INDEPENDENCE,65,CHR#65 CHR#650065X CHR#6500065X CHR#65000065X CHR#650065XMOBILE,3727 S BOLGER RD,MO,64055-3971
Family Christian,HUNTSVILLE,71,CHR#71 CHR#710071X CHR#7100071X CHR#71000071X CHR#710071XMOBILE,6243 UNIVERSITY DR NW,AL,35806-1711
Family Christian,AURORA,75,CHR#75 CHR#750075X CHR#7500075X CHR#75000075X CHR#750075XMOBILE,15241 E MISSISSIPPI AVE #2531,CO,80012-3747
Family Christian,MOLINE,86,CHR#86 CHR#860086X CHR#8600086X CHR#86000086X CHR#860086XMOBILE,3930 38TH AVE,IL,61265-6471
Family Christian,BARBOURSVILLE,96,CHR#96 CHR#960096X CHR#9600096X CHR#96000096X CHR#960096XMOBILE,HUNTINGTON MALL UNIT 405,WV,25504-1828
Family Christian,COLORADO SPRINGS,100,CHR#100 CHR#10000100X CHR#100000100X CHR#1000000100X CHR#10000100XMOBILE,7165 N ACADEMY BLVD,CO,80920-3186
Family Christian,KILLEEN,101,CHR#101 CHR#10100101X CHR#101000101X CHR#1010000101X CHR#10100101XMOBILE,1801 E CENTRAL TEXAS EXPY,TX,76543-5347
Family Christian,LYNNWOOD,108,CHR#108 CHR#10800108X CHR#108000108X CHR#1080000108X CHR#10800108XMOBILE,5116 196TH ST  STE 203ES,WA,98036-6148
Family Christian,FAIRFAX,112,CHR#112 CHR#11200112X CHR#112000112X CHR#1120000112X CHR#11200112XMOBILE,11749U FAIR OAKS MALL STE J204,VA,22033-3303
Family Christian,WESTMINSTER,116,CHR#116 CHR#11600116X CHR#116000116X CHR#1160000116X CHR#11600116XMOBILE,6925 W 88TH AVE,CO,80021-6483
Family Christian,PENSACOLA,129,CHR#129 CHR#12900129X CHR#129000129X CHR#1290000129X CHR#12900129XMOBILE,1520 AIRPORT BLVD STE#2,FL,32504-8735
Family Christian,ORLANDO,131,CHR#131 CHR#13100131X CHR#131000131X CHR#1310000131X CHR#13100131XMOBILE,4644 MILLENIA PLAZA WAY,FL,32839-2434
Family Christian,BOARDMAN,135,CHR#135 CHR#13500135X CHR#135000135X CHR#1350000135X CHR#13500135XMOBILE,463 BOARDMAN POLAND RD,OH,44512
Family Christian,FLOWOOD,139,CHR#139 CHR#13900139X CHR#139000139X CHR#1390000139X CHR#13900139XMOBILE,344 RIDGE WAY,MS,39232-3306
Family Christian,ELYRIA,158,CHR#158 CHR#15800158X CHR#158000158X CHR#1580000158X CHR#15800158XMOBILE,449 MIDWAY BLVD,OH,44035-2440
Family Christian,JOLIET,159,CHR#159 CHR#15900159X CHR#159000159X CHR#1590000159X CHR#15900159XMOBILE,3105 W JEFFERSON ST,IL,60435-4733
Family Christian,LAFAYETTE,163,CHR#163 CHR#16300163X CHR#163000163X CHR#1630000163X CHR#16300163XMOBILE,103 ACADIANA MALL CIR,LA,70503-5326
Family Christian,WALDORF,166,CHR#166 CHR#16600166X CHR#166000166X CHR#1660000166X CHR#16600166XMOBILE,3003 FESTIVAL WAY,MD,20601
Family Christian,GREELEY,181,CHR#181 CHR#18100181X CHR#181000181X CHR#1810000181X CHR#18100181XMOBILE,1936 GREELEY MALL,CO,80631-8520
Family Christian,MIAMI,182,CHR#182 CHR#18200182X CHR#182000182X CHR#1820000182X CHR#18200182XMOBILE,13601 BISCAYNE BLVD,FL,33181-1649
Family Christian,BELLINGHAM,184,CHR#184 CHR#18400184X CHR#184000184X CHR#1840000184X CHR#18400184XMOBILE,3560 MERIDIAN ST #101,WA,98225-1731
Family Christian,LYNDEN,185,CHR#185 CHR#18500185X CHR#185000185X CHR#1850000185X CHR#18500185XMOBILE,1712 FRONT ST,WA,98264-2101
Family Christian,KIRKLAND,188,CHR#188 CHR#18800188X CHR#188000188X CHR#1880000188X CHR#18800188XMOBILE,12602 TOTEM LAKE BLVD,WA,98034-7206
Family Christian,PLAINFIELD,193,CHR#193 CHR#19300193X CHR#193000193X CHR#1930000193X CHR#19300193XMOBILE,401 PLAINFIELD COMMONS DR,IN,46168-2761
Family Christian,NATRONA HEIGHTS,195,CHR#195 CHR#19500195X CHR#195000195X CHR#1950000195X CHR#19500195XMOBILE,1848 UNION AVE,PA,15065-2201
Family Christian,BRADENTON,198,CHR#198 CHR#19800198X CHR#198000198X CHR#1980000198X CHR#19800198XMOBILE,5203 CORTEZ RD W,FL,34210-3148
Family Christian,MONROE,204,CHR#204 CHR#20400204X CHR#204000204X CHR#2040000204X CHR#20400204XMOBILE,4709 PECANLAND MALL DR,LA,71203-7005
Family Christian,GREENVILLE,205,CHR#205 CHR#20500205X CHR#205000205X CHR#2050000205X CHR#20500205XMOBILE,2804 MITCHELL ST,TX,75402-8939
Family Christian,ASHEVILLE,209,CHR#209 CHR#20900209X CHR#209000209X CHR#2090000209X CHR#20900209XMOBILE,129 BLEACHERY BLVD STE 1,NC,28805-8209
Family Christian,LAS VEGAS,210,CHR#210 CHR#21000210X CHR#210000210X CHR#2100000210X CHR#21000210XMOBILE,1230 S DECATUR BLVD,NV,89102-8502
Family Christian,CHARLESTON,214,CHR#214 CHR#21400214X CHR#214000214X CHR#2140000214X CHR#21400214XMOBILE,2116 CHARLESTON TOWN CENTER,WV,25389-0007
Family Christian,PALMDALE,216,CHR#216 CHR#21600216X CHR#216000216X CHR#2160000216X CHR#21600216XMOBILE,40038 10TH ST WEST,CA,93551
Family Christian,ODESSA,218,CHR#218 CHR#21800218X CHR#218000218X CHR#2180000218X CHR#21800218XMOBILE,3950 E 42ND ST,TX,79762-5940
Family Christian,BEND,219,CHR#219 CHR#21900219X CHR#219000219X CHR#2190000219X CHR#21900219XMOBILE,815 SE 3RD ST,OR,97702-1750
Family Christian,ANDERSON,221,CHR#221 CHR#22100221X CHR#221000221X CHR#2210000221X CHR#22100221XMOBILE,4534 S SCATTERFIELD ROAD,IN,46013-2904
Family Christian,UPLAND,224,CHR#224 CHR#22400224X CHR#224000224X CHR#2240000224X CHR#22400224XMOBILE,1980 W FOOTHILL BLVD,CA,91786-8407
Family Christian,FEDERAL WAY,225,CHR#225 CHR#22500225X CHR#225000225X CHR#2250000225X CHR#22500225XMOBILE,31835 PACIFIC HWY S STE A,WA,98003-5643
Family Christian,HOLLAND,227,CHR#227 CHR#22700227X CHR#227000227X CHR#2270000227X CHR#22700227XMOBILE,1400 S HOLLAND-SYLVANIA RD,OH,43528-9594
Family Christian,TOLEDO,228,CHR#228 CHR#22800228X CHR#228000228X CHR#2280000228X CHR#22800228XMOBILE,4015 SECOR RD,OH,43623-4263
Family Christian,CHANNELVIEW,229,CHR#229 CHR#22900229X CHR#229000229X CHR#2290000229X CHR#22900229XMOBILE,15821 INTERSTATE 10 E,TX,77530-4309
Family Christian,WAUWATOSA,230,CHR#230 CHR#23000230X CHR#230000230X CHR#2300000230X CHR#23000230XMOBILE,2525 N MAYFAIR RD STE 201,WI,53226-1403
Family Christian,FARGO,243,CHR#243 CHR#24300243X CHR#243000243X CHR#2430000243X CHR#24300243XMOBILE,3902 13TH AVE SW STE 713,ND,58103-3370
Family Christian,FOREST CITY,251,CHR#251 CHR#25100251X CHR#251000251X CHR#2510000251X CHR#25100251XMOBILE,184 ALLENDALE DR,NC,28043-2874
Family Christian,FORT GRATIOT,254,CHR#254 CHR#25400254X CHR#254000254X CHR#2540000254X CHR#25400254XMOBILE,4351 24TH AVE STE 5,MI,48059-3907
Family Christian,PRESCOTT VALLEY,255,CHR#255 CHR#25500255X CHR#255000255X CHR#2550000255X CHR#25500255XMOBILE,3088 N GLASSFORD HILL STE 102,AZ,86314-1246
Family Christian,TAYLOR,260,CHR#260 CHR#26000260X CHR#260000260X CHR#2600000260X CHR#26000260XMOBILE,23380 EUREKA RD,MI,48180-5215
Family Christian,ROSEVILLE,262,CHR#262 CHR#26200262X CHR#262000262X CHR#2620000262X CHR#26200262XMOBILE,300 N SUNRISE AVE STE 100,CA,95661-2806
Family Christian,SANTA ROSA,263,CHR#263 CHR#26300263X CHR#263000263X CHR#2630000263X CHR#26300263XMOBILE,2790 SANTA ROSA AVE STE G,CA,95407-6211
Family Christian,CHICO,264,CHR#264 CHR#26400264X CHR#264000264X CHR#2640000264X CHR#26400264XMOBILE,2540 ESPLANADE STE 3,CA,95973-1170
Family Christian,VACAVILLE,265,CHR#265 CHR#26500265X CHR#265000265X CHR#2650000265X CHR#26500265XMOBILE,2041A HARBISON DR,CA,95687-3904
Family Christian,MISHAWAKA,268,CHR#268 CHR#26800268X CHR#268000268X CHR#2680000268X CHR#26800268XMOBILE,4110 GRAPE RD STE A,IN,46545-2610
Family Christian,SPRINGFIELD,269,CHR#269 CHR#26900269X CHR#269000269X CHR#2690000269X CHR#26900269XMOBILE,3435 FREEDOM DR,IL,62704-6517
Family Christian,EL CAJON,274,CHR#274 CHR#27400274X CHR#274000274X CHR#2740000274X CHR#27400274XMOBILE,756 JAMACHA RD,CA,92019-3201
Family Christian,FOLSOM,276,CHR#276 CHR#27600276X CHR#276000276X CHR#2760000276X CHR#27600276XMOBILE,1310 E BIDWELL ST,CA,95630-3524
Family Christian,CANTON,277,CHR#277 CHR#27700277X CHR#277000277X CHR#2770000277X CHR#27700277XMOBILE,"1810 CUMMING HWY, Ste 1380",GA,30115-2306
Family Christian,FAYETTEVILLE,280,CHR#280 CHR#28000280X CHR#280000280X CHR#2800000280X CHR#28000280XMOBILE,119 PAVILLION PKWY STE C,GA,30214-4098
Family Christian,WATERLOO,281,CHR#281 CHR#28100281X CHR#281000281X CHR#2810000281X CHR#28100281XMOBILE,2019 CROSSROADS BLVD,IA,50702-4403
Family Christian,SENECA,284,CHR#284 CHR#28400284X CHR#284000284X CHR#2840000284X CHR#28400284XMOBILE,225 APPLEWOOD CENTER PLACE,SC,29678-0917
Family Christian,STEVENSON RANCH,291,CHR#291 CHR#29100291X CHR#291000291X CHR#2910000291X CHR#29100291XMOBILE,25860 THE OLD RD,CA,91381-1710
Family Christian,MUNCIE,292,CHR#292 CHR#29200292X CHR#292000292X CHR#2920000292X CHR#29200292XMOBILE,4301 W WILLIAMSBURG BLVD,IN,47304-5523
Family Christian,CHINO,297,CHR#297 CHR#29700297X CHR#297000297X CHR#2970000297X CHR#29700297XMOBILE,5250 PHILADELPHIA ST STE N,CA,91710-2483
Family Christian,PLANO,323,CHR#323 CHR#32300323X CHR#323000323X CHR#3230000323X CHR#32300323XMOBILE,601 W PLANO PKWY #153,TX,75075-8968
Family Christian,SUNSET VALLEY,328,CHR#328 CHR#32800328X CHR#328000328X CHR#3280000328X CHR#32800328XMOBILE,5400 BRODIE LN STE 740,TX,78745-2526
Family Christian,AUSTELL,330,CHR#330 CHR#33000330X CHR#330000330X CHR#3300000330X CHR#33000330XMOBILE,3999 AUSTELL RD STE 407,GA,30106-1100
Family Christian,HUMBLE,360,CHR#360 CHR#36000360X CHR#360000360X CHR#3600000360X CHR#36000360XMOBILE,10008 FM 1960 BYPASS RD 2,TX,77338-3516
Family Christian,SIMI VALLEY,364,CHR#364 CHR#36400364X CHR#364000364X CHR#3640000364X CHR#36400364XMOBILE,2986 COCHRAN ST,CA,93065-2773
Family Christian,CLEARWATER,366,CHR#366 CHR#36600366X CHR#366000366X CHR#3660000366X CHR#36600366XMOBILE,2613 GULF TO BAY BLVD STE 1650,FL,33759-4939
Family Christian,PALM DESERT,375,CHR#375 CHR#37500375X CHR#375000375X CHR#3750000375X CHR#37500375XMOBILE,73405 US HIGHWAY 111 STE 4C,CA,92260-3910
Family Christian,PHOENIX,376,CHR#376 CHR#37600376X CHR#376000376X CHR#3760000376X CHR#37600376XMOBILE,"3401 W THUNDERBIRD RD, Suite 1",AZ,85053-5602
Family Christian,CLEBURNE,377,CHR#377 CHR#37700377X CHR#377000377X CHR#3770000377X CHR#37700377XMOBILE,111 HYDE PARK BLVD STE 300,TX,76033-4582
Family Christian,NEWARK,380,CHR#380 CHR#38000380X CHR#380000380X CHR#3800000380X CHR#38000380XMOBILE,600 PEOPLES PLAZA,DE,19702-5600
Family Christian,APPLETON,381,CHR#381 CHR#38100381X CHR#381000381X CHR#3810000381X CHR#38100381XMOBILE,1400A W COLLEGE AVE,WI,54914-4951
Family Christian,EAU CLAIRE,384,CHR#384 CHR#38400384X CHR#384000384X CHR#3840000384X CHR#38400384XMOBILE,2916 LONDON RD,WI,54701
Family Christian,VIRGINIA BEACH,387,CHR#387 CHR#38700387X CHR#387000387X CHR#3870000387X CHR#38700387XMOBILE,4314 VIRGINIA BEACH BLVD,VA,23452
Family Christian,LINCOLN,389,CHR#389 CHR#38900389X CHR#389000389X CHR#3890000389X CHR#38900389XMOBILE,5308 S 56TH ST STE A,AZ,68516-1833
Family Christian,MENTOR,395,CHR#395 CHR#39500395X CHR#395000395X CHR#3950000395X CHR#39500395XMOBILE,7633 MENTOR AVE,OH,44060-5409
Family Christian,CLINTON,396,CHR#396 CHR#39600396X CHR#396000396X CHR#3960000396X CHR#39600396XMOBILE,104 E MAIN,NC,28328-4029
Family Christian,LEXINGTON,400,CHR#400 CHR#40000400X CHR#400000400X CHR#4000000400X CHR#40000400XMOBILE,5541 SUNSET BLVD,SC,29072-1962
Family Christian,SOUTHAVEN,402,CHR#402 CHR#40200402X CHR#402000402X CHR#4020000402X CHR#40200402XMOBILE,"125 GOODMAN RD W, STE D",MS,38671-9481
Family Christian,BIRMINGHAM,403,CHR#403 CHR#40300403X CHR#403000403X CHR#4030000403X CHR#40300403XMOBILE,5899 TRUSSVILLE CROSS PKWY 117,AL,35235-8613
Family Christian,MISSION HILLS,410,CHR#410 CHR#41000410X CHR#410000410X CHR#4100000410X CHR#41000410XMOBILE,10340 SEPULVEDA BLVD,CA,91345-2422
Family Christian,ALBANY,411,CHR#411 CHR#41100411X CHR#411000411X CHR#4110000411X CHR#41100411XMOBILE,1422 W BROAD AVE,GA,31707-4346
Family Christian,HOT SPRINGS,413,CHR#413 CHR#41300413X CHR#413000413X CHR#4130000413X CHR#41300413XMOBILE,"4043 CENTRAL AVE, STE E",AR,71913-7341
Family Christian,CHAMPAIGN,415,CHR#415 CHR#41500415X CHR#415000415X CHR#4150000415X CHR#41500415XMOBILE,41 E MARKETVIEW DR,IL,61820-7832
Family Christian,NEWARK,417,CHR#417 CHR#41700417X CHR#417000417X CHR#4170000417X CHR#41700417XMOBILE,1105 CHURCHMANS RD  #1107,DE,19713-2112
Family Christian,HARRISONBURG,420,CHR#420 CHR#42000420X CHR#420000420X CHR#4200000420X CHR#42000420XMOBILE,1621 E MARKET SE,VA,22801-5105
Family Christian,CHARLOTTESVILLE,423,CHR#423 CHR#42300423X CHR#423000423X CHR#4230000423X CHR#42300423XMOBILE,204 ZAN RD,VA,22901-2885
Family Christian,TORRANCE,427,CHR#427 CHR#42700427X CHR#427000427X CHR#4270000427X CHR#42700427XMOBILE,2828 SEPULVEDA BLVD,CA,90505-2803
Family Christian,LAKELAND,428,CHR#428 CHR#42800428X CHR#428000428X CHR#4280000428X CHR#42800428XMOBILE,3700 US HIGHWAY 98 N,FL,33809-3809
Family Christian,GADSDEN,430,CHR#430 CHR#43000430X CHR#430000430X CHR#4300000430X CHR#43000430XMOBILE,106 E MEIGHAN BLVD,AL,35903-1045
Family Christian,SANTA ANA,431,CHR#431 CHR#43100431X CHR#431000431X CHR#4310000431X CHR#43100431XMOBILE,3701 S HARBOR BLVD STE C,CA,92704-7902
Family Christian,SAN ANTONIO,442,CHR#442 CHR#44200442X CHR#442000442X CHR#4420000442X CHR#44200442XMOBILE,3333 WURZBACH RD,TX,78238-4042
Family Christian,SELMA,444,CHR#444 CHR#44400444X CHR#444000444X CHR#4440000444X CHR#44400444XMOBILE,8124 AGORA PARKWAY STE 100,TX,78154-1317
Family Christian,WHITTIER,452,CHR#452 CHR#45200452X CHR#452000452X CHR#4520000452X CHR#45200452XMOBILE,8401 PIONEER BLVD,CA,90606-2947
Family Christian,STERLING,455,CHR#455 CHR#45500455X CHR#455000455X CHR#4550000455X CHR#45500455XMOBILE,45591 DULLES EASTERN PLAZA 120,VA,20166-8923
Family Christian,MUSKEGON,458,CHR#458 CHR#45800458X CHR#458000458X CHR#4580000458X CHR#45800458XMOBILE,5506 HARVEY ST STE A,MI,49444-8765
Family Christian,SPRINGDALE,459,CHR#459 CHR#45900459X CHR#459000459X CHR#4590000459X CHR#45900459XMOBILE,403 EAST KEMPER RD,OH,45246-3228
Family Christian,CINCINNATI,460,CHR#460 CHR#46000460X CHR#460000460X CHR#4600000460X CHR#46000460XMOBILE,9938 WATERSTONE BLVD,OH,45249-8295
Family Christian,LAFAYETTE,461,CHR#461 CHR#46100461X CHR#461000461X CHR#4610000461X CHR#46100461XMOBILE,3555 STATE ROAD 38 E STE D,IN,47905-5130
Family Christian,FT WAYNE,462,CHR#462 CHR#46200462X CHR#462000462X CHR#4620000462X CHR#46200462XMOBILE,4220 W JEFFERSON BLVD STE O-10,IN,46804-6865
Family Christian,ANKENY,463,CHR#463 CHR#46300463X CHR#463000463X CHR#4630000463X CHR#46300463XMOBILE,2310 SE DELAWARE AVE STE R,IA,50021-4767
Family Christian,WICHITA,464,CHR#464 CHR#46400464X CHR#464000464X CHR#4640000464X CHR#46400464XMOBILE,2241 N MAIZE RD STE 105,KS,67205-7340
Family Christian,AUSTIN,465,CHR#465 CHR#46500465X CHR#465000465X CHR#4650000465X CHR#46500465XMOBILE,BLD 10 STE 1010,TX,78753
Family Christian,SAN ANTONIO,466,CHR#466 CHR#46600466X CHR#466000466X CHR#4660000466X CHR#46600466XMOBILE,1201 N LOOP 1604 W STE 105,TX,78258-4597
Family Christian,CARMEL,467,CHR#467 CHR#46700467X CHR#467000467X CHR#4670000467X CHR#46700467XMOBILE,715 E CARMEL DR,IN,46032-2817
Family Christian,ALEXANDRIA,469,CHR#469 CHR#46900469X CHR#469000469X CHR#4690000469X CHR#46900469XMOBILE,7714 RICHMOND HWY,VA,22306-2803
Family Christian,NORTH OLMSTED,472,CHR#472 CHR#47200472X CHR#472000472X CHR#4720000472X CHR#47200472XMOBILE,26127 LORAIN RD,OH,44070-2741
Family Christian,GREENFIELD,473,CHR#473 CHR#47300473X CHR#473000473X CHR#4730000473X CHR#47300473XMOBILE,4840 S 76TH ST,WI,53220-4304
Family Christian,RALEIGH,484,CHR#484 CHR#48400484X CHR#484000484X CHR#4840000484X CHR#48400484XMOBILE,5950 POYNER VILLAGE PKWY #111,NC,27616-3361
Family Christian,ANNAPOLIS,487,CHR#487 CHR#48700487X CHR#487000487X CHR#4870000487X CHR#48700487XMOBILE,2315 FOREST DR STE E,MD,21401-3837
Family Christian,INDIANAPOLIS,492,CHR#492 CHR#49200492X CHR#492000492X CHR#4920000492X CHR#49200492XMOBILE,8925 MADISON AVE STE A&B,IN,46227-6309
Family Christian,VERNON HILLS,493,CHR#493 CHR#49300493X CHR#493000493X CHR#4930000493X CHR#49300493XMOBILE,700 N MILWAUKEE AVE STE 139,IL,60061-1595
Family Christian,SALISBURY,494,CHR#494 CHR#49400494X CHR#494000494X CHR#4940000494X CHR#49400494XMOBILE,106 W RUARK DR,MD,21801-2231
Family Christian,GILBERT,495,CHR#495 CHR#49500495X CHR#495000495X CHR#4950000495X CHR#49500495XMOBILE,143 E GERMANN RD STE 101,AZ,85297-0608
Family Christian,BLOOMINGTON,496,CHR#496 CHR#49600496X CHR#496000496X CHR#4960000496X CHR#49600496XMOBILE,140 N GATES DR,IN,47404-4873
Family Christian,FREDERICK,497,CHR#497 CHR#49700497X CHR#497000497X CHR#4970000497X CHR#49700497XMOBILE,7272 GUILFORD DRIVE B,MD,21704-5167
Family Christian,ST JOSEPH,501,CHR#501 CHR#50100501X CHR#501000501X CHR#5010000501X CHR#50100501XMOBILE,3702 FREDERICK BLVD B STE L3,MO,64506-3031
