keywords,city,Aggdata Store Number,store_number,address,state,zip_code
Finish Line,Indianapolis,1,#1 #01,5840 Crawfordsville Rd.,IN,46224
Finish Line,Mesquite,5,#5 #05,2062 Town East Mall,TX,75150
Finish Line,Lincolnwood,6,#6 #06,3333 W Touhy Avenue,IL,60712
Finish Line,Longview,8,#8 #08,3500 McCann Rd,TX,75601
Finish Line,New Philadelphia,16,#16 #016,400 Mill Ave SE  #225,OH,44663
Finish Line,Elyria,17,#17 #017,4439 Midway Mall,OH,44035
Finish Line,Winston-Salem,18,#18 #018,3320 Silas Creek Pkwy.,NC,27103
Finish Line,Gastonia,19,#19 #019,246 N. Hope Rd.,NC,28054
Finish Line,Charleston,21,#21 #021,3000 Charleston Town Cent,WV,25389
Finish Line,Winchester,22,#22 #022,1850 Apple Blossom Dr.,VA,22601
Finish Line,Marion,27,#27 #027,1479 Marion Waldo Rd.,OH,43302
Finish Line,Findlay,28,#28 #028,1800 Tiffin Rd.,OH,45840
Finish Line,Athens,29,#29 #029,3700 Atlanta Hwy,GA,30606
Finish Line,Morgantown,30,#30 #030,9317 Mall Rd,WV,26505
Finish Line,Portage,31,#31 #031,6650 S Westnedge Ave.,MI,49024
Finish Line,Harrisonburg,33,#33 #033,1925 E Market,VA,22801
Finish Line,Lima,34,#34 #034,2400 Elida Rd.,OH,45805
Finish Line,Parma,35,#35 #035,7903 W Ridgewood Dr.,OH,44129
Finish Line,Mentor,39,#39 #039,7850 Mentor Ave.,OH,44060
Finish Line,Pittsburgh,44,#44 #044,1000 Ross Park Mall Dr.,PA,15237
Finish Line,Anderson,46,#46 #046,2109 State Rd 9 S,IN,46016
Finish Line,Lafayette,48,#48 #048,2415 Sagamore Pkwy.,IN,47905
Finish Line,Indianapolis,49,#49 #049,10202 E. Washington St.,IN,46229
Finish Line,Muncie,50,#50 #050,3501 Granville Ave.,IN,47303
Finish Line,Paducah,51,#51 #051,5101 Hinkleville Rd.,KY,42001
Finish Line,Mishawaka,52,#52 #052,6501 N Grape Rd.,IN,46545
Finish Line,Greenwood,53,#53 #053,1251 US Hwy. 31 N,IN,46142
Finish Line,Kokomo,55,#55 #055,1146 S 17th St.,IN,46902
Finish Line,Bloomington,56,#56 #056,2922 East 3rd St.,IN,47401
Finish Line,Springfield,58,#58 #058,1475 Upper Valley Pike,OH,45502
Finish Line,Sherman,61,#61 #061,4800 N Texoma Pkwy.,TX,75090
Finish Line,Heath,62,#62 #062,771 S 30th St.,OH,43056
Finish Line,Lancaster,63,#63 #063,1475 Columbus Lancaster R,OH,43130
Finish Line,Hurst,66,#66 #066,2260 North East Mall,TX,76053
Finish Line,Irving,68,#68 #068,3754 Irving Mall,TX,75062
Finish Line,Kennesaw,69,#69 #069,400 Ernest Barrett Pkwy.,GA,30144
Finish Line,Fort Worth,71,#71 #071,219 Hulen Mall,TX,76132
Finish Line,Marion,74,#74 #074,1129 N Baldwin,IN,46952
Finish Line,Niles,75,#75 #075,5555 Youngstown-Warren,OH,44446
Finish Line,Ashland,78,#78 #078,500 Winchester Ave,KY,41101
Finish Line,Arlington,80,#80 #080,3811 S Cooper,TX,76015
Finish Line,Mansfield,81,#81 #081,690 Richland Mall,OH,44906
Finish Line,Rocky Mount,82,#82 #082,1100 N Wesleyan Blvd.,NC,27804
Finish Line,Bourbonnais,83,#83 #083,1600 N Rt 50,IL,60914
Finish Line,Butler,84,#84 #084,101 Clearview Circle,PA,16001
Finish Line,Oklahoma City,85,#85 #085,1901 NW Expressway,OK,73118
Finish Line,North Riverside,86,#86 #086,7501 W Cermak Rd.,IL,60546
Finish Line,Sandusky,88,#88 #088,4314 Milan Rd.,OH,44870
Finish Line,Racine,91,#91 #091,5614 Durand Ave.,WI,53406
Finish Line,Hagerstown,92,#92 #092,17301 Valley Mall Rd #162,MD,21740
Finish Line,Canton,95,#95 #095,4255 Belden Village Mall,OH,44718
Finish Line,Pineville,96,#96 #096,11025 Carolina Place Pkwy,NC,28134
Finish Line,Duluth,97,#97 #097,2100 Pleasant Hill Rd.,GA,30096
Finish Line,Indianapolis,100,#100 #0100,6020 E 82nd St,IN,46250
Finish Line,Cincinnati,101,#101 #0101,4601-824 Eastgate Blvd,OH,45245
Finish Line,Gurnee,102,#102 #0102,6170 W Grand Ave.,IL,60031
Finish Line,Marion,103,#103 #0103,3000 W DeYoung St.,IL,62959
Finish Line,Glen Allen,104,#104 #0104,10101 Brook Rd.,VA,23059
Finish Line,Franklin,106,#106 #0106,3461 Towne Blvd,OH,45005
Finish Line,Indianapolis,107,#107 #0107,3919 Lafayette Rd.,IN,46254
Finish Line,Atlanta,108,#108 #0108,4800 Briarcliff Rd NE #10,GA,30345
Finish Line,Akron,109,#109 #0109,3265 W Market St,OH,44333
Finish Line,Niles,110,#110 #0110,239 Golf Mill Center,IL,60714
Finish Line,Benton Harbor,112,#112 #0112,1800 Pipestone Rd,MI,49022
Finish Line,Omaha,113,#113 #0113,3001 S 144th St.,NE,68144
Finish Line,Omaha,115,#115 #0115,7400 Dodge St.,NE,68114
Finish Line,Greendale,116,#116 #0116,5300 S 76th St,WI,53129
Finish Line,Uniontown,117,#117 #0117,1368 Mall Run Rd,PA,15401
Finish Line,Wichita,118,#118 #0118,7700 E Kellogg,KS,67207
Finish Line,Hutchinson,119,#119 #0119,1500 E 11th St,KS,67501
Finish Line,Matteson,120,#120 #0120,113 Lincoln Mall,IL,60443
Finish Line,Wichita,122,#122 #0122,4600 W Kellogg,KS,67209
Finish Line,St. Clairsville,123,#123 #0123,67800 Mall Road,OH,43950
Finish Line,Dayton,124,#124 #0124,2700 Miamisburg-Centervil,OH,45459
Finish Line,Carbondale,125,#125 #0125,1237 E. Main St.,IL,62901
Finish Line,San Antonio,127,#127 #0127,6909 N Loop 1604,TX,78247
Finish Line,Terre Haute,129,#129 #0129,3401 S US 41,IN,47802
Finish Line,Barboursville,130,#130 #0130,Mall Rd,WV,25504
Finish Line,West Mifflin,132,#132 #0132,3075 Clairton Rd,PA,15123
Finish Line,Bridgeport,133,#133 #0133,2600 Meadowbrook Rd.,WV,26330
Finish Line,Manhattan,134,#134 #0134,100 Manhattan Town Center,KS,66502
Finish Line,Lexington,136,#136 #0136,3401 Nicholasville Rd,KY,40503
Finish Line,York,137,#137 #0137,1800 Loucks Rd,PA,17404
Finish Line,Erie,138,#138 #0138,225 Millcreek Mall,PA,16565
Finish Line,Washington,139,#139 #0139,1500 W Chestnut St,PA,15301
Finish Line,Clarksville,140,#140 #0140,2801 Wilma Rudolph Blvd,TN,37040
Finish Line,Memphis,142,#142 #0142,4465 Poplar Ave,TN,38117
Finish Line,Richmond,143,#143 #0143,3801 E Main St.,IN,47374
Finish Line,Monroe,145,#145 #0145,2121 N Monroe St.,MI,48162
Finish Line,Topeka,148,#148 #0148,1801 SW Wannamaker,KS,66604
Finish Line,Richmond Heights,149,#149 #0149,691 Richmond Rd,OH,44143
Finish Line,Flint,150,#150 #0150,3429 S Linden Rd.,MI,48507
Finish Line,San Antonio,151,#151 #0151,6301 NE Loop 410,TX,78238
Finish Line,Altoona,152,#152 #0152,Route 220 Goods Lane,PA,16602
Finish Line,Florence,153,#153 #0153,1172 Florence Mall,KY,41042
Finish Line,Plano,154,#154 #0154,811 N Central Expwy,TX,75075
Finish Line,Lakewood,155,#155 #0155,318 E Fairmount Ave.,NY,14750
Finish Line,York,156,#156 #0156,186 York Galleria,PA,17402
Finish Line,Alpharetta,157,#157 #0157,1224 North Point Circle,GA,30022
Finish Line,N. Olmsted,158,#158 #0158,382 Great Northern Mall,OH,44070
Finish Line,Beavercreek,159,#159 #0159,2727 Fairfield Commons,OH,45431
Finish Line,Chambersburg,160,#160 #0160,734 Chambersburg Mall,PA,17201
Finish Line,Fredericksburg,162,#162 #0162,865 Spotsylvania Mall,VA,22407
Finish Line,Blasdell,163,#163 #0163,3701 McKinley Pkwy,NY,14219
Finish Line,Burton,164,#164 #0164,4208 Court St.,MI,48509
Finish Line,Cape Girardeau,165,#165 #0165,225 West Park Mall,MO,63701
Finish Line,Dubuque,168,#168 #0168,555 John F Kennedy Rd.,IA,52002
Finish Line,Martinsburg,169,#169 #0169,800 Foxcroft Ave,WV,25401
Finish Line,Moline,171,#171 #0171,4500 16th St.,IL,61265
Finish Line,Pittsburgh,173,#173 #0173,233 South Hills Village,PA,15241
Finish Line,Janesville,174,#174 #0174,2500 Milton Ave.,WI,53545
Finish Line,Bossier City,175,#175 #0175,2950 E Texas St,LA,71111
Finish Line,Colonial Heights,179,#179 #0179,230 Southpark Circle,VA,23834
Finish Line,Monroe,180,#180 #0180,4700 Milhaven Rd #1126,LA,71203
Finish Line,Cincinnati,182,#182 #0182,11700 Princeton Rd.,OH,45246
Finish Line,Adrian,183,#183 #0183,1357 S Main St,MI,49221
Finish Line,Savannah,185,#185 #0185,14045 Abercorn,GA,31419
Finish Line,Davenport,187,#187 #0187,320 W Kimberly Rd.,IA,52806
Finish Line,N. Little Rock,188,#188 #0188,3929 McCain Mall,AR,72116
Finish Line,Brandon,190,#190 #0190,622 Brandon Town Ctr.,FL,33511
Finish Line,Springfield,191,#191 #0191,2501 W Wabash,IL,62704
Finish Line,Merrillville,192,#192 #0192,2273 Southlake Mall,IN,46410
Finish Line,Fort Wayne,193,#193 #0193,4201 Coldwater Rd.,IN,46805
Finish Line,Peru,194,#194 #0194,3940 Route 251 Wenzel Rd.,IL,61354
Finish Line,Piqua,195,#195 #0195,987 E Ash St.,OH,45356
Finish Line,Greensburg,196,#196 #0196,Route 30 E,PA,15601
Finish Line,Pensacola,197,#197 #0197,5100 N 9th Ave.,FL,32504
Finish Line,Panama City,198,#198 #0198,2138 Martin Luther King J,FL,32405
Finish Line,Columbus,199,#199 #0199,2719 Eastland Mall,OH,43232
Finish Line,Roanoke,200,#200 #0200,4802 Valley View Blvd.,VA,24012
Finish Line,Lynchburg,201,#201 #0201,3405 Candlers Mountain Rd,VA,24502
Finish Line,Naples,202,#202 #0202,1840 N Tamiami Trail,FL,34102
Finish Line,Chesapeake,203,#203 #0203,1401 Greenbrier Pkwy,VA,23320
Finish Line,Cincinnati,205,#205 #0205,9605 Colerain Ave,OH,45251
Finish Line,Indianapolis,206,#206 #0206,49 W Maryland,IN,46204
Finish Line,Scranton,207,#207 #0207,Rte 6 Scranton/Carbondale,PA,18508
Finish Line,Cedar Park,209,#209 #0209,11200 Lakeline Mall Dr.,TX,78613
Finish Line,Augusta,210,#210 #0210,3450 Wrightsboro Rd,GA,30909
Finish Line,Chattanooga,211,#211 #0211,2100 Hamilton Place Blvd.,TN,37421
Finish Line,Virginia Beach,212,#212 #0212,701 Lynnhaven Pkwy.,VA,23452
Finish Line,Independence,213,#213 #0213,1138 Independence Center,MO,64057
Finish Line,Killeen,214,#214 #0214,2100 S W. S. Young Dr.,TX,76543
Finish Line,Frederick,216,#216 #0216,5500 Buckeystown Pike,MD,21703
Finish Line,Omaha,217,#217 #0217,10000 California St.,NE,68114
Finish Line,Sanford,218,#218 #0218,207 Town Center Circle,FL,32771
Finish Line,Abilene,220,#220 #0220,4310 Buffalo Gap Rd.,TX,79606
Finish Line,Tyler,221,#221 #0221,4601 S Broadway Ave,TX,75703
Finish Line,Wichita Falls,222,#222 #0222,3111 Midwestern Pkwy,TX,76308
Finish Line,Alexandria,224,#224 #0224,3437 Masonic Dr.,LA,71301
Finish Line,Indiana,226,#226 #0226,2334 Oakland Ave.,PA,15701
Finish Line,Ridgeland,227,#227 #0227,1200 E County Line Rd,MS,39157
Finish Line,Daytona Beach,228,#228 #0228,1700 W Intl Speedway Blvd,FL,32114
Finish Line,Orlando,230,#230 #0230,3201 E Colonial Dr,FL,32803
Finish Line,Louisville,231,#231 #0231,5000 Shelbyville Rd,KY,40207
Finish Line,Tampa,232,#232 #0232,12250 University Mall Ct.,FL,33612
Finish Line,Greenbay,236,#236 #0236,551 Bay Park Square,WI,54304
Finish Line,Bloomington,237,#237 #0237,1615 E Empire St,IL,61701
Finish Line,Lincoln,238,#238 #0238,222 Gateway Mall,NE,68505
Finish Line,Forsyth,239,#239 #0239,1039 Hickory Point Mall,IL,62535
Finish Line,Jacksonville,241,#241 #0241,9501 Arlington Expwy,FL,32225
Finish Line,Rochester,242,#242 #0242,1 Miracle Mile Dr,NY,14623
Finish Line,Franklin,243,#243 #0243,1800 Galleria Blvd.,TN,37067
Finish Line,Evansville,244,#244 #0244,800 N Green River Rd,IN,47715
Finish Line,Battle Creek,245,#245 #0245,5775 Beckly Rd.,MI,49015
Finish Line,Lansing,246,#246 #0246,5560 W Saginaw,MI,48917
Finish Line,Tupelo,248,#248 #0248,1001 Barnes Crossing Rd,MS,38804
Finish Line,Columbia,249,#249 #0249,100 Columbiana Circle,SC,29212
Finish Line,Tallahassee,251,#251 #0251,1500 Apalachee Pkwy.,FL,32301
Finish Line,Columbia,252,#252 #0252,10300 Little Patuxent Pkw,MD,21044
Finish Line,Ocoee,254,#254 #0254,9401 W Colonial Dr,FL,34761
Finish Line,Atlanta,255,#255 #0255,1313 Cumberland Mall,GA,30339
Finish Line,Littleton,257,#257 #0257,8505 Park Meadows Ctr Dr,CO,80124
Finish Line,St. Peters,258,#258 #0258,1600 Mid Rivers Mall,MO,63376
Finish Line,Dothan,259,#259 #0259,900 Commons Drive,AL,36303
Finish Line,Rochester,260,#260 #0260,412 Greece Ridge Center,NY,14626
Finish Line,Ft. Myers,261,#261 #0261,4125 Cleveland Ave.,FL,33901
Finish Line,San Angelo,262,#262 #0262,4001 Sunset Mall,TX,76904
Finish Line,Macon,264,#264 #0264,3661 Eisenhower Pkwy,GA,31212
Finish Line,Chattanooga,267,#267 #0267,318 Northgate Mall,TN,37415
Finish Line,Savannah,268,#268 #0268,7804 Abercorn Extension,GA,31406
Finish Line,Orange Park,269,#269 #0269,1910 Wells Rd,FL,32073
Finish Line,Syracuse,271,#271 #0271,9090 Carousel Center,NY,13290
Finish Line,Overland Park,273,#273 #0273,11633 West 95th Street,KS,66214
Finish Line,Middletown,274,#274 #0274,1 Galleria Dr.,NY,10941
Finish Line,Poughkeepsie,275,#275 #0275,2001 South Rd.,NY,12601
Finish Line,Memphis,276,#276 #0276,2760 N Germantown Pkwy.,TN,38133
Finish Line,Joplin,277,#277 #0277,101 Range Line Road,MO,64801
Finish Line,Oklahoma City,278,#278 #0278,2501 W. Memorial Road Sui,OK,73134
Finish Line,Holyoke,279,#279 #0279,50 Holyoke St.,MA,1040
Finish Line,Albany,280,#280 #0280,1 Crossgates Mall Rd,NY,12203
Finish Line,Dublin,282,#282 #0282,5043 Tuttle Crossing Blvd,OH,43016
Finish Line,Saratoga Springs,283,#283 #0283,3065 Rte 50,NY,12866
Finish Line,Dewitt,284,#284 #0284,3649 Erie Blvd E,NY,13214
Finish Line,Orland Park,285,#285 #0285,842 Orland Square,IL,60462
Finish Line,Aurora,286,#286 #0286,2136 Fox Valley Ctr,IL,60504
Finish Line,Bloomingdale,287,#287 #0287,313 Stratford Square,IL,60108
Finish Line,Salina,288,#288 #0288,2259 S 9th St.,KS,67401
Finish Line,Eatontown,290,#290 #0290,Route 35,NJ,7724
Finish Line,Manchester,291,#291 #0291,1500 S Willow St.,NH,3103
Finish Line,Midland,293,#293 #0293,4511 N Midkiff,TX,79705
Finish Line,Altamonte Springs,294,#294 #0294,451 Altamonte Ave,FL,32701
Finish Line,Waterford,296,#296 #0296,850 Hartford Turnpike,CT,6385
Finish Line,Coralville,297,#297 #0297,1451 Coral Ridge Ave.,IA,52241
Finish Line,Chesapeake,298,#298 #0298,4200 Portsmouth Blvd.,VA,23321
Finish Line,Fairview Heights,299,#299 #0299,177 St. Clair Square,IL,62208
Finish Line,Charleston,300,#300 #0300,2070 Sam Rittenberg,SC,29407
Finish Line,N. Charleston,301,#301 #0301,2150 Northwoods Blvd.,SC,29406
Finish Line,El Paso,304,#304 #0304,8401 Gateway W,TX,79925
Finish Line,Madison,305,#305 #0305,29 East Towne Mall,WI,53704
Finish Line,Madison,306,#306 #0306,73 West Towne Mall,WI,53719
Finish Line,Traverse City,307,#307 #0307,3200 S Airport Rd W.,MI,49684
Finish Line,Fort Gratiot,308,#308 #0308,4350 24th Ave,MI,48059
Finish Line,Chesterfield,309,#309 #0309,51C Chesterfield Mall,MO,63017
Finish Line,Waterbury,310,#310 #0310,495 Union St,CT,6702
Finish Line,Rockford,311,#311 #0311,7200 Harrison Ave.,IL,61112
Finish Line,Louisville,312,#312 #0312,4801-A 256 Outer Loop,KY,40219
Finish Line,Phoenix,313,#313 #0313,7611 W Thomas Rd,AZ,85033
Finish Line,Phoenix,314,#314 #0314,4550-200 E Cactus Rd.,AZ,85032
Finish Line,Phoenix,315,#315 #0315,9617 Metro Pkwy. W,AZ,85051
Finish Line,Mesa,316,#316 #0316,6555 E Southern Ave,AZ,85206
Finish Line,Taunton,317,#317 #0317,2 Galleria Mall Dr.,MA,2780
Finish Line,Meriden,318,#318 #0318,470 Lewis Ave.,CT,6451
Finish Line,Colorado Springs,319,#319 #0319,750 Citadel Drive East,CO,80909
Finish Line,Seattle,320,#320 #0320,401 NE Northgate Way #408,WA,98125
Finish Line,Alexandria,321,#321 #0321,5801 Duke St.,VA,22304
Finish Line,West Dundee,322,#322 #0322,1118 Spring Hill Mall,IL,60118
Finish Line,St. Louis,325,#325 #0325,67 South County Centerway,MO,63129
Finish Line,Wauwatosa,326,#326 #0326,2500 N Mayfair Rd.,WI,53226
Finish Line,Schaumburg,327,#327 #0327,G325 Woodfield Shopping C,IL,60173
Finish Line,Albuquerque,328,#328 #0328,6600 Menual N.E.,NM,87110
Finish Line,Bensalem,329,#329 #0329,616 Neshaminy Mall,PA,19020
Finish Line,Goodlettsville,330,#330 #0330,1000 Rivergate Pkwy.,TN,37072
Finish Line,Boise,331,#331 #0331,350 N Milwaukee,ID,83704
Finish Line,Tampa,333,#333 #0333,8139 Citrus Park Town Ctr,FL,33625
Finish Line,Towson,334,#334 #0334,825 Dulaney Valley Rd.,MD,21204
Finish Line,Skokie,335,#335 #0335,36 Old Orchard Ctr.,IL,60077
Finish Line,Auburn Hills,336,#336 #0336,4332 Baldwin Rd.,MI,48326
Finish Line,North Wales,338,#338 #0338,125 Montgomery Mall,PA,19454
Finish Line,Bowling Green,339,#339 #0339,2625 Scottsville Rd,KY,42104
Finish Line,Concord,340,#340 #0340,270 Loudon Rd.,NH,3301
Finish Line,Springfield,341,#341 #0341,2825 S Glenstone Ave,MO,65804
Finish Line,Humble,343,#343 #0343,20131 Hwy 59,TX,77338
Finish Line,Concord,344,#344 #0344,1480 US Highway 29 North,NC,28025
Finish Line,Camp Hill,345,#345 #0345,3518 Capital City Mall Dr,PA,17011
Finish Line,Tulsa,346,#346 #0346,4107 South Yale,OK,74135
Finish Line,Cerritos,347,#347 #0347,333 Los Cerritos Center,CA,90703
Finish Line,Port Richey,349,#349 #0349,9409 US Hwy 19,FL,34668
Finish Line,Lakeland,350,#350 #0350,3800 N US Hwy 98,FL,33809
Finish Line,St. Petersburg,351,#351 #0351,2288 Tyrone Court,FL,33710
Finish Line,Newport News,352,#352 #0352,12300 Jefferson Ave.,VA,23602
Finish Line,Las Vegas,353,#353 #0353,4300 Meadows Lane,NV,89107
Finish Line,Northridge,354,#354 #0354,9301 Tampa Ave,CA,91324
Finish Line,Staten Island,355,#355 #0355,2655 Richmond Ave,NY,10314
Finish Line,Hickory,357,#357 #0357,1960 Hwy. 70 SE,NC,28602
Finish Line,Sioux Falls,359,#359 #0359,4001 W 41st St.,SD,57106
Finish Line,Baltimore,361,#361 #0361,8200 Pery Hall Blvd,MD,21236
Finish Line,Fayetteville,362,#362 #0362,4201 N Shiloh Dr,AR,72703
Finish Line,Saugus,363,#363 #0363,1201 Broadway Square,MA,1906
Finish Line,Salem,364,#364 #0364,99 Rockingham Park Blvd,NH,3079
Finish Line,Horseheads,366,#366 #0366,3300 Chambers Rd South,NY,14845
Finish Line,Lombard,367,#367 #0367,162A Yorktown Center,IL,60148
Finish Line,Fort Smith,368,#368 #0368,5111 Rogers Ave.,AR,72903
Finish Line,Johnstown,371,#371 #0371,500 Galleria Dr.,PA,15904
Finish Line,Salisbury,372,#372 #0372,2300 North Salisbury Blvd,MD,21801
Finish Line,Alton,373,#373 #0373,124 Alton Square,IL,62002
Finish Line,Greeley,374,#374 #0374,2022 Greeley Mall,CO,80631
Finish Line,Austin,376,#376 #0376,2901 Capitol of Texas Hwy,TX,78746
Finish Line,Amarillo,377,#377 #0377,7701 W Interstate 40,TX,79121
Finish Line,Waldorf,379,#379 #0379,11110 Mall Circle,MD,20603
Finish Line,Clay,381,#381 #0381,4155 Route 31,NY,13041
Finish Line,Chicago,383,#383 #0383,835 N Michigan Ave,IL,60611
Finish Line,The Woodlands,384,#384 #0384,1201 Lake Woodlands Dr.,TX,77380
Finish Line,Montebello,387,#387 #0387,1819 Montebello Town Cent,CA,90640
Finish Line,Bethesda,389,#389 #0389,7101 Democracy Blvd.,MD,20817
Finish Line,Vernon Hills,390,#390 #0390,801 Hawthorne Center,IL,60061
Finish Line,Culver City,392,#392 #0392,6000 Sepulveda Blvd,CA,90230
Finish Line,Morrow,393,#393 #0393,1105 Southlake Mall,GA,30260
Finish Line,Dulles,394,#394 #0394,21100 Dulles Town Circle,VA,20166
Finish Line,Bayshore,395,#395 #0395,1701 Sunrise Highway,NY,11706
Finish Line,Pennsdale,396,#396 #0396,300 Lycoming Mall Circle,PA,17756
Finish Line,Sterling,397,#397 #0397,2900 E Lincolnway,IL,61081
Finish Line,Lancaster,399,#399 #0399,547 Park City Center,PA,17601
Finish Line,Portland,400,#400 #0400,1228 Lloyd Center,OR,97232
Finish Line,Akron,401,#401 #0401,2000 Brittain Rd.,OH,44310
Finish Line,Littleton,402,#402 #0402,8501 West Bowles,CO,80123
Finish Line,Christiansburg,403,#403 #0403,760 New River Rd.,VA,24073
Finish Line,Grandville,405,#405 #0405,3700 Rivertown Parkway,MI,49418
Finish Line,National City,406,#406 #0406,3030 Plaza Bonita Rd,CA,91950
Finish Line,Champaign,407,#407 #0407,2000 N Neil St.,IL,61820
Finish Line,Sugar Land,409,#409 #0409,16535 Southwest Freeway,TX,77479
Finish Line,Sioux City,410,#410 #0410,4400 Sergeant Rd.,IA,51106
Finish Line,Buford,412,#412 #0412,3333 Buford Dr.,GA,30519
Finish Line,Voorhees,414,#414 #0414,1455 Echelon Mall,NJ,8043
Finish Line,Memphis,417,#417 #0417,1278 Southland Mall,TN,38116
Finish Line,Brockton,418,#418 #0418,200 Westgate Dr,MA,2301
Finish Line,Clearwater,419,#419 #0419,27001 US Hwy 19 N.,FL,33761
Finish Line,Westminster,420,#420 #0420,2023 Westminster Mall,CA,92683
Finish Line,Grand Forks,421,#421 #0421,2800 S Columbia Rd.,ND,58201
Finish Line,Trumbull,423,#423 #0423,5065 Main St.,CT,6611
Finish Line,Stockton,424,#424 #0424,4950 Pacific Ave,CA,95207
Finish Line,Douglasville,426,#426 #0426,1060 Arbor Place Mall,GA,30135
Finish Line,Concord,428,#428 #0428,8111 Concord Mills Blvd,NC,28027
Finish Line,Katy,429,#429 #0429,5000 Katy Mills Circle,TX,77494
Finish Line,Tucson,431,#431 #0431,5870 East Broadway Blvd.,AZ,85711
Finish Line,Greensboro,432,#432 #0432,325 Four Seasons Town Cen,NC,27407
Finish Line,Ft. Worth,433,#433 #0433,1940 Green Oaks Rd,TX,76116
Finish Line,Norfolk,435,#435 #0435,880 N Military Hwy.,VA,23502
Finish Line,Broomfield,437,#437 #0437,1West Flatiron Circle,CO,80021
Finish Line,Leominster,438,#438 #0438,100 Commercial Road,MA,1453
Finish Line,Sierra Vista,439,#439 #0439,2200 El Mercado Loop,AZ,85635
Finish Line,Calumet City,440,#440 #0440,96 River Oaks Center,IL,60409
Finish Line,Baltimore,442,#442 #0442,6901 Security Blvd,MD,21244
Finish Line,Massapequa,443,#443 #0443,319 Sunrise Mall,NY,11758
Finish Line,Tacoma,444,#444 #0444,4502 South Steele Street,WA,98409
Finish Line,Bangor,445,#445 #0445,663 Stillwater Ave,ME,4401
Finish Line,Fairfield,447,#447 #0447,1350 Travis Boulevard,CA,94533
Finish Line,Asheville,449,#449 #0449,3 South Tunnel Road,NC,28805
Finish Line,Greenville,450,#450 #0450,700 Haywood Mall,SC,29607
Finish Line,Forestville,451,#451 #0451,3289 Donnell Dr.,MD,20747
Finish Line,Exton,453,#453 #0453,372 Exton Square Parkway,PA,19341
Finish Line,Beaumont,455,#455 #0455,6155 Eastex Freeway,TX,77706
Finish Line,Spokane,458,#458 #0458,1230 Northtown Mall,WA,99207
Finish Line,Muskegon,462,#462 #0462,5600 Harvey St.,MI,49444
Finish Line,Frisco,463,#463 #0463,2601 Preston Road,TX,75034
Finish Line,Mesa,464,#464 #0464,1445 W. Southern Ave.,AZ,85202
Finish Line,Lithonia,466,#466 #0466,2929 Turner Hill Rd.,GA,30038
Finish Line,Norman,467,#467 #0467,3531 West Main Street,OK,73072
Finish Line,Pittsburgh,468,#468 #0468,2470 Robinson Center Driv,PA,15205
Finish Line,Salinas,469,#469 #0469,416 Northridge Mall,CA,93906
Finish Line,Wilmington,470,#470 #0470,3500 Oleander Drive,NC,28403
Finish Line,Lake Charles,471,#471 #0471,408 West Prien Lake Rd.,LA,70601
Finish Line,Bellingham,473,#473 #0473,1 Bellis Fair Parkway,WA,98226
Finish Line,Columbus,474,#474 #0474,1500 Polaris Parkway,OH,43240
Finish Line,Fort Collins,477,#477 #0477,215 East Foothills Pkwy,CO,80525
Finish Line,Austin,478,#478 #0478,6001 Airport Blvd.,TX,78752
Finish Line,Danville,479,#479 #0479,325 Piedmont Drive,VA,24540
Finish Line,Tulsa,480,#480 #0480,7021 S. Memorial Drive,OK,74133
Finish Line,Chicago Ridge,484,#484 #0484,620 Chicago Ridge Mall Dr,IL,60415
Finish Line,Saginaw,487,#487 #0487,4886 Fashion Square Mall,MI,48604
Finish Line,Freehold,489,#489 #0489,3710 Route 9,NJ,7728
Finish Line,Brookfield,491,#491 #0491,95 North Moorland Rd.,WI,53005
Finish Line,Chandler,492,#492 #0492,3111 West Chandler Blvd,AZ,85226
Finish Line,Cincinnati,496,#496 #0496,7875 Montgomery Road,OH,45236
Finish Line,Attleboro,497,#497 #0497,999 S. Washington Street,MA,2760
Finish Line,Houston,498,#498 #0498,1000 West Oaks Mall,TX,77082
Finish Line,Jersey City,512,#512 #0512,30 Mall Drive West,NJ,7310
Finish Line,Buffalo,513,#513 #0513,1 Walden Galleria Drive,NY,14225
Finish Line,Huntsville,514,#514 #0514,2801 Memorial Pkwy S.,AL,35801
Finish Line,Wilkes-Barre,515,#515 #0515,Business Route 309,PA,18702
Finish Line,Lawton,516,#516 #0516,200 C Ave,OK,73501
Finish Line,Florence,517,#517 #0517,2701 David McLeod Blvd.,SC,29501
Finish Line,Garden City,520,#520 #0520,630 Old Country Rd,NY,11530
Finish Line,Spartanburg,521,#521 #0521,205 West Blackstock Rd,SC,29301
Finish Line,Sterling Heights,522,#522 #0522,14600 Lakeside Circle,MI,48313
Finish Line,Monroeville,523,#523 #0523,200 Mall Road,PA,15146
Finish Line,Murfreesboro,524,#524 #0524,1720 Old Fort Parkway,TN,37129
Finish Line,Coral Springs,525,#525 #0525,9527 West Atlantic Blvd.,FL,33071
Finish Line,Cheyenne,527,#527 #0527,1400 Dell Range Blvd,WY,82009
Finish Line,El Paso,529,#529 #0529,750 Sunland Park Drive,TX,79912
Finish Line,Tallahassee,530,#530 #0530,2415 N. Monroe Street,FL,32303
Finish Line,Orlando,532,#532 #0532,4200 Conroy Road,FL,32839
Finish Line,Destin,533,#533 #0533,4321 Legendary Drive,FL,32541
Finish Line,Mankato,535,#535 #0535,1850 Adams Street,MN,56001
Finish Line,St. Cloud,536,#536 #0536,4101 West Division Street,MN,56301
Finish Line,Wayne,538,#538 #0538,2175 Willowbrook Mall,NJ,7470
Finish Line,Boynton Beach,539,#539 #0539,801 North Congress Avenue,FL,33426
Finish Line,Jacksonville,540,#540 #0540,375 Jacksonville Mall,NC,28546
Finish Line,Harrisburg,541,#541 #0541,Route 83   Paxton St.,PA,17111
Finish Line,Yorktown Heights,543,#543 #0543,650 Lee Boulevard,NY,10598
Finish Line,Stroudsburg,544,#544 #0544,Route #611,PA,18360
Finish Line,Newark,546,#546 #0546,1141 Newpark Mall,CA,94560
Finish Line,Reno,547,#547 #0547,5117 Meadowood Mall Circl,NV,89502
Finish Line,Auburn,548,#548 #0548,385 Southbridge Street,MA,1501
Finish Line,Glen Burnie,551,#551 #0551,7900 Governor Ritchie Hwy,MD,21061
Finish Line,Dearborn,552,#552 #0552,18900 Michigan Ave.,MI,48126
Finish Line,Concord,553,#553 #0553,120A Sunvalley,CA,94520
Finish Line,Richmond,554,#554 #0554,11500 Midlothian Turnpike,VA,23235
Finish Line,Richmond,557,#557 #0557,2431 Hilltop Mall Road,CA,94806
Finish Line,Fairfax,558,#558 #0558,11952U Fair Oaks,VA,22033
Finish Line,Johnson City,563,#563 #0563,601-635 Harry L. Drive,NY,13790
Finish Line,Huntsville,565,#565 #0565,5901 University Drive Nor,AL,35806
Finish Line,St Louis,566,#566 #0566,129 West County Center,MO,63131
Finish Line,Hialeah,567,#567 #0567,1635 West 49th Street,FL,33012
Finish Line,Maple Grove,569,#569 #0569,12445 Elm Creek Boulevard,MN,55369
Finish Line,Myrtle Beach,570,#570 #0570,2000 Coastal Grand Circle,SC,29577
Finish Line,Mount Hope,571,#571 #0571,2 Crossroads Mall,WV,25880
Finish Line,Spanish Fort,572,#572 #0572,30500 St Highway 181,AL,36527
Finish Line,Milford,573,#573 #0573,1201 Boston Post Rd.,CT,6460
Finish Line,Elmhurst,574,#574 #0574,90-15 Queens Blvd.,NY,11373
Finish Line,Enfield,575,#575 #0575,90 Elm Street,CT,6082
Finish Line,College Station,578,#578 #0578,1500 Harvey Road,TX,77840
Finish Line,Palmdale,579,#579 #0579,1233 West Avenue P,CA,93551
Finish Line,Youngstown,580,#580 #0580,7401 Market St.,OH,44512
Finish Line,Gallup,581,#581 #0581,1300 West I-40 Frontage R,NM,87301
Finish Line,Tracy,582,#582 #0582,3200 North Naglee Rd.,CA,95304
Finish Line,Bakersfield,583,#583 #0583,2701 Ming Avenue,CA,93304
Finish Line,Valley Stream,584,#584 #0584,1076 Green Acres Mall,NY,11581
Finish Line,Okemos,587,#587 #0587,1982 West Grand River Ave,MI,48864
Finish Line,Jackson,593,#593 #0593,3645 Highway 80 West,MS,39209
Finish Line,Gainsville,594,#594 #0594,6419 Newberry Rd.,FL,32605
Finish Line,Downey,595,#595 #0595,254 Stonewood St. Suite F,CA,90241
Finish Line,Kenner,597,#597 #0597,1401 West Esplanade Ave.,LA,70065
Finish Line,Cedar Rapids,598,#598 #0598,4444 1st Avenue NE,IA,52402
Finish Line,Troy,599,#599 #0599,2800 West Big Beaver Road,MI,48084
Finish Line,Philadelphia,600,#600 #0600,1800 Franklin Mills Circl,PA,19154
Finish Line,Prince William,601,#601 #0601,2700 Potomac Mills Circle,VA,22192
Finish Line,Lakewood,602,#602 #0602,14500 West Colfax Avenue,CO,80401
Finish Line,Burnsville,603,#603 #0603,1091/1092 Burnsville Cent,MN,55306
Finish Line,Des Moines,604,#604 #0604,101 Jordan Creek Parkway,IA,50266
Finish Line,Brooklyn,605,#605 #0605,5368 Kings Plaza,NY,11234
Finish Line,Wyomissing,606,#606 #0606,1665 State Hill Rd.,PA,19610
Finish Line,San Jose,607,#607 #0607,925 A Blossom Hill Rd.,CA,95123
Finish Line,Arcadia,608,#608 #0608,400 South Baldwin Avenue,CA,91007
Finish Line,Rancho Cucamonga,609,#609 #0609,12540 North Main Street,CA,91739
Finish Line,Gretna,611,#611 #0611,197 Westbank Expy.,LA,70053
Finish Line,Bloomington,612,#612 #0612,245 East Broadway,MN,55425
Finish Line,Hyannis,613,#613 #0613,769 Lyannough Rd.,MA,2601
Finish Line,King of Prussia,614,#614 #0614,160 N. Golf Road,PA,19406
Finish Line,Lafayette,615,#615 #0615,5725 Johnston Street,LA,70503
Finish Line,El Cajon,616,#616 #0616,796 Parkway Plaza,CA,92020
Finish Line,Murray,617,#617 #0617,6191 S. State Street,UT,84107
Finish Line,Milpitas,619,#619 #0619,402 Great Mall Dr.,CA,95035
Finish Line,Grapevine,620,#620 #0620,3000 Grapevine Mills Park,TX,76051
Finish Line,Merritt Island,621,#621 #0621,356 Merritt Square Mall,FL,32952
Finish Line,Orem,622,#622 #0622,575 East University Parkw,UT,84097
Finish Line,Tucson,623,#623 #0623,4500 N. Oracle Rd.,AZ,85705
Finish Line,El Centro,625,#625 #0625,3451 South Dogwood Avenue,CA,92243
Finish Line,Hazelwood,626,#626 #0626,5555 St. Louis Mills Blvd,MO,63042
Finish Line,Irvine,627,#627 #0627,81 Fortune Drive,CA,92618
Finish Line,Ocala,629,#629 #0629,3100 College Road,FL,34474
Finish Line,Los Angeles,630,#630 #0630,8500 Beverly Blvd.,CA,90048
Finish Line,Zanesville,631,#631 #0631,3575 Maple Avenue,OH,43701
Finish Line,Palm Beach County,634,#634 #0634,10300 West Forest Hill Bl,FL,33414
Finish Line,Charlotte,636,#636 #0636,6801 Northlake Mall Drive,NC,28216
Finish Line,Miami,638,#638 #0638,11401 NW 12th Street,FL,33172
Finish Line,Cherry Hill,640,#640 #0640,2000 Route 38,NJ,8002
Finish Line,Port Arthur,641,#641 #0641,3100 Highway 365,TX,77642
Finish Line,Peabody,642,#642 #0642,210 Andover St.,MA,1960
Finish Line,Cumberland,644,#644 #0644,1262 Vocke Road,MD,21502
Finish Line,Ontario,645,#645 #0645,One Mills Circle,CA,91764
Finish Line,Manassas,646,#646 #0646,8300 Sudley Rd,VA,20109
Finish Line,Jensen Beach,647,#647 #0647,3006 North West Federal H,FL,34957
Finish Line,Birmingham,648,#648 #0648,718 Brookwood Village,AL,35209
Finish Line,Jackson,649,#649 #0649,2021 North Highland Ave.,TN,38305
Finish Line,Cambridge,650,#650 #0650,100 Cambridgeside Place,MA,2141
Finish Line,Ft. Lauderdale,651,#651 #0651,2414 East Sunrise Blvd,FL,33304
Finish Line,Houston,652,#652 #0652,5015 Westheimer,TX,77056
Finish Line,Southaven,654,#654 #0654,6550 Towne Center Loop,MS,38671
Finish Line,Denton,655,#655 #0655,2201 I-35 E South,TX,76205
Finish Line,Wheaton,656,#656 #0656,11160 Veirs Mill Road,MD,20902
Finish Line,Clarksville,659,#659 #0659,757 Lewis   Clark Parkway,IN,47129
Finish Line,San Antonio,660,#660 #0660,15900 LA Cantera Parkway,TX,78256
Finish Line,Columbus,662,#662 #0662,1624 North High Street,OH,43201
Finish Line,Waterloo,663,#663 #0663,2060 Crossroads Blvd.,IA,50702
Finish Line,West Nyack,664,#664 #0664,2330 Palisades Center Dri,NY,10994
Finish Line,Eau Claire,667,#667 #0667,4800 Golf Road,WI,54701
Finish Line,Simi Valley,668,#668 #0668,1555 Simi Town Center Way,CA,93062
Finish Line,Union Gap,669,#669 #0669,2529 Main Street,WA,98903
Finish Line,Lubbock,670,#670 #0670,6002 Slide Road,TX,79414
Finish Line,Grand Rapids,671,#671 #0671,3159 28th Street SE,MI,49512
Finish Line,Novi,672,#672 #0672,27552 Novi Road,MI,48377
Finish Line,Denver,673,#673 #0673,3000 East First Avenue,CO,80206
Finish Line,Gadsden,674,#674 #0674,1001 Rainbow Dr.,AL,35901
Finish Line,Marlborough,675,#675 #0675,601 Donald Lynch Blvd.,MA,1752
Finish Line,Vienna,676,#676 #0676,281 Grand Central Avenue,WV,26105
Finish Line,Houston,677,#677 #0677,526 Almeda Mall Road,TX,77075
Finish Line,Elizabeth,678,#678 #0678,651 Kapkowski Road,NJ,7201
Finish Line,Mobile,679,#679 #0679,3477 Bel Air Mall,AL,36606
Finish Line,Grand Junction,680,#680 #0680,2424 US Highway 6   50,CO,81505
Finish Line,Lacrosse,683,#683 #0683,3800 State Road 16,WI,54601
Finish Line,Manchester,684,#684 #0684,194 Buckland Hills Drive,CT,6040
Finish Line,Omaha,685,#685 #0685,17305 Davenport Street,NE,68118
Finish Line,Chicago,686,#686 #0686,7601 South Cicero Avenue,IL,60652
Finish Line,Little Rock,687,#687 #0687,6000 West Markham Street,AR,72205
Finish Line,Bronx,688,#688 #0688,262 East Fordham Rd,NY,10458
Finish Line,Victoria,689,#689 #0689,7800 North Navarro,TX,77904
Finish Line,Raleigh,690,#690 #0690,5959 Triangle Town Blvd.,NC,27616
Finish Line,Beachwood,691,#691 #0691,26300 Cedar Road,OH,44122
Finish Line,Collierville,694,#694 #0694,4650 Merchants Park Circl,TN,38017
Finish Line,Meridian,695,#695 #0695,1160 Bonita Lakes Circle,MS,39301
Finish Line,Loveland,696,#696 #0696,5897 Sky Pond Drive,CO,80538
Finish Line,Columbus,700,#700 #0700,3507 Manchester Expresswa,GA,31909
Finish Line,Houston,702,#702 #0702,#217 Memorial City Mall,TX,77024
Finish Line,Livingston,704,#704 #0704,112 Eisenhower Parkway,NJ,7039
Finish Line,Dartmouth,705,#705 #0705,155 Dartmouth Mall,MA,2747
Finish Line,Florence,706,#706 #0706,301 Cox Creek Parkway,AL,35630
Finish Line,Denver,707,#707 #0707,8316-1640 E 49th Avenue,CO,80238-0238
Finish Line,Carmel,708,#708 #0708,14511 Clay Terrace Blvd.,IN,46032
Finish Line,Arlington,712,#712 #0712,1100 South Hayes Street,VA,22202
Finish Line,Twin Falls,713,#713 #0713,1485 Pole Line Road East,ID,83301
Finish Line,Odessa,714,#714 #0714,4101 East 42nd Street,TX,79762
Finish Line,Nashua,716,#716 #0716,310 Daniel Webster Highwa,NH,3060
Finish Line,White Plains,717,#717 #0717,100 Main Street,NY,10601-0601
Finish Line,Selinsgrove,718,#718 #0718,Routes 11   15,PA,17870
Finish Line,Stongsville,719,#719 #0719,310 Southpark Center,OH,44136
Finish Line,Orlando,720,#720 #0720,8001 South Orange Blossom,FL,32809
Finish Line,Plainfield,723,#723 #0723,2498 Futura Park Way,IN,46168
Finish Line,State College,724,#724 #0724,2901 East College Avenue,PA,16801
Finish Line,Minnetonka,725,#725 #0725,12401 Wayzata Blvd.,MN,55305
Finish Line,Aurora,726,#726 #0726,14200 East Alemada Ave,CO,80012
Finish Line,Knoxville,727,#727 #0727,7600 Kingston Pike,TN,37919
Finish Line,Knoxville,728,#728 #0728,3001 Knoxville Center Dri,TN,37924
Finish Line,Fayetteville,729,#729 #0729,403 Cross Creek Mall,NC,28303
Finish Line,Maryville,730,#730 #0730,151 Foothills Mall Drive,TN,37801
Finish Line,Bel Air,731,#731 #0731,664B Bel Air Road,MD,21014
Finish Line,Las Cruces,733,#733 #0733,700 South Telshor Blvd.,NM,88011
Finish Line,Houston,734,#734 #0734,12300 N Freeway,TX,77060-7060
Finish Line,Dallas,736,#736 #0736,13350 Dallas Parkway,TX,75240
Finish Line,Houma,737,#737 #0737,5953 West Park Avenue,LA,70364
Finish Line,Kansas City,739,#739 #0739,1837 Village West Parkway,KS,66111
Finish Line,Providence,740,#740 #0740,One Providence Place,RI,2903
Finish Line,Pasadena,742,#742 #0742,229 Pasadena Town Square,TX,77506
Finish Line,Jacksonville,744,#744 #0744,10281 Midtown Parkway #21,FL,32246
Finish Line,Branson,747,#747 #0747,713 Branson Landing,MO,65616
Finish Line,Philadelphia,748,#748 #0748,1519 Chestnut Street,PA,19107-9107
Finish Line,Garland,749,#749 #0749,480 Cedar Sage Drive,TX,75040-5040
Finish Line,Harrisburg,801,#801 #0801,Route 22   Colonial Road,PA,17109
Finish Line,San Bruno,803,#803 #0803,1150 El Camino Real,CA,94066
Finish Line,Atlantic City,804,#804 #0804,1 Atlantic Ocean,NJ,8401
Finish Line,Hattiesburg,805,#805 #0805,1000 Turtle Creek Drive,MS,39402
Finish Line,Columbia,806,#806 #0806,2300 Bernadette Drive,MO,65203
Finish Line,Danbury,807,#807 #0807,7 Backus Avenue,CT,6810
Finish Line,Decatur,808,#808 #0808,1801 Beltline Road SW,AL,35601
Finish Line,Missoula,809,#809 #0809,2901 Brooks Street,MT,59801
Finish Line,San Jose,810,#810 #0810,2200 Eastridge Loop,CA,95122
Finish Line,McLean,812,#812 #0812,7910 L Tysons Corner Cent,VA,22102
Finish Line,Tempe,813,#813 #0813,5000 Arizona Mills Circle,AZ,85282
Finish Line,Hanover,814,#814 #0814,1155 Carlisle Street,PA,17331
Finish Line,Cleveland,815,#815 #0815,200 Paul Huff Parkway,TN,37312
Finish Line,Braintree,816,#816 #0816,250 Granite Street RT37,MA,2184
Finish Line,Daly City,817,#817 #0817,3 Serramonte Center,CA,94015
Finish Line,Lynnwood,818,#818 #0818,3000 184th St SW,WA,98037
Finish Line,Sunrise,819,#819 #0819,12801 W. Sunrise Blvd.,FL,33323
Finish Line,Dallas,820,#820 #0820,8687 North Central Expres,TX,75225
Finish Line,Aurora,822,#822 #0822,6150 South Main Street,CO,80016-0016
Finish Line,Tarentum,823,#823 #0823,348 Pittsburgh Mills Circ,PA,15084
Finish Line,Hanover,824,#824 #0824,7000 Arundel Mills Circle,MD,21076
Finish Line,Chico,825,#825 #0825,1950 E 20th Street,CA,95928-5928
Finish Line,Fort Myers,826,#826 #0826,9903 Gulf Coast Main Street,FL,33913
Finish Line,Montgomery,827,#827 #0827,1012 Eastdale Mall,AL,36117-6117
Finish Line,Philadelphia,830,#830 #0830,901 Market Street,PA,19107
Finish Line,Fond Du Lac,831,#831 #0831,835 W. Johnson Street,WI,54935
Finish Line,Jonesboro,832,#832 #0832,3000 East Highland,AR,72401
Finish Line,Yonkers,833,#833 #0833,6K Mall Walk,NY,10704-0704
Finish Line,Rogers,834,#834 #0834,2203 South 45th Street,AR,72758-2758
Finish Line,Tampa,835,#835 #0835,328 Westshore Blvd,FL,33609
Finish Line,Springfield,836,#836 #0836,1250 Baltimore Pike,PA,19064
Finish Line,Hayward,837,#837 #0837,390 Southland Mall Drive,CA,94545
Finish Line,Valencia,838,#838 #0838,24201 W. Valencia Blvd.,CA,91355
Finish Line,Burlington,839,#839 #0839,75 Middlesex Turnpike,MA,1803
Finish Line,Palm Desert,840,#840 #0840,72-840 Highway 111,CA,92260
Finish Line,Auburn,841,#841 #0841,1101 SuperMall Way,WA,98001
Finish Line,Elizabethtown,842,#842 #0842,1704 N. Dixie Hwy,KY,42701
Finish Line,Miami,843,#843 #0843,20505 South Dixie Highway,FL,33189-3189
Finish Line,Las Vegas,844,#844 #0844,6611 Las Vegas Blvd South,NV,89109-9109
Finish Line,Jacksonville,845,#845 #0845,10300 Southside Blvd.,FL,32256
Finish Line,Knoxville,847,#847 #0847,11365 Parkside Drive,TN,37934
Finish Line,Panorama City,848,#848 #0848,8443 Van Nuys Blvd.,CA,91402
Finish Line,Mason City,849,#849 #0849,100 S. Federal Avenue,IA,50401
Finish Line,Canoga Park,850,#850 #0850,6600 Topanga Canyon Blvd,CA,91303-1303
Finish Line,Birmingham,851,#851 #0851,5024 Pinnacle Square,AL,35235-5235
Finish Line,Wesley Chapel,852,#852 #0852,28210  Paseo Drive #111,FL,33543
Finish Line,Charlottesville,855,#855 #0855,1632 East Rio Road,VA,22901
Finish Line,Sarasota,856,#856 #0856,8201 South Tamiami Trail,FL,34238-4238
Finish Line,Yuba City,858,#858 #0858,1215 Colusa Avenue Suite 1145E,CA,95991-5991
Finish Line,Pueblo,859,#859 #0859,3429 Dillon Drive,CO,81008-1008
Finish Line,Rome,861,#861 #0861,2770 Martha Berry Highway,GA,30165-0165
Finish Line,Westminster,862,#862 #0862,14647 Delaware Street,CO,80020-0020
Finish Line,Pembroke Pines,863,#863 #0863,521 SW 145th Terrace,FL,33027-3027
Finish Line,Quincy,864,#864 #0864,423 N 32nd Street,IL,62301-2301
Finish Line,Gainesville,865,#865 #0865,150 Pearl Nix Parkway,GA,30501-0501
Finish Line,Bradenton,867,#867 #0867,303 US 301 BLVD W,FL,34205-4205
Finish Line,Lake Grove,868,#868 #0868,313 Smith Haven Mall,NY,11755-1755
Finish Line,Papillion,870,#870 #0870,7775 Olson Drive,NE,68046-8046
Finish Line,Santa Ana,871,#871 #0871,2800 N Main Street,CA,92705-2705
Finish Line,Annapolis,872,#872 #0872,1125 Annapolis Mall,MD,21401-1401
Finish Line,Tempe,873,#873 #0873,2000 E Rio Salado Parkway,AZ,85281-5281
Finish Line,Beavercreek,874,#874 #0874,75 Chestnut Street,OH,45440-5440
Finish Line,Duluth,877,#877 #0877,1600 Miller Trunk Highway,MN,55811
Finish Line,Pearland,878,#878 #0878,11200 Broadway,TX,77584-7584
Finish Line,Friendswood,879,#879 #0879,1100 Baybrook Mall,TX,77546-7546
Finish Line,Plantation,881,#881 #0881,8000 W Broward Blvd,FL,33317-3317
Finish Line,Aiken,884,#884 #0884,2441 Whiskey Rd South,SC,29803-9803
Finish Line,Cedar Hill,888,#888 #0888,305 West FM 1382,TX,75104-5104
Finish Line,San Antonio,889,#889 #0889,849 E Commerce Street,TX,78205-8205
Finish Line,Centerville,893,#893 #0893,2922 Watson Blvd,GA,31028-1028
Finish Line,Lee's Summit,894,#894 #0894,860-N NW Blue Parkway,MO,64086
Finish Line,Seattle,896,#896 #0896,1425 Southcenter Mall,WA,98188
Finish Line,Hampton,1003,#1003 #01003,2380 Mcmenamin Street,VA,23666
Finish Line,Maumee,1004,#1004 #01004,3100 Main Street,OH,43537
Finish Line,Noblesville,1007,#1007 #01007,13971 TOWNE CENTRE BLVD,IN,46060
Finish Line,Troy,1008,#1008 #01008,470 W 14 MILE ROAD,MI,48083
Finish Line,Albuquerque,1009,#1009 #01009,"10,000 Coors Blvd, NW",NM,87114
Finish Line,Texarkana,1010,#1010 #01010,2400 Richmond Rd. Suite 27,TX,75503
Finish Line,BATON ROUGE,1011,#1011 #01011,6401 BLUEBONNET BOULEVARD,LA,70836
Finish Line,Bellevue,1012,#1012 #01012,264 Bellevue Square,WA,98004
Finish Line,Birmingham,1014,#1014 #01014,2000 Riverchase Galleria,AL,35244
Finish Line,Paramus,1015,#1015 #01015,1 Garden State Plaza,NJ,7652
Finish Line,Corpus Christi,1016,#1016 #01016,5488 South Padre Island,TX,78411
Finish Line,Fargo,1018,#1018 #01018,3902 13th Avenue South,ND,58103
Finish Line,Livonia,1019,#1019 #01019,37650 West Six Mile Rd.,MI,48152
Finish Line,Las Vegas,1020,#1020 #01020,3200 Las Vegas Blvd Sout,NV,89109
Finish Line,Palm Beach Gardens,1021,#1021 #01021,3101 PGA Boulevard,FL,33410
Finish Line,Houston,1022,#1022 #01022,1400 Willowbrook Mall,TX,77070
Finish Line,Natick,1023,#1023 #01023,1245 Worcester Street,MA,1760
Finish Line,Nashville,1024,#1024 #01024,411 Opry Mills Drive,TN,37214
Finish Line,Roseville,1025,#1025 #01025,1151 Galleria Blvd,CA,95678
Finish Line,Las Vegas,1027,#1027 #01027,"7400 Las Vegas Blvd., South",NV,89123
Finish Line,Myrtle Beach,1028,#1028 #01028,10835 Kings Road,SC,29572
Finish Line,Charleston,1029,#1029 #01029,4840 Tanger Outlet Blvd,SC,29418
Finish Line,Texas City,1030,#1030 #01030,5885 Gulf Freeway,TX,77539
Finish Line,Birch Run,1031,#1031 #01031,12156 South Beyer Road,MI,48415
Finish Line,Grove City,1032,#1032 #01032,1911 Leesburg Grove City Road,PA,16127
Finish Line,Aurora,1033,#1033 #01033,549 South Chillicothe Road,OH,44202
Finish Line,San Marcos,1034,#1034 #01034,3939 IH-35 South #990,TX,78666
Finish Line,Mercedes,1035,#1035 #01035,5001 East Expressway 83,TX,78570
Finish Line,San Ysidro,1036,#1036 #01036,4211 Camino de la Plaza,CA,92173
Finish Line,Michigan City,1037,#1037 #01037,1610 Wabash Street,IN,46360
Finish Line,Williamsburg,1038,#1038 #01038,5715-62A Richmond Road,VA,23188
Finish Line,Orange,1039,#1039 #01039,20 City Boulevard West,CA,92868
Finish Line,Edison,1040,#1040 #01040,55 Parsonage Road,NJ,8837
Finish Line,Mission Viejo,1041,#1041 #01041,770 Shops at Mission Viejo,CA,92691
Finish Line,McAllen,1043,#1043 #01043,2200 South 10th Street,TX,78503
Finish Line,Ellenton,1044,#1044 #01044,5339 Factory Shops Boulev,FL,34222
Finish Line,Merrimack,1045,#1045 #01045,80 Premium Outlets Boulev,NH,2184
Finish Line,Gulfport,1046,#1046 #01046,10225 Factory Shops Blvd,MS,39503
Finish Line,Dawsonville,1047,#1047 #01047,800 Highway 400 South,GA,30534
Finish Line,Hagerstown,1048,#1048 #01048,495 Premium Outlets Blvd.,MD,21740
Finish Line,Round Rock,1049,#1049 #01049,4401 North IH-35,TX,78664
Finish Line,Chesterfield,1050,#1050 #01050,18575 Olive Street Rd.,MO,63005
Finish Line,Gaffney,1051,#1051 #01051,1 Factory Shops Boulevard,SC,29341
Finish Line,Atlantic City,1052,#1052 #01052,2017 Atlantic Ave.,NJ,8401
Finish Line,Commerce,1053,#1053 #01053,800 Steven B Tanger Blvd,GA,30529
Finish Line,Jeffersonville,1054,#1054 #01054,8000 Factory Shops Boulevard,OH,43128
Finish Line,Tannersville,1055,#1055 #01055,1000 Route 611,PA,18372
Finish Line,Puyallup,1056,#1056 #01056,3500 S. Meridian,WA,98373
Finish Line,West Covina,1057,#1057 #01057,112 Plaza Drive,CA,91790
Finish Line,Edina,1058,#1058 #01058,2120 Southdale Center,MN,55435
Finish Line,Glendale,1059,#1059 #01059,6800 N. 95 Ave.,AZ,85305
Finish Line,Myrtle Beach,1060,#1060 #01060,4628 Factory Stores Blvd.,SC,29579
Finish Line,Lakewood,1061,#1061 #01061,58 Lakewood Center Mall,CA,90712
Finish Line,Branson,1062,#1062 #01062,300 Tanger Blvd,MO,78746
Finish Line,Northbrook,1063,#1063 #01063,1304 Northbrook Court,IL,60062
Finish Line,Lawrenceville,1064,#1064 #01064,5900 Sugarloaf Parkway,GA,30043
Finish Line,Clinton,1067,#1067 #01067,20-A Killingworth Turnpike,CT,6413
Finish Line,Edinburgh,1068,#1068 #01068,11755 NE Executive Drive,IN,46124
Finish Line,Johnson Creek,1069,#1069 #01069,575 West Linmar Lane,WI,30534
Finish Line,Chandler,1070,#1070 #01070,976 Premium Outlet Way,AZ,85226
Finish Line,Pottstown,1071,#1071 #01071,18 Lightcap Road,PA,19464
Finish Line,Leesburg,1072,#1072 #01072,241 Fort Evans Rd.,VA,20176
Finish Line,Vancouver,1075,#1075 #01075,8700 N.E Vancouver Mall,WA,98662
Finish Line,Rosemont,1076,#1076 #01076,5220 Rose Street,IL,60018
Finish Line,Lawrence Township,1078,#1078 #01078,US RT 1 and State HWY 533,NJ,8648
Finish Line,Cypress,1079,#1079 #01079,29300 Hempstead Road,TX,77433
Finish Line,Elmhurst,2001,#2001 #02001,90-01 Queens Blvd.,NY,11373
Finish Line,Brooklyn,2002,#2002 #02002,422 Fulton Street,NY,11201
Finish Line,New York,2003,#2003 #02003,151 W. 34th Street,NY,10001
Finish Line,Farmington,2004,#2004 #02004,100 Westfarms Mall,CT,6032
Finish Line,Manhasset,2005,#2005 #02005,1100 Northern Blvd,NY,11030
Finish Line,Brooklyn,2006,#2006 #02006,5400 Avenue U,NY,11234
Finish Line,Staten Island,2007,#2007 #02007,100 Richmond Hill Road,NY,10314
Finish Line,Menlo Park,2008,#2008 #02008,275 Menlo Park Mall,NJ,8837
Finish Line,Woodbridge,2009,#2009 #02009,237 Woodbridge Center Dri,NJ,7095
Finish Line,Paramus,2010,#2010 #02010,100 Paramus Park Mall,NJ,7652
Finish Line,Fairfax,2011,#2011 #02011,11901 Lee Jackson Memoria,VA,22033
Finish Line,Lake Grove,2013,#2013 #02013,2 Smith Haven Mall,NY,11755
Finish Line,Wheaton,2014,#2014 #02014,11180 Veirs Mill Road,MD,20902
Finish Line,Short Hills,2015,#2015 #02015,1220 Morris Turnpike,NJ,7078
Finish Line,Livingston,2016,#2016 #02016,South Orange Ave & Walnut,NJ,7039
Finish Line,Freehold,2017,#2017 #02017,3710 Route 9 South,NJ,7728
Finish Line,Valley Stream,2019,#2019 #02019,1000 Green Acres Mall,NY,11580
Finish Line,Stamford,2020,#2020 #02020,151 Broad Street,CT,6901
Finish Line,San Juan,2021,#2021 #02021,525 F. D. Roosevelt Avenu,PR,918
Finish Line,Bronx,2022,#2022 #02022,1441 Metropolitan Avenue,NY,10462
Finish Line,McLean,2023,#2023 #02023,8000 Tysons Corner Center,VA,22102
Finish Line,Springfield,2024,#2024 #02024,1655 Boston Road,MA,1129
Finish Line,Waldorf,2025,#2025 #02025,11200 Mall Circle,MD,20603
Finish Line,Frederick,2026,#2026 #02026,550 Buckeystown Pike,MD,21701
Finish Line,Ledgewood,2027,#2027 #02027,461 Route 10 East,NJ,7852
Finish Line,Danbury,2028,#2028 #02028,7 Backus Avenue,CT,6813
Finish Line,Manchester,2029,#2029 #02029,1500 South Willow St,NH,3103
Finish Line,White Plains,2030,#2030 #02030,100 Main Street,NY,10601
Finish Line,Boston,2031,#2031 #02031,450 Washington Street,MA,2111
Finish Line,Massapequa,2032,#2032 #02032,400 Sunrise Mall,NY,11758
Finish Line,Bethesda,2033,#2033 #02033,7125 Democracy Blvd,MD,20817
Finish Line,Peabody,2034,#2034 #02034,Andover Street - Rt 114,MA,1960
Finish Line,Bedford,2035,#2035 #02035,125 South River Road Rt 3,NH,3110
Finish Line,Braintree,2036,#2036 #02036,250 Granite Street,MA,2184
Finish Line,Burlington,2037,#2037 #02037,1300 Middlesex Turnpike,MA,1803
Finish Line,Portland,2038,#2038 #02038,100 Maine Mall Road,ME,4106
Finish Line,Warwick,2039,#2039 #02039,400 Bald Hill Road,RI,2886
Finish Line,Natick,2040,#2040 #02040,1245 Worcester Road,MA,1760
Finish Line,Salem,2041,#2041 #02041,Rockingham Park Mall,NH,3079
Finish Line,Waterbury,2042,#2042 #02042,575 Union Street,CT,6702
Finish Line,Brockton,2043,#2043 #02043,200 West Drive,MA,2301
Finish Line,Hyannis,2044,#2044 #02044,Route 132 Cape Cod Mall,MA,2601
Finish Line,Columbia,2045,#2045 #02045,10300 Little Patuxent Par,MD,21044
Finish Line,Newington,2046,#2046 #02046,Fox Run Road/ Spaulding T,NH,3801
Finish Line,Annapolis,2047,#2047 #02047,1295 Annapolis Mall,MD,21401
Finish Line,Waterford,2048,#2048 #02048,824 Hartford Turnpike,CT,6385
Finish Line,Albany,2049,#2049 #02049,Crossgates Mall,NY,12203
Finish Line,Nashua,2050,#2050 #02050,310 Daniel Webster Highwa,NH,3063
Finish Line,Trumbull,2051,#2051 #02051,Trumbull Shopping Park,CT,6611
Finish Line,Eatontown,2052,#2052 #02052,Monmouth Mall,NJ,7724
Finish Line,Willow Grove,2054,#2054 #02054,2501 W. Mooreland Road,PA,19090
Finish Line,Yorktown Heights,2055,#2055 #02055,700 Lee Blvd & US Route #,NY,10598
Finish Line,Johnson City,2057,#2057 #02057,Harry L. Road & Reynolds,NY,13790
Finish Line,Swansea,2058,#2058 #02058,3 Swansea Mall Drive,MA,2777
Finish Line,Cherry Hill,2059,#2059 #02059,RT 38 & Haddonfield Rd,NJ,8002
Finish Line,Bel Air,2060,#2060 #02060,US Route 1 & Tollgate Roa,MD,21014
Finish Line,Langhome,2064,#2064 #02064,2300 E. Lincoln Highway,PA,19047
Finish Line,Lawrenceville,2065,#2065 #02065,US RT 1 & State HWY 533,NJ,8648
Finish Line,Deptford,2066,#2066 #02066,1750 Deptford Center Road,NJ,8096
Finish Line,Washington DC,2068,#2068 #02068,1201 G. Street N.W.,DC,20005
Finish Line,Towson,2069,#2069 #02069,813 Dulaney Valley Road,MD,21204
Finish Line,Whitehall,2070,#2070 #02070,300 Lehigh Valley mall,PA,18052
Finish Line,Toms River,2071,#2071 #02071,1201 Hooper Avenue,NJ,8753
Finish Line,Rockaway Township,2072,#2072 #02072,Rockaway Townsquare Mall,NJ,7866
Finish Line,Newark,2074,#2074 #02074,501 Christiana Mall,DE,19702
Finish Line,Paramus,2075,#2075 #02075,500 Garden State Plaza,NJ,7652
Finish Line,Wayne,2076,#2076 #02076,100 Route 46,NJ,7470
Finish Line,McLean,2078,#2078 #02078,1651 International Drive,VA,22102
Finish Line,Nanuet,2079,#2079 #02079,Route 59 200 Nanuet Mall,NY,10954
Finish Line,Mays Landing,2080,#2080 #02080,4401 Black Horse Pike,NJ,8330
Finish Line,Bridgewater,2081,#2081 #02081,400 Commons Way,NJ,8807
Finish Line,Albany,2083,#2083 #02083,Wolf Road Colonie Shoppin,NY,12205
Finish Line,Springfield,2084,#2084 #02084,6400 T. Springfield Mall,PA,22150
Finish Line,Arlington,2086,#2086 #02086,701 North Glebe Road,VA,22203
Finish Line,Alexandria,2087,#2087 #02087,5701 Duke Street,VA,22304
Finish Line,East Brunswick,2088,#2088 #02088,755 Route 18,NJ,8816
Finish Line,Springfield,2089,#2089 #02089,Baltimore Pike & Sproul R,PA,19064
Finish Line,King of Prussia,2090,#2090 #02090,680 West DeKalb Pike,PA,19406
Finish Line,Parkville,2091,#2091 #02091,8200 Perry Hall Blvd.,MD,21236
Finish Line,Glen Burnie,2092,#2092 #02092,7900 South Richie Highway,MD,21061
Finish Line,Owings Mills,2093,#2093 #02093,10300 Mill Run Circle,MD,21117
Finish Line,W. Orange,2094,#2094 #02094,Prospect Avenue,NJ,7052
Finish Line,Arlington,2095,#2095 #02095,1000 S. Hayes Street,VA,22202
Finish Line,Auburn,2096,#2096 #02096,385 South Bridge Street,MA,1501
Finish Line,Manassas,2097,#2097 #02097,8270 Sudley Road,VA,20109
Finish Line,Fredericksburg,2098,#2098 #02098,3102 Plank Road,VA,22407
Finish Line,Sterling,2101,#2101 #02101,21060 Dulles Town Center,VA,20166
Finish Line,Huntington,2102,#2102 #02102,180 Walt Whitman Center,NY,11746
Finish Line,Temple Hills,2105,#2105 #02105,4101 Branch Ave,MD,20748
Finish Line,Meriden,2111,#2111 #02111,470 Lewis Avenue,CT,6450
Finish Line,Gaithersburg,2113,#2113 #02113,701 Russell Avenue,MD,20877
Finish Line,North Attleboro,2114,#2114 #02114,1029 S. Washington St.,MA,2760
Finish Line,Manchester,2115,#2115 #02115,183 Pavilions Drive,CT,6040
Finish Line,Milford,2116,#2116 #02116,1201 Post Road,CT,6460
Finish Line,Horseheads,2117,#2117 #02117,3300 Chambers Road South,NY,14845
Finish Line,Bowie,2123,#2123 #02123,15300 Emerald Way,MD,20716
Finish Line,Schenectady,2131,#2131 #02131,93 W Campbell Road,NY,12306
Finish Line,Victor,2132,#2132 #02132,7979 Victor-Pittsford Rd,NY,14564
Finish Line,Williamsville,2133,#2133 #02133,4545 Transit Road,NY,14221
Finish Line,De Witt,2134,#2134 #02134,3649 Erie Road,NY,13214
Finish Line,Buffalo,2138,#2138 #02138,3701 South Mckinley Parkw,NY,14219
Finish Line,Clay,2142,#2142 #02142,4081 New York State #31,NY,13041
Finish Line,Rochester,2143,#2143 #02143,397 Greece Ridge Center,NY,14626
Finish Line,Rochester,2144,#2144 #02144,1 Irondequoit Mall Drive,NY,14622
Finish Line,Rochester,2145,#2145 #02145,20 Miracle Mile Drive,NY,14623
Finish Line,Amherst,2146,#2146 #02146,1255 Niagara Falls Blvd,NY,14226
Finish Line,Buffalo,2147,#2147 #02147,4 Walden Galleria,NY,14225
Finish Line,Syracuse,2148,#2148 #02148,9509 Destiny USA DR,NY,13290
Finish Line,Voorhees,2150,#2150 #02150,6003 Echelon Mall,NJ,8043
Finish Line,Exton,2151,#2151 #02151,245 Exton Square Parkway,PA,19341
Finish Line,Moorestown,2154,#2154 #02154,Rt. 38 & Lenolad Rd,NJ,8057
Finish Line,Philadelphia,2155,#2155 #02155,2399 Cottman Avenue,PA,19149
Finish Line,Plymouth,2156,#2156 #02156,4444 Plymouth Meeting Mal,PA,19462
Finish Line,Salisbury,2157,#2157 #02157,2304 N. Salisbury Blvd,MD,21801
Finish Line,Bensalem,2158,#2158 #02158,US Rt 1 & Bristol Rd.,PA,19020
Finish Line,Baltimore,2159,#2159 #02159,6901 Security Blvd.,MD,21244
Finish Line,Richmond,2160,#2160 #02160,1406 Parham Road,VA,23229
Finish Line,Wilmington,2162,#2162 #02162,4747 Concord Pike,DE,19803
Finish Line,Bagnor,2163,#2163 #02163,651 Stillwater Avenue,ME,4401
Finish Line,Hicksville,2165,#2165 #02165,100 Broadway Mall,NY,11801
Finish Line,Richmond,2166,#2166 #02166,11872 W. Broad St.,VA,23233
Finish Line,Douglaston,2168,#2168 #02168,242-02 61st Avenue,NY,11362
Finish Line,Monmouth,2169,#2169 #02169,231 Rte. 35,NJ,7724
Finish Line,Commack,2170,#2170 #02170,2 Veterans Memorial Highw,NY,11725
Finish Line,Hampton Bays,2171,#2171 #02171,190 W Montauk Highway,NY,11946
Finish Line,Richmond,2172,#2172 #02172,11504 Midlothiam Turnpike,VA,23235
Finish Line,Yonkers,2173,#2173 #02173,800 Central Park Avenue,NY,10704
Finish Line,Jersey City,2174,#2174 #02174,200 Mall Drive East,NJ,7310
Finish Line,Dover,2175,#2175 #02175,2000 Dover Mall,DE,19901
Finish Line,Holyoke,2178,#2178 #02178,400 Whitney Avenue,MA,1040
Finish Line,Kingston,2179,#2179 #02179,101 Independence Mall Way,MA,2364
Finish Line,S. Plainfield,2180,#2180 #02180,6305 Hadley Road,NJ,7080
Finish Line,Marlborough,2182,#2182 #02182,627 Donal Lynch Blvd.,MA,1752
Finish Line,Wayne,2183,#2183 #02183,Hamburg Turnpike,NJ,7470
Finish Line,Hanover,2184,#2184 #02184,1775 Washington Street,MA,2339
Finish Line,Flushing,2185,#2185 #02185,136-50 Roosevelt Avenue,NY,11354
Finish Line,Taunton,2187,#2187 #02187,4 Galleria Mall Drive,MA,2780
Finish Line,N. Dartmouth,2189,#2189 #02189,160 Dartmouth Mall,MA,2747
Finish Line,Newport News,2191,#2191 #02191,12300 Jefferson Avenue,VA,23602
Finish Line,Chesapeake,2192,#2192 #02192,1401 Greenbriar Parkway,VA,23320
Finish Line,Roanoke,2193,#2193 #02193,4841 Valley View Blvd.,VA,24012
Finish Line,Hagerstown,2195,#2195 #02195,17301 Valley Mall Road,MD,21740
Finish Line,Hyattsville,2196,#2196 #02196,3500 East-West Highway,MD,20782
Finish Line,Middletown,2197,#2197 #02197,1 Galleria Drive,NY,10940
Finish Line,Harrisburg,2198,#2198 #02198,3401 Paxton Street,PA,17111
Finish Line,Camp Hill,2199,#2199 #02199,3550 Capital Mall Drive,PA,17011
Finish Line,York,2201,#2201 #02201,1800 Loucks Road,PA,17404
Finish Line,Kingston,2203,#2203 #02203,1300 Ulster Avenue,NY,12401
Finish Line,Burlington,2204,#2204 #02204,67 Cherry Street,VT,5401
Finish Line,Lanesboro,2205,#2205 #02205,RTE 8 & Old State Road,MA,1237
Finish Line,West Nyack,2206,#2206 #02206,1920 Palisades Center,NY,10994
Finish Line,Providence,2207,#2207 #02207,7 Providence Place,RI,2903
Finish Line,New Hartford,2208,#2208 #02208,Sangertown Square Mall,NY,13413
Finish Line,Philadelphia,2213,#2213 #02213,1300 Market Street,PA,19107
Finish Line,Colonial Heights,2214,#2214 #02214,170 South Park Mall,VA,23834
Finish Line,Chicago,2215,#2215 #02215,111 North State Street,IL,60602
Finish Line,Fairfax,2216,#2216 #02216,11700 Lee Jackson Memoria,VA,22033
Finish Line,Oak Brook,2217,#2217 #02217,1 Oak Brook Center,IL,60523
Finish Line,Skokie,2218,#2218 #02218,1 Old Orchard Shopping Ce,IL,60077
Finish Line,Chicago,2219,#2219 #02219,835 North Michigan Avenue,IL,60611
Finish Line,Vernon Hills,2220,#2220 #02220,1 Hawthorn Center,IL,60061
Finish Line,Norfolk,2223,#2223 #02223,880 N. Military Highway,VA,23502
Finish Line,Lynchburg,2224,#2224 #02224,3419 Candlers Mountain Rd,VA,24502
Finish Line,Hampton,2225,#2225 #02225,3000 Allainby Way,VA,23666
Finish Line,Saugus,2226,#2226 #02226,1185 Broadway Route 1,MA,1906
Finish Line,Northbrook,2227,#2227 #02227,1555 Northbrook Court,IL,60062
Finish Line,Madison,2228,#2228 #02228,702 North Midvale Blvd.,WI,53705
Finish Line,Minneapolis,2230,#2230 #02230,700 Nicollet Mall,MN,55402
Finish Line,Edina,2231,#2231 #02231,100 Southdale Center,MN,55435
Finish Line,Minnetonka,2232,#2232 #02232,12411 Wayzata Blvd.,MN,55305
Finish Line,Roseville,2233,#2233 #02233,900 Rosedale Center,MN,55113
Finish Line,Burnsville,2235,#2235 #02235,14251 Burnhaven Drive,MN,55306
Finish Line,Maplewood,2236,#2236 #02236,3001 White Bear Avenue,MN,55109
Finish Line,Appleton,2237,#2237 #02237,4311 W. Wisconsin Avenue,WI,54913
Finish Line,Rochester,2238,#2238 #02238,901 Apache Mall,MN,55902
Finish Line,Bloomington,2239,#2239 #02239,4000 SW Court,MN,55425
Finish Line,Sioux Falls,2241,#2241 #02241,4001 West 41st Street,SD,57106
Finish Line,Fargo,2242,#2242 #02242,1 West Acres Center,ND,58102
Finish Line,St. Cloud,2243,#2243 #02243,4201 W. Division Street,MN,56301
Finish Line,La Crosse,2245,#2245 #02245,3900 State Road 16,WI,54601
Finish Line,Grand Forks,2247,#2247 #02247,2800 S. Columbia Road,ND,58201
Finish Line,Eau Claire,2248,#2248 #02248,4606 Golf Rd,WI,54701
Finish Line,Virginia Beach,2249,#2249 #02249,701 South Lynnhaven Parkw,VA,23452
Finish Line,Calumet City,2250,#2250 #02250,1 River Oaks Center,IL,60409
Finish Line,Schaumburg,2259,#2259 #02259,1 Woodfield Mall,IL,60173
Finish Line,Wauwatosa,2260,#2260 #02260,2500 N. Mayfair Road,WI,53226
Finish Line,Orland Park,2261,#2261 #02261,1 Orland Square,IL,60462
Finish Line,Grendale,2262,#2262 #02262,5300 South 76th Street,WI,53129
Finish Line,Aurora,2263,#2263 #02263,1 Fox Valley Center Drive,IL,60504
Finish Line,Bolingbrook,2277,#2277 #02277,I-355 At Boughton Road,IL,60440
Finish Line,Merrillville,2278,#2278 #02278,2210 Southlake Mall,IN,46410
Finish Line,Rockford,2279,#2279 #02279,7200 Harrison Avenue,IL,61112
Finish Line,Joliet,2280,#2280 #02280,3340 Mall Loop Drive,IL,60431
Finish Line,West Dundee,2281,#2281 #02281,1000 Spring Hill Mall,IL,60118
Finish Line,Bloomingdale,2282,#2282 #02282,1 Stratford Square Mall,IL,60108
Finish Line,Troy,2301,#2301 #02301,2750 West Big Beaver Road,MI,48084
Finish Line,Novi,2302,#2302 #02302,27550 Novi Road,MI,48377
Finish Line,Troy,2303,#2303 #02303,500 W. 14 Mile Road,MI,48083
Finish Line,Sterling Heights,2304,#2304 #02304,14200 Lakeside Circle,MI,48313
Finish Line,Ann Arbor,2305,#2305 #02305,700 Briarwood Circle,MI,48108
Finish Line,Harper Woods,2306,#2306 #02306,18000 Vernier Road,MI,48225
Finish Line,Grand Rapids,2307,#2307 #02307,3165 28th Street,MI,49512
Finish Line,Flint,2308,#2308 #02308,4600 Miller Road,MI,48507
Finish Line,Taylor,2309,#2309 #02309,23000 Eureka Road,MI,48180
Finish Line,Westland,2310,#2310 #02310,35000 West Warren Avenue,MI,48185
Finish Line,Southfield,2311,#2311 #02311,21500 Northwestern Highwa,MI,48075
Finish Line,Dearborn,2312,#2312 #02312,18900 Michigan Avenue,MI,48126
Finish Line,Okemos,2313,#2313 #02313,1982 W. Grand River,MI,48864
Finish Line,Saginaw,2315,#2315 #02315,4750 Fashion Square Mall,MI,48604
Finish Line,Portage,2316,#2316 #02316,6666 S. Westnedge Ave.,MI,49002
Finish Line,Toledo,2317,#2317 #02317,5001 Monroe Street,OH,43623
Finish Line,Grandville,2318,#2318 #02318,3850 Rivertown Parkway,MI,49418
Finish Line,Traverse City,2319,#2319 #02319,3400 South Airport Rd. W.,MI,49684
Finish Line,Lansing,2320,#2320 #02320,5700 W. Saginaw Hwy.,MI,48917
Finish Line,Battle Creek,2321,#2321 #02321,5725 Beckley Road,MI,49015
Finish Line,Fort Gratiot,2322,#2322 #02322,4440 24th Avenue,MI,48059
Finish Line,Concord,2323,#2323 #02323,341 Sun Valley Mall,CA,94520
Finish Line,Walnut Creek,2324,#2324 #02324,1320 Broadway Plaza,CA,94596
Finish Line,Santa Rosa,2325,#2325 #02325,800 Santa Rosa Plaza,CA,95401
Finish Line,Fairfield,2326,#2326 #02326,1544 Travis Blvd.,CA,94533
Finish Line,San Rafael,2327,#2327 #02327,1000 Northgate Drive,CA,94903
Finish Line,Corte Madera,2328,#2328 #02328,1400 Redwood Highway,CA,94925
Finish Line,Richmond,2329,#2329 #02329,2500 Hilltop Mall Rd,CA,94806
Finish Line,Santa Rosa,2330,#2330 #02330,555 Coddingtown Center,CA,95401
Finish Line,Antioch,2331,#2331 #02331,2500 Somersville Rd,CA,94509
Finish Line,Pleasanton,2333,#2333 #02333,1300 Stoneridge Mall Rd,CA,94588
Finish Line,Palo Alto,2334,#2334 #02334,300 Standord Mall,CA,94304
Finish Line,Modesto,2335,#2335 #02335,500 Vintage Faire,CA,95356
Finish Line,Newark,2336,#2336 #02336,200 Newpark Mall,CA,94560
Finish Line,Hayward,2337,#2337 #02337,800 Southland Mall,CA,94545
Finish Line,Stockton,2338,#2338 #02338,5242 Pacific Ave,CA,95207
Finish Line,San Leandro,2339,#2339 #02339,15555 E. 14th St,CA,94578
Finish Line,Sunnyvale,2340,#2340 #02340,200 W. Washington Ave,CA,94086
Finish Line,Vallco,2341,#2341 #02341,10333 N. Wolfe Rd.,CA,95014
Finish Line,Denver,2344,#2344 #02344,15 South Steele Street,CO,80209
Finish Line,Littleton,2345,#2345 #02345,8455 Park Meadows Center,CO,80124
Finish Line,Broomfield,2346,#2346 #02346,US 36 & 96th St,CO,80021
Finish Line,Littleton,2347,#2347 #02347,8501 West Bowles Ave.,CO,80123
Finish Line,Ft. Collins,2348,#2348 #02348,225 East Foothills Parkwa,CO,80525
Finish Line,Boulder,2349,#2349 #02349,1900 29th Street,CO,80301
Finish Line,Aurora,2350,#2350 #02350,14200 E. Alameda Avenue,CO,80012
Finish Line,Loveland,2351,#2351 #02351,5995 Sky Pond Drive,CO,80538
Finish Line,Littleton,2352,#2352 #02352,6801 South University Blv,CO,80122
Finish Line,Colorado Springs,2353,#2353 #02353,1750 Briargate Blvd,CO,80920
Finish Line,Westminster,2354,#2354 #02354,14750 Huron St,CO,80020
Finish Line,Denver,2355,#2355 #02355,8298 Northfield Blvd,CO,80238
Finish Line,Santa Clara,2358,#2358 #02358,2801 Stevens Creek Blvd.,CA,95050
Finish Line,Fresno,2359,#2359 #02359,4888 North Fresno Street,CA,93726
Finish Line,San Jose,2360,#2360 #02360,5411 Thornwood Dr,CA,95123
Finish Line,Monterey,2361,#2361 #02361,100 Del Monte Center,CA,93940
Finish Line,San Jose,2362,#2362 #02362,5411 Thornwood Drive,CA,95123
Finish Line,Salinas,2363,#2363 #02363,200 Northridge Shopping C,CA,93906
Finish Line,Capitola,2364,#2364 #02364,1865 41st Avenue,CA,95010
Finish Line,Seattle,2367,#2367 #02367,300 Pine Street,WA,98101
Finish Line,Bellevue,2368,#2368 #02368,400 Bellevue Square,WA,98004
Finish Line,Fresno,2369,#2369 #02369,7890 N. Blackstone Avenue,CA,93720
Finish Line,Lynnwood,2370,#2370 #02370,18700 Alderwood Mall Blvd,WA,98037
Finish Line,Seattle,2371,#2371 #02371,602 Northgate Shopping Ce,WA,98125
Finish Line,Bellingham,2372,#2372 #02372,50 Bellis Fair Parkway,WA,98226
Finish Line,Silverdale,2373,#2373 #02373,10315 Silverdale Way,WA,98383
Finish Line,Redmond,2374,#2374 #02374,7400 166th Ave NE,WA,98052
Finish Line,Everett,2375,#2375 #02375,1502 S. E. Everett Mall W,WA,98208
Finish Line,Burlington,2376,#2376 #02376,700 Cascade Mall Drive,WA,98233
Finish Line,Portland,2381,#2381 #02381,12100 S.E. 82nd Avenue,OR,97086
Finish Line,Eugene,2382,#2382 #02382,100 Valley River Center,OR,97401
Finish Line,Bend,2383,#2383 #02383,3140 N. Highway 97,OR,97701
Finish Line,Vancouver,2384,#2384 #02384,8208 N.E. Vancouver Mall,WA,98662
Finish Line,Medford,2385,#2385 #02385,1800 North Riverside Driv,OR,97501
Finish Line,Tracy,2386,#2386 #02386,3400 North Naglee Road,CA,95304
Finish Line,Salem,2387,#2387 #02387,400 High Street N.E.,OR,97301
Finish Line,Hillsboro,2388,#2388 #02388,2055 NW Allie Ave.,OR,97124
Finish Line,Salem,2389,#2389 #02389,831 Lancaster Dr.,OR,97301
Finish Line,Roseburg,2390,#2390 #02390,1460 NW Garden Valley Mal,OR,97471
Finish Line,North Bend,2391,#2391 #02391,1611 Virginia Avenue,OR,97459
Finish Line,Portland,2392,#2392 #02392,9300 S.W. Washington Square,OR,97223
Finish Line,Boise,2393,#2393 #02393,370 North Milwaukee,ID,83704
Finish Line,Portland,2394,#2394 #02394,1100 Lloyd Center,OR,97232
Finish Line,Spokane,2395,#2395 #02395,14740 East Indiana,WA,99216
Finish Line,Spokane,2396,#2396 #02396,N. 4770 Division,WA,99207
Finish Line,Portland,2397,#2397 #02397,621 Southwest Fifth Avenu,OR,97204
Finish Line,Spokane,2398,#2398 #02398,214 N. Wall Street,WA,99201
Finish Line,Coeur DAlene,2399,#2399 #02399,200 W. Hanley Ave,ID,83814
Finish Line,Nampa,2401,#2401 #02401,1406 N. Galleria Drive,ID,83687
Finish Line,Lewiston,2402,#2402 #02402,1806 19th Avenue,ID,83501
Finish Line,Moscow,2403,#2403 #02403,2132 West Pullman Road,ID,83843
Finish Line,Sacramento,2406,#2406 #02406,414 K St,CA,95814
Finish Line,Sacramento,2407,#2407 #02407,1701 Arden Way,CA,95815
Finish Line,Roseville,2408,#2408 #02408,1197 Galleria Blvd,CA,95678
Finish Line,Reno,2409,#2409 #02409,5100 Meadowood Mall Circl,NV,89502
Finish Line,Citrus Heights,2410,#2410 #02410,6000 Sunrise (Ca),CA,95610
Finish Line,Redding,2411,#2411 #02411,1291 Hilltop Dr,CA,96003
Finish Line,Sacramento,2412,#2412 #02412,3500 El Camino Dr,CA,95821
Finish Line,Palmdale,2414,#2414 #02414,1123 W Rancho Vista Boule,CA,93551
Finish Line,Salt Lake City,2416,#2416 #02416,4835 Highland Drive,UT,84117
Finish Line,Layton,2417,#2417 #02417,1400 Hill Field Road,UT,84041
Finish Line,Sandy,2418,#2418 #02418,10450 State Street,UT,84070
Finish Line,Orem,2419,#2419 #02419,543 E. University Parkway,UT,84097
Finish Line,Bozeman,2420,#2420 #02420,2825 West Main Street,MT,59718
Finish Line,Casper,2421,#2421 #02421,501 Wyoming Blvd,WY,82609
Finish Line,Twin Falls,2422,#2422 #02422,1379 Poleline Road East,ID,83301
Finish Line,W. Valley City,2423,#2423 #02423,3601 S. 2700 West,UT,84119
Finish Line,Idaho Falls,2424,#2424 #02424,2240 E. 17th Street,ID,83404
Finish Line,Helena,2425,#2425 #02425,3405 N. Montana Ave.,MT,59602
Finish Line,Murray,2427,#2427 #02427,6191 South State Street,UT,84107
Finish Line,San Francisco,2428,#2428 #02428,170 OFarrell Street,CA,94102
Finish Line,San Mateo,2429,#2429 #02429,301 Hillsdale Mall,CA,94403
Finish Line,San Francisco,2430,#2430 #02430,3251 20th Avenue,CA,94132
Finish Line,Daly City,2431,#2431 #02431,1 Serramonte Center,CA,94015
Finish Line,Tukwilla,2433,#2433 #02433,500 Southcenter Mall,WA,98188
Finish Line,Tacoma,2434,#2434 #02434,4502 South Steele,WA,98409
Finish Line,Kennewick,2435,#2435 #02435,1321 N. Columbia Center B,WA,99336
Finish Line,Olympia,2436,#2436 #02436,625 BlackLake Blvd. SW 30,WA,98502
Finish Line,Union Gap,2437,#2437 #02437,2525 Main Street,WA,98903
Finish Line,Puyallup,2438,#2438 #02438,3500 South Meridian,WA,98373
Finish Line,Federal Way,2439,#2439 #02439,1901 South Commons,WA,98003
Finish Line,East Wenatchee,2440,#2440 #02440,445 Valley Mall Parkway,WA,98802
Finish Line,Walla Walla,2441,#2441 #02441,54 East Main Street,WA,99362
Finish Line,Kelso,2442,#2442 #02442,331 Three Rivers Drive,WA,98632
Finish Line,Visalia,2448,#2448 #02448,2211 S. Mooney Boulevard,CA,93277
Finish Line,Salt Lake City,2449,#2449 #02449,21 South Main Street,UT,84111
Finish Line,Scottsdale,2450,#2450 #02450,7014 East Camelback Rd,AZ,85251
Finish Line,Phoenix,2451,#2451 #02451,2410 E. Camelback Rd,AZ,85016
Finish Line,Glendale,2452,#2452 #02452,7600 West Arrowhead,AZ,85308
Finish Line,Chandler,2453,#2453 #02453,3107 W. Chandler Blvd,AZ,85226
Finish Line,Phoenix,2454,#2454 #02454,4500 East Cactus Road,AZ,85032
Finish Line,El Paso,2455,#2455 #02455,8401 Gateway West & Hawki,TX,79925
Finish Line,Albuquerque,2456,#2456 #02456,6600 Menaul Blvd N.E.,NM,87110
Finish Line,Tucson,2457,#2457 #02457,4470 North Oracle Road,AZ,85705
Finish Line,Tucson,2458,#2458 #02458,5850 E. Broadway Blvd,AZ,85711
Finish Line,Mesa,2459,#2459 #02459,6535 E. Southern Avenue,AZ,85206
Finish Line,Mesa,2460,#2460 #02460,1465 W. Southern Avenue,AZ,85202
Finish Line,Albuquerque,2461,#2461 #02461,10000 Coors Bypass NW,NM,87114
Finish Line,Phoenix,2462,#2462 #02462,9700 Metro Parkway,AZ,85051
Finish Line,Glibert,2465,#2465 #02465,2190 E. Williams Field Ro,AZ,85295
Finish Line,Honolulu,2466,#2466 #02466,1450 Ala Moana Blvd,HI,96814
Finish Line,Aiea,2467,#2467 #02467,98-205 Kaonohi Street,HI,96701
Finish Line,Kahului,2469,#2469 #02469,275 Kaahumanu Avenue,HI,96732
Finish Line,Honolulu,2470,#2470 #02470,4211 Waialae Avenue,HI,96816
Finish Line,Hilo,2471,#2471 #02471,111 East Puainako Street,HI,96720
Finish Line,Lihue,2472,#2472 #02472,3-2600 Kaumualii Hwy Ste,HI,96766
Finish Line,Honolulu,2473,#2473 #02473,2314 Kalakaua AVe,HI,96815
Finish Line,Kailua-Kona,2474,#2474 #02474,74-5475 Kamakaeha Avenue,HI,96740
Finish Line,Kaneohe,2475,#2475 #02475,46-056 Kamehameha Highway,HI,96744
Finish Line,Kailua,2477,#2477 #02477,573 Kailua Road,HI,96734
Finish Line,Downey,2481,#2481 #02481,400 Stonewood Street,CA,90241
Finish Line,Santa Anita,2482,#2482 #02482,400 S. Baldwin Ave.,CA,91007
Finish Line,Cerritos,2483,#2483 #02483,500 Los Cerritos Center,CA,90701
Finish Line,Montebello,2484,#2484 #02484,2000 Montebello Town Cent,CA,90640
Finish Line,West Covina,2485,#2485 #02485,1111 Plaza Drive,CA,91790
Finish Line,Montclair,2486,#2486 #02486,5000 Montclair Plaza,CA,91763
Finish Line,Los Angeles,2487,#2487 #02487,750 W. 7th Street,CA,90017
Finish Line,City Of Industry,2488,#2488 #02488,1600 Azusa Ave,CA,91748
Finish Line,Thousand Oaks,2492,#2492 #02492,220 W. Hillcrest,CA,91360
Finish Line,Santa Clarita,2493,#2493 #02493,26450 McBean Parkway,CA,91355
Finish Line,Ventura,2494,#2494 #02494,477 S. Mills Rd,CA,93003
Finish Line,Bakersfield,2495,#2495 #02495,2601 Ming Ave,CA,93304
Finish Line,Simi Valley CA,2496,#2496 #02496,1475 Simi Valley Town Cen,CA,93065
Finish Line,Santa Barbara,2497,#2497 #02497,3805 State Street,CA,93105
Finish Line,Santa Barbara,2498,#2498 #02498,701 State St,CA,93101
Finish Line,Santa Maria,2499,#2499 #02499,302 Town Ctr East,CA,93454
Finish Line,Sherman Oaks,2501,#2501 #02501,14000 Riverside Drive,CA,91423
Finish Line,Glendale,2502,#2502 #02502,2100 Glendale Galleria,CA,91210
Finish Line,Canoga Park,2503,#2503 #02503,21900 Vanowen Street,CA,91303
Finish Line,Burbank,2504,#2504 #02504,200 East Cypress Ave,CA,91502
Finish Line,N. Hollywood,2505,#2505 #02505,6150 Laurel Canyon Road,CA,91606
Finish Line,Woodland Hills,2506,#2506 #02506,6100 N. Topanga Canyon Bl,CA,91367
Finish Line,Pasadena,2508,#2508 #02508,401 Southlake Ave,CA,91101
Finish Line,Los Angeles,2509,#2509 #02509,2828 Colorado Blvd,CA,90041
Finish Line,Torrance,2511,#2511 #02511,21600 Hawthorne Blvd,CA,90503
Finish Line,Lakewood,2513,#2513 #02513,5100 Lakewood Blvd.,CA,90712
Finish Line,Manhattan Beach,2514,#2514 #02514,3400 Sepulveda Blvd,CA,90266
Finish Line,Los Angeles,2515,#2515 #02515,10730 W. Pico Blvd,CA,90064
Finish Line,Culver City,2516,#2516 #02516,6200 Slauson Ave,CA,90230
Finish Line,Redondo Beach,2517,#2517 #02517,1801 Hawthorne Blvd,CA,90278
Finish Line,Los Angeles,2518,#2518 #02518,10250 Santa Monica Blvd,CA,90067
Finish Line,Torrance,2519,#2519 #02519,21760 Hawthorne Blvd.,CA,90503
Finish Line,Los Angeles,2520,#2520 #02520,4005 Crenshaw Blvd,CA,90008
Finish Line,Costa Mesa,2523,#2523 #02523,3333 S. Bristol St,CA,92626
Finish Line,Brea,2524,#2524 #02524,200 Brea Mall,CA,92821
Finish Line,Westminster,2525,#2525 #02525,300 Westminster Mall,CA,92683
Finish Line,Mission Viejo,2526,#2526 #02526,200 The Shops at Mission,CA,92691
Finish Line,Santa Ana,2527,#2527 #02527,2850 N. Main St,CA,92705
Finish Line,Newport Beach,2528,#2528 #02528,101 Newport Center Drive,CA,92660
Finish Line,Laguna Hills,2529,#2529 #02529,24100 Laguna Hills Mall,CA,92653
Finish Line,Irvine,2530,#2530 #02530,93 Fortune Street,CA,92618
Finish Line,Las Vegas,2532,#2532 #02532,3200 Las Vegas Blvd. S.,NV,89109
Finish Line,Rancho Cucamonga,2533,#2533 #02533,7855 Kew Avenue,CA,91739
Finish Line,Palm Desert,2534,#2534 #02534,72-780 Highway 111,CA,92260
Finish Line,Temecula,2535,#2535 #02535,40780 Winchester Road,CA,92591
Finish Line,Riverside,2536,#2536 #02536,3500 Tyler Mall,CA,92503
Finish Line,Henderson,2537,#2537 #02537,1304 Sunset Road,NV,89014
Finish Line,San Bernardino,2538,#2538 #02538,400 Inland Center Drive,CA,92408
Finish Line,Las Vegas,2539,#2539 #02539,4100 Meadows Lane,NV,89107
Finish Line,Moreno Valley,2540,#2540 #02540,22400 Town Circle,CA,92553
Finish Line,Las Vegas,2541,#2541 #02541,3634 Maryland Parkway,NV,89169
Finish Line,San Diego,2544,#2544 #02544,7017 Friars Rd,CA,92108
Finish Line,Carlsbad,2545,#2545 #02545,2559 El Camino Real Rd,CA,92008
Finish Line,Chula Vista,2546,#2546 #02546,555 Broadway Street,CA,91910
Finish Line,San Diego,2547,#2547 #02547,4333 La Jolla Village Dr,CA,92122
Finish Line,National City,2548,#2548 #02548,3000 Plaza Bonita Road,CA,91950
Finish Line,La Mesa,2549,#2549 #02549,5500 Grossmont Center Dri,CA,91942
Finish Line,Escondido,2550,#2550 #02550,220 E. Via Rancho Parkway,CA,92025
Finish Line,San Diego,2551,#2551 #02551,160 Horton Plaza,CA,92101
Finish Line,El Cajon,2552,#2552 #02552,291 Fletcher Parkway,CA,92020
Finish Line,San Diego,2553,#2553 #02553,1702 Camino Del Rio North,CA,92108
Finish Line,El Centro,2554,#2554 #02554,3551 Dogwood Ave,CA,92243
Finish Line,Chula Vista,2555,#2555 #02555,2015 Birch Road,CA,91915
Finish Line,Victorville,2557,#2557 #02557,14580 Bear Valley Road,CA,92393
Finish Line,Lexington,2561,#2561 #02561,3301 Nicholasville Road,KY,40503
Finish Line,Louisville,2562,#2562 #02562,7900 Shelbyville Road,KY,40222
Finish Line,Barboursville,2563,#2563 #02563,Unit 300 Huntington Mall,WV,25504
Finish Line,Cincinnati,2564,#2564 #02564,11700 Princeton Road,OH,45246
Finish Line,Florence,2565,#2565 #02565,5000 Mall Road,KY,41042
Finish Line,Charleston,2566,#2566 #02566,201 Lee Street East,WV,25301
Finish Line,Cincinnati,2567,#2567 #02567,9531 Colerain Avenue,OH,45251
Finish Line,Cincinnati,2568,#2568 #02568,7440 Beechmont Avenue,OH,45255
Finish Line,Cincinnati,2569,#2569 #02569,505 Vine Street,OH,45202
Finish Line,Louisville,2570,#2570 #02570,4809 Outer Loop Road,KY,40219
Finish Line,Fairlawn,2572,#2572 #02572,3265 West Market Street,OH,44333
Finish Line,N. Olmstead,2573,#2573 #02573,25801 Brookpark Road,OH,44070
Finish Line,Strongsville,2574,#2574 #02574,17447 Royalton Road,OH,44136
Finish Line,Canton,2575,#2575 #02575,4300 Belden Village Avenu,OH,44718
Finish Line,Mentor,2576,#2576 #02576,7850 Mentor Avenue,OH,44060
Finish Line,Cleveland,2578,#2578 #02578,2201 Warrensville Center,OH,44118
Finish Line,Richmond Heights,2580,#2580 #02580,641 Richmond Road,OH,44143
Finish Line,Stow,2581,#2581 #02581,4301 Kent Road,OH,44224
Finish Line,Elyria,2582,#2582 #02582,3000 Midway Blvd.,OH,44035
Finish Line,Sandusky,2583,#2583 #02583,4313 Milan Road,OH,44870
Finish Line,Columbus,2584,#2584 #02584,4141 Easton Loop East,OH,43219
Finish Line,Dublin,2585,#2585 #02585,5123 Tuttle Crossing Blvd,OH,43016
Finish Line,Columbus,2586,#2586 #02586,1300 Polaris Parkway,OH,43240
Finish Line,Dayton,2587,#2587 #02587,2700 Miamisburg Centervil,OH,45459
Finish Line,Columbus,2588,#2588 #02588,2727 South Hamilton Rd.,OH,43232
Finish Line,Tarentum,2589,#2589 #02589,113 Pittsburgh Mills Circ,PA,15084
Finish Line,Dayton,2590,#2590 #02590,2727 Fairfield Commons Bl,OH,45431
Finish Line,Columbus,2591,#2591 #02591,3180 Kingsdale Center,OH,43221
Finish Line,Lima,2592,#2592 #02592,2600 Elida Road,OH,45805
Finish Line,Mansfield,2593,#2593 #02593,655 Richland Mall,OH,44906
Finish Line,Springfield,2594,#2594 #02594,1475 Upper Valley Pike,OH,45504
Finish Line,Dublin,2595,#2595 #02595,5033 Tuttle Crossing Blvd,OH,43016
Finish Line,Ft. Wayne,2599,#2599 #02599,4201 Coldwater Road,IN,46805
Finish Line,Mishawaka,2601,#2601 #02601,6501 North Grape Road,IN,46545
Finish Line,Greenwood,2602,#2602 #02602,1251 U.S. 31 North,IN,46142
Finish Line,Lafayette,2603,#2603 #02603,2415 Sagamore Parkway,IN,47905
Finish Line,Indianapolis,2604,#2604 #02604,6101 North Keystone Avenu,IN,46220
Finish Line,Terre Haute,2605,#2605 #02605,3401 South U.S. Highway 4,IN,47802
Finish Line,Bloomington,2606,#2606 #02606,3068 East Third Street,IN,47401
Finish Line,Muncie,2607,#2607 #02607,3501 N. Granville Avenue,IN,47303
Finish Line,Independence,2608,#2608 #02608,18809 East 39th Street,MO,64057
Finish Line,Leawood,2609,#2609 #02609,5100 W. 119th Street,KS,66209
Finish Line,Overland Park,2610,#2610 #02610,11201 W. 95th Street,KS,66214
Finish Line,Kansas City,2611,#2611 #02611,400 N.W. Barry Road,MO,64155
Finish Line,Springfield,2612,#2612 #02612,100 Battlefield Mall,MO,65804
Finish Line,Joplin,2613,#2613 #02613,359 Northpark Mall,MO,64801
Finish Line,Overland Park,2614,#2614 #02614,9501 Metcalf Street,KS,66212
Finish Line,Columbia,2615,#2615 #02615,201 N. Stadium Blvd,MO,65203
Finish Line,Prairie Village,2616,#2616 #02616,4000 West 71st Stree,KS,66208
Finish Line,Lees Summit,2618,#2618 #02618,900 NW Blue Parkway,MO,64086
Finish Line,Pittsburgh,2620,#2620 #02620,1004 Ross Park Mall,PA,15237
Finish Line,Pittsburgh,2621,#2621 #02621,100 South Hills Village,PA,15241
Finish Line,Monroeville,2622,#2622 #02622,400 Monroeville Mall,PA,15146
Finish Line,Youngstown,2623,#2623 #02623,7401 Market Street,OH,44512
Finish Line,Erie,2624,#2624 #02624,850 Mill Creek Mall,PA,16565
Finish Line,Monaca,2625,#2625 #02625,100 Beaver Valley Mall,PA,15061
Finish Line,Altoona,2626,#2626 #02626,5580 Goods Lane,PA,16602
Finish Line,Hermitage,2627,#2627 #02627,3515 E. State Street,PA,16148
Finish Line,Homestead,2628,#2628 #02628,162 East Bridge,PA,15120
Finish Line,Niles,2629,#2629 #02629,5403 Youngstown Warren Ro,OH,44446
Finish Line,Pittsburgh,2632,#2632 #02632,300 Robinsons Centre Driv,PA,15205
Finish Line,Pittsburgh,2633,#2633 #02633,400 Fifth Avenue,PA,15219
Finish Line,Greensburg,2634,#2634 #02634,994 East Pittsburgh Stree,PA,15601
Finish Line,West Mifflin,2635,#2635 #02635,3075 Clariton Road,PA,15122
Finish Line,Scranton,2636,#2636 #02636,Rt. 6 Scranton-Carbondale,PA,18508
Finish Line,Wilkes-Barre,2637,#2637 #02637,59 Wyoming Valley Mall,PA,18702
Finish Line,Muncy,2638,#2638 #02638,300 Lycoming Mall Circle,PA,17756
Finish Line,Washington,2639,#2639 #02639,1500 West Chestnut Street,PA,15301
Finish Line,State College,2640,#2640 #02640,2900 East College,PA,16801
Finish Line,St. Clairsville,2641,#2641 #02641,Mall Road,OH,43950
Finish Line,Steubenville,2642,#2642 #02642,100 Mall Drive,OH,43952
Finish Line,St. Louis,2643,#2643 #02643,1150 St. Louis Galleria,MO,63117
Finish Line,Chesterfield,2644,#2644 #02644,49 Chesterfield Mall,MO,63017
Finish Line,St. Peters,2645,#2645 #02645,1 Mid-Rivers Mall,MO,63376
Finish Line,Springfield,2646,#2646 #02646,101 White Oaks Mall,IL,62704
Finish Line,Peoria,2647,#2647 #02647,2200 West War Memorial Dr,IL,61613
Finish Line,Champaign,2648,#2648 #02648,200 North Neil Street,IL,61820
Finish Line,Alton,2649,#2649 #02649,100 Alton Square,IL,62002
Finish Line,Florissant,2650,#2650 #02650,500 Jamestown Mall,MO,63034
Finish Line,Bloomington,2651,#2651 #02651,1615 East Empire Street,IL,61701
Finish Line,St. Louis,2652,#2652 #02652,2 West County Center,MO,63131
Finish Line,Fairview Heights,2653,#2653 #02653,200 St. Clair Square,IL,62208
Finish Line,St/ Louis,2655,#2655 #02655,10 South County Centerway,MO,63129
Finish Line,Cape Girardeau,2656,#2656 #02656,3049 William Stree,MO,63703
Finish Line,Carbondale,2657,#2657 #02657,1237 East Main,IL,62901
Finish Line,Owensboro,2658,#2658 #02658,5000 Frederica Street,KY,42301
Finish Line,St. Louis,2660,#2660 #02660,601 Olive Street,MO,63101
Finish Line,Dallas,2666,#2666 #02666,13375 Noel Road,TX,75240
Finish Line,Frisco,2667,#2667 #02667,2609 Preston Road,TX,75034
Finish Line,Plano,2668,#2668 #02668,801 North Central Express,TX,75075
Finish Line,Mesquite,2669,#2669 #02669,4000 Town East Blvd.,TX,75150
Finish Line,Lewisville,2670,#2670 #02670,2401 S. Stemmons Freeway,TX,75067
Finish Line,Plano,2671,#2671 #02671,6209 West Park Blvd.,TX,75093
Finish Line,Garland,2672,#2672 #02672,701 Horseshoe Drive,TX,75040
Finish Line,Tyler,2673,#2673 #02673,4700 South Broadway,TX,75703
Finish Line,Dallas,2674,#2674 #02674,3550 West Camp Wisdom Rd.,TX,75237
Finish Line,Fairview,2675,#2675 #02675,341 East Stacy Road,TX,75069
Finish Line,Arlington,2676,#2676 #02676,3841 South Cooper Street,TX,76015
Finish Line,Hurst,2677,#2677 #02677,1101 Melbourne Road,TX,76053
Finish Line,Ft. Worth,2678,#2678 #02678,4650 South Hulen Street,TX,76132
Finish Line,Oklahoma City,2679,#2679 #02679,1901 N.W. Expressway,OK,73118
Finish Line,Tulsa,2680,#2680 #02680,8707 E. 71st Street,OK,74133
Finish Line,Ft. Worth,2681,#2681 #02681,2000 Green Oaks Blvd.,TX,76116
Finish Line,Irving,2682,#2682 #02682,3801 Irving Mall,TX,75062
Finish Line,Denton,2683,#2683 #02683,2201 I-35 East South,TX,76205
Finish Line,Oklahoma City,2684,#2684 #02684,2501 West Memorial Road,OK,73134
Finish Line,Tulsa,2685,#2685 #02685,4143 S Yale Avenue,OK,74135
Finish Line,Houston,2686,#2686 #02686,303 Memorial City,TX,77024
Finish Line,Houston,2687,#2687 #02687,5135 West Alabama,TX,77056
Finish Line,Sugar Land,2688,#2688 #02688,16511 Southwest Freeway,TX,77479
Finish Line,Houston,2689,#2689 #02689,2727 Sage Road,TX,77056
Finish Line,Baton Rouge,2690,#2690 #02690,6301 Bluebonnet Blvd,LA,70836
Finish Line,Houston,2691,#2691 #02691,800 West Oaks Mall,TX,77082
Finish Line,Lafayette,2692,#2692 #02692,5733 Johnston Street,LA,70503
Finish Line,Metarie,2693,#2693 #02693,3301 Veterans Memorial Bl,LA,70002
Finish Line,Bay Town,2694,#2694 #02694,5000 San Jacinto Mall,TX,77521
Finish Line,Baton Rouge,2695,#2695 #02695,9301 Cortana Place,LA,70815
Finish Line,Beaumont,2696,#2696 #02696,6175 Estex Freeway,TX,77706
Finish Line,New Orleans,2698,#2698 #02698,1401 W Esplanade,LA,70065
Finish Line,McAllen,2701,#2701 #02701,2100 S. Tenth,TX,78503
Finish Line,San Antonio,2702,#2702 #02702,7400 San Pedro Ave. #200,TX,78216
Finish Line,Laredo,2703,#2703 #02703,5300 San Dario,TX,78041
Finish Line,Austin,2704,#2704 #02704,2901 Capitol of Texas High,TX,78746
Finish Line,San Antonio,2705,#2705 #02705,16401 L Cantera Parkway,TX,78256
Finish Line,Cedar Park,2706,#2706 #02706,11200 Lakeline Mall,TX,78613
Finish Line,San Antonio,2707,#2707 #02707,6301 Northwest Loop 410,TX,78238
Finish Line,Corpus Christi,2708,#2708 #02708,5488 South Padre Island D,TX,78411
Finish Line,San Antonio,2709,#2709 #02709,6909 North Loop 1604 East,TX,78247
Finish Line,Austin,2710,#2710 #02710,3311 Esperanza Crossing,TX,78758
Finish Line,San Antonio,2711,#2711 #02711,2310 SW Military Drive,TX,78224
Finish Line,San Antonio,2713,#2713 #02713,151 East Bowie Street,TX,78205
Finish Line,Temple,2714,#2714 #02714,3111 South 31st Street,TX,76502
Finish Line,Houston,2715,#2715 #02715,4000 Willowbrook Mall,TX,77070
Finish Line,The Woodlands,2716,#2716 #02716,1201 Lake Woodlands Drive,TX,77380
Finish Line,Friendswood,2717,#2717 #02717,100 Baybrook Mall,TX,77546
Finish Line,Humble,2718,#2718 #02718,20131 Highway 59 N,TX,77338
Finish Line,Houston,2720,#2720 #02720,100 Almeda Mall,TX,77075
Finish Line,Houston,2721,#2721 #02721,500 Greenspoint Mall,TX,77060
Finish Line,College Station,2722,#2722 #02722,1508 Harvey Road,TX,77840
Finish Line,Pasadena,2723,#2723 #02723,1101 East Southmore,TX,77502
Finish Line,Pearland,2724,#2724 #02724,11200 Broadway Street,TX,77584
Finish Line,Atlanta,2730,#2730 #02730,3393 Peachtree Road NE,GA,30326
Finish Line,Atlanta,2731,#2731 #02731,4300 Ashford-Dunwoody Roa,GA,30346
Finish Line,Alpharetta,2732,#2732 #02732,500 North Point Circle,GA,30022
Finish Line,Duluth,2734,#2734 #02734,2100 Pleasant Hill Road,GA,30096
Finish Line,Augusta,2735,#2735 #02735,3450 Wrightsboro Road,GA,30909
Finish Line,Savannah,2736,#2736 #02736,7804 Abercorn Extention,GA,31406
Finish Line,Decatur,2737,#2737 #02737,2144 Lawrenceville Hwy,GA,30033
Finish Line,Atlanta,2738,#2738 #02738,4880 Briarcliff Road,GA,30345
Finish Line,Athens,2739,#2739 #02739,3700 Atlanta Highway,GA,30606
Finish Line,Kennesaw,2743,#2743 #02743,400 Ernest Barrett Parkwa,GA,30144
Finish Line,Atlanta,2744,#2744 #02744,1300 Cumberland Mall,GA,30339
Finish Line,Morrow,2745,#2745 #02745,1500 Southlake Pkwy,GA,30260
Finish Line,Birminghame,2746,#2746 #02746,614 Brookwood Village,AL,35209
Finish Line,Lithonia,2748,#2748 #02748,8000 Mall Parkway,GA,30038
Finish Line,Columbus,2749,#2749 #02749,3091 Manchester Expresswa,GA,31909
Finish Line,Douglasville,2750,#2750 #02750,6690 Douglas Blvd,GA,30135
Finish Line,Macon,2751,#2751 #02751,3661 Eisenhower,GA,31206
Finish Line,Decatur,2752,#2752 #02752,2731 Candler Road,GA,30034
Finish Line,Atlanta,2753,#2753 #02753,2841 Greenbriar Parkway S,GA,30331
Finish Line,Boca Raton,2757,#2757 #02757,5700 W. Glades Road,FL,33431
Finish Line,Plantation,2758,#2758 #02758,8000 W. Broward Blvd.,FL,33388
Finish Line,Coral Springs,2759,#2759 #02759,9129 W. Atlantic Blvd.,FL,33071
Finish Line,Palm Beach Gardens,2760,#2760 #02760,3107 P.G.A. Blvd.,FL,33410
Finish Line,Ft. Lauderdale,2761,#2761 #02761,2314 E. Sunrise Blvd,FL,33304
Finish Line,West Palm Beach,2762,#2762 #02762,10316 Forest Hill Blvd,FL,33414
Finish Line,Boynton Beach,2763,#2763 #02763,801 N. Congress Ave.,FL,33426
Finish Line,Stuart,2764,#2764 #02764,3106 N.W. Federal Highway,FL,34957
Finish Line,Pompano Beach,2765,#2765 #02765,1200 N.E. 23rd St,FL,33062
Finish Line,West Palm Beach,2766,#2766 #02766,575 South Rosemary Ave.,FL,33401
Finish Line,N. Miami,2769,#2769 #02769,19535 Biscayne Blvd. Aven,FL,33180
Finish Line,Miami,2770,#2770 #02770,1245 N.W. 107th Ave,FL,33172
Finish Line,Pembroke Pines,2771,#2771 #02771,11605 Pines Blvd.,FL,33026
Finish Line,Hialeah,2772,#2772 #02772,1777 W. 49th Street,FL,33012
Finish Line,Miami Beach,2773,#2773 #02773,1675 Meridial Avenue,FL,33139
Finish Line,Miami,2774,#2774 #02774,22 E. Flagler St,FL,33131
Finish Line,Miami,2776,#2776 #02776,7303 S. W. 88th St,FL,33156
Finish Line,Miami,2777,#2777 #02777,9100 S. W. 136th Street,FL,33176
Finish Line,Cutler Ridge,2778,#2778 #02778,20505 S. Dixie Hwy.,FL,33189
Finish Line,Greenville,2781,#2781 #02781,700 Haywood Drive,SC,29607
Finish Line,Raleigh,2782,#2782 #02782,4325 Glenwood Avenue,NC,27612
Finish Line,Durham,2783,#2783 #02783,6910 Fayetteville Road,NC,27713
Finish Line,Fayetteville,2784,#2784 #02784,100 Cross Creek Mall,NC,28303
Finish Line,Greensboro,2785,#2785 #02785,700 Friendly Center Road,NC,27408
Finish Line,Charlotte,2786,#2786 #02786,6845 Northlake Mall Drive,NC,28216
Finish Line,Charlotte,2787,#2787 #02787,4400 Sharon Road,NC,28211
Finish Line,Raleigh,2788,#2788 #02788,3801 Sumner Blvd.,NC,27616
Finish Line,Columbia,2789,#2789 #02789,7201-100 Two Notch Road,SC,29223
Finish Line,Durham,2790,#2790 #02790,1058 West Club Blvd,NC,27701
Finish Line,Pineville,2791,#2791 #02791,11001 Carolina Place,NC,28134
Finish Line,Cary,2793,#2793 #02793,1105 Walnut Street,NC,27511
Finish Line,Greensboro,2794,#2794 #02794,5410 Hornaday Rd.,NC,27407
Finish Line,Memphis,2795,#2795 #02795,4545 Poplar Avenue,TN,38117
Finish Line,Memphis,2796,#2796 #02796,2840 N. Germantown Parkwa,TN,38133
Finish Line,Nashville,2797,#2797 #02797,3813 Hillsboro Pike,TN,37215
Finish Line,Franklin,2798,#2798 #02798,1790 Galleria Blvd.,TN,37067
Finish Line,Jackson,2799,#2799 #02799,2021 N. Hightland Ave.,TN,38305
Finish Line,Collierville,2801,#2801 #02801,4660 Merchant ParkCircle,TN,38017
Finish Line,Goodlettsville,2802,#2802 #02802,1000 Rivergate Parkway,TN,37072
Finish Line,Memphis,2803,#2803 #02803,1300 East Shelby Drive,TN,38116
Finish Line,Bowling Green,2805,#2805 #02805,2625 Scottsville Road,KY,42104
Finish Line,Orlando,2810,#2810 #02810,4298 Millenia Blvd. Orlan,FL,32839
Finish Line,Orlando,2811,#2811 #02811,8001 S. Orange Blossom Tr,FL,32809
Finish Line,Altamonte Springs,2812,#2812 #02812,451 East Altamonte Drive,FL,32701
Finish Line,Orlando,2813,#2813 #02813,3505 E. Colonial Dr,FL,32803
Finish Line,Merritt Island,2814,#2814 #02814,777 E. Merritt Island csw,FL,32952
Finish Line,Melbourne,2815,#2815 #02815,1700 W. New Haven Avenue,FL,32904
Finish Line,Daytona Beach,2816,#2816 #02816,1700 International Speedw,FL,32114
Finish Line,Sanford,2817,#2817 #02817,330 Towne Center Circle,FL,32771
Finish Line,Oviedo,2818,#2818 #02818,1400 Oviedo Marketplace B,FL,32765
Finish Line,Vero Beach,2819,#2819 #02819,6200 20th Street,FL,32966
Finish Line,St. Petersburg,2821,#2821 #02821,6899 Tyrone Square,FL,33710
Finish Line,Naples,2822,#2822 #02822,1800 9th St N.,FL,34102
Finish Line,Ft. Myers,2823,#2823 #02823,4125 Cleveland Ave,FL,33901
Finish Line,Sarasota,2824,#2824 #02824,3501 South Tamiami Trail,FL,34239
Finish Line,Sarasota,2825,#2825 #02825,8201 S. Tamiami Trail,FL,34238
Finish Line,Bradenton,2826,#2826 #02826,303 US 301 Blvd W.,FL,34205
Finish Line,Port Charlotte,2827,#2827 #02827,1441 Tamiami Trail,FL,33948
Finish Line,Tampa,2830,#2830 #02830,298 Westshore Plaza,FL,33609
Finish Line,Clearwater,2831,#2831 #02831,27001 US 19 N,FL,33761
Finish Line,Tampa,2832,#2832 #02832,7801 Citrus Park Towncent,FL,33625
Finish Line,Brandon,2833,#2833 #02833,638 Brandon Towncenter Ma,FL,33511
Finish Line,Tampa,2834,#2834 #02834,2201 University Square Ma,FL,33612
Finish Line,Ocala,2835,#2835 #02835,3100 S.W. College Rd,FL,34474
Finish Line,Gainesville,2836,#2836 #02836,6671 Newberry Rd,FL,32605
Finish Line,Tallahassee,2837,#2837 #02837,1500 Apalachee Parkway,FL,32301
Finish Line,Winter Haven,2838,#2838 #02838,231 Citi Centre Street,FL,33880
Finish Line,Lakeland,2839,#2839 #02839,3800 U.S. 98 N. Suite 400,FL,33809
Finish Line,Port Richey,2840,#2840 #02840,9409 U.S. Hwy. 19 N.,FL,34668
Finish Line,Wesley Chapel,2841,#2841 #02841,28233 Paseo Drive,FL,33543
Finish Line,New York,2903,#2903 #02903,151 W. 34th St,NY,10001
