keywords,city,Agg store_number,store_number,address,state,zip_code
Food Lion,Salisbury,1,#1,123 Mahaley Ave,NC,28144
Food Lion,Kannapolis,6,#6,358 Oak Avenue Mall Drive,NC,28081
Food Lion,Salisbury,10,#10,525 Jake Alexander Blvd W,NC,28144
Food Lion,Greensboro,14,#14,3219 S. Holden Road,NC,27407
Food Lion,Albemarle,30,#30,833 Hwy 24-27 Bypass East,NC,28001
Food Lion,Greensboro,32,#32,2208 Golden Gate Dr.,NC,27405
Food Lion,Monroe,34,#34,100 E. Sunset Drive,NC,28112
Food Lion,Cary,40,#40,980 Kildare Farm Rd.,NC,27511
Food Lion,Asheboro,47,#47,1327 E. Dixie Drive,NC,27203
Food Lion,Columbia,53,#53,2312 Decker Blvd.,SC,29206
Food Lion,Durham,57,#57,5279 Roxboro Road,NC,27712
Food Lion,Smithfield,59,#59,851 W. Market St.,NC,27577
Food Lion,Camden,60,#60,2529 Broad Street,SC,29020
Food Lion,Kinston,61,#61,2410 N. Heritage Rd.,NC,28501
Food Lion,Gaffney,63,#63,1405 E. Fredrick St,SC,29340
Food Lion,Statesville,64,#64,947 Davie Avenue,NC,28677
Food Lion,Roxboro,67,#67,1005 N Madison Blvd,NC,27573
Food Lion,Martinsville,70,#70,640 Commonwealth Blvd.,VA,24112
Food Lion,Newberry,73,#73,1821 Wilson Road,SC,29108
Food Lion,Garner,75,#75,1339 5Th Avenue,NC,27529
Food Lion,Sanford,78,#78,1931 S. Horner Blvd,NC,27330
Food Lion,Lexington,83,#83,744B  W. Main Street,SC,29072
Food Lion,Lenoir,89,#89,847 Wilksboro Blvd N.E.,NC,28645
Food Lion,Raleigh,90,#90,4317 Fall Of The Neuse Rd,NC,27609
Food Lion,Wytheville,93,#93,1155 N 4Th St Ste. 200,VA,24382
Food Lion,Hickory,97,#97,2625 N Center St,NC,28601
Food Lion,Florence,98,#98,1307 W. 2Nd Loop Road,SC,29501
Food Lion,Louisburg,99,#99,321 S. Bickett Blvd.,NC,27549
Food Lion,Myrtle Beach,100,#100,6103 N Kings Hwy,SC,29577
Food Lion,Wilson,102,#102,2801 Ward Blvd Suite 3H,NC,27893
Food Lion,Henderson,105,#105,1650 N. Garnett St.,NC,27536
Food Lion,Charlotte,106,#106,2526 Little Rock Road,NC,28214
Food Lion,Lynchburg,108,#108,21039-B Timberlake Rd.,VA,24502
Food Lion,Charlotte,111,#111,9848 Monroe Road,NC,28270
Food Lion,Clinton,114,#114,319 North Boulevard,NC,28328
Food Lion,Lexington,122,#122,291 Talbert Blvd.,NC,27292
Food Lion,Fayetteville,124,#124,102 N. Reilly Road,NC,28302
Food Lion,Morganton,125,#125,120 Bost Road,NC,28655
Food Lion,Raeford,127,#127,232 West Cole  Street,NC,28376
Food Lion,Pearisburg,130,#130,302 S. Main St.,VA,24134-1523
Food Lion,Staunton,132,#132,2411 West Beverly,VA,24401
Food Lion,Winston-Salem,133,#133,7760 N. Point Blvd.,NC,27106
Food Lion,Vinton,137,#137,1952 Washington Ave.,VA,24179
Food Lion,Carrboro,142,#142,Jones Ferry Rd Willow Crk,NC,27510
Food Lion,Oxford,143,#143,109 Hilltop Village,NC,27565
Food Lion,Washington,144,#144,1318 John Small Ave,NC,27889-3843
Food Lion,Jacksonville,146,#146,461 Western Blvd. U 128,NC,28546
Food Lion,Clayton,149,#149,10105 US 70 Bus Hwy W,NC,27520-2649
Food Lion,Jefferson,156,#156,733 E. Main Street,NC,28640
Food Lion,Jacksonville,167,#167,104 Branchwood Shpg Ctr,NC,28546
Food Lion,Norfolk,170,#170,6203 Virginia Beach Blvd,VA,23502
Food Lion,Virginia Beach,171,#171,1220 Great Neck Village,VA,23454
Food Lion,Virginia Beach,172,#172,4848 Va Beach Blvd.,VA,23462
Food Lion,Sumter,179,#179,"493 N Guignard Dr, Ste 6",SC,29150-4062
Food Lion,Virginia Beach,183,#183,5277 Princess Anne Road,VA,23462
Food Lion,Elizabeth City,192,#192,1515 Eringhaus Road,NC,27909
Food Lion,Raleigh,193,#193,5633 Creedmoor Crossing,NC,27612
Food Lion,Columbia,194,#194,5118 Fairfield Road,SC,29203
Food Lion,Norfolk,195,#195,7525 Tidewater Drive,VA,23505
Food Lion,Williamsburg,196,#196,1234 Richmond Road,VA,23185
Food Lion,Chapel Hill,197,#197,1129 Weaver Dairy Rd,NC,27514
Food Lion,Hillsborough,198,#198,106 Rebecca Drive,NC,27278
Food Lion,Madison Heights,199,#199,111 Seminole Dr,VA,24572-2447
Food Lion,Norfolk,201,#201,6206 Military Highway,VA,23518
Food Lion,Concord,203,#203,734 Cabarrus Ave.,NC,28027
Food Lion,Portsmouth,206,#206,5610 Portsmouth Blvd,VA,23701
Food Lion,Huntersville,207,#207,706 Gilead Road,NC,28078
Food Lion,Roanoke,210,#210,4387 Starkey Rd.,VA,24014
Food Lion,Virginia Beach,211,#211,3770 Birchwood Mall,VA,23452
Food Lion,Wilson,214,#214,2101 South Tarrboro St.,NC,27893
Food Lion,Johnson City,218,#218,3120 Bristol Highway,TN,37601
Food Lion,Lynchburg,219,#219,2909 Memorial Ave,VA,24501-2627
Food Lion,Wilmington,221,#221,3600 South College Rd.,NC,28412
Food Lion,Creedmoor,223,#223,2531-J E.Lyon Station Rd.,NC,27522
Food Lion,Newport News,227,#227,41 Hidden Blvd.,VA,23606
Food Lion,Kings Mountain,230,#230,1320 Shelby Road,NC,28086
Food Lion,Rock Hill,232,#232,1260 E. Main Street,SC,29730
Food Lion,Durham,234,#234,2400 Holloway Drive,NC,27703
Food Lion,Shelby,235,#235,122 South Post Rd.,NC,28150
Food Lion,Hillsville,236,#236,125 S. Main St.,VA,24343
Food Lion,Rocky Mount,237,#237,1441 Hunterhill Road,NC,27804
Food Lion,Charlottesville,238,#238,1131 5Th Street Sw,VA,22902
Food Lion,Eden,243,#243,Hwy 14 & East Meadow Road,NC,27288
Food Lion,Gastonia,244,#244,3011 Union Rd.,NC,28056
Food Lion,Aiken,245,#245,1520 Richland Ave West,SC,29801
Food Lion,Ocean City,246,#246,11801 Coastal Hwy,MD,21842
Food Lion,Raleigh,247,#247,4510 Capital Blvd.,NC,27604
Food Lion,Bedford,249,#249,1515 Longwood Ave.,VA,24523
Food Lion,Culpeper,250,#250,505 Meadowbrook Shopping Center,VA,22701
Food Lion,Albemarle,251,#251,2000 Hwy 52 N,NC,28001
Food Lion,North Charleston,252,#252,1213 Remount Road,SC,29406
Food Lion,Charlottesville,253,#253,570 Riverbend Dr.,VA,22911
Food Lion,Greensboro,259,#259,2316 E. Market Street,NC,27420
Food Lion,Rocky Mount,261,#261,802 Harbour Dr,NC,27801
Food Lion,Dallas,263,#263,3123 Dallas Hgh Shoals Hw,NC,28034
Food Lion,Harrisonburg,266,#266,1751 South High Street,VA,22801
Food Lion,Richmond,270,#270,9035 W. Broad Street,VA,23294
Food Lion,Richmond,271,#271,6425 Iron Bridge Place,VA,23234
Food Lion,Dunn,272,#272,2202 West Cumberland St,NC,28334
Food Lion,Durham,274,#274,4711 Hope Valley Rd.,NC,27707
Food Lion,Charlotte,276,#276,7400 Plaza Rd. Ext.,NC,28215
Food Lion,Roanoke,278,#278,2631 Peters Creek Road,VA,24017
Food Lion,Havelock,279,#279,1403 E Main St.,NC,28532
Food Lion,Little River,281,#281,1699 Hwy 17,SC,29566
Food Lion,Farmville,282,#282,1592 South Main St.,VA,23901
Food Lion,Santee,283,#283,697 Bass Dr.,SC,29142
Food Lion,Mount Airy,288,#288,1136 W. Pine Street,NC,27030
Food Lion,Myrtle Beach,289,#289,5413 Dick Pond Rd,SC,29588
Food Lion,Southport,294,#294,4930 Long Bch Rd SE,NC,28461
Food Lion,Richmond,297,#297,9157 Staples Mill Road,VA,23228
Food Lion,Midlothian,299,#299,11130 Hull Street,VA,23112
Food Lion,Gate City,308,#308,241 Gateway Plaza Ste 104,VA,24251
Food Lion,Erwin,323,#323,915 N. Main Street,TN,37650
Food Lion,Woodstock,331,#331,1029 South Main St.,VA,22664
Food Lion,Kernersville,334,#334,617 North Main Street,NC,27284
Food Lion,Greensboro,335,#335,1911 Coliseum Blvd,NC,27403-3243
Food Lion,North Charleston,336,#336,7550 Dorchester Rd.,SC,29418
Food Lion,Mechanicsville,337,#337,7095 Mechanicsville Trpk,VA,23111
Food Lion,Lumberton,338,#338,2779 W. 5Th St.,NC,28358
Food Lion,Zebulon,341,#341,114 Wakelon Street,NC,27597
Food Lion,West Columbia,343,#343,3975 Platt Springs Road,SC,29170
Food Lion,Henderson,344,#344,377 Raleigh Road,NC,27536
Food Lion,Locust,345,#345,1004 Main St W,NC,28097-9774
Food Lion,Winston-Salem,348,#348,3197 Peters Creek Parkway,NC,27107
Food Lion,Jacksonville,349,#349,175 Freedom Way,NC,28544
Food Lion,Burgaw,351,#351,602 Us 117 N,NC,28425
Food Lion,Asheboro,352,#352,1200 N. Fayetteville St,NC,27203
Food Lion,Aberdeen,353,#353,1680 Nc Hwy 5 Ste 90,NC,28315
Food Lion,Marion,356,#356,945 N Main St. Suite 2,VA,24354
Food Lion,Hudson,357,#357,3078 Hickory Blvd.,NC,28638
Food Lion,Fredericksburg,358,#358,282 Deacon Road Suite 106,VA,22405
Food Lion,Winchester,362,#362,707 Fort Collier Road,VA,22601
Food Lion,Gastonia,364,#364,111 W. Garrison Blvd.,NC,28052
Food Lion,Salem,365,#365,28 Wildwood Road,VA,24153
Food Lion,Winchester,366,#366,2600 Valley Avenue,VA,22601
Food Lion,Fayetteville,367,#367,342 N Eastern Blvd Ste 2,NC,28301-5160
Food Lion,Kilmarnock,372,#372,424 North Main Street,VA,22482
Food Lion,Chesapeake,374,#374,717 Battlefield Blvd S,VA,23322
Food Lion,Columbia,375,#375,9810 Two Notch Road,SC,29223
Food Lion,Concord,377,#377,860 Union St S,NC,28025-5731
Food Lion,Warrenton,378,#378,613 Frost Ave.,VA,20186
Food Lion,Rockwell,381,#381,968 Main St. Hwy 52,NC,28138
Food Lion,Roanoke,383,#383,4812 Hollins Road,VA,24019
Food Lion,Verona,384,#384,208 Laurel Hill Road,VA,24482
Food Lion,Virginia Beach,385,#385,1577 General Booth Blvd.,VA,23454
Food Lion,Rocky Mount,386,#386,850 Tanyard Road,VA,24151
Food Lion,Troy,387,#387,1020 Albemarle Rd,NC,27371-8684
Food Lion,Hemingway,389,#389,Hemingway Plaza Hwy 41 S.,SC,29554
Food Lion,West Columbia,390,#390,2250 Sunset Blvd,SC,29169
Food Lion,Virginia Beach,391,#391,2817 Shore Drive,VA,23451
Food Lion,Ocean City,397,#397,9936 Stephen Decatur Hwy,MD,21842
Food Lion,Bishopville,398,#398,517 S. Main,SC,29010
Food Lion,Radford,399,#399,1200 Tyler Ave.,VA,24141
Food Lion,Sneads Ferry,401,#401,965 Old Folkstone Rd.,NC,28460
Food Lion,King George,403,#403,15429 Dahlgren Rd,VA,22485
Food Lion,Franklin,405,#405,1328 Armory Drive,VA,23851
Food Lion,Hephzibah,407,#407,4104 Windsor Spring Road,GA,30815
Food Lion,Goose Creek,410,#410,1316 Redbank Rd,SC,29455
Food Lion,Candler,412,#412,35 Westridge Market Pl,NC,28715-9174
Food Lion,Williamston,415,#415,607 E. Blvd.,NC,27892
Food Lion,China Grove,416,#416,Centerview Sq Shop Ctr,NC,28023
Food Lion,Grafton,418,#418,5210 George Washington Memorial Hwy,VA,23692
Food Lion,Fredericksburg,419,#419,10611 Courthouse Road,VA,22407
Food Lion,Durham,420,#420,3808 Guess Rd.,NC,27705
Food Lion,Marshville,422,#422,7206 Marshville Blvd.,NC,28103
Food Lion,Bennettsville,423,#423,216 Hwy15-401 Bypass East,SC,29512
Food Lion,Banner Elk,424,#424,3555 Tynecastle Hwy,NC,28604
Food Lion,Blacksburg,425,#425,1413 N. Main Street,VA,24060
Food Lion,Myrtle Beach,427,#427,3890 South Kings Hwy,SC,29577
Food Lion,Selma,429,#429,1433 S Pollock St.,NC,27576
Food Lion,Martinsville,430,#430,2828 Greensboro Rd.,VA,24112
Food Lion,Dillon,431,#431,205 Radford Blvd.,SC,29536
Food Lion,King,432,#432,705P South Main Street,NC,27021
Food Lion,Fuquay-Varina,434,#434,1338 N. Main St.,NC,27526
Food Lion,Salisbury,435,#435,2104 Statesville Blvd,NC,28144
Food Lion,Roxboro,436,#436,2828 Durham Road,NC,27573
Food Lion,Virginia Beach,437,#437,3208 Holland Road,VA,23456
Food Lion,Stuarts Draft,438,#438,20 Windmill Square,VA,24477
Food Lion,Greensboro,440,#440,1023 Alamance Church Rd.,NC,27406
Food Lion,Mount Airy,441,#441,1215 W. Lebanon St.,NC,27030
Food Lion,Norwood,445,#445,542 Fork Road,NC,28128
Food Lion,Monroe,446,#446,801 East Roosevelt Blvd,NC,28112
Food Lion,Newport News,447,#447,11712-0 Jefferson Ave,VA,23607
Food Lion,Fredericksburg,450,#450,4153 Plank Road,VA,22401
Food Lion,Christiansburg,451,#451,1530 Franklin St.,VA,24073
Food Lion,Tappahannock,453,#453,1856 Tappahannock Blvd,VA,22560
Food Lion,Valdese,454,#454,827 Main Street S.W.,NC,28690
Food Lion,Matthews,455,#455,3609Matthews-Mint Hill Rd,NC,28105
Food Lion,Georgetown,456,#456,1045 N. Fraser Street,SC,29440
Food Lion,Newport News,457,#457,15435 Warwick Blvd.,VA,23607
Food Lion,Waxhaw,458,#458,1301 North Broome St.,NC,28173
Food Lion,Pineville,459,#459,317 S. Polk St.,NC,28134
Food Lion,Conover,461,#461,104 Thornburg Dr._Se #L,NC,28613
Food Lion,Chatham,464,#464,13701 Us Hgh #29 Ste G,VA,24531
Food Lion,Burlington,465,#465,3535 S. Church St.,NC,27215
Food Lion,Hampton,466,#466,85 Coliseum Crossing,VA,23666
Food Lion,Hope Mills,468,#468,3020 Hope Mills Rd,NC,28348
Food Lion,Virginia Beach,469,#469,1077 Va Beach Blvd.,VA,23454
Food Lion,Fayetteville,470,#470,8175 Cliffdale Rd Ste 150,NC,28314
Food Lion,Luray,472,#472,1400 Us Highway 211 W,VA,22835
Food Lion,Winston-Salem,473,#473,3505 Patterson Ave.,NC,27105
Food Lion,Lawrenceville,474,#474,Hwy 58 East/Brunswick Sq.,VA,23868
Food Lion,Fayetteville,475,#475,3308 Bragg Blvd,NC,28302
Food Lion,Midlothian,477,#477,13100 Midlothian Tpk,VA,23113
Food Lion,Richmond,478,#478,8201 Hull Street,VA,23235
Food Lion,Scotland Neck,479,#479,93 Food Lion Rd.,NC,27874
Food Lion,Gastonia,480,#480,2211 North New Hope Road,NC,28052
Food Lion,Amherst,482,#482,1102 Washington Street,VA,24521
Food Lion,Louisa,484,#484,501 East Main St.,VA,23093
Food Lion,Wytheville,485,#485,1380 East Main St.,VA,24382
Food Lion,Greenville,486,#486,3136 East 10Th Street,NC,27834
Food Lion,Virginia Beach,487,#487,5193 Shore Drive,VA,23455
Food Lion,Rehoboth Beach,488,#488,19287 Miller Rd. Unit 14,DE,19971
Food Lion,Hickory,489,#489,1810 Hwy 64-70 SE,NC,28601
Food Lion,Onley,490,#490,25102 Lankford Hwy,VA,23418
Food Lion,Emerald Isle,491,#491,8700 Emerald Drive,NC,28594
Food Lion,Glasgow,492,#492,214 L. Roger Wells Blvd.,KY,42141
Food Lion,Chesapeake,494,#494,1245 Cedar Road_Ste A,VA,23222
Food Lion,Fayetteville,495,#495,929 Mcarthur Rd.,NC,28311
Food Lion,Staunton,497,#497,11 Orchid Hill Ctr.,VA,24401
Food Lion,Hickory,504,#504,Hwy. 127 South,NC,28602
Food Lion,Roanoke Rapids,506,#506,1201 T. Weldon Rd,NC,27870
Food Lion,Monroe,507,#507,2118 W Roosevelt Blvd,NC,28110-2713
Food Lion,Sparta,508,#508,381 S. Main St. Ste 508,NC,28675
Food Lion,Columbus,510,#510,250 West Mills St Unit 5,NC,28722
Food Lion,Chesterfield,513,#513,6201 Belmont Road,VA,23832
Food Lion,Richmond,514,#514,1228 Concord Ave.,VA,23227
Food Lion,Lexington,515,#515,1989 Cotton Grove Road,NC,27292
Food Lion,Yorktown,517,#517,2900-K Hampton Hwy.,VA,23693
Food Lion,Charlotte,518,#518,9112 S Tryon St,NC,28273-3639
Food Lion,Cherryville,521,#521,1209 Shelby Hwy,NC,28021
Food Lion,Greensboro,524,#524,1316 Lee's Chapel Road,NC,27405
Food Lion,Ahoskie,527,#527,1498 East Memorial Drive,NC,27910
Food Lion,Southern Pines,528,#528,Us 15/501 & Morganton Rd,NC,28387
Food Lion,Indian Trail,532,#532,4423 Old Monroe Rd,NC,28079
Food Lion,Ballentine,534,#534,1339 Dutch Fork Road,SC,29002
Food Lion,Raleigh,536,#536,9101 Leesville Rd Ste 107,NC,27613-7546
Food Lion,High Point,540,#540,1107 E. Lexington Ave.,NC,27260
Food Lion,Plymouth,541,#541,824 Us Hwy 64 E,NC,27962
Food Lion,South Boston,542,#542,1020 Bill Tuck Hwy #1000,VA,24592
Food Lion,Mount Olive,544,#544,1017 N. Breazeale Ave.,NC,28365
Food Lion,Colonial Heights,545,#545,#11 Dunlop Village Circle,VA,23834
Food Lion,Spencer,547,#547,313 Salisbury Ave,NC,02815-9251
Food Lion,Strasburg,550,#550,794 Shopping Center Rd,VA,22657
Food Lion,Statesville,552,#552,608 Turnersburg Hwy.,NC,28677
Food Lion,Welcome,554,#554,6455 Old Us Hwy. 52,NC,27374
Food Lion,Hampton,555,#555,2070 Nickerson Blvd.,VA,23669
Food Lion,Norfolk,557,#557,1859 E. Little Creek Rd,VA,23518
Food Lion,Fayetteville,558,#558,6575 Fisher Rd.,NC,28302
Food Lion,Garner,561,#561,217 Timber Drive West,NC,27529
Food Lion,Hickory,563,#563,3220 Springs Road_Ne,NC,28601
Food Lion,Greensboro,566,#566,3228 Randleman Road,NC,27420
Food Lion,Newton,571,#571,1390 S Nc 16 Hwy,NC,28658
Food Lion,Raleigh,572,#572,8320-100 Litchford Rd.,NC,27602
Food Lion,Cramerton,573,#573,202-A Market Street,NC,28032
Food Lion,Elizabeth City,575,#575,1313 N Road Street,NC,27909
Food Lion,Reidsville,576,#576,1130 Freeway Dr.,NC,27320
Food Lion,Edenton,577,#577,1316 North Broad St.,NC,27932
Food Lion,Stafford,578,#578,905 Garrisonville Road,VA,22554
Food Lion,Augusta,581,#581,3246 Wrightsboro Road,GA,30909
Food Lion,Hamlet,584,#584,803 W Hamlet Ave,NC,28345
Food Lion,Seaford,585,#585,22941 Sussex Highway,DE,19973
Food Lion,Raleigh,586,#586,3416-120 Poole Rd.,NC,27610
Food Lion,Kenly,587,#587,406 S Church St,NC,27542-5002
Food Lion,Aiken,589,#589,786 Silver Bluff Rd Sw,SC,29803
Food Lion,Graham,591,#591,921 S. Main St.,NC,27253
Food Lion,Williamsburg,592,#592,5251 John Tyler Hwy,VA,23185
Food Lion,Winston-Salem,593,#593,4826 Country Club Road,NC,27102
Food Lion,Lillington,595,#595,8 The Sqr At Lillington,NC,27546
Food Lion,Elkton,596,#596,14811 Spotswood Trail,VA,22827
Food Lion,Newport News,597,#597,12917 Jefferson Ave.,VA,23609
Food Lion,Virginia Beach,600,#600,880 S.Military&Indian Riv,VA,23464
Food Lion,Richmond,601,#601,3089 Mechanicville Turpik,VA,23223
Food Lion,Roanoke,607,#607,2110 Bennington St. S.E.,VA,24014
Food Lion,Virginia Beach,609,#609,4221 Pleasant Valley Road,VA,23464
Food Lion,Hayes,610,#610,2292 York Crossing Dr.,VA,23072
Food Lion,Laurinburg,612,#612,1108 Aberdeen Road,NC,28352
Food Lion,Jonesville,613,#613,101 Valley Dr,NC,28642
Food Lion,Danville,614,#614,3305 Seminole Trail A,VA,24540
Food Lion,Greensboro,615,#615,120 W Meadowview Rd,NC,27406-3606
Food Lion,Virginia Beach,616,#616,748 Independence Blvd,VA,23455
Food Lion,Charlotte,617,#617,4001 Sunset Rd West,NC,28216
Food Lion,Florence,618,#618,2600 S. Irby Street,SC,29501
Food Lion,Rocky Mount,619,#619,113 North Fairview Rd,NC,27801
Food Lion,Colonial Heights,620,#620,15702 Jefferson Davis Hwy,VA,23834
Food Lion,Salem,621,#621,1796 Apperson Dr.,VA,24153
Food Lion,Chesapeake,622,#622,3325 Taylor Rd Taylor Plz,VA,23321
Food Lion,Richmond,623,#623,8006 Buford Court,VA,23235
Food Lion,Cary,624,#624,2458 Sw Cary Parkway,NC,27513
Food Lion,Danville,625,#625,540 Westover Drive,VA,24541
Food Lion,Hagerstown,626,#626,761 E. Wilson Blvd.,MD,21740
Food Lion,Mechanicsville,628,#628,9502 Chamberlayne Road,VA,23116
Food Lion,East Ridge,634,#634,4340 Ringgold Road,TN,37412
Food Lion,Charlotte,635,#635,2123 Beatties Ford Rd.,NC,28216
Food Lion,Hickory,638,#638,2730 2nd Ave. Nw,NC,28601
Food Lion,Danville,640,#640,1403 S. Main Street,VA,24541
Food Lion,Yorktown,641,#641,8100 George Wash. Hwy,VA,23692
Food Lion,Chesapeake,642,#642,801 Volvo Parkway,VA,23320
Food Lion,Virginia Beach,646,#646,3960 Salem  Blvd.,VA,23456
Food Lion,Columbia,647,#647,2900 Leesburg Rd,SC,29209
Food Lion,Raleigh,649,#649,"2720 Lake Wheeler Rd, Unit 111",NC,27603-5861
Food Lion,Leonardtown,656,#656,40955 Merchant Lane,MD,20650
Food Lion,Forest,657,#657,18013 Forest Rd.,VA,24551
Food Lion,Berlin,658,#658,10138 Old Ocean City Blvd,MD,21811
Food Lion,Wadesboro,659,#659,1043 E. Caswell St.,NC,28170
Food Lion,Charles Town,663,#663,96 Somerset Boulevard,WV,25414
Food Lion,Rolesville,669,#669,405 S. Main Street,NC,27571
Food Lion,Belhaven,671,#671,998 Us Hwy 264 Bypass,NC,27810
Food Lion,Greensboro,674,#674,4634-H Hicone Rd.,NC,27420
Food Lion,Ashland,679,#679,135 Junction Drive,VA,23005
Food Lion,Ashland,681,#681,9541 Kings Charter Dr.,VA,23005
Food Lion,Greensboro,682,#682,2217 Fleming Rd,NC,27410-9372
Food Lion,Swansboro,683,#683,1409 West Corbett Ave.,NC,28584
Food Lion,Avon,685,#685,41934 Nc Highway 12,NC,27915
Food Lion,Laurinburg,690,#690,1301 Scotland Crossing Dr,NC,28352
Food Lion,Pooler,691,#691,"1017 E. Hwy 80, Suite 13",GA,31322
Food Lion,Ashland City,693,#693,314 Frey Street,TN,37015
Food Lion,Denton,698,#698,840 5Th Street,MD,21629
Food Lion,Burlington,699,#699,1780 West Webb Ave.,NC,27215
Food Lion,Troutman,701,#701,520 North Main Street,NC,28166
Food Lion,Williamsburg,703,#703,5601 Richmond Road,VA,23188
Food Lion,Georgetown,706,#706,2234 S. Fraser St.,SC,29440
Food Lion,Shelby,707,#707,1523 Lafayette Street,NC,28150
Food Lion,Chester,711,#711,9801 Chester Road,VA,23831
Food Lion,High Point,716,#716,3136 E. Kivett Drive,NC,27260
Food Lion,Fayetteville,721,#721,4106 Raeford Rd.,NC,28305
Food Lion,Manchester,722,#722,944 Hillsboro Blvd.,TN,37355
Food Lion,Knightdale,723,#723,7053 Us Hwy 64 E,NC,27545
Food Lion,Gallatin,725,#725,471 East Main St.,TN,37066
Food Lion,Denver,726,#726,6113 S. NC Business Hwy 16,NC,28037
Food Lion,Cary,727,#727,900 N. Maynard Rd.,NC,27513
Food Lion,Richlands,730,#730,124 Kent Ridge Rd,VA,24641
Food Lion,Winchester,733,#733,249 Sunnyside Plaza Circl,VA,22603
Food Lion,Oakboro,735,#735,Nc Hwy. 138 & Sr 1974,NC,28129
Food Lion,Bealeton,738,#738,6358 Village Center Drive,VA,22712
Food Lion,Mount Pleasant,740,#740,7230 Hwy 49 North,NC,28124
Food Lion,Wilmington,742,#742,1319 Military Cutoff,NC,28405
Food Lion,Surf City,743,#743,13601 Nc Hwy 50,NC,28445
Food Lion,South Boston,744,#744,3130 Halifax Rd. #G,VA,24592
Food Lion,Purcellville,745,#745,609 K East Main Street,VA,20132
Food Lion,Durham,747,#747,3500 North Roxboro St.,NC,27704
Food Lion,Charlotte,748,#748,4709 Tuckaseegee Rd,NC,28208
Food Lion,Lugoff,749,#749,610 Us Hwy #1 South,SC,29078
Food Lion,Norfolk,752,#752,8401 Hampton Bvld.,VA,23505
Food Lion,Waynesboro,754,#754,990 Hopeman Pkwy,VA,22980
Food Lion,Kannapolis,755,#755,1746 S. Cannon Blvd.,NC,28083-6104
Food Lion,Chesapeake,756,#756,2617 Moses Grandy Trail,VA,23323
Food Lion,Raleigh,757,#757,1100-122 Raleigh Blvd.,NC,27610
Food Lion,Fayetteville,760,#760,150 Andrews Road,NC,28311
Food Lion,Washington,762,#762,500 Cherry Run Ctr,NC,27889-4175
Food Lion,Newport News,765,#765,980 J Clyde Morris Blvd,VA,23601
Food Lion,Richfield,766,#766,410 W. Church Street,NC,28137
Food Lion,Charlotte,769,#769,8100 Idlewild Road,NC,28227-1903
Food Lion,Beckley,771,#771,1018 N Eisenhower Drive,WV,25801
Food Lion,Lexington,774,#774,84 E. Midland Trail,VA,24450
Food Lion,Jacksonville,775,#775,2040 Maplehurst Rd.Ste13,NC,28540
Food Lion,Winterville,779,#779,4822 Old Tar Road,NC,28590
Food Lion,California,784,#784,45315 Alton Lane,MD,20619
Food Lion,Reisterstown,786,#786,10 Village Center Rd,MD,21136
Food Lion,Oak Ridge,787,#787,691 Emory Valley Rd.,TN,37830
Food Lion,Belmont,797,#797,1438 Perfection Road,NC,28012
Food Lion,Pulaski,799,#799,1088 Memorial Drive,VA,24301
Food Lion,Salisbury,800,#800,817 Snow Hill Road Unit 1,MD,21804
Food Lion,Columbia,801,#801,5021 Mt. Pleasant Pike,TN,38401
Food Lion,Maiden,803,#803,201 Island Ford Rd.,NC,28650
Food Lion,Berkeley Springs,807,#807,Morgan Sq. Rt. 522 South,WV,25411
Food Lion,Fayetteville,809,#809,3037 Legion Rd.,NC,28306
Food Lion,Fayetteville,810,#810,9535 Cliffdale Rd,NC,28304
Food Lion,Garden City,811,#811,109 Minus Ave.,GA,31408
Food Lion,Mooresville,812,#812,971 N Main St,NC,28115-2355
Food Lion,Wendell,815,#815,2837 Wendell Blvd.,NC,27591
Food Lion,Raleigh,816,#816,2861 Jones Franklin Road,NC,27606-4007
Food Lion,New Bern,817,#817,935 Hwy 70 East,NC,28560
Food Lion,Fayetteville,818,#818,151 Westwood Shp. Center,NC,28302
Food Lion,Romney,820,#820,Hc 63 Box 2460,WV,26757
Food Lion,Charlotte,822,#822,3009 Plaza Road E. 34Rd S,NC,28205
Food Lion,New Bern,825,#825,1214 S. Glenburnie Rd.,NC,28562
Food Lion,White Sulphur Springs,826,#826,Rt. 92 Battleground Cross,WV,24986
Food Lion,Florence,830,#830,350 N. Cashua Drive,SC,29501
Food Lion,Aberdeen,834,#834,1832 N. Sandhills Blvd,NC,28315
Food Lion,Emporia,837,#837,216 Market Drive,VA,23847
Food Lion,Portsmouth,839,#839,5734 Churchland Blvd.,VA,23703
Food Lion,Clover,841,#841,845 Bethel Street,SC,29710
Food Lion,Yanceyville,842,#842,Nc Hwy 86 & 158,NC,27379
Food Lion,Hopewell,844,#844,5209 Plaza Drive,VA,23860
Food Lion,Mebane,848,#848,1282 S Fifth St,NC,27302-9756
Food Lion,Smithfield,849,#849,1941 S. Church Street,VA,23430
Food Lion,Leland,852,#852,103 Village Rd.,NC,28451
Food Lion,Richmond,853,#853,5400 West Broad St,VA,23230
Food Lion,Rocky Mount,857,#857,430 Goldrock Rd.,NC,27804
Food Lion,Antioch,861,#861,936 Richards Road,TN,37013
Food Lion,Richmond,863,#863,2949 Williamsburg Road,VA,23231
Food Lion,Charlottesville,864,#864,1740 Timberwood Blvd.,VA,22911
Food Lion,Morganton,865,#865,1230 Burkemont Ave,NC,28655
Food Lion,Amelia,870,#870,15105 Patrick Henry Hgh,VA,23002
Food Lion,Shepherdstown,871,#871,85 Maddex Square Drive,WV,25443
Food Lion,Clarksville,874,#874,2304 Madison Street,TN,37041
Food Lion,Millsboro,875,#875,28544 Dupont Blvd. Unit 8,DE,19966
Food Lion,Delmar,879,#879,38650 Sussex Hwy Unit 1,DE,19940
Food Lion,Virginia Beach,882,#882,2352 Va Beach Blvd.,VA,23454
Food Lion,Pittsboro,884,#884,Hwy 64 Chatham Com Shp Ct,NC,27312
Food Lion,Durham,885,#885,4900 Nc Hwy 55 Ste 300,NC,27713
Food Lion,Shelbyville,886,#886,219 Colloredo Blvd.,TN,37160
Food Lion,Chesapeake,889,#889,910 Great Bridge Blvd.,VA,23320
Food Lion,Fayetteville,893,#893,7071 Raeford Rd,NC,28304
Food Lion,Burlington,894,#894,2660 Ramada Road,NC,27215
Food Lion,Archdale,897,#897,10102-F S.Main St.,NC,27263
Food Lion,Little River,899,#899,3379 Hwy 9 East,SC,29566
Food Lion,Red Springs,900,#900,805 A East 4Th Avenue,NC,28377
Food Lion,Fredericksburg,901,#901,205 Kings Highway,VA,22405
Food Lion,Wake Forest,906,#906,12295 Capital Blvd,NC,27588
Food Lion,Ellijay,907,#907,130 Fowler St.,GA,30540
Food Lion,Blackstone,908,#908,1521 South Main Street,VA,23824
Food Lion,Wilmington,909,#909,6400-1 Carolina Beach Rd.,NC,28412
Food Lion,Hampstead,910,#910,14564 Us Hwy. 17,NC,28443
Food Lion,Loris,912,#912,305 Hwy 701 N.,SC,29569
Food Lion,Conway,916,#916,1903 Hwy 544,SC,29526-9202
Food Lion,Biscoe,921,#921,527 E. Main Street,NC,27209
Food Lion,Blowing Rock,922,#922,175 Hwy 321 Bypass,NC,28605
Food Lion,Lexington,924,#924,848 N Winston Rd.,NC,27295
Food Lion,High Point,925,#925,2705 N Main St Suite 103,NC,27260
Food Lion,Florence,926,#926,3219 West Palmetto St.,SC,29501
Food Lion,Florence,927,#927,3208 East Palmetto Street,SC,29501
Food Lion,Chester,928,#928,1841 Suite C Ja Cochran,SC,29706
Food Lion,Rockingham,930,#930,481 East Broad Ave.,NC,28379
Food Lion,Mocksville,932,#932,1388 Hwy. 601 South,NC,27028
Food Lion,Charleston,933,#933,2245  F  Ashley Crossing,SC,29414
Food Lion,Winston-Salem,935,#935,5379 Shattalon Dr.,NC,27106
Food Lion,Kenansville,936,#936,Hwy 50 South,NC,28349
Food Lion,Corolla,937,#937,805 Ocean Trail,NC,27927
Food Lion,Holly Springs,938,#938,517 North Main St.,NC,27540
Food Lion,Durham,939,#939,4621 Hillsborough Rd,NC,27705
Food Lion,Ruckersville,940,#940,136 Cedar Grove Rd,VA,22968
Food Lion,Cleveland,941,#941,125 Stuart Road,TN,37312
Food Lion,Lorton,943,#943,7760 Gunston Plaza Drive,VA,22079
Food Lion,Pilot Mountain,944,#944,647E S. Key Street,NC,27041
Food Lion,Beaufort,945,#945,10 Sams Point Road,SC,29902
Food Lion,Randleman,946,#946,103 Pointe South Drive,NC,27317
Food Lion,Roseboro,948,#948,220 W Dr Martin L King Jr Blvd,NC,28382
Food Lion,Moorefield,949,#949,542 South Main Street,WV,26836
Food Lion,Taneytown,950,#950,511 East Baltimore St,MD,21787
Food Lion,Eden,951,#951,824-E S. Van Buren Road,NC,27288
Food Lion,Wingate,953,#953,221 West Hwy 74,NC,28174
Food Lion,Clyde,957,#957,179 Paragon Parkway,NC,28721
Food Lion,Suffolk,958,#958,2815 Godwin Drive,VA,23434
Food Lion,Palmyra,959,#959,264 Turkeysag Trl Unit A,VA,22963-2657
Food Lion,Millsboro,960,#960,24832 John J Williams Hwy,DE,19966
Food Lion,Colonial Beach,964,#964,600 Mckinney Blvd.,VA,22443
Food Lion,Hedgesville,965,#965,147 Roaring Lion Dr,WV,25427
Food Lion,Chester,966,#966,13145 Rivers Bend Blvd,VA,23836
Food Lion,Charlotte,971,#971,931 N. Wendover Road,NC,28211
Food Lion,Locust Grove,973,#973,36127 Goodwin Dr.,VA,22508
Food Lion,Harrisonburg,974,#974,1751 Virginia Avenue,VA,22802
Food Lion,Dickson,978,#978,303 Henslee Drive,TN,37055
Food Lion,Taylorsville,980,#980,629-C W. Main Street,NC,28681
Food Lion,Grantsboro,981,#981,11560 Nc Hwy 55,NC,28529
Food Lion,Winchester,984,#984,620 S. College St,TN,37398
Food Lion,Charlotte,985,#985,1704 Harris Houston Rd.,NC,28213
Food Lion,Monroe,986,#986,1678 W. Franklin St.,NC,28112
Food Lion,Newport News,987,#987,467 Oriana Road,VA,23608
Food Lion,Lynchburg,992,#992,2225 Florida Ave.,VA,24501
Food Lion,Fairmont,993,#993,500 N. Walnut St.,NC,28340
Food Lion,Chambersburg,994,#994,4170 Philadelphia Avenue,PA,17202
Food Lion,Cookeville,995,#995,1245 E. Spring St..,TN,38501
Food Lion,Raleigh,996,#996,7971 Fayetteville Rd.,NC,27603
Food Lion,Dinwiddie,997,#997,4320 Westgate Drive,VA,23803
Food Lion,Concord,998,#998,80 Branchview Drive Ne,NC,28025
Food Lion,Sanford,999,#999,2904 S. Horner Blvd,NC,27330
Food Lion,Wilmington,1041,#1041,1929 Oleander Drive,NC,28403
Food Lion,Moyock,1042,#1042,101 Lark Drive,NC,27958-8736
Food Lion,Fredericksburg,1043,#1043,515 Jefferson Davis Hwy,VA,22401
Food Lion,Winston-Salem,1044,#1044,1499 New Walkertown Rd,NC,27101
Food Lion,North Myrtle Beach,1047,#1047,1000 Hwy 17 N.,SC,29582
Food Lion,North Wilkesboro,1048,#1048,21 Sparta Road,NC,28659
Food Lion,Smithsburg,1050,#1050,22401 Jefferson Blvd.,MD,21783
Food Lion,La Follette,1055,#1055,1707 East Central Ave,TN,37766
Food Lion,Fairview,1056,#1056,1350 Charlotte Hwy,NC,28730
Food Lion,Charlotte,1057,#1057,3207 Eastway Drive,NC,28205
Food Lion,Bassett,1058,#1058,5835 Virginia Ave,VA,24055
Food Lion,Front Royal,1059,#1059,260 Remount Rd,VA,22630
Food Lion,Lewisville,1062,#1062,6810 Shallowford Road,NC,27023
Food Lion,Gastonia,1065,#1065,3570 W. Franklin Ave,NC,28053
Food Lion,Pulaski,1066,#1066,1200 East Main Street,VA,24301
Food Lion,Tullahoma,1067,#1067,411 W. Lincoln Street,TN,37388
Food Lion,Ladson,1072,#1072,"650 College Park Rd, Unit A",SC,29456-3387
Food Lion,Chadbourn,1073,#1073,809 North Brown Street,NC,28431
Food Lion,Burlington,1078,#1078,2208 North Church St.,NC,27217
Food Lion,Raleigh,1079,#1079,5621-113 Louisburg Rd.,NC,27604
Food Lion,Charlotte,1080,#1080,9021 Albemarle Rd,NC,28227
Food Lion,Covington,1081,#1081,920 South Craig St.,VA,24426
Food Lion,Lancaster,1084,#1084,937 N Main St,SC,29720
Food Lion,Marion,1085,#1085,1210 Hwy 70 West,NC,28752
Food Lion,Roanoke Rapids,1086,#1086,2500 West 10Th St.,NC,27870
Food Lion,Bowling Green,1087,#1087,15432 Rogers Clark Blvd,VA,22427
Food Lion,Walnut Cove,1090,#1090,1072 N Main St.,NC,27052
Food Lion,Charleston,1097,#1097,1291 Folly Road,SC,29412
Food Lion,Durham,1099,#1099,2930 W. Main Street,NC,27705
Food Lion,Murfreesboro,1100,#1100,924 W Main St,NC,27855-1516
Food Lion,Richmond,1146,#1146,6009 Nine Mile Rd.,VA,23223
Food Lion,Hagerstown,1147,#1147,18717 North Pointe Drive,MD,21742
Food Lion,Heathsville,1148,#1148,7424 Northumberland Hwy,VA,22473
Food Lion,Nutter Fort,1150,#1150,600 Buckhannon Pike,WV,26301
Food Lion,South Hill,1152,#1152,1022 West Atlantic Street,VA,23970
Food Lion,Princess Anne,1153,#1153,12158 Brittingham Lane,MD,21853
Food Lion,Virginia Beach,1155,#1155,2005 Sandbridge Rd.,VA,23456
Food Lion,Richmond,1156,#1156,5620 Hull Street,VA,23225
Food Lion,Ettrick,1157,#1157,20821 Woodpecker Rd.,VA,23803
Food Lion,Cambridge,1158,#1158,6 Washington Street,MD,21613
Food Lion,Richmond,1159,#1159,3081 Lauderdale Dr.,VA,23233
Food Lion,Troutville,1160,#1160,1641 Blue Ridge Blvd.,VA,24175
Food Lion,Sterling,1161,#1161,46081 Briarcroft Plaza,VA,20164
Food Lion,Frederick,1162,#1162,2060 Yellow Springs Rd.,MD,21702
Food Lion,Berryville,1164,#1164,409 N Mcneil Road,VA,22611
Food Lion,Stafford,1166,#1166,2612 Jefferson Davis Hwy.,VA,22554
Food Lion,Inwood,1167,#1167,4803 Gerrardstown Rd,WV,25428
Food Lion,La Plata,1168,#1168,100 Drury Lane Laplata Vi,MD,20646
Food Lion,Clarksburg,1169,#1169,1713 Milford St,WV,26301-5856
Food Lion,Canton,1170,#1170,1 New Clyde Highway,NC,28716
Food Lion,Richmond,1172,#1172,5702 Jefferson Davis Hwy.,VA,23234
Food Lion,Suffolk,1173,#1173,3215 Bridge Road,VA,23435-1771
Food Lion,Summersville,1174,#1174,1005 Industrial Drive,WV,26651
Food Lion,Sylva,1175,#1175,73 Asheville Road,NC,28779
Food Lion,North Tazewell,1176,#1176,620 Market St,VA,24630-9209
Food Lion,Spotsylvania,1177,#1177,9801 Courthouse Road,VA,22553
Food Lion,Exmore,1179,#1179,4092 Lankford Highway,VA,23350
Food Lion,Hagerstown,1180,#1180,17718 Virginia Ave.,MD,21740
Food Lion,Savannah,1181,#1181,8914 White Bluff Road,GA,31406
Food Lion,Waldorf,1184,#1184,3200 Old Washington Road,MD,20602
Food Lion,Leesburg,1185,#1185,720 S. King Street,VA,20175
Food Lion,Charlottesville,1186,#1186,585 Branchlands Blvd,VA,22901
Food Lion,Frostburg,1187,#1187,17600 Old National SW Pike,MD,21532-3467
Food Lion,Norfolk,1188,#1188,2401 Colley Ave,VA,23517
Food Lion,Martinsburg,1189,#1189,1140 Winchester Avenue,WV,25401
Food Lion,Reidsville,1192,#1192,1605 Way Street,NC,27320
Food Lion,Wilmington,1193,#1193,45 South Kerr Ave.,NC,28403
Food Lion,Wilson,1194,#1194,2021 Lipscombe Road,NC,27893
Food Lion,Warsaw,1196,#1196,4665 Richmond Road,VA,22572
Food Lion,Sophia,1197,#1197,Hwy 16,WV,25921
Food Lion,Pawleys Island,1198,#1198,9380 Ocean Hwy,SC,29585
Food Lion,Windsor,1199,#1199,117 US Hwy 13 Byp,NC,27983-7118
Food Lion,Burlington,1200,#1200,414 Harden Street,NC,27215
Food Lion,Myrtle Beach,1202,#1202,1009 Hwy 501,SC,29577
Food Lion,Chesapeake,1204,#1204,415 Centerville Turnpike,VA,23322
Food Lion,Selbyville,1206,#1206,32 N Dupont Hwy,DE,19975
Food Lion,Manassas,1208,#1208,13490 Dumfries Road,VA,20112
Food Lion,Lancaster,1209,#1209,1730 Airport Road,SC,29720
Food Lion,Lexington Park,1210,#1210,19 St. Mary's Square,MD,20653
Food Lion,Salisbury,1211,#1211,1216 Nanticoke Rd.,MD,21801
Food Lion,Wilmington,1212,#1212,2601-A Castle Hayne Road,NC,28401
Food Lion,Seven Lakes,1213,#1213,1075 7 Lakes Dr,NC,27376-9081
Food Lion,Thurmont,1216,#1216,Hwy 15 & Tippin_Drive,MD,21788
Food Lion,Lumberton,1217,#1217,2710 Roberts Ave,NC,28358
Food Lion,Hertford,1218,#1218,#2Perquimans Ctr Hwy 17,NC,27944
Food Lion,Grandy,1220,#1220,123 Forbes Loop,NC,27939
Food Lion,West Point,1221,#1221,100 Winter Street,VA,23181
Food Lion,Woodbridge,1226,#1226,14641-14643 Jefferson Dr.,VA,22192
Food Lion,Henderson,1228,#1228,1263 Dabney Dr.,NC,27536
Food Lion,Keysville,1232,#1232,690 King Street,VA,23947-3500
Food Lion,Scottsville,1233,#1233,1224 Gallatin Road,KY,42164
Food Lion,Fredericksburg,1235,#1235,10601 Spotsylvania Ave,VA,22405
Food Lion,Brookneal,1236,#1236,425 Lusardi Street,VA,24528
Food Lion,Cameron,1237,#1237,133 Mittie Haddock Drive,NC,28326
Food Lion,New Market,1238,#1238,11800 Old National Pike,MD,21774
Food Lion,Richmond,1240,#1240,6815 Forest Hill Ave.,VA,23225
Food Lion,York,1241,#1241,3611 East Market Street,PA,17402
Food Lion,Fredericksburg,1243,#1243,736 Warrenton Road,VA,22406
Food Lion,Mills River,1244,#1244,6 Crossroads Drive,NC,28759
Food Lion,Mccormick,1246,#1246,314 Mine Street,SC,29835
Food Lion,Kingstree,1248,#1248,15 N Williamsburg County Hwy,SC,29556
Food Lion,Dumfries,1249,#1249,5227 Waterway Drive,VA,22026
Food Lion,Denver,1250,#1250,2100 N Highway 16,NC,28037
Food Lion,Beaufort,1251,#1251,1901 Live Oak St.,NC,28516
Food Lion,Danville,1252,#1252,607 West Main St.,VA,24541
Food Lion,Oxford,1253,#1253,120 Roxboro Road,NC,27565
Food Lion,Raleigh,1259,#1259,3685 New Bern Avenue,NC,27610
Food Lion,Woodbridge,1261,#1261,13414 Jefferson Davis Hwy,VA,22192
Food Lion,Charlotte,1262,#1262,7400 Candlewyck Lane,NC,28226
Food Lion,Midlothian,1265,#1265,13961 Hull Street,VA,23112
Food Lion,Pageland,1267,#1267,709 East Mcgregor Street,SC,29728
Food Lion,Salisbury,1268,#1268,232 Tilghman Rd,MD,21801
Food Lion,Fairmont,1270,#1270,308 Marion Square,WV,26554
Food Lion,Liberty,1271,#1271,434 W. Swannanoa Ave.,NC,27298
Food Lion,Williamsburg,1273,#1273,701-A Merrimac Trail,VA,23185
Food Lion,Southern Shores,1274,#1274,5543 N. Croatan Hwy,NC,27949
Food Lion,Richlands,1275,#1275,101 Dreadnaught Street,NC,28574
Food Lion,Garner,1279,#1279,75 Glen Road,NC,27529
Food Lion,Columbia,1280,#1280,1013 Broad River Road,SC,29210
Food Lion,Winchester,1281,#1281,190 Delco Plaza,VA,22602
Food Lion,Snow Hill,1282,#1282,108 Greenewood Square,NC,28580
Food Lion,Kannapolis,1284,#1284,2825-B N Cannon Blvd.,NC,28083
Food Lion,Rome,1288,#1288,3365 Martha Berry Hwy Nw,GA,30165
Food Lion,Easton,1289,#1289,219 Marlboro Ave,MD,21601
Food Lion,High Point,1290,#1290,110 E. Fairfield Dr # 101,NC,27263
Food Lion,Greenville,1291,#1291,1914 Turnbury Drive,NC,27858
Food Lion,Yadkinville,1293,#1293,616 S. State St.,NC,27055
Food Lion,Milford,1294,#1294,951 North Dupont Blvd,DE,19963
Food Lion,Rockingham,1296,#1296,2124 B Fayetteville Road,NC,28379
Food Lion,Federalsburg,1297,#1297,3344 Hayman Dr.,MD,21632
Food Lion,Gordonsville,1298,#1298,408 Gordon Ave.,VA,22942
Food Lion,Hampton,1299,#1299,3855 Kecoughtan Road,VA,23669
Food Lion,Stevensville,1313,#1313,300 Thompson Creek Mall D,MD,21666
Food Lion,Edgewater,1315,#1315,3261 Solomons Island Rd.,MD,21037
Food Lion,Bryans Road,1316,#1316,2960 Marshall Hall Rd,MD,20616
Food Lion,Statesville,1317,#1317,3474 E. Broad St.,NC,28625
Food Lion,Richmond,1318,#1318,6409 Jahnke  Rd.,VA,23225
Food Lion,Charlotte Hall,1319,#1319,30290 Mt. Wolf Rd.,MD,20622-3177
Food Lion,Richmond,1320,#1320,1100 Courthouse Rd.,VA,23236
Food Lion,Millville,1321,#1321,215 Atlantic Ave,DE,19967
Food Lion,Herndon,1322,#1322,3059 Centerville Rd,VA,20171
Food Lion,Eldersburg,1324,#1324,6375 Monroe Avenue,MD,21784
Food Lion,Buena Vista,1325,#1325,2150 East Midland Trail,VA,24416
Food Lion,Ravenel,1326,#1326,6323 Savannah Hwy,SC,29470
Food Lion,Wilmington,1327,#1327,3211 Enterprise Drive,NC,28405
Food Lion,Randallstown,1328,#1328,9910 Liberty Rd.,MD,21133
Food Lion,Bluffton,1330,#1330,1008 Fording Island Rd.,SC,29910
Food Lion,Havelock,1332,#1332,101 Greenfield Heights Blvd,NC,28532-9518
Food Lion,Virginia Beach,1333,#1333,1920 Centerville Turnpike,VA,23464
Food Lion,Staunton,1334,#1334,600 N. Coalter Street,VA,24401
Food Lion,Quinton,1336,#1336,2589 New Kent Hwy,VA,23141
Food Lion,Sterling,1337,#1337,20789 Great Falls Plaza,VA,20165
Food Lion,Apex,1338,#1338,620 Laura Duncan Road,NC,27502
Food Lion,Smithville,1339,#1339,719 South Congress Blvd.,TN,37166
Food Lion,La Vergne,1340,#1340,5185 Murfreesboro Road,TN,37086
Food Lion,Lincolnton,1342,#1342,200 Stanford Road,NC,28092
Food Lion,Durham,1343,#1343,2000 Chapel Hill Rd.,NC,27707
Food Lion,Lillington,1344,#1344,119 W Cornelius Harnett B,NC,27546
Food Lion,Gaithersburg,1345,#1345,16567 S. Frederick Rd,MD,20877
Food Lion,Lynchburg,1346,#1346,4925 Boonesboro Rd,VA,24503
Food Lion,Mount Airy,1347,#1347,"692 S Andy Griffith Pkwy, Ste 112",NC,27030
Food Lion,Sanford,1349,#1349,2244 Jefferson Davis Hwy,NC,27330
Food Lion,Mount Jackson,1350,#1350,5300 Main Street,VA,22842
Food Lion,Elkin,1352,#1352,1526 North  Bridge St.,NC,28621
Food Lion,Pfafftown,1353,#1353,4615 Yadkinville Road,NC,27040
Food Lion,Spring Hill,1354,#1354,5341 Main Street,TN,37174
Food Lion,Summerfield,1355,#1355,4548 Us Hwy 220,NC,27358
Food Lion,Accokeek,1356,#1356,15789 Livingston Rd,MD,20607
Food Lion,Raleigh,1358,#1358,"1121 Falls River Ave, Unit 101",NC,27614-6733
Food Lion,Advance,1359,#1359,Hwy 801 & 158,NC,27006
Food Lion,High Point,1360,#1360,2200 Westchester Drive,NC,27262
Food Lion,Powhatan,1361,#1361,2105 Academy Rd.,VA,23139
Food Lion,Maryville,1362,#1362,1707 Lamar Alexander Pkwy,TN,37804
Food Lion,North East,1363,#1363,2500 West Pulasky Hwy,MD,21901
Food Lion,Goldsboro,1364,#1364,1322 Grantham Street,NC,27530
Food Lion,Charlotte,1365,#1365,7004-E W.T. Harris Blvd,NC,28215
Food Lion,Saluda,1366,#1366,12532 Tidewater Trail,VA,23149
Food Lion,Denver,1367,#1367,130 South Hwy 16,NC,28037
Food Lion,New Bern,1368,#1368,3301 M.L. King Jr. Blvd.,NC,28561
Food Lion,Middletown,1369,#1369,501 W. Main St.,DE,19709
Food Lion,Richmond,1370,#1370,4116 Meadowdale Blvd,VA,23234
Food Lion,Mint Hill,1371,#1371,8118 Blair Rd,NC,28227
Food Lion,Greenville,1373,#1373,2460 Stantonburg Road,NC,27835
Food Lion,Raleigh,1374,#1374,9521 Strickland Rd,NC,27615
Food Lion,Gainesville,1375,#1375,601 S. Enota Drive,GA,30501
Food Lion,Charlotte,1376,#1376,5831 South Blvd.,NC,28210
Food Lion,Moncks Corner,1378,#1378,608 North Hwy 52,SC,29461
Food Lion,Livingston,1381,#1381,Hwy 42 Bypass,TN,38570
Food Lion,Roanoke,1382,#1382,6619 Williamson Road,VA,24019
Food Lion,Manassas,1383,#1383,9121 Centerville Rd.,VA,20110
Food Lion,Conway,1384,#1384,2290 Hwy 501 East,SC,29526
Food Lion,Dover,1385,#1385,1030 Forest Ave Suite 106,DE,19904
Food Lion,Kernersville,1386,#1386,980 South Main,NC,27284
Food Lion,Mitchellville,1387,#1387,12100 Central Ave.,MD,20721
Food Lion,Wilmington,1388,#1388,8207 Market St.,NC,28405
Food Lion,Andrews,1389,#1389,415 Brooks Road,SC,29510
Food Lion,Norlina,1390,#1390,1202 Us 158 Bus West,NC,27563
Food Lion,Columbia,1391,#1391,3912 Two Notch Road,SC,29204
Food Lion,Wilmington,1392,#1392,2432 South 17Th St.,NC,28401
Food Lion,Clover,1393,#1393,5233 Hwy 557,SC,29710
Food Lion,Tarboro,1394,#1394,2213 St. Andrews St.,NC,27886
Food Lion,Newport,1396,#1396,7075 Hwy 70,NC,28570
Food Lion,Christiansburg,1397,#1397,1530 Roanoke St,VA,24073
Food Lion,Manassas,1398,#1398,8313 Sudley Rd,VA,20109-3508
Food Lion,Orange,1402,#1402,577 Madison Rd. #15,VA,22960
Food Lion,Wilmington,1404,#1404,"3905 Independence Blvd, Unit A",NC,28412
Food Lion,Middle River,1405,#1405,1413 Fuselage Ave,MD,21220
Food Lion,Wilmington,1406,#1406,6932 Market St Ste A,NC,28411-9717
Food Lion,Winston-Salem,1407,#1407,10478 N NC Hwy 109,NC,27107-9634
Food Lion,Statesville,1411,#1411,1737 Wilkesboro Rd,NC,28625
Food Lion,Randallstown,1412,#1412,8508 Liberty Road,MD,21133
Food Lion,Perry Hall,1413,#1413,8635 Walther Blvd,MD,21236
Food Lion,Upper Marlboro,1414,#1414,9500 Se Crain Hwy,MD,20772
Food Lion,Mount Holly,1415,#1415,617 Highland St,NC,28120
Food Lion,Norfolk,1416,#1416,1235 N Military Hwy,VA,23502
Food Lion,Salisbury,1417,#1417,251 Faith Rd.,NC,28144
Food Lion,Portland,1418,#1418,304 S. Broadway St.,TN,37148
Food Lion,Dover,1419,#1419,250 Gateway South Blvd,DE,19904
Food Lion,Charleston,1420,#1420,1015 King Street,SC,29401
Food Lion,Franklinton,1421,#1421,33801 US Hwy 1,NC,27525
Food Lion,Providence Forge,1422,#1422,9030 Pocahantos Trail,VA,23140
Food Lion,Bel Air,1423,#1423,2458 Churchville Rd,MD,21015
Food Lion,Spotsylvania,1424,#1424,6320 Jefferson Davis Hwy,VA,22553
Food Lion,Timberville,1425,#1425,Jamesway Plaza S/C,VA,22853
Food Lion,Smyrna,1426,#1426,215 Stadium St,DE,19977
Food Lion,Darlington,1428,#1428,110 Express Lane,SC,29532
Food Lion,Richmond,1430,#1430,7804 Broad St,VA,23228
Food Lion,Greenwood,1431,#1431,1605-72 By Pass East,SC,29646
Food Lion,Greensboro,1434,#1434,4653 Market St,NC,27402
Food Lion,Blue Ridge,1437,#1437,4295 Old Hwy 76,GA,30513
Food Lion,Richmond,1440,#1440,2599 New Market Road,VA,23231
Food Lion,Columbia,1441,#1441,7241 Broad River Rd,SC,29210
Food Lion,Frederick,1442,#1442,6920 Crestwood Blvd,MD,21703
Food Lion,Solomons,1443,#1443,13300 H G Trueman Road,MD,20688
Food Lion,North Charleston,1444,#1444,4400 Dorchester Rd Unit10,SC,29405
Food Lion,Grovetown,1446,#1446,806 Horizon South Pkwy,GA,30813-3037
Food Lion,Augusta,1447,#1447,2115 Windsor Spring Rd,GA,30906
Food Lion,Stanley,1448,#1448,558 West Main St,VA,22851
Food Lion,Hampton,1450,#1450,4047 West Mercury Blvd,VA,23666
Food Lion,Prince George,1451,#1451,4000 Prince George Drive,VA,23875
Food Lion,Concord,1453,#1453,5303 Poplar Tent Rd.,NC,28027
Food Lion,Raleigh,1454,#1454,3415 Avent Ferry Rd,NC,27609
Food Lion,Reidsville,1456,#1456,5200 Us Bus Hwy 29,NC,27320
Food Lion,Laurel,1458,#1458,30214 Sussex Hwy Unit 5,DE,19956
Food Lion,Fuquay-Varina,1459,#1459,1508 Broad St,NC,27526
Food Lion,Madison,1460,#1460,614 Burton Street,NC,27025
Food Lion,Spring Hope,1461,#1461,603 E Nash Street,NC,27882
Food Lion,Chocowinity,1462,#1462,160 Chocowinity Town Ctr,NC,27817
Food Lion,Virginia Beach,1463,#1463,4312 Holland Rd_Ste 118,VA,23452
Food Lion,Pembroke,1464,#1464,913 G. West 3Rd Street,NC,28372
Food Lion,Mount Airy,1465,#1465,1312 S. Main St  Suite 4,MD,21771
Food Lion,Maryville,1467,#1467,2917 Old Knoxville Hwy,TN,37804
Food Lion,Myrtle Beach,1468,#1468,1430 South Kings Hwy,SC,29578
Food Lion,Danville,1469,#1469,4048 Franklin Turnpike,VA,24540
Food Lion,Dumfries,1471,#1471,17120 Jefferson Davis Hwy,VA,22026-2128
Food Lion,Gloucester,1472,#1472,7465 Hargett Blvd.,VA,23061
Food Lion,Clarksville,1473,#1473,1764 Hwy 48,TN,37040
Food Lion,Odenton,1474,#1474,8741 Piney Orchard Pkwy,MD,21113
Food Lion,Sumter,1475,#1475,5700 Broad Street Ext.,SC,29154
Food Lion,Chesapeake,1476,#1476,2409 Taylor Rd,VA,23321
Food Lion,Gaithersburg,1477,#1477,883 Russell Ave.,MD,20879
Food Lion,Chapel Hill,1480,#1480,1720 N Fordham Blvd,NC,27514
Food Lion,Raleigh,1481,#1481,"7713 Lead Mine Rd, Ste 35",NC,27615-4805
Food Lion,Raleigh,1482,#1482,5426 Six Forks Road,NC,27609
Food Lion,Raleigh,1484,#1484,2420 Wycliff Road,NC,27607
Food Lion,Stephens City,1489,#1489,380 Fairfax Pike,VA,22655
Food Lion,Cornelius,1490,#1490,20125 North Main St,NC,28031
Food Lion,Raleigh,1491,#1491,3151 Capital Blvd,NC,27604
Food Lion,Greenville,1492,#1492,3700 South Memorial Drive,NC,27834
Food Lion,Mountain City,1493,#1493,2291 South Shady St.,TN,37683
Food Lion,Jacksonville,1494,#1494,2200 Gumbranch Road,NC,28540
Food Lion,Jacksonville,1495,#1495,861 Piney Green Road,NC,28546
Food Lion,Apex,1496,#1496,6904 Jenks Road,NC,27502
Food Lion,Church Hill,1497,#1497,701 Hwy 11 West,TN,37642
Food Lion,Johns Island,1499,#1499,2770 Maybank Hwy,SC,29455
Food Lion,Tarboro,1501,#1501,1110 Westen Blvd,NC,27886
Food Lion,Virginia Beach,1502,#1502,5020 Ferrell Pkwy,VA,23464
Food Lion,Boone,1503,#1503,350 Watauga Village Dr,NC,28607-5263
Food Lion,Hampton,1504,#1504,21 West Mercury Blvd,VA,23669
Food Lion,Lexington,1505,#1505,918 North Lake Drive,SC,29072
Food Lion,Winston-Salem,1508,#1508,1415 S. Hawthorne Rd.,NC,27103
Food Lion,Winston-Salem,1510,#1510,3800 Reynolda Rd. Ste 80,NC,27106
Food Lion,Chapin,1511,#1511,140 Amicks Ferry Rd,SC,29036
Food Lion,Suffolk,1512,#1512,6550 Hampton Roads Pkwy,VA,23435
Food Lion,Asheboro,1513,#1513,433 Nc 49 South,NC,27203
Food Lion,Morrisville,1514,#1514,9567 Chapel Hill Rd,NC,27560
Food Lion,Rural Hall,1518,#1518,1050 Highway 65,NC,27045
Food Lion,Winston-Salem,1522,#1522,12201 North Nc Hwy 150,NC,27127
Food Lion,Kernersville,1523,#1523,1535 Union Cross Rd.,NC,27284
Food Lion,Prince Frederick,1526,#1526,750 Prince Frederick Blvd,MD,20678
Food Lion,Chambersburg,1527,#1527,875 Lincoln Way West,PA,17202
Food Lion,Harrington,1528,#1528,2004 Midway Drive,DE,19952
Food Lion,Elkridge,1529,#1529,6551 Waterloo Rd,MD,21075
Food Lion,Lovingston,1531,#1531,85 Calohill Drive,VA,22949
Food Lion,Kill Devil Hills,1532,#1532,1720 N. Croatan Hwy.,NC,27948
Food Lion,Fayetteville,1533,#1533,3300 Rosehill Rd,NC,28311
Food Lion,Morganton,1534,#1534,110 Fiddlers Run Rd,NC,28655
Food Lion,Upper Marlboro,1535,#1535,5715 Crain Hwy,MD,20772
Food Lion,Charlottesville,1536,#1536,32 Mill Creek Drive,VA,22902
Food Lion,Forest,1537,#1537,12130 E Lynchburg Salem Tpk,VA,24551
Food Lion,Augusta,1540,#1540,3722 Mike Padgett Hwy,GA,30906-9719
Food Lion,Manakin Sabot,1541,#1541,30 Broad Street,VA,23103
Food Lion,Summerville,1542,#1542,1115 Central Ave,SC,29483
Food Lion,Glen Burnie,1543,#1543,121 North Crain Hwy,MD,21061
Food Lion,Carrboro,1544,#1544,104 N.C. Hwy 54 Unit A,NC,27510
Food Lion,Edgewood,1547,#1547,2250 Hanson Rd,MD,21040
Food Lion,Rustburg,1548,#1548,1051B Village Hwy,VA,24588
Food Lion,Cumberland,1549,#1549,15300 Mcmullen Hwy Sw,MD,21502
Food Lion,Wallace,1550,#1550,5680 South Hwy 41,NC,28466
Food Lion,Concord,1552,#1552,3673 Concord Pkwy South,NC,28027
Food Lion,Fairview,1553,#1553,2239 Fairview Blvd,TN,37062
Food Lion,Portsmouth,1555,#1555,1503 London Blvd,VA,23704
Food Lion,Garden City,1556,#1556,901 Garden City Connector,SC,29576
Food Lion,Raleigh,1557,#1557,4827 Grove Barton Rd,NC,27613
Food Lion,Elkton,1558,#1558,1001 East Pulaski Hwy,MD,21921
Food Lion,Suffolk,1559,#1559,1524 Holland Rd,VA,23434
Food Lion,Fruitland,1560,#1560,206 N. Fruitland Blvd,MD,21826
Food Lion,Sedalia,1561,#1561,6307 Burlington Rd,NC,27342
Food Lion,Lexington,1562,#1562,1856 Southlake Drive,SC,29073
Food Lion,Chickamauga,1563,#1563,13311 N Hwy 27 Suite 6,GA,30707
Food Lion,Harrisonburg,1565,#1565,1021 Port Republic Rd,VA,22801
Food Lion,Nashville,1566,#1566,1151 Eastern Ave,NC,27856
Food Lion,Culpeper,1567,#1567,540 Culpeper Town Mall,VA,22701
Food Lion,Greenville,1568,#1568,620 Red Bank Rd,NC,27834
Food Lion,Thomasville,1569,#1569,13 Cloniger Drive Suite 1,NC,27360
Food Lion,Mooresville,1570,#1570,835 Williamson Rd,NC,28117
Food Lion,Hopkinsville,1571,#1571,4305 Canton Pike,KY,42240
Food Lion,Woodbridge,1572,#1572,5592 Staples Mill Plaza,VA,22193
Food Lion,Raleigh,1573,#1573,3926 Western Blvd,NC,27607
Food Lion,Roanoke,1574,#1574,"4933 Grandin Rd, Sw",VA,24018
Food Lion,Lexington,1575,#1575,140 Forest Hill Rd,NC,27295
Food Lion,Dillwyn,1576,#1576,Hwy 20 Buckingham Plaza,VA,23936
Food Lion,Winston-Salem,1577,#1577,1000 Waughtown St,NC,27102
Food Lion,Fredericksburg,1579,#1579,7100 Salem Fields Blvd,VA,22407
Food Lion,Rock Hill,1580,#1580,851-116 Heckle Rd,SC,29730
Food Lion,Smyrna,1581,#1581,11459 Old Nashville Hwy,TN,37167
Food Lion,King George,1582,#1582,8149 Kings Hwy,VA,22485
Food Lion,Murrells Inlet,1583,#1583,760 Mink Ave,SC,29576
Food Lion,Charlotte,1584,#1584,7920 Cambridge Commons Dr,NC,28215
Food Lion,Huntersville,1585,#1585,9548 Mt Holly Huntersville Rd,NC,28078
Food Lion,Carthage,1586,#1586,1005 Monroe St,NC,28327
Food Lion,Whittier,1587,#1587,Hwy 441&441 Business,NC,28789
Food Lion,Marshall,1588,#1588,4195 Winchester Rd,VA,20116
Food Lion,Fuquay-Varina,1589,#1589,3417 North Main St,NC,27526
Food Lion,Rock Hill,1590,#1590,2260 Cross Pointe Drive,SC,29730
Food Lion,Chesapeake,1591,#1591,2544 Bainbridge Blvd,VA,23324
Food Lion,Windsor,1592,#1592,11435 Windsor Blvd,VA,23487
Food Lion,Sunset Beach,1593,#1593,1680 Seaside Rd,NC,28468
Food Lion,Lenoir,1594,#1594,2116 Morganton Blvd Sw,NC,28645
Food Lion,Conway,1595,#1595,"2608 Main St., Unit K",SC,29526-3759
Food Lion,Augusta,1596,#1596,365 S. Belair Rd.,GA,30907
Food Lion,Marion,1597,#1597,1318 North Main St,SC,29571
Food Lion,Newport News,1598,#1598,316 Oyster Point Rd,VA,23602
Food Lion,Conway,1599,#1599,3320 4Th Ave.,SC,29527
Food Lion,Chesterfield,1602,#1602,7032 Commons Plaza Dr.,VA,23832
Food Lion,Dalton,1603,#1603,3925 Cleveland Rd,GA,30721
Food Lion,Myrtle Beach,1605,#1605,7601 N. Kings Hwy.,SC,29572
Food Lion,Whiteville,1606,#1606,1200 N. Jk Powell Blvd,NC,28472
Food Lion,Calabash,1607,#1607,9869 Ocean Hwy W,NC,28467
Food Lion,Chapel Hill,1608,#1608,50000 Governors Dr,NC,27517
Food Lion,Newport News,1609,#1609,10880 Warwick Blvd,VA,23601
Food Lion,Surfside Beach,1610,#1610,2292 Glenn's Bay Rd,SC,29575
Food Lion,Chesapeake,1611,#1611,2800 Yadkin Rd,VA,23323-2226
Food Lion,Fayetteville,1612,#1612,2071 Skibo Rd,NC,28314
Food Lion,Chesapeake,1613,#1613,109 Gainsborough Square,VA,23320
Food Lion,Indian Trail,1614,#1614,5850 W Hwy 74,NC,28079
Food Lion,Nashville,1617,#1617,3636 Bell Rd,TN,37214
Food Lion,Smithfield,1619,#1619,901 S. Brightleaf Blvd,NC,27577
Food Lion,Greencastle,1620,#1620,500 N. Antrim Way,PA,17225
Food Lion,Concord,1621,#1621,3501 Hwy 601,NC,28025
Food Lion,Angier,1622,#1622,1363 North Raleigh St,NC,27501
Food Lion,Suffolk,1623,#1623,1010 Portsmouth Blvd,VA,23434
Food Lion,Virginia Beach,1624,#1624,5242 Fairfield Shop Cntr,VA,23464
Food Lion,Hampton,1625,#1625,123 E. Newmarket Square,VA,23605
Food Lion,Richmond,1626,#1626,5300 Chamberlayne Road,VA,23227
Food Lion,Norfolk,1629,#1629,3530 Tidewater Dr,VA,23509
Food Lion,Virginia Beach,1635,#1635,6527 College Park Square,VA,23464
Food Lion,Roanoke,1652,#1652,629 Peters Creek Rd Nw,VA,24017
Food Lion,Essex,1653,#1653,1565 Hyde Park Rd,MD,21221
Food Lion,Raleigh,1654,#1654,7440-101 Louisburg Rd,NC,27616
Food Lion,Leland,1655,#1655,1735 Reed Road,NC,28451
Food Lion,Chantilly,1656,#1656,43090 Peacock Market Plz,VA,20152
Food Lion,Greenville,1657,#1657,4330 E. Tenth Street,NC,27858
Food Lion,Norfolk,1658,#1658,4253 East Little Creek Rd,VA,23518
Food Lion,Battleboro,1659,#1659,3936 Bishop Rd,NC,27809
Food Lion,Henderson,1660,#1660,1419 E. Andrews Ave.,NC,27536
Food Lion,Rockville,1661,#1661,845 Rockville Pike,MD,20852
Food Lion,Laurel,1662,#1662,410 Sandy Spring Rd,MD,20707
Food Lion,Waynesboro,1663,#1663,11105 Buchanan Trail,PA,17268
Food Lion,Cockeysville,1664,#1664,122 Cranbrook Rd,MD,21030
Food Lion,Morganton,1665,#1665,576 East Fleming,NC,28655
Food Lion,Lumberton,1667,#1667,6685 Elizabethtown Rd,NC,28358
Food Lion,Pasadena,1668,#1668,350 Mountain Road,MD,21122
Food Lion,Raleigh,1669,#1669,"1601 Cross Link Rd, Ste 1",NC,27610-4186
Food Lion,Virginia Beach,1670,#1670,1940 Laskin Rd Suite 304,VA,23454
Food Lion,Poquoson,1671,#1671,425-A Wythe Creek Rd,VA,23662
Food Lion,Virginia Beach,1672,#1672,5461 Wesleyan Dr,VA,23462
Food Lion,Greenville,1674,#1674,250 Easy St,NC,27834
Food Lion,Millers Creek,1677,#1677,2931 Nc Hwy 16,NC,28651
Food Lion,Fort Mill,1680,#1680,1360 East Hwy 160,SC,29715
Food Lion,Sumter,1681,#1681,1785 Hwy 15 South,SC,29150
Food Lion,Hagerstown,1683,#1683,18360 College Rd,MD,21740
Food Lion,Clayton,1685,#1685,"50 Neuse River Pkwy, Ste 11",NC,27527-5275
Food Lion,Kinston,1687,#1687,1304 W Vernon Ave.,NC,28504
Food Lion,Siler City,1689,#1689,1605 East 11Th St,NC,27344
Food Lion,Charleston,1691,#1691,2144 Savannah Hwy,SC,29414
Food Lion,Goldsboro,1692,#1692,219 Nc Hwy 111 South,NC,27532
Food Lion,Tabor City,1694,#1694,108 Tabor Cross Hwy 701 B,NC,28463
Food Lion,Rocky Face,1695,#1695,2709 Chattanooga Rd,GA,30740
Food Lion,Adairsville,1696,#1696,7409 Adairsville Hwy,GA,30103
Food Lion,Beaufort,1698,#1698,350 Shanklin Rd,SC,29906
Food Lion,Maxton,2100,#2100,638-N Patterson St,NC,28364
Food Lion,Princeton,2101,#2101,610 Donnie H Jones Blvd,NC,27569
Food Lion,Chase City,2102,#2102,1113 N Main Street,VA,23924
Food Lion,Dobson,2103,#2103,600 E Atkins Street,NC,27017
Food Lion,Victoria,2104,#2104,950 Main Street,VA,23974
Food Lion,Blacksburg,2105,#2105,1130 W Cherokee Street,SC,29702
Food Lion,Saint Pauls,2106,#2106,1062 W. Broad Street,NC,28384
Food Lion,Floyd,2107,#2107,350 West Main Street,VA,24091
Food Lion,Vanceboro,2108,#2108,270 Nc Hwy 43,NC,28586
Food Lion,Bunn,2109,#2109,649 Main Street,NC,27508
Food Lion,Columbia,2110,#2110,Hwy 64 & La Keiser Rd.,NC,27925
Food Lion,Courtland,2111,#2111,28344 Southampton Pkwy,VA,23837
Food Lion,Longs,2112,#2112,110 Hwy 9 East,SC,29568
Food Lion,Haw River,2113,#2113,1125 Roxboro Street,NC,27258
Food Lion,Oak Island,2114,#2114,5901 E. Oak Island Dr.,NC,28465
Food Lion,Rocky Point,2116,#2116,8057 US Hwy.117 S Unit 11,NC,28457
Food Lion,Millington,2117,#2117,31810 River Rd.,MD,21651
Food Lion,Dinwiddie,2118,#2118,13103 Boydton Plank Rd.,VA,23841
Food Lion,Kearneysville,2119,#2119,50 Coast Guard Dr.,WV,25430
Food Lion,South Congaree,2120,#2120,675 Main St.,SC,29170
Food Lion,Myrtle Beach,2122,#2122,4030 River Oaks Drive,SC,29579
Food Lion,Selbyville,2123,#2123,37468 Lion Dr.,DE,19975
Food Lion,Ladson,2124,#2124,3786 Ladson Rd.,SC,29456
Food Lion,Lexington,2126,#2126,4705 S. Hwy 150,NC,27295
Food Lion,Greensboro,2127,#2127,4620 Woody Mill Rd. Unita,NC,27406
Food Lion,Loudon,2128,#2128,101 Cheeyo Way,TN,37774
Food Lion,Shallotte,2130,#2130,301 South Willis Drive,NC,28470
Food Lion,Dawsonville,2132,#2132,59 Main St. Suite 100,GA,30534
Food Lion,Statesville,2138,#2138,1650 E. Broad St.,NC,28625
Food Lion,Grovetown,2143,#2143,5154 Columbia Rd.,GA,30813
Food Lion,Greenwood,2145,#2145,2551 Hwy 25 S.,SC,29646
Food Lion,Oak Ridge,2146,#2146,7605 NC Hwy 68 N Ste C,NC,27310
Food Lion,Cookeville,2149,#2149,377 W. Jackson St.,TN,38501
Food Lion,Savannah,2150,#2150,2208 E Derenne Ave,GA,31406
Food Lion,New Castle,2153,#2153,1200 Beaver Brook Place,DE,19720
Food Lion,Nags Head,2154,#2154,2515 S. Croatan Hwy.,NC,27959
Food Lion,Rock Hill,2155,#2155,1918 Mt. Gallant Rd.,SC,29732
Food Lion,Columbia,2157,#2157,4760 Hardscrabble Road,SC,29229
Food Lion,Richmond Hill,2159,#2159,3500 Hwy 17 South,GA,31324
Food Lion,Bear,2160,#2160,1607 Pulaski Hwy,DE,19701
Food Lion,Claymont,2164,#2164,3609 Philadelphia Pike,DE,19703
Food Lion,Moneta,2174,#2174,14807 Moneta Road,VA,24121
Food Lion,Mercersburg,2180,#2180,431 Loudon Rd.,PA,17236
Food Lion,Carthage,2181,#2181,7479 NC Hwy 22,NC,28327
Food Lion,Wilmington,2182,#2182,4401 Governor Printz Blvd,DE,19802
Food Lion,Newark,2185,#2185,907 South Chapel Street,DE,19713
Food Lion,Fayetteville,2186,#2186,1738 Bingham Road,NC,28304
Food Lion,Fayetteville,2187,#2187,5555 Waldos Beach Road,NC,28306
Food Lion,Spout Springs,2188,#2188,1655 Buffalo Lake Rd.,NC,27332
Food Lion,Mineral,2189,#2189,11010 Kentucky Springs Rd,VA,23117
Food Lion,Finksburg,2193,#2193,3000 Gamber Road,MD,21048
Food Lion,Falling Waters,2194,#2194,78 Worchester Dr,WV,25419
Food Lion,Meyersdale,2195,#2195,7280 Mason Dixon Highway,PA,15552
Food Lion,Morrisville,2196,#2196,3609 Davis Drive,NC,27519
Food Lion,Clayton,2197,#2197,238 Pritchard Road,NC,27527
Food Lion,Cary,2198,#2198,8745 Holly Springs Road,NC,27539
Food Lion,Raleigh,2199,#2199,12345 Strickland Road,NC,27613-1254
Food Lion,Williamsburg,2202,#2202,Hwy. 60 & Croaker Rd.,VA,23188
Food Lion,Charlotte,2203,#2203,2226 Park Rd.,NC,28203
Food Lion,Fort Mill,2204,#2204,1046 Regent Parkway,SC,29715
Food Lion,Charlotte,2205,#2205,8138 Mt Holly-Huntersvill,NC,28216
Food Lion,Mooresville,2206,#2206,1088 Brawley School Rd.,NC,28117
Food Lion,Anderson,2208,#2208,3750 Hwy 81 North,SC,29621
Food Lion,Seneca,2209,#2209,1085-D Old Clemson Hwy,SC,29672
Food Lion,Simpsonville,2212,#2212,1004 W. Georgia Rd.,SC,29680
Food Lion,Mooresville,2213,#2213,"516 River Highway, Ste 10",NC,28117
Food Lion,Harrisburg,2214,#2214,4226 Hwy 49,NC,28075
Food Lion,Charlotte,2215,#2215,9323 N. Tryon Street,NC,28262
Food Lion,Mint Hill,2216,#2216,6275 Wilson Grove Rd,NC,28227
Food Lion,Charlotte,2217,#2217,6430 W Sugar Creek Rd.,NC,28269
Food Lion,Quinton,2219,#2219,7300 Market Place Dr,VA,23141
Food Lion,Hampton,2221,#2221,1373 Elm Street W,SC,29924-2011
Food Lion,Americus,2222,#2222,107 Prince St.,GA,31709
Food Lion,Abingdon,2500,#2500,845 Village Blvd,VA,24210
Food Lion,Scaggsville,2501,#2501,8300 Ice Crystal Dr,MD,20723
Food Lion,Nags Head,2503,#2503,5200 S Croatan Hwy,NC,27959
Food Lion,Raleigh,2504,#2504,"1030 N Rogers Ln, Ste 125",NC,27610-6083
Food Lion,Columbia,2506,#2506,1001 Harden Street,SC,29205
Food Lion,Glen Allen,2507,#2507,11371 Nuckols Rd,VA,23059
Food Lion,Cape Charles,2508,#2508,22485 Lankford Hwy,VA,23310
Food Lion,Ayden,2511,#2511,120 Nc 102 West,NC,28513
Food Lion,Greensboro,2514,#2514,3603 Groometown Rd,NC,27407
Food Lion,Callaway,2515,#2515,20995 Point Lookout Rd,MD,20620
Food Lion,Hanover,2517,#2517,2655 Annapolis Road,MD,21076
Food Lion,Lake Ridge,2518,#2518,12420 Dillingham Square,VA,22192
Food Lion,High Point,2519,#2519,3935 Brian Jordan Place,NC,27265
Food Lion,Roanoke Rapids,2520,#2520,175 Roanoke Avenue,NC,27870
Food Lion,Bridgeville,2521,#2521,9537 Bridgeville Center,DE,19933
Food Lion,Centreville,2522,#2522,2466 Centreville Rd,MD,21617
Food Lion,Severna Park,2523,#2523,466 Ritchie Hwy,MD,21146
Food Lion,Aylett,2524,#2524,4915 Richmond Tappahannock Hwy,VA,23009
Food Lion,Ruther Glen,2525,#2525,17501 Jefferson Davis Hwy,VA,22546
Food Lion,Whiteville,2526,#2526,80 Whiteville Center,NC,28472
Food Lion,Haymarket,2527,#2527,15201 Washington St,VA,20169
Food Lion,Mooresville,2528,#2528,529 East Plaza Drive,NC,28115
Food Lion,Gretna,2529,#2529,100 Vaden Dr,VA,24557
Food Lion,Goldsboro,2530,#2530,118 Five Points Rd,NC,27530
Food Lion,Jamestown,2531,#2531,118 W Main Street,NC,27282
Food Lion,North Charleston,2532,#2532,3740 Ashley Phosphate Rd,SC,29418
Food Lion,Martinsville,2533,#2533,1101 Brookdale Street,VA,24112
Food Lion,Raleigh,2534,#2534,13200 New Fals Neuse 159,NC,27614
Food Lion,Owings Mills,2535,#2535,9251 Lakeside Blvd,MD,21117
Food Lion,Sanford,2536,#2536,2581 Hawkins Avenue,NC,27330
Food Lion,Rock Hill,2537,#2537,1720 Ebenezer Road,SC,29732
Food Lion,Littleton,2538,#2538,2467 Eaton Ferry Rd.,NC,27850
Food Lion,Altavista,2539,#2539,1301-A Main Street,VA,24517
Food Lion,Chester,2541,#2541,12120 Bermuda Crssroad Ln,VA,23831
Food Lion,Grottoes,2542,#2542,83 Augusta Avenue,VA,24441
Food Lion,Ringgold,2543,#2543,95 Poplar Springs Road,GA,30736
Food Lion,Montross,2544,#2544,18044 Kings Hwy,VA,22520
Food Lion,Benson,2545,#2545,12330 Nc Hwy 210,NC,27504
Food Lion,Holden Beach,2546,#2546,1100 Sabbath Home Rd Sw,NC,28462
Food Lion,Waldorf,2547,#2547,191 St. Patrick's Drive,MD,20603
Food Lion,Wilson,2552,#2552,"3711 Peppermill Dr, North",NC,27893
Food Lion,Carolina Beach,2553,#2553,1401 N. Lake Park Blvd.,NC,28428
Food Lion,Clemmons,2554,#2554,1430 River Ridge Road,NC,27012
Food Lion,Oak Hall,2555,#2555,7013 Lankford Hwy,VA,23416
Food Lion,New Bern,2556,#2556,121 Bridge Town Blvd,NC,28560
Food Lion,Madison Heights,2557,#2557,192 Amelon Square,VA,24572
Food Lion,Robersonville,2558,#2558,22713 Nc Hwy 903,NC,27871
Food Lion,Glen Burnie,2559,#2559,7069 Baltimore Annapolis Blvd,MD,21061
Food Lion,Edgemere,2560,#2560,7514 North Point Road,MD,21219
Food Lion,Milton,2561,#2561,110 Broadkill Road,DE,19968
Food Lion,Carrollton,2562,#2562,13478 Carrollton Blvd,VA,23314
Food Lion,Stedman,2563,#2563,5179 Clinton Road,NC,28391
Food Lion,Hillsborough,2564,#2564,101 N Scotswood Blvd,NC,27278
Food Lion,Lewes,2565,#2565,17232 N Village Main Blvd,DE,19958
Food Lion,Laurel,2566,#2566,12675 Laurel Bowie Rd,MD,20708
Food Lion,Madison,2567,#2567,46 Madison Plaza Drive,VA,22727
Food Lion,Martinsburg,2568,#2568,1317 Old Courthouse Sq,WV,25401
Food Lion,Charlotte,2569,#2569,10120 Johnston Rd,NC,28210
Food Lion,Fort Mill,2570,#2570,8175 Charlotte Hwy,SC,29707
Food Lion,Pink Hill,2571,#2571,5909 Hwy 11 South,NC,28572
Food Lion,Newton,2572,#2572,2380 W Nc 10 Hwy,NC,28658
Food Lion,Blacksburg,2573,#2573,801 Hethwood Blvd,VA,24060
Food Lion,Rocky Mount,2574,#2574,10601 E. Nc 97,NC,27803
Food Lion,Mechanicsville,2575,#2575,8319 Bell Creek Rd,VA,23116
Food Lion,Goldsboro,2576,#2576,555 E New Hope Road,NC,27534
Food Lion,Mathews,2578,#2578,183 Main St,VA,23109
Food Lion,Lynchburg,2579,#2579,13955 Wards Rd.,VA,24501
Food Lion,La Grange,2580,#2580,301 East Washington St,NC,28551
Food Lion,Pikeville,2581,#2581,4700 Us Hwy 117 North,NC,27863
Food Lion,Wilkesboro,2582,#2582,1300 Westwood Lane,NC,28697
Food Lion,Fredericksburg,2583,#2583,10871 Tidewater Trail,VA,22408
Food Lion,Hopkins,2584,#2584,9013 Garners Ferry Rd.,SC,29061
Food Lion,Raeford,2586,#2586,4530 Fayetteville Rd,NC,28376
Food Lion,Westminster,2587,#2587,140 Englar Rd. Suite 28,MD,21157
Food Lion,Brevard,2588,#2588,100 College Station Dr,NC,28712
Food Lion,Durham,2589,#2589,121 Sherron Rd_Suite 210,NC,27703
Food Lion,Mebane,2590,#2590,630 N. First Street,NC,27302
Food Lion,Goldsboro,2591,#2591,1809 East Ashe St.,NC,27530
Food Lion,Boone,2592,#2592,1864 421 S,NC,28607
Food Lion,Durham,2593,#2593,3022 Fayetteville St,NC,27707
Food Lion,Spring Lake,2594,#2594,3260 Ray Road,NC,28390
Food Lion,Newton Grove,2595,#2595,306 Main Street,NC,28366
Food Lion,Thomasville,2596,#2596,8275 South Nc Hwy 109,NC,27360
Food Lion,Manassas,2597,#2597,6306 Hoadly Rd.,VA,20112
Food Lion,Columbia,2598,#2598,5896 Robert Oliver Place,MD,21045
Food Lion,Goochland,2600,#2600,2724 Fairground Road,VA,23063
Food Lion,Morehead City,2601,#2601,4917 Arendell St.,NC,28557
Food Lion,Charlotte,2603,#2603,237 Mt.Holly Huntrsvl Rd,NC,28214
Food Lion,Blythewood,2604,#2604,740 University Village Dr,SC,29016
Food Lion,Hampton,2605,#2605,1164 Big Bethel Road,VA,23666
Food Lion,Lusby,2606,#2606,210 H G Trueman Rd,MD,20657
Food Lion,Dunn,2607,#2607,1243 E. Cumberland St.,NC,28334
Food Lion,Indian Trail,2608,#2608,7868 Idlewild Road,NC,28079
Food Lion,Gaston,2609,#2609,5204 Hwy. 321,SC,29053
Food Lion,Powhatan,2610,#2610,1800 South Creek One,VA,23139
Food Lion,Woodbine,2611,#2611,705 Lisbon Center Drive,MD,21797
Food Lion,Fayetteville,2613,#2613,5102 Nc Hwy 87 South,NC,28306
Food Lion,Berlin,2614,#2614,11007 Manklin Creed Rd.,MD,21811
Food Lion,Calhoun,2615,#2615,1512 Red Bud Rd.,GA,30701
Food Lion,Benson,2616,#2616,700 E. Parrish Dr.,NC,27504
Food Lion,Harrisonburg,2617,#2617,85 S. Carlton St.,VA,22801
Food Lion,Elizabethtown,2618,#2618,1202 West Broad Street,NC,28337
Food Lion,Stanleytown,2619,#2619,951 Fairystone Pk Hwy,VA,24168
Food Lion,Clarksville,2620,#2620,1013 Virginia Ave.,VA,23927
Food Lion,Danville,2621,#2621,1461 S. Boston Road,VA,24540
Food Lion,South Hill,2622,#2622,715 E. Atlantic Street,VA,23970
Food Lion,Martinsville,2623,#2623,8500 Al Phillpott Hwy #13,VA,24112
Food Lion,Creedmoor,2624,#2624,2151 Wilton Ave.,NC,27522
Food Lion,Concord,2625,#2625,547 Winecoff School Rd.,NC,28027
Food Lion,Rutherfordton,2626,#2626,169 Railroad Ave.&Hwy 74B,NC,28139
Food Lion,Charlotte,2627,#2627,2935 Wt Harris Blvd,NC,28207
Food Lion,Atlantic Beach,2628,#2628,1010 W. Fort Macon Rd.,NC,28512
Food Lion,Elgin,2629,#2629,2465 Main Street,SC,29045
Food Lion,Perryville,2630,#2630,5301 Pulaski Hwy.,MD,21903
Food Lion,Chesapeake,2631,#2631,2048 Atlantic Ave. Ste A,VA,23324
Food Lion,Gastonia,2632,#2632,1024 W. Hudson Blvd.,NC,28052
Food Lion,Statesville,2633,#2633,2187 Old Moutain Rd.,NC,28625
Food Lion,Richmond,2634,#2634,11272 Patterson Ave.,VA,23238
Food Lion,Farmville,2635,#2635,3434 A Cooperative Way,NC,27828
Food Lion,Midlothian,2636,#2636,13530 Genito Road,VA,23112
Food Lion,Raleigh,2638,#2638,6209 Rock Quarry Rd.,NC,27610
Food Lion,King,2639,#2639,6370 Nc Hwy 66,NC,27021
Food Lion,Roebuck,2641,#2641,4825 Hwy 221,SC,29376
Food Lion,Lyman,2642,#2642,300 Spartanburg Hwy,SC,29365
Food Lion,Piedmont,2644,#2644,8024 Augusta Rd.,SC,29673
Food Lion,Morrisville,2646,#2646,2121 Tw Alexander Dr,NC,27560
Food Lion,Charlotte,2647,#2647,5624 N. Graham St.,NC,28269
Food Lion,Winston-Salem,2648,#2648,2530 Somerset Center Dr.,NC,27103
Food Lion,China Grove,2650,#2650,1460 S. Main St.,NC,28023
Food Lion,Hildebran,2651,#2651,511 Us Hwy 70 East,NC,28637
Food Lion,Forest City,2652,#2652,668 S. Broadway,NC,28043
Food Lion,Irmo,2653,#2653,11107 Broad River Rd.,SC,29063
Food Lion,Kings Mountain,2654,#2654,610 East King Street,NC,28086
Food Lion,Clemmons,2655,#2655,4380 Kinnamon Village Lp,NC,27012
Food Lion,Portsmouth,2659,#2659,3539 Airline Blvd.,VA,23701
Food Lion,Spartanburg,2661,#2661,95 Garner Rd.,SC,29303
Food Lion,Montpelier,2663,#2663,16615 Mountain Rd.,VA,23192
Food Lion,Stanley,2665,#2665,515 South Hwy 27,NC,28164
Food Lion,North Augusta,2666,#2666,135 Market Drive,SC,29860
Food Lion,Charlotte,2667,#2667,"9115 Samlen Ln, Ste 200",NC,28214-3359
Food Lion,Winchester,2668,#2668,159 Grocery Avenue,VA,22602
Food Lion,Gastonia,2669,#2669,3680 South New Hope Rd.,NC,28056
Food Lion,Petersburg,2671,#2671,2120 S. Crater Rd.,VA,23805
Food Lion,Thomasville,2673,#2673,902 W. Cooksey Dr.,NC,27360
Food Lion,Walkertown,2674,#2674,3008 Old Hollow Rd.,NC,27051
Food Lion,Portsmouth,2675,#2675,2012 Victory Blvd.,VA,23702
Food Lion,Greensboro,2676,#2676,3516 Drawbridge Parkway,NC,27410
Food Lion,Mocksville,2677,#2677,796 Valley Rd.,NC,27028
Food Lion,Woodruff,2680,#2680,926 N. Main St.,SC,29388
Food Lion,Elizabeth City,2681,#2681,1805 Weeksville Rd.,NC,27909
Food Lion,Savannah,2682,#2682,1040 King George Blvd,GA,31419
Food Lion,Hanover,2683,#2683,3744 Centennial Road,PA,17331
Food Lion,Mooresville,2684,#2684,1339 Shearers Rd.,NC,28115
Food Lion,Youngsville,2686,#2686,1160 Us 1 North,NC,27596
Food Lion,Myrtle Beach,2687,#2687,3501 Belle Terre Blvd.,SC,29579
Food Lion,Crisfield,2688,#2688,1 Jacksonville Road,MD,21817
Food Lion,Bluffton,2691,#2691,210 Okatie Village Dr.,SC,29909
Food Lion,Hinesville,2692,#2692,2389 W Hwy 196,GA,31313
Food Lion,Port Wentworth,2694,#2694,"7306 Hwy 21, Suite 307",GA,31407
Food Lion,Greensboro,2695,#2695,4709 Lawndale Drive,NC,27408
Food Lion,Fishersville,2696,#2696,30 Windward Dr. Suite 102,VA,22939
Food Lion,Scottsville,2697,#2697,198 Scottsville Center,VA,24590
Food Lion,Daleville,2698,#2698,110 Market Center Way,VA,24083
