keywords,city,Aggdata Store Number,store_number,address,state,zip_code
Fry's Food,Phoenix,66000002,#002 #02 #2 02 66000002,3036 E Thomas Rd,AZ,85016
Fry's Food,Scottsdale,66000005,#005 #05 #5 05 66000005,7770 E Mcdowell Rd,AZ,85257
Fry's Food,Glendale,66000006,#006 #06 #6 06 66000006,5771 W Thunderbird Rd,AZ,85306
Fry's Food,Glendale,66000010,#0010 #010 #10 010 66000010,4353 W Bethany Home Rd,AZ,85301
Fry's Food,Glendale,66000011,#0011 #011 #11 011 66000011,6710 W Bethany Home Rd,AZ,85303
Fry's Food,Phoenix,66000012,#0012 #012 #12 012 66000012,18420 N 19Th Ave,AZ,85023
Fry's Food,Gilbert,66000015,#0015 #015 #15 015 66000015,3751 E Baseline Rd,AZ,85234
Fry's Food,Tucson,66000017,#0017 #017 #17 017 66000017,4150 E 22Nd St,AZ,85711
Fry's Food,Oro Valley,66000018,#0018 #018 #18 018 66000018,10661 N Oracle Rd,AZ,85737
Fry's Food,Tucson,66000019,#0019 #019 #19 019 66000019,3920 E Grant Rd,AZ,85712
Fry's Food,Tucson,66000020,#0020 #020 #20 020 66000020,3640 S 16Th Ave,AZ,85713
Fry's Food,Tucson,66000021,#0021 #021 #21 021 66000021,555 E Grant Rd,AZ,85705
Fry's Food,Tempe,66000022,#0022 #022 #22 022 66000022,1835 E Guadalupe Rd,AZ,85283
Fry's Food,Mesa,66000023,#0023 #023 #23 023 66000023,5941 E Mckellips Rd,AZ,85215
Fry's Food,Chandler,66000024,#0024 #024 #24 024 66000024,4949 W Ray Rd,AZ,85226
Fry's Food,Scottsdale,66000025,#0025 #025 #25 025 66000025,7628A E Indian School Rd,AZ,85251
Fry's Food,Glendale,66000026,#0026 #026 #26 026 66000026,5116 W Olive Ave,AZ,85302
Fry's Food,Phoenix,66000027,#0027 #027 #27 027 66000027,3616 E Ray Rd,AZ,85044
Fry's Food,Glendale,66000028,#0028 #028 #28 028 66000028,4315 W Bell Rd,AZ,85308
Fry's Food,Tucson,66000033,#0033 #033 #33 033 66000033,7050 E Golf Links Rd,AZ,85730
Fry's Food,Tucson,66000034,#0034 #034 #34 034 66000034,7812 E Speedway Blvd,AZ,85710
Fry's Food,Tucson,66000036,#0036 #036 #36 036 66000036,3770 W Ina Rd,AZ,85741
Fry's Food,Chandler,66000037,#0037 #037 #37 037 66000037,981 W Elliot Rd,AZ,85225
Fry's Food,Phoenix,66000038,#0038 #038 #38 038 66000038,731 E Bell Rd,AZ,85022
Fry's Food,Phoenix,66000040,#0040 #040 #40 040 66000040,3421 W Thunderbird Rd,AZ,85053
Fry's Food,Tucson,66000042,#0042 #042 #42 042 66000042,9401 E 22Nd St,AZ,85710
Fry's Food,Tempe,66000043,#0043 #043 #43 043 66000043,2700 W Baseline Rd,AZ,85283
Fry's Food,Peoria,66000045,#0045 #045 #45 045 66000045,7455 W Cactus Rd,AZ,85381
Fry's Food,Phoenix,66000046,#0046 #046 #46 046 66000046,520 E Baseline Rd,AZ,85042
Fry's Food,Casa Grande,66000048,#0048 #048 #48 048 66000048,1385 E Florence Blvd,AZ,85122
Fry's Food,Chandler,66000051,#0051 #051 #51 051 66000051,1950 W Ray Rd,AZ,85224
Fry's Food,Gilbert,66000052,#0052 #052 #52 052 66000052,855 W Warner Rd,AZ,85233
Fry's Food,Scottsdale,66000054,#0054 #054 #54 054 66000054,4842 E Bell Rd,AZ,85254
Fry's Food,Mesa,66000055,#0055 #055 #55 055 66000055,1915 S Power Rd,AZ,85206
Fry's Food,Peoria,66000056,#0056 #056 #56 056 66000056,9043 W Olive Ave,AZ,85345
Fry's Food,Tucson,66000057,#0057 #057 #57 057 66000057,7870 N Silverbell Rd,AZ,85743
Fry's Food,Tucson,66000058,#0058 #058 #58 058 66000058,2001 E Irvington Rd,AZ,85714
Fry's Food,Sierra Vista,66000059,#0059 #059 #59 059 66000059,4351 E Highway 90,AZ,85635
Fry's Food,Glendale,66000060,#0060 #060 #60 060 66000060,20220 N 59Th Ave,AZ,85308
Fry's Food,Surprise,66000061,#0061 #061 #61 061 66000061,15510 W Bell Rd,AZ,85374
Fry's Food,Mesa,66000062,#0062 #062 #62 062 66000062,554 W Baseline Rd,AZ,85210
Fry's Food,Prescott Valley,66000063,#0063 #063 #63 063 66000063,3100 N Glassford Hill Rd,AZ,86314
Fry's Food,Gilbert,66000064,#0064 #064 #64 064 66000064,714 S Val Vista Dr,AZ,85296
Fry's Food,Apache Junction,66000065,#0065 #065 #65 065 66000065,185 W Apache Trl,AZ,85120
Fry's Food,Avondale,66000066,#0066 #066 #66 066 66000066,10675 W Indian School Rd,AZ,85392
Fry's Food,Cave Creek,66000067,#0067 #067 #67 067 66000067,4815 E Carefree Hwy Ste 100,AZ,85331
Fry's Food,Chandler,66000069,#0069 #069 #69 069 66000069,2010 S Alma School Rd,AZ,85286
Fry's Food,Fountain Hills,66000070,#0070 #070 #70 070 66000070,14845 E Shea Blvd,AZ,85268
Fry's Food,Gilbert,66000072,#0072 #072 #72 072 66000072,87 E Williams Field Rd,AZ,85295
Fry's Food,Glendale,66000073,#0073 #073 #73 073 66000073,6625 W Happy Valley Rd,AZ,85310
Fry's Food,Peoria,66000074,#0074 #074 #74 074 66000074,8375 W Deer Valley Rd,AZ,85382
Fry's Food,Gilbert,66000075,#0075 #075 #75 075 66000075,3261 E Pecos Rd,AZ,85295
Fry's Food,Prescott,66000077,#0077 #077 #77 077 66000077,3198 Willow Creek Rd,AZ,86301
Fry's Food,Phoenix,66000078,#0078 #078 #78 078 66000078,39508 N Daisy Mountain Dr,AZ,85086
Fry's Food,Phoenix,66000079,#0079 #079 #79 079 66000079,2626 S 83Rd Ave,AZ,85043
Fry's Food,Phoenix,66000081,#0081 #081 #81 081 66000081,2250 E Baseline Rd,AZ,85042
Fry's Food,Queen Creek,66000084,#0084 #084 #84 084 66000084,542 E Hunt Hwy,AZ,85142
Fry's Food,Laveen,66000087,#0087 #087 #87 087 66000087,5140 W Baseline Rd,AZ,85339
Fry's Food,Avondale,66000089,#0089 #089 #89 089 66000089,11425 W Buckeye Rd,AZ,85323
Fry's Food,Tucson,66000090,#0090 #090 #90 090 66000090,8080 S Houghton Rd,AZ,85747
Fry's Food,Tempe,66000101,#00101 #0101 #101 0101 66000101,3232 S Mill Ave,AZ,85282
Fry's Food,Cottonwood,66000103,#00103 #0103 #103 0103 66000103,1100 S State Route 260,AZ,86326
Fry's Food,Flagstaff,66000104,#00104 #0104 #104 0104 66000104,201 N Switzer Canyon Dr,AZ,86001
Fry's Food,Yuma,66000107,#00107 #0107 #107 0107 66000107,500 W 24Th St,AZ,85364
Fry's Food,Globe,66000109,#00109 #0109 #109 0109 66000109,2115 Highway 60 #200,AZ,85539
Fry's Food,Avondale,66000112,#00112 #0112 #112 0112 66000112,1575 N Dysart Rd,AZ,85392
Fry's Food,Mesa,66000113,#00113 #0113 #113 0113 66000113,1245 W Main St,AZ,85201
Fry's Food,Peoria,66000114,#00114 #0114 #114 0114 66000114,9245 W Union Hills Dr,AZ,85382
Fry's Food,Mesa,66000115,#00115 #0115 #115 0115 66000115,435 S Ellsworth Rd,AZ,85208
Fry's Food,Prescott,66000116,#00116 #0116 #116 0116 66000116,950 Fair St,AZ,86305
Fry's Food,Oro Valley,66000117,#00117 #0117 #117 0117 66000117,10450 N La Canada Dr,AZ,85737
Fry's Food,Tucson,66000119,#00119 #0119 #119 0119 66000119,902 W Irvington Rd,AZ,85714
Fry's Food,Scottsdale,66000120,#00120 #0120 #120 0120 66000120,6321 E Greenway Rd,AZ,85254
Fry's Food,Phoenix,66000121,#00121 #0121 #121 0121 66000121,4025 E Thunderbird Rd,AZ,85032
Fry's Food,Sun City,66000122,#00122 #0122 #122 0122 66000122,10660 Grand Ave,AZ,85351
Fry's Food,Mesa,66000123,#00123 #0123 #123 0123 66000123,2727 E Broadway Rd,AZ,85204
Fry's Food,Tempe,66000124,#00124 #0124 #124 0124 66000124,3255 S Rural Rd,AZ,85282
Fry's Food,Scottsdale,66000125,#00125 #0125 #125 0125 66000125,10450 N 90Th St,AZ,85258
Fry's Food,Phoenix,66000126,#00126 #0126 #126 0126 66000126,6601 W Indian School Rd,AZ,85033
Fry's Food,Phoenix,66000127,#00127 #0127 #127 0127 66000127,4204 W Cactus Rd,AZ,85029
Fry's Food,Phoenix,66000128,#00128 #0128 #128 0128 66000128,744 W Camelback Rd,AZ,85013
Fry's Food,Phoenix,66000129,#00129 #0129 #129 0129 66000129,4724 N 20Th St,AZ,85016
Fry's Food,Chandler,66000130,#00130 #0130 #130 0130 66000130,2075 N Alma School Rd,AZ,85224
Fry's Food,Tucson,66000131,#00131 #0131 #131 0131 66000131,2480 N Swan Rd,AZ,85712
Fry's Food,Scottsdale,66000134,#00134 #0134 #134 0134 66000134,6080 E Thomas Rd,AZ,85251
Fry's Food,Phoenix,66000135,#00135 #0135 #135 0135 66000135,4505 E Thomas Rd,AZ,85018
Fry's Food,Glendale,66000136,#00136 #0136 #136 0136 66000136,4329 W Northern Ave,AZ,85301
Fry's Food,Tucson,66000137,#00137 #0137 #137 0137 66000137,7050 E 22Nd St,AZ,85710
Fry's Food,Tucson,66000138,#00138 #0138 #138 0138 66000138,4036 N 1St Ave,AZ,85719
Fry's Food,Cave Creek,66000474,#00474 #0474 #474 0474 66000474,29455 N Cave Creek Rd,AZ,85331
Fry's Food,Tempe,66000607,#00607 #0607 #607 0607 66000607,5100 S Mcclintock Dr,AZ,85282
Fry's Food,Phoenix,66000609,#00609 #0609 #609 0609 66000609,850 E Hatcher Rd,AZ,85020
Fry's Food,Phoenix,66000610,#00610 #0610 #610 0610 66000610,4230 W Mcdowell Rd,AZ,85009
Fry's Food,Mesa,66000611,#00611 #0611 #611 0611 66000611,4440 E Main St,AZ,85205
Fry's Food,Phoenix,66000612,#00612 #0612 #612 0612 66000612,4707 E Shea Blvd,AZ,85028
Fry's Food,Phoenix,66000617,#00617 #0617 #617 0617 66000617,2727 W Bell Rd,AZ,85053
Fry's Food,Phoenix,66000618,#00618 #0618 #618 0618 66000618,3246 E Bell Rd,AZ,85032
Fry's Food,Phoenix,66000619,#00619 #0619 #619 0619 66000619,8325 W Indian School Rd,AZ,85037
Fry's Food,Scottsdale,66000621,#00621 #0621 #621 0621 66000621,8900 E Via Linda,AZ,85258
Fry's Food,Mesa,66000622,#00622 #0622 #622 0622 66000622,1935 N Stapley Dr,AZ,85203
Fry's Food,Phoenix,66000623,#00623 #0623 #623 0623 66000623,1815 W Glendale Ave,AZ,85021
Fry's Food,Gilbert,66000624,#00624 #0624 #624 0624 66000624,1845 E Baseline Rd,AZ,85233
Fry's Food,Glendale,66000625,#00625 #0625 #625 0625 66000625,6611 W Bell Rd,AZ,85308
Fry's Food,Tempe,66000627,#00627 #0627 #627 0627 66000627,9900 S Rural Rd,AZ,85284
Fry's Food,Phoenix,66000628,#00628 #0628 #628 0628 66000628,3949 E Chandler Blvd,AZ,85048
Fry's Food,Phoenix,66000641,#00641 #0641 #641 0641 66000641,3511 W Peoria Ave,AZ,85029
Fry's Food,Chandler,66000668,#00668 #0668 #668 0668 66000668,985 E Riggs Rd,AZ,85249
Fry's Food,Casa Grande,66000669,#00669 #0669 #669 0669 66000669,2858 N Pinal Ave,AZ,85122
Fry's Food,Gilbert,66000670,#00670 #0670 #670 0670 66000670,6470 S Higley Rd,AZ,85298
Fry's Food,Maricopa,66000672,#00672 #0672 #672 0672 66000672,20797 N John Wayne Pkwy,AZ,85139
Fry's Food,Scottsdale,66000673,#00673 #0673 #673 0673 66000673,20427 N Hayden Rd,AZ,85255
Fry's Food,Surprise,66000674,#00674 #0674 #674 0674 66000674,13982 W Waddell Rd,AZ,85379
Fry's Food,Buckeye,66000675,#00675 #0675 #675 0675 66000675,1300 S Watson Rd,AZ,85326
Fry's Food,Goodyear,66000676,#00676 #0676 #676 0676 66000676,16380 W Yuma Rd,AZ,85338
Fry's Food,Sahuarita,66000679,#00679 #0679 #679 0679 66000679,15950 S Rancho Sahuarita Blvd,AZ,85629
Fry's Food,Surprise,66000680,#00680 #0680 #680 0680 66000680,15215 N Cotton Ln,AZ,85388
Fry's Food,Queen Creek,66000682,#00682 #0682 #682 0682 66000682,155 W Combs Rd,AZ,85140
Fry's Food,Marana,66000689,#00689 #0689 #689 0689 66000689,12100 N Thornydale Rd,AZ,85658
Fry's Food,Yuma,66000699,#00699 #0699 #699 0699 66000699,11203 S Frontage Rd,AZ,85367
