keywords,city,Aggdata Store Number,store_number,address,state,zip_code
Gander Mountain,Johnson City,259,259,528 Harry L Dr,NY,13790
Gander Mountain,Kenosha,111,111,6802 118th Avenue,WI,53140
Gander Mountain,Waukesha,112,112,2440 E Moreland Blvd,WI,53186
Gander Mountain,De Forest,113,113,6199 Metro Drive,WI,53532
Gander Mountain,Eau Claire,114,114,6440 Sculy Drive,WI,54701
Gander Mountain,Onalaska,115,115,1200 Crossing Meadows Drive,WI,54650
Gander Mountain,Germantown,121,121,W190 N10768 Commerce Cir,WI,53022
Gander Mountain,Franklin,122,122,6939 South 27th Street,WI,53132
Gander Mountain,Rothschild,126,126,1560 County Road XX,WI,54474
Gander Mountain,Appleton,130,130,535 North Westhill Blvd,WI,54914
Gander Mountain,Sheboygan,132,132,4224 Gander Road,WI,53083
Gander Mountain,Green Bay,135,135,2323 Woodman Drive,WI,54303
Gander Mountain,Cedar Rapids,142,142,2140 Edgewood Road S,IA,52404
Gander Mountain,Davenport,145,145,3940 Elmore Avenue,IA,52807
Gander Mountain,West Baraboo,152,152,315 West Pine,WI,53913
Gander Mountain,Janesville,155,155,2900 Deerfield Dr #8,WI,53546
Gander Mountain,Coldwater,164,164,373 N Willowbrook Rd Ste Y,MI,49036
Gander Mountain,Flint,165,165,5038-A Miller Road,MI,48507
Gander Mountain,Novi,167,167,43825 West Oaks Drive,MI,48377
Gander Mountain,Grandville,168,168,4655 Canal Avenue,MI,49418
Gander Mountain,Marquette,169,169,3465 US Highway 41 W,MI,49855
Gander Mountain,Utica,171,171,13975 Hall Road,MI,48315
Gander Mountain,Kentwood,172,172,2890 Acquest Avenue,MI,49512
Gander Mountain,Lansing,173,173,430 North Marketplace Blvd.,MI,48917
Gander Mountain,Saginaw,174,174,2270 Tittabawassee Rd,MI,48604
Gander Mountain,Taylor,175,175,14100 Pardee Road,MI,48180
Gander Mountain,Portage,176,176,5348 S Westnedge Avenue,MI,49024
Gander Mountain,Fort Gratiot,179,179,4055 24th Avenue,MI,48059
Gander Mountain,Merrillville,185,185,1630 Southlake Mall,IN,46410
Gander Mountain,Fort Wayne,187,187,6043 Lima Road,IN,46818
Gander Mountain,Warren,190,190,2390 Niles Cortland,OH,44484
Gander Mountain,Holland,191,191,1320 Holland-Sylvania Rd,OH,43528
Gander Mountain,Columbus,192,192,5388 Westpointe Plaza,OH,43228
Gander Mountain,Huber Heights,193,193,8001 Old Troy Pike,OH,45424
Gander Mountain,Reynoldsburg,194,194,2644 Taylor Road SW,OH,43068
Gander Mountain,North Canton,195,195,4938 Portage Street,OH,44720
Gander Mountain,Erie,200,200,2088 Interchange Rd,PA,16565
Gander Mountain,Greensburg,202,202,1040 Towne Square Drive,PA,15601
Gander Mountain,Washington,203,203,1500 W. Chestnut Street,PA,15301
Gander Mountain,Moon Township,204,204,2400 Market Place Blvd,PA,15108
Gander Mountain,West Mifflin,206,206,4505 Century Drive,PA,15122
Gander Mountain,Johnstown,208,208,600 Galleria Drive,PA,15904
Gander Mountain,Dickson City,210,210,955 Viewmont Drive,PA,18519
Gander Mountain,York,215,215,1880 Loucks Road,PA,17404
Gander Mountain,Pennsdale,216,216,66 Mall Parkway,PA,17756
Gander Mountain,Harrisburg,218,218,5005 Jonestown Road,PA,17109
Gander Mountain,Chambersburg,220,220,3285 Black Gap Road,PA,17202
Gander Mountain,Salisbury,235,235,2410 N Salisbury Blvd,MD,21801
Gander Mountain,Charleston,240,240,2600 Mountaineer Blvd,WV,25309
Gander Mountain,Middletown,250,250,100 N Galleria Drive,NY,10941
Gander Mountain,Tonawanda,251,251,880 Young Street,NY,14150
Gander Mountain,Cicero,253,253,5864 Carmenica Drive,NY,13039
Gander Mountain,Rochester,254,254,300 Jay Scutti Road,NY,14623
Gander Mountain,Plattsburgh,255,255,60 Smithfield Blvd,NY,12901
Gander Mountain,Kingston,256,256,705 Frank Sottile Blvd,NY,12401
Gander Mountain,New Hartford,257,257,8635 Clinton Street,NY,13413
Gander Mountain,Watertown,261,261,21182 Salmon Run Mall Loop West,NY,13601
Gander Mountain,Terre Haute,270,270,3602 S US Highway 41,IN,47802
Gander Mountain,Evansville,271,271,5476 Indiana Street,IN,47715
Gander Mountain,Indianapolis,272,272,5702 E 86th St,IN,46250
Gander Mountain,Greenwood,273,273,1049 Emerson Avenue,IN,46142
Gander Mountain,Rockford,280,280,3068 McFarland Road,IL,61114
Gander Mountain,Peoria,281,281,5114 West Holiday Drive,IL,61615
Gander Mountain,Springfield,282,282,2371 Chuckwagon Drive,IL,62711
Gander Mountain,Geneva,284,284,2100 S Randall Road,IL,60134
Gander Mountain,Joliet,287,287,3301 Essington Road,IL,60435
Gander Mountain,Sheffield Village,303,303,5244 Cobblestone Road,OH,44035
Gander Mountain,Mentor,304,304,9620 Diamond Centre,OH,44060
Gander Mountain,Twinsburg,305,305,2695 Creekside Drive,OH,44087
Gander Mountain,Huntsville,310,310,3418 Memorial Parkway NW,AL,35810
Gander Mountain,Albany,311,311,832 N Westover Blvd,GA,31707
Gander Mountain,Tuscaloosa,312,312,3325 McFarland Blvd East,AL,35405
Gander Mountain,Dothan,313,313,5105 Montgomery Hwy,AL,36303
Gander Mountain,Hattiesburg,315,315,4501 Hardy Street Suite 100,MS,39402
Gander Mountain,Knoxville,320,320,11501 Parkside Drive,TN,37934
Gander Mountain,Jackson,321,321,1523 Vann Drive,TN,38305
Gander Mountain,Gastonia,333,333,3704 E Franklin Blvd,NC,28056
Gander Mountain,Monroe,334,334,3151 W US Hwy 74,NC,28110
Gander Mountain,Fayetteville,335,335,1912 Skibo Road,NC,28303
Gander Mountain,Greensboro,336,336,2223 Vanstory Street,NC,27403
Gander Mountain,Mooresville,337,337,236 Norman Station Blvd,NC,28117
Gander Mountain,Winston Salem,339,339,1950 South Stratford Rd,NC,27103
Gander Mountain,Fredericksburg,340,340,3708 Plank Road,VA,22407
Gander Mountain,Winchester,342,342,251 Commonwealth Ct,VA,22602
Gander Mountain,Roanoke,343,343,8195 Gander Way,VA,24019
Gander Mountain,Charlottesville,344,344,440 Gander Drive,VA,22901
Gander Mountain,Lake Mary,350,350,3750 Flagg Lane,FL,32746
Gander Mountain,Saint Augustine,351,351,550 Prime Outlet Blvd,FL,32084
Gander Mountain,Jacksonville,352,352,13075 City Square Drive,FL,32218
Gander Mountain,Palm Beach Gardens,353,353,100 Gander Way,FL,33403
Gander Mountain,Ocala,354,354,3970 SW 3rd Street  #101,FL,34474
Gander Mountain,Tampa,355,355,11655 W Hillsborough Ave,FL,33635
Gander Mountain,Rochester,367,367,3470 55th Street NW,MN,55901
Gander Mountain,Rogers,368,368,20870 Rogers Drive,MN,55374
Gander Mountain,Wichita,370,370,605 S Wichita Street,KS,67202
Gander Mountain,Fargo,380,380,2121 43rd Street SW,ND,58104
Gander Mountain,Paducah,390,390,3240 James Sanders Blvd,KY,42003
Gander Mountain,Corsicana,400,400,3301 Corsicana Crossing Blvd.,TX,75110
Gander Mountain,Amarillo,401,401,10300 West Interstate 40,TX,79124
Gander Mountain,Houston,402,402,19820 Hempstead Rd,TX,77065
Gander Mountain,Spring,403,403,19302 Interstate 45,TX,77373
Gander Mountain,Sugar Land,404,404,19890 SW Freeway,TX,77479
Gander Mountain,Beaumont,407,407,5855 Eastex Freeway,TX,77706
Gander Mountain,Sherman,408,408,2725 Hwy 75 N,TX,75092
Gander Mountain,Texarkana,409,409,2301 University Avenue,TX,75503
Gander Mountain,Tyler,410,410,151 Market Square Blvd,TX,75703
Gander Mountain,College Station,411,411,2301 Earl Rudder Freeway South,TX,77845
Gander Mountain,Lubbock,412,412,4006 W. Loop 289,TX,79407
Gander Mountain,Round Rock,413,413,3203 South I-35,TX,78664
Gander Mountain,Lewisville,414,414,723 Hebron Pkwy Unit 24,TX,75057
Gander Mountain,Mesquite,415,415,3777 Childress Ave,TX,75150
Gander Mountain,Aurora,420,420,14000 East Jewell Avenue,CO,80012
Gander Mountain,Thornton,421,421,9923 Grant Street,CO,80229
Gander Mountain,Morrisville,425,425,2100 Village Market Place,NC,27560
Gander Mountain,Valdosta,426,426,278 Norman Drive,GA,31601
Gander Mountain,Florence,428,428,340 Seville Street,AL,35630
Gander Mountain,Opelika,430,430,1640 Parker Way,AL,36801
Gander Mountain,N Little Rock,470,470,5450 Landers Road,AR,72117
Gander Mountain,Mankato,481,481,1940 Adams Street,MN,56001
Gander Mountain,Lakeville,483,483,16861 Kenyon Avenue,MN,55044
Gander Mountain,Bemidji,484,484,1313 Paul Bunyan Drive NW,MN,56601
Gander Mountain,Forest Lake,485,485,14640 W. Freeway Drive,MN,55025
Gander Mountain,Baxter,486,486,14275 Edgewood Dr Suite 100,MN,56425
Gander Mountain,Blaine,487,487,10650 Baltimore Street NE,MN,55449
Gander Mountain,Woodbury,488,488,10470 Hudson Road,MN,55129
Gander Mountain,Eden Prairie,489,489,12160 Technology Drive,MN,55344
Gander Mountain,Hermantown,490,490,4275 Haines Road,MN,55811
Gander Mountain,Waite Park,493,493,614 Second Street South,MN,56387
Gander Mountain,Traverse City,178,178,"3500 MarketPlace Cir,Suite B",MI,49684
Gander Mountain,Avon,274,274,216 Gable Crossing Dr,IN,46123
Gander Mountain,Fenton,290,290,751 Gravois Bluffs Blvd,MO,63026
Gander Mountain,Pensacola,356,356,1220 Airport Blvd,FL,32504
Gander Mountain,Bowling Green,391,391,"725 Bluegrass Farms Blvd, Ste 1",KY,42104
Gander Mountain,San Antonio,406,406,"8203 State Highway 151, Ste 104",TX,78245
Gander Mountain,Lafayette,427,427,"100 South Creasy Ln, Ste 1600",IN,47905
