keywords,city,Aggdata Store Number,store_number,address,state,zip_code
Gap,SAN FRANCISCO,113,113 #113 #0113,3251 20TH AVE,CA,94132
Gap,PALO ALTO,119,119 #119 #0119,165 STANFORD SHOPPING CTR,CA,94304
Gap,SAN JOSE,120,120 #120 #0120,181 Oakridge Mall,CA,95123
Gap,CONCORD,121,121 #121 #0121,315 Sun Valley Mall,CA,94520
Gap,PLEASANTON,126,126 #126 #0126,2133 STONERIDGE MALL RD,CA,94588
Gap,SANTA ROSA,129,129 #129 #0129,1041 Santa Rosa Plz,CA,95401
Gap,SAN MATEO,130,130 #130 #0130,437 Hillsdale Mall,CA,94403
Gap,SANTA CRUZ,137,137 #137 #0137,1225 Pacific Ave,CA,95060
Gap,SANTA CLARA,138,138 #138 #0138,2855 STEVENS CREEK BLVD,CA,95050
Gap,BURLINGAME,141,141 #141 #0141,1294 Burlingame Ave,CA,94010
Gap,SAN FRANCISCO,143,143 #143 #0143,3 EMBARCADERO CTR,CA,94111
Gap,SAN RAFAEL,144,144 #144 #0144,6000 NORTHGATE DR,CA,94903
Gap,OAKLAND,145,145 #145 #0145,3277 Lakeshore Ave,CA,94610
Gap,LOS GATOS,147,147 #147 #0147,35 University Avenue,CA,95030
Gap,CORTE MADERA,148,148 #148 #0148,1554 Redwood Highway,CA,94925
Gap,SAN FRANCISCO,150,150 #150 #0150,890 Market St,CA,94102
Gap,MONTEREY,151,151 #151 #0151,615 Del Monte Center,CA,93940
Gap,MODESTO,152,152 #152 #0152,3401 Dale Road,CA,95356
Gap,EMERYVILLE,170,170 #170 #0170,5690 Bay St,CA,94608
Gap,SALINAS,171,171 #171 #0171,544 N MAIN ST,CA,93901
Gap,SANTA MONICA,207,207 #207 #0207,1931 Wilshire Blvd,CA,90403
Gap,TORRANCE,208,208 #208 #0208,3525 CARSON STREET,CA,90503
Gap,WESTMINSTER,212,212 #212 #0212,1069A Westminster Mall,CA,92683
Gap,COSTA MESA,214,214 #214 #0214,3333 Bristol St,CA,92626
Gap,COSTA MESA,214,214 #214 #0214,3333 Bristol St,CA,92626
Gap,GLENDALE,220,220 #220 #0220,1158 Glendale Galleria,CA,91210
Gap,BREA,223,223 #223 #0223,1055 Brea Mall,CA,92821
Gap,THOUSAND OAKS,224,224 #224 #0224,240 West Hillcrest Drive,CA,91360
Gap,LAKEWOOD,225,225 #225 #0225,500 LAKEWOOD CENTER MALL,CA,90712
Gap,CANOGA PARK,228,228 #228 #0228,6600 TOPANGA CANYON BLVD,CA,91303
Gap,ARCADIA,236,236 #236 #0236,400 S BALDWIN AVE,CA,91007
Gap,MONTEBELLO,241,241 #241 #0241,1751 Montebello Town Ctr,CA,90640
Gap,REDONDO BEACH,243,243 #243 #0243,1815 HAWTHORNE BLVD,CA,90278
Gap,SANTA ANA,248,248 #248 #0248,2800 N Main St,CA,92705
Gap,LOS ANGELES,249,249 #249 #0249,10250 Santa Monica Blvd,CA,90067
Gap,BEVERLY HILLS,253,253 #253 #0253,370 N Beverly Dr,CA,90210
Gap,SHERMAN OAKS,256,256 #256 #0256,14006 RIVERSIDE DR,CA,91423
Gap,BELMONT SHORES,257,257 #257 #0257,5025 E 2ND ST,CA,90803
Gap,SANTA BARBARA,259,259 #259 #0259,615 Paseo Nuevo,CA,93101
Gap,VALENCIA,262,262 #262 #0262,24201 Valencia Blvd.,CA,91355
Gap,PASADENA,263,263 #263 #0263,61 West Colorado Blvd.,CA,91105
Gap,HUNTINGTON BEACH,264,264 #264 #0264,18681 & 18661 Main Street,CA,92648
Gap,SAN LUIS OBISPO,268,268 #268 #0268,879 Higuera Street,CA,93401
Gap,STUDIO CITY,269,269 #269 #0269,12169 Ventura Blvd.,CA,91604
Gap,CERRITOS,270,270 #270 #0270,220 LOS CERRITOS MALL,CA,90703
Gap,MANHATTAN BEACH,271,271 #271 #0271,3200 N SEPULVEDA BLVD,CA,90266
Gap,BAKERSFIELD,273,273 #273 #0273,2701 Ming Avenue,CA,93304
Gap,SANTA MONICA,275,275 #275 #0275,1355 3rd Street Promenade,CA,90401
Gap,LOS ANGELES,278,278 #278 #0278,189 The Grove Drive,CA,90036
Gap,ROLLING HILLS ESTATE,279,279 #279 #0279,550 Deep Valley Drive,CA,90274
Gap,VENTURA,280,280 #280 #0280,3301 East Main Street,CA,93003
Gap,HOLLYWOOD,282,282 #282 #0282,6801 HOLLYWOOD BLVD,CA,90028
Gap,NEWPORT COAST,283,283 #283 #0283,8012 E PACIFIC COAST HWY,CA,92657
Gap,SAN DIEGO,306,306 #306 #0306,4505 La Jolla Village Dr,CA,92122
Gap,SAN DIEGO,308,308 #308 #0308,7007 Friars Road,CA,92108
Gap,CARLSBAD,309,309 #309 #0309,2525 El Camino Real,CA,92008
Gap,SAN DIEGO,311,311 #311 #0311,324 Horton Plz,CA,92101
Gap,ESCONDIDO,312,312 #312 #0312,200 East Via Rancho Parkway,CA,92025
Gap,LA JOLLA,313,313 #313 #0313,7851 Girard Avenue,CA,92037
Gap,PALM DESERT,314,314 #314 #0314,72840 HWY 111,CA,92260
Gap,TEMECULA,316,316 #316 #0316,40820 Winchester Road,CA,92591
Gap,HOUSTON,401,401 #401 #0401,5085 WESTHEIMER RD,TX,77056
Gap,HOUSTON,414,414 #414 #0414,900 GESSNER RD,TX,77024
Gap,FRIENDSWOOD,421,421 #421 #0421,1069 Baybrook Mall,TX,77546
Gap,HUMBLE,426,426 #426 #0426,20131 Highway 59 North,TX,77338
Gap,HOUSTON,429,429 #429 #0429,6225 KIRBY DR,TX,77005
Gap,THE WOODLANDS,432,432 #432 #0432,1201 Lake Woodlands Drive,TX,77380
Gap,HOUSTON,436,436 #436 #0436,12850 Memorial Drive,TX,77024
Gap,HOUSTON,437,437 #437 #0437,1977 W GRAY ST,TX,77019
Gap,HOUSTON,439,439 #439 #0439,5462 FM 1960 West,TX,77069
Gap,BEAUMONT,450,450 #450 #0450,6155 Eastex Freeway,TX,77706
Gap,LAKE CHARLES,451,451 #451 #0451,564 West Prien Lake Road,LA,70601
Gap,COLLIERVILLE,464,464 #464 #0464,4670 Merchants Park Circle,TN,38017
Gap,JONESBORO,474,474 #474 #0474,3000 E HIGHLAND DR,AR,72401
Gap,EDINBURGH,478,478 #478 #0478,"Edinburgh Ocean Term'l, Victoria D",SC,EH6 7DZ
Gap,WOODBURY,480,480 #480 #0480,9000 Hudson Rd,MN,55125
Gap,CLINTON TOWNSHIPS,481,481 #481 #0481,17370 HALL ROAD #112,MI,48038
Gap,CHICAGO,503,503 #503 #0503,3216 North Broadway Avenue,IL,60657
Gap,VERNON HILLS,507,507 #507 #0507,319 HAWTHORN CTR,IL,60061
Gap,NORTHBROOK,511,511 #511 #0511,1324 Northbrook Court,IL,60062
Gap,ORLAND PARK,515,515 #515 #0515,460 Orland Square Dr,IL,60462
Gap,OAK BROOK,516,516 #516 #0516,432 OAKBROOK CENTER,IL,60523
Gap,SCHAUMBURG,521,521 #521 #0521,5 WOODFIELD MALL,IL,60173
Gap,SKOKIE,537,537 #537 #0537,4999 OLD ORCHARD SHOPPING CTR,IL,60077
Gap,NAPERVILLE,541,541 #541 #0541,223 South Main Street,IL,60540
Gap,OAK PARK,542,542 #542 #0542,435 N Harlem Ave,IL,60301
Gap,LINCOLNWOOD,546,546 #546 #0546,3333 W TOUHY AVE,IL,60712
Gap,CHICAGO,551,551 #551 #0551,2778 North Milwaukee Avenue,IL,60647
Gap,EVANSTON,562,562 #562 #0562,1706 SHERMAN AVE,IL,60201
Gap,CHICAGO,569,569 #569 #0569,555 N MICHIGAN AVE,IL,60611
Gap,WHEATON,573,573 #573 #0573,301 TOWN SQ,IL,60189
Gap,CHICAGO,576,576 #576 #0576,935 West North Avenue,IL,60622
Gap,CHAMPAIGN,577,577 #577 #0577,2000 North Neil Street,IL,61820
Gap,DEER PARK,581,581 #581 #0581,20530 N RAND RD,IL,60010
Gap,NORTH RIVERSIDE,582,582 #582 #0582,7501 West Cermak Road,IL,60546
Gap,GENEVA,584,584 #584 #0584,214 COMMONS DR,IL,60134
Gap,CHARLOTTE,586,586 #586 #0586,6801 Northlake Mall Drive,NC,28216
Gap,WALNUT CREEK,590,590 #590 #0590,1139 SOUTH MAIN STREET,CA,94596
Gap,NEW YORK,592,592 #592 #0592,513 Broadway,NY,10012
Gap,WILMINGTON,594,594 #594 #0594,6842 MAIN STREET,NC,28405
Gap,SCOTTSDALE,595,595 #595 #0595,15169 North Scottsdale Road,AZ,85254
Gap,EXTON,602,602 #602 #0602,154 E LINCOLN HWY,PA,19341
Gap,CHERRY HILL,603,603 #603 #0603,2000 ROUTE 38,NJ,8002
Gap,SPRINGFIELD,605,605 #605 #0605,1200 Baltimore Pike,PA,19064
Gap,DEPTFORD,608,608 #608 #0608,1750 DEPTFORD CENTER ROAD,NJ,8096
Gap,BENSALEM,609,609 #609 #0609,707 Neshaminy Mall,PA,19020
Gap,LANCASTER,612,612 #612 #0612,555 PARK CITY CTR,PA,17601
Gap,WHITEHALL,614,614 #614 #0614,140 Lehigh Valley Mall,PA,18052
Gap,NORTH WALES,616,616 #616 #0616,226 Montgomery Mall,PA,19454
Gap,VINELAND,619,619 #619 #0619,3849 S. Delsea Dr,NJ,8360
Gap,NEWARK,621,621 #621 #0621,236 Christiana Mall,DE,19702
Gap,READING,624,624 #624 #0624,1665 State Hill Road,PA,19601
Gap,KING OF PRUSSIA,628,628 #628 #0628,690 WEST DEKALB PIKE,PA,19406
Gap,EASTON,630,630 #630 #0630,126 PALMER PARK MALL,PA,18045
Gap,ARDMORE,636,636 #636 #0636,100 COULTER AVE,PA,19003
Gap,PHILADELPHIA,638,638 #638 #0638,1510 Walnut Street,PA,19102
Gap,WAYNE,640,640 #640 #0640,132 E Lancaster Ave,PA,19087
Gap,PRINCETON,641,641 #641 #0641,3535 US HIGHWAY 1,NJ,8540
Gap,PHILADELPHIA,643,643 #643 #0643,3401 WALNUT ST,PA,19104
Gap,DOYLESTOWN,645,645 #645 #0645,17 S MAIN ST,PA,18901
Gap,GLEN MILLS,651,651 #651 #0651,605 WILMINGTON WESTCHESTER PIKE,PA,19342
Gap,SCRANTON,653,653 #653 #0653,100 VIEWMONT MALL,PA,18508
Gap,MARLTON,657,657 #657 #0657,300 Route 73 South,NJ,8053
Gap,PHILADELPHIA,659,659 #659 #0659,8500 ESSINGTON,PA,19153
Gap,PLYMOUTH MEETING,660,660 #660 #0660,2510 Chemical Rd,PA,19462
Gap,NEWTOWN,661,661 #661 #0661,60 WEST RD,PA,18940
Gap,BRIDGEWATER,662,662 #662 #0662,375 Route 202,NJ,8807
Gap,ALGONQUIN,663,663 #663 #0663,1976 Randall Road,IL,60102
Gap,SAN ANTONIO,665,665 #665 #0665,15900 La Cantera Parkway,TX,78256
Gap,ATLANTA,668,668 #668 #0668,260 18th Street,GA,30363
Gap,JACKSONVILLE,669,669 #669 #0669,4711 River City Drive,FL,32246
Gap,WEST PALM BEACH,670,670 #670 #0670,10300 Forest Hill Boulevard,FL,33414
Gap,BATON ROUGE,671,671 #671 #0671,7455 Corporate Blvd.,LA,70809
Gap,KANSAS CITY,672,672 #672 #0672,7321 N.W. 86TH TERRACE,MO,64153
Gap,SNELLVILLE,675,675 #675 #0675,1350 SCENIC HWY 124 #400,GA,30078
Gap,CHESTER,676,676 #676 #0676,300 S.O.C. ST.,NJ,7930
Gap,OITA,685,685 #685 #0685,"2ND BLOCK 1F, TAMAZAWA",Miyazaki Prefecture,00870-1198
Gap,TOSHIMA,686,686 #686 #0686,"1F/2F, 1-1-25 NISHI-IKEBUKURO",Tokyo,00171-8512
Gap,MITO,687,687 #687 #0687,"135 NISHI, NAKAHARA",IDF,00319-0394
Gap,KASHIWA,689,689 #689 #0689,175 2F WAKASHIBA,Chiba Prefecture,00277-8518
Gap,KOBE,690,690 #690 #0690,1-7-2 HIGASHIKAWASAKI,Hyogo Prefecture,00650-0044
Gap,HIROSHIMA-SHI,692,692 #692 #0692,2-10 SHINTENCHI,Hiroshima Prefecture,00730-0034
Gap,LIVINGSTON,701,701 #701 #0701,112 Eisenhower Parkway,NJ,7039
Gap,STATEN ISLAND,704,704 #704 #0704,2655 Richmond Ave.,NY,10314
Gap,ELMHURST,706,706 #706 #0706,90-15 Queens Blvd,NY,11373
Gap,PARAMUS,708,708 #708 #0708,700 PARAMUS PARK,NJ,7652
Gap,WOODBRIDGE,710,710 #710 #0710,210 Woodbridge Ctr,NJ,7095
Gap,NEW YORK,711,711 #711 #0711,734 Lexington Avenue,NY,10022
Gap,YONKERS,714,714 #714 #0714,33 Mall Walk,NY,10704
Gap,GARDEN CITY,715,715 #715 #0715,630 OLD COUNTRY RD,NY,11530
Gap,OCEANSIDE,722,722 #722 #0722,3501 Long Beach Rd,NY,11572
Gap,PARAMUS,725,725 #725 #0725,1 Garden State Plaza,NJ,7652
Gap,PARAMUS,726,726 #726 #0726,640 BERGEN TOWN CENTER,NJ,7652
Gap,EDISON,727,727 #727 #0727,491 MENLO PARK,NJ,8837
Gap,FOREST HILLS,738,738 #738 #0738,6939 Austin Street,NY,11375
Gap,BROOKLYN,747,747 #747 #0747,2101 86TH ST,NY,11214
Gap,SHORT HILLS,753,753 #753 #0753,1200 MORRIS TURNPIKE,NJ,7078
Gap,WAYNE,754,754 #754 #0754,1400 Willowbrook Mall,NJ,7470
Gap,PARAMUS,757,757 #757 #0757,501 S State Rt 17,NJ,7652
Gap,WESTWOOD,762,762 #762 #0762,142 Westwood Avenue,NJ,7675
Gap,NEW YORK,763,763 #763 #0763,60 West 34th Street,NY,10001
Gap,NEW YORK,767,767 #767 #0767,122 5TH AVE,NY,10011
Gap,NEW YORK,770,770 #770 #0770,750 Broadway,NY,10003
Gap,PLAINVIEW,774,774 #774 #0774,403 South Oyster Bay Road,NY,11803
Gap,YORKTOWN HEIGHTS,776,776 #776 #0776,650 LEE BLVD,NY,10598
Gap,NEW YORK,778,778 #778 #0778,11 FULTON ST,NY,10038
Gap,SCARSDALE,780,780 #780 #0780,700 POST RD,NY,10583
Gap,RIDGEWOOD,784,784 #784 #0784,235 East Ridgewood Avenue,NJ,7451
Gap,POUGHKEEPSIE,795,795 #795 #0795,2001 South Rd,NY,12601
Gap,HACKENSACK,796,796 #796 #0796,211 Riverside Square,NJ,7601
Gap,SHREWSBURY,798,798 #798 #0798,591 BROAD ST,NJ,7702
Gap,SCOTTSDALE,811,811 #811 #0811,7014 East Camelback Road,AZ,85251
Gap,CHANDLER,816,816 #816 #0816,7131 West Ray Road,AZ,85226
Gap,LAS VEGAS,818,818 #818 #0818,3663 LAS VEGAS BLVD S,NV,89109
Gap,CHANDLER,819,819 #819 #0819,3111 West Chandler Blvd.,AZ,85226
Gap,LAS VEGAS,820,820 #820 #0820,1055 South Rampart Blvd.,NV,89145
Gap,DEDHAM,822,822 #822 #0822,950 PROVIDENCE HIGHWAY,MA,2026
Gap,LONDON,824,824 #824 #0824,1 - 7 SHAFTSBURY AVENUE,,W1D 7ET
Gap,LOVELAND,848,848 #848 #0848,5957 SKY POND DRIVE,CO,80538
Gap,ROSEVILLE,853,853 #853 #0853,1151 GALLERIA BLVD,CA,95678
Gap,NAGOYA,884,884 #884 #0884,4-102-3 YATAMINAMI,Aichi Prefecture,00461-0048
Gap,OITA,885,885 #885 #0885,"2ND BLOCK 1F, TAMAZAWA",Oita Prefecture,00870-1198
Gap,MITO,887,887 #887 #0887,"135 NISHI, NAKAHARA",Chiba Prefecture,00319-0394
Gap,OSAKA,888,888 #888 #0888,NORTH 2F B201-211 OFUKA,Osaka Prefecture,00530-0011
Gap,CHESTERFIELD,906,906 #906 #0906,232 Chesterfield Mall,MO,63017
Gap,GREENHITHE,932,932 #932 #0932,UNITS 121-122 LOWER GUILD HALL,EG,DA9 9SP
Gap,LONDON,936,936 #936 #0936,223-235 Oxford St,EG,W1R 1AB
Gap,LONDON,938,938 #938 #0938,6-12 Parkway Plaza,EG,NW1 7AA
Gap,MANCHESTER,940,940 #940 #0940,148 REGENT CRESCENT,EG,M17 8AN
Gap,MILTON KEYNES,941,941 #941 #0941,UNIT 31 MIDSUMMER PLACE,EG,MK9 3DW
Gap,LONDON,942,942 #942 #0942,Canada Place,EG,E14 5AX
Gap,LONDON,943,943 #943 #0943,"145 Brompton Road, Knightsbridge",EG,SW3 1PQ
Gap,LONDON,944,944 #944 #0944,UNIT 5 PARKFIELD STREET,EG,N10PS
Gap,LONDON,945,945 #945 #0945,132-136 Notting Hill Gate,EG,W11 3QG
Gap,SOLIHULL W MIDLANDS,947,947 #947 #0947,UNITS 56-58 MILL LANE ARCADE,EG,B91 3GS
Gap,GLASGOW,948,948 #948 #0948,8/9 Kings Inch Road,SC,G51 4BP
Gap,SURREY,950,950 #950 #0950,47 GEORGE ST,EG,TW9 1HY
Gap,LONDON,954,954 #954 #0954,30-31 Long Acre,EG,WC2E9LA
Gap,GUILDFORD,955,955 #955 #0955,58-62 High Street,EG,GUI 3ES
Gap,BATH,957,957 #957 #0957,18-19 Old Bond St,EG,BA1 1BP
Gap,NOTTINGHAM,961,961 #961 #0961,Victoria Centre,EG,NG1 3QG
Gap,CAMBRIDGE,962,962 #962 #0962,2 Market Hill,EG,CB2 3NJ
Gap,EXETER,968,968 #968 #0968,8-9 High Street,EG,EX4 3LF
Gap,BELFAST,969,969 #969 #0969,Castle Court Centre,NI,BT1 1DD
Gap,LONDON,971,971 #971 #0971,Brent Cross Shopping Centre,EG,NW4 3FB
Gap,BRIGHTON,972,972 #972 #0972,192 Western Road,EG,BN1 2BA
Gap,BRISTOL,973,973 #973 #0973,"The Galleries, Broadmead",EG,BS1 3XB
Gap,KINGSTON UPON THAMES,974,974 #974 #0974,45-49 Clarence Street,EG,KT1 1RF
Gap,LONDON,975,975 #975 #0975,Putney Exchange,EG,SW151TW
Gap,MANCHESTER,977,977 #977 #0977,30 St Anne Street,EG,M27LF
Gap,BROMLEY,978,978 #978 #0978,103-105 High Street,EG,BR1 1JQ
Gap,GLOUCESTER,979,979 #979 #0979,106 The Promenade,EG,GL501NB
Gap,LONDON,980,980 #980 #0980,"122 Kings Road, Chelsea",EG,SW3 4TR
Gap,LONDON,982,982 #982 #0982,Centre Court Shopping Centre,EG,SW198YE
Gap,WATFORD,983,983 #983 #0983,113 High street,EG,WD1 -2DQ
Gap,TUNBRIDGE WELLS,985,985 #985 #0985,"Royal Victoria Palace, Calverly Rd",EG,TN1 2SR
Gap,WINDSOR,987,987 #987 #0987,119 Peascod Street,EG,SL4 1PD
Gap,CHESTER,988,988 #988 #0988,22/24 Northgate St,EG,CH1 -4LR
Gap,LEEDS,989,989 #989 #0989,135/137 Briggate,EG,LS1 6BR
Gap,LONDON,994,994 #994 #0994,1-7 Shaftesbury Avenue,EG,W1V 7RL
Gap,READING,996,996 #996 #0996,107/108 Broad Street,EG,RG1 2AX
Gap,NORWICH,997,997 #997 #0997,30 London Street,EG,NR2 1LD
Gap,HARROGATE,998,998 #998 #0998,2-6  JAMES STREET,EG,HG1 1RF
Gap,MCLEAN,1001,1001 #1001 #01001,7906LA Tyson's Corner Center,VA,22102
Gap,CHEVY CHASE,1003,1003 #1003 #01003,5430 Wisconsin Ave,MD,20815
Gap,BETHESDA,1007,1007 #1007 #01007,7101 DEMOCRACY BLVD,MD,20817
Gap,WASHINGTON,1009,1009 #1009 #01009,1120 Connecticut Avenue NW,DC,20036
Gap,CHARLOTTESVILLE,1012,1012 #1012 #01012,1534 RIO RD E,VA,22901
Gap,FAIRFAX,1014,1014 #1014 #01014,11750-U FAIR OAKS MALL,VA,22033
Gap,MACON,1015,1015 #1015 #01015,"5080 RIVERSIDE DR., SPACE #226",GA,31210
Gap,WASHINGTON,1022,1022 #1022 #01022,1258 Wisconsin Avenue NW,DC,20007
Gap,ALEXANDRIA,1024,1024 #1024 #01024,622 KING STREET,VA,22314
Gap,RESTON,1025,1025 #1025 #01025,11924 Market St,VA,20190
Gap,ARLINGTON,1027,1027 #1027 #01027,1100 S HAYES ST,VA,22202
Gap,DULLES,1038,1038 #1038 #01038,21100 Dulles Town Circle,VA,20166
Gap,CYPRESS,1040,1040 #1040 #01040,29300 HIGHWAY 290,TX,77433
Gap,NAPA,1042,1042 #1042 #01042,629 FACTORY STORES DRIVE,CA,94558
Gap,SCHENECTADY,1047,1047 #1047 #01047,93 W CAMPBELL ROAD,NY,12306
Gap,TOPEKA,1048,1048 #1048 #01048,1801 SW WANAMAKER ROAD,KS,66604
Gap,LIVERMORE,1050,1050 #1050 #01050,3002 PARAGON OUTLETS DRIVE,CA,94551
Gap,SIOUX CITY,1051,1051 #1051 #01051,5001 Sergeant Road,IA,51106
Gap,SPARKS,1053,1053 #1053 #01053,1350 SCHEELS DRIVE,NV,89434
Gap,AURORA,1055,1055 #1055 #01055,6205 SOUTH MAIN STREET,CO,80016
Gap,OKLAHOMA CITY,1056,1056 #1056 #01056,7630 WEST RENO AVENUE,OK,73127
Gap,COMMERCE,1057,1057 #1057 #01057,100 CITADEL DRIVE,CA,90040
Gap,MONROE,1058,1058 #1058 #01058,131 PREMIUM OUTLET DRIVE,OH,45050
Gap,CAMBRIDGE,1070,1070 #1070 #01070,PINEBUSH ROAD,ON,N1R 8K5
Gap,SCARBOROUGH,1071,1071 #1071 #01071,1900 EGLINTON AVENUE EAST,ON,M1L 2L8
Gap,ROANOKE,1078,1078 #1078 #01078,4802 VALLEY VIEW BLVD NW,VA,24012
Gap,OKLAHOMA CITY,1102,1102 #1102 #01102,2501 West Memorial Road,OK,73134
Gap,OKLAHOMA CITY,1103,1103 #1103 #01103,1901 NW EXPRESSWAY ST,OK,73118
Gap,NORMAN,1105,1105 #1105 #01105,3401 W MAIN ST,OK,73072
Gap,CROYDON,1109,1109 #1109 #01109,House of Fraser,England,CR0 1TY
Gap,LONDON,1112,1112 #1112 #01112,House of Fraser,,SWIE6QX
Gap,LONDON,1113,1113 #1113 #01113,HOUSE OF FRASER,,SW1E6QX
Gap,LONDON,1114,1114 #1114 #01114,"UNIT 72, SOUTHSIDE SHOPPING CENTRE",England,SW184TG
Gap,LONDON,1115,1115 #1115 #01115,"UNIT 72, SOUTHSIDE SHOPPING CENTRE",,SW184TF
Gap,PRESTON,1117,1117 #1117 #01117,"UNIT 5C, CAPITOL RETAIL PARK",,PR5 4AW
Gap,DERBY,1118,1118 #1118 #01118,"3, ALBION STREET",,DE1 2PR
Gap,TELFORD,1119,1119 #1119 #01119,UNIT 15 TELFORD FORGE RETAIL PARK,,TF3 4AG
Gap,TULSA,1120,1120 #1120 #01120,7021 South Memorial Drive,OK,74133
Gap,TULSA,1123,1123 #1123 #01123,1934 Utica Square,OK,74114
Gap,DUBLIN,1126,1126 #1126 #01126,"UNIT 2 / 39, DUNDRUM TOWN CENTRE",Dublin,
Gap,GATESHEAD,1128,1128 #1128 #01128,GAP CONCESSION,,NE119YE
Gap,DUBLIN,1129,1129 #1129 #01129,"UNIT 5, WEST END RETAIL PARK",Dublin,DUBLIN15
Gap,LINCOLN,1130,1130 #1130 #01130,"UNIT 8, ST MARKS CENTRE",,LN5 7EY
Gap,NEWPORT,1131,1131 #1131 #01131,"UNIT 16, NEWPORT RETAIL PARK",,NP191QQ
Gap,GATESHEAD,1132,1132 #1132 #01132,UNIT 7A2,,NE110BD
Gap,PARIS,1139,1139 #1139 #01139,MERCI 111,IDF,75011
Gap,COLCHESTER,1150,1150 #1150 #01150,21-22 Culver St West,,CO1 1LG
Gap,SURREY,1152,1152 #1152 #01152,UNIT 2 KEW RETAIL PARK,EG,TW9 4AD
Gap,BOURNEMOUTH,1153,1153 #1153 #01153,UNIT L WEST MALL CASTLE POINT,EG,BH8 9UY
Gap,EDINBURGH,1161,1161 #1161 #01161,25-30 GYLE CENTER,SC,EH129JT
Gap,PERTH,1162,1162 #1162 #01162,174/175 High Street,SC,PH1 5UH
Gap,DUBLIN,1164,1164 #1164 #01164,12 HENRY STREET,Dublin,
Gap,WALTON ON THAMES,1166,1166 #1166 #01166,"UNIT 16, THE HEART",,KT12IPU
Gap,"SEVENOAKS, KENT",1167,1167 #1167 #01167,5 BLIGH'S WALK,EG,TN131DB
Gap,"BRENTWOOD, ESSEX",1168,1168 #1168 #01168,UNIT SU4c,EG,CM144BX
Gap,LONDON,1170,1170 #1170 #01170,"UNIT 8, THE BRUNSWICK",EG,WC1
Gap,MANSFIELD,1171,1171 #1171 #01171,"UNITS 1 & 2, E MIDLAND DESIGNER OUT",EG,DE552ER
Gap,BANBRIDGE,1172,1172 #1172 #01172,"UNITS 74-78, THE OUTLET",NI,BT324LF
Gap,WATCHUNG,1173,1173 #1173 #01173,1515 US HIGHWAY RT 22,NJ,7069
Gap,KANSAS CITY,1209,1209 #1209 #01209,424 West 47th Street,MO,64112
Gap,WICHITA,1211,1211 #1211 #01211,2110 N ROCK RD,KS,67206
Gap,LAWRENCE,1213,1213 #1213 #01213,643 Massachusetts Street,KS,66044
Gap,MANHATTAN,1220,1220 #1220 #01220,100 MANHATTAN TOWN CTR,KS,66502
Gap,OMAHA,1223,1223 #1223 #01223,10000 California Street,NE,68114
Gap,RICHMOND,1224,1224 #1224 #01224,11800 West Broad Street,VA,23233
Gap,MANHASSET,1227,1227 #1227 #01227,1950 NORTHERN BOULEVARD,NY,11030
Gap,ATLANTA,1302,1302 #1302 #01302,4400 ASHFORD DUNWOODY RD NE,GA,30346
Gap,ATLANTA,1305,1305 #1305 #01305,3393 PEACHTREE RD NE,GA,30326
Gap,KENNESAW,1311,1311 #1311 #01311,400 ERNEST W BARRETT PKWY NW,GA,30144
Gap,ALPHARETTA,1316,1316 #1316 #01316,1082 North Point Circle,GA,30022
Gap,MARIETTA,1319,1319 #1319 #01319,4475 Roswell Road,GA,30062
Gap,BUFORD,1321,1321 #1321 #01321,3333 Buford Drive,GA,30519
Gap,DOUGLASVILLE,1322,1322 #1322 #01322,6700 DOUGLAS BLVD,GA,30135
Gap,PEACHTREE CITY,1326,1326 #1326 #01326,214 City Circle,GA,30269
Gap,COLUMBIA,1401,1401 #1401 #01401,10300 LITTLE PATUXENT PKWY,MD,21044
Gap,ANNAPOLIS,1410,1410 #1410 #01410,1735 ANNAPOLIS MALL,MD,21401
Gap,BALTIMORE,1412,1412 #1412 #01412,8200 Perry Hall Blvd,MD,21236
Gap,BALTIMORE,1418,1418 #1418 #01418,200 East Pratt Street,MD,21202
Gap,FREDERICK,1419,1419 #1419 #01419,5500 Buckeystown Pike,MD,21703
Gap,TOWSON,1421,1421 #1421 #01421,825 Dulaney Valley Road,MD,21204
Gap,ELIZABETHTOWN,1427,1427 #1427 #01427,1944 NORTH DIXIE AVENUE,KY,42701
Gap,PEARL,1439,1439 #1439 #01439,200 BASS PRO DRIVE,MS,39208
Gap,CHICAGO,1454,1454 #1454 #01454,35 NORTH STATE STREET,IL,60602
Gap,CHICAGO,1456,1456 #1456 #01456,3416 N. SOUTHPORT,IL,60657
Gap,HOBOKEN,1457,1457 #1457 #01457,222 WASHINGTON ST,NJ,7030
Gap,FARMINGTON,1491,1491 #1491 #01491,225 N. EAST PROMONTORY,UT,84025
Gap,DALLAS,1501,1501 #1501 #01501,728 NORTHPARK CENTER,TX,75225
Gap,FORT WORTH,1506,1506 #1506 #01506,4800 S HULEN ST,TX,76132
Gap,WACO,1510,1510 #1510 #01510,6001 W Waco Dr,TX,76710
Gap,DALLAS,1515,1515 #1515 #01515,13250 Dallas Parkway,TX,75240
Gap,DALLAS,1519,1519 #1519 #01519,5350 W LOVERS LN,TX,75209
Gap,PLANO,1521,1521 #1521 #01521,1900 Preston Rd.,TX,75093
Gap,ARLINGTON,1522,1522 #1522 #01522,3811 S COOPER ST,TX,76015
Gap,DALLAS,1525,1525 #1525 #01525,10720 Preston Rd,TX,75230
Gap,AMARILLO,1529,1529 #1529 #01529,7701 W INTERSTATE 40,TX,79121
Gap,SOUTHLAKE,1535,1535 #1535 #01535,167 Grand Avenue,TX,76092
Gap,IRVING,1540,1540 #1540 #01540,7601 North MacArthur Blvd.,TX,75063
Gap,MCALLEN,1541,1541 #1541 #01541,2200 South 10th Street,TX,78503
Gap,FRISCO,1543,1543 #1543 #01543,2601 Preston Rd,TX,75034
Gap,DALLAS,1544,1544 #1544 #01544,3699 McKinney Avenue,TX,75204
Gap,BROWNSVILLE,1546,1546 #1546 #01546,2370 N EXPRESSWAY,TX,78526
Gap,HURST,1547,1547 #1547 #01547,1101 MELBOURNE RD,TX,76053
Gap,ARLINGTON,1549,1549 #1549 #01549,1500 North Collins Street,TX,76011
Gap,DALLAS,1550,1550 #1550 #01550,5331 E. Mockingbird Lane,TX,75206
Gap,BURNSVILLE,1602,1602 #1602 #01602,2009 BURNSVILLE CENTER,MN,55306
Gap,EDEN PRAIRIE,1603,1603 #1603 #01603,8251 FLYING CLOUD DR,MN,55344
Gap,ROSEVILLE,1604,1604 #1604 #01604,1016 ROSEDALE SHOPPING CTR,MN,55113
Gap,MINNETONKA,1608,1608 #1608 #01608,12671 Wayzata Boulevard,MN,55305
Gap,BLOOMINGTON,1612,1612 #1612 #01612,210 SOUTH BLVD.,MN,55425
Gap,MINNEAPOLIS,1614,1614 #1614 #01614,80 S 8th St,MN,55402
Gap,FARGO,1615,1615 #1615 #01615,3902 13TH AVE SOUTH,ND,58103
Gap,ROCHESTER,1624,1624 #1624 #01624,333 Apache Mall,MN,55902
Gap,GRAND FORKS,1627,1627 #1627 #01627,2800 S COLUMBIA RD,ND,58201
Gap,VERO BEACH,1633,1633 #1633 #01633,1769 94th Drive,FL,32966
Gap,KANSAS CITY,1634,1634 #1634 #01634,1829 VILLAGE WEST PARKWAY,KS,66111
Gap,ROUND ROCK,1636,1636 #1636 #01636,4401 North Interstate Highgway 35,TX,78664
Gap,OSHKOSH,1638,1638 #1638 #01638,3001 S. Washburn,WI,54904
Gap,CHRISTIANSBURG,1647,1647 #1647 #01647,766 NEW RIVER ROAD,VA,24073
Gap,BOSSIER CITY,1649,1649 #1649 #01649,240 Boardwalk Boulevard,LA,71111
Gap,CARLSBAD,1670,1670 #1670 #01670,5620 Paseo Del Norte,CA,92008
Gap,LAKEWOOD,1671,1671 #1671 #01671,14500 W Colfax Ave,CO,80401
Gap,WILLIAMSBURG,1672,1672 #1672 #01672,5715 Richmond Rd,VA,23188
Gap,TACOMA,1701,1701 #1701 #01701,4502 S STEELE ST,WA,98409
Gap,SEATTLE,1703,1703 #1703 #01703,401 NE NORTHGATE WAY,WA,98125
Gap,TUKWILA,1704,1704 #1704 #01704,1048 SOUTHCENTER MALL,WA,98188
Gap,OLYMPIA,1706,1706 #1706 #01706,625 Black Lake Boulevard,WA,98502
Gap,SEATTLE,1707,1707 #1707 #01707,1530 5th Ave,WA,98101
Gap,BELLEVUE,1709,1709 #1709 #01709,183 BELLEVUE SQ,WA,98004
Gap,SILVERDALE,1711,1711 #1711 #01711,10315 SILVERDALE WAY NW,WA,98383
Gap,BELLINGHAM,1713,1713 #1713 #01713,1 Bellis Fair Parkway,WA,98226
Gap,SEATTLE,1715,1715 #1715 #01715,4625 27th Ave NE,WA,98105
Gap,REDMOND,1716,1716 #1716 #01716,16428 NE 74TH ST,WA,98052
Gap,ANCHORAGE,1717,1717 #1717 #01717,320 W 5TH AVE,AK,99501
Gap,ANCHORAGE,1719,1719 #1719 #01719,800 East Dimond Boulevard,AK,99515
Gap,GROVE CITY,1722,1722 #1722 #01722,1911 LEESBURG GROVE CITY RD,PA,16127
Gap,ORLANDO,1725,1725 #1725 #01725,8228 VINELAND AVENUE,FL,32821
Gap,AUBURN HILLS,1728,1728 #1728 #01728,4742 BALDWIN ROAD,MI,48326
Gap,HAZELWOOD,1729,1729 #1729 #01729,55555 ST. LOUIS MILLS BLVD,MO,63042
Gap,QUEENSTOWN,1730,1730 #1730 #01730,424 OUTLET CENTER DR,MD,21658
Gap,ALBERTVILLE,1740,1740 #1740 #01740,"6415 Labeaux Ave, NE",MN,55301
Gap,TINTON FALLS,1772,1772 #1772 #01772,ONE PREMIUM OUTLETS BLVD,NJ,7753
Gap,LEEDS,1775,1775 #1775 #01775,6200 Grand River Blvd.,AL,35094
Gap,GLENDALE,1784,1784 #1784 #01784,6800 N 95 AVE,AZ,85305
Gap,MRYTLE BEACH,1785,1785 #1785 #01785,4635 Factory Stores Blvd.,SC,29579
Gap,TORONTO,1786,1786 #1786 #01786,900 Dufferin St.,ON,M5H 3R4
Gap,NOVI,1809,1809 #1809 #01809,27482 Novi Road,MI,48377
Gap,ANN ARBOR,1811,1811 #1811 #01811,280 BRIARWOOD CIR,MI,48108
Gap,ROGERS,1819,1819 #1819 #01819,2203 S. PROMENADE BLVD,AR,72758
Gap,FARMINGTON HILLS,1820,1820 #1820 #01820,30825 Orchard Lake Rd.,MI,48334
Gap,LIVONIA,1825,1825 #1825 #01825,37604 6 MILE RD,MI,48152
Gap,TROY,1826,1826 #1826 #01826,2800 West Big Beaver Road,MI,48084
Gap,ROCHESTER HILLS,1829,1829 #1829 #01829,232 N ADAMS RD,MI,48309
Gap,BARABOO WISCONSIN,1832,1832 #1832 #01832,210 GASSER ROAD,WI,53913
Gap,NORTH CHARLESTON,1835,1835 #1835 #01835,4810 TANGER OUTLET BOULEVARD,SC,29418
Gap,AURORA,1837,1837 #1837 #01837,1650 PREMIUM OUTLETS BLVD,IL,60504
Gap,HERSHEY,1839,1839 #1839 #01839,39 OUTLET SQUARE,PA,17033
Gap,LOCUST GROVE,1926,1926 #1926 #01926,1000 TANGER DRIVE,GA,30248
Gap,LAKE ELSINORE,1929,1929 #1929 #01929,17600 COLLIER AVE,CA,92530
Gap,OCEAN CITY,1933,1933 #1933 #01933,12741 Ocean Gateway,MD,21842
Gap,ATLANTIC CITY,1939,1939 #1939 #01939,102 N MICHIGAN AVE,NJ,8401
Gap,AURORA,1981,1981 #1981 #01981,1650 PREMIUM OUTLETS BLVD,IL,60502
Gap,TULALIP,1986,1986 #1986 #01986,10600 Quil Ceda Boulevard,WA,98271
Gap,ESTERO,1988,1988 #1988 #01988,10801 CORKSCREW RD,FL,33928
Gap,BARSTOW,1989,1989 #1989 #01989,2796 TANGER WAY,CA,92311
Gap,MYRTLE BEACH,1991,1991 #1991 #01991,10847 KINGS RD,SC,29572
Gap,BARTLESVILLE,1999,1999 #1999 #01999,2350 SE WASHINGTON BLVD,OK,74006
Gap,INDIANAPOLIS,2002,2002 #2002 #02002,6020 East 82nd Street,IN,46250
Gap,INDIANAPOLIS,2009,2009 #2009 #02009,8702 Keystone Crossing,IN,46240
Gap,EVANSVILLE,2011,2011 #2011 #02011,800 North Green River Road,IN,47715
Gap,INDIANAPOLIS,2013,2013 #2013 #02013,49 West Maryland Street,IN,46204
Gap,MANCHESTER,2019,2019 #2019 #02019,4733-4749 Main Street,VT,5255
Gap,GRAND JUNCTION,2025,2025 #2025 #02025,2424 US Highway 6,CO,81505
Gap,SPALDING,2031,2031 #2031 #02031,"UNIT 49, SPRINGFIELD",England,PE126EU
Gap,MURTON,2032,2032 #2032 #02032,UNIT 53-57,,SP7 9HU
Gap,MERCEDES,2038,2038 #2038 #02038,2100 E. Expressway 83,TX,78570
Gap,PHILADELPHIA,2039,2039 #2039 #02039,1912-18 CHESTNUT ST,PA,19103
Gap,PITTSBURGH,2104,2104 #2104 #02104,424 SOUTH HILLS VILLAGE,PA,15241
Gap,PITTSBURGH,2111,2111 #2111 #02111,5436 Walnut Street,PA,15232
Gap,ROSS,2112,2112 #2112 #02112,1000 Ross Park Mall Drive,PA,15237
Gap,HOMESTEAD,2118,2118 #2118 #02118,137 W BRIDGE ST,PA,15120
Gap,PITTSBURGH,2120,2120 #2120 #02120,100 ROBINSON CENTRE DR,PA,15205
Gap,MARIETTA,2121,2121 #2121 #02121,3625 DALLAS HIGHWAY,GA,30063
Gap,SOUTH PORTLAND,2203,2203 #2203 #02203,364 Maine Mall Road,ME,4106
Gap,BURLINGTON,2211,2211 #2211 #02211,1 MALL RD,MA,1803
Gap,PEABODY,2220,2220 #2220 #02220,210 ANDOVER ST,MA,1960
Gap,BANGOR,2222,2222 #2222 #02222,663 Stillwater Avenue,ME,4401
Gap,CAMBRIDGE,2224,2224 #2224 #02224,15 BRATTLE ST,MA,2138
Gap,NATICK,2226,2226 #2226 #02226,1245 Worcester Rd,MA,1760
Gap,HYANNIS,2227,2227 #2227 #02227,769 IYANNOUGH ROAD,MA,2601
Gap,BOSTON,2233,2233 #2233 #02233,100 HUNTINGTON AVE,MA,2116
Gap,CRANSTON,2237,2237 #2237 #02237,81 Hillside Road,RI,2920
Gap,MASHPEE,2239,2239 #2239 #02239,7 MARKET ST,MA,2649
Gap,BOSTON,2240,2240 #2240 #02240,200 STATE ST,MA,2109
Gap,BROOKLINE,2242,2242 #2242 #02242,306 HARVARD ST,MA,2446
Gap,MANCHESTER,2246,2246 #2246 #02246,1500 S Willow St,NH,3103
Gap,KINGSTON,2249,2249 #2249 #02249,101 Independence Mall,MA,2360
Gap,NEWINGTON,2252,2252 #2252 #02252,50 FOX RUN ROAD,NH,3801
Gap,WELLESLEY,2255,2255 #2255 #02255,74 CENTRAL ST,MA,2482
Gap,CAMBRIDGE,2256,2256 #2256 #02256,100 Cambridgeside Place,MA,2141
Gap,SALEM,2260,2260 #2260 #02260,99 Rockingham Park Blvd.,NH,3079
Gap,SAUGUS,2261,2261 #2261 #02261,1201 BROADWAY,MA,1906
Gap,MARLBOROUGH,2269,2269 #2269 #02269,601 Donald Lynch Blvd.,MA,1752
Gap,PROVIDENCE,2270,2270 #2270 #02270,1 Providence Place,RI,2903
Gap,NORTH DARTMOUTH,2274,2274 #2274 #02274,135 N DARTMOUTH MALL,MA,2747
Gap,AUGUSTA,2276,2276 #2276 #02276,4 STEPHEN KING DR,ME,4330
Gap,SMITHFIELD,2277,2277 #2277 #02277,371 PUTNAM PIKE,RI,2917
Gap,BELLINGHAM,2278,2278 #2278 #02278,249 Hartford Avenue,MA,2019
Gap,CANTON,2279,2279 #2279 #02279,95 Washington Street,MA,2021
Gap,METHUEN,2282,2282 #2282 #02282,90 Pleasant Valley Street,MA,1844
Gap,SWAMPSCOTT,2283,2283 #2283 #02283,450 PARADISE ROAD,MA,1907
Gap,FARMINGTON,2305,2305 #2305 #02305,1500 NEW BRITAIN AVE,CT,6032
Gap,HOLYOKE,2311,2311 #2311 #02311,50 HOLYOKE ST,MA,1040
Gap,MILFORD,2312,2312 #2312 #02312,1201 Boston Post Road,CT,6460
Gap,TRUMBULL,2313,2313 #2313 #02313,5065 Main Street,CT,6611
Gap,STAMFORD,2314,2314 #2314 #02314,100 Greyrock Place,CT,6901
Gap,HAMDEN,2315,2315 #2315 #02315,2165 Dixwell Avenue,CT,6514
Gap,WATERFORD,2316,2316 #2316 #02316,850 Hartford Turnpike,CT,6385
Gap,BEAVER CREEK,2321,2321 #2321 #02321,4403 Juniper Way,OH,45440
Gap,NORWALK,2322,2322 #2322 #02322,467 West Avenue,CT,6850
Gap,AVON,2329,2329 #2329 #02329,380 West Main Street,CT,6001
Gap,SOUTHBURY,2336,2336 #2336 #02336,775 Main Street South,CT,6488
Gap,FAIRFIELD,2337,2337 #2337 #02337,2215 BLACK ROCK TPKE,CT,6825
Gap,WILTON,2339,2339 #2339 #02339,21 RIVER ROAD,CT,6897
Gap,LONGMEADOW,2340,2340 #2340 #02340,690 Bliss Road,MA,1106
Gap,WILLIAMSVILLE,2401,2401 #2401 #02401,4545 Transit Rd,NY,14221
Gap,AMHERST,2403,2403 #2403 #02403,1233 NIAGARA FALLS BLVD,NY,14226
Gap,BLASDELL,2407,2407 #2407 #02407,3701 MCKINLEY PKWY,NY,14219
Gap,CHEEKTOWAGA,2409,2409 #2409 #02409,1 GALLERIA DR,NY,14225
Gap,BRONX,2411,2411 #2411 #02411,845 WHITE PLAINS,NY,10473
Gap,WEST LEBANON,2412,2412 #2412 #02412,250 PLAINFIELD RD,NH,3784
Gap,RAPID CITY,2413,2413 #2413 #02413,1801 EGLIN ST.,SD,57701
Gap,ROSEMONT,2414,2414 #2414 #02414,5220 ROSE ST.,IL,60018
Gap,GRETNA,2415,2415 #2415 #02415,14333 S. HIGHWAY 31,NE,68028
Gap,BURBANK,2416,2416 #2416 #02416,301 N. SAN FERNANDO BLVD.,CA,91502
Gap,MERIDIAN,2417,2417 #2417 #02417,2130 N. EAGLE RD,ID,83642
Gap,ST. GEORGE,2418,2418 #2418 #02418,"15 SOUTH RIVER ROAD, SUITE 250",UT,84790
Gap,OGDEN,2419,2419 #2419 #02419,4071 RIVERDALE ROAD,UT,84405
Gap,TILLICOULTRY,2420,2420 #2420 #02420,Units 24-27,,FK136HQ
Gap,SALFORD,2421,2421 #2421 #02421,Units G18-G19,,M50 3AH
Gap,FLEETWOOD,2422,2422 #2422 #02422,UNIT H2A,,FY7 6AE
Gap,STOKE-ON-TRENT,2423,2423 #2423 #02423,UNITS 1-4,,ST7 1XD
Gap,EBBW VALE,2424,2424 #2424 #02424,Units 30-31,,NP238FP
Gap,WEST BROMWICH,2425,2425 #2425 #02425,Unit 9B,,B70 8NS
Gap,BIDEFORD,2426,2426 #2426 #02426,UNITS 20-21,,EX393QU
Gap,FREDERICTON,2427,2427 #2427 #02427,11 Trinity Drive,NB,E3C 0A4
Gap,CHARLOTTETOWN,2428,2428 #2428 #02428,80 BUCHANAN DRIVE,PE,C1E 1E5
Gap,ALLEN PARK,2429,2429 #2429 #02429,3160 FAIRLANE DRIVE,MI,48101
Gap,WORCESTER,2432,2432 #2432 #02432,525 LINCOLN STREET,MA,1605
Gap,WAIPAHU,2434,2434 #2434 #02434,94- 821 LUMIAINA ST. STE. 6,HI,96797
Gap,SOUTHAVEN,2478,2478 #2478 #02478,GOODMAN ROAD AND AIRWAYS BLVD,MS,38671
Gap,NEW YORK,2479,2479 #2479 #02479,264 W. 125TH STREET,NY,10027
Gap,BELLEVILLE,2480,2480 #2480 #02480,390 NORTH FRONT ST.,ON,K8P 3E1
Gap,MANTECA,2482,2482 #2482 #02482,280 LIFESTYLE ST,CA,95337
Gap,NATIONAL HARBOR,2483,2483 #2483 #02483,6800 OXON HILL RD,MD,20745
Gap,VESTAL,2485,2485 #2485 #02485,2505 VESTAL PARKWAY EAST,NY,13850
Gap,CHANDLER,2488,2488 #2488 #02488,4976 PREMIUM OUTLETS WAY,AZ,85226
Gap,STE-DOROTHEE,2489,2489 #2489 #02489,2420 AUTOROUTE CHOMEDEY,QC,H7X 4G8
Gap,VAUDREUIL-DORION,2490,2490 #2490 #02490,3150 BOULEVARD DE LA GARE,QC,J7V 0J5
Gap,CORPUS CHRISTI,2491,2491 #2491 #02491,5425 SOUTH PADRE ISLAND DRIVE,TX,78411
Gap,CENTRALIA,2492,2492 #2492 #02492,1342 LUM ROAD,WA,98531
Gap,LETHBRIDGE,2493,2493 #2493 #02493,3710 MAYOR MAGRATH DRIVE S.,AB,T1K 7V1
Gap,SASKATOON,2494,2494 #2494 #02494,1718 PRESTON AVE NORTH,SK,S7N 4Y1
Gap,DENVER,2514,2514 #2514 #02514,3000 E 1ST AVE,CO,80206
Gap,BILLINGS,2518,2518 #2518 #02518,300 South 24th Street West,MT,59102
Gap,LONE TREE,2520,2520 #2520 #02520,8405 PARK MEADOWS CENTER DR,CO,80124
Gap,MISSOULA,2522,2522 #2522 #02522,2901 BROOKS ST,MT,59801
Gap,BOISE,2524,2524 #2524 #02524,350 N MILWAUKEE ST,ID,83704
Gap,LITTLETON,2529,2529 #2529 #02529,7301 So. Santa Fe Drive,CO,80120
Gap,ORLANDO,2532,2532 #2532 #02532,8225 VINELAND AVE,FL,32821
Gap,BOSSARD,2533,2533 #2533 #02533,9160 BOUL LEDUC,QC,J4Y 0L2
Gap,SAINT CLOUD,2535,2535 #2535 #02535,3959 2ND STREET SOUTH,MN,56301
Gap,COLUMBIA,2536,2536 #2536 #02536,421 N. STADIUM BLVD,MO,65203
Gap,HALTON HILLS,2538,2538 #2538 #02538,13850 STEELES AVENUE,ON,L7G 5G2
Gap,SAINT JOHN,2539,2539 #2539 #02539,15 FASHION DRIVE,NB,E2J 2G2
Gap,COLORADO SPRINGS,2541,2541 #2541 #02541,1710 Briargate Blvd,CO,80920
Gap,DENVER,2542,2542 #2542 #02542,500 16th Street,CO,80202
Gap,BROOMFIELD,2543,2543 #2543 #02543,1 W Flatiron Cir,CO,80021
Gap,CHESTERFIELD,2545,2545 #2545 #02545,17017 NORTH OUTER FORTY,MO,63005
Gap,COLUMBUS,2548,2548 #2548 #02548,NORTH COLUMBUS BYPASS,GA,31909
Gap,JACKSON,2549,2549 #2549 #02549,1253 VANN DRIVE,TN,38305
Gap,WESTBURY,2550,2550 #2550 #02550,1060A Old Country Road,NY,11590
Gap,AMES,2554,2554 #2554 #02554,2525 GRAND AVE,IA,50010
Gap,BROOKLYN,2556,2556 #2556 #02556,423 86th Street,NY,11209
Gap,TUPELO,2558,2558 #2558 #02558,3834 MARKET CENTER DRIVE,MS,38804
Gap,BOZEMAN,2559,2559 #2559 #02559,1620 NORTH 19TH AVE,MT,59718
Gap,KAMLOOPS,2562,2562 #2562 #02562,1320 WEST TRANS CANADA HIGHWAY,BC,V1S 1J2
Gap,OTTAWA,2563,2563 #2563 #02563,2210 BANK STREET,ON,K1V 1J5
Gap,BEACHWOOD,2608,2608 #2608 #02608,26300 Cedar Road,OH,44122
Gap,STRONGSVILLE,2615,2615 #2615 #02615,820 SOUTHPARK CTR,OH,44136
Gap,ALBUQUERQUE,2619,2619 #2619 #02619,2240 Q Street NE,NM,87110
Gap,YORK,2710,2710 #2710 #02710,22-24 Davygate,EG,Y01 8RJ
Gap,OXFORD,2717,2717 #2717 #02717,52 Cornmarket Street,EG,OX1 3JE
Gap,STOKE ON TRENT,2718,2718 #2718 #02718,The Potteries,EG,ST1 1PS
Gap,READING,2720,2720 #2720 #02720,"UNITS 44&45, 44 THE TOWN MALL WALK",EG,RG1 2AH
Gap,STAINES,2721,2721 #2721 #02721,NORRIS ROAD,EG,TW184UP
Gap,LEICESTER,2722,2722 #2722 #02722,UNIT 5,EG,LE3 2HX
Gap,EDINBURGH,2724,2724 #2724 #02724,84/84A Princes Street,SC,EH2 2ER
Gap,GLASGOW,2726,2726 #2726 #02726,87/91 Argyle Street,SC,G28BJ
Gap,IPSWICH,2728,2728 #2728 #02728,21/21A Westgate St,EG,IP1 3DR
Gap,PERTH,2730,2730 #2730 #02730,174/175 High Street,SC,PH1 5JS
Gap,CHELMSFORD,2735,2735 #2735 #02735,15-18 High Street,EG,CM1 1BE
Gap,UXBRIDGE,2736,2736 #2736 #02736,Units 31-32 The Chimes,EG,UB8 1LB
Gap,"DUDLEY,WEST MIDLANDS",2737,2737 #2737 #02737,UNITS 80-81 MERRY HILL,EG,DY5 1QX
Gap,BIRMINGHAM,2743,2743 #2743 #02743,Bullring Shopping Centre,EG,B54BG
Gap,LONDON,2744,2744 #2744 #02744,376/384 Oxford St,EG,W1C 1JY
Gap,ABERDEEN,2746,2746 #2746 #02746,7-21a St Nicholas St,SC,AB10IHE
Gap,HONOLULU,2750,2750 #2750 #02750,1450 ALA MOANA BLVD,HI,96814
Gap,MAUI,2756,2756 #2756 #02756,3750 WAILEA ALANUI DR,HI,96753
Gap,OMAHA,2760,2760 #2760 #02760,17304 Davenport Street,NE,68118
Gap,LIVERPOOL,2762,2762 #2762 #02762,20-22 SOUTH JOHN STREET,,L18BJ
Gap,LONDON,2763,2763 #2763 #02763,UNIT 2,EG,EC3V0BG
Gap,CORK,2764,2764 #2764 #02764,UNIT 1,Laois,
Gap,HIGH WYCOMBE,2768,2768 #2768 #02768,24 NEWLAND MEADOW,,HP112BZ
Gap,BASINGSTOKE,2772,2772 #2772 #02772,QUEEN ANNE'S WALK,EG,RG217BF
Gap,ROMFORD,2773,2773 #2773 #02773,The Brewery,EG,RM1 1JL
Gap,LONDON,2775,2775 #2775 #02775,50 Finsbury Square,EG,EC2A1HD
Gap,EDINBURGH,2776,2776 #2776 #02776,Gyle Shopping Centre,SC,EH129JR
Gap,COVENTRY,2782,2782 #2782 #02782,6B CENTRAL SIX FASHION PARK,EG,CV3 6TA
Gap,LEEDS,2783,2783 #2783 #02783,Birstall,EG,WF179AD
Gap,OXON,2788,2788 #2788 #02788,UNITS 38 & 39 CASTLE QUAY S/C,EG,OX165UW
Gap,LEAMINGTON SPA,2793,2793 #2793 #02793,Royal Priors Shopping Centre,EG,CV324XT
Gap,PORTLAND,2801,2801 #2801 #02801,1222 Lloyd Ctr,OR,97232
Gap,PORTLAND,2806,2806 #2806 #02806,700 S.W. 5th Avenue,OR,97204
Gap,MEDFORD,2809,2809 #2809 #02809,1600 N Riverside Ave,OR,97501
Gap,HILLSBORO,2810,2810 #2810 #02810,19346 NW EMMA WAY,OR,97124
Gap,EUGENE,2820,2820 #2820 #02820,219 VALLEY RIVER CTR,OR,97401
Gap,BEND,2822,2822 #2822 #02822,545 SW Powerhouse Dr,OR,97702
Gap,GLENDALE,2907,2907 #2907 #02907,401 WEST NORTH SHORE DRIVE,WI,53217
Gap,EAU CLAIRE,2909,2909 #2909 #02909,4800 Golf Road,WI,54701
Gap,LA CROSSE,2910,2910 #2910 #02910,3800 STATE ROAD 16,WI,54601
Gap,WAUSAU,2914,2914 #2914 #02914,B 236 WAUSAU CENTER MALL,WI,54403
Gap,MADISON,2916,2916 #2916 #02916,341 State Street,WI,53703
Gap,MILLBURY,2918,2918 #2918 #02918,70 Worcester Providence Turnpike,MA,1527
Gap,MAUMEE,2919,2919 #2919 #02919,3100 MAIN STREET,OH,43537
Gap,DEER PARK,2922,2922 #2922 #02922,701 THE ARCHES CIRCLE,NY,11729
Gap,SUDBURY,2923,2923 #2923 #02923,1599 MARCUS DRIVE,ON,P3B 4K6
Gap,AJAX,2924,2924 #2924 #02924,100 KINGSTON ROAD EAST,ON,L1Z 1E9
Gap,SANTA FE,3006,3006 #3006 #03006,4250 CERRILLOS RD,NM,87507
Gap,RANCHO CUCAMONGA,3013,3013 #3013 #03013,12558 North MAINSTREET,CA,91739
Gap,CINCINNATI,3104,3104 #3104 #03104,7875 Montgomery Road,OH,45236
Gap,HEBRON,3111,3111 #3111 #03111,2050 Global Way,KY,41048
Gap,CINCINNATI,3112,3112 #3112 #03112,2659 EDMONDSON RD,OH,45209
Gap,VICTOR,3201,3201 #3201 #03201,216 Eastview Mall,NY,14564
Gap,ROCHESTER,3203,3203 #3203 #03203,541 Miracle Mile Dr,NY,14623
Gap,MAPLE GROVE,3206,3206 #3206 #03206,12129 ELM CREEK BLVD.,MN,55369
Gap,YOKOHAMA,3209,3209 #3209 #03209,5-2 SHIRAHO,Kanagawa Prefecture,00236-0007
Gap,NAGOYA,3210,3210 #3210 #03210,2-1-6 SINAGAWA,Aichi Prefecture,00455-0055
Gap,INBA,3211,3211 #3211 #03211,"689 IIZUMI, SHISUI",Chiba Prefecture,00285-0900
Gap,TOKI,3235,3235 #3235 #03235,1-2 TOKIGAOKA,Gifu Prefecture,00509-5122
Gap,KOBE,3236,3236 #3236 #03236,7-3 KOZUDAI,Hyogo Prefecture,00651-1515
Gap,TOSU,3237,3237 #3237 #03237,8-1 YAYOIGAOKA,Saga Prefecture,00841-0005
Gap,NASUSHIOBARA,3238,3238 #3238 #03238,184-7 SHINOZAKI,Tochigi Prefecture,00329-3122
Gap,SANO,3239,3239 #3239 #03239,2078 KOSHINA,Shizuoka Prefecture,00327-0822
Gap,INASHIKI,3240,3240 #3240 #03240,"2700 YOSHIWARA, AMI",Ibaraki Prefecture,00300-1155
Gap,CHITOSE,3241,3241 #3241 #03241,1-2-1 KASHIWADAIMINAMI,Hokkaido Prefecture,668765
Gap,GAMO,3242,3242 #3242 #03242,"1178-694 OAZA KUZUSHI, AZASUNAYAMA",Shiga Prefecture,00520-2551
Gap,SENDAI,3243,3243 #3243 #03243,123 NAKANO DEBANA,Miyagi Prefecture,00983-0013
Gap,FUKUOKA,3244,3244 #3244 #03244,2-14-37 Odo,Fukuoka Prefecture,00819-0001
Gap,KITASAKU,3245,3245 #3245 #03245,"NEW EAST, KARUIZAWA, KARUIZAWA",Fukushima Prefecture,00389-0102
Gap,KUWANA,3246,3246 #3246 #03246,"368 URAYASU, NAGASHIMA",Chiba Prefecture,00511-1135
Gap,KURASHIKI,3247,3247 #3247 #03247,12-1 KOTOBUKI,Okayama Prefecture,00710-0813
Gap,TOMIGUSUKU,3248,3248 #3248 #03248,1-188 TOYOSAKI,Okinawa Prefecture,00901-0225
Gap,KISARAZU,3249,3249 #3249 #03249,398 NAKAJIMA,Chiba Prefecture,00292-0008
Gap,EDMONTON,3270,3270 #3270 #03270,1414 PARSONS ROAD NW,AB,T6N 0B5
Gap,VAUGHAN,3273,3273 #3273 #03273,1 BASS PRO MILLS DRIVE,ON,L4K 5W4
Gap,ROCKY VIEW,3274,3274 #3274 #03274,261055 CROSS IRON BLVD,AB,T4A 0G3
Gap,GOTENBA,3275,3275 #3275 #03275,1312 FUKUZAWA,Shizuoka Prefecture,00412-0023
Gap,IZUMISANO,3276,3276 #3276 #03276,3-28 RINKU ORAI MINAMI,Osaka Prefecture,00598-0047
Gap,DAYTON,3302,3302 #3302 #03302,2700 MIAMISBURG CENTERVILLE RD,OH,45459
Gap,DUBLIN,3356,3356 #3356 #03356,5043 Tuttle Crossing Blvd.,OH,43016
Gap,COLUMBUS,3357,3357 #3357 #03357,4000 EASTON STA,OH,43219
Gap,COLUMBUS,3361,3361 #3361 #03361,1500 Polaris Parkway,OH,43240
Gap,TUCSON,3402,3402 #3402 #03402,5870 E BROADWAY BLVD,AZ,85711
Gap,TUCSON,3403,3403 #3403 #03403,4500 N ORACLE RD,AZ,85705
Gap,HULL,3604,3604 #3604 #03604,"UNIT 5C, KINGSTON RETAIL PARK",,HU1 2TX
Gap,SHIBUYA,3614,3614 #3614 #03614,19-3 UDAGAWA,Tokyo,00150-0042
Gap,FUNABASHI,3615,3615 #3615 #03615,"NORTH 1F, 2-1-1 HAMAMACHI",Chiba Prefecture,00273-0012
Gap,SHINJUKU,3616,3616 #3616 #03616,"1F/B1F, 3-37-1 SHINJUKU",Tokyo,00160-0022
Gap,SETAGAYA,3618,3618 #3618 #03618,"MAST BLDG 1F, 5-26-16 OKUSAWA",Tokyo,00158-0083
Gap,FUKUOKA,3619,3619 #3619 #03619,"3F, 2-1-1 TENJIN",Fukuoka Prefecture,00810-0001
Gap,YOKOHAMA,3622,3622 #3622 #03622,"1F,CHIGASAKICHUO",Kanagawa Prefecture,00224-0032
Gap,TOSHIMA,3624,3624 #3624 #03624,"2F,HIGASHIIKEBUKURO",Gunma Prefecture,00170-6091
Gap,OSAKA,3625,3625 #3625 #03625,"2F, 5-15 KAKUDA",Osaka Prefecture,00530-0017
Gap,TOKYO,3627,3627 #3627 #03627,"TOKYU MACHIDA 4F, HARAMACHIDA",Tokyo,00194-8501
Gap,MUSASHINO,3629,3629 #3629 #03629,2-13 KICHIJOJI-HONCHO,Tokyo,00180-0004
Gap,KAWASAKI,3630,3630 #3630 #03630,"TX 5F, 3-16 SUEHIRO",Chiba Prefecture,00277-8666
Gap,OKAYAMA,3631,3631 #3631 #03631,"2F, 1-8-45 NAKASANGE",Okayama Prefecture,00700-0821
Gap,KAWASAKI,3633,3633 #3633 #03633,"4F, 1-4-1 MIZONOKUCHI",Kanagawa Prefecture,00213-0001
Gap,YOKOHAMA,3634,3634 #3634 #03634,"4F, 537-1 SHINANO",Osaka Prefecture,00244-8534
Gap,FUKUOKA,3639,3639 #3639 #03639,"3F, 1-2 SUMIYOSHI",Fukuoka Prefecture,00812-0018
Gap,YOKOHAMA,3640,3640 #3640 #03640,"4F, 2-2-1 MINATOMIRAI",Aichi Prefecture,00220-8172
Gap,MINATO,3641,3641 #3641 #03641,"3F, 1-7-1 DAIBA",Tokyo,00135-0091
Gap,URAYASU,3642,3642 #3642 #03642,"2F, 1-4 MAIHAMA",Hokkaido Prefecture,00279-8529
Gap,OSAKA,3643,3643 #3643 #03643,NIHONSEIMEI SHINSAIBASHI BLDG,Osaka Prefecture,00542-0081
Gap,TAITO,3645,3645 #3645 #03645,6-15-1 UENO,Tokyo,00110-8502
Gap,KOKUBUNJU,3646,3646 #3646 #03646,"5F, 3-20-3,MINAMI",Tokyo,00185-0021
Gap,SHIKI,3648,3648 #3648 #03648,"2F, 5-26-1 HONCHO",Saitama Prefecture,00353-0004
Gap,ODAWARA,3651,3651 #3651 #03651,"WEST 1F, NAKAZATO",Kanagawa Prefecture,00250-0872
Gap,KOBE,3653,3653 #3653 #03653,"FUTURE PLAZA, 1-7-5 SANNOMIYA",Hyogo Prefecture,00650-0021
Gap,NAGOYA,3654,3654 #3654 #03654,3-27-13 SAKAE,Aichi Prefecture,00460-0008
Gap,HIROSHIMA,3656,3656 #3656 #03656,"SHINKAN 2F/1F, KUSATU SHINMACHI",Hiroshima Prefecture,00733-0834
Gap,OKAZAKI,3658,3658 #3658 #03658,"1F, 38-5 SOTOYAMA, TOZAKI",Kanagawa Prefecture,00444-0840
Gap,YOKOHAMA,3659,3659 #3659 #03659,1-32 MOTOMACHI,IDF,00231-0861
Gap,NAGASAKI,3660,3660 #3660 #03660,"2F, 1-1 ONOUEMACHI",Nagasaki Prefecture,00850-0058
Gap,TACHIKAWA,3661,3661 #3661 #03661,"5F, 3-2-1 SHIBASAKI",Saitama Prefecture,00190-8554
Gap,KAWASAKI,3667,3667 #3667 #03667,"2F, 1-19 KAMIASO",Kanagawa Prefecture,00215-0021
Gap,IBARAKI,3668,3668 #3668 #03668,"1F, 8-30 MATSUGAMOTO",Osaka Prefecture,00567-0033
Gap,TOSHIMA,3670,3670 #3670 #03670,"B1F, NISHIIKEBUKURO",Tokyo,00171-0021
Gap,SUMIDA,3671,3671 #3671 #03671,"4F, 3-9 KOTOBASHI",Tokyo,00130-0022
Gap,MUSASHINO,3675,3675 #3675 #03675,"5F, 1-7-1 MINAMIMACHI",Saitama Prefecture,00180-8552
Gap,SAGAMIHARA,3676,3676 #3676 #03676,"2F, 3-28-1 HASHIMOTO",Aichi Prefecture,00229-1103
Gap,NAGOYA,3677,3677 #3677 #03677,"1F, 14-35 HOSHIGAOKA MOTOMACHI",Aichi Prefecture,00464-0802
Gap,SAITAMA,3680,3680 #3680 #03680,"7F, 2-3 SAKURAGI",Ishikawa Prefecture,00330-0854
Gap,MACHIDA,3684,3684 #3684 #03684,3-4-1 TSURUMA,TN,00194-8509
Gap,OITA,3685,3685 #3685 #03685,"1F, 2-1 KOENDORINISHI",Aichi Prefecture,00870-0174
Gap,TOYONAKA,3688,3688 #3688 #03688,"1F, SHINSENRIHIGASHI",Osaka Prefecture,00560-0082
Gap,SAPPORO,3689,3689 #3689 #03689,"JR TOWER EAST 1F, 2-5 KITA 5 NISHI",Hokkaido Prefecture,600005
Gap,EBINA,3690,3690 #3690 #03690,"4F, 1-6-1 CHUO",Kanagawa Prefecture,00243-0432
Gap,SAKAI,3691,3691 #3691 #03691,"HONKAN 3F, 1-3-1 CHAYAMADAI",Osaka Prefecture,00590-0015
Gap,YOKOHAMA,3692,3692 #3692 #03692,"8F, 2-19-2 TAKASHIMA",Kanagawa Prefecture,00220-0011
Gap,HIROSHIMA,3694,3694 #3694 #03694,"HIROSHIMA PARCOSHINKAN4F,SHINTENCHI",Hiroshima Prefecture,00730-0034
Gap,ASAHIKAWA,3695,3695 #3695 #03695,"1F, 23-2161-3 MIDORI",Tochigi Prefecture,700823
Gap,ICHINOMIYA,3696,3696 #3696 #03696,"25-1 MINAMIYATSUGAIKE,  KURODA",Aichi Prefecture,00493-0001
Gap,ADACHI,3697,3697 #3697 #03697,"5F, 3-92 SENJU",Tokyo,00120-8501
Gap,SAITAMA,3699,3699 #3699 #03699,"2F, 4-267-2 KISHIKI",Aichi Prefecture,00330-0843
Gap,FAIRLAWN,3701,3701 #3701 #03701,3265 W MARKET ST,OH,44333
Gap,HUDSON,3703,3703 #3703 #03703,98 North Main Street,OH,44236
Gap,SENDAI,3705,3705 #3705 #03705,"B1F/1F/2F, 3-1 ICHIBAN",Kyoto Prefecture,00980-0811
Gap,KAGOSHIMA,3706,3706 #3706 #03706,"3F, 1-1 CHUO",Kagoshima Prefecture,00890-0053
Gap,HAMAMATSU,3707,3707 #3707 #03707,5605 SHITORO,JP,00432-8066
Gap,HIRAKATA,3718,3718 #3718 #03718,"1F, 15-1 KUZUHAHANAZONO",Saitama Prefecture,00573-1121
Gap,KITAKYUSHU,3719,3719 #3719 #03719,"1F, 1-1-1 MUROMACHI",IDF,00803-0812
Gap,MIYAZAKI,3720,3720 #3720 #03720,"1F, 862-1 EGUCHI, SHINBEPPU",Fukuoka Prefecture,00880-0834
Gap,KAWAGUCHI,3722,3722 #3722 #03722,"1F, 1-1-11 MAEKAWA",Gunma Prefecture,00333-0824
Gap,FUKUYAMA,3723,3723 #3723 #03723,"1F, 1-1-1 NISHIMACHI",Hiroshima Prefecture,00720-0067
Gap,YOKOHAMA,3724,3724 #3724 #03724,"3F,KAMIOOKANISHI",Kanagawa Prefecture,00233-8556
Gap,INZAI,3725,3725 #3725 #03725,"MALL-TOU 2F, 3-2 CHUO-KITA",Kanagawa Prefecture,00270-1392
Gap,SAITAMA,3726,3726 #3726 #03726,"1F, 3-1-1 DAIMON",Saitama Prefecture,00336-0963
Gap,ITAMI,3728,3728 #3728 #03728,"1F, 1-1-1 FUJINOKI",IDF,00664-0847
Gap,KAWASAKI,3732,3732 #3732 #03732,"3F, 72-1 HORIKAWA",Kanagawa Prefecture,00212-0013
Gap,KOTO,3733,3733 #3733 #03733,"NORTH 1F, 2-4-9 TOYOSU",Tokyo,00135-8614
Gap,OSAKA,3734,3734 #3734 #03734,4-17-1 TSURUMI,Osaka Prefecture,00538-0053
Gap,KANAZAWA,3735,3735 #3735 #03735,3-1  HORIKAWA-SHINMACHI,Tochigi Prefecture,00920-0849
Gap,YOKOHAMA,3736,3736 #3736 #03736,"2F, 1-5-1 MINAMISAIWAI",Kanagawa Prefecture,00220-0005
Gap,MUSASHIMURAYAMA,3737,3737 #3737 #03737,"1F, 1-1-3 ENOKI",Tokyo,00208-0022
Gap,TAKASAKI,3739,3739 #3739 #03739,1400 MUNADAKA,Kanagawa Prefecture,00370-3521
Gap,YOKOHAMA,3740,3740 #3740 #03740,"NORTH 2F, 4035-1 IKEBE",Kanagawa Prefecture,00224-0053
Gap,NIIGATA,3741,3741 #3741 #03741,1-5-1 BANDAI,Niigata Prefecture,00950-0088
Gap,KYOTO,3742,3742 #3742 #03742,"344 SHIOYA, TAKOYAKUSHIKUDARU",Tokushima Prefecture,00604-8027
Gap,SHINAGAWA,3747,3747 #3747 #03747,1-2-1 OOI,Tokyo,00140-0014
Gap,KAWAGOE,3748,3748 #3748 #03748,"ANNEX D 1F/2F, 2-6-1 SHINTOMI",Tokyo,00350-8511
Gap,KOSHIGAYA,3749,3749 #3749 #03749,"KAZE A105, 4-21-1 AZUMA",Saitama Prefecture,00343-0826
Gap,YOKOHAMA,3752,3752 #3752 #03752,"1F, 1-1-2 UTSUKUSHIGAOKA",Kanagawa Prefecture,00225-8535
Gap,SHIBUYA,3753,3753 #3753 #03753,1-14-27 JINGU-MAE,Tokyo,00151-0001
Gap,CHUO,3754,3754 #3754 #03754,4-2-11 GINZA,Tokyo,00104-0061
Gap,IYO,3755,3755 #3755 #03755,"850 TSUTSUI, MASAKI",Ehime Prefecture,00791-3120
Gap,KASHIHARA,3756,3756 #3756 #03756,7-20-1 MAGARIKAWA,Nara Prefecture,00634-0837
Gap,SHIZUOKA,3757,3757 #3757 #03757,1-1 TAKAJO,IDF,00420-8508
Gap,FUJISAWA,3758,3758 #3758 #03758,"2F, 1-2-1 TSUJIDOKANDAI",Kanagawa Prefecture,00251-0041
Gap,TSUKUBA,3761,3761 #3761 #03761,"2F, 1-6-1 AZUMA",Ibaraki Prefecture,00305-0031
Gap,SETAGAYA,3762,3762 #3762 #03762,MARRONIER COURT 1F/2F,Tokyo,00158-0094
Gap,UTSUNOMIYA,3763,3763 #3763 #03763,4-1-3 INTER PARK,Tochigi Prefecture,00321-0013
Gap,UTSUNOMIYA,3764,3764 #3764 #03764,"2F, 1-4-6 EKIMAEDORI",Tochigi Prefecture,00321-0964
Gap,NISHINOMIYA,3766,3766 #3766 #03766,"1F, 8-1-100 KOSHIEN",Hyogo Prefecture,00663-8178
Gap,KUMAMOTO,3767,3767 #3767 #03767,"TSURUYA WING1F,TEDORIHONCHO",Kumamoto Prefecture,00860-8586
Gap,OSAKA,3768,3768 #3768 #03768,"3F, 1-2-30 ABENOSUJI",Osaka Prefecture,00545-0052
Gap,MORIOKA,3770,3770 #3770 #03770,"1F, 4-7-1 MAEGATA",Iwate Prefecture,200143
Gap,FRESNO,3801,3801 #3801 #03801,607 E Shaw Ave,CA,93710
Gap,SHINJUKU,3813,3813 #3813 #03813,3-14-1 SHINJUKU,Tokyo,00160-0022
Gap,TOSHIMA,3824,3824 #3824 #03824,"2F,HIGASHIIKEBUKURO",Tokyo,00170-6091
Gap,MACHIDA,3827,3827 #3827 #03827,"4F, HARAMACHIDA",Tokyo,00194-8501
Gap,YOKOHAMA,3834,3834 #3834 #03834,"4F, 537-1 SHINANO",Fukuoka Prefecture,00244-8534
Gap,YOKOHAMA,3840,3840 #3840 #03840,"4F, 2-2-1 MINATOMIRAI",Kanagawa Prefecture,00220-8172
Gap,URAYASU,3842,3842 #3842 #03842,"2F, 1-4 MAIHAMA",Chiba Prefecture,00279-8529
Gap,KOKUBUNJI,3846,3846 #3846 #03846,"5F, 3-20-3 MINAMI",Tokyo,00185-0021
Gap,YOKOHAMA,3859,3859 #3859 #03859,1-32 MOTOMACHI,Kanagawa Prefecture,00231-0861
Gap,TACHIKAWA,3861,3861 #3861 #03861,"5F, 3-2-1 SHIBASAKI",Kyoto Prefecture,00190-8554
Gap,MUSASHINO,3875,3875 #3875 #03875,"5F, 1-7-1 MINAMIMACHI",Tokyo,00180-8552
Gap,SAGAMIHARA,3876,3876 #3876 #03876,"2F, 3-28-1 HASHIMOTO",Kanagawa Prefecture,00229-1103
Gap,NAGOYA,3877,3877 #3877 #03877,"2F, 14-35 HOSHIGAOKO MOTOMACHI",Chiba Prefecture,00464-0802
Gap,SAITAMA,3880,3880 #3880 #03880,"7F, 2-3 SAKURAGI",Saitama Prefecture,00330-0854
Gap,MACHIDA,3884,3884 #3884 #03884,3-4-1 TSURUMA,Tokyo,00194-8509
Gap,OITA,3885,3885 #3885 #03885,"1F, 2-1 KOENDORINISHI",Oita Prefecture,00870-0174
Gap,ASAHIKAWA,3895,3895 #3895 #03895,"1F, 23-2161-3 MIDORI",Akita Prefecture,700823
Gap,SAITAMA,3899,3899 #3899 #03899,"2F, 4-267-2 KISHIKI",Saitama Prefecture,00330-0843
Gap,CHATTANOOGA,3903,3903 #3903 #03903,2100 Hamilton Place Blvd.,TN,37421
Gap,SENDAI,3905,3905 #3905 #03905,"B1F/1F/2F, 3-1 ICHIBAN",Shizuoka Prefecture,00980-0811
Gap,KITAKYUSHU,3919,3919 #3919 #03919,"1F, 1-1-1 MUROMACHI",Fukuoka Prefecture,00803-0812
Gap,MIYAZAKI,3920,3920 #3920 #03920,"1F, 862-1 EGUCHI, SHINBEPPU",Miyagi Prefecture,00880-0834
Gap,KAWAGUCHI,3922,3922 #3922 #03922,"1F, 1-1-11 MAEKAWA",Saitama Prefecture,00333-0824
Gap,INZAI,3925,3925 #3925 #03925,"MALL-TOU 2F, 3-2 CHUO-KITA",Chiba Prefecture,00270-1392
Gap,TAKAMATSU,3927,3927 #3927 #03927,TAKAMATSU MARUGAME ICHIBANGAI E-2F,Kagawa Prefecture,00760-0029
Gap,ITAMI,3928,3928 #3928 #03928,"1F, 1-1-1 FUJINOKI",Hyogo Prefecture,00664-0847
Gap,CHIBA,3929,3929 #3929 #03929,"FUNABASHI TOBU 5F, 7-1-1 HONCHO",Chiba Prefecture,00273-8567
Gap,CHIBA,3930,3930 #3930 #03930,"6F, 1000 SHINAMACHI",Chiba Prefecture,00260-8557
Gap,SHIZUOKA,3931,3931 #3931 #03931,"7F, 1-7 GOFUKU",Shizuoka Prefecture,00420-0031
Gap,KANAZAWA,3935,3935 #3935 #03935,3-1  HORIKAWA-SHINMACHI,Nagano Prefecture,00920-0849
Gap,KYOTO,3938,3938 #3938 #03938,"5F 52 NISHIRUSHIN, KAWARAMACHI",Tokushima Prefecture,00600-8520
Gap,TAKASAKI,3939,3939 #3939 #03939,1400 MUNADAKA,Chiba Prefecture,00370-3521
Gap,SHIBUYA,3943,3943 #3943 #03943,"9F, 5-24-2 SENDAGAYA",Tokyo,00151-8580
Gap,SAPPORO,3944,3944 #3944 #03944,"ODORIKAN 8F, MINAMI 1 NISHI 2",Hokkaido Prefecture,600061
Gap,OSAKA,3945,3945 #3945 #03945,3-1-1 UMEDA,Osaka Prefecture,00530-8202
Gap,SHIBUYA,3946,3946 #3946 #03946,"7F, 2-24-1 SHIBUYA",Tokyo,00150-8319
Gap,KAWAGOE,3948,3948 #3948 #03948,"ANNEX D 1F/2F, 2-6-1 SHINTOMI",Saitama Prefecture,00350-8511
Gap,YOKOHAMA,3950,3950 #3950 #03950,"6F, 1-6-31 MINAMISAIWAI",Kanagawa Prefecture,00220-8601
Gap,SENDAI,3951,3951 #3951 #03951,"JOZENJIDORI KAN 3F, 4-11-1 ICHIBAN",Miyagi Prefecture,00980-8543
Gap,YOKOHAMA,3952,3952 #3952 #03952,"1F, 1-1-2 UTSUKUSHIGAOKA",Kanagawa Prefecture,00225-0002
Gap,CHUO,3955,3955 #3955 #03955,"850 TSUTSUI, MASAKI",Ehime Prefecture,00791-3120
Gap,SHIZUOKA,3957,3957 #3957 #03957,1-1 TAKAJO,Shizuoka Prefecture,00420-8508
Gap,TAMPA,4000,4000 #4000 #04000,2223 N. West Shore Blvd,FL,33607
Gap,CLEARWATER,4004,4004 #4004 #04004,27001 US HIGHWAY 19 N,FL,33761
Gap,ST. PETERSBURG,4012,4012 #4012 #04012,6901 22ND AVE N,FL,33710
Gap,SARASOTA,4013,4013 #4013 #04013,3501 S TAMIAMI TRL,FL,34239
Gap,TAMPA,4014,4014 #4014 #04014,7964 CITRUS PARK TOWN CENTER MALL,FL,33625
Gap,IRUMA,4035,4035 #4035 #04035,"1050, 3169-1 MIYADERA",Saitama Prefecture,00358-0014
Gap,TOKI,4042,4042 #4042 #04042,1-2 TOKIGAOKA,Gifu Prefecture,00509-5127
Gap,HORSEHEADS,4103,4103 #4103 #04103,3300 Chambers Road South,NY,14845
Gap,SYRACUSE,4107,4107 #4107 #04107,9858 DESTINY USA DRIVE,NY,13204
Gap,ITHACA,4108,4108 #4108 #04108,40 CATHERWOOD RD,NY,14850
Gap,NEW HARTFORD,4109,4109 #4109 #04109,1 SANGERTOWN SQ,NY,13413
Gap,WATERTOWN,4120,4120 #4120 #04120,21182 SALMON RUN MALL LOOP W,NY,13601
Gap,LOUISVILLE,4204,4204 #4204 #04204,7900 Shelbyville Road,KY,40222
Gap,LOUISVILLE,4209,4209 #4209 #04209,4160 SUMMIT PLAZA DR,KY,40241
Gap,LEXINGTON,4225,4225 #4225 #04225,3401 Nicholasville Road,KY,40503
Gap,LEXINGTON,4226,4226 #4226 #04226,2308 Sir Barton Way,KY,40509
Gap,UNION GAP,4234,4234 #4234 #04234,2549 Main Street,WA,98903
Gap,PETERBOROUGH,4235,4235 #4235 #04235,645 LANSDOWNE STREET WEST,ON,K9J 7Y5
Gap,EVERETT,4236,4236 #4236 #04236,10 MYSTIC VIEW RD,MA,2149
Gap,CALEXICO,4237,4237 #4237 #04237,275 ANZA ROAD,CA,92231
Gap,TEXAS CITY,4238,4238 #4238 #04238,5885 GULF FREEWAY FRONTAGE ROAD,TX,77592
Gap,ATHENS,4239,4239 #4239 #04239,1791 OCONEE CONNECTOR,GA,30606
Gap,PADUCAH,4250,4250 #4250 #04250,5101 Hinkleville Road,KY,42001
Gap,BOWLING GREEN,4251,4251 #4251 #04251,2625 Scottsville Road,KY,42104
Gap,CHESTERFIELD,4252,4252 #4252 #04252,18511 OUTLET BLVD,MO,63005
Gap,TORONTO,4275,4275 #4275 #04275,220 Yonge St,ON,M5B 2H6
Gap,TORONTO,4276,4276 #4276 #04276,100 King Street West,ON,M5X 1B5
Gap,GAINESVILLE,4320,4320 #4320 #04320,6655 W NEWBERRY RD,FL,32605
Gap,ALTAMONTE SPRINGS,4401,4401 #4401 #04401,451 E ALTAMONTE DR,FL,32701
Gap,ORLANDO,4404,4404 #4404 #04404,8001 South Orange Blossom Trail,FL,32809
Gap,WINTER PARK,4405,4405 #4405 #04405,400 Park Avenue,FL,32789
Gap,KENNER,4524,4524 #4524 #04524,1401 West Esplanade Avenue,LA,70065
Gap,METAIRIE,4527,4527 #4527 #04527,3301 Veterans Memorial Boulevard,LA,70002
Gap,LAFAYETTE,4530,4530 #4530 #04530,5725 Johnston St,LA,70503
Gap,BATON ROUGE,4533,4533 #4533 #04533,6401 BLUEBONNET BLVD,LA,70809
Gap,SHREVEPORT,4534,4534 #4534 #04534,1133 SAINT VINCENT AVE,LA,71104
Gap,MANDEVILLE,4535,4535 #4535 #04535,3414 Hwy 190,LA,70471
Gap,SALK LAKE CITY,4538,4538 #4538 #04538,68 SOUTH MAIN STREET,UT,84101
Gap,SAVANNAH,4720,4720 #4720 #04720,7804 ABERCORN ST,GA,31406
Gap,SAVANNAH,4723,4723 #4723 #04723,122 W. Broughton Street,GA,31401
Gap,ASHEVILLE,4802,4802 #4802 #04802,3 So Tunnel Rd,NC,28805
Gap,CHARLOTTE,4806,4806 #4806 #04806,4400 SHARON RD,NC,28211
Gap,WINSTON-SALEM,4807,4807 #4807 #04807,3320 Silas Creek Parkway,NC,27103
Gap,GREENSBORO,4811,4811 #4811 #04811,800A FRIENDLY CENTER RD,NC,27408
Gap,CHARLOTTE,4813,4813 #4813 #04813,8022 Providence Road,NC,28277
Gap,HUNTERSVILLE,4817,4817 #4817 #04817,8701 Townley Road,NC,28078
Gap,BANFF,4851,4851 #4851 #04851,317 CASCADE PLAZA,AB,T1L 1E3
Gap,NORTH BAY,4852,4852 #4852 #04852,1500 Fisher Street,ON,P1B 2H3
Gap,BURLINGTON,4853,4853 #4853 #04853,900 Maple Ave,ON,L7S 2J8
Gap,ERIE,4901,4901 #4901 #04901,5800 PEACH ST,PA,16565
Gap,LONDON,4914,4914 #4914 #04914,376/384 OXFORD STREET,EG,W1N 0BJ
Gap,DUNDEE,4915,4915 #4915 #04915,Overgate Centre,SC,DD1 1PW
Gap,BIRMINGHAM,4920,4920 #4920 #04920,Bullring Shopping Centre,EG,B54BU
Gap,HOOVER,5002,5002 #5002 #05002,2000 Riverchase Galleria,AL,35244
Gap,BIRMINGHAM,5004,5004 #5004 #05004,240 Summit Blvd,AL,35243
Gap,MOBILE,5026,5026 #5026 #05026,3299 Bel Air Mall,AL,36606
Gap,AUBURN,5027,5027 #5027 #05027,123 North College Street,AL,36830
Gap,DOTHAN,5028,5028 #5028 #05028,900 Commons Drive,AL,36303
Gap,MONTGOMERY,5030,5030 #5030 #05030,7064 Eastchase Pkwy,AL,36117
Gap,FLORENCE,5052,5052 #5052 #05052,301 Cox Creek Parkway,AL,35630
Gap,TEMPE,5053,5053 #5053 #05053,2000 E. RIO SALADO PARKWAY,AZ,85281
Gap,RALEIGH,5054,5054 #5054 #05054,5959 TRIANGLE TOWN BOULEVARD,NC,27616
Gap,YOUNGSTOWN,5102,5102 #5102 #05102,7401 Market St,OH,44512
Gap,CLARKSTOWN,5106,5106 #5106 #05106,75 WEST ROUTE 59,NY,10954
Gap,WEST DES MOINES,5201,5201 #5201 #05201,1551 Valley West Drive,IA,50266
Gap,CORALVILLE,5205,5205 #5205 #05205,1451 CORAL RIDGE AVE,IA,52241
Gap,DUBUQUE,5208,5208 #5208 #05208,555 John F. Kennedy Road,IA,52002
Gap,LINCOLN,5253,5253 #5253 #05253,2910 Pine Lake Rd,NE,68516
Gap,KEARNEY,5257,5257 #5257 #05257,5003 N 2ND AVE,NE,68847
Gap,BURLINGTON,5420,5420 #5420 #05420,49 CHURCH ST,VT,5401
Gap,SOUTH BURLINGTON,5422,5422 #5422 #05422,155 Dorset Street,VT,5403
Gap,RIDGELAND,5602,5602 #5602 #05602,1200 E COUNTY LINE RD,MS,39157
Gap,HATTIESBURG,5603,5603 #5603 #05603,1000 Turtle Creek Mall,MS,39402
Gap,FLOWOOD,5607,5607 #5607 #05607,136 DOGWOOD BLVD,MS,39232
Gap,APPLETON,5703,5703 #5703 #05703,4301 W WISCONSIN AVE,WI,54913
Gap,VIRGINIA BEACH,5902,5902 #5902 #05902,701 Lynnhaven Parkway,VA,23452
Gap,NEWPORT NEWS,5905,5905 #5905 #05905,12300 Jefferson Avenue,VA,23602
Gap,RALEIGH,6004,6004 #6004 #06004,4325 Glenwood Avenue,NC,27612
Gap,CARY,6005,6005 #6005 #06005,1105 WALNUT ST,NC,27511
Gap,DURHAM,6014,6014 #6014 #06014,6910 FAYETTEVILLE RD,NC,27713
Gap,LAS VEGAS,6100,6100 #6100 #06100,6593 LAS VEGAS BLVD S,NV,89109
Gap,AUGUSTA,6102,6102 #6102 #06102,3450 Wrightsboro Road,GA,30909
Gap,CHARLESTON,6104,6104 #6104 #06104,269 King Street,SC,29401
Gap,COLUMBIA,6105,6105 #6105 #06105,100 COLUMBIANA CIR,SC,29212
Gap,GREENVILLE,6108,6108 #6108 #06108,700 Haywood Road,SC,29607
Gap,MOUNT PLEASANT,6115,6115 #6115 #06115,1229 Belk Drive,SC,29464
Gap,LAS VEGAS,6204,6204 #6204 #06204,3200 LAS VEGAS BLVD S,NV,89109
Gap,HENDERSON,6205,6205 #6205 #06205,1300 W SUNSET RD,NV,89014
Gap,LAS VEGAS,6206,6206 #6206 #06206,3500 Las Vegas Boulevard South,NV,89109
Gap,FORT  LAUDERDALE,6308,6308 #6308 #06308,2516 E SUNRISE BLVD,FL,33304
Gap,AVENTURA,6312,6312 #6312 #06312,19575 Biscayne Boulevard,FL,33180
Gap,JENSEN BEACH,6318,6318 #6318 #06318,3444 NW Federal Highway,FL,34957
Gap,PALM BEACH GARDENS,6321,6321 #6321 #06321,3101 PGA Boulevard,FL,33410
Gap,MIAMI,6324,6324 #6324 #06324,8888 SW 136TH ST,FL,33176
Gap,MIAMI,6325,6325 #6325 #06325,401 Biscayne Boulevard,FL,33132
Gap,MIAMI,6327,6327 #6327 #06327,7271 N KENDALL DR,FL,33156
Gap,NAPLES,6329,6329 #6329 #06329,5495 TAMIAMI TRAIL N,FL,34108
Gap,PEMBROKE PINES,6331,6331 #6331 #06331,11401 Pines Blvd.,FL,33026
Gap,MIAMI,6332,6332 #6332 #06332,8705 SW 124TH AVE,FL,33183
Gap,MIAMI BEACH,6335,6335 #6335 #06335,673 Collins Avenue,FL,33139
Gap,SOUTH MIAMI,6337,6337 #6337 #06337,5701 Sunset Drive,FL,33143
Gap,MIAMI,6339,6339 #6339 #06339,1455 NW 107TH AVE,FL,33172
Gap,MELBOURNE,6343,6343 #6343 #06343,1700 W New Haven Avenue,FL,32904
Gap,MIAMI BEACH,6344,6344 #6344 #06344,1669 MERIDIAN AVE,FL,33139
Gap,WEST PALM BEACH,6345,6345 #6345 #06345,701 South Rosemary Ave.,FL,33401
Gap,BRISTOL,6381,6381 #6381 #06381,UNIT 164 UPPER LEVEL,EG,BS345UR
Gap,KENT,6386,6386 #6386 #06386,UNIT 15 UPPER ROSE GALLERY,EG,DA9 9SP
Gap,KENT,6388,6388 #6388 #06388,UNIT 100 UPPER GUILD HALL,EG,DA9 9SP
Gap,RENO,6400,6400 #6400 #06400,13945 SOUTH VIRGINIA ST,NV,89502
Gap,BRIDGEPORT,6404,6404 #6404 #06404,2399 MEADOWBROOK MALL,WV,26330
Gap,PEORIA,6520,6520 #6520 #06520,4501 N WAR MEMORIAL DR,IL,61613
Gap,BLOOMINGTON,6521,6521 #6521 #06521,1615 E EMPIRE ST,IL,61701
Gap,CAMP HILL,6601,6601 #6601 #06601,3518 CAPITAL MALL DRIVE,PA,17011
Gap,SELINSGROVE,6607,6607 #6607 #06607,F8 SUSQUEHANA VALLEY MALL,PA,17870
Gap,SAN FRANCISCO,6675,6675 #6675 #06675,2040 Chestnut St,CA,94123
Gap,NEWTOWN,6687,6687 #6687 #06687,43 South State Street,PA,18940
Gap,STATE COLLEGE,6701,6701 #6701 #06701,2900 EAST COLLEGE AVE,PA,16801
Gap,FRANKLIN,6805,6805 #6805 #06805,1800 GALLERIA BLVD,TN,37067
Gap,KNOXVILLE,6806,6806 #6806 #06806,7600 Kingston Blvd.,TN,37919
Gap,JOHNSON CITY,6807,6807 #6807 #06807,2011 North Roan Street,TN,37604
Gap,NASHVILLE,6810,6810 #6810 #06810,2126 Abbott Martin Road,TN,37215
Gap,CLARKSVILLE,6811,6811 #6811 #06811,2801 Wilma Rudolph Boulevard,TN,37040
Gap,MURFREESBORO,6812,6812 #6812 #06812,1720 Old Fort Parkway,TN,37129
Gap,SAN JUAN,6902,6902 #6902 #06902,525 AVE F D ROOSEVELT,PR,918
Gap,STRASBOURG,6908,6908 #6908 #06908,CENTRE COMMERCIAL RIVETOLLE,Alsace,67000
Gap,MARSEILLE,6911,6911 #6911 #06911,GALARIES LAFAYETTE,PACA,13207
Gap,LE CHESNAY,6912,6912 #6912 #06912,CENTRE COMMERCIAL REGIONAL PARLY 2,IDF,78150
Gap,ALBANY,7001,7001 #7001 #07001,430 Colonie Center,NY,12205
Gap,ALBANY,7005,7005 #7005 #07005,1 Crossgates Mall Road,NY,12203
Gap,SARATOGA SPRINGS,7009,7009 #7009 #07009,341 Broadway,NY,12866
Gap,ALLEN,7010,7010 #7010 #07010,820 W. STACY ROAD,TX,75013
Gap,MIDDLETOWN,7025,7025 #7025 #07025,1 Galleria Dr,NY,10941
Gap,MT.  KISCO,7027,7027 #7027 #07027,65 South Moger Avenue,NY,10549
Gap,LARCHMONT,7028,7028 #7028 #07028,1340 Boston Post Road,NY,10538
Gap,WHITE PLAINS,7030,7030 #7030 #07030,125 Westchester Avenue,NY,10601
Gap,WEST NYACK,7031,7031 #7031 #07031,2520 Palisades Center Drive,NY,10994
Gap,BRONX,7034,7034 #7034 #07034,271 E. Fordham Road,NY,10458
Gap,ORLANDO,7036,7036 #7036 #07036,4200 CONROY RD,FL,32839
Gap,WESTPORT,7037,7037 #7037 #07037,125 Main Street,CT,6880
Gap,HUNTSVILLE,7055,7055 #7055 #07055,"320 THE BRIDGE STREET, STE 100",AL,35806
Gap,BROOKLYN,7059,7059 #7059 #07059,400 Fulton Street,NY,11201
Gap,TALLAHASSEE,7102,7102 #7102 #07102,1500 Apalachee Parkway,FL,32301
Gap,THE WOODLANDS,7107,7107 #7107 #07107,9595 SIX PINES DRIVE,TX,77380
Gap,FREEHOLD,7127,7127 #7127 #07127,3710 US HIGHWAY 9,NJ,7728
Gap,BRIDGEHAMPTON,7128,7128 #7128 #07128,MONTAUK HIGHWAY & SNAKE HOLLOW ROAD,NY,11932
Gap,WESTFIELD,7132,7132 #7132 #07132,207 East Broad Street,NJ,7090
Gap,UPPER MONTCLAIR,7133,7133 #7133 #07133,629 Valley Road,NJ,7043
Gap,DENVILLE,7135,7135 #7135 #07135,3056 State Route 10,NJ,7834
Gap,MERRICK,7136,7136 #7136 #07136,1970 Merrick Road,NY,11566
Gap,PORT JEFFERSON,7137,7137 #7137 #07137,100 Arden Place,NY,11777
Gap,SEA GIRT,7143,7143 #7143 #07143,2150 HIGHWAY 35,NJ,8750
Gap,WOODCLIFF LAKE,7147,7147 #7147 #07147,423 CHESTNUT RIDGE RD,NJ,7677
Gap,EDGEWATER,7154,7154 #7154 #07154,25 PROMENADE,NJ,7020
Gap,COMMACK,7155,7155 #7155 #07155,170 E JERICHO TURNPIKE,NY,11725
Gap,RICHMOND,7156,7156 #7156 #07156,9200 STONY POINT PKWY,VA,23235
Gap,SOUTH WINDSOR,7159,7159 #7159 #07159,201 EVERGREEN WAY,CT,6074
Gap,WESTLAKE,7181,7181 #7181 #07181,206 MARKET ST,OH,44145
Gap,OLD BRIDGE,7185,7185 #7185 #07185,3801 US HIGHWAY #9,NJ,8857
Gap,OLD BRIDGE,7185,7185 #7185 #07185,3801 US HIGHWAY #9,NJ,8857
Gap,EL PASO,7201,7201 #7201 #07201,8401 GATEWAY BLVD W,TX,79925
Gap,YONKERS,7205,7205 #7205 #07205,ONE RIDGE HILL ROAD,NY,10710
Gap,NEW YORK,7226,7226 #7226 #07226,1466 Broadway,NY,10036
Gap,NEW YORK,7228,7228 #7228 #07228,1511 3RD AVE,NY,10028
Gap,NEW YORK,7232,7232 #7232 #07232,1212 Avenue of the Americas,NY,10036
Gap,NEW YORK,7233,7233 #7233 #07233,657 3RD AVE,NY,10017
Gap,NEW YORK,7236,7236 #7236 #07236,1988 Broadway,NY,10023
Gap,BAYSIDE,7237,7237 #7237 #07237,211-15 26th Avenue,NY,11360
Gap,NEW YORK,7242,7242 #7242 #07242,1 Astor Place,NY,10003
Gap,NEW YORK,7243,7243 #7243 #07243,680 5TH AVE,NY,10019
Gap,NEW YORK,7246,7246 #7246 #07246,277 West 23rd Street,NY,10011
Gap,PENNSDALE,7301,7301 #7301 #07301,300 Lycoming Mall Circle,PA,17756
Gap,WILKES BARRE,7302,7302 #7302 #07302,15 WYOMING VALLEY MALL,PA,18702
Gap,AUSTIN,7316,7316 #7316 #07316,10000 Research Boulevard,TX,78759
Gap,WAUWATOSA,7373,7373 #7373 #07373,2500 N MAYFAIR RD,WI,53226
Gap,SPOKANE,7389,7389 #7389 #07389,808 W MAIN AVE,WA,99201
Gap,FORT WORTH,7396,7396 #7396 #07396,1540 SOUTH UNIVERSITY DRIVE,TX,76107
Gap,LONDON,7400,7400 #7400 #07400,UNIT 2001 WESTFIELD LONDON S/C,EG,W12 7GE
Gap,LANSING,7405,7405 #7405 #07405,3000 TOWNE CENTRE BLVD,MI,48912
Gap,GREEN BAY,7442,7442 #7442 #07442,303 Bay Park Sq,WI,54304
Gap,MISSION VIEJO,7466,7466 #7466 #07466,003 The Shops at Mission Viejo,CA,92691
Gap,HOWARD BEACH,7468,7468 #7468 #07468,16010 CROSSBAY BLVD,NY,11414
Gap,ROSEVILLE,7474,7474 #7474 #07474,1151 Galleria Blvd.,CA,95678
Gap,NORTHRIDGE,7478,7478 #7478 #07478,9301 TAMPA AVE,CA,91324
Gap,CHICAGO,7493,7493 #7493 #07493,1740 N. Sheffield,IL,60614
Gap,FAYETTEVILLE,7494,7494 #7494 #07494,4201 N SHILOH DR,AR,72703
Gap,PUTEAUX,7498,7498 #7498 #07498,C.C. LES 4 TEMPS,IDF,92800
Gap,KENNEWICK,7503,7503 #7503 #07503,1321 N COLUMBIA CENTER BLVD,WA,99336
Gap,SPOKANE,7504,7504 #7504 #07504,14700 E INDIANA AVE,WA,99216
Gap,CHARLOTTE,7506,7506 #7506 #07506,6801 Northlake Mall Drive,NC,28207
Gap,DIJON,7507,7507 #7507 #07507,.,Burgandy,21000
Gap,PARIS,7525,7525 #7525 #07525,CENTRE COMMERCIAL PASSY PLAZA,FR,75016
Gap,PARIS,7526,7526 #7526 #07526,9 Blvd. du Sebastopol,FR,75001
Gap,LILLE,7527,7527 #7527 #07527,50 Rue de Bethune,FR,59000
Gap,VELIZY-VILLACOUBLAY,7530,7530 #7530 #07530,Centre Commercial Velizy II,FR,78140
Gap,PARIS,7531,7531 #7531 #07531,14 rue Mabillon,Kanagawa Prefecture,75006
Gap,AIX-EN-PROVENCE,7532,7532 #7532 #07532,15 Rue des Chapeliers,FR,13100
Gap,PARIS,7536,7536 #7536 #07536,36 Avenue des Champs-Elysees,IDF,75008
Gap,PARIS,7540,7540 #7540 #07540,62 Rue de Rennes,IDF,75006
Gap,PARIS,7541,7541 #7541 #07541,109 rue St Lazare,IDF,7509
Gap,PARIS,7542,7542 #7542 #07542,6 Rue du Commerce,IDF,75015
Gap,PARIS,7554,7554 #7554 #07554,"64, rue du Faubourg St Antoine",IDF,75012
Gap,PARIS,7555,7555 #7555 #07555,L'Atrium du Palais,Kanagawa Prefecture,75017
Gap,SERRIS,7556,7556 #7556 #07556,Espace Commercial International,IDF,77700
Gap,CRETEIL,7558,7558 #7558 #07558,Centre Commercial de Creteil-Soleil,IDF,94000
Gap,PARIS,7563,7563 #7563 #07563,36 rue Tronchet,Kyoto Prefecture,75009
Gap,PARIS,7565,7565 #7565 #07565,47 BOULEVARD ST-MICHEL,IDF,75005
Gap,PARIS,7570,7570 #7570 #07570,13-15 Avenues Des Ternes,IDF,75017
Gap,PARIS,7571,7571 #7571 #07571,40 BOULEVARD HAUSSMANN,IDF,75009
Gap,NANCY,7574,7574 #7574 #07574,45 Rue St. Jean,Lorraine,54000
Gap,MONTPELLIER,7577,7577 #7577 #07577,CENTRE COMMERCIAL LE POLYGONE,Languedoc-Roussillon,34000
Gap,GLASGOW,7578,7578 #7578 #07578,UNIT R2 ATLAS HOUSE,SC,G12JZ
Gap,GRAND RAPIDS,7602,7602 #7602 #07602,3175 28th Street SE,MI,49512
Gap,PORTAGE,7604,7604 #7604 #07604,6650 S WESTNEDGE AVE,MI,49024
Gap,GRANDVILLE,7607,7607 #7607 #07607,3700 RIVERTOWN PKWY SW,MI,49418
Gap,MUSKEGON,7608,7608 #7608 #07608,5600 HARVEY ST,MI,49444
Gap,LAS VEGAS,7610,7610 #7610 #07610,7400 LAS VEGAS BLVD. SOUTH,NV,89123
Gap,SURREY,7611,7611 #7611 #07611,15735 CROYDON DRIVE,BC,V3S 2L5
Gap,NEW WESTMINSTER,7612,7612 #7612 #07612,QUEENS BOROUGH LANDING,BC,V3M 5X2
Gap,MIAMI,7613,7613 #7613 #07613,11401 12TH STREET,FL,33172
Gap,WENTZVILLE,7615,7615 #7615 #07615,1247 W. Pearce Blvd.,MO,63385
Gap,BLUE SPRINGS,7620,7620 #7620 #07620,1030 NE CORONADO DRIVE,MO,64014
Gap,GRAND PRARIE,7622,7622 #7622 #07622,2950 W. INTERSTATE 20,TX,75052
Gap,LEHI,7623,7623 #7623 #07623,3700 CABELA BLVD,UT,84043
Gap,MEBANE,7624,7624 #7624 #07624,4000 ARROWHEAD ROAD,NC,27302
Gap,MERRIMACK,7625,7625 #7625 #07625,80 PREMIUM OUTLETS BLVD,NH,3054
Gap,MISSISSAUGA,7627,7627 #7627 #07627,5950 Rodeo Drive 2B,ON,L5R 3V6
Gap,CALGARY,7628,7628 #7628 #07628,8180 11TH STREET SE,AB,T2H 3B5
Gap,JAMAICA,7629,7629 #7629 #07629,166-02 JAMAICA AVENUE,NY,11432
Gap,PARIS,7630,7630 #7630 #07630,22 boulevard des Capucines,IDF,75009
Gap,PARIS,7631,7631 #7631 #07631,12-14 Rue Saint-Denis,IDF,75001
Gap,PARIS,7632,7632 #7632 #07632,112 Avenue Kleber,Shizuoka Prefecture,75017
Gap,PARIS,7633,7633 #7633 #07633,Porte Rambuteau Niveau -2,,75001
Gap,SAN LEANDRO,7704,7704 #7704 #07704,1259 MARINA BLVD.,CA,94577
Gap,MONROE,7705,7705 #7705 #07705,14500 LAPLAISANCE RD,MI,48161
Gap,EDINBURGH,7707,7707 #7707 #07707,11606 North Executive Drive,IN,46124
Gap,CALHOUN,7708,7708 #7708 #07708,455 BELWOOD RD SE,GA,30701
Gap,LAS VEGAS,7709,7709 #7709 #07709,605 Grand Parkway,NV,89106
Gap,TANNERSVILLE,7710,7710 #7710 #07710,1000 ROUTE 611,PA,18372
Gap,KITTERY,7712,7712 #7712 #07712,325 US ROUTE 1,ME,3904
Gap,ANDERSON,7713,7713 #7713 #07713,1981 HIGHWAY 273,CA,96007
Gap,LAKE PLACID,7714,7714 #7714 #07714,2457 MAIN ST,NY,12946
Gap,LEESBURG,7716,7716 #7716 #07716,241 Fort Evens Road NE,VA,20176
Gap,FOLSOM,7718,7718 #7718 #07718,13000 Folsom Boulevard,CA,95630
Gap,TROUTDALE,7719,7719 #7719 #07719,450 NW 257TH AVE,OR,97060
Gap,AUBURN,7721,7721 #7721 #07721,1101 OUTLET COLLECTION WAY,WA,98001
Gap,PETALUMA,7722,7722 #7722 #07722,2200 Petaluma Boulevard North,CA,94952
Gap,CAMARILLO,7723,7723 #7723 #07723,540 VENTURA BLVD,CA,93010
Gap,CABAZON,7724,7724 #7724 #07724,48400 SEMINOLE DRIVE,CA,92230
Gap,AURORA,7725,7725 #7725 #07725,549 South Chillicothe Road,OH,44202
Gap,BARCELONETA,7727,7727 #7727 #07727,1 PRIME OUTLETS BLVD,PR,617
Gap,JOHNSON CREEK,7729,7729 #7729 #07729,575 LINMAR LN,WI,53038
Gap,ORLANDO,7730,7730 #7730 #07730,4969 INTERNATIONAL DRIVE,FL,32819
Gap,HAGERSTOWN,7731,7731 #7731 #07731,100 PREMIUM OUTLETS BLVD,MD,21740
Gap,LINCOLN CITY,7732,7732 #7732 #07732,1500 SE East Devils Lake,OR,97367
Gap,BELLPORT,7733,7733 #7733 #07733,10 Farber Drive,NY,11713
Gap,WRENTHAM,7734,7734 #7734 #07734,1 Premium Outlet Blvd,MA,2093
Gap,JACKSON,7735,7735 #7735 #07735,537 Monmouth Rd,NJ,8527
Gap,DARIEN,7736,7736 #7736 #07736,1 MAGNOLIA BLUFF WAY,GA,31305
Gap,HUNTLEY,7739,7739 #7739 #07739,11800 FACTORY SHOPS BLVD,IL,60142
Gap,OSAGE BEACH,7741,7741 #7741 #07741,4540 OSAGE BEACH PARKWAY,MO,65065
Gap,GAFFNEY,7744,7744 #7744 #07744,240 Factory Shops Boulevard,SC,29341
Gap,PARK CITY,7745,7745 #7745 #07745,6699 LANDMARK DR,UT,84098
Gap,JEFFERSONVILLE,7746,7746 #7746 #07746,8000 Factory Shops Boulevard,OH,43128
Gap,LEBANON,7747,7747 #7747 #07747,100 Outlet Village Boulevard,TN,37090
Gap,SMITHFIELD,7748,7748 #7748 #07748,1025 Industrial Park Drive,NC,27577
Gap,TEMPE,7749,7749 #7749 #07749,5000 S ARIZONA MILLS CIR,AZ,85282
Gap,RIVERHEAD,7750,7750 #7750 #07750,1770 West Main Street,NY,11901
Gap,FREEPORT,7752,7752 #7752 #07752,35 Main Street,ME,4032
Gap,FOLEY,7753,7753 #7753 #07753,2601 South McKenzie Street,AL,36535
Gap,SAN MARCOS,7754,7754 #7754 #07754,3939 S INTERSTATE HWY 35,TX,78666
Gap,GILROY,7755,7755 #7755 #07755,8555 SAN YSIDRO AVE,CA,95020
Gap,DESTIN,7756,7756 #7756 #07756,10676 EMERALD COAST PKWY W,FL,32550
Gap,SEVIERVILLE,7757,7757 #7757 #07757,1645 Parkway,TN,37862
Gap,COMMERCE,7758,7758 #7758 #07758,800 Steven B. Tanger Boulevard,GA,30529
Gap,PRINCE WILLIAM,7759,7759 #7759 #07759,2700 Potomac Mills Cir,VA,22192
Gap,CASTLE ROCK,7760,7760 #7760 #07760,5050 Factory Shops Blvd,CO,80108
Gap,HILLSBORO,7762,7762 #7762 #07762,104 I-35 HWY NE,TX,76645
Gap,PLEASANT PRAIRIE,7763,7763 #7763 #07763,11211 120th Avenue,WI,53158
Gap,DAWSONVILLE,7768,7768 #7768 #07768,800 Highway 400 South,GA,30534
Gap,GURNEE,7769,7769 #7769 #07769,6170 GRAND AVE,IL,60031
Gap,CLINTON,7770,7770 #7770 #07770,20-A KINGSWORTH TURNPIKE,CT,6413
Gap,HOWELL,7772,7772 #7772 #07772,1475 BURKHART RD,MI,48855
Gap,CENTRAL VALLEY,7774,7774 #7774 #07774,470 EVERGREEN CT,NY,10917
Gap,SILVERTHORNE,7775,7775 #7775 #07775,125-C Stephens Way,CO,80498
Gap,BLUFFTON,7776,7776 #7776 #07776,1414 Fording Island Road,SC,29910
Gap,TULARE,7777,7777 #7777 #07777,1501 RETHERFORD ST,CA,93274
Gap,REHOBOTH BEACH,7778,7778 #7778 #07778,36461 SEASIDE OUTLET DR,DE,19971
Gap,ONTARIO,7779,7779 #7779 #07779,1 Mills Circle,CA,91764
Gap,MILPITAS,7781,7781 #7781 #07781,271 GREAT MALL DRIVE,CA,95035
Gap,WATERLOO,7783,7783 #7783 #07783,655 ROUTE 318,NY,13165
Gap,PHILADELPHIA,7784,7784 #7784 #07784,1875 Franklin Mills Circle,PA,19154
Gap,MICHIGAN CITY,7785,7785 #7785 #07785,1770 LIGHTHOUSE PL,IN,46360
Gap,ST. AUGUSTINE,7786,7786 #7786 #07786,2700 STATE ROAD 16,FL,32092
Gap,PHOENIX,7788,7788 #7788 #07788,4250 W ANTHEM WAY,AZ,85086
Gap,PRIMM,7789,7789 #7789 #07789,32100 LAS VEGAS BLVD S,NV,89019
Gap,LEE,7790,7790 #7790 #07790,600 PREMIUM OUTLETS BLVD,MA,1238
Gap,VACAVILLE,7791,7791 #7791 #07791,121-A Nut Tree Road,CA,95687
Gap,BIRCH RUN,7792,7792 #7792 #07792,12205 MARKET PLACE DR,MI,48415
Gap,NIAGARA FALLS,7793,7793 #7793 #07793,1970 Military Road,NY,14304
Gap,SUNRISE,7794,7794 #7794 #07794,12801 W. Sunrise Blvd.,FL,33323
Gap,GRAPEVINE,7795,7795 #7795 #07795,3000 Grapevine Mills Place,TX,76051
Gap,SIOUX FALLS,7801,7801 #7801 #07801,550 W EMPIRE MALL,SD,57106
Gap,HINGHAM,7808,7808 #7808 #07808,94 DERBY ST,MA,2043
Gap,MISHAWAKA,7901,7901 #7901 #07901,6501 GRAPE RD,IN,46545
Gap,FORT WAYNE,7903,7903 #7903 #07903,4201 Coldwater Road,IN,46805
Gap,CASTLEFORD,7908,7908 #7908 #07908,JUNCTION 32 OUTLET VILLAGE,EG,WF104SB
Gap,STREET,7909,7909 #7909 #07909,CLARKS VILLAGE,EG,BA160BB
Gap,TRAVERSE CITY,7910,7910 #7910 #07910,3735 MARKET PLACE CIR,MI,49684
Gap,HOLLAND,7911,7911 #7911 #07911,12330 James Street,MI,49424
Gap,ALPINE,7912,7912 #7912 #07912,5003 Willows Road,CA,91901
Gap,BURLINGTON,7913,7913 #7913 #07913,416 Fashion Way,WA,98233
Gap,TUSCOLA,7914,7914 #7914 #07914,E800 Tuscola Blvd,IL,61953
Gap,NORTH BEND,7915,7915 #7915 #07915,521 South Fork Avenue,WA,98045
Gap,LAKE GEORGE,7916,7916 #7916 #07916,1439 State Route 9,NY,12845
Gap,WILLIAMSBURG,7919,7919 #7919 #07919,245 TANGER DR,IA,52361
Gap,BRANSON,7920,7920 #7920 #07920,300 Tanger Boulevard,MO,65616
Gap,GETTYSBURG,7922,7922 #7922 #07922,1863 Gettysburg Village D,PA,17325
Gap,BLOWING ROCK,7923,7923 #7923 #07923,200 SHOPPES ON THE PARKWAY RD,NC,28605
Gap,BURBANK,7924,7924 #7924 #07924,9913 AVON LAKE RD,OH,44214
Gap,ORLANDO,7925,7925 #7925 #07925,15807 South Apopka Vineland Road,FL,32821
Gap,WEST BRANCH,7926,7926 #7926 #07926,2990 Cook Road,MI,48661
Gap,VICKSBURG,7928,7928 #7928 #07928,4000 South Frontage Road,MS,39180
Gap,ELLENTON,7929,7929 #7929 #07929,5141 Factory Shops Boulevard,FL,34222
Gap,GONZALES,7930,7930 #7930 #07930,2200 Tanger Boulevard,LA,70737
Gap,NAGS HEAD,7931,7931 #7931 #07931,7100 South Croatan Highway,NC,27959
Gap,ELIZABETH,7936,7936 #7936 #07936,651 Kapkowski Road,NJ,7201
Gap,GULFPORT,7937,7937 #7937 #07937,10500 FACTORY SHOP BLVD,MS,39503
Gap,KATY,7938,7938 #7938 #07938,5000 Katy Mills Circle,TX,77494
Gap,CONCORD,7939,7939 #7939 #07939,8111 Concord Mills Boulevard,NC,28027
Gap,TILTON,7940,7940 #7940 #07940,120 Laconia Road,NH,3276
Gap,BOAZ,7941,7941 #7941 #07941,214 South McClesky Street,AL,35957
Gap,TERRELL,7942,7942 #7942 #07942,301 Tanger Drive,TX,75160
Gap,LAKE PARK,7943,7943 #7943 #07943,5317 Mill Store Road,GA,31636
Gap,NASHVILLE,7944,7944 #7944 #07944,202 Opry Mills Dr,TN,37214
Gap,HANOVER,7947,7947 #7947 #07947,7000 ARUNDEL MILLS CIR,MD,21076
Gap,MEDFORD,7948,7948 #7948 #07948,6750 W. Frontage Road,MN,55049
Gap,NORTH BRANCH,7952,7952 #7952 #07952,38573 Tanger Drive,MN,55056
Gap,SAN YSIDRO,7956,7956 #7956 #07956,4265 Camino De La Plaza,CA,92173
Gap,LANCASTER,7957,7957 #7957 #07957,1002 STANLEY K TANGER BLVD,PA,17602
Gap,SEDONA,7958,7958 #7958 #07958,6601 HIGHWAY 179,AZ,86351
Gap,GAINESVILLE,7959,7959 #7959 #07959,4321 I-35 NORTH,TX,76240
Gap,FLORIDA CITY,7961,7961 #7961 #07961,250 E. PALM DRIVE,FL,33034
Gap,FREMONT,7962,7962 #7962 #07962,6245 N. OLD 27,IN,46737
Gap,NORTH CONWAY,7965,7965 #7965 #07965,2 COMMON COURT,NH,3860
Gap,CANOVANAS,7969,7969 #7969 #07969,"STATE ROAD TR#3, KM 18.4",PR,729
Gap,WOODBURN,7973,7973 #7973 #07973,1001 N ARNEY RD,OR,97071
Gap,FORT MYERS,7974,7974 #7974 #07974,20350 SUMMERLIN ROAD,FL,33908
Gap,ELLESMERE PORT,7975,7975 #7975 #07975,KIinsey Road,EG,L65 9JJ
Gap,PORTSMOUTH,7976,7976 #7976 #07976,"Units 9, 10 and 11, Gun Wharf Quays",EG,PO1 3TA
Gap,SWINDON,7977,7977 #7977 #07977,Great Western Factory Outlet,EG,SN2 2DZ
Gap,ASHFORD,7978,7978 #7978 #07978,Romney Marsh Road,EG,TN231EZ
Gap,LIVINGSTON,7979,7979 #7979 #07979,Almondville Avenue,SC,EH546QX
Gap,YORK,7982,7982 #7982 #07982,St Nicholas Ave,CA,Y0194TA
Gap,WATERTOWN,7986,7986 #7986 #07986,485 ARSENAL STREET,MA,2472
Gap,EL PASO,7988,7988 #7988 #07988,7051 SOUTH DESERT BLVD.,TX,79835
Gap,LIMERICK,7994,7994 #7994 #07994,18 WEST LIGHTCAP ROAD,PA,19464
Gap,WASHINGTON,7997,7997 #7997 #07997,2200 TANGER BLVD,PA,15301
Gap,PARIS,8322,8322 #8322 #08322,102 Rue Du Rivoli,FR,75001
Gap,LYON CEDEX 3,8324,8324 #8324 #08324,17 Rue Du Docteur Bouchet,FR,69003
Gap,PARIS,8328,8328 #8328 #08328,14 rue Mabillon,FR,75006
Gap,MONTPELLIER,8331,8331 #8331 #08331,1 Rue Des Pertuisanes Bp 9582,Languedoc-Roussillon,34000
Gap,PARIS,8332,8332 #8332 #08332,3 rue du Commerce,IDF,75015
Gap,PARIS,8333,8333 #8333 #08333,109 rue St Lazare,IDF,75009
Gap,PARIS,8338,8338 #8338 #08338,36 rue Tronchet,IDF,75009
Gap,PARIS,8340,8340 #8340 #08340,64 Rue de Rennes,IDF,75006
Gap,PARIS,8344,8344 #8344 #08344,13-15 Avenue des Ternes,IDF,75017
Gap,CHULA VISTA,8345,8345 #8345 #08345,2015 BIRCH ROAD #1001,CA,91915
Gap,BOULOGNE,8347,8347 #8347 #08347,106 Boulevard Jean Jaures,IDF,92100
Gap,PARIS,8348,8348 #8348 #08348,47 Boulevard St Michel,IDF,75005
Gap,PARIS,8352,8352 #8352 #08352,1 rue Scribe,IDF,75009
Gap,PARIS,8353,8353 #8353 #08353,112 Avenue Kleber,IDF,75017
Gap,PARIS,8358,8358 #8358 #08358,L'Atrium du Palais,IDF,75017
Gap,PARIS,8369,8369 #8369 #08369,Porte Rambuteau - Niveau 2,IDF,75001
Gap,MURRAY,8404,8404 #8404 #08404,6191 SO STATE ST,UT,84107
Gap,OREM,8405,8405 #8405 #08405,1300 South State Street,UT,84097
Gap,CHARLESTON,8502,8502 #8502 #08502,2033 CHARLESTON TOWN CENTER,WV,25389
Gap,MORGANTOWN,8503,8503 #8503 #08503,9907 MALL RD,WV,26501
Gap,JERSEY CITY,8947,8947 #8947 #08947,30 MALL DR W,NJ,7310
Gap,BRAINTREE,8963,8963 #8963 #08963,250 Granite Street,MA,2184
Gap,PLANO,8971,8971 #8971 #08971,1900 Preston Road,TX,75075
Gap,BRADLEY,9000,9000 #9000 #09000,2060 N. STATE ROUTE 50,IL,60915
Gap,SAN ANTONIO,9002,9002 #9002 #09002,148 NORTH STAR MALL,TX,78216
Gap,SAN ANTONIO,9006,9006 #9006 #09006,11745 IH 10 WEST,TX,78230
Gap,SAN ANTONIO,9010,9010 #9010 #09010,7322 Jones Maltsberger Road #114,TX,78209
Gap,LONDON,9024,9024 #9024 #09024,208 REGENT STREET,EG,WIB 5BD
Gap,LONDON,9025,9025 #9025 #09025,208 Regent Street,EG,W1R 5FA
Gap,LONDON,9027,9027 #9027 #09027,35 Hampstead High St,EG,NW3 1QE
Gap,RICHMOND,9028,9028 #9028 #09028,38 George Street,EG,TW9 1HY
Gap,"KINGSTON, SURREY",9029,9029 #9029 #09029,BENTALL SHOPPING CENTRE,EG,KT1 -1TP
Gap,BATH,9033,9033 #9033 #09033,17 Milsom St,EG,BA1 1DE
Gap,LONDON,9035,9035 #9035 #09035,99-101 High Street,EG,W85SA
Gap,WATFORD,9039,9039 #9039 #09039,113 High Street,EG,WD1 2DQ
Gap,GLASGOW,9043,9043 #9043 #09043,167-201 Argyle Street,SC,G28BX
Gap,LONDON,9050,9050 #9050 #09050,121-123 Long Acre,EG,WC2E9PA
Gap,LONDON,9051,9051 #9051 #09051,26-22 Chiswick High Road,EG,W41PD
Gap,BRIGHTON,9055,9055 #9055 #09055,16-19 East Street,EG,BNM11HP
Gap,LONDON,9057,9057 #9057 #09057,47-49 HIGH STREET,EG,NW8 7NJ
Gap,BRISTOL,9060,9060 #9060 #09060,UNIT 104 UPPER LEVEL,EG,BS345UP
Gap,MILTON KEYNES,9071,9071 #9071 #09071,33 SILBURY ARCADE,EG,MK9 3AG
Gap,YORK,9074,9074 #9074 #09074,22-24 Davygate,EG,YO1 8RJ
Gap,BAYSWATER,9081,9081 #9081 #09081,UNIT 29,EG,W24YN
Gap,SHEFFIELD,9084,9084 #9084 #09084,"19/20 Park Lane, Meadowhall Centre",EG,S91EL
Gap,SOUTHAMPTON,9086,9086 #9086 #09086,UNITS 23-25 PORTLAND  TERRACE,EG,SO147EG
Gap,NOTTINGHAM,9087,9087 #9087 #09087,Victoria Centre,EG,NG1 3QE
Gap,LONDON,9092,9092 #9092 #09092,UNIT RS 330 Cabot Place East,EG,E14 4UT
Gap,LONDON,9100,9100 #9100 #09100,Unit SU56,,EC4M9AH
Gap,SACRAMENTO,9104,9104 #9104 #09104,1689 Arden Way,CA,95815
Gap,DAVIS,9108,9108 #9108 #09108,500 1ST ST,CA,95616
Gap,CARDIFF,9116,9116 #9116 #09116,UNIT UG33,WL,CF102EL
Gap,NANAIMO,9122,9122 #9122 #09122,6631 Island Highway North,BC,V9T 4T7
Gap,ABBOTSFORD,9123,9123 #9123 #09123,32900 South Fraser Way,BC,V2S 3P9
Gap,LONDON,9135,9135 #9135 #09135,"UNIT SU2007 / 2507, NORTHERN ARCADE",,E20 1EQ
Gap,HALIFAX,9138,9138 #9138 #09138,212 CHAIN LAKE DRIVE,NS,B3S 1C5
Gap,KITCHENER,9151,9151 #9151 #09151,2960 Kingsway Drive,ON,N2C 1X1
Gap,SCARBOROUGH,9153,9153 #9153 #09153,300 Borough Drive,ON,M1P 4P5
Gap,OSHAWA,9154,9154 #9154 #09154,419 King Street West,ON,L1J 2K5
Gap,BURNABY,9157,9157 #9157 #09157,4700 Kingsway,BC,V5H 4M1
Gap,VANCOUVER,9158,9158 #9158 #09158,1121 ROBSON ST,BC,V6E 1B5
Gap,VANCOUVER,9159,9159 #9159 #09159,650 West 41st Avenue,BC,V5Z 2M9
Gap,HAMILTON,9161,9161 #9161 #09161,999 UPPER WENTWORTH ST,ON,L9A 4X5
Gap,EDMONTON,9162,9162 #9162 #09162,243 109th Street & Kingsway Avenue,AB,T5G 3A6
Gap,VICTORIA,9163,9163 #9163 #09163,1319 Goverment Street,BC,V8W 1Y9
Gap,WINNIPEG,9164,9164 #9164 #09164,1225 St. Mary's Rd,MB,R2M 5E5
Gap,KINGSTON,9165,9165 #9165 #09165,230-234 Princess St,ON,K7L 1B2
Gap,ST. CATHERINES,9166,9166 #9166 #09166,221 Glendale Avenue/Highway 406,ON,L2T 2K9
Gap,DIEPPE,9169,9169 #9169 #09169,477 Paul Street,NB,E1A 4X5
Gap,KELOWNA,9171,9171 #9171 #09171,2271 Harvey Avenue,BC,V1Y 6H2
Gap,WHISTLER,9172,9172 #9172 #09172,4308 Main Street,BC,V0N 1B4
Gap,ST. JOHN'S,9175,9175 #9175 #09175,48 Kenmount Road,NF,A1B 1W3
Gap,VANCOUVER,9176,9176 #9176 #09176,2134 West 41st Avenue,BC,V6M 1Z1
Gap,LONDON,9177,9177 #9177 #09177,1105 Wellington Road South,ON,N6E 1V4
Gap,EDMONTON,9184,9184 #9184 #09184,5015 111th Street,AB,T5H 4M6
Gap,HALIFAX,9187,9187 #9187 #09187,"7001 Mumford Road, Tower 1 Su. 202",NS,B3L 4N9
Gap,REGINA,9188,9188 #9188 #09188,2102 11th Avenue,SK,S4P 3Y6
Gap,MISSISSAUGA,9194,9194 #9194 #09194,5100 Erin Mills Parkway,ON,L5M 4Z5
Gap,COQUITLAM,9195,9195 #9195 #09195,2929 Barnet Highway,BC,V3B 5R5
Gap,BRAMPTON,9196,9196 #9196 #09196,25 Peel Centre Drive,ON,L6T 3R5
Gap,LONDON,9197,9197 #9197 #09197,1680 Richmond Street North,ON,N6G 3Y9
Gap,STE. FOY,9199,9199 #9199 #09199,2450 Blvd. Laurier,QC,G1V 2L1
Gap,AKITA,9202,9202 #9202 #09202,1-1-1 KURATA,Akita Prefecture,101413
Gap,KASUYA,9203,9203 #9203 #09203,"1196-1 YAMADA, HISAYAMA",Fukuoka Prefecture,00811-2502
Gap,NISHITAMA,9204,9204 #9204 #09204,"237-3 MIYOSHINOSAKURAGI, HIRAI",Kagawa Prefecture,00190-0182
Gap,OTA,9205,9205 #9205 #09205,"1F, 81 ISHIHARA",Ibaraki Prefecture,00373-0808
Gap,KYOTO,9206,9206 #9206 #09206,"2F, 1 NISHIKUJO TORIGUCHI",Tokushima Prefecture,00601-8417
Gap,NAGOYA,9207,9207 #9207 #09207,"18-44 TOKUSHIGE, NARUMI",Chiba Prefecture,00458-8570
Gap,HITACHINAKA,9208,9208 #9208 #09208,35 SHINKO,Ibaraki Prefecture,00312-0005
Gap,LYNNWOOD,9238,9238 #9238 #09238,3000 184TH ST SW #432,WA,98037
Gap,NEWPORT,9246,9246 #9246 #09246,4-8 LONG WHARF MALL S,RI,2840
Gap,LEAWOOD,9262,9262 #9262 #09262,4844 WEST 119TH STREET,KS,66209
Gap,COCONUT GROVE,9272,9272 #9272 #09272,3015 GRAND AVE,FL,33133
Gap,AURORA,9299,9299 #9299 #09299,1262 FOX VALLEY CTR,IL,60504
Gap,THURROCK,9300,9300 #9300 #09300,"The Junction, Thurrock Shopping Pk",EG,RM203LP
Gap,AUSTIN,9302,9302 #9302 #09302,2901 S CAPITAL OF TEXAS HWY,TX,78746
Gap,CEDAR PARK,9306,9306 #9306 #09306,11200 LAKELINE MALL DR,TX,78613
Gap,AUSTIN,9307,9307 #9307 #09307,4001 North Lamar Blvd.,TX,78756
Gap,KILLEEN,9309,9309 #9309 #09309,2100 South W.S. Young Drive,TX,76543
Gap,BRIDGEND,9311,9311 #9311 #09311,"Unit 1 & 2, WELSH DESIGNER VILLAGE",,CF329SU
Gap,GLOUCESTER,9313,9313 #9313 #09313,GLOUCESTER QUAYS DESIGNER CENTER,,GL1 5SH
Gap,DONCASTER,9314,9314 #9314 #09314,"UNIT 12, LAKESIDE VILLAGE OUTLET",,DN4 5PH
Gap,NEWCASTLE UPON TYNE,9315,9315 #9315 #09315,"UNIT 7, ROYAL QUAYS OUTLET CENTRE",,NE296DW
Gap,HATFIELD,9316,9316 #9316 #09316,"UNIT 14, THE GALLERIA",,AL100XR
Gap,GRETNA,9317,9317 #9317 #09317,"UNITS 1A, 2, & 3",,DG165GG
Gap,BRAINTREE,9318,9318 #9318 #09318,UNIT M1,,CM778YH
Gap,ANTRIM,9319,9319 #9319 #09319,UNITS 7-8,NI,BT414LL
Gap,LAREDO,9322,9322 #9322 #09322,5300 SAN DARIO AVE,TX,78041
Gap,LOMBARD,9375,9375 #9375 #09375,237 YORKTOWN SHOPPING CTR,IL,60148
Gap,MEMPHIS,9393,9393 #9393 #09393,"2760 N Germantown Pkwy,",TN,38133
Gap,BUFFALO,9406,9406 #9406 #09406,3701 MCKINLEY PARKWAY,NY,14219
Gap,MAEBASHI,9411,9411 #9411 #09411,18 NIIBORI,Aomori Prefecture,00379-2143
Gap,KASUKABE,9412,9412 #9412 #09412,1-1-1 MINAMI,Saitama Prefecture,00344-0064
Gap,CHOFU,9413,9413 #9413 #09413,2-2 Wakaba,Tokyo,00182-0003
Gap,NIIHAMA,9414,9414 #9414 #09414,8-8 Maeda,Ehime Prefecture,00792-0007
Gap,SAITAMA,9415,9415 #9415 #09415,1-854-1 MIYAHARACHUO,Saitama Prefecture,00331-0812
Gap,NAKAKOMA,9416,9416 #9416 #09416,"1GAIKU TOCHIKUKAKUSEIRICHINAI, JOEI",Yamanashi Prefecture,00409-3852
Gap,YOKKAICHI,9417,9417 #9417 #09417,2-40 TOMISUHARA,Mie Prefecture,00510-8014
Gap,KITAKYUSHU,9418,9418 #9418 #09418,3-2-102 HIGASHIDA,Fukuoka Prefecture,00805-0071
Gap,FUNABASHI,9419,9419 #9419 #09419,156- 1 MORI MINAIOUCHI,Kyoto Prefecture,00613-0024
Gap,YACHIYO,9420,9420 #9420 #09420,1-1-8 YAMATE,Chiba Prefecture,00273-0045
Gap,YACHIYO,9421,9421 #9421 #09421,1-4-1 MURAKAMI-MINAMI,Chiba Prefecture,00276-0029
Gap,MOTOSU,9422,9422 #9422 #09422,1100 MITSUHASHI,Gifu Prefecture,00501-0497
Gap,FUJIMINO,9423,9423 #9423 #09423,2-10-87 URESHINO,Saitama Prefecture,00356-0056
Gap,CANTON,9434,9434 #9434 #09434,4131 BELDEN VILLAGE MALL,OH,44718
Gap,STOCKPORT,9439,9439 #9439 #09439,Unite 3 the Peel Centre,EG,SK1 2DW
Gap,ASTORIA,9499,9499 #9499 #09499,31-02 STEINWAY ST,NY,11103
Gap,LITTLE ROCK,9510,9510 #9510 #09510,6000 W. Markham,AR,72205
Gap,ROGERS,9516,9516 #9516 #09516,529 N 46th St,AR,72756
Gap,WEST DES MOINES,9518,9518 #9518 #09518,101 74th Street,IA,50266
Gap,ETOBICOKE,9525,9525 #9525 #09525,25 The West Mall,ON,M9C 1B8
Gap,TORONTO,9526,9526 #9526 #09526,2574 Yonge Street,ON,M4P 2J1
Gap,MISSISSAUGA,9530,9530 #9530 #09530,100 City Centre Drive,ON,L5B 2C9
Gap,TORONTO,9532,9532 #9532 #09532,3401 Dufferin Street,ON,M6A 2T9
Gap,VANCOUVER,9534,9534 #9534 #09534,640 Park Royal Shopping Centre,BC,V7T 1H9
Gap,CALGARY,9537,9537 #9537 #09537,3625 Shagnappi Trail NW,AB,T3A 0E2
Gap,MONTREAL,9541,9541 #9541 #09541,705 St. Catherine Street West,QC,H3B 4G5
Gap,VILLE DE LAVAL,9542,9542 #9542 #09542,3003 Boulevard Le Carrefour,QC,H7T 1C7
Gap,SAINT BRUNO,9543,9543 #9543 #09543,302 Boulevard Des Promenades,QC,J3V 6A7
Gap,MONTREAL,9544,9544 #9544 #09544,2305 Rockland Road,QC,H3B 4G5
Gap,EDMONTON,9545,9545 #9545 #09545,8882 170th Street,AB,T5T 4J2
Gap,SAN FRANCISCO,9604,9604 #9604 #09604,3491 California St,CA,94118
Gap,LOS ANGELES,9621,9621 #9621 #09621,10800 W Pico Blvd,CA,90064
Gap,TIGARD,9643,9643 #9643 #09643,9348 SW WASHINGTON SQUARE RD,OR,97223
Gap,EDINA,9649,9649 #9649 #09649,1504 SOUTHDALE CTR,MN,55435
Gap,MADISON,9656,9656 #9656 #09656,56 West Towne Mall,WI,53719
Gap,RICHMOND HEIGHTS,9670,9670 #9670 #09670,1085 Saint Louis Galleria,MO,63117
Gap,BOCA RATON,9690,9690 #9690 #09690,6000 GLADES RD,FL,33431
Gap,WILLOW GROVE,9741,9741 #9741 #09741,2500 W MORELAND RD,PA,19090
Gap,DANBURY,9793,9793 #9793 #09793,7 BACKUS AVE,CT,6810
Gap,GREENWICH,9797,9797 #9797 #09797,264 Greenwich Avenue,CT,6830
Gap,VANCOUVER,9800,9800 #9800 #09800,701 West Georgia Street,BC,V7Y 1E7
Gap,RICHMOND,9802,9802 #9802 #09802,6551 No. 3 Road,BC,V6Y 2B9
Gap,SURREY,9806,9806 #9806 #09806,2232 Guildford Town Centre,BC,V3R 7B9
Gap,CALGARY,9815,9815 #9815 #09815,100 Anderson Road South East,AB,T2J 3V1
Gap,CALGARY,9816,9816 #9816 #09816,6455 McCloud Trail South,AB,T2H 0K8
Gap,RED DEER,9818,9818 #9818 #09818,4900 Molly Banister Drive,AB,T4R 1N9
Gap,SASKATOON,9824,9824 #9824 #09824,201 21ST St E,SK,S7K 1J9
Gap,EDMONTON,9825,9825 #9825 #09825,8882 170th Street,AB,T5T 4M2
Gap,TORONTO,9830,9830 #9830 #09830,1800 Sheppard Avenue East,ON,M2J 5A7
Gap,WILLOWDALE,9835,9835 #9835 #09835,2901 Bayview Avenue,ON,M2K 1E6
Gap,THORNHILL,9836,9836 #9836 #09836,1 Promenade Circle,ON,L4J 4P8
Gap,TORONTO,9840,9840 #9840 #09840,260 YONGE ST - E1,ON,M5B 2L9
Gap,MARKHAM,9841,9841 #9841 #09841,5000 Highway 7,ON,L3R 4M9
Gap,TORONTO,9842,9842 #9842 #09842,2635 Yonge Street,ON,M4P 2J5
Gap,NEWMARKET,9848,9848 #9848 #09848,17600 Yonge Street,ON,L3Y 4Z1
Gap,LAVAL,9851,9851 #9851 #09851,3035 LE CARREFOUR BLVD,QC,H7T 1C8
Gap,POINTE CLAIRE,9852,9852 #9852 #09852,6801 TRANS CANADA HWY,QC,H9R 1C4
Gap,MONTREAL,9854,9854 #9854 #09854,2305 Rockland Road,QC,H3P 3E9
Gap,MONTREAL,9855,9855 #9855 #09855,4210 St Denis Street,QC,H2J 2K8
Gap,OTTAWA,9859,9859 #9859 #09859,50 Rideau Centre,ON,K1N 9J7
Gap,DARTMOUTH,9860,9860 #9860 #09860,21 Mic Mac Boulevard,NS,B2W 4A3
Gap,WINNIPEG,9865,9865 #9865 #09865,1485 PORTAGE AVE,MB,R3G 0W4
Gap,PICKERING,9868,9868 #9868 #09868,1355 KINGSTON RD,ON,L1V 1B8
Gap,MONTREAL,9869,9869 #9869 #09869,7077 NEWMAN BLVD,QC,H8N 1X1
Gap,CALGARY,9870,9870 #9870 #09870,"317 7TH AVE SW, STE 245",AB,T2P 2Y9
Gap,QUEBEC CITY,9873,9873 #9873 #09873,5401 BOULEVARD DE GALERIES,QC,G2K 1N4
Gap,OTTAWA,9875,9875 #9875 #09875,1200 ST LAURENT BLVD,ON,K1K 3B8
Gap,TORONTO,9876,9876 #9876 #09876,60 BLOOR ST W,ON,M4W 3B8
Gap,TORONTO,9877,9877 #9877 #09877,375 QUEEN ST W,ON,M5V 2A5
Gap,BARRIE,9878,9878 #9878 #09878,509 BAYFIELD ST,ON,L4M 4Z8
Gap,ST CATHERINES,9879,9879 #9879 #09879,221 GLENDALE AVE AND HIGHWAY 406,ON,L2T 2K9
Gap,NEPEAN,9880,9880 #9880 #09880,100 BAYSHORE DR,ON,K2B 8C1
Gap,WINDSOR,9881,9881 #9881 #09881,3100 HOWARD AVE,ON,N8X 3Y8
Gap,WATERLOO,9883,9883 #9883 #09883,550 KING ST N,ON,N2L 5W6
Gap,ABBOTSFORD,9886,9886 #9886 #09886,32900 S FRASER WAY,BC,V2S 5A1
Gap,RICHMOND HILL,9887,9887 #9887 #09887,9350 YONGE ST,ON,L4C 5G2
Gap,VICTORIA,9888,9888 #9888 #09888,3147 DOUGLAS ST,BC,V8Z 6E3
