keywords,city,Aggdata Store Number,store_number,address,state,zip_code
Giant Eagle,Gibsonia,1691,#1691 #001691 #01691,5600 William Flynn Highway,PA,15044
Giant Eagle,Groveport,6537,#6537 #006537 #06537,3841 S. Hamilton Road,OH,43125
Giant Eagle,New Kensington,8,#8 #008 #08,200 Tarentum Bridge Road,PA,15068
Giant Eagle,Greensburg,9,#9 #009 #09,6204 Route 30,PA,15601
Giant Eagle,North Huntingdon,10,#10 #0010 #010,8901 Route 30,PA,15642
Giant Eagle,North Versailles,15,#15 #0015 #015,1701 Lincoln Highway,PA,15137
Giant Eagle,Johnstown,16,#16 #0016 #016,1451 Scalp Avenue,PA,15904
Giant Eagle,Pittsburgh,17,#17 #0017 #017,6320 Shakespeare Street,PA,15206
Giant Eagle,Glenshaw,18,#18 #0018 #018,1671 Butler Plank Road,PA,15116
Giant Eagle,Johnstown,19,#19 #0019 #019,1233 Broad Street,PA,15906
Giant Eagle,West View,25,#25 #0025 #025,1029 West View Park Drive,PA,15229
Giant Eagle,West Mifflin,29,#29 #0029 #029,1356 Hoffman Boulevard,PA,15122
Giant Eagle,Export,32,#32 #0032 #032,4810 Old William Penn Hwy,PA,15632
Giant Eagle,Leetsdale,37,#37 #0037 #037,Quaker Village S.C.,PA,15056
Giant Eagle,Pittsburgh,38,#38 #0038 #038,1901 Murray Avenue,PA,15217
Giant Eagle,Leechburg,41,#41 #0041 #041,41 Towne Center Drive,PA,15656
Giant Eagle,Seven Fields,42,#42 #0042 #042,206 Seven Fields Blvd,PA,16046
Giant Eagle,Pittsburgh,45,#45 #0045 #045,9805 McKnight Road,PA,15237
Giant Eagle,Johnstown,46,#46 #0046 #046,344 Goucher Street,PA,15905
Giant Eagle,Pittsburgh,52,#52 #0052 #052,132 Ben Avon Heights Road,PA,15237
Giant Eagle,Belle Vernon,53,#53 #0053 #053,300 Tri County Plaza,PA,15012
Giant Eagle,Somerset,54,#54 #0054 #054,1606 North Center Avenue,PA,15501
Giant Eagle,Morgantown,58,#58 #0058 #058,4500 University Town Center,WV,26501
Giant Eagle,Morgantown,59,#59 #0059 #059,130 Greenbag Road,WV,26505
Giant Eagle,Monroeville,60,#60 #0060 #060,4010 Monroeville Boulevard,PA,15146
Giant Eagle,Pittsburgh,61,#61 #0061 #061,2021 Wharton Avenue,PA,15203
Giant Eagle,Rochester,62,#62 #0062 #062,111 West Madison Street,PA,15074
Giant Eagle,Pittsburgh,63,#63 #0063 #063,4250 Murray Avenue,PA,15217
Giant Eagle,Beaver Falls,66,#66 #0066 #066,2650 Constitution Boulevard,PA,15010
Giant Eagle,Pittsburgh,67,#67 #0067 #067,8080 McIntyre Square Drive,PA,15237
Giant Eagle,Coraopolis,68,#68 #0068 #068,5990 University Blvd,PA,15108
Giant Eagle,Pittsburgh,72,#72 #0072 #072,910 Freeport Road,PA,15238
Giant Eagle,West Mifflin,73,#73 #0073 #073,9901 Mountainview Drive,PA,15122
Giant Eagle,Pittsburgh,74,#74 #0074 #074,1165 McKinney Lane,PA,15220
Giant Eagle,Baden,75,#75 #0075 #075,1600 West State Street,PA,15005
Giant Eagle,Monroeville,76,#76 #0076 #076,4680 Old William Penn Hwy,PA,15146
Giant Eagle,Pittsburgh,77,#77 #0077 #077,254 Yost Boulevard-Braddock,PA,15221
Giant Eagle,Pittsburgh,78,#78 #0078 #078,230 Rodi Road,PA,15235
Giant Eagle,Roaring Spring,79,#79 #0079 #079,510 S Route 36,PA,16673-1629
Giant Eagle,Brookville,80,#80 #0080 #080,40 White Street,PA,15825
Giant Eagle,Greensburg,81,#81 #0081 #081,"5142 Route 30, Suite 140",PA,15601
Giant Eagle,Latrobe,82,#82 #0082 #082,1050 Mt. Laurel Plaza,PA,15650
Giant Eagle,DuBois,84,#84 #0084 #084,100 N Main Street,PA,15801
Giant Eagle,Oil City,86,#86 #0086 #086,602 East 2nd Street,PA,16301
Giant Eagle,St. Mary's,87,#87 #0087 #087,846 South Saint Marys Street,PA,15857
Giant Eagle,Titusville,88,#88 #0088 #088,110 S Martin Street,PA,16354
Giant Eagle,Columbus,177,#177 #00177 #0177,851 W Fifth Ave,OH,43212
Giant Eagle,Strongsville,178,#178 #00178 #0178,17887 South Park Center,OH,44136
Giant Eagle,West Richfield,179,#179 #00179 #0179,4428 Broadview Road,OH,44286
Giant Eagle,Ellwood City,182,#182 #00182 #0182,289 State Route 288,PA,16117
Giant Eagle,Mentor,196,#196 #00196 #0196,7960 Plaza Boulevard,OH,44060
Giant Eagle,North Ridgeville,199,#199 #00199 #0199,34325 Center Ridge Road,OH,44039
Giant Eagle,Chesterland,203,#203 #00203 #0203,12692 Chillicothe Road,OH,44026
Giant Eagle,North Royalton,204,#204 #00204 #0204,6000 Royalton Road,OH,44133
Giant Eagle,Lyndhurst,208,#208 #00208 #0208,25105 Cedar Road,OH,44124
Giant Eagle,Bedford,209,#209 #00209 #0209,900 Northfield Road,OH,44146
Giant Eagle,Chagrin Falls,213,#213 #00213 #0213,20 Shopping Plaza,OH,44022
Giant Eagle,Willowick,216,#216 #00216 #0216,30320 Lakeshore Boulevard,OH,44095
Giant Eagle,Middleburg Heights,217,#217 #00217 #0217,6869 Southland Drive,OH,44130
Giant Eagle,Amherst,220,#220 #00220 #0220,2201 Kresge Drive,OH,44001
Giant Eagle,Twinsburg,224,#224 #00224 #0224,8960 Darrow Road,OH,44087
Giant Eagle,Brunswick,229,#229 #00229 #0229,3440 Center Road,OH,44212
Giant Eagle,Sheffield Lake,231,#231 #00231 #0231,5231 Detroit Road,OH,44054
Giant Eagle,Rices Landing,389,#389 #00389 #0389,999 North Eighty Eight Road,PA,15357
Giant Eagle,South Euclid,440,#440 #00440 #0440,4401 Mayfield Road,OH,44121
Giant Eagle,Brook Park,465,#465 #00465 #0465,14650 Snow Road,OH,44142
Giant Eagle,Bainbridge,515,#515 #00515 #0515,8515 Tanglewood Square,OH,44023
Giant Eagle,White Oak,600,#600 #00600 #0600,2001 Lincoln Way,PA,15131
Giant Eagle,Elizabeth,605,#605 #00605 #0605,800 McKeesport Rd,PA,15037
Giant Eagle,Ligonier,607,#607 #00607 #0607,117 South Walnut Street,PA,15658
Giant Eagle,Monongahela,614,#614 #00614 #0614,1300 Country Club Road,PA,15063
Giant Eagle,Pittsburgh,616,#616 #00616 #0616,600 Towne Square Way,PA,15227
Giant Eagle,Geneva,617,#617 #00617 #0617,755 South Broadway Avenue,OH,44041
Giant Eagle,Pittsburgh,619,#619 #00619 #0619,1705 South Braddock Avenue,PA,15218
Giant Eagle,North Cambria,624,#624 #00624 #0624,7 Cottonwood Street,PA,15714
Giant Eagle,Jeannette,626,#626 #00626 #0626,2000 Penny Lane Drive,PA,15644
Giant Eagle,East Liverpool,632,#632 #00632 #0632,15937 State Route 170,OH,43920
Giant Eagle,Sarver,643,#643 #00643 #0643,100 Buffalo Plaza,PA,16055
Giant Eagle,East Liverpool,645,#645 #00645 #0645,619 Bradshaw Avenue,OH,43920
Giant Eagle,Pittsburgh,646,#646 #00646 #0646,51 Walsh Road,PA,15205
Giant Eagle,Altoona,649,#649 #00649 #0649,181 Sophira Lane,PA,16602
Giant Eagle,Pittsburgh,652,#652 #00652 #0652,318-320 Cedar Avenue,PA,15212
Giant Eagle,Greenville,659,#659 #00659 #0659,50 Hadley Road,PA,16125
Giant Eagle,West Newton,660,#660 #00660 #0660,105 Robertson Street,PA,15089
Giant Eagle,Salem,664,#664 #00664 #0664,2401 East State Street,OH,44460
Giant Eagle,Cranberry Township,665,#665 #00665 #0665,20111 Route 19,PA,16066
Giant Eagle,Finleyville,667,#667 #00667 #0667,3701 Route 88,PA,15332
Giant Eagle,Brookfield,668,#668 #00668 #0668,7229 Warren-Sharon Road,OH,44403
Giant Eagle,Slippery Rock,670,#670 #00670 #0670,223 Grove City Rd.,PA,16057
Giant Eagle,Waynesburg,673,#673 #00673 #0673,100 Sugar Run Road,PA,15370
Giant Eagle,Meadville,675,#675 #00675 #0675,18511 Smock Highway,PA,16335
Giant Eagle,Franklin,681,#681 #00681 #0681,541 Allegheny Boulevard,PA,16323
Giant Eagle,Somerset,683,#683 #00683 #0683,4192 Glades Pike,PA,15501
Giant Eagle,Poland,688,#688 #00688 #0688,3130 Center Road,OH,44514
Giant Eagle,Louisville,692,#692 #00692 #0692,108 West Main Street,OH,44641
Giant Eagle,Aliquippa,694,#694 #00694 #0694,3113 Green Garden Road,PA,15001
Giant Eagle,Verona,695,#695 #00695 #0695,200 Allegheny River Boulevard,PA,15147
Giant Eagle,Pittsburgh,697,#697 #00697 #0697,9001 Frankstown Road,PA,15235
Giant Eagle,McDonald,698,#698 #00698 #0698,200 Station Street,PA,15057
Giant Eagle,Niles,1041,#1041 #001041 #01041,48 Vienna Avenue,OH,44446
Giant Eagle,Westlake,1216,#1216 #001216 #01216,30275 Detroit Road,OH,44145
Giant Eagle,Mentor On The Lake,1217,#1217 #001217 #01217,6079 Andrew Road,OH,44060
Giant Eagle,Warren,1219,#1219 #001219 #01219,2061 Elm Road,OH,44483
Giant Eagle,Willoughby Hills,1225,#1225 #001225 #01225,27505 Chardon Road,OH,44092
Giant Eagle,Vermilion,1238,#1238 #001238 #01238,4453 Liberty Avenue,OH,44089
Giant Eagle,Cleveland,1263,#1263 #001263 #01263,15325 Edgecliff Avenue,OH,44111
Giant Eagle,Avon Lake,1284,#1284 #001284 #01284,31990 Walker Road,OH,44012
Giant Eagle,Rocky River,1297,#1297 #001297 #01297,22160 Center Ridge Road,OH,44116
Giant Eagle,Cleveland,1298,#1298 #001298 #01298,13820 Lorain Avenue,OH,44111
Giant Eagle,Bedford,1602,#1602 #001602 #01602,510 East Pitt Street,PA,15522
Giant Eagle,Bentleyville,1603,#1603 #001603 #01603,155 Wilson Road,PA,15314
Giant Eagle,Alliance,1605,#1605 #001605 #01605,1800 West State Street,OH,44601
Giant Eagle,Butler,1608,#1608 #001608 #01608,1521 North Main Street,PA,16001
Giant Eagle,Butler,1609,#1609 #001609 #01609,700 Moraine Pointe Plaza,PA,16001
Giant Eagle,Hartville,1618,#1618 #001618 #01618,907 West Maple Street,OH,44632
Giant Eagle,Canal Fulton,1633,#1633 #001633 #01633,2275 Locust Street,OH,44614
Giant Eagle,Ebensburg,1670,#1670 #001670 #01670,881 College Plaza,PA,15931
Giant Eagle,Pittsburgh,5103,#5103 #005103 #05103,2611 Freeport Road,PA,15238
Giant Eagle,Frederick,1841,#1841 #001841 #01841,1275 West Patrick Street,MD,21702
Giant Eagle,Frederick,1842,#1842 #001842 #01842,1305 West 7th Street,MD,21702
Giant Eagle,Berea,2108,#2108 #002108 #02108,50 West Bridge Street,OH,44017
Giant Eagle,Erie,3001,#3001 #003001 #03001,2906 West 26th Street,PA,16506
Giant Eagle,McKees Rocks,3002,#3002 #003002 #03002,1809 McKees Rocks Road,PA,15136
Giant Eagle,Pittsburgh,3003,#3003 #003003 #03003,3247 East Carson Street,PA,15203
Giant Eagle,New Kensington,3008,#3008 #003008 #03008,250 Tarentum Bridge Road,PA,15068
Giant Eagle,Greensburg,3009,#3009 #003009 #03009,"RD 6, Box 215A",PA,15601
Giant Eagle,North Huntingdon,3010,#3010 #003010 #03010,8813 Route 30,PA,15642
Giant Eagle,Hermitage,3012,#3012 #003012 #03012,2385 East State Street,PA,16148
Giant Eagle,Pittsburgh,3021,#3021 #003021 #03021,7675 McKnight Road,PA,15237
Giant Eagle,Cuyahoga Falls,3022,#3022 #003022 #03022,125 Graham Road,OH,44223
Giant Eagle,Richeyville,3027,#3027 #003027 #03027,3143 National Pike Rd.,PA,15358
Giant Eagle,Akron,3029,#3029 #003029 #03029,1796 Canton Rd,OH,44312
Giant Eagle,Pittsburgh,3038,#3038 #003038 #03038,5801 Forward Avenue,PA,15217
Giant Eagle,Leechburg,3041,#3041 #003041 #03041,51 Towne Center Drive,PA,15656
Giant Eagle,Wexford,3043,#3043 #003043 #03043,140 Towne Centre Drive,PA,15090
Giant Eagle,New Castle,3045,#3045 #003045 #03045,1901 West State Street,PA,16101
Giant Eagle,Girard,3050,#3050 #003050 #03050,9165 West Ridge Road,PA,16417
Giant Eagle,Belle Vernon,3051,#3051 #003051 #03051,4285 State Route 51 S,PA,15012
Giant Eagle,Somerset,3054,#3054 #003054 #03054,1604 North Center Avenue,PA,15501
Giant Eagle,Morgantown,3058,#3058 #003058 #03058,4550 University Town Centre Drive,WV,26501
Giant Eagle,Morgantown,3059,#3059 #003059 #03059,54 Don Knotts Blvd.,WV,26501
Giant Eagle,Monroeville,3060,#3060 #003060 #03060,4000 Monroeville Blvd.,PA,15146
Giant Eagle,Pittsburgh,3064,#3064 #003064 #03064,4924 Baum Blvd.,PA,15213
Giant Eagle,Boardman,3075,#3075 #003075 #03075,6911 South Avenue,OH,44512
Giant Eagle,New Castle,3077,#3077 #003077 #03077,3224 Wilmington Road,PA,16105
Giant Eagle,Brookville,3080,#3080 #003080 #03080,217 Allegheny Blvd,PA,15825
Giant Eagle,Mount Pleasant,3081,#3081 #003081 #03081,230 Bessemer Road,PA,15666
Giant Eagle,Latrobe,3082,#3082 #003082 #03082,1100 Mt. Laurel Plaza,PA,15650
Giant Eagle,St. Mary's,3087,#3087 #003087 #03087,1109 Million Dollar Hwy,PA,15857
Giant Eagle,Broadview Heights,3088,#3088 #003088 #03088,4955 Royalton Road,OH,44147
Giant Eagle,Lyndhurst,3092,#3092 #003092 #03092,5275 Mayfield Road,OH,44124
Giant Eagle,Wilkinsburg,3106,#3106 #003106 #03106,408 Penn Avenue,PA,15221
Giant Eagle,Pittsburgh,3107,#3107 #003107 #03107,4000 Butler Street,PA,15201
Giant Eagle,Pittsburgh,3108,#3108 #003108 #03108,10525 Frankstown Road,PA,15235
Giant Eagle,East McKeesport,3109,#3109 #003109 #03109,436 Lincoln Highway East,PA,15035
Giant Eagle,Pittsburgh,3117,#3117 #003117 #03117,117 South 18th Street,PA,15203
Giant Eagle,Delmont,3122,#3122 #003122 #03122,6586 Route 22,PA,15626
Giant Eagle,Akron,3124,#3124 #003124 #03124,488 East Waterloo Road,OH,44319
Giant Eagle,Pittsburgh,3127,#3127 #003127 #03127,14 Fort Couch Road,PA,15241
Giant Eagle,Bethel Park,3128,#3128 #003128 #03128,5381 Library Road,PA,15102
Giant Eagle,Mt. Lebanon,3130,#3130 #003130 #03130,1636 Cochran Road,PA,15220
Giant Eagle,Cranberry Township,3131,#3131 #003131 #03131,20110 State Route 19,PA,16066
Giant Eagle,Austintown,3132,#3132 #003132 #03132,5163 Mahoning Ave,OH,44515
Giant Eagle,Sarver,3135,#3135 #003135 #03135,710 South Pike Road,PA,16055
Giant Eagle,Leetsdale,3137,#3137 #003137 #03137,8A Quaker Village Shopping Center,PA,15056
Giant Eagle,Monroeville,3140,#3140 #003140 #03140,4685 Old William Penn Hwy,PA,15146
Giant Eagle,Altoona,3149,#3149 #003149 #03149,100 W Plank Road,PA,16602
Giant Eagle,Warren,3151,#3151 #003151 #03151,119 Niles Cortland Road,OH,44484
Giant Eagle,Massillon,3152,#3152 #003152 #03152,2046 Lincoln Way East,OH,44646
Giant Eagle,Pittsburgh,3172,#3172 #003172 #03172,1081 Freeport Road,PA,15238
Giant Eagle,Ellwood City,3182,#3182 #003182 #03182,263 State Route 288,PA,16117
Giant Eagle,West Mifflin,3185,#3185 #003185 #03185,1200 Hoffman Blvd,PA,15122
Giant Eagle,West Mifflin,3188,#3188 #003188 #03188,1001 Lebanon Noble Road,PA,15122
Giant Eagle,North Ridgeville,3199,#3199 #003199 #03199,34179 Center Ridgeville Road,OH,44039
Giant Eagle,Warrensville,3201,#3201 #003201 #03201,25500 Miles Road,OH,44128
Giant Eagle,Parma,3203,#3203 #003203 #03203,6730 Pearl Road,OH,44130
Giant Eagle,North Royalton,3204,#3204 #003204 #03204,10151 West 130th Street,OH,44133
Giant Eagle,Willowick,3216,#3216 #003216 #03216,30200 Lakeshore Boulevard,OH,44095
Giant Eagle,Garfield Heights,3218,#3218 #003218 #03218,5637 Transportation Blvd,OH,44125
Giant Eagle,Warren,3219,#3219 #003219 #03219,2109 Elm Rd NE,OH,44483
Giant Eagle,Amherst,3220,#3220 #003220 #03220,2223 Kresge Drive,OH,44001
Giant Eagle,Twinsburg,3224,#3224 #003224 #03224,8901 Hadden Road,OH,44087
Giant Eagle,Solon,3228,#3228 #003228 #03228,6477 SOM Center Road,OH,44139
Giant Eagle,Brunswick,3229,#3229 #003229 #03229,3446 Center Road,OH,44212
Giant Eagle,Sheffield Lake,3231,#3231 #003231 #03231,4660 Abbe Road,OH,44054
Giant Eagle,Vermilion,3238,#3238 #003238 #03238,1317 State Road 60 N,OH,44089
Giant Eagle,Ligonier,3256,#3256 #003256 #03256,215 South Market Street,PA,15658
Giant Eagle,Avon,3284,#3284 #003284 #03284,1501 Travelers Pointe,OH,44011
Giant Eagle,Titusville,3288,#3288 #003288 #03288,103 S Perry St,PA,16354
Giant Eagle,Rocky River,3297,#3297 #003297 #03297,22150 Center Ridge Road,OH,44116
Giant Eagle,Macedonia,3299,#3299 #003299 #03299,265 East Highland Road,OH,44056
Giant Eagle,Boardman,3318,#3318 #003318 #03318,480 Boardman-Canfield Rd,OH,44512
Giant Eagle,Cleveland,3329,#3329 #003329 #03329,2780 East 116th Street,OH,44120
Giant Eagle,Ravenna,3348,#3348 #003348 #03348,909 East Main Street,OH,44266
Giant Eagle,Pittsburgh,3352,#3352 #003352 #03352,156 Ben Avon Heights Road,PA,15237
Giant Eagle,Warren,3356,#3356 #003356 #03356,2800 Mahoning Avenue,OH,44483
Giant Eagle,Streetsboro,3359,#3359 #003359 #03359,9075 State Route 43,OH,44241
Giant Eagle,North Olmsted,3360,#3360 #003360 #03360,27268 Lorain Road,OH,44070
Giant Eagle,Cleveland,3361,#3361 #003361 #03361,4951 Ridge Road,OH,44144
Giant Eagle,Canton,3364,#3364 #003364 #03364,104 Raff Road SW,OH,44710
Giant Eagle,Cleveland,3376,#3376 #003376 #03376,21991 Lorain Road,OH,44126
Giant Eagle,Painesville,3377,#3377 #003377 #03377,1201 Mentor Avenue,OH,44077
Giant Eagle,Homestead,3379,#3379 #003379 #03379,430 East Waterfront Drive,PA,15120
Giant Eagle,Chardon,3383,#3383 #003383 #03383,318 Center Street,OH,44024
Giant Eagle,Youngstown,3384,#3384 #003384 #03384,4698 Belmont Avenue,OH,44505
Giant Eagle,Canfield,3385,#3385 #003385 #03385,375 East Main Street,OH,44406
Giant Eagle,New Castle,3386,#3386 #003386 #03386,1700-B New Butler Road,PA,16101
Giant Eagle,Canton,3387,#3387 #003387 #03387,3070 Cromer Avenue NW,OH,44709
Giant Eagle,Parma,3388,#3388 #003388 #03388,7418 Broadview Road,OH,44134
Giant Eagle,Medina,3389,#3389 #003389 #03389,302 S. Court Street,OH,44256
Giant Eagle,Stow,3396,#3396 #003396 #03396,3845 Darrow Rd,OH,44224
Giant Eagle,Louisville,3403,#3403 #003403 #03403,115 N Chapel Rd,OH,44641
Giant Eagle,Lakewood,3431,#3431 #003431 #03431,14013 Detroit Road,OH,44107
Giant Eagle,Edinboro,3435,#3435 #003435 #03435,200 Erie Street,PA,16412
Giant Eagle,South Euclid,3440,#3440 #003440 #03440,4254 Mayfield Rd,OH,44121
Giant Eagle,Brookpark,3465,#3465 #003465 #03465,14600 Snow Rd,OH,44142
Giant Eagle,DuBois,3484,#3484 #003484 #03484,14 North Main Street,PA,15801
Giant Eagle,Verona,3486,#3486 #003486 #03486,800 Allegheny River Boulevard,PA,15147
Giant Eagle,Pittsburgh,3487,#3487 #003487 #03487,801 Mt Royal Boulevard,PA,15223
Giant Eagle,Pittsburgh,3488,#3488 #003488 #03488,5603 Babcock Boulevard,PA,15237
Giant Eagle,Allison Park,3489,#3489 #003489 #03489,2401 Ferguson Road,PA,15101
Giant Eagle,Butler,3500,#3500 #003500 #03500,1024 North Main Street,PA,16001
Giant Eagle,Columbus,3501,#3501 #003501 #03501,1310 North Hamilton Rd,OH,43230
Giant Eagle,Columbus,3502,#3502 #003502 #03502,990 East Dublin-Granville Rd.,OH,43229
Giant Eagle,Lewis Center,3503,#3503 #003503 #03503,9151 Columbus Pike,OH,43035
Giant Eagle,Columbus,3504,#3504 #003504 #03504,2888 Bethel Road,OH,43220
Giant Eagle,Hilliard,3505,#3505 #003505 #03505,1740 Hilliard-Rome Road,OH,43026
Giant Eagle,Westerville,3507,#3507 #003507 #03507,672 North State Street,OH,43082
Giant Eagle,Grandview Heights,3509,#3509 #003509 #03509,1825 West Fifth Ave,OH,43212
Giant Eagle,Marietta,3510,#3510 #003510 #03510,331 Pike Street,OH,45750
Giant Eagle,Upper Arlington,3511,#3511 #003511 #03511,1640 Fishinger Rd.,OH,43221
Giant Eagle,Columbus,3512,#3512 #003512 #03512,2845 N. High Street,OH,43202
Giant Eagle,Columbus,3513,#3513 #003513 #03513,6825 East Broad Street,OH,43213
Giant Eagle,Pickerington,3514,#3514 #003514 #03514,1020 Hill Road North,OH,43147
Giant Eagle,Chargin Falls,3515,#3515 #003515 #03515,17675 Chillicothe Road,OH,44023
Giant Eagle,Columbus,3519,#3519 #003519 #03519,4758 West Broad Street,OH,43228
Giant Eagle,Heath,3523,#3523 #003523 #03523,625 South 30th Street,OH,43055
Giant Eagle,Grove City,3526,#3526 #003526 #03526,2165 Stringtown Road,OH,43123
Giant Eagle,Powell,3527,#3527 #003527 #03527,9590 Sawmill Parkway,OH,43065
Giant Eagle,New Albany,3528,#3528 #003528 #03528,5465 New Albany Road West,OH,43054
Giant Eagle,Rossford,3535,#3535 #003535 #03535,9910 Olde US 20,OH,43460-1717
Giant Eagle,Toledo,3536,#3536 #003536 #03536,6932 West Central Ave,OH,43617
Giant Eagle,Lancaster,3538,#3538 #003538 #03538,1416 Ety Shops Way,OH,43130
Giant Eagle,McKeesport,3600,#3600 #003600 #03600,2811 Jacks Run Road,PA,15131
Giant Eagle,Wadsworth,3601,#3601 #003601 #03601,773 Ambassador Drive,OH,44281
Giant Eagle,Alliance,3605,#3605 #003605 #03605,766 South Union Avenue,OH,44601
Giant Eagle,Slippery Rock,3606,#3606 #003606 #03606,640 Kelly Blvd.,PA,16057
Giant Eagle,Johnstown,3612,#3612 #003612 #03612,358 Goucher Street,PA,15905
Giant Eagle,Pittsburgh,3616,#3616 #003616 #03616,3601 Sawmill Run Blvd,PA,15227
Giant Eagle,Mentor On The Lake,3617,#3617 #003617 #03617,6045 Andrews Road,OH,44060
Giant Eagle,Hartville,3618,#3618 #003618 #03618,909 W Maple Street,OH,44632
Giant Eagle,Pittsburgh,3619,#3619 #003619 #03619,1043 South Braddock Ave,PA,15218
Giant Eagle,Uniontown,3620,#3620 #003620 #03620,1711 Corporate Wood Circle,OH,44685
Giant Eagle,Ashtabula,3621,#3621 #003621 #03621,2388 Prospect Ave,OH,44004
Giant Eagle,Erie,3623,#3623 #003623 #03623,2521 West 12th Street,PA,16505
Giant Eagle,Geneva,3627,#3627 #003627 #03627,1759 South Broadway Ave,OH,44041
Giant Eagle,East Liverpool,3632,#3632 #003632 #03632,15905 SR 170,OH,43920
Giant Eagle,Coraopolis,3642,#3642 #003642 #03642,6507 University Boulevard,PA,15108
Giant Eagle,Pittsburgh,3646,#3646 #003646 #03646,280 Crafton Ingram Shopping Center,PA,15205
Giant Eagle,Middlefield,3648,#3648 #003648 #03648,15402 W High Street,OH,44062
Giant Eagle,Altoona,3649,#3649 #003649 #03649,200 Sophira Lane,PA,16602
Giant Eagle,Barberton,3656,#3656 #003656 #03656,45 5th Street S.E.,OH,44203
Giant Eagle,Tallmadge,3657,#3657 #003657 #03657,185 West Avenue,OH,44278
Giant Eagle,North Madison,3658,#3658 #003658 #03658,6542 North Ridge Road,OH,44057
Giant Eagle,Pittsburgh,3659,#3659 #003659 #03659,9003 Frankstown Road,PA,15235
Giant Eagle,Johnstown,3661,#3661 #003661 #03661,1313 Eisenhower Blvd,PA,15904
Giant Eagle,Salem,3664,#3664 #003664 #03664,2345 East State Street,OH,44460
Giant Eagle,Seven Fields,3668,#3668 #003668 #03668,204 Seven Fields Blvd,PA,16046
Giant Eagle,Ebensburg,3670,#3670 #003670 #03670,4535 Admiral Peary Highway,PA,15931
Giant Eagle,Waynesburg,3673,#3673 #003673 #03673,269 Roy Furman Highway I-79,PA,15370
Giant Eagle,Meadville,3675,#3675 #003675 #03675,18499 Smock Highway,PA,16335
Giant Eagle,Franklin,3681,#3681 #003681 #03681,511 Allegheny Blvd.,PA,16323
Giant Eagle,Dover,3689,#3689 #003689 #03689,501 Union Avenue,OH,44622
Giant Eagle,Gibsonia,3691,#3691 #003691 #03691,4099 Grandview Drive,PA,15044
Giant Eagle,Aliquippa,3694,#3694 #003694 #03694,3115 Green Garden Road,PA,15001-1069
Giant Eagle,Uniontown,3699,#3699 #003699 #03699,637 Pittsburgh Road,PA,15401
Giant Eagle,East Freedom,3701,#3701 #003701 #03701,334 Travelers Road,PA,16637-8118
Giant Eagle,Akron,3703,#3703 #003703 #03703,4072 Medina Road,OH,44333
Giant Eagle,Elyria,3811,#3811 #003811 #03811,209 East Bridge Street,OH,44035
Giant Eagle,Cleveland,3817,#3817 #003817 #03817,8039 Day Drive,OH,44129
Giant Eagle,Bedford,3833,#3833 #003833 #03833,400 Northfield Road,OH,44146
Giant Eagle,Frederick,3841,#3841 #003841 #03841,1000 West Patrick St.,MD,21703
Giant Eagle,Frederick,3842,#3842 #003842 #03842,1700 West 7th Street,MD,21702
Giant Eagle,Frederick,3843,#3843 #003843 #03843,1391 W Seventh Street,MD,21702
Giant Eagle,Cuyahoga Falls,3878,#3878 #003878 #03878,1125 Main Street,OH,44221
Giant Eagle,Crafton,3999,#3999 #003999 #03999,755 Beechnut Dr,PA,15205
Giant Eagle,Erie,4010,#4010 #004010 #04010,2877 West 26th Street,PA,16506
Giant Eagle,Hermitage,4012,#4012 #004012 #04012,2365 East State Street,PA,16148
Giant Eagle,Bolivar,4016,#4016 #004016 #04016,11031 State Rt. 212 - N.E.,OH,44612-8744
Giant Eagle,Youngstown,4018,#4018 #004018 #04018,478 Boardman-Canfield Road,OH,44512
Giant Eagle,Cuyahoga Falls,4022,#4022 #004022 #04022,75 Graham Road,OH,44223
Giant Eagle,Fairlawn,4025,#4025 #004025 #04025,2775 West Market Street,OH,44333
Giant Eagle,Akron,4029,#4029 #004029 #04029,2801 East Waterloo Road,OH,44312
Giant Eagle,Tallmadge,4030,#4030 #004030 #04030,205 West Avenue,OH,44278
Giant Eagle,Barberton,4031,#4031 #004031 #04031,41 5th Street S.E.,OH,44203
Giant Eagle,Stow,4032,#4032 #004032 #04032,1700 Norton Road,OH,44224
Giant Eagle,Canton,4034,#4034 #004034 #04034,"608 Raff Road, SW",OH,44710
Giant Eagle,Edinboro,4035,#4035 #004035 #04035,606 Erie Street,PA,16412
Giant Eagle,Erie,4038,#4038 #004038 #04038,4265 Buffalo Road,PA,16510
Giant Eagle,Girard,4050,#4050 #004050 #04050,9125 West Ridge Road,PA,16417
Giant Eagle,Warren,4051,#4051 #004051 #04051,8202 East Market Street,OH,44484
Giant Eagle,Warren,4056,#4056 #004056 #04056,2700 Mahoning Avenue N.W.,OH,44483
Giant Eagle,North Canton,4060,#4060 #004060 #04060,6493 Strip Avenue N.W.,OH,44720
Giant Eagle,Boardman,4075,#4075 #004075 #04075,1201 Doral Drive,OH,44514
Giant Eagle,Youngstown,4078,#4078 #004078 #04078,5220 Mahoning Avenue,OH,44515
Giant Eagle,Cleveland,4087,#4087 #004087 #04087,11501 Buckeye Rd.,OH,44104
Giant Eagle,Broadview Heights,4088,#4088 #004088 #04088,4343 Royalton Road,OH,44147
Giant Eagle,Dover,4089,#4089 #004089 #04089,515 Union Avenue,OH,44622
Giant Eagle,Erie,4090,#4090 #004090 #04090,7200 Peach Street,PA,16509
Giant Eagle,Erie,4093,#4093 #004093 #04093,2501 West 12th Street,PA,16505
Giant Eagle,Rootstown,4095,#4095 #004095 #04095,4260 State Route 44,OH,44272
Giant Eagle,Stow,4096,#4096 #004096 #04096,4300 Kent Road,OH,44224
Giant Eagle,North Madison,4097,#4097 #004097 #04097,6556 North Ridge Road,OH,44057
Giant Eagle,Chardon,4098,#4098 #004098 #04098,351 Center Street,OH,44024
Giant Eagle,Akron,4124,#4124 #004124 #04124,484 East Waterloo Road,OH,44319
Giant Eagle,Middlefield,4133,#4133 #004133 #04133,15400 West High Street,OH,44062
Giant Eagle,Massillon,4152,#4152 #004152 #04152,2032 Lincoln Way East,OH,44646
Giant Eagle,Canton,4387,#4387 #004387 #04387,"3100 Cromer Avenue, N.W.",OH,44709
Giant Eagle,Wadsworth,4601,#4601 #004601 #04601,825 Ambassador Drive,OH,44281
Giant Eagle,New Sewickley,5003,#5003 #005003 #05003,2500 Lovi Road,PA,15042
Giant Eagle,McKees Rocks,2,#2 #002 #02,1800 McKees Rocks Road,PA,15136
Giant Eagle,Fairview Park,5810,#5810 #005810 #05810,21593 Lorain Road,OH,44126
Giant Eagle,Cleveland,5817,#5817 #005817 #05817,7939 Day Drive,OH,44129
Giant Eagle,Beachwood,5830,#5830 #005830 #05830,24601 Chagrin Blvd.,OH,44122
Giant Eagle,Lakewood,5831,#5831 #005831 #05831,14100 Detroit Ave.,OH,44107
Giant Eagle,Mayfield Heights,5836,#5836 #005836 #05836,6259 Mayfield Road,OH,44124
Giant Eagle,Medina,5839,#5839 #005839 #05839,870 N. Court,OH,44256
Giant Eagle,Parma,5844,#5844 #005844 #05844,1825 Snow Road,OH,44134
Giant Eagle,Akron,5861,#5861 #005861 #05861,3750 W Market Street,OH,44333
Giant Eagle,Streetsboro,5863,#5863 #005863 #05863,1280 State Route 303,OH,44241
Giant Eagle,Cuyahoga Falls,5878,#5878 #005878 #05878,230 Howe Avenue,OH,44221
Giant Eagle,North Olmsted,6359,#6359 #006359 #06359,27264 Lorain Road,OH,44070
Giant Eagle,Elyria,6375,#6375 #006375 #06375,320 Market Drive,OH,44035
Giant Eagle,Brooklyn,6376,#6376 #006376 #06376,6300 Biddulph Road,OH,44144
Giant Eagle,Homestead,6379,#6379 #006379 #06379,420 East Waterfront Drive,PA,15120
Giant Eagle,Willoughby,6381,#6381 #006381 #06381,36475 Euclid Avenue,OH,44094
Giant Eagle,Youngstown,6384,#6384 #006384 #06384,4700 Belmont Avenue,OH,44505
Giant Eagle,Canfield,6385,#6385 #006385 #06385,525 East Main Street,OH,44406
Giant Eagle,New Castle,6386,#6386 #006386 #06386,1700 New Butler Road,PA,16101
Giant Eagle,Parma,6388,#6388 #006388 #06388,7400 Broadview Road,OH,44134
Giant Eagle,Maple Heights,6414,#6414 #006414 #06414,5321 Warrensville Center Road,OH,44137
Giant Eagle,Columbus,6501,#6501 #006501 #06501,1250 North Hamilton Road,OH,43230
Giant Eagle,Columbus,6502,#6502 #006502 #06502,1000 East Dublin-Granville Rd.,OH,43229
Giant Eagle,Lewis Center,6503,#6503 #006503 #06503,55 Meadow Park Ave.,OH,43035
Giant Eagle,Columbus,6504,#6504 #006504 #06504,4747 Sawmill Road,OH,43220
Giant Eagle,Hilliard,6505,#6505 #006505 #06505,1760 Hilliard-Rome Road,OH,43026
Giant Eagle,Westerville,6507,#6507 #006507 #06507,650 North State Street,OH,43082
Giant Eagle,Columbus,6508,#6508 #006508 #06508,280 E. Whittier Street,OH,43206
Giant Eagle,Columbus,6509,#6509 #006509 #06509,1451 W. Fifth Avenue,OH,43212
Giant Eagle,Marietta,6510,#6510 #006510 #06510,128 Gross Street,OH,45750
Giant Eagle,Columbus,6512,#6512 #006512 #06512,2801 N. High Street,OH,43202
Giant Eagle,Columbus,6513,#6513 #006513 #06513,6867 East Broad Street,OH,43213
Giant Eagle,Pickerington,6514,#6514 #006514 #06514,873 Refugee Road,OH,43147
Giant Eagle,Columbus,6516,#6516 #006516 #06516,777 Neil Avenue,OH,43215
Giant Eagle,Columbus,6519,#6519 #006519 #06519,4780 West Broad Street,OH,43228
Giant Eagle,Newark,6523,#6523 #006523 #06523,553 Hebron Road,OH,43056
Giant Eagle,Grove City,6526,#6526 #006526 #06526,2173 Stringtown Road,OH,43123
Giant Eagle,Powell,6527,#6527 #006527 #06527,4000 West Powell Road,OH,43065
Giant Eagle,Bethel Park,4,#4 #004 #04,"5055 Library Road, Suite 5",PA,15102-4215
Giant Eagle,Rossford,6535,#6535 #006535 #06535,9880 Olde US 20,OH,43460-1716
Giant Eagle,Toledo,6536,#6536 #006536 #06536,6930 West Central Ave,OH,43617
Giant Eagle,Lancaster,6538,#6538 #006538 #06538,1394 Ety Shops Way,OH,43130
Giant Eagle,Bethel Park,14,#14 #0014 #014,7000 Oxford Drive,PA,15102
Giant Eagle,Pittsburgh,31,#31 #0031 #031,"5260 Grove Road, Baptist Grove Roads",PA,15236
Giant Eagle,Pittsburgh,35,#35 #0035 #035,"1717 Cochran Road, Greentree Cochran Rd",PA,15220
Giant Eagle,WA,39,#39 #0039 #039,331 WA Road,PA,15301
Giant Eagle,Pittsburgh,40,#40 #0040 #040,5550 Centre Avenue,PA,15232
Giant Eagle,Wexford,43,#43 #0043 #043,155 Towne Centre Drive,PA,15090
Giant Eagle,Pittsburgh,47,#47 #0047 #047,100 Settlers Ridge Center Drive,PA,15205-1421
Giant Eagle,McKeesport,64,#64 #0064 #064,3812 O'Neil Boulevard,PA,15132
Giant Eagle,Pittsburgh,65,#65 #0065 #065,"4110 Brighton Road, Brighton Road Bascom Street",PA,15212
Giant Eagle,McMurray,70,#70 #0070 #070,4007 WA Road,PA,15317-2520
Giant Eagle,Rocky River,89,#89 #0089 #089,21860 Center Ridge Rd,OH,44116
Giant Eagle,Garfield Heights,218,#218 #00218 #0218,5744 Transportation Blvd,OH,44125
Giant Eagle,Solon,228,#228 #00228 #0228,34310 Aurora Rd,OH,44139
Giant Eagle,Cleveland,230,#230 #00230 #0230,3050 W. 117th Street,OH,44111
Giant Eagle,Ashtabula,621,#621 #00621 #0621,2390 Prospect Avenue,OH,44004
Giant Eagle,Bridgeville,641,#641 #00641 #0641,1025 WA Pike,PA,15017
Giant Eagle,IN,678,#678 #00678 #0678,475 Ben Franklin Rd S,PA,15701
Giant Eagle,Fayette Plaza,699,#699 #00699 #0699,581 Pittsburgh Road,Route,51
Giant Eagle,Uniontown,1620,#1620 #001620 #01620,1700 Corporate Woods Parkway,OH,44685
Giant Eagle,Cranberry Twp,3019,#3019 #003019 #03019,20570 Route 19,PA,16066
Giant Eagle,WA,3039,#3039 #003039 #03039,333 WA Road,PA,15301
Giant Eagle,Pittsburgh,3047,#3047 #003047 #03047,6513 Steubenville Pike,PA,15205
Giant Eagle,Rochester,3062,#3062 #003062 #03062,820 OH River Blvd.,PA,15074
Giant Eagle,McMurray,3070,#3070 #003070 #03070,4031 WA Road,PA,15317
Giant Eagle,Carnegie,3102,#3102 #003102 #03102,1137 WA Avenue,PA,15106
Giant Eagle,McMurray,3116,#3116 #003116 #03116,2846 WA Rd,PA,15317
Giant Eagle,Pittsburgh,3129,#3129 #003129 #03129,1540 WA Road,PA,15228
Giant Eagle,WA,3154,#3154 #003154 #03154,104 East Wylie Avenue,PA,15301
Giant Eagle,Cranberry Twp,3165,#3165 #003165 #03165,1737 State Route 228,PA,16066
Giant Eagle,Beaver Falls,3166,#3166 #003166 #03166,111 McMillen Avenue,PA,15010
Giant Eagle,Cleveland,3230,#3230 #003230 #03230,3038 W 117th Street,OH,44111
Giant Eagle,Glenshaw,3280,#3280 #003280 #03280,1700 William Flynn Hwy,PA,15116
Giant Eagle,Westlake,3316,#3316 #003316 #03316,25476 Center Ridge Rd,OH,44145
Giant Eagle,North Canton,3381,#3381 #003381 #03381,6215 Whipple Avenue NW,OH,44720
Giant Eagle,Dublin,3401,#3401 #003401 #03401,6725 Perimeter Loop Dr,OH,43017
Giant Eagle,Fairlawn,3425,#3425 #003425 #03425,3120 W Market St,OH,44333
Giant Eagle,Erie,3438,#3438 #003438 #03438,4307 Buffalo Road,PA,16510
Giant Eagle,Columbus,3517,#3517 #003517 #03517,2920 Stelzer Road,OH,43219
Giant Eagle,Columbus,3518,#3518 #003518 #03518,1551 N High St,OH,43201
Giant Eagle,Columbus,3521,#3521 #003521 #03521,352 W Lane Ave,OH,43201
Giant Eagle,Hilliard,3529,#3529 #003529 #03529,6780 Hayden Run Road,OH,43026
Giant Eagle,Groveport,3537,#3537 #003537 #03537,3765 S. Hamilton Road,OH,43125
Giant Eagle,IN,3608,#3608 #003608 #03608,3100 Oakland Avenue,PA,15701
Giant Eagle,Bridgeville,3641,#3641 #003641 #03641,3029 WA Pike,PA,15017
Giant Eagle,IN,3678,#3678 #003678 #03678,680 Locust St,PA,15701
Giant Eagle,New Castle,4077,#4077 #004077 #04077,3230 Wilmington Road,PA,16105
Giant Eagle,McMurray,5104,#5104 #005104 #05104,2840 WA Rd,PA,15317
Giant Eagle,IN,5105,#5105 #005105 #05105,435 South Seventh Street,PA,15701
Giant Eagle,Northfield,6299,#6299 #006299 #06299,290 East Aurora Road,OH,44067
Giant Eagle,Ravenna,6348,#6348 #006348 #06348,909 East Main Street,OH,44266
Giant Eagle,Painesville,6377,#6377 #006377 #06377,1201 Mentor Avenue,OH,44077
Giant Eagle,North Canton,6378,#6378 #006378 #06378,1955 East Maple Street,OH,44720
Giant Eagle,Columbus,6515,#6515 #006515 #06515,3061 Kingsdale Center,OH,43221
Giant Eagle,Columbus,6517,#6517 #006517 #06517,2900 Stelzer Road,OH,43219
Giant Eagle,Dublin,6520,#6520 #006520 #06520,6700 Perimeter Loop Road,OH,43017
Giant Eagle,Hilliard,6529,#6529 #006529 #06529,6700 Hayden Run Road,OH,43026
Giant Eagle,New Albany,6528,#6528 #006528 #06528,5461 New Albany Road West,OH,43054
