keywords,city,Aggdata Store Number,store_number,address,state,zip_code
GUESS,Morelia,215,#215,Avenida Montaña Monarca Norte número 1000 (mil) Colonia desarrollo Montaña Monarca local PB-03,Michoacan,58350
GUESS,Mexico City,216,#216,"Cuauhtemoc 462, Col. Narvarte Del. Benito Juarez",Mexico D.F.,30020
GUESS,Puebla,217,#217,Boulevard del niño poblano 2510 Col. Concepcion de la cruz,Puebla,72450
GUESS,Monterrey,218,#218,"Ave. José Vasconcelos #402, Col. del Valle, San Pedro Garza Garcia local 200",Nuevo Leon,66220
GUESS,Cancun,220,#220,"Supermanzana 39, manzana 10 lote 01, Las Alamedas",Quintana Roo,77507
GUESS,Playa del Carmen,221,#221,"Av, 10 y primera sur, Col. Centro, Municipio de Solidaridad, Local 15",Quintana Roo,77710
GUESS,Los Angeles,2001,#2001,"189 The Grove, Suite K70",CA,90036
GUESS,Glendale,2002,#2002,"561 Americana Way, #C1",CA,91204
GUESS,McAllen,2003,#2003,"2200 South 10th Street, #6",TX,78503
GUESS,Paramus,2004,#2004,"Garden State Plaza, Space 5",NJ,7652
GUESS,Dallas,2005,#2005,"13350 Dallas Pkwy, Suite 1455",TX,75240
GUESS,Arcadia,2006,#2006,"400 S Baldwin Ave, Suite # D10",CA,91007
GUESS,Miami,2007,#2007,"7601 N. Kendall Drive, Space 2190",FL,33156
GUESS,Aventura,2009,#2009,"19501 Biscayne Blvd., #1615A",FL,33180
GUESS,Las Vegas,2010,#2010,"3200 Las Vegas Blvd., Space 1035",NV,89109
GUESS,Las Vegas,2011,#2011,"3663 S. Las Vegas Boulevard, Suite #F9",NV,89109
GUESS,San Francisco,2012,#2012,"845 Market Street, Suite #309",CA,94103
GUESS,Garden City,2013,#2013,"630 Old Country Road, #2025A",NY,11530
GUESS,Las Vegas,2014,#2014,3500 Las Vegas Blvd S. Suite L19B,NV,89109
GUESS,Hato Rey,2018,#2018,"525 Plaza Las Americas, #549",PR,918
GUESS,Boca Raton,2020,#2020,"6000 Glades Road, #1157",FL,33431
GUESS,Houston,2025,#2025,"5015 Westheimer, Suite A3400",TX,77056
GUESS,Brea,2027,#2027,2114 Brea Mall,CA,92821
GUESS,Scottsdale,2029,#2029,"7014 Camelback Road, Space #1021",AZ,85251
GUESS,New York,2030,#2030,514 Broadway,NY,10012
GUESS,Orlando,2032,#2032,"4200 Conroy Road, Space 232",FL,32839
GUESS,Miami Beach,2033,#2033,904 Lincoln Road,FL,33139
GUESS,King of Prussia,2034,#2034,"160 North Gulph Rd, Space 2193",PA,19406
GUESS,Cherry Hill,2035,#2035,"2000 Route 38, Suite #1780",NJ,8002
GUESS,San Antonio,2037,#2037,7400 San Pedro Ave. #1545,TX,78216
GUESS,Santa Clara,2038,#2038,2855 Stevens Creek Blvd. Suite # A093,CA,95050
GUESS,Mercedes,2302,#2302,"5001 E. Expressway 83, Space #305",TX,78570
GUESS,Las Vegas,2303,#2303,"905 S Grand Central Parkway, Suite #2141",NV,89106
GUESS,Miami,2304,#2304,"11401 NW 12th St., Space #388",FL,33172
GUESS,Commerce,2310,#2310,110 Citadel Drive # 600,CA,90040
GUESS,Toronto,2901,#2901,218 Yonge Street Unit 2-128,ON,M5B 2H6
GUESS,Toronto,2903,#2903,"3401 Dufferin Street, Highway 401, Unit #238",ON,M6A 2T9
GUESS,Burnaby,2904,#2904,"4700 Kingsway, Unit #1204",BC,V5N 4N2
GUESS,Montreal,2905,#2905,1229A St. Catherine Street West,QC,H3G 1P3
GUESS,Mississauga,2906,#2906,"100 City Centre Drive, Unit 2-239",ON,L5B 2C9
GUESS,Etobicoke,2907,#2907,25 The West Mall  #1755,ON,M9C 1B8
GUESS,Montreal,2908,#2908,"2305 Rockland Road, #2460",QC,H3P 3E9
GUESS,Saint-Bruno-de-Montarville,2909,#2909,"1 boul des Promenades, #284",QC,J3V 5J5
GUESS,Edmonton,2910,#2910,"2472 – 8882 170th Street, Unit L109",AB,T5T 4M2
GUESS,London,2911,#2911,"1680 Richmond Street, Space #U014",ON,N6G 3Y9
GUESS,Richmond Hill,2912,#2912,9350 Yonge Street,ON,L4C 5G2
GUESS,Laval,2914,#2914,"3003 Boulevard Le Carrefour, #J005A",QC,H7T 1C7
GUESS,Vancouver,2917,#2917,1168-70 Robson Street,BC,V6E 1B5
GUESS,Calgary,2918,#2918,6455 Macleod Trail SW  Unit L5,AB,T2H 0K8
GUESS,Burlington,2919,#2919,900 Maple Ave. Space # B22,ON,L7S2J8
GUESS,Ottawa,2920,#2920,"50 Rideau Street, Space #346",ON,K1N 9J7
GUESS,Ste Foy,2922,#2922,2450 Boul Laurier #101B,QC,G1V2L1
GUESS,Calgary,2924,#2924,751 3rd Street SW.  Space #C200,AB,T2P4KA
GUESS,Toronto,2926,#2926,1800 Sheppard Ave East #212,ON,M2J 5A7
GUESS,Markham,2927,#2927,5000 Highway 7 East,ON,L3R 4M9
GUESS,Vaughan,2985,#2985,"1 BassPro Mills Drive, Unit #LA-438",ON,L4K 5W4
GUESS,Woodbridge,3104,#3104,"2700 Potomac Mills Circle, #941",VA,22192
GUESS,Philadelphia,3105,#3105,"1553 Franklin Mills Circle, Space 307",PA,19154
GUESS,Orlando,3108,#3108,"4955 International Drive, Space #1C-17",FL,32819
GUESS,Cabazon,3111,#3111,"48650 Seminole Dr., Ste.108",CA,92230
GUESS,San Marcos,3112,#3112,"3939 Hwy I-35 South, Ste. 320",TX,78666
GUESS,Sunrise,3113,#3113,"12801 W. Sunrise Blvd., Ste. 631",FL,33323
GUESS,Michigan City,3114,#3114,1630 Lighthouse Place,IN,46360
GUESS,Gurnee,3115,#3115,"6170 W. Grand Ave., Ste. 733",IL,60031
GUESS,Lancaster,3117,#3117,101 Stanley K. Tanger Blvd,PA,17602
GUESS,Central Valley,3118,#3118,442 Evergreen Ct.,NY,10917
GUESS,Gilroy,3122,#3122,"8300 Arroyo Circle, Ste. A270",CA,95020
GUESS,Castle Rock,3123,#3123,"5050 Factory Shops Blvd., Ste. 545",CO,80108
GUESS,Birch Run,3124,#3124,"12150 S. Beyer Rd., Ste. F10",MI,48415
GUESS,Commerce,3131,#3131,"800 Steven B. Tanger Blvd., Space 1202",GA,30529
GUESS,Gonzales,3135,#3135,"2200 S. Tanger Blvd., Ste. 119",LA,70737
GUESS,Niagara Falls,3143,#3143,1700 Military Road,NY,14304
GUESS,San Ysidro,3150,#3150,"4265 Camino De Le Plaza, Ste. 228",CA,92173
GUESS,Williamsburg,3156,#3156,"5699-30 Richmond Road, Ste. 9",VA,23188
GUESS,Rehoboth Beach,3163,#3163,"36470 Seaside Outlet Drive, Suite #1500",DE,19971
GUESS,Grove City,3164,#3164,"1911 Leesburg Grove City Road, Suite #915",PA,16127
GUESS,Waipahu,3165,#3165,"94-796 Lumiaina St., Ste. 312",HI,96797
GUESS,Ontario,3167,#3167,"One Mills Circle, Space 700",CA,91764
GUESS,Riverhead,3168,#3168,"1770 W. Main Street, Space 910",NY,11901
GUESS,Camarillo,3170,#3170,"910 Camarillo Center Drive, #822",CA,93010
GUESS,Orlando,3175,#3175,"5269 International Drive, Space E",FL,32819
GUESS,St. Augustine,3176,#3176,"500 Prime Outlet Blvd., Space 1040",FL,32084
GUESS,Myrtle Beach,3177,#3177,"4619 Factory Stores Blvd., Ste. M-100",SC,29579
GUESS,Wrentham,3178,#3178,"1 Premium Outlets Blvd., Ste. 590",MA,2093
GUESS,Dawsonville,3179,#3179,"800 Hwy 400 South, Ste. 1060",GA,30534
GUESS,Hagerstown,3180,#3180,705 Premium Outlets Blvd,MD,21740
GUESS,San Juan,3181,#3181,106 Fortaleza Street,PR,902
GUESS,Tannersville,3182,#3182,1000 Premium Outlets Drive Suite A-05,PA,18372
GUESS,Katy,3183,#3183,"5000 Katy Mills Circle, Ste. 318",TX,77494
GUESS,Elizabeth,3184,#3184,"651 Kapkowski Rd., Ste. 2412",NJ,7201
GUESS,Howell,3185,#3185,"1475 N. Burkhart Rd., Ste. B-100",MI,48855
GUESS,Nashville,3186,#3186,"178 Opry Mills Dr., Space 176",TN,37214
GUESS,Albertville,3187,#3187,"6415 Labeaux Avenue. NE, Suite B210",MN,55301
GUESS,"Barrio Pueblo, Canovanas",3188,#3188,"KM 18.4, State Road No. 3, Space #230",PR,729
GUESS,Carlsbad,3190,#3190,"5600 Paseo Del Norte, Ste. A130",CA,92008
GUESS,Hanover,3192,#3192,"7000 Arundel Mills Circle, Suite #460",MD,21076
GUESS,Orlando,3193,#3193,8200 Vineland Avenue,FL,32821
GUESS,Jackson,3194,#3194,"537 Monmouth Rd., #328",NJ,8527
GUESS,Allen,3195,#3195,"820 W. Stacy Rd., Ste. 138",TX,75013
GUESS,Atlantic City,3198,#3198,26 North Michigan Avenue,NJ,8401
GUESS,Lebanon,3199,#3199,One Outlet Village Blvd Sp# 420,TN,37090
GUESS,Las Vegas,3201,#3201,"905 S. Grand Central Parkway, Suite 1738",NV,89106
GUESS,Concord,3202,#3202,"8111 Concord Mills Blvd., Space 227",NC,28027
GUESS,Lakewood,3203,#3203,"14500 W. Colfax Ave., Space 431",CO,80401
GUESS,Aurora,3204,#3204,"1650 Premium Outlets Blvd., Suite 1105",IL,60502
GUESS,Estero,3207,#3207,"10801 Corkscrew Rd, Space 301",FL,33928
GUESS,Lawrenceville,3208,#3208,"5900 Sugarloaf Pkwy, Space 238",GA,30043
GUESS,Hazelwood,3209,#3209,"5555 St Louis Mills Blvd, Space 534",MO,63042
GUESS,Commerce,3210,#3210,"100 Citadel Drive, Suite 341",CA,90040
GUESS,Alpine,3211,#3211,"5005 Willows Road, Suite 3103",CA,91901
GUESS,Huntley,3212,#3212,"11800 Factory Shops Blvd., Suite 740",IL,60142
GUESS,Mrytle Beach,3215,#3215,"10843 Kings Road, Suite 610",SC,29572
GUESS,Leesburg,3216,#3216,"241 Fort Evans Road, Space 317",VA,20176
GUESS,Ellenton,3221,#3221,5645 Factory Shops Boulevard,FL,34222
GUESS,Barceloneta,3222,#3222,"1 Prime Outlet Boulevard KM 554.8, Space #110",PR,617
GUESS,Barstow,3223,#3223,"2796 Tanger Way, Space 103",CA,92311
GUESS,Vacaville,3224,#3224,101-H Nut Tree Road,CA,95687
GUESS,Tulalip,3225,#3225,10600 Quil Ceda Blvd Suite 500,WA,98271
GUESS,Tinton Falls,3226,#3226,1 Premium Outlets Blvd #777,NJ,7753
GUESS,Folsom,3227,#3227,"1300 Folsom Boulevard, Space #501",CA,95630
GUESS,Anthem,3228,#3228,"4250 Anthem Way, Suite 695",AZ,85086
GUESS,Round Rock,3229,#3229,"4401 North Interstate Highway 35, Space 219",TX,78664
GUESS,Woodburn,3230,#3230,"1001 Arney Road, Suite 804",OR,97071
GUESS,Waterloo,3232,#3232,"655 Route 318, Space #96",NY,13165
GUESS,Washington,3233,#3233,"2200 Tanger Boulevard, Space #102",PA,15301
GUESS,Pottstown,3234,#3234,"18 W. Lightcap Road, Space #201",PA,19464
GUESS,Edinburgh,3235,#3235,"11775 NE Executive Drive, Suite #I040",IN,46124
GUESS,Fort Myers,3236,#3236,"20350 Summerlin Road, Suite 2120/2125",FL,33908
GUESS,North Charleston,3237,#3237,"4840 Tanger Outlet Blvd, Space #1010",SC,29418
GUESS,Bluffton,3238,#3238,"1414 Fording Island Road, #E180",SC,29910
GUESS,Pleasant Prairie,3239,#3239,"11601 108th Street, Space # 593",WI,53158
GUESS,Mercedes,3240,#3240,"5001 E. Expressway 83, Space #435",TX,78570
GUESS,Canutillo,3241,#3241,"7051 S. Desert Blvd., Space 177",TX,79835
GUESS,Lake Elsinore,3244,#3244,"17600 Collier Avenue, Space 136",CA,92530
GUESS,Cypress,3245,#3245,"29300 Hempstead Road, Space #928",TX,77433
GUESS,Park City,3246,#3246,"6699 North Landmark Drive, Space H130",UT,84098
GUESS,Deer Park,3247,#3247,"1558 The Arches Circle, Suite 1558",NY,11729
GUESS,LIVERMORE,3248,#3248,3268 Paragon Outlets Dr space #635,CA,94511
GUESS,Napa,3249,#3249,857 Factory Stores Drive #857,CA,94558
GUESS,Las Vegas,3254,#3254,7400 Las Vegas Blvd. S Spc300,NV,89123
GUESS,Sparks,3256,#3256,"1330 Scheels Drive, Space #F-114",NV,89434
GUESS,Grand Prairie,3257,#3257,2950 W Interstate Hwy20,TX,75052
GUESS,Mebane,3260,#3260,400 Arrowhead Blvd Ste#410,NC,27302
GUESS,Florida City,3262,#3262,"250 E Palm Drive, Suite #125",FL,33034
GUESS,Oklahoma City,3263,#3263,7634 W Reno Ave. #600,OK,73127
GUESS,Miami,3265,#3265,3252 NE 1st Ave. Ste#100,FL,33137
GUESS,Paramus,3266,#3266,2701 Bergen Town Center sp.3-4,NJ,7652
GUESS,Monroe,3267,#3267,858 Premium Outlets Drive,OH,45050
GUESS,Merrimack,3268,#3268,80 Premium Oulet Blvd #329,NH,3054
GUESS,Silverthorne,3269,#3269,227-J Blue River Parkway,CO,80498
GUESS,Rosemont,3270,#3270,"5220 Fashion Outlet Way, Ste #1145",IL,60018
GUESS,Syracuse,3271,#3271,306 Hiawatha Blvd W #L209,NY,13204
GUESS,Gaffney,3272,#3272,510 Factory Shops Blvd,SC,29341
GUESS,Gulfport,3273,#3273,10350 Factory Shops Blvd #350,MS,39503
GUESS,Pismo Beach,3274,#3274,333 Five Cities Dr #A010,CA,93449
GUESS,Queenstown,3275,#3275,431 Outlet Center Drive Space A106,MD,21658
GUESS,Leeds,3276,#3276,"6200 Grand River Blvd East, Space #511",AL,35094
GUESS,Lake George,3277,#3277,"1476 State Rte 9, Space #6",NY,12845
GUESS,Hershey,3279,#3279,"31 Outlet Square, Space #31",PA,17033
GUESS,San Leandro,3280,#3280,1257 Marina Blvd.,CA,94577
GUESS,Auburn Hills,3281,#3281,4000 Baldwin Road #414,MI,48326
GUESS,Santa Fe,3282,#3282,8380 Cerrillos Rd # A116,NM,87507
GUESS,Texas City,3283,#3283,5885 Gulf Freeway Sp725,TX,77591
GUESS,Glendale,3285,#3285,6800 N. 95th Ave Ste100,AZ,85305
GUESS,Woodstock,3286,#3286,915 Ridgewalk Pkwy Ste H-820,GA,30188
GUESS,Bethlehem,3288,#3288,77 Sands Blvd. #233,PA,18015
GUESS,Calexico,3289,#3289,720 2nd Street,CA,92231
GUESS,Lahaina,3290,#3290,900 Front Street,HI,96761
GUESS,West Palm Beach,3291,#3291,"1741 Palm Beach Lakes Blvd, Space E229",FL,33401
GUESS,Chandler,3292,#3292,4976 Premium Outlets Way Space# 452,AZ,85226
GUESS,Manteca,3299,#3299,909 Lifestyle St Sp 390,CA,95337
GUESS,Coyoacan,3404,#3404,"Av. Coyocan No 2000, L 1813 y 1814 Col. Xoco C.P. 03330 Delegación Benito Juarez",D.F.,3330
GUESS,Halton Hills,3978,#3978,13850 Steeles Ave #100,ON,L7G 0J1
GUESS,Mississauga,3979,#3979,1250 S. Service Rd #111A,ON,L5E 1V4
GUESS,Cambridge,3980,#3980,60 Pinebush Rd Spc39,ON,N1R 8K5
GUESS,Ottawa,3981,#3981,500 Terminal Ave. Unit B16,ON,K1G 0Z3
GUESS,Rocky View,3982,#3982,"261055 Cross Iron Blvd, Space #301",AB,T4A 0G3
GUESS,Bromont,3983,#3983,570 Place Champetre,QC,J2L 0A1
GUESS,Oakville,3984,#3984,"3527 Wyecroft Road, Unit K3D",ON,L6L 6R3
GUESS,Niagara,3985,#3985,"7500 Lundy's Lane, Unit A2",ON,L2H 1G8
GUESS,St. Sauveur Des Monts,3986,#3986,105 G Ave Guindon,QC,J0R 1R0
GUESS,Woodbridge,3987,#3987,"55 Colossus Drive, Westin Rd & Hwy 7, Unit 125",ON,L4L 9J8
GUESS,Windsor,3988,#3988,1555 Talbot Road Unit 150-160,ON,N9H 2N2
GUESS,Gloucester,3990,#3990,2280 City Park Drive #3,ON,K1G 1G1
GUESS,Calgary,3991,#3991,5466 Signal Hill Center SW Unit D,AB,T3H 3P8
GUESS,Brampton,3992,#3992,"40 Great Lakes Drive, Unit 104B",ON,L6R 2K7
GUESS,Nepean,3993,#3993,"1377 Woodroffe Ave., Unit A",ON,K2G 1V7
GUESS,Mississauga,3994,#3994,"755 Britannia Rd West, Unit 5",ON,L5V 2Y1
GUESS,"St Dorthee, Laval",3995,#3995,2198 Desserte West Autoroute Chomeday A-13 Unit 19C,QC,H7X 4G8
GUESS,South Edmonton,3996,#3996,9773 19th Ave NW,AB,T6N 1N5
GUESS,Vaughan,3997,#3997,"1 BassPro Mills Drive, Unit 534",ON,L4K 5W4
GUESS,Montreal,3998,#3998,8771 L'Acadie Boulevard,QC,H4N 3K1
GUESS,New Westminster,3999,#3999,"805 Boyd Street, Suite E-160",BC,V3M 5X2
GUESS,Ontario,4002,#4002,"One Mills Circle, Space 313",CA,91764
GUESS,Elizabeth,4003,#4003,"651 Kapkowski Road, Suite 1470",NJ,7201
GUESS,Miami,4004,#4004,"11401 NW 12th Street, Space 172",FL,33172
GUESS,Camarillo,4006,#4006,"850 E Ventura Boulevard, Space #726",CA,93010
GUESS,Aurora,4007,#4007,"1650 Premium Outlets Blvd, Suite 605",IL,60502
GUESS,Tinton Falls,4008,#4008,"1 Premium Outlets Blvd, suite 751",NJ,7753
GUESS,Cabazon,4009,#4009,"48750 Seminole Drive, Space 100",CA,92230
GUESS,City of Commerce,4010,#4010,"100 Citadel Drive, Space #450",CA,90040
GUESS,Barceloneta,4011,#4011,"One Prime Outlets Blvd, Space #900",Barceloneta,617
GUESS,Orlando,4012,#4012,"8174 Vineland Avenue, Space #1548",FL,32821
GUESS,Old San Juan,4013,#4013,213 Cristo Street,PR,901
GUESS,Central Valley,4014,#4014,"617 Bluebird Court, #617",NY,10917
GUESS,Las Vegas,4015,#4015,"905 Grand Central Parkway, Space #1756",NV,89106
GUESS,Leesburg,4018,#4018,"241 Fort Evans Road NE, #1351",VA,20176
GUESS,Orlando,4021,#4021,4953 International Drive Ste.1B.05,FL,32819
GUESS,Wrentham,4022,#4022,"1 Premium Outlet Dr., #660",MA,2093
GUESS,Niagara Falls,4023,#4023,"1826 Military Road, Space #113",NY,14304
GUESS,Gilroy,4024,#4024,"8375 Arroyo Circle, Space #B051",CA,95020
GUESS,San Ysidro,4025,#4025,"4061 Camino De La Plaza, Suite #482",CA,92173
GUESS,Mercedes,4026,#4026,"5001 E Expressway 83, Space #905",TX,78570
GUESS,Tulalip,4027,#4027,"10600 Quil Ceda Boulevard, Suite 318",WA,98271
GUESS,San Marcos,4028,#4028,3939 IH-35 South Ste#1220,TX,78666
GUESS,Estero,4029,#4029,10801 Corkscrew Road Ste#411,FL,33928
GUESS,Waipahu,4030,#4030,94-790 Lumianina St. Sp407,HI,96797
GUESS,Canutillo,4031,#4031,7051 S. Desert Blvd ste# B243,TX,79835
GUESS,Woodburn,4032,#4032,1001 N. Arney Rd. Space #912,OR,97017
GUESS,Niagara Falls,4901,#4901,"7500 Lundy's Lane, Unit C2",ON,L2H 1G8
GUESS,Vaughan,4902,#4902,1 Bass Pro Mills Dr. Unit #275,ON,L4K 5W4
GUESS,St Sauveur,4903,#4903,100 E Rue Guindon,QC,J0R 1R0
GUESS,Rocky View,4904,#4904,261055 CrossIron Blvd. Spc219,AB,T4A 0G3
GUESS,New York,5002,#5002,537 Broadway,NY,10012
GUESS,Los Angeles,5003,#5003,10250 Santa Monica Blvd.#1240,CA,90067
GUESS,NY,5004,#5004,23-25 Fulton Street,NY,10038
GUESS,Glendale,5008,#5008,2222 Glendale Galleria 2,CA,91210
GUESS,San Diego,5010,#5010,7007 Friars Rd #843,CA,92108
GUESS,San Diego,5012,#5012,"141 Horton Plaza, Space 167",CA,92101
GUESS,San Diego,5013,#5013,4485 La Jolla Village Dr. #F-9,CA,92122
GUESS,Canoga Park,5017,#5017,"6600 Topanga Canyon Blvd., #59",CA,91303
GUESS,Sherman Oaks,5018,#5018,"14006 Riverside Dr., #38",CA,91423
GUESS,Tucson,5019,#5019,"4500 N Oracle Rd, Space 235",AZ,85705
GUESS,Scottsdale,5023,#5023,7014 E. Camelback Space #1105,AZ,85251
GUESS,Los Angeles,5024,#5024,"8522 Beverly Blvd., Suite 784",CA,90048
GUESS,Houston,5028,#5028,"5085 Westheimer, Ste. 2760",TX,77056
GUESS,Dallas,5029,#5029,715 North Park Center,TX,75225
GUESS,Torrance,5030,#5030,"3525 W. Carson Street, Suite #70",CA,90503
GUESS,Brea,5032,#5032,"1066 Brea Mall, Space 2104A",CA,92821
GUESS,Riverside,5033,#5033,"2240 Tyler Mall, Space GU11",CA,92503
GUESS,Bellevue,5035,#5035,"2084 Bellevue Square, Space 2084",WA,98004
GUESS,Oakbrook,5036,#5036,428 Oakbrook Center,IL,60523
GUESS,Bethseda,5038,#5038,"7101 Democracy Blvd., Space 1334",MD,20817
GUESS,Beverly Hills,5039,#5039,411 N. Rodeo Drive,CA,90210
GUESS,Denver,5040,#5040,"3000 E. 1st Avenue, Space 148",CO,80206
GUESS,San Antonio,5041,#5041,"7400 San Pedro, Space 354",TX,78216
GUESS,Costa Mesa,5042,#5042,"3333 Bristol St., #1224",CA,92626
GUESS,McLean,5043,#5043,"7875 Tysons Corner Center, Space N7U",VA,22102
GUESS,Minneapolis,5044,#5044,260 South Avenue,MN,55425
GUESS,Las Vegas,5045,#5045,"3500 Las Vegas Blvd. South, #N-22",NV,89109
GUESS,Charlotte,5049,#5049,"4400 Sharon Road, Suite G11",NC,28211
GUESS,Orlando,5052,#5052,"8001 South Orange Blossom Tr., #590",FL,32809
GUESS,Santa Clara,5055,#5055,"2855 Stevens Creek Blvd., Space 1067",CA,95050
GUESS,Atlanta,5058,#5058,"3393 Peachtree Rd., NE, Space 3043",GA,30326
GUESS,Cambridge,5060,#5060,"100 Cambridgeside Place, Ste. 227",MA,2141
GUESS,Boston,5062,#5062,80 Newbury Street,MA,2116
GUESS,Cerritos,5070,#5070,"239 Los Cerritos Center, Space D16",CA,90703
GUESS,Atlanta,5072,#5072,"4400 Ashford Dunwoody Rd., Ste. 2128",GA,30346
GUESS,Buffalo,5073,#5073,"One Walden Galleria, Space #T-H 116",NY,14225
GUESS,Garden City,5076,#5076,"630 Old Country Road, Space #1114",NY,11530
GUESS,Raleigh,5077,#5077,"4325 Glenwood Ave., #2110",NC,27612
GUESS,Honolulu,5078,#5078,"1450 Ala Moana Blvd., #2320",HI,96814
GUESS,Schaumburg,5079,#5079,"Woodfield Mall, #N102",IL,60173
GUESS,Paramus,5081,#5081,1 Garden State Plaza Suite C-07,NJ,7652
GUESS,Short Hills,5082,#5082,"1200 Morris Turnpike, #A127",NJ,7078
GUESS,King of Prussia,5083,#5083,"160 N. Gulph Road, Space 6138",PA,19406
GUESS,Aventura,5084,#5084,"19501 Biscayne Blvd., #669",FL,33180
GUESS,Novi,5085,#5085,"27824 Novi Road, Space #E107",MI,48377
GUESS,Troy,5087,#5087,"2800 W. Big Beaver Road, Space 214",MI,48084
GUESS,Miami,5088,#5088,"7513 North Kendall Drive, Space 1270",FL,33156
GUESS,Seattle,5089,#5089,467 Southcenter Space #1545,WA,98188
GUESS,Victor,5090,#5090,"364 Eastview Mall, Space #E15",NY,14564
GUESS,Staten Island,5091,#5091,"2655 Richmond Ave, #209",NY,10314
GUESS,Santa Monica,5092,#5092,1432 3rd Street,CA,90401
GUESS,Miami,5095,#5095,"401 Biscayne Blvd., #R102",FL,33132
GUESS,Lake Grove,5096,#5096,"526 Smith Haven Mall, Space #E11A",NY,11755
GUESS,Wayne,5097,#5097,"1400 Willowbrook Mall, #1427",NJ,7470
GUESS,Miami,5101,#5101,1455 NW 107th Ave #358,FL,33172
GUESS,Puebla,5417,#5417,"Autopista México- Puebla KM 115 Local B-6, Col. San Francisco Ocotlan",Puebla,72680
GUESS,Boca Raton,5501,#5501,"6000 Glades Road, Space #1043",FL,33431
GUESS,Skokie,5502,#5502,"175 Old Orchard, Space K-4",IL,60077
GUESS,Beachwood,5503,#5503,"26300 Cedar Road, Space 2220",OH,44122
GUESS,Lone Tree,5504,#5504,"8401 Park Meadows Center Drive, Suite #2090",CO,80124
GUESS,Miami Beach,5505,#5505,736 Collins Avenue,FL,33139
GUESS,McAllen,5507,#5507,"2200 South 10th Street, #R01",TX,78503
GUESS,Providence,5509,#5509,"56 Providence Place,  Suite #3090",RI,2903
GUESS,Hato Rey,5512,#5512,"525 F.D. Roosevelt Ave., #440",San Juan,918
GUESS,Buford,5514,#5514,"3333 Buford Drive, Suite 1027",GA,30519
GUESS,San Francisco,5515,#5515,"3251 20th Ave., Suite 151",CA,94132
GUESS,El Paso,5517,#5517,"8401 Gateway Blvd. West, Suite # B06A",TX,79925
GUESS,Brooklyn,5518,#5518,"5351 Kings Plaza, Space #B10U - B12U",NY,11234
GUESS,Dallas,5519,#5519,"13350 Dallas Pkwy., Space 1050",TX,75240
GUESS,Tucson,5523,#5523,"5870 E. Broadway, Suite 124",AZ,85711
GUESS,Chicago,5525,#5525,605 N. Michigan Avenue #2,IL,60611
GUESS,San Francisco,5528,#5528,"865 Market St., Suite 206-208",CA,94103
GUESS,Roseville,5529,#5529,"1151 Galleria Blvd., Suite #145",CA,95678
GUESS,San Mateo,5531,#5531,"344 Hillsdale Mall, Suite #1260",CA,94403
GUESS,Freehold,5542,#5542,3710 Route 9 space # C128,NJ,7728
GUESS,Edison,5546,#5546,"55 Parsonage Road, Space #2418A",NJ,8837
GUESS,Tampa,5548,#5548,"2223 N. West Shore Blvd., Suite 209",FL,33607
GUESS,Wellington,5549,#5549,"10300 West Forest Hill Blvd., Space 220",FL,33414
GUESS,Elmhurst,5561,#5561,90-15 Queens Blvd Ste 1059,NY,11373
GUESS,Albany,5567,#5567,"1 Crossgates Mall  Rd, Space 212",NY,12203
GUESS,Bridgewater,5575,#5575,"400 Commons Way, #264",NJ,8807
GUESS,Orlando,5576,#5576,"4200 Conroy Rd., Space 105",FL,32839
GUESS,Sterling Heights,5586,#5586,"14000 Lakeside Circle, Space G209",MI,48313
GUESS,Las Vegas,5590,#5590,"3200 Las Vegas Blvd., Space 1460",NV,89109
GUESS,Des Peres,5591,#5591,"20 West County Center, Space 1070",MO,63131
GUESS,Lakewood,5594,#5594,399 S. Teller St,CO,80226
GUESS,Scottsdale,5595,#5595,"7030 Greenway Parkway, Space 160",AZ,85254
GUESS,Peabody,5596,#5596,RT-128 and RT-114E SpcE161,MA,1960
GUESS,Pembroke Pines,5597,#5597,"11401 Pines Blvd., Space 140",FL,33026
GUESS,Edgewater,5598,#5598,"39 Promenade Bld 300, Space A8",NJ,7020
GUESS,Metaire,5600,#5600,"3301 Veterans Memorial, Sp 75",LA,70002
GUESS,Holyoke,5602,#5602,"50 Holyoke St., Space E370",MA,1041
GUESS,Miami,5603,#5603,"1455 NW 107th Ave, Suite 286",FL,33172
GUESS,Orland Park,5604,#5604,"528 Orland Square, Space # E08A",IL,60462
GUESS,Arlington,5607,#5607,"1100 South Hayes Street, Space # G01-G02",VA,22202
GUESS,Charlotte,5609,#5609,6801 Northlake Mall Dr.,NC,28216
GUESS,Atlantic City,5610,#5610,"1 Atlantic Ocean, Space #BR220",NJ,8401
GUESS,Rancho Cucamonga,5611,#5611,7815 Kew Ave. Space 5020,CA,91739
GUESS,Rockaway,5612,#5612,"301 Mount Hope Avenue, Space #2055",NJ,7866
GUESS,San Antonio,5613,#5613,16401 La Cantera Pkwy,TX,78256
GUESS,Laredo,5614,#5614,"5300 N. San Dario, Space 15",TX,78041
GUESS,Houston,5617,#5617,"2000 Willowbrook Mall, Sp. 1112",TX,77070
GUESS,Estero,5620,#5620,"23151 Fashion Drive, Ste 105",FL,33928
GUESS,Las Vegas,5621,#5621,"6543 Las Vegas Blvd South, Space #C-128",NV,89119
GUESS,Redondo Beach,5622,#5622,1815 Hawthorne Blvd.,CA,90278
GUESS,Westlake,5623,#5623,275 Crocker Park Blvd.,OH,44145
GUESS,Newark,5624,#5624,"715 Christiana Mall Road, Space 115",DE,19702
GUESS,Arcadia,5625,#5625,"400 S Baldwin Avenue, Space # 438-L",CA,91007
GUESS,Los Angeles,5629,#5629,"6801 Hollywood Blvd., #267",CA,90028
GUESS,Clinton Township,5630,#5630,"17410 Hall Road, #170",MI,48038
GUESS,Ft. Lauderdale,5632,#5632,"2414 E. Sunrise Blvd., #2051A",FL,33304
GUESS,Miami,5634,#5634,546 Lincoln Road,FL,33139
GUESS,Philadelphia,5636,#5636,1520 Walnut Street,PA,19102
GUESS,Yonkers,5638,#5638,6K Mall Walk,NY,10704
GUESS,Northridge,5641,#5641,"9301 Tampa Avenue, #174",CA,91324
GUESS,Cherry Hill,5642,#5642,2000 Route 38 Suite 1225,NJ,8002
GUESS,Fresno,5644,#5644,"639 E. Shaw Avenue Ste.159, Space #T-17",CA,93710
GUESS,Pleasanton,5646,#5646,1424 Stoneridge Mall SpcE118A,CA,94588
GUESS,Las Vegas,5647,#5647,3663 South Las Vegas Blvd. Ste # G007,NV,89109
GUESS,New York,5649,#5649,575 5th Avenue,NY,10017
GUESS,Seattle,5650,#5650,600 Pine Street #220,WA,98101
GUESS,Surrey,5924,#5924,2695 Guildford Town Centre # 2044,BC,V3R 7C1
GUESS,Saskatoon,5925,#5925,201 First Ave S. #T027,SK,S7K 1J9
GUESS,Montreal,5926,#5926,"705 Rue Ste Catherine West, Space #3115B",QC,H3B 4G5
GUESS,Brossard,5928,#5928,2151 Lapiniere Blvd. Suite #H08C,QC,J4W 2T5
GUESS,Ottawa,5929,#5929,"100 Bayshore Drive,  Ste #CC3A",ON,K2B 8C1
GUESS,Calgary,5930,#5930,751 3rd Street SW Unit 236,AB,T2P 4K8
GUESS,Victoria,5932,#5932,3147 Douglas St. Space 128,BC,V8Z 6E3
GUESS,Edmonton,5933,#5933,"11100-51 Avenue, Unit # 720",AB,T6H 4M6
GUESS,Brampton,5934,#5934,25 Peel Centre Dr Spc530,ON,L6T 3R5
GUESS,Ottawa,5936,#5936,1200 St. Laurent Blvd Unit 106-109,ON,K1K 3B8
GUESS,Calgary,5938,#5938,"6455 MacLeod Trail SW, Unit # 31 & 32",AB,T2H 0K8
GUESS,Toronto,5940,#5940,28 Karl Fraser Road,ON,M3C 0E8
GUESS,Montreal,5941,#5941,1101 Ste Catherine West,QC,H3B 1J4
GUESS,Kitchener,5942,#5942,2960 Kingsway Drive #J001,ON,N2C 1X1
GUESS,London,5943,#5943,1105 Wellington Rd South  sp # 474,ON,N6E 1V4
GUESS,Saint-Bruno de Montaville,5944,#5944,286 boul des Promenades,QC,J3V 5J5
GUESS,Kelowna,5946,#5946,"2271 Harvey Avenue, Ste 1075",BC,V1Y 6H2
GUESS,Barrie,5947,#5947,509 Bayfield St. #N36,ON,L4M 4Z8
GUESS,Calgary,5948,#5948,"3625 Shaganappi Trail NW, Space P020",AB,T3A 0E2
GUESS,Windsor,5949,#5949,3100 Howard Ave. Unit B9,ON,N8X 3Y8
GUESS,Rosemere,5950,#5950,"401 Labelle, Unit I14",QC,J7A 3T2
GUESS,Coquitlam,5952,#5952,"2929 Barnet Highway, 2716",BC,V3B 5R5
GUESS,Richmond,5953,#5953,"6551 #3 Road, Unit 1624",BC,V6Y 2B6
GUESS,Oshawa,5954,#5954,"419 King St West, Unit 3501",ON,L1J 2K5
GUESS,Hamilton,5955,#5955,"999 Upper Wentworth Street, Unit #215C",ON,L9A 4X5
GUESS,Ottawa,5956,#5956,50 Rideau Street Unit #311,ON,K1N 9J7
GUESS,Richmond Hill,5957,#5957,"9350 Yonge St, Space # E11",ON,L4C 5G2
GUESS,Ste-Foy,5958,#5958,2452 Boulevard Wilfred Laurier Unit E02,QC,G1V 2L1
GUESS,Scarborough,5959,#5959,300 Borough Drive Units #270,ON,M1P 4P5
GUESS,Toronto,5960,#5960,306 Yonge Street,ON,M5B 1R4
GUESS,Victoria,5961,#5961,1150 Douglas Street,BC,V8W 3M9
GUESS,Vancouver,5962,#5962,700 W. Georgia St #006D,BC,V7Y 1A1
GUESS,Burnaby,5963,#5963,"4700 Kingsway, Unit 2308",BC,V5H 4N2
GUESS,Laval,5964,#5964,3003 Boul Le Carrefour L23A,QC,H7T 1C8
GUESS,Toronto,5965,#5965,77 Bloor Street West,ON,M5S 1M2
GUESS,Newmarket,5966,#5966,"17600 Yonge Street, Unit CC7",ON,L3Y 4Z1
GUESS,Markham,5967,#5967,"5000 Highway 7 East, Unit #318A",ON,L3R 4M9
GUESS,West Vancouver,5968,#5968,780 Park Royal North,BC,V7T 1H9
GUESS,Mississauga,5969,#5969,"5100 Erin Mills Parkway, Unit B107",ON,L5M 4Z5
GUESS,Town of Mont Royal,5970,#5970,2305 Chemin Rockland Unit 173 & 174,QC,H3P 3E9
GUESS,London,5971,#5971,1680 Richmond St North Sp # 48,ON,N6G3Y9
GUESS,Pointe Claire,5973,#5973,6815 Rue Transcanadienne #G-12,QC,H9R 5J1
GUESS,Etobicoke,5974,#5974,25 The West Mall #1117,ON,M9C 1B8
GUESS,Toronto,5975,#5975,1 Yorkdale Road,ON,M6A 3A1
GUESS,Toronto,5976,#5976,364 Queen Street West,ON,M5V 2A2
GUESS,Winnipeg,5978,#5978,"1485 Portage Avenue, Unit 0267B",MB,R3G 0W4
GUESS,Mississauga,5980,#5980,100 City Center Dr Unit # 2206 & 2007,ON,L5B 2C9
GUESS,Vancouver,5982,#5982,1144 Robson Street,BC,V6E 1B2
GUESS,Edmonton,5983,#5983,"1737-8770 170th Street, Unit #K114",AB,T5T 4M2
GUESS,Calgary,5984,#5984,"100 Anderson Rd. Southeast, Unit #218",AB,T2J 3V1
GUESS,Guelph,5985,#5985,"435 Stone Road West, Suite #214",ON,N1G 2X6
GUESS,Burlington,5986,#5986,"900 Maple Avenue, #B27",ON,L7S 2J8
GUESS,Toronto,5987,#5987,"1800 Shepard Avenue East, #U202A",ON,M2J 5A7
GUESS,Thornhill,5988,#5988,"1 Promenade Circle, #B214",ON,L4J 4P8
GUESS,Oakville,5989,#5989,"540 Leighland Drive, Sp. 131",ON,L6H 3H6
GUESS,Tempe,7001,#7001,"5000 Arizona Mills Circle, Suite 320",AZ,85282
GUESS,Grapevine,7002,#7002,"3000 Grapevine Mills Pkwy., Suite 212",TX,76051
GUESS,Milpitas,7003,#7003,551 Great Mall Drive,CA,95035
GUESS,Auburn Hills,7004,#7004,"4568 Baldwin Road, Suite 822",MI,48326
GUESS,Miami,7006,#7006,"11401 NW 12th Street, Suite 382",FL,33172
GUESS,San Bruno,7007,#7007,"1150 El Camino Real, Suite 290",CA,94066
GUESS,Orange,7008,#7008,"20 City Blvd., Suite 208 & 210",CA,92868
GUESS,El Centro,7009,#7009,"3451 S. Dogwood Avenue, Suite 1346",CA,92243
GUESS,Primm,7010,#7010,"32100 Las Vegas Blvd South, Space 404",NV,89019
GUESS,SAN JOSE,7011,#7011,2200 Eastridge Loop Sp2048,CA,95122
GUESS,Jersey City,7012,#7012,30 Mall Drive West,NJ,7310
GUESS,Vernon Hills,7015,#7015,520 Hawthorn Ctr #520,IL,60061
GUESS,Dearborn,7017,#7017,"18900 Michigan Avenue, Suite M107",MI,48126
GUESS,Wheaton,7018,#7018,11160 Veirs Mill Rd #G5,MD,20902
GUESS,Hialeah,7024,#7024,"1695 W. 49th Street, Suite 1560",FL,33012
GUESS,Gainesville,7025,#7025,6419 Newberry Road Ste.D-008,FL,32605
GUESS,Santa Barbara,7027,#7027,820 State Street,CA,93101
GUESS,Glendale,7029,#7029,7700 W. Arrowhead Town Ctr Spc2175,AZ,85308
GUESS,San Antonio,7030,#7030,"6301 NW Loop 410, Ste H07",TX,78238
GUESS,St. Petersburg,7031,#7031,"6901 22nd Avenue, Suite #476A",FL,33710
GUESS,Lakewood,7032,#7032,"500 Lakewood Center, Suite 363",CA,90712
GUESS,Carolina,7034,#7034,"Fragoso Avenue, Suite 154",PR,983
GUESS,National City,7036,#7036,"3030 Plaza Bonita Road, Suite 2400",CA,91950
GUESS,Tempe,7037,#7037,"2000 E. Rio Salado Pkwy, Suite 1009",AZ,85281
GUESS,Modesto,7038,#7038,3401 Dale Road Space M10,CA,95356
GUESS,Atlantic City,7039,#7039,"2000 Baltic Avenue, Space 270",NJ,8401
GUESS,Aurora,7040,#7040,"195 Fox Valley Center Drive, Space #E11",IL,60504
GUESS,Bayshore,7042,#7042,"1701 Sunrise Hwy, Space #E-2",NY,11706
GUESS,Woodbridge,7044,#7044,"250 Woodbridge Center Drive, Space #2530",NJ,7095
GUESS,Altamonte Springs,7045,#7045,"451 E Altamonte Drive, Space #2433",FL,32701
GUESS,Bakersfield,7046,#7046,"2701 Ming Avenue, Space #158",CA,93304
GUESS,Naples,7047,#7047,"1784 Tamianmi Trail North, Space #K0004",FL,34102
GUESS,Sugarland,7049,#7049,"16535 Southwest Freeway, Space #340",TX,77479
GUESS,Brandon,7050,#7050,"569 Brandon Town Center Drive, Space #569",FL,33511
GUESS,Fort Myers,7051,#7051,"4125 Cleveland Avenue, Space #1650A",FL,33901
GUESS,Arlington,7054,#7054,"3811 S. Cooper St, Space #1148",TX,76015
GUESS,Mesquite,7055,#7055,"1116 Town East Mall, Space #1116",TX,75150
GUESS,Mays Landing,7056,#7056,"4403 Black Horse Pike, Space #1105",NJ,8330
GUESS,Montclair,7058,#7058,"5060 Montclair Plaza Lane, Space #5022",CA,91763
GUESS,Henderson,7059,#7059,"1300 West Sunset Blvd., Space #2645",NV,89014
GUESS,Plantation,7060,#7060,"8000 W. Broward Blvd, Space #1303",FL,33388
GUESS,West Covina,7062,#7062,"358 Plaza Drive, Ste 370",CA,91790
GUESS,Culver City,7064,#7064,"6000 Sepulveda Boulevard, Suite 1416",CA,90230
GUESS,Midland,7065,#7065,4511 N Midkiff Drive Spce F04,TX,79705
GUESS,Braintree,7066,#7066,250 Granite St # 1240,MA,2184
GUESS,Downey,7067,#7067,251 Stonewood St Space#B33,CA,90241
GUESS,Ontario,7068,#7068,"1 Mills Circle, Space 328b",CA,91764
GUESS,Sunrise,7069,#7069,"2612 Sawgrass Mills Circle, Spc 1511A",FL,33323
GUESS,Humble,7071,#7071,20131 Hwy 59 North Space 1154,TX,77338
GUESS,Santa Ana,7073,#7073,2800 N Main St Space# 228,CA,92705
GUESS,Alpharetta,7074,#7074,1000 North Point Cir Spc1030,GA,30022
GUESS,Houston,7076,#7076,2530 University Blvd. #5,TX,77005
GUESS,Franklin,7077,#7077,1800 Galleria Blvd. #2155,TN,37067
GUESS,Montebello,7079,#7079,1811 Montebello Town Center Space# C-15,CA,90640
GUESS,Tyler,7082,#7082,"4601 S. Broadway, Space #C08",TX,75703
GUESS,Albuquerque,7083,#7083,6600 Menual Blvd NE Suite #H-012,NM,87110
GUESS,Valley Stream,7084,#7084,2034 Green Acres Mall unit #  37 & 38,NY,11581
GUESS,Orlando,7085,#7085,15549 State Road 535 Suite D,FL,32821
GUESS,Kissimmee,7086,#7086,2621 W. Osceola Pkwy. Space B35,FL,34741
GUESS,West Nyack,7087,#7087,2372 Palisades Center Drive,NY,10994
GUESS,Temecula,7088,#7088,40820 Winchester Road #2520,CA,92591
GUESS,Chula Vista,7089,#7089,555 Broadway,CA,91910
GUESS,Palmdale,7091,#7091,1233 Rancho Vista Blvd. Space #741,CA,93551
GUESS,City of Industry,7092,#7092,1600 S Azusa Ave #527,CA,91748
GUESS,CONCORD,7093,#7093,414 Sunvalley Mall  # A 207,CA,94520
GUESS,Hurst,7095,#7095,"1101 Melbourne Rd, Suite P-12",TX,76053
GUESS,Nashville,7096,#7096,"306 Opry Mills Drive, Space #708",TN,37214
GUESS,Olympia,7097,#7097,625 Black Lake Blvd. Suite 374,WA,98502
GUESS,Elizabeth,7098,#7098,651 Kapkowski Road Suite#2450,NJ,7201
GUESS,PORTLAND,7100,#7100,910 Lloyd Center #B111,OR,97232
GUESS,San Jose,7101,#7101,925 Blossom Hill Road Suite 1151,CA,95123
GUESS,Fairfield,7102,#7102,1350 Travis Blvd. Ste 1496B Space R1,CA,94533
GUESS,Miami,7103,#7103,20505 S. Dixie Hwy. Space 1183,FL,33189
GUESS,Vancouver,7104,#7104,8700 NE Vancouver Mall Dr. #148,WA,98662
GUESS,CANOVANAS,7105,#7105,18400 State Rd #3 Spc121,Canóvanas,729
GUESS,Mayaguez,7106,#7106,Avenida Hostos 975 Ste 385,PR,680
GUESS,Las Vegas,7107,#7107,"4300 Meadows Mall, Ste 2530",NV,89107
GUESS,Visalia,7108,#7108,"2227 South Mooney Blvd, Space #1830",CA,93277
GUESS,Fort Worth,7109,#7109,4800 Hulen St. Ste1092,TX,76132
GUESS,Norfolk,7111,#7111,300 Monticello Ave.,VA,23510
GUESS,Plano,7112,#7112,6121 W. Park Blvd. Ste B112,TX,75093
GUESS,Orlando,8003,#8003,8001 South Orange Blossom Dr. #568,FL,32809
GUESS,Miami,8004,#8004,401 Biscayne Blvd #1355,FL,33132
GUESS,Universal City,8007,#8007,"100 Universal City Plaza, Space 155",CA,91608
GUESS,Las Vegas,8009,#8009,3663 S. Las Vegas Bl. Suite 660,NV,89109
GUESS,Aventura,8015,#8015,19501 Biscayne Blvd. #1721,FL,33180
GUESS,San Antonio,8017,#8017,7400 San Pedro Ave #1555,TX,78216
GUESS,Pembroke Pines,8018,#8018,11401 Pines Blvd #854,FL,33026
GUESS,Elmhurst,8019,#8019,90-15 Queens Blvd. #2017,NY,11373
GUESS,Miami,8021,#8021,401 Biscayne Blvd Ste. 1355,FL,33139
GUESS,Montreal,8901,#8901,"705 Rue Ste-Catherine West, #3103",QC,H3G 1P3
GUESS,Hamilton,8902,#8902,"999 Upper Wentworth Street, Sp 0221A",ON,L9A 4X5
GUESS,Toronto,8904,#8904,"220 Yonge Street, Unit #8-18",ON,M5B 2H1
GUESS,Mississauga,8905,#8905,100 City Centre Drive #1-418,ON,L5B 2C9
GUESS,Edmonton,8908,#8908,8882-170th Street Space #S-115,AB,T5T 4M2
GUESS,Burnaby,8909,#8909,"4700 Kingsway, Space #2134A",BC,V5H 4M1
GUESS,Newmarket,8910,#8910,1760 Yonge St. Space FF18,ON,L3Y 4Z1
GUESS,Calgary,8911,#8911,6455 Macleod Trail SW  Unit 176,AB,T2H 0K8
GUESS,Laval,8912,#8912,3035 Boul Le Carrefour Sp#E008B,QC,H7T 1C8
GUESS,Toronto,8913,#8913,1800 Sheppard Ave. Space #2051,ON,M2J 5A7
GUESS,Kitchener,8914,#8914,2600 Kingsway Dr Ste. N014A,ON,N2C 1X1
GUESS,Winnipeg,8915,#8915,"1485 Portage Ave, Space #252A",MB,R3G 0W4
GUESS,Richmond,8916,#8916,6551 No. 3 Rd. Space 1554A,BC,V6Y 2B6
GUESS,CHANDLER,3292 - G.O,#3292 - G.O,4976 Premium Outlets Way Spc452,AZ,85226
GUESS,Fort Worth,7109 - G.O,#7109 - G.O,"4800 Hulen Street, Ste 1092",TX,76132
GUESS,Edison,8546 Menlo,#8546 Menlo,100 Menlo Park Spc K106,NJ,8837
GUESS,Dubai,AAE00507,#AAE00507,"Mirdiff, Emirates Road",Dubai,
GUESS,Dubai,AAE00527,#AAE00527,"Downtown Dubai, The Dubai Mall Sheikh Zayed Road",Dubai,
GUESS,Dubai,AAE00559,#AAE00559,"Festival City , Ras Al Khor",Dubai,
GUESS,Dubai,AAE00566,#AAE00566,"Deira CC,Baniyas Street, Port Saeed",Dubai,
GUESS,Abu Dhabi,AAE00598,#AAE00598,,Abu Dhabi,
GUESS,Sharjah,AAE00612,#AAE00612,,Sharjah,
GUESS,Dubai,AAE00624,#AAE00624,,Dubai,
GUESS,Tirana,AAL00790,#AAL00790,Rruga Sami Frasheri,Tirana,1001
GUESS,Bruxelles,ABE00347,#ABE00347,Anspachlaan,Brussels,1000
GUESS,Bruxelles,ABE00350,#ABE00350,Galerie de la Porte Louise 216,Brussels,1050
GUESS,Anderlecht,ABE00445,#ABE00445,Boulevard Sylvain Dupuis 433,Brussels,1070
GUESS,Knokke,ABE00759,#ABE00759,Kustlaan 21,Flanders,8300
GUESS,Charleroi,ABE00788,#ABE00788,Grand Rue 143,Walloon Region,6000
GUESS,Liege,ABE00823,#ABE00823,Pont D'ile 32,Walloon Region,4000
GUESS,Wijnegem,ABE00843,#ABE00843,Turnhoutse Bann 5,Flanders,2110
GUESS,Sofia,ABG00360,#ABG00360,Sitniakovo Blvd,Sofia-city,1000
GUESS,Manama,ABH00532,#ABH00532,"Sheikh Khalifa Bin Salman Highway, Al Seef",Northern Governorate,
GUESS,Manama,ABH00552,#ABH00552,"Road 2825, Block 428 Seef District",Northern Governorate,
GUESS,Sanabis,ABH00591,#ABH00591,Avenue 28,Capital Governorate,
GUESS,Lausanne,ACH00731,#ACH00731,Rue Pichard 6,VD,1003
GUESS,Larnaca,ACY00119,#ACY00119,Zinonos Kitieos 28,Larnaca,6022
GUESS,Nicosia,ACY00183,#ACY00183,"Ledras st., 248",Nicosia,1011
GUESS,Paphos,ACY00533,#ACY00533,Gladstonos 37-39,Paphos,
GUESS,Zakaki,ACY00648,#ACY00648,Franklin Roosevelt 285,Limassol,3150
GUESS,Praga,ACZ00124,#ACZ00124,Veselská 663,Hlavní msto Praha,199 00
GUESS,Prague,ACZ00130,#ACZ00130,Celetná 11/598,Hlavní msto Praha,110 00
GUESS,Brno,ACZ00174,#ACZ00174,U dálnice 777,South Moravian Region,664 42
GUESS,Brno-trnitá,ACZ00777,#ACZ00777,Ve Vankovce 1,South Moravian Region,60200
GUESS,Hradec Králové,ACZ00805,#ACZ00805,Brnenská 1825/23a,Hradec Králové Region,50009
GUESS,Stuttgart,ADE00242,#ADE00242,Calwer Straße 31,BW,70173
GUESS,Weiterstadt,ADE00309,#ADE00309,Gutenbergstraße 5,HE,64331
GUESS,Frankfurt,ADE00741,#ADE00741,Sulzbach (taunus),HE,65843
GUESS,Köln,ADE00800,#ADE00800,Aachener Strasse 1253,NRW,50858
GUESS,Tallinn,AEE00221,#AEE00221,Suur-Sõjamäe 4,Harju County,11415
GUESS,Tallinn,AEE00789,#AEE00789,Endla 45,Harju County,10615
GUESS,Cairo,AEG00539,#AEG00539,"Naser City,Omar Ibn El Khatab St.",Cairo Governorate,
GUESS,Cairo,AEG00587,#AEG00587,"Al Korba, 9 Bagdad Street",Cairo Governorate,
GUESS,Cairo,AEG00613,#AEG00613,1 Wadi El Nil St.,Faiyum,
GUESS,Alexandria,AEG00615,#AEG00615,,Alexandria Governorate,
GUESS,Cairo,AEG00616,#AEG00616,Kornish Al Nile,Cairo Governorate,
GUESS,"Meloneras, Gran Canaria",AES00108,#AES00108,Planata Baja-Sotano,CN,35100
GUESS,"L'Hospitalet de Llobregat, Barcelona",AES00111,#AES00111,Avenida Gran Via 75/97,CT,8908
GUESS,Gijón,AES00113,#AES00113,Calle Los Moros 29,Asturias,33206
GUESS,Zaragoza,AES00219,#AES00219,Avda Diagonal 8,Aragon,50197
GUESS,La Coruña,AES00693,#AES00693,Ctra baños de arteixo 43,GA,15005
GUESS,Puerto Del Carmen (Tias) Lanzarote,AES00745,#AES00745,Avenida Juan Carlos I 15,CN,35010
GUESS,Barcelona,AES00758,#AES00758,Passeig De Gràcia 13,CT,8007
GUESS,Espoo,AFI00299,#AFI00299,Piispansilta 11,,2230
GUESS,Cannes,AFR00101,#AFR00101,Rue d'Antibes 6,PACA,6400
GUESS,Serris,AFR00193,#AFR00193,Cours de la Garonne,IDF,77700
GUESS,Lille,AFR00245,#AFR00245,Place des Patiniers 6/8,Nord-Pas-de-Calais,59800
GUESS,Nice,AFR00261,#AFR00261,Rue De La Liberté 1bis,PACA,6000
GUESS,Rouen,AFR00274,#AFR00274,C.C. Les Dock 76,Upper Normandy,76000
GUESS,Saint-Raphaël,AFR00345,#AFR00345,Boulevard Félix Martin 162,PACA,83700
GUESS,Antibes,AFR00362,#AFR00362,Boulevard du Président Wilson 1,PACA,6600
GUESS,Le Kremlin-Bicêtre,AFR00363,#AFR00363,Avenue de Fontainebleau 63,IDF,94270
GUESS,Paris,AFR00451,#AFR00451,Le Parvis de la Défense 15,IDF,92092
GUESS,Baie Mahault,AFR00452,#AFR00452,Porte de la Dominique,Basse-Terre,97122
GUESS,Aubervilliers,AFR00676,#AFR00676,Rue Madeleine Vionnet 23,IDF,93300
GUESS,Haguenau,AFR00680,#AFR00680,Grand'Rue 74,Alsace,67500
GUESS,Metz,AFR00701,#AFR00701,Rue Serpenoise 53,Lorraine,57000
GUESS,Dijon,AFR00733,#AFR00733,Allee Des Argonautes 127b,Burgandy,21000
GUESS,Colmar,AFR00742,#AFR00742,Rue Des Tetes 26,Alsace,68000
GUESS,Wickham and Dunston,AGB00223,#AGB00223,Hollinside Rd,,NE11 9
GUESS,Londra,AGB00237,#AGB00237,Westfield London Shopping Centre Ariel Way,,W12 7GD
GUESS,Cambridge,AGB00247,#AGB00247,St Andrews St,,CB2 3BJ
GUESS,London,AGB00424,#AGB00424,Brompton Rd 60,,SW3 1BW
GUESS,Rhodes,AGR00404,#AGR00404,martiou and amerikis str. 25,Egeo,85100
GUESS,Marousi,AGR00444,#AGR00444,Andrea Papandreou 35,Attica,15122
GUESS,Rijeka,AHR00103,#AHR00103,Janka Polica Kamova 81A,Primorje-Gorski Kotar County,51000
GUESS,Zagreb,AHR00104,#AHR00104,Jankomir 33,City of Zagreb,10000
GUESS,Zagreb,AHR00105,#AHR00105,Dubrovnik Ave 26 26,City of Zagreb,10000
GUESS,City of Zagreb,AHR00220,#AHR00220,Exit 4 Sv. Kriz Freeway A2/E59,City of Zagreb,10000
GUESS,Opatija,AHR00775,#AHR00775,Marsala Tita 81/ii,Primorje-Gorski Kotar County,51410
GUESS,Budapest,AHU00806,#AHU00806,Alkotás U. 53,Budapest,1123
GUESS,Fiumicino,AIT00014,#AIT00014,Apt. Da Vinci Terminal C Satellite,Lazio,54
GUESS,Firenze,AIT00015,#AIT00015,Via Por Santa Maria 38,Tuscany,50122
GUESS,Lucca,AIT00016,#AIT00016,Via Fillungo 33,Tuscany,55100
GUESS,Fiumicino,AIT00017,#AIT00017,Viale Bramante,Lazio,54
GUESS,Palermo,AIT00027,#AIT00027,Via Roma 112,Sicilia,90133
GUESS,Sesto San Giovanni,AIT00029,#AIT00029,Viale Italia,Lombardy,20099
GUESS,Pistoia,AIT00030,#AIT00030,Via Buozzi 6,Tuscany,51100
GUESS,Torino,AIT00032,#AIT00032,Via Giuseppe Garibaldi 20,Piedmont,10122
GUESS,Bergamo,AIT00036,#AIT00036,Via 20 Settembre 66,Lombardy,24122
GUESS,Nola,AIT00044,#AIT00044,Bosco Fangone - Interporto di Nola,Campania,80035
GUESS,Serravalle Scrivia,AIT00079,#AIT00079,Via della Moda 1,Piedmont,15069
GUESS,Barberino,AIT00083,#AIT00083,Via Meucci,Tuscany,50031
GUESS,Roma,AIT00167,#AIT00167,Via del Ponte di Piscina Cupa 64,Lazio,128
GUESS,Roma,AIT00169,#AIT00169,Via delle Vigne Nuove,Lazio,139
GUESS,Noventa di Piave,AIT00185,#AIT00185,Uscita autostrada tra A4 e Via Calnova,Veneto,30020
GUESS,Monza,AIT00204,#AIT00204,Via Lario,Lombardy,20900
GUESS,Roma,AIT00260,#AIT00260,Via Rigamonti 100,Lazio,142
GUESS,Rimini,AIT00264,#AIT00264,Via Caduti di Nassirya 20,Emilia-Romagna,47923
GUESS,Antegnate,AIT00265,#AIT00265,Strada Provinciale 104,Lombardy,24051
GUESS,Foiano della Chiana,AIT00277,#AIT00277,Via Enzo Ferrari 5,Tuscany,52045
GUESS,Avellino,AIT00282,#AIT00282,Corso Vittorio Emanuele 88,Campania,83100
GUESS,Casalecchio di Reno,AIT00285,#AIT00285,Via Marylin Monroe 2,Emilia-Romagna,40033
GUESS,Marcianise,AIT00295,#AIT00295,Aiurno,Campania,81025
GUESS,Grugliasco / Torino,AIT00296,#AIT00296,Via Crea 10,Piedmont,10142
GUESS,Palermo,AIT00324,#AIT00324,Via Pecoraino,Sicilia,90124
GUESS,Rodengo-Saiano,AIT00326,#AIT00326,Piazza Cascina Moie 1,Lombardy,25050
GUESS,Olbia,AIT00341,#AIT00341,Corso Umberto I,Sardinia,7026
GUESS,Belpasso,AIT00354,#AIT00354,Contrada Valcorrente 23,Sicilia,95032
GUESS,Modena,AIT00369,#AIT00369,Via Emilia Ovest 1480,Emilia-Romagna,41123
GUESS,"Catania, San Giovanni la punta",AIT00379,#AIT00379,Via Catira S. Lucia,Sicilia,95037
GUESS,Busnago,AIT00388,#AIT00388,Via Italia 197,Lombardy,20040
GUESS,Roma,AIT00396,#AIT00396,Via Collatina 858,Lazio,132
GUESS,Empoli,AIT00397,#AIT00397,Via del Giglio 99,Tuscany,50053
GUESS,pontecagnano scontrafata,AIT00422,#AIT00422,Via Guglielmo Marconi 33,Campania,84098
GUESS,Milano,AIT00423,#AIT00423,Via Grosotto 9,Lombardy,20149
GUESS,Perugia - Corciano,AIT00641,#AIT00641,Via Pierluigi Nervi 6,Umbria,6073
GUESS,Roma,AIT00683,#AIT00683,Via Frattina 96,Lazio,187
GUESS,Sanremo,AIT00703,#AIT00703,Corso Matteotti 66,Liguria,18038
GUESS,Cagliari,AIT00711,#AIT00711,Via Manno 31,Sardinia,9127
GUESS,Milano - Linate Airport,AIT00751,#AIT00751,Viale Forlanini,Lombardy,20100
GUESS,Milano - Malpensa T1,AIT00753,#AIT00753,,Lombardy,20100
GUESS,Milano,AIT00755,#AIT00755,Central Train Station,Lombardy,20123
GUESS,"Roma,train Station",AIT00756,#AIT00756,Piazza Dei Cinquecento,Lazio,185
GUESS,Napoli,AIT00784,#AIT00784,Via Chiaia 146,Campania,80121
GUESS,Perugia,AIT00842,#AIT00842,Piazza IV Novembre,Umbria,6135
GUESS,Kuwait City,AKW00511,#AKW00511,Al Eqaila Block 5,Al Asimah,
GUESS,Kuwait City,AKW00537,#AKW00537,"Al Rai, Fifth Ring Road",Al Asimah,
GUESS,Beirut,ALB00935,#ALB00935,Beirut City Center Hazmieh,Beirut,1
GUESS,Luxembourg,ALU00642,#ALU00642,Grand-Rue 8,Luxembourg,L-1660
GUESS,Riga,ALV00732,#ALV00732,Brivibas gatve,Rgas pilsta,LV-1006
GUESS,Casablanca,AMA00279,#AMA00279,Boulevard Al Massira Al Khadra,Grand Casablanca,
GUESS,Willemistad,AN-5001,#AN-5001,Badenpowell weg #1,Curaçao,
GUESS,Katowice,APL00727,#APL00727,Ul. Chorzowska 107,Silesian Voivodeship,40101
GUESS,Warsaw,APL00764,#APL00764,Ul. Jana Pawla Ii 82,Masovian Voivodeship,
GUESS,Krakow,APL00821,#APL00821,Ul. Pawia 5,Lesser Poland Voivodeship,00003-1154
GUESS,Lisbon,APT00880,#APT00880,Avenida Lusíada,Lisbon,1500
GUESS,Ekaterinburg,ARU00690,#ARU00690,Prospekt Lenina 25,Sverdlovsk Oblast,00062-0014
GUESS,Ekaterinburg,ARU00878,#ARU00878,Karla Libkhnekhta 23b,Sverdlovsk Oblast,00062-0075
GUESS,Riyadh,ASA00508,#ASA00508,King Abdul Aziz Road,Riyadh Province,12463
GUESS,Jiddah,ASA00541,#ASA00541,"King Road, Al Shatee District",Makkah Province,23325
GUESS,Jeddah,ASA00547,#ASA00547,Al Muwarid Street,Makkah Province,22333
GUESS,Jiddah,ASA00549,#ASA00549,"Jamaal Malki St,",Makkah Province,22338
GUESS,Riyadh,ASA00574,#ASA00574,King Abdul Aziz Street,Riyadh Province,12463
GUESS,Jiddah,ASA00579,#ASA00579,,Makkah Province,23325
GUESS,Riyadh,ASA00593,#ASA00593,"Granada Center, Prince Sultan Street",Riyadh Province,12411
GUESS,Jiddah,ASA00599,#ASA00599,"Mahmal Center, Al Balad",Makkah Province,22238
GUESS,Medina,ASA00860,#ASA00860,Quba St,Al Madinah Province,42318
GUESS,Ljubljana,ASI00847,#ASI00847,"Šmartinska Cesta 152g,",,1000 Ljubljana
GUESS,Damascus,ASY00602,#ASY00602,Adnan Al Malky Ave,Damascus Governorate,
GUESS,Istanbul Province,ATK00062,#ATK00062,Büyükdere Cd 127,Istanbul Province,34394
GUESS,Istanbul Province,ATK00168,#ATK00168,Ibrahim Aga Mah 110,Istanbul Province,34200
GUESS,Mascot,AU-01B38,#AU-01B38,"Shop 2/1194, Level 2",NSW,2000
GUESS,Mascot,AU-0C2DE,#AU-0C2DE,"Gate 6, Level 2",NSW,2020
GUESS,Eagle Farm,AU-180FE,#AU-180FE,"Shop 27, Level 2",QLD,4008
GUESS,Bondi Junction,AU-22CE9,#AU-22CE9,Shop 4060 Level 2,NSW,2022
GUESS,Chatswood,AU-33D3D,#AU-33D3D,Shop 455 Level 4,NSW,2067
GUESS,Sydney,AU-9A5CC,#AU-9A5CC,Shop LG22 Lower Ground Level,NSW,2000
GUESS,Brisbane,AU-9FB9C,#AU-9FB9C,"Shop 24GL, Ground Level",QLD,4000
GUESS,Kiev,AUA00868,#AUA00868,Lugova Street,Kyiv city,
GUESS,Chatswood,AUS-ACC,#AUS-ACC,Shop G034 Ground Level Chatswood Chase,NSW,2067
GUESS,Mascot,Aus-ACC045,#Aus-ACC045,Gate 6 Level 2,NSW,2020
GUESS,Mascot,AUS-ACC978,#AUS-ACC978,"Shop 2/1194, Level 2",NSW,2020
GUESS,Kotara,AUST-056,#AUST-056,"SHOP 2118, Level 2",NSW,2289
GUESS,Doncaster,AUST-0590,#AUST-0590,Shop GO27 Ground Level,VIC,3108
GUESS,Castle Hills,AUST-454,#AUST-454,"Shop 431 Level 4,",NSW,2154
GUESS,Southbank,AUST-68505,#AUST-68505,"Shop T111, Level 1 Crown Casino",VIC,3006
GUESS,Robina,AUST-68506,#AUST-68506,"Shop 4010, Ground Level",QLD,4230
GUESS,Melbourne,AUST-68509,#AUST-68509,"Shop T102, Level 1  Melbourne Central",VIC,3000
GUESS,Brisbane,AUST-68946,#AUST-68946,Shop G06 Corner Queen Street & Albert Street,QLD,4000
GUESS,South Yarra,AUST-69074,#AUST-69074,"Shop 4, 529 Chapel Street",VIC,3141
GUESS,Perth,AUST-ACC0-,#AUST-ACC0-,"Shop H111, enex 100",WA,6000
GUESS,Cairns,AUST-FACT,#AUST-FACT,"Shop 60, DFO Cairns",QLD,4870
GUESS,Southwharf,AUST-FACT0,#AUST-FACT0,"Shop TB39, Lower Ground Level",VIC,3006
GUESS,Bundoora,AUST-FACT6,#AUST-FACT6,"Shop T35, Brand Junction",VIC,3083
GUESS,Main Beach,AUST-FTW-0,#AUST-FTW-0,"Shop 051, Marina Mirage Shopping Centre",QLD,4217
GUESS,Brighton,AUST-FTW1,#AUST-FTW1,82 Church Street,VIC,3186
GUESS,Chadstone,AUSTR-011,#AUSTR-011,Shop B144 Lower Ground Level,VIC,3148
GUESS,Maribynong,AUSTR012,#AUSTR012,Shop3159 Level3,VIC,3032
GUESS,Melbourne,AUSTR013,#AUSTR013,"Shop210, Ground Level QV",VIC,3000
GUESS,Southbank,AUSTR014,#AUSTR014,"Shop 56-57, Lower Ground Level",VIC,3006
GUESS,Miranda,AUSTR015,#AUSTR015,"Shop 2131 Level 2, Westfield Miranda",NSW,2228
GUESS,Liverpool,AUSTR016,#AUSTR016,Shop 2991 Level 2,NSW,2170
GUESS,Canberra City,AUSTR017,#AUSTR017,Shop AF3 Level2,ACT,2601
GUESS,Tullamarine,AUSTR-ACCE,#AUSTR-ACCE,Shop T316 Level 3,VIC,4217
GUESS,Melbourne,AUSTR-DF2,#AUSTR-DF2,Shop T39. Level1,VIC,3000
GUESS,Essendon,AUSTR-DFS1,#AUSTR-DFS1,"Shop T 89, 100 Bulla Rd.",VIC,3041
GUESS,Oranjestad,AW-5001,#AW-5001,Seaport Mall #28 LG Smith Boulevard 82,,
GUESS,Noord,AW-8000,#AW-8000,Centro Comercial Paseo Herencia,,
GUESS,Bandar Seri Begawan,BN-6F05A,#BN-6F05A,Lot 45 - 1st Floor,Brunei-Muara,BB3513
GUESS,Brunei Darussalam,BRUNEI-ACC,#BRUNEI-ACC,Lot 45 - 1st Floor,Brunei-Muara,
GUESS,Nassau,BS-B493D,#BS-B493D,Marathon Road,New Providence,
GUESS,Beijing,CHI-GJ-121,#CHI-GJ-121,"SouthWest of Dongzhi Men,",Beijing,100001
GUESS,Beijing,CHINA015,#CHINA015,L102-L202. Building 2,Chaoyang District,100025
GUESS,Beijing,CHINA-030,#CHINA-030,"Store No. 1F17, FL 1, No. 131",Guangxi,10032
GUESS,Shanghai,CHINA-0476,#CHINA-0476,"1F+2F, NO.353 NanJing E.RD",Shanghai,200001
GUESS,Shanghai,CHINA048,#CHINA048,1 Honggiao Road.,Shanghai,00020-0030
GUESS,Shanghai,CHINA-0547,#CHINA-0547,"No.268.Middle Xizang Road,",Shanghai,200001
GUESS,Beijing,CHINA-075,#CHINA-075,"BS-26, Solana Lifestyle Shopping Park",Beijing,100025
GUESS,Urumqi,CHINA-0777,#CHINA-0777,"1F,No.35, You Hao Bei Road,",Xinjiang,830000
GUESS,Guangzhou,CHINA-0788,#CHINA-0788,"B1, No.33, Zhong Shan Road Third, Guangzhou China Plaza,",Guangdong,510130
GUESS,Guangzhou,CHINA-084,#CHINA-084,"1F, No.228, Tianhe Road,",Guangdong,510320
GUESS,Kunming,CHINA-087,#CHINA-087,"1F, IWE Brand Store,",Yunnan,
GUESS,"Chongqing, China",CHINA-0956,#CHINA-0956,"LG, No.68, Zou Rong Road, Chongqing Metropolitan,",Chongqing,400061
GUESS,Shenzhen,CHINA-097,#CHINA-097,"B1, No.9028, Shen Nan Road,",Guangdong,518048
GUESS,Dalian,CHINA-0987,#CHINA-0987,"GF, No.19, Jiefang Road, Dalian Parkland,",Liaoning,116000
GUESS,Shanghai,CHINA-56,#CHINA-56,LG0506 No. 1168,Shanghai,00020-0040
GUESS,Foshan,CHINA-7965,#CHINA-7965,"1F, Cross of Haiwu Road and Denghu Road East, Poly Canal Plaza,",Guangdong,528200
GUESS,Tsim Sha Tsui,CHINA-ACCE,#CHINA-ACCE,"Shop No. 102, 1st floor,",Pudong,
GUESS,Beijing,CHINA-FOOT,#CHINA-FOOT,"Unit SM1-06, Solana Lifestyle Shopping Park",Beijing,100031
GUESS,Wenzhou,CHINA-FR00,#CHINA-FR00,"F101, No.18, Tian Yi Plaza, You Ying Xiang,",Chongqing,
GUESS,SHENZHEN,CHINA-FR01,#CHINA-FR01,"1F, Coco Park, Fu Hua San Road",Guangdong,518048
GUESS,North Chongqing,CHINA-OLT-,#CHINA-OLT-,"No. 1 Outlet Road,",Sichuan,
GUESS,Shanghai,CHIN-GJ-01,#CHIN-GJ-01,No.99 Middle Huaihai Road.,Shanghai,200020
GUESS,Santiago,CL5001,#CL5001,"N 5413 Las Condes, Store N 210 Level 2",Santiago Metropolitan Region,
GUESS,Santiago Región Metropolitana,CL5002,#CL5002,Av La Dehesa 1445 Región Metropolitana Chile,Santiago Metropolitan Region,00769-0000
GUESS,Santiago,CL5003,#CL5003,"Calle San Ignacio 500, Parque Industrial",Quilicura,20010
GUESS,Barranquilla,CO-5001,#CO-5001,"Calle 98, #52-115 Local 225 C",Atlantico,
GUESS,Bogota,CO-5002,#CO-5002,Centro Comercial Andino,Cundinamarca,
GUESS,Cali,CO-5004,#CO-5004,"Carrera 98, #16-200 Local 46-47",Valle del Cauca,
GUESS,Medellin,CO-5005,#CO-5005,Centro Comercial El Tesoro Local 10 y 12,Antioquia,
GUESS,Bogota,CO-5006,#CO-5006,"Calle 185, #45-03 Costada Occidental, Local 139, 140, 141","Bogotá, D.C.",
GUESS,Bogotá,CO-8001,#CO-8001,Calle 81 #13-05 Local 207,Cundinamarca,
GUESS,San Jose,CR-5001,#CR-5001,"Autopista Prospero Fernandez, 2da Etapa, Local 132 y 133",San Jose,
GUESS,Willemistad,CU-001,#CU-001,Badenpowell weg #1,Curacao,
GUESS,Punta Cana,DO-5001,#DO-5001,"Centro Comercial Plama Real Shopping Village, local #55",La Altagracia,23000
GUESS,Grand Junction,DPT-BERG34,#DPT-BERG34,2424 US Hwy 6 & 50,CO,81505
GUESS,Roseville,DPT-BERG35,#DPT-BERG35,600 Rosedale Shopping Center,MN,55113
GUESS,Omaha,DPT-BERG41,#DPT-BERG41,707 N. 102nd St.,NE,68114
GUESS,Grandville,DPT-BERG44,#DPT-BERG44,3668 Rivertown Parkway,MN,55811
GUESS,Okemos,DPT-BERG46,#DPT-BERG46,1982 W. Grand River Avenue,MI,48864
GUESS,Rockford,DPT-BERG51,#DPT-BERG51,999 N. Elmhurst Rd,WI,61112
GUESS,Milwaukee,DPT-BERG52,#DPT-BERG52,5800 N. Port Washington Rd,WI,53719
GUESS,Norridge,DPT-BERG53,#DPT-BERG53,9800 S. Ridgeland Ave.,IL,60706
GUESS,Orland Park,DPT-BERG54,#DPT-BERG54,7505 W. Cermak Rd,IL,60546
GUESS,St. Charles,DPT-BERG55,#DPT-BERG55,7601 S. Cicero Ave,IL,60652
GUESS,Peoria,DPT-BERG56,#DPT-BERG56,5203 West War Memorial Dr.,IL,61615
GUESS,Rochester Hills,DPT-BERG57,#DPT-BERG57,"Livonia Mall, 29514 Seven Mile Rd.",MI,48309
GUESS,Lancaster,DPT-BERG8,#DPT-BERG8,600 Park City Center,PA,17601
GUESS,New York,DPT-BLOO1,#DPT-BLOO1,1000 Third Ave.,NY,10022
GUESS,Palm Beach Garden,DPT-BLOO10,#DPT-BLOO10,3105 PGA Blvd.,FL,33410
GUESS,Chestnut Hill,DPT-BLOO11,#DPT-BLOO11,55 Boylston Street,MA,2167
GUESS,White Plains,DPT-BLOO12,#DPT-BLOO12,175 Bloomingdale's Road,NY,10605
GUESS,King Of Prussia,DPT-BLOO16,#DPT-BLOO16,680 West Dekalb Pike,PA,19406
GUESS,Willow Grove,DPT-BLOO17,#DPT-BLOO17,2400 Moreland Park,PA,19090
GUESS,Boca Raton,DPT-BLOO2,#DPT-BLOO2,5840 Glades Road,FL,33431
GUESS,Orlando,DPT-BLOO20,#DPT-BLOO20,4150 Conroy Road,FL,32839
GUESS,Miami,DPT-BLOO21,#DPT-BLOO21,8778 SW 136 Street,FL,33176
GUESS,San Francisco,DPT-BLOO22,#DPT-BLOO22,845 Market Street,CA,94103
GUESS,Bridgewater,DPT-BLOO24,#DPT-BLOO24,410 Commons Way,NJ,8807
GUESS,Bloomington,DPT-BLOO25,#DPT-BLOO25,3000 Southeast Court,MN,55425
GUESS,Skopkie,DPT-BLOO26,#DPT-BLOO26,376 Old Orchard Center,IL,60077
GUESS,Garden City,DPT-BLOO27,#DPT-BLOO27,630 Old Country Rd.,NY,11532
GUESS,Sherman Oaks,DPT-BLOO29,#DPT-BLOO29,14060 Riverside Drive,CA,91423
GUESS,Aventura,DPT-BLOO3,#DPT-BLOO3,19555 Biscayne Blvd,FL,33180
GUESS,Newport Beach,DPT-BLOO30,#DPT-BLOO30,701 Newport Center Drive,CA,92660
GUESS,Palo Alto,DPT-BLOO31,#DPT-BLOO31,1 Stamford Shopping Center,CA,94304
GUESS,Los Angeles,DPT-BLOO32,#DPT-BLOO32,Mission Rd Dist C,CA,90031
GUESS,Chevy Chase,DPT-BLOO34,#DPT-BLOO34,5300 Western Avenue,MN,20815
GUESS,Wayne,DPT-BLOO37,#DPT-BLOO37,3 Willowbrook Blvd.,NJ,7470
GUESS,Huntington Station,DPT-BLOO4,#DPT-BLOO4,270 Walt Witman,NY,11746
GUESS,Hackensack,DPT-BLOO5,#DPT-BLOO5,400 Hackensack Ave.,NJ,7602
GUESS,Atlanta,DPT-BLOO55,#DPT-BLOO55,3393 Peachtree Rd. N.E.,GA,30326
GUESS,Atlanta,DPT-BLOO56,#DPT-BLOO56,4400 Ashford-Dunwood Road,GA,30346
GUESS,San Diego,DPT-BLOO61,#DPT-BLOO61,7057 Friars Rd,CA,92108
GUESS,Costa Mesa,DPT-BLOO62,#DPT-BLOO62,3333 South Bristol,CA,92626
GUESS,Chicago,DPT-BLOO8,#DPT-BLOO8,900 North Michigan Ave.,IL,60611
GUESS,Tampa,DPT-DILL20,#DPT-DILL20,900 Commons Dr. Ste 414,FL,36303
GUESS,Sarasota,DPT-DILL21,#DPT-DILL21,8201 S. Tamiami Trail,FL,34239
GUESS,Sanford,DPT-DILL22,#DPT-DILL22,"Seminole Towne Center, 200 Towne Ctr circle",FL,34474
GUESS,Melbourne,DPT-DILL23,#DPT-DILL23,St. Johns Town Center,FL,32904
GUESS,Tallahassee,DPT-DILL24,#DPT-DILL24,Edgewater Mall,MS,39531
GUESS,Wellington,DPT-DILL25,#DPT-DILL25,9001 W. Atlantic Blvd.,FL,33414
GUESS,Newnan,DPT-DILL26,#DPT-DILL26,Interstate 85 & bullsboro Dr,GA,31210
GUESS,Scottsdale,DPT-DILL90,#DPT-DILL90,7800 Arrowhead Towne Ctr,AZ,85318
GUESS,Yuma,DPT-DILL91,#DPT-DILL91,5880 E. Broadway,AZ,86404
GUESS,Las Cruces,DPT-DILL92,#DPT-DILL92,8401 Gateway West,TX,88011
GUESS,Sandy,DPT-DILL93,#DPT-DILL93,6191 S. State #100,UT,84405
GUESS,Reno,DPT-DILL94,#DPT-DILL94,4200 Meadows Lane,NV,89511
GUESS,Stockton,DPT-DILL96,#DPT-DILL96,4950 Pacific Ave.,CA,95207
GUESS,Westminster,DPT-DILL98,#DPT-DILL98,8415 Park Meadows Center Dr.,CO,80124
GUESS,New York,DPT-LORD1,#DPT-LORD1,424 5th Ave.,NY,10018
GUESS,Annapolis,DPT-LORD10,#DPT-LORD10,135 Annapolis Mall,MD,21401
GUESS,Paramus,DPT-LORD11,#DPT-LORD11,Ridgewood Avenue,NJ,7652
GUESS,Boston,DPT-LORD12,#DPT-LORD12,"Prudential Center,  760 Boylston Street",MA,2199
GUESS,Stamford,DPT-LORD13,#DPT-LORD13,110 High Ridge Rd.,CT,6905
GUESS,Oakbrook,DPT-LORD16,#DPT-LORD16,180 Oakbrook Center Mall,IL,60521
GUESS,Bayshore,DPT-LORD17,#DPT-LORD17,1701 Sunrise Hwy.,NY,11706
GUESS,Manhassett,DPT-LORD2,#DPT-LORD2,1440 Northern Blvd,NY,11030
GUESS,Paramus,DPT-LORD20,#DPT-LORD20,Route 4 & Route 17,NJ,7652
GUESS,North Brook,DPT-LORD22,#DPT-LORD22,1455 Lake Cook Road,IL,60062
GUESS,Kensington,DPT-LORD23,#DPT-LORD23,11311 Rockville Pike,MD,20895
GUESS,Gaithersburg,DPT-LORD25,#DPT-LORD25,701 Russell Avenue,MD,20877
GUESS,Sterling Heights,DPT-LORD27,#DPT-LORD27,1 Lakeside Cr.,MI,48078
GUESS,Novi,DPT-LORD28,#DPT-LORD28,27650 Novi Rd.,MI,48050
GUESS,Burlington,DPT-LORD29,#DPT-LORD29,1320 Burlington Mall Road,MA,1803
GUESS,Scarsdale,DPT-LORD3,#DPT-LORD3,750 White Plains Rd.,NY,10583
GUESS,Woodbridge,DPT-LORD30,#DPT-LORD30,198 Woodbridge Center Dr.,NJ,7095
GUESS,Braintree,DPT-LORD31,#DPT-LORD31,250 Granite St.,MA,2184
GUESS,Huntington Station,DPT-LORD35,#DPT-LORD35,158 Walt Whitman Road,NY,11746
GUESS,Wayne,DPT-LORD38,#DPT-LORD38,1400 Willowbrook Mall,NJ,7470
GUESS,West Nyack,DPT-LORD42,#DPT-LORD42,1920 Palisades Center Drive,NY,10994
GUESS,Fairfax,DPT-LORD48,#DPT-LORD48,11700 Fair Oaks,VA,22033
GUESS,Farmington,DPT-LORD5,#DPT-LORD5,400 West Farms Mall,CT,6032
GUESS,Livingston,DPT-LORD52,#DPT-LORD52,"Livingston Mall,  Eisenhower Parkway",NJ,7039
GUESS,Rockaway,DPT-LORD53,#DPT-LORD53,Rt. 80 & Mt. Hope Road,NJ,7866
GUESS,Bridgewater,DPT-LORD54,#DPT-LORD54,400 Commons Way,NJ,8807
GUESS,Westfield,DPT-LORD55,#DPT-LORD55,609 North Avenue,NJ,7090
GUESS,McLean,DPT-LORD56,#DPT-LORD56,7950 Tyson's Corner Center,VA,22102
GUESS,Eatontown,DPT-LORD57,#DPT-LORD57,Routes 35 & 36,NJ,7724
GUESS,Lawrenceville,DPT-LORD58,#DPT-LORD58,Route 1 & Quakerbridge Road,NJ,8648
GUESS,Freehold,DPT-LORD59,#DPT-LORD59,Us Rte. 9 & NJ Rte. 33,NJ,7728
GUESS,Bala cynwyd,DPT-LORD6,#DPT-LORD6,City Line & Belmont Avenue,PA,19004
GUESS,Danbury,DPT-LORD61,#DPT-LORD61,7 Backus Avenue,CT,6810
GUESS,Buffalo,DPT-LORD63,#DPT-LORD63,8 Walden Galleria,NY,14225
GUESS,Trumbull,DPT-LORD64,#DPT-LORD64,5065 Main St.,MA,6611
GUESS,Skokie,DPT-LORD66,#DPT-LORD66,10 Old Orchard Shopping Ctr,IL,60077
GUESS,Natick,DPT-LORD68,#DPT-LORD68,1245 Worcester Road,MA,1760
GUESS,Garden City,DPT-LORD7,#DPT-LORD7,1200 Franklin Ave.,NY,11530
GUESS,Syracuse,DPT-LORD70,#DPT-LORD70,9509 Carousel Center,NY,13290
GUESS,Schaumburg,DPT-LORD73,#DPT-LORD73,4 Woodfield Mall,IL,60195
GUESS,Victor,DPT-LORD74,#DPT-LORD74,7979 Victor-Pittsford Rd.,NY,14564
GUESS,King of Prussia,DPT-LORD75,#DPT-LORD75,180 N. Gulph Rd.,PA,19406
GUESS,Washington,DPT-LORD8,#DPT-LORD8,"5255 Western Ave, N.W.",DC,20015
GUESS,Elmhurst,DPT-MACY01,#DPT-MACY01,90-01 Queens Blvd,NY,11373
GUESS,Brooklyn,DPT-MACY02,#DPT-MACY02,422 Fulton St,NY,11201
GUESS,New York,DPT-MACY03,#DPT-MACY03,151 W. 34th Street,NY,10001
GUESS,Farmington,DPT-MACY04,#DPT-MACY04,100 Westfarms Mall,CT,6032
GUESS,Manhasset,DPT-MACY05,#DPT-MACY05,1100 Northern Blvd,NY,11030
GUESS,Brooklyn,DPT-MACY06,#DPT-MACY06,5400 Avenue U,NY,11234
GUESS,Staten Island,DPT-MACY07,#DPT-MACY07,100 Richmond Hill Rd,NY,10314
GUESS,Menlo Park,DPT-MACY08,#DPT-MACY08,275 Menlo Park Mall,NJ,8837
GUESS,Woodbridge,DPT-MACY09,#DPT-MACY09,237 Woodbridge Center Dr.,NJ,7095
GUESS,Paramus,DPT-MACY10,#DPT-MACY10,Paramus Park,NJ,7652
GUESS,Lake Grove,DPT-MACY13,#DPT-MACY13,2 Smith Haven Mall,NY,11755
GUESS,Shorthills,DPT-MACY15,#DPT-MACY15,1200 Morris TPK,NJ,7078
GUESS,Livingston,DPT-MACY16,#DPT-MACY16,South Orange Ave. & Walnut St.,NJ,7039
GUESS,Freehold,DPT-MACY17,#DPT-MACY17,3710 Hwy 9 South,NJ,7728
GUESS,Valley Stream,DPT-MACY19,#DPT-MACY19,Green Acres Mall-Sunrise Hwy,NY,11581
GUESS,Stamford,DPT-MACY20,#DPT-MACY20,151 Broad Steet,CT,6901
GUESS,San Juan,DPT-MACY21,#DPT-MACY21,"Plaza las Americas, 525 F.D. Roosevelt Ave",PR,918
GUESS,McLean,DPT-MACY23,#DPT-MACY23,"Tyson II Mall,  165` International Drive",VA,22102
GUESS,Springfield,DPT-MACY24,#DPT-MACY24,1655 Boston Rd.,MA,1237
GUESS,Waldorf,DPT-MACY25,#DPT-MACY25,11200 Mall Circle,MD,20603
GUESS,Danbury,DPT-MACY28,#DPT-MACY28,1 Backus Avenue,CT,6810
GUESS,White Plains,DPT-MACY30,#DPT-MACY30,100 Main Street,NY,10601
GUESS,Boston,DPT-MACY31,#DPT-MACY31,450 Washington St,MA,2111
GUESS,Massepequa,DPT-MACY32,#DPT-MACY32,400 Sunrise Mall,NY,11750
GUESS,Peabody,DPT-MACY34,#DPT-MACY34,NorthShore Shopping Mall,MA,1960
GUESS,Barintree,DPT-MACY36,#DPT-MACY36,Southshore Shopping Mall,MA,2184
GUESS,Burlington,DPT-MACY37,#DPT-MACY37,1300 Middlesex Tpk,MA,1803
GUESS,Warwick,DPT-MACY39,#DPT-MACY39,400 Bald Hill Rd,RI,2886
GUESS,Natic,DPT-MACY40,#DPT-MACY40,Natic Mall,MA,1760
GUESS,Salem,DPT-MACY41,#DPT-MACY41,89 Rockingham Park Blvd,NH,3079
GUESS,Waterbury,DPT-MACY42,#DPT-MACY42,495 Union Street # 139,CT,6706
GUESS,Columbia,DPT-MACY45,#DPT-MACY45,10300 Little Petexent Pkwy.,MD,21044
GUESS,Albany,DPT-MACY49,#DPT-MACY49,420 Washington Ave. Extension,NY,12203
GUESS,Nashua,DPT-MACY50,#DPT-MACY50,310 Daniel Webster Highway Ste. 104,NH,3110
GUESS,Trumbull,DPT-MACY51,#DPT-MACY51,5065 Main Street,CT,6611
GUESS,Eatontown,DPT-MACY52,#DPT-MACY52,180 RT. 35,NJ,7724
GUESS,Garden City,DPT-MACY53,#DPT-MACY53,630 Old Country Rd,NY,11530
GUESS,Willowgrove,DPT-MACY54,#DPT-MACY54,2501 Moreland Road,PA,19090
GUESS,Bayshore,DPT-MACY56,#DPT-MACY56,1653 Sunrise Highway,NY,11706
GUESS,Cherry Hill,DPT-MACY59,#DPT-MACY59,Route 38 and Haddonfield Rd.,NJ,8002
GUESS,Langhorne,DPT-MACY64,#DPT-MACY64,2300 East Lincoln Highway,PA,19047
GUESS,Lawrenceville,DPT-MACY65,#DPT-MACY65,"Quaker Bridge Mall,  US Route 1 & State Hwy 530",NJ,8640
GUESS,Deptford,DPT-MACY66,#DPT-MACY66,Almonsession & Clements Bridge Rd.,NJ,8096
GUESS,Washington,DPT-MACY68,#DPT-MACY68,1201 G. Street NW,DC,20005
GUESS,Towson,DPT-MACY69,#DPT-MACY69,813 Dulmey Valley Rd.,MD,31204
GUESS,Whitehall,DPT-MACY70,#DPT-MACY70,300 Lehigh Valley Mall,PA,18052
GUESS,Toms River,DPT-MACY71,#DPT-MACY71,"Ocean County Mall,  1201 Hooper Avenue",NJ,8753
GUESS,Rockway,DPT-MACY72,#DPT-MACY72,Rockaway Town Square Mall,NJ,7866
GUESS,North Wales,DPT-MACY73,#DPT-MACY73,Montgomery Mall,PA,19454
GUESS,Newark,DPT-MACY74,#DPT-MACY74,501 Christiana Mall,DE,19702
GUESS,Paramus,DPT-MACY75,#DPT-MACY75,500 Garden State Plaza,NJ,7652
GUESS,Wayne,DPT-MACY76,#DPT-MACY76,100 Route 46,NJ,7470
GUESS,Mays Landing,DPT-MACY80,#DPT-MACY80,4401 BLACK HORSE PIKE,NJ,8330
GUESS,Bridgewater,DPT-MACY81,#DPT-MACY81,400 COMMONS WAY,NJ,8807
GUESS,Albany,DPT-MACY83,#DPT-MACY83,"Colonie Shopping Center,  Wolf Road",NY,12205
GUESS,Alexandria,DPT-MACY87,#DPT-MACY87,5701 Duke Street,VA,22304
GUESS,EAST BRUNSWICK,DPT-MACY88,#DPT-MACY88,755 ROUTE 18,NJ,8816
GUESS,Springfield,DPT-MACY89,#DPT-MACY89,Baltimore Pike And Sproul Rd.,PA,19064
GUESS,King of Prussia,DPT-MACY90,#DPT-MACY90,680 West DeKalb Pike,PA,19406
GUESS,Auburn,DPT-MACY96,#DPT-MACY96,385 Southbridge St.,MA,1501
GUESS,Manassas,DPT-MACY97,#DPT-MACY97,8300 Sudley Road,VA,20109
GUESS,Quito,EC-5001,#EC-5001,"Las Naciones Unidas y 6 De Diciembre, Local 23",Pichincha,170401
GUESS,Guayaquil,EC-5002,#EC-5002,"Ave. Francisco De Orellana y Carlos Luis, Plaza Dañin, Piso 1, Local 42",Guayas,90308
GUESS,Ludhiana,Elite Arca,#Elite Arca,"Upper Ground Floor, Plot 4407",Punjab,00014-1001
GUESS,Dubai,FAE00520,#FAE00520,Sheikh Zayed Road,Dubai,
GUESS,Prague,FCZ00318,#FCZ00318,Námestí Republiky 1,Hlavní msto Praha,110 00
GUESS,Baden Baden,FDE00712,#FDE00712,Sophienstasse 16,BW,76530
GUESS,Cairo,FEG00525,#FEG00525,"Nasr City, Omar Ibn El Khatab St.",Cairo Governorate,
GUESS,Paris,FFR00094,#FFR00094,Rue Francois 1er 64,IDF,75008
GUESS,Paris,FFR00099,#FFR00099,Rue Saint Honoré 318,IDF,75001
GUESS,Nice,FFR00211,#FFR00211,Rue Grimaldi 4,PACA,6000
GUESS,Gonesse,FFR00250,#FFR00250,Avenue de la Plaine de France 134,IDF,95500
GUESS,Libreville,FGA00302,#FGA00302,Boulevard Triomphal,Estuaire,
GUESS,Budapest,FHU00425,#FHU00425,Váci Way 1,Budapest,1062
GUESS,Milano,FIT00038,#FIT00038,Via Dante 4,Lombardy,20121
GUESS,Prato,FIT00041,#FIT00041,Piazza Duomo 57,Tuscany,59100
GUESS,Napoli,FIT00272,#FIT00272,Via Toledo 246,Campania,80132
GUESS,Jesolo,FIT00338,#FIT00338,Via Andrea Bafile 344,Veneto,30016
GUESS,Roma,FIT00346,#FIT00346,Viale dell'Oceano Pacifico 87,Lazio,144
GUESS,Sassari,FIT00348,#FIT00348,Via Brigata Sassari 31,Sardinia,7100
GUESS,Lecce,FIT00352,#FIT00352,Via Guglielmo Oberdan 28A,Apulia,73100
GUESS,Mestre,FIT00644,#FIT00644,Via Don Tosatto 22,Veneto,30174
GUESS,Como,FIT00728,#FIT00728,Via Cesare Cantù 13,Lombardy,22100
GUESS,Monaco,FMC00097,#FMC00097,Boulevard des Moulins 14,,98000
GUESS,Amsterdam,FNL00793,#FNL00793,Heilige Weg 22,NH,1012 XR
GUESS,Poznan,FPL00319,#FPL00319,Pólwiejska Street 32,Greater Poland Voivodeship,61
GUESS,Rostov On Don,FRU00654,#FRU00654,Prospect Nagibina 32/2,Rostov Oblast,00034-4068
GUESS,Ryazan,FRU00770,#FRU00770,Sobornaya Str. 15a,Ryazan Oblast,00039-0000
GUESS,Sochi,FRU00875,#FRU00875,Demokraticheskaya Str. 52,Krasnodar Krai,00035-4340
GUESS,Cherepovets,FRU00879,#FRU00879,Godovikova 37,Vologodskaya oblast,00016-2626
GUESS,Portorose,FSI00675,#FSI00675,Obala  20A,,6320
GUESS,Dakar,FSN00258,#FSN00258,"Route de l'Aeroport, Les Almadies",Dakar,221
GUESS,Kinta City,GSAKINTA,#GSAKINTA,Lot G30 Ground Floor,Ipoh Perak,31400
GUESS,Guatemala City,GT-5001,#GT-5001,"Diagonal 6, #13-01, Zona 10, Nivel 1, Local 124",Guatemala,
GUESS,Guatemala City,GT-5002,#GT-5002,"Ave. Reforma y Calle 19, Zona 10",Guatemala,
GUESS,Guatemala City,GT-5003,#GT-5003,"CC Galeria Miraflores, Zona 11, Local 162",Guatemala,
GUESS,Guatemala City,GT-5004,#GT-5004,"Kilometro 15 1/2 Carretera al Salvador, Piso 1, Local 166",Guatemala,
GUESS,Dededo,GU-37274,#GU-37274,117 Tamuning,,96913
GUESS,Dededo,GU-3A315,#GU-3A315,102 Micronesian Mall,,96929
GUESS,Dededo,GU-4EE3B,#GU-4EE3B,"C123 1088, N. Marine Drive",,96929
GUESS,Kowloon,HK045,#HK045,Shop no. 1066 & 1067 Elements,Tshim Sha Tsui,
GUESS,Mongkok,HK-0456-Fo,#HK-0456-Fo,"Shop 19 B1, Langham Place, 8 Argyle Street,",Kowloon,
GUESS,Kowloon,HK0593,#HK0593,"Shop 2302-2304, Level 2, Gateway Arcade, Harbour City,",Tsim Sha Tsui,
GUESS,Kowloon,HK-0943,#HK-0943,"Shop 2302-2304, Level 2, Gateway Arcade, Harbour City,",TST,
GUESS,Kowloon,HK-ACCE013,#HK-ACCE013,"Unit L1-L21 Festival Walk,",Kowloon Tong,
GUESS,HONG KONG,HK-FACT 00,#HK-FACT 00,"Shop 103, Citygate Outlets, Tung Chung,",New Territories,
GUESS,Kowloon Bay,HK-FACT-00,#HK-FACT-00,"Shop G68-69, Telford Plaza 1,",Kowloon,
GUESS,Hong Kong,HK-GBM001,#HK-GBM001,Shop no. 2 G/F & 1/F,Causeway Bay,
GUESS,Tegucigalpa,HN-5001,#HN-5001,"Multiplaza Tegucigalpa, Local 1004",Francisco Morazan,
GUESS,San Pedro Sula,HN-5002,#HN-5002,"Avenida Circunvalacion, Nivel 1, Local 43",Cortés,21104
GUESS,Kowloon,Hong Kong,#Hong Kong,"B19-20, The Sun Arcade 28 Canton Road,",Kowloon,
GUESS,Hong Kong,HongKong-G,#HongKong-G,Shop no. 2 G/F Kingston St.,Causeway Bay,
GUESS,Jakarta,ID-1330B,#ID-1330B,Ground Floor Unit D16,Jakarta,11470
GUESS,Jakarta,ID-1EEAC,#ID-1EEAC,"2nd Fl. Unit #220A, Jl Asia Afrika #8",Jakarta,10270
GUESS,Jakarta,ID2001,#ID2001,"Second floor, Unit L2#92-93, Jl MH Thamrin Kav 28-30",Jakarta,10350
GUESS,Jakarta,ID4003,#ID4003,Central Park Mall Unit # UG102-G103 Jl. Jend. S. Parman Kav. 28,Jakarta,11470
GUESS,Jakarta,ID4004,#ID4004,Jalan Asia Afrika Lot 19 Jakarta 10270 Indonesia,Jakarta,10270
GUESS,Medan,ID-424E3,#ID-424E3,"Unit #22,23,25,26 Grd Flr",North Sumatra,20112
GUESS,Jakarta,ID5000,#ID5000,South Bridge 1st Floor Unit SB-1-16-19 Jalan M.H. Thamrin No. 1,Jakarta,10310
GUESS,Jakarta,ID5012,#ID5012,Central Park Mall Unit # UG 102-G103 Jl Jend S. Parman Kav. 28,Jakarta,11470
GUESS,Surabaya,ID5014,#ID5014,"Ciputra World Surabaya Jl, Mayjen Sungkono Kav. 87 GF43",East Java,60261
GUESS,Bali,ID5015,#ID5015,"Jalan Pantai Kuta, Kuta,",Bali,80361
GUESS,Bandung,ID5016,#ID5016,Jalan Sukajadi No.137-139,West Java,40161
GUESS,Jakarta,ID5017,#ID5017,"First Floor, Lotte Shopping Avenue, Jl.Prof.Dr.Satrio Kav.3-5 Karet Kuningan",Jakarta,12940
GUESS,Yogyakarta,ID-5917B,#ID-5917B,GF Unit B24-25,Jogja,55281
GUESS,Bali,ID-6079E,#ID-6079E,GF Unit M6 73A-77-79,Bali,80361
GUESS,Surabaya,ID-68A85,#ID-68A85,Level 1 Unit  1.20 - 1.22,East Java,60261
GUESS,Surabaya,ID-6E916,#ID-6E916,Upper Ground Unit #28-29,East Java,60261
GUESS,Jakarta,ID-6F216,#ID-6F216,Level 1Unit 104-105,Jakarta,12310
GUESS,Semarang,ID8013,#ID8013,"Unit GF #10-11, Jl. Pemuda 118",Central Java,50132
GUESS,Makassar,ID8016,#ID8016,Unit G26-22 JI. HM Dg. Patompo - Metro Tanjung Bunga,South Sulawesi,90115
GUESS,Medan,ID8017,#ID8017,Jl. Tuku Umar no. 67 Unit Ground Floor #27,North Sumatra,20112
GUESS,Jakarta,ID8018,#ID8018,Central Park Mall Unit # UG 102-G103 Jl Jend S. Parman Kav. 28,Jakarta,11470
GUESS,Jakarta,ID-859E4,#ID-859E4,Level 1 unit 1.36-37 Jl Blvd Blck Mall Blok M,Jakarta,14240
GUESS,Jakarta,ID-9B921,#ID-9B921,Sogo Dept Store Plaza Senayan,Jakarta,10270
GUESS,Jakarta,ID-9DCCC,#ID-9DCCC,UG Unit B17,Jakarta,11470
GUESS,Bandung,ID-ACCE002,#ID-ACCE002,Ground Floor Unit GB-11 Ji Sulajadi 137-139,West Java,40117
GUESS,Jakarta,ID-BEAD7,#ID-BEAD7,"Unit 220A, 2nd Floor",Jakarta,10270
GUESS,Jakarta,ID-CDD12,#ID-CDD12,1st Flr Unit 230A,Jakarta,14240
GUESS,Bandung,ID-D2C72,#ID-D2C72,"Ground Fl A+B 49,51, 53",West Java,40273
GUESS,Jakarta,ID-SC005,#ID-SC005,Jl Asia Afrika Level 1 Unit 1-32,Jakarta,10270
GUESS,Mumbai,IN-37FE9,#IN-37FE9,"Unit #201A 2nd Floor,Worli",Maharashtra,400030
GUESS,Surabaya,IN-ACCE001,#IN-ACCE001,First Floor Unit 171 JL Dharmahusada,East Java,60115
GUESS,Chennao Tamil Nadu,IND-002,#IND-002,"02 Club House Road, Express Mall",TN,621004
GUESS,New Delhi,IND-009,#IND-009,Ambi Mall - G009 Ground Fl. Vasant Kunj Nelson Mandela Marg,DL,110001
GUESS,Bangalore,IND-100,#IND-100,"100 Ft Riad Ubdura Bagar, 12th Main Junction, Building No 770. Ground Floor, HAL 2nd Stage",Karnataka,00560-0038
GUESS,Ahmedabad,IND-146,#IND-146,"Shop No 146 & 147 Upper Ground Floor 1 Sahkhej Gandhinagar Hwy, Near Rajpath club",Gujrat,00038-0015
GUESS,Gurgaon,IND-234,#IND-234,"Ground Floor, Shop No. 2-3-4, Ambience Mall, NH-8",Haryana,122007
GUESS,Kolkata,IND-375,#IND-375,"Unit No., G-15, South City Mall, 375, Prince Anwar Shah Road",WB,00070-0068
GUESS,New Delhi,IND-ACC-55,#IND-ACC-55,"No. 112A, Vasant Kunj,",DL,110070
GUESS,Mumbai,IND-F15,#IND-F15,F-15 First Floor Palladium High Street Phoenix Lower Parel,Maharashtra,400013
GUESS,Punjab,IND-G15,#IND-G15,"Shop No. G-15 Ground Floor, Alpha One Mall, G.T. Road, Amristar",Punjab,00503-0753
GUESS,Jakarta Selatan,IND-G47,#IND-G47,"Unit #G46 - G47 JI Sulian Iskandar Muda, Kebayoran Lama Utara",Jakarta,12240
GUESS,Mumbai,IND-Gc-02,#IND-Gc-02,"HSU G-6A, Ground Floor",AP,400 013
GUESS,Mumbai,IND-GC1,#IND-GC1,"G2D, Mega Mall, D.P. Road, Opp",Maharashtra,400 053
GUESS,New Delhi,INDIA-035,#INDIA-035,Shop No G-27 & 28 Ground Flr,DL,110001
GUESS,Jakarta,INDO-044,#INDO-044,First Floor #1 1-26/28/31-32,Jakarta,12190
GUESS,Hyderabad,IND-O82,#IND-O82,"Ground Floor, Central Mall, G S Centre Point, Panjagutta Crossing, Panjagutta",AP,00050-0082
GUESS,Tangerang,INDO-ACC-0,#INDO-ACC-0,"West Mall Upper Ground Floor Unit WM-UG-19, JL Asia Afrika Lot 19,",Jakarta,15811
GUESS,Jakarta,INDO-ACC04,#INDO-ACC04,"2F Unit #67-68, Jalan MH Thamrin Kav. 28-30,",Jakarta,10350
GUESS,Bali,INDO-ACC12,#INDO-ACC12,Bali Unit #MG 23A,Bali,80361
GUESS,Jakarta,INDO-G18,#INDO-G18,Unit # G18 Jalan Puri Agung Puri Kembangan,Jakarta,11610
GUESS,Jakarta,INDO-GC-00,#INDO-GC-00,"Plaza Indonesia JL 1.2 # E25A JL M.H Thamrin Kav. 28-31,",Jakarta,10350
GUESS,Jakarta,INDO-GC002,#INDO-GC002,"Level 2 No 227C, Jalan Asia Afrika No 8,",Jakarta,10270
GUESS,Jakarta,INDO-KIDS,#INDO-KIDS,"West Mall Level 2 Unit WM2-9JL Asia Afrika Lot 19,",Jakarta,10310
GUESS,Jakarta,INDONE-078,#INDONE-078,First Floor C-1-16-9,Thamrin NO1,NO1 10310
GUESS,Jakarta,INDONE-FOO,#INDONE-FOO,Jalan Metro Oindok Indah,Jakarta,12310
GUESS,Andorra la Vella,JAD00254,#JAD00254,Avinguda Meritxell 60,Andorra la Vella,AD500
GUESS,Al Ain,JAE00514,#JAE00514,"Zayed Bin Sultan Road, Al Kharair",Abu Dhabi,
GUESS,Dubai,JAE00521,#JAE00521,"Downtown Dubai,Sheikh Zayed Road",Dubai,
GUESS,Dubai,JAE00550,#JAE00550,"Route 66, Al Ain Road",Dubai,
GUESS,Abu Dhabi,JAE00564,#JAE00564,"Marina Village, Corniche Road",Abu Dhabi,
GUESS,Dubai,JAE00565,#JAE00565,"Festival City Centre, Ras Al Khor, Dubai",Dubai,
GUESS,Dubai,JAE00594,#JAE00594,Sheikh Zayed Rd. Al Barsha First,Dubai,
GUESS,port Saeed,JAE00618,#JAE00618,Baniyas Street,Dubai,
GUESS,Dubai,JAE00625,#JAE00625,,Dubai,
GUESS,Dubai,JAE00632,#JAE00632,Sheikh Khalifa Bin Zayed St,Dubai,
GUESS,Abu Dhabi,JAE00854,#JAE00854,Sheikh Hazza Bin Zayed Street,Abu Dhabi,
GUESS,Tirana,JAL00330,#JAL00330,Ulica Durres 8,Tirana,1000
GUESS,Yerevan,JAM00064,#JAM00064,"Northem Avenue, unit 14 16",Yerevan,1
GUESS,parndorf,JAT00437,#JAT00437,designer outlet Straße 1,Bgld.,7111
GUESS,salzburg - Wals himmerleich,JAT00458,#JAT00458,Kasernenstraße 1,Sbg.,5073
GUESS,Vösendorf Süd,JAT00489,#JAT00489,"Galerie, top 59 158",NÖ,2334
GUESS,Vienne,JAT00490,#JAT00490,Donaustadtstraße 1,Vienna,1220
GUESS,Graz,JAT00808,#JAT00808,"Shopping City Seiersberg, Haus 9,Top 6/1/09 A-8054",Stmk.,8054
GUESS,Baku,JAZ00073,#JAZ00073,Aziz Aliyev St,,
GUESS,Sarajevo,JBA00835,#JBA00835,Ferhadija 10,Federacija Bosne i Hercegovine,71000
GUESS,Antwerp,JBE00072,#JBE00072,Kammenstraat 43,Flanders,2000
GUESS,Bruxelles,JBE00394,#JBE00394,Avenue Louise 22,Brussels,1050
GUESS,Maasmechelen,JBE00459,#JBE00459,Zetellaan 100,Flanders,3630
GUESS,Messancy,JBE00668,#JBE00668,Route d'Arlon 199,Walloon Region,6780
GUESS,Sofia,JBG00329,#JBG00329,Tsarigradsko Chausse Blvd,Sofia-city,1000
GUESS,Sofia,JBG00377,#JBG00377,bul. Tsarigradsko shose,Sofia-city,1784
GUESS,Varna,JBG00495,#JBG00495,ul. Akad. Andrey Saharov 2,Varna,9009
GUESS,Sofia,JBG00886,#JBG00886,Bulgaria Blvd 69,Sofia-city,1404
GUESS,Manama,JBH00530,#JBH00530,"Sheikh Khalifa Bin Salman Highway, Al Seef",Northern Governorate,
GUESS,Manama,JBH00557,#JBH00557,,Capital Governorate,
GUESS,Basel,JCH00160,#JCH00160,Freie Strasse 2A,BS,4001
GUESS,Geneva,JCH00161,#JCH00161,Rue de Rive 8,GE,1204
GUESS,Lugano,JCH00162,#JCH00162,Via Pessina 13,TI,6900
GUESS,Mendrisio,JCH00163,#JCH00163,Via Angelo Maspoli 12,TI,6850
GUESS,Basel,JCH00300,#JCH00300,Hochbergstrasse / Ecke Badenstrasse 5,BS,4057
GUESS,Lausanne,JCH00314,#JCH00314,Centre Commerc Metropole 2000,VD,1003
GUESS,Wallisellen,JCH00428,#JCH00428,Neue Winterthurerstrasse 99,ZH,8301
GUESS,Zurich,JCH00645,#JCH00645,Marktgasse 12,ZH,8001
GUESS,Luzern,JCH00716,#JCH00716,Hertensteinstrasse 6,LU,6004
GUESS,Schönenwerd,JCH00905,#JCH00905,"Parkstrasse, 4",SO,5012
GUESS,Shonenwerd,JCH00907,#JCH00907,Parkstrasse 1,SO,5012
GUESS,Winterthur,JCH00927,#JCH00927,Marktgasse 60,ZH,8400
GUESS,Abidjan,JCI00304,#JCI00304,,Lagunes,01 BP 1511
GUESS,Douala,JCM00333,#JCM00333,Carre Commercial Bonapriso-Douala,Littoral,
GUESS,Nicosia,JCY00118,#JCY00118,Arnaldas Street 20,Nicosia,1060
GUESS,Limassol,JCY00120,#JCY00120,Makarios Avenue 210,Limassol,3030
GUESS,Larnaka,JCY00267,#JCY00267,Lord Byron St. 33,Larnaca,6023
GUESS,Limassol,JCY00288,#JCY00288,Anexartisias 43,Limassol,
GUESS,Nicosia,JCY00720,#JCY00720,"Shacolas Emporium Park, Verginas Street 3",Nicosia,2025
GUESS,Prague,JCZ00129,#JCZ00129,namesti Republiky,Hlavní msto Praha,110 00
GUESS,Prague,JCZ00687,#JCZ00687,Roztylská 19,Hlavní msto Praha,148 00
GUESS,Prague,JCZ00721,#JCZ00721,"Vinohradska, 130 00 Praha 3 151",Hlavní msto Praha,130 00
GUESS,Ostrava 2,JCZ00786,#JCZ00786,jantarova 3344/4,Moravian-Silesian Region,702 00
GUESS,Chvalovice,JCZ00807,#JCZ00807,Chavolice 196,South Moravian Region,66902
GUESS,Hate U Znojma,JCZ00809,#JCZ00809,,South Moravian Region,669 02
GUESS,Dusseldorf,JDE00307,#JDE00307,Kasernenstraße 13,NRW,40213
GUESS,Frankfurt,JDE00366,#JDE00366,"Zeil - Stiftstrasse 31,106",HE,60313
GUESS,Wertheim,JDE00496,#JDE00496,Almosenberg 1,BW,97877
GUESS,Ingolstadt,JDE00503,#JDE00503,Otto-Hahn-Straße 1,BY,85055
GUESS,dresden,JDE00643,#JDE00643,Altmarkt M25,SN,1067
GUESS,Zweibruecken,JDE00708,#JDE00708,Londoner Bogen 10-90,RP,66482
GUESS,Nuernberg,JDE00763,#JDE00763,Ludwigsplatz 13,BY,90403
GUESS,Berlin,JDE00817,#JDE00817,Alte Potsdamer Straße 7,Berlin,10785
GUESS,Oberhausen,JDE00856,#JDE00856,Ekz Centro/centroallee 1000,NRW,46047
GUESS,Munich,JDE00863,#JDE00863,Theatinestrasse 12,BY,80333
GUESS,"Schleswig-holstein, Hamburg",JDE00869,#JDE00869,Oderstrasse 10,HH,24534
GUESS,Sindelfingen,JDE00890,#JDE00890,"Tilsiter Strasse 376, E 15",BW,71065
GUESS,Hamburg,JDE00921,#JDE00921,Osdorfer Landstraße,HH,22609
GUESS,Hamburg,JDE00922,#JDE00922,Bleichenbrücke 10 / Große Bleichen 31,HH,20354
GUESS,Hamburg,JDE00923,#JDE00923,Heegbarg 30,HH,22391
GUESS,Wustermark,JDE00925,#JDE00925,Alter Spandauer Weg 1,BB,14641
GUESS,Koln,JDE00936,#JDE00936,Ehrenstraße,NRW,50672
GUESS,Koln,JDE00937,#JDE00937,Schildergasse 41 - 45,NRW,50667
GUESS,Tallinn,JEE00074,#JEE00074,"Rotermann St., Roseni St. 5/10",Harju County,10151
GUESS,Tartu,JEE00224,#JEE00224,Turu 2,Tartu County,51014
GUESS,Tallinn,JEE00276,#JEE00276,"Virucenter, Viru Valjak 4",Harju County,10111
GUESS,Tallinn,JEE00782,#JEE00782,Paldiski Mnt. 102,Harju County,13522
GUESS,Alexandria,JEG00568,#JEG00568,Al Mashenya Al Gadida,Alexandria Governorate,
GUESS,Alexandria,JEG00569,#JEG00569,,Alexandria Governorate,
GUESS,Cairo,JEG00582,#JEG00582,"Naser City,Omar Ibn El Khatab St.",Cairo Governorate,
GUESS,"San Sebastián de los Reyes, Madrid",JES00109,#JES00109,Avda. del Juncal 15-17,Community of Madrid,28700
GUESS,Madrid,JES00112,#JES00112,Calle Claudio Coello ang. Calle Esquina Hermosilla 44/17,Community of Madrid,28001
GUESS,Las Palmas de Gran Canaria,JES00293,#JES00293,Calle Mayor de Triana 8,CN,35002
GUESS,Arona,JES00294,#JES00294,Avda. de Las Américas 5,CN,38660
GUESS,Las Palmas de Gran Canaria,JES00306,#JES00306,Muelle Santa Catalina,CN,35008
GUESS,"San Bartolomé de Tirajana, Gran Canaria",JES00315,#JES00315,"Kiosko 35, El Pedrazo, Melonera",CN,35290
GUESS,San Jose de la Rinconada,JES00339,#JES00339,P.I. Los Espartales Autovia del Sur A4 Km 528,AL,41300
GUESS,"San Sebastián de los Reyes, Madrid",JES00343,#JES00343,Calle Salvador de Madariaga,Community of Madrid,28702
GUESS,"Mataro, Barcelona",JES00356,#JES00356,Calle de Estrasburgo 5,CT,8304
GUESS,Seville,JES00365,#JES00365,Calle Sierpes 60,AL,41004
GUESS,Murcia,JES00387,#JES00387,Avenida Gran Via Escultor Salzillo (esquina C/Manresa 1) 19,Region of Murcia,30005
GUESS,Barcellona,JES00406,#JES00406,Passeig de Gràcia 63,CT,8007
GUESS,Marbella,JES00411,#JES00411,Carretera de Ojén,AL,29603
GUESS,Barcelona,JES00431,#JES00431,Potosi 2,CT,8030
GUESS,Valencia,JES00433,#JES00433,Calle de Menorca 19,Valencian Community,46023
GUESS,Las Palmas de Gran Canaria,JES00438,#JES00438,Carrettera del rincon,CN,35010
GUESS,"Jativa, Valencia",JES00454,#JES00454,Calle Ribeira 18,Valencian Community,46002
GUESS,Tenerife,JES00488,#JES00488,"Calle Áurea Díaz Flores,",Santa Cruz de Tenerife,38005
GUESS,"La Roca del Vallès, Barcelona",JES00669,#JES00669,Santa Agnès de Malanyanes,CT,8430
GUESS,"Culleredo, La Coruña",JES00677,#JES00677,"Avda. Alvedro, Km 9500 N-550 5",GA,15189
GUESS,"Finestrat, Benidorm",JES00700,#JES00700,Avenida Pais Valencia 2,Valencian Community,3509
GUESS,"Sanlucar De Barrameda, Cadiz",JES00706,#JES00706,Ctra. Puerto De Santa Maria,AL,11540
GUESS,"Roquetas De Mar, Almeria",JES00710,#JES00710,Avda. Alicun,AL,4740
GUESS,Cartagena,JES00743,#JES00743,Calle Mayor 7,Region of Murcia,30201
GUESS,Torrevieja,JES00768,#JES00768,Avd. Rosa Mazon Valero,Valencian Community,3184
GUESS,Alicante,JES00796,#JES00796,Avenida De Maisonnave 19,Valencian Community,3003
GUESS,"Majadahonda, Madrid",JES00797,#JES00797,Calle de los Químicos,Community of Madrid,28222
GUESS,Las Rozas De Madrid,JES00816,#JES00816,Calle Juan Ramón Jimène 3,Community of Madrid,28232
GUESS,San Cristobal De La Laguna,JES00827,#JES00827,Calle Herradores 76,CN,38210
GUESS,Palma De Mallorca,JES00828,#JES00828,Calle de San Miquel 16,PM,7002
GUESS,Ibiza,JES00833,#JES00833,Calle Riambau 5,PM,7800
GUESS,Palma De Mallorca,JES00844,#JES00844,Avenida Gabriel Roca 54,PM,7015
GUESS,Valladolid,JES00853,#JES00853,Me falta un tornillo 3-5,CL,47195
GUESS,"Orihuela,alicante",JES00855,#JES00855,Calle Jade,Valencian Community,3189
GUESS,Zaragoza,JES00857,#JES00857,Travesia Jardines Reales,Aragon,50007
GUESS,Jerez De La Frontera,JES00872,#JES00872,Ronda Aurora Boreal,AL,11408
GUESS,Aldaia,JES00882,#JES00882,Carretera Nacional Iii,Valencian Community,46960
GUESS,Girona,JES00911,#JES00911,Avenida Galicia - La Jonquera,CT,17700
GUESS,Malaga,JES00915,#JES00915,Parque Miramar Fuengirola,AL,29640
GUESS,Girona,JES00916,#JES00916,Avda. Galicia,CT,17700
GUESS,Puerto Del Carmen,JES00932,#JES00932,Avenida Juan Carlos I,CN,35010
GUESS,Helsinki,JFI00248,#JFI00248,Valimotie 25,,380
GUESS,Helsinki,JFI00253,#JFI00253,Aleksanterinkatu 19,Uusimaa,100
GUESS,Helsinki,JFI00262,#JFI00262,Urho Kekkosen Katu 1,,100
GUESS,Lappenranta,JFI00736,#JFI00736,Kauppakatu 40,,53100
GUESS,Espoo,JFI00778,#JFI00778,Piispansilta 11,,2230
GUESS,Lempäälä,JFI00804,#JFI00804,Ideaparkinkatu 4,,37570
GUESS,Hyvinkaa,JFI00929,#JFI00929,Hämeenkatu 9,Uusimaa,5800
GUESS,Paris,JFR00089,#JFR00089,Carrefour De La Croix Rouge 2,IDF,75006
GUESS,Marseille,JFR00090,#JFR00090,Rue de Grignan 4,PACA,13001
GUESS,Cannes,JFR00091,#JFR00091,Rue d'Antibes 4,PACA,6400
GUESS,"Le Pontet, Avignon",JFR00092,#JFR00092,Centre Commercial Espace Soleil,PACA,84130
GUESS,Marseille,JFR00100,#JFR00100,Avenue St. Antoine 11,PACA,13015
GUESS,Pont-Sainte-Marie,JFR00194,#JFR00194,Voie du Bois,Champagne-Ardenne,10150
GUESS,Cabriès,JFR00206,#JFR00206,Rue Giuseppe Verdi  220/230,PACA,13480
GUESS,Bordeaux,JFR00207,#JFR00207,Cours de l'Intendance 4,Aquitaine,33000
GUESS,Lille,JFR00208,#JFR00208,Place des Patiniers 2,Nord-Pas-de-Calais,59800
GUESS,Blagnac,JFR00210,#JFR00210,Allée Emile Zola,Midi-Pyrénées,31700
GUESS,"Baie-Mahault, Baie Mahault",JFR00256,#JFR00256,N 2,Basse-Terre,97122
GUESS,Anglet,JFR00273,#JFR00273,Rue Jean-Léon Laporte,Aquitaine,64600
GUESS,Montpellier,JFR00292,#JFR00292,Place de Lisbonne 2,Languedoc-Roussillon,34000
GUESS,Thiais Cedex,JFR00312,#JFR00312,Belle Epine 740,IDF,94531
GUESS,Reims,JFR00358,#JFR00358,Rue de Talleyrand 15,Champagne-Ardenne,51100
GUESS,Amiens,JFR00364,#JFR00364,Place Gambetta 5,Picardy,80000
GUESS,Evry,JFR00375,#JFR00375,Terrasses de l'Agora 131,IDF,91000
GUESS,Nantes,JFR00391,#JFR00391,Boulevard du Général de Gaulle,Pays de la Loire,44200
GUESS,Aulnay-sous-Bois,JFR00405,#JFR00405,Le Haut de Galy,IDF,93600
GUESS,Paris,JFR00413,#JFR00413,boulevard des capucines 7,IDF,75002
GUESS,Vélizy-Villacoublay,JFR00415,#JFR00415,Avenue de l'europe 2,IDF,78140
GUESS,Rosny-sous-Bois,JFR00418,#JFR00418,Avenue du Général De Gaulle,IDF,93110
GUESS,Roubaix,JFR00426,#JFR00426,Rue Mail de Lannoy,Nord-Pas-de-Calais,59100
GUESS,Nice,JFR00430,#JFR00430,1 Rue de la Liberté 1,PACA,6000
GUESS,Béziers,JFR00442,#JFR00442,ZAC du quartier de l'hours,Languedoc-Roussillon,34500
GUESS,Sainte Marie,JFR00449,#JFR00449,"Rond point Duparc, Rue Michel Ange  32",Saint-Denis,97438
GUESS,Le Chesnay,JFR00498,#JFR00498,Avenue Charles De Gaulle,IDF,78150
GUESS,Roques,JFR00504,#JFR00504,Allée de Fraixinet 5,Midi-Pyrénées,31120
GUESS,Nimes,JFR00650,#JFR00650,Avenue du Dr. Claude Baillet 400,Languedoc-Roussillon,30900
GUESS,Paris,JFR00659,#JFR00659,Le Parvis de La Défense 15,IDF,92092
GUESS,Paris,JFR00660,#JFR00660,Rue de Rennes 58,IDF,75006
GUESS,Le Havre,JFR00729,#JFR00729,Quai Frissard 70,Upper Normandy,76600
GUESS,Moulins De Nailloux - Toulouse,JFR00747,#JFR00747,Lieu Dit Le Gril,Midi-Pyrénées,31560
GUESS,La Vallée,JFR00750,#JFR00750,Course De La Garonne 3,IDF,77700
GUESS,Paris,JFR00787,#JFR00787,1 Cour Du Havre,IDF,75008
GUESS,Lyon,JFR00795,#JFR00795,Cours Charlemagne 112,RA,69002
GUESS,Roppenheim,JFR00801,#JFR00801,Route De L'europe,Alsace,67480
GUESS,"St Laurent Du Var, Nice",JFR00822,#JFR00822,Avenue Eugene Donadei 317,PACA,6700
GUESS,Rosny Sous Bois,JFR00874,#JFR00874,Avenue Du General De Gaulle,IDF,93110
GUESS,Le Vallois,JFR00920,#JFR00920,Rue D'alsace,IDF,92300
GUESS,Paris,JFR00943,#JFR00943,Rue Etienne Marcel,IDF,75020
GUESS,Libreville,JGA00303,#JGA00303,Boulevard Triomphal,Estuaire,
GUESS,London,JGB00131,#JGB00131,"Neal Street, Covent Garden 2-4",,WC2H 9QL
GUESS,Greenhithe,JGB00133,#JGB00133,Lower Thames Walk,,DA9 9ST
GUESS,Portsmouth,JGB00134,#JGB00134,Gunwharf Quays,,PO1 3TP
GUESS,Bristol,JGB00214,#JGB00214,Concorde ST 9,,BS1 3BF
GUESS,Leicester,JGB00215,#JGB00215,Bath House Lane 16,,LE1 4SA
GUESS,Londra,JGB00216,#JGB00216,Westfield London Shopping Centre Ariel Way,,W12 7GD
GUESS,London,JGB00287,#JGB00287,Regent Street 160,,W1B 5BQ
GUESS,Cardiff,JGB00331,#JGB00331,"Grand Arcade, St David's Dewi Sant 69",,CF10 2EL
GUESS,Newcastle-under-Lyme,JGB00342,#JGB00342,St Andrews Dr 1,,ST5 2
GUESS,Thurrock,JGB00398,#JGB00398,,,RM20 2ZQ
GUESS,Manchester,JGB00399,#JGB00399,Peel avenue 53,,M17 8BN
GUESS,Manchester,JGB00400,#JGB00400,New Cannon Street Mall,,M4 3AQ
GUESS,London,JGB00419,#JGB00419,Brompton Rd 60,,SW3 1BW
GUESS,Sheffield,JGB00440,#JGB00440,High St 50,,S9 1EP
GUESS,London,JGB00455,#JGB00455,London,,EC4M 9AF
GUESS,Belfast,JGB00457,#JGB00457,Victoria Square 1,,BT1 4QG
GUESS,Bicester,JGB00689,#JGB00689,Pingle Drive 50,,OX26 6wd
GUESS,Ashford,JGB00692,#JGB00692,Kimberley Way,,TN24 0SD
GUESS,Stratford,JGB00730,#JGB00730,Unit Su2042 261 Arcade,,E20 1eq
GUESS,Newcastle Upon Tyne,JGB00802,#JGB00802,Percy Street,,NE1 7JB
GUESS,South Wirral,JGB00924,#JGB00924,Ellesmere Port,,Ch659jj
GUESS,Tbilisi,JGE00308,#JGE00308,Chavchavadze Avenue 11 11,Tbilisi,
GUESS,Athens,JGR00115,#JGR00115,"Skoufa, Kolonaki 14",Attica,16675
GUESS,Athens,JGR00117,#JGR00117,Kifisias Av. Marousi  41/45,Attica,15123
GUESS,Athens,JGR00171,#JGR00171,Ioannou Metaxa Street 7,Attica,118 54
GUESS,Athens,JGR00187,#JGR00187,"Kifissias Avenue, Maroussi",Attica,118 54
GUESS,Athens,JGR00500,#JGR00500,,Attica,118 54
GUESS,Athens,JGR00705,#JGR00705,Yalou – Spata,Attica,19004
GUESS,City of Zagreb,JHR00270,#JHR00270,Jankomir 33,City of Zagreb,10000
GUESS,Zagreb,JHR00665,#JHR00665,Trg Petra Preradovica 4-6,City of Zagreb,10000
GUESS,Split,JHR00834,#JHR00834,Marmontova 7/9,Split-Dalmatia County,21000
GUESS,Budapest,JHU00106,#JHU00106,Andràssy Lit 4,Budapest,1061
GUESS,Budapest,JHU00107,#JHU00107,Kerepesi ut 9,Budapest,1087
GUESS,Firenze,JIT00001,#JIT00001,Via degli Speziali 9R,Tuscany,50123
GUESS,Milano,JIT00003,#JIT00003,Piazza San Babila,Lombardy,
GUESS,Cortina d'Ampezzo,JIT00005,#JIT00005,Via Cesare Battisti 11,Veneto,32043
GUESS,Pesaro,JIT00008,#JIT00008,Via Giovanni Branca 70,Marche,61121
GUESS,Massa Carrara,JIT00012,#JIT00012,Via della Chiesa 16,Abruzzo,54100
GUESS,Fiumicino,JIT00018,#JIT00018,Viale Bramante,Lazio,54
GUESS,Torino,JIT00019,#JIT00019,Via Nizza 262,Piedmont,10126
GUESS,Torino,JIT00023,#JIT00023,Via Giuseppe Luigi Lagrange 39,Piedmont,10123
GUESS,Livorno,JIT00025,#JIT00025,Via Ricasoli 66,Tuscany,57126
GUESS,Sesto San Giovanni,JIT00028,#JIT00028,Viale Italia,Lombardy,20099
GUESS,Roma,JIT00033,#JIT00033,Via Collatina,Lazio,
GUESS,Roma,JIT00035,#JIT00035,Via Cola di Rienzo 293/295,Lazio,192
GUESS,Roma,JIT00039,#JIT00039,Via delle Vigne Nuove,Lazio,139
GUESS,"Catania, San Giovanni la punta",JIT00040,#JIT00040,Via Catira santa Lucia,Sicilia,95037
GUESS,Viareggio,JIT00042,#JIT00042,Viale Regina Margherita 17,Tuscany,55049
GUESS,Nola,JIT00043,#JIT00043,Bosco Fangone - Interporto di Nola,Campania,80035
GUESS,Udine,JIT00045,#JIT00045,Via del Cotonificio,Friuli-Venezia Giulia,33100
GUESS,Riccione,JIT00047,#JIT00047,Via Ceccarini 91,Emilia-Romagna,47838
GUESS,Serravalle Scrivia,JIT00078,#JIT00078,Via della Moda 1,Piedmont,15100
GUESS,Foiano,JIT00081,#JIT00081,"P.za Maggiore, loc. Le Farniol",Tuscany,52045
GUESS,Barberino,JIT00082,#JIT00082,Via Meucci,Tuscany,50031
GUESS,Fidenza,JIT00086,#JIT00086,Via San Michele Campagna,Emilia-Romagna,43036
GUESS,Roma,JIT00166,#JIT00166,Via del Ponte di Piscina Cupa 64,Lazio,128
GUESS,Milano,JIT00170,#JIT00170,Via Melzo,Lombardy,20129
GUESS,Roma,JIT00172,#JIT00172,Viale dell'Oceano Pacifico 87,Lazio,144
GUESS,Milano,JIT00181,#JIT00181,Via Dante 7,Lombardy,20121
GUESS,Noventa di Piave,JIT00186,#JIT00186,Uscita autostrada tra A4 e Via Calnova,Veneto,30020
GUESS,Orio al Serio,JIT00189,#JIT00189,Via Portico 71,Lombardy,24050
GUESS,Pescara,JIT00196,#JIT00196,Via Trento 77,Abruzzo,65122
GUESS,Marcon,JIT00201,#JIT00201,Via Mattei,Veneto,30020
GUESS,Carugate,JIT00202,#JIT00202,"Strada Provinciale, Km2 208",Lombardy,20061
GUESS,Monza,JIT00203,#JIT00203,Via Lario,Lombardy,20052
GUESS,Roma,JIT00244,#JIT00244,Via del Corso 120,Lazio,187
GUESS,Bari,JIT00255,#JIT00255,Via Sparano 75,Apulia,70121
GUESS,Como,JIT00259,#JIT00259,Via Vittorio Emanuele II 38,Lombardy,22100
GUESS,Campi Bisenzio,JIT00266,#JIT00266,Via San Quirico 165,Tuscany,50013
GUESS,Antegnate,JIT00268,#JIT00268,Strada Provinciale 104,Lombardy,24051
GUESS,Marcianise,JIT00269,#JIT00269,Aurno,Campania,81025
GUESS,Lonato,JIT00278,#JIT00278,Via Mantova 36,Lombardy,25017
GUESS,Castel Guelfo,JIT00283,#JIT00283,Via del Commercio 20/A,Emilia-Romagna,40023
GUESS,Torino,JIT00297,#JIT00297,Via Garibaldi 7,Piedmont,10122
GUESS,Città Sant'Angelo,JIT00298,#JIT00298,"Contrada Moscarola, snc",Abruzzo,65013
GUESS,Chieti,JIT00305,#JIT00305,Località Santa Filomena,Abruzzo,66100
GUESS,Grugliasco,JIT00310,#JIT00310,Via Crea 10,Piedmont,10095
GUESS,Sesto San Giovanni,JIT00320,#JIT00320,Via Milanese,Lombardy,20099
GUESS,Palermo,JIT00323,#JIT00323,Via Pecoraino,Sicilia,90124
GUESS,Catanzaro,JIT00325,#JIT00325,Incrocio SS 106,Calabria,88100
GUESS,Rodengo-Saiano,JIT00327,#JIT00327,Piazza Cascina Moie 1,Lombardy,25050
GUESS,Casamassima,JIT00334,#JIT00334,Via Noicattaro 2,Apulia,70010
GUESS,Marcianise,JIT00344,#JIT00344,Strada Statale Sannitica,Campania,81025
GUESS,Padova,JIT00351,#JIT00351,Piazzetta Cappellato Pedrocchi 3,Veneto,35122
GUESS,Catania,JIT00357,#JIT00357,Via del Gelso Bianco snc,Sicilia,95121
GUESS,Modena,JIT00370,#JIT00370,Via Emilia Ovest 1480,Emilia-Romagna,41123
GUESS,Treviso,JIT00374,#JIT00374,Corso del Popolo 41,Veneto,31100
GUESS,Cagliari,JIT00378,#JIT00378,Via Dante Alighieri 144,Sardinia,9128
GUESS,Pontecagnano Loc. Scontrafrata,JIT00390,#JIT00390,Via pacinotti,Campania,84098
GUESS,Bagnolo San Vito,JIT00392,#JIT00392,Via Marco Biagi,Lombardy,46031
GUESS,Belpasso,JIT00402,#JIT00402,Via Valcorrente 23,Sicilia,95032
GUESS,Cuneo,JIT00403,#JIT00403,Via Roma 64,Piedmont,12100
GUESS,Rozzano,JIT00409,#JIT00409,Via Eugenio Curiel 25,Lombardy,20089
GUESS,Messina,JIT00412,#JIT00412,Viale San Martino 68,Sicilia,98123
GUESS,Reggio Calabria,JIT00414,#JIT00414,Corso Giuseppe Garibaldi 210,Calabria,89125
GUESS,Casalecchio di Reno,JIT00420,#JIT00420,Via Marilyn Monroe,Emilia-Romagna,40033
GUESS,Catania,JIT00427,#JIT00427,Via Etnea 128,Sicilia,95131
GUESS,Vado Ligure,JIT00429,#JIT00429,Via Montegrappa 1,Liguria,17047
GUESS,Firenze,JIT00434,#JIT00434,Via de' Cattani 18,Tuscany,50145
GUESS,Palermo,JIT00441,#JIT00441,Via Roma 104,Sicilia,90133
GUESS,Agira,JIT00461,#JIT00461,"Contrada Mandre Bianche, valle del Dittaino",Sicilia,94010
GUESS,Venezia,JIT00491,#JIT00491,Sestiere San Marco 4596,Veneto,30124
GUESS,Roma,JIT00492,#JIT00492,Via Nazionale 198,Lazio,184
GUESS,Brescia,JIT00538,#JIT00538,Unità R44/45 Viale Italia 31,Lombardy,25126
GUESS,Napoli,JIT00649,#JIT00649,Corso Umberto 127,Campania,80100
GUESS,Campobasso,JIT00652,#JIT00652,Corso Vittorio Emanuele 53,Molise,86100
GUESS,Milano - Novate Milanese,JIT00661,#JIT00661,Via Carlo Amoretti 1,Lombardy,20026
GUESS,Assago,JIT00684,#JIT00684,Viale Milano Fiori,Lombardy,20090
GUESS,Milano,JIT00694,#JIT00694,"Train Station, Piazza Duca d'Aosta 1",Lombardy,20124
GUESS,"MisterBianco, Catania",JIT00695,#JIT00695,Contrada Cubba-Tenutella,Sicilia,95045
GUESS,Rimini,JIT00696,#JIT00696,Via Caduti di Nassirya,Emilia-Romagna,47924
GUESS,Limbiate,JIT00707,#JIT00707,Via Isonzo 7,Lombardy,20112
GUESS,Cosenza,JIT00726,#JIT00726,Via Arabia 12,Calabria,87100
GUESS,Roma,JIT00734,#JIT00734,Viale Guglielmo Marconi 23,Lazio,146
GUESS,Peschiera Borromeo,JIT00744,#JIT00744,Via della Liberazione,Lombardy,20068
GUESS,Brindisi,JIT00746,#JIT00746,SS Appia 7Km 712,Apulia,72100
GUESS,Ragusa,JIT00761,#JIT00761,Via Achille Grandi,Sicilia,97100
GUESS,Milano,JIT00766,#JIT00766,Via Torino 34,Lombardy,20100
GUESS,Palermo,JIT00769,#JIT00769,Via Giuseppe Lanza di Scalea,Sicilia,90146
GUESS,Ascoli Piceno,JIT00774,#JIT00774,Via Del Commercio 52,Marche,63100
GUESS,La Spezia,JIT00785,#JIT00785,Via Fontevivo,Liguria,19125
GUESS,Torino,JIT00791,#JIT00791,Via Roma 354,Piedmont,10121
GUESS,Maida,JIT00826,#JIT00826,Loc Comuni Condomini,Calabria,88025
GUESS,Bari,JIT00849,#JIT00849,Via Sparano 18,Apulia,70122
GUESS,"Portogruaro, Venezia",JIT00862,#JIT00862,Via Pratiguori 29,Veneto,30026
GUESS,Genova,JIT00873,#JIT00873,Via Fiumara 1516,Liguria,16149
GUESS,Curno,JIT00903,#JIT00903,Via Enrico Fermi 1,BG,24035
GUESS,Brescia,JIT00909,#JIT00909,Via Rovato 44,Lombardy,25030
GUESS,Perugia,JIT00914,#JIT00914,Via Della Valtiera 181,Umbria,6135
GUESS,Kuwait City,JKW00567,#JKW00567,"Al Rai, Fifth Ring Road",Al Farwaniyah Governorate,
GUESS,Salmiya,JKW00617,#JKW00617,Salem Mubarak Street,Hawally Governorate,
GUESS,Kuwait City,JKW00623,#JKW00623,,Al Asimah,
GUESS,Beirut,JLB00510,#JLB00510,,Beirut,
GUESS,Beirut,JLB00606,#JLB00606,Achrafieh Plot No. 331,Beirut,
GUESS,Beirut,JLB00629,#JLB00629,Rachid Karameh St. Verdun Plot No.1545,Beirut,
GUESS,Beirut,JLB00861,#JLB00861,149 Saad Zaghloul St.Foch,Beirut,
GUESS,Beirut,JLB00906,#JLB00906,Hazmieh Highway,Beirut,
GUESS,Vilnius,JLT00205,#JLT00205,"Saltoniškiu street, narbuto street 9",Vilnius County,1101
GUESS,Vilnius,JLT00864,#JLT00864,Ozo Str.,Vilnius County,Lt-07150
GUESS,Kaunas,JLT00865,#JLT00865,Karaliaus Mindaugo Blvd.,Kaunas County,Lt-44333
GUESS,Luxembourg,JLU00249,#JLU00249,Rue Alphonse Weicker 2,Luxembourg,L-2721
GUESS,Esch sur Alzette,JLU00281,#JLU00281,Rue de l'Alzette 31,Luxembourg,4011
GUESS,Riga,JLV00235,#JLV00235,Audeju iela 16,Rgas pilsta,1050
GUESS,Riga,JLV00271,#JLV00271,Mukusalas Street 71,Rgas pilsta,1004
GUESS,Riga,JLV00432,#JLV00432,Lielirbes iela 29,Rgas pilsta,LV-1046
GUESS,Casablanca,JMA00075,#JMA00075,"Rue Ali Abderrazak, Casablanca",Grand Casablanca,20250
GUESS,Marrakech,JMA00243,#JMA00243,Place 16 Novembre Gueliz,Marrakesh-Tensift-El Haouz,
GUESS,Rabat,JMA00499,#JMA00499,"Avenue du 16 Novembre,",Rabat-Sale-Zemmour-Zaer,
GUESS,Chisinau,JMD00421,#JMD00421,str. Arborilor 21,Chisinau,MD-20xx
GUESS,St Julians,JMT00252,#JMT00252,Level 1 Bay street,,STJ3311
GUESS,Sliema,JMT00355,#JMT00355,Triq Tigne',,
GUESS,Phoenix,JMU00494,#JMU00494,Swami Sivananda Ave,Plaines Wilhems,
GUESS,Moka,JMU00737,#JMU00737,Bagatelle,Moka,
GUESS,Lelystad,JNL00371,#JNL00371,Bataviaplein 290,FL,8242
GUESS,Amsterdam,JNL00373,#JNL00373,Singel 457/B22,NH,1012 WP
GUESS,Amstelveen,JNL00497,#JNL00497,Binnenhof 5,NH,1181 ZG
GUESS,Zoetermeer,JNL00651,#JNL00651,Burgemeester van leeuwen passage 15,ZH,2711 JV
GUESS,almere,JNL00671,#JNL00671,De Diagonaal 27,FL,1315XD
GUESS,Maastricht,JNL00679,#JNL00679,Maastrichter Brugstraat 15,LI,6211
GUESS,Arnheim,JNL00682,#JNL00682,Roggestraat 39,GE,6811
GUESS,Roermond,JNL00713,#JNL00713,Stadsweide  418-420,LI,6041
GUESS,Rotterdam,JNL00757,#JNL00757,Meent,ZH,10
GUESS,Eindhoven,JNL00773,#JNL00773,Heuvel Galerie,NB,5611
GUESS,St. Marteen,JNL00928,#JNL00928,Rhine Road 162,Sint Maarten,
GUESS,Warsaw,JPL00286,#JPL00286,Ul. Ockpowa 58/72 58/72,Masovian Voivodeship,00000-1042
GUESS,Gdynia,JPL00321,#JPL00321,Aleja Zwyciestwa 256,Pomeranian Voivodeship,81
GUESS,Lublin,JPL00336,#JPL00336,Lipowa 13,Lublin Voivodeship,20
GUESS,Bydgoszcz,JPL00439,#JPL00439,il. Jageillonska,Kuyavian-Pomeranian Voivodeship,
GUESS,Warsaw,JPL00456,#JPL00456,Ul Ostrobramska 75C,Masovian Voivodeship,4
GUESS,Warsaw,JPL00502,#JPL00502,"Woloska, 12 12",Masovian Voivodeship,00000-2675
GUESS,Katowice,JPL00717,#JPL00717,Ul. Chorzowska 107,Silesian Voivodeship,00004-0101
GUESS,Kielce,JPL00719,#JPL00719,Ul. Swietokrzyska 20,Swietokrzyskie,00002-5406
GUESS,Poznan,JPL00803,#JPL00803,Ul. Pólwiejska 42,Greater Poland Voivodeship,00006-1888
GUESS,Warsaw,JPL00876,#JPL00876,Zlota 59,Masovian Voivodeship,00000-0120
GUESS,Lodz,JPL00889,#JPL00889,Ul. Pilsudskiego 15/23,ód Voivodeship,00009-0307
GUESS,Wroclaw,JPL00897,#JPL00897,Ul. Graniczna,Lower Silesian Voivodeship,54610
GUESS,Warsaw,JPL00899,#JPL00899,Ul. Annopol 2,Masovian Voivodeship,03- 236
GUESS,Lódz,JPL00902,#JPL00902,Ul Karskiego 5,ód Voivodeship,00009-1071
GUESS,Gdansk,JPL00910,#JPL00910,Aleja Grunwaldzka 141,Pomeranian Voivodeship,80264
GUESS,Lisbon,JPT00313,#JPT00313,Avenida Eng. Duarte Pacheco,Lisbon,00107-0103
GUESS,Lisbon,JPT00322,#JPT00322,Av. Dom João,Lisbon,00199-9094
GUESS,Senhora da Hora,JPT00447,#JPT00447,Rua de Sarah Afonso 105-117,Porto District,00446-0841
GUESS,Braga,JPT00453,#JPT00453,Av. da Liberdade,Braga,00471-0251
GUESS,"Alcabideche, Cascais",JPT00493,#JPT00493,Estr. Nacional 9,Lisbon,00264-5543
GUESS,Almada,JPT00818,#JPT00818,Caminho Municipal 1101,Setúbal,2810
GUESS,Oporto,JPT00838,#JPT00838,Rua Fonte Cova,Porto District,00448-5592
GUESS,Lisbon,JPT00881,#JPT00881,Avenida Lusíada,Lisbon,1500
GUESS,Braga,JPT00919,#JPT00919,Quinta Dos Congregados,Braga,00471-0427
GUESS,Albufeira,JPT00939,#JPT00939,"Lanka Parque Comercial E Industrial Do Algarve Lote R, Fracção 3 Tavagueira Guia, 8200",Faro District,417
GUESS,Alcochete,JPT00942,#JPT00942,Avenida Euro 2004,Setúbal,00289-0154
GUESS,Ad Dawhah,JQA00609,#JQA00609,Al Sadd St,Doha,
GUESS,BUCHAREST,JRO00065,#JRO00065,Calea Victoriei,Bucharest,
GUESS,Bucharest,JRO00070,#JRO00070,"Ploiesti, sector 1 n. 42D",,21689
GUESS,Constanta,JRO00176,#JRO00176,Bdul Alexandru Lapusneanu,CT,
GUESS,Timisoara,JRO00284,#JRO00284,Demetriade Street 1,TM,
GUESS,Bucharest,JRO00735,#JRO00735,Calea Vitan 55-59,Bucharest,31281
GUESS,St Petersburg,JRU00143,#JRU00143,prospekt Kosmonavtov 14,Saint Petersburg,00019-0000
GUESS,Tomsk,JRU00148,#JRU00148,Prospect Lenina 121,Tomskaya oblast,00063-4009
GUESS,Magnitogorsk,JRU00149,#JRU00149,Prospect Lenina 39,Chelyabinskaya oblast,00045-5000
GUESS,Krasnodar,JRU00178,#JRU00178,Dzerzhinskogo Str 100,Krasnodar Krai,00035-0005
GUESS,Barnaul,JRU00190,#JRU00190,Krasnoarmeysky Prospekt 47A,Altai Krai,00065-6049
GUESS,Ufa,JRU00198,#JRU00198,Oktyabrya Prospekt 26,Bashkortostan,450000
GUESS,Rostov On Don,JRU00664,#JRU00664,Prospect Nagibina 32/2,Rostov Oblast,00034-4068
GUESS,St. Petersburg,JRU00666,#JRU00666,Efimova street 3C,Saint Petersburg,00019-0031
GUESS,Moscow,JRU00667,#JRU00667,Leningradskoe shosse 16A/4,Moscow,00012-5171
GUESS,Perm,JRU00709,#JRU00709,Revolucii 13,Perm Krai,00061-4000
GUESS,Saratov,JRU00765,#JRU00765,Chapaeva Str. 48/47,Saratovskaya oblast,00041-0006
GUESS,Chelyabinsk,JRU00776,#JRU00776,Artillerijskaya 136,Chelyabinskaya oblast,00045-4007
GUESS,Krasnodar,JRU00780,#JRU00780,Uralskaya Str.  79/1,Krasnodar Krai,350000
GUESS,Saint Petersburg,JRU00783,#JRU00783,Murmanskoe Avenue 12,Leningradskaya oblast,00018-8680
GUESS,Saint Petersburg,JRU00814,#JRU00814,"Engelsa And Kad Road Cross,bugry",Saint Petersburg,00018-8600
GUESS,Saint Petersburg,JRU00846,#JRU00846,Primorsky Avenue 72,Leningradskaya oblast,
GUESS,Moscow,JRU00848,#JRU00848,"Kashirskoe Shosse, 24 Km",MO,00011-5582
GUESS,Saint Petersburg,JRU00850,#JRU00850,Nevsky 65,Saint Petersburg,00019-1025
GUESS,"Moscow, Kotelniki",JRU00852,#JRU00852,"Pokrovski Lane, Kotelniki 1/5",MO,140053
GUESS,Saratov,JRU00877,#JRU00877,"Zarubina, 167",Saratovskaya oblast,00041-0600
GUESS,Surgut,JRU00883,#JRU00883,"Yugorsky avenue, 38",KhMAO,00062-8400
GUESS,Novorossiysk,JRU00896,#JRU00896,Anapskoe Highway 2,Krasnodar Krai,00035-3907
GUESS,Vladivostok,JRU00900,#JRU00900,Semenovskaya 15,Primorsky Krai,00069-0091
GUESS,Kaliningrad,JRU00918,#JRU00918,Proffesora Baranova St.40,Kaliningradskaya oblast,00023-6040
GUESS,Moscow,JRU00930,#JRU00930,Sheremetyevskaya Street 8,Moscow,00014-1031
GUESS,Krasnoyarsk,JRU00934,#JRU00934,"ulitsa 9 Maya, 77",Krasnoyarsk Krai,00066-0125
GUESS,Barnaul,JRU00940,#JRU00940,Pavlovsky Tract 251b,Altai Krai,00065-6049
GUESS,Jiddah,JSA00513,#JSA00513,Sari Street,Makkah Province,23436
GUESS,Riyadh,JSA00517,#JSA00517,"Al Olaya St,",Riyadh Province,12215
GUESS,Jiddah,JSA00522,#JSA00522,Al Madinah Road Al Nuzha,Makkah Province,23325
GUESS,"Ad Dammam, Al Khobar",JSA00523,#JSA00523,"King Saud Road, Prince Faisal Bin Fahad, Road Junction",Eastern Province,34448
GUESS,Madinah,JSA00536,#JSA00536,"King Abdullah Road, 2nd Ring, Madinah",Al Madinah Province,42316
GUESS,Jiddah,JSA00540,#JSA00540,"King Road, Al Shatee District",Makkah Province,23325
GUESS,Jiddah,JSA00555,#JSA00555,"Kaaba, King Abdul Aziz Gate, 21514",Makkah Province,23325
GUESS,Riyadh,JSA00573,#JSA00573,"AL HAYAT MALL, KING ABDUL  AZIZ STREET",Riyadh Province,12411
GUESS,Riyadh,JSA00595,#JSA00595,"Granada Center,Prince Sultan Street",Riyadh Province,12411
GUESS,Madinah,JSA00600,#JSA00600,"AL HAYAT MALL, KING ABDUL  AZIZ STREET",Al Madinah Province,42316
GUESS,Jeddah,JSA00626,#JSA00626,"Jamea Plaza, King Abdul Aziz University",Makkah Province,23325
GUESS,Al Dharan,JSA00627,#JSA00627,Khobar Street,Eastern Province,21311
GUESS,Jeddah,JSA00630,#JSA00630,Heraa Street,Makkah Province,23325
GUESS,Ar Riyad,JSA00634,#JSA00634,King Fahad Rd,Riyadh Province,12741
GUESS,Riyadh,JSA00767,#JSA00767,"King Fahad Road, Faisaliyah",Riyadh Province,13712
GUESS,Makkah,JSA00858,#JSA00858,Al Azezhea Road,Makkah Province,
GUESS,Kosice,JSK00738,#JSK00738,Namestie Osloboditelov,,4001
GUESS,Dakar,JSN00257,#JSN00257,"Route de l'Aeroport, Les Almadies",Dakar,221
GUESS,Provincia di Istanbul,JTK00049,#JTK00049,"Nispetiye Caddesi, Besiktas 349",Istanbul Province,34337
GUESS,Istanbul Province,JTK00050,#JTK00050,"Bagdat Cd 402, 34744, Suadiye",Istanbul Province,34744
GUESS,Provincia di Istanbul,JTK00051,#JTK00051,Büyükdere Cad. Sisli 22,Istanbul Province,34394
GUESS,"Ankara, Çankaya",JTK00052,#JTK00052,Eskisehir Yolu 6,Ankara Province,6510
GUESS,Izmir Province,JTK00053,#JTK00053,Forum Bornova,Izmir,35100
GUESS,Antalya,JTK00054,#JTK00054,Atatürk Blv,Antalya Province,7070
GUESS,Ankara,JTK00059,#JTK00059,Sok. Magaza no. Z-12 2,Ankara Province,6710
GUESS,Icel,JTK00061,#JTK00061,Alisveris Merkezi Guvenevler Mah 20,Mersin Province,33180
GUESS,Provincia di Istanbul,JTK00218,#JTK00218,Halk Sk,Istanbul Province,34750
GUESS,Ankara,JTK00448,#JTK00448,Turan Günes Blv 182/165,Ankara Province,6450
GUESS,Bursa,JTK00450,#JTK00450,Alasar Mah. Maskara Yolu Mevkii,Bursa Province,487
GUESS,Tunis,JTN00289,#JTN00289,"Rou Borj Touil, Ariana, tunis",Ariana,2032
GUESS,Istanbul,JTR00653,#JTR00653,"Hüseyinaga Mh, Istiklal Ave 50",Istanbul Province,34421
GUESS,Istanbul,JTR00685,#JTR00685,"Bayrampasa, Forum Istanbul A.V.M. FB1 146",Istanbul Province,34045
GUESS,Adana,JTR00688,#JTR00688,Ziya Pasa Bulvari Kurtulus,Adana Province,1130
GUESS,Antalya,JTR00691,#JTR00691,"Çaglayan Mahallesi,Tekelioglu Cad 1979 Sokak",Antalya Province,7232
GUESS,Istanbul,JTR00740,#JTR00740,"Atatürk Bulvari Esenkent Mevkii 1655 Sokak, Bahçesehir / Esenyurt",Istanbul Province,34535
GUESS,Konya,JTR00931,#JTR00931,Isik Mahallesi Ataseven Caddesi,Konya Province,42100
GUESS,Samsun,JTR00933,#JTR00933,Atatürk Bulvari,Samsun Province,55200
GUESS,Kiev,JUA00157,#JUA00157,Velyka Vasilikivska St. 24,Kyiv city,
GUESS,Kharkov,JUA00177,#JUA00177,Sumskaya St. 19,Kharkiv Oblast,
GUESS,Kiev,JUA00317,#JUA00317,Obolonsky Avenue 1B,Kyiv city,
GUESS,Odessa,JUA00799,#JUA00799,Marshala Zhukova Avenue,Odessa Oblast,65000
GUESS,Kiev,JUA00810,#JUA00810,"2 Generala Vatytina Ave., Kiev, Ukraine",Kyiv city,2218
GUESS,Kiev,JUA00811,#JUA00811,Gorkogo Str.,Kyiv city,3150
GUESS,Kharkov,JUA00812,#JUA00812,Heroev truda 7,Kharkiv Oblast,61168
GUESS,Odessa,JUA00813,#JUA00813,Deribasovskaya Str. 15,Odessa Oblast,65026
GUESS,Odessa,JUA00867,#JUA00867,Odes'ka Oblast 101 101,Odessa Oblast,T1606
GUESS,Odessa,JUA00892,#JUA00892,4 Semafornii Lane,Odessa Oblast,65012
GUESS,Doneck,JUA00893,#JUA00893,130 Artema Street,Donetsk Oblast,83000
GUESS,Dnepropetrovsk,JUA00894,#JUA00894,2 Glinki Str.,Dnipropetrovsk Oblast,49000
GUESS,Dnepropetrovsk,JUA00904,#JUA00904,17 Nijnedneprovskaya Str.,Dnipropetrovsk Oblast,49000
GUESS,Dubai,KAE00506,#KAE00506,Sheikh Zayed Road,Dubai,
GUESS,Al Ain,KAE00516,#KAE00516,"Zayed Bin Sultan Road,Al Kharair",Abu Dhabi,
GUESS,Dubai,KAE00605,#KAE00605,Sheikh Zayed Road,Dubai,
GUESS,Dubai,KAE00917,#KAE00917,Al Ain Road,Dubai,
GUESS,Pune,Kakade Mal,#Kakade Mal,"Unit No 9, Ground Floor, Kakade Mall, Moledina Road,",MH,00041-1001
GUESS,Baku,KAZ00240,#KAZ00240,"A.Yildirim str. 68, Shuvelan Park 68",,
GUESS,Sofia,KBG00353,#KBG00353,Sitniakovo Blvd,Sofia-city,1000
GUESS,Manama,KBH00531,#KBH00531,"Sheikh Khalifa Bin Salman Highway, Al Seef",Northern Governorate,
GUESS,Manama,KBH00548,#KBH00548,,Capital Governorate,
GUESS,Limassol,KCY00485,#KCY00485,,Limassol,
GUESS,Nicosia,KCY00760,#KCY00760,Archiepiskopou Makariou III Ave,Nicosia,
GUESS,Cairo,KEG00534,#KEG00534,"Naser City, Omar Ibn El Khatab St",Cairo Governorate,
GUESS,Alexandria,KEG00571,#KEG00571,,Alexandria Governorate,
GUESS,Marbella,KES00714,#KES00714,Carretera De Ojen,AL,29603
GUESS,"Mataro, Barcelona",KES00739,#KES00739,Calle Estrasburgo 5,CT,8304
GUESS,Paris,KFR00715,#KFR00715,Rue Du Four 32,IDF,75006
GUESS,Firenze,KIT00026,#KIT00026,Via de' Pecori 15,Tuscany,50123
GUESS,Milano,KIT00046,#KIT00046,Via Melzo 36,Lombardy,20129
GUESS,Barberino,KIT00084,#KIT00084,Via Meucci,Tuscany,50031
GUESS,Roma,KIT00085,#KIT00085,Via del Ponte di Piscina Cupa 64,Lazio,128
GUESS,Partinico,KIT00367,#KIT00367,Via Francesco Crispi 59,Sicilia,90047
GUESS,"Catania, San Giovanni la punta",KIT00389,#KIT00389,Via Catira Santa Lucia,Sicilia,95037
GUESS,Castellammare di Stabia,KIT00446,#KIT00446,Corso Garibaldi 10,Campania,80053
GUESS,Pompei,KIT00824,#KIT00824,Via Macello 22,Campania,80045
GUESS,Cuneo,KIT00938,#KIT00938,Via Roma 62,Piedmont,12100
GUESS,Kuwait City,KKW00560,#KKW00560,"Al Rai, Fifth Ring Road",Al Farwaniyah Governorate,
GUESS,Beirut,KLB00509,#KLB00509,,Beirut,
GUESS,Beirut,KLB00607,#KLB00607,Achrafieh Plot No. 331,Beirut,
GUESS,Mokpo City,KOR001,#KOR001,"Bahae Bldg., 15",Jeolanam Do,00053-0280
GUESS,Daegu-city,KOR001-OUT,#KOR001-OUT,Moda Outlet,Dalseo-Gu,00070-4715
GUESS,Jung-gu,KOR002,#KOR002,55-4 Eunhae-dong,Daejeon,00030-1839
GUESS,Seungnam-City,KOR002-OUT,#KOR002-OUT,"2001 Outlet, 11-1",Bundang-Gu,00046-3808
GUESS,Jeju City,KOR003,#KOR003,1280-3 Ildo I dong,Jeju illand,00069-0836
GUESS,Seoul,KOR004,#KOR004,662-3 Shinsa-dong,Gangnam-gu,00013-5897
GUESS,Geunmcheun-Gu,KOR004-OUT,#KOR004-OUT,"W Mall, 60-27",Chungcheongbuk-do,00015-3023
GUESS,"Yeongin-City,",KOR-004Out,#KOR-004Out,"1003-53, Jukjeon-Dong, Suji-Gu,","Gyeonggi-Do,",448-162
GUESS,Cheongju-city,KOR005,#KOR005,C-103 227-12,Chungcheongbuk-do,360-013
GUESS,Gumi-city,KOR-006,#KOR-006,1st Fl.129-20 Wonpyung-Dong,Gyeongsangbuk-do,00073-0010
GUESS,Kwangju-city,KOR-008,#KOR-008,26-9 3 Ga Choongjangro,Dong Gu,00050-1013
GUESS,Incheon,KOR012,#KOR012,"1210 Ho, Igvill Outlet 386",Bupyeong Gu,00040-3030
GUESS,Seo Gu,KOR-019,#KOR-019,131 Ho 1st Fl.,Tanban Dong,
GUESS,Jeonjoo City,KOR14,#KOR14,312-7 Jungang Dong,Jeon Buk,00056-0013
GUESS,Jeollanamdo,KOR-867408,#KOR-867408,"996-1 Sangdong, Mokpo City,",Jeollanam-do,00053-0826
GUESS,Daegu,KOREA020,#KOREA020,700-092 Dongseongno,Jung-gu,700-092
GUESS,Cheongju-si,KOREA021,#KOREA021,360-701 Bukmunno 1-ga,Chungcheongbuk-do,360-013
GUESS,Jung-gu Seoul,KOREA022,#KOREA022,100-810 54-6 Myungdong 2Ga,100-810,100-101
GUESS,Gwangju,KOREA-029,#KOREA-029,502-270,"Chipyeong-dong, Seo-gu",502-270
GUESS,"Iksan-si,",KOREA-039,#KOREA-039,570-160 837-4,Yeongdeung-dong,570-160
GUESS,Suncheon-si,KOREA040,#KOREA040,540-220 49-13 Namnac-dong,Jeollanam-do,540-190
GUESS,Wonju-si,KOREA041,#KOREA041,220-956,Gangwon-do,220-150
GUESS,Jinju-si,KOREA045,#KOREA045,660-140,Gyeongsangnam-do,660-140
GUESS,Chungcheongnam-do,KOREA-0456,#KOREA-0456,"331-090 552-3 Ssangyong-dong, Seobuk-gu, Cheonan-si,",Chungcheongnam-do,331-090
GUESS,Gumi-si,KOREA047,#KOREA047,730-010,Gyeongsangbuk-do,730-010
GUESS,Chuncheon-si,KOREA049,#KOREA049,"200-941 27, Joyang-dong",Gangwon-do,200-070
GUESS,Gangwon-do,KOREA-052,#KOREA-052,210-060,Gangwon-do,210-060
GUESS,Pyeongtaek-si,KOREA-057,#KOREA-057,450-010 62-8 Pyeongtaek-dong,Gyeonggi-do,450-010
GUESS,Seoul,KOREA-066,#KOREA-066,153-0330,Geumcheon-gu,153-030
GUESS,Seoul,KOREA-117,#KOREA-117,"17-2, Euljiro 6 ga",,100-196
GUESS,"Gyeonju-si,",KOREA-119A,#KOREA-119A,780-070 228-4 Hwangdo-dong,Gyeongbuk,760-831
GUESS,Gyeonggi-Do,KOREA-1235,#KOREA-1235,"177-1, Simgok 2-Dong, Wonmi-Gu,",Gyeonggi-do,420-012
GUESS,Gyeongsangnam-Do,KOREA-1430,#KOREA-1430,"961-108, Gohyeon-Ri, Sinhyeon-Eup,",Gyeongsangnam-do,636-942
GUESS,Gunsam-si,KOREA-43,#KOREA-43,573-230,Jeollabuk-do,573-230
GUESS,"Jeollanamdo,",KOREA-8674,#KOREA-8674,"Address : 159 Kyodong,",Jeollanam-do,00055-0803
GUESS,Gyeongbuk,KOREA-87,#KOREA-87,760-180 189-18,Gyeongsangbuk-do,760-831
GUESS,Seoul,KOREA-FACT,#KOREA-FACT,"140-013 40-999,",Hangangno 3-ga,140-013
GUESS,Seoul,KOREA-FOOT,#KOREA-FOOT,100-810 54-3 Myeong-dong,Jung-gu,100-021
GUESS,Yeoju-cup,KOREA-OUTL,#KOREA-OUTL,706-014,Suseong-gu,157-016
GUESS,Seoul,KOREOUTLET,#KOREOUTLET,137-030 2nd FL,,100-101
GUESS,Ansan-si,KOR-GJ-112,#KOR-GJ-112,426-894 1547-2,Gyeonggi-do,425-020
GUESS,Gyeonggido,KOR-OUTLET,#KOR-OUTLET,"101 Ho, 103-7 Nokyangdong, Uijeongbu City",Gyeonggi-do,00048-0824
GUESS,Seoul,KOR-UND-00,#KOR-UND-00,"9-6 Myungryundong, Mokpo City,",,00053-0207
GUESS,Chungcheongnam-do,KR-012210,#KR-012210,"343-805, 255-6 Eumnae-ri,",Chungcheongnam-do,356-826
GUESS,Daijeon Korea,KR-2345,#KR-2345,302-280 1491 Wolpyeong-dong Seo-gu,,302-281
GUESS,Pusan,KR-25887,#KR-25887,"5-3, Changsun 1-ga",,611-080
GUESS,Kyung-ki,KR-36DAE,#KR-36DAE,"1039-3, Hogai-dong, Dongan-gu",,
GUESS,Gyeonggi-do,KR-6C14F,#KR-6C14F,"411 - 808 Deongi-dong, Ilsanseo-gu",Gyeonggi-do,411-410
GUESS,Seoul,KR-C14A7,#KR-C14A7,Songpa-gu,,138-240
GUESS,Busan,KR-D9C2A,#KR-D9C2A,612-010 1176-1 Jung-dong,,612-012
GUESS,In-cheon,KR-E5C6C,#KR-E5C6C,"59 Shinpo-dong, Joong-gu",Gyeonggi-do,00040-0480
GUESS,Ekaterinburg,KRU00678,#KRU00678,Prospekt Lenina 25,Sverdlovsk Oblast,00062-0014
GUESS,Yuzhno-sakhalinsk,KRU00851,#KRU00851,Zentralnaya Str. 1b,Sakhalinskaya oblast,
GUESS,Gwangju,KR-UDW-012,#KR-UDW-012,"501-103, 32-4 Chungjangno 3-ga, Dong-gu,",,501-013
GUESS,Gumi-si,KR-UND-006,#KR-UND-006,"730-923 Wonpyeong-dong,",Gyeongsangbuk-do,730-010
GUESS,Jeddah,KSA00535,#KSA00535,"King Abdullah Road, 2nd Ring, Madinah",Makkah Province,23325
GUESS,Jiddah,KSA00542,#KSA00542,"King Road, Al Shatee District",Makkah Province,23325
GUESS,Riyadh,KSA00576,#KSA00576,King Abdul Aziz Street,Riyadh Province,12463
GUESS,Jiddah,KSA00583,#KSA00583,,Makkah Province,23325
GUESS,Riyadh,KSA00584,#KSA00584,,Riyadh Province,12623
GUESS,Ar Riyad,KSA00596,#KSA00596,Prince Sultan St,Riyadh Province,58775
GUESS,Jeddah,KSA00622,#KSA00622,Al Tahlia Street,Makkah Province,23325
GUESS,Makkah,KSA00859,#KSA00859,Al Azazhea Road,Makkah Province,
GUESS,Ankara,KTR00888,#KTR00888,No:6 Level:1 B 170 Sögütözü,Ankara Province,6520
GUESS,Astana,KZ-GJ-001,#KZ-GJ-001,"Dostyk street 9, TC Keruen",Pavlodar Province,10000
GUESS,Colonia Granada,Los Atrios,#Los Atrios,Avenida Ejercito Nacional #843-B Local D 105 y 106.,Delegacion Miguel Hidalgo,11520
GUESS,Macau,MACAU-001,#MACAU-001,Shop no. 2429,at The Venetian Macau Resort Hotel,
GUESS,Macau,MACAU-ACCE,#MACAU-ACCE,Shop no. 2601,at The Venetian Macau Resort Hotel,
GUESS,Macau,MACAU-GBM,#MACAU-GBM,"Shop 2858 The Shoppes at Four Seasons,",,
GUESS,Dubai,MAE00519,#MAE00519,Business Bay,Dubai,
GUESS,Dubai,MAE00524,#MAE00524,E 11,Dubai,
GUESS,Selangor,MALAY-039,#MALAY-039,Lot G1. 53-55 Ground Floor,Bandar Sunway Petaling Jaya,46150
GUESS,Perak,Malay-040,#Malay-040,Lot G06 &07 Ground Fl,Ipoh,31400
GUESS,Kuala Lumpur,MALAY-045,#MALAY-045,"Lot 2.56,2.57&2.58 Level 2",Federal Territory of Kuala Lumpur,55100
GUESS,Kota Kinahalu,MALAY-0456,#MALAY-0456,G620 Ground Floor 1 Borneo Hypermall Jalun UMS 88450,Sabah,88100
GUESS,Penang,MALAY-ACCE,#MALAY-ACCE,Lot UG-08 Ground Floor,"Seberang Jaya,",59200
GUESS,Kuala Lumpur,MALAY-FOOT,#MALAY-FOOT,Lot 3.53 Level 3 No. 168,Selangor,55100
GUESS,Kuala Lumpur,MALAY-KID0,#MALAY-KID0,"Lot 5.33 & 5.34, Level 5 No. 168",Federal Territory of Kuala Lumpur,50490
GUESS,Selangor Darul Ehsan,MAL-KID003,#MAL-KID003,"Lot F13 First Floor, Empire Shopping Gallery",Federal Territory of Kuala Lumpur,59100
GUESS,Baky,MAZ00646,#MAZ00646,Uzeyir Hajibeyov 27 27,,1001
GUESS,Manama,MBH00545,#MBH00545,"Sheikh Khalifa Bin Salman Highway, Al Seef",Northern Governorate,
GUESS,Praga,MCZ00232,#MCZ00232,Plzenská 233/8,Hlavní msto Praha,150 00
GUESS,Prague,MCZ00239,#MCZ00239,Na Pankráci 86,Hlavní msto Praha,140 00
GUESS,Brno,MCZ00311,#MCZ00311,U dálnice 777,South Moravian Region,664 42
GUESS,Prague,MCZ00368,#MCZ00368,na Prikope 19,Hlavní msto Praha,110 00
GUESS,Prague,MCZ00901,#MCZ00901,Chlumecka 765/6,Hlavní msto Praha,19800
GUESS,Alexandria,MEG00570,#MEG00570,,Alexandria Governorate,
GUESS,Valencia,MES00110,#MES00110,Calle Menorca  19,Valencian Community,46023
GUESS,Madrid,MES00656,#MES00656,Calle de Serrano 47,Community of Madrid,28001
GUESS,Madrid,MES00657,#MES00657,Calle de Raimundo Fernández Villaverde 79,Community of Madrid,28003
GUESS,Valencia,MES00815,#MES00815,Calle Còlon 46,Valencian Community,46004
GUESS,"Acapulco de Juarez. Mexico, Estado de Guerrero C.P",MEX-014,#MEX-014,Boulevard de las Naciones # 1813,GRO,39760
GUESS,"Guadalajara, Jalisco C.P.",MEX024,#MEX024,Boulevard Puerta de Hierro # 4965,JAL,45116
GUESS,C.P,MEX06846,#MEX06846,Smz 6 Mz 1 Lote 1- L20 Av.,QROO,77500
GUESS,"Mexico D.F., C.P",MEX078,#MEX078,"Avenida Reforma 222, Locales L-103 y L-104, Col. Juarez, Delegacion Cuauhtemoc,",GRO,6600
GUESS,Estado de Mexico. C.P.,MEXICO 005,#MEXICO 005,Circuito Centro Comercial # 2251,MEX,53100
GUESS,Delegacion Iztapalapa,MEXICO005,#MEXICO005,Avenida Canal de Tezontle # 1512 Local 110. Centro Comercial Parque Tezontle,Mexico D.F. C.P.,9020
GUESS,Aguascalientes,MEXICO006,#MEXICO006,Boulevard a Zacatecas Norte #  849. Local 2031 y 2032. Centro Comercial Altaria,Aguascalientes. C.P.,20116
GUESS,Guadalajara,MEXICO007,#MEXICO007,Avenida Rafael Sanzio # 150. Local K7 y K8. Galerias Guadalajara.Colonia Residencial La Estancia,Jalisco. C.P.,45138
GUESS,Mexico C.P.,MEXICO-014,#MEXICO-014,Calle 7 # 451 Manzana 594 Seccion 26 Local 6,D.F.,97133
GUESS,Cuautitlán Izcalli,MEXI-OUTL0,#MEXI-OUTL0,Hacienda Sierra Vieja Nº 2,Col. Hacienda del Parque,54769
GUESS,Helsinki,MFI00301,#MFI00301,Kluuvikatu 4,,100
GUESS,Grenoble,MFR00102,#MFR00102,Place Victor Hugo 9,RA,38000
GUESS,Lyon,MFR00393,#MFR00393,Rue Édouard-Herriot 38,RA,69001
GUESS,Paris,MFR00772,#MFR00772,"Croix Rouge, Place Michel Debrè 2",IDF,75006
GUESS,Bologna,MIT00009,#MIT00009,Via Clavature 9/C,Emilia-Romagna,40124
GUESS,Firenze,MIT00010,#MIT00010,Via de' Vecchietti 17R,Tuscany,50123
GUESS,Forte dei Marmi,MIT00013,#MIT00013,Via Carducci ang. Via 4 Novembre,Tuscany,55042
GUESS,Lucca,MIT00021,#MIT00021,Via Fillungo 28,Tuscany,55100
GUESS,La Spezia,MIT00022,#MIT00022,Via del Prione 85,Liguria,19121
GUESS,Pontedera,MIT00024,#MIT00024,Via Giacomo Matteotti 38,Tuscany,56025
GUESS,Pisa,MIT00034,#MIT00034,Via Corso Italia 56,Tuscany,56126
GUESS,Serravalle Scrivia,MIT00077,#MIT00077,Via della Moda 1,Piedmont,15069
GUESS,Vicolungo,MIT00087,#MIT00087,Via San Martino Di Zusiagna,Piedmont,28060
GUESS,Aiello del Friuli,MIT00173,#MIT00173,"SP 126, Km 1.6",Friuli-Venezia Giulia,33041
GUESS,Milano,MIT00332,#MIT00332,Corso Giacomo Matteotti 5,Lombardy,20121
GUESS,Rende,MIT00359,#MIT00359,Via Alessandro Volta 49A,Calabria,87036
GUESS,Sassari,MIT00407,#MIT00407,Emiciclo Giuseppe Garibaldi 23,Sardinia,7100
GUESS,Rimini,MIT00487,#MIT00487,Via 4 Novembre 14,Emilia-Romagna,47843
GUESS,Roma,MIT00610,#MIT00610,"Piazza Colonna, 59",Lazio,186
GUESS,Salerno,MIT00663,#MIT00663,Corso Vittorio Emanuele 44,Campania,84123
GUESS,Rimini,MIT00792,#MIT00792,Via 4 Novembre 16,Emilia-Romagna,47921
GUESS,Vilnius,MLT00484,#MLT00484,Konstitucijos prospektas 7,Vilnius County,LT-09308
GUESS,Kaunas,MLT00944,#MLT00944,Karaliaus Mindaugo Pr. 49,Kaunas County,44333
GUESS,Riga,MLV00866,#MLV00866,Audeju iela 16,Rgas pilsta,LV-1050
GUESS,Amsterdam,MNL00376,#MNL00376,Pieter Cornelisz. Hooftstraat 82,NH,1071
GUESS,Breslavia,MPL00754,#MPL00754,Swidnicka 40,Lower Silesian Voivodeship,00005-3110
GUESS,Warsaw,MPL00885,#MPL00885,Plac Trzech Krzyzy 10/14,Masovian Voivodeship,00000-0499
GUESS,Cluj-Napoca,MRO00175,#MRO00175,"Str. Alex voievod, Stand P139A 53 B",CJ,400000 - 400930
GUESS,Bucuresti,MRO00195,#MRO00195,Blvd Timishoara 6th District 26,,21689
GUESS,Bucharesti,MRO00681,#MRO00681,Bulevardul Vasile Milea 4,Bucharest,61344
GUESS,Moscow,MRU00486,#MRU00486,Red Square 3,Moscow,00010-9012
GUESS,Ekaterinburg,MRU00670,#MRU00670,prospekt Lenina 25,Sverdlovsk Oblast,00062-0014
GUESS,Kazan,MRU00686,#MRU00686,Baumana street 42/9,Republic of Tatarstan,00042-0000
GUESS,Orenburg,MRU00723,#MRU00723,Sharlykskoe highway 1,Orenburgskaya oblast,00046-0024
GUESS,Nizhny Novgorod,MRU00771,#MRU00771,Radionova Str. 187b,Nizhegorodskaya oblast,00060-3163
GUESS,Penza,MRU00779,#MRU00779,ulitsa Moskovskaya 37,Penzenskaya oblast,00044-0000
GUESS,Ekaterinburg,MRU00870,#MRU00870,Sacco And Vanzetti,Sverdlovsk Oblast,00062-0014
GUESS,Sochi,MRU00887,#MRU00887,"Vorovskogo Str, 56",Krasnodar Krai,00035-4000
GUESS,Rostov On Don,MRU00908,#MRU00908,"T.c. Horizon, M. Nagibina Prospect 32/2",Rostov Oblast,00034-4002
GUESS,Jiddah,MSA00518,#MSA00518,Sari Street,Makkah Province,23436
GUESS,Jiddah,MSA00543,#MSA00543,,Makkah Province,23325
GUESS,Khobar,MSA00553,#MSA00553,"Khobar 31952, Firas Ibn, Al Nudur",Eastern Province,34445
GUESS,Jiddah,MSA00589,#MSA00589,"Al Tahlia Street, Hail Street Junction, Al Rawdah",Makkah Province,23432
GUESS,Bratislava,MSK00076,#MSK00076,Einsteinova Street 18,,85101
GUESS,Bratislava - Staré Mesto,MSK00372,#MSK00372,Pribinova 1/B,,81108
GUESS,Provincia di Istanbul,MTK00058,#MTK00058,Pinar Mah. Istinye Bayiri Cad. Enka Okullari Karsisi  Istinye,Istanbul Province,34460
GUESS,San Luis Potosi,MX5019,#MX5019,Blvd. Antonio Rocha Cordero #700,San Luis Potosi,78215
GUESS,Villahermosa,MX5020,#MX5020,"Periferico Carlos Pellicer, Camara #129, Esq. Ave. General Cesar Sandino",Villahermosa,86190
GUESS,Interlomas,MX5021,#MX5021,"Viallidad de la Barrance, #6",Estado de Mexico,52772
GUESS,Lerma,MX5022,#MX5022,"Carretera Mexico Toluca, km.50",Estado de Mexico,52000
GUESS,Cuernavaca,MX5023,#MX5023,"Aut. Mexico Acapulco, km.87 L - 126",Morelos,45550
GUESS,Monterrey,MX5024,#MX5024,"Local 1104-B (1er Nivel), fase III, Centro Comercial Plaza Fiesta San Agustin",Nuevo Leon,64590
GUESS,Mexico City,MX8002,#MX8002,"Calzada del hueso, #519",Mexico D.F,14300
GUESS,Morelia,MX8003,#MX8003,Av. Lic. Enrique Ramirez MIguel #1000,Michoacan,58270
GUESS,Municipio Benito Juarez,MX-La Isla,#MX-La Isla,Blvd Kukulcankm. 12.5 No. 262 L-105 y 106. Centro Comercial Plaza La Isla Colonia Zona Hotelera,C.P. 77500 Cancun Quintana Roo,77500
GUESS,Selangor,MY-0073B,#MY-0073B,"Lot G 1.46 & 1.47, Ground Floor",Petaling Jaya,46150
GUESS,Kuala Lumpur,MY-1198D,#MY-1198D,"Lot 94, 95, & 96, Ground Floor",Lingkaran Syed Putra,59200
GUESS,Penang,MY-2486C,#MY-2486C,"Lot 170 - G - 5, Ground Floor Persiaran Gurney 10250",Persiaran Gurney,10250
GUESS,Johor Bahru,MY4005,#MY4005,"G15 & 16 Ground Floor, Aeon Tebrau City Shopping Centre, No.1 Jalan Desa tebrau, Taman Desa Tebrau,",Johor,81100
GUESS,Kuching,MY4006,#MY4006,"The Spring Shopping Mall,",Sawarak,93300
GUESS,Bayan Lepas,MY5004,#MY5004,"Lot Gf 66-68 Ground Floor, Queensbay Mall,",Penang,11900
GUESS,"Putrajaya,",MY5008,#MY5008,"Jalan Alamanda, Precinct 1,62000",Wilayah Persekutuan,62000
GUESS,Subang Jaya,MY5011,#MY5011,"Lot G23, Ground Floor, Empire Shopping Gallery, Jalan 16/1",Selangor,47500
GUESS,Klang,MY5012,#MY5012,"Ground Floor Lot 69, Aeon Bukit Tinggi, No.1, Persiaran Batu Nilam 1/Ks 6, Bandar Bukit Tinggi 2.",Selangor,41200
GUESS,Kuching,MY5014,#MY5014,"The Spring Shopping Mall, Persiaran Spring",Sawarak,93300
GUESS,Ipoh,MY5015,#MY5015,"2 Susuran Stesen 18 , Ipoh, Perak 31650",Perak,31650
GUESS,Shah Alam,MY5016,#MY5016,"Let UG39 & 40 Upper Ground Floor Setia City Mall, Setia Alam 40170 Shah Alam Selangor",Selangor,40170
GUESS,Kulai,MY5800,#MY5800,"Johor Premium Outlets Suite No 534 & 536, High Street,",Johor Bahru,81000
GUESS,Selangor Darul Ehsan,MY-6776A,#MY-6776A,"Lot G348, 349 & 350, Ground Flr. No 1 Lebuh Bandar Utama",Petaling Jaya,47800
GUESS,Kuala Lumpur,MY-6BEF0,#MY-6BEF0,"Lot 125 & 126, First Floor",Federal Territory of Kuala Lumpur,50088
GUESS,Johor,MY-6D8BF,#MY-6D8BF,"Lot G15 & G16 Ground Floor1, Jalan Desa Tebrau",Johor Bahru,81100
GUESS,Kuala Lumpur,MY-79EF6,#MY-79EF6,"Lot 212, 2nd Floor Suria KLCC",Federal Territory of Kuala Lumpur,50088
GUESS,Kuala Lumpur,MY8003,#MY8003,"Lot F-228, First Floor Mid Valley City Lingkaran",Federal Territory of Kuala Lumpur,59200
GUESS,Kuching,MY8008,#MY8008,G22 & G23 Ground floor  Jalan Pearl,Sarawak,93000
GUESS,Sembilan,MY-A2CE9,#MY-A2CE9,"Persiaran S2 B1, Serembran 2 70300, Serembran Negeri",Negeri Sembilan,70300
GUESS,Selangor,MY-ABA16,#MY-ABA16,"Lot G. 56, Ground Floor, No. 6, Jalan PJU7/3",Petaling Jaya,47800
GUESS,Petaling Jaya,MY-BEC37,#MY-BEC37,"Lot S 339, 2nd Floor One Utama Shopping Ctr",Bandar Utama Damansara,47800
GUESS,Selangor Daru Ehsan,MY-DF8F6,#MY-DF8F6,"Lot GF 22, GF 23 & GF 23a, Ground Floor",Pusat Bandar Shah Alam,40000
GUESS,Goyang-si,Newcore Ou,#Newcore Ou,410-350 797-2 Madu-dong,Goyang - Si,410-350
GUESS,Managua,NI-5001,#NI-5001,"Centro Comercial Galerias Santo Domingo, km 7, carretara Marsalla, Módulo B18-19",MN,
GUESS,Olso,NR-GJ-007,#NR-GJ-007,"Niels Juels gate 38,",Oslo,257
GUESS,Auckland,NZ001,#NZ001,AS8,Auckland,1010
GUESS,Gyeonggi-do,OUTLET019,#OUTLET019,"441-390 1189, Gwonseson-dong",Suwon-si,441-390
GUESS,Panama City,PA-5001,#PA-5001,"Punta Pacifica, Local 184, 185, y 186",Panama,
GUESS,Panama City,PA-5002,#PA-5002,Local 23-23P-23T,Panama,
GUESS,Panama City,PA-8000,#PA-8000,"Local 268, Via Israel, Punta Pacifica",Panama,
GUESS,Hai Phong City,Parkson Ha,#Parkson Ha,Lot 1/20A New Urban Area,Le Hong Phong,
GUESS,Delegacion Gustavo A. Madero,Parque Lin,#Parque Lin,"Colectores 13, No. 280 L-131 y 132 Colonia Lindavista. Centro Comercial Parque Lindavista.",D.F.,C. P. 07760
GUESS,Lima,PE001,#PE001,Ave. Javier Prado Este #4200,Lima,15023
GUESS,Talon Las Pinas City,PH-022BB,#PH-022BB,Ground Floor Level SM Southmall,NCR,
GUESS,Marikina City,PH-05935,#PH-05935,A. Bonifacio Ave. Riverbanks Mall,NCR,
GUESS,Mandaluyong City,PH-1B882,#PH-1B882,"2nd Level, SM Megamall Bldg. B,",NCR,
GUESS,Dasmarinas Cavite City,PH-2755B,#PH-2755B,Unit 175-176 Ground Level SM City Dasmarinas,Calabarzon,
GUESS,Baguio City,PH-27CFD,#PH-27CFD,Unit 113 Upper Ground Level SM City,CAR,
GUESS,Binan Laguna,PH-2936F,#PH-2936F,"2nd Level,  Annex B Pavilion Mall - KM 35",Calabarzon,
GUESS,Ermita Manila,PH-2E0D3,#PH-2E0D3,Upper Ground Level SM Manila,NCR,
GUESS,Quezon City,PH-35F70,#PH-35F70,SM City North Edsa,NCR,
GUESS,Santa Cruz Manila,PH-3A160,#PH-3A160,Upper Ground Level SM San Lazaro,NCR,
GUESS,Batangas City,PH-3F18C,#PH-3F18C,Unit 138-140 Upper Ground Floor Level,Polican West,
GUESS,Cebu City,PH-422E2,#PH-422E2,Level 1 Robinsons Place Cebu,Central Visayas,6000
GUESS,General Santos City,PH-44537,#PH-44537,Upper Ground Floor KCC Mall,SOCCSKSARGEN,
GUESS,Lipa City,PH-46723,#PH-46723,Level 1 Robinsons Place,Batangas,
GUESS,Makati City,PH-48936,#PH-48936,Ground Floor Level Ayala Center,NCR,
GUESS,Bohol,PH-4A448,#PH-4A448,Upper Ground Level Island City Mall,Central Visayas,
GUESS,Mandaluyong City,PH-5441F,#PH-5441F,Upper Ground Level,NCR,1552
GUESS,Las Pinas Metro Manila,PH-5465E,#PH-5465E,Ground Floor Level  Alabang Zapote Rd.,NCR,
GUESS,Bulacan,PH-558C8,#PH-558C8,Ground Floor SM City Marilao,Central Luzon,
GUESS,Legaspi City,PH-5AD99,#PH-5AD99,Ground Floor Level,Bicol,
GUESS,Cagayan de Oro,PH-6435F,#PH-6435F,Ground Floor Level SM City,Northern Mindanao,
GUESS,Edsa Quezon City,PH-67202,#PH-67202,"Annex Bldg.,",NCR,
GUESS,Cebu City,PH-6B12E,#PH-6B12E,Stall 155 Ground Floor Level Ayala Center,Central Visayas,6000
GUESS,Alabang Muntinlupa City,PH-6B2F1,#PH-6B2F1,2nd Level Alabang Town Center,NCR,
GUESS,"Bacoor, Cavite City",PH-750C8,#PH-750C8,Upper Ground Level SM Bacoor,Calabarzon,
GUESS,Dagupan City,PH-7785D,#PH-7785D,"2nd Level, CSI The City Mall",Ilocos Region,
GUESS,Muntinlupa City,PH-791AF,#PH-791AF,3rd Level Festival Mall,NCR,
GUESS,"Lapasan, Cagayan de Oro City",PH-7D29A,#PH-7D29A,Ground Floor  Lim Ket Kai Mall,Northern Mindanao,
GUESS,Mexico Pampanga,PH-80252,#PH-80252,Upper Ground Floor SM San Fernando,Lagundi,
GUESS,San Fernando Pampanga,PH-83EFC,#PH-83EFC,Ground Flr Level Robinsons Starmills,Central Luzon,
GUESS,Batangas City,PH-883,#PH-883,"Groud Floor Level, SM City Batangas, Pallocan West",Calabarzon,
GUESS,Ermita Manila,PH-88F63,#PH-88F63,3rd Level Robinsons Place Ermita,NCR,
GUESS,Mandaluyong City,PH-8A07C,#PH-8A07C,"3rd Level, Shangri-La Mall",NCR,
GUESS,Iloilo City,PH-8CDCF,#PH-8CDCF,Upper Ground Level SM City Iloilo,Western Visayas,
GUESS,Cubao - Quezon City,PH-8F0C1,#PH-8F0C1,Ground Floor Gateway Mall,NCR,
GUESS,Sta. Mesa Manila,PH-92204,#PH-92204,2nd Level Sm Centerpoint,NCR,
GUESS,Cabanatuan City,PH-A57C4,#PH-A57C4,Ground Floor Level NE Pacific Mall,Central Luzon,
GUESS,Pasay City,PH-A60EF,#PH-A60EF,Space #155-157 Ground Floor Level,NCR,
GUESS,Matina Davao City,PH-AA3C7,#PH-AA3C7,Ground Floor Level SM City,Davao Region,
GUESS,San Pablo City,PH-AD088,#PH-AD088,M. Pavillion St.,Laguna,
GUESS,Alabang Muntinlupa City,PH-AD184,#PH-AD184,2nd Level Festival Mall,NCR,
GUESS,Manila,PH-AE20C,#PH-AE20C,Ground Level,NCR,
GUESS,Olongapo City,PH-B8FE9,#PH-B8FE9,"Bldg. 640, Samson Rd.",Subic Bay Freeport Zone,
GUESS,Alabang Muntinlupa City,PH-B9652,#PH-B9652,Ground Level Alabang Town Center,NCR,1781
GUESS,Bacolod City,PH-BCD01,#PH-BCD01,"2nd Level North Arcade, Robinsons Place",Western Visayas,
GUESS,Cabanatuan City,PH-C138C,#PH-C138C,Ground Floor Level,Central Luzon,
GUESS,Manila,PH-C1747,#PH-C1747,Level 2 SM City Manila,NCR,
GUESS,Baguio City,PH-C78D9,#PH-C78D9,"3rd Level, Porta Vaga Commercial Bldg.",CAR,
GUESS,Fairview Quezon City,PH-CD59F,#PH-CD59F,Upper Ground Level SM Fairview,NCR,
GUESS,Angeles Pampanga,PH-CL02,#PH-CL02,Unit 1215 - 1216 Ground Floor Level,Central Luzon,
GUESS,Ermita Manila,PH-D071B,#PH-D071B,2nd Level Robinsons Place Ermita,NCR,
GUESS,Bulacan,PH-D6E3E,#PH-D6E3E,Level 2 SM City Marilao,Central Luzon,
GUESS,Angeles City,PH-DF9B9,#PH-DF9B9,Space #L02-028 2nd Floor Level,Pampanga,
GUESS,"Urdaneta, Pangasinan",PH-E447D,#PH-E447D,2nd Level Magic Mall,Ilocos Region,
GUESS,Bacoor Cavite,PH-E55D4,#PH-E55D4,Upper-Ground Level SM Bacoor,Calabarzon,
GUESS,Cainta Rizal,PH-E6C55,#PH-E6C55,Ground Level Santa Lucia East,NCR,
GUESS,Quezon City,PH-EA99E,#PH-EA99E,2nd Level Robinson's Place Galleria,NCR,
GUESS,Baguio City,PH-EB7F5,#PH-EB7F5,"Unit 236, 2nd Level SM City",CAR,
GUESS,Cebu City,PH-EBF1B,#PH-EBF1B,Upper Level North Reclamation Area,Central Visayas,
GUESS,Iloilo City,PH-EC7FF,#PH-EC7FF,2nd Level Robinsons Place,Western Visayas,
GUESS,Davao City,PH-ED0C4,#PH-ED0C4,2nd Level SM City Davao,Barangay Matina,
GUESS,Makati City,PH-EECDA,#PH-EECDA,2nd Floor Level Ayala Center Quad 2,NCR,
GUESS,Makati City,PH-F07C6,#PH-F07C6,Upper Ground Floor Rockwell Center,NCR,
GUESS,"Cubao, Quezon City",PH-F9725,#PH-F9725,Ground Floor Level Alimall Cubao,NCR,
GUESS,Matina Davao City,PH-FA4EB,#PH-FA4EB,2nd Level NCCC Mall  LA-07 to LA-10,Davao Region,
GUESS,Vigan City,PH-FAF8E,#PH-FAF8E,Ground Floor Plaza Maestro Annex,Ilocos Region,
GUESS,Bajada Davao City,PH-FD940,#PH-FD940,Ground Floor Level Victoria Plaza,Davao Region,
GUESS,Dumaguete City,PH-GBG-002,#PH-GBG-002,"Ground Floor Level, Robinson's Place, South road,",Central Visayas,
GUESS,Ilocos Norte,PH-GBG-003,#PH-GBG-003,"Ground Floor Level, Robinson's Place, Laoag City,",Ilocos Region,
GUESS,Tarlac City,PH-GBG-004,#PH-GBG-004,"Ground Floor level, SM City Tarlac Mc-Arthur Highway",Central Luzon,
GUESS,Zamboanga City,PHIL-021,#PHIL-021,"2nd Level - Mindpro City Mall, LA Purisima St.",Zamboanga Peninsula,7000
GUESS,Quezon City,PHIL-045,#PHIL-045,3rd Fl. TriNoma Eqsa,NCR,
GUESS,"Lipa City, Batagas",PHIL-192,#PHIL-192,"Ground Floor, SM City Lipa,",Calabarzon,
GUESS,Rosales,PHIL-5865,#PHIL-5865,"Ground Floor Level,",Ilocos Region,2441
GUESS,Angeles City,PHIL-68496,#PHIL-68496,"Ground Floor Level, Marquee Mall,",Central Luzon,
GUESS,Tacloban City,PHIL-68945,#PHIL-68945,"Ground Floor Level, Robinson's Place,",Eastern Visayas,
GUESS,"Lipa City, Batagas",PHIL-KID 0,#PHIL-KID 0,North Reclamation area cor.,Central Visayas,6000
GUESS,Angeles City,PHIL-KID-5,#PHIL-KID-5,"2nd Floor Level, Marquee Mall,",Central Luzon,
GUESS,Cebu City,PHIL-KID-6,#PHIL-KID-6,"3rd Floor Level, Ayala Mall, Ayala Center,",Central Visayas,6000
GUESS,Laguna,PH-Sr01,#PH-Sr01,Ground Floor Level,Calabarzon,
GUESS,Doha,QA-3CB70,#QA-3CB70,Royal Plaza,Doha,
GUESS,Penang,Queensbay,#Queensbay,"Lot GF 66, 67 & 68, Ground flr.","Sungai Nibong, Bayan Lepas",11900
GUESS,Jakarta,Senayan Ci,#Senayan Ci,Level 1 Unit 1-19-21 Jalan Asia Afrika Lot 19,Jakarta,10270
GUESS,Belgrade,SER-ACC-00,#SER-ACC-00,"JURIJA GAGARINA, 16",,11000
GUESS,Novi Sad,SER-GJ-210,#SER-GJ-210,Novi Sad Pozorini TRG 7,Vojvodina,21000
GUESS,Belgrade,SER-GJ-I09,#SER-GJ-I09,Shopping Mall Usce Bulevar Mihajla Pupina 6,,11000
GUESS,Richmond,SFSHCA,#SFSHCA,,KY,40475
GUESS,Richmond,SFSHUS,#SFSHUS,,KY,40475
GUESS,Singapore,SG-2C29B,#SG-2C29B,3 Temasek Blvd # 01-14/16,,38983
GUESS,Singapore,SG-37BAC,#SG-37BAC,290 Orchard Road #02-1,,00023-8859
GUESS,Singapore,SG4500,#SG4500,"391A Orchard Road, Level 3, Takashimaya Dept. Store,",,00023-8873
GUESS,Singapore,SG5003,#SG5003,"2 Bayfront Avenue #B2-83-86A, The Shoppers at Marina Bay Sands,",,18972
GUESS,Singapore,SG5004,#SG5004,"2 Orchard Turn, #B1-19 ION Orchard,",,00023-8801
GUESS,Ngee Ann City,SG-54B72,#SG-54B72,"3391 Orchard Road, #B1-24A//28",,00023-8872
GUESS,Singapore,SG-5823A,#SG-5823A,583 Orchard Road Unit #01-22/23/40,,00023-8884
GUESS,Singapore,SG8005,#SG8005,200 Victoria Street #01-09/10,,11351
GUESS,Singapore,SG-BE736,#SG-BE736,290 Orchard Road,,00023-8859
GUESS,San Salvador,SV-5001,#SV-5001,"Kilometro 8 1/2 Antiguo Cuscatlan, Nivel 1, Local B-4",San Salvador,
GUESS,Stockholm,SWE-GBM-7A,#SWE-GBM-7A,Birger Jarlsgatan 6,Stockholm County,11434
GUESS,Lumpinee,TH-01F1F,#TH-01F1F,"3rd Flr, 1027 Ploenchit Road",Bangkok,10500
GUESS,Pathumwan,TH-185AA,#TH-185AA,991/1,Bangkok,10330
GUESS,Pattaya,TH-39897,#TH-39897,"1st Flr., 218 Beach Rd.,",.,20260
GUESS,"Klongton, Klongtoey",TH-3C9D1,#TH-3C9D1,"Basement, 622 Sukhumvit Rd.",Bangkok,10110
GUESS,Chatujak,TH-6E601,#TH-6E601,2nd Floor 1691,Bangkok,10900
GUESS,Thaiya Muung,TH-AFE81,#TH-AFE81,"1st Flr., 2 Mahidol Road",Chiangmai,50100
GUESS,Bangkok,THAI 299,#THAI 299,2nd Floor 999/9 Praram 1 Road,Bangkok,10330
GUESS,"Amphur Banglamoong,",THAI-0983,#THAI-0983,"333/99 Central Festival Pattaya Beach, Room 107-108, 1st fl., Moo 9,  Tambol Nongprue,",.,20150
GUESS,Nonthaburi,THAI-ACC04,#THAI-ACC04,"99,99/9 Central Plaza Chaengwattana, 1st Fl., Moo 2, Chaengwattana Road, Bangtarad, Pak Kret, 11120",.,11120
GUESS,Bangkok,THAI-ACCE0,#THAI-ACCE0,"Main Flr., 991/1 Rama 1 Rd.",Bangkok,10330
GUESS,Bangkok,THAI-GC-00,#THAI-GC-00,"Room E107, Ground Floor Rajdamri Rd,",Bangkok,10330
GUESS,Bangkok,TH-BC928,#TH-BC928,"2nd Flr 622 Sukhumvit Rd,",Bangkok,10700
GUESS,Amphur Muang,TH-CEC80,#TH-CEC80,"1st Flr., 74-75",Phuket,83000
GUESS,Arunaumarin,TH-DACDA,#TH-DACDA,1st Flr 7/1,"Bangkok Noi, Bangkok",10700
GUESS,London,UK-GJ-0374,#UK-GJ-0374,Regent Street 160,,W1B 5SP
GUESS,London,UK-GJ-06E7,#UK-GJ-06E7,Neal Street 2/4 Covent Garden,,WC2H 9SD
GUESS,Bristol,UK-GJ-0834,#UK-GJ-0834,"9 Concorde St,Cabot Circus",,BS1 3BF
GUESS,"Kingston, Surrey",UK-GJ-1107,#UK-GJ-1107,Wood Street,England,KT1
GUESS,London,UK-GJ-1220,#UK-GJ-1220,"Guess Jeans,Unit No. 1122 A,",,W12 7SL
GUESS,Sheffield,UK-GJ-126,#UK-GJ-126,Mall: Meadohall Shopping Centre,,S91EN
GUESS,Manchester,UK-GJ-2434,#UK-GJ-2434,"Mall : 45 Arndale Centre, Unit 10, Upper Mall Level, M4 3AJ Manchester",,M4 3AJ
GUESS,West Thurrock,UK-GJ-2987,#UK-GJ-2987,"243 Lakeside Shopping Centre,",,RM20 3BJ
GUESS,London,UK-GJ-350C,#UK-GJ-350C,Unit L049 Lower thames walk,,EC3R 6HE
GUESS,Newcastle,UK-GJ-8956,#UK-GJ-8956,Unit SU24 (Upper Mall Level) Percy St,,NE1 7RW
GUESS,Caracas,VE-5001,#VE-5001,"Centro Comercial Sambil, Nivel Acuario, Local AFR 22 y 24",Dto. Capital,
GUESS,Punto Fijo,VE-5002,#VE-5002,"Ave 6, Comunidad Cardon, Estado Falcon",Estado Falcon,
GUESS,Isla Margarita,VE5005,#VE5005,"Local Mar -20, Porlamar, Estado De Nueva, Esperta",Nueva Esparta,
GUESS,Caracas,VE-5005,#VE-5005,"Ave. Principal de Las Mercedes, entre Ave. Copérnico y Calle Nueva York, Local P03-04, Poso #3",Las Mercedes,
GUESS,Caracas,VE-5006,#VE-5006,"Ave. Principal del Hatillo, Nivel 2, Local 05",La Lagunita,1083
GUESS,Isla Margarita,VE-5007,#VE-5007,"Ave. Santiago Marino, Porlamar, Estado de Nueva Esparta",Nueva Esparta,
GUESS,Caracas,VE-8000,#VE-8000,"Ave. Blandin, Nivel Jardin, Local J-08",La Castellana,
GUESS,Caracas,VE-8001,#VE-8001,"Ave. Principal del Cafetal, Segunta Etapa, Planta Baja, Local PB-8",Dto. Capital,
GUESS,Ho Chi Minh City,VIET004,#VIET004,35 Bis 45 Le Thanh Street,Ho Chi Minh City,
GUESS,Ho Chi Minh City,VN-67F90,#VN-67F90,"45 Le Thanh Ton Street, District 1",Ho Chi Minh City,
GUESS,Kempton Park,ZA-1017173333,#ZA-1017173333,"Shop 20, 1st Floor International Duty Free, 1 Jan Smuts Ave, Kempton Park Central, Kepton Park, JSA",Gauteng,1627
GUESS,Witbank,ZA-1057503723,#ZA-1057503723,"Shop 96, Highveld Mall, Cnr N4 Highway & Mandela Street, Witbank",Mpumalanga,1035
GUESS,Pretoria,ZA-1111870421,#ZA-1111870421,"Shop UF74, Menlyn Park Shopping Centre, Cnr Atterbury Rd & Lois Ave, Menlo Park, Pretoria",Gauteng,49
GUESS,Tokai,ZA-1199549214,#ZA-1199549214,"F234, Blue Route Shopping Centre, 16 Tokai Road, Cnr Vans & Tokai Road, Tokai",Western Cape,7945
GUESS,Bedfordview,ZA-1231631992,#ZA-1231631992,"Shop U46 & U47, Bedford Shopping Centre, Smith Road, Bedford Gardens, Bedfordview",Gauteng,2007
GUESS,Kenilworth,ZA-1242363832,#ZA-1242363832,"Shop B21, Access Park, 81 Chichester Rd, Kenilworth",Western Cape,7708
GUESS,Boksburg,ZA-1290429061,#ZA-1290429061,"Shop 138, Boksburg East Rand Mall, Bentel Avenue, Boksburg North",Gauteng,1459
GUESS,Johannesburg,ZA-1297591107,#ZA-1297591107,"Shop HL34, Melrose Arch Piazza, Melrose Boulevard, Cnr Corlett Drive & M1 Highway, Melrose, Johannes",Gauteng,2196
GUESS,Claremont,ZA-1400805068,#ZA-1400805068,"Shop F5 & F7A, Cavendish Square, Dreyer Street, Claremont",Western Cape,7700
GUESS,Roodeport,ZA-1473496550,#ZA-1473496550,"Shop LM170 & 171, Clearwater Shopping Cnetre, Cnr Hendrik Potgieter & Christiaan de Wet Drive, Strub",Gauteng,1724
GUESS,Fourways,ZA-1483887721,#ZA-1483887721,"Shop G18, Fourways Mall, Cnr William Nicol Rd & Witkoppen Rd, Fourways",Gauteng,2055
GUESS,Umhlanga,ZA-1499782526,#ZA-1499782526,"Shop G096, Gateway Theatre of Shopping, Palm Boulevard, Umhlanga",Kwa-Zulu Natal,4320
GUESS,Bedfordview,ZA-1570598484,#ZA-1570598484,"Shop L54, Eastgate Shopping Centre, 43 Bradford Road, Bedfordview",Gauteng,2007
GUESS,Westville,ZA-1595340941,#ZA-1595340941,"Shop 114, The Pavilion Shopping Centre, Jack Martens Drive, Westville",Kwa-Zulu Natal,3630
GUESS,Sandton,ZA-1688310430,#ZA-1688310430,"Shop L325, Sandton City Shopping Centre, Cnr Rivonia Rd & 5th St, Sandton",Gauteng,2196
GUESS,Umhlanga,ZA-1692262723,#ZA-1692262723,"Shop G101, Gateway Theatre of Shopping, Palm Boulevard, Umhlanga",Kwa-Zulu Natal,4320
GUESS,Pietermaritzburg,ZA-1723953444,#ZA-1723953444,"Shop No. 228, Liberty Midlands Mall, 50 Sancuary Rd, Petermaritzburg",Kwa-Zulu Natal,3201
GUESS,Milnerton,ZA-1746373617,#ZA-1746373617,"Shop 136A, Canal Walk Shopping Centre, Century City Boulevard, Milnerton",Western Cape,7441
GUESS,Umhlanga,ZA-1793938237,#ZA-1793938237,"Shop F120, Gateway Theatre of Shopping, Palm Boulevard, Umhlanga",KwaZulu-Natal,4320
GUESS,East London,ZA-1815324778,#ZA-1815324778,"Shop UG16, Hemingways Mall, Cnr Western Boulevard & River Rd, East London",Eastern Cape,5201
GUESS,Sandton,ZA-1841570697,#ZA-1841570697,"Shop U80, Sandton City Shopping Centre, Cnr Rivonia Rd & 5th St, Sandton",Gauteng,2196
GUESS,Nelspruit,ZA-234622499,#ZA-234622499,"Shop G229, Riverside Shopping Centre, White River Road, Riverside Park x1, Nelspruit",Mpumalanga,3699
GUESS,Centurion,ZA-24408318,#ZA-24408318,"Shop 22, Centurion Mall, Heuwel Avenue, Centurion",Gauteng,46
GUESS,Pretoria,ZA-246464038,#ZA-246464038,"Shop 1.01B, Atterbury Value Mart, Atterbury Rd 2001, Faerie Glen",Gauteng,81
GUESS,Sandton,ZA-364290142,#ZA-364290142,"Shop U105, Sandton City Shopping Centre, Cnr Rivonia & 5th St, Sandton",Gauteng,2196
GUESS,Bloemfontein,ZA-370963226,#ZA-370963226,"Shop UG4, Loch Logan Waterfront, Henry Street, Bloemfontein",Free State,9301
GUESS,Pretoria,ZA-387870918,#ZA-387870918,"Shop 292, Brooklyn Mall, 338 Bronkhorst Street, New Muckleneuk",Gauteng,2
GUESS,Boksburg,ZA-47178071,#ZA-47178071,"Shop 1a, The Palms Centre, Cnr North Rand Road & 1st Street, Bardene, Boksburg",Gauteng,1459
GUESS,Westville,ZA-48015120,#ZA-48015120,"Shop 152, The Pavilion Shopping Centre, Jack Martens Drive, Westville",Kwa-Zulu Natal,3630
GUESS,East London,ZA-563840331,#ZA-563840331,"Shop UG71A, Hemmingways Mall, Cnr Western Boulevard & River Road, East London",Eastern Cape,5201
GUESS,Cape Town,ZA-601191979,#ZA-601191979,"Shop 6192, Victoria Wharf, V&A Waterfront, Cape Town",Western Cape,8001
GUESS,Durban,ZA-803006009,#ZA-803006009,"Shop SH27, Corner of Electron & Umgeni Roads, Durban",KwaZulu - Natal,4091
GUESS,Pretoria,ZA-827146837,#ZA-827146837,"Shop G100, Menlyn Park Shopping Centre, Cnr Atterbury Rd & Lois Ave, Menlo Park, Pretoria",Gauteng,49
GUESS,Polokwane,ZA-83503114,#ZA-83503114,"Shop U45, Mall of the North, Cnr R81 & N1 Bypass, Bendor Ext 99, Polokwane",Limpopo,
GUESS,Johannesburg,ZA-909352150,#ZA-909352150,"Shop 20a, Worldwear Shopping Centre, Cnr Wilson Street & Beyers Naude Drive, Fairlands, Johannesburg",Gauteng,2001
