keywords,city,Aggdata Store Number,store_number,address,state,zip_code
Guitar Center,Palm Desert,108,#108,72-399 California 111,CA,92260
Guitar Center,Orange,109,#109,20 City Blvd. West Suite 907D,CA,92868
Guitar Center,Hollywood,110,#110,7425 Sunset Blvd.,CA,90046
Guitar Center,San Marcos,111,#111,712 Center Dr.,CA,92069
Guitar Center,La Mesa,112,#112,8825 Murray Dr.,CA,91942
Guitar Center,Palmdale,113,#113,1011 West Avenue P,CA,93551
Guitar Center,Fountain Valley,114,#114,18361 Euclid St.,CA,92708
Guitar Center,Covina,115,#115,1054 North Azusa Ave.,CA,91722
Guitar Center,Sherman Oaks,116,#116,14209 Ventura Blvd.,CA,91423
Guitar Center,San Bernardino,117,#117,925 E. Hospitality Lane,CA,92408
Guitar Center,Lawndale,118,#118,4525 Artesia Blvd.,CA,90260
Guitar Center,Brea,119,#119,606 S. Brea Blvd.,CA,92821
Guitar Center,Northridge,120,#120,19510 Nordhoff St.,CA,91324
Guitar Center,Rancho Cucamonga,121,#121,"12479 Foothill Blvd., Su.#G/H",CA,91739
Guitar Center,Lake Forest,122,#122,23811 El Toro Rd. #A,CA,92630
Guitar Center,Oxnard,123,#123,1741 E. Ventura Blvd. Suite E,CA,93036
Guitar Center,Bakersfield,124,#124,3428 Ming Avenue,CA,93309
Guitar Center,Pasadena,125,#125,2660 East Colorado Blvd.,CA,91107
Guitar Center,Cerritos,126,#126,11155 183rd Street,CA,90703
Guitar Center,Murrieta,127,#127,24370 Village Walk,CA,92562
Guitar Center,Los Angeles,128,#128,10831 West Pico Blvd.,CA,90064
Guitar Center,Stevenson Ranch,129,#129,24961 Pico Canyon Road,CA,91381
Guitar Center,Las Vegas,131,#131,6587 S. Las Vegas Blvd. STE B172,NV,89119
Guitar Center,Las Vegas,132,#132,8621 W. Charleston Blvd. Suite 150,NV,89117
Guitar Center,Reno,133,#133,6663 S. Virginia St.,NV,89511
Guitar Center,Tempe,151,#151,1245 W. Elliot Rd. Ste. 115,AZ,85284
Guitar Center,Phoenix,152,#152,2750 West Peoria St.,AZ,85029
Guitar Center,Tucson,153,#153,4720 E. Broadway Blvd.,AZ,85711
Guitar Center,Scottsdale,154,#154,8949 East Indian Bend Road,AZ,85250
Guitar Center,Avondale,155,#155,9945 W. McDowell Rd.,AZ,85392
Guitar Center,Mesa,156,#156,1652 S. Val Vista Dr Suite 118,AZ,85204
Guitar Center,Chico,218,#218,2027 Martin Luther King Parkway Suite 119,CA,95928
Guitar Center,San Mateo,219,#219,53 West Hillsdale Blvd.,CA,94403
Guitar Center,San Francisco,220,#220,1645 Van Ness Ave.,CA,94109
Guitar Center,Gilroy,221,#221,6910 Chestnut Street,CA,95020
Guitar Center,Santa Clara,222,#222,3677 Stevens Creek Blvd.,CA,95051
Guitar Center,Visalia,223,#223,4254 S. Mooney Rd,CA,93277
Guitar Center,Emeryville,224,#224,5925 Shellmound St.,CA,94530
Guitar Center,Concord,225,#225,"1280 Willow Pass Rd., Ste. A",CA,94520
Guitar Center,Sacramento,226,#226,2120 Alta Arden Expressway,CA,95825
Guitar Center,Fresno,227,#227,5330 North Blackstone Ave.,CA,93710
Guitar Center,Modesto,228,#228,3440 McHenry Ave. Suite D-20,CA,95350
Guitar Center,Roseville,229,#229,5781B Five Star Blvd,CA,95678
Guitar Center,Seattle,231,#231,530 Westlake Ave.,WA,98109
Guitar Center,Lynnwood,232,#232,18420 33rd Ave West # D,WA,98037
Guitar Center,Tukwila,233,#233,230 Andover Park W.,WA,98188
Guitar Center,Kirkland,234,#234,12608 120th AVE. N.E.,WA,98034
Guitar Center,Tacoma,235,#235,"2919 South 38th Street, Suite A",WA,98409
Guitar Center,Spokane,236,#236,5628 N. Division Street Suite B3,WA,99207
Guitar Center,Bellingham,237,#237,"3960 Meridian St. Suite 101 Bellingham, WA 98226",WA,98226
Guitar Center,Eugene,241,#241,1015 Green Acres Road,OR,97408
Guitar Center,Medford,242,#242,2570 Crater Lake Hwy,OR,97504
Guitar Center,Clackamas,243,#243,13029 Southeast 84th Ave.,OR,97015
Guitar Center,Beaverton,244,#244,9575 S.W. Cascade Ave.,OR,97008
Guitar Center,Keizer,245,#245,6325 Ulali Drive,OR,97303
Guitar Center,Portland,246,#246,1147 Hayden Meadows Dr,OR,97217
Guitar Center,Boise,251,#251,5761 Fairview Avenue,ID,83706
Guitar Center,West Des Moines,310,#310,3910 University Ave,IA,50266
Guitar Center,Davenport,311,#311,3860 Elmore Ave,IA,52807
Guitar Center,Cedar Rapids,312,#312,4651 1st Ave. SE,IA,52402
Guitar Center,Saginaw,320,#320,4360 Bay Road,MI,48602
Guitar Center,Portage,321,#321,5800 S. Westnedge Ave.,MI,49024
Guitar Center,Flint,322,#322,G3640 Miller Rd.,MI,48507
Guitar Center,Allen Park,323,#323,23133 Outer Dr.,MI,48101
Guitar Center,Lansing,324,#324,517 Mall Court,MI,48912
Guitar Center,Bedford Park,330,#330,7250 S. Cicero Ave #C,IL,60620
Guitar Center,Roseville,331,#331,31940 Gratiot Ave. Suite A,MI,48066
Guitar Center,Arlington Heights,332,#332,2375 S. Arlington Heights Rd.,IL,60005
Guitar Center,Southfield,333,#333,29555 Northwestern Hwy.,MI,48034
Guitar Center,Chicago,334,#334,2633 North Halsted,IL,60614
Guitar Center,Canton Township,335,#335,39415 Ford Road,MI,48187
Guitar Center,Villa Park,336,#336,298 W. Roosevelt Rd.,IL,60181
Guitar Center,Highland Park,337,#337,143 South Skokie Valley Road,IL,60035
Guitar Center,Kentwood,338,#338,2891 Radcliff Ave SE,MI,49512
Guitar Center,Roseville,339,#339,1641 West County Road B2,MN,55113
Guitar Center,St. Louis,341,#341,9177 Watson Rd.,MO,63126
Guitar Center,Bridgeton,342,#342,11977 St. Charles Rock Rd.,MO,63044
Guitar Center,Independence,343,#343,3911 Bolger Road,MO,64055
Guitar Center,Springfield,344,#344,3500 S. Glenstone Ave.,MO,65804
Guitar Center,Brookfield,350,#350,17135 W. Bluemound Road,WI,53005
Guitar Center,Madison,351,#351,676 South Whitney Way #G1,WI,53711
Guitar Center,Grand Chute,352,#352,775 N. Cassaloma Drive,WI,54913
Guitar Center,Peoria,360,#360,2601 West Lake Avenue,IL,61615
Guitar Center,Aurora,361,#361,996 N. Route 59,IL,60504
Guitar Center,Algonquin,362,#362,195 S. Randall Rd,IL,60102
Guitar Center,Country Club Hills,363,#363,4271 W.167th Street,IL,60478
Guitar Center,Rockford,364,#364,5425 E.State Street,IL,61108
Guitar Center,Joliet,365,#365,2785 Plainfield Rd,IL,60435
Guitar Center,Fairview Heights,366,#366,79 Ludwig Dr,IL,62208
Guitar Center,Sioux Falls,370,#370,3709 W.41st Street,SD,57106
Guitar Center,Edina,392,#392,3650 Hazelton Rd.,MN,55435
Guitar Center,Maple Grove,393,#393,11561 Fountains Dr. N,MN,55369
Guitar Center,Oakdale,394,#394,8316 3rd Street NE,MN,55128
Guitar Center,Albuquerque,410,#410,6001 Menaul Blvd. NE Suite B,NM,87110
Guitar Center,Denver,421,#421,1585 S. Colorado Blvd.,CO,80222
Guitar Center,Arvada,422,#422,"8601 Sheridan Blvd., Su. #G",CO,80003
Guitar Center,Englewood,423,#423,9647 E. County Line Rd.,CO,80112
Guitar Center,Colorado Springs,424,#424,535 N. Academy Blvd.,CO,80909
Guitar Center,Pueblo,425,#425,5759 N. Elizabeth St.,CO,81008
Guitar Center,Fort Collins,426,#426,813 East Harmony Road,CO,80525
Guitar Center,Salt Lake City,431,#431,5728 S. Redwood Rd,UT,84123
Guitar Center,Riverdale,432,#432,5430 S. Freeway Park Drive,UT,84405
Guitar Center,Farmers Branch,440,#440,4519 LBJ Freeway,TX,75244
Guitar Center,Arlington,441,#441,721 Ryan Plaza Dr.,TX,76011
Guitar Center,Houston,442,#442,8390 Westheimer Road,TX,77063
Guitar Center,Houston,443,#443,16745 N. Freeway,TX,77090
Guitar Center,Dallas,444,#444,7814 North Central Expressway,TX,75206
Guitar Center,Webster,445,#445,1020 W. Nasa Parkway One #138,TX,77598
Guitar Center,Austin,446,#446,2525 West Anderson Lane Suite 200,TX,78757
Guitar Center,Plano,447,#447,2333 North Central Expressway Suite 101,TX,75075
Guitar Center,Corpus Christi,448,#448,4127 S. Staples Street,TX,78411
Guitar Center,Ft. Worth,449,#449,5250 South Hulen Street,TX,76132
Guitar Center,Tulsa,450,#450,9919 E. 71st St.,OK,74133
Guitar Center,Oklahoma City,451,#451,2940 NW 59th Street,OK,73112
Guitar Center,Austin,460,#460,5300 S Mo Pac Expy #103,TX,78749
Guitar Center,El Paso,461,#461,6440 Gateway Blvd E #100,TX,79905
Guitar Center,Lubbock,462,#462,4930 SO.Loop 289 Suite 220,TX,79414
Guitar Center,Lewisville,463,#463,2601 South Stemmons Freeway Suite #400,TX,75067
Guitar Center,San Antonio,464,#464,"7325 San Pedro Ave., Ste 105",TX,78216
Guitar Center,McAllen,465,#465,"3300 West Expressway 83, Suite 800",TX,78503
Guitar Center,Laredo,466,#466,5708 San Bernardo Ave,TX,78041
Guitar Center,Brownsville,467,#467,"1601 E. Price Rd., Ste H",TX,78521
Guitar Center,Beaumont,468,#468,4025 Dowlen Road,TX,77706
Guitar Center,Mesquite,469,#469,"2021 N. Town East Blvd, Suite 400",TX,75150
Guitar Center,Wichita,470,#470,4448 W. Kellogg Dr,KS,67209
Guitar Center,Overland Park,471,#471,6700 W. 119th St,KS,66209
Guitar Center,Lincoln,480,#480,2801 Pine Lake Rd. Suite P2,NE,68516
Guitar Center,Omaha,481,#481,3115 Oak View Drive,NE,68144
Guitar Center,Amarillo,490,#490,3350 Soncy Rd.,TX,79124
Guitar Center,Killeen,491,#491,1600 Lowes Blvd. Ste 100,TX,76542
Guitar Center,Round Rock,492,#492,2200 S. IH35 Suite B4,TX,78681
Guitar Center,Stafford,493,#493,12790 Fountain Lake Circle,TX,77477
Guitar Center,Pasadena,494,#494,5140 Fairmont Pkwy,TX,77505
Guitar Center,College Station,495,#495,1003 Harvey Suite 100,TX,77840
Guitar Center,Katy,496,#496,24429 Katy Freeway,TX,77494
Guitar Center,Waco,497,#497,4314 W. Waco Dr.,TX,76710
Guitar Center,Nashua,510,#510,258 Daniel Webster Hwy,NH,3060
Guitar Center,Portsmouth,511,#511,1600 Woodbury Ave. #24,NH,3801
Guitar Center,Williston,519,#519,21A Hawthorne St.,VT,5495
Guitar Center,Manchester,521,#521,120-B Hale Rd.,CT,6040
Guitar Center,Orange,522,#522,50 Boston Post Road,CT,6477
Guitar Center,New London,523,#523,351 N. Frontage Rd. Spc F3,CT,6320
Guitar Center,Danbury,524,#524,15 Backus Ave.,CT,6810
Guitar Center,Southington,525,#525,839 Queen St,CT,6489
Guitar Center,Warwick,531,#531,1245 Bald Hill Road,RI,2886
Guitar Center,South Portland,540,#540,198 Maine Mall Rd,ME,4106
Guitar Center,Boston,550,#550,1255 Boylston St.,MA,2215
Guitar Center,Danvers,551,#551,120 Andover St.,MA,1923
Guitar Center,Natick,552,#552,321-C Speen St. Cloverleaf Marketplace,MA,1760
Guitar Center,North Attleboro,553,#553,1505 S. Washington St.,MA,2760
Guitar Center,Millbury,554,#554,"70 Worcester Providence Turnpike, Suite 410",MA,1527
Guitar Center,Braintree,555,#555,255 Grossman Dr.,MA,2184
Guitar Center,Boston,599,#599,159-165 Mass Ave.,MA,2115
Guitar Center,North Olmsted,611,#611,26635 Brookpark Road Extension,OH,44070
Guitar Center,Mayfield Heights,612,#612,5800 Mayfield Rd.,OH,44124
Guitar Center,Cincinnati,613,#613,640 Kemper Commons Circle,OH,45246
Guitar Center,Columbus,614,#614,4661 Morse Centre Drive,OH,43229
Guitar Center,Holland,615,#615,1578 Spring Meadows,OH,43528
Guitar Center,Fairlawn,616,#616,3750 W. Market Street Unit R,OH,44333
Guitar Center,Boardman,617,#617,7380 Market Street,OH,44512
Guitar Center,Dayton,618,#618,"2700 Miamisburg Centerville Rd, Spc 570",OH,45459
Guitar Center,Mishawaka,620,#620,5825 Grape Road,IN,46545
Guitar Center,Indianapolis,621,#621,8475 Castleton Corner Drive,IN,46250
Guitar Center,Merrillville,622,#622,2108 E. 80th Avenue,IN,46410
Guitar Center,Ft. Wayne,623,#623,422 W. Coliseum Blvd,IN,46805
Guitar Center,Terre Haute,624,#624,3684 S. US Hwy 41,IN,47802
Guitar Center,Evansville,625,#625,6220 E. Lloyd Expressway,IN,47715
Guitar Center,Greenwood,626,#626,1256 US 31 N,IN,46142
Guitar Center,Lexington,631,#631,3801 Mall Road,KY,40503
Guitar Center,Florence,632,#632,4999 Houston Rd,KY,41042
Guitar Center,Louisville,633,#633,4600 Shelbyville Rd. Suite 613,KY,40207
Guitar Center,Baton Rouge,710,#710,9001 Florida Blvd. Suite B,LA,70815
Guitar Center,Harahan,711,#711,"1000 S. Clearview Parkway, Suite 1040",LA,70123
Guitar Center,Shreveport,712,#712,7460 Youree Dr. Suite T,LA,71105
Guitar Center,Lafayette,713,#713,5702 Johnston St. Suite 102,LA,70503
Guitar Center,Nashville,720,#720,721 Thompson Lane,TN,37204
Guitar Center,Knoxville,721,#721,8917 Towne & Country Cir.,TN,37923
Guitar Center,Bartlett,722,#722,8000 US Highway 64,TN,38133
Guitar Center,Chattanooga,723,#723,2200 Hamilton Place Blvd.,TN,37421
Guitar Center,Brentwood,724,#724,8105 Moores Lane Suite 1400,TN,37027
Guitar Center,Matthews,731,#731,10050 E. Independence Boulevard,NC,28105
Guitar Center,Raleigh,732,#732,3100 Capital Blvd.,NC,27604
Guitar Center,Durham,733,#733,1720 Guess Rd,NC,27701
Guitar Center,Greensboro,734,#734,2221 Vanstory Street,NC,27403
Guitar Center,North Charleston,735,#735,7620 Rivers Ave. Unit 140,SC,29406
Guitar Center,Greenville,736,#736,2463 Laurens Road,SC,29607
Guitar Center,North Charlotte,737,#737,8813 J.W. Clay Blvd. Suite A,NC,28262
Guitar Center,Fayetteville,738,#738,2093 Skibo Road,NC,28314
Guitar Center,Little Rock,741,#741,"12315 Chenal Parkway, Suite A",AR,72211
Guitar Center,Fayetteville,742,#742,160 East Joyce Blvd. Suite C,AR,72703
Guitar Center,Mobile,750,#750,3725 Airport Blvd.,AL,36608
Guitar Center,Hoover,751,#751,1694 Montgomery Hwy,AL,35216
Guitar Center,Montgomery,752,#752,2572 Eastern Blvd.,AL,36117
Guitar Center,Huntsville,753,#753,5900 University Dr NW Suite A,AL,35806
Guitar Center,Atlanta,761,#761,1485 Northeast Expressway,GA,30329
Guitar Center,Marietta,762,#762,1901 Terrell Mill Rd. SE,GA,30067
Guitar Center,Lawrenceville,763,#763,1455 Pleasant Hill Road Suite 401,GA,30044
Guitar Center,Fayetteville,764,#764,186 Banks Crossing,GA,30214
Guitar Center,Macon,765,#765,4551 Billy Williamson Dr. Suite 160,GA,31206
Guitar Center,Alpharetta,766,#766,970 North Point Drive Suite A120,GA,30022
Guitar Center,Athens,767,#767,1791 Oconee Connector Suite 450,GA,30606
Guitar Center,Hallandale,770,#770,1101 W. Hallandale Beach Blvd.,FL,33009
Guitar Center,Miami,771,#771,7736 N. Kendall Dr.,FL,33156
Guitar Center,West Palm Beach,772,#772,5025 Okeechobee Boulevard,FL,33417
Guitar Center,Winter Park,773,#773,520 N. Orlando Ave. Suite 130,FL,32789
Guitar Center,Lakeland,774,#774,3165 US Hwy 98N,FL,33805
Guitar Center,Tampa,775,#775,3914 West Hillsborough,FL,33614
Guitar Center,Ft. Myers,776,#776,4440 Fowler St.,FL,33901
Guitar Center,Orlando,777,#777,"12402 Orange Blossom Trail, Ste. 1",FL,32837
Guitar Center,Pensacola,778,#778,6927 N. 9th Ave,FL,32504
Guitar Center,Jacksonville,779,#779,9365 Atlantic Blvd. Suite 1,FL,32225
Guitar Center,Tallahassee,780,#780,2415 North Monroe St. #600,FL,32303
Guitar Center,Clearwater,781,#781,21335 US Hwy 19 N,FL,33765
Guitar Center,University Park,782,#782,8223 Cooper Creek Blvd,FL,34201
Guitar Center,Coconut Creek,783,#783,4449 Lyons Blvd. Suite# 106,FL,33073
Guitar Center,Ocala,784,#784,3920 SW 42nd ST #B-2,FL,34474
Guitar Center,Port St. Lucie,785,#785,1707 NW St. Lucie West Blvd. STE 142,FL,34986
Guitar Center,Gainesville,786,#786,3210 SW 35th Blvd.,FL,32608
Guitar Center,Jackson,790,#790,1189 East County Line Rd suite 4,MS,39211
Guitar Center,Manhattan,810,#810,25 W. 14th Street,NY,10011
Guitar Center,Carle Place,811,#811,111 Old Country Road,NY,11514
Guitar Center,Long Island City,812,#812,34-17 48th Street,NY,11101
Guitar Center,Larchmont,813,#813,2141 Palmer Ave.,NY,10538
Guitar Center,Commack,814,#814,8 Garet Place,NY,11725
Guitar Center,Tonawanda,815,#815,1092 Niagara Falls Blvd.,NY,14150
Guitar Center,Rochester,816,#816,1100 Jefferson Road,NY,14623
Guitar Center,Colonie,817,#817,145 Wolf Rd.,NY,12205
Guitar Center,Brooklyn,818,#818,139 Flatbush Ave,NY,11217
Guitar Center,Dewitt,819,#819,3150 Erie Blvd East,NY,13214
Guitar Center,Springfield,821,#821,160 Route 22,NJ,7081
Guitar Center,East Brunswick,822,#822,666 Route 18,NJ,8816
Guitar Center,Paramus,823,#823,154 West State Route 4 (eastbound),NJ,7652
Guitar Center,Totowa,824,#824,"1 Rte 46 West, Suite #7",NJ,7512
Guitar Center,Cherry Hill,825,#825,2100 Route 38,NJ,8002
Guitar Center,Mays Landing,826,#826,560 Hamilton Commons,NJ,8330
Guitar Center,Paramus,827,#827,762 Route 17 North,NJ,7652
Guitar Center,Raritan,828,#828,401 Route 28,NJ,8869
Guitar Center,Ocean,829,#829,2323 State Rt. 66,NJ,7712
Guitar Center,Glen Burnie,830,#830,6320 Ritchie Hwy.,MD,21061
Guitar Center,Towson,831,#831,1524 E. Joppa Rd.,MD,21286
Guitar Center,Rockville,832,#832,12401 Twinbrook Parkway,MD,20852
Guitar Center,Wilmington,838,#838,5141 Brandywine Parkway,DE,19803
Guitar Center,Falls Church,841,#841,6272 Arlington Blvd.,VA,22044
Guitar Center,Fairfax,842,#842,11051 Lee Highway,VA,22030
Guitar Center,Virginia Beach,843,#843,5483 Virginia Beach Blvd.,VA,23462
Guitar Center,Fredericksburg,844,#844,215 Spotsylvania Mall,VA,22407
Guitar Center,Richmond,845,#845,9128 W. Broad Street,VA,23294
Guitar Center,Midlothian,846,#846,13357 Rittenhouse Dr.,VA,23112
Guitar Center,Langhorne,851,#851,2335 E. Lincoln Hwy.,PA,19047
Guitar Center,Plymouth Meeting,852,#852,2620 Chemical Road,PA,19462
Guitar Center,Monroeville,853,#853,384 Mall Blvd.,PA,15146
Guitar Center,Harrisburg,854,#854,5082 Jonestown Rd.,PA,17112
Guitar Center,Pittsburgh,855,#855,1020 Park Manor Blvd,PA,15205
Guitar Center,Whitehall,856,#856,250 Lehigh Valley Mall Space 720,PA,18052
Guitar Center,Moosic,857,#857,3001 Shoppes Blvd.Suite 3000,PA,18507
Guitar Center,Lancaster,858,#858,1292-A Millersville Pike,PA,17603
Guitar Center,Johnson City,860,#860,665 Harry L Drive,NY,13790
Guitar Center,Yonkers,861,#861,214 Markey St,NY,10710
Guitar Center,Cheektowaga,862,#862,3385 Union Rd. Suite 300,NY,14225
