keywords,city,Aggdata Store Number,store_number,address,state,zip_code
Hannaford,Leominster,8003,#8003,118 Lancaster St,MA,1453
Hannaford,Marlborough,8004,#8004,193 Boston Post Rd W,MA,1752
Hannaford,Middleboro,8005,#8005,8 Merchants Way,MA,2346
Hannaford,Hudson,8007,#8007,213 Washington St,MA,1749
Hannaford,Kingston,8008,#8008,182 Summer St,MA,2364
Hannaford,Townsend,8009,#8009,18 Main St,MA,1469
Hannaford,Ayer,8010,#8010,22 Fitchburg Rd,MA,1432
Hannaford,North Brookfield,8011,#8011,5 Gilbert St,MA,1535
Hannaford,Leominster,8012,#8012,927 Merriam Avenue,MA,1453
Hannaford,Clinton,8013,#8013,333 Brook St,MA,1510
Hannaford,Uxbridge,8014,#8014,158 North Main St,MA,1569
Hannaford,Pelham,8015,#8015,150 Bridge St,NH,3076
Hannaford,Derry,8016,#8016,35 Manchester Rd,NH,3038
Hannaford,Waltham,8017,#8017,55 Russell St,MA,2451
Hannaford,North Quincy,8018,#8018,475 Hancock St,MA,2171
Hannaford,Gardner,8019,#8019,21 Timpany Blvd,MA,1440
Hannaford,Norwell,8020,#8020,10 Washington Street,MA,2061
Hannaford,Milford,8021,#8021,7 Medway Rd,MA,1757
Hannaford,Norwood,8022,#8022,434 Walpole St,MA,2062
Hannaford,Bangor,8107,#8107,Broadway Shopping Ct,ME,4401
Hannaford,Bangor,8109,#8109,1133 Union St.,ME,4401
Hannaford,Bangor,8110,#8110,Bangor Mall,ME,4401
Hannaford,Schaghticoke,8111,#8111,6 Main St,NY,12154
Hannaford,Ravena,8113,#8113,2481 Rt 9W,NY,12143
Hannaford,Bethel,8114,#8114,71 Main Street,ME,4217
Hannaford,Patten,8118,#8118,P.O. Box 699,ME,4765
Hannaford,Claremont,8119,#8119,220 Washington St,NH,3743
Hannaford,Raymond,8120,#8120,2 Freetown Road,NH,3077
Hannaford,Middlebury,8121,#8121,"260 Court St, Unit 6",VT,5753
Hannaford,Ellsworth,8123,#8123,Maine Coast Mall,ME,4605
Hannaford,Milbridge,8124,#8124,Po Bx 190,ME,4658
Hannaford,Dexter,8125,#8125,37 Church Street,ME,4930
Hannaford,Blue Hill,8126,#8126,15 South Street,ME,4614
Hannaford,Machias,8128,#8128,149 Dublin Street,ME,4654
Hannaford,Barre,8129,#8129,456 South Barre Road,VT,5641
Hannaford,Newport,8131,#8131,Newport Plaza,ME,4953
Hannaford,Old Town,8133,#8133,500 Stillwater Ave.,ME,4468
Hannaford,Presque Isle,8137,#8137,797 Main Street,ME,4769
Hannaford,Saco,8138,#8138,532 Main Street,ME,4072
Hannaford,Pittsfield,8139,#8139,1 Somerset Plaza,ME,4967
Hannaford,Lincoln,8140,#8140,Lincoln Plaza Route 2,ME,4457
Hannaford,Damariscotta,8141,#8141,Damariscotta Plaza,ME,4543
Hannaford,Boothbay Harbor,8143,#8143,Route 27,ME,4538
Hannaford,Cornish,8146,#8146,"200 Maple St, Unit 3",ME,4020
Hannaford,Portsmouth,8149,#8149,800 Islington Street,NH,3801
Hannaford,Camden,8151,#8151,145 Elm Street,ME,4843
Hannaford,Bucksport,8152,#8152,370 Main Street,ME,4416
Hannaford,Durham,8153,#8153,7 Mill Road,NH,3824
Hannaford,Millinocket,8155,#8155,Magic City Shop Ctr,ME,4462
Hannaford,Greenville,8156,#8156,148 Moosehead Lake,ME,4441
Hannaford,Center Ossipee,8159,#8159,Route 16,NH,3864
Hannaford,Northwood,8160,#8160,174 First,NH,3261
Hannaford,Burlington,8161,#8161,1127 North Avenue,VT,5401
Hannaford,Morrisville,8162,#8162,80 Fairgrounds Plaza,VT,5661
Hannaford,Keene,8163,#8163,West St Shopping Ctr,NH,3431
Hannaford,Manchester,8164,#8164,201 John E Devine Dr,NH,3103
Hannaford,Jay,8165,#8165,15 Jay Plaza Lane,ME,4239
Hannaford,Plattsburgh,8166,#8166,7 Pyramid Drive,NY,12901
Hannaford,Bridgton,8167,#8167,109 Portland Road,ME,4009
Hannaford,New Hartford,8168,#8168,4593 Commercial Dr.,NY,13413
Hannaford,East Millinocket,8169,#8169,6 Main Street,ME,4430
Hannaford,West Peabody,8170,#8170,637 Lowell St,MA,1960
Hannaford,Massena Center,8171,#8171,6300 State Highway 37,NY,13662
Hannaford,Brewer,8173,#8173,383 Wilson St,ME,4412
Hannaford,Watertown,8175,#8175,6304 Arsenal St.,NY,13601
Hannaford,Manchester,8177,#8177,79 Bicentennial Dr,NH,3104
Hannaford,Manchester,8178,#8178,859 Hanover St,NH,3104
Hannaford,Rindge,8180,#8180,752 Route 202,NH,3461
Hannaford,Bedford,8181,#8181,5 Colby Court,NH,3110
Hannaford,Hudson,8183,#8183,77 Derry Rd,NH,3051
Hannaford,Londonderry,8185,#8185,6 Hampton Drive,NH,3053
Hannaford,Nashua,8186,#8186,175 Coliseum Ave,NH,3063
Hannaford,Topsham,8187,#8187,49 Topsham Fair Mall,ME,4086
Hannaford,Yarmouth,8188,#8188,Shoppers Village,ME,4096
Hannaford,East Hampstead,8190,#8190,305 Sandown Road,NH,3826
Hannaford,Chelmsford,8191,#8191,66-2 Drum Hill,MA,1824
Hannaford,Dracut,8192,#8192,301 Pleasant St.,MA,1826
Hannaford,Fort Kent,8208,#8208,62 West Main St,ME,4743
Hannaford,Madawaska,8209,#8209,814 W. Main St,ME,4756
Hannaford,Brewer,8211,#8211,395 No Main St,ME,4412
Hannaford,Caribou,8212,#8212,114 High Street,ME,4736
Hannaford,Houlton,8213,#8213,33 Ludlow Road,ME,4730
Hannaford,Calais,8214,#8214,361 South Street,ME,4619
Hannaford,Phillips,8217,#8217,Dodge Rd and Route 4,ME,4966
Hannaford,Gardiner,8220,#8220,40 Main Avenue,ME,4345
Hannaford,East Waterboro,8221,#8221,Hc 72 Box 2100,ME,4030
Hannaford,Falmouth,8222,#8222,65 Gray Road,ME,4105
Hannaford,Westbrook,8223,#8223,7 Hannaford Drive,ME,4092
Hannaford,Bar Harbor,8224,#8224,86 Cottage St,ME,4609
Hannaford,Biddeford,8225,#8225,299 Elm Street,ME,4005
Hannaford,Buxton,8226,#8226,24 Portland Rd,ME,4093
Hannaford,Waterville,8229,#8229,140 Elm Plaza,ME,4901
Hannaford,Rockland,8230,#8230,75 Maverick St,ME,4841
Hannaford,Brunswick,8231,#8231,35 Elm St,ME,4011
Hannaford,Voorheesville,8233,#8233,5 Maple Rd,NY,12186
Hannaford,West Sand Lake,8236,#8236,Rt 43 and 150,NY,12196
Hannaford,Waterville,8238,#8238,190 JFK Plaza,ME,4901
Hannaford,Augusta,8239,#8239,29 Whitten Rd.,ME,4330
Hannaford,Belfast,8241,#8241,93 Lincolnville Ave,ME,4915
Hannaford,Dover,8242,#8242,30 Grapevine Dr,NH,3820
Hannaford,New London,8246,#8246,295 Newport Road,NH,3257
Hannaford,Alton,8247,#8247,80 Wolfeboro Highway,NH,3809
Hannaford,Plymouth,8248,#8248,Hatch Shopping Plaza,NH,3264
Hannaford,Augusta,8250,#8250,118 Cony Street,ME,4330
Hannaford,Gray,8251,#8251,130 Shaker Road,ME,4039
Hannaford,Meredith,8253,#8253,"38 Nh Route 25,",NH,3253
Hannaford,Madison,8254,#8254,225 Upper Main St,ME,4950
Hannaford,Esperance,8255,#8255,11140 Western Turnpike,NY,12066
Hannaford,Unity,8258,#8258,35 Plaza Drive,ME,4988
Hannaford,Lewiston,8265,#8265,692 Sabattus St,ME,4240
Hannaford,West Lebanon,8266,#8266,8 Market Street,NH,3784
Hannaford,Malta (Ballston Lake),8267,#8267,43 Round Lake Road,NY,12019
Hannaford,Milton,8274,#8274,259 Route 7 South,VT,5468
Hannaford,SOUTH PORTLAND,8277,#8277,101 OCEAN STREET,ME,4106
Hannaford,South Portland,8279,#8279,50 Cottage Road,ME,4106
Hannaford,Saugus,8286,#8286,357 Broadway,MA,1906
Hannaford,China,8287,#8287,33 Hannaford Drive,ME,4358
Hannaford,Winthrop,8289,#8289,399 Main Street,ME,4364
Hannaford,Farmington,8291,#8291,Rr#4 Box 5027,ME,4938
Hannaford,Waldoboro,8294,#8294,Routes 1 and 32,ME,4572
Hannaford,Bennington,8301,#8301,141 Hannaford SQ.,VT,5201
Hannaford,Freeport,8302,#8302,79 Bow Street,ME,4032
Hannaford,South Burlington,8303,#8303,218 Hannaford Drive,VT,5403
Hannaford,Bedford,8305,#8305,4 Jenkins Road,NH,3110
Hannaford,Rutland,8306,#8306,318 South Main St,VT,5701
Hannaford,Enosburg Falls,8308,#8308,71 Jay View Drive,VT,5450
Hannaford,Bristol,8309,#8309,Rr 104,NH,3222
Hannaford,Goffstown,8311,#8311,605 Mast Road,NH,3102
Hannaford,Clinton,8313,#8313,55 Meadow Street,NY,13323
Hannaford,Rochester,8315,#8315,290 North Main St,NH,3867
Hannaford,Rochester,8317,#8317,11 Milton Rd,NH,3867
Hannaford,Franklin,8318,#8318,952 Central St,NH,3235
Hannaford,Hampton,8319,#8319,630 Lafayette Rd.,NH,3842
Hannaford,Schenectady,8320,#8320,1400 Altamont Ave,NY,12303
Hannaford,Carmel,8325,#8325,1936 Us Rt. 6,NY,10512
Hannaford,Lowell,8327,#8327,777 Rogers Street,MA,1852
Hannaford,Oneonta,8328,#8328,705 State Highway 28,NY,13820
Hannaford,Concord,8329,#8329,73 Fort Eddy Rd,NH,3301
Hannaford,Skowhegan,8330,#8330,496 Madison Ave,ME,4976
Hannaford,New Windsor,8331,#8331,2636 Route 32,NY,12553
Hannaford,Greenwich,8333,#8333,1165 Route 29,NY,12834
Hannaford,Wappingers Falls,8334,#8334,1490 Route 9,NY,12590
Hannaford,Pawling,8335,#8335,162 Route 22,NY,12564
Hannaford,Troy,8336,#8336,Nine 126Th Street,NY,12182
Hannaford,Middletown,8337,#8337,30 Tower Drive,NY,10941
Hannaford,Oxford,8338,#8338,1603 Main Street,ME,4270
Hannaford,Delmar,8339,#8339,180 Delaware Plaza,NY,12054
Hannaford,Kingston,8340,#8340,100 Plaza Road,NY,12401
Hannaford,Highland,8341,#8341,3650 Route 9W,NY,12528
Hannaford,Scarborough,8342,#8342,31 Hannaford Dr.,ME,4074
Hannaford,Pine Bush,8344,#8344,31 Ted Drive,NY,12566
Hannaford,North Windham,8345,#8345,797 Roosevelt Trail,ME,4062
Hannaford,Modena,8346,#8346,2066 Route 32,NY,12548
Hannaford,Auburn,8347,#8347,95 Spring Street,ME,4210
Hannaford,Kingston,8348,#8348,1261 Ulster Ave,NY,12401
Hannaford,Standish,8349,#8349,71 Colonial Drive,ME,4084
Hannaford,Gorham,8350,#8350,99 Main St.,ME,4038
Hannaford,Portland,8351,#8351,Hannaford Plaza,ME,4101
Hannaford,North Conway,8352,#8352,Mountain Valley Mall,NH,3860
Hannaford,Essex Junction,8353,#8353,21A Essex Way,VT,5452
Hannaford,Portland,8354,#8354,787 Riverside St.,ME,4103
Hannaford,St. Albans,8355,#8355,277 Swanton Road,VT,5478
Hannaford,South Burlington,8357,#8357,University Mall,VT,5401
Hannaford,Rumford,8358,#8358,520 Waldo Street,ME,4276
Hannaford,Queensbury,8360,#8360,190 Quaker Rd,NY,12804
Hannaford,East Greenbush,8361,#8361,592-600 Columbia Tpk,NY,12061
Hannaford,Colonie,8362,#8362,96 Wolf Rd,NY,12205
Hannaford,Amsterdam,8363,#8363,4901 State Highway,NY,12010
Hannaford,Valatie,8364,#8364,2967 Route 9,NY,12184
Hannaford,Clifton Park,8365,#8365,9 Clifton County Road,NY,12065
Hannaford,Herkimer,8366,#8366,401 East Albany St,NY,13350
Hannaford,Albany,8367,#8367,900 Central Ave.,NY,12206
Hannaford,La Grangeville,8368,#8368,152 Stringham Road,NY,12540
Hannaford,New Hartford,8370,#8370,50 Kellogg Road,NY,13413
Hannaford,Utica,8372,#8372,1122 Mohawk Street,NY,13501
Hannaford,Dover,8373,#8373,833 Central Ave,NH,3820
Hannaford,Glens Falls,8374,#8374,175 Broad St,NY,12801
Hannaford,Red Hook,8375,#8375,35 Hannaford Drive,NY,12571
Hannaford,Glenville,8376,#8376,262 Saratoga Rd,NY,12302
Hannaford,Gloversville,8377,#8377,235 Fifth Ave Ext.,NY,12078
Hannaford,South Glens Falls,8380,#8380,27-41 Gansevoort Rd,NY,12803
Hannaford,Easton,8382,#8382,25 Robert Drive,MA,2375
Hannaford,Taunton,8383,#8383,255 Joseph E. Warner,MA,2780
Hannaford,York,8384,#8384,440 Route #1,ME,3909
Hannaford,Athol,8385,#8385,150 New Athol Rd,MA,1331
Hannaford,Latham,8386,#8386,579 Troy Schenectady,NY,12110
Hannaford,South Portland,8387,#8387,Hannaford Plaza,ME,4106
Hannaford,Lunenburg,8388,#8388,333 Mass Ave,MA,1462
Hannaford,Wells,8389,#8389,Rr 3 Box 422-2,ME,4090
Hannaford,Sanford,8390,#8390,800 Main St.,ME,4073
Hannaford,Saratoga Springs,8391,#8391,95 Weibel Ave,NY,12866
Hannaford,Wynantskill,8392,#8392,40 Main Street,NY,12198
Hannaford,Altamont,8393,#8393,5239 Western Trnpike,NY,12009
Hannaford,Ballston Spa,8394,#8394,11 Trieble Ave,NY,12020
Hannaford,Hudson Falls,8395,#8395,3758 Burgoyne Avenue,NY,12839
Hannaford,Niskayuna,8396,#8396,3333 Consaul Rd,NY,12309
Hannaford,Brattleboro,8397,#8397,896 Putney Rd,VT,5301
Hannaford,Williston,8398,#8398,78 Marshall Avenue,VT,5495
Hannaford,Gilford,8402,#8402,1425 Lake Shore Road,NH,3249
Hannaford,Kennebunk,8403,#8403,65 Portland Road,ME,4043
Hannaford,COLUMBIA,8407,#8407,372 US HWY 1,ME,4623
Hannaford,Swanton,8408,#8408,139 First Street,VT,5488
Hannaford,Brandon,8409,#8409,71 Supermarket Drive,VT,5733
Hannaford,Naples,8411,#8411,639 Roosevelt Trail,ME,4055
Hannaford,Lake Placid,8413,#8413,45 Hadjis Way,NY,12946
Hannaford,Cairo,8415,#8415,223 Main Street,NY,12413
Hannaford,Hudson,8416,#8416,32 Route 82,NY,12534
Hannaford,Hampden,8417,#8417,77 Western Ave,ME,4444
Hannaford,MILO,8421,#8421,55 PARK STREET,ME,4463
Hannaford,GLEN,8422,#8422,PO BOX 213,NH,3838
Hannaford,Gray,8423,#8423,PO Box 780,ME,4039
Hannaford,Dover Foxcroft,8424,#8424,22 North Street,ME,4426
Hannaford,HINESBURG,8425,#8425,10681 ROUTE 116,VT,5461
Hannaford,Bradford,8426,#8426,586 Lower Plain,VT,5033
Hannaford,Walden,8427,#8427,76 Oak Street,NY,12586
Hannaford,Turner,8428,#8428,23 Snell Hill Road,ME,4282
Hannaford,WOLFEBORO,8429,#8429,60 SOUTH MAIN STREET,NH,3894
Hannaford,Buxton,8430,#8430,235 Parker Farm Road,ME,4093
Hannaford,Bingham,8431,#8431,65 Main Street,ME,4920
Hannaford,Exeter,8435,#8435,141 Portsmouth Ave,NH,3833
Hannaford,CORINTH,8802,#8802,689 MAIN STREET,ME,4427
Hannaford,Hermon,8803,#8803,2402 Route 2,ME,4401
Hannaford,Old Orchard Beach,8804,#8804,2 Cascade Rd,ME,4064
