keywords,city,Aggdata Store Number,store_number,address,state,zip_code
Harbor Freight Tools,LEXINGTON,1,1,1301 WINCHESTER RD #213,KY,40505
Harbor Freight Tools,LANCASTER,2,2,"2330 MALL LP RD., STE 101",CA,93536
Harbor Freight Tools,SANTA MARIA,3,3,1460 S BROADWAY ST,CA,93454
Harbor Freight Tools,VISALIA,4,4,1835 S MOONEY BLVD,CA,93277
Harbor Freight Tools,BAKERSFIELD,5,5,3745 ROSEDALE HWY,CA,93308
Harbor Freight Tools,HESPERIA,6,6,11940 HESPERIA RD,CA,92345
Harbor Freight Tools,FRESNO,7,7,1349 N BLACKSTONE AVE,CA,93703
Harbor Freight Tools,ESCONDIDO,8,8,"1350 W MISSION RD, STE B",CA,92029
Harbor Freight Tools,SALINAS,9,9,117 ABBOTT ST,CA,93901
Harbor Freight Tools,CAMARILLO,10,10,3491 MISSION OAKS BLVD,CA,93010
Harbor Freight Tools,STOCKTON,11,11,1120 E WATERLOO RD #4,CA,95205
Harbor Freight Tools,GARDEN GROVE,12,12,13691 HARBOR BLVD.,CA,92843
Harbor Freight Tools,LAS VEGAS,13,13,4740 S. DECATUR BLVD.,NV,89103
Harbor Freight Tools,EL CAJON,14,14,1196 E MAIN ST,CA,92021
Harbor Freight Tools,HEMET,15,15,1200 W. FLORIDA AVE,CA,92544
Harbor Freight Tools,MODESTO,16,16,"901 N. CARPENTER RD, #70",CA,95351
Harbor Freight Tools,VALLEJO,17,17,2001 SOLANO AVE,CA,94590
Harbor Freight Tools,CHULA VISTA,18,18,680 L ST,CA,91911
Harbor Freight Tools,SANTA ROSA,19,19,"1201 PINER RD, STE 300",CA,95403
Harbor Freight Tools,ORANGE,20,20,811 SOUTH TUSTIN ST.,CA,92866
Harbor Freight Tools,SACRAMENTO,21,21,5051 FRUITRIDGE RD.,CA,95820
Harbor Freight Tools,SACRAMENTO,22,22,5439 AUBURN BLVD,CA,95841
Harbor Freight Tools,REDDING,23,23,"1175 HARTNELL, SUITE. A",CA,96002
Harbor Freight Tools,RENO,24,24,"3800 KIETZKE LN, STE 150",NV,89502
Harbor Freight Tools,LOUISVILLE,25,25,2249 HIKES LANE,KY,40218
Harbor Freight Tools,RIVERSIDE,26,26,3530 ADAMS ST.,CA,92504
Harbor Freight Tools,LOMITA,27,27,2040 PACIFIC COAST HWY ST,CA,90717
Harbor Freight Tools,SAN BERNARDINO,28,28,"580 INLAND CTR DR, UNIT A",CA,92408
Harbor Freight Tools,WESTMINSTER,29,29,15436 GOLDENWEST ST.,CA,92683
Harbor Freight Tools,BEND,30,30,"61303 S. HIGHWAY 97, #100",OR,97702
Harbor Freight Tools,MONTCLAIR,31,31,"9137 CENTRAL AVE, STE B",CA,91763
Harbor Freight Tools,SIMI VALLEY,32,32,995 E.LOS ANGELES AVE #10,CA,93065
Harbor Freight Tools,PASADENA,33,33,3660 EAST FOOTHILL BLVD.,CA,91107
Harbor Freight Tools,LAKEWOOD,34,34,4171 WOODRUFF AVE.,CA,90713
Harbor Freight Tools,MESA,35,35,1244 S. GILBERT RD  #110,AZ,85204
Harbor Freight Tools,TUCSON,36,36,5570 E. 22ND STREET,AZ,85711
Harbor Freight Tools,PHOENIX,37,37,6135-3 N. 35TH AVE,AZ,85017
Harbor Freight Tools,NEWARK,38,38,39155 CEDAR BLVD.,CA,94560
Harbor Freight Tools,EUGENE,39,39,2165 W. 7TH AVE.,OR,97402
Harbor Freight Tools,MEDFORD,40,40,"1341 CENTER DRIVE, UNIT B",OR,97501
Harbor Freight Tools,SALT LAKE CITY,41,41,3470 S. STATE STREET,UT,84115
Harbor Freight Tools,YUMA,42,42,"101 W. 16TH STREET, STE B",AZ,85364
Harbor Freight Tools,OREM,43,43,155 N. STATE STREET,UT,84057
Harbor Freight Tools,OGDEN,44,44,107 N. HARRISVILLE RD.,UT,84404
Harbor Freight Tools,SALEM,45,45,4675 PORTLAND RD NE #170,OR,97305
Harbor Freight Tools,PORTLAND,46,46,1335 N. MASON ST.,OR,97217
Harbor Freight Tools,SPOKANE VALLEY,47,47,15312 E SPRAGUE AVE #A,WA,99037
Harbor Freight Tools,FORT WORTH,48,48,5268 TRAIL LAKE DRIVE,TX,76133
Harbor Freight Tools,RICHLAND,49,49,305 WELLSIAN WAY,WA,99352
Harbor Freight Tools,LACEY,50,50,"4520 LACEY BLVD SE, #30",WA,98503
Harbor Freight Tools,TACOMA,51,51,5401 6TH AVE #B407,WA,98406
Harbor Freight Tools,EVERETT,52,52,5231 EVERGREEN WAY,WA,98203
Harbor Freight Tools,RICHARDSON,53,53,1704 E BELT LINE ROAD,TX,75081
Harbor Freight Tools,BOISE,54,54,10296 FAIRVIEW AVE.,ID,83704
Harbor Freight Tools,EL PASO,55,55,3333 YARBROUGH DR.,TX,79925
Harbor Freight Tools,ALBUQUERQUE,56,56,11035 MENAUL BLVD. NE,NM,87112
Harbor Freight Tools,SAN ANTONIO,57,57,1803 VANCE JACKSON RD 105,TX,78213
Harbor Freight Tools,COLORADO SPRNGS,58,58,2835 E. FOUNTAIN BLVD.,CO,80910
Harbor Freight Tools,AURORA,59,59,13668 E. ALAMEDA AVE.,CO,80012
Harbor Freight Tools,AUSTIN,60,60,4001 S LAMAR BLVD STE #3,TX,78704
Harbor Freight Tools,LONGVIEW,61,61,2415 GILMER RD.,TX,75604
Harbor Freight Tools,FORT COLLINS,62,62,4414 S COLLEGE AVE UNIT A,CO,80525
Harbor Freight Tools,OKLAHOMA CITY,63,63,5805 W. RENO AVE,OK,73127
Harbor Freight Tools,TULSA,64,64,2160 S. SHERIDAN RD.,OK,74129
Harbor Freight Tools,ODESSA,65,65,3138 ANDREWS HWY,TX,79762
Harbor Freight Tools,WICHITA FALLS,66,66,3923 KELL BLVD,TX,76308
Harbor Freight Tools,ABILENE,67,67,3112 NORTH FIRST STREET,TX,79603
Harbor Freight Tools,PUEBLO,68,68,1801 S. PUEBLO BLVD.,CO,81005
Harbor Freight Tools,WACO,69,69,3902 BOSQUE BLVD SPACE 7,TX,76710
Harbor Freight Tools,LUBBOCK,70,70,3416 I-27,TX,79404
Harbor Freight Tools,CORPUS CHRISTI,71,71,4955 AYERS ST,TX,78415
Harbor Freight Tools,AMARILLO,72,72,1616 I-40 EAST,TX,79103
Harbor Freight Tools,SHREVEPORT,73,73,341 BERT KOUNS INDUSTRIAL,LA,71106
Harbor Freight Tools,TOPEKA,74,74,230 SE 29TH STREET,KS,66605
Harbor Freight Tools,WICHITA,75,75,2487 S. SENECA ST.,KS,67217
Harbor Freight Tools,INDEPENDENCE,76,76,4368 SOUTH NOLAND RD,MO,64055
Harbor Freight Tools,OMAHA,77,77,3120 N. 90TH STREET,NE,68134
Harbor Freight Tools,SAINT LOUIS,78,78,10815 W FLORISSANT AVE,MO,63136
Harbor Freight Tools,JERSEY VILLAGE,79,79,17490 HWY 290,TX,77040
Harbor Freight Tools,LAFAYETTE,80,80,128 ARNOULD BLVD,LA,70506
Harbor Freight Tools,BATON ROUGE,81,81,1821 S SHERWOOD FOREST BL,LA,70816
Harbor Freight Tools,MONTGOMERY,82,82,"2268 EASTERN BLVD, STE A",AL,36117
Harbor Freight Tools,BEAUMONT,83,83,4885 CONCORD RD,TX,77703
Harbor Freight Tools,KNOXVILLE,84,84,4811 N. BROADWAY ST.,TN,37918
Harbor Freight Tools,MEMPHIS,85,85,4506 SUMMER AVE,TN,38122
Harbor Freight Tools,NASHVILLE,86,86,2300 LEBANON PIKE,TN,37214
Harbor Freight Tools,MOBILE,87,87,4693 AIRPORT BLVD.,AL,36608
Harbor Freight Tools,DES MOINES,88,88,1010 EAST ARMY POST RD,IA,50315
Harbor Freight Tools,EVANSVILLE,89,89,1200 N. WILLOW RD STE 201,IN,47711
Harbor Freight Tools,PEARL,90,90,3100 HWY 80 EAST,MS,39208
Harbor Freight Tools,MACON,91,91,1433 EISENHOWER PKWY #M,GA,31206
Harbor Freight Tools,DAVENPORT,92,92,"1010 E KIMBERLY RD, STE 4",IA,52807
Harbor Freight Tools,SPRINGFIELD,93,93,3909 S. CAMPBELL AVE,MO,65807
Harbor Freight Tools,LITTLE ROCK,94,94,5820 ASHER AVE. STE 1,AR,72204
Harbor Freight Tools,BIRMINGHAM,95,95,136 GREEN SPRINGS HWY,AL,35209
Harbor Freight Tools,GREENVILLE,96,96,5 K MART PLZ,SC,29605
Harbor Freight Tools,RALEIGH,97,97,3302 CAPITAL BLVD.,NC,27604
Harbor Freight Tools,ROANOKE,98,98,4142 MELROSE AVE. STE. 7,VA,24017
Harbor Freight Tools,GREENSBORO,99,99,3709 FARMINGTON DRIVE,NC,27407
Harbor Freight Tools,METAIRIE,100,100,6409 AIRLINE DRIVE,LA,70003
Harbor Freight Tools,FAYETTEVILLE,101,101,1330 CLINTON RD.,NC,28301
Harbor Freight Tools,RICHMOND,102,102,6500 HULL ST RD,VA,23224
Harbor Freight Tools,COLUMBIA,103,103,577 SAINT ANDREWS RD,SC,29210
Harbor Freight Tools,CHARLOTTE,104,104,7411 E INDEPENDENCE BL#37,NC,28227
Harbor Freight Tools,POCATELLO,105,105,"4150 YELLOWSTONE AVE, #A",ID,83202
Harbor Freight Tools,CHATTANOOGA,106,106,5839 BRAINERD RD,TN,37411
Harbor Freight Tools,JACKSONVILLE,107,107,9861 BEACH BLVD.,FL,32246
Harbor Freight Tools,CASSELBERRY,108,108,"1442 SR 436, UNIT 1040",FL,32707
Harbor Freight Tools,NORFOLK,109,109,"415 N MILITARY HWY, STE 4",VA,23502
Harbor Freight Tools,KENNESAW,110,110,4290 BELLS FERRY RD NW,GA,30144
Harbor Freight Tools,FORT WAYNE,111,111,3927 E STATE BLVD,IN,46805
Harbor Freight Tools,CHARLESTON,112,112,915 CROSS LANES DR.,WV,25313
Harbor Freight Tools,MISHAWAKA,113,113,2556 MIRACLE LANE,IN,46545
Harbor Freight Tools,LOVES PARK,114,114,5902 N. SECOND ST,IL,61111
Harbor Freight Tools,OCALA,115,115,3428 E SILVER SPGS BLVD,FL,34470
Harbor Freight Tools,INDIANAPOLIS,116,116,"4200 S EAST ST, STE 12A",IN,46227
Harbor Freight Tools,TOLEDO,117,117,2563 S. REYNOLDS RD,OH,43614
Harbor Freight Tools,HUNTSVILLE,118,118,4321 UNIVERSITY DR NW #C,AL,35816
Harbor Freight Tools,COLUMBUS,119,119,2441 E. DUBLIN-GRANVILLE,OH,43229
Harbor Freight Tools,DILLON,120,120,224 HARBOR FREIGHT RD,SC,29536
Harbor Freight Tools,AKRON,121,121,3333 MANCHESTER RD STE 18,OH,44319
Harbor Freight Tools,CINCINNATI,122,122,5710 HARRISON AVE,OH,45248
Harbor Freight Tools,AUSTINTOWN,123,123,6000 MAHONING AVE STE 20,OH,44515
Harbor Freight Tools,FORT MYERS,124,124,9131 COLLEGE PKWY STE 165,FL,33919
Harbor Freight Tools,DAYTON,125,125,1941 NEEDMORE RD.,OH,45414
Harbor Freight Tools,AURORA,126,126,904 N LAKE ST,IL,60506
Harbor Freight Tools,EAST PEORIA,127,127,107 N. MAIN ST.,IL,61611
Harbor Freight Tools,PALM SPRINGS,128,128,3335 S. CONGRESS AVE #7,FL,33461
Harbor Freight Tools,N CHARLESTON,129,129,5054 DORCHESTER RD.,SC,29418
Harbor Freight Tools,PARMA HEIGHTS,130,130,6272 PEARL ROAD,OH,44130
Harbor Freight Tools,CUTLER BAY,131,131,18517 SOUTH DIXIE HWY,FL,33157
Harbor Freight Tools,GREEN BAY,132,132,1301 BROSIG ST,WI,54311
Harbor Freight Tools,MELBOURNE,133,133,1964 N. WICKHAM ROAD,FL,32935
Harbor Freight Tools,ARLINGTON HEIGH,134,134,940 W DUNDEE RD,IL,60004
Harbor Freight Tools,MADISON,135,135,4617 VERONA ROAD,WI,53711
Harbor Freight Tools,FARGO,136,136,"3207 MAIN AVENUE, UNIT C",ND,58103
Harbor Freight Tools,MINNEAPOLIS,137,137,725 45TH AVE NE,MN,55421
Harbor Freight Tools,SAVANNAH,138,138,12313 LARGO DRIVE,GA,31419
Harbor Freight Tools,DICKSON CITY,139,139,1011 COMMERCE BLVD,PA,18519
Harbor Freight Tools,HARRISBURG,140,140,851 EISENHOWER BLVD.,PA,17111
Harbor Freight Tools,TAMPA,141,141,154 W. FLETCHER AVE,FL,33612
Harbor Freight Tools,SAINT FRANCIS,142,142,4698 S WHITNALL AVE STE 1,WI,53235
Harbor Freight Tools,FLINT,143,143,4333 MILLER RD,MI,48507
Harbor Freight Tools,SARASOTA,144,144,3532 CLARK ROAD,FL,34231
Harbor Freight Tools,SOUTHGATE,145,145,14437 EUREKA ROAD,MI,48195
Harbor Freight Tools,MARGATE,146,146,5365 WEST ATLANTIC BLVD,FL,33063
Harbor Freight Tools,AMHERST,147,147,1459 NIAGARA FALLS BLVD,NY,14228
Harbor Freight Tools,LILBURN,148,148,4805LAWRENCEVILLEHWYNW280,GA,30047
Harbor Freight Tools,ROCHESTER,149,149,1040 E. RIDGE ROAD,NY,14621
Harbor Freight Tools,LAKELAND,150,150,5115 US HWY 98 N.,FL,33809
Harbor Freight Tools,ALLENTOWN,151,151,4628 BROADWAY,PA,18104
Harbor Freight Tools,WYOMING,152,152,950 28TH ST SW,MI,49509
Harbor Freight Tools,CLINTON TOWNSHP,153,153,34900 GROESBECK HWY,MI,48035
Harbor Freight Tools,SYRACUSE,154,154,"709 N. MAIN ST., STE 2B",NY,13212
Harbor Freight Tools,SPRINGFIELD,155,155,711 W. JEFFERSON ST.,IL,62702
Harbor Freight Tools,GRAND CHUTE,156,156,3325 WEST COLLEGE AVE,WI,54914
Harbor Freight Tools,LANSING,157,157,4832 W SAGINAW HWY STE 2,MI,48917
Harbor Freight Tools,ERIE,158,158,3508 LIBERTY STREET,PA,16508
Harbor Freight Tools,LANCASTER,159,159,2090 LINCOLN HWY E.,PA,17602
Harbor Freight Tools,CANTON,160,160,2901 WHIPPLE AVE NW,OH,44708
Harbor Freight Tools,WOODBRIDGE,161,161,14250 SMOKETOWN RD,VA,22192
Harbor Freight Tools,READING,162,162,"3225 NORTH 5TH ST, STE 18",PA,19605
Harbor Freight Tools,STUART,163,163,3424 SE FEDERAL HWY,FL,34997
Harbor Freight Tools,YORK,164,164,2460 E. MARKET ST.,PA,17402
Harbor Freight Tools,LARGO,165,165,3665 EAST BAY DR STE#160,FL,33771
Harbor Freight Tools,PARKVILLE,166,166,8884 WALTHAM WOODS RD,MD,21234
Harbor Freight Tools,IRVING,167,167,1735 N. STORY RD. #136,TX,75061
Harbor Freight Tools,GLENDALE,168,168,"4925 W. BELL RD, STE C8",AZ,85308
Harbor Freight Tools,GRESHAM,169,169,2950 NE HOGAN DR,OR,97030
Harbor Freight Tools,YPSILANTI,170,170,2399 ELLSWORTH RD,MI,48197
Harbor Freight Tools,WESTMINSTER,171,171,8601 SHERIDAN BLVD #300,CO,80003
Harbor Freight Tools,COLLEGE STATION,172,172,"2408 TEXAS AVE S., STE A",TX,77840
Harbor Freight Tools,YORKVILLE,173,173,5127 COMMERCIAL DRIVE,NY,13495
Harbor Freight Tools,CLIFTON,174,174,3210 I-70 BUSINESS LOOP,CO,81520
Harbor Freight Tools,LAUREL,175,175,338 DOMER AVE,MD,20707
Harbor Freight Tools,NORRISTOWN,176,176,2856 DEKALB PIKE,PA,19401
Harbor Freight Tools,GAITHERSBURG,177,177,9649 LOST KNIFE RD,MD,20877
Harbor Freight Tools,SCHERERVILLE,178,178,1650 INDIANAPOLIS BLVD #B,IN,46375
Harbor Freight Tools,LAS VEGAS,179,179,"3550 E. SUNSET RD, STE B",NV,89120
Harbor Freight Tools,COLUMBUS,180,180,"4608 W BROAD ST, STE B",OH,43228
Harbor Freight Tools,GLEN BURNIE,181,181,"6320 RITCHIE HWY, STE 3",MD,21061
Harbor Freight Tools,SHARON HILL,182,182,1112 CHESTER PIKE,PA,19079
Harbor Freight Tools,SPRINGDALE,183,183,"5320 W. SUNSET AVE, #186",AR,72762
Harbor Freight Tools,CINCINNATI,184,184,8590 BEECHMONT AVE.,OH,45255
Harbor Freight Tools,TEXARKANA,185,185,2729 NEW BOSTON RD  #62,TX,75501
Harbor Freight Tools,SHAWNEE,186,186,11219 SHAWNEE MISSION PKW,KS,66203
Harbor Freight Tools,BURBANK,187,187,7600 S. LA CROSSE AVE,IL,60459
Harbor Freight Tools,SAGINAW,188,188,4410 BAY ROAD,MI,48603
Harbor Freight Tools,ORLANDO,189,189,7089 S. ORANGE BLOSSOM TR,FL,32809
Harbor Freight Tools,KENT,190,190,18128 EAST VALLEY HWY,WA,98032
Harbor Freight Tools,PENSACOLA,191,191,2 EAST NINE MILE RD STE 6,FL,32534
Harbor Freight Tools,JOHNSON CITY,192,192,"3302 W. MARKET ST., STE 5",TN,37604
Harbor Freight Tools,PASADENA,193,193,6800A SPENCER HWY,TX,77505
Harbor Freight Tools,SAINT LOUIS,194,194,9901 WATSON RD STE 133,MO,63126
Harbor Freight Tools,FORT SMITH,195,195,3400 ROGERS AVE STE 100,AR,72903
Harbor Freight Tools,ALBANY,196,196,"1770 CENTRAL AVE, STE 4",NY,12205
Harbor Freight Tools,ALEXANDRIA,197,197,1804 MACARTHUR DR STE 530,LA,71301
Harbor Freight Tools,AUSTIN,198,198,"2500 W. PARMER LN, STE B",TX,78727
Harbor Freight Tools,BRICK,199,199,"2770 HOOPER AVE, STE 1",NJ,8723
Harbor Freight Tools,VENTURA,200,200,1425 S VICTORIA AVE STE B,CA,93003
Harbor Freight Tools,VINELAND,201,201,20 WEST PARK AVE,NJ,8360
Harbor Freight Tools,EASTLAKE,202,202,34600 VINE ST.,OH,44095
Harbor Freight Tools,GREELEY,203,203,2430 W. 10TH ST.,CO,80634
Harbor Freight Tools,CHICO,204,204,"130 W. EAST AVE, STE A",CA,95926
Harbor Freight Tools,ARCATA,205,205,5000 VALLEY WEST BLVD #14,CA,95521
Harbor Freight Tools,NEWARK,206,206,61 UNIVERSITY PLAZA,DE,19702
Harbor Freight Tools,BILLINGS,207,207,"1400 GRAND AVE, STE B",MT,59102
Harbor Freight Tools,WINSTON SALEM,208,208,2658 PETERS CREEK PKWY,NC,27127
Harbor Freight Tools,AUGUSTA,209,209,"3435 WRIGHTSBORO RD,#1020",GA,30909
Harbor Freight Tools,PONTIAC,210,210,600 N TELEGRAPH RD #200,MI,48341
Harbor Freight Tools,MIAMISBURG,211,211,"2741 LYONS RD, STE A",OH,45342
Harbor Freight Tools,SAINT PAUL,212,212,9 SIGNAL HILLS CENTER,MN,55118
Harbor Freight Tools,JACKSONVILLE,213,213,"8102 BLANDING BLVD., 27A",FL,32244
Harbor Freight Tools,CLARKSVILLE,214,214,"668 N.RIVERSIDE DR,STE C7",TN,37040
Harbor Freight Tools,PHILADELPHIA,215,215,151 FRANKLIN MILLS BLVD.,PA,19154
Harbor Freight Tools,PLEASANT HILLS,216,216,"639 CLAIRTON BLVD., STE A",PA,15236
Harbor Freight Tools,WOODLAND HILLS,217,217,22912 VICTORY BLVD.,CA,91367
Harbor Freight Tools,TEMPE,218,218,1860E. WARNER RD #103,AZ,85284
Harbor Freight Tools,ROTHSCHILD,219,219,1029 E GRAND AVE #1031,WI,54474
Harbor Freight Tools,WILMINGTON,220,220,2636 CAROLINA BEACH RD,NC,28412
Harbor Freight Tools,MANSFIELD,221,221,526 LEXINGTON SPRINGMILL,OH,44906
Harbor Freight Tools,MUNCIE,222,222,1413 W.MCGALLIARD RD #4,IN,47304
Harbor Freight Tools,ASHEVILLE,223,223,1900 HENDERSONVILLE RD 20,NC,28803
Harbor Freight Tools,INDIANAPOLIS,224,224,5703 EAST 86TH ST.,IN,46250
Harbor Freight Tools,MCALLEN,225,225,2614 N 10TH ST,TX,78501
Harbor Freight Tools,OCEANSIDE,226,226,316 N. HORNE ST,CA,92054
Harbor Freight Tools,LYNCHBURG,227,227,7621 TIMBERLAKE RD,VA,24502
Harbor Freight Tools,DAYTONA BEACH,228,228,874 N. NOVA RD.,FL,32117
Harbor Freight Tools,TERRE HAUTE,229,229,1800 FORT HARRISON RD,IN,47804
Harbor Freight Tools,LITTLETON,230,230,10251 W BOWLES AVE STE A,CO,80127
Harbor Freight Tools,CEREDO,231,231,"PO BOX 370, 283 W 4TH ST",WV,25507
Harbor Freight Tools,VIENNA,232,232,2649 GRAND CENTRAL AVE,WV,26105
Harbor Freight Tools,ROCHESTER,233,233,3333 W HENRIETTA RD #400,NY,14623
Harbor Freight Tools,KOKOMO,234,234,2943 S. WASHINGTON ST. #3,IN,46902
Harbor Freight Tools,WESTLAND,235,235,34600 WARREN RD,MI,48185
Harbor Freight Tools,LAS CRUCES,236,236,150 W. PICACHO AVE,NM,88005
Harbor Freight Tools,SADDLE BROOK,237,237,441 MARKET ST,NJ,7663
Harbor Freight Tools,TALLAHASSEE,238,238,1205 APALACHEE PKWY #240,FL,32301
Harbor Freight Tools,SALINA,239,239,1808 S. 9TH ST,KS,67401
Harbor Freight Tools,PINEVILLE,240,240,"601 N. POLK ST, STE J",NC,28134
Harbor Freight Tools,FRESNO,241,241,4486 W. SHAW AVE,CA,93722
Harbor Freight Tools,COLUMBIA,242,242,"601 BUSINESS LP 70 W,#276",MO,65203
Harbor Freight Tools,MILWAUKIE,243,243,15800 SE MCLOUGHLIN BLVD,OR,97267
Harbor Freight Tools,NEWPORT NEWS,244,244,"11969 JEFFERSON AVE, #B",VA,23606
Harbor Freight Tools,CHEEKTOWAGA,245,245,3901 UNION RD,NY,14225
Harbor Freight Tools,VICTORIA,246,246,3605 N. NAVARRO ST.,TX,77901
Harbor Freight Tools,LAKE CHARLES,247,247,3250 GERTSNER MEMORIAL DR,LA,70601
Harbor Freight Tools,TEMPLE,248,248,"2603 THORNTON LN, STE 10",TX,76502
Harbor Freight Tools,LIMA,249,249,"2100 HARDING HWY, STE 21",OH,45804
Harbor Freight Tools,ALTOONA,250,250,245 PARK HILLS PLAZA,PA,16602
Harbor Freight Tools,NORMAN,251,251,"151 12TH AVE SE, STE 160",OK,73071
Harbor Freight Tools,APACHE JUNCTION,252,252,"10603 E. MAIN STE., #109",AZ,85120
Harbor Freight Tools,EAU CLAIRE,253,253,2615 LONDON RD. STE A,WI,54701
Harbor Freight Tools,HOUSTON,254,254,10826 NORTH FREEWAY,TX,77037
Harbor Freight Tools,VANCOUVER,255,255,7809B NE VANCOUVER PLAZA,WA,98662
Harbor Freight Tools,NEW PORT RICHEY,256,256,6435 US HWY 19,FL,34652
Harbor Freight Tools,BROWNSVILLE,257,257,"1601 E. PRICE RD, STE I",TX,78521
Harbor Freight Tools,CEDAR RAPIDS,258,258,3750 WILLIAMS BLVD SW#500,IA,52404
Harbor Freight Tools,SAN ANTONIO,259,259,5464 WALZEM RD,TX,78218
Harbor Freight Tools,WARWICK,260,260,"1245 BALD HILL RD, STE 25",RI,2886
Harbor Freight Tools,WYOMING,261,261,1074 WYOMING AVE,PA,18644
Harbor Freight Tools,CLARKSVILLE,262,262,746 E LEWIS & CLARK PKWY,IN,47129
Harbor Freight Tools,LINCOLN,263,263,1940 CORNHUSKER HWY,NE,68521
Harbor Freight Tools,FLORENCE,264,264,937 SOUTH IRBY ST,SC,29501
Harbor Freight Tools,KALAMAZOO,265,265,4600 STADIUM DRIVE,MI,49008
Harbor Freight Tools,SIOUX CITY,266,266,4271 SERGEANT RD.,IA,51106
Harbor Freight Tools,NORTH RICHLAND,267,267,7523 BOULEVARD 26,TX,76180
Harbor Freight Tools,PLEASANT HILL,268,268,535 CONTRA COSTA BLVD,CA,94523
Harbor Freight Tools,WINTERVILLE,269,269,"2323 ELAINES WAY, STE A",NC,28590
Harbor Freight Tools,ANTIOCH,270,270,5211 HICKORYHOLLOWPKY#101,TN,37013
Harbor Freight Tools,DULUTH,271,271,5115 BURNING TREE RD #201,MN,55811
Harbor Freight Tools,GRETNA,272,272,5 WESTSIDE SHOPPING CTR N,LA,70053
Harbor Freight Tools,W. SPRINGFIELD,273,273,1150 UNION STREET EXT # B,MA,1089
Harbor Freight Tools,MASON,274,274,"1065 READING RD,STE B1",OH,45040
Harbor Freight Tools,BILOXI,275,275,290 EISENHOWER DR.,MS,39531
Harbor Freight Tools,JACKSONVILLE,276,276,110 WESTERN BLVD,NC,28546
Harbor Freight Tools,PITTSBURGH,277,277,5185 CAMPBELLS RUN RD,PA,15205
Harbor Freight Tools,PORTLAND,278,278,10270 SW PARK WAY,OR,97225
Harbor Freight Tools,BELLEVUE,279,279,"14506 NE 20TH ST, STE 1",WA,98007
Harbor Freight Tools,WEST ALLIS,280,280,6808 W. GREENFIELD AVE,WI,53214
Harbor Freight Tools,EWING,281,281,1550 NORTH OLDEN AVE,NJ,8638
Harbor Freight Tools,PEMBROKE PINES,282,282,1710 N UNIVERSITY DR,FL,33024
Harbor Freight Tools,VALRICO,283,283,3234 LITHIA PINECREST RD,FL,33596
Harbor Freight Tools,ROCKLIN,284,284,6860 FIVE STAR BLVD,CA,95677
Harbor Freight Tools,JOPLIN,285,285,825 S. RANGE LINE RD,MO,64801
Harbor Freight Tools,JONESBORO,286,286,2111 E. PARKER RD,AR,72404
Harbor Freight Tools,JACKSON,287,287,581 OLD HICKORY BLVD,TN,38305
Harbor Freight Tools,JOHNSTOWN,288,288,830 SCALP AVE,PA,15904
Harbor Freight Tools,TUPELO,289,289,2605 W MAIN ST # C,MS,38801
Harbor Freight Tools,URBANA,290,290,1508 N CUNNINGHAM AVE,IL,61802
Harbor Freight Tools,MONROEVILLE,291,291,374 MALL CIRCLE DR,PA,15146
Harbor Freight Tools,WEST JORDAN,292,292,7046 S REDWOOD RD STE B,UT,84084
Harbor Freight Tools,ISELIN,293,293,675 US HIGHWAY 1 S STE 15,NJ,8830
Harbor Freight Tools,VALDOSTA,294,294,3111 N OAK STREET EXT #B,GA,31602
Harbor Freight Tools,LOMBARD,295,295,225 W ROOSEVELT RD,IL,60148
Harbor Freight Tools,SPOKANE,296,296,6506 N NEVADA ST # 300,WA,99208
Harbor Freight Tools,SAN ANGELO,297,297,3590 KNICKERBOCKER RD,TX,76904
Harbor Freight Tools,FALL RIVER,298,298,35 MARIANO BISHOP BLVD,MA,2721
Harbor Freight Tools,KANNAPOLIS,299,299,1034 CLOVERLEAF PLAZA,NC,28083
Harbor Freight Tools,DURHAM,300,300,2000 AVONDALE DR STE 104,NC,27704
Harbor Freight Tools,PADUCAH,301,301,509 LONE OAK RD,KY,42003
Harbor Freight Tools,TUCSON,302,302,3970 W INA RD,AZ,85741
Harbor Freight Tools,BOWLING GREEN,303,303,660 US 31W BYP STE B,KY,42101
Harbor Freight Tools,SAINT CHARLES,304,304,3803 MEXICO RD,MO,63303
Harbor Freight Tools,FLORENCE,305,305,7816 CONNECTOR DR,KY,41042
Harbor Freight Tools,BERLIN,306,306,179 WEBSTER SQUARE RD,CT,6037
Harbor Freight Tools,WORCESTER,307,307,50 MILL ST,MA,1603
Harbor Freight Tools,BATTLE CREEK,308,308,30 SOUTH 20TH ST,MI,49015
Harbor Freight Tools,PHOENIX,309,309,3329 EAST BELL RD STE 9,AZ,85032
Harbor Freight Tools,CARSON CITY,310,310,2749 N CARSON ST STE 150,NV,89706
Harbor Freight Tools,DUNCANVILLE,311,311,303 WEST CAMP WISDOM ROAD,TX,75116
Harbor Freight Tools,SOUTH ATTLEBORO,312,312,287 WASHINGTON ST STE 6,MA,2703
Harbor Freight Tools,DANVILLE,313,313,126 SANDY CT STE D,VA,24541
Harbor Freight Tools,CASPER,314,314,4150 S POPLAR ST,WY,82601
Harbor Freight Tools,DOVER,315,315,1606 S GOVERNORS AVE,DE,19904
Harbor Freight Tools,DELRAY BEACH,316,316,5858 W ATLANTIC AVE # 143,FL,33484
Harbor Freight Tools,MESQUITE,317,317,1220 N TOWN EAST BLVD,TX,75150
Harbor Freight Tools,CARROLLTON,318,318,3050 N JOSEY LN STE 106,TX,75007
Harbor Freight Tools,SPARTANBURG,319,319,1440 W.O.EZELL BLVD #700,SC,29301
Harbor Freight Tools,FORT GRATIOT,320,320,4035 24TH AVENUE,MI,48059
Harbor Freight Tools,VERNON,321,321,35 TALCOTTVILLE RD STE 14,CT,6066
Harbor Freight Tools,FREDERICKSBURG,322,322,2011 PLANK RD,VA,22401
Harbor Freight Tools,SUGAR LAND,323,323,4325 HIGHWAY 6,TX,77478
Harbor Freight Tools,LUFKIN,324,324,3043 S JOHN REDDITT DR,TX,75904
Harbor Freight Tools,GAINESVILLE,325,325,2360 N MAIN ST,FL,32609
Harbor Freight Tools,EGG HARBOR TWP,326,326,6701 BLACK HORSE PIKE A10,NJ,8234
Harbor Freight Tools,DOTHAN,327,327,2821 REEVES ST,AL,36303
Harbor Freight Tools,WILLIAMSPORT,328,328,2062 LYCOMING CREEK RD ST,PA,17701
Harbor Freight Tools,POTTSVILLE,329,329,7102 FAIRLANE VILLAGE MAL,PA,17901
Harbor Freight Tools,MISSOULA,330,330,2230 N RESERVE ST STE 320,MT,59808
Harbor Freight Tools,ATHENS,331,331,1850 EPPS BRIDGE PKWY,GA,30606
Harbor Freight Tools,IDAHO FALLS,332,332,999 EAST 17TH ST,ID,83404
Harbor Freight Tools,TWIN FALLS,333,333,1414 POLE LINE RD E,ID,83301
Harbor Freight Tools,WATERTOWN,334,334,20839 ARSENAL STREET RD,NY,13601
Harbor Freight Tools,N MYRTLE BEACH,335,335,851 HIGHWAY 17 S,SC,29582
Harbor Freight Tools,SLIDELL,336,336,1555 GAUSE BLVD STE A,LA,70458
Harbor Freight Tools,HEMPSTEAD,337,337,270 PENINSULA BLVD,NY,11550
Harbor Freight Tools,AMHERST,338,338,123 STATE ROUTE 101A,NH,3031
Harbor Freight Tools,BELLINGHAM,339,339,1155 E SUNSET DR STE 118,WA,98226
Harbor Freight Tools,POUGHKEEPSIE,340,340,2530 SOUTH ROAD,NY,12601
Harbor Freight Tools,ORANGE,341,341,150 BOSTON POST RD STE 1,CT,6477
Harbor Freight Tools,NATICK,342,342,321 SPEEN ST STE 3A,MA,1760
Harbor Freight Tools,NORTH BERGEN,343,343,2100 88TH ST,NJ,7047
Harbor Freight Tools,DOWNINGTOWN,344,344,12 QUARRY RD UNIT G2,PA,19335
Harbor Freight Tools,DANVERS,345,345,4 NEWBURY ST SPC B,MA,1923
Harbor Freight Tools,HIALEAH,346,346,410 W 49TH ST STE 104,FL,33012
Harbor Freight Tools,BAY SHORE,347,347,1851 SUNRISE HWY STE 12,NY,11706
Harbor Freight Tools,SAN DIEGO,348,348,8400 MIRAMAR RD STE 140,CA,92126
Harbor Freight Tools,SANTA CLARA,349,349,5241 STEVENS CREEK BLVD,CA,95051
Harbor Freight Tools,DOUGLASVILLE,350,350,7424 DOUGLAS BLVD,GA,30135
Harbor Freight Tools,BRAINTREE,351,351,727 GRANITE ST,MA,2184
Harbor Freight Tools,FAYETTEVILLE,352,352,1415 HIGHWAY 85 N STE 200,GA,30214
Harbor Freight Tools,BIRMINGHAM,353,353,9120 PARKWAY E STE A,AL,35206
Harbor Freight Tools,APOPKA,354,354,1045 W ORANGE BLOSSOM TRL,FL,32712
Harbor Freight Tools,VESTAL,355,355,124 SYCAMORE ST,NY,13850
Harbor Freight Tools,OSHKOSH,356,356,1620 SOUTH KOELLER ST,WI,54902
Harbor Freight Tools,ARLINGTON,357,357,1102 W ARBROOK BLVD # 104,TX,76015
Harbor Freight Tools,RACINE,358,358,2380 SOUTH GREEN BAY ROAD,WI,53406
Harbor Freight Tools,ROCHESTER,359,359,4200 HIGHWAY 52 N,MN,55901
Harbor Freight Tools,LAWTON,360,360,3801 NW CACHE RD STE 44,OK,73505
Harbor Freight Tools,FAIRFIELD,361,361,1595 HOLIDAY LN STE C,CA,94534
Harbor Freight Tools,SAN JOSE,362,362,934 BLOSSOM HILL ROAD,CA,95123
Harbor Freight Tools,LOGAN,363,363,17 EAST 1400 NORTH,UT,84341
Harbor Freight Tools,DUNWOODY,364,364,4776 ASHFORD DUNWOODY RD,GA,30338
Harbor Freight Tools,MIDDLETOWN,365,365,88 DUNNING RD STE 30,NY,10940
Harbor Freight Tools,ORANGE CITY,366,366,2401 ENTERPRISE ROAD,FL,32763
Harbor Freight Tools,BROOKFIELD,367,367,99 FEDERAL ROAD,CT,6804
Harbor Freight Tools,COMMACK,368,368,116 VETERANS MEMORIAL HWY,NY,11725
Harbor Freight Tools,GASTONIA,369,369,2651 E FRANKLIN BLVD,NC,28056
Harbor Freight Tools,FAIRVIEW HEIGHT,370,370,10709 LINCOLN TRAIL,IL,62208
Harbor Freight Tools,SAN ANTONIO,371,371,181 SW MILITARY DRIVE,TX,78221
Harbor Freight Tools,PEARLAND,372,372,3235 BROADWAY ST,TX,77581
Harbor Freight Tools,HUNTINGTON PARK,373,373,5952 PACIFIC BLVD,CA,90255
Harbor Freight Tools,NORTH HOLLYWOOD,374,374,6020 LANKERSHIM BLVD,CA,91606
Harbor Freight Tools,HUNTINGTON STA,375,375,301 W JERICHO TURNPIKE,NY,11746
Harbor Freight Tools,CENTEREACH,376,376,1932 MIDDLE COUNTRY ROAD,NY,11720
Harbor Freight Tools,SEATTLE,377,377,6205 CORSON AVENUE SOUTH,WA,98108
Harbor Freight Tools,HOUSTON,378,378,1000 FEDERAL ROAD,TX,77015
Harbor Freight Tools,LAS VEGAS,379,379,2240 S NELLIS BLVD,NV,89104
Harbor Freight Tools,MORENO VALLEY,380,380,23689 SUNNYMEAD BLVD,CA,92553
Harbor Freight Tools,EAST BRUNSWICK,381,381,275 STATE ROUTE 18 STE 1,NJ,8816
Harbor Freight Tools,SACRAMENTO,383,383,2361 NORTHGATE BLVD,CA,95833
Harbor Freight Tools,FONTANA,384,384,8933 SIERRA AVE STE A1,CA,92335
Harbor Freight Tools,DENTON,385,385,2231 S LOOP 288 STE 131,TX,76205
Harbor Freight Tools,SAN RAFAEL,386,386,863 EAST FRANCISCO BLVD,CA,94901
Harbor Freight Tools,NEW HAVEN,387,387,84 WHALLEY AVENUE,CT,6511
Harbor Freight Tools,KANSAS CITY,388,388,395 NW BARRY ROAD,MO,64155
Harbor Freight Tools,CLIFTON,389,389,1016 MAIN AVENUE,NJ,7011
Harbor Freight Tools,BRONX,390,390,2441 BOSTON ROAD,NY,10467
Harbor Freight Tools,AVONDALE,391,391,1450 N DYSART RD STE B4,AZ,85323
Harbor Freight Tools,FEDERAL WAY,392,392,31858 PACIFIC HWY SOUTH,WA,98003
Harbor Freight Tools,GREEN BROOK,393,393,270 US HIGHWAY 22,NJ,8812
Harbor Freight Tools,LAKEWOOD,394,394,10750 W COLFAX AVE,CO,80215
Harbor Freight Tools,UNION,395,395,2438 US HIGHWAY 22 E,NJ,7083
Harbor Freight Tools,WATERBURY,396,396,650 WOLCOTT ST STE 1,CT,6705
Harbor Freight Tools,PENNSAUKEN,397,397,5247 MARLTON PIKE,NJ,8109
Harbor Freight Tools,BRIDGEPORT,398,398,345 HUNTINGTON TURNPIKE,CT,6610
Harbor Freight Tools,KENNETH CITY,399,399,4438 66TH ST N,FL,33709
Harbor Freight Tools,CHICAGO,400,400,6420 W FULLERTON AVE,IL,60707
Harbor Freight Tools,DOWNEY,401,401,12056 LAKEWOOD BLVD,CA,90242
Harbor Freight Tools,ALBUQUERQUE,402,402,10131 COORS BLVD NW,NM,87114
Harbor Freight Tools,BROOKLYN,403,403,435 HAMILTON AVE,NY,11232
Harbor Freight Tools,COVINA,404,404,440 W. ARROW HIGHWAY,CA,91722
Harbor Freight Tools,MEDFORD,405,405,30 COMMERCIAL ST,MA,2155
Harbor Freight Tools,SOUTHAVEN,406,406,725 GOODMAN ROAD,MS,38671
Harbor Freight Tools,MADISON HEIGHTS,407,407,32706 JOHN R ROAD,MI,48071
Harbor Freight Tools,BUTLER,408,408,268 MORAINE POINT PLAZA,PA,16001
Harbor Freight Tools,HYANNIS,409,409,640 IYANNOUGH RD,MA,2601
Harbor Freight Tools,LOUISVILLE,410,410,3943 7TH STREET RD,KY,40216
Harbor Freight Tools,INDIO,411,411,82123 US HIGHWAY 111,CA,92201
Harbor Freight Tools,VISTA,412,412,820 CIVIC CENTER DRIVE,CA,92084
Harbor Freight Tools,STERLING,413,413,22330 S STERLING BLVD,VA,20164
Harbor Freight Tools,LA MIRADA,414,414,14345 FIRESTONE BLVD,CA,90638
Harbor Freight Tools,SAINT LOUIS,415,415,4610 CHIPPEWA ST STE A,MO,63116
Harbor Freight Tools,RICHMOND,416,416,8093 WEST BROAD ST,VA,23294
Harbor Freight Tools,EL PASO,417,417,6015 N MESA ST,TX,79912
Harbor Freight Tools,CREST HILL,418,418,1701 N LARKIN AVE STE 400,IL,60403
Harbor Freight Tools,LINDEN,420,420,300 S PARK AVE,NJ,7036
Harbor Freight Tools,DALLAS,422,422,6508 SKILLMAN ST,TX,75231
Harbor Freight Tools,CRYSTAL LAKE,424,424,6324 NORTHWEST HWY,IL,60014
Harbor Freight Tools,TORRANCE,425,425,4310 ARTESIA BLVD,CA,90504
Harbor Freight Tools,AURORA,427,427,443 SOUTH ROUTE 59,IL,60504
Harbor Freight Tools,GRAND RAPIDS,428,428,3460 PLAINFIELD AVE NE,MI,49525
Harbor Freight Tools,HILLSBORO,429,429,1400 SW OAK ST STE A,OR,97123
Harbor Freight Tools,HUMBLE,431,431,206 1ST ST E,TX,77338
Harbor Freight Tools,BLACKWOOD,432,432,5200 BLACK HORSE PIKE,NJ,8012
Harbor Freight Tools,ANAHEIM,433,433,1019 N STATE COLLEGE BLVD,CA,92806
Harbor Freight Tools,HICKORY,434,434,2104 US HIGHWAY 70 SE,NC,28602
Harbor Freight Tools,AUBURNDALE,436,436,435 HAVENDALE BLVD,FL,33823
Harbor Freight Tools,MUSKEGON,437,437,1700 E SHERMAN BLVD,MI,49444
Harbor Freight Tools,INDIANAPOLIS,438,438,10101 E WASHINGTON ST,IN,46229
Harbor Freight Tools,BROCKTON,439,439,395 WESTGATE DR,MA,2301
Harbor Freight Tools,LAS VEGAS,440,440,"160 S RAINBOW BLVD, #160",NV,89145
Harbor Freight Tools,LAFAYETTE,441,441,2121 SAGAMORE PKWY S,IN,47905
Harbor Freight Tools,SALEM,442,442,"356 SOUTH BROADWAY, STE 3",NH,3079
Harbor Freight Tools,SANTA FE,443,443,1680 SAINT MICHAELS DRIVE,NM,87505
Harbor Freight Tools,EL CENTRO,444,444,1750 N IMPERIAL AVENUE,CA,92243
Harbor Freight Tools,MURRIETA,445,445,40516 MURRIETA HOT SPRING,CA,92563
Harbor Freight Tools,JACKSON,446,446,3152 E. MICHIGAN AVE,MI,49202
Harbor Freight Tools,PHOENIX,447,447,3146 EAST THOMAS ROAD,AZ,85016
Harbor Freight Tools,ST. AUGUSTINE,449,449,312 STATE ROAD 312,FL,32086
Harbor Freight Tools,GILROY,450,450,6980 CHESTNUT ST STE I-2,CA,95020
Harbor Freight Tools,EDGEWOOD,451,451,1901-C PULASKI HWY,MD,21040
Harbor Freight Tools,TIGARD,452,452,14385 SW PACIFIC HWY,OR,97224
Harbor Freight Tools,LONGVIEW,453,453,700 OCEAN BEACH HIGHWAY,WA,98632
Harbor Freight Tools,MERRITT ISLAND,454,454,323 E MERRITT ISLAND CSWY,FL,32952
Harbor Freight Tools,PRESCOTT,455,455,1781 E. STATE ROUTE 69,AZ,86301
Harbor Freight Tools,TAMPA,456,456,8613 W. HILLSBOROUGH AVE.,FL,33615
Harbor Freight Tools,COEUR D'ALENE,457,457,"410 W. NEIDER AVE, STE C",ID,83815
Harbor Freight Tools,TOLEDO,458,458,4925 JACKMAN RD. STE 63,OH,43613
Harbor Freight Tools,VALENCIA,459,459,23314 VALENCIA BLVD,CA,91355
Harbor Freight Tools,KATY,460,460,21947 KATY FWY,TX,77450
Harbor Freight Tools,NORTH OLMSTED,461,461,4646 GREAT NORTHERN BLVD,OH,44070
Harbor Freight Tools,BROKEN ARROW,462,462,3601 SOUTH ELM PLACE,OK,74011
Harbor Freight Tools,SAN ANTONIO,463,463,"7555 NW I410 LOOP, #108",TX,78245
Harbor Freight Tools,AUBURN,465,465,"730 CENTER STREET, STE 5B",ME,4210
Harbor Freight Tools,LAKE PARK,466,466,440 NORTHLAKE BOULEVARD,FL,33408
Harbor Freight Tools,BANGOR,467,467,50 SPRINGER DRIVE,ME,4401
Harbor Freight Tools,LEESBURG,468,468,2257 N CITRUS BLVD,FL,34748
Harbor Freight Tools,CRYSTAL RIVER,469,469,708 SE US HIGHWAY 19,FL,34429
Harbor Freight Tools,SPRING HILL,470,470,2418 COMMERCIAL WAY,FL,34606
Harbor Freight Tools,HANOVER PARK,471,471,1559 IRVING PARK RD,IL,60133
Harbor Freight Tools,NEW LONDON,473,473,320 SOUTH FRONTAGE RD,CT,6320
Harbor Freight Tools,PALM HARBOR,474,474,30990 US HIGHWAY 19 N,FL,34684
Harbor Freight Tools,ROUND LAKE,475,475,340E. ROLLINS RD.,IL,60073
Harbor Freight Tools,PITTSBURG,476,476,4403 CENTURY BLVD.,CA,94565
Harbor Freight Tools,SOUTH PORTLAND,478,478,161 WESTERN AVENUE,ME,4106
Harbor Freight Tools,LA CROSSE,482,482,2334 ROSE STREET,WI,54603
Harbor Freight Tools,HOUSTON,483,483,"6806 HIGHWAY 6 S, STE C",TX,77083
Harbor Freight Tools,STREETSBORO,484,484,9364 STATE ROUTE 14,OH,44241
Harbor Freight Tools,WINTER GARDEN,485,485,14011 WEST COLONIAL DRIVE,FL,34787
Harbor Freight Tools,ROME,486,486,2112 SHORTER AVE NW #100,GA,30165
Harbor Freight Tools,LAVALE,489,489,1236 NATIONAL HIGHWAY,MD,21502
Harbor Freight Tools,MERCED,490,490,1330 WEST OLIVE AVE,CA,95348
Harbor Freight Tools,ORLANDO,492,492,10525 EAST COLONIAL DRIVE,FL,32817
Harbor Freight Tools,WEBSTER,493,493,1020 NASA PKWY STE 228,TX,77598
Harbor Freight Tools,TULLAHOMA,495,495,1600 N JACKSON ST STE 320,TN,37388
Harbor Freight Tools,THORNTON,498,498,920 E 104TH AVE,CO,80233
Harbor Freight Tools,TYLER,502,502,3819 SSW 323 LOOP,TX,75701
Harbor Freight Tools,GURNEE,503,503,3550 GRAND AVENUE,IL,60031
Harbor Freight Tools,BURLINGTON,505,505,1819 S CHURCH ST,NC,27215
