keywords,city,Aggdata Store Number,store_number,address,state,zip_code
Harris Teeter,CHARLOTTE,9700004,#04 #4 9700004 970004 97004,7823 Colony Road,NC,28226
Harris Teeter,NEWPORT NEWS,9700006,#06 #6 9700006 970006 97006,12404 Warwick Boulevard,VA,75759
Harris Teeter,CHARLOTTE,9700011,#011 #11 97000011 9700011 970011,15007 John J. Delaney Drive,NC,28277
Harris Teeter,MT. PLEASANT,9700019,#019 #19 97000019 9700019 970019,920 Houston Northcutt Boulevard Suite N,SC,29464
Harris Teeter,RALEIGH,9700021,#021 #21 97000021 9700021 970021,501 Oberlin Road,NC,27605
Harris Teeter,ARLINGTON,9700023,#023 #23 97000023 9700023 970023,2425 North Harrison Street,VA,22207
Harris Teeter,FAYETTEVILLE,9700025,#025 #25 97000025 9700025 970025,2800 Raeford Road,NC,28303
Harris Teeter,RALEIGH,9700026,#026 #26 97000026 9700026 970026,7400 Creedmoor Road,NC,27612
Harris Teeter,CHARLOTTE,9700027,#027 #27 97000027 9700027 970027,9720 Rea Road,NC,28277
Harris Teeter,CHARLESTON,9700028,#028 #28 97000028 9700028 970028,675 Folly Road,SC,29412
Harris Teeter,ABERDEEN,9700029,#029 #29 97000029 9700029 970029,11109 US 15-501 Hwy Unit 1804,NC,28315
Harris Teeter,CHARLOTTE,9700030,#030 #30 97000030 9700030 970030,3333 Pineville-Matthews Road,NC,28226
Harris Teeter,GREENSBORO,9700033,#033 #33 97000033 9700033 970033,701 Francis King Street,NC,27410
Harris Teeter,FERNANDINA BEACH,9700034,#034 #34 97000034 9700034 970034,4800 First Coast Highway,FL,32034
Harris Teeter,CHARLOTTE,9700035,#035 #35 97000035 9700035 970035,5030 Park Road,NC,28209
Harris Teeter,WINSTON-SALEM,9700037,#037 #37 97000037 9700037 970037,150 Grant Hill Lane,NC,27104
Harris Teeter,RALEIGH,9700038,#038 #38 97000038 9700038 970038,5563 Western Boulevard  Suite 6A,NC,27606
Harris Teeter,STALLINGS,9700039,#039 #39 97000039 9700039 970039,7800-J Stevens Mill Rd,NC,28104
Harris Teeter,CHARLOTTE,9700040,#040 #40 97000040 9700040 970040,11516 Providence Road,NC,28277
Harris Teeter,WAKE FOREST,9700043,#043 #43 97000043 9700043 970043,3638 Rogers Road,NC,27587
Harris Teeter,CHARLOTTE,9700045,#045 #45 97000045 9700045 970045,10616 Providence Road,NC,28277
Harris Teeter,CHARLOTTE,9700046,#046 #46 97000046 9700046 970046,9641 Brookdale Drive,NC,28215
Harris Teeter,CHESAPEAKE,9700051,#051 #51 97000051 9700051 970051,237 Hanbury Road East,VA,23322
Harris Teeter,APEX,9700058,#058 #58 97000058 9700058 970058,750 W. Williams Street,NC,27539
Harris Teeter,MONROE,9700060,#060 #60 97000060 9700060 970060,1817 Dickerson Boulevard,NC,28110
Harris Teeter,CHARLOTTE,9700061,#061 #61 97000061 9700061 970061,1227 East Boulevard,NC,28203
Harris Teeter,ROCKY MOUNT,9700063,#063 #63 97000063 9700063 970063,3679 Sunset Avenue,NC,27801
Harris Teeter,GREENSBORO,9700064,#064 #64 97000064 9700064 970064,5710 High Point Road,NC,27407
Harris Teeter,CHARLOTTE,9700066,#066 #66 97000066 9700066 970066,7852 Rea Road,NC,28277
Harris Teeter,CONCORD,9700068,#068 #68 97000068 9700068 970068,358 George W Lyles Pkwy NW,NC,28027
Harris Teeter,RALEIGH,9700069,#069 #69 97000069 9700069 970069,3201-123 Edwards Mill Road,NC,27612
Harris Teeter,NASHVILLE,9700071,#071 #71 97000071 9700071 970071,6002 Highway 100,TN,37205
Harris Teeter,ALBEMARLE,9700078,#078 #78 97000078 9700078 970078,817 North First Street,NC,28001
Harris Teeter,RESTON,9700081,#081 #81 97000081 9700081 970081,11806 Spectrum Center,VA,20190
Harris Teeter,FORT MILL,9700082,#082 #82 97000082 9700082 970082,1754 West Highway 160,SC,29708
Harris Teeter,ARLINGTON,9700083,#083 #83 97000083 9700083 970083,900 Army-Navy Drive,VA,22202
Harris Teeter,HERNDON,9700085,#085 #85 97000085 9700085 970085,12960 Highland Crossing Drive,VA,20171
Harris Teeter,ARLINGTON,9700086,#086 #86 97000086 9700086 970086,600 North Glebe Road,VA,22203
Harris Teeter,MT. PLEASANT,9700087,#087 #87 97000087 9700087 970087,620 Longpoint Road Suite H,SC,29464
Harris Teeter,CHARLOTTE,9700088,#088 #88 97000088 9700088 970088,13000 South Tryon Street,NC,28278
Harris Teeter,RALEIGH,9700090,#090 #90 97000090 9700090 970090,13210 Strickland Road,NC,27613
Harris Teeter,GREENSBORO,9700091,#091 #91 97000091 9700091 970091,401 Pisgah Church Road,NC,27408
Harris Teeter,WILMINGTON,9700096,#096 #96 97000096 9700096 970096,5920 Carolina Beach Road,NC,28412
Harris Teeter,MOORESVILLE,9700099,#099 #99 97000099 9700099 970099,134-H Town Center Dr,NC,28117
Harris Teeter,LEESBURG,9700100,#0100 #100 970000100 97000100 9700100,19350 Winmeade Drive,VA,20176
Harris Teeter,WILMINGTON,9700102,#0102 #102 970000102 97000102 9700102,6480 Market Street,NC,28405
Harris Teeter,FUQUAY VARINA,9700103,#0103 #103 970000103 97000103 9700103,1422 N Main Street,NC,27526
Harris Teeter,MORRISVILLE,9700104,#0104 #104 970000104 97000104 9700104,4093 Davis Drive,NC,27560
Harris Teeter,NASHVILLE,9700107,#0107 #107 970000107 97000107 9700107,2201 21st Avenue S.,TN,37204
Harris Teeter,LAURINBURG,9700108,#0108 #108 970000108 97000108 9700108,1688 South Main Street,NC,28352
Harris Teeter,CARY,9700112,#0112 #112 970000112 97000112 9700112,270 Grande Heights Drive,NC,27513
Harris Teeter,GOLDSBORO,9700115,#0115 #115 970000115 97000115 9700115,2120 Wayne Memorial Drive,NC,27534
Harris Teeter,CHAPEL HILL,9700117,#0117 #117 970000117 97000117 9700117,2110 S. Estes Drive,NC,27514
Harris Teeter,HOLLY SPRINGS,9700118,#0118 #118 970000118 97000118 9700118,5277 Sunset Lake Road,NC,27540
Harris Teeter,CHAPEL HILL,9700120,#0120 #120 970000120 97000120 9700120,116 W. Barbee Chapel Road,NC,27517
Harris Teeter,DENVER,9700121,#0121 #121 970000121 97000121 9700121,149 Cress Creek Road,NC,28037
Harris Teeter,CHARLOTTE,9700122,#0122 #122 970000122 97000122 9700122,5810 Prosperity Church Road,NC,28269
Harris Teeter,FLORENCE,9700124,#0124 #124 970000124 97000124 9700124,1930 W. Palmetto Street,SC,29501
Harris Teeter,WINSTON SALEM,9700127,#0127 #127 970000127 97000127 9700127,1955 North Peace Haven Road,NC,27106
Harris Teeter,INDIAN TRAIL,9700129,#0129 #129 970000129 97000129 9700129,6610 Old Charlotte Highway,NC,28079
Harris Teeter,CARY,9700130,#0130 #130 970000130 97000130 9700130,1111 Walnut Street,NC,27511
Harris Teeter,MT. PLEASANT,9700131,#0131 #131 970000131 97000131 9700131,2035 Hwy 41,SC,29466
Harris Teeter,CHARLOTTESVILLE,9700132,#0132 #132 970000132 97000132 9700132,159 Community Drive,VA,22911
Harris Teeter,ALEXANDRIA,9700133,#0133 #133 970000133 97000133 9700133,4641 Duke Street,VA,22314
Harris Teeter,HAMPSTEAD,9700135,#0135 #135 970000135 97000135 9700135,203 Alston Boulevard,NC,28443
Harris Teeter,RALEIGH,9700136,#0136 #136 970000136 97000136 9700136,9600 Falls Of The Neuse Road,NC,27614
Harris Teeter,CHAPEL HILL,9700137,#0137 #137 970000137 97000137 9700137,88 Chatham Downs,NC,27517
Harris Teeter,CARY,9700138,#0138 #138 970000138 97000138 9700138,98 Cornerstone Drive,NC,27519
Harris Teeter,DURHAM,9700140,#0140 #140 970000140 97000140 9700140,105 West NC 54 Suite 237,NC,27713
Harris Teeter,GREENVILLE,9700142,#0142 #142 970000142 97000142 9700142,1400 Charles Boulevard Suite 100,NC,27858
Harris Teeter,WINSTON SALEM,9700146,#0146 #146 970000146 97000146 9700146,3508 Yadkinville Road,NC,27106
Harris Teeter,MATTHEWS,9700147,#0147 #147 970000147 97000147 9700147,3100 Weddington Road,NC,28105
Harris Teeter,ROCK HILL,9700149,#0149 #149 970000149 97000149 9700149,2750 Celanese Road,SC,29730
Harris Teeter,HILTON HEAD,9700152,#0152 #152 970000152 97000152 9700152,301 Main Street,SC,29926
Harris Teeter,WINSTON SALEM,9700155,#0155 #155 970000155 97000155 9700155,420-22 South Stratford Road,NC,27103
Harris Teeter,MATTHEWS,9700157,#0157 #157 970000157 97000157 9700157,1811 Matthews Township Parkway,NC,28105
Harris Teeter,WILMINGTON,9700158,#0158 #158 970000158 97000158 9700158,820 South College Street,NC,28403
Harris Teeter,CHARLOTTE,9700160,#0160 #160 970000160 97000160 9700160,6701 Morrison Road,NC,28211
Harris Teeter,VIRGINIA BEACH,9700161,#0161 #161 970000161 97000161 9700161,3333 Virginia Beach Boulevard,VA,23451
Harris Teeter,WILMINGTON,9700162,#0162 #162 970000162 97000162 9700162,3501 Oleander Drive #18,NC,28403
Harris Teeter,BOONE,9700165,#0165 #165 970000165 97000165 9700165,240 Shadowline Drive,NC,28607
Harris Teeter,CHARLOTTE,9700166,#0166 #166 970000166 97000166 9700166,3540 Mt Holly-Huntersville Road,NC,28216
Harris Teeter,CHARLOTTE,9700167,#0167 #167 970000167 97000167 9700167,2201 W.T. Harris Boulevard,NC,28269
Harris Teeter,ST. SIMONS ISLAND,9700168,#0168 #168 970000168 97000168 9700168,600 Sea Island Road Suite 23,GA,31522
Harris Teeter,CHARLOTTE,9700171,#0171 #171 970000171 97000171 9700171,1621 N. Sardis Road,NC,28270
Harris Teeter,DURHAM,9700172,#0172 #172 970000172 97000172 9700172,1817 Martin Luther King Jr. Parkway,NC,27707
Harris Teeter,HIGH POINT,9700173,#0173 #173 970000173 97000173 9700173,1589 Skeet Club Road Suite 140,NC,27265
Harris Teeter,CHARLOTTE,9700174,#0174 #174 970000174 97000174 9700174,5706 Wyalong Dr,NC,28227
Harris Teeter,KILL DEVIL HILLS,9700175,#0175 #175 970000175 97000175 9700175,2012 South Croatan Highway,NC,27948
Harris Teeter,CHESAPEAKE,9700176,#0176 #176 970000176 97000176 9700176,1216 Greenbrier Parkway,VA,23320
Harris Teeter,CHARLOTTESVILLE,9700177,#0177 #177 970000177 97000177 9700177,975 Emmet Street Space 8,VA,22903
Harris Teeter,SALISBURY,9700178,#0178 #178 970000178 97000178 9700178,850 Jake Alexander Boulevard W.,NC,28144
Harris Teeter,CORNELIUS,9700179,#0179 #179 970000179 97000179 9700179,19815 North Cove Road,NC,28031
Harris Teeter,VIRGINIA BEACH,9700181,#0181 #181 970000181 97000181 9700181,2800 Arctic Avenue,VA,23451
Harris Teeter,WAXHAW,9700182,#0182 #182 970000182 97000182 9700182,8157 Kensington Drive,NC,28173
Harris Teeter,CONCORD,9700190,#0190 #190 970000190 97000190 9700190,9900 Poplar Tent Road,NC,28027
Harris Teeter,WILMINGTON,9700191,#0191 #191 970000191 97000191 9700191,8260 Market Street,NC,28411
Harris Teeter,BRENTWOOD,9700193,#0193 #193 970000193 97000193 9700193,210 Franklin Road Suite 100,TN,37027
Harris Teeter,CARY,9700200,#0200 #200 970000200 97000200 9700200,5101 High House Road,NC,27519
Harris Teeter,CONCORD,9700202,#0202 #202 970000202 97000202 9700202,1245 (Hwy 29) Concord Parkway N. Suite 1,NC,28025
Harris Teeter,CHARLOTTE,9700204,#0204 #204 970000204 97000204 9700204,8538 Park Road,NC,28210
Harris Teeter,CHARLOTTE,9700205,#0205 #205 970000205 97000205 9700205,325 West Sixth Street,NC,28202
Harris Teeter,CHARLOTTE,9700208,#0208 #208 970000208 97000208 9700208,112 South Sharon Amity Road,NC,28211
Harris Teeter,HUNTERSVILLE,9700209,#0209 #209 970000209 97000209 9700209,9925 Rose Commons Drive,NC,28078
Harris Teeter,WILMINGTON,9700210,#0210 #210 970000210 97000210 9700210,6805 Parker Farm Rd,NC,28405
Harris Teeter,CARTHAGE,9700212,#0212 #212 970000212 97000212 9700212,400 Mill Creek Road,NC,28327
Harris Teeter,WINSTON SALEM,9700216,#0216 #216 970000216 97000216 9700216,2281 Cloverdale Avenue,NC,27103
Harris Teeter,CHARLOTTE,9700218,#0218 #218 970000218 97000218 9700218,4101 Park Road,NC,28209
Harris Teeter,CHARLOTTE,9700220,#0220 #220 970000220 97000220 9700220,2720 W. Mallard Creek Church Road,NC,28262
Harris Teeter,NEW BERN,9700221,#0221 #221 970000221 97000221 9700221,2019 S. Glenburnie Road,NC,28562
Harris Teeter,CHAPEL HILL,9700223,#0223 #223 970000223 97000223 9700223,1800 Martin Luther King Jr. Boulevard,NC,27514
Harris Teeter,DURHAM,9700224,#0224 #224 970000224 97000224 9700224,1125 West NC 54 Highway,NC,27707
Harris Teeter,LELAND,9700225,#0225 #225 970000225 97000225 9700225,2021 Old Regent Way,NC,28451
Harris Teeter,CLEMMONS,9700228,#0228 #228 970000228 97000228 9700228,4150 Clemmons Road,NC,27012
Harris Teeter,CLAYTON,9700229,#0229 #229 970000229 97000229 9700229,67 Flowers Crossroads Way,NC,27527
Harris Teeter,BRAMBLETON,9700230,#0230 #230 970000230 97000230 9700230,42415 Ryan Road,VA,20148
Harris Teeter,WASHINGTON,9700231,#0231 #231 970000231 97000231 9700231,1631 Kalorama Road NW,DC,20009
Harris Teeter,ARLINGTON,9700235,#0235 #235 970000235 97000235 9700235,4250 Campbell Avenue,VA,22206
Harris Teeter,ALDIE,9700238,#0238 #238 970000238 97000238 9700238,42015 Village Center Plaza Suite 110,VA,20105
Harris Teeter,VIRGINIA BEACH,9700239,#0239 #239 970000239 97000239 9700239,2476 Nimmo Parkway,VA,23456
Harris Teeter,SUFFOLK,9700241,#0241 #241 970000241 97000241 9700241,7386 Harbour Towne Parkway,VA,23435
Harris Teeter,ASHBURN,9700242,#0242 #242 970000242 97000242 9700242,20070 Ashbrook Commons Plaza Suite 151,VA,20147
Harris Teeter,GREENSBORO,9700244,#0244 #244 970000244 97000244 9700244,3357 Battleground Avenue,NC,27410
Harris Teeter,GREENSBORO,9700246,#0246 #246 970000246 97000246 9700246,4640 W. Market Street,NC,27407
Harris Teeter,LINCOLNTON,9700248,#0248 #248 970000248 97000248 9700248,2318 East Main Street,NC,28092
Harris Teeter,WESLEY CHAPEL,9700249,#0249 #249 970000249 97000249 9700249,5920 Weddington-Monroe Road,NC,28104
Harris Teeter,KERNERSVILLE,9700250,#0250 #250 970000250 97000250 9700250,971 S. Main Street,NC,27284
Harris Teeter,GAINESVILLE,9700251,#0251 #251 970000251 97000251 9700251,7910 Crescent Park Drive,VA,20155
Harris Teeter,FAIRFAX,9700253,#0253 #253 970000253 97000253 9700253,Pender Campus,VA,22033
Harris Teeter,DURHAM,9700254,#0254 #254 970000254 97000254 9700254,1501 Horton Road,NC,27705
Harris Teeter,CARY,9700257,#0257 #257 970000257 97000257 9700257,2080 Kildaire Farm Road,NC,27511
Harris Teeter,CHARLOTTE,9700258,#0258 #258 970000258 97000258 9700258,8600 University City Boulevard,NC,28213
Harris Teeter,ARLINGTON,9700262,#0262 #262 970000262 97000262 9700262,3600 S. Glebe Road Suite W100,VA,22202
Harris Teeter,MOREHEAD CITY,9700265,#0265 #265 970000265 97000265 9700265,5000 US Hwy 70 Suite 100,NC,28557
Harris Teeter,COROLLA,9700266,#0266 #266 970000266 97000266 9700266,601 Currituck Clubhouse Dr .,NC,27927
Harris Teeter,DAVIDSON,9700268,#0268 #268 970000268 97000268 9700268,431 Peninsula Drive,NC,28036
Harris Teeter,HUNTERSVILLE,9700272,#0272 #272 970000272 97000272 9700272,7715 Regency Lake Dr,NC,28078
Harris Teeter,MATTHEWS,9700273,#0273 #273 970000273 97000273 9700273,1351 Chestnut Lane,NC,28104
Harris Teeter,MOORESVILLE,9700274,#0274 #274 970000274 97000274 9700274,118 Argus Lane,NC,28117
Harris Teeter,ASHBURN,9700276,#0276 #276 970000276 97000276 9700276,43315 Crandall Square,VA,20148
Harris Teeter,CHARLESTON,9700277,#0277 #277 970000277 97000277 9700277,290 East Bay Street,SC,29401
Harris Teeter,FALLS CHURCH,9700279,#0279 #279 970000279 97000279 9700279,6351 Columbia Pike,VA,22041
Harris Teeter,GREENSBORO,9700280,#0280 #280 970000280 97000280 9700280,4010 Battleground Avenue,NC,27410
Harris Teeter,WASHINGTON,9700282,#0282 #282 970000282 97000282 9700282,1350 Potomac Avenue SE,DC,20003
Harris Teeter,FUQUAY-VARINA,9700283,#0283 #283 970000283 97000283 9700283,8101 Fayetteville Rd,NC,27603
Harris Teeter,ASHBURN,9700284,#0284 #284 970000284 97000284 9700284,43300 Southern Walk Plaza,VA,20148
Harris Teeter,GREENVILLE,9700287,#0287 #287 970000287 97000287 9700287,2020 East Firetower Road Suite 101,NC,27858
Harris Teeter,RALEIGH,9700289,#0289 #289 970000289 97000289 9700289,2603 Glenwood Avenue Suite 101,NC,27608
Harris Teeter,CHARLOTTE,9700294,#0294 #294 970000294 97000294 9700294,4100 Carmel Road,NC,28226
Harris Teeter,CARRBORO,9700297,#0297 #297 970000297 97000297 9700297,310 Greensboro Street,NC,27510
Harris Teeter,CARY,9700298,#0298 #298 970000298 97000298 9700298,10140 Green Level Church Road,NC,27519
Harris Teeter,WILMINGTON,9700301,#0301 #301 970000301 97000301 9700301,1940 Eastwood Road,NC,28403
Harris Teeter,MCLEAN,9700302,#0302 #302 970000302 97000302 9700302,8200 Crestwood Heights Drive,VA,22102
Harris Teeter,MANASSAS,9700303,#0303 #303 970000303 97000303 9700303,10060 Market Circle,VA,20110
Harris Teeter,GREENSBORO,9700306,#0306 #306 970000306 97000306 9700306,3330 West Friendly Avenue,NC,27410
Harris Teeter,CHANTILLY,9700309,#0309 #309 970000309 97000309 9700309,25401 Eastern Marketplace Plaza,VA,20152
Harris Teeter,ASHBURN,9700310,#0310 #310 970000310 97000310 9700310,42780 Creek View Plaza,VA,20147
Harris Teeter,HOLLY SPRINGS,9700311,#0311 #311 970000311 97000311 9700311,324 Village Walk Dr,NC,27540
Harris Teeter,BRISTOW,9700313,#0313 #313 970000313 97000313 9700313,10438 Bristow Center Drive,VA,20136
Harris Teeter,PORTSMOUTH,9700315,#0315 #315 970000315 97000315 9700315,3249 Tyre Neck Road,VA,23703
Harris Teeter,MANASSAS,9700316,#0316 #316 970000316 97000316 9700316,12745 Galveston Court,VA,20112
Harris Teeter,CHARLOTTE,9700317,#0317 #317 970000317 97000317 9700317,16625 Lancaster Highway,NC,28277
Harris Teeter,NASHVILLE,9700318,#0318 #318 970000318 97000318 9700318,4416 Ridgefield Way,TN,37205
Harris Teeter,WILLIAMSBURG,9700320,#0320 #320 970000320 97000320 9700320,1470 Quarterpath Road,VA,23185
Harris Teeter,COLUMBIA,9700322,#0322 #322 970000322 97000322 9700322,8620 Guilford Road,MD,21046
Harris Teeter,FULTON,9700323,#0323 #323 970000323 97000323 9700323,8184 Westside Blvd,MD,20759
Harris Teeter,GAITHERSBURG,9700325,#0325 #325 970000325 97000325 9700325,14101 Darnestown Road,MD,20874
Harris Teeter,SELBYVILLE,9700327,#0327 #327 970000327 97000327 9700327,31221 Americana Parkway,DE,19975
Harris Teeter,ROCKVILLE,9700328,#0328 #328 970000328 97000328 9700328,11845 Old Georgetown Road,MD,20852
Harris Teeter,WARRENTON,9700329,#0329 #329 970000329 97000329 9700329,530 Fletcher Dr,VA,20186
Harris Teeter,CARY,9700330,#0330 #330 970000330 97000330 9700330,1151 Tryon Village Drive,NC,27518
Harris Teeter,CARY,9700331,#0331 #331 970000331 97000331 9700331,3430 Ten Ten Road,NC,27518
Harris Teeter,CHARLOTTESVILLE,9700332,#0332 #332 970000332 97000332 9700332,545 Radford Lane Building A,VA,22903
Harris Teeter,FRANKLIN,9700333,#0333 #333 970000333 97000333 9700333,411 Whitman Road,TN,37064
Harris Teeter,WINSTON-SALEM,9700334,#0334 #334 970000334 97000334 9700334,5365 Robinhood Village Drive,NC,27106
Harris Teeter,MILLSBORO,9700336,#0336 #336 970000336 97000336 9700336,26370 Bay Farm Road,DE,19966
Harris Teeter,HUNTERSVILLE,9700340,#0340 #340 970000340 97000340 9700340,9759 Sam Furr Road,NC,28078
Harris Teeter,HIGH POINT,9700341,#0341 #341 970000341 97000341 9700341,265 Eastchester Drive,NC,27262
Harris Teeter,GREENSBORO,9700342,#0342 #342 970000342 97000342 9700342,1605 New Garden Road,NC,27410
Harris Teeter,MATTHEWS,9700343,#0343 #343 970000343 97000343 9700343,13639 Providence Road,NC,28104
Harris Teeter,RALEIGH,9700344,#0344 #344 970000344 97000344 9700344,6024 Falls of the Neuse,NC,27619
Harris Teeter,BURLINGTON,9700345,#0345 #345 970000345 97000345 9700345,2727 S. Church Street,NC,27215
Harris Teeter,GREENSBORO,9700347,#0347 #347 970000347 97000347 9700347,2639 Lawndale Drive,NC,27408
Harris Teeter,ASHEVILLE,9700348,#0348 #348 970000348 97000348 9700348,136 Merrimon Avenue,NC,28801
Harris Teeter,VIRGINIA BEACH,9700350,#0350 #350 970000350 97000350 9700350,5060 Ferrell Parkway,VA,23464
Harris Teeter,WASHINGTON,9700352,#0352 #352 970000352 97000352 9700352,1201 First Street NE,DC,20002
Harris Teeter,WAKE FOREST,9700353,#0353 #353 970000353 97000353 9700353,13686 Capital Boulevard,NC,27587
Harris Teeter,WILSON,9700354,#0354 #354 970000354 97000354 9700354,3401 Raleigh Road Parkway W.,NC,27896
Harris Teeter,GREENVILLE,9700362,#0362 #362 970000362 97000362 9700362,3040 S. Evans Street,NC,27834
Harris Teeter,SUMMERVILLE,9700363,#0363 #363 970000363 97000363 9700363,9500 Dorchester Rd,SC,29485
Harris Teeter,CHARLESTON,9700365,#0365 #365 970000365 97000365 9700365,975 Savannah Highway,SC,29407
Harris Teeter,RALEIGH,9700367,#0367 #367 970000367 97000367 9700367,14520 John Rex Boulevard,NC,27614
Harris Teeter,VIRGINIA BEACH,9700369,#0369 #369 970000369 97000369 9700369,4540 Princess Anne Rd,VA,23462
Harris Teeter,INDIAN LAND,9700372,#0372 #372 970000372 97000372 9700372,6271 Carolina Commons Dr,SC,29707
Harris Teeter,POTOMAC,9700373,#0373 #373 970000373 97000373 9700373,12525 Park Potomac Ave,MD,20854
Harris Teeter,BALTIMORE,9700376,#0376 #376 970000376 97000376 9700376,Federal Hill,MD,21230
Harris Teeter,NORFOLK,9700378,#0378 #378 970000378 97000378 9700378,1320 Colonial Avenue,VA,23517
Harris Teeter,HENDERSONVILLE,9700379,#0379 #379 970000379 97000379 9700379,636 Spartanburg Highway,NC,28792
Harris Teeter,BETHANY BEACH,9700381,#0381 #381 970000381 97000381 9700381,695 Bethany Loop,DE,19930
Harris Teeter,ELLICOTT CITY,9700382,#0382 #382 970000382 97000382 9700382,11075 Resort Rd,MD,21042
Harris Teeter,GAITHERSBURG,9700384,#0384 #384 970000384 97000384 9700384,Sam Eig Highway and Fields Road,MD,20878
Harris Teeter,MT. PLEASANT,9700385,#0385 #385 970000385 97000385 9700385,2195 Tea Planter Lane,SC,29466
Harris Teeter,KITTY HAWK,9700387,#0387 #387 970000387 97000387 9700387,5400 North Croatan Hwy #A,NC,27949
Harris Teeter,PURCELLVILLE,9700388,#0388 #388 970000388 97000388 9700388,105 Purcellville Gateway Drive,VA,20132
Harris Teeter,Baltimore,9700392,#0392 #392 970000392 97000392 9700392,3501 Boston St.,MD,21298
Harris Teeter,FAYETTEVILLE,9700393,#0393 #393 970000393 97000393 9700393,3050 Traemoor Village Drive,NC,28306
Harris Teeter,DURHAM,9700394,#0394 #394 970000394 97000394 9700394,Ninth Street & Hillsborough Road,NC,27705
Harris Teeter,WAKE FOREST,9700395,#0395 #395 970000395 97000395 9700395,1432 Brogden Woods Drive,NC,27587
Harris Teeter,CHARLOTTE,9700401,#0401 #401 970000401 97000401 9700401,1704 Central Avenue,NC,28205
Harris Teeter,OLNEY,9700403,#0403 #403 970000403 97000403 9700403,18169 Town Center Drive,MD,20832
Harris Teeter,NORFOLK,9700407,#0407 #407 970000407 97000407 9700407,Wards Corner,VA,23505
Harris Teeter,CLARKSBURG,9700409,#0409 #409 970000409 97000409 9700409,22700 Sweetshrub Drive,MD,20871
Harris Teeter,CHARLOTTE,9700412,#0412 #412 970000412 97000412 9700412,1015 Providence Road,NC,28207
Harris Teeter,RALEIGH,9700422,#0422 #422 970000422 97000422 9700422,120-100 St. Albans Drive,NC,27609
Harris Teeter,HILTON HEAD,9700423,#0423 #423 970000423 97000423 9700423,33 Office Park Suite 100,SC,29928
Harris Teeter,WILMINGTON,9700441,#0441 #441 970000441 97000441 9700441,2800 S. College Road,NC,28412
Harris Teeter,MT PLEASANT,9700450,#0450 #450 970000450 97000450 9700450,Seaside Farms,SC,29464
Harris Teeter,JOHNS ISLAND,9700451,#0451 #451 970000451 97000451 9700451,Freshfields Village,SC,29455
Harris Teeter,Isle of Palms,9700452,#0452 #452 970000452 97000452 9700452,1513 Palm Blvd.,SC,29451
Harris Teeter,CHARLESTON,9700453,#0453 #453 970000453 97000453 9700453,Folly Rd.,SC,29412
Harris Teeter,Charleston,9700454,#0454 #454 970000454 97000454 9700454,Folly Rd.,SC,29412
Harris Teeter,CHARLESTON,9700456,#0456 #456 970000456 97000456 9700456,Harbor View,SC,29412
Harris Teeter,MT PLEASANT,9700457,#0457 #457 970000457 97000457 9700457,Sea Island,SC,29464
Harris Teeter,CHARLOTTE,9700470,#0470 #470 970000470 97000470 9700470,16045 Johnston Road/Highway 521 South,NC,28277
Harris Teeter,DAVIDSON,9700471,#0471 #471 970000471 97000471 9700471,11124 Renaissance Drive,NC,28036
Harris Teeter,CHARLOTTE,9700472,#0472 #472 970000472 97000472 9700472,8445 Davis Lake Parkway,NC,28269
Harris Teeter,MATTHEWS,9700473,#0473 #473 970000473 97000473 9700473,15080 Idlewild Road,NC,28104
Harris Teeter,MINT HILL,9700474,#0474 #474 970000474 97000474 9700474,7036 Brighton Park Drive,NC,28227
Harris Teeter,FORT MILL,9700475,#0475 #475 970000475 97000475 9700475,867 Stockbridge Drive,SC,29708
Harris Teeter,HUNTERSVILLE,9700476,#0476 #476 970000476 97000476 9700476,13108 Eastfield Road,NC,28078
Harris Teeter,MATTHEWS,9700477,#0477 #477 970000477 97000477 9700477,5939 Weddington-Monroe Road,NC,28104
