keywords,city,Aggdata Store Number,store_number,address,state,zip_code
Hess,Waterford,7204,7204 07204 #07204 #7204,122 Boston Post Road,CT,6385
Hess,Norwich,7211,7211 07211 #07211 #7211,720 Boswell Ave.,CT,6360
Hess,East Hartford,7216,7216 07216 #07216 #7216,530 Main St.,CT,6108
Hess,Bridgeport,7500,7500 07500 #07500 #7500,169 North Avenue,CT,06606-5120
Hess,Bristol,7501,7501 07501 #07501 #7501,34 Farmington Avenue,CT,06010-4213
Hess,East Haven,7502,7502 07502 #07502 #7502,22-24 Frontage Road,CT,06512-2101
Hess,West Haven,7503,7503 07503 #07503 #7503,345 Elm Street,CT,06516-4334
Hess,Groton,7504,7504 07504 #07504 #7504,388 Route 12,CT,06340-2930
Hess,Hamden,7505,7505 07505 #07505 #7505,1126 Dixwell Avenue,CT,06514-4731
Hess,Portland,7506,7506 07506 #07506 #7506,182 Main Street,CT,06480-1828
Hess,New Haven,7507,7507 07507 #07507 #7507,1331 State Street,CT,06511-2725
Hess,Newington,7509,7509 07509 #07509 #7509,2499 Berlin Turnpike,CT,06111-4109
Hess,Stratford,7510,7510 07510 #07510 #7510,1975 Barnum Avenue,CT,00649-7328
Hess,Waterbury,7512,7512 07512 #07512 #7512,640 West Main Street,CT,06702-1014
Hess,New Haven,7513,7513 07513 #07513 #7513,1159 Whalley Avenue,CT,06515-1758
Hess,Southington,7514,7514 07514 #07514 #7514,181 Queen St.,CT,6489
Hess,Waterbury,7515,7515 07515 #07515 #7515,984 Wolcott St.,CT,6705
Hess,Dover,8500,8500 08500 #08500 #8500,31 North Dupont Hwy,DE,19901-4265
Hess,Milltown,8501,8501 08501 #08501 #8501,5801 Kirkwood Highway,DE,19808-4812
Hess,New Castle,8502,8502 08502 #08502 #8502,506 DuPont Highway,DE,19720-0001
Hess,Wilmington,8503,8503 08503 #08503 #8503,207 South Market Street,DE,19801-5202
Hess,Dania Beach,9203,9203 09203 #09203 #9203,4155 Griffin Rd,FL,33314-4728
Hess,Naples,9204,9204 09204 #09204 #9204,697 Ninth St. North,FL,34102
Hess,Bradenton,9206,9206 09206 #09206 #9206,8604 E. SR 70,FL,34202
Hess,Tice,9210,9210 09210 #09210 #9210,4960 Palm Beach Blvd.,FL,33905
Hess,Margate,9216,9216 09216 #09216 #9216,150 North State Rd,FL,33063
Hess,Fort Myers,9217,9217 09217 #09217 #9217,14690 Metro Parkway,FL,33912
Hess,Tampa,9221,9221 09221 #09221 #9221,3701 E. Busch Blvd.,FL,33612
Hess,Stuart,9222,9222 09222 #09222 #9222,3201 SE Federal Highway,FL,34994
Hess,New Port Richey,9224,9224 09224 #09224 #9224,5426 Little Road,FL,34655
Hess,Doral,9226,9226 09226 #09226 #9226,10675 NW 41st Street,FL,33178-4288
Hess,West Palm Beach,9227,9227 09227 #09227 #9227,2450 Okeechobee Blvd,FL,33409
Hess,Orlando,9229,9229 09229 #09229 #9229,2655 S Kirkman Road,FL,32811
Hess,Jacksonville,9232,9232 09232 #09232 #9232,7106 Blanding Blvd,FL,32244
Hess,Fernandina Beach,9233,9233 09233 #09233 #9233,3100 S. 8th Street,FL,32034
Hess,Kissimmee,9235,9235 09235 #09235 #9235,2294 East US 192,FL,34744
Hess,Nokomis,9239,9239 09239 #09239 #9239,1241 N. Tamiami Trail,FL,34275
Hess,Lake Park,9240,9240 09240 #09240 #9240,1216 Northlake Blvd.,FL,33403
Hess,Lehigh Acres,9241,9241 09241 #09241 #9241,5551 Lee Boulevard,FL,33970
Hess,Cocoa,9244,9244 09244 #09244 #9244,1035 W.king st,FL,32043
Hess,Kissimmee,9246,9246 09246 #09246 #9246,3200 South John Young Pkwy,FL,34746
Hess,Port Orange,9247,9247 09247 #09247 #9247,4590 Ridgewood Ave.,FL,32127
Hess,Lakeland,9251,9251 09251 #09251 #9251,3117 S. Florida Ave.,FL,33802
Hess,Davie,9253,9253 09253 #09253 #9253,2860 Davie Road,FL,33314
Hess,Brandon,9254,9254 09254 #09254 #9254,915 Providence Road,FL,33511
Hess,Hialeah,9259,9259 09259 #09259 #9259,2295 N.W. Okeechobee Rd.,FL,33010
Hess,Largo,9261,9261 09261 #09261 #9261,2930 East Bay Drive,FL,33771
Hess,Fort Pierce,9265,9265 09265 #09265 #9265,3045 South US-1,FL,34982
Hess,Kissimmee,9267,9267 09267 #09267 #9267,3270 Vineland Road,FL,34746-4893
Hess,St. Petersburg,9269,9269 09269 #09269 #9269,3225 34th Street North,FL,33713
Hess,Leesburg,9272,9272 09272 #09272 #9272,1404 N. Citrus Blvd.,FL,34748
Hess,Jacksonville,9276,9276 09276 #09276 #9276,9580 Regency Sq Blvd No.,FL,32225
Hess,Tampa,9277,9277 09277 #09277 #9277,17519 Bruce B Downs Blvd,FL,33647
Hess,Miami,9279,9279 09279 #09279 #9279,7550 NW 186th Street,FL,33015
Hess,Tampa,9282,9282 09282 #09282 #9282,11425 W. Hillsborough Ave,FL,33635
Hess,Spring Hill,9284,9284 09284 #09284 #9284,100 Mariner Blvd.,FL,34609
Hess,Pompano Beach,9287,9287 09287 #09287 #9287,900 E. Sample Road,FL,33064
Hess,Tampa,9288,9288 09288 #09288 #9288,10001 N. Florida Ave.,FL,33612
Hess,Fort Lauderdale,9290,9290 09290 #09290 #9290,5002 N. Dixie Hwy.,FL,33334
Hess,Fort Lauderdale,9291,9291 09291 #09291 #9291,1600 S. Federal Hwy.,FL,33316
Hess,Hialeah,9293,9293 09293 #09293 #9293,955 East 49th Street,FL,33013
Hess,Palm Harbor,9294,9294 09294 #09294 #9294,33600 US 19N,FL,34684
Hess,Jacksonville,9296,9296 09296 #09296 #9296,1879 Lane Avenue South,FL,32210
Hess,Hollywood,9297,9297 09297 #09297 #9297,6395 Taft Street,FL,33024
Hess,Jacksonville,9298,9298 09298 #09298 #9298,7403 Lem Turner Road,FL,32208
Hess,Jacksonville,9300,9300 09300 #09300 #9300,1066 University Blvd N.,FL,32211
Hess,Oakland Park,9301,9301 09301 #09301 #9301,3300 N. Andrews Ave.,FL,33309
Hess,Fort Lauderdale,9302,9302 09302 #09302 #9302,4200 Peters Rd,FL,33317
Hess,Miami,9303,9303 09303 #09303 #9303,8190 S. W. 40th St.,FL,33155
Hess,Fort Lauderdale,9304,9304 09304 #09304 #9304,621 W. Broward Blvd.,FL,33312
Hess,Tampa,9305,9305 09305 #09305 #9305,6332 North Dale Mabry Hwy,FL,33614
Hess,Jacksonville,9306,9306 09306 #09306 #9306,5843 University Blvd W.,FL,32216
Hess,St. Cloud,9307,9307 09307 #09307 #9307,4500 13th Street,FL,34771
Hess,Hollywood,9310,9310 09310 #09310 #9310,5801 W. Johnson St,FL,33021
Hess,Jacksonville,9311,9311 09311 #09311 #9311,6010 103rd Street,FL,32210
Hess,Ocoee,9312,9312 09312 #09312 #9312,2710 Maguire Rd.,FL,34761-4796
Hess,Seminole,9313,9313 09313 #09313 #9313,10544 Park Blvd.,FL,33772
Hess,Jacksonville,9314,9314 09314 #09314 #9314,4586 San Juan Ave.,FL,32210
Hess,Jacksonville,9316,9316 09316 #09316 #9316,1052 Dunn Avenue,FL,32218
Hess,Pembroke Pines,9319,9319 09319 #09319 #9319,7721 Hollywood Blvd.,FL,33024
Hess,North Miami,9320,9320 09320 #09320 #9320,20901 N. W. 2nd Ave.,FL,33169
Hess,Jacksonville,9321,9321 09321 #09321 #9321,551 Cassat Avenue,FL,32205
Hess,Fort Lauderdale,9322,9322 09322 #09322 #9322,6191 Powerline Road,FL,33309
Hess,Lake Worth,9323,9323 09323 #09323 #9323,3965 S. Congress Avenue,FL,33461
Hess,Deerfield Beach,9325,9325 09325 #09325 #9325,2515 West Sample Road,FL,33073
Hess,Valrico,9327,9327 09327 #09327 #9327,3353 Lithia Pinecrest Rd,FL,33594
Hess,Orlando,9328,9328 09328 #09328 #9328,5365 International Drive,FL,32819-9428
Hess,Winter Garden,9329,9329 09329 #09329 #9329,13707 W. Colonial Drive,FL,34787-4201
Hess,Fort Myers,9330,9330 09330 #09330 #9330,9281 Daniels Parkway,FL,33912
Hess,Fort Myers,9331,9331 09331 #09331 #9331,15150 S Cleveland Ave,FL,33912
Hess,Fort Myers,9333,9333 09333 #09333 #9333,15260 McGregor Blvd,FL,33908
Hess,Cape Coral,9335,9335 09335 #09335 #9335,833 Cape Coral Pkwy,FL,33904
Hess,North Fort Myers,9336,9336 09336 #09336 #9336,1365 N. Tamiami Trail,FL,33903
Hess,North Fort Myers,9337,9337 09337 #09337 #9337,14010 N Cleveland Ave,FL,33903
Hess,Fort Myers,9340,9340 09340 #09340 #9340,3566 Fowler Street,FL,33901
Hess,Fort Myers,9341,9341 09341 #09341 #9341,3200 Colonial Blvd,FL,33966
Hess,Fort Myers,9342,9342 09342 #09342 #9342,11999 S Cleveland Ave,FL,33907
Hess,Fort Myers,9344,9344 09344 #09344 #9344,2208 Cleveland Ave,FL,33901
Hess,Port St. Lucie,9345,9345 09345 #09345 #9345,6601 South US-1,FL,34952
Hess,Orlando,9347,9347 09347 #09347 #9347,2902 West Sand Lake Road,FL,32819-9024
Hess,Tampa,9348,9348 09348 #09348 #9348,8350 Martin Luther King Blvd E,FL,33619
Hess,Fort Lauderdale,9350,9350 09350 #09350 #9350,6201 N. Dixie Highway,FL,33334
Hess,Fort Lauderdale,9351,9351 09351 #09351 #9351,2300 SE 17th,FL,33316
Hess,Deerfield Beach,9352,9352 09352 #09352 #9352,714 S. Federal Hwy.,FL,33441
Hess,Hialeah,9353,9353 09353 #09353 #9353,5705 NW 167th Street,FL,33015
Hess,Largo,9356,9356 09356 #09356 #9356,11708 Seminole Blvd.,FL,33778
Hess,Largo,9357,9357 09357 #09357 #9357,13987 Walsingham Rd.,FL,33774
Hess,Largo,9358,9358 09358 #09358 #9358,4 N. Indian Rocks Rd.,FL,33770
Hess,New Port Richey,9359,9359 09359 #09359 #9359,6245 US 19,FL,34652
Hess,Daytona Beach,9361,9361 09361 #09361 #9361,2675 W. International Speedway,FL,32114
Hess,Riverview,9362,9362 09362 #09362 #9362,11615 Boyette Road,FL,33569-5531
Hess,East Naples,9363,9363 09363 #09363 #9363,4171 Tamiami Trl.,FL,34112
Hess,Northport,9364,9364 09364 #09364 #9364,14807 Tamiami Trl.,FL,34287
Hess,Port Charlotte,9365,9365 09365 #09365 #9365,1470 Tamiami Trl.,FL,33948
Hess,Delray Beach,9371,9371 09371 #09371 #9371,14624 Military Trail,FL,33445
Hess,Orange Park,9372,9372 09372 #09372 #9372,466 Blanding Blvd.,FL,32073
Hess,Jacksonville,9374,9374 09374 #09374 #9374,14190 Beach Blvd.,FL,32250
Hess,Orange Park,9375,9375 09375 #09375 #9375,609 Blanding Blvd,FL,32073
Hess,East Fort Myers,9376,9376 09376 #09376 #9376,4087 Palm Beach Blvd,FL,33916
Hess,Port Richey,9378,9378 09378 #09378 #9378,7046 Ridge Road,FL,34668
Hess,Lakeland,9380,9380 09380 #09380 #9380,6808 S. Florida Ave.,FL,33813
Hess,Orange Park,9381,9381 09381 #09381 #9381,1346 Park Ave,FL,32073
Hess,Tampa,9382,9382 09382 #09382 #9382,8310 W. Waters Ave,FL,33615
Hess,Jacksonville,9383,9383 09383 #09383 #9383,7103 Merrill Road,FL,32211
Hess,Merritt Island,9384,9384 09384 #09384 #9384,3095 N Courtenay Pkwy,FL,32953
Hess,Jacksonville,9388,9388 09388 #09388 #9388,5405 Beach Blvd.,FL,32207
Hess,Port St. Lucie,9389,9389 09389 #09389 #9389,10453 US-1,FL,34952
Hess,Jacksonville,9393,9393 09393 #09393 #9393,10405 Beach Blvd.,FL,32246
Hess,Casselberry,9395,9395 09395 #09395 #9395,815 Semoran Blvd.,FL,32707
Hess,Orlando,9396,9396 09396 #09396 #9396,12253 S. Orange Bloss Tr.,FL,32837
Hess,Port Charlotte,9397,9397 09397 #09397 #9397,1021 Kings Highway,FL,33948
Hess,Venice,9398,9398 09398 #09398 #9398,350 Commercial Blvd,FL,34293
Hess,Key Largo,9399,9399 09399 #09399 #9399,99601 Overseas Hwy.,FL,33037
Hess,Inverness,9401,9401 09401 #09401 #9401,9515 E. Gulf to Lake Hwy,FL,34450
Hess,Brooksville,9403,9403 09403 #09403 #9403,1950 East Jefferson Street,FL,34601
Hess,Brooksville,9404,9404 09404 #09404 #9404,26260 Cortez Road.,FL,34601
Hess,Brooksville,9405,9405 09405 #09405 #9405,18635 Cortez Road,FL,34601
Hess,Spring Hill,9407,9407 09407 #09407 #9407,4159 Mariner Blvd.,FL,34609
Hess,Spring Hill,9408,9408 09408 #09408 #9408,3495 Deltona Blvd,FL,34606
Hess,Spring Hill,9409,9409 09409 #09409 #9409,4707 Commercial Way,FL,34606
Hess,New Port Richey,9412,9412 09412 #09412 #9412,7319 Plathe Rd,FL,34653
Hess,Odessa,9413,9413 09413 #09413 #9413,13508 State Rd 54,FL,33556
Hess,Land O Lakes,9414,9414 09414 #09414 #9414,11224 Land O Lakes Blvd.,FL,34638
Hess,Zephyrhills,9415,9415 09415 #09415 #9415,6026 N. Gall Blvd,FL,33541
Hess,Dover,9416,9416 09416 #09416 #9416,12877 E US Hwy 92,FL,33527
Hess,Valrico,9417,9417 09417 #09417 #9417,2101 East Brandon Blvd.,FL,33594
Hess,Tampa,9418,9418 09418 #09418 #9418,14903 Bruce B. Downs BLVD,FL,33613
Hess,Lutz,9419,9419 09419 #09419 #9419,18431 Livingston Ave.,FL,33549
Hess,Tampa,9420,9420 09420 #09420 #9420,3611 Bearss Ave W,FL,33618
Hess,Tampa,9421,9421 09421 #09421 #9421,6351 W. Waters Ave,FL,33634
Hess,Oldsmar,9422,9422 09422 #09422 #9422,5010 Tampa Rd,FL,34677
Hess,Oldsmar,9424,9424 09424 #09424 #9424,3659 State Rd 580,FL,34677
Hess,Palm Harbor,9425,9425 09425 #09425 #9425,2485 Nebraska Ave.,FL,34683
Hess,Palm Harbor,9426,9426 09426 #09426 #9426,36763 US 19,FL,34684
Hess,Tarpon Springs,9428,9428 09428 #09428 #9428,1205 Gulf Rd,FL,34689
Hess,Palm Harbor,9429,9429 09429 #09429 #9429,2734 US-19 Alt,FL,34683
Hess,Clearwater,9433,9433 09433 #09433 #9433,1625 N. Mc Mullen Booth Road,FL,33759-2522
Hess,Clearwater,9434,9434 09434 #09434 #9434,2577 Harn Blvd,FL,33764
Hess,Clearwater,9435,9435 09435 #09435 #9435,2185 Drew St,FL,33765
Hess,Clearwater,9437,9437 09437 #09437 #9437,441 Chestnut St.,FL,33756
Hess,Clearwater,9438,9438 09438 #09438 #9438,32 Bay Esplanade,FL,33767
Hess,Clearwater Beach,9439,9439 09439 #09439 #9439,601 Bayway Blvd,FL,33767
Hess,Madeira Beach,9445,9445 09445 #09445 #9445,14361 Gulf Blvd,FL,33708
Hess,St. Petersburg,9446,9446 09446 #09446 #9446,3001 66th St North,FL,33710
Hess,Pinellas Park,9447,9447 09447 #09447 #9447,4275 Park Blvd,FL,33781
Hess,Largo,9448,9448 09448 #09448 #9448,11800 66th St North,FL,33773
Hess,Clearwater,9451,9451 09451 #09451 #9451,2698 Roosevelt Blvd,FL,33760
Hess,Clearwater,9453,9453 09453 #09453 #9453,5798 Roosevelt Blvd,FL,33760
Hess,Cape Coral,9455,9455 09455 #09455 #9455,1006 Del Prado Blvd,FL,33904
Hess,Bonita Springs,9458,9458 09458 #09458 #9458,27001 Old 41 Road,FL,34135
Hess,Bonita Springs,9459,9459 09459 #09459 #9459,12030 Bonita Beach Rd,FL,34135
Hess,Bonita Springs,9460,9460 09460 #09460 #9460,28070 Quail Nest Lane,FL,34135
Hess,Naples,9461,9461 09461 #09461 #9461,2055 Pineridge Rd,FL,34109
Hess,Naples,9462,9462 09462 #09462 #9462,2100 Goodlette Road,FL,34102
Hess,Naples,9463,9463 09463 #09463 #9463,1600 Airport Rd,FL,34112
Hess,Naples,9464,9464 09464 #09464 #9464,6300 Davis Blvd,FL,34104
Hess,Naples,9465,9465 09465 #09465 #9465,11655 Collier Blvd.,FL,34116
Hess,Naples,9466,9466 09466 #09466 #9466,5100 Golden Gate Parkway,FL,34116
Hess,Fort Myers,9467,9467 09467 #09467 #9467,7700 Cypress Lake Drive,FL,33907
Hess,Cape Coral,9471,9471 09471 #09471 #9471,402 Del Prado Blvd.,FL,33990
Hess,Cape Coral,9472,9472 09472 #09472 #9472,1020 Santa Barbara Blvd.,FL,33991
Hess,Lehigh Acres,9473,9473 09473 #09473 #9473,1351 Homestead Road,FL,33936
Hess,Arcadia,9474,9474 09474 #09474 #9474,201 S. Brevard Avenue,FL,34266
Hess,Sebastian,9476,9476 09476 #09476 #9476,700 US 1,FL,32958
Hess,Palm Bay,9477,9477 09477 #09477 #9477,1090 Malabar Road Se,FL,32907
Hess,Melbourne,9478,9478 09478 #09478 #9478,700 W. New Haven Blvd,FL,32901
Hess,Cocoa,9479,9479 09479 #09479 #9479,1600 Clearlake Road,FL,32922
Hess,Cocoa,9480,9480 09480 #09480 #9480,4000 North US 1,FL,32927
Hess,Rockledge,9500,9500 09500 #09500 #9500,2045 Murrell Road,FL,32955
Hess,Orlando,9501,9501 09501 #09501 #9501,5511 Clarcona Ocoee Road,FL,32810-4057
Hess,Bradenton,9502,9502 09502 #09502 #9502,11002 E State Road 64,FL,34202-9748
Hess,Port St. Lucie,9503,9503 09503 #09503 #9503,8580 US HWY 1,FL,34952
Hess,Stuart,9504,9504 09504 #09504 #9504,100 SW Monterey Rd.,FL,34994-4610
Hess,Lake Worth,9506,9506 09506 #09506 #9506,5975 South State Rd 7,FL,33449-5456
Hess,Orlando,9510,9510 09510 #09510 #9510,5981 Turkey Lake Rd,FL,32819-4201
Hess,Clermont,9511,9511 09511 #09511 #9511,17431 US Highway 192,FL,34711-9663
Hess,Leesburg,9512,9512 09512 #09512 #9512,9532 US-441,FL,34788-3948
Hess,Coral Springs,9513,9513 09513 #09513 #9513,4150 State Road 7,FL,33067-4603
Hess,Ormond Beach,9514,9514 09514 #09514 #9514,700 South Nova Road,FL,32174-7333
Hess,Orlando,9516,9516 09516 #09516 #9516,38 S. Goldenrod Lane,FL,32807
Hess,Altamonte Springs,9518,9518 09518 #09518 #9518,105 E. State Road 436,FL,32701-4310
Hess,Melbourne,9519,9519 09519 #09519 #9519,7145 N. Wickham Rd,FL,32940-7523
Hess,Orlando,9520,9520 09520 #09520 #9520,9520 SouthOrange Blossom Trail,FL,32837-8306
Hess,Melbourne,9521,9521 09521 #09521 #9521,8275 N. Wickham Rd.,FL,32940-7924
Hess,Port St. Lucie,9522,9522 09522 #09522 #9522,149 N.W. Bayshore Blvd.,FL,34983
Hess,West Palm Beach,9523,9523 09523 #09523 #9523,6840 Okeechobee Blvd,FL,33411-2508
Hess,North Lauderdale,9524,9524 09524 #09524 #9524,8300 W. McNab Rd,FL,33068-4165
Hess,Winter Park,9525,9525 09525 #09525 #9525,2617 Fairbank Ave,FL,32789
Hess,Casselberry,9526,9526 09526 #09526 #9526,3190 S. US Highway 17-92,FL,32707
Hess,Tampa,9528,9528 09528 #09528 #9528,5602 S Dale Mabry Hwy,FL,33611-4228
Hess,Port Richey,9531,9531 09531 #09531 #9531,8011 US Highway 19,FL,34668-6635
Hess,Riverview,9532,9532 09532 #09532 #9532,13179 S.US HWY 301,FL,33569-7418
Hess,Green Cove Springs,9533,9533 09533 #09533 #9533,3254 Highway 17 South,FL,32043
Hess,Jacksonville,9534,9534 09534 #09534 #9534,3712 Phillips Hwy,FL,32207
Hess,Zephyrhills,9535,9535 09535 #09535 #9535,7317 Gall Blvd,FL,33541
Hess,Leesburg,9536,9536 09536 #09536 #9536,27345 US Hwy 27,FL,34748
Hess,Jacksonville,9537,9537 09537 #09537 #9537,5642 Bowden Road,FL,32216-6132
Hess,Lake Worth,9538,9538 09538 #09538 #9538,5980 South Jog Road,FL,33467
Hess,Fort Lauderdale,9539,9539 09539 #09539 #9539,3053 N. Ocean Blvd,FL,33308
Hess,Jacksonville,9540,9540 09540 #09540 #9540,4324 Atlantic Blvd,FL,32207-2043
Hess,Jacksonville,9541,9541 09541 #09541 #9541,13637 Beach Blvd,FL,32224-1205
Hess,Jacksonville,9544,9544 09544 #09544 #9544,539 Lane Ave S,FL,32254
Hess,Jacksonville,9546,9546 09546 #09546 #9546,12245 San Jose Blvd,FL,32223-2638
Hess,Ormond Beach,9548,9548 09548 #09548 #9548,1102 W Granada Blvd,FL,32174
Hess,Jensen Beach,9549,9549 09549 #09549 #9549,4287 NW Federal Hwy,FL,34957-3600
Hess,Miami Garden,9550,9550 09550 #09550 #9550,19880 NW 27th Avenue,FL,33056
Hess,Melbourne,9551,9551 09551 #09551 #9551,3500 South Babcock St,FL,32901-8204
Hess,Jacksonville,9552,9552 09552 #09552 #9552,9094 Merrill Road,FL,32225-4367
Hess,Miami,9553,9553 09553 #09553 #9553,180 NW 167th Street,FL,33169-6020
Hess,New Port Richey,9554,9554 09554 #09554 #9554,8923 State Road 54,FL,34655-3006
Hess,Holiday,9555,9555 09555 #09555 #9555,2023 US Highway 19,FL,34691-4346
Hess,Fruit Cove,9556,9556 09556 #09556 #9556,401 Roberts Road,FL,32259-9245
Hess,West Palm Beach,9557,9557 09557 #09557 #9557,5019 Okeechobee Blvd,FL,33417-4533
Hess,Clearwater,9558,9558 09558 #09558 #9558,12550 49th Street N,FL,33760
Hess,Bradenton,9559,9559 09559 #09559 #9559,6706 14th Street W,FL,34207-5806
Hess,Tarpon Springs,9560,9560 09560 #09560 #9560,38611 US Highway 19,FL,34689
Hess,Tamarac,9561,9561 09561 #09561 #9561,8550 N. University Drive,FL,33321-1720
Hess,Middleburg,9562,9562 09562 #09562 #9562,1545 Blanding Blvd,FL,32068-3907
Hess,Miramar,9563,9563 09563 #09563 #9563,8905 Miramar Parkway,FL,33025
Hess,Florida City,9564,9564 09564 #09564 #9564,311 SE 1st Avenue,FL,33034
Hess,North Bay Village,9565,9565 09565 #09565 #9565,1508 79th St. Causeway,FL,33141
Hess,North Miami,9566,9566 09566 #09566 #9566,11401 Biscayne Blvd,FL,33181
Hess,Orlando,9567,9567 09567 #09567 #9567,7900 World Center Drive,FL,32821-5414
Hess,Fort Lauderdale,9568,9568 09568 #09568 #9568,2401 West Commercial Blvd,FL,33309
Hess,Sarasota,9570,9570 09570 #09570 #9570,2885 University Parkway,FL,34243-4201
Hess,Orlando,9572,9572 09572 #09572 #9572,13306 S. Orange Blossom Trail,FL,32837
Hess,Lake Buena Vista,9575,9575 09575 #09575 #9575,300 East Buena Vista Dr.,FL,32830
Hess,Sarasota,9576,9576 09576 #09576 #9576,600 N. Washington Blvd,FL,34239
Hess,Davie,9577,9577 09577 #09577 #9577,3241 North University Dr.,FL,33024
Hess,Lauderhill,9578,9578 09578 #09578 #9578,4695 North University Dr.,FL,33351
Hess,St. Augustine,9579,9579 09579 #09579 #9579,150 Hampton Point Drive,FL,32092-3063
Hess,Miramar,9580,9580 09580 #09580 #9580,12461 Miramar Parkway,FL,33027
Hess,Orlando,9581,9581 09581 #09581 #9581,10024 Lee Vista Blvd,FL,32829-8030
Hess,Pompano Beach,9582,9582 09582 #09582 #9582,2350 N.Powerline Road,FL,33069
Hess,Winter Garden,9584,9584 09584 #09584 #9584,3202 Daniels Road,FL,34787
Hess,Jacksonville,9585,9585 09585 #09585 #9585,9651 Argyle Forest Blvd,FL,32222-2854
Hess,Tampa,9588,9588 09588 #09588 #9588,5149 Adamo Drive,FL,33619
Hess,Clermont,9590,9590 09590 #09590 #9590,16500 State Road 50,FL,34711
Hess,Estero,9592,9592 09592 #09592 #9592,10351 Corkscrew Road,FL,33928
Hess,Orlando,9611,9611 09611 #09611 #9611,6974 Colonial Blvd.,FL,32807
Hess,Holly Hill,9619,9619 09619 #09619 #9619,1695 Nova Road,FL,32117
Hess,Orlando,9623,9623 09623 #09623 #9623,7237 Curryford Road,FL,32822
Hess,Naples,9629,9629 09629 #09629 #9629,1410 Airport Pulling Rd,FL,34104
Hess,Ruskin,9659,9659 09659 #09659 #9659,2704 East College Ave.,FL,33570-5218
Hess,Tampa,9660,9660 09660 #09660 #9660,3801 S. Dale Mabry Hwy,FL,33611
Hess,Clermont,9673,9673 09673 #09673 #9673,13800 South Greater Hills Blvd,FL,34711
Hess,Vero Beach,9696,9696 09696 #09696 #9696,4105 US-1,FL,32967
Hess,Melbourne,9700,9700 09700 #09700 #9700,2903 South Harbor City Blvd.,FL,32901-7213
Hess,Hollywood,9709,9709 09709 #09709 #9709,1840 N. Federal Hwy,FL,33020
Hess,Deland,9712,9712 09712 #09712 #9712,2201 N. Woodland Blvd.,FL,32720
Hess,Coral Springs,9729,9729 09729 #09729 #9729,2290 Coral Springs Drive,FL,33071-4234
Hess,Tampa,9731,9731 09731 #09731 #9731,1444 Fletcher Avenue,FL,33612
Hess,Orlando,9742,9742 09742 #09742 #9742,3501 Old Winter Garden Road,FL,32805
Hess,Port Richey,9750,9750 09750 #09750 #9750,9400 US Highway 19,FL,34668
Hess,Mulberry,9755,9755 09755 #09755 #9755,4785 State Road 60 West,FL,33860
Hess,Davie,9756,9756 09756 #09756 #9756,6690 Stirling Road,FL,33024
Hess,Lakeland,9757,9757 09757 #09757 #9757,111 Marcum Road,FL,33809
Hess,Clermont,9758,9758 09758 #09758 #9758,4415 South Hwy 27,FL,34714
Hess,Avon Park,9761,9761 09761 #09761 #9761,590 US 27 North,FL,33825
Hess,Calhoun,10602,10602 010602 #010602 #10602,"I-75, Exit 318",GA,30701
Hess,Towson,20204,20204 020204 #020204 #20204,1613 E. Joppa Road,MD,21286
Hess,Odenton,20215,20215 020215 #020215 #20215,1518 Annapolis Road,MD,21113
Hess,Elkridge,20226,20226 020226 #020226 #20226,6315 Washington Blvd.,MD,21075
Hess,Cockeysville,20227,20227 020227 #020227 #20227,9713-9715 York Rd.,MD,21030
Hess,Baltimore,20500,20500 020500 #020500 #20500,6715 Pulaski Highway,MD,21237-1217
Hess,Baltimore,20501,20501 020501 #020501 #20501,1801 North Charles Street,MD,21201
Hess,Baltimore,20502,20502 020502 #020502 #20502,5802 Eastern Avenue,MD,21224-2728
Hess,Baltimore,20503,20503 020503 #020503 #20503,510 Franklintown Road,MD,21223-1018
Hess,Glen Burnie,20504,20504 020504 #020504 #20504,6803 Ritchie Highway,MD,21061-2301
Hess,Baltimore,20505,20505 020505 #020505 #20505,2101 Harford Road,MD,21218-6232
Hess,Baltimore,20506,20506 020506 #020506 #20506,3205 Washington Bouelvard,MD,21230-1029
Hess,Baltimore,20507,20507 020507 #020507 #20507,5128 Reisterstown Road,MD,21215-5522
Hess,Northampton,21202,21202 021202 #021202 #21202,237 King St.,MA,1060
Hess,Wilmington,21206,21206 021206 #021206 #21206,273 Main Street,MA,1887
Hess,Lawrence,21207,21207 021207 #021207 #21207,500 South Union St.,MA,1843
Hess,Chicopee,21209,21209 021209 #021209 #21209,1423 Memorial Dr.,MA,1020
Hess,Revere,21212,21212 021212 #021212 #21212,630 Squire Road,MA,02151-1864
Hess,Walpole,21213,21213 021213 #021213 #21213,2285 Providence Hwy,MA,02081-2529
Hess,Norton,21214,21214 021214 #021214 #21214,119-125 West Main Street,MA,2766
Hess,Peabody,21215,21215 021215 #021215 #21215,545 Lowell Street,MA,1960
Hess,Springfield,21217,21217 021217 #021217 #21217,453 Cooley Street,MA,01128-1113
Hess,Brockton,21219,21219 021219 #021219 #21219,1614 Main Street,MA,2301
Hess,Whitinsville,21220,21220 021220 #021220 #21220,1144 Providence Road,MA,1588
Hess,Swansea,21221,21221 021221 #021221 #21221,35 GAR Highway,MA,2777
Hess,Palmer,21222,21222 021222 #021222 #21222,1411 Main St.,MA,1069
Hess,North Reading,21223,21223 021223 #021223 #21223,231 Main Street,MA,1864
Hess,Seekonk,21225,21225 021225 #021225 #21225,1502 Newman Ave,MA,2771
Hess,Fall River,21226,21226 021226 #021226 #21226,15 Eastern Ave.,MA,2722
Hess,Raynham,21227,21227 021227 #021227 #21227,1315 Broadway,MA,2767
Hess,Dorchester,21228,21228 021228 #021228 #21228,710 Gallivan BLVD,MA,2124
Hess,Cambridge,21229,21229 021229 #021229 #21229,2055 Massachusetts Ave,MA,02140-1306
Hess,Dracut,21230,21230 021230 #021230 #21230,1643 Lakeview Ave,MA,1826
Hess,Newton,21231,21231 021231 #021231 #21231,2370 Commonwealth Ave,MA,2466
Hess,Seekonk,21233,21233 021233 #021233 #21233,1 Progress Street,MA,2771
Hess,Hyannis,21234,21234 021234 #021234 #21234,149 North Street,MA,2601
Hess,Boston,21235,21235 021235 #021235 #21235,874 Dorchester Avenue,MA,2125
Hess,Leominster,21236,21236 021236 #021236 #21236,700 Central Street,MA,1453
Hess,Taunton,21237,21237 021237 #021237 #21237,943 County Street/Rt 140,MA,2780
Hess,Attleboro,21238,21238 021238 #021238 #21238,946 Washington Street,MA,2703
Hess,Natick,21239,21239 021239 #021239 #21239,230 Worcester Road,MA,1760
Hess,Woburn,21241,21241 021241 #021241 #21241,306 Montvale Avenue,MA,1801
Hess,Dennisport,21242,21242 021242 #021242 #21242,505 Main Street,MA,2639
Hess,Hyannis,21243,21243 021243 #021243 #21243,50 Ocean Street,MA,2601
Hess,West Yarmouth,21244,21244 021244 #021244 #21244,441 Main Street,MA,2673
Hess,Hyannis,21245,21245 021245 #021245 #21245,317 Falmouth Road,MA,2601
Hess,West Yarmouth,21246,21246 021246 #021246 #21246,14 East Main Street,MA,2673
Hess,Orleans,21247,21247 021247 #021247 #21247,401 South Orleans Road,MA,2653
Hess,Hyannis,21248,21248 021248 #021248 #21248,156 Iyannough Road,MA,2601
Hess,Falmouth,21249,21249 021249 #021249 #21249,1196 Sandwich Road,MA,2536
Hess,Sourth Yarmouth,21251,21251 021251 #021251 #21251,1353 Main Street,MA,2664
Hess,Osterville,21252,21252 021252 #021252 #21252,792 Main Street,MA,2655
Hess,Buzzards Bay,21253,21253 021253 #021253 #21253,343 Scenic Highway,MA,2532
Hess,Allston,21300,21300 021300 #021300 #21300,100 Brighton Ave.,MA,2134
Hess,Ashland,21301,21301 021301 #021301 #21301,196 Pond Street,MA,1721
Hess,Beverly,21302,21302 021302 #021302 #21302,295 Cabot Street,MA,1915
Hess,Beverly,21303,21303 021303 #021303 #21303,38 Enon Street,MA,1915
Hess,Billerica,21304,21304 021304 #021304 #21304,192 Boston Road,MA,1821
Hess,Brockton,21305,21305 021305 #021305 #21305,1234 Belmont Street,MA,2301
Hess,Brockton,21306,21306 021306 #021306 #21306,296 North Pearl Street,MA,2301
Hess,Burlington,21307,21307 021307 #021307 #21307,110 Cambridge Street,MA,1803
Hess,Charlestown,21308,21308 021308 #021308 #21308,123 Cambridge Street,MA,2129
Hess,Chelsea,21309,21309 021309 #021309 #21309,251 Everett Avenue,MA,2150
Hess,Dedham,21310,21310 021310 #021310 #21310,373 Bridge Street,MA,2026
Hess,Framingham,21313,21313 021313 #021313 #21313,1701 Worcester St.,MA,1701
Hess,Franklin,21314,21314 021314 #021314 #21314,251 East Central Street,MA,2038
Hess,Gardner,21315,21315 021315 #021315 #21315,19 Pearson Boulevard,MA,1440
Hess,Greenfield,21317,21317 021317 #021317 #21317,245 Federal Street,MA,1301
Hess,Hanson,21318,21318 021318 #021318 #21318,318 Main Street,MA,2341
Hess,Haverhill,21319,21319 021319 #021319 #21319,491 Groveland Street,MA,1830
Hess,Holden,21320,21320 021320 #021320 #21320,770 Main Street,MA,1520
Hess,Kingston,21321,21321 021321 #021321 #21321,165 Summer Street,MA,02364`
Hess,Lowell,21322,21322 021322 #021322 #21322,558 Pawtucket Street,MA,1851
Hess,Marlborough,21323,21323 021323 #021323 #21323,770 Boston Post Road,MA,1752
Hess,Marshfield,21324,21324 021324 #021324 #21324,2139 Ocean Street,MA,2050
Hess,Natick,21325,21325 021325 #021325 #21325,194 West Central Street,MA,1760
Hess,Needham,21326,21326 021326 #021326 #21326,207 Highland Ave.,MA,2494
Hess,New Bedford,21327,21327 021327 #021327 #21327,929 Kempton Street,MA,2740
Hess,North Attleboro,21328,21328 021328 #021328 #21328,154 North Washington Street,MA,2763
Hess,North Bellingham,21329,21329 021329 #021329 #21329,199 Hartford Ave,MA,2019
Hess,North Dartmouth,21330,21330 021330 #021330 #21330,91 Faunce Corner Mall Road,MA,2747
Hess,Raynham,21332,21332 021332 #021332 #21332,447 New State Highway,MA,2767
Hess,Revere,21333,21333 021333 #021333 #21333,41 Lee Burbank Highway,MA,2151
Hess,Salem,21334,21334 021334 #021334 #21334,295 Derby Street,MA,1970
Hess,Saugus,21335,21335 021335 #021335 #21335,1252 Broadway,MA,1906
Hess,Somerset,21336,21336 021336 #021336 #21336,516 County Street,MA,2726
Hess,Spencer,21337,21337 021337 #021337 #21337,65 West Main Street,MA,1562
Hess,Swansea,21338,21338 021338 #021338 #21338,800 G.A.R. Highway,MA,2777
Hess,Tewksbury,21339,21339 021339 #021339 #21339,1910 Andover,MA,1876
Hess,Waltham,21340,21340 021340 #021340 #21340,66-70 Prospect Street,MA,2453
Hess,Ware,21341,21341 021341 #021341 #21341,18 West Street,MA,1082
Hess,Wareham,21342,21342 021342 #021342 #21342,163 Main Street,MA,2571
Hess,West Bridgewater,21343,21343 021343 #021343 #21343,244 West Center St,MA,2379
Hess,West Roxbury,21344,21344 021344 #021344 #21344,5315 Washington Street,MA,2132
Hess,Winchester,21345,21345 021345 #021345 #21345,279 Cambridge Street,MA,1890
Hess,Worcester,21346,21346 021346 #021346 #21346,321 Park Ave.,MA,1610
Hess,Allston,21500,21500 021500 #021500 #21500,219 Cambridge Street,MA,02134-6890
Hess,Brockton,21501,21501 021501 #021501 #21501,261 North Main,MA,2301
Hess,Cambridge,21502,21502 021502 #021502 #21502,287 Prospect Street,MA,02139-1312
Hess,West Springfield,21503,21503 021503 #021503 #21503,341 Memorial Avenue,MA,01089-4007
Hess,New Bedford,21504,21504 021504 #021504 #21504,1253 Cove Road,MA,02744-1110
Hess,Fall River,21505,21505 021505 #021505 #21505,614 Pleasant Street,MA,02721-4316
Hess,Lawrence,21507,21507 021507 #021507 #21507,615 Broadway,MA,01841-2404
Hess,Leominster,21508,21508 021508 #021508 #21508,482 Main Street,MA,01453-2939
Hess,Lowell,21509,21509 021509 #021509 #21509,300 Merrimac Street,MA,01852-5905
Hess,Lynn,21510,21510 021510 #021510 #21510,122 Liberty Street,MA,01901-1030
Hess,Worcester,21511,21511 021511 #021511 #21511,184 Madison Street,MA,01610-2731
Hess,Malden,21512,21512 021512 #021512 #21512,214-221 Broadway,MA,02148-4524
Hess,Fall River,21513,21513 021513 #021513 #21513,175 Milliken Blvd,MA,02721-1604
Hess,North Attleboro,21514,21514 021514 #021514 #21514,788 East Washington Street,MA,02760-1836
Hess,Natick,21515,21515 021515 #021515 #21515,207 Worcester Road,MA,01760-2212
Hess,New Bedford,21516,21516 021516 #021516 #21516,1783 Acushnet Avenue,MA,02746-2123
Hess,Boston,21517,21517 021517 #021517 #21517,151 Old Colony Avenue,MA,02127-2418
Hess,Quincy,21518,21518 021518 #021518 #21518,238 Hancock Street,MA,02171-2230
Hess,Salem,21519,21519 021519 #021519 #21519,90 North Street,MA,01970-3961
Hess,Saugus,21520,21520 021520 #021520 #21520,220 Broadway (Route 1),MA,01906-1901
Hess,Somerville,21521,21521 021521 #021521 #21521,709 McGrath Highway,MA,02145-2108
Hess,Springfield,21522,21522 021522 #021522 #21522,80 St. James Boulevard,MA,01104-2918
Hess,Stoneham,21523,21523 021523 #021523 #21523,163 Main Street,MA,02180-1613
Hess,Taunton,21524,21524 021524 #021524 #21524,23 Cape Road,MA,02780-2703
Hess,West Roxbury,21525,21525 021525 #021525 #21525,1779 Centre Street,MA,02132-1545
Hess,Watertown,21526,21526 021526 #021526 #21526,22 North Beacon Street,MA,2472
Hess,Worcester,21528,21528 021528 #021528 #21528,312 Belmont Street,MA,01604-1005
Hess,Worcester,21529,21529 021529 #021529 #21529,1148 Main Street,MA,01603-2064
Hess,East Harwich,21602,21602 021602 #021602 #21602,110 Route 137,MA,02645-2153
Hess,West Chatham,21603,21603 021603 #021603 #21603,1698 Main Street,MA,2669
Hess,Fitchburg,21604,21604 021604 #021604 #21604,A & E Fitchburg Inc,MA,1420
Hess,Chichester,29201,29201 029201 #029201 #29201,135 Dover Road,NH,03258-6518
Hess,Salem,29203,29203 029203 #029203 #29203,362 North Broadway (Rt 28),NH,3079
Hess,Derry,29204,29204 029204 #029204 #29204,50 BIRCH STREET,NH,3038
Hess,Nashua,29205,29205 029205 #029205 #29205,543 Amherst Street,NH,3060
Hess,Londonderry,29302,29302 029302 #029302 #29302,66 Nashua Rd.,NH,3053
Hess,Manchester,29303,29303 029303 #029303 #29303,805 Massabesic Street,NH,3103
Hess,Nashua,29305,29305 029305 #029305 #29305,79 E.Hollis Street,NH,3060
Hess,Manchester,29501,29501 029501 #029501 #29501,311 Queen City Avenue,NH,03102-4818
Hess,Manchester,29502,29502 029502 #029502 #29502,89 Bridge Street,NH,03101-1362
Hess,Oakhurst,30201,30201 030201 #030201 #30201,2137 Highway 35 North,NJ,07755-7200
Hess,Rockaway,30213,30213 030213 #030213 #30213,197 Route #46,NJ,7866
Hess,Woodbridge,30215,30215 030215 #030215 #30215,1021 Route #9 South,NJ,7095
Hess,Woodbridge,30216,30216 030216 #030216 #30216,1020 Route 9 North,NJ,7095
Hess,Orange,30217,30217 030217 #030217 #30217,67 Central Avenue,NJ,7050
Hess,Mercerville,30218,30218 030218 #030218 #30218,511 Route #33,NJ,8619
Hess,East Brunswick,30221,30221 030221 #030221 #30221,624 SR 18,NJ,8816
Hess,Somerville,30226,30226 030226 #030226 #30226,280 Highway #202-206,NJ,8876
Hess,East Brunswick,30227,30227 030227 #030227 #30227,345 SR 18,NJ,8816
Hess,Sayreville,30228,30228 030228 #030228 #30228,974 Route #9 S/B,NJ,8879
Hess,Garwood,30230,30230 030230 #030230 #30230,431 North Avenue,NJ,7027
Hess,Colonia,30231,30231 030231 #030231 #30231,1215 St. Georges Ave.,NJ,7067
Hess,Weehawken,30235,30235 030235 #030235 #30235,612 Boulevard East,NJ,7087
Hess,Lodi,30236,30236 030236 #030236 #30236,110 Essex Street,NJ,7644
Hess,Trenton,30239,30239 030239 #030239 #30239,1513 Princeton Avenue,NJ,8638
Hess,Lodi,30242,30242 030242 #030242 #30242,140 US-46,NJ,7644
Hess,Matawan,30254,30254 030254 #030254 #30254,986 Route #34,NJ,7747
Hess,Harrison,30260,30260 030260 #030260 #30260,2 Passaic St.,NJ,7029
Hess,Perth Amboy,30262,30262 030262 #030262 #30262,413-429 Smith,NJ,8861
Hess,Newark,30263,30263 030263 #030263 #30263,247 Park & Fifth St.,NJ,7107
Hess,Englishtown,30264,30264 030264 #030264 #30264,181 Route 9 S/B,NJ,7726
Hess,Edison,30268,30268 030268 #030268 #30268,789 Amboy Ave.,NJ,8837
Hess,Milltown,30269,30269 030269 #030269 #30269,19 S. Main St.,NJ,8850
Hess,Bridgewater,30273,30273 030273 #030273 #30273,24 Finderne Avenue,NJ,8807
Hess,Union Beach,30276,30276 030276 #030276 #30276,943-955 Route #36,NJ,7735
Hess,Brick,30279,30279 030279 #030279 #30279,1672 Route #88,NJ,8724
Hess,Deptford Township,30294,30294 030294 #030294 #30294,1295 Hurffville Road,NJ,8096
Hess,Bradley Beach,30295,30295 030295 #030295 #30295,1009 Main Street,NJ,7720
Hess,Red Bank,30296,30296 030296 #030296 #30296,431 Route 35,NJ,07701-5036
Hess,Mount Holly,30297,30297 030297 #030297 #30297,1633 Route 38,NJ,8060
Hess,Phillipsburg,30300,30300 030300 #030300 #30300,973 Memorial Pkwy.,NJ,8865
Hess,Franklin,30303,30303 030303 #030303 #30303,272 Route #23E,NJ,7416
Hess,Toms River,30304,30304 030304 #030304 #30304,58 Rt. 37,NJ,8753
Hess,Clinton,30305,30305 030305 #030305 #30305,1746 Route 31 North,NJ,8809
Hess,Eatontown,30306,30306 030306 #030306 #30306,800 Route 36 East,NJ,7724
Hess,Bayville,30307,30307 030307 #030307 #30307,125 Route #9,NJ,8721
Hess,Silverton,30311,30311 030311 #030311 #30311,1879 Hooper Ave.,NJ,8753
Hess,Manasquan,30313,30313 030313 #030313 #30313,2630 Route #70,NJ,8736
Hess,Mountain Lakes,30314,30314 030314 #030314 #30314,60 Route 46 E,NJ,7046
Hess,East Windsor,30315,30315 030315 #030315 #30315,665 Route #33 W,NJ,8520
Hess,Succasunna,30316,30316 030316 #030316 #30316,Route 10 & Commerce Blvd,NJ,7876
Hess,Ridgewood,30317,30317 030317 #030317 #30317,465-475 Goffle Rd.,NJ,7450
Hess,Bound Brook,30320,30320 030320 #030320 #30320,1620 US Hwy 22 W,NJ,8805
Hess,Ramsey,30322,30322 030322 #030322 #30322,456 Route #17 N/B,NJ,7446
Hess,Fairfield,30324,30324 030324 #030324 #30324,90 Rt. 46 E,NJ,7006
Hess,Washington,30325,30325 030325 #030325 #30325,323 State Route 31 S.,NJ,07882-4069
Hess,Newton,30329,30329 030329 #030329 #30329,89-95 Water Street,NJ,07860-1414
Hess,Butler,30330,30330 030330 #030330 #30330,1552 Route 23 N/B,NJ,7405
Hess,North Brunswick,30332,30332 030332 #030332 #30332,2800 Route 1,NJ,8902
Hess,Boonton,30334,30334 030334 #030334 #30334,556 Myrtle Avenue,NJ,7005
Hess,Hopelawn,30335,30335 030335 #030335 #30335,119 West Pond Road,NJ,8861
Hess,East Brunswick,30500,30500 030500 #030500 #30500,232 Route 18,NJ,08816-1902
Hess,East Orange,30501,30501 030501 #030501 #30501,26 Central Avenue,NJ,7018
Hess,Fort Lee,30502,30502 030502 #030502 #30502,1642 Route 46,NJ,07024-2428
Hess,Jersey City,30503,30503 030503 #030503 #30503,590 L. Munoz Marin Boulevard,NJ,07310-1218
Hess,Hoboken,30504,30504 030504 #030504 #30504,1401 Willow Avenue,NJ,07030-3309
Hess,Jersey City,30505,30505 030505 #030505 #30505,701 Route 440 S. Hudson Mall,NJ,07304-1052
Hess,Irvington,30506,30506 030506 #030506 #30506,895 Springfield Avenue,NJ,7111
Hess,Irvington,30507,30507 030507 #030507 #30507,553 Lyons Ave.,NJ,7111
Hess,Paramus,30509,30509 030509 #030509 #30509,565 Route 17 South,NJ,07652-3003
Hess,Elmwood Park,30510,30510 030510 #030510 #30510,121 Broadway,NJ,07407-3049
Hess,Newark,30511,30511 030511 #030511 #30511,273 Elizabeth Avenue,NJ,07108-2554
Hess,Pompton Plains,30512,30512 030512 #030512 #30512,200 Route 23 North,NJ,07444-2015
Hess,Perth Amboy,30513,30513 030513 #030513 #30513,679 Convery Boulevard,NJ,08861-2553
Hess,Newark,30514,30514 030514 #030514 #30514,645 McCarter Highway,NJ,07102-4709
Hess,Fort Lee,30516,30516 030516 #030516 #30516,2295 Route 4,NJ,07024-2426
Hess,Secaucus,30517,30517 030517 #030517 #30517,400 Route 3 West,NJ,07094-1320
Hess,Elizabeth,30518,30518 030518 #030518 #30518,623 Spring Street,NJ,7201
Hess,Linden,30519,30519 030519 #030519 #30519,117 W St. George Avenue,NJ,7036
Hess,Union,30520,30520 030520 #030520 #30520,2210 Route 22,NJ,07083-8406
Hess,Union City,30521,30521 030521 #030521 #30521,3900 JFK BLVD,NJ,07087-2608
Hess,Brooklawn,30522,30522 030522 #030522 #30522,342 Brooklawn Circle,NJ,08030-2702
Hess,Camden,30523,30523 030523 #030523 #30523,1420 Admiral Wilson Boulevard,NJ,08109-3902
Hess,Mount Ephraim,30525,30525 030525 #030525 #30525,Black Horse Pike & Kings Highw,NJ,08059-1116
Hess,Pennsauken,30526,30526 030526 #030526 #30526,6807 Route 130 South,NJ,08110-1512
Hess,Linden,30527,30527 030527 #030527 #30527,701 E. Edgar Road,NJ,7036
Hess,Clinton Heights,32201,32201 032201 #032201 #32201,380 Columbia Turnpike,NY,12144
Hess,Latham,32204,32204 032204 #032204 #32204,719 New Loudon Rd.,NY,12110
Hess,Syracuse,32206,32206 032206 #032206 #32206,758 Erie Boulevard W.,NY,13204
Hess,North Syracuse,32208,32208 032208 #032208 #32208,711 South Main St.,NY,13212
Hess,Albany,32210,32210 032210 #032210 #32210,812 Central Ave.,NY,12206
Hess,Schenectady,32212,32212 032212 #032212 #32212,229 S. Brandywine Ave,NY,12307
Hess,New York,32215,32215 032215 #032215 #32215,502 West 45th St.,NY,10036-3425
Hess,Elmira Heights,32221,32221 032221 #032221 #32221,2036 College Ave.,NY,14903-0025
Hess,Schenectady,32226,32226 032226 #032226 #32226,2222 Central Ave.,NY,12304-4301
Hess,Elsmere,32234,32234 032234 #032234 #32234,146 Delaware Ave.,NY,12054
Hess,Rochester,32260,32260 032260 #032260 #32260,1954 Lyell Ave.,NY,14606
Hess,East Farmingdale,32262,32262 032262 #032262 #32262,2265 Broadhollow Rd.,NY,11735-1002
Hess,Rochester,32263,32263 032263 #032263 #32263,777 Monroe Ave.,NY,14607
Hess,Lindenhurst,32264,32264 032264 #032264 #32264,274 E. Montauk Hwy.,NY,11757-6130
Hess,Staten Island,32266,32266 032266 #032266 #32266,2488 Hylan Blvd.,NY,10306-3144
Hess,Poughkeepsie,32268,32268 032268 #032268 #32268,2545 South Road,NY,12601-5465
Hess,Patchogue,32269,32269 032269 #032269 #32269,113-07 Medford Ave.,NY,11772-1203
Hess,Hempstead,32270,32270 032270 #032270 #32270,380 Peninsula Blvd,NY,11550
Hess,Jamaica,32271,32271 032271 #032271 #32271,187-07 Hillside Ave.,NY,11432-3215
Hess,Bronx,32273,32273 032273 #032273 #32273,610 Neried Ave.,NY,10470-1516
Hess,Bronx,32274,32274 032274 #032274 #32274,1610 Eastchester Rd.,NY,10461-2642
Hess,Liverpool,32277,32277 032277 #032277 #32277,7369 Oswego Road,NY,13090
Hess,Webster,32278,32278 032278 #032278 #32278,1854 Empire Blvd.,NY,14580
Hess,Rochester,32282,32282 032282 #032282 #32282,1601 Penfield Road,NY,14625-2322
Hess,Yorkville,32285,32285 032285 #032285 #32285,1500 Commercial Dr,NY,13495
Hess,Rochester,32287,32287 032287 #032287 #32287,440 Lake Avenue,NY,14608
Hess,Greece,32289,32289 032289 #032289 #32289,4350 Dewey Ave.,NY,14616
Hess,Syracuse,32292,32292 032292 #032292 #32292,3060 Court St.,NY,13208
Hess,Elmont,32298,32298 032298 #032298 #32298,650 Elmont Rd.,NY,11003-4027
Hess,Brentwood,32299,32299 032299 #032299 #32299,1861 Fifth Ave.,NY,11717-4635
Hess,West Haverstraw,32301,32301 032301 #032301 #32301,30 S US-9W,NY,10993
Hess,Glen Cove,32304,32304 032304 #032304 #32304,86 Glen Cove Ave.,NY,11542-3204
Hess,Kingston,32306,32306 032306 #032306 #32306,841 Ulster Ave.,NY,12401
Hess,Mamaroneck,32307,32307 032307 #032307 #32307,731 Mamaroneck Ave.,NY,10543
Hess,Oceanside,32311,32311 032311 #032311 #32311,2650 Long Beach Rd.,NY,11572-2226
Hess,Bellmore,32314,32314 032314 #032314 #32314,2670 Merrick Rd.,NY,11710-5717
Hess,Port Jefferson,32315,32315 032315 #032315 #32315,501 Route #112,NY,11776-1014
Hess,Island Park,32316,32316 032316 #032316 #32316,4295 Austin Blvd.,NY,11558-1625
Hess,Richmond Hill,32318,32318 032318 #032318 #32318,104-09 Atlantic Ave.,NY,11418-2930
Hess,Brighton,32319,32319 032319 #032319 #32319,222 Jefferson Road,NY,14623-2136
Hess,Islip Manor,32320,32320 032320 #032320 #32320,214 Islip Ave.,NY,11751-3017
Hess,Bayshore,32321,32321 032321 #032321 #32321,236 Bayshore Rd.,NY,11706-5328
Hess,Utica,32323,32323 032323 #032323 #32323,2639 Genesee St.,NY,13501
Hess,Irondequoit,32324,32324 032324 #032324 #32324,975 Ridge Road East,NY,14617
Hess,Miller Place,32325,32325 032325 #032325 #32325,370 Rt. 25A,NY,11764-2513
Hess,Lake Ronkonkoma,32326,32326 032326 #032326 #32326,440 Portion Rd.,NY,11779-4591
Hess,Commack,32328,32328 032328 #032328 #32328,5087 East Jericho Tpke,NY,11725-2807
Hess,Oyster Bay,32329,32329 032329 #032329 #32329,16 Pinehollow Rd.,NY,11771-4702
Hess,Stony Brook,32330,32330 032330 #032330 #32330,2451 Nesconset Hwy.,NY,11790-3502
Hess,Wappingers Falls,32332,32332 032332 #032332 #32332,1542 Route 9,NY,12590
Hess,Camillus,32333,32333 032333 #032333 #32333,5323 West Genesee St,NY,13031
Hess,Colonie,32334,32334 032334 #032334 #32334,156 Wolf Road,NY,12205
Hess,Farmingdale,32336,32336 032336 #032336 #32336,4000 Hempstead Tpke.,NY,11735-2024
Hess,Great Neck,32337,32337 032337 #032337 #32337,220 Northern Blvd.,NY,11020-4309
Hess,Utica,32338,32338 032338 #032338 #32338,148 North Genesee St.,NY,13502
Hess,Scotia,32339,32339 032339 #032339 #32339,246 Saratoga Rd.,NY,12302
Hess,Brighton,32340,32340 032340 #032340 #32340,3000 S. Winton Rd,NY,14623
Hess,Jericho,32341,32341 032341 #032341 #32341,60 Jericho Tpke.,NY,11753-1004
Hess,Johnson City,32342,32342 032342 #032342 #32342,709 Harry L Dr.,NY,13790
Hess,Binghamton,32345,32345 032345 #032345 #32345,1243 Upper Front St.,NY,13905
Hess,South Glens Falls,32346,32346 032346 #032346 #32346,66-70 Main St.,NY,12803
Hess,Fairport,32347,32347 032347 #032347 #32347,7409 Pittsford Palmyra Rd,NY,14450
Hess,Syracuse,32348,32348 032348 #032348 #32348,685 Hiawatha Blvd. West,NY,13204
Hess,Saratoga Springs,32349,32349 032349 #032349 #32349,3006 Route 50,NY,12866
Hess,North Chili,32350,32350 032350 #032350 #32350,4371 Buffalo Rd.,NY,14514
Hess,Gates,32351,32351 032351 #032351 #32351,1511 Buffalo Rd.,NY,14624
Hess,Gates,32352,32352 032352 #032352 #32352,2328 Chili Ave.,NY,14624
Hess,Brighton,32354,32354 032354 #032354 #32354,1677 Elmwood Ave.,NY,14620
Hess,Rochester,32355,32355 032355 #032355 #32355,1849 East Ave.,NY,14610
Hess,Penfield,32357,32357 032357 #032357 #32357,2180 Penfield Rd.,NY,14526
Hess,Liverpool,32358,32358 032358 #032358 #32358,1075 7th North St.,NY,13088
Hess,Johnstown,32359,32359 032359 #032359 #32359,285 N. Comrie Ave,NY,12095
Hess,Hudson,32361,32361 032361 #032361 #32361,365 Fairview Ave.,NY,12534
Hess,Riverhead,32362,32362 032362 #032362 #32362,870 Old Country Rd.,NY,11901
Hess,Hyde Park,32363,32363 032363 #032363 #32363,3694 Albany Post Road,NY,12538
Hess,Medford,32365,32365 032365 #032365 #32365,3203 Route 112 East,NY,11763
Hess,Smithtown,32366,32366 032366 #032366 #32366,615 Smithtown Bypass,NY,11788
Hess,Henrietta,32370,32370 032370 #032370 #32370,4900 W. Henrietta Rd,NY,14467
Hess,Rome,32372,32372 032372 #032372 #32372,1910 Black River Blvd.,NY,13440
Hess,Syracuse,32373,32373 032373 #032373 #32373,400 Erie Blvd.,NY,13202-1107
Hess,Fairmount,32375,32375 032375 #032375 #32375,3400 W. Genesse St,NY,13219
Hess,Endicott,32376,32376 032376 #032376 #32376,503 E. Main St,NY,13760
Hess,Binghamton,32377,32377 032377 #032377 #32377,63 Main St,NY,13905-2914
Hess,Binghamton,32378,32378 032378 #032378 #32378,1454 Upper Front St,NY,13905
Hess,Oneonta,32385,32385 032385 #032385 #32385,1 Oneida St,NY,13820
Hess,Oneonta,32386,32386 032386 #032386 #32386,325 Main Street,NY,13820
Hess,Oneonta,32387,32387 032387 #032387 #32387,4967 State Highway 23,NY,13820
Hess,Cobleskill,32389,32389 032389 #032389 #32389,2423 State Route 7 East,NY,12043-5711
Hess,Queensbury,32391,32391 032391 #032391 #32391,756 Quaker Rd.,NY,12804
Hess,Half Moon,32392,32392 032392 #032392 #32392,15-13 Crescent Rd.,NY,12065
Hess,Camillus,32393,32393 032393 #032393 #32393,2053 West Genessee Tpke,NY,13031
Hess,Bohemia,32394,32394 032394 #032394 #32394,3072 Veterans Memorial Hwy,NY,11716-1004
Hess,North Bellmore,32395,32395 032395 #032395 #32395,2426 Jerusalem Ave,NY,11710
Hess,Westbury,32397,32397 032397 #032397 #32397,880 Old Country Road,NY,11590
Hess,West Glens Falls,32401,32401 032401 #032401 #32401,81 North Main St.,NY,12801
Hess,Clifton Park,32403,32403 032403 #032403 #32403,1698 Rt. 9,NY,12065
Hess,Cohoes,32409,32409 032409 #032409 #32409,601 Saratoga St.,NY,12047
Hess,Troy,32412,32412 032412 #032412 #32412,800 Burden Ave.,NY,12180
Hess,Slingerlands,32415,32415 032415 #032415 #32415,1358 New Scotland Road,NY,12159
Hess,Catskill,32423,32423 032423 #032423 #32423,272 W. Bridge St.,NY,12414
Hess,Gates,32424,32424 032424 #032424 #32424,719 Elmgrove Rd,NY,14606-4327
Hess,Saugerties,32425,32425 032425 #032425 #32425,399 Rt. 212,NY,12477
Hess,Kingston,32426,32426 032426 #032426 #32426,416 Route 28,NY,12401
Hess,Carmel,32429,32429 032429 #032429 #32429,1338 SR-52,NY,10512
Hess,Binghamton,32431,32431 032431 #032431 #32431,61 Glenwood Ave.,NY,13905
Hess,Vestal,32432,32432 032432 #032432 #32432,3808 Vestal Parkway E,NY,13850
Hess,Whitney Point,32435,32435 032435 #032435 #32435,2818 NY Rt. 11,NY,13862
Hess,Binghamton,32436,32436 032436 #032436 #32436,1153 Vestal Avenue,NY,13903
Hess,Binghamton,32437,32437 032437 #032437 #32437,236 Conklin Avenue,NY,13903
Hess,Half Moon,32441,32441 032441 #032441 #32441,1583 Route 9,NY,12065
Hess,Cicero,32443,32443 032443 #032443 #32443,5895 Route 31,NY,13039
Hess,Farmington,32444,32444 032444 #032444 #32444,1429 Route 332,NY,14425
Hess,Batavia,32447,32447 032447 #032447 #32447,204-210 W. Main St.,NY,14020
Hess,Rochester,32448,32448 032448 #032448 #32448,3860 West Ridge Rd.,NY,14626-3451
Hess,Wading River,32449,32449 032449 #032449 #32449,6305 Rt. 25A,NY,11792-2003
Hess,Rochester,32450,32450 032450 #032450 #32450,933 W. Ridge Road,NY,14615
Hess,Cicero,32453,32453 032453 #032453 #32453,7916 Brewerton Rd.,NY,13039
Hess,Gates,32456,32456 032456 #032456 #32456,459 Spencerport Rd,NY,14606-5218
Hess,Pittsford,32457,32457 032457 #032457 #32457,3055 Monroe Ave.,NY,14618
Hess,Liverpool,32460,32460 032460 #032460 #32460,4803 W. Taft Rd,NY,13088
Hess,Syracuse,32461,32461 032461 #032461 #32461,6020 S. Salina St,NY,13205
Hess,Elmira,32463,32463 032463 #032463 #32463,2457 Corning Road,NY,14903
Hess,Queensbury,32468,32468 032468 #032468 #32468,527 Aviation Road,NY,12804
Hess,Holbrook,32471,32471 032471 #032471 #32471,301 Union Ave,NY,11741
Hess,Hampton Bays,32473,32473 032473 #032473 #32473,239 W. Montauk Hwy,NY,11946-3512
Hess,Hicksville,32474,32474 032474 #032474 #32474,428 Newbridge Rd.,NY,11801-3903
Hess,Southampton,32478,32478 032478 #032478 #32478,816 Country Rd.-39,NY,11968
Hess,Water Mill,32479,32479 032479 #032479 #32479,1138 Montauk Hwy,NY,11976-0643
Hess,Wainscott,32480,32480 032480 #032480 #32480,346 Montauk Hwy,NY,11975-0053
Hess,Mattituck,32481,32481 032481 #032481 #32481,11100 Main Road,NY,11952-0853
Hess,Coram,32482,32482 032482 #032482 #32482,1956 Rt. 112,NY,11727-1956
Hess,Hauppauge,32484,32484 032484 #032484 #32484,522 Smithtown By-Pass,NY,11787-5017
Hess,Northport,32485,32485 032485 #032485 #32485,412 Fort Salonga Rd.,NY,11768-3248
Hess,Plainview,32488,32488 032488 #032488 #32488,895 Old Country Rd.,NY,11803-4903
Hess,Plainedge,32490,32490 032490 #032490 #32490,3924 Hempstead Tpke.,NY,11756
Hess,Westbury,32491,32491 032491 #032491 #32491,525 Merrick Ave,NY,11590
Hess,Floral Park,32493,32493 032493 #032493 #32493,250-26 Jericho Tpke.,NY,11001-2107
Hess,Franklin Square,32495,32495 032495 #032495 #32495,1129 Hempstead Tpke.,NY,11010-1535
Hess,Oceanside,32498,32498 032498 #032498 #32498,550 Atlantic Ave.,NY,11572-2726
Hess,Farmingville,32499,32499 032499 #032499 #32499,1801 N. Ocean Ave.,NY,11738-2908
Hess,East Elmhurst,32500,32500 032500 #032500 #32500,89-10 Astoria Boulevard,NY,11369-1525
Hess,Cambria Heights,32501,32501 032501 #032501 #32501,117-08 Springfield Boulevard,NY,11411-1539
Hess,Elmhurst,32502,32502 032502 #032502 #32502,77-33 Queens Boulevard,NY,11373-3741
Hess,Staten Island,32504,32504 032504 #032504 #32504,951 Bay Street,NY,10305-4938
Hess,Brooklyn,32505,32505 032505 #032505 #32505,801 Bedford Avenue,NY,11205-2801
Hess,Bronx,32506,32506 032506 #032506 #32506,126 Bruckner Blvd.,NY,10454-4620
Hess,Brooklyn,32507,32507 032507 #032507 #32507,1630 Bushwick Avenue,NY,11207-1803
Hess,Brooklyn,32508,32508 032508 #032508 #32508,914 Coney Island Avenue,NY,11230-1402
Hess,Corona,32509,32509 032509 #032509 #32509,97-11 Northern Boulevard,NY,11368-1043
Hess,Ozone Park,32510,32510 032510 #032510 #32510,134-15 Crossbay Boulevard,NY,11417-2503
Hess,Glendale,32511,32511 032511 #032511 #32511,80-07 Cypress Avenue,NY,11385-6714
Hess,Long Island City,32512,32512 032512 #032512 #32512,3902 Queens Boulevard,NY,11104-4306
Hess,Flushing,32513,32513 032513 #032513 #32513,56-01 Main Street,NY,11355-5045
Hess,Brooklyn,32514,32514 032514 #032514 #32514,3501 Ft. Hamilton Parkway,NY,11218-2013
Hess,Brooklyn,32515,32515 032515 #032515 #32515,2211 Bedford Avenue,NY,11226-4001
Hess,Brooklyn,32516,32516 032516 #032516 #32516,210 Greenpoint Avenue,NY,11222-2304
Hess,New York,32517,32517 032517 #032517 #32517,401 West 207th Street,NY,10034-3642
Hess,Brooklyn,32518,32518 032518 #032518 #32518,2880 Atlantic Avenue,NY,11207-2725
Hess,Bronx,32519,32519 032519 #032519 #32519,285 East 233rd Street,NY,10470-2201
Hess,New York,32520,32520 032520 #032520 #32520,120-128 West 145th Street,NY,10039-4104
Hess,Jamaica,32521,32521 032521 #032521 #32521,148-27 Liberty Avenue,NY,11435-4718
Hess,Brooklyn,32522,32522 032522 #032522 #32522,810 Metropolitan Avenue,NY,11201-2515
Hess,South Ozone Park,32523,32523 032523 #032523 #32523,129-03 North Conduit Avenue,NY,11420
Hess,Brooklyn,32524,32524 032524 #032524 #32524,1620 Neptune Avenue,NY,11224
Hess,Long Island City,32525,32525 032525 #032525 #32525,3904 Northern Boulevard,NY,11101-1618
Hess,Brooklyn,32526,32526 032526 #032526 #32526,2251 Nostrand Avenue,NY,11210-3036
Hess,Queens Village,32527,32527 032527 #032527 #32527,219-28 Hillside Avenue,NY,11427-2303
Hess,Brooklyn,32528,32528 032528 #032528 #32528,1885 Atlantic Avenue,NY,11232-3045
Hess,Brooklyn,32529,32529 032529 #032529 #32529,484-500 Remsen Avenue,NY,11236
Hess,Brooklyn,32530,32530 032530 #032530 #32530,204-222 Fourth Avenue,NY,11217-3121
Hess,Brooklyn,32532,32532 032532 #032532 #32532,2400 Flatbush Ave,NY,11234-5037
Hess,Brooklyn,32534,32534 032534 #032534 #32534,530 Utica Avenue,NY,11203-1917
Hess,Bronx,32535,32535 032535 #032535 #32535,1201 Webster Avenue,NY,10456-4264
Hess,West Babylon,32536,32536 032536 #032536 #32536,382 Little East Neck Road,NY,11704-7704
Hess,Bayshore,32537,32537 032537 #032537 #32537,327 Montauk Hwy,NY,11706-8408
Hess,Brentwood,32538,32538 032538 #032538 #32538,780 Suffolk Avenue,NY,11717-4401
Hess,Inwood,32539,32539 032539 #032539 #32539,500 Burnside Avenue,NY,11096-1237
Hess,Copiague,32540,32540 032540 #032540 #32540,1285 Sunrise Highway,NY,11726-1515
Hess,North Babylon,32541,32541 032541 #032541 #32541,1275 Deer Park Avenue,NY,11703-2717
Hess,West Hempstead,32542,32542 032542 #032542 #32542,435 Hempstead Turnpike,NY,11552-1312
Hess,Long Beach,32543,32543 032543 #032543 #32543,450 Long Beach Boulevard,NY,11561-2232
Hess,Massapequa,32544,32544 032544 #032544 #32544,4164 Merrick Road,NY,11758-3258
Hess,Hicksville,32545,32545 032545 #032545 #32545,540 W. Old Country Road,NY,11801
Hess,Hicksville,32546,32546 032546 #032546 #32546,496 Plainview Road,NY,11801-4372
Hess,Bethpage,32548,32548 032548 #032548 #32548,4165 Hempstead Turnpike,NY,11714-5701
Hess,Rockville Center,32549,32549 032549 #032549 #32549,580 Sunrise Highway,NY,11570-5129
Hess,Massapequa,32550,32550 032550 #032550 #32550,6201 Sunrise Highway,NY,11758-5333
Hess,Syosset,32551,32551 032551 #032551 #32551,42 West Jericho Turnpike,NY,11791-4512
Hess,Fort Edward,32560,32560 032560 #032560 #32560,411 Reynolds Road,NY,00001-2828
Hess,Central Islip,32561,32561 032561 #032561 #32561,1797 Joshuas Path,NY,11722
Hess,Riverhead,32562,32562 032562 #032562 #32562,1879 Old Country Road,NY,11901-2809
Hess,Merrick,32563,32563 032563 #032563 #32563,46 E. Sunrise Highway,NY,11566
Hess,Clifton Park,32564,32564 032564 #032564 #32564,100 Commerce Drive,NY,12065
Hess,Kings Park,32565,32565 032565 #032565 #32565,152 East North Port Road,NY,11754
Hess,Ronkonkoma,32566,32566 032566 #032566 #32566,3415 Veterans Hwy,NY,11779
Hess,Medford,32567,32567 032567 #032567 #32567,2012 Route 112,NY,11763-3642
Hess,Bayport,32568,32568 032568 #032568 #32568,640 Montauk Hwy,NY,11705-1605
Hess,Scarsdale,32569,32569 032569 #032569 #32569,775 Central Park Ave,NY,10583-2505
Hess,Kings Park,32570,32570 032570 #032570 #32570,36 Indian Head Road,NY,11754-3703
Hess,Rotterdam,32571,32571 032571 #032571 #32571,1911 Curry Road,NY,12306-4207
Hess,Montgomery,32573,32573 032573 #032573 #32573,2057 RT 208,NY,12549
Hess,Newburgh,32574,32574 032574 #032574 #32574,1215 Route 300,NY,12550
Hess,Tarrytown,32575,32575 032575 #032575 #32575,386 South Broadway,NY,10591
Hess,Brooklyn,32576,32576 032576 #032576 #32576,833 4th Avenue,NY,11232
Hess,Kingston,32577,32577 032577 #032577 #32577,380-384 Flatbush Ave,NY,12401
Hess,Kingston,32578,32578 032578 #032578 #32578,307 Broadway,NY,12401
Hess,New Windsor,32579,32579 032579 #032579 #32579,173 Windsor Highway,NY,12553
Hess,Staten Island,32581,32581 032581 #032581 #32581,2121 Forest Avenue,NY,10303-1739
Hess,Howard Beach,32582,32582 032582 #032582 #32582,159-04 Cross Bay Blvd.,NY,11414
Hess,Highland,32583,32583 032583 #032583 #32583,491 NYS Rte. 299,NY,12528-2518
Hess,West Yaphank,32585,32585 032585 #032585 #32585,80 A Horseblock Road,NY,11980
Hess,Westbury,32586,32586 032586 #032586 #32586,800 Jericho Turnpike,NY,11590-1301
Hess,Glenville,32587,32587 032587 #032587 #32587,123-131 Freeman's Bridge Road,NY,12302-3501
Hess,Shirley,32588,32588 032588 #032588 #32588,525 William Floyd Pkwy,NY,11967
Hess,Lake Grove,32589,32589 032589 #032589 #32589,2825 Middle Country Road,NY,11755
Hess,Bronx,32590,32590 032590 #032590 #32590,3355 East Tremont Ave,NY,10461
Hess,Troy,32591,32591 032591 #032591 #32591,175 Hoosick Street,NY,12180
Hess,Latham,32592,32592 032592 #032592 #32592,951 Loudon Road,NY,12110
Hess,Commack,32593,32593 032593 #032593 #32593,1173 Jericho Turnpike,NY,11725
Hess,Parma,32595,32595 032595 #032595 #32595,5028 West Ridge Road,NY,14559
Hess,Quogue,32596,32596 032596 #032596 #32596,38 Rt 27A Montauk Hwy under,NY,11959
Hess,Port Jefferson Station,32597,32597 032597 #032597 #32597,1445 Route 112,NY,11776
Hess,Freeport,32598,32598 032598 #032598 #32598,125 West Sunrise Highway,NY,11520
Hess,Greece,32599,32599 032599 #032599 #32599,1877 West Ridge Rd,NY,14615
Hess,Cortlandt Manor,32614,32614 032614 #032614 #32614,3911 Crompond Rd,NY,10567-7216
Hess,Pittsford,32632,32632 032632 #032632 #32632,640 Pittsford Victor Rd.,NY,14534-3922
Hess,Poughkeepsie,32634,32634 032634 #032634 #32634,718 Freedom Plains Rd.,NY,12603-2680
Hess,Fayetteville,32700,32700 032700 #032700 #32700,407 E Genesse Street,NY,13066
Hess,Jacksonville,33600,33600 033600 #033600 #33600,454 Western Blvd,NC,28546
Hess,Wilmington,33602,33602 033602 #033602 #33602,7413 Market St,NC,28411
Hess,Wilmington,33603,33603 033603 #033603 #33603,5701 Oleander Dr,NC,28403
Hess,Winston-Salem,33605,33605 033605 #033605 #33605,4019 Reynolda Rd,NC,27106
Hess,Winston-Salem,33606,33606 033606 #033606 #33606,3715 Peters Creek Pkwy,NC,27127
Hess,Winston-Salem,33607,33607 033607 #033607 #33607,3331 Thomasville Rd,NC,27107
Hess,Winston-Salem,33609,33609 033609 #033609 #33609,3600 S Main St,NC,27127
Hess,Winston-Salem,33610,33610 033610 #033610 #33610,2420 S Stratford Rd,NC,27103
Hess,Winston-Salem,33611,33611 033611 #033611 #33611,566 Old Hollow Rd,NC,27105
Hess,Winston-Salem,33612,33612 033612 #033612 #33612,6205 University Pkwy,NC,27105
Hess,Winston-Salem,33613,33613 033613 #033613 #33613,2700 University Pkwy,NC,27106
Hess,Winston-Salem,33615,33615 033615 #033615 #33615,3396 Robinhood Rd,NC,27106
Hess,Winston-Salem,33616,33616 033616 #033616 #33616,2026 S Hawthorne Rd,NC,27103
Hess,Clemmons,33617,33617 033617 #033617 #33617,2420 Lewisville Clemmons Rd,NC,27012
Hess,Mt Airy,33621,33621 033621 #033621 #33621,1012 Rockford St,NC,27030
Hess,High Point,33622,33622 033622 #033622 #33622,2201 N Main St,NC,27262
Hess,High Point,33623,33623 033623 #033623 #33623,3010 North Main Street,NC,27265
Hess,Haw River,33624,33624 033624 #033624 #33624,"I-40, I-85, Exit 150",NC,27258
Hess,Burlington,33625,33625 033625 #033625 #33625,1407 Maple Ave,NC,27215
Hess,Burlington,33626,33626 033626 #033626 #33626,653 E Webb Ave,NC,27215
Hess,Durham,33627,33627 033627 #033627 #33627,803 E Geer St,NC,27704
Hess,Durham,33629,33629 033629 #033629 #33629,"I-70, 1400 South Miami Blvd",NC,27703
Hess,Raleigh,33632,33632 033632 #033632 #33632,850 Capital Blvd,NC,27603
Hess,Garner,33633,33633 033633 #033633 #33633,1470 U.S. 70,NC,27529
Hess,Kenly,33636,33636 033636 #033636 #33636,"I-95, Exit 106",NC,27542
Hess,Fayetteville,33637,33637 033637 #033637 #33637,101 South Eastern Blvd.,NC,28301
Hess,Fayetteville,33639,33639 033639 #033639 #33639,5030 Yadkin Rd,NC,28303
Hess,Thomasville,33645,33645 033645 #033645 #33645,407 Randolph St,NC,27360
Hess,Colfax,33646,33646 033646 #033646 #33646,"I-40, Exit 208",NC,27235
Hess,Greensboro,33647,33647 033647 #033647 #33647,3610 W Wendover Ave,NC,27407
Hess,Greensboro,33648,33648 033648 #033648 #33648,2005 E Wendover Ave,NC,27405
Hess,Greensboro,33649,33649 033649 #033649 #33649,3800 Lawndale Dr,NC,27455
Hess,Greensboro,33650,33650 033650 #033650 #33650,514 Gallimore Dairy Rd,NC,27409
Hess,McLeansville,33651,33651 033651 #033651 #33651,"I-85, Exit 132",NC,27301
Hess,Greensboro,33652,33652 033652 #033652 #33652,5729 W Friendly Ave,NC,27410
Hess,Newton,33654,33654 033654 #033654 #33654,1305 Northwest Blvd,NC,28658
Hess,Conover,33659,33659 033659 #033659 #33659,"I-40, Exit 133",NC,28613
Hess,Troutman,33660,33660 033660 #033660 #33660,"I-77, Exit 42",NC,28166
Hess,Mooresville,33661,33661 033661 #033661 #33661,152 E Plaza Dr,NC,28115
Hess,Salisbury,33662,33662 033662 #033662 #33662,827 Jake Alexander Blvd W,NC,28147
Hess,Salisbury,33663,33663 033663 #033663 #33663,"I-85, Exit 71",NC,28147
Hess,Kannapolis,33664,33664 033664 #033664 #33664,2401 S Cannon Blvd,NC,28083
Hess,Concord,33665,33665 033665 #033665 #33665,"475 U.S. 29, Concord Parkway",NC,28027
Hess,Concord,33666,33666 033666 #033666 #33666,541 Warren C Coleman Blvd,NC,28025
Hess,Charlotte,33667,33667 033667 #033667 #33667,10207 N Tryon St,NC,28262
Hess,Gastonia,33669,33669 033669 #033669 #33669,2500 W Franklin Blvd,NC,28052
Hess,Winston-Salem,33680,33680 033680 #033680 #33680,1425 Silas Creek Pkwy,NC,27127
Hess,Winston-Salem,33681,33681 033681 #033681 #33681,546 E Sprague St,NC,27107
Hess,Winston-Salem,33682,33682 033682 #033682 #33682,5434 University Pkwy,NC,27105
Hess,Winston-Salem,33683,33683 033683 #033683 #33683,653 Akron Dr,NC,27105
Hess,Wilmington,33684,33684 033684 #033684 #33684,6769 Gordon Rd,NC,28411
Hess,Wake Forest,33686,33686 033686 #033686 #33686,13960 Capital Blvd,NC,27587
Hess,Pilot Mountain,33688,33688 033688 #033688 #33688,818 S Key St,NC,27041
Hess,Candor,33689,33689 033689 #033689 #33689,I-73 & Hwy 221 East,NC,27229
Hess,High Point,33691,33691 033691 #033691 #33691,801 W Fairfield Rd,NC,27263
Hess,Raleigh,33694,33694 033694 #033694 #33694,3912 Western Blvd,NC,27606
Hess,Raleigh,33695,33695 033695 #033695 #33695,2604 S Saunders St,NC,27603
Hess,Raleigh,33696,33696 033696 #033696 #33696,10920 Creedmoor Rd,NC,27615
Hess,Fayetteville,33697,33697 033697 #033697 #33697,470 Grove St,NC,28301
Hess,Fayetteville,33698,33698 033698 #033698 #33698,2802 Owen Dr,NC,28306
Hess,Fayetteville,33699,33699 033699 #033699 #33699,4560 Raeford Rd,NC,28304
Hess,Fayetteville,33700,33700 033700 #033700 #33700,3706 Raeford Rd,NC,28304
Hess,Aberdeen,33701,33701 033701 #033701 #33701,1206 North Sandhills Boulevard,NC,28315
Hess,Smithfield,33702,33702 033702 #033702 #33702,1016 N. Brightleaf Blvd.,NC,27577
Hess,Asheville,33703,33703 033703 #033703 #33703,158 Smoky Park Hwy,NC,28806
Hess,Asheville,33704,33704 033704 #033704 #33704,648 Hendersonville Rd,NC,28803
Hess,Hendersonville,33705,33705 033705 #033705 #33705,707 Spartanburg Hwy,NC,28792
Hess,Forest City,33706,33706 033706 #033706 #33706,523 W Main St,NC,28043
Hess,Thomasville,33709,33709 033709 #033709 #33709,1033 Randolph St,NC,27360
Hess,Lexington,33710,33710 033710 #033710 #33710,537 N Main St,NC,27292
Hess,Lillington,33711,33711 033711 #033711 #33711,1126 N Main St,NC,27546
Hess,Sanford,33712,33712 033712 #033712 #33712,2224 S Horner Blvd.,NC,27330
Hess,Greensboro,33713,33713 033713 #033713 #33713,2834 Battleground Ave,NC,27455
Hess,Asheboro,33714,33714 033714 #033714 #33714,534 N Fayetteville St,NC,27203
Hess,Asheboro,33715,33715 033715 #033715 #33715,509 W Dixie Dr,NC,27205
Hess,Hickory,33718,33718 033718 #033718 #33718,1835 U.S. 70,NC,28602
Hess,Mint Hill,33721,33721 033721 #033721 #33721,13354 Albemarle Rd,NC,28227
Hess,Gastonia,33722,33722 033722 #033722 #33722,2907 S York Rd,NC,28052
Hess,Mooresville,33723,33723 033723 #033723 #33723,571 River Hwy,NC,28117
Hess,Kannapolis,33726,33726 033726 #033726 #33726,2803 N Cannon Blvd,NC,28088
Hess,Salisbury,33727,33727 033727 #033727 #33727,500 E Innes St,NC,28144
Hess,Wadesboro,33733,33733 033733 #033733 #33733,1006 E Caswell St,NC,28170
Hess,Greenville,33736,33736 033736 #033736 #33736,502 Greenville Blvd SW,NC,27834
Hess,Winston-Salem,33739,33739 033739 #033739 #33739,2901 Waughtown St,NC,27107
Hess,Kernersville,33741,33741 033741 #033741 #33741,401 N Main St,NC,27284
Hess,Greenville,33742,33742 033742 #033742 #33742,1601 Greenville Blvd SW,NC,27834
Hess,Fayetteville,33744,33744 033744 #033744 #33744,1308 Pamalee Dr,NC,28303
Hess,Smithfield,33745,33745 033745 #033745 #33745,2103 S Brightleaf Blvd,NC,27577
Hess,Lexington,33746,33746 033746 #033746 #33746,19 Cotton Grove Rd,NC,27292
Hess,Greenville,33747,33747 033747 #033747 #33747,500 N Greene St,NC,27834
Hess,Washington,33748,33748 033748 #033748 #33748,600 W 15th St,NC,27889
Hess,New Bern,33753,33753 033753 #033753 #33753,3314 Neuse Blvd,NC,28560
Hess,Greenville,33754,33754 033754 #033754 #33754,3805 Charles Blvd,NC,27858
Hess,Henderson,33755,33755 033755 #033755 #33755,929 S Garnett St,NC,27536
Hess,Ayden,33758,33758 033758 #033758 #33758,138 3rd St,NC,28513
Hess,Greenville,33759,33759 033759 #033759 #33759,715 S Memorial Dr,NC,27834
Hess,New Bern,33760,33760 033760 #033760 #33760,429 E Grantham Rd,NC,28560
Hess,Murfreesboro,33762,33762 033762 #033762 #33762,604 Main St,NC,27855
Hess,Jacksonville,33764,33764 033764 #033764 #33764,830 New Bridge St,NC,28540
Hess,Winterville,33769,33769 033769 #033769 #33769,620 W Fire Tower Rd,NC,28590
Hess,Elizabeth City,33771,33771 033771 #033771 #33771,1129 N Rd St,NC,27909
Hess,Mt Olive,33772,33772 033772 #033772 #33772,124 NC Highway 55 West,NC,28365
Hess,Grantsboro,33775,33775 033775 #033775 #33775,10816 Nc 55 Hwy E,NC,28529
Hess,Rocky Mount,33777,33777 033777 #033777 #33777,1122 E Raleigh Blvd,NC,27801
Hess,Greenville,33778,33778 033778 #033778 #33778,3202 E 10th St,NC,27858
Hess,Greenville,33779,33779 033779 #033779 #33779,4000 Dickinson Ave,NC,27834
Hess,Washington,33783,33783 033783 #033783 #33783,1345 John Small Ave,NC,27889
Hess,Bridgeton,33784,33784 033784 #033784 #33784,525 D Street,NC,28519
Hess,New Bern,33785,33785 033785 #033785 #33785,4100 Dr Martin Luther King Jr Blvd,NC,28562
Hess,New Bern,33787,33787 033787 #033787 #33787,370 Washington Post Rd,NC,28560
Hess,Washington,33788,33788 033788 #033788 #33788,2532 W 5th St,NC,27889
Hess,Manteo,33789,33789 033789 #033789 #33789,202 U.S. 64,NC,27954
Hess,New Bern,33791,33791 033791 #033791 #33791,1915 S Glenburnie Rd,NC,28562
Hess,Winterville,33792,33792 033792 #033792 #33792,4985 Old Tar Rd,NC,28590
Hess,Farmville,33794,33794 033794 #033794 #33794,8491 E Marlboro Rd,NC,27828
Hess,Greenville,33796,33796 033796 #033796 #33796,1110 N Memorial Dr,NC,27834
Hess,Rose Hill,33799,33799 033799 #033799 #33799,206 N Sycamore St,NC,28458
Hess,Greenville,33802,33802 033802 #033802 #33802,612 Greenville Blvd SW,NC,27834
Hess,Elizabeth City,33805,33805 033805 #033805 #33805,1200 Old US Highway 17,NC,27909
Hess,Chocowinity,33806,33806 033806 #033806 #33806,2901 U.S. 17,NC,27817
Hess,Greenville,33810,33810 033810 #033810 #33810,5068 Hwy 33,NC,27858
Hess,Greenville,33817,33817 033817 #033817 #33817,3519 43 Hwy N,NC,27834
Hess,Rocky Mt,33820,33820 033820 #033820 #33820,1212 Bethlehem Rd,NC,27803
Hess,Lumberton,33821,33821 033821 #033821 #33821,1703 W 5th St,NC,28358
Hess,Henderson,33824,33824 033824 #033824 #33824,1640 N Garnett St,NC,27536
Hess,Greenville,33826,33826 033826 #033826 #33826,3000 S Memorial Dr,NC,27834
Hess,Sharpsburg,33834,33834 033834 #033834 #33834,4221 S Hathaway Blvd,NC,27803
Hess,Norlina,33835,33835 033835 #033835 #33835,115 U.S. 1 South,NC,27563
Hess,Four Oaks,33841,33841 033841 #033841 #33841,506 E Wellons St,NC,27524
Hess,Robersonville,33842,33842 033842 #033842 #33842,109 W Academy St,NC,27871
Hess,Aberdeen,33846,33846 033846 #033846 #33846,1760 N Carolina 5,NC,28315
Hess,Wallace,33851,33851 033851 #033851 #33851,5706 Hwy 41,NC,28466
Hess,Washington,33855,33855 033855 #033855 #33855,1308 W 15th St,NC,27889
Hess,Edenton,33859,33859 033859 #033859 #33859,301 Virginia Rd,NC,27932
Hess,Murfreesboro,33860,33860 033860 #033860 #33860,501 W Main St,NC,27855
Hess,Coats,33861,33861 033861 #033861 #33861,338 North McKinley St,NC,27521
Hess,Garner,33864,33864 033864 #033864 #33864,4541 Jones Sausage Rd,NC,27529
Hess,Garner,33865,33865 033865 #033865 #33865,4020 Jones Sausage Rd,NC,27529
Hess,Smithfield,33866,33866 033866 #033866 #33866,1669 E Market St,NC,27577
Hess,Raleigh,33869,33869 033869 #033869 #33869,1741 Trawick Rd,NC,27604
Hess,Raleigh,33870,33870 033870 #033870 #33870,7413 Louisburg Rd,NC,27616
Hess,Salisbury,33872,33872 033872 #033872 #33872,3410 S Main St,NC,28147
Hess,Mt Airy,33873,33873 033873 #033873 #33873,800 W Pine St,NC,27030
Hess,Winston-Salem,33874,33874 033874 #033874 #33874,4301 Styers Ferry Rd,NC,27104
Hess,Ayden,33884,33884 033884 #033884 #33884,170 W 3rd St,NC,28513
Hess,Mebane,33885,33885 033885 #033885 #33885,1105 Mebane Oaks Rd,NC,27302
Hess,Kernersville,33889,33889 033889 #033889 #33889,826 S Main St,NC,27284
Hess,Rocky Mt,33893,33893 033893 #033893 #33893,1493 N Wesleyan Blvd,NC,27804
Hess,Greenville,33894,33894 033894 #033894 #33894,3505 U.S. 264,NC,27834
Hess,Warrenton,33895,33895 033895 #033895 #33895,301 E Macon St,NC,27589
Hess,Advance,33896,33896 033896 #033896 #33896,5427 Us Highway 158,NC,27006
Hess,Winston-Salem,33897,33897 033897 #033897 #33897,3598 Yadkinville Rd,NC,27106
Hess,Kernersville,33900,33900 033900 #033900 #33900,1485 Hwy 66,NC,27284
Hess,Greenville,33904,33904 033904 #033904 #33904,3600 Stantonsburg Road,NC,27858
Hess,Denver,33910,33910 033910 #033910 #33910,1523 NC Highway 16,NC,28037
Hess,Wilmington,33911,33911 033911 #033911 #33911,2395 Carolina Beach Rd,NC,28401
Hess,Youngsville,33912,33912 033912 #033912 #33912,130 W Main St,NC,27596
Hess,Akron,33914,33914 033914 #033914 #33914,2361 E Turkeyfoot Lake Rd.,OH,44321
Hess,Allentown,38201,38201 038201 #038201 #38201,733-51 Hanover Ave.,PA,18109
Hess,Allentown,38202,38202 038202 #038202 #38202,1518 South 4th St.,PA,18103
Hess,Swatara,38218,38218 038218 #038218 #38218,4300 Derry Street,PA,17111
Hess,Reading,38245,38245 038245 #038245 #38245,200 Lancaster Ave,PA,19611
Hess,Bethlehem,38249,38249 038249 #038249 #38249,201 Broadway,PA,18105
Hess,West York,38250,38250 038250 #038250 #38250,1129 West Market St.,PA,17404
Hess,York,38254,38254 038254 #038254 #38254,253 S. Queen St.,PA,17403
Hess,Harrisburg,38255,38255 038255 #038255 #38255,1100 Market St.,PA,17103
Hess,Lemoyne,38256,38256 038256 #038256 #38256,614 Market Street,PA,17043
Hess,Chambersburg,38257,38257 038257 #038257 #38257,1070 Lincoln Hwy.,PA,17201
Hess,Lancaster,38258,38258 038258 #038258 #38258,1704 Columbia Ave.,PA,17603
Hess,Hanover,38261,38261 038261 #038261 #38261,998 Carlisle St.,PA,17331
Hess,Lancaster,38267,38267 038267 #038267 #38267,5 Hartman Bridge Rd.,PA,17602
Hess,Reading,38269,38269 038269 #038269 #38269,2855 Perkiomen Ave.,PA,19606
Hess,Willow Grove,38276,38276 038276 #038276 #38276,2818 Easton Road,PA,19090
Hess,Glenside,38277,38277 038277 #038277 #38277,258 South Easton Rd.,PA,19038
Hess,Havertown,38278,38278 038278 #038278 #38278,1134 West Chester Pike,PA,19083
Hess,King of Prussia,38279,38279 038279 #038279 #38279,164 East DeKalb Pike,PA,19406
Hess,Stroudsburg,38282,38282 038282 #038282 #38282,100 N. 9th St.,PA,18360
Hess,Camp Hill,38285,38285 038285 #038285 #38285,4175 Market St.,PA,17011
Hess,Bristol,38286,38286 038286 #038286 #38286,2919 Route 413,PA,19007
Hess,Allentown,38287,38287 038287 #038287 #38287,3890 Hamilton Boulevard,PA,18103-4518
Hess,Reading,38295,38295 038295 #038295 #38295,2336 Lancaster Pike,PA,19606
Hess,Quakertown,38304,38304 038304 #038304 #38304,140 South West End Blvd.,PA,18951
Hess,Exton,38307,38307 038307 #038307 #38307,108 N. Pottstown Pike,PA,19341
Hess,Harrisburg,38309,38309 038309 #038309 #38309,5390 Jonestown Road,PA,17112-2927
Hess,Thorndale,38353,38353 038353 #038353 #38353,3619 E. Lincoln Hwy.,PA,19372
Hess,Harrisburg,38356,38356 038356 #038356 #38356,5575 Allentown Blvd.,PA,17112
Hess,Carlisle,38357,38357 038357 #038357 #38357,7034 Carlisle Pike,PA,17013
Hess,Allentown,38363,38363 038363 #038363 #38363,5640 Hamilton Blvd.,PA,18106
Hess,Butztown,38401,38401 038401 #038401 #38401,3283 Easton Ave,PA,18017
Hess,Bethlehem,38402,38402 038402 #038402 #38402,3010 Schoenersville Rd,PA,18017
Hess,Whitehall,38403,38403 038403 #038403 #38403,2161 South First Ave.,PA,18052
Hess,Bethlehem,38404,38404 038404 #038404 #38404,3622-3624 Rt. 378,PA,18015
Hess,Allentown,38405,38405 038405 #038405 #38405,824 Union Blvd.,PA,18013
Hess,Allentown,38406,38406 038406 #038406 #38406,1043-45 Lehigh St,PA,18105
Hess,Orefield,38407,38407 038407 #038407 #38407,3640 Route 309,PA,18069
Hess,Emmaus,38408,38408 038408 #038408 #38408,4002 Chestnut St,PA,18049
Hess,Topton,38409,38409 038409 #038409 #38409,8 East Weiss ST,PA,19562
Hess,Fleetwood,38411,38411 038411 #038411 #38411,14233 Kutztown Rd.,PA,19522
Hess,Tamaqua,38414,38414 038414 #038414 #38414,307 South Center St,PA,18252
Hess,Frackville,38415,38415 038415 #038415 #38415,520 South Lehigh Ave,PA,17931
Hess,Pine Grove,38416,38416 038416 #038416 #38416,6 Tremont Rd.,PA,17963
Hess,Jonestown,38417,38417 038417 #038417 #38417,1 Lickdale Road,PA,17038
Hess,Marysville,38418,38418 038418 #038418 #38418,104 North State Rd,PA,17053
Hess,New Cumberland,38420,38420 038420 #038420 #38420,710 Limekiln Rd,PA,17070
Hess,Etters,38421,38421 038421 #038421 #38421,486 Fishing Creek Rd,PA,17319
Hess,Etters,38422,38422 038422 #038422 #38422,55 Robinhood Dr,PA,17319
Hess,Harrisburg,38424,38424 038424 #038424 #38424,6821 Paxton St.,PA,17111
Hess,Emigsville,38425,38425 038425 #038425 #38425,3311 North George St Ext.,PA,17318
Hess,Annville,38426,38426 038426 #038426 #38426,750 E. Main St.,PA,17003
Hess,Campbelltown,38427,38427 038427 #038427 #38427,2949 Horseshoe Pike,PA,17078
Hess,Manheim,38429,38429 038429 #038429 #38429,3190 Lebanon Road,PA,17545
Hess,Schaefferstown,38431,38431 038431 #038431 #38431,Rts. 501 & 897,PA,17088
Hess,Richland,38432,38432 038432 #038432 #38432,600 East Linden St.,PA,17087
Hess,Wernersville,38433,38433 038433 #038433 #38433,328 East Penn Ave.,PA,19565
Hess,Sinking Spring,38434,38434 038434 #038434 #38434,154 Shillington Rd,PA,19608
Hess,Lititz,38435,38435 038435 #038435 #38435,1 28th Division Hwy,PA,17543
Hess,Manheim,38436,38436 038436 #038436 #38436,675 Lancaster Rd,PA,17545
Hess,Leola,38439,38439 038439 #038439 #38439,3180 Oregon Pike,PA,17540
Hess,Mount Joy,38440,38440 038440 #038440 #38440,905 East Main St.,PA,17552
Hess,Columbia,38441,38441 038441 #038441 #38441,1792 Columbia Ave,PA,17512
Hess,Lancaster,38442,38442 038442 #038442 #38442,1660 Rohrerstown Rd,PA,17603
Hess,New Providence,38446,38446 038446 #038446 #38446,2281 Beaver Valley Pike,PA,17560
Hess,Douglassville,38448,38448 038448 #038448 #38448,1028 Ben Franklin Hwy,PA,19518
Hess,Allentown,38449,38449 038449 #038449 #38449,702-716 N. 19th Street,PA,18104
Hess,Gap,38457,38457 038457 #038457 #38457,5387 Lincoln Highway,PA,17527-9701
Hess,Hamburg,38458,38458 038458 #038458 #38458,16617 Pottsville Pike,PA,19526
Hess,Richboro,38459,38459 038459 #038459 #38459,1008 Second Street Pike,PA,18954
Hess,Philadelphia,38500,38500 038500 #038500 #38500,9451 Academy Road,PA,19114
Hess,Philadelphia,38501,38501 038501 #038501 #38501,2400 E. Castor Avenue,PA,19134-4604
Hess,Philadelphia,38502,38502 038502 #038502 #38502,615 South Broad Street,PA,19147-1833
Hess,Philadelphia,38503,38503 038503 #038503 #38503,102-128 E. Chelten Ave,PA,19144-2133
Hess,Philadelphia,38504,38504 038504 #038504 #38504,1440 West Cheltenham Avenue,PA,19126-1673
Hess,Philadelphia,38505,38505 038505 #038505 #38505,4636 Chestnut Street,PA,19139-4635
Hess,Philadelphia,38506,38506 038506 #038506 #38506,5110 City Line Avenue,PA,19131-1415
Hess,Collegeville,38507,38507 038507 #038507 #38507,150 E. Main Street,PA,19426-2616
Hess,Philadelphia,38508,38508 038508 #038508 #38508,1000 E. Erie Avenue,PA,19124-5414
Hess,Philadelphia,38509,38509 038509 #038509 #38509,2901 North Broad Street,PA,19132-2404
Hess,Philadelphia,38510,38510 038510 #038510 #38510,6151 Broad Street,PA,19141-1931
Hess,Philadelphia,38511,38511 038511 #038511 #38511,3300-48 Grays Ferry Avenue,PA,19146
Hess,Philadelphia,38512,38512 038512 #038512 #38512,6401-15 Harbison Avenue,PA,19149-3036
Hess,Philadelphia,38513,38513 038513 #038513 #38513,1801 Hunting Park Avenue,PA,19140-2909
Hess,Philadelphia,38514,38514 038514 #038514 #38514,2450 Island Road,PA,19153-1416
Hess,Philadelphia,38515,38515 038515 #038515 #38515,501 W. Lehigh Avenue,PA,19133-2630
Hess,Philadelphia,38516,38516 038516 #038516 #38516,6395-99 Oxford Avenue,PA,19111-5313
Hess,Montgomeryville,38517,38517 038517 #038517 #38517,749 Bethlehem Pike,PA,18936-9602
Hess,Philadelphia,38519,38519 038519 #038519 #38519,6215 Roosevelt Boulevard,PA,19149-3432
Hess,Southampton,38520,38520 038520 #038520 #38520,724 Street Road,PA,18966-3920
Hess,Drexel Hill,38521,38521 038521 #038521 #38521,5301 Township Line Road,PA,19026-4732
Hess,Philadelphia,38522,38522 038522 #038522 #38522,7000 Frankford Avenue,PA,19135-1606
Hess,Philadelphia,38523,38523 038523 #038523 #38523,6101 Passyunk Ave.,PA,19153
Hess,Pottsville,38602,38602 038602 #038602 #38602,2600 W. Market Street,PA,17901
Hess,Warwick,39201,39201 039201 #039201 #39201,61 Airport Road,RI,2888
Hess,Johnston,39202,39202 039202 #039202 #39202,1783-1789 Plainfield Pike,RI,2919
Hess,West Warwick,39204,39204 039204 #039204 #39204,346 Providence St.,RI,2893
Hess,Cranston,39205,39205 039205 #039205 #39205,305 Phenix Ave,RI,2920
Hess,Smithfield,39206,39206 039206 #039206 #39206,263 Putnam Pike,RI,2917
Hess,Middletown,39207,39207 039207 #039207 #39207,864 West Main Road,RI,2840
Hess,Saunderstown,39208,39208 039208 #039208 #39208,1820 Boston Neck Road,RI,2874
Hess,Providence,39209,39209 039209 #039209 #39209,440 Smithfield Ave.,RI,2904
Hess,Coventry,39210,39210 039210 #039210 #39210,764 Tiogue Avenue,RI,2816
Hess,Tiverton,39211,39211 039211 #039211 #39211,1308 Stafford Road,RI,2878
Hess,Providence,39213,39213 039213 #039213 #39213,442 Manton Ave,RI,2909
Hess,North Providence,39214,39214 039214 #039214 #39214,1394 Mineral Spring Avenue,RI,2911
Hess,Cranston,39500,39500 039500 #039500 #39500,473-479 Reservoir Avenue,RI,02910-1747
Hess,Providence,39502,39502 039502 #039502 #39502,1215 North Main Street,RI,02904-1825
Hess,Pawtucket,39504,39504 039504 #039504 #39504,250 Mineral Springs Avenue,RI,2860
Hess,Providence,39505,39505 039505 #039505 #39505,83 Point Streets,RI,02903-4713
Hess,Warwick,39506,39506 039506 #039506 #39506,1112 Post Road,RI,02888-3328
Hess,Woonsocket,39507,39507 039507 #039507 #39507,300 Social Street,RI,02895-2013
Hess,Johns Island,40201,40201 040201 #040201 #40201,3622 Savannah Highway,SC,29455-7936
Hess,Johns Island,40208,40208 040208 #040208 #40208,2790 Maybank Highway,SC,29455-4809
Hess,Charleston,40221,40221 040221 #040221 #40221,3543 Dorchester Rd.,SC,29405
Hess,Charleston,40229,40229 040229 #040229 #40229,1602 Highway #7,SC,29407
Hess,Charleston,40230,40230 040230 #040230 #40230,1601 Harbor View Rd.,SC,29412
Hess,Columbia,40231,40231 040231 #040231 #40231,1714 Broad River Rd.,SC,29210
Hess,West Columbia,40234,40234 040234 #040234 #40234,1208 Sunset Blvd.,SC,29169
Hess,West Columbia,40235,40235 040235 #040235 #40235,1400 Augusta Rd.,SC,29169
Hess,Sumter,40238,40238 040238 #040238 #40238,101 Broad Street,SC,29150
Hess,Columbia,40247,40247 040247 #040247 #40247,3514 N. Main St,SC,29203
Hess,North Charleston,40257,40257 040257 #040257 #40257,3490 Ashley Phosphate Road,SC,29418
Hess,Charleston,40259,40259 040259 #040259 #40259,2245 Savannah Highway,SC,29414
Hess,Lexington,40263,40263 040263 #040263 #40263,815 N. Lake Drive,SC,29072
Hess,North Charleston,40264,40264 040264 #040264 #40264,2685 Ashley Phosphate Road,SC,29418
Hess,North Charleston,40370,40370 040370 #040370 #40370,5777 Dorchester Rd.,SC,29418
Hess,North Charleston,40373,40373 040373 #040373 #40373,8620 Dorchester Road,SC,29420
Hess,Columbia,40374,40374 040374 #040374 #40374,637 St. Andrews Rd.,SC,29210
Hess,West Columbia,40375,40375 040375 #040375 #40375,4001 Plattsprings Rd.,SC,29169
Hess,Columbia,40376,40376 040376 #040376 #40376,271 Harbison Blvd.,SC,29212
Hess,Mt. Pleasant,40383,40383 040383 #040383 #40383,1683 US-17,SC,29464
Hess,West Columbia,40386,40386 040386 #040386 #40386,3006 Augusta Road,SC,29170-2829
Hess,Moore,40611,40611 040611 #040611 #40611,1795 East Blackstock Road,SC,29369
Hess,Spartanburg,40712,40712 040712 #040712 #40712,2798 E Main St,SC,29307
Hess,Mauldin,40713,40713 040713 #040713 #40713,408 W Butler Rd,SC,29662
Hess,Greenville,40714,40714 040714 #040714 #40714,2500 Poinsett Hwy,SC,29609
Hess,Conway,40862,40862 040862 #040862 #40862,1120 Hwy 501 Business,SC,29526
Hess,Conway,40866,40866 040866 #040866 #40866,1365 E Hwy 501,SC,29526
Hess,Conway,40869,40869 040869 #040869 #40869,2301 Main St,SC,29526
Hess,Rock Hill,40872,40872 040872 #040872 #40872,"I-77, Exit 77",SC,29730
Hess,Georgetown,40874,40874 040874 #040874 #40874,401 Church Street,SC,29440
Hess,Graniteville,40875,40875 040875 #040875 #40875,"574 Bettis Academy Rd, I-20",SC,29829
Hess,Georgetown,40877,40877 040877 #040877 #40877,3400 South Fraser Street,SC,29440
Hess,Monteagle,42204,42204 042204 #042204 #42204,"I-24, Exit 135",TN,37356
Hess,Fort Belvoir,46207,46207 046207 #046207 #46207,9142 Richmond Hwy.,VA,22060
Hess,Alexandria,46209,46209 046209 #046209 #46209,4808 King Street,VA,22302
Hess,Bailey Crossroad,46210,46210 046210 #046210 #46210,5652 Columbia Pike,VA,22041
Hess,Alexandria,46211,46211 046211 #046211 #46211,5710 Telegraph Rd.,VA,22303
Hess,Hybla Valley,46212,46212 046212 #046212 #46212,7600 Richmond Hwy.,VA,22306
Hess,Manassas,46215,46215 046215 #046215 #46215,8250 Sudley Road,VA,20109-3459
Hess,Annandale,46216,46216 046216 #046216 #46216,7100 Little River Tpk.,VA,22003
Hess,Alexandria,46500,46500 046500 #046500 #46500,620 South Patrick Street,VA,22314-4066
Hess,Arlington,46501,46501 046501 #046501 #46501,3299 Wilson Boulevard,VA,22201-4408
Hess,Richmond,46502,46502 046502 #046502 #46502,535 W. Broad Street,VA,23220
Hess,Richmond,46503,46503 046503 #046503 #46503,4721 Jefferson Davis Highway,VA,23234-3152
Hess,Richmond,46504,46504 046504 #046504 #46504,3801 Mechanicsville Turnpike,VA,23223-1113
Hess,Richmond,46505,46505 046505 #046505 #46505,7700 Broad Street,VA,23294-6300
Hess,Galax,46601,46601 046601 #046601 #46601,509 E Stuart Dr,VA,24333
Hess,Wytheville,46602,46602 046602 #046602 #46602,"I-81/I-77, Exit 77",VA,24382
Hess,Pulaski,46607,46607 046607 #046607 #46607,640 E Main St,VA,24301
Hess,Bassett,46612,46612 046612 #046612 #46612,5484 Virginia Ave,VA,24055
Hess,Danville,46613,46613 046613 #046613 #46613,1264 S Boston Rd,VA,24540
Hess,Roanoke,46614,46614 046614 #046614 #46614,2121 Orange Ave NE,VA,24012
Hess,Roanoke,46615,46615 046615 #046615 #46615,4350 Brambleton Ave SW,VA,24015
Hess,Salem,46616,46616 046616 #046616 #46616,1000 Electric Rd,VA,24153
Hess,Madison Heights,46619,46619 046619 #046619 #46619,4536 S Amherst Hwy,VA,24572
Hess,Lynchburg,46621,46621 046621 #046621 #46621,3732 Campbell Ave,VA,24501
Hess,Harrisonburg,46622,46622 046622 #046622 #46622,1437 S Main St,VA,22801
Hess,Toms Brook,46623,46623 046623 #046623 #46623,"I-81, Exit 291",VA,22660
Hess,Vinton,46624,46624 046624 #046624 #46624,400 Virginia Ave,VA,24179
Hess,Raphine,46628,46628 046628 #046628 #46628,"I-81/I-64, Exit 205",VA,24472
Hess,Charlottesville,46630,46630 046630 #046630 #46630,1172 Richmond Rd,VA,22911
Hess,Virginia Beach,46631,46631 046631 #046631 #46631,4873 Haygood Rd,VA,23455
Hess,Virginia Beach,46632,46632 046632 #046632 #46632,6048 Indian River Rd,VA,23464
Hess,Virginia Beach,46633,46633 046633 #046633 #46633,197 S Rosemont Rd,VA,23452
Hess,Virginia Beach,46634,46634 046634 #046634 #46634,4404 Princess Anne Rd,VA,23462
Hess,Chesapeake,46635,46635 046635 #046635 #46635,600 Battlefield Blvd S,VA,23322
Hess,Chesapeake,46636,46636 046636 #046636 #46636,3260 Western Branch Blvd,VA,23321
Hess,Chesapeake,46637,46637 046637 #046637 #46637,3920 Portsmouth Blvd,VA,23321
Hess,Newport News,46638,46638 046638 #046638 #46638,6104 Jefferson Ave,VA,23605
Hess,Portsmouth,46640,46640 046640 #046640 #46640,3601 Airline Blvd,VA,23701
Hess,Portsmouth,46641,46641 046641 #046641 #46641,3301 Victory Blvd,VA,23701
Hess,Charlottesville,46643,46643 046643 #046643 #46643,2235 Seminole Ln,VA,22901
Hess,Disputanta,46802,46802 046802 #046802 #46802,I-95 exit 47,VA,23842
Hess,Front Royal,46803,46803 046803 #046803 #46803,416 S Commerce Ave,VA,22630
Hess,Charlottesville,46805,46805 046805 #046805 #46805,1600 Seminole Trail,VA,22901
Hess,Williamsburg,46807,46807 046807 #046807 #46807,395 2nd St,VA,23185
Hess,Williamsburg,46808,46808 046808 #046808 #46808,3020 Richmond Rd,VA,23185
Hess,Gloucester,46809,46809 046809 #046809 #46809,6692 George Washington Memorial Hwy.,VA,23061
Hess,Gloucester Point,46810,46810 046810 #046810 #46810,1569 George Washington Memorial Hwy,VA,23062
Hess,Newport News,46811,46811 046811 #046811 #46811,11702 Jefferson Ave,VA,23606
Hess,Ridgeway,46813,46813 046813 #046813 #46813,4801 Greensboro Rd,VA,24148
Hess,Bassett,46814,46814 046814 #046814 #46814,"5740 Virginia Avenue, Hwy 220",VA,24055
Hess,Washington,51500,51500 051500 #051500 #51500,500 Florida Avenue NE,DC,20002-3440
Hess,Washington,51502,51502 051502 #051502 #51502,1739 New Jersey Avenue NW,DC,20001-2430
