keywords,city,Aggdata Store Number,store_number,address,state,zip_code
Jersey Mike's,Wall,1002,1002 #1002,1933 Highway 35 & Allaire Road,NJ,7719
Jersey Mike's,Manahawkin,1003,1003 #1003,25 South Main Street,NJ,8050
Jersey Mike's,Middletown,1004,1004 #1004,1209 Route 35,NJ,7748
Jersey Mike's,Brick,1007,1007 #1007,2085 Route 88,NJ,8724
Jersey Mike's,Point Pleasant,1008,1008 #1008,2600 Bridge Avenue,NJ,8742
Jersey Mike's,Forked River,1009,1009 #1009,1 Lacey Road,NJ,8731
Jersey Mike's,Howell,1010,1010 #1010,3950 Route 9 & Aldrich Road,NJ,7731
Jersey Mike's,Manasquan,1011,1011 #1011,2627 Highway 70,NJ,8736
Jersey Mike's,Point Pleasant Beach,1012,1012 #1012,901 Richmond Avenue,NJ,8742
Jersey Mike's,Jackson,1016,1016 #1016,2275 West County Line Road,NJ,8527
Jersey Mike's,Silverton,1018,1018 #1018,1840 Hooper Avenue,NJ,8753
Jersey Mike's,Shrewsbury,1021,1021 #1021,10 Shrewsbury Plaza,NJ,7702
Jersey Mike's,West Long Branch,1022,1022 #1022,175 Monmouth Road,NJ,7764
Jersey Mike's,Whippany,1023,1023 #1023,831 Route 10 East,NJ,7981
Jersey Mike's,Hamilton,1024,1024 #1024,620 Marketplace Blvd.,NJ,8691
Jersey Mike's,Westfield,1025,1025 #1025,144 E. Broad Street,NJ,7090
Jersey Mike's,Brick,1026,1026 #1026,602 Mantoloking Road,NJ,8723
Jersey Mike's,Little Egg Harbor,1027,1027 #1027,418 Route 9 S,NJ,8087
Jersey Mike's,Lakewood,1028,1028 #1028,1195 Route 70,NJ,8701
Jersey Mike's,Brick,1029,1029 #1029,56 Chambers Bridge Road,NJ,8723
Jersey Mike's,Parsippany,1030,1030 #1030,317 Smith Road,NJ,7054
Jersey Mike's,Bayville,1031,1031 #1031,333 Atlantic City Boulevard,NJ,8721
Jersey Mike's,Cinnaminson,1032,1032 #1032,195 Route 130,NJ,8077
Jersey Mike's,Moorestown,1033,1033 #1033,1624 Nixon Drive,NJ,8057
Jersey Mike's,Morganville,1034,1034 #1034,450 Union Hill Road,NJ,7751
Jersey Mike's,Newark,1035,1035 #1035,Newark Liberty International Airport,NJ,7114
Jersey Mike's,Cherry Hill,1037,1037 #1037,512 Haddonfield Road,NJ,8002
Jersey Mike's,Marlton,1038,1038 #1038,908 Route 73 North,NJ,8053
Jersey Mike's,Lavallette,1039,1039 #1039,604 Grand Central Ave,NJ,8735
Jersey Mike's,Long Branch,1040,1040 #1040,444 Ocean Blvd North,NJ,7740
Jersey Mike's,W. Long Branch,1041,1041 #1041,400 Cedar Avenue,NJ,7764
Jersey Mike's,Somers Point,1042,1042 #1042,17 Bethel Road,NJ,8244
Jersey Mike's,Red Bank,1044,1044 #1044,100 Water Street,NJ,7701
Jersey Mike's,Holmdel,1046,1046 #1046,2145 State Route 35,NJ,7733
Jersey Mike's,Cincinnati,2001,2001 #2001,9525 Kenwood Rd.,OH,45242
Jersey Mike's,Blue Ash,2002,2002 #2002,4776 Cornell Road,OH,45241
Jersey Mike's,Cincinnati,2003,2003 #2003,3770 Paxton Road,OH,45209
Jersey Mike's,Springdale,2004,2004 #2004,11409 Princeton Pike,OH,45246
Jersey Mike's,Gahanna,2005,2005 #2005,332 South Hamilton Road,OH,43230
Jersey Mike's,Gahanna,2006,2006 #2006,1340 N. Hamilton Rd.,OH,43230
Jersey Mike's,Cincinnati,2007,2007 #2007,8138 Beechmont Avenue,OH,45255
Jersey Mike's,Cincinnati,2008,2008 #2008,8481 Winton Road,OH,45231
Jersey Mike's,Cincinnati,2009,2009 #2009,5032 Glen Crossings Way,OH,45238
Jersey Mike's,Blacklick,2011,2011 #2011,7175 East Broad Street,OH,43004
Jersey Mike's,Westerville,2013,2013 #2013,5957 Sunbury Road,OH,43081
Jersey Mike's,Pickerington,2016,2016 #2016,1213 Hill Road North,OH,43147
Jersey Mike's,Dublin,2017,2017 #2017,6702 Perimeter Loop Road,OH,43017
Jersey Mike's,Mason,2019,2019 #2019,6651 Western Row Road,OH,45040
Jersey Mike's,Heath,2020,2020 #2020,609 Hebron Road,OH,43056
Jersey Mike's,Powell,2022,2022 #2022,3958 Powell Road,OH,43065
Jersey Mike's,Hilliard,2023,2023 #2023,4664 Cemetery Road,OH,43026
Jersey Mike's,Columbus,2024,2024 #2024,1489 Polaris Parkway,OH,43240
Jersey Mike's,Willoughby,2025,2025 #2025,36295 Euclid Avenue,OH,44094
Jersey Mike's,Cincinnati,2038,2038 #2038,7346 Kenwood Rd.,OH,45236
Jersey Mike's,Centerville,2040,2040 #2040,6002 Far Hills Avenue,OH,45459
Jersey Mike's,Fairview Park,2041,2041 #2041,21875 Lorain Road,OH,44126
Jersey Mike's,Columbus,2042,2042 #2042,1293 West Lane Ave.,OH,43221
Jersey Mike's,West Chester,2043,2043 #2043,7240 Liberty Centre Drive,OH,45069
Jersey Mike's,Columbus,2044,2044 #2044,4249 North High St.,OH,43214
Jersey Mike's,Cincinnati,2045,2045 #2045,5624 Cheviot Road,OH,45247
Jersey Mike's,Chardon,2046,2046 #2046,209 Center Street,OH,44024
Jersey Mike's,Grove City,2047,2047 #2047,4114 Buckeye Parkway,OH,43123
Jersey Mike's,Cincinnati,2048,2048 #2048,12133 Royal Point Dr.,OH,45249
Jersey Mike's,Beavercreek,2049,2049 #2049,3510 Pentagon Boulevard,OH,45431
Jersey Mike's,Rocky River,2050,2050 #2050,20647 Center Ridge Road,OH,44116
Jersey Mike's,Raleigh,3001,3001 #3001,4542 Capital Boulevard,NC,27604
Jersey Mike's,Raleigh,3002,3002 #3002,5910-119 Duraleigh Rd.,NC,27612
Jersey Mike's,Greenville,3003,3003 #3003,310-D East Arlington Boulevard,NC,27858
Jersey Mike's,Greenville,3004,3004 #3004,1915 South East Greenville Blvd,NC,27858
Jersey Mike's,Cary,3005,3005 #3005,957 High House Road,NC,27513
Jersey Mike's,Raleigh,3008,3008 #3008,8111 Creedmoor Road,NC,27613
Jersey Mike's,Raleigh,3009,3009 #3009,3088 Wake Forest Road,NC,27609
Jersey Mike's,Wilmington,3011,3011 #3011,343-4 South College Road,NC,28403
Jersey Mike's,Morrisville,3013,3013 #3013,962D Airport Boulevard,NC,27560
Jersey Mike's,Jamestown,3014,3014 #3014,4835 W. Wendover Ave.,NC,27282
Jersey Mike's,Wilmington,3015,3015 #3015,1968 Eastwood Road,NC,28403
Jersey Mike's,Rocky Mount,3016,3016 #3016,1469 Hunter Hill Road,NC,27804
Jersey Mike's,Charlotte,3018,3018 #3018,10110 Johnston Rd.,NC,28210
Jersey Mike's,Matthews,3020,3020 #3020,2332A Matthews Twp. Parkway,NC,28105
Jersey Mike's,Fuquay-Varina,3021,3021 #3021,701-A N. Main St.,NC,27526
Jersey Mike's,Cary,3024,3024 #3024,701 Cary Towne Blvd.,NC,27511
Jersey Mike's,Greensboro,3025,3025 #3025,2104 Georgia Street,NC,27408
Jersey Mike's,Raleigh,3026,3026 #3026,200 West Peace Street,NC,27603
Jersey Mike's,Charlotte,3027,3027 #3027,9211-12 North Tryon St.,NC,28262
Jersey Mike's,Apex,3028,3028 #3028,922 Highway 64,NC,27502
Jersey Mike's,Raleigh,3029,3029 #3029,1121-105 Falls River Avenue,NC,27614
Jersey Mike's,Raleigh,3031,3031 #3031,4121-101 New Bern Avenue,NC,27610
Jersey Mike's,Wilmington,3032,3032 #3032,8207 Market Street,NC,28411
Jersey Mike's,Burlington,3033,3033 #3033,2138 South Church Street,NC,27215
Jersey Mike's,Jacksonville,3034,3034 #3034,301 Western Boulevard,NC,28546
Jersey Mike's,Wilson,3035,3035 #3035,2338 Forest Hills Road,NC,27893
Jersey Mike's,Salisbury,3037,3037 #3037,850 Jake Alexander Blvd.West,NC,28147
Jersey Mike's,Charlotte,3038,3038 #3038,2001 East 7th St.,NC,28204
Jersey Mike's,Raleigh,3042,3042 #3042,7949 Fayetteville Road,NC,27603
Jersey Mike's,Mooresville,3043,3043 #3043,647 Brawley School Road,NC,28117
Jersey Mike's,Morehead City,3047,3047 #3047,4950 Arendell St.,NC,28557
Jersey Mike's,Charlotte,3048,3048 #3048,7309-21 E. Independence Blvd,NC,28227
Jersey Mike's,Fayetteville,3049,3049 #3049,3057 Boone Trail Road,NC,28304
Jersey Mike's,Greensboro,3052,3052 #3052,2939-B Battleground Avenue,NC,27408
Jersey Mike's,Winston-Salem,3053,3053 #3053,2291 Cloverdale Ave,NC,27103
Jersey Mike's,Huntersville,3054,3054 #3054,105C South Statesville Rd.,NC,28070
Jersey Mike's,High Point,3055,3055 #3055,2200 N. Main St,NC,27262
Jersey Mike's,Gastonia,3057,3057 #3057,3754 East Franklin Blvd.,NC,28054
Jersey Mike's,Goldsboro,3058,3058 #3058,2503 E. Ash Street,NC,27534
Jersey Mike's,Charlotte,3060,3060 #3060,7828 Rea Road,NC,28277
Jersey Mike's,Winston-Salem,3062,3062 #3062,5940 University Parkway,NC,27105
Jersey Mike's,Winterville,3064,3064 #3064,4054 South Memorial Dr,NC,28590
Jersey Mike's,Concord,3066,3066 #3066,300 Copperfield Blvd.,NC,28025
Jersey Mike's,Wilmington,3067,3067 #3067,3905 G Independence Blvd,NC,28412
Jersey Mike's,Washington,3070,3070 #3070,420 Pamlico Plaza,NC,27889
Jersey Mike's,Fayetteville,3071,3071 #3071,4225-B Ramsey Street,NC,28311
Jersey Mike's,Charlotte,3073,3073 #3073,11112-A South Tryon St.,NC,28273
Jersey Mike's,Apex,3080,3080 #3080,1761 Highway 55,NC,27523
Jersey Mike's,Cornelius,3081,3081 #3081,20619 Torrence Chapel Road,NC,28031
Jersey Mike's,Mebane,3082,3082 #3082,102 Millstead Dr.,NC,27302
Jersey Mike's,Stoney Creek,3087,3087 #3087,6307-L Burlington Rd,NC,27377
Jersey Mike's,High Point,3090,3090 #3090,2620 S. Main Street,NC,27263
Jersey Mike's,Garner,3091,3091 #3091,2345 Timber Drive,NC,27529
Jersey Mike's,Chapel Hill,3092,3092 #3092,245A South Elliott Road,NC,27514
Jersey Mike's,Garner,3093,3093 #3093,106-1 Bratton Drive,NC,27529
Jersey Mike's,Fayetteville,3094,3094 #3094,2043 Skibo Road,NC,28304
Jersey Mike's,Charlotte,3096,3096 #3096,128 South Tryon Street,NC,28202
Jersey Mike's,Durham,3098,3098 #3098,2945 South Miami Blvd,NC,27703
Jersey Mike's,Cary,3099,3099 #3099,3490 Kildare Farm Road,NC,27511
Jersey Mike's,Durham,3100,3100 #3100,3600 North Duke Street,NC,27704
Jersey Mike's,Raleigh,3101,3101 #3101,14460-113 New Falls of Neuse Rd,NC,27614
Jersey Mike's,Aberdeen,3102,3102 #3102,1814B Sandhill Blvd.,NC,28315
Jersey Mike's,Fayetteville,3105,3105 #3105,5815 Yadkin Road,NC,28303
Jersey Mike's,Greenville,3106,3106 #3106,796A Moye Boulevard,NC,27834
Jersey Mike's,Tarboro,3110,3110 #3110,150 River Oaks Drive,NC,27886
Jersey Mike's,Asheville,3111,3111 #3111,104A River Hills Road,NC,28805
Jersey Mike's,Boone,3112,3112 #3112,119 New Market Center,NC,28607
Jersey Mike's,Asheville,3113,3113 #3113,1550 Hendersonville Road,NC,28803
Jersey Mike's,Laurinburg,3114,3114 #3114,12280 McColl Road,NC,28352
Jersey Mike's,New Bern,3115,3115 #3115,2309 Highway 70 East,NC,28560
Jersey Mike's,Asheville,3117,3117 #3117,1341 Parkwood Road,NC,28806
Jersey Mike's,Pembroke,3120,3120 #3120,409 West 3rd Street,NC,28372
Jersey Mike's,Asheville,3121,3121 #3121,674 Merrimon Avenue,NC,28804
Jersey Mike's,Denver,3122,3122 #3122,7260 Highway 73,NC,28037
Jersey Mike's,Greenville,3124,3124 #3124,1908 East Firetower Road,NC,27834
Jersey Mike's,Arden,3125,3125 #3125,300 Airport Road,NC,28704
Jersey Mike's,Charlotte,3126,3126 #3126,2908 Oak Lake Boulevard,NC,28208
Jersey Mike's,Cary,3127,3127 #3127,280 Meeting Street,NC,27518
Jersey Mike's,Concord,3128,3128 #3128,6028 Bayfield Parkway,NC,28027
Jersey Mike's,Leland,3129,3129 #3129,2029 Olde Regent Way,NC,28451
Jersey Mike's,Charlotte,3130,3130 #3130,1300 East Blvd.,NC,28203
Jersey Mike's,Raleigh,3131,3131 #3131,6176 Falls of Neuse Road,NC,27609
Jersey Mike's,Raleigh,3132,3132 #3132,2712 Hillsborough Street,NC,27607
Jersey Mike's,Cary,3133,3133 #3133,2055 Renaissance Park Place,NC,27513
Jersey Mike's,Charlotte,3134,3134 #3134,10125 Perimeter Parkway,NC,28216
Jersey Mike's,Elizabeth City,3135,3135 #3135,103 Tanglewood Parkway,NC,27909
Jersey Mike's,Cary,3136,3136 #3136,7177 O\u2019Kelly Chapel Road,NC,27519
Jersey Mike's,Indian Trail,3137,3137 #3137,6580 Old Monroe Road,NC,28079
Jersey Mike's,Kingsport,4001,4001 #4001,1127-B N. Eastman Road,TN,37664
Jersey Mike's,Johnson City,4002,4002 #4002,1805 West State of Franklin Road,TN,37604
Jersey Mike's,Franklin,4003,4003 #4003,1010 Murfreesboro Road,TN,37064
Jersey Mike's,Nashville,4004,4004 #4004,2311 Elliston Place,TN,37203
Jersey Mike's,Nashville,4005,4005 #4005,73 White Bridge Road,TN,37209
Jersey Mike's,Murfreesboro,4008,4008 #4008,2910 South Church St.,TN,37127
Jersey Mike's,Nashville,4009,4009 #4009,2280 Murfreesboro Pike,TN,37217
Jersey Mike's,Nashville,4010,4010 #4010,7114 U.S.HWY 70-South,TN,37221
Jersey Mike's,Hermitage,4011,4011 #4011,5506 Old Hickory Blvd,TN,37076
Jersey Mike's,Clarksville,4012,4012 #4012,1960 L Madison Street,TN,37043
Jersey Mike's,Hendersonville,4015,4015 #4015,247 West Main Street,TN,37075
Jersey Mike's,Brentwood,4018,4018 #4018,214 Ward Circle,TN,37027
Jersey Mike's,Johnson City,4020,4020 #4020,2106 Mount Castle Drive,TN,37604
Jersey Mike's,Nashville,4021,4021 #4021,736 Thompson Lane,TN,37204
Jersey Mike's,Kingsport,4022,4022 #4022,4260 Fort Henry Drive,TN,37663
Jersey Mike's,Lebanon,4023,4023 #4023,1315 West Main St.,TN,37087
Jersey Mike's,Nashville,4025,4025 #4025,5527 Edmonson Pike,TN,37211
Jersey Mike's,Cookeville,4026,4026 #4026,447 South Jefferson Ave.,TN,38501
Jersey Mike's,Nashville,4027,4027 #4027,2050 Rosa Parks Blvd,TN,37228
Jersey Mike's,Madison,4028,4028 #4028,1706 Gallatin Pike N.,TN,37115
Jersey Mike's,Franklin,4030,4030 #4030,2000 Mallory Lane,TN,37067
Jersey Mike's,Murfreesboro,4034,4034 #4034,2705 A Old Fort Parkway,TN,37128
Jersey Mike's,Bristol,4035,4035 #4035,1430 Volunteer Parkway,TN,37620
Jersey Mike's,Smyrna,4036,4036 #4036,479 Sam Ridley Parkway West,TN,37167
Jersey Mike's,Franklin,4037,4037 #4037,1175 Meridian Boulevard,TN,37067
Jersey Mike's,Nashville,4038,4038 #4038,211 Union Street,TN,37201
Jersey Mike's,Clarksville,4039,4039 #4039,2808 Wilma Rudolph Blvd.,TN,37040
Jersey Mike's,Kingsport,4040,4040 #4040,2637 East Stone Drive,TN,37660
Jersey Mike's,Nashville,4041,4041 #4041,2184 Bandywood Drive,TN,37215
Jersey Mike's,Spring Hill,4042,4042 #4042,5018 Spedale Court,TN,37174
Jersey Mike's,Dunwoody,5001,5001 #5001,2458 Jett Ferry Road,GA,30338
Jersey Mike's,Loganville,5003,5003 #5003,4018 Atlanta Highway,GA,30052
Jersey Mike's,Alpharetta,5005,5005 #5005,4075 Old Milton Pkwy.,GA,30005
Jersey Mike's,Peachtree Corners,5007,5007 #5007,6050 Peachtree Pkwy.,GA,30092
Jersey Mike's,Atlanta,5011,5011 #5011,3895 Peachtree Road North East,GA,30319
Jersey Mike's,Newnan,5013,5013 #5013,90 Glenda Trace,GA,30265
Jersey Mike's,Atlanta,5014,5014 #5014,3740 Roswell Road,GA,30342
Jersey Mike's,Roswell,5015,5015 #5015,665 Holcomb Bridge Road,GA,30076
Jersey Mike's,Atlanta,5016,5016 #5016,2036 Johnson Ferry Road,GA,30319
Jersey Mike's,Atlanta,5017,5017 #5017,2020 Howell Mill Road,GA,30318
Jersey Mike's,Atlanta,5018,5018 #5018,2470 Briarcliff Rd.,GA,30329
Jersey Mike's,Smyrna,5020,5020 #5020,4715 South Atlanta Road,GA,30080
Jersey Mike's,Atlanta,5023,5023 #5023,2014 Powers Ferry Road,GA,30339
Jersey Mike's,Atlanta,5025,5025 #5025,3489A Chamblee Tucker Road,GA,30341
Jersey Mike's,Lawrenceville,5027,5027 #5027,1820 North Brown Rd.,GA,30043
Jersey Mike's,Suwanee,5028,5028 #5028,3463 Lawrenceville-Suwanee Rd,GA,30024
Jersey Mike's,Peachtree City,5029,5029 #5029,2729 Highway 54 West,GA,30269
Jersey Mike's,Snellville,5030,5030 #5030,2050 Highway 124,GA,30078
Jersey Mike's,Atlanta,5031,5031 #5031,6035 Bakers Ferry Rd.,GA,30336
Jersey Mike's,Duluth,5032,5032 #5032,3780 Old Norcross Rd.,GA,30096
Jersey Mike's,Marietta,5033,5033 #5033,2960 Shallowford Road,GA,30066
Jersey Mike's,Monroe,5034,5034 #5034,2120 West Spring St.,GA,30655
Jersey Mike's,Atlanta,5037,5037 #5037,227 Sandy Springs Place NE,GA,30328
Jersey Mike's,Holly Springs,5038,5038 #5038,5341 Old Highway 5,GA,30188
Jersey Mike's,Kennesaw,5039,5039 #5039,840 Ernest West Barrett Parkway NW,GA,30144
Jersey Mike's,Canton,5040,5040 #5040,149 Reinhardt College Parkway,GA,30114
Jersey Mike's,Atlanta,5041,5041 #5041,1000 Northside Drive NW,GA,30318
Jersey Mike's,Savannah,5043,5043 #5043,7400 Abercorn Street,GA,31406
Jersey Mike's,Dalton,5044,5044 #5044,1367 West Walnut Avenue,GA,30720
Jersey Mike's,Grovetown,5045,5045 #5045,4010 Gateway Boulevard,GA,30813
Jersey Mike's,Columbus,5046,5046 #5046,1640 Rollins Way,GA,31904
Jersey Mike's,Atlanta,5047,5047 #5047,Hartsfield-Jackson Atlanta Airport,GA,30324
Jersey Mike's,Marietta,5048,5048 #5048,4400 Roswell Road,GA,30062
Jersey Mike's,Statesboro,5049,5049 #5049,721 South Main Street,GA,30461
Jersey Mike's,Martinez,5050,5050 #5050,403 Fury's Ferry Rd.,GA,30907
Jersey Mike's,Pooler,5051,5051 #5051,246 Pooler Parkway,GA,31322
Jersey Mike's,Richmond,6001,6001 #6001,2709 Buford Road,VA,23235
Jersey Mike's,Glen Allen,6002,6002 #6002,11444 West Broad Street,VA,23060
Jersey Mike's,Ashland,6003,6003 #6003,708 England Street,VA,23005
Jersey Mike's,Colonial Heights,6005,6005 #6005,2011 Boulevard,VA,23834
Jersey Mike's,Ashland,6006,6006 #6006,10180 Lakeridge Parkway,VA,23005
Jersey Mike's,Richmond,6008,6008 #6008,927 West Broad Street,VA,23220
Jersey Mike's,Bristol,6009,6009 #6009,102 Bonham Rd.,VA,24202
Jersey Mike's,Richmond,6010,6010 #6010,8654 Staples Mill Road,VA,23228
Jersey Mike's,Midlothian,6012,6012 #6012,100 Heaths Way Road,VA,23114
Jersey Mike's,Midlothian,6013,6013 #6013,4500 Commonwealth Centre Pkwy.,VA,23112
Jersey Mike's,Chesterfield,6014,6014 #6014,6945 Commons Plaza,VA,23832
Jersey Mike's,Mechanicsville,6017,6017 #6017,7262 Mechanicsville Turnpike,VA,23111
Jersey Mike's,Lynchburg,6018,6018 #6018,3919 Wards Road,VA,24502
Jersey Mike's,Virginia Beach,6019,6019 #6019,4224 Virginia Beach Boulevard,VA,23452
Jersey Mike's,Chesterfield,6020,6020 #6020,7317 Hancock Village Drive,VA,23832
Jersey Mike's,Leesburg,6021,6021 #6021,522 Fort Evans Road,VA,20176
Jersey Mike's,Norfolk,6022,6022 #6022,1211 N. Military Highway,VA,23502
Jersey Mike's,Chesapeake,6023,6023 #6023,733 Eden Way North,VA,23320
Jersey Mike's,Norfolk,6024,6024 #6024,520 West 21st Street,VA,23517
Jersey Mike's,Virginia Beach,6025,6025 #6025,5832 Northampton Blvd.,VA,23455
Jersey Mike's,Sterling,6026,6026 #6026,21031 Tripleseven Road,VA,20165
Jersey Mike's,Fairfax,6027,6027 #6027,11199 Lee Highway,VA,22030
Jersey Mike's,Fairfax,6028,6028 #6028,10394 Willard Way,VA,22030
Jersey Mike's,Chantilly,6029,6029 #6029,5005 Westone Plaza Blvd.,VA,20151
Jersey Mike's,Alexandria,6030,6030 #6030,7732 D Richmond Highway,VA,22306
Jersey Mike's,Virginia Beach,6031,6031 #6031,1047 Independence Blvd.,VA,23455
Jersey Mike's,Ashburn,6032,6032 #6032,20070 Ashbrook Commons Plaza,VA,20147
Jersey Mike's,Fairfax,6033,6033 #6033,12703 Shoppes Lane,VA,22033
Jersey Mike's,Stafford,6034,6034 #6034,1495 Stafford Market Place,VA,22556
Jersey Mike's,Suffolk,6035,6035 #6035,6216 College Drive,VA,23435
Jersey Mike's,Lynchburg,6036,6036 #6036,3901 Old Forest Rd,VA,24501
Jersey Mike's,Purcellville,6037,6037 #6037,150 B Purcellville Gateway Drive,VA,20132
Jersey Mike's,South Riding,6039,6039 #6039,25360 Eastern Marketplace Plaza,VA,20152
Jersey Mike's,Manassas,6040,6040 #6040,7418 Sudley Road,VA,20109
Jersey Mike's,Springfield,6041,6041 #6041,7000B Brookfield Plaza,VA,22150
Jersey Mike's,Virginia Beach,6042,6042 #6042,687 Lynnhaven Parkway,VA,23452
Jersey Mike's,Culpeper,6044,6044 #6044,765 Nalles Mill Road,VA,22701
Jersey Mike's,North Myrtle Beach,7001,7001 #7001,4031 Highway 17 South,SC,29582
Jersey Mike's,Mt. Pleasant,7002,7002 #7002,280D West Coleman Blvd.,SC,29464
Jersey Mike's,Columbia,7003,7003 #7003,4717 Devine Street,SC,29209
Jersey Mike's,Rock Hill,7005,7005 #7005,735 Cherry Road,SC,29732
Jersey Mike's,Rock Hill,7006,7006 #7006,2748 Celanese Road,SC,29732
Jersey Mike's,Greenville,7007,7007 #7007,233 North Main Street,SC,29601
Jersey Mike's,Greer,7011,7011 #7011,1311-A West Wade Hampton Blvd,SC,29651
Jersey Mike's,Charleston,7013,7013 #7013,65A Sycamore Avenue,SC,29407
Jersey Mike's,Goose Creek,7014,7014 #7014,217-A St. James Ave,SC,29445
Jersey Mike's,Sumter,7015,7015 #7015,1222 Alice Drive,SC,29150
Jersey Mike's,Fort Mill,7016,7016 #7016,1710 Gold Hill Road,SC,29708
Jersey Mike's,Greenville,7017,7017 #7017,215 Pelham Rd.,SC,29615
Jersey Mike's,Greenville,7018,7018 #7018,1507 Woodruff Road,SC,29607
Jersey Mike's,Simpsonville,7020,7020 #7020,325 Harrison Bridge Rd.,SC,29680
Jersey Mike's,Mt. Pleasant,7021,7021 #7021,1909 Hwy 17 N.,SC,29464
Jersey Mike's,Clemson,7022,7022 #7022,1067 Tiger Boulevard,SC,29631
Jersey Mike's,West Columbia,7023,7023 #7023,1720 Sunset Blvd.,SC,29169
Jersey Mike's,Okatie,7024,7024 #7024,101-F Commerce Place West,SC,29909
Jersey Mike's,Murrells Inlet,7025,7025 #7025,4390 Hwy. 17 Bypass,SC,29576
Jersey Mike's,Irmo,7027,7027 #7027,7241 Broad River Road,SC,29063
Jersey Mike's,Indian Land,7029,7029 #7029,8431 Charlotte Highway,SC,29707
Jersey Mike's,Myrtle Beach,7030,7030 #7030,9713 North King's Highway (Highway 17),SC,29572
Jersey Mike's,Conway,7031,7031 #7031,2676 Church Street,SC,29526
Jersey Mike's,Beaufort,7032,7032 #7032,272 Robert Smalls Parkway,SC,29906
Jersey Mike's,Mount Pleasant,7033,7033 #7033,3010 South Morgans Point Road,SC,29466
Jersey Mike's,Columbia,7034,7034 #7034,136-3 Forum Drive,SC,29229
Jersey Mike's,North Charleston,7035,7035 #7035,8983 University Boulevard,SC,29420
Jersey Mike's,Lexington,7037,7037 #7037,5594 Sunset Boulevard,SC,29072
Jersey Mike's,Charleston,7038,7038 #7038,520 Folly Road,SC,29412
Jersey Mike's,Bluffton,7039,7039 #7039,1019 Fording Island Road,SC,29910
Jersey Mike's,Summerville,7040,7040 #7040,310 Azalea Square Boulevard,SC,29483
Jersey Mike's,Lake Wylie,7041,7041 #7041,604 Nautical Drive,SC,29710
Jersey Mike's,Columbia,7042,7042 #7042,7001 St. Andrews Road,SC,29212
Jersey Mike's,Easley,7043,7043 #7043,125 Rolling Hills Circle,SC,29640
Jersey Mike's,North Myrtle Beach,7044,7044 #7044,515 Highway 17 N,SC,29582
Jersey Mike's,North Charleston,7045,7045 #7045,7225 Rivers Avenue,SC,29406
Jersey Mike's,Myrtle Beach,7046,7046 #7046,2602 N. Kings Hwy,SC,29577
Jersey Mike's,Myrtle Beach,7047,7047 #7047,102-B Loyola Drive,SC,29588
Jersey Mike's,North Charleston,7048,7048 #7048,9500 Dorchester Road,SC,29485
Jersey Mike's,Hilton Head Island,7049,7049 #7049,11 Palmetto Bay Road,SC,29928
Jersey Mike's,Aiken,7050,7050 #7050,232 Eastgate Drive,SC,29803
Jersey Mike's,Rock Hill,7051,7051 #7051,1460 Meeting Boulevard,SC,29732
Jersey Mike's,North Charleston,7052,7052 #7052,5070 International Boulevard,SC,29418
Jersey Mike's,Cranberry Township,8001,8001 #8001,20300 Route 19,PA,16066
Jersey Mike's,Peters Township,8002,8002 #8002,4123 Washington Road,PA,15317
Jersey Mike's,Wexford,8004,8004 #8004,10640 Perry Highway,PA,15090
Jersey Mike's,State College,8007,8007 #8007,128 South Allen Street,PA,16801
Jersey Mike's,Philadelphia,8008,8008 #8008,2955 Market St.,PA,19104
Jersey Mike's,Pittsburgh,8009,8009 #8009,7390 McKnight Road,PA,15237
Jersey Mike's,Tempe,9002,9002 #9002,555 North Scottsdale Road,AZ,85281
Jersey Mike's,Phoenix,9003,9003 #9003,4550 East Bell Road,AZ,85032
Jersey Mike's,Scottsdale,9004,9004 #9004,10392 North Scottsdale Road,AZ,85254
Jersey Mike's,Chandler,9005,9005 #9005,2780 West Chandler Boulevard,AZ,85224
Jersey Mike's,Phoenix,9006,9006 #9006,4605 East Chandler Boulevard,AZ,85048
Jersey Mike's,Glendale,9007,9007 #9007,7410 West Bell Road,AZ,85308
Jersey Mike's,Phoenix,9008,9008 #9008,2501 West Happy Valley Road,AZ,85085
Jersey Mike's,Scottsdale,9009,9009 #9009,15807 E. Frank Lloyd Wright,AZ,85260
Jersey Mike's,Chandler,9010,9010 #9010,1085 West Queen Creek Road,AZ,85248
Jersey Mike's,Gilbert,9011,9011 #9011,891 East Baseline Road,AZ,85233
Jersey Mike's,Phoenix,9012,9012 #9012,18 East Camelback Road,AZ,85012
Jersey Mike's,Phoenix,9013,9013 #9013,1515 North 7th Avenue,AZ,85003
Jersey Mike's,Phoenix,9014,9014 #9014,2415 East Baseline Road,AZ,85042
Jersey Mike's,Phoenix,9015,9015 #9015,245 East Bell Road,AZ,85022
Jersey Mike's,Mesa,9016,9016 #9016,1939 S. Val Vista Drive,AZ,85204
Jersey Mike's,Phoenix,9017,9017 #9017,4603 East Cactus Rd.,AZ,85032
Jersey Mike's,Laveen,9018,9018 #9018,5130 W. Baseline Rd,AZ,85339
Jersey Mike's,Surprise,9020,9020 #9020,14071 West Bell Road,AZ,85374
Jersey Mike's,Newport,10001,10001 #10001,86 B Carothers Road,KY,41071
Jersey Mike's,Louisville,10002,10002 #10002,10266 Shelbyville Road,KY,40223
Jersey Mike's,Florence,10003,10003 #10003,310 Mt Zion Road,KY,41042
Jersey Mike's,Louisville,10005,10005 #10005,10521 Fischer Park Drive,KY,40241
Jersey Mike's,Hopkinsville,10010,10010 #10010,2413 Ft. Campbell Blvd.,KY,42240
Jersey Mike's,Oak Grove,10011,10011 #10011,16472 Fort Campbell Boulevard,KY,42262
Jersey Mike's,Florence,10012,10012 #10012,1035 Vandercar Way,KY,41042
Jersey Mike's,Mishawaka,11001,11001 #11001,5718 N. Main Street,IN,46545
Jersey Mike's,Indianapolis,11005,11005 #11005,6985 West 38th Street,IN,46254
Jersey Mike's,Indianapolis,11009,11009 #11009,7125 Georgetown Road,IN,46268
Jersey Mike's,Indianapolis,11011,11011 #11011,5025 E. 82nd Street,IN,46250
Jersey Mike's,Schererville,11012,11012 #11012,37 US Highway 41,IN,46375
Jersey Mike's,Fort Wayne,11013,11013 #11013,6408 W. Jefferson Blvd.,IN,46804
Jersey Mike's,Carmel,11014,11014 #11014,2271 Pointe Parkway,IN,46032
Jersey Mike's,Birmingham,12002,12002 #12002,4673 Hwy 280 East,AL,35242
Jersey Mike's,Huntsville,12003,12003 #12003,6290 University Dr.,AL,35806
Jersey Mike's,Opelika,12004,12004 #12004,2336 Tiger Town Parkway,AL,36801
Jersey Mike's,Birmingham,12006,12006 #12006,1873 Gadsden Highway,AL,35235
Jersey Mike's,Hoover,12007,12007 #12007,1851 Montgomery Highway,AL,35244
Jersey Mike's,Delray Beach,13001,13001 #13001,1554 South Federal Highway,FL,33483
Jersey Mike's,West Palm Beach,13002,13002 #13002,931 Village Blvd,FL,33409
Jersey Mike's,Pensacola,13004,13004 #13004,1620 Airport Blvd,FL,32504
Jersey Mike's,Tampa,13007,13007 #13007,14925 Bruce B. Downs Blvd.,FL,33613
Jersey Mike's,Stuart,13009,13009 #13009,3321 S. Federal Highway,FL,34997
Jersey Mike's,Delray Beach,13010,13010 #13010,455C NE 5th Avenue,FL,33483
Jersey Mike's,Jupiter,13011,13011 #13011,6390 West Indiantown Road,FL,33458
Jersey Mike's,Boynton Beach,13012,13012 #13012,2260 Woolbright Rd.,FL,33426
Jersey Mike's,Boca Raton,13017,13017 #13017,8903 Glades Road,FL,33434
Jersey Mike's,Sarasota,13019,13019 #13019,3820 S. Tuttle Ave.,FL,34239
Jersey Mike's,Orlando,13020,13020 #13020,6700 Conroy Rd.,FL,32835
Jersey Mike's,Fort Myers,13021,13021 #13021,12377 S. Cleveland Ave.,FL,33907
Jersey Mike's,Vero Beach,13023,13023 #13023,628 21st Street,FL,32960
Jersey Mike's,Fort Myers,13024,13024 #13024,6810 Shoppes at Plantation Drive,FL,33912
Jersey Mike's,Boca Raton,13025,13025 #13025,7050 West Palmetto Park Road,FL,33433
Jersey Mike's,Brandon,13026,13026 #13026,10951 Causeway Blvd,FL,33511
Jersey Mike's,Tampa,13027,13027 #13027,14839 North Dale Mabry Highway,FL,33618
Jersey Mike's,Bonita Springs,13028,13028 #13028,8951 Bonita Beach Road,FL,34135
Jersey Mike's,Destin,13029,13029 #13029,817 Harbor Blvd.,FL,32541
Jersey Mike's,University Park,13030,13030 #13030,8210 Tourist Center Drive,FL,34201
Jersey Mike's,Port Saint Lucie,13031,13031 #13031,262 SW Port St. Lucie Boulevard,FL,34984
Jersey Mike's,Orlando,13032,13032 #13032,12420 Lake Underhill Road,FL,32828
Jersey Mike's,Lake Mary,13033,13033 #13033,819 Rinehart Road,FL,32746
Jersey Mike's,Okeechobee,13035,13035 #13035,611 West South Park Street,FL,34972
Jersey Mike's,Altamonte Springs,13036,13036 #13036,851 South State Road 434,FL,32714
Jersey Mike's,Altamonte Springs,13037,13037 #13037,175 East Altamonte Drive,FL,32701
Jersey Mike's,Oldsmar,13039,13039 #13039,3860 Tampa Road,FL,34677
Jersey Mike's,Melbourne,13040,13040 #13040,1515 Palm Bay Road,FL,32901
Jersey Mike's,Port Orange,13041,13041 #13041,3843 South Nova Road,FL,32127
Jersey Mike's,Daytona Beach,13042,13042 #13042,1808 West International Speedway Boulevard,FL,32114
Jersey Mike's,Tallahassee,13043,13043 #13043,1801 West Tennessee Street #4,FL,32304
Jersey Mike's,Orlando,13044,13044 #13044,3402 Technological Avenue,FL,32817
Jersey Mike's,Melbourne,13045,13045 #13045,1070 North Wickham Road,FL,32935
Jersey Mike's,Bradenton,13046,13046 #13046,4020 14th Street West,FL,34205
Jersey Mike's,Tallahassee,13047,13047 #13047,1355 Market Street,FL,32312
Jersey Mike's,Orlando,13048,13048 #13048,3042 West Sand Lake Road,FL,32819
Jersey Mike's,Ormond Beach,13049,13049 #13049,1474 West Granada Boulevard,FL,32174
Jersey Mike's,Jacksonville,13051,13051 #13051,4261 Roosevelt Blvd.,FL,32205
Jersey Mike's,Melbourne,13052,13052 #13052,90 West Hibiscus Blvd.,FL,32901
Jersey Mike's,Orlando,13053,13053 #13053,2100 Edgewater Drive,FL,32804
Jersey Mike's,Gainesville,13054,13054 #13054,2015 NW 43rd Street,FL,32605
Jersey Mike's,Winter Park,13055,13055 #13055,4004 N. Goldenrod Road,FL,32792
Jersey Mike's,St. Petersburg,13056,13056 #13056,10304 Roosevelt Boulevard North,FL,33716
Jersey Mike's,Maitland,13057,13057 #13057,246 N. Orlando Avenue,FL,32751
Jersey Mike's,Boca Raton,13058,13058 #13058,1200 Yamato Rd.,FL,33431
Jersey Mike's,Jacksonville,13059,13059 #13059,1615 Hendricks Avenue,FL,32207
Jersey Mike's,Jupiter,13060,13060 #13060,5500 North Military Trail,FL,33458
Jersey Mike's,Winter Park,13061,13061 #13061,1150 South Orlando Ave.,FL,32789
Jersey Mike's,Tampa,13062,13062 #13062,1155 S. Dale Mabry Hwy,FL,33629
Jersey Mike's,Orange Park,13063,13063 #13063,410 Blanding Blvd. #9,FL,32073
Jersey Mike's,Orlando,13064,13064 #13064,13651 Hunters Oak Dr. # 103,FL,32837
Jersey Mike's,Tampa,13065,13065 #13065,2121 W. Kennedy Blvd.,FL,33606
Jersey Mike's,Jacksonville,13067,13067 #13067,9700 Deer Lake Court,FL,32246
Jersey Mike's,Orlando,13068,13068 #13068,54 W. Church Street,FL,32801
Jersey Mike's,Tallahassee,13069,13069 #13069,3122 Mahan Drive,FL,32308
Jersey Mike's,Jacksonville,13070,13070 #13070,3541-1 University Blvd West,FL,32217
Jersey Mike's,Winter Garden,13071,13071 #13071,3310 Daniels Road,FL,34787
Jersey Mike's,New Port Richey,13072,13072 #13072,10829 State Road 54,FL,34655
Jersey Mike's,Pinellas Park,13074,13074 #13074,7066 US Highway 19 North,FL,33781
Jersey Mike's,Ft. Lauderdale,13075,13075 #13075,6308 N. Andrews Avenue,FL,33309
Jersey Mike's,Tallahassee,13076,13076 #13076,1970 Gainesborough Drive #1,FL,32311
Jersey Mike's,Winter Springs,13077,13077 #13077,5697 Red Bug Lake Road,FL,32708
Jersey Mike's,Parkland,13078,13078 #13078,7011 N State Road 7,FL,33073
Jersey Mike's,Coral Springs,13079,13079 #13079,4230 North State Rd 7,FL,33073
Jersey Mike's,Clearwater,13080,13080 #13080,2687 Roosevelt Boulevard,FL,33760
Jersey Mike's,St. Petersburg,13081,13081 #13081,3832 Tyrone Boulevard North,FL,33709
Jersey Mike's,Lady Lake,13082,13082 #13082,674 Highway 441 North,FL,32159
Jersey Mike's,Fleming Island,13083,13083 #13083,1647 CR 220,FL,32003
Jersey Mike's,DeLand,13084,13084 #13084,112 North Woodland Boulevard,FL,32724
Jersey Mike's,Tampa,13085,13085 #13085,6917 Gunn Highway,FL,33625
Jersey Mike's,Orange City,13086,13086 #13086,2572 Enterprise Road,FL,32763
Jersey Mike's,Sarasota,13087,13087 #13087,5867 Fruitville Road,FL,34232
Jersey Mike's,North Providence,14001,14001 #14001,1401 Douglas Ave.,RI,2904
Jersey Mike's,Warwick,14002,14002 #14002,1350 Greenwich Avenue,RI,2886
Jersey Mike's,Warwick,14003,14003 #14003,782 Warwick Avenue,RI,2888
Jersey Mike's,Houston,15001,15001 #15001,5819 Kirby Drive,TX,77005
Jersey Mike's,Dallas,15002,15002 #15002,5521 Greenville Avenue,TX,75206
Jersey Mike's,Austin,15003,15003 #15003,10001 Research Blvd.,TX,78759
Jersey Mike's,Tyler,15004,15004 #15004,4754 South Broadway,TX,75703
Jersey Mike's,Irving,15005,15005 #15005,6550 North MacArthur Blvd,TX,75039
Jersey Mike's,Austin,15007,15007 #15007,11521 FM 620 North,TX,78726
Jersey Mike's,Houston,15008,15008 #15008,5393-B Westheimer St.,TX,77056
Jersey Mike's,Austin,15009,15009 #15009,9500 South IH-35,TX,78748
Jersey Mike's,Austin,15010,15010 #15010,4404 West William Cannon,TX,78749
Jersey Mike's,Southlake,15011,15011 #15011,410 West Southlake Boulevard,TX,76092
Jersey Mike's,Plano,15013,15013 #15013,1881 North Central Expressway,TX,75075
Jersey Mike's,Richardson,15014,15014 #15014,700 E. Campbell Road,TX,75081
Jersey Mike's,Flower Mound,15015,15015 #15015,2701 Cross Timbers Road,TX,75028
Jersey Mike's,Plano,15016,15016 #15016,8100 Dallas Parkway,TX,75024
Jersey Mike's,Dallas,15017,15017 #15017,5301 West Lovers Lane #108,TX,75209
Jersey Mike's,Dallas,15018,15018 #15018,14060 Dallas Parkway,TX,75240
Jersey Mike's,Watauga,15019,15019 #15019,7608 Denton Hwy,TX,76148
Jersey Mike's,Dallas,15020,15020 #15020,8411 Preston Road,TX,75225
Jersey Mike's,Dallas,15022,15022 #15022,3001 Knox Street,TX,75205
Jersey Mike's,Fort Worth,15023,15023 #15023,4833 South Hulen Street,TX,76132
Jersey Mike's,Denton,15024,15024 #15024,1800 S Loop 288,TX,76205
Jersey Mike's,Tyler,15025,15025 #15025,1690 South Beckham Avenue,TX,75701
Jersey Mike's,Fort Worth,15026,15026 #15026,6318 Camp Bowie Boulevard,TX,76116
Jersey Mike's,Hurst,15027,15027 #15027,1308 W Pipeline Road,TX,76054
Jersey Mike's,San Antonio,15028,15028 #15028,8603 State Highway 151,TX,78245
Jersey Mike's,San Antonio,15029,15029 #15029,7970 Fredericksburg Road,TX,78229
Jersey Mike's,San Antonio,15030,15030 #15030,20323 Huebner Road,TX,78258
Jersey Mike's,Houston,15031,15031 #15031,1635 Eldridge Parkway,TX,77077
Jersey Mike's,Wichita Falls,15032,15032 #15032,3801 Call Field Road,TX,76308
Jersey Mike's,Fort Worth,15033,15033 #15033,14113 Trinity Blvd.,TX,76155
Jersey Mike's,Houston,15034,15034 #15034,103 Yale Street,TX,77007
Jersey Mike's,Richardson,15035,15035 #15035,1920 N. Coit Rd.,TX,75080
Jersey Mike's,Longview,15036,15036 #15036,2199 Gilmer Road,TX,75604
Jersey Mike's,Frisco,15037,15037 #15037,5110 Eldorado Parkway #450,TX,75034
Jersey Mike's,Houston,15038,15038 #15038,8001 South Main St.,TX,77025
Jersey Mike's,Houston,15039,15039 #15039,11560 FM 1960 West,TX,77065
Jersey Mike's,Longview,15040,15040 #15040,3312 N. Fourth Street,TX,75604
Jersey Mike's,Killeen,15041,15041 #15041,3007 E. Central Texas Expressway,TX,76543
Jersey Mike's,Katy,15042,15042 #15042,6645 South Fry Road,TX,77494
Jersey Mike's,Houston,15043,15043 #15043,4765 FM 1960 Rd West,TX,77069
Jersey Mike's,Coppell,15044,15044 #15044,143 S. Denton Tap Road,TX,75019
Jersey Mike's,Houston,15046,15046 #15046,5815 E. Sam Houston Parkway,TX,77049
Jersey Mike's,Austin,15048,15048 #15048,2700 West Anderson Lane,TX,78757
Jersey Mike's,Pflugerville,15049,15049 #15049,1608 Town Center Dr.,TX,78660
Jersey Mike's,Mansfield,15050,15050 #15050,1301 E. Debbie Lane,TX,76063
Jersey Mike's,Spring,15051,15051 #15051,2150 FM 2920,TX,77388
Jersey Mike's,Odessa,15052,15052 #15052,7270 East Highway 191,TX,79765
Jersey Mike's,Bee Cave,15053,15053 #15053,4005 Market St.,TX,78738
Jersey Mike's,Frisco,15055,15055 #15055,15962 W. Eldorado Parkway,TX,75035
Jersey Mike's,New Braunfels,15056,15056 #15056,1691 State Highway 46 West,TX,78132
Jersey Mike's,Southlake,15058,15058 #15058,2645 E. Southlake Blvd.,TX,76092
Jersey Mike's,Lewisville,15059,15059 #15059,4770 State Highway 121,TX,75056
Jersey Mike's,San Antonio,15061,15061 #15061,5515 Tezel Road,TX,78250
Jersey Mike's,Raynham,16001,16001 #16001,325 New State Highway Rt. 44,MA,2767
Jersey Mike's,Las Vegas,17006,17006 #17006,1772 S. Rainbow Blvd.,NV,89146
Jersey Mike's,North Las Vegas,17007,17007 #17007,5595 Simmons St.,NV,89031
Jersey Mike's,Las Vegas,17008,17008 #17008,8680 W. Warm Springs Road,NV,89148
Jersey Mike's,Las Vegas,17010,17010 #17010,5757 Wayne Newton Blvd.,NV,89139
Jersey Mike's,Las Vegas,17011,17011 #17011,3900 Paradise Road,NV,89169
Jersey Mike's,Las Vegas,17012,17012 #17012,8780 W. Charleston Blvd. #102,NV,89117
Jersey Mike's,Kent,18001,18001 #18001,18119 E. Valley Highway South,WA,98032
Jersey Mike's,Redmond,18002,18002 #18002,15230 NE 24th Street,WA,98052
Jersey Mike's,Lynnwood,18003,18003 #18003,2701 184th St. SW,WA,98037
Jersey Mike's,Shoreline,18004,18004 #18004,1289 N. 205th St.,WA,98133
Jersey Mike's,Mukilteo,18005,18005 #18005,11815 Mukilteo Speedway,WA,98275
Jersey Mike's,Covington,18006,18006 #18006,17309 SE 270th PI,WA,98042
Jersey Mike's,Bonney Lake,18007,18007 #18007,21180 SR 410 East,WA,98391
Jersey Mike's,Arlington,18008,18008 #18008,3704 172nd Street NE,WA,98223
Jersey Mike's,Auburn,18009,18009 #18009,920 15th Street SW,WA,98001
Jersey Mike's,Gig Harbor,18010,18010 #18010,4819 Pt. Fosdick Dr. N.W.,WA,98335
Jersey Mike's,Redmond,18011,18011 #18011,17181 Redmond Way,WA,98052
Jersey Mike's,Puyallup,18012,18012 #18012,4009 S Meridian,WA,98373
Jersey Mike's,University Place,18013,18013 #18013,3555 Market Place,WA,98466
Jersey Mike's,Branford,19001,19001 #19001,845 West Main Street,CT,6405
Jersey Mike's,Camarillo,20001,20001 #20001,370 N. Lantana,CA,93010
Jersey Mike's,Ventura,20003,20003 #20003,1145 S. Victoria Avenue,CA,93003
Jersey Mike's,Oxnard,20004,20004 #20004,2041 North Oxnard Blvd.,CA,93036
Jersey Mike's,Valencia,20005,20005 #20005,23872 Copper Hill Dr.,CA,91354
Jersey Mike's,Ojai,20006,20006 #20006,423 E. Ojai Ave.,CA,93023
Jersey Mike's,Simi Valley,20007,20007 #20007,2790 Cochran Street,CA,93065
Jersey Mike's,Oxnard,20009,20009 #20009,2721 South Rose Avenue,CA,93033
Jersey Mike's,Camarillo,20010,20010 #20010,5800 Santa Rosa Road,CA,93012
Jersey Mike's,Westlake Village,20011,20011 #20011,3825 E. Thousand Oaks Blvd.,CA,91362
Jersey Mike's,Oxnard,20012,20012 #20012,1231 South Victoria Ave.,CA,93035
Jersey Mike's,Newbury Park,20013,20013 #20013,1610-2 Newbury Rd,CA,91320
Jersey Mike's,Huntington Beach,20014,20014 #20014,10035 Adams Avenue,CA,92646
Jersey Mike's,Castaic,20015,20015 #20015,31765 Castaic Road,CA,91384
Jersey Mike's,Canyon Country,20016,20016 #20016,18635 Soledad Canyon Road,CA,91351
Jersey Mike's,Lake Forest,20017,20017 #20017,45 Auto Center Drive,CA,92630
Jersey Mike's,Saugus,20018,20018 #20018,26510 Bouquet Canyon Road,CA,91350
Jersey Mike's,Tarzana,20019,20019 #20019,19458 Ventura Boulevard,CA,91356
Jersey Mike's,Burbank,20020,20020 #20020,875 North San Fernando Boulevard,CA,91502
Jersey Mike's,Laguna Woods,20022,20022 #20022,24365-A El Toro Road,CA,92637
Jersey Mike's,Santa Maria,20023,20023 #20023,2358 South Bradley Road,CA,93455
Jersey Mike's,Los Angeles,20024,20024 #20024,1020 Glendon Ave,CA,90024
Jersey Mike's,Long Beach,20025,20025 #20025,One World Trade Center,CA,90831
Jersey Mike's,Northridge,20026,20026 #20026,19350 C Nordhoff Street,CA,91324
Jersey Mike's,Moorpark,20027,20027 #20027,144 West Los Angeles Avenue,CA,93021
Jersey Mike's,Palmdale,20028,20028 #20028,39604 10th Street West,CA,93551
Jersey Mike's,Arroyo Grande,20029,20029 #20029,1540 East Grand Avenue,CA,93420
Jersey Mike's,Lake Forest,20030,20030 #20030,23572 El Toro Road,CA,92630
Jersey Mike's,Brea,20031,20031 #20031,955 East Birch Street,CA,92821
Jersey Mike's,Bakersfield,20032,20032 #20032,4715 Coffee Road,CA,93308
Jersey Mike's,Hawthorne,20033,20033 #20033,5342 Rosecrans Avenue,CA,90250
Jersey Mike's,Beverly Hills,20034,20034 #20034,279 South Beverly Drive,CA,90212
Jersey Mike's,San Diego,20035,20035 #20035,8590 Rio San Diego Drive,CA,92108
Jersey Mike's,Mission Viejo,20037,20037 #20037,25280-C Marguerite Parkway,CA,92692
Jersey Mike's,Granada Hills,20038,20038 #20038,18131 Chatsworth Street,CA,91344
Jersey Mike's,Chatsworth,20039,20039 #20039,9840E Topanga Canyon Boulevard.,CA,91311
Jersey Mike's,San Diego,20040,20040 #20040,10764 Westview Parkway,CA,92126
Jersey Mike's,West Hollywood,20041,20041 #20041,7100 Santa Monica Boulevard.,CA,90046
Jersey Mike's,Calabasas,20042,20042 #20042,26799 Agoura Rd.,CA,91302
Jersey Mike's,San Diego,20043,20043 #20043,3670 Rosecrans Street,CA,92110
Jersey Mike's,La Canada,20044,20044 #20044,711 Foothill Boulevard,CA,91011
Jersey Mike's,Stevenson Ranch,20045,20045 #20045,25660 The Old Road,CA,91381
Jersey Mike's,Monrovia,20046,20046 #20046,444 West Huntington Drive,CA,91016
Jersey Mike's,Irvine,20047,20047 #20047,16525-G Von Karman Avenue,CA,92606
Jersey Mike's,Thousand Oaks,20048,20048 #20048,605 East Janss Road,CA,91360
Jersey Mike's,Solana Beach,20050,20050 #20050,915 Lomas Santa Fe Drive,CA,92075
Jersey Mike's,Woodland Hills,20051,20051 #20051,22649 Ventura Boulevard,CA,91364
Jersey Mike's,Pasadena,20052,20052 #20052,122 South Lake Avenue,CA,91101
Jersey Mike's,San Marcos,20053,20053 #20053,595 Grand Avenue,CA,92078
Jersey Mike's,Orange,20054,20054 #20054,1545 East Katella Avenue,CA,92867
Jersey Mike's,Torrance,20055,20055 #20055,24631 Crenshaw Boulevard,CA,90505
Jersey Mike's,San Diego,20056,20056 #20056,7420 Clairemont Mesa Boulevard,CA,92111
Jersey Mike's,Norco,20057,20057 #20057,1411 Hamner Ave.,CA,92860
Jersey Mike's,Hollywood,20058,20058 #20058,1517 Vine Street,CA,90028
Jersey Mike's,Bakersfield,20059,20059 #20059,5120 Stockdale Highway,CA,93309
Jersey Mike's,Rancho Cucamonga,20060,20060 #20060,8880 Foothill Blvd.,CA,91730
Jersey Mike's,San Diego,20061,20061 #20061,15805 Bernardo Center Drive,CA,92127
Jersey Mike's,San Diego,20062,20062 #20062,6083 El Cajon Blvd.,CA,92115
Jersey Mike's,West Covina,20063,20063 #20063,2536 E Workman Ave,CA,91791
Jersey Mike's,Fountain Valley,20064,20064 #20064,18120 Brookhurst Street,CA,92708
Jersey Mike's,Encinitas,20065,20065 #20065,1070 N El Camino Real,CA,92024
Jersey Mike's,La Jolla,20066,20066 #20066,7836 Herschel Avenue,CA,92037
Jersey Mike's,Murrieta,20067,20067 #20067,25359 Madison Avenue,CA,92562
Jersey Mike's,Costa Mesa,20068,20068 #20068,2300 Harbor Boulevard,CA,92626
Jersey Mike's,Los Angeles,20069,20069 #20069,12003 Wilshire Boulevard,CA,90049
Jersey Mike's,Glendora,20070,20070 #20070,865 West Route 66,CA,91740
Jersey Mike's,Escondido,20071,20071 #20071,1829 South Centre City Parkway,CA,92025
Jersey Mike's,Glendale,20072,20072 #20072,813 Americana Way,CA,91210
Jersey Mike's,Upland,20073,20073 #20073,1945 North Campus Ave,CA,91784
Jersey Mike's,Pacific Beach,20074,20074 #20074,1975 Garnet Ave,CA,92109
Jersey Mike's,Goleta,20075,20075 #20075,7034 Marketplace Drive,CA,93117
Jersey Mike's,Arcadia,20076,20076 #20076,400 South Baldwin Ave.,CA,91007
Jersey Mike's,La Verne,20077,20077 #20077,2212 Foothill Blvd.,CA,91750
Jersey Mike's,Tustin,20078,20078 #20078,13681 Newport Ave.,CA,92780
Jersey Mike's,Orange,20080,20080 #20080,763 S. Main Street,CA,92868
Jersey Mike's,Marina del Rey,20081,20081 #20081,4020 Lincoln Blvd,CA,90292
Jersey Mike's,Orange,20082,20082 #20082,3428 E. Chapman Avenue,CA,92869
Jersey Mike's,South Pasadena,20083,20083 #20083,462 Fair Oaks Avenue,CA,91030
Jersey Mike's,Eastvale,20084,20084 #20084,12569 Limonite Ave,CA,91752
Jersey Mike's,Van Nuys,20085,20085 #20085,14441 Burbank Blvd,CA,91401
Jersey Mike's,San Diego,20086,20086 #20086,13173-6 Black Mountain Rd.,CA,92129
Jersey Mike's,Huntington Beach,20087,20087 #20087,6041 Bolsa Ave.,CA,92647
Jersey Mike's,Buena Park,20088,20088 #20088,5974 Orangethorpe Ave.,CA,90620
Jersey Mike's,Long Beach,20089,20089 #20089,1831 Ximeno Avenue,CA,90815
Jersey Mike's,Huntington Beach,20090,20090 #20090,16470 Beach Blvd.,CA,92685
Jersey Mike's,Temecula,20091,20091 #20091,32068 Temecula Parkway,CA,92592
Jersey Mike's,Vista,20092,20092 #20092,620 Hacienda Drive,CA,92081
Jersey Mike's,Murrieta,20093,20093 #20093,27614 Clinton Keith Road,CA,92562
Jersey Mike's,Huntington Beach,20094,20094 #20094,21004 Beach Blvd,CA,92648
Jersey Mike's,Redlands,20095,20095 #20095,10040 Alabama Street,CA,92374
Jersey Mike's,Santa Monica,20096,20096 #20096,1447 Lincoln Blvd.,CA,90401
Jersey Mike's,San Diego,20097,20097 #20097,4353 La Jolla Village Drive,CA,92122
Jersey Mike's,Culver City,20098,20098 #20098,4114 Sepulveda Blvd.,CA,90230
Jersey Mike's,Poway,20099,20099 #20099,12285 Scripps Poway Parkway,CA,92064
Jersey Mike's,Ventura,20100,20100 #20100,3301 East Main St,CA,93003
Jersey Mike's,Carlsbad,20101,20101 #20101,2521 Palomar Airport Rd,CA,92011
Jersey Mike's,Irvine,20102,20102 #20102,17917 MacArthur Boulevard,CA,92614
Jersey Mike's,Santa Clarita,20103,20103 #20103,19159 Golden Valley Road,CA,91387
Jersey Mike's,San Dimas,20104,20104 #20104,466 N. Lone Hill Avenue,CA,91773
Jersey Mike's,El Segundo,20105,20105 #20105,530A N Sepulveda Blvd.,CA,90245
Jersey Mike's,Lake Elsinore,20106,20106 #20106,31800 Grape Street,CA,92532
Jersey Mike's,Los Angeles,20107,20107 #20107,6361 Wilshire Blvd,CA,90048
Jersey Mike's,Chula Vista,20108,20108 #20108,2015 Birch Road,CA,91915
Jersey Mike's,Santa Clara,20109,20109 #20109,3937 Rivermark Plaza,CA,95054
Jersey Mike's,Bakersfield,20110,20110 #20110,11350 Ming Avenue,CA,93311
Jersey Mike's,Redding,20111,20111 #20111,835 Browning St.,CA,96003
Jersey Mike's,Carlsbad,20112,20112 #20112,2604 El Camino Real,CA,92008
Jersey Mike's,Santa Ana,20113,20113 #20113,3941 S. Bristol Street,CA,92704
Jersey Mike's,Upland,20114,20114 #20114,367 S. Mountain Ave.,CA,91780
Jersey Mike's,Mountain View,20115,20115 #20115,634 San Antonio Road,CA,95050
Jersey Mike's,Encino,20116,20116 #20116,16350 Ventura Blvd.,CA,91436
Jersey Mike's,Oceanside,20117,20117 #20117,4111 Oceanside Blvd,CA,92056
Jersey Mike's,El Cajon,20118,20118 #20118,141 Broadway,CA,92021
Jersey Mike's,Danville,20119,20119 #20119,301 Hartz Avenue,CA,94526
Jersey Mike's,Ontario,20120,20120 #20120,1150 East Philadelphia Street,CA,91761
Jersey Mike's,Riverside,20121,20121 #20121,497 E. Alessandro Boulevard,CA,92508
Jersey Mike's,San Diego,20122,20122 #20122,6545 Mission Gorge Road,CA,92120
Jersey Mike's,Corona,20123,20123 #20123,2150 California Ave,CA,92881
Jersey Mike's,Newport Beach,20124,20124 #20124,1318 Bison Avenue,CA,92660
Jersey Mike's,Fullerton,20126,20126 #20126,2561 E. Chapman Avenue,CA,92831
Jersey Mike's,Pleasanton,20127,20127 #20127,6654 Koll Center Parkway,CA,94588
Jersey Mike's,Long Beach,20128,20128 #20128,3821 Lakewood Boulevard,CA,90808
Jersey Mike's,Santee,20129,20129 #20129,9331 Mission Gorge Road,CA,92071
Jersey Mike's,La Habra,20130,20130 #20130,1370 South Beach Boulevard,CA,90631
Jersey Mike's,City of Industry,20131,20131 #20131,18200 Gale Avenue,CA,91748
Jersey Mike's,Corona,20132,20132 #20132,350 N. McKinley Street,CA,92878
Jersey Mike's,San Marcos,20133,20133 #20133,730 Nordahl Road,CA,92069
Jersey Mike's,Yucaipa,20135,20135 #20135,33423 Yucaipa Boulevard,CA,92399
Jersey Mike's,Apple Valley,20136,20136 #20136,19179 Bear Valley Road,CA,92308
Jersey Mike's,Moreno Valley,20137,20137 #20137,12625 Frederick Street,CA,92553
Jersey Mike's,Chino,20140,20140 #20140,12152 Central Avenue,CA,91710
Jersey Mike's,Rosemead,20144,20144 #20144,3614 Rosemead Blvd.,CA,91770
Jersey Mike's,Topeka,21001,21001 #21001,2121 SW Wanamaker Rd,KS,66614
Jersey Mike's,Topeka,21002,21002 #21002,718 South Kansas Avenue,KS,66603
Jersey Mike's,Olathe,21004,21004 #21004,15018 South Black Bob Road,KS,66062
Jersey Mike's,Denver,22001,22001 #22001,555 Broadway,CO,80203
Jersey Mike's,Edgewater,22002,22002 #22002,2255 Sheridan Blvd.,CO,80214
Jersey Mike's,Westminster,22003,22003 #22003,12003 N. Pecos Street,CO,80234
Jersey Mike's,Lakewood,22004,22004 #22004,105 Wadsworth Blvd.,CO,80226
Jersey Mike's,Greenwood Village,22005,22005 #22005,5137 South Yosemite Street,CO,80111
Jersey Mike's,Parker,22006,22006 #22006,18366 East Lincoln Avenue,CO,80134
Jersey Mike's,Fort Collins,22007,22007 #22007,4709 S Timberline Road,CO,80528
Jersey Mike's,Aurora,22008,22008 #22008,3571 S Tower Rd,CO,80013
Jersey Mike's,Highlands Ranch,22009,22009 #22009,9362 S. Colorado Blvd.,CO,80126
Jersey Mike's,Colorado Springs,22010,22010 #22010,737 N. Academy Blvd.,CO,80909
Jersey Mike's,Fountain,22011,22011 #22011,6825 Mesa Ridge Parkway,CO,80817
Jersey Mike's,Oklahoma City,23001,23001 #23001,7500 South Santa Fe,OK,73139
Jersey Mike's,Oklahoma City,23002,23002 #23002,2522 W. Memorial Rd.,OK,73120
Jersey Mike's,Midwest City,23003,23003 #23003,1940 S. Air Depot Blvd.,OK,73110
Jersey Mike's,Oklahoma City,23004,23004 #23004,1630 NW 23rd Street,OK,73106
Jersey Mike's,Edmond,23005,23005 #23005,1724 South Broadway Extension,OK,73013
Jersey Mike's,Norman,23006,23006 #23006,1204 N. Interstate Dr.,OK,73072
Jersey Mike's,Yukon,23007,23007 #23007,1600 Garth Brooks Boulevard,OK,73099
Jersey Mike's,Oklahoma City,23008,23008 #23008,6815 SW 3rd Street,OK,73128
Jersey Mike's,Oklahoma City,23009,23009 #23009,6719 North May Avenue,OK,73116
Jersey Mike's,Warr Acres,23010,23010 #23010,3800 North MacArthur Boulevard,OK,73122
Jersey Mike's,Edmond,23011,23011 #23011,1149 East 2nd Street,OK,73034
Jersey Mike's,Oklahoma City,23012,23012 #23012,6401 Northwest Expressway 126B,OK,73132
Jersey Mike's,Lawton,23013,23013 #23013,2504-A NW Cache Road,OK,73505
Jersey Mike's,Oklahoma City,23014,23014 #23014,3604 North May Avenue,OK,73112
Jersey Mike's,Moore,23015,23015 #23015,660 SW 19th Street,OK,73160
Jersey Mike's,Tulsa,23016,23016 #23016,8216 E. 71st ST,OK,74153
Jersey Mike's,Tulsa,23017,23017 #23017,10912 S. Memorial,OK,74133
Jersey Mike's,Altus,23018,23018 #23018,2221 N. Main Street,OK,73521
Jersey Mike's,St. Anthony Village,24001,24001 #24001,2704 Highway 88,MN,55418
Jersey Mike's,Mankato,24002,24002 #24002,1924 Adams Street,MN,56001
Jersey Mike's,Coon Rapids,24003,24003 #24003,3473 River Rapids Drive NW,MN,55448
Jersey Mike's,Woodbury,24004,24004 #24004,7455 Currell Boulevard,MN,55125
Jersey Mike's,Mankato,24005,24005 #24005,500 S. Riverfront Drive,MN,56001
Jersey Mike's,Blaine,24006,24006 #24006,10340 Baltimore Street NE,MN,55449
Jersey Mike's,St. Louis Park,24007,24007 #24007,1650 Park Place Boulevard,MN,55416
Jersey Mike's,Hopkins,24008,24008 #24008,525 Blake Road North,MN,55343
Jersey Mike's,Webster Groves,25001,25001 #25001,8567 Watson Rd.,MO,63119
Jersey Mike's,Chesterfield,25003,25003 #25003,17273 Chesterfield Airport Road,MO,63005
Jersey Mike's,Charles Town,26001,26001 #26001,71-C Jefferson Crossing Way,WV,25414
Jersey Mike's,Naperville,27001,27001 #27001,2555 West 75th Street,IL,60540
Jersey Mike's,Vernon Hills,27002,27002 #27002,1640 North Milwaukee Avenue,IL,60061
Jersey Mike's,Gurnee,27003,27003 #27003,7105 Grand Ave. #2D,IL,60031
Jersey Mike's,Aurora,27005,27005 #27005,1147 North Eola Road,IL,60504
Jersey Mike's,Schaumburg,27006,27006 #27006,601 Martingale Road,IL,60173
Jersey Mike's,Mount Prospect,27007,27007 #27007,106 East Kensington Road,IL,60056
Jersey Mike's,Geneva,27008,27008 #27008,1770 South Randall Road,IL,60134
Jersey Mike's,Lake in the Hills,27009,27009 #27009,"285 North Randall Road, A-2",IL,60156
Jersey Mike's,Elmhurst,27010,27010 #27010,297 North York Road,IL,60126
Jersey Mike's,Niles,27011,27011 #27011,8484 W. Golf Rd.,IL,60714
Jersey Mike's,Wheaton,27013,27013 #27013,3 Danada Square East,IL,60187
Jersey Mike's,Chicago,27014,27014 #27014,200 West Monroe Street,IL,60606
Jersey Mike's,Glenview,27015,27015 #27015,2149 Willow Road,IL,60025
Jersey Mike's,Lisle,27016,27016 #27016,1032 Maple Avenue,IL,60532
Jersey Mike's,Arlington Heights,27017,27017 #27017,115 West Rand Road,IL,60004
Jersey Mike's,Plainfield,27018,27018 #27018,13400 South Route 59,IL,60585
Jersey Mike's,Schaumburg,27019,27019 #27019,2568 West Schaumburg Road,IL,60194
Jersey Mike's,St. Charles,27020,27020 #27020,2540 East Main Street,IL,60174
Jersey Mike's,Orland Park,27021,27021 #27021,15625 South La Grange Road,IL,60462
Jersey Mike's,Crystal Lake,27022,27022 #27022,5006 Northwest Highway,IL,60014
Jersey Mike's,Bolingbrook,27023,27023 #27023,214 North Weber Road,IL,60440
Jersey Mike's,Shiloh,27024,27024 #27024,3284 Green Mount Crossing Drive,IL,62269
Jersey Mike's,Chicago,27025,27025 #27025,120 North Wells Street,IL,60606
Jersey Mike's,Rockford,27026,27026 #27026,6284 East State Street,IL,61114
Jersey Mike's,Oswego,27027,27027 #27027,2428 Route 34,IL,60543
Jersey Mike's,Chicago,27028,27028 #27028,203 E. Ohio Street,IL,60611
Jersey Mike's,Niles,27029,27029 #27029,5691 W. Touhy Ave.,IL,60714
Jersey Mike's,Elk Grove Village,27030,27030 #27030,178 Biesterfield Road,IL,60007
Jersey Mike's,Machesney Park,27032,27032 #27032,1513 West Lane Road,IL,61115
Jersey Mike's,Glen Ellyn,27033,27033 #27033,711 E. Roosevelt Road,IL,60137
Jersey Mike's,Romeoville,27034,27034 #27034,412 S. Weber Road,IL,60446
Jersey Mike's,Chicago,27035,27035 #27035,3152 N. Broadway,IL,60657
Jersey Mike's,Springfield,27036,27036 #27036,2318 W. Wabash Ave.,IL,62704
Jersey Mike's,Chicago,27037,27037 #27037,26 E. Roosevelt Road,IL,60605
Jersey Mike's,Champaign,27038,27038 #27038,505 E. Green Street,IL,61820
Jersey Mike's,South Elgin,27039,27039 #27039,469 Redington Drive,IL,60177
Jersey Mike's,Naperville,27040,27040 #27040,111 E. Ogden Avenue,IL,60563
Jersey Mike's,Park Ridge,27041,27041 #27041,147 S Northwest Hwy,IL,60068
Jersey Mike's,DeKalb,27042,27042 #27042,103 N. Annie Glidden Road,IL,60115
Jersey Mike's,New Lenox,27043,27043 #27043,527 East Lincoln Highway,IL,60541
Jersey Mike's,East Peoria,27044,27044 #27044,404 W. Washington St.,IL,61611
Jersey Mike's,Joliet,27045,27045 #27045,4706 Caton Farm Road,IL,60544
Jersey Mike's,Bloomingdale,27046,27046 #27046,383 West Army Trail Road,IL,60108
Jersey Mike's,Germantown,28001,28001 #28001,21040-F Frederick Road,MD,20876
Jersey Mike's,Laurel,28002,28002 #28002,13600 Baltimore Avenue,MD,20707
Jersey Mike's,Frederick,28003,28003 #28003,5599 Spectrum Drive,MD,21703
Jersey Mike's,Hagerstown,28004,28004 #28004,18015 Garland Groh Blvd.,MD,21740
Jersey Mike's,Gaithersburg,28005,28005 #28005,249 Kentlands Boulevard,MD,20878
Jersey Mike's,Bowie,28006,28006 #28006,6844 Race Track Road,MD,20715
Jersey Mike's,Greenbelt,28007,28007 #28007,6000 Greenbelt Road,MD,20770
Jersey Mike's,Salisbury,28008,28008 #28008,1405 S. Salisbury Blvd,MD,21801
Jersey Mike's,Owings Mills,28009,28009 #28009,9404 Reisterstown Road,MD,21117
Jersey Mike's,Mount Airy,28010,28010 #28010,413 E. Ridgeville Boulevard,MD,21771
Jersey Mike's,Columbia,28011,28011 #28011,6630 Marie Curie Drive,MD,21075
Jersey Mike's,Brookfield,29001,29001 #29001,17550-C West Bluemound Road,WI,53045
Jersey Mike's,Waukesha,29002,29002 #29002,1190 West Sunset Drive,WI,53189
Jersey Mike's,West Milwaukee,29003,29003 #29003,1232 South Miller Park Way,WI,53214
Jersey Mike's,Whitewater,29004,29004 #29004,1116 West Main Street,WI,53190
Jersey Mike's,Shreveport,30001,30001 #30001,7435 Youree Drive,LA,71105
Jersey Mike's,Pittsfield,31001,31001 #31001,3650 Carpenter Road,MI,48197
Jersey Mike's,Rochester Hills,31002,31002 #31002,2670 S. Rochester Road,MI,48307
Jersey Mike's,Shelby Township,31003,31003 #31003,12161 23 Mile Road,MI,48315
Jersey Mike's,Birmingham,31004,31004 #31004,33745 Woodward Avenue,MI,48009
Jersey Mike's,Madison Heights,31005,31005 #31005,40 East 14 Mile Road,MI,48071
Jersey Mike's,Farmington Hills,31007,31007 #31007,33220 West 12 Mile Road,MI,48334
Jersey Mike's,Waterford,31008,31008 #31008,4403 Highland Road,MI,48328
Jersey Mike's,Lake Orion,31009,31009 #31009,606 North Lapeer Road,MI,48362
Jersey Mike's,Canton,31010,31010 #31010,42448 Ford Road,MI,48187
Jersey Mike's,West Bloomfield,31011,31011 #31011,6480 Orchard Lake Road,MI,48322
Jersey Mike's,Beaverton,32001,32001 #32001,4105 SW 117th Ave,OR,97005
Jersey Mike's,Beaverton,32002,32002 #32002,10035 SW Nimbus Avenue,OR,97008
Jersey Mike's,Portland,32003,32003 #32003,10123 NE Cascades Parkway,OR,97220
Jersey Mike's,Lake Oswego,32004,32004 #32004,3 Monroe Parkway,OR,97035
Jersey Mike's,Portland,32005,32005 #32005,628 NE Broadway,OR,97232
Jersey Mike's,Tualatin,32006,32006 #32006,7698 SW Nyberg St.,OR,97062
Jersey Mike's,Lincoln,33001,33001 #33001,210 North 14th Street,NE,68508
Jersey Mike's,Lincoln,33002,33002 #33002,5001 O Street,NE,68510
Jersey Mike's,New York,34001,34001 #34001,80 Maiden Lane,NY,10038
Jersey Mike's,Rehoboth Beach,35001,35001 #35001,18598 Coastal Highway,DE,19971
Jersey Mike's,Washington,36001,36001 #36001,2300 Washington Place #102s NE,DC,20018
