keywords,city,Aggdata Store Number,store_number,address,state,zip_code
Jiffy Lube,OGDEN,1,#1,192 36TH ST ,UT,84405-7121
Jiffy Lube,SALT LAKE CITY,3,#3,9 W 3300 S  ,UT,84115-3711
Jiffy Lube,OMAHA,6,#6,8008 W DODGE RD,NE,68114-3414
Jiffy Lube,POCATELLO  ,11,#11,588 YELLOWSTONE AVE ,ID,83201-4534
Jiffy Lube,SALT LAKE CITY,14,#14,1850 W 4100 S  ,UT,84119-4752
Jiffy Lube,FORT COLLINS  ,17,#17,2549 S COLLEGE AVE  ,CO,80525-1725
Jiffy Lube,EAST LONGMEADOW    ,18,#18,475 N MAIN ST  ,MA,01028-1806
Jiffy Lube,COUNCIL BLUFFS,19,#19,2312 W BROADWAY,IA,51501-3614
Jiffy Lube,LINCOLN    ,20,#20,880 N 27TH ST  ,NE,68503-2522
Jiffy Lube,BALTIMORE  ,23,#23,1704 WOODLAWN DR    ,MD,21207-4005
Jiffy Lube,SIOUX CITY ,24,#24,1219 TRI VIEW AVE   ,IA,51103-4911
Jiffy Lube,FARGO,25,#25,11 10TH ST N,ND,58102-4611
Jiffy Lube,BALTIMORE  ,27,#27,4112 W NORTHERN PKWY,MD,21215-4325
Jiffy Lube,FAYETTEVILLE  ,28,#28,3816 RAEFORD RD,NC,28304-3354
Jiffy Lube,GRAND ISLAND  ,29,#29,3423 W STATE ST,NE,68803-2304
Jiffy Lube,KEARNEY    ,30,#30,1204 2ND AVE,NE,68847-6704
Jiffy Lube,OKLAHOMA CITY ,32,#32,2400 N MERIDIAN AVE ,OK,73107-1033
Jiffy Lube,FREDERICK  ,33,#33,1210 W PATRICK ST   ,MD,21703-3961
Jiffy Lube,BALTIMORE  ,35,#35,8114 LIBERTY RD,MD,21244-3040
Jiffy Lube,ANNANDALE  ,36,#36,4301 BACKLICK RD    ,VA,22003-3141
Jiffy Lube,PHILADELPHIA  ,37,#37,3658 ARAMINGO AVE   ,PA,19134-4608
Jiffy Lube,CHARLOTTE  ,40,#40,6324 SOUTH BLVD,NC,28217-4443
Jiffy Lube,CHARLOTTE  ,41,#41,216 EASTWAY DR ,NC,28213-7104
Jiffy Lube,OMAHA,42,#42,4740 LEAVENWORTH ST ,NE,68106-1422
Jiffy Lube,BENSALEM   ,43,#43,2266 STREET RD ,PA,19020-3568
Jiffy Lube,RICHMOND   ,45,#45,11135 MIDLOTHIAN TPKE     ,VA,23235-4711
Jiffy Lube,SAINT PAUL ,47,#47,650 SNELLING AVE N  ,MN,55104-1834
Jiffy Lube,LAUREL     ,49,#49,301 2ND ST  ,MD,20707-4603
Jiffy Lube,WICHITA    ,52,#52,1624 E PAWNEE ST    ,KS,67211-5243
Jiffy Lube,WICHITA    ,53,#53,2902 W 13TH ST N    ,KS,67203-6617
Jiffy Lube,WICHITA    ,54,#54,6025 E 21ST ST N    ,KS,67208-1806
Jiffy Lube,WICHITA    ,55,#55,7406 W CENTRAL AVE  ,KS,67212-3515
Jiffy Lube,WICHITA    ,56,#56,7718 E HARRY ST,KS,67207-3130
Jiffy Lube,WICHITA    ,57,#57,3066 S SENECA ST    ,KS,67217-3210
Jiffy Lube,NEWPORT NEWS  ,59,#59,14626 WARWICK BLVD  ,VA,23608-3734
Jiffy Lube,VIRGINIA BEACH,60,#60,348 NEWTOWN RD ,VA,23462-1718
Jiffy Lube,MARIETTA   ,61,#61,1755 COBB PKWY S    ,GA,30060-9288
Jiffy Lube,ATLANTA    ,62,#62,1343 DUNWOODY VILLAGE PKWY,GA,30338-4124
Jiffy Lube,TAMPA,63,#63,8303 N DALE MABRY HWY     ,FL,33614-2603
Jiffy Lube,VIRGINIA BEACH,65,#65,1353 N GREAT NECK RD,VA,23454-2201
Jiffy Lube,VIRGINIA BEACH,66,#66,473 S INDEPENDENCE BLVD   ,VA,23452-1105
Jiffy Lube,MEMPHIS    ,73,#73,2911 POPLAR AVE,TN,38111-2703
Jiffy Lube,SEMINOLE   ,74,#74,7025 SEMINOLE BLVD  ,FL,33772-5932
Jiffy Lube,LAKELAND   ,75,#75,3365 S FLORIDA AVE  ,FL,33803-4764
Jiffy Lube,ALTAMONTE SPRINGS  ,76,#76,420 N STATE ROAD 434,FL,32714-2130
Jiffy Lube,ORLANDO    ,77,#77,1355 S SEMORAN BLVD ,FL,32807-2915
Jiffy Lube,BURLINGTON ,80,#80,2205 MOUNT HOLLY RD ,NJ,08016-4135
Jiffy Lube,EDINA,81,#81,5000 VERNON AVE S   ,MN,55436-2103
Jiffy Lube,FAIRFAX    ,83,#83,10535 FAIRFAX BOULEVARD   ,VA,22030-3103
Jiffy Lube,BALTIMORE  ,84,#84,1316 MERRITT BLVD   ,MD,21222-2108
Jiffy Lube,MANASSAS   ,85,#85,8786 CENTREVILLE RD ,VA,20110-5267
Jiffy Lube,LOVELAND   ,86,#86,1644 W EISENHOWER BLVD    ,CO,80537-3120
Jiffy Lube,LANDOVER HILLS,87,#87,7571 ANNAPOLIS RD   ,MD,20784-1701
Jiffy Lube,ANNAPOLIS  ,88,#88,1980 WEST ST,MD,21401-3931
Jiffy Lube,CHERRY HILL,89,#89,2023 MARLTON PIKE W ,NJ,08002-2728
Jiffy Lube,HERNDON    ,92,#92,604 ELDEN ST,VA,20170-4721
Jiffy Lube,WOODBURY   ,93,#93,342 S BROAD ST ,NJ,08096-2432
Jiffy Lube,FORESTVILLE,94,#94,5917 SILVER HILL RD ,MD,20747-1106
Jiffy Lube,BALTIMORE  ,98,#98,608 FREDERICK RD    ,MD,21228-4625
Jiffy Lube,FEASTERVILLE TREVOSE     ,99,#99,2 W STREET RD  ,PA,19053-6003
Jiffy Lube,BALTIMORE  ,100,#100,213 EASTERN BLVD    ,MD,21221-6906
Jiffy Lube,BALTIMORE  ,101,#101,8626 BELAIR RD ,MD,21236-2704
Jiffy Lube,COLUMBIA   ,103,#103,4414 DEVINE ST ,SC,29205-3612
Jiffy Lube,CAYCE,104,#104,1139 KNOX ABBOTT DR ,SC,29033-3323
Jiffy Lube,FREDERICKSBURG,107,#107,3300 PLANK RD  ,VA,22407-4958
Jiffy Lube,ALEXANDRIA ,110,#110,511 S VAN DORN ST   ,VA,22304-4611
Jiffy Lube,ALEXANDRIA ,111,#111,2950 SOUTHGATE DR   ,VA,22306-6609
Jiffy Lube,BALTIMORE  ,112,#112,5701 HARFORD RD,MD,21214-2234
Jiffy Lube,SPRINGFIELD,113,#113,225 BALTIMORE PIKE  ,PA,19064-3745
Jiffy Lube,AUDUBON    ,114,#114,55 N WHITE HORSE PIKE     ,NJ,08106-1302
Jiffy Lube,BALTIMORE  ,115,#115,2105 E JOPPA RD,MD,21234-2839
Jiffy Lube,BEL AIR    ,116,#116,106 N TOLLGATE RD   ,MD,21014-4204
Jiffy Lube,RIVERHEAD  ,118,#118,995 OLD COUNTRY RD  ,NY,11901-2106
Jiffy Lube,CHICOPEE   ,119,#119,2017 MEMORIAL DR    ,MA,01020-4322
Jiffy Lube,VINELAND   ,120,#120,400 N DELSEA DR,NJ,08360-3500
Jiffy Lube,MAULDIN    ,123,#123,109 N MAIN ST  ,SC,29662-2509
Jiffy Lube,RICHMOND   ,126,#126,8025 W BROAD ST,VA,23294-4219
Jiffy Lube,CHARLESTON ,128,#128,7601 RIVERS AVE,SC,29406-4011
Jiffy Lube,OXON HILL  ,129,#129,5518 SAINT BARNABAS RD    ,MD,20745-3624
Jiffy Lube,NORFOLK    ,131,#131,2463 E LITTLE CREEK RD    ,VA,23518-3207
Jiffy Lube,HAMPTON    ,132,#132,3404 W MERCURY BLVD ,VA,23666-3705
Jiffy Lube,BRAINTREE  ,133,#133,504 QUINCY AVE ,MA,02184-1346
Jiffy Lube,LINCOLN    ,134,#134,6940 L ST   ,NE,68510-2411
Jiffy Lube,DES MOINES ,138,#138,3609 MERLE HAY RD   ,IA,50310-1246
Jiffy Lube,CLINTON    ,139,#139,6415 COVENTRY WAY   ,MD,20735-2251
Jiffy Lube,ORLANDO    ,141,#141,6034 S ORANGE BLOSSOM TRL ,FL,32809-4608
Jiffy Lube,BALDWIN    ,142,#142,598 MERRICK RD ,NY,11510-3501
Jiffy Lube,YORK ,143,#143,705 LOUCKS RD  ,PA,17404-1730
Jiffy Lube,YORK ,144,#144,3308 E MARKET ST    ,PA,17402-2619
Jiffy Lube,CEDAR RAPIDS  ,145,#145,1888 BLAIRS FERRY RD NE   ,IA,52402-5873
Jiffy Lube,GREENVILLE ,147,#147,416 PELHAM RD  ,SC,29615-3502
Jiffy Lube,EDINA,148,#148,6701 YORK AVE S,MN,55435-2514
Jiffy Lube,TAMPA,149,#149,130 S DALE MABRY HWY,FL,33609-2837
Jiffy Lube,SALISBURY  ,150,#150,900 S SALISBURY BLVD,MD,21801-6220
Jiffy Lube,SAINT JAMES,151,#151,927 MIDDLE COUNTRY RD     ,NY,11780-3214
Jiffy Lube,COLUMBIA   ,152,#152,6405 DOBBIN CENTER WAY    ,MD,21045-4717
Jiffy Lube,WALDORF    ,153,#153,3160 CRAIN HWY ,MD,20603-4846
Jiffy Lube,HARRISBURG ,154,#154,4007 JONESTOWN RD   ,PA,17109-2212
Jiffy Lube,FAIRLESS HILLS,155,#155,149 LINCOLN HWY,PA,19030-1012
Jiffy Lube,LONGMONT   ,158,#158,1901 NORTH MAIN ST  ,CO,80501-1913
Jiffy Lube,GAITHERSBURG  ,159,#159,116 N FREDERICK AVE ,MD,20877-2411
Jiffy Lube,MAPLE SHADE,160,#160,508 S LENOLA RD,NJ,08052-1602
Jiffy Lube,DENVER     ,164,#164,5869 LEETSDALE DR   ,CO,80224-1222
Jiffy Lube,CORALVILLE ,165,#165,71 2ND ST   ,IA,52241-2603
Jiffy Lube,CHARLOTTESVILLE    ,166,#166,2088 BERKMAR DR,VA,22901-1458
Jiffy Lube,FLORAL PARK,167,#167,50 JERICHO TPKE,NY,11001-1702
Jiffy Lube,MT PLEASANT,169,#169,1074 JOHNNIE DODDS BLVD   ,SC,29464-3142
Jiffy Lube,MERRILLVILLE  ,170,#170,5920 BROADWAY  ,IN,46410-2618
Jiffy Lube,GRIFFITH   ,171,#171,309 W RIDGE RD ,IN,46319-1015
Jiffy Lube,LANSING    ,173,#173,17803 TORRENCE AVE  ,IL,60438-1835
Jiffy Lube,CALUMET CITY  ,174,#174,1450 SIBLEY BLVD    ,IL,60409-2332
Jiffy Lube,LAUDERDALE LAKES   ,176,#176,1950 N STATE ROAD 7 ,FL,33313-7051
Jiffy Lube,SPRINGFIELD,177,#177,1130 BOSTON RD ,MA,01119-1308
Jiffy Lube,SUNRISE    ,178,#178,4359 N UNIVERSITY DR,FL,33351-6211
Jiffy Lube,DOVER,179,#179,236 S DUPONT HWY    ,DE,19901-4733
Jiffy Lube,BALTIMORE  ,180,#180,2311 ORLEANS ST,MD,21224-1020
Jiffy Lube,SAVANNAH   ,182,#182,210 EISENHOWER DR   ,GA,31406-2506
Jiffy Lube,PHILADELPHIA  ,183,#183,5010 CITY AVE  ,PA,19131-1414
Jiffy Lube,CHARLOTTE  ,184,#184,3717 FREEDOM DR,NC,28208-2205
Jiffy Lube,LOUISVILLE ,185,#185,2601 BARDSTOWN RD   ,KY,40205-2603
Jiffy Lube,RALEIGH    ,187,#187,3925 WESTERN BLVD   ,NC,27606-1936
Jiffy Lube,SCRANTON   ,189,#189,739 OAK ST  ,PA,18508-1556
Jiffy Lube,SKOKIE     ,190,#190,5147 GOLF RD,IL,60077-1208
Jiffy Lube,ELMHURST   ,191,#191,339 N YORK ST  ,IL,60126-2319
Jiffy Lube,CHICAGO    ,192,#192,4400 W MONTROSE AVE ,IL,60641-2020
Jiffy Lube,NORRIDGE   ,193,#193,4369 N HARLEM AVE   ,IL,60634-1216
Jiffy Lube,LOMBARD    ,194,#194,1 E ROOSEVELT RD    ,IL,60148-4536
Jiffy Lube,CHAMPAIGN  ,195,#195,1201 N PROSPECT AVE ,IL,61820-2532
Jiffy Lube,PALATINE   ,196,#196,866 E DUNDEE RD,IL,60067-2821
Jiffy Lube,CHICAGO    ,197,#197,2401 N AUSTIN AVE   ,IL,60639-2205
Jiffy Lube,CHICAGO    ,199,#199,6750 N WESTERN AVE  ,IL,60645-4717
Jiffy Lube,DAYTON     ,202,#202,2520 WILMINGTON PIKE,OH,45419-2460
Jiffy Lube,ELMHURST   ,203,#203,630 W NORTH AVE,IL,60126-2134
Jiffy Lube,HANOVER PARK  ,205,#205,1600 IRVING PARK RD ,IL,60103-3375
Jiffy Lube,LOMBARD    ,206,#206,607 W NORTH AVE,IL,60148-1188
Jiffy Lube,ELK GROVE VILLAGE  ,207,#207,1907 OAKTON ST ,IL,60007-2105
Jiffy Lube,CHICAGO    ,211,#211,2940 N CICERO AVE   ,IL,60641-5133
Jiffy Lube,FRANKLIN PARK ,212,#212,3301 MANNHEIM RD    ,IL,60131-1533
Jiffy Lube,SAINT LOUIS,213,#213,8000 PAGE AVE  ,MO,63130-1105
Jiffy Lube,WAUKEGAN   ,214,#214,1212 N LEWIS AVE    ,IL,60085-2633
Jiffy Lube,LINCOLNWOOD,218,#218,4019 W TOUHY AVE    ,IL,60712-2028
Jiffy Lube,DES PLAINES,219,#219,9401 GOLF RD,IL,60016-1517
Jiffy Lube,LA GRANGE PARK,223,#223,1119 N LA GRANGE RD ,IL,60526-1059
Jiffy Lube,COUNTRYSIDE,226,#226,5550 S LA GRANGE RD ,IL,60525-3668
Jiffy Lube,SAINT PETERSBURG   ,227,#227,5763 CENTRAL AVE    ,FL,33710-7942
Jiffy Lube,TAMPA,228,#228,4316 W GANDY BLVD   ,FL,33611-3406
Jiffy Lube,JOLIET     ,233,#233,1600 N LARKIN AVE   ,IL,60435-1916
Jiffy Lube,OAK PARK   ,234,#234,215 S HARLEM AVE    ,IL,60304-1007
Jiffy Lube,ROSELLE    ,235,#235,500 LAKE ST ,IL,60172-3546
Jiffy Lube,CHICAGO    ,236,#236,8265 S SOUTH CHICAGO AVE  ,IL,60617-1857
Jiffy Lube,CHICAGO    ,237,#237,2801 N HARLEM AVE   ,IL,60707-1638
Jiffy Lube,MELROSE PARK  ,238,#238,8351 W NORTH AVE    ,IL,60160-1605
Jiffy Lube,AURORA     ,239,#239,700 N LAKE ST  ,IL,60506-3139
Jiffy Lube,JACKSONVILLE  ,240,#240,2837 TOWNSEND BLVD  ,FL,32277-3707
Jiffy Lube,CHESAPEAKE ,241,#241,3102 WESTERN BRANCH BLVD  ,VA,23321-5514
Jiffy Lube,COLORADO SPRINGS   ,242,#242,4075 N ACADEMY BLVD ,CO,80918-6624
Jiffy Lube,OLATHE     ,244,#244,1114 E SANTA FE ST  ,KS,66061-3764
Jiffy Lube,PASADENA   ,245,#245,8037 RITCHIE HWY    ,MD,21122-7121
Jiffy Lube,COLUMBUS   ,247,#247,3550 N HIGH ST ,OH,43214-4041
Jiffy Lube,WOODBRIDGE ,248,#248,424 KING GEORGES RD ,NJ,07095-1019
Jiffy Lube,KANSAS CITY,249,#249,7844 WORNALL RD,MO,64114-1871
Jiffy Lube,OAK FOREST ,250,#250,5401 159TH ST  ,IL,60452-3221
Jiffy Lube,NORTH HUNTINGDON   ,251,#251,787 MAGILL DRIVE    ,PA,15642
Jiffy Lube,REISTERSTOWN  ,254,#254,510 MAIN ST ,MD,21136-1937
Jiffy Lube,TAMPA,255,#255,1513 E FOWLER AVE   ,FL,33612-5415
Jiffy Lube,WESTMONT   ,256,#256,411 W OGDEN AVE,IL,60559-1421
Jiffy Lube,CENTERVILLE,257,#257,5 W WHIPP RD,OH,45459-1811
Jiffy Lube,COLUMBUS   ,260,#260,3191 E MAIN ST ,OH,43213-2736
Jiffy Lube,KING OF PRUSSIA    ,261,#261,590 W DEKALB PIKE   ,PA,19406-3002
Jiffy Lube,WARMINSTER ,262,#262,600 W STREET RD,PA,18974-3217
Jiffy Lube,READING    ,263,#263,369 MAIN ST ,MA,01867-3616
Jiffy Lube,Wall Township ,264,#264,1855 STATE ROUTE 35 ,NJ,07719-3510
Jiffy Lube,BROOKHAVEN ,265,#265,4515 EDGMONT AVE    ,PA,19015-1727
Jiffy Lube,BRENTWOOD  ,266,#266,4307 BLADENSBURG RD ,MD,20722-1931
Jiffy Lube,FLOURTOWN  ,269,#269,814 BETHLEHEM PIKE  ,PA,19031-1501
Jiffy Lube,RALEIGH    ,270,#270,401 CHAPANOKE RD    ,NC,27603-3428
Jiffy Lube,LOUISVILLE ,271,#271,6508 PRESTON HWY    ,KY,40219-1820
Jiffy Lube,LOUISVILLE ,272,#272,7106 DIXIE HWY ,KY,40258-3718
Jiffy Lube,TAKOMA PARK,273,#273,6510 NEW HAMPSHIRE AVE    ,MD,20912-4823
Jiffy Lube,PAOLI,274,#274,73 E LANCASTER AVE  ,PA,19301-1419
Jiffy Lube,BALTIMORE  ,275,#275,2900 MATHEWS ST,MD,21218-4256
Jiffy Lube,DAYTON     ,277,#277,5600 N DIXIE DR,OH,45414-4154
Jiffy Lube,COCKEYSVILLE  ,278,#278,10519 YORK RD  ,MD,21030-2301
Jiffy Lube,BERWYN     ,279,#279,6930 CERMAK RD ,IL,60402-2133
Jiffy Lube,FLORISSANT ,282,#282,1755 N NEW FLORISSANT RD  ,MO,63033-1905
Jiffy Lube,FORT WAYNE ,284,#284,4334 COLDWATER RD   ,IN,46805-1112
Jiffy Lube,FORT WAYNE ,285,#285,5312 S BEND DR ,IN,46804-1680
Jiffy Lube,PALOS HEIGHTS ,292,#292,12861 S HARLEM AVE  ,IL,60463-2132
Jiffy Lube,PITTSBURGH ,293,#293,4846 MCKNIGHT RD    ,PA,15237-3404
Jiffy Lube,SUNNYVALE  ,295,#295,999 W EL CAMINO REAL,CA,94087-1156
Jiffy Lube,SAN BRUNO  ,296,#296,1580 EL CAMINO REAL ,CA,94066-5357
Jiffy Lube,CAMPBELL   ,297,#297,1387 CAMDEN AVE,CA,95008-6701
Jiffy Lube,BEVERLY    ,307,#307,477 RANTOUL ST ,MA,01915-3211
Jiffy Lube,FITCHBURG  ,308,#308,541 JOHN FITCH HWY  ,MA,01420-8403
Jiffy Lube,GUILDERLAND,309,#309,2067 WESTERN AVE    ,NY,12084-9559
Jiffy Lube,VIRGINIA BEACH,311,#311,6365 INDIAN RIVER RD,VA,23464-3500
Jiffy Lube,WILMINGTON ,312,#312,3725 KIRKWOOD HWY   ,DE,19808-5105
Jiffy Lube,SEVERN     ,315,#315,2610 ANNAPOLIS RD   ,MD,21144-1626
Jiffy Lube,NORTH LITTLE ROCK  ,319,#319,5110 JOHN F KENNEDY BLVD  ,AR,72116-6723
Jiffy Lube,FORT WORTH ,322,#322,6253 MCCART AVE,TX,76133-4228
Jiffy Lube,SILVER SPRING ,323,#323,3251 AUTOMOBILE BLVD,MD,20904-4909
Jiffy Lube,MT PROSPECT,324,#324,2 W RAND RD ,IL,60056-1128
Jiffy Lube,BURBANK    ,325,#325,6400 W 87TH ST ,IL,60459-2321
Jiffy Lube,ROSELLE    ,327,#327,235 SAINT GEORGE AVE,NJ,07203-2918
Jiffy Lube,RICHMOND   ,328,#328,6826 MIDLOTHIAN TPKE,VA,23225-5615
Jiffy Lube,HOFFMAN ESTATES    ,331,#331,1 W HIGGINS RD ,IL,60195-3711
Jiffy Lube,WORCESTER  ,332,#332,656 PARK AVE,MA,01603-2035
Jiffy Lube,GRAND FORKS,334,#334,1780 S COLUMBIA RD  ,ND,58201-5818
Jiffy Lube,FARGO,336,#336,2835 13TH AVE S,ND,58103-3501
Jiffy Lube,AMES ,342,#342,220 S DUFF AVE ,IA,50010-6642
Jiffy Lube,NORWELL    ,343,#343,49 WASHINGTON ST    ,MA,02061-1715
Jiffy Lube,CEDAR FALLS,344,#344,5215 UNIVERSITY AVE ,IA,50613-6248
Jiffy Lube,WATERBURY  ,350,#350,50 THOMASTON AVE    ,CT,06702-1005
Jiffy Lube,RICHMOND   ,352,#352,4700 WILLIAMSBURG RD,VA,23231-2742
Jiffy Lube,LEAWOOD    ,353,#353,10300 STATE LINE RD ,KS,66206-2658
Jiffy Lube,BELLFLOWER ,355,#355,10160 ALONDRA BLVD  ,CA,90706-3904
Jiffy Lube,DOWNEY     ,356,#356,12556 LAKEWOOD BLVD ,CA,90242-2780
Jiffy Lube,LYNWOOD    ,358,#358,9901 STATE ST  ,CA,90262-1512
Jiffy Lube,WHITTIER   ,360,#360,14180 LAMBERT RD    ,CA,90605-2427
Jiffy Lube,CHINO,361,#361,4143 RIVERSIDE DR   ,CA,91710-3174
Jiffy Lube,LOWELL     ,364,#364,1713 MIDDLESEX ST   ,MA,01851-1130
Jiffy Lube,Snellville ,365,#365,2564 Main St W ,GA,30078-3165
Jiffy Lube,COLUMBUS   ,367,#367,515 GEORGESVILLE RD ,OH,43228-2420
Jiffy Lube,CLAYMONT   ,368,#368,601 NAAMANS RD ,DE,19703-2309
Jiffy Lube,ALLENTOWN  ,369,#369,1934 CATASAUQUA RD  ,PA,18103-1105
Jiffy Lube,HAZLET     ,371,#371,3287 STATE ROUTE 35 ,NJ,07730-1539
Jiffy Lube,TAMPA,377,#377,7202 W HILLSBOROUGH AVE   ,FL,33634-4952
Jiffy Lube,CLEARWATER ,378,#378,23034 US HIGHWAY 19 N     ,FL,33765-1866
Jiffy Lube,BALTIMORE  ,380,#380,6319 KENWOOD AVE    ,MD,21237-2051
Jiffy Lube,FAIR OAKS  ,381,#381,4160 SUNRISE BLVD   ,CA,95628-7428
Jiffy Lube,NORTH HIGHLANDS    ,384,#384,6709 WATT AVE  ,CA,95660-3609
Jiffy Lube,SACRAMENTO ,387,#387,1640 FULTON AVE,CA,95825-5112
Jiffy Lube,VIRGINIA BEACH,389,#389,1116 N. INDEPENDENCE BLVD ,VA,23455-5505
Jiffy Lube,COLLEGE PARK  ,390,#390,8808 BALTIMORE AVE  ,MD,20740-2134
Jiffy Lube,MIAMI,391,#391,8787 BISCAYNE BLVD  ,FL,33138-3341
Jiffy Lube,INDIANAPOLIS  ,395,#395,8580 N MICHIGAN RD  ,IN,46268-1940
Jiffy Lube,COLONIAL HEIGHTS   ,396,#396,708 BOULEVARD  ,VA,23834-3237
Jiffy Lube,JACKSONVILLE  ,398,#398,3212 UNIVERSITY BLVD S    ,FL,32216-2734
Jiffy Lube,JACKSONVILLE  ,400,#400,4821 BLANDING BLVD  ,FL,32210-7328
Jiffy Lube,Blackwood  ,402,#402,1311 BLACKWOOD CLEMENTON RD  ,NJ,08021-5602
Jiffy Lube,GAINESVILLE,404,#404,1921 N MAIN ST ,FL,32609-3648
Jiffy Lube,LAWRENCEVILLE ,406,#406,2951 Brunswick Pick (US 1),NJ,08648-2403
Jiffy Lube,BROOKLYN   ,407,#407,928 CONEY ISLAND AVE,NY,11230-1402
Jiffy Lube,NORRISTOWN ,410,#410,2734  Ridge Pike    ,PA,19403-1612
Jiffy Lube,HYANNIS    ,412,#412,1209 PITCHERS WAY   ,MA,02601-2252
Jiffy Lube,ESCONDIDO  ,415,#415,314 W EL NORTE PKWY ,CA,92026-1925
Jiffy Lube,PITTSBURGH ,416,#416,5125 BAUM BLVD ,PA,15224-2351
Jiffy Lube,DES MOINES ,417,#417,6136 SE 14TH ST,IA,50320-1705
Jiffy Lube,MECHANICSBURG ,420,#420,4958 CARLISLE PIKE  ,PA,17055-3028
Jiffy Lube,THORNDALE  ,425,#425,3153 LINCOLN HWY    ,PA,19372
Jiffy Lube,VALLEY STREAM ,426,#426,826 W MERRICK RD    ,NY,11580-4829
Jiffy Lube,STONE MOUNTAIN,427,#427,1247 S HAIRSTON RD  ,GA,30083
Jiffy Lube,REDDING    ,428,#428,2123 MARKET ST ,CA,96001-2639
Jiffy Lube,SACRAMENTO ,429,#429,2900 FLORIN RD ,CA,95822-4530
Jiffy Lube,VISTA,432,#432,1213 E VISTA WAY    ,CA,92084-4039
Jiffy Lube,WEST HEMPSTEAD,433,#433,375 HEMPSTEAD TPKE  ,NY,11552-1310
Jiffy Lube,MONTEBELLO ,435,#435,1101 WASHINGTON BLVD,CA,90640-6011
Jiffy Lube,NEWARK     ,437,#437,29 LIBERTY PLZ ,DE,19711-5539
Jiffy Lube,BLACKWOOD  ,438,#438,5781 ROUTE 42  ,NJ,08012-1452
Jiffy Lube,SPRINGFIELD,441,#441,6701 BACKLICK RD    ,VA,22150-2707
Jiffy Lube,SOUTH PORTLAND,442,#442,363 MAIN ST ,ME,04106-5514
Jiffy Lube,HARRISONBURG  ,444,#444,1870 E MARKET ST    ,VA,22801-5102
Jiffy Lube,OAK LAWN   ,447,#447,9756 S CICERO AVE   ,IL,60453-3139
Jiffy Lube,CHICAGO    ,449,#449,6901 S PULASKI RD   ,IL,60629-4222
Jiffy Lube,PINE BROOK ,450,#450,56 US HIGHWAY 46    ,NJ,07058-9606
Jiffy Lube,ELLICOTT CITY ,451,#451,9267 BALTIMORE NATIONAL PIKE ,MD,21042-3923
Jiffy Lube,WINSTON SALEM ,452,#452,5501 UNIVERSITY PKWY,NC,27105-1370
Jiffy Lube,RENSSELAER ,453,#453,334 COLUMBIA TPKE   ,NY,12144-4412
Jiffy Lube,ROCKAWAY   ,457,#457,131 US HIGHWAY 46   ,NJ,07866-4011
Jiffy Lube,COLORADO SPRINGS   ,459,#459,1540 BRIARGATE BLVD ,CO,80920-3434
Jiffy Lube,CINCINNATI ,462,#462,8395 BEECHMONT AVE  ,OH,45255-3141
Jiffy Lube,OLIVETTE   ,465,#465,9405 OLIVE BLVD,MO,63132-3101
Jiffy Lube,SAINT LOUIS,466,#466,9998 MANCHESTER RD  ,MO,63122-1923
Jiffy Lube,NEWPORT NEWS  ,475,#475,730 J CLYDE MORRIS BLVD   ,VA,23601-1512
Jiffy Lube,AUSTIN     ,476,#476,1705 W BEN WHITE BLVD     ,TX,78704-7645
Jiffy Lube,CONYERS    ,477,#477,1664 HIGHWAY 138 NE ,GA,30012
Jiffy Lube,CHICAGO    ,478,#478,6600 W ARCHER AVE   ,IL,60638-2408
Jiffy Lube,LEOMINSTER ,481,#481,535 MAIN ST ,MA,01453-2435
Jiffy Lube,LISLE,482,#482,3295 OGDEN AVE ,IL,60532-1679
Jiffy Lube,PORTLAND   ,483,#483,9132 SE POWELL BLVD ,OR,97266-1943
Jiffy Lube,ORLAND PARK,488,#488,9254 W 159TH ST,IL,60462-5539
Jiffy Lube,WORTH,490,#490,7201 SOUTHWEST HWY  ,IL,60482-1248
Jiffy Lube,KANSAS CITY,491,#491,1010 N 78TH ST ,KS,66112-2812
Jiffy Lube,LAWRENCE   ,492,#492,914 W 23RD ST  ,KS,66046-4409
Jiffy Lube,NORRISTOWN ,493,#493,12 W GERMANTOWN PIKE,PA,19401-1514
Jiffy Lube,EL CAJON   ,495,#495,539 N 2ND ST,CA,92021-6449
Jiffy Lube,SHAWNEE    ,496,#496,11703 West 63rd Street    ,KS,66203-3355
Jiffy Lube,SLIDELL    ,497,#497,1336 GAUSE BLVD,LA,70458-3016
Jiffy Lube,ORLANDO    ,498,#498,5619 W COLONIAL DR  ,FL,32808-7613
Jiffy Lube,GREENVILLE ,500,#500,126 GREENVILLE BLVD SE    ,NC,27858-5706
Jiffy Lube,COLUMBUS   ,508,#508,1800 E DUBLIN GRANVILLE RD,OH,43229-3533
Jiffy Lube,CONCORD    ,510,#510,4500 CLAYTON RD,CA,94521-2850
Jiffy Lube,CULVER CITY,511,#511,5829 ADAMS BLVD,CA,90232-7301
Jiffy Lube,LITTLE ROCK,515,#515,11323 N RODNEY PARHAM RD  ,AR,72212-4121
Jiffy Lube,QUAKERTOWN ,516,#516,143 S WEST END BLVD ,PA,18951-1140
Jiffy Lube,BISMARCK   ,519,#519,1017 S WASHINGTON ST,ND,58504-6262
Jiffy Lube,AURORA     ,520,#520,16951 E ILIFF AVE   ,CO,80013-1587
Jiffy Lube,TULSA,524,#524,2726 S HARVARD AVE  ,OK,74114-5944
Jiffy Lube,TULSA,526,#526,6610 S LEWIS AVE    ,OK,74136-1011
Jiffy Lube,TULSA,528,#528,7122 S MEMORIAL DR  ,OK,74133-2962
Jiffy Lube,TULSA,529,#529,3301 E SKELLY DR    ,OK,74135-3227
Jiffy Lube,COVENTRY   ,531,#531,880 TIOGUE AVE ,RI,02816-6301
Jiffy Lube,METAIRIE   ,536,#536,7212 VETERANS MEMORIAL BLVD  ,LA,70003-4427
Jiffy Lube,ELKTON     ,537,#537,210 E PULASKI HWY   ,MD,21921-6431
Jiffy Lube,WHITTIER   ,538,#538,11705 COLIMA RD,CA,90604-2945
Jiffy Lube,FONTANA    ,539,#539,8893 SIERRA AVE,CA,92335-8650
Jiffy Lube,KANSAS CITY,540,#540,14231 E 40 Highway  ,MO,64136-1187
Jiffy Lube,FORT WORTH ,542,#542,7601 HIGHWAY 80 W   ,TX,76116-6413
Jiffy Lube,KANSAS CITY,543,#543,3201 GILLHAM PLZ    ,MO,64109-1743
Jiffy Lube,SINKING SPRING,544,#544,20 SHILLINGTON RD   ,PA,19608-1140
Jiffy Lube,STRATFORD  ,547,#547,1199 BARNUM AVE,CT,06614-5401
Jiffy Lube,MINNEAPOLIS,548,#548,3120 EXCELSIOR BLVD ,MN,55416-4616
Jiffy Lube,LONG ISLAND CITY   ,549,#549,3902 QUEENS BLVD    ,NY,11104-4306
Jiffy Lube,HOMEWOOD   ,552,#552,3349 183RD ST  ,IL,60430-2602
Jiffy Lube,LONG BEACH ,565,#565,525 E PACIFIC COAST HWY   ,CA,90806-5517
Jiffy Lube,GARDENA    ,570,#570,16616 S VERMONT AVE ,CA,90247-5121
Jiffy Lube,TARZANA    ,571,#571,19360 VENTURA BLVD  ,CA,91356-3034
Jiffy Lube,SUN VALLEY ,575,#575,10867 PENROSE ST    ,CA,91352-2071
Jiffy Lube,BLUE SPRINGS  ,576,#576,201 N 7 Highway,MO,64015-2728
Jiffy Lube,GLADSTONE  ,577,#577,7025 N OAK TRFY,MO,64118-2558
Jiffy Lube,MICHIGAN CITY ,591,#591,3325 FRANKLIN ST    ,IN,46360-7075
Jiffy Lube,CHICAGO    ,592,#592,2366 N CLYBOURN AVE ,IL,60614-2932
Jiffy Lube,CHICAGO    ,593,#593,3630 N ELSTON AVE   ,IL,60618-4316
Jiffy Lube,OAK PARK   ,594,#594,1122 MADISON ST,IL,60302-3603
Jiffy Lube,NASHUA     ,596,#596,77 E HOLLIS ST ,NH,03060-6303
Jiffy Lube,MARLBOROUGH,597,#597,402 MAPLE ST,MA,01752-3252
Jiffy Lube,MANTECA    ,598,#598,1130 N MAIN ST ,CA,95336-3208
Jiffy Lube,NEWARK     ,599,#599,2439 PULASKI HWY    ,DE,19702-3905
Jiffy Lube,CAPITOL HEIGHTS    ,600,#600,31 HAMPTON PARK BLVD,MD,20743-3816
Jiffy Lube,ALLENTOWN  ,601,#601,3111 LEHIGH ST ,PA,18103-7033
Jiffy Lube,LAKEWOOD   ,602,#602,5533 SOUTH ST  ,CA,90713-1317
Jiffy Lube,EAGAN,603,#603,1389 TOWN CENTRE DR ,MN,55123-2309
Jiffy Lube,MINNEAPOLIS,604,#604,8082 BROOKLYN BLVD  ,MN,55445-2407
Jiffy Lube,CASTRO VALLEY ,606,#606,2492 CASTRO VALLEY BLVD   ,CA,94546-5120
Jiffy Lube,SAN MATEO  ,608,#608,2517 S EL CAMINO REAL     ,CA,94403-2330
Jiffy Lube,SANTA MARIA,609,#609,1860 S BROADWAY,CA,93454-7606
Jiffy Lube,SAN CARLOS ,610,#610,1030 EL CAMINO REAL ,CA,94070-4013
Jiffy Lube,LOS ANGELES,611,#611,2157 W MANCHESTER AVE     ,CA,90047-2929
Jiffy Lube,CRANFORD   ,612,#612,102 NORTH AVE W,NJ,07016-2143
Jiffy Lube,SAINT CHARLES ,613,#613,2139 ZUMBEHL RD,MO,63303-2724
Jiffy Lube,ATLANTA    ,614,#614,4995 ROSWELL RD NE  ,GA,30342-2647
Jiffy Lube,SAINT PETERS  ,615,#615,321 MID RIVERS MALL DR    ,MO,63376-1516
Jiffy Lube,HAVERHILL  ,616,#616,25 PLAISTOW RD ,MA,01830-1416
Jiffy Lube,THE WOODLANDS ,617,#617,511 SAWDUST RD ,TX,77380-2244
Jiffy Lube,UNIVERSAL CITY,625,#625,2217 PAT BOOKER RD  ,TX,78148-3205
Jiffy Lube,SAN ANTONIO,626,#626,7083 BANDERA RD,TX,78238-1200
Jiffy Lube,NORTH BRUNSWICK    ,633,#633,530 GEORGES RD ,NJ,08902-2916
Jiffy Lube,HALLANDALE ,634,#634,735 W HALLANDALE BEACH BLVD  ,FL,33009-5332
Jiffy Lube,WILMINGTON ,636,#636,3807 CONCORD PIKE   ,DE,19803-5024
Jiffy Lube,AGOURA HILLS  ,638,#638,29162 ROADSIDE DR   ,CA,91301-3306
Jiffy Lube,PORTLAND   ,639,#639,1440 SE 39TH AVE    ,OR,97214-4372
Jiffy Lube,AZUSA,640,#640,808 E ALOSTA AVE    ,CA,91702-2706
Jiffy Lube,ABERDEEN   ,641,#641,925 BEARDS HILL RD  ,MD,21001-1734
Jiffy Lube,EASTON     ,643,#643,2911 OLD NAZARETH RD,PA,18045-2445
Jiffy Lube,CATONSVILLE,645,#645,6116 BALTIMORE NATIONAL PIKE ,MD,21228-2905
Jiffy Lube,SCRANTON   ,646,#646,208 MEADOW AVE ,PA,18505-2173
Jiffy Lube,JOHNSTON   ,647,#647,1527 HARTFORD AVE   ,RI,02919-3242
Jiffy Lube,ABSECON    ,648,#648,111-115 W ABSECON BLVD    ,NJ,08201-2402
Jiffy Lube,CHICAGO    ,649,#649,10750 S HALSTED ST  ,IL,60628-3108
Jiffy Lube,Easton     ,650,#650,8220 Ocean Gateway  ,MD,21601-7146
Jiffy Lube,MILL VALLEY,655,#655,374 MILLER AVE ,CA,94941-2847
Jiffy Lube,SACRAMENTO ,656,#656,3424 NORTHGATE BLVD ,CA,95834-1622
Jiffy Lube,PEORIA     ,659,#659,6715 W PEORIA AVE   ,AZ,85345-6039
Jiffy Lube,CARMEL     ,660,#660,1270 S RANGE LINE RD,IN,46032-2548
Jiffy Lube,INDIANAPOLIS  ,661,#661,355 N SHADELAND AVE ,IN,46219-4955
Jiffy Lube,HUNTINGTON STATION ,667,#667,599 E JERICHO TPKE  ,NY,11746-7313
Jiffy Lube,MINEOLA    ,668,#668,252 JERICHO TPKE    ,NY,11501-1608
Jiffy Lube,ATLANTA    ,670,#670,7505 ROSWELL RD,GA,30350-4838
Jiffy Lube,CRANSTON   ,673,#673,1440 PARK AVE  ,RI,02920-6629
Jiffy Lube,SIMI VALLEY,678,#678,1515 E LOS ANGELES AVE    ,CA,93065-2017
Jiffy Lube,CANYON COUNTRY,680,#680,20703 SOLEDAD CANYON RD   ,CA,91351-2440
Jiffy Lube,THOUSAND OAKS ,681,#681,2905 E THOUSAND OAKS BLVD ,CA,91362-3205
Jiffy Lube,SIMI VALLEY,682,#682,4426 E LOS ANGELES AVE    ,CA,93063-3405
Jiffy Lube,SAN ANTONIO,683,#683,15703B SAN PEDRO AVE,TX,78232-3726
Jiffy Lube,KISSIMMEE  ,685,#685,109 E VINE ST  ,FL,34744-4200
Jiffy Lube,TIMONIUM   ,687,#687,2071 YORK RD,MD,21093-4243
Jiffy Lube,WATERFORD  ,696,#696,90 BOSTON POST RD   ,CT,06385-2421
Jiffy Lube,DEER PARK  ,697,#697,3417 CENTER ST ,TX,77536-5055
Jiffy Lube,KINGSPORT  ,700,#700,1786 FORT HENRY DR  ,TN,37664-3227
Jiffy Lube,PASADENA   ,702,#702,3939 BURKE RD  ,TX,77504-2325
Jiffy Lube,ARVADA     ,705,#705,5805 INDEPENDENCE ST,CO,80002-2025
Jiffy Lube,LOS ANGELES,706,#706,4020 W SUNSET BLVD  ,CA,90029-2106
Jiffy Lube,BELLEVILLE ,714,#714,491 WASHINGTON AVE  ,NJ,07109-2611
Jiffy Lube,HOUSTON    ,716,#716,10605 FUQUA ST ,TX,77089-2403
Jiffy Lube,HOUSTON    ,717,#717,7546 BELLFORT ST    ,TX,77061-1702
Jiffy Lube,GAMBRILLS  ,721,#721,1110 STATE ROUTE 3 N,MD,21054-1711
Jiffy Lube,PIKESVILLE ,722,#722,513 REISTERSTOWN RD ,MD,21208-5303
Jiffy Lube,FRESNO     ,723,#723,3896 N BLACKSTONE AVE     ,CA,93726-3801
Jiffy Lube,EGG HARBOR TOWNSHIP,729,#729,6800 TILTON RD ,NJ,08234-4487
Jiffy Lube,EULESS     ,734,#734,1012 N INDUSTRIAL BLVD    ,TX,76039-7442
Jiffy Lube,MARTINSBURG,745,#745,1109 N QUEEN ST,WV,25401-3602
Jiffy Lube,ANTIOCH    ,747,#747,520 BELL RD ,TN,37013-2002
Jiffy Lube,JACKSONVILLE BEACH ,749,#749,1672 3RD ST S  ,FL,32250-4009
Jiffy Lube,FORT LAUDERDALE    ,751,#751,901 NE 62ND ST ,FL,33334-4116
Jiffy Lube,SAINT LOUIS,753,#753,4416 S KINGSHIGHWAY BLVD  ,MO,63109-2425
Jiffy Lube,UPLAND     ,755,#755,1379 E FOOTHILL BLVD,CA,91786-4060
Jiffy Lube,GLENVIEW   ,759,#759,3232 GLENVIEW RD    ,IL,60025-2632
Jiffy Lube,AUSTIN     ,760,#760,12621 RESEARCH BLVD ,TX,78759-2218
Jiffy Lube,CARLISLE   ,763,#763,400 E HIGH ST  ,PA,17013-2606
Jiffy Lube,HOUSTON    ,773,#773,6445 GULFTON ST,TX,77081-1101
Jiffy Lube,PROVIDENCE ,775,#775,1297 MINERAL SPRING AVE   ,RI,02904-4627
Jiffy Lube,VERNON ROCKVILLE   ,776,#776,111 TALCOTTVILLE RD ,CT,06066-4703
Jiffy Lube,ROCKVILLE  ,777,#777,806 ROCKVILLE PIKE  ,MD,20852-1224
Jiffy Lube,MANKATO    ,779,#779,1664 E MADISON AVE  ,MN,56001-5444
Jiffy Lube,CHICAGO    ,780,#780,5601 N ASHLAND AVE  ,IL,60660-4117
Jiffy Lube,DENVER     ,781,#781,7697 E ILIFF AVE    ,CO,80231-5315
Jiffy Lube,MORRIS PLAINS ,782,#782,1717 STATE ROUTE 10 ,NJ,07950-2912
Jiffy Lube,CHAMPAIGN  ,784,#784,1901 S NEIL ST ,IL,61820-7217
Jiffy Lube,MESQUITE   ,785,#785,110 S GALLOWAY AVE  ,TX,75149-4330
Jiffy Lube,LAKE JACKSON  ,786,#786,114 HIGHWAY 332,TX,77566-4802
Jiffy Lube,LIBERTYVILLE  ,787,#787,445 S MILWAUKEE AVE ,IL,60048-2820
Jiffy Lube,SAINT PAUL ,788,#788,384 WHITE BEAR AVE N,MN,55106-6028
Jiffy Lube,HOPKINS    ,789,#789,10410 Excelsior Blvd,MN,55343-7663
Jiffy Lube,VANCOUVER  ,790,#790,10512 SE MILL PLAIN BLVD STE A    ,WA,98664-4539
Jiffy Lube,LONGVIEW   ,794,#794,962 15TH AVE,WA,98632-2323
Jiffy Lube,FALLS CHURCH  ,802,#802,6220 WILSON BLVD    ,VA,22044-3210
Jiffy Lube,VALLEJO    ,803,#803,4300 SONOMA BLVD    ,CA,94589-2200
Jiffy Lube,PEMBROKE PINES,804,#804,8329 PINES BLVD,FL,33024-6607
Jiffy Lube,HIALEAH    ,805,#805,4100 W 12TH AVE,FL,33012-4107
Jiffy Lube,COLUMBUS   ,809,#809,2136 MORSE RD  ,OH,43229-6665
Jiffy Lube,VAUXHALL   ,810,#810,2240 SPRINGFIELD AVE,NJ,07088-1119
Jiffy Lube,HADLEY     ,812,#812,347 RUSSELL ST ,MA,01035-9527
Jiffy Lube,CEDAR RAPIDS  ,813,#813,370 EDGEWOOD RD NW  ,IA,52405-3650
Jiffy Lube,WINCHESTER ,814,#814,1517 S PLEASANT VALLEY RD ,VA,22601-4489
Jiffy Lube,SEAFORD    ,815,#815,3848 MERRICK RD,NY,11783-2820
Jiffy Lube,TUCKER     ,816,#816,3367 LAWRENCEVILLE HWY    ,GA,30084-7135
Jiffy Lube,JACKSONVILLE  ,817,#817,8379 BAYMEADOWS RD  ,FL,32256-7434
Jiffy Lube,PAWTUCKET  ,824,#824,121 NEWPORT AVE,RI,02861-4107
Jiffy Lube,AUSTIN     ,825,#825,1649 OHLEN RD  ,TX,78758-7119
Jiffy Lube,AUSTIN     ,829,#829,3809 GUADALUPE ST   ,TX,78751-4907
Jiffy Lube,LA MESA    ,831,#831,5540 LAKE MURRAY BLVD     ,CA,91942-4204
Jiffy Lube,BAYTOWN    ,833,#833,3414 GARTH RD  ,TX,77521-3810
Jiffy Lube,MISHAWAKA  ,834,#834,120 E MCKINLEY AVE  ,IN,46545-6217
Jiffy Lube,CHICO,837,#837,1218 MANGROVE AVE   ,CA,95926-3528
Jiffy Lube,CHICAGO    ,839,#839,5401 N LINCOLN AVE  ,IL,60625-2222
Jiffy Lube,WEST LONG BRANCH   ,841,#841,210 STATE ROUTE 36  ,NJ,07764-1305
Jiffy Lube,JACKSONVILLE  ,845,#845,435 WESTERN BLVD    ,NC,28546-6870
Jiffy Lube,SAINT MATTHEWS,846,#846,4180 WESTPORT RD    ,KY,40207-2735
Jiffy Lube,TULSA,847,#847,1102 S GARNETT RD   ,OK,74128-1822
Jiffy Lube,BROKEN ARROW  ,848,#848,100 N ELM PL,OK,74012-3870
Jiffy Lube,TUCSON     ,850,#850,4630 E BROADWAY BLVD,AZ,85711-3512
Jiffy Lube,CYPRESS    ,851,#851,4942 LINCOLN AVE    ,CA,90630-2656
Jiffy Lube,BRECKENRIDGE HILLS ,854,#854,9700 SAINT CHARLES ROCK RD,MO,63114-2626
Jiffy Lube,MUNDELEIN  ,855,#855,1470 S BUTTERFIELD RD     ,IL,60060-9424
Jiffy Lube,MADISON    ,857,#857,1023 GALLATIN RD S  ,TN,37115-4605
Jiffy Lube,FAYETTEVILLE  ,858,#858,6061 YADKIN RD ,NC,28303-2652
Jiffy Lube,PARK RIDGE ,859,#859,700 HIGGINS RD ,IL,60068-5716
Jiffy Lube,TUCSON     ,860,#860,3260 N ORACLE RD    ,AZ,85705-3820
Jiffy Lube,LITTLETON  ,862,#862,1650 E COUNTY LINE RD     ,CO,80126-2434
Jiffy Lube,SAINT LOUIS,867,#867,4504 LEMAY FERRY RD ,MO,63129-1614
Jiffy Lube,HENDERSONVILLE,868,#868,350 W MAIN ST  ,TN,37075-3313
Jiffy Lube,TAYLORS    ,869,#869,3590 RUTHERFORD RD  ,SC,29687-2100
Jiffy Lube,LEXINGTON  ,871,#871,801 LANE ALLEN RD   ,KY,40504-3605
Jiffy Lube,FALLS CHURCH  ,872,#872,1014 W BROAD ST,VA,22046-4609
Jiffy Lube,MIAMI,873,#873,12398 SW 8TH ST,FL,33184-1510
Jiffy Lube,AUBURN     ,884,#884,746 SOUTHBRIDGE ST  ,MA,01501-1319
Jiffy Lube,Largo,886,#886,13763 Walsingham Rd ,FL,33774-3221
Jiffy Lube,TACOMA     ,888,#888,7056 PACIFIC AVE    ,WA,98408-7219
Jiffy Lube,BERKELEY   ,889,#889,960 UNIVERSITY AVE  ,CA,94710-2046
Jiffy Lube,BELTSVILLE ,891,#891,10537 BALTIMORE AVE ,MD,20705-2324
Jiffy Lube,UNION CITY ,892,#892,4620 JONESBORO RD   ,GA,30291-2008
Jiffy Lube,DANBURY    ,896,#896,112 FEDERAL RD ,CT,06811-4021
Jiffy Lube,CHULA VISTA,897,#897,593 E ST    ,CA,91910-2312
Jiffy Lube,PEARLAND   ,899,#899,2118 N MAIN ST ,TX,77581-3310
Jiffy Lube,LITTLETON  ,901,#901,8100 W CRESTLINE AVE UNIT E2 ,CO,80123-1200
Jiffy Lube,TORRANCE   ,902,#902,1613  SEPULVEDA BLVD,CA,90501-5104
Jiffy Lube,CHAMBLEE   ,907,#907,5559 PEACHTREE INDUSTRIAL BLVD    ,GA,30341-2234
Jiffy Lube,SPRINGFIELD,908,#908,2400 S MACARTHUR BLVD     ,IL,62704-4506
Jiffy Lube,CINCINNATI ,909,#909,6410 GLENWAY AVE    ,OH,45211-5222
Jiffy Lube,FAYETTEVILLE  ,910,#910,3601 RAMSEY ST ,NC,28311-7647
Jiffy Lube,MIDDLETON  ,913,#913,6519 UNIVERSITY AVE ,WI,53562-3419
Jiffy Lube,CHERRY HILL,916,#916,2100 MARLTON PIKE E ,NJ,08003-1203
Jiffy Lube,DEER PARK  ,917,#917,1667 DEER PARK AVE  ,NY,11729-5202
Jiffy Lube,NARANJA    ,920,#920,26990 S DIXIE HWY   ,FL,33032-7313
Jiffy Lube,MADISON    ,921,#921,1102 E WASHINGTON AVE     ,WI,53703-3033
Jiffy Lube,MARYLAND HEIGHTS   ,924,#924,11944 DORSETT RD    ,MO,63043-2506
Jiffy Lube,MELBOURNE  ,925,#925,1991 N WICKHAM RD   ,FL,32935-8105
Jiffy Lube,OLYMPIA    ,929,#929,1854 STATE AVE NE   ,WA,98506-4600
Jiffy Lube,LOMITA     ,930,#930,2271 PACIFIC COAST HWY    ,CA,90717-2533
Jiffy Lube,BILLERICA  ,931,#931,720 BOSTON RD  ,MA,01821-5337
Jiffy Lube,BALTIMORE  ,936,#936,3617 WILKENS AVE    ,MD,21229-5034
Jiffy Lube,MONTGOMERYVILLE    ,946,#946,392 DOYLESTOWN RD   ,PA,18936-9606
Jiffy Lube,PITTSFIELD ,948,#948,1050 SOUTH ST  ,MA,01201-8225
Jiffy Lube,ROCKY POINT,949,#949,441 ROUTE 25A  ,NY,11778-8884
Jiffy Lube,MIAMI,950,#950,20280 NW 2ND AVE    ,FL,33169-2540
Jiffy Lube,HIALEAH    ,951,#951,6696 NW 186TH ST    ,FL,33015-6002
Jiffy Lube,ADDISON    ,952,#952,705 W LAKE ST  ,IL,60101-2000
Jiffy Lube,MACON,956,#956,3753 PIO NONO AVE   ,GA,31206-3039
Jiffy Lube,WARNER ROBINS ,958,#958,2026 WATSON BLVD    ,GA,31093-3624
Jiffy Lube,TACOMA     ,963,#963,5310 100TH ST SW    ,WA,98499-3817
Jiffy Lube,AURORA     ,965,#965,1657 S HAVANA ST    ,CO,80012-5007
Jiffy Lube,SANDY,967,#967,9045 S 255 W,UT,84070-2654
Jiffy Lube,PROVO,968,#968,290 W 1230 N,UT,84604-2534
Jiffy Lube,ALBUQUERQUE,969,#969,1201 SAN MATEO BLVD NE    ,NM,87110-6427
Jiffy Lube,ALBUQUERQUE,970,#970,3640 EUBANK BLVD NE ,NM,87111-4848
Jiffy Lube,ROCKVILLE  ,972,#972,15121 FREDERICK RD  ,MD,20850-1109
Jiffy Lube,PLAINFIELD ,973,#973,425 TERRILL RD ,NJ,07062-1367
Jiffy Lube,FLORISSANT ,979,#979,11345 NEW HALLS FERRY RD  ,MO,63033-7609
Jiffy Lube,SAINT LOUIS,980,#980,4592 MANCHESTER AVE ,MO,63110-2104
Jiffy Lube,WHEELING   ,986,#986,10 E DUNDEE RD ,IL,60090-3060
Jiffy Lube,ARLINGTON  ,987,#987,950 N JACKSON ST    ,VA,22201-4424
Jiffy Lube,TOPEKA     ,988,#988,3301 SW TOPEKA BLVD ,KS,66611-2236
Jiffy Lube,SEFFNER    ,989,#989,1802 S PARSONS AVE  ,FL,33584-5204
Jiffy Lube,WEST DUNDEE,990,#990,726 W MAIN ST  ,IL,60118-2028
Jiffy Lube,EDGEWOOD   ,993,#993,1812 PULASKI HWY    ,MD,21040-1603
Jiffy Lube,DURHAM     ,1000,#1000,2515 DURHAM CHAPEL HILL BLVD ,NC,27707-2865
Jiffy Lube,WHEAT RIDGE,1001,#1001,3901 WADSWORTH BLVD ,CO,80033-4614
Jiffy Lube,SAN LUIS OBISPO    ,1002,#1002,110 HIGUERA ST ,CA,93401-5419
Jiffy Lube,PORTLAND   ,1004,#1004,8655 SW BARBUR BLVD ,OR,97219-4009
Jiffy Lube,PORTLAND   ,1005,#1005,11110 NE WEIDLER ST ,OR,97220-1985
Jiffy Lube,PORTLAND   ,1006,#1006,4125 SE POWELL BLVD ,OR,97202-1725
Jiffy Lube,PORTLAND   ,1008,#1008,1237 NE 82ND AVE    ,OR,97220-5704
Jiffy Lube,PORTLAND   ,1009,#1009,3240 NE SANDY BLVD  ,OR,97232-2558
Jiffy Lube,PORTLAND   ,1010,#1010,5545 SW BEAVERTON HILLSDALE HWY   ,OR,97221-1920
Jiffy Lube,PORTLAND   ,1011,#1011,2025 NE BROADWAY ST ,OR,97232-1510
Jiffy Lube,HILLSBORO  ,1013,#1013,507 SE 10TH AVE,OR,97123-4624
Jiffy Lube,HAPPY VALLEY  ,1014,#1014,10705 SE 82ND AVE   ,OR,97086-7601
Jiffy Lube,BEAVERTON  ,1015,#1015,13325 SW CANYON RD  ,OR,97005-2001
Jiffy Lube,TIGARD     ,1016,#1016,12860 SW PACIFIC HWY,OR,97223-5031
Jiffy Lube,SAN DIEGO  ,1019,#1019,2651 GARNET AVE,CA,92109-3820
Jiffy Lube,MOSCOW     ,1020,#1020,326 TROY RD ,ID,83843-3175
Jiffy Lube,OMAHA,1023,#1023,5819 MAPLE ST  ,NE,68104-4139
Jiffy Lube,EWING,1024,#1024,10 LEXINGTON AVE    ,NJ,08618-2302
Jiffy Lube,SALT LAKE CITY,1025,#1025,5601 S 900 E,UT,84121-1033
Jiffy Lube,PASADENA   ,1027,#1027,1420 E WALNUT ST    ,CA,91106-1521
Jiffy Lube,ANAHEIM    ,1028,#1028,2400 W BALL RD ,CA,92804-5211
Jiffy Lube,MESA ,1029,#1029,828 W BASELINE RD   ,AZ,85210-5901
Jiffy Lube,NASHVILLE  ,1038,#1038,3811 NOLENSVILLE ROAD     ,TN,37211-3401
Jiffy Lube,GRESHAM    ,1044,#1044,2405 SE BURNSIDE ST ,OR,97080-1246
Jiffy Lube,BALLWIN    ,1046,#1046,15849 MANCHESTER RD ,MO,63011-2224
Jiffy Lube,DES PLAINES,1047,#1047,777 ELMHURST RD,IL,60016-2505
Jiffy Lube,SELDEN     ,1048,#1048,1064 MIDDLE COUNTRY RD    ,NY,11784-2511
Jiffy Lube,TOWSON     ,1049,#1049,109 YORK RD ,MD,21204-5207
Jiffy Lube,GAINESVILLE,1051,#1051,2310 SW ARCHER RD   ,FL,32608-1003
Jiffy Lube,MISSION VIEJO ,1053,#1053,27240 LA PAZ RD,CA,92692-2700
Jiffy Lube,DANVILLE   ,1054,#1054,530 SAN RAMON VALLEY BLVD ,CA,94526-4012
Jiffy Lube,SARASOTA   ,1058,#1058,2049 BEE RIDGE RD   ,FL,34239-6102
Jiffy Lube,SARASOTA   ,1059,#1059,3615 CLARK RD  ,FL,34233-2316
Jiffy Lube,ALPHARETTA ,1060,#1060,2965 HOLCOMB BRIDGE RD    ,GA,30022-2965
Jiffy Lube,OWINGS MILLS  ,1061,#1061,10602 REISTERSTOWN RD     ,MD,21117-2802
Jiffy Lube,HOUSTON    ,1065,#1065,5248 FM 1960 RD W   ,TX,77069-4402
Jiffy Lube,SAN BERNARDINO,1066,#1066,567 W HIGHLAND AVE  ,CA,92405-3811
Jiffy Lube,SAINT LOUIS,1067,#1067,7210 WATSON RD ,MO,63119-4404
Jiffy Lube,WOODBRIDGE ,1070,#1070,13319 OCCOQUAN RD   ,VA,22191-1741
Jiffy Lube,CLEARWATER ,1073,#1073,4301 E BAY DR  ,FL,33764-6819
Jiffy Lube,CRYSTAL LAKE  ,1075,#1075,6205 NORTHWEST HWY  ,IL,60014-7932
Jiffy Lube,KINGSTON   ,1077,#1077,37 MAIN ST  ,MA,02364-2288
Jiffy Lube,SOUTH WEYMOUTH,1078,#1078,1419 MAIN ST,MA,02190-1338
Jiffy Lube,KINGWOOD   ,1080,#1080,1890 NORTHPARK DR   ,TX,77339-1610
Jiffy Lube,CHESTER    ,1091,#1091,12201 JEFFERSON DAVIS HWY ,VA,23831-2316
Jiffy Lube,TACOMA     ,1092,#1092,605 S SPRAGUE AVE   ,WA,98405-3056
Jiffy Lube,SEATTLE    ,1093,#1093,6215 15TH AVE NW    ,WA,98107-2306
Jiffy Lube,SEATTLE    ,1095,#1095,10415 GREENWOOD AVE N     ,WA,98133-9145
Jiffy Lube,SEATTLE    ,1096,#1096,1020 NE NORTHGATE WAY     ,WA,98125-6421
Jiffy Lube,LYNNWOOD   ,1097,#1097,6001 196TH ST SW    ,WA,98036-5981
Jiffy Lube,BETHPAGE   ,1099,#1099,4000 HEMPSTEAD TPKE ,NY,11714-5604
Jiffy Lube,OAKBROOK TERRACE   ,1100,#1100,17W620 BUTTERFIELD RD     ,IL,60181-4037
Jiffy Lube,SAINT CHARLES ,1101,#1101,1970 LINCOLN HWY    ,IL,60174-1566
Jiffy Lube,BRANFORD   ,1103,#1103,322 W MAIN ST  ,CT,06405-3414
Jiffy Lube,ALEXANDRIA ,1104,#1104,2912 DUKE ST,VA,22314-4515
Jiffy Lube,SARASOTA   ,1105,#1105,1513 N WASHINGTON BLVD    ,FL,34236-2722
Jiffy Lube,DURHAM     ,1107,#1107,1221 W NC HIGHWAY 54,NC,27707-5545
Jiffy Lube,RALEIGH    ,1108,#1108,4804 ATLANTIC AVE   ,NC,27616-1862
Jiffy Lube,BELLEVUE   ,1109,#1109,10510 MAIN ST  ,WA,98004-5903
Jiffy Lube,COLUMBIA   ,1113,#1113,2107 W WORLEY ST    ,MO,65203-1053
Jiffy Lube,JEFFERSON CITY,1114,#1114,809 STADIUM blvd    ,MO,65109-2403
Jiffy Lube,COLUMBIA   ,1115,#1115,18 N PROVIDENCE RD  ,MO,65203-4184
Jiffy Lube,JEFFERSON CITY,1116,#1116,611 DIX RD  ,MO,65109-4723
Jiffy Lube,KENT ,1118,#1118,24037 104TH AVE SE  ,WA,98031-4975
Jiffy Lube,SALT LAKE CITY,1119,#1119,2097 S 1200 E  ,UT,84105-3513
Jiffy Lube,WESTBOROUGH,1122,#1122,126 TURNPIKE RD,MA,01581-2804
Jiffy Lube,Gibsonia   ,1126,#1126,215 Richland Mall   ,PA,15044-9762
Jiffy Lube,BALTIMORE  ,1133,#1133,2044 N HOWARD ST    ,MD,21218-5911
Jiffy Lube,SAINT PAUL ,1135,#1135,2379  W 7TH ST ,MN,55116-2841
Jiffy Lube,GLENDALE HEIGHTS   ,1136,#1136,2025 BLOOMINGDALE RD,IL,60139-2173
Jiffy Lube,CANTON     ,1137,#1137,239 TURNPIKE ST,MA,02021-2358
Jiffy Lube,RANCHO CORDOVA,1138,#1138,10796 OLSON DR ,CA,95670-5652
Jiffy Lube,FOLSOM     ,1142,#1142,709 E BIDWELL ST    ,CA,95630-3341
Jiffy Lube,MECHANICSVILLE,1146,#1146,7002 MECHANICSVILLE TPKE  ,VA,23111-7101
Jiffy Lube,WEST JORDAN,1147,#1147,1735 W 9000 S  ,UT,84088-6502
Jiffy Lube,SUMMERVILLE,1149,#1149,1102 N MAIN ST ,SC,29483-7326
Jiffy Lube,ARLINGTON  ,1150,#1150,5710 FOREST BEND DR ,TX,76017-1108
Jiffy Lube,SAN MATEO  ,1151,#1151,407 S DELAWARE ST   ,CA,94402-1300
Jiffy Lube,AYER ,1152,#1152,38 PARK ST  ,MA,01432-1121
Jiffy Lube,LATHAM     ,1153,#1153,711 TROY SCHENECTADY RD   ,NY,12110-2442
Jiffy Lube,SAN LEANDRO,1158,#1158,15015 HESPERIAN BLVD,CA,94578-3511
Jiffy Lube,AIEA ,1159,#1159,98-199 KAMEHAMEHA HWY STE G3 ,HI,96701-4820
Jiffy Lube,CHICAGO    ,1160,#1160,7200 N HARLEM AVE   ,IL,60631-4335
Jiffy Lube,BOULDER    ,1161,#1161,1788 30TH ST,CO,80301-1029
Jiffy Lube,SALT LAKE CITY,1163,#1163,2350 E 4500 S  ,UT,84117-4552
Jiffy Lube,NORTHAMPTON,1164,#1164,188 NORTH KING STREET     ,MA,1060
Jiffy Lube,NEWARK     ,1166,#1166,39197 CEDAR BLVD    ,CA,94560-5001
Jiffy Lube,BELLEVILLE ,1172,#1172,5730 N BELT W  ,IL,62226-4616
Jiffy Lube,MACON,1173,#1173,1045 GRAY HWY  ,GA,31211-1856
Jiffy Lube,TACOMA     ,1175,#1175,13803 PACIFIC AVE S ,WA,98444-4634
Jiffy Lube,MIAMI,1176,#1176,4050 LUDLAM RD ,FL,33155-4760
Jiffy Lube,ALBUQUERQUE,1177,#1177,2301 WYOMING BLVD NE,NM,87112-1152
Jiffy Lube,NAPLES     ,1178,#1178,4840 GOLDEN GATE PKWY     ,FL,34116-6965
Jiffy Lube,NEWTON UPPER FALLS ,1179,#1179,191 NEEDHAM ST ,MA,02464-1505
Jiffy Lube,BRONX,1187,#1187,4015 BOSTON RD ,NY,10466-6101
Jiffy Lube,CHARLOTTESVILLE    ,1188,#1188,240 PANTOPS CIRCLE  ,VA,22911-8601
Jiffy Lube,OAKLAND PARK  ,1189,#1189,750 E COMMERCIAL BLVD     ,FL,33334-3208
Jiffy Lube,VIENNA     ,1192,#1192,210 MAPLE AVE W,VA,22180-5605
Jiffy Lube,WORCESTER  ,1193,#1193,1003 GRAFTON ST,MA,01604-2044
Jiffy Lube,POMONA     ,1200,#1200,2880 N GAREY AVE    ,CA,91767-1921
Jiffy Lube,FORT LAUDERDALE    ,1202,#1202,2411 STIRLING RD    ,FL,33312-6520
Jiffy Lube,LOWELL     ,1203,#1203,645 ROGERS ST  ,MA,01852-3851
Jiffy Lube,WEST COLUMBIA ,1204,#1204,2400 AUGUSTA HWY    ,SC,29169-4544
Jiffy Lube,RAYNHAM    ,1209,#1209,35 ROUTE 44 ,MA,02767-1402
Jiffy Lube,BEDFORD    ,1210,#1210,331 GREAT RD,MA,01730-2802
Jiffy Lube,GERMANTOWN ,1213,#1213,19520 WALTER JOHNSON RD   ,MD,20874-2656
Jiffy Lube,MATTHEWS   ,1214,#1214,1201 MATTHEWS MINT HILL RD,NC,28105-2310
Jiffy Lube,OMAHA,1215,#1215,13720 P ST  ,NE,68137-2705
Jiffy Lube,Blue Ash   ,1220,#1220,5013 COOPER RD ,OH,45242-6916
Jiffy Lube,ALTOONA    ,1223,#1223,526 W PLANK RD ,PA,16602-2802
Jiffy Lube,SALT LAKE CITY,1224,#1224,804 E 400 S ,UT,84102-2904
Jiffy Lube,SOMERSET   ,1226,#1226,1503 STATE ROUTE 27 ,NJ,08873-3904
Jiffy Lube,WARWICK    ,1228,#1228,886 BALD HILL RD    ,RI,02886-0718
Jiffy Lube,FAIRHAVEN  ,1229,#1229,31 ALDEN RD ,MA,02719-4638
Jiffy Lube,SALEM,1233,#1233,323 S BROADWAY ,NH,03079-4522
Jiffy Lube,BOCA RATON ,1236,#1236,23133 SANDALFOOT PLAZA DR STE 4   ,FL,33428-6600
Jiffy Lube,PORT JEFFERSON STATION   ,1243,#1243,5228 NESCONSET HWY  ,NY,11776-2001
Jiffy Lube,FORT MYERS ,1244,#1244,7140 CYPRESS LAKE DR,FL,33907-6500
Jiffy Lube,HUNTINGTON ,1247,#1247,1809 E JERICHO TPKE ,NY,11743-5712
Jiffy Lube,PATCHOGUE  ,1248,#1248,452 MEDFORD AVE,NY,11772-1832
Jiffy Lube,CHANTILLY  ,1250,#1250,13701 LEE JACKSON MEMORIAL HWY    ,VA,20151-3534
Jiffy Lube,WEST PALM BEACH    ,1254,#1254,2800 OKEECHOBEE BLVD,FL,33409-4012
Jiffy Lube,WETHERSFIELD  ,1256,#1256,1761 BERLIN TPKE    ,CT,06109-1303
Jiffy Lube,GOLETA     ,1257,#1257,6015 HOLLISTER AVE  ,CA,93117-3217
Jiffy Lube,Chesapeake ,1258,#1258,711 Battlefield Blvd N    ,VA,23320-4901
Jiffy Lube,BONITA SPRINGS,1260,#1260,28145 S TAMIAMI TRL ,FL,34134-3204
Jiffy Lube,SOUTH BURLINGTON   ,1261,#1261,1525 SHELBURNE RD   ,VT,05403-7714
Jiffy Lube,COMMACK    ,1262,#1262,2064 JERICHO TPKE   ,NY,11725-3006
Jiffy Lube,CINCINNATI ,1263,#1263,9435 FIELDS ERTEL RD,OH,45249-8212
Jiffy Lube,FARMINGDALE,1268,#1268,35 BROADHOLLOW RD   ,NY,11735-4802
Jiffy Lube,ARROYO GRANDE ,1270,#1270,495 E GRAND AVE,CA,93420-2621
Jiffy Lube,LEESBURG   ,1271,#1271,509 E MARKET ST,VA,20176-4113
Jiffy Lube,ROCKVILLE  ,1272,#1272,5535 NICHOLSON LN   ,MD,20852-3133
Jiffy Lube,SOUTH AMBOY,1273,#1273,977 US HIGHWAY 9    ,NJ,08879-3302
Jiffy Lube,Aiken,1275,#1275,3558 Augusta Rd,SC,29801-6312
Jiffy Lube,AIKEN,1276,#1276,1025 PINE LOG RD    ,SC,29803-7311
Jiffy Lube,Ocean City ,1277,#1277,12641 Ocean Gateway ,MD,21842-9558
Jiffy Lube,OCEANSIDE  ,1278,#1278,1970 OCEANSIDE BLVD ,CA,92054-4424
Jiffy Lube,RALEIGH    ,1279,#1279,220 NEWTON RD  ,NC,27615-6139
Jiffy Lube,BUTLER     ,1282,#1282,104 ALAMEDA PLZ,PA,16001-2528
Jiffy Lube,PALO ALTO  ,1283,#1283,4201 MIDDLEFIELD RD ,CA,94303-4745
Jiffy Lube,SANTA FE   ,1285,#1285,1975 CERRILLOS RD   ,NM,87505-3382
Jiffy Lube,CHINO HILLS,1287,#1287,13870 PEYTON DR,CA,91709-1601
Jiffy Lube,MADISON    ,1288,#1288,2605 FISH HATCHERY RD     ,WI,53713-2313
Jiffy Lube,JANESVILLE ,1289,#1289,2306 HUMES RD  ,WI,53545
Jiffy Lube,COLUMBUS   ,1291,#1291,2730 BETHEL RD ,OH,43220-2217
Jiffy Lube,CLIVE,1293,#1293,1846 NW 86TH ST,IA,50325-7104
Jiffy Lube,KNOXVILLE  ,1294,#1294,6508 CHAPMAN HWY    ,TN,37920-6555
Jiffy Lube,KNOXVILLE  ,1295,#1295,6700 CLINTON HWY    ,TN,37912-1018
Jiffy Lube,GLENDALE   ,1296,#1296,202 S GLENDALE AVE  ,CA,91205-1714
Jiffy Lube,PALO ALTO  ,1297,#1297,4195 EL CAMINO REAL ,CA,94306-4004
Jiffy Lube,SANTA CLARA,1300,#1300,2940 BOWERS AVE,CA,95051-0919
Jiffy Lube,FLORENCE   ,1302,#1302,2189 W EVANS ST,SC,29501-4007
Jiffy Lube,SANTA ANA  ,1303,#1303,2025 N TUSTIN AVE   ,CA,92705-7818
Jiffy Lube,VIRGINIA BEACH,1304,#1304,1557 GENERAL BOOTH BLVD   ,VA,23454-5104
Jiffy Lube,RALEIGH    ,1305,#1305,5930 GLENWOOD AVE   ,NC,27612-6221
Jiffy Lube,CINCINNATI ,1306,#1306,4403 GLEN ESTE WITHAMSVILLE RD    ,OH,45245-1522
Jiffy Lube,WESTMINSTER,1307,#1307,385 N CENTER ST,MD,21157-9308
Jiffy Lube,NORWOOD    ,1308,#1308,770 BOSTON PROVIDENCE TPKE,MA,02062-5222
Jiffy Lube,JOHNSON CITY  ,1311,#1311,2801 N ROAN ST ,TN,37601-1505
Jiffy Lube,FRANKLIN   ,1313,#1313,490 W CENTRAL ST    ,MA,02038-2902
Jiffy Lube,ESSEX JUNCTION,1314,#1314,59 PEARL ST ,VT,05452-3624
Jiffy Lube,PEABODY    ,1315,#1315,230 ANDOVER ST ,MA,01960-1601
Jiffy Lube,CINCINNATI ,1317,#1317,1148 W KEMPER RD    ,OH,45240-1708
Jiffy Lube,BALLWIN    ,1319,#1319,14701 MANCHESTER RD ,MO,63011-3701
Jiffy Lube,ARCADIA    ,1323,#1323,5 W HUNTINGTON DR   ,CA,91007-3101
Jiffy Lube,VENTURA    ,1324,#1324,1098 E THOMPSON BLVD,CA,93001-3067
Jiffy Lube,HONOLULU   ,1325,#1325,1489 PUNCHBOWL ST   ,HI,96813-2001
Jiffy Lube,CHAPEL HILL,1326,#1326,1746A N FORDHAM BLVD,NC,27514-5884
Jiffy Lube,SAN JOSE   ,1328,#1328,3497 STEVENS CREEK BLVD   ,CA,95117-1043
Jiffy Lube,HAZELWOOD  ,1331,#1331,7760 N LINDBERGH BLVD     ,MO,63042-2127
Jiffy Lube,RALEIGH    ,1333,#1333,6304 CAPITAL BLVD   ,NC,27616-3048
Jiffy Lube,MIAMI,1334,#1334,8215 W FLAGLER ST   ,FL,33126
Jiffy Lube,AUSTIN     ,1335,#1335,2711-B W ANDERSON LN,TX,78757-1121
Jiffy Lube,ALISO VIEJO,1339,#1339,27832 ALISO CREEK RD,CA,92656-3846
Jiffy Lube,MAYNARD    ,1341,#1341,3 POWDER MILL RD (Route 62)  ,MA,01754-1437
Jiffy Lube,GAINESVILLE,1342,#1342,7531 W NEWBERRY RD  ,FL,32606-6729
Jiffy Lube,APPLE VALLEY  ,1344,#1344,15404 CEDAR AVE,MN,55124-7073
Jiffy Lube,SHERMAN OAKS  ,1346,#1346,14103 VENTURA BLVD  ,CA,91423-2712
Jiffy Lube,SAN FRANCISCO ,1347,#1347,6099 GEARY BLVD,CA,94121-1907
Jiffy Lube,SAINT LOUIS,1348,#1348,11719 BAPTIST CHURCH RD   ,MO,63128-1312
Jiffy Lube,SAN FRANCISCO ,1349,#1349,2030 VAN NESS AVE   ,CA,94109-3010
Jiffy Lube,SALEM,1350,#1350,3035 LANCASTER DR NE,OR,97305-1348
Jiffy Lube,MACON,1353,#1353,4421 FORSYTH RD,GA,31210-4525
Jiffy Lube,COLUMBIA   ,1354,#1354,110 E NIFONG BLVD # B     ,MO,65203-3709
Jiffy Lube,OVERLAND PARK ,1355,#1355,11940 RILEY ST ,KS,66213-1126
Jiffy Lube,Plattsburgh,1357,#1357,523 State Route 3   ,NY,12901-6525
Jiffy Lube,HOUSTON    ,1359,#1359,2350 S DAIRY ASHFORD ST   ,TX,77077-5718
Jiffy Lube,GALLUP     ,1361,#1361,206 NIZHONI BLVD    ,NM,87301-5744
Jiffy Lube,KINGWOOD   ,1362,#1362,3227 W LAKE HOUSTON PKWY  ,TX,77339-5206
Jiffy Lube,SIOUX CITY ,1367,#1367,4520 SOUTHERN HILLS DR    ,IA,51106-4729
Jiffy Lube,SAN ANTONIO,1369,#1369,7903 FREDERICKSBURG RD    ,TX,78229-3407
Jiffy Lube,BLOOMINGTON,1371,#1371,7999 PENN AVE S,MN,55431-1314
Jiffy Lube,NATICK     ,1372,#1372,99 WORCESTER ST,MA,01760-2230
Jiffy Lube,Omaha,1373,#1373,1221 South 120th    ,NE,68144
Jiffy Lube,SEDALIA    ,1374,#1374,2801 W BROADWAY BLVD,MO,65301-2212
Jiffy Lube,ORANGEBURG ,1376,#1376,1515 CHESTNUT ST NE ,SC,29115-3425
Jiffy Lube,BRIDGETON  ,1377,#1377,11731 SAINT CHARLES ROCK RD  ,MO,63044-2609
Jiffy Lube,CINCINNATI ,1378,#1378,5229 MADISON RD,OH,45227-1411
Jiffy Lube,SANTA MONICA  ,1379,#1379,2344 PICO BLVD ,CA,90405-1755
Jiffy Lube,WINTER SPRINGS,1380,#1380,5367 RED BUG LAKE RD,FL,32708-4970
Jiffy Lube,ROSEVILLE  ,1382,#1382,1585 W. County Rd. C,MN,55113-1731
Jiffy Lube,FORT COLLINS  ,1383,#1383,121 KENSINGTON DR   ,CO,80525-3052
Jiffy Lube,MADISON    ,1384,#1384,648 S WHITNEY WAY   ,WI,53711-1035
Jiffy Lube,WILMETTE   ,1385,#1385,1115 GREEN BAY RD   ,IL,60091-1642
Jiffy Lube,WATERLOO   ,1391,#1391,1423 E SAN MARNAN DR,IA,50702-4314
Jiffy Lube,MARIETTA   ,1393,#1393,4200 ROSWELL RD,GA,30062-6427
Jiffy Lube,HAYDEN     ,1394,#1394,8655 N GOVERNMENT WAY     ,ID,83835-8293
Jiffy Lube,ARNOLD     ,1395,#1395,966 JEFFCO BLVD,MO,63010-1427
Jiffy Lube,SANTA BARBARA ,1396,#1396,932 DE LA VINA ST   ,CA,93101-3221
Jiffy Lube,ALBUQUERQUE,1399,#1399,1600 JUAN TABO BLVD NE    ,NM,87112-4435
Jiffy Lube,KNOXVILLE  ,1402,#1402,11012 KINGSTON PIKE ,TN,37922-2804
Jiffy Lube,SAN RAMON  ,1403,#1403,2099 CAMINO RAMON   ,CA,94583-1378
Jiffy Lube,HAYWARD    ,1404,#1404,153 W JACKSON ST    ,CA,94544-1809
Jiffy Lube,CONCORD    ,1405,#1405,1219 CONCORD AVE    ,CA,94520-4940
Jiffy Lube,TUSTIN     ,1406,#1406,3087 EDINGER AVE    ,CA,92780-7240
Jiffy Lube,EUGENE     ,1407,#1407,528 W 7TH AVE  ,OR,97401-2557
Jiffy Lube,STAFFORD   ,1410,#1410,204 GARRISONVILLE RD,VA,22554-1525
Jiffy Lube,STEVENSON RANCH    ,1411,#1411,24832 WEST PICO CANYON RD ,CA,91381-1700
Jiffy Lube,WEST LEBANON  ,1412,#1412,2 MARKET ST ,NH,03784-1661
Jiffy Lube,HAWTHORNE  ,1418,#1418,12800 HAWTHORNE BLVD,CA,90250-4407
Jiffy Lube,EDEN PRAIRIE  ,1419,#1419,8102 EDEN RD,MN,55344-5304
Jiffy Lube,JACKSONVILLE  ,1422,#1422,10430 ATLANTIC BLVD ,FL,32225-6713
Jiffy Lube,JACKSONVILLE  ,1424,#1424,9699 SAN JOSE BLVD  ,FL,32257-5433
Jiffy Lube,JACKSONVILLE  ,1427,#1427,13560 ATLANTIC BLVD ,FL,32225-3233
Jiffy Lube,ORANGE PARK,1428,#1428,634 BLANDING BLVD   ,FL,32073-5061
Jiffy Lube,HOUSTON    ,1437,#1437,7550 HIGHWAY 6 N    ,TX,77095-2604
Jiffy Lube,KATY ,1438,#1438,21910 PROVINCIAL BLVD     ,TX,77450-1744
Jiffy Lube,MONROEVILLE,1439,#1439,3957 WILLIAM PENN HWY     ,PA,15146-2439
Jiffy Lube,GREENSBURG ,1441,#1441,941 E PITTSBURGH ST ,PA,15601-3503
Jiffy Lube,MIDDLETOWN ,1442,#1442,717 W MAIN RD  ,RI,02842-6357
Jiffy Lube,SAN ANTONIO,1443,#1443,5584 WALZEM RD ,TX,78218-2103
Jiffy Lube,MCMURRAY   ,1446,#1446,2869 WASHINGTON RD  ,PA,15317-3266
Jiffy Lube,EDGEWORTH  ,1447,#1447,221 OHIO RIVER BLVD ,PA,15143-1146
Jiffy Lube,BETHEL PARK,1448,#1448,5185 LIBRARY RD,PA,15102-2772
Jiffy Lube,WEBSTER GROVES,1451,#1451,501 N LACLEDE STATION RD  ,MO,63119-2019
Jiffy Lube,WASHINGTON ,1453,#1453,600 WASHINGTON SQUARE SHOPPING CTR,MO,63090-5389
Jiffy Lube,TOPEKA     ,1454,#1454,1830 SW WANAMAKER RD,KS,66604-3825
Jiffy Lube,GALLUP     ,1455,#1455,1117 N HIGHWAY 491  ,NM,87301-5382
Jiffy Lube,ALBUQUERQUE,1456,#1456,4100 PENNSYLVANIA ST NE   ,NM,87109-1755
Jiffy Lube,ORANGE     ,1457,#1457,433 W KATELLA AVE   ,CA,92867-4603
Jiffy Lube,CARY ,1458,#1458,941 HIGH HOUSE RD   ,NC,27513-3510
Jiffy Lube,WEXFORD    ,1459,#1459,11170 PERRY HWY,PA,15090-9304
Jiffy Lube,MISSION    ,1460,#1460,5850 BROADMOOR ST   ,KS,66202-2332
Jiffy Lube,MIAMI,1461,#1461,9736 S DIXIE HWY    ,FL,33156-2807
Jiffy Lube,MORENO VALLEY ,1462,#1462,12300 HEACOCK ST    ,CA,92557-7105
Jiffy Lube,SACRAMENTO ,1463,#1463,3000 CAPITOL AVE    ,CA,95816-5204
Jiffy Lube,SACRAMENTO ,1464,#1464,5464 FLORIN RD ,CA,95823-2182
Jiffy Lube,NEWBERG    ,1466,#1466,3440 PORTLAND RD    ,OR,97132-2017
Jiffy Lube,CANOGA PARK,1467,#1467,20860 ROSCOE BLVD   ,CA,91306-2002
Jiffy Lube,GLEN BURNIE,1468,#1468,7101 RITCHIE HWY    ,MD,21061-2903
Jiffy Lube,BURBANK    ,1469,#1469,107 S VICTORY BLVD  ,CA,91502-2347
Jiffy Lube,LOS ANGELES,1470,#1470,700 NORTH LA BREA AVE     ,CA,90038-3339
Jiffy Lube,GLEN ALLEN ,1471,#1471,4227 POUNCEY TRACT RD     ,VA,23060-5829
Jiffy Lube,ALPHARETTA ,1475,#1475,5779 STATE BRIDGE RD,GA,30022-6003
Jiffy Lube,HONOLULU   ,1476,#1476,2550 S BERETANIA ST ,HI,96826-1512
Jiffy Lube,MIDDLETOWN ,1477,#1477,6780 ROOSEVELT AVE  ,OH,45044-8945
Jiffy Lube,STOCKTON   ,1478,#1478,1648 E HAMMER LN    ,CA,95210-4119
Jiffy Lube,OAKDALE    ,1479,#1479,146 N 6TH AVE  ,CA,95361-3123
Jiffy Lube,CLOVIS     ,1480,#1480,240 W ASHLAN AVE    ,CA,93612-5615
Jiffy Lube,MC KEES ROCKS ,1481,#1481,500 PINE HOLLOW RD  ,PA,15136-1659
Jiffy Lube,HANOVER    ,1482,#1482,1075 GEORGE ST ,PA,17331-1450
Jiffy Lube,WAYNESBORO ,1483,#1483,1950 MARKET SQUARE BLVD   ,PA,17268-3810
Jiffy Lube,LEWES,1485,#1485,34680 JIFFY WAY,DE,19958-4931
Jiffy Lube,SPRINGBORO ,1488,#1488,560 W CENTRAL AVE   ,OH,45066-1110
Jiffy Lube,SEABROOK   ,1489,#1489,467 LAFAYETTE RD    ,NH,03874-4540
Jiffy Lube,ROCHESTER  ,1490,#1490,195 CHARLES ST ,NH,03867-3424
Jiffy Lube,PLAISTOW   ,1491,#1491,75 PLAISTOW RD ,NH,03865-2808
Jiffy Lube,SALEM,1493,#1493,194 N BROADWAY ,NH,03079-2134
Jiffy Lube,CONCORD    ,1494,#1494,150 LOUDON RD  ,NH,03301-6025
Jiffy Lube,GARDEN CITY,1515,#1515,4408 AUGUSTA RD,GA,31408-2108
Jiffy Lube,LA PUENTE  ,1518,#1518,1020 N HACIENDA BLVD,CA,91744-2019
Jiffy Lube,AUSTIN     ,1519,#1519,2516 W PARMER LN    ,TX,78727-4211
Jiffy Lube,YORBA LINDA,1532,#1532,16751 YORBA LINDA BLVD    ,CA,92886-2048
Jiffy Lube,CHAPEL HILL,1552,#1552,607 W FRANKLIN ST # A     ,NC,27516-2316
Jiffy Lube,Cary ,1553,#1553,419 Ashville Ave    ,NC,27511-6133
Jiffy Lube,CINCINNATI ,1554,#1554,3151 LINWOOD AVE    ,OH,45208-2954
Jiffy Lube,CINCINNATI ,1555,#1555,7776 MONTGOMERY RD  ,OH,45236-4202
Jiffy Lube,WILSON     ,1556,#1556,1617 RALEIGH RD W   ,NC,27893
Jiffy Lube,CARTERSVILLE  ,1563,#1563,920A JOE FRANK HARRIS PKWY SE,GA,30120-2129
Jiffy Lube,LEES SUMMIT,1564,#1564,915 NE RICE RD ,MO,64086-6359
Jiffy Lube,HOUSTON    ,1565,#1565,2001 S SHEPHERD DR  ,TX,77019-7007
Jiffy Lube,CHAMBERSBURG  ,1566,#1566,1250 ORCHARD DR,PA,17201-4805
Jiffy Lube,MIAMI,1567,#1567,6700 SW 117TH AVE   ,FL,33183-2828
Jiffy Lube,STOCKBRIDGE,1568,#1568,5519 N HENRY BLVD   ,GA,30281-3218
Jiffy Lube,CUMMING    ,1569,#1569,718 ATLANTA RD ,GA,30040-2715
Jiffy Lube,OKLAHOMA CITY ,1570,#1570,9116 S WESTERN AVE  ,OK,73139-2725
Jiffy Lube,SPRING LAKE,1571,#1571,600 S BRAGG BLVD    ,NC,28390-3900
Jiffy Lube,CHESTERFIELD  ,1572,#1572,13490 OLIVE BLVD    ,MO,63017-3111
Jiffy Lube,O FALLON   ,1574,#1574,518 S MAIN ST  ,MO,63366-2537
Jiffy Lube,OXNARD     ,1575,#1575,101 W ESPLANADE DR  ,CA,93036-1101
Jiffy Lube,FARGO,1576,#1576,2740 32ND AVE S,ND,58103-5024
Jiffy Lube,BRIDGEWATER,1578,#1578,1316 US HIGHWAY 22  ,NJ,08807-2974
Jiffy Lube,WESTMINSTER,1579,#1579,6011 WESTMINSTER BLVD     ,CA,92683-3547
Jiffy Lube,PITTSBURGH ,1581,#1581,2010 GREENTREE RD   ,PA,15220-1446
Jiffy Lube,NEW CASTLE ,1582,#1582,3336 WILMINGTON RD  ,PA,16105-1039
Jiffy Lube,DOWNEY     ,1585,#1585,7501 FIRESTONE BLVD ,CA,90241-4203
Jiffy Lube,WESTCHESTER,1597,#1597,8525 S SEPULVEDA BLVD     ,CA,90045-3802
Jiffy Lube,Rancho Santa Margarita   ,1598,#1598,23041 Antonio Pkwy  ,CA,92688-2637
Jiffy Lube,GURNEE     ,1599,#1599,7692 GRAND AVE ,IL,60031-1554
Jiffy Lube,TUCSON     ,1600,#1600,7443 E BROADWAY BLVD,AZ,85710-1410
Jiffy Lube,TUCSON     ,1601,#1601,4465 W INA RD  ,AZ,85741-2229
Jiffy Lube,FRIENDSWOOD,1612,#1612,224 E PARKWOOD AVE  ,TX,77546-5144
Jiffy Lube,SAVANNAH   ,1619,#1619,11708 ABERCORN ST   ,GA,31419-1906
Jiffy Lube,JESSUP     ,1620,#1620,8680 WASHINGTON BLVD,MD,20794-9660
Jiffy Lube,CARLSBAD   ,1621,#1621,6021 PASEO DEL NORTE,CA,92009-1115
Jiffy Lube,KNOXVILLE  ,1622,#1622,1002 N CEDAR BLUFF RD     ,TN,37923-2232
Jiffy Lube,LEAVENWORTH,1627,#1627,3120 S 4TH ST  ,KS,66048-5006
Jiffy Lube,LENEXA     ,1628,#1628,13520 W 87TH STREET PKWY  ,KS,66215-2409
Jiffy Lube,DORCHESTER ,1632,#1632,950 WILLIAM T MORRISSEY BLVD ,MA,02122-3206
Jiffy Lube,POWAY,1656,#1656,13409 POWAY RD ,CA,92064-4713
Jiffy Lube,TEMPE,1658,#1658,250 W GUADALUPE RD  ,AZ,85283-5609
Jiffy Lube,PHOENIX    ,1664,#1664,2005 E CACTUS RD    ,AZ,85022-5823
Jiffy Lube,TEMPE,1665,#1665,2014 S RURAL RD,AZ,85282-1408
Jiffy Lube,SCOTTSDALE ,1667,#1667,11243 E VIA LINDA   ,AZ,85259
Jiffy Lube,PHOENIX    ,1668,#1668,4848 E WARNER RD    ,AZ,85044-3353
Jiffy Lube,STAUNTON   ,1672,#1672,911 GREENVILLE AVE  ,VA,24401-4943
Jiffy Lube,SAN DIEGO  ,1675,#1675,3775 ROSECRANS ST   ,CA,92110-3113
Jiffy Lube,CENTERVILLE,1676,#1676,897 S MAIN ST  ,OH,45458-3440
Jiffy Lube,LAKE WORTH ,1677,#1677,6254 LANTANA RD,FL,33463-6713
Jiffy Lube,JOHNSTOWN  ,1678,#1678,1306 SCALP AVE ,PA,15904-3107
Jiffy Lube,SPRING     ,1679,#1679,8275 LOUETTA RD,TX,77379-7015
Jiffy Lube,HOUSTON    ,1682,#1682,9666 WESTHEIMER RD  ,TX,77063-3205
Jiffy Lube,MEMPHIS    ,1684,#1684,630 N GRAHAM ST,TN,38122-5205
Jiffy Lube,MEMPHIS    ,1685,#1685,7020 WINCHESTER RD  ,TN,38125-2013
Jiffy Lube,BARTLETT   ,1686,#1686,2889 BARTLETT BLVD  ,TN,38134-4529
Jiffy Lube,MEMPHIS    ,1687,#1687,1135 E SHELBY DR    ,TN,38116-7763
Jiffy Lube,Midlothian ,1698,#1698,13850 Raised Antler Cir   ,VA,23112-7627
Jiffy Lube,OREM ,1700,#1700,809 N STATE ST ,UT,84057-3148
Jiffy Lube,AVONDALE   ,1702,#1702,3920 N 107TH AVE    ,AZ,85323-4536
Jiffy Lube,MIDLOTHIAN ,1709,#1709,11321 GENITO RD,VA,23112-3641
Jiffy Lube,WAHPETON   ,1711,#1711,620 DAKOTA AVE ,ND,58075-4313
Jiffy Lube,COVINA     ,1712,#1712,21008 E ARROW HWY   ,CA,91724-1430
Jiffy Lube,ALHAMBRA   ,1722,#1722,1332 S FREMONT AVE  ,CA,91803-1902
Jiffy Lube,TORRANCE   ,1725,#1725,5340 W 190TH ST,CA,90503-1007
Jiffy Lube,BAKERSFIELD,1726,#1726,3208 CALIFORNIA AVE ,CA,93304-1068
Jiffy Lube,MC HENRY   ,1727,#1727,1807 N RICHMOND RD  ,IL,60050-1415
Jiffy Lube,SCOTTSDALE ,1728,#1728,7065 E SHEA BLVD    ,AZ,85254-5249
Jiffy Lube,GILBERT    ,1729,#1729,3345 E BASELINE RD  ,AZ,85234-2633
Jiffy Lube,PEORIA     ,1730,#1730,7475 W CACTUS RD    ,AZ,85381-9530
Jiffy Lube,PAYSON     ,1731,#1731,160 E STATE HIGHWAY 260   ,AZ,85541-4925
Jiffy Lube,CLIFTON PARK  ,1732,#1732,1672 ROUTE 9,NY,12065-4368
Jiffy Lube,FRIDLEY    ,1734,#1734,7609 UNIVERSITY AVE NE    ,MN,55432-2617
Jiffy Lube,SANTA FE   ,1735,#1735,4023 CERRILLOS RD   ,NM,87505-2916
Jiffy Lube,Rio Rancho ,1736,#1736,2400 Rio Rancho Dr SE     ,NM,87124-1800
Jiffy Lube,ALBUQUERQUE,1737,#1737,2915 COORS BLVD NW  ,NM,87120-1221
Jiffy Lube,ROLLING MEADOWS    ,1738,#1738,2100 PLUM GROVE RD  ,IL,60008-1932
Jiffy Lube,PEMBROKE PINES,1739,#1739,17311 PINES BLVD    ,FL,33029-1508
Jiffy Lube,LOS ALAMITOS  ,1740,#1740,3311 KATELLA AVE    ,CA,90720-2337
Jiffy Lube,LONG BEACH ,1741,#1741,5630 E 7TH ST  ,CA,90804-4452
Jiffy Lube,AMERICAN FORK ,1748,#1748,562 E STATE RD ,UT,84003-2149
Jiffy Lube,COLUMBUS   ,1750,#1750,535 E LIVINGSTON AVE,OH,43215-5545
Jiffy Lube,DELRAY BEACH  ,1753,#1753,5136 W ATLANTIC AVE ,FL,33484-8131
Jiffy Lube,ALBUQUERQUE,1754,#1754,151 ALAMEDA RD NW   ,NM,87114-2229
Jiffy Lube,FARMINGTON ,1755,#1755,4350 E MAIN ST ,NM,87402-8622
Jiffy Lube,UNIVERSITY CITY    ,1757,#1757,7500 DELMAR BLVD    ,MO,63130-3929
Jiffy Lube,SAN DIEGO  ,1763,#1763,6696 MIRAMAR RD,CA,92121-2555
Jiffy Lube,ENCINITAS  ,1764,#1764,221 N EL CAMINO REAL,CA,92024-2805
Jiffy Lube,LITTLE ROCK,1765,#1765,9500 N RODNEY PARHAM RD   ,AR,72227-6208
Jiffy Lube,HUBER HEIGHTS ,1766,#1766,8371 TROY PIKE ,OH,45424-1027
Jiffy Lube,DAYTON     ,1767,#1767,4497 INDIAN RIPPLE RD     ,OH,45440-3251
Jiffy Lube,HAMILTON   ,1768,#1768,1358 MAIN ST,OH,45013-1634
Jiffy Lube,NASHVILLE  ,1770,#1770,2428 ELLISTON PL    ,TN,37203-1705
Jiffy Lube,BOWIE,1774,#1774,2325 CRAIN HWY ,MD,20716-3436
Jiffy Lube,WILMINGTON ,1776,#1776,6713A MARKET ST,NC,28405-3703
Jiffy Lube,REDDING    ,1779,#1779,905 HARTNELL AVE    ,CA,96002-2117
Jiffy Lube,SAN ANTONIO,1781,#1781,1564 AUSTIN HWY,TX,78218-6042
Jiffy Lube,REDLANDS   ,1782,#1782,1667 W REDLANDS BLVD,CA,92373-8067
Jiffy Lube,ROANOKE    ,1784,#1784,1477 PETERS CREEK RD NW   ,VA,24017-2547
Jiffy Lube,ROANOKE    ,1785,#1785,3559 FRANKLIN RD SW ,VA,24014-2201
Jiffy Lube,MADISON HEIGHTS    ,1786,#1786,4864 S AMHERST HWY  ,VA,24572-2478
Jiffy Lube,LYNCHBURG  ,1787,#1787,3209 OLD FOREST RD  ,VA,24501-2325
Jiffy Lube,DANVILLE   ,1788,#1788,601 PINEY FOREST RD ,VA,24540-2858
Jiffy Lube,EAST HARTFORD ,1789,#1789,480 MAIN ST ,CT,06118-1408
Jiffy Lube,WOODSIDE   ,1801,#1801,5101 NORTHERN BLVD  ,NY,11377-1732
Jiffy Lube,REDWOOD CITY  ,1802,#1802,640 WHIPPLE AVE,CA,94063-1147
Jiffy Lube,LOS ANGELES,1803,#1803,3061 OVERLAND AVE   ,CA,90034-3417
Jiffy Lube,PORTLAND   ,1806,#1806,260 RIVERSIDE ST    ,ME,04103-1040
Jiffy Lube,PHOENIX    ,1807,#1807,2630 W THUNDERBIRD RD     ,AZ,85023-5948
Jiffy Lube,ASPINWALL  ,1808,#1808,201 FREEPORT RD,PA,15215-3037
Jiffy Lube,ELDERSBURG ,1809,#1809,1951 DICKENSON RD   ,MD,21784-4604
Jiffy Lube,BARRINGTON ,1811,#1811,563 N HOUGH ST ,IL,60010-3030
Jiffy Lube,WAUKEGAN   ,1812,#1812,556 S GREEN BAY RD  ,IL,60085-6004
Jiffy Lube,Atlantic Beach,1813,#1813,1067 Atlantic Blvd  ,FL,32233-3378
Jiffy Lube,JACKSONVILLE  ,1814,#1814,1441 DUNN AVE  ,FL,32218-4835
Jiffy Lube,ORANGE CITY,1818,#1818,2590 ENTERPRISE RD  ,FL,32763-7912
Jiffy Lube,ORANGE PARK,1821,#1821,132 BLANDING BLVD   ,FL,32073-2622
Jiffy Lube,JACKSONVILLE  ,1822,#1822,11620 SAN JOSE BLVD ,FL,32223-7239
Jiffy Lube,JACKSONVILLE  ,1823,#1823,11099 SAINT AUGUSTINE RD  ,FL,32257-1159
Jiffy Lube,MACCLENNY  ,1825,#1825,1445 S 6TH ST  ,FL,32063-9669
Jiffy Lube,Orlando    ,1830,#1830,4531 Conroy Rd ,FL,32811-7442
Jiffy Lube,ORLANDO    ,1831,#1831,5398 N ORANGE BLOSSOM TRL ,FL,32810-1009
Jiffy Lube,LAKE CITY  ,1832,#1832,1896 W US HIGHWAY 90,FL,32055-4713
Jiffy Lube,WINTER GARDEN ,1833,#1833,13676 W COLONIAL DR ,FL,34787-3924
Jiffy Lube,OREGON CITY,1834,#1834,13863 S BEAVERCREEK RD    ,OR,97045-4199
Jiffy Lube,HANOVER PARK  ,1835,#1835,1860 ARMY TRAIL RD  ,IL,60133
Jiffy Lube,GAINESVILLE,1837,#1837,3200 SW 34TH ST,FL,32608-1717
Jiffy Lube,TUCSON     ,1839,#1839,8055 N ORACLE RD    ,AZ,85704-6415
Jiffy Lube,EVANSTON   ,1841,#1841,1941 DEMPSTER ST    ,IL,60201-4069
Jiffy Lube,MESA ,1842,#1842,6150 E MAIN ST ,AZ,85204
Jiffy Lube,LA CANADA FLINTRIDGE     ,1855,#1855,2304 FOOTHILL BLVD  ,CA,91011-1401
Jiffy Lube,IRVINE     ,1856,#1856,8777 IRVINE CENTER DR     ,CA,92618-4205
Jiffy Lube,HUNTINGTON BEACH   ,1857,#1857,8971 WARNER AVE,CA,92647-5057
Jiffy Lube,HUNTINGTON BEACH   ,1858,#1858,9032 ADAMS AVE ,CA,92646-3402
Jiffy Lube,SCOTTSDALE ,1860,#1860,2727 N SCOTTSDALE RD,AZ,85257-1348
Jiffy Lube,SAN DIEGO  ,1869,#1869,7207 CLAIREMONT MESA BLVD ,CA,92111-1006
Jiffy Lube,MISSOULA   ,1870,#1870,2310 BROOKS ST ,MT,59801-7960
Jiffy Lube,MISSOULA   ,1871,#1871,601 E BROADWAY ST   ,MT,59802-4611
Jiffy Lube,SAN DIEGO  ,1874,#1874,1574 PALM AVE  ,CA,92154-1016
Jiffy Lube,CITRUS HEIGHTS,1875,#1875,7841 SUNRISE BLVD   ,CA,95610-1528
Jiffy Lube,UPLAND     ,1876,#1876,1640 W FOOTHILL BLVD,CA,91786-3532
Jiffy Lube,TEMECULA   ,1878,#1878,30690 RANCHO CALIFORNIA RD,CA,92591-3276
Jiffy Lube,STROUDSBURG,1879,#1879,12 N 2ND ST ,PA,18360-2508
Jiffy Lube,Phoenix    ,1882,#1882,4944 E Bell Road    ,AZ,85254-6003
Jiffy Lube,MEDFORD    ,1883,#1883,222 MYSTIC AVE ,MA,02155-4652
Jiffy Lube,HUMBLE     ,1884,#1884,1900 FM 1960 BYPASS RD E  ,TX,77338-3918
Jiffy Lube,HUDSON     ,1885,#1885,318 FAIRVIEW AVE    ,NY,12534-1219
Jiffy Lube,WAKEFIELD  ,1886,#1886,589 MAIN ST ,MA,01880-3355
Jiffy Lube,WEST SAINT PAUL    ,1888,#1888,1244 ROBERT ST S    ,MN,55118-2401
Jiffy Lube,DULUTH     ,1889,#1889,115 E CENTRAL ENTRANCE    ,MN,55811-5509
Jiffy Lube,WINTER PARK,1890,#1890,2519 ALOMA AVE ,FL,32792-3401
Jiffy Lube,POST FALLS ,1891,#1891,1650 E SELTICE WAY  ,ID,83854-7007
Jiffy Lube,SAN DIEGO  ,1894,#1894,1005 B ST   ,CA,92101-4707
Jiffy Lube,LEAGUE CITY,1895,#1895,2206 E MAIN ST ,TX,77573-2741
Jiffy Lube,MOUNT AIRY ,1901,#1901,1001 TWIN ARCH RD   ,MD,21771-4138
Jiffy Lube,ANAHEIM    ,1903,#1903,2505 E LINCOLN AVE  ,CA,92806-3120
Jiffy Lube,CRANBERRY TOWNSHIP ,1904,#1904,20265 Rt 19 ,PA,16066
Jiffy Lube,GAINESVILLE,1905,#1905,3714 NW 13TH ST,FL,32609-2182
Jiffy Lube,CORONA     ,1907,#1907,906 W 6TH ST,CA,92882-3239
Jiffy Lube,ELKRIDGE   ,1909,#1909,6247 WASHINGTON BLVD,MD,21075-5236
Jiffy Lube,STERLING   ,1911,#1911,46210 POTOMAC RUN PLZ UNIT 100    ,VA,20164-6608
Jiffy Lube,WOODBRIDGE ,1912,#1912,13300 MINNIEVILLE RD,VA,22192-4032
Jiffy Lube,MESA ,1914,#1914,1960 N COUNTRY CLUB DR # 101F,AZ,85201-1704
Jiffy Lube,HELENA     ,1915,#1915,1330 CEDAR ST  ,MT,59601-0909
Jiffy Lube,BRENTWOOD  ,1916,#1916,1710 CAROTHERS PKWY ,TN,37027-8038
Jiffy Lube,WHITMAN    ,1918,#1918,691 BEDFORD ST ,MA,02382-1807
Jiffy Lube,LAYTON     ,1919,#1919,236 N FAIRFIELD RD  ,UT,84041-3930
Jiffy Lube,FALMOUTH   ,1920,#1920,724 WARRENTON RD    ,VA,22406-1039
Jiffy Lube,CONROE     ,1921,#1921,1301 N FRAZIER ST   ,TX,77301-1813
Jiffy Lube,CONROE     ,1923,#1923,1112 N LOOP 336 W   ,TX,77301-1156
Jiffy Lube,HUNTSVILLE ,1924,#1924,1501 11TH ST,TX,77340-3815
Jiffy Lube,BRIGHAM CITY  ,1925,#1925,692 S MAIN ST  ,UT,84302-3247
Jiffy Lube,LOGAN,1926,#1926,1152 S MAIN ST ,UT,84321-8214
Jiffy Lube,WARRENTON  ,1927,#1927,300 BROADVIEW AVE   ,VA,20186-2331
Jiffy Lube,DELMAR     ,1929,#1929,55 DELAWARE AVE,NY,12054-1504
Jiffy Lube,SHAWNEE MISSION    ,1930,#1930,8625 W 151ST ST,KS,66223-2329
Jiffy Lube,SCOTTSDALE ,1931,#1931,14704 N FRANK LLOYD WRIGHT BLVD   ,AZ,85260-2044
Jiffy Lube,ATASCADERO ,1932,#1932,7760 EL CAMINO REAL ,CA,93422-4674
Jiffy Lube,PORTLAND   ,1933,#1933,11545 NE SANDY BLVD ,OR,97220-1460
Jiffy Lube,LOS ANGELES,1935,#1935,11001 SANTA MONICA BLVD   ,CA,90025-3503
Jiffy Lube,ONTARIO    ,1936,#1936,4567 MILLS CIR ,CA,91764-5220
Jiffy Lube,RIO RANCHO ,1937,#1937,2414 SOUTHERN BLVD SE     ,NM,87124-3719
Jiffy Lube,ALBUQUERQUE,1938,#1938,5812 GIBSON BLVD SE ,NM,87108-4834
Jiffy Lube,BOSQUE FARMS  ,1939,#1939,1290 BOSQUE FARMS BLVD    ,NM,87068-9644
Jiffy Lube,Bozeman    ,1944,#1944,2119 W Main St ,MT,59718-3909
Jiffy Lube,MISSOULA   ,1946,#1946,3640 N RESERVE ST   ,MT,59802-1520
Jiffy Lube,GILROY     ,1947,#1947,701 1ST ST  ,CA,95020-4918
Jiffy Lube,BENICIA    ,1948,#1948,2026 COLUMBUS PKWY  ,CA,94510-5400
Jiffy Lube,GLENDALE   ,1949,#1949,6841 W BELL RD ,AZ,85308
Jiffy Lube,OTTAWA     ,1964,#1964,113 KAIN ST ,IL,61350-1164
Jiffy Lube,BOURBONNAIS,1965,#1965,598 WILLIAM LATHAM DR     ,IL,60914-2320
Jiffy Lube,SAN MARCOS ,1966,#1966,765 W SAN MARCOS BLVD     ,CA,92069-4221
Jiffy Lube,SAN MARCOS ,1967,#1967,218 S RANCHO SANTA FE RD  ,CA,92069-2302
Jiffy Lube,SAN DIEGO  ,1968,#1968,3982 CONVOY ST ,CA,92111-3724
Jiffy Lube,COSTA MESA ,1969,#1969,300 E 17TH ST  ,CA,92627-3206
Jiffy Lube,COSTA MESA ,1970,#1970,2175 NEWPORT BLVD   ,CA,92627-1703
Jiffy Lube,GRAND PRAIRIE ,1972,#1972,1020 W PIONEER PKWY ,TX,75051-4707
Jiffy Lube,PANTEGO    ,1974,#1974,2105 W PIONEER PKWY ,TX,76013-6008
Jiffy Lube,LAS VEGAS  ,1975,#1975,4531 N RANCHO RD    ,NV,89130-3403
Jiffy Lube,LINCOLN    ,1976,#1976,2402 S 48TH ST ,NE,68506-5511
Jiffy Lube,FOUNTAIN HILLS,1980,#1980,16758 E PARKVIEW AVE,AZ,85268-3883
Jiffy Lube,HENDERSONVILLE,1984,#1984,1015 W MAIN ST ,TN,37075-2820
Jiffy Lube,GOODLETTSVILLE,1985,#1985,333 CARTWRIGHT ST   ,TN,37072-1443
Jiffy Lube,TRENTON    ,1986,#1986,1247 S BROAD ST,NJ,08610-6254
Jiffy Lube,MERCERVILLE,1987,#1987,702 HIGHWAY 33 ,NJ,08619-4410
Jiffy Lube,IRVINE     ,1988,#1988,3080 MAIN ST,CA,92614-5976
Jiffy Lube,RANDOLPH   ,1990,#1990,26 WARREN ST,MA,02368-4015
Jiffy Lube,GARDEN GROVE  ,1991,#1991,13970 HARBOR BLVD   ,CA,92843-4013
Jiffy Lube,ROSWELL    ,1993,#1993,2613 N MAIN ST ,NM,88201-6553
Jiffy Lube,WARRENSBURG,1994,#1994,400 N MAGUIRE ST    ,MO,64093-1816
Jiffy Lube,FLORENCE   ,1995,#1995,815 S IRBY ST  ,SC,29501-5236
Jiffy Lube,MILFORD    ,1997,#1997,58 E MAIN ST,MA,01757-2702
Jiffy Lube,FRANKLIN   ,1999,#1999,1120 MURFREESBORO RD,TN,37064-3007
Jiffy Lube,MANHATTAN BEACH    ,2000,#2000,1119 N SEPULVEDA BLVD     ,CA,90266-5955
Jiffy Lube,MASON CITY ,2001,#2001,2441 4TH ST SW ,IA,50401-4610
Jiffy Lube,MARSHALLTOWN  ,2004,#2004,2105 S CENTER ST    ,IA,50158-5958
Jiffy Lube,GOLDEN VALLEY ,2005,#2005,6925 MARKET ST ,MN,55426-1720
Jiffy Lube,AUSTIN     ,2006,#2006,1806 E RIVERSIDE DR ,TX,78741-1322
Jiffy Lube,Sandy,2007,#2007,10620 S 700 E  ,UT,84070-4979
Jiffy Lube,Salt Lake City,2008,#2008,3796 W 3500 S  ,UT,84120-3304
Jiffy Lube,Draper     ,2010,#2010,1028 Draper Pkwy    ,UT,84020-9093
Jiffy Lube,Sandy,2011,#2011,9235 S 700 E,UT,84070-6204
Jiffy Lube,Salt Lake City,2012,#2012,1331 Fort Union Blvd,UT,84121-2859
Jiffy Lube,Salt Lake City,2013,#2013,4949 S State St,UT,84107-4843
Jiffy Lube,Salt Lake City,2014,#2014,6131 Cougar Ln ,UT,84118-6064
Jiffy Lube,Layton     ,2015,#2015,1370 N Main St ,UT,84041-4855
Jiffy Lube,Bountiful  ,2017,#2017,327 W 500 S ,UT,84010-7203
Jiffy Lube,Salt Lake City,2018,#2018,1577 Foothill Dr    ,UT,84108-2773
Jiffy Lube,OGDEN,2019,#2019,104 N WASHINGTON BLVD     ,UT,84404-3937
Jiffy Lube,OGDEN,2020,#2020,5746 HARRISON BLVD  ,UT,84403-4325
Jiffy Lube,Salt Lake City,2021,#2021,757 W North Temple  ,UT,84116-3351
Jiffy Lube,LOGAN,2023,#2023,30 E 1400 N ,UT,84341-2353
Jiffy Lube,Ogden,2024,#2024,3175 Harrison Blvd  ,UT,84403-0826
Jiffy Lube,Provo,2025,#2025,1575 N Freedom Blvd ,UT,84604-2518
Jiffy Lube,Salt Lake City,2026,#2026,2102 S Main St ,UT,84115-2602
Jiffy Lube,Orem ,2027,#2027,91 N State St  ,UT,84057-5507
Jiffy Lube,Roy  ,2028,#2028,5436 S 1900 W  ,UT,84067-2909
Jiffy Lube,Las Vegas  ,2030,#2030,4511 E Tropicana Ave,NV,89121-6720
Jiffy Lube,Las Vegas  ,2031,#2031,1409 N Eastern Ave  ,NV,89101-1508
Jiffy Lube,West Jordan,2036,#2036,7805 Redwood Rd,UT,84088-4001
Jiffy Lube,Las Vegas  ,2037,#2037,2020 E Sahara Ave   ,NV,89104-3830
Jiffy Lube,Salt Lake City,2038,#2038,677 E 400 S ,UT,84102-2803
Jiffy Lube,Salt Lake City,2039,#2039,3936 W 5400 S  ,UT,84118-3551
Jiffy Lube,Salt Lake City,2040,#2040,1837 W 5400 S  ,UT,84118-1425
Jiffy Lube,North Las Vegas    ,2042,#2042,4716 W Craig Rd,NV,89032-2502
Jiffy Lube,Salt Lake City,2043,#2043,6390 Highland Dr    ,UT,84121-2108
Jiffy Lube,Portland   ,2046,#2046,14305 SE Division St,OR,97236-2632
Jiffy Lube,Portland   ,2048,#2048,2525 SE 82nd Ave    ,OR,97266-1574
Jiffy Lube,Lakewood   ,2049,#2049,5915 100th St SW    ,WA,98499-2731
Jiffy Lube,CENTRALIA  ,2050,#2050,903 HARRISON AVE    ,WA,98531-2113
Jiffy Lube,Seattle    ,2051,#2051,251 NE 45th St ,WA,98105-6147
Jiffy Lube,Lynnwood   ,2052,#2052,606 164th St SW,WA,98037-8116
Jiffy Lube,KIRKLAND   ,2054,#2054,12427 NE 124TH ST   ,WA,98034-4022
Jiffy Lube,Bellingham ,2055,#2055,4070 Meridian St    ,WA,98226-5517
Jiffy Lube,Anchorage  ,2056,#2056,360 W Dimond Blvd   ,AK,99515-1903
Jiffy Lube,Anchorage  ,2057,#2057,3429 E Tudor Rd,AK,99507-1282
Jiffy Lube,Gig Harbor ,2058,#2058,5121 Point Fosdick Dr NW  ,WA,98335-1716
Jiffy Lube,VANCOUVER  ,2059,#2059,2500 SE 165TH AVE   ,WA,98683-3456
Jiffy Lube,Evanston   ,2061,#2061,119 Beckers Cir,WY,82930-3620
Jiffy Lube,McMinnville,2062,#2062,1854 NE Highway 99W ,OR,97128-2747
Jiffy Lube,Kent ,2063,#2063,10312 SE 256th St   ,WA,98031-6414
Jiffy Lube,Lacey,2065,#2065,1475 Marvin Rd NE   ,WA,98516-5768
Jiffy Lube,Silverdale ,2066,#2066,9584 Ridgetop Blvd NW     ,WA,98383-8500
Jiffy Lube,Bellevue   ,2069,#2069,14001 NE 20th St    ,WA,98007-3702
Jiffy Lube,Everett    ,2070,#2070,12807 4th Ave W,WA,98204-6340
Jiffy Lube,Lacey,2071,#2071,4102 Pacific Ave SE ,WA,98503-1105
Jiffy Lube,Olympia    ,2072,#2072,2424 Harrison Ave NW,WA,98502-4545
Jiffy Lube,KENMORE    ,2073,#2073,7204 NE BOTHELL WAY ,WA,98028-3518
Jiffy Lube,KENT ,2074,#2074,309 WASHINGTON AVE S,WA,98032-5767
Jiffy Lube,Seattle    ,2075,#2075,4902 25th Ave NE    ,WA,98105-4108
Jiffy Lube,Tacoma     ,2076,#2076,2218 Mildred St W   ,WA,98466-6041
Jiffy Lube,Seattle    ,2077,#2077,2025 4th Ave,WA,98121-2414
Jiffy Lube,Kent ,2078,#2078,23610 Pacific Hwy S ,WA,98032-2714
Jiffy Lube,Burien     ,2079,#2079,13654 1st Ave S,WA,98168-3404
Jiffy Lube,Mount Vernon  ,2080,#2080,1616 Freeway Dr,WA,98273-2432
Jiffy Lube,Bellingham ,2081,#2081,1430 Cornwall Ave   ,WA,98225-4520
Jiffy Lube,Seattle    ,2082,#2082,10022 Holman Rd NW  ,WA,98177-4921
Jiffy Lube,Bremerton  ,2083,#2083,3515 Kitsap Way,WA,98312-2639
Jiffy Lube,Gilbert    ,2084,#2084,1188 N Gilbert Rd   ,AZ,85234-2392
Jiffy Lube,Phoenix    ,2085,#2085,2921 N 32nd St ,AZ,85018-6801
Jiffy Lube,Mesa ,2086,#2086,1945 S Country Club Dr    ,AZ,85210-6007
Jiffy Lube,Phoenix    ,2087,#2087,2702 W Bethany Home Rd    ,AZ,85017-1704
Jiffy Lube,Phoenix    ,2088,#2088,1202 E Northern Ave ,AZ,85020-4217
Jiffy Lube,Flagstaff  ,2090,#2090,1590 E Route 66,AZ,86001-4821
Jiffy Lube,Chandler   ,2092,#2092,399 N Arizona Ave   ,AZ,85225-4582
Jiffy Lube,Phoenix    ,2093,#2093,13801 N 32nd St,AZ,85032-5605
Jiffy Lube,Scottsdale ,2094,#2094,7610 E McDowell Rd  ,AZ,85257-3608
Jiffy Lube,Phoenix    ,2095,#2095,1414 W Bell Rd ,AZ,85023-3427
Jiffy Lube,Phoenix    ,2098,#2098,5040 N 7th St  ,AZ,85014-3101
Jiffy Lube,Tempe,2099,#2099,9950 S Rural Rd,AZ,85284-4116
Jiffy Lube,Phoenix    ,2100,#2100,2745 W Peoria Ave   ,AZ,85029-5215
Jiffy Lube,Phoenix    ,2102,#2102,1645 N 51st Ave,AZ,85035-3935
Jiffy Lube,CHAMBLEE   ,2103,#2103,5772 PEACHTREE INDUSTRIAL BLVD    ,GA,30341-1908
Jiffy Lube,CHAMBLEE   ,2106,#2106,5017 BUFORD HWY,GA,30341-3505
Jiffy Lube,Riverdale  ,2109,#2109,6579 Highway 85,GA,30274-2353
Jiffy Lube,Bogart     ,2111,#2111,3745 Atlanta Hwy    ,GA,30622-2237
Jiffy Lube,DECATUR    ,2112,#2112,1271 CLAIRMONT RD   ,GA,30033-5360
Jiffy Lube,MARIETTA   ,2114,#2114,1605 COBB PKWY S    ,GA,30060-9250
Jiffy Lube,Roswell    ,2115,#2115,10640 Alpharetta Hwy,GA,30076-1427
Jiffy Lube,Mableton   ,2116,#2116,5547 Floyd Rd SW    ,GA,30126-2219
Jiffy Lube,Atlanta    ,2118,#2118,2138 Briarcliff Rd NE     ,GA,30329-3450
Jiffy Lube,Stone Mountain,2121,#2121,5314 Highway 78,GA,30087-3415
Jiffy Lube,Duluth     ,2124,#2124,3541 Satellite Blvd ,GA,30096-4646
Jiffy Lube,MARIETTA   ,2127,#2127,2550 DELK RD SE,GA,30067-6352
Jiffy Lube,Houston    ,2129,#2129,3435 W Holcombe Blvd,TX,77025-1311
Jiffy Lube,Pasadena   ,2130,#2130,6919 Spencer Hwy    ,TX,77505-1801
Jiffy Lube,Houston    ,2131,#2131,1619 Gessner Dr,TX,77080-7001
Jiffy Lube,Houston    ,2135,#2135,3302 Ella Blvd ,TX,77018-7320
Jiffy Lube,HOUSTON    ,2138,#2138,14531 MEMORIAL DR   ,TX,77079-5428
Jiffy Lube,WEBSTER    ,2141,#2141,529 EL DORADO BLVD  ,TX,77598-2201
Jiffy Lube,San Antonio,2152,#2152,9150 Grissom Rd,TX,78251-2802
Jiffy Lube,Hurst,2153,#2153,800 W Bedford Euless Rd   ,TX,76053-3806
Jiffy Lube,New Braunfels ,2154,#2154,1466 S Seguin Ave   ,TX,78130-3853
Jiffy Lube,San Antonio,2159,#2159,5612 Bandera Rd,TX,78238-1915
Jiffy Lube,San Antonio,2168,#2168,9206 Perrin Beitel Rd     ,TX,78217-3503
Jiffy Lube,San Antonio,2170,#2170,3015 Thousand Oaks Dr     ,TX,78247-3314
Jiffy Lube,San Antonio,2171,#2171,8366 Marbach Rd,TX,78227-1604
Jiffy Lube,Texas City ,2172,#2172,3314 Palmer Hwy,TX,77590-6510
Jiffy Lube,HOUSTON    ,2174,#2174,4513 HIGHWAY 6 N    ,TX,77084-3401
Jiffy Lube,Lawrenceville ,2175,#2175,2215 Riverside Pkwy ,GA,30043-5932
Jiffy Lube,Houston    ,2176,#2176,535 Uvalde Rd  ,TX,77015-3725
Jiffy Lube,DULUTH     ,2179,#2179,9630 MEDLOCK BRIDGE RD    ,GA,30097-5962
Jiffy Lube,HIRAM,2180,#2180,4470 JIMMY LEE SMITH PKWY # C,GA,30141-2724
Jiffy Lube,ALPHARETTA ,2184,#2184,207 S MAIN ST  ,GA,30004-1913
Jiffy Lube,Fayetteville  ,2185,#2185,360 Glynn St N ,GA,30214-1191
Jiffy Lube,DOUGLASVILLE  ,2186,#2186,3242 HIGHWAY 5 ,GA,30135-2383
Jiffy Lube,Charlotte  ,2190,#2190,5610 South Blvd,NC,28217-4128
Jiffy Lube,Columbia   ,2194,#2194,2121 Broad River Rd ,SC,29210-7007
Jiffy Lube,Columbia   ,2195,#2195,7452 Two Notch Rd   ,SC,29223-7622
Jiffy Lube,West Columbia ,2196,#2196,1920 Sunset Blvd    ,SC,29169-5932
Jiffy Lube,Pasadena   ,2215,#2215,1603 E Colorado Blvd,CA,91106-2105
Jiffy Lube,Kansas City,2218,#2218,4214 Rainbow Blvd   ,KS,66103-3113
Jiffy Lube,Torrance   ,2219,#2219,3209 W 190th St,CA,90504-5902
Jiffy Lube,Lawrence   ,2220,#2220,2415 Iowa St,KS,66046-4040
Jiffy Lube,Rosemead   ,2224,#2224,9655 Valley Blvd    ,CA,91770-1509
Jiffy Lube,Rancho Cordova,2226,#2226,10265 Folsom Blvd   ,CA,95670-3516
Jiffy Lube,Bremerton  ,2227,#2227,6305 State Highway 303 NE ,WA,98311-3712
Jiffy Lube,La Habra   ,2228,#2228,1200 W La Habra Blvd,CA,90631-5227
Jiffy Lube,Bonney Lake,2229,#2229,19210 State Route 410 E   ,WA,98390-6305
Jiffy Lube,Port Angeles  ,2230,#2230,41 Kemp St  ,WA,98362-8992
Jiffy Lube,Sandy,2231,#2231,37695 Highway 26    ,OR,97055-9313
Jiffy Lube,Seattle    ,2232,#2232,4000 SW Alaska St   ,WA,98116-4529
Jiffy Lube,FALLON     ,2233,#2233,2249 RENO HWY  ,NV,89406-2669
Jiffy Lube,MINDEN     ,2234,#2234,1766 US HIGHWAY 395 N     ,NV,89423-4700
Jiffy Lube,Kenosha    ,2246,#2246,7449 Green Bay Rd   ,WI,53142-3512
Jiffy Lube,Kansas City,2248,#2248,1601 W 75th St ,MO,64114-1550
Jiffy Lube,Nashville  ,2260,#2260,312 White Bridge Road     ,TN,37209-3209
Jiffy Lube,Nashville  ,2263,#2263,1710 Charlotte Ave  ,TN,37203-2908
Jiffy Lube,CLARKSVILLE,2265,#2265,2806 WILMA RUDOLPH BLVD   ,TN,37040-5032
Jiffy Lube,Mesa ,2266,#2266,2062 W Guadalupe Rd ,AZ,85202-7379
Jiffy Lube,Phoenix    ,2269,#2269,2702 E Indian School Rd   ,AZ,85016-6854
Jiffy Lube,Glendale   ,2270,#2270,6111 W Bell Rd ,AZ,85308-3730
Jiffy Lube,Mesa ,2273,#2273,407 E University Dr ,AZ,85203-7923
Jiffy Lube,Nashville  ,2274,#2274,129 Donelson Pike   ,TN,37214-2901
Jiffy Lube,Clarksville,2277,#2277,1646 Fort Campbell Blvd   ,TN,37042-3554
Jiffy Lube,Mesa ,2279,#2279,265 S Power Rd ,AZ,85206-5214
Jiffy Lube,Flagstaff  ,2280,#2280,2740 S Woodlands Village Blvd,AZ,86001-7128
Jiffy Lube,Provo,2282,#2282,836 S University Ave,UT,84601-5826
Jiffy Lube,San Antonio,2290,#2290,4119 Fredericksburg Rd    ,TX,78201-1960
Jiffy Lube,San Antonio,2291,#2291,7862 Callaghan Rd   ,TX,78229-2325
Jiffy Lube,San Antonio,2294,#2294,5921 San Pedro Ave  ,TX,78212-1253
Jiffy Lube,Cypress    ,2298,#2298,13102 Louetta Rd    ,TX,77429-5156
Jiffy Lube,Spring     ,2299,#2299,4835 Louetta Rd,TX,77388-4422
Jiffy Lube,Norman     ,2300,#2300,1203 Alameda St,OK,73071-3006
Jiffy Lube,Edmond     ,2301,#2301,130 E 2nd St,OK,73034-3812
Jiffy Lube,Oklahoma City ,2302,#2302,10900 N May Ave,OK,73120-6202
Jiffy Lube,Warr Acres ,2303,#2303,5824 NW Expressway St     ,OK,73132-5239
Jiffy Lube,Oklahoma City ,2304,#2304,7412 S Pennsylvania Ave   ,OK,73159-3321
Jiffy Lube,NORMAN     ,2305,#2305,1025 24TH AVE NW    ,OK,73069-6365
Jiffy Lube,Alexandria ,2306,#2306,7 Texas Ave ,LA,71301-5452
Jiffy Lube,Pineville  ,2307,#2307,205 Edgewood Dr,LA,71360-5488
Jiffy Lube,Alexandria ,2308,#2308,3837 Alexandria Mall Dr   ,LA,71301-3602
Jiffy Lube,Natchitoches  ,2309,#2309,809 Keyser Ave ,LA,71457-6001
Jiffy Lube,Alexandria ,2310,#2310,4107 Parliament Dr  ,LA,71303-2718
Jiffy Lube,Jupiter    ,2311,#2311,326 W Indiantown Rd ,FL,33458-3534
Jiffy Lube,Acworth    ,2312,#2312,4320 McClure Rd NW  ,GA,30101-3961
Jiffy Lube,Campbell   ,2314,#2314,535 W Hamilton Ave  ,CA,95008-0510
Jiffy Lube,NAMPA,2315,#2315,1130 CALDWELL BLVD  ,ID,83651-1738
Jiffy Lube,BOISE,2316,#2316,1206 BROADWAY AVE   ,ID,83706-3702
Jiffy Lube,BOISE,2317,#2317,3606 W STATE ST,ID,83703-5218
Jiffy Lube,NAMPA,2318,#2318,824 12TH AVE RD,ID,83686-5734
Jiffy Lube,Salt Lake City,2319,#2319,2000 East 3302 South,UT,84109
Jiffy Lube,Lafayette  ,2321,#2321,3363 Mt Diablo Blvd ,CA,94549-4021
Jiffy Lube,Lodi ,2322,#2322,500 E Kettleman Ln  ,CA,95240-5924
Jiffy Lube,Spokane    ,2323,#2323,6309 N Wall St ,WA,99208-4144
Jiffy Lube,Spokane    ,2324,#2324,1414 N Argonne Rd   ,WA,99212-2522
Jiffy Lube,Spokane    ,2325,#2325,1430 N Division St  ,WA,99202-1811
Jiffy Lube,Spokane    ,2327,#2327,13021 E Sprague Ave ,WA,99216-0733
Jiffy Lube,Salt Lake City,2328,#2328,1804 Murray Holladay Rd   ,UT,84117-5124
Jiffy Lube,Salinas    ,2330,#2330,228 N Main St  ,CA,93901-2816
Jiffy Lube,San Jose   ,2332,#2332,2302 Almaden Rd,CA,95125-2108
Jiffy Lube,San Jose   ,2333,#2333,1902 N Capitol Ave  ,CA,95132-1019
Jiffy Lube,Santa Cruz ,2334,#2334,1705 Soquel Ave,CA,95062-1305
Jiffy Lube,Walnut Creek  ,2335,#2335,2190 N Broadway,CA,94596-3717
Jiffy Lube,RIVERSIDE  ,2337,#2337,3693 LA SIERRA AVE  ,CA,92505-3074
Jiffy Lube,Santa Clara,2339,#2339,2795 El Camino Real ,CA,95051-3005
Jiffy Lube,Anaheim    ,2340,#2340,2181 W Lincoln Ave  ,CA,92801-5603
Jiffy Lube,MOUNTAIN VIEW ,2342,#2342,1141 W EL CAMINO REAL     ,CA,94040-2517
Jiffy Lube,San Jose   ,2344,#2344,3606 Camden Ave,CA,95124-2927
Jiffy Lube,San Jose   ,2345,#2345,884 Blossom Hill Rd ,CA,95123-1201
Jiffy Lube,San Jose   ,2346,#2346,1030 Saratoga Ave   ,CA,95129-3402
Jiffy Lube,Monterey   ,2350,#2350,2415 Fremont St,CA,93940-6835
Jiffy Lube,Monterey   ,2351,#2351,865 Abrego St  ,CA,93940-3103
Jiffy Lube,Newark     ,2352,#2352,6305 Jarvis Ave,CA,94560-1214
Jiffy Lube,YUBA CITY  ,2353,#2353,1331 BRIDGE ST ,CA,95993-3549
Jiffy Lube,Sacramento ,2354,#2354,3447 Marconi Ave    ,CA,95821-6233
Jiffy Lube,Cupertino  ,2355,#2355,19480 Stevens Creek Blvd  ,CA,95014-2505
Jiffy Lube,Indianapolis  ,2361,#2361,7965 US Highway 31 S,IN,46227-5906
Jiffy Lube,Indianapolis  ,2363,#2363,8175 Allisonville Rd,IN,46250-1780
Jiffy Lube,Indianapolis  ,2364,#2364,3998 S East St ,IN,46227-1329
Jiffy Lube,Indianapolis  ,2366,#2366,7969 Pendleton Pike ,IN,46226-3956
Jiffy Lube,Indianapolis  ,2369,#2369,5444 W 38th St ,IN,46254-2918
Jiffy Lube,Lafayette  ,2370,#2370,3115 South St  ,IN,47904-3042
Jiffy Lube,Indianapolis  ,2371,#2371,1415 W 86th St ,IN,46260-2103
Jiffy Lube,Carmel     ,2373,#2373,1495 Keystone Way   ,IN,46032-3274
Jiffy Lube,Indianapolis  ,2375,#2375,4930 S Emerson Ave  ,IN,46203-5937
Jiffy Lube,Indianapolis  ,2385,#2385,7220 W 10th St ,IN,46241-3564
Jiffy Lube,GREENWOOD  ,2386,#2386,532 S STATE ROAD 135,IN,46142-1336
Jiffy Lube,Indianapolis  ,2388,#2388,5630 Georgetown Rd  ,IN,46254-1512
Jiffy Lube,Kokomo     ,2394,#2394,1226 E Markland Ave ,IN,46901-6223
Jiffy Lube,New Castle ,2395,#2395,1464 S Memorial Dr  ,IN,47362-4903
Jiffy Lube,Muncie     ,2396,#2396,1915 W McGalliard Rd,IN,47304-2212
Jiffy Lube,Greenfield ,2406,#2406,1104 N State St,IN,46140-1206
Jiffy Lube,Goshen     ,2408,#2408,115 W Pike St  ,IN,46526-2847
Jiffy Lube,Greenwood  ,2409,#2409,320 S Emerson Ave   ,IN,46143-1900
Jiffy Lube,Indianapolis  ,2410,#2410,6401 N College Ave  ,IN,46220-1618
Jiffy Lube,Englewood  ,2415,#2415,621 S Main St  ,OH,45322-1538
Jiffy Lube,Anderson   ,2416,#2416,4933 S Scatterfield Rd    ,IN,46013-2911
Jiffy Lube,Noblesville,2417,#2417,2390 Conner St ,IN,46060-3135
Jiffy Lube,CARMEL     ,2420,#2420,14837 N MERIDIAN ST ,IN,46032-1383
Jiffy Lube,Indianapolis  ,2422,#2422,7619 E 96th St ,IN,46256-1010
Jiffy Lube,Elkhart    ,2423,#2423,2021 Cassopolis St  ,IN,46514-3118
Jiffy Lube,Kokomo     ,2426,#2426,3711 S Reed Rd # US31     ,IN,46902-3813
Jiffy Lube,Eaton,2430,#2430,1315 N Barron St    ,OH,45320-1015
Jiffy Lube,Elkhart    ,2431,#2431,1206 N Nappanee St  ,IN,46514-1732
Jiffy Lube,INDIANAPOLIS  ,2433,#2433,7072 EMBLEM DR ,IN,46237-8500
Jiffy Lube,Brownsburg ,2434,#2434,1280 N Green St,IN,46112-9090
Jiffy Lube,LAREDO     ,2439,#2439,1307 E DEL MAR BLVD ,TX,78041-6506
Jiffy Lube,KENSINGTON ,2440,#2440,3825 DUPONT AVE STE C     ,MD,20895-2028
Jiffy Lube,HEPHZIBAH  ,2441,#2441,2506A TOBACCO RD    ,GA,30815-7016
Jiffy Lube,TUCSON     ,2442,#2442,6686 E TANQUE VERDE RD    ,AZ,85715-3814
Jiffy Lube,TUCSON     ,2443,#2443,5710 E 22ND ST ,AZ,85711-5527
Jiffy Lube,TUCSON     ,2445,#2445,3896 N ORACLE RD    ,AZ,85705-3227
Jiffy Lube,TUCSON     ,2446,#2446,3219 N CAMPBELL AVE ,AZ,85719-2304
Jiffy Lube,TUCSON     ,2447,#2447,17 W AJO WAY,AZ,85713-6034
Jiffy Lube,TUCSON     ,2448,#2448,405 W VALENCIA RD   ,AZ,85706-7634
Jiffy Lube,TUCSON     ,2449,#2449,2055 W GRANT RD,AZ,85745-1101
Jiffy Lube,FENTON     ,2450,#2450,1915 HAWKINS RD,MO,63026-2785
Jiffy Lube,AUGUSTA    ,2451,#2451,1642 WALTON WAY,GA,30904-3766
Jiffy Lube,MARTINEZ   ,2452,#2452,216 BOBBY JONES EXPY,GA,30907-3402
Jiffy Lube,AUGUSTA    ,2453,#2453,3346 WRIGHTSBORO RD ,GA,30909-2811
Jiffy Lube,AUGUSTA    ,2454,#2454,2028 WINDSOR SPRING RD    ,GA,30906-4958
Jiffy Lube,Evans,2455,#2455,4405 Washington Rd  ,GA,30809-3801
Jiffy Lube,STATESBORO ,2456,#2456,604 BRANNEN ST ,GA,30458-5103
Jiffy Lube,INDIANAPOLIS  ,2458,#2458,9825 FALL CREEK RD  ,IN,46256-4802
Jiffy Lube,MT PLEASANT,2459,#2459,404 W COLEMAN BLVD  ,SC,29464-3422
Jiffy Lube,CHARLESTON ,2460,#2460,2491 ASHLEY RIVER RD,SC,29414-4601
Jiffy Lube,SUMMERVILLE,2461,#2461,1672 OLD TROLLEY RD ,SC,29485-8279
Jiffy Lube,CHARLESTON ,2463,#2463,5138 ASHLEY PHOSPHATE RD  ,SC,29418-2820
Jiffy Lube,ANCHORAGE  ,2464,#2464,1221 S BRAGAW ST    ,AK,99508-2683
Jiffy Lube,FAIRBANKS  ,2465,#2465,54 COLLEGE RD  ,AK,99701-1706
Jiffy Lube,FAIRBANKS  ,2466,#2466,1780 PEGER RD  ,AK,99709-5172
Jiffy Lube,TAMPA,2469,#2469,16207 N DALE MABRY HWY    ,FL,33618-1338
Jiffy Lube,COLORADO SPRINGS   ,2470,#2470,201 S NEVADA AVE    ,CO,80903-1906
Jiffy Lube,COLORADO SPRINGS   ,2472,#2472,1005 N ACADEMY BLVD ,CO,80909-4401
Jiffy Lube,COLORADO SPRINGS   ,2474,#2474,2310 S ACADEMY BLVD ,CO,80916-2406
Jiffy Lube,COLORADO SPRINGS   ,2475,#2475,3003 N NEVADA AVE   ,CO,80907-5322
Jiffy Lube,AUSTIN     ,2476,#2476,8602 BRODIE LN ,TX,78745-7910
Jiffy Lube,AUSTIN     ,2477,#2477,1111 W WILLIAM CANNON DR  ,TX,78745-5409
Jiffy Lube,AUSTIN     ,2478,#2478,1401 S LAMAR BLVD   ,TX,78704-2390
Jiffy Lube,DUMFRIES   ,2482,#2482,17440 JEFFERSON DAVIS HWY ,VA,22026-2227
Jiffy Lube,MONROE     ,2484,#2484,2105 W ROOSEVELT BLVD     ,NC,28110-2712
Jiffy Lube,PINEVILLE  ,2485,#2485,207 N POLK ST  ,NC,28134-8135
Jiffy Lube,LAS VEGAS  ,2487,#2487,1111 S FORT APACHE RD     ,NV,89117-5460
Jiffy Lube,EVERGREEN  ,2488,#2488,29107 HOTEL WAY,CO,80401-8331
Jiffy Lube,BRADENTON  ,2489,#2489,5220 MANATEE AVE W  ,FL,34209-3741
Jiffy Lube,HENDERSONVILLE,2490,#2490,1600 FOUR SEASONS BLVD    ,NC,28792-2856
Jiffy Lube,LAKEWOOD   ,2491,#2491,1525 S KIPLING PKWY ,CO,80232-6236
Jiffy Lube,YUMA ,2493,#2493,900 S 4TH AVE  ,AZ,85364-3806
Jiffy Lube,POCOMOKE   ,2494,#2494,1242 OCEAN HWY ,MD,21851
Jiffy Lube,REDDING    ,2496,#2496,125 E CYPRESS AVE   ,CA,96002-0141
Jiffy Lube,STOCKTON   ,2497,#2497,4715 WEST LN,CA,95210-3562
Jiffy Lube,MODESTO    ,2498,#2498,3927 MCHENRY AVE    ,CA,95356-1510
Jiffy Lube,SAVANNAH   ,2500,#2500,4679 US HIGHWAY 80 E,GA,31410-2941
Jiffy Lube,ARLINGTON HEIGHTS  ,2501,#2501,215 W RAND RD  ,IL,60004-3144
Jiffy Lube,BOLINGBROOK,2502,#2502,101 BROOK CT,IL,60440-1965
Jiffy Lube,CHICAGO    ,2503,#2503,810 W 31ST ST  ,IL,60608-5829
Jiffy Lube,Cicero     ,2504,#2504,6140 W Ogden Ave    ,IL,60804-3752
Jiffy Lube,NAPERVILLE ,2505,#2505,922 E OGDEN AVE,IL,60563-8606
Jiffy Lube,Naperville ,2506,#2506,944 W 75th St  ,IL,60565-6185
Jiffy Lube,OAK LAWN   ,2507,#2507,6645 W 95TH ST ,IL,60453-2160
Jiffy Lube,PARK FOREST,2508,#2508,2551 WESTERN AVE    ,IL,60466-1411
Jiffy Lube,Romeoville ,2509,#2509,653 N Independence Blvd   ,IL,60446-1366
Jiffy Lube,SCHAUMBURG ,2510,#2510,801 W GOLF RD  ,IL,60194-1327
Jiffy Lube,CAROL STREAM  ,2511,#2511,2222 N MAIN ST ,IL,60188-2410
Jiffy Lube,IOWA CITY  ,2513,#2513,1335 HIGHWAY 1 W    ,IA,52246-4233
Jiffy Lube,WARSAW     ,2515,#2515,314 N DETROIT ST    ,IN,46580-3039
Jiffy Lube,RICHMOND   ,2516,#2516,2993 E MAIN ST ,IN,47374-3545
Jiffy Lube,AMARILLO   ,2518,#2518,7419 SW 34TH AVE    ,TX,79121-1433
Jiffy Lube,AMARILLO   ,2519,#2519,4322 SW 45TH AVE    ,TX,79109-5404
Jiffy Lube,AMARILLO   ,2522,#2522,2801 S GEORGIA ST   ,TX,79109-1932
Jiffy Lube,AMARILLO   ,2523,#2523,1221 ROSS ST,TX,79102-4409
Jiffy Lube,RIVERTON   ,2525,#2525,1625 W 12600 S ,UT,84065-7024
Jiffy Lube,PORTLAND   ,2526,#2526,10227 NE HALSEY ST  ,OR,97220-3952
Jiffy Lube,PORTLAND   ,2527,#2527,521 NE 181ST AVE    ,OR,97230-6701
Jiffy Lube,MILWAUKIE  ,2528,#2528,15168 SE MCLOUGHLIN BLVD  ,OR,97267-2828
Jiffy Lube,OREGON CITY,2529,#2529,19009 S BEAVERCREEK RD    ,OR,97045-9537
Jiffy Lube,HAPPY VALLEY  ,2530,#2530,11965 SE 82ND AVE   ,OR,97086-7712
Jiffy Lube,PORTLAND   ,2531,#2531,13425 NW CORNELL RD ,OR,97229-5819
Jiffy Lube,BEAVERTON  ,2532,#2532,11150 SW BEAVERTON HILLSDALE HWY  ,OR,97005-3006
Jiffy Lube,EUGENE     ,2533,#2533,340 COBURG RD  ,OR,97401-5517
Jiffy Lube,WINCHESTER ,2534,#2534,783 MAIN ST ,MA,01890-1905
Jiffy Lube,IDAHO FALLS,2535,#2535,185 S WOODRUFF AVE  ,ID,83401-4319
Jiffy Lube,IDAHO FALLS,2536,#2536,570 PANCHERI DR,ID,83402-3960
Jiffy Lube,TWIN FALLS ,2537,#2537,947 BLUE LAKES BLVD N     ,ID,83301-3302
Jiffy Lube,TWIN FALLS ,2538,#2538,2362 ADDISON AVE E  ,ID,83301-6746
Jiffy Lube,MODESTO    ,2539,#2539,1701 YOSEMITE BLVD  ,CA,95354-2845
Jiffy Lube,BOISE,2540,#2540,8018 W FAIRVIEW AVE ,ID,83704-8423
Jiffy Lube,BOISE,2541,#2541,1484 S WEIDEMAN AVE ,ID,83709-1450
Jiffy Lube,CARSON CITY,2542,#2542,3212 S CARSON ST    ,NV,89701-5563
Jiffy Lube,SPARKS     ,2543,#2543,1305 SULLIVAN LN    ,NV,89431-2806
Jiffy Lube,RENO ,2544,#2544,695 KEYSTONE AVE    ,NV,89503-4102
Jiffy Lube,SPARKS     ,2546,#2546,215 E PRATER WAY    ,NV,89431-4674
Jiffy Lube,RENO ,2547,#2547,6006 S VIRGINIA ST  ,NV,89502-6026
Jiffy Lube,IDAHO FALLS,2548,#2548,1546 W BROADWAY ST  ,ID,83402-2634
Jiffy Lube,BLACKFOOT  ,2549,#2549,933 MARKET ST  ,ID,83221-1618
Jiffy Lube,BOISE,2550,#2550,5007 OVERLAND RD    ,ID,83705-2633
Jiffy Lube,LA PORTE   ,2551,#2551,512 J ST    ,IN,46350-5410
Jiffy Lube,Spokane Valley,2552,#2552,510 N SULLIVAN RD   ,WA,99037-8531
Jiffy Lube,CRAWFORDSVILLE,2554,#2554,1504 S WASHINGTON ST,IN,47933-3813
Jiffy Lube,HERMITAGE  ,2556,#2556,5020 OLD HICKORY BLVD     ,TN,37076-2566
Jiffy Lube,ELGIN,2557,#2557,445 S MCLEAN BLVD   ,IL,60123-7101
Jiffy Lube,Chesterton ,2560,#2560,802 Ahrens Rd  ,IN,46304-1671
Jiffy Lube,WEST SPRINGFIELD   ,2561,#2561,788 MEMORIAL AVE    ,MA,01089-3514
Jiffy Lube,FEEDING HILLS ,2562,#2562,1210 SPRINGFIELD ST ,MA,01030-2119
Jiffy Lube,CHICAGO    ,2565,#2565,1049 W NORTH AVE    ,IL,60622-2565
Jiffy Lube,MONTGOMERY ,2566,#2566,344 MONTGOMERY RD   ,IL,60538-1714
Jiffy Lube,JOLIET     ,2567,#2567,1644 W JEFFERSON ST ,IL,60435-6743
Jiffy Lube,MEDFORD    ,2568,#2568,1729 N RIVERSIDE AVE,OR,97501-4628
Jiffy Lube,CHICAGO    ,2569,#2569,10345 S KEDZIE AVE  ,IL,60655-2015
Jiffy Lube,CORVALLIS  ,2570,#2570,855 NW CIRCLE BLVD  ,OR,97330-1400
Jiffy Lube,ALBANY     ,2571,#2571,450 PACIFIC BLVD SW ,OR,97321-2540
Jiffy Lube,KLAMATH FALLS ,2572,#2572,1730 WASHBURN WAY   ,OR,97603-4358
Jiffy Lube,AUBURN     ,2573,#2573,307 AUBURN WAY S    ,WA,98002-5421
Jiffy Lube,FEDERAL WAY,2574,#2574,32836 PACIFIC HWY S ,WA,98003-6408
Jiffy Lube,Oak Harbor ,2575,#2575,31980 State Route 20,WA,98277-5215
Jiffy Lube,PUYALLUP   ,2576,#2576,12208 MERIDIAN S    ,WA,98373-3420
Jiffy Lube,SEATTLE    ,2577,#2577,13015 LAKE CITY WAY NE    ,WA,98125-4428
Jiffy Lube,SEATTLE    ,2578,#2578,14710 AURORA AVE N  ,WA,98133-6546
Jiffy Lube,SEATTLE    ,2579,#2579,20309 BALLINGER WAY NE    ,WA,98155-1145
Jiffy Lube,REDMOND    ,2580,#2580,17015 AVONDALE WAY  ,WA,98052-4483
Jiffy Lube,Kelso,2581,#2581,1019 Allen St  ,WA,98626-4407
Jiffy Lube,MARYSVILLE ,2582,#2582,8417 STATE AVE ,WA,98270-2901
Jiffy Lube,STANWOOD   ,2583,#2583,7001 265TH ST NW    ,WA,98292-6247
Jiffy Lube,EVERETT    ,2584,#2584,3601 BROADWAY  ,WA,98201-5027
Jiffy Lube,ARLINGTON  ,2585,#2585,17317 SMOKEY POINT BLVD   ,WA,98223-7823
Jiffy Lube,EVERETT    ,2586,#2586,6209 EVERGREEN WAY  ,WA,98203-4533
Jiffy Lube,KNOXVILLE  ,2587,#2587,8031 KINGSTON PIKE  ,TN,37919-5525
Jiffy Lube,KEIZER     ,2588,#2588,4850 RIVER RD N,OR,97303-4538
Jiffy Lube,SALEM,2589,#2589,101 LANCASTER DR NE ,OR,97301-5110
Jiffy Lube,SALEM,2590,#2590,2350 COMMERCIAL ST SE     ,OR,97302-5319
Jiffy Lube,SALEM,2591,#2591,1192 WALLACE RD NW  ,OR,97304-3116
Jiffy Lube,BELLEVUE   ,2592,#2592,14638 BEL RED RD    ,WA,98007-3944
Jiffy Lube,KIRKLAND   ,2593,#2593,12309 NE 85TH ST    ,WA,98033-8034
Jiffy Lube,Kenmore    ,2594,#2594,6744 NE Bothell Way ,WA,98028-4822
Jiffy Lube,WOODINVILLE,2596,#2596,13444 NE 175TH ST   ,WA,98072-8501
Jiffy Lube,FEDERAL WAY,2597,#2597,30509 PACIFIC HWY S ,WA,98003-4817
Jiffy Lube,MILL CREEK ,2598,#2598,13212 BOTHELL EVERETT HWY ,WA,98012-5507
Jiffy Lube,RENTON     ,2599,#2599,17642 108TH AVE SE  ,WA,98055-6451
Jiffy Lube,LAKE WORTH ,2602,#2602,4601 HYPOLUXO RD    ,FL,33463-7510
Jiffy Lube,BOYNTON BEACH ,2603,#2603,1620 S CONGRESS AVE ,FL,33426-6544
Jiffy Lube,WEST PALM BEACH    ,2605,#2605,2945 NORTHLAKE BLVD ,FL,33403-1909
Jiffy Lube,LAKE WORTH ,2606,#2606,4000 S MILITARY TRL ,FL,33463-4616
Jiffy Lube,BOCA RATON ,2607,#2607,23193 SANDALFOOT PLAZA DR ,FL,33428-6626
Jiffy Lube,MIAMI,2609,#2609,8295 BISCAYNE BLVD  ,FL,33138-4154
Jiffy Lube,MARYSVILLE ,2610,#2610,229 E ST    ,CA,95901-5922
Jiffy Lube,BEND ,2613,#2613,525 SE 3RD ST  ,OR,97702-1661
Jiffy Lube,DETROIT LAKES ,2614,#2614,1127 HIGHWAY 10 E   ,MN,56501-4215
Jiffy Lube,SPOKANE    ,2615,#2615,7320 N DIVISION ST  ,WA,99208-6528
Jiffy Lube,RICHLAND   ,2621,#2621,421 WILLIAMS BLVD   ,WA,99352-3264
Jiffy Lube,KENNEWICK  ,2622,#2622,3502 W CLEARWATER AVE     ,WA,99336-2729
Jiffy Lube,PASCO,2623,#2623,1816 W COURT ST,WA,99301-3446
Jiffy Lube,KENNEWICK  ,2624,#2624,7201 W CANAL DR,WA,99336-7676
Jiffy Lube,HERMISTON  ,2626,#2626,345 N 1ST ST,OR,97838-1853
Jiffy Lube,WALLA WALLA,2627,#2627,1744 E ISAACS AVE   ,WA,99362-2208
Jiffy Lube,WENATCHEE  ,2628,#2628,920 N MISSION ST    ,WA,98801-1555
Jiffy Lube,WENATCHEE  ,2629,#2629,746 S MISSION ST    ,WA,98801-3052
Jiffy Lube,PUYALLUP   ,2630,#2630,3912 S MERIDIAN,WA,98373-3629
Jiffy Lube,SEATTLE    ,2631,#2631,6816 S 180TH ST,WA,98188-4806
Jiffy Lube,CHARLOTTE  ,2632,#2632,7024 E WT HARRIS BLVD     ,NC,28215-4138
Jiffy Lube,North Salt Lake    ,2636,#2636,989 N Highway 89    ,UT,84054-1929
Jiffy Lube,BLOOMINGTON,2638,#2638,2621 E 3RD ST  ,IN,47401-5396
Jiffy Lube,COLUMBUS   ,2639,#2639,2480 N NATIONAL RD  ,IN,47201-3734
Jiffy Lube,TOOELE     ,2642,#2642,21 W 1280 N ,UT,84074-8978
Jiffy Lube,ST GEORGE  ,2643,#2643,1287 W SUNSET BLVD  ,UT,84770-4845
Jiffy Lube,SHOW LOW   ,2644,#2644,141 N WHITE MOUNTAIN RD   ,AZ,85901-5248
Jiffy Lube,OROVILLE   ,2645,#2645,1450 ORO DAM BLVD E ,CA,95965-5886
Jiffy Lube,FISHERS    ,2647,#2647,11564 ALLISONVILLE RD     ,IN,46038-1846
Jiffy Lube,CARSON CITY,2648,#2648,2901 N CARSON ST    ,NV,89706-0173
Jiffy Lube,CHANDLER   ,2649,#2649,1075 W PARKLANE BLVD,AZ,85224-5211
Jiffy Lube,MASHPEE    ,2650,#2650,60 FALMOUTH RD ,MA,02649-2721
Jiffy Lube,FREEPORT   ,2655,#2655,440 E SOUTH ST ,IL,61032-9673
Jiffy Lube,DIXON,2656,#2656,801 N GALENA AVE    ,IL,61021-1518
Jiffy Lube,LEHI ,2657,#2657,116 S 850 E ,UT,84043-3447
Jiffy Lube,FULTON     ,2658,#2658,1403 N  BLUFF ST    ,MO,65251-2349
Jiffy Lube,ALGONQUIN  ,2659,#2659,2361 W ALGONQUIN RD ,IL,60102-9404
Jiffy Lube,FRUITLAND  ,2660,#2660,903 NW 16TH ST ,ID,83619-2256
Jiffy Lube,MERIDIAN   ,2661,#2661,360 E FAIRVIEW AVE  ,ID,83642-1736
Jiffy Lube,LEWISTON   ,2662,#2662,1909 19TH AVE  ,ID,83501-4058
Jiffy Lube,LEWISTON   ,2663,#2663,334 THAIN RD,ID,83501-5337
Jiffy Lube,CLARKSTON  ,2664,#2664,501 BRIDGE ST  ,WA,99403-1932
Jiffy Lube,LAS VEGAS  ,2665,#2665,3420 S RAINBOW BLVD ,NV,89146-6599
Jiffy Lube,LAS VEGAS  ,2666,#2666,4310 E CHARLESTON BLVD    ,NV,89104-2368
Jiffy Lube,LAS VEGAS  ,2667,#2667,333 S DECATUR BLVD  ,NV,89107-2803
Jiffy Lube,HENDERSON  ,2668,#2668,2583 WINDMILL PKWY  ,NV,89074-5358
Jiffy Lube,CASA GRANDE,2669,#2669,1509 E FLORENCE BLVD,AZ,85222-5330
Jiffy Lube,Woodbury   ,2670,#2670,1480 WEIR DR STE 500,MN,55125-2144
Jiffy Lube,OAK PARK   ,2675,#2675,6845 NORTH AVE ,IL,60302-1023
Jiffy Lube,BRISTOL    ,2676,#2676,1116 VOLUNTEER PKWY ,TN,37620-4620
Jiffy Lube,JACKSONVILLE  ,2677,#2677,1111 VETERANS DR    ,IL,62650-4019
Jiffy Lube,COLORADO SPRINGS   ,2678,#2678,3020 N POWERS BLVD  ,CO,80922-2803
Jiffy Lube,GILBERT    ,2679,#2679,670 W RAY RD,AZ,85233-8407
Jiffy Lube,PALMDALE   ,2680,#2680,1040 W RANCHO VISTA BLVD  ,CA,93551-3932
Jiffy Lube,LAKE ELSINORE ,2681,#2681,311 SUMMERHILL DR   ,CA,92532-0301
Jiffy Lube,NEW BERN   ,2682,#2682,1921 S GLENBURNIE RD,NC,28562-5225
Jiffy Lube,CARY ,2683,#2683,400 WESTON PKWY,NC,27513-2429
Jiffy Lube,ASHBURN    ,2687,#2687,43910 FARMWELL HUNT PLZ   ,VA,20147-5827
Jiffy Lube,LONG BEACH ,2688,#2688,4155 LONG BEACH BLVD,CA,90807-2651
Jiffy Lube,RICHMOND   ,2689,#2689,1107 AZALEA AVE,VA,23227-3411
Jiffy Lube,RICHMOND   ,2690,#2690,3820 STILLMAN PKWY  ,VA,23233-1445
Jiffy Lube,HAMPTON    ,2691,#2691,82 W MERCURY BLVD   ,VA,23669-2572
Jiffy Lube,RICHMOND   ,2692,#2692,9215 QUIOCCASIN RD  ,VA,23229-5425
Jiffy Lube,WILLIAMSBURG  ,2705,#2705,317 2ND ST  ,VA,23185-4527
Jiffy Lube,GILBERT    ,2706,#2706,931 S VAL VISTA DR #102   ,AZ,85296-3798
Jiffy Lube,SHIRLEY    ,2707,#2707,882 MONTAUK HWY,NY,11967-2126
Jiffy Lube,RICHMOND   ,2708,#2708,1190 N LABURNUM AVE ,VA,23223-2729
Jiffy Lube,Blaine     ,2710,#2710,12403 ULYSSES ST NE ,MN,55434-3940
Jiffy Lube,MERRILLVILLE  ,2711,#2711,9301 BROADWAY  ,IN,46410-7051
Jiffy Lube,PITTSBURGH ,2712,#2712,2854 BANKSVILLE RD  ,PA,15216-2816
Jiffy Lube,PALM DESERT,2713,#2713,42275 WASHINGTON ST ,CA,92211-8023
Jiffy Lube,LYNNWOOD   ,2714,#2714,12515 MUKILTEO SPEEDWAY   ,WA,98037-1532
Jiffy Lube,MAGNA,2715,#2715,3444 S 7200 WEST ST ,UT,84044
Jiffy Lube,DIAMOND BAR,2716,#2716,2845 S DIAMOND BAR BLVD   ,CA,91765-3418
Jiffy Lube,RALEIGH    ,2719,#2719,10840 WAKEFIELD COMMONS DR,NC,27614-6819
Jiffy Lube,GREENVILLE ,2721,#2721,645 S MEMORIAL DR   ,NC,27834-2856
Jiffy Lube,GREENVILLE ,2722,#2722,101 SE Greenville Blvd.   ,NC,27858-5707
Jiffy Lube,FAYETTEVILLE  ,2723,#2723,2909 RAEFORD RD,NC,28303-5439
Jiffy Lube,FAYETTEVILLE  ,2724,#2724,300 N MCPHERSON CHURCH RD ,NC,28303-4406
Jiffy Lube,CARY ,2726,#2726,1810 WALNUT ST ,NC,27512
Jiffy Lube,CARY ,2727,#2727,1401 KILDAIRE FARM RD     ,NC,27511-5527
Jiffy Lube,RALEIGH    ,2728,#2728,8207 CREEDMOOR RD   ,NC,27613-1372
Jiffy Lube,RALEIGH    ,2729,#2729,7210 SIX FORKS RD   ,NC,27615-6159
Jiffy Lube,RALEIGH    ,2730,#2730,3817 CAPITAL BLVD   ,NC,27604-3409
Jiffy Lube,RALEIGH    ,2731,#2731,5929 GLENWOOD AVE   ,NC,27612-6223
Jiffy Lube,DURHAM     ,2733,#2733,4904 NC HIGHWAY 55  ,NC,27713-9416
Jiffy Lube,DURHAM     ,2734,#2734,4335 N ROXBORO RD   ,NC,27704-1827
Jiffy Lube,DURHAM     ,2735,#2735,1917 N ROXBORO RD   ,NC,27704-4336
Jiffy Lube,APEX ,2736,#2736,1200 LAURA VILLAGE RD     ,NC,27502-7140
Jiffy Lube,WAKE FOREST,2738,#2738,950 DURHAM RD  ,NC,27587-6284
Jiffy Lube,CLAYTON    ,2739,#2739,10141 US 70 Bus Hwy W     ,NC,27520-2649
Jiffy Lube,GOLDSBORO  ,2740,#2740,2516 E ASH ST  ,NC,27530
Jiffy Lube,GARNER     ,2741,#2741,1537 US HIGHWAY 70 W,NC,27529-2555
Jiffy Lube,JACKSONVILLE  ,2742,#2742,452 WESTERN BLVD    ,NC,28546-6818
Jiffy Lube,FUQUAY VARINA ,2743,#2743,1225 N MAIN ST ,NC,27526-2616
Jiffy Lube,MONROE     ,2745,#2745,2602 FERRAND ST,LA,71201-3213
Jiffy Lube,RUSTON     ,2746,#2746,916 N TRENTON ST    ,LA,71270-3328
Jiffy Lube,CLARKSVILLE,2747,#2747,5816 Clarksville Square Drive,MD,21029
Jiffy Lube,WICHITA    ,2749,#2749,5550 S BROADWAY ST  ,KS,67216-3727
Jiffy Lube,WICHITA    ,2750,#2750,2220 N RIDGE RD,KS,67205-1053
Jiffy Lube,WICHITA    ,2751,#2751,5201 E CENTRAL AVE  ,KS,67208-4112
Jiffy Lube,NASHVILLE  ,2752,#2752,7093 OLD HARDING RD ,TN,37221-2805
Jiffy Lube,TUMWATER   ,2754,#2754,5101 CAPITOL BLVD S ,WA,98501-4415
Jiffy Lube,EDGEWOOD   ,2755,#2755,823 MERIDIAN AVE E  ,WA,98371-1069
Jiffy Lube,RENTON     ,2758,#2758,3933 NE 4TH ST ,WA,98056-4104
Jiffy Lube,BAKERSFIELD,2759,#2759,3727 AUBURN ST ,CA,93306-2765
Jiffy Lube,TEHACHAPI  ,2760,#2760,550 TUCKER RD  ,CA,93561-2507
Jiffy Lube,MERCED     ,2761,#2761,200 E YOSEMITE AVE  ,CA,95340-9130
Jiffy Lube,AUGUSTA    ,2762,#2762,2734 WASHINGTON RD  ,GA,30909-2218
Jiffy Lube,MERCED     ,2763,#2763,1440 V ST   ,CA,95340-5633
Jiffy Lube,ATWATER    ,2764,#2764,2679 FIRST ST  ,CA,95301-2906
Jiffy Lube,PHILADELPHIA  ,2765,#2765,1600 COTTMAN AVE    ,PA,19111-3401
Jiffy Lube,TWIN FALLS ,2766,#2766,142 WASHINGTON ST N ,ID,83301-5033
Jiffy Lube,COLORADO SPRINGS   ,2767,#2767,4470 CENTENNIAL BLVD,CO,80907-3703
Jiffy Lube,BURKE,2770,#2770,5653 BURKE CENTRE PKWY    ,VA,22015-2228
Jiffy Lube,ORANGE PARK,2771,#2771,1548 PARK AVE  ,FL,32073-4910
Jiffy Lube,RESEDA     ,2772,#2772,7558 N RESEDA BLVD  ,CA,91335-2820
Jiffy Lube,VAN NUYS   ,2774,#2774,15300 VICTORY BLVD  ,CA,91406-6235
Jiffy Lube,GREENSBORO ,2775,#2775,4505 W MARKET ST    ,NC,27407-1229
Jiffy Lube,GREENSBORO ,2776,#2776,2938 RANDLEMAN RD   ,NC,27406-6630
Jiffy Lube,GREENSBORO ,2777,#2777,2625 BATTLEGROUND AVE     ,NC,27408-4005
Jiffy Lube,WINSTON SALEM ,2778,#2778,1002 S STRATFORD RD ,NC,27103-3206
Jiffy Lube,YUMA ,2780,#2780,790 E 32ND ST  ,AZ,85365-3435
Jiffy Lube,PEARLAND   ,2781,#2781,3021 BROADWAY ST    ,TX,77581-4510
Jiffy Lube,ORANGE PARK,2783,#2783,1585B ISLAND LN,FL,32003
Jiffy Lube,MIDDLEBURG ,2784,#2784,2692 BLANDING BLVD  ,FL,32068-5171
Jiffy Lube,CHARLESTON ,2785,#2785,8336 RIVERS AVE,SC,29406-9203
Jiffy Lube,LUTZ ,2786,#2786,21345 STATE ROAD 54 ,FL,33549-6918
Jiffy Lube,CEDAR CITY ,2787,#2787,707 S MAIN ST  ,UT,84720-3571
Jiffy Lube,ALBANY     ,2788,#2788,1755 CENTRAL AVE    ,NY,12205-4733
Jiffy Lube,KINGSTON   ,2790,#2790,1091 ULSTER AVE,NY,12401-1337
Jiffy Lube,LINCOLN    ,2791,#2791,3250 O ST   ,NE,68510-1538
Jiffy Lube,CHESTERFIELD  ,2793,#2793,7051 COMMONS PLZ    ,VA,23832-6454
Jiffy Lube,HILTON HEAD ISLAND ,2795,#2795,4 Port Royal Plaza  ,SC,29926-3790
Jiffy Lube,LINDON     ,2796,#2796,625 N STATE ST ,UT,84042-1324
Jiffy Lube,MISSOULA   ,2797,#2797,3621 OLD US HIGHWAY 93    ,MT,59804-7337
Jiffy Lube,STUART     ,2798,#2798,5240 SE FEDERAL HWY ,FL,34997-6631
Jiffy Lube,SEQUIM     ,2800,#2800,651 E WASHINGTON ST ,WA,98382-3813
Jiffy Lube,TUCSON     ,2802,#2802,3938 E SPEEDWAY BLVD,AZ,85712-4518
Jiffy Lube,RED BLUFF  ,2803,#2803,190 MAIN ST ,CA,96080-3817
Jiffy Lube,Wilton     ,2804,#2804,5 Lowes Drive  ,NY,12866
Jiffy Lube,SHERWOOD   ,2807,#2807,15930 SW TUALATIN SHERWOOD RD,OR,97140-8690
Jiffy Lube,LAKE OSWEGO,2808,#2808,17715 BOONES FERRY RD     ,OR,97035-5258
Jiffy Lube,BEAVERTON  ,2809,#2809,20745 SW TUALATIN VALLEY HWY ,OR,97006-1753
Jiffy Lube,Yelm ,2812,#2812,1002 E. Yelm Ave.   ,WA,98597
Jiffy Lube,SPANAWAY   ,2813,#2813,22221 MOUNTAIN HWY E,WA,98387-7501
Jiffy Lube,TOMBALL    ,2814,#2814,28056 STATE HIGHWAY 249   ,TX,77375-6418
Jiffy Lube,BREVARD    ,2815,#2815,941 ASHEVILLE HWY   ,NC,28712-3003
Jiffy Lube,LOS ANGELES,2816,#2816,4777 W PICO BLVD    ,CA,90019-4240
Jiffy Lube,AMERICAN FALLS,2817,#2817,2830 POCATELLO AVE  ,ID,83211-5443
Jiffy Lube,LAS CRUCES ,2821,#2821,2765 N MAIN ST ,NM,88001-1149
Jiffy Lube,CATHEDRAL CITY,2822,#2822,68815 RAMON RD ,CA,92234-3338
Jiffy Lube,INDIO,2823,#2823,81088 US HIGHWAY 111,CA,92201-6664
Jiffy Lube,LA QUINTA  ,2824,#2824,78988 US HIGHWAY 111,CA,92253-2047
Jiffy Lube,KANSAS CITY,2858,#2858,8421 N EVANSTON RD  ,MO,64157-1214
Jiffy Lube,Elk River  ,2859,#2859,18298 Zane Street   ,MN,55330
Jiffy Lube,Cedar City ,2860,#2860,1240 S Sage Dr ,UT,84720
Jiffy Lube,O FALLON   ,2861,#2861,2997 HIGHWAY K ,MO,63366-7862
Jiffy Lube,BOISE,2862,#2862,8401 W FRANKLIN RD  ,ID,83709-0628
Jiffy Lube,TUCSON     ,2863,#2863,1301 W AJO WAY ,AZ,85713-5786
Jiffy Lube,MILLEDGEVILLE ,2864,#2864,147 ROBERSON MILL RD NE   ,GA,31061-4915
Jiffy Lube,DUBLIN     ,2865,#2865,302 CENTRAL DR ,GA,31027-7410
Jiffy Lube,DUBLIN     ,2866,#2866,1907 MARION ST ,GA,31021-2705
Jiffy Lube,LAS VEGAS  ,2867,#2867,4320 S DURANGO DR   ,NV,89147-8627
Jiffy Lube,SPRING HILL,2877,#2877,120 MARINER BLVD    ,FL,34609-5687
Jiffy Lube,ARNOLD     ,2878,#2878,950 RITCHIE HWY.    ,MD,21012-1806
Jiffy Lube,SUGARLAND  ,2879,#2879,20007 US HWY 59,TX,77479
Jiffy Lube,WILLIAMSPORT  ,2880,#2880,1829 E 3RD ST  ,PA,17701-3913
Jiffy Lube,CAMERON PARK  ,2881,#2881,3470 PALMER DR ,CA,95682-8255
Jiffy Lube,ENID ,2883,#2883,4701 W OWEN K GARRIOTT RD ,OK,73703-4638
Jiffy Lube,ASHEVILLE  ,2884,#2884,720 HENDERSONVILLE RD     ,NC,28803-2924
Jiffy Lube,CANON CITY ,2885,#2885,1328 ROYAL GORGE BLVD     ,CO,81212-3838
Jiffy Lube,PORTSMOUTH ,2886,#2886,1817 WOODBURY AVE   ,NH,03801-3228
Jiffy Lube,BRANDON    ,2887,#2887,602 E BRANDON BLVD  ,FL,33511-5421
Jiffy Lube,MOORPARK   ,2888,#2888,797 W LOS ANGELES AVE     ,CA,93021-1756
Jiffy Lube,OMAHA,2889,#2889,3715 N 147TH ST,NE,68116-1473
Jiffy Lube,SAN MARCOS ,2890,#2890,127 LONG ST ,TX,78666-7039
Jiffy Lube,SPRINGVILLE,2892,#2892,1703 WEST 400 SOUTH ,UT,84663-3072
Jiffy Lube,HONOLULU   ,2893,#2893,555 N KING ST  ,HI,96817-4658
Jiffy Lube,QUARTZ HILL,2894,#2894,41948 50TH ST W,CA,93536-2963
Jiffy Lube,SPOKANE    ,2895,#2895,4501 S REGAL ST,WA,99223-7938
Jiffy Lube,KENNEWICK  ,2896,#2896,2802 W 10TH AVE,WA,99336-4637
Jiffy Lube,EVERETT    ,2898,#2898,9801 19TH AVE SE    ,WA,98208-3810
Jiffy Lube,SARASOTA   ,2899,#2899,8624 S TAMIAMI TRL  ,FL,34238-3033
Jiffy Lube,WHITE BEAR LAKE    ,2902,#2902,4561 LAKE AVE  ,MN,55110-3423
Jiffy Lube,STILLWATER ,2903,#2903,1674 MARKET DR ,MN,55082-7575
Jiffy Lube,RICHMOND   ,2906,#2906,5710 W BROAD ST,VA,23230-2616
Jiffy Lube,ZION ,2907,#2907,2000 SHERIDAN RD    ,IL,60099-4119
Jiffy Lube,OLATHE     ,2908,#2908,15305 W 135TH ST    ,KS,66062-1532
Jiffy Lube,GARDNERVILLE  ,2909,#2909,1293 US HIGHWAY 395 N     ,NV,89410-5394
Jiffy Lube,CANYON COUNTRY,2910,#2910,18533 VIA PRINCESSA ,CA,91387-4946
Jiffy Lube,PASO ROBLES,2911,#2911,200 OAK HILL ROAD   ,CA,93446
Jiffy Lube,HOWELL     ,2912,#2912,1010 W FARMS RD,NJ,07731-1259
Jiffy Lube,PLAINFIELD ,2913,#2913,2021 S ROUTE 59,IL,60544-2726
Jiffy Lube,ROYAL PALM BEACH   ,2914,#2914,1203 N STATE ROAD 7 ,FL,33411
Jiffy Lube,THE WOODLANDS ,2915,#2915,6770 WOODLANDS PKWY ,TX,77382-2572
Jiffy Lube,WILLOW STREET ,2916,#2916,2607 WILLOW STREET PIKE N ,PA,17584-9510
Jiffy Lube,ROUND ROCK ,2917,#2917,220 LOUIS HENNA BLVD,TX,78664-7312
Jiffy Lube,WENTZVILLE ,2918,#2918,11 JIFFY ST ,MO,63385-1052
Jiffy Lube,SHAKOPEE   ,2919,#2919,1534 VIERLING DR E  ,MN,55379-8110
Jiffy Lube,PALMDALE   ,2920,#2920,37140 25TH ST E,CA,93550-4106
Jiffy Lube,AUSTIN     ,2921,#2921,8725 BURNET RD ,TX,78757-7007
Jiffy Lube,AUSTIN     ,2922,#2922,10300 N LAMAR BLVD  ,TX,78753-3606
Jiffy Lube,AUSTIN     ,2923,#2923,12212 RANCH ROAD 620 N    ,TX,78750-1074
Jiffy Lube,AUSTIN     ,2924,#2924,2826 BEE CAVES RD   ,TX,78746-5543
Jiffy Lube,AUSTIN     ,2925,#2925,3401 N LAMAR BLVD   ,TX,78705-1115
Jiffy Lube,AUSTIN     ,2926,#2926,3704 SPICEWOOD SPRINGS RD ,TX,78759-8938
Jiffy Lube,WASHINGTON ,2927,#2927,1060 W RED CLIFFS DR,UT,84780-1516
Jiffy Lube,SNOHOMISH  ,2928,#2928,802 AVENUE D,WA,98290-2335
Jiffy Lube,MAPLE VALLEY  ,2929,#2929,24001 SE KENT KANGLEY RD  ,WA,98038-6801
Jiffy Lube,COVINGTON  ,2930,#2930,27125 174th Place SE,WA,98042-4949
Jiffy Lube,SAN FERNANDO  ,2931,#2931,11541 LAUREL CANYON BLVD  ,CA,91340-4115
Jiffy Lube,YUCCA VALLEY  ,2932,#2932,56982 29 PALMS HWY  ,CA,92284-2902
Jiffy Lube,TWENTYNINE PALMS   ,2933,#2933,71617 29 PALMS HWY  ,CA,92277-4306
Jiffy Lube,VIRGINIA BEACH,2935,#2935,3292 VIRGINIA BEACH BLVD  ,VA,23452-5724
Jiffy Lube,READING    ,2936,#2936,4760 PERKIOMEN AVE  ,PA,19606-9521
Jiffy Lube,AUSTIN     ,2937,#2937,9919 MANCHACA RD    ,TX,78748-1319
Jiffy Lube,LAS VEGAS  ,2938,#2938,10157 W CHARLESTON BLVD # 420,NV,89135-1017
Jiffy Lube,FENTON     ,2939,#2939,120 GRAVOIS BLUFFS CIR    ,MO,63026-7712
Jiffy Lube,RENO ,2942,#2942,55 E PATRIOT BLVD   ,NV,89511-1224
Jiffy Lube,LAS CRUCES ,2943,#2943,800 EL PASEO RD,NM,88001-6034
Jiffy Lube,LAS CRUCES ,2944,#2944,1805 E LOHMAN AVE   ,NM,88001-3171
Jiffy Lube,EAST MEADOW,2945,#2945,2327 HEMPSTEAD TPKE ,NY,11554-2027
Jiffy Lube,VALPARAISO ,2947,#2947,355 MORTHLAND DR    ,IN,46383-6482
Jiffy Lube,CEDAR PARK ,2948,#2948,400 N BELL BLVD,TX,78613-2220
Jiffy Lube,MOUNT POCONO  ,2950,#2950,1259 POCONO BLVD    ,PA,18344-1043
Jiffy Lube,ALBUQUERQUE,2951,#2951,9386 COORS BLVD NW  ,NM,87114-4006
Jiffy Lube,Elk Grove  ,2952,#2952,7405 Sheldon Rd,CA,95758
Jiffy Lube,EL DORADO HILLS    ,2953,#2953,4616 POST ST,CA,95762-7102
Jiffy Lube,HINESVILLE ,2954,#2954,715 W OGLETHORPE HWY,GA,31313-4416
Jiffy Lube,MEMPHIS    ,2957,#2957,8475 US HIGHWAY 64  ,TN,38133-4111
Jiffy Lube,MATTESON   ,2958,#2958,20602 CICERO AVENUE ,IL,60443-1656
Jiffy Lube,HILLSBORO  ,2962,#2962,21865 NW IMBRIE DR  ,OR,97124-7349
Jiffy Lube,MEMPHIS    ,2964,#2964,3206 AUSTIN PEAY HWY,TN,38128-4640
Jiffy Lube,PRESCOTT VALLEY    ,2965,#2965,7682 E STATE ROUTE 69     ,AZ,86314-2227
Jiffy Lube,WATERTOWN  ,2966,#2966,84 ARSENAL ST  ,MA,02472-2605
Jiffy Lube,LANCASTER  ,2967,#2967,43750 15TH ST W,CA,93534-4728
Jiffy Lube,HESPERIA   ,2968,#2968,16701 MAIN ST  ,CA,92345-6027
Jiffy Lube,HESPERIA   ,2969,#2969,17177 BEAR VALLEY RD,CA,92345-1811
Jiffy Lube,APPLE VALLEY  ,2970,#2970,18737 US HIGHWAY 18 ,CA,92307-2311
Jiffy Lube,DAVIS,2972,#2972,1625 RESEARCH PARK DR     ,CA,95616-6131
Jiffy Lube,CHARLOTTE  ,2973,#2973,9710 MONROE RD ,NC,28270-1449
Jiffy Lube,LYNCHBURG  ,2974,#2974,20423 TIMBERLAKE RD ,VA,24502-7204
Jiffy Lube,FOREST     ,2975,#2975,17629 FOREST RD,VA,24551-4044
Jiffy Lube,KNOXVILLE  ,2976,#2976,4733 N BROADWAY ST  ,TN,37918-1705
Jiffy Lube,PLYMOUTH   ,2977,#2977,2675 CAMPUS DR ,MN,55441-2612
Jiffy Lube,VICTORVILLE,2981,#2981,15180 BEAR VALLEY RD,CA,92392-8709
Jiffy Lube,CRESTWOOD  ,2982,#2982,14007 CICERO AVE    ,IL,60445-2150
Jiffy Lube,GLENWOOD   ,2983,#2983,18233 S HALSTED ST  ,IL,60425-1056
Jiffy Lube,ALEXANDRIA ,2984,#2984,8540 RICHMOND HWY   ,VA,22309-8514
Jiffy Lube,CULPEPER   ,2985,#2985,560 JAMES MADISON HWY     ,VA,22701-2409
Jiffy Lube,BROKEN ARROW  ,2986,#2986,2111 W WASHINGTON ST,OK,74012-6801
Jiffy Lube,TULSA,2987,#2987,11621 E 31ST ST,OK,74146-1910
Jiffy Lube,TULSA,2988,#2988,4806 S UNION AVE    ,OK,74107-7838
Jiffy Lube,NAPERVILLE ,2992,#2992,5008 ACE LANE  ,IL,60564-8171
Jiffy Lube,PORT ORCHARD  ,2994,#2994,5057 BETHEL RD SE   ,WA,98367-9548
Jiffy Lube,ROCHESTER  ,2995,#2995,2986 41ST ST NW,MN,55901-6899
Jiffy Lube,SAN DIEGO  ,2996,#2996,5813 EL CAJON BLVD  ,CA,92115-3741
Jiffy Lube,MESA ,2998,#2998,1951 N HIGLEY RD    ,AZ,85205-3307
Jiffy Lube,PFLUGERVILLE  ,3000,#3000,1433 WELLS BRANCH PKWY    ,TX,78660-3136
Jiffy Lube,PULLMAN    ,3001,#3001,700 SE BISHOP BLVD  ,WA,99163-5510
Jiffy Lube,EL CAJON   ,3004,#3004,1621 N MAGNOLIA AVE ,CA,92020-1241
Jiffy Lube,HENDERSON  ,3005,#3005,10440 S EASTERN AVE ,NV,89052-3957
Jiffy Lube,HENDERSON  ,3006,#3006,515 MARKS ST,NV,89014-6654
Jiffy Lube,LAS VEGAS  ,3007,#3007,9520 W TROPICANA AVE,NV,89147-8290
Jiffy Lube,CATHEDRAL CITY,3008,#3008,36167 DATE PALM DR  ,CA,92234-1503
Jiffy Lube,PALM DESERT,3009,#3009,72499 FRED WARING DR,CA,92260-8701
Jiffy Lube,CARSON CITY,3010,#3010,3776 US HIGHWAY 395 S     ,NV,89705-6898
Jiffy Lube,NORCO,3011,#3011,2925 HAMNER AVE,CA,92860-1933
Jiffy Lube,VANCOUVER  ,3013,#3013,901 NE 68TH ST ,WA,98665-0501
Jiffy Lube,CHICAGO    ,3017,#3017,1230 S WESTERN AVE  ,IL,60608-1114
Jiffy Lube,WINCHESTER ,3019,#3019,1323 W LEXINGTON AVE,KY,40391-1128
Jiffy Lube,FLORENCE   ,3020,#3020,3206 PINE NEEDLES RD,SC,29501-7907
Jiffy Lube,NORTH HAMPTON ,3021,#3021,27 LAFAYETTE RD,NH,03862-2467
Jiffy Lube,MANCHESTER ,3022,#3022,283 S WILLOW ST,NH,03103-5727
Jiffy Lube,CENTREVILLE,3023,#3023,13821 LEE HWY  ,VA,20121-2414
Jiffy Lube,HOMER GLEN ,3035,#3035,12554 W 159TH ST    ,IL,60491-8378
Jiffy Lube,AUSTIN     ,3036,#3036,5510 S I H 35 BLDG L,TX,78745-3290
Jiffy Lube,INDEPENDENCE  ,3037,#3037,19500 E US HIGHWAY 40     ,MO,64055-5461
Jiffy Lube,Austin     ,3038,#3038,11426 Ranch Rd. 620 North ,TX,78726
Jiffy Lube,Austin     ,3039,#3039,16224 N. FM 620,TX,78717
Jiffy Lube,INDEPENDENCE  ,3040,#3040,2621 S STATE ROUTE 291    ,MO,64057-1281
Jiffy Lube,OLATHE     ,3041,#3041,20015 W 153RD  STREEET    ,KS,66062-9599
Jiffy Lube,AUSTIN     ,3042,#3042,2300 S I H 35  ,TX,78704-4447
Jiffy Lube,SAVAGE     ,3043,#3043,7479 EGAN DR,MN,55378-2209
Jiffy Lube,COLLIERVILLE  ,3044,#3044,1095 W POPLAR AVE   ,TN,38017-3180
Jiffy Lube,HORN LAKE  ,3046,#3046,1652 GOODMAN RD W   ,MS,38637-1413
Jiffy Lube,Cedar Park ,3049,#3049,13000 W. Parmer Lane,TX,78613
Jiffy Lube,QUEENSBURY ,3055,#3055,265 QUAKER RD  ,NY,12804-1729
Jiffy Lube,PORTSMOUTH ,3056,#3056,4030 VICTORY BLVD   ,VA,23701-2820
Jiffy Lube,MADISON    ,3058,#3058,3140 MAPLE VALLEY DR,WI,53719-4300
Jiffy Lube,OLIVE BRANCH  ,3059,#3059,8130 GOODMAN RD,MS,38654-2103
Jiffy Lube,BONNEY LAKE,3062,#3062,18315 STATE ROUTE 410 E   ,WA,98390-8532
Jiffy Lube,CHEHALIS   ,3063,#3063,1660 NW LOUISIANA AVE     ,WA,98532-1711
Jiffy Lube,CLINTON    ,3064,#3064,750 CHARLES G SEIVERS BLVD,TN,37716-3841
Jiffy Lube,OLYMPIA    ,3065,#3065,1515 BLACK LAKE BLVD SW   ,WA,98502-1117
Jiffy Lube,BELLINGHAM ,3066,#3066,2436 E BAKERVIEW RD ,WA,98226-8001
Jiffy Lube,PORT TOWNSEND ,3067,#3067,2099 W SIMS WAY,WA,98368-2264
Jiffy Lube,HIGHLAND   ,3068,#3068,3601 HIGHLAND AVE   ,CA,92346-2635
Jiffy Lube,SNOWFLAKE  ,3075,#3075,520 S MAIN ST  ,AZ,85937-5228
Jiffy Lube,NORTHRIDGE ,3077,#3077,18503 DEVONSHIRE ST ,CA,91324-1308
Jiffy Lube,SNOQUALMIE ,3078,#3078,9036 RAILROAD AVE SE,WA,98065-9640
Jiffy Lube,Kansas City,3079,#3079,13621 Madison Ave   ,MO,64145
Jiffy Lube,FOREST LAKE,3080,#3080,40 19TH ST SW  ,MN,55025-1345
Jiffy Lube,N LAS VEGAS,3081,#3081,5475 CAMINO AL NORTE,NV,89031-7903
Jiffy Lube,SAINT PETERS  ,3082,#3082,501 SALT LICK RD    ,MO,63376-1288
Jiffy Lube,AUSTIN     ,3083,#3083,11219 RANCH ROAD 2222 STE A  ,TX,78730-1038
Jiffy Lube,MAPLEWOOD  ,3084,#3084,3073 WHITE BEAR AVE N     ,MN,55109-1309
Jiffy Lube,HENDERSON  ,3085,#3085,130 S STEPHANIE ST  ,NV,89012-5556
Jiffy Lube,LEMONT     ,3087,#3087,15667 W 127TH ST    ,IL,60439-4471
Jiffy Lube,SAINT CHARLES ,3088,#3088,5940 S HIGHWAY 94   ,MO,63304-5626
Jiffy Lube,KANSAS CITY,3089,#3089,7100 NW 83RD ST,MO,64152-2069
Jiffy Lube,RANCHO CUCAMONGA   ,3090,#3090,12589 FOOTHILL BLVD ,CA,91739-9317
Jiffy Lube,WILSONVILLE,3091,#3091,8815 SW MAIN ST,OR,97070-6628
Jiffy Lube,WILMINGTON ,3092,#3092,520 MAIN ST ,MA,01887-3212
Jiffy Lube,WEST CHICAGO  ,3093,#3093,137 W NORTH AVE,IL,60185-6225
Jiffy Lube,HOUSE SPRINGS ,3096,#3096,4637 GRAVOIS RD,MO,63051-1377
Jiffy Lube,FREDERICKSBURG,3097,#3097,5310 JEFFERSON DAVIS HWY  ,VA,22408-2608
Jiffy Lube,OXNARD     ,3098,#3098,611 S ROSE AVE ,CA,93030-5109
Jiffy Lube,FORT COLLINS  ,3099,#3099,3703 South TIMBERLINE RD  ,CO,80525-3483
Jiffy Lube,HAVERTOWN  ,3122,#3122,20 W TOWNSHIP LINE RD     ,PA,19083-5201
Jiffy Lube,MARION     ,3123,#3123,1150 MOUNT VERNON AVE     ,OH,43302-5646
Jiffy Lube,HEATH,3124,#3124,836 HEBRON RD  ,OH,43056-1356
Jiffy Lube,ZANESVILLE ,3125,#3125,3046 MAPLE AVE ,OH,43701-1409
Jiffy Lube,HILLIARD   ,3126,#3126,3840 MAIN ST,OH,43026-1450
Jiffy Lube,DELAWARE   ,3127,#3127,1163 COLUMBUS PIKE  ,OH,43015-2713
Jiffy Lube,COLUMBUS   ,3128,#3128,900 W 5TH AVE  ,OH,43212-2634
Jiffy Lube,REYNOLDSBURG  ,3129,#3129,6363 TUSSING RD,OH,43068-3985
Jiffy Lube,COLUMBUS   ,3130,#3130,7007 E BROAD ST,OH,43213-1520
Jiffy Lube,LEWIS CENTER  ,3131,#3131,700 POLARIS PKWY    ,OH,43035-9542
Jiffy Lube,CHILLICOTHE,3132,#3132,245 N WOODBRIDGE AVE,OH,45601-2246
Jiffy Lube,BELLEFONTAINE ,3133,#3133,1950 S MAIN ST ,OH,43311-1514
Jiffy Lube,LANCASTER  ,3134,#3134,1250 N MEMORIAL DR  ,OH,43130-1625
Jiffy Lube,FARMINGTON ,3135,#3135,551 E MAIN ST  ,NM,87401-2742
Jiffy Lube,FARMINGTON ,3136,#3136,1721 E 20TH ST ,NM,87401-4309
Jiffy Lube,CALDWELL   ,3137,#3137,1204 CLEVELAND BLVD ,ID,83605-3856
Jiffy Lube,MADISON    ,3138,#3138,1701 EAGAN RD  ,WI,53704-3701
Jiffy Lube,COACHELLA  ,3139,#3139,84765 AVENUE 50,CA,92236-1309
Jiffy Lube,CHICO,3141,#3141,2452 NOTRE DAME BLVD,CA,95928-7136
Jiffy Lube,ELK GROVE  ,3142,#3142,9611 AUTO CENTER DR ,CA,95757-8705
Jiffy Lube,WOODSTOCK  ,3143,#3143,11601 CATALPA LN    ,IL,60098-7629
Jiffy Lube,SAVANNAH   ,3144,#3144,10509 ABERCORN ST   ,GA,31419-1139
Jiffy Lube,NORTH AUGUSTA ,3145,#3145,412 E MARTINTOWN RD ,SC,29841-4263
Jiffy Lube,AUGUSTA    ,3146,#3146,375 S BELAIR RD,GA,30907-8837
Jiffy Lube,CORNELIUS  ,3148,#3148,20116 W CATAWBA AVE ,NC,28031-4010
Jiffy Lube,MOORESVILLE,3149,#3149,300 W PLAZA DR ,NC,28117-6821
Jiffy Lube,GASTONIA   ,3150,#3150,2109 UNION RD  ,NC,28054-6415
Jiffy Lube,ARLINGTON  ,3151,#3151,4148 S FOUR MILE RUN DR   ,VA,22206-1106
Jiffy Lube,NORTHGLENN ,3156,#3156,2125 E 120TH AVE    ,CO,80233-1374
Jiffy Lube,FORT WAYNE ,3157,#3157,10324 MAYSVILLE RD  ,IN,46835-9591
Jiffy Lube,EAGAN,3158,#3158,1570 THOMAS CENTER DR     ,MN,55122-2642
Jiffy Lube,EVERETT    ,3159,#3159,515 91ST AVE NE,WA,98258-2535
Jiffy Lube,ALBUQUERQUE,3161,#3161,5701 4TH ST NW ,NM,87107-5302
Jiffy Lube,ALBUQUERQUE,3162,#3162,3540 COORS BLVD NW  ,NM,87120-1446
Jiffy Lube,ALBUQUERQUE,3163,#3163,3601 NM 528 NW ,NM,87114-8902
Jiffy Lube,ALBUQUERQUE,3164,#3164,4220 SAN MATEO BLVD NE    ,NM,87110-1236
Jiffy Lube,ALBUQUERQUE,3165,#3165,7200 SAN ANTONIO DR NE    ,NM,87109-4885
Jiffy Lube,ALBUQUERQUE,3166,#3166,10508 MENAUL BLVD NE,NM,87112-2410
Jiffy Lube,SANTA FE   ,3167,#3167,3143 CERRILLOS RD   ,NM,87507-2308
Jiffy Lube,RIO RANCHO ,3168,#3168,241 STATE HIGHWAY 528 SE  ,NM,87124-5931
Jiffy Lube,ALBUQUERQUE,3169,#3169,4802 LOMAS BLVD NE  ,NM,87110-6338
Jiffy Lube,ALBUQUERQUE,3170,#3170,8120 LOUISIANA BLVD NE    ,NM,87113-2423
Jiffy Lube,SHREWSBURY ,3171,#3171,512 BOSTON TPKE,MA,01545-5970
Jiffy Lube,ROCKLIN    ,3172,#3172,6070 STANFORD RANCH RD    ,CA,95765-4275
Jiffy Lube,MARYVILLE  ,3173,#3173,305 WHITECREST DR   ,TN,37801-3889
Jiffy Lube,MONROE     ,3174,#3174,19072 TJERNE PL SE  ,WA,98272-1419
Jiffy Lube,DUPONT     ,3175,#3175,995 CENTER DR  ,WA,98327-7735
Jiffy Lube,BASTROP    ,3176,#3176,722 STATE HIGHWAY 71 W    ,TX,78602-3718
Jiffy Lube,LAKEWAY    ,3177,#3177,1601 RANCH ROAD 620 SOUTH ,TX,78734
Jiffy Lube,FIFE ,3178,#3178,4670 PACIFIC HWY E 99     ,WA,98424-2610
Jiffy Lube,O FALLON   ,3179,#3179,4221 HIGHWAY K ,MO,63368-8255
Jiffy Lube,MONTICELLO ,3181,#3181,1100 HWY 25 SOUTH   ,MN,55362
Jiffy Lube,LOUISVILLE ,3183,#3183,5429 NEW CUT RD,KY,40214-4254
Jiffy Lube,SAN BERNARDINO,3184,#3184,4304 UNIVERSITY PKWY,CA,92407-7037
Jiffy Lube,COLTON     ,3185,#3185,1701 E WASHINGTON ST BLDG 100,CA,92324-4618
Jiffy Lube,SAN JACINTO,3186,#3186,635 S STATE ST ,CA,92583-4019
Jiffy Lube,HEMET,3187,#3187,330 N SANDERSON AVE ,CA,92545-4923
Jiffy Lube,DALY CITY  ,3189,#3189,1000 KING DR.  ,CA,94015-4440
Jiffy Lube,HIGHLAND   ,3190,#3190,5248 W 11000 N ,UT,84003-9572
Jiffy Lube,PHOENIX    ,3191,#3191,9010 W THOMAS RD    ,AZ,85037-3234
Jiffy Lube,PEORIA     ,3192,#3192,8941 W UNION HILLS DR     ,AZ,85382-8666
Jiffy Lube,LAS VEGAS  ,3193,#3193,7215 S DURANGO DR   ,NV,89113-2098
Jiffy Lube,HUTTO,3195,#3195,526 HIGHWAY 79 ,TX,78634-5336
Jiffy Lube,OMAHA,3196,#3196,18240 WRIGHT ST,NE,68130-2883
Jiffy Lube,GAINESVILLE,3197,#3197,7441 Hillwood Drive ,VA,20155-3631
Jiffy Lube,CALIFORNIA ,3198,#3198,22781 THREE NOTCH ROAD    ,MD,20619
Jiffy Lube,FRESNO     ,3200,#3200,5316 W SPRUCE AVE   ,CA,93722-2344
Jiffy Lube,YORKVILLE  ,3201,#3201,1845 MARKETVIEW DR  ,IL,60560-1848
Jiffy Lube,ROSAMOND   ,3202,#3202,3100 SIERRA HWY,CA,93560-7354
Jiffy Lube,RENO ,3203,#3203,1230 N MCCARRAN BLVD,NV,89512-4070
Jiffy Lube,AMMON,3204,#3204,2523 E SUNNYSIDE RD ,ID,83406-7542
Jiffy Lube,HERRIMAN   ,3211,#3211,13154 South 5600 West     ,UT,84096
Jiffy Lube,MOCKSVILLE ,3212,#3212,1125 YADKINVILLE RD ,NC,27028-2042
Jiffy Lube,OAK LAWN   ,3215,#3215,5807 W 95TH ST ,IL,60453-2371
Jiffy Lube,IRMO ,3216,#3216,1069 LAKE MURRAY BLVD     ,SC,29063-2824
Jiffy Lube,ZANESVILLE ,3217,#3217,1103 LINDEN AVE,OH,43701-2907
Jiffy Lube,FOUNTAIN   ,3219,#3219,6630 CAMDEN BLVD    ,CO,80817-2505
Jiffy Lube,SANTA FE   ,3221,#3221,67 OGO WII  ,NM,87506-0922
Jiffy Lube,COLORADO SPRINGS   ,3222,#3222,5838 TUTT BLVD ,CO,80922-3587
Jiffy Lube,LOUISVILLE ,3223,#3223,1408 HECLA WAY ,CO,80027-2300
Jiffy Lube,SURPRISE   ,3224,#3224,16875 N REEMS RD    ,AZ,85374-7468
Jiffy Lube,PEYTON     ,3225,#3225,7535 MCLAUGHLIN RD  ,CO,80831-4717
Jiffy Lube,RENO ,3227,#3227,1030 N HILLS BLVD   ,NV,89506-6744
Jiffy Lube,MEMPHIS    ,3228,#3228,5171 POPLAR AVE,TN,38117-7611
Jiffy Lube,KAYSVILLE  ,3229,#3229,215 W 200 N STE 300 ,UT,84037-1811
Jiffy Lube,PHOENIX    ,3230,#3230,7836 W LOWER BUCKEYE RD   ,AZ,85043-3442
Jiffy Lube,MESA ,3231,#3231,9257 E GUADALUPE RD ,AZ,85212-2143
Jiffy Lube,THOUSAND OAKS ,3232,#3232,1695 E THOUSAND OAKS BLVD ,CA,91362-2809
Jiffy Lube,PARKER     ,3234,#3234,9991 S TWENTY MILE RD     ,CO,80134-4938
Jiffy Lube,ARVADA     ,3235,#3235,15230 W 64TH AVE    ,CO,80007-7511
Jiffy Lube,LAKE SAINT LOUIS   ,3237,#3237,6207 RONALD REAGAN DR     ,MO,63367-2663
Jiffy Lube,BOERNE     ,3238,#3238,1345 S MAIN ST ,TX,78006-2821
Jiffy Lube,MERIDIAN   ,3240,#3240,1645 S. SPRINGVALLEY LANE ,ID,83642
Jiffy Lube,LINCOLN    ,3241,#3241,8500 AMBER HILL CT  ,NE,68502
Jiffy Lube,SYLMAR     ,3242,#3242,15000 OLIVE VIEW DR ,CA,91342
Jiffy Lube,NORTHRIDGE ,3243,#3243,9500 RESEDA BLVD    ,CA,91324-2305
Jiffy Lube,OCEANSIDE  ,3244,#3244,4106 OCEANSIDE BLVD ,CA,92056-6003
Jiffy Lube,FAIRFIELD  ,3245,#3245,1330 HOLIDAY LN,CA,94534-3449
Jiffy Lube,COLUMBIA   ,3247,#3247,5425 FOREST DR ,SC,29206-4922
Jiffy Lube,CORTEZ     ,3248,#3248,720 S BROADWAY ,CO,81321-4009
Jiffy Lube,DURANGO    ,3249,#3249,21558 HIGHWAY 160   ,CO,81303-6807
Jiffy Lube,ALBUQUERQUE,3250,#3250,120 COORS BLVD NW   ,NM,87121-2017
Jiffy Lube,GROVETOWN  ,3251,#3251,5035 WRIGHTSBORO RD ,GA,30813-2843
Jiffy Lube,WEST JORDAN,3252,#3252,7867 S. AIRPORT ROAD,UT,84088-7857
Jiffy Lube,AURORA     ,3253,#3253,2428 W SULLIVAN RD  ,IL,60506-6435
Jiffy Lube,CAMARILLO  ,3264,#3264,55 W. DAILY DR ,CA,93010-5742
Jiffy Lube,FILLMORE   ,3265,#3265,707 W VENTURA ST    ,CA,93015-1834
Jiffy Lube,GEORGETOWN ,3267,#3267,2504 WILLIAMS DR    ,TX,78628-3250
Jiffy Lube,COLUMBIA   ,3268,#3268,3101 PARIS RD  ,MO,65202-2617
Jiffy Lube,SIERRA VISTA  ,3269,#3269,3611 E FRY BLVD,AZ,85635
Jiffy Lube,TULSA,3270,#3270,1435 S LEWIS AVE    ,OK,74104-4644
Jiffy Lube,STURTEVANT ,3271,#3271,7127 DURAND AVE,WI,53177
Jiffy Lube,WEATHERFORD,3272,#3272,1807 S MAIN ST ,TX,76086-5505
Jiffy Lube,FOUNTAIN HILLS,3273,#3273,16741 E SHEA BLVD   ,AZ,85268-6668
Jiffy Lube,TULSA,3274,#3274,5005 S SHERIDAN RD  ,OK,74129
Jiffy Lube,REDMOND    ,3275,#3275,907 NW 6TH ST  ,OR,97756-1404
Jiffy Lube,VERNON HILLS  ,3276,#3276,840 S MILWAUKEE AVENUE    ,IL,60061
Jiffy Lube,APPLE VALLEY  ,3277,#3277,20754 BEAR VALLEY RD,CA,92308-6950
Jiffy Lube,LAKE CHARLES  ,3278,#3278,3503 GERSTNER MEMORIAL BLVD  ,LA,70607-3244
Jiffy Lube,LAKE CHARLES  ,3279,#3279,1201 GERTSNER MEMORIAL DR ,LA,70601-4851
Jiffy Lube,SULPHUR    ,3281,#3281,1911 RUTH ST,LA,70663-6705
Jiffy Lube,MONCKS CORNER ,3282,#3282,110-B South HIGHWAY 52    ,SC,29461-3954
Jiffy Lube,ANDERSON   ,3284,#3284,1118 S SCATTERFIELD RD    ,IN,46012-4237
Jiffy Lube,CHUBBUCK   ,3285,#3285,4674 YELLOWSTONE AVE,ID,83202-2339
Jiffy Lube,SPRING     ,3286,#3286,185 CYPRESSWOOD DR  ,TX,77388-6038
Jiffy Lube,DUVALL     ,3287,#3287,26310 NE Big Rock Road    ,WA,98019-8498
Jiffy Lube,GRAND PRAIRIE ,3288,#3288,3030 W CAMP WISDOM RD     ,TX,75052-4462
Jiffy Lube,CASA GRANDE,3293,#3293,304 W FLORENCE BLVD ,AZ,85222-3930
Jiffy Lube,PERRIS     ,3294,#3294,118  E. RAMONA EXPY ,CA,92571-7458
Jiffy Lube,MADISON    ,3295,#3295,15 JUNCTION CT ,WI,53717-2159
Jiffy Lube,BRADENTON  ,3296,#3296,3101 1ST ST ,FL,34208-4052
Jiffy Lube,AUGUSTA    ,3303,#3303,101 BELLEWOOD DR    ,GA,30907-2907
Jiffy Lube,ONTARIO    ,3304,#3304,2560 S VINEYARD AVE ,CA,91761-6481
Jiffy Lube,SAN ANTONIO,3305,#3305,6603 FM HIGHWAY 78  ,TX,78244
Jiffy Lube,SAN ANTONIO,3306,#3306,13803 NACOGDOCHES RD,TX,78217-1281
Jiffy Lube,FORNEY     ,3307,#3307,505 N. FM 548  ,TX,75126
Jiffy Lube,HOUSTON    ,3308,#3308,6330 WEST RD,TX,77086-3248
Jiffy Lube,HOUSTON    ,3309,#3309,14450 HILLCROFT AVE ,TX,77085
Jiffy Lube,PLANO,3310,#3310,4144 W SPRING CREEK PARKWAY  ,TX,75093
Jiffy Lube,DESERT HOT SPRINGS ,3312,#3312,13418 PALM DR  ,CA,92240-5908
Jiffy Lube,CHANTILLY  ,3314,#3314,42559 JOHN MOSBY HWY STE 100 ,VA,20152-4251
Jiffy Lube,FRONT ROYAL,3315,#3315,220 SOUTH ST,VA,22630-2112
Jiffy Lube,BIXBY,3316,#3316,11800 S MEMORIAL DR ,OK,74008-2028
Jiffy Lube,HARRISVILLE,3317,#3317,609 N HARRISVILLE RD,UT,84404-3533
Jiffy Lube,LEHI ,3318,#3318,284 E STATE ROAD 73 ,UT,84043-2966
Jiffy Lube,MARION     ,3319,#3319,3075 S WESTERN AVE  ,IN,46953-3963
Jiffy Lube,SPRING     ,3320,#3320,6518 FM 2920 RD,TX,77379-2612
Jiffy Lube,OMAHA,3321,#3321,4104 S 84TH STREET  ,NE,68127-1704
Jiffy Lube,CHANDLER   ,3323,#3323,245 W OCOTILLO RD   ,AZ,85248
Jiffy Lube,GALT ,3324,#3324,10340 TWIN CITIES RD,CA,95632-9043
Jiffy Lube,CHANDLER   ,3327,#3327,7160 W CHANDLER BLVD,AZ,85226-3213
Jiffy Lube,INDIANAPOLIS  ,3328,#3328,6275 N KEYSTONE AVE ,IN,46220-2154
Jiffy Lube,INDIANAPOLIS  ,3329,#3329,10520 E WASHINGTON ST     ,IN,46229-2610
Jiffy Lube,AVON ,3330,#3330,7825 E US HIGHWAY 36,IN,46123-7174
Jiffy Lube,CARMEL     ,3331,#3331,1840 E 151ST ST,IN,46033-7732
Jiffy Lube,ROSEBURG   ,3333,#3333,250 NE GARDEN VALLEY BLVD STE A   ,OR,97470-5105
Jiffy Lube,GRANTS PASS,3334,#3334,305 SE G ST ,OR,97526-3034
Jiffy Lube,SYRACUSE   ,3335,#3335,1129 W 1700 S  ,UT,84075-9132
Jiffy Lube,ELK GROVE  ,3336,#3336,9170 KLAAGE CT ,CA,95758-7125
Jiffy Lube,PEARLAND   ,3337,#3337,8525 BROADWAY ST    ,TX,77584-7717
Jiffy Lube,SURFSIDE BEACH,3338,#3338,920 HIGHWAY 17 N    ,SC,29575-6019
Jiffy Lube,NORTH MYRTLE BEACH ,3339,#3339,1551 HIGHWAY 17 N   ,SC,29582-2553
Jiffy Lube,MYRTLE BEACH  ,3340,#3340,1952 10TH AVE N,SC,29577-5624
Jiffy Lube,CONWAY     ,3341,#3341,1711 CHURCH ST ,SC,29526-2965
Jiffy Lube,MURRELLS INLET,3342,#3342,3619 HIGHWAY 17 BYPASS    ,SC,29576-5004
Jiffy Lube,CONWAY     ,3343,#3343,255 SINGLETON RIDGE RD    ,SC,29526-9136
Jiffy Lube,RIVERTON   ,3346,#3346,13318 SOUTH MARKET CENTER DR ,UT,84065-8017
Jiffy Lube,CHARLOTTESVILLE    ,3347,#3347,1245 SEMINOLE TRL   ,VA,22901-1739
Jiffy Lube,EAGLE,3352,#3352,1516 E STATE ST,ID,83616-6008
Jiffy Lube,PEORIA     ,3354,#3354,9113 N. 91ST AVENUE ,AZ,85345-8395
Jiffy Lube,ASHLAND    ,3356,#3356,10381 SLIDING HILL RD     ,VA,23005-8212
Jiffy Lube,MORGAN HILL,3358,#3358,17010 WALNUT GROVE DRIVE  ,CA,95037-4437
Jiffy Lube,PARADISE   ,3359,#3359,6081 CLARK RD  ,CA,95969-4110
Jiffy Lube,CORONA     ,3360,#3360,1600 E ONTARIO AVE  ,CA,92881-3619
Jiffy Lube,PERRIS     ,3361,#3361,3150 CASE RD BLDG J ,CA,92570-5560
Jiffy Lube,APACHE JUNCTION    ,3364,#3364,428 W APACHE TRL    ,AZ,85120-3901
Jiffy Lube,SPARKS     ,3365,#3365,1055 S ROCK BLVD    ,NV,89431-5911
Jiffy Lube,COLUMBIA   ,3377,#3377,4423 HARD SCRABBLE RD     ,SC,29229-9439
Jiffy Lube,MILLERSVILLE  ,3378,#3378,8071 VETERANS HWY   ,MD,21108-1446
Jiffy Lube,FARR WEST  ,3379,#3379,1783 WEST 2700 NORTH,UT,84404-1208
Jiffy Lube,OGDEN,3380,#3380,2381 N. WASHINGTON BLVD.  ,UT,84414-7232
Jiffy Lube,OREM ,3381,#3381,991 S. STATE STREET ,UT,84097-7027
Jiffy Lube,MARION     ,3382,#3382,352 MARION BLVD,IA,52302-3119
Jiffy Lube,AVONDALE   ,3384,#3384,1209 N. DYSART ROAD ,AZ,85323-1501
Jiffy Lube,AVONDALE   ,3385,#3385,115 E. VAN BUREN    ,AZ,85323
Jiffy Lube,PHOENIX    ,3386,#3386,15422 S. MARKET PLACE     ,AZ,85048
Jiffy Lube,CARSON CITY,3389,#3389,1830 E. WILLIAMS STREET   ,NV,89701-3244
Jiffy Lube,VACAVILLE  ,3390,#3390,1013 E. MONTE VISTA AVE   ,CA,95688-3007
Jiffy Lube,LITTLETON  ,3391,#3391,2411 WEST BELLEVIEW AVENUE,CO,80120-1052
Jiffy Lube,ROCK HILL  ,3392,#3392,2688 CHERRY ROAD    ,SC,29730-8957
Jiffy Lube,MEMPHIS    ,3393,#3393,2640 KIRBY WHITTEN RD     ,TN,38133-4718
Jiffy Lube,PINEVILLE  ,3395,#3395,3206 MONROE HWY,LA,71360-8100
Jiffy Lube,MARKSVILLE ,3396,#3396,511 TUNICA DRIVE W  ,LA,71351-2628
Jiffy Lube,VILLE PLATTE  ,3397,#3397,1333 E. MAIN STREET ,LA,70586-4706
Jiffy Lube,ALEXANDRIA ,3398,#3398,5115 MASONIC DRIVE  ,LA,71301-3333
Jiffy Lube,ARLINGTON  ,3399,#3399,1531 S. COOPER STREET     ,TX,76010-4100
Jiffy Lube,ARLINGTON  ,3400,#3400,5855 S. COOPER STREET     ,TX,76017-4445
Jiffy Lube,ARLINGTON  ,3401,#3401,4810 MATLOCK ROAD   ,TX,76018-1010
Jiffy Lube,AZLE ,3402,#3402,11415 FM 730 N ,TX,76020-5043
Jiffy Lube,HURST,3403,#3403,1841 PRECINCT LINE ROAD   ,TX,76054-3132
Jiffy Lube,DUNCANVILLE,3404,#3404,1011 S. CEDAR RIDGE DR.   ,TX,75137-3018
Jiffy Lube,MESQUITE   ,3405,#3405,1019 NEVILLE CT,TX,75150-5739
Jiffy Lube,PAPILLION  ,3406,#3406,925 N. ADAMS STREET ,NE,68046-3020
Jiffy Lube,OMAHA,3407,#3407,2705 S. 114TH STREET,NE,68144-4723
Jiffy Lube,OMAHA,3408,#3408,10935 EMMET STREET  ,NE,68164-2912
Jiffy Lube,LINCOLN    ,3409,#3409,2615 FAIRFIELD STREET     ,NE,68521-1306
Jiffy Lube,LINCOLN    ,3410,#3410,4800 OLD CHANEY RD  ,NE,68516-3139
Jiffy Lube,LINCOLN    ,3411,#3411,5111 O STREET  ,NE,68510-1954
Jiffy Lube,WILDOMAR   ,3412,#3412,32374 CLINTON KEITH ROAD  ,CA,92595
Jiffy Lube,HAGERSTOWN ,3413,#3413,1648 WESEL BLVD.    ,MD,21740-5387
Jiffy Lube,COLUMBIA FALLS,3414,#3414,804 9TH STREET WEST ,MT,59912-3825
Jiffy Lube,WHITE CITY ,3415,#3415,7629 CRATER LAKE HWY,OR,97503-1665
Jiffy Lube,VALRICO    ,3416,#3416,3526 BELL SHOALS ROAD     ,FL,33596-6141
Jiffy Lube,WESTFIELD  ,3417,#3417,90A S. MAPLE STREET ,MA,01085-4352
Jiffy Lube,HARKER HEIGHTS,3418,#3418,524 PAN AMERICAN DRIVE    ,TX,76548-1983
Jiffy Lube,KILLEEN    ,3419,#3419,3801 W. STAN SCHLUETER LOOP  ,TX,76549-5396
Jiffy Lube,TEMPLE     ,3420,#3420,402 N. 3RD STREET   ,TX,76501-3163
Jiffy Lube,TEMPLE     ,3421,#3421,4233 S. 31ST STREET ,TX,76502
Jiffy Lube,ROY  ,3422,#3422,4080 MIDLAND DRIVE  ,UT,84067-9606
Jiffy Lube,RIVERDALE  ,3423,#3423,913 W. RIVERDALE RD ,UT,84405
Jiffy Lube,CHAMPLIN   ,3424,#3424,12459 CHAMPLIN DRIVE,MN,55316-1907
Jiffy Lube,PORT ORCHARD  ,3425,#3425,2253 BETHEL RD SE   ,WA,98366-3121
Jiffy Lube,KILLEEN    ,3427,#3427,1902 N W S YOUNG DRIVE    ,TX,76543
Jiffy Lube,COLLEGE PARK  ,3428,#3428,2531 CAMP CREEK PKWY,GA,30337-3356
Jiffy Lube,TULSA,3429,#3429,7853 S. OLYMPIA AVENUE    ,OK,74132
Jiffy Lube,CLINTON    ,3430,#3430,1953 NORTH 2000 WEST,UT,84015
Jiffy Lube,CHARLOTTE  ,3431,#3431,8400 OLD STATESVILLE RD   ,NC,28269-1850
Jiffy Lube,SPARKS     ,3432,#3432,581 LOS ALTOS PARKWAY     ,NV,89436-7711
Jiffy Lube,HEBER CITY ,3433,#3433,510 N. MAIN STREET  ,UT,84032-1215
Jiffy Lube,SPANISH FORK  ,3434,#3434,901 EXPRESSWAY LANE ,UT,84660-1342
Jiffy Lube,VERNAL     ,3435,#3435,1270 W. 400 S. ,UT,84078-2900
Jiffy Lube,RICHFIELD  ,3436,#3436,955 N. MAIN STREET  ,UT,84701-1854
Jiffy Lube,SALEM,3437,#3437,521 N. STATE ROAD 198     ,UT,84653-9001
Jiffy Lube,NASHUA     ,3438,#3438,620 AMHERST STREET  ,NH,03063-4065
Jiffy Lube,BELLEVUE   ,3439,#3439,2908 SAMSON WAY,NE,68123
Jiffy Lube,OMAHA,3440,#3440,6630 N. 72ND STREET ,NE,68122
Jiffy Lube,LEANDER    ,3441,#3441,1705 SOUTH HIGHWAY 183    ,TX,78641-2127
Jiffy Lube,DRAPER     ,3442,#3442,13955 S. BANGERTER PKWY   ,UT,84020
Jiffy Lube,FORT WORTH ,3443,#3443,3172 BASSWOOD BLVD  ,TX,76137-1451
Jiffy Lube,WINCHESTER ,3444,#3444,4141 VALLEY PIKE    ,VA,22602-2463
Jiffy Lube,PALMDALE   ,3447,#3447,2613 E. PALMDALE BLVD     ,CA,93550-4945
Jiffy Lube,BAKERSFIELD,3448,#3448,800 OAK STREET ,CA,93304-1058
Jiffy Lube,LAKE SAINT LOUIS   ,3450,#3450,6100 RONALD REAGAN DR     ,MO,63367
Jiffy Lube,WENTZVILLE ,3453,#3453,1971 WENTZVILLE PKWY,MO,63385
Jiffy Lube,EUREKA     ,3454,#3454,131 ERKA TWN CNTR DR,MO,63025
Jiffy Lube,DE SOTO    ,3455,#3455,12862 STATE ROAD 21 ,MO,63020
Jiffy Lube,BELLEVILLE ,3456,#3456,2608 GREEN MOUNT COM,IL,62221
Jiffy Lube,GRANITE CITY  ,3457,#3457,379 W PONTOON RD    ,IL,62040
Jiffy Lube,O FALLON   ,3458,#3458,1307 HIGHWAY K ,MO,63366
Jiffy Lube,MANCHESTER ,3459,#3459,201 HIGHLANDS BOULEVARD DR,MO,63011
Jiffy Lube,FESTUS     ,3460,#3460,650 S TRUMAN BLVD   ,MO,63028
Jiffy Lube,COLLINSVILLE  ,3461,#3461,1040 COLLINSVILLE CROSSING BLV    ,IL,62234
Jiffy Lube,WOOD RIVER ,3462,#3462,610 WESLEY DR  ,IL,62095
Jiffy Lube,TROY ,3463,#3463,101 HIGHWAY 47 E    ,MO,63379
Jiffy Lube,CHESTERFIELD  ,3464,#3464,100 THF BLVD,MO,63005
Jiffy Lube,DESLOGE    ,3465,#3465,407 NO. STATE ST    ,MO,63601
Jiffy Lube,WATERLOO   ,3466,#3466,961 N MARKET ST,IL,62298
Jiffy Lube,GLEN CARBON,3467,#3467,400 JUNCTION DR,IL,62034
Jiffy Lube,ARNOLD     ,3468,#3468,2201 MICHIGAN AVE   ,MO,63010
Jiffy Lube,SAINT PETERS  ,3469,#3469,1661 JUNGERMANN RD  ,MO,63304
Jiffy Lube,WASHINGTON ,3470,#3470,1701 AROY DR,MO,63090
Jiffy Lube,FENTON     ,3471,#3471,653 GRAVOIS BLUFFS BLVD   ,MO,63026
Jiffy Lube,O FALLON   ,3472,#3472,1530 W US HIGHWAY 50,IL,62269
Jiffy Lube,SAINT CHARLES ,3473,#3473,2897 VETERANS MEMORIAL PKWY  ,MO,63303
Jiffy Lube,HIGH RIDGE ,3474,#3474,2700 RIDGEPOINT DR  ,MO,63049
Jiffy Lube,WARRENTON  ,3475,#3475,500 WARREN COUNTY CTR     ,MO,63383
Jiffy Lube,SULLIVAN   ,3476,#3476,350 PARK RIDGE RD   ,MO,63080
Jiffy Lube,FARMINGTON ,3477,#3477,701 WALTON DR  ,MO,63640
Jiffy Lube,SAINT LOUIS,3478,#3478,3270 TELEGRAPH RD   ,MO,63125
Jiffy Lube,MAPLEWOOD  ,3479,#3479,1900 MAPLEWOOD COMMONS DR ,MO,63143
Jiffy Lube,FRANKLIN LAKE ,3655,#3655,827 FRANKLIN AVENUE ,NJ,07305-1300
Jiffy Lube,RAMSEY     ,3656,#3656,785 STATE RT 17,NJ,07446-1625
Jiffy Lube,CHARLESTON ,3658,#3658,1745 SAM RITTENBURG BLVD  ,SC,29407-4927
Jiffy Lube,BATON ROUGE,3673,#3673,14275 COURSEY BLVD  ,LA,70817
Jiffy Lube,MONUMENT   ,3674,#3674,15734 JACKSON CREEK PKWY  ,CO,80132
Jiffy Lube,GOLDEN     ,3687,#3687,17221 S. GOLDEN ROAD,CO,80401-2636
Jiffy Lube,MIAMI,3688,#3688,7798 CORAL WAY ,FL,33155-6552
Jiffy Lube,YAKIMA     ,3689,#3689,301 S. 1ST STREET   ,WA,98901-2805
Jiffy Lube,YAKIMA     ,3690,#3690,3310 W. NOB HILL BLVD     ,WA,98902-4961
Jiffy Lube,INDIANAPOLIS  ,3691,#3691,5859 N. GERMAN CHURCH RD. ,IN,46235-5733
Jiffy Lube,CARMEL     ,3692,#3692,10390 N. MICHIGAN RD.     ,IN,46032-7926
Jiffy Lube,ANGOLA     ,3693,#3693,640 N. WAYNE STREET ,IN,46703-1004
Jiffy Lube,AUBURN     ,3694,#3694,660 N. GRANDSTAFF DRIVE   ,IN,46706-1661
Jiffy Lube,KENDALLVILLE  ,3695,#3695,317 W. NORTH STREET ,IN,46755-1003
Jiffy Lube,VANCOUVER  ,3701,#3701,8720 NE CENTERPOINTE DRIVE,WA,98665-1160
Jiffy Lube,GRANBURY   ,3702,#3702,906 E. HIGHWAY 377  ,TX,76048-2581
Jiffy Lube,CLIFTON    ,3703,#3703,3244 F. ROAD,CO,81520-7544
Jiffy Lube,HUMMELSTOWN,3704,#3704,1900 KAYLOR ROAD    ,PA,17036-8770
Jiffy Lube,TULSA,3705,#3705,3646 S. PEORIA AVENUE     ,OK,74105-3255
Jiffy Lube,BAKERSFIELD,3706,#3706,410 N. CHESTER AVENUE     ,CA,93308-4444
Jiffy Lube,BETTENDORF ,3708,#3708,2777 18TH STREET    ,IA,52722-3272
Jiffy Lube,BALLARD    ,3718,#3718,1516 EAST HIGHWAY 40,UT,84066
Jiffy Lube,DAVIE,3720,#3720,1799 S. UNIVERSITY DRIVE  ,FL,33324-5840
