keywords,city,Aggdata Store Number,store_number,address,state,zip_code
Jo-ann fabric,Falls Church,102,102 #102,6320 Seven Corners Ctr,VA,22044-2409
Jo-ann fabric,Gaithersburg,106,106 #106,2A Bureau Dr,MD,20878-1402
Jo-ann fabric,Middleton,107,107 #107,230 S Main St,MA,01949-2449
Jo-ann fabric,Corte Madera,112,112 #112,245 Tamal Vista Blvd,CA,94925-1110
Jo-ann fabric,Sterling,115,115 #115,46301 Potomac Run Plz Ste 160,VA,20164-6619
Jo-ann fabric,Holbrook,120,120 #120,5705 Sunrise Hwy,NY,11741-4801
Jo-ann fabric,Greenbelt,123,123 #123,6200 Greenbelt Rd,MD,20770-1021
Jo-ann fabric,Hooksett,132,132 #132,1328 Hooksett Rd,NH,03106-1815
Jo-ann fabric,Miami,135,135 #135,8257 W Flagler St,FL,33144-2060
Jo-ann fabric,Crestwood,138,138 #138,4917 Cal Sag Rd,IL,60445-4416
Jo-ann fabric,Wheaton,140,140 #140,36 Danada Sq W,IL,60187-1000
Jo-ann fabric,Whitehall,145,145 #145,2570 Macarthur Rd Ste 12,PA,18052-3815
Jo-ann fabric,Westbury,153,153 #153,580 Old Country Rd,NY,11590-4512
Jo-ann fabric,Santa Rosa,154,154 #154,3620 Industrial Dr,CA,95403-2031
Jo-ann fabric,Tyngsboro,159,159 #159,440 Middlesex Rd,MA,01879-1070
Jo-ann fabric,Great Falls,163,163 #163,2515 10Th Ave S,MT,59405-3236
Jo-ann fabric,Wasilla,168,168 #168,1830 E Parks Hwy Ste A122,AK,99654-7375
Jo-ann fabric,Hudson,171,171 #171,5381 Darrow Rd,OH,44236-4007
Jo-ann fabric,Minot,172,172 #172,1015 S Broadway,ND,58701-4667
Jo-ann fabric,Fort Myers,173,173 #173,15201 N Cleveland Ave Ste 400,FL,33903-2715
Jo-ann fabric,Ann Arbor,176,176 #176,2897 Oak Valley Dr,MI,48103-9243
Jo-ann fabric,North Dartmouth,177,177 #177,454 State Rd,MA,02747-4308
Jo-ann fabric,Lancaster,181,181 #181,838 Plaza Blvd,PA,17601-2738
Jo-ann fabric,Lake Zurich,186,186 #186,696 S Rand Rd,IL,60047-3409
Jo-ann fabric,Nashua,189,189 #189,10 Northwest Blvd,NH,03063-4066
Jo-ann fabric,Williamsport,200,200 #200,1746 E 3Rd St,PA,17701-3848
Jo-ann fabric,Queensbury,206,206 #206,756 Upper Glen St Ste 15,NY,12804-2029
Jo-ann fabric,Sandusky,211,211 #211,320 E Perkins Ave,OH,44870-4906
Jo-ann fabric,Ashtabula,212,212 #212,3315 N Ridge E Ste 140,OH,44004-4347
Jo-ann fabric,Bridgeville,221,221 #221,1155 Washington Pike,PA,15017-2827
Jo-ann fabric,Butler,224,224 #224,160 Pullman Sq,PA,16001-5640
Jo-ann fabric,Cranberry,225,225 #225,6945 US 322,PA,16319-3108
Jo-ann fabric,Lima,227,227 #227,2720 Elida Rd,OH,45805-1231
Jo-ann fabric,Cockeysville,231,231 #231,9978 York Rd,MD,21030-3401
Jo-ann fabric,Hermitage,235,235 #235,2481 E State St,PA,16148-2723
Jo-ann fabric,State College,236,236 #236,505 Benner Pike,PA,16801-7309
Jo-ann fabric,Washington,241,241 #241,301 Oak Spring Rd,PA,15301-2966
Jo-ann fabric,Annapolis,245,245 #245,150 Jennifer Rd Ste C,MD,21401-3044
Jo-ann fabric,Centereach,246,246 #246,191 Centereach Mall,NY,11720-2751
Jo-ann fabric,Columbus,250,250 #250,3060 Columbus Ctr,IN,47203-3415
Jo-ann fabric,Marlton,251,251 #251,515 Route 73 S Ste 12,NJ,08053-9661
Jo-ann fabric,Waterbury,254,254 #254,861 Wolcott St,CT,06705-1301
Jo-ann fabric,W Babylon,257,257 #257,735 W Montauk Hwy,NY,11704-8219
Jo-ann fabric,Rochester,259,259 #259,5154 Highway 52 Ne Frontage Rd,MN,55901-0168
Jo-ann fabric,Newington,266,266 #266,2064 Woodbury Ave Ste 302,NH,03801-7800
Jo-ann fabric,Adrian,279,279 #279,2576 S Main St,MI,49221-4305
Jo-ann fabric,East Liverpool,284,284 #284,"15765 State Route 170, Ste 1",OH,43920-9600
Jo-ann fabric,Findlay,286,286 #286,1800 Tiffin Ave,OH,45840-6789
Jo-ann fabric,Rutland,289,289 #289,308 Us Route 7 S,VT,05701-4725
Jo-ann fabric,Pittsfield,292,292 #292,457 Dalton Ave,MA,01201-2912
Jo-ann fabric,Midland,294,294 #294,1910 N Saginaw Rd,MI,48640-6613
Jo-ann fabric,Lakewood,301,301 #301,318 E Fairmount Ave Rm 106,NY,14750-2007
Jo-ann fabric,Niles,304,304 #304,5555 Youngstown Warren Rd,OH,44446-4804
Jo-ann fabric,Holland,305,305 #305,12635 Felch St Ste 60,MI,49424-8275
Jo-ann fabric,Grosse Pointe,306,306 #306,18850 Mack Ave,MI,48236-2925
Jo-ann fabric,West Palm Beach,307,307 #307,9810 Alternate A1A,FL,33410-4902
Jo-ann fabric,Springfield,308,308 #308,1608J Upper Valley Pike Ste C9,OH,45504-4065
Jo-ann fabric,Fremont,309,309 #309,1212 Oak Harbor Rd,OH,43420-1021
Jo-ann fabric,Beckley,310,310 #310,307 Beckley Plz,WV,25801-2215
Jo-ann fabric,Swansea,311,311 #311,207 Swansea Mall Dr Ste 100,MA,02777-4120
Jo-ann fabric,Lakeland,312,312 #312,4241 Us Highway 98 N,FL,33809-3817
Jo-ann fabric,Bluefield,313,313 #313,531 Commerce Dr,VA,24605-9697
Jo-ann fabric,Madison,319,319 #319,2021 Zeier Rd,WI,53704-7419
Jo-ann fabric,Lexington,322,322 #322,"125 E Reynolds Rd, Ste 160",KY,40517-9002
Jo-ann fabric,Pewaukee,324,324 #324,2020 Silvernail Rd,WI,53072-5524
Jo-ann fabric,Marion,328,328 #328,1129 N Baldwin Ave Ste 32,IN,46952-2564
Jo-ann fabric,Topsham,329,329 #329,"49 Topsham Fair Mall Road, Ste 17",ME,04086-1736
Jo-ann fabric,Spring Hill,333,333 #333,4387 Commercial Way,FL,34606-1963
Jo-ann fabric,Solon,340,340 #340,33615 Aurora Rd,OH,44139-3707
Jo-ann fabric,Decatur,344,344 #344,4298 N Prospect St,IL,62526-6100
Jo-ann fabric,Alpena,348,348 #348,2686 Us Highway 23 S,MI,49707-4620
Jo-ann fabric,Fort Gratiot,351,351 #351,4405 24Th Ave,MI,48059-3808
Jo-ann fabric,Kent,354,354 #354,25810 104Th Ave Se,WA,98030-7608
Jo-ann fabric,Cortland,358,358 #358,162 Clinton St # 2,NY,13045-1343
Jo-ann fabric,Parkersburg,363,363 #363,2311 Ohio Ave Unit C,WV,26101-2559
Jo-ann fabric,Marion,366,366 #366,1471A Marion Waldo Rd,OH,43302-7421
Jo-ann fabric,Meadville,372,372 #372,18921 Park Avenue Plz,PA,16335-4015
Jo-ann fabric,Atlantic  Beach,377,377 #377,977 Atlantic  Blvd,FL,32233-3311
Jo-ann fabric,Steubenville,378,378 #378,282 S Hollywood Blvd,OH,43952-2422
Jo-ann fabric,Toledo,379,379 #379,2559 S Reynolds Rd,OH,43614-1434
Jo-ann fabric,Chillicothe,384,384 #384,1080 N Bridge St,OH,45601-1789
Jo-ann fabric,Du Bois,387,387 #387,5456 Shaffer Rd,PA,15801-3313
Jo-ann fabric,Westminster,395,395 #395,20 Englar Rd,MD,21157-4842
Jo-ann fabric,Beloit,396,396 #396,2759 Prairie Ave,WI,53511-2246
Jo-ann fabric,Hanover,403,403 #403,1302 Washington St,MA,02339-1631
Jo-ann fabric,Carlisle,404,404 #404,East 800 High St  Suite 400,PA,17013-3017
Jo-ann fabric,Natick,408,408 #408,244 Worcester Rd,MA,01760-1825
Jo-ann fabric,Waterville,410,410 #410,180 Jkf Plaza,ME,04901-5015
Jo-ann fabric,Batavia,412,412 #412,4152 W Main St Ste 12,NY,14020-1235
Jo-ann fabric,Traverse City,414,414 #414,724 Munson Ave,MI,49686-3525
Jo-ann fabric,Akron,417,417 #417,1500 Canton Rd,OH,44312-4067
Jo-ann fabric,Milford,418,418 #418,"91 Medway Rd, Ste 3",MA,01757-2923
Jo-ann fabric,Janesville,421,421 #421,1335 Creston Park Dr,WI,53545-1126
Jo-ann fabric,Vestal,425,425 #425,736 Vestal Pkwy E,NY,13850-1683
Jo-ann fabric,Owosso,426,426 #426,210 N Washington St,MI,48867-2821
Jo-ann fabric,Portland,429,429 #429,1064 Brighton Ave,ME,04102-1030
Jo-ann fabric,California,431,431 #431,22576 Macarthur Blvd Ste 300,MD,20619-3088
Jo-ann fabric,W Roxbury,438,438 #438,1580 Vfw Pkwy # 1600,MA,02132-5500
Jo-ann fabric,Deptford,445,445 #445,1800 Clements Bridge Rd Ste 18,NJ,08096-2022
Jo-ann fabric,Niagara Falls,455,455 #455,2429 Military Rd,NY,14304-1551
Jo-ann fabric,Lower Burrell,457,457 #457,155 Hillcrest Shopping Ctr,PA,15068-3504
Jo-ann fabric,Amsterdam,461,461 #461,"4908 St Hwy 30, Ste 8",NY,12010-6414
Jo-ann fabric,Bridgeport,463,463 #463,2120 Meadowbrook Rd,WV,26330-9788
Jo-ann fabric,Ogdensburg,464,464 #464,2981 Ford Street Extension,NY,13669-1747
Jo-ann fabric,Westford,472,472 #472,174 Littleton Rd,MA,01886-3138
Jo-ann fabric,Minnetonka,473,473 #473,1635 Plymouth Rd,MN,55305-1956
Jo-ann fabric,Raynham,477,477 #477,300 New State Hwy,MA,02767-1418
Jo-ann fabric,Hagerstown,480,480 #480,1109 Maryland Ave,MD,21740-7203
Jo-ann fabric,Erie,485,485 #485,7200 Peach St Unit 150,PA,16509-4758
Jo-ann fabric,Elkhart,490,490 #490,3701 S Main St Ste 410,IN,46517-3141
Jo-ann fabric,Essexville,492,492 #492,2950 Center Ave,MI,48732-1704
Jo-ann fabric,Chambersburg,495,495 #495,1678 Lincoln Way E # 7,PA,17201-3346
Jo-ann fabric,Portage,498,498 #498,6151 S Westnedge Ave,MI,49002-2811
Jo-ann fabric,Quincy,503,503 #503,425 N 32Nd St,IL,62301-4647
Jo-ann fabric,Marietta,506,506 #506,448 Pike St,OH,45750-3328
Jo-ann fabric,Edwardsville,507,507 #507,"150 W Side Mall, #150",PA,18704-3111
Jo-ann fabric,Auburn,508,508 #508,2000 Clark Street Rd,NY,13021-9698
Jo-ann fabric,Severna Park,509,509 #509,562 Governor Ritchie Hwy Ste A,MD,21146-2925
Jo-ann fabric,Winchester,511,511 #511,1092 Millwood Pike,VA,22602-4312
Jo-ann fabric,Sioux Falls,516,516 #516,2725 West 41st Street,SD,57105
Jo-ann fabric,Saint Cloud,518,518 #518,3332 W Division St,MN,56301-3725
Jo-ann fabric,Carbondale,521,521 #521,1332 E Main St,IL,62901-3144
Jo-ann fabric,Lancaster,523,523 #523,1216 N Memorial Dr,OH,43130-1625
Jo-ann fabric,Muncie,525,525 #525,1625 W Mcgalliard Rd,IN,47304-2206
Jo-ann fabric,South Burlington,526,526 #526,45 Hinesburg Rd,VT,05403-6526
Jo-ann fabric,Galesburg,527,527 #527,1920 N Henderson St,IL,61401-1325
Jo-ann fabric,Dekalb,528,528 #528,1712 Sycamore Rd,IL,60115-2037
Jo-ann fabric,Canton,539,539 #539,44740 Ford Rd,MI,48187-2942
Jo-ann fabric,Mays Landing,545,545 #545,3926 Festival @ Hamilton,NJ,08330-3107
Jo-ann fabric,Waterford,549,549 #549,117 Boston Post Rd,CT,06385-2400
Jo-ann fabric,Lawrenceville,551,551 #551,3371 Brunswick Ave,NJ,08648-1303
Jo-ann fabric,Soldotna,557,557 #557,35535 Kenai Spur Hwy,AK,99669-7625
Jo-ann fabric,Anderson,559,559 #559,2144 S State Road 9,IN,46016-5731
Jo-ann fabric,Michigan City,566,566 #566,4333 Franklin St,IN,46360-7806
Jo-ann fabric,Dunbar,569,569 #569,9 Fletcher Sq,WV,25064-3135
Jo-ann fabric,Richmond,573,573 #573,3527 E Main St,IN,47374-5932
Jo-ann fabric,Kenosha,576,576 #576,3524 52Nd St,WI,53144-2662
Jo-ann fabric,Milwaukee,581,581 #581,8633 W Brown Deer Rd,WI,53224-2114
Jo-ann fabric,Miami,583,583 #583,10875 Caribbean Blvd,FL,33189-1203
Jo-ann fabric,Oswego,584,584 #584,18 E Cayuga St Ste 5,NY,13126-1162
Jo-ann fabric,Bradley,590,590 #590,113 Village Square,IL,60915-1360
Jo-ann fabric,Shrewsbury,593,593 #593,1026 Broad Street,NJ,07702-4324
Jo-ann fabric,Escanaba,596,596 #596,301 N Lincoln,MI,49829-1382
Jo-ann fabric,Fairborn,603,603 #603,2850 Centre Dr Ste G,OH,45324-2675
Jo-ann fabric,Cupertino,605,605 #605,19765 Stevens Creek Blvd,CA,95014-2405
Jo-ann fabric,Bloomington,607,607 #607,3483 W 3Rd St,IN,47404-4856
Jo-ann fabric,Dayton,608,608 #608,5001 Salem Ave,OH,45426-2039
Jo-ann fabric,Rockford,610,610 #610,6280 E State St,IL,61108-2516
Jo-ann fabric,Round Lake Beach,612,612 #612,845 E Rollins Rd,IL,60073-2244
Jo-ann fabric,Norristown,615,615 #615,55 E Germantown Pike,PA,19401-1558
Jo-ann fabric,Zanesville,620,620 #620,3575 Maple Ave,OH,43701-7019
Jo-ann fabric,Freeport,625,625 #625,1611 S West Ave,IL,61032-6703
Jo-ann fabric,Easton,628,628 #628,210 Marlboro Ave,MD,21601-2765
Jo-ann fabric,Dover,630,630 #630,283 N Dupont Hwy Ste F,DE,19901-7532
Jo-ann fabric,Penfield,631,631 #631,2157 Penfield Rd,NY,14526-1735
Jo-ann fabric,Mcminnville,633,633 #633,1401 N Highway 99W,OR,97128-2724
Jo-ann fabric,Lavale,640,640 #640,1313 National Hwy,MD,21502-7618
Jo-ann fabric,Lebanon,644,644 #644,1860 Quentin Rd,PA,17042-7436
Jo-ann fabric,Kingston,645,645 #645,1385 Ulster Ave,NY,12401-1514
Jo-ann fabric,Grand Forks,653,653 #653,2781 32Nd Ave S,ND,58201-6027
Jo-ann fabric,Saint Clairsville,658,658 #658,67800 Mall Ring Rd,OH,43950-1796
Jo-ann fabric,Mishawaka,665,665 #665,5612 Grape Rd,IN,46545-1246
Jo-ann fabric,Mason City,667,667 #667,1624 S Federal Ave,IA,50401-5751
Jo-ann fabric,St Albans,673,673 #673,319 Swanton Rd,VT,05478-2609
Jo-ann fabric,Holyoke,677,677 #677,2267 Northampton St,MA,01040-3447
Jo-ann fabric,Belle Vernon,683,683 #683,360 Tri County Ln,PA,15012-3817
Jo-ann fabric,Madison Heights,690,690 #690,32065 John R Rd,MI,48071-1322
Jo-ann fabric,Indiana,692,692 #692,1570 Oakland Ave,PA,15701-2429
Jo-ann fabric,Colma,695,695 #695,75 Colma Blvd,CA,94014-3231
Jo-ann fabric,Hibbing,697,697 #697,990 W 41St St Ste 2,MN,55746-3045
Jo-ann fabric,Clinton,701,701 #701,274 E Main St,CT,06413-2253
Jo-ann fabric,Mountain View,710,710 #710,435 San Antonio Rd,CA,94040-1215
Jo-ann fabric,Pittsburg,713,713 #713,4699 Century Blvd,CA,94565-7107
Jo-ann fabric,Owings Mills,722,722 #722,10377 Reisterstown Rd,MD,21117-3617
Jo-ann fabric,Watertown,728,728 #728,401 Bernard St,WI,53094-6205
Jo-ann fabric,San Mateo,730,730 #730,1948 S El Camino Real,CA,94403-1322
Jo-ann fabric,Bloomfield Hills,733,733 #733,4107 Telegraph Rd,MI,48302-2037
Jo-ann fabric,Tallahassee,736,736 #736,1802 Thomasville Rd,FL,32303-5710
Jo-ann fabric,Lapeer,753,753 #753,1865 W Genesee St,MI,48446-1705
Jo-ann fabric,Barboursville,754,754 #754,7 Mall Rd,WV,25504-1822
Jo-ann fabric,Auburn,758,758 #758,1809 Howard Rd,WA,98002-6353
Jo-ann fabric,Racine,765,765 #765,5509 Durand Ave,WI,53406-5059
Jo-ann fabric,Tavares,772,772 #772,365 E Burleigh Blvd,FL,32778-2201
Jo-ann fabric,Burlington,777,777 #777,43 Middlesex Tpke,MA,01803-4913
Jo-ann fabric,Milwaukie,780,780 #780,10898 Se Oak St,OR,97222-6694
Jo-ann fabric,Yakima,783,783 #783,3702 Tieton Dr,WA,98902-3664
Jo-ann fabric,Spokane,784,784 #784,1840 W Francis Ave,WA,99205-6834
Jo-ann fabric,Everett,789,789 #789,7601 Evergreen Way,WA,98203-6424
Jo-ann fabric,Missoula,791,791 #791,1900 Brooks St,MT,59801-6644
Jo-ann fabric,Albany,792,792 #792,2248 Santiam Hwy Se,OR,97322-5205
Jo-ann fabric,Renton,793,793 #793,2823 Ne Sunset Blvd,WA,98056-3105
Jo-ann fabric,Port Orchard,794,794 #794,1029 Bethel Ave,WA,98366-4207
Jo-ann fabric,Boise,796,796 #796,3275 S Federal Way,ID,83705-5215
Jo-ann fabric,Springfield,800,800 #800,2122 Marcola Rd,OR,97477-2592
Jo-ann fabric,Port Angeles,802,802 #802,150 Port Angeles Plz,WA,98362-4934
Jo-ann fabric,Seattle,805,805 #805,15236 Aurora Ave N,WA,98133-6124
Jo-ann fabric,Clarkston,810,810 #810,470 Bridge St,WA,99403-1931
Jo-ann fabric,Eureka,812,812 #812,510 Harris St,CA,95503-4415
Jo-ann fabric,Hyannis,814,814 #814,665 Iyannough Rd,MA,02601-1900
Jo-ann fabric,Fort Walton Beach,816,816 #816,224B Eglin Pkwy Ne,FL,32547-2877
Jo-ann fabric,Warrenton,820,820 #820,251 W Lee Hwy Ste 659,VA,20186-2078
Jo-ann fabric,Malone,822,822 #822,228 W Main St Ste 12,NY,12953-9590
Jo-ann fabric,Seabrook,824,824 #824,270 Lafayette Rd Unit 8,NH,03874-4564
Jo-ann fabric,Ludlow,826,826 #826,"433 Center St, Ste B",MA,01056-2769
Jo-ann fabric,Belmont,830,830 #830,12 Old State Rd,NH,03220-3025
Jo-ann fabric,Vacaville,850,850 #850,2051 Harbison Dr,CA,95687-3904
Jo-ann fabric,Butte,856,856 #856,3100 Harrison Ave,MT,59701-3652
Jo-ann fabric,Billerica,858,858 #858,199 Boston Rd,MA,01862-2328
Jo-ann fabric,E Walpole,861,861 #861,90 Providence Hwy,MA,02032-1524
Jo-ann fabric,Cudahy,862,862 #862,5656 S Packard Ave,WI,53110-2657
Jo-ann fabric,Hutchinson,863,863 #863,1060 Highway 15,MN,55350-3157
Jo-ann fabric,Heath,866,866 #866,789 Hebron Rd,OH,43056-2300
Jo-ann fabric,Lincoln City,870,870 #870,4069 Nw Logan Rd,OR,97367-5054
Jo-ann fabric,Redwood City,871,871 #871,308 Walnut St,CA,94063-1718
Jo-ann fabric,Bangor,873,873 #873,710 Stillwater Ave,ME,04401-3615
Jo-ann fabric,Auburn,875,875 #875,732 Center St,ME,04210-6316
Jo-ann fabric,Keene,883,883 #883,401 West St,NH,03431-2416
Jo-ann fabric,Anchorage,884,884 #884,3101 Penland Pkwy Ste K18,AK,99508-1958
Jo-ann fabric,Chino,885,885 #885,5471 Philadelphia St Ste A,CA,91710-2479
Jo-ann fabric,Plymouth,889,889 #889,1406 Pilgrim Lane,IN,46563-3440
Jo-ann fabric,Christiansburg,890,890 #890,2625 Market St,VA,24073-6517
Jo-ann fabric,Martinsville,891,891 #891,240 Commonwealth Blvd W,VA,24112-1800
Jo-ann fabric,Middletown,898,898 #898,88 Dunning Rd Ste 23,NY,10940-2219
Jo-ann fabric,Vincennes,899,899 #899,630 Niblack Blvd # 6,IN,47591-3630
Jo-ann fabric,Winter Haven,902,902 #902,1522 3Rd St Sw,FL,33880-4314
Jo-ann fabric,Concord,904,904 #904,80 Storrs St Ste 5,NH,03301-4840
Jo-ann fabric,The Dalles,915,915 #915,1324 W 6Th St,OR,97058-3518
Jo-ann fabric,Chico,920,920 #920,2485 Notre Dame Blvd Ste 310,CA,95928-7162
Jo-ann fabric,Cincinnati,936,936 #936,3866 Paxton Ave Ste B,OH,45209-2367
Jo-ann fabric,Piqua,944,944 #944,1256 E Ash St,OH,45356-4110
Jo-ann fabric,Anchorage,950,950 #950,1920 W Dimond Blvd Ste J,AK,99515-1471
Jo-ann fabric,Niles,957,957 #957,8245 W Golf Rd,IL,60714-1156
Jo-ann fabric,Miami,968,968 #968,7706 N Kendall Dr,FL,33156-7523
Jo-ann fabric,Pittsburgh,970,970 #970,513 Clairton Blvd,PA,15236-3809
Jo-ann fabric,Mansfield,975,975 #975,594 N Lexington Springmill Rd,OH,44906-3313
Jo-ann fabric,Hamden,976,976 #976,2300 Dixwell Ave,CT,06514-2108
Jo-ann fabric,Angola,995,995 #995,2010 N Wayne St Ste G,IN,46703-9104
Jo-ann fabric,Sarasota,998,998 #998,4934 S Tamiami Trl,FL,34231-4354
Jo-ann fabric,Amarillo,1001,1001 #1001,3220 S Soncy Rd,TX,79124-2009
Jo-ann fabric,El Cajon,1011,1011 #1011,2756 Fletcher Pkwy,CA,92020-2110
Jo-ann fabric,Bakersfield,1014,1014 #1014,3010 Ming Ave,CA,93304-4136
Jo-ann fabric,Savannah,1021,1021 #1021,7400 Abercorn St,GA,31406-2447
Jo-ann fabric,Pompano Beach,1023,1023 #1023,1131 S Federal Hwy,FL,33062-7065
Jo-ann fabric,Wichita,1026,1026 #1026,4600 W Kellogg Dr       (In Towne West Mall),KS,67209-2568
Jo-ann fabric,Corpus Christi,1032,1032 #1032,5625 S Padre Island Dr # B,TX,78412-3901
Jo-ann fabric,Hollywood,1044,1044 #1044,4700 Hollywood Blvd,FL,33021-6504
Jo-ann fabric,Salina,1046,1046 #1046,2259 S 9Th St Ste 38,KS,67401-7313
Jo-ann fabric,Lawton,1053,1053 #1053,3801 Nw Cache Rd,OK,73505-3740
Jo-ann fabric,West Palm Beach,1059,1059 #1059,1940 N Military Trl,FL,33409-4718
Jo-ann fabric,Shreveport,1067,1067 #1067,1271 Shreveport Barksdale Hwy,LA,71105-2405
Jo-ann fabric,Frankfort,1072,1072 #1072,"260 Versailles Rd, Ste 209",KY,40601-3271
Jo-ann fabric,Altoona,1073,1073 #1073,"3415 Pleasant Valley Blvd, Ste 78",PA,16602-4321
Jo-ann fabric,Cary,1074,1074 #1074,2420 Walnut St,NC,27518-9212
Jo-ann fabric,Durham,1078,1078 #1078,4600 Chapel Hill Blvd Ste 8,NC,27707-2669
Jo-ann fabric,Olean,1089,1089 #1089,2503B W State St,NY,14760-1822
Jo-ann fabric,Newport News,1094,1094 #1094,14346 Warwick Blvd Ste 480,VA,23602-3812
Jo-ann fabric,Littleton,1095,1095 #1095,8601 W Cross Dr Unit Sm,CO,80123-0758
Jo-ann fabric,Juneau,1096,1096 #1096,8745 Glacier Hwy,AK,99801-8029
Jo-ann fabric,Fayetteville,1098,1098 #1098,1800 Skibo Road,NC,28303-3280
Jo-ann fabric,Beaumont,1102,1102 #1102,4035 N Dowlen Rd,TX,77706-6850
Jo-ann fabric,York,1103,1103 #1103,2136 S Queen St,PA,17403-4809
Jo-ann fabric,Colonia,1106,1106 #1106,1272 State Rt 27,NJ,07067-3430
Jo-ann fabric,Venice,1107,1107 #1107,4143 Tamiami Trl S Bay 20,FL,34293-5110
Jo-ann fabric,Yuma,1108,1108 #1108,1550 S Yuma Palms Parkway,AZ,85365-1718
Jo-ann fabric,Waco,1124,1124 #1124,3912 Bosque Blvd Unit 9,TX,76710-4934
Jo-ann fabric,West Columbia,1126,1126 #1126,1200 Charleston Hwy,SC,29169-6166
Jo-ann fabric,El Paso,1129,1129 #1129,9515 Gateway Blvd W Ste B,TX,79925-7250
Jo-ann fabric,Lemoyne,1131,1131 #1131,1200 Market St,PA,17043-1417
Jo-ann fabric,Metairie,1142,1142 #1142,1111 Veterans Memorial Blvd,LA,70005-2728
Jo-ann fabric,Lafayette,1149,1149 #1149,311 Sagamore Pkwy N,IN,47904-2854
Jo-ann fabric,Placentia,1150,1150 #1150,1840 N Placentia Ave,CA,92870-2303
Jo-ann fabric,Long Beach,1152,1152 #1152,3588 Palo Verde Ave,CA,90808-2924
Jo-ann fabric,Huntington Beach,1158,1158 #1158,15031 Goldenwest St,CA,92647-2710
Jo-ann fabric,Wayne,1185,1185 #1185,153 E Swedesford Rd,PA,19087-1455
Jo-ann fabric,Laguna Hills,1198,1198 #1198,25252 Mcintyre St Ste B,CA,92653-5448
Jo-ann fabric,Metairie,1215,1215 #1215,7000 Veterans Memorial Blvd Ste A,LA,70003-8402
Jo-ann fabric,Thousand Oaks,1223,1223 #1223,1516 N Moorpark Rd,CA,91360-5127
Jo-ann fabric,Dallas,1227,1227 #1227,6330 E Mockingbird Ln,TX,75214-2622
Jo-ann fabric,Ocala,1244,1244 #1244,2405 Sw 27Th Ave,FL,34474-4407
Jo-ann fabric,West Deptford,1248,1248 #1248,875 Mantua Pike,NJ,08096-3337
Jo-ann fabric,Bryan,1268,1268 #1268,725 E Villa Maria Rd Ste 4100,TX,77802-5392
Jo-ann fabric,Hampton,1270,1270 #1270,1076 W Mercury Blvd,VA,23666-3380
Jo-ann fabric,Humble,1283,1283 #1283,9930 Fm 1960 Bypass Rd W,TX,77338-3579
Jo-ann fabric,La Verne,1288,1288 #1288,2086 Foothill Blvd Ste A,CA,91750-3562
Jo-ann fabric,Plano,1291,1291 #1291,700 Alma Dr,TX,75075-8844
Jo-ann fabric,Southampton,1304,1304 #1304,461 2Nd Street Pike,PA,18966-3801
Jo-ann fabric,Mesa,1305,1305 #1305,6136 E Main St,AZ,85205-8938
Jo-ann fabric,Las Cruces,1309,1309 #1309,1711 E University Ave,NM,88001-5780
Jo-ann fabric,Hemet,1318,1318 #1318,2275 E Florida Ave,CA,92544-4752
Jo-ann fabric,Port Richey,1333,1333 #1333,10057 Us Highway 19,FL,34668-3742
Jo-ann fabric,Houston,1402,1402 #1402,15520 Fm 529 Rd,TX,77095-2704
Jo-ann fabric,Mesa,1404,1404 #1404,965 S Gilbert Rd,AZ,85204-4400
Jo-ann fabric,Covina,1412,1412 #1412,1316A N Azusa Ave,CA,91722-1249
Jo-ann fabric,Houston,1418,1418 #1418,5520 Weslayan St,TX,77005-1942
Jo-ann fabric,Corona,1440,1440 #1440,2250 Griffin Way,CA,92879-6531
Jo-ann fabric,Salt Lake City,1444,1444 #1444,1311 E 3300 S,UT,84106-3011
Jo-ann fabric,Tulsa,1445,1445 #1445,5327 E 41St St,OK,74135-6007
Jo-ann fabric,Huntington Beach,1447,1447 #1447,9901 Adams Ave,CA,92646-4809
Jo-ann fabric,Boynton Beach,1452,1452 #1452,1632 S Federal Hwy,FL,33435-6901
Jo-ann fabric,Ramsey,1463,1463 #1463,36 Interstate Shop Ctr,NJ,07446-1138
Jo-ann fabric,Oceanside,1464,1464 #1464,2227 S El Camino Real Ste C,CA,92054-6318
Jo-ann fabric,Mesquite,1465,1465 #1465,1515 N Town East Blvd Ste 159,TX,75150-4142
Jo-ann fabric,Lemon Grove,1469,1469 #1469,7667 Broadway,CA,91945-1607
Jo-ann fabric,Wilmington,1471,1471 #1471,352 S College Rd Ste 24,NC,28403-1650
Jo-ann fabric,Athens,1475,1475 #1475,191 Alps Rd,GA,30606-4093
Jo-ann fabric,Raleigh,1478,1478 #1478,4412 Falls Of Neuse Rd Ste 101,NC,27609-6230
Jo-ann fabric,Port Charlotte,1484,1484 #1484,4265 Tamiami Trl Unit I,FL,33980-2149
Jo-ann fabric,Colonial Heights,1486,1486 #1486,60 Southpark Blvd,VA,23834-2962
Jo-ann fabric,Lubbock,1488,1488 #1488,5217 82Nd St Unit 123,TX,79424-2829
Jo-ann fabric,Winston-Salem,1490,1490 #1490,1612 S Stratford Rd,NC,27103-2924
Jo-ann fabric,Saint Joseph,1495,1495 #1495,603 N Belt Hwy,MO,64506-3009
Jo-ann fabric,Chesapeake,1507,1507 #1507,1733 Parkview Dr Ste 15-A,VA,23320-2630
Jo-ann fabric,Greensboro,1511,1511 #1511,4644 W Market St,NC,27407-1285
Jo-ann fabric,Virginia Beach,1518,1518 #1518,1725 Laskin Rd # 511-513,VA,23454-4502
Jo-ann fabric,Albuquerque,1524,1524 #1524,10131 Coors Blvd Nw Ste D3,NM,87114-4045
Jo-ann fabric,Whittier,1529,1529 #1529,16055 Whittier Blvd,CA,90603-2526
Jo-ann fabric,Topeka,1533,1533 #1533,2829 Sw Wanamaker Rd,KS,66614-4267
Jo-ann fabric,Douglasville,1549,1549 #1549,9439 Highway 5,GA,30135-1509
Jo-ann fabric,Manassas,1550,1550 #1550,10368 Festival Ln,VA,20109-3548
Jo-ann fabric,Sacramento,1568,1568 #1568,3130 Arden Way,CA,95825-2002
Jo-ann fabric,Bloomington,1572,1572 #1572,1701 E Empire St,IL,61704-3532
Jo-ann fabric,Jefferson City,1577,1577 #1577,3600 Country Club Dr Spc 408,MO,65109-1481
Jo-ann fabric,Norridge,1579,1579 #1579,4514 N Harlem Ave,IL,60706-4712
Jo-ann fabric,Columbus,1583,1583 #1583,"5555 Whittlesey Blvd, Ste 2900",GA,31909-7241
Jo-ann fabric,Scranton,1584,1584 #1584,429 Scranton Carbondale Hwy,PA,18508-1115
Jo-ann fabric,Wausau,1585,1585 #1585,3300 Rib Mountain Dr,WI,54401-7438
Jo-ann fabric,Middleburg Heights,1586,1586 #1586,6901 Pearl Road,OH,44130-3608
Jo-ann fabric,Quakertown,1588,1588 #1588,"1465 West Broad Street, Suite 20",PA,18951-1189
Jo-ann fabric,Countryside,1589,1589 #1589,20 Countryside Plaza,IL,60525-3934
Jo-ann fabric,Burton,1590,1590 #1590,4190 E Court St Ste 101,MI,48509-1745
Jo-ann fabric,Ontario,1591,1591 #1591,2255 Sw 4Th Avenue,OR,97914-1849
Jo-ann fabric,Medina,1592,1592 #1592,5005 Grande Blvd,OH,44256-6787
Jo-ann fabric,Benton Harbor,1593,1593 #1593,1800 Pipestone Road Ste 120,MI,49022-2311
Jo-ann fabric,Petoskey,1594,1594 #1594,1608 Anderson Rd,MI,49770-9256
Jo-ann fabric,Daytona Beach,1595,1595 #1595,"2400 W Intl Speedway Blvd, Ste 100",FL,32114-7248
Jo-ann fabric,Margate,1596,1596 #1596,3340 Nw 62Nd Avenue,FL,33063-8309
Jo-ann fabric,Lady Lake,1598,1598 #1598,540 N Hwy 441,FL,32159-3776
Jo-ann fabric,Clifton Park,1602,1602 #1602,19 Clifton Country Rd,NY,12065-3820
Jo-ann fabric,Poughkeepsie,1603,1603 #1603,2600 South Rd,NY,12601-7003
Jo-ann fabric,New Hartford,1604,1604 #1604,120 Genesee St,NY,13413-2329
Jo-ann fabric,Norwich,1607,1607 #1607,117 Salem Tpke,CT,06360-6459
Jo-ann fabric,Hadley,1609,1609 #1609,367 Russell St Ste A06,MA,01035-9456
Jo-ann fabric,Methuen,1610,1610 #1610,436 Broadway,MA,01844-2061
Jo-ann fabric,Shrewsbury,1611,1611 #1611,1000 Boston Tpke,MA,01545-3380
Jo-ann fabric,West Lebanon,1614,1614 #1614,"200 S Main St, Rt 12A",NH,03784-2014
Jo-ann fabric,Evendale,1621,1621 #1621,10400 Reading Rd,OH,45241-4816
Jo-ann fabric,North Wales,1626,1626 #1626,1200 Welsh Rd,PA,19454-3771
Jo-ann fabric,Pottstown,1627,1627 #1627,635 Schuylkill Rd  Ste Sq13,PA,19465-7429
Jo-ann fabric,Peoria,1637,1637 #1637,4700 N University St,IL,61614-5890
Jo-ann fabric,Davenport,1645,1645 #1645,902 W Kimberly Rd Ste 41,IA,52806-5717
Jo-ann fabric,Dubuque,1646,1646 #1646,555 John F Kennedy Rd Ste 101,IA,52002-5258
Jo-ann fabric,Iowa City,1647,1647 #1647,1029 S Riverside Dr,IA,52246-5616
Jo-ann fabric,Springfield,1649,1649 #1649,3370 S Glenstone Ave,MO,65804-4410
Jo-ann fabric,Ames,1650,1650 #1650,632 Lincoln Way,IA,50010-6911
Jo-ann fabric,Des Moines,1652,1652 #1652,5034 Se 14Th St,IA,50320-1606
Jo-ann fabric,Clive,1653,1653 #1653,8801 University Ave # 20C,IA,50325-6310
Jo-ann fabric,Topeka,1664,1664 #1664,1221 SW Gage Blvd,KS,66604-1896
Jo-ann fabric,Bemidji,1666,1666 #1666,1401 Paul Bunyan Dr Nw Ste 60,MN,56601-4123
Jo-ann fabric,Santa Fe,1668,1668 #1668,3140 Cerrillos Rd Ste B,NM,87507-2327
Jo-ann fabric,Albuquerque,1669,1669 #1669,2240 Wyoming Blvd Ne,NM,87112-2620
Jo-ann fabric,Farmington,1670,1670 #1670,915 Farmington Ave Ste D,NM,87401-7475
Jo-ann fabric,Aurora,1672,1672 #1672,13861 E Exposition Ave,CO,80012-2519
Jo-ann fabric,Boulder,1674,1674 #1674,2440 Arapahoe Ave,CO,80302-6709
Jo-ann fabric,Greeley,1676,1676 #1676,2650 11Th Ave,CO,80631-8441
Jo-ann fabric,Scottsbluff,1681,1681 #1681,1704 Broadway,NE,69361-2457
Jo-ann fabric,Nampa,1683,1683 #1683,1509 Caldwell Blvd,ID,83651-1797
Jo-ann fabric,Walla Walla,1687,1687 #1687,481 N Wilbur Ave,WA,99362-2253
Jo-ann fabric,Kennewick,1688,1688 #1688,751 N Columbia Center Blvd,WA,99336-7804
Jo-ann fabric,Twin Falls,1692,1692 #1692,840 Blue Lakes Blvd N,ID,83301-4040
Jo-ann fabric,Bozeman,1695,1695 #1695,2825 W Main St Unit S,MT,59718-3927
Jo-ann fabric,Helena,1696,1696 #1696,3131 N Montana Ave,MT,59602-7813
Jo-ann fabric,Kalispell,1697,1697 #1697,2165 Hwy 2 East Suite E,MT,59901-2876
Jo-ann fabric,East Wenatchee,1700,1700 #1700,300 Valley Mall Pkwy,WA,98802-4832
Jo-ann fabric,Spokane,1701,1701 #1701,2801 E 29Th Ave,WA,99223-4809
Jo-ann fabric,Moscow,1707,1707 #1707,1730 W Pullman Rd,ID,83843-4015
Jo-ann fabric,Seattle,1711,1711 #1711,2217 Nw 57Th St,WA,98107-3134
Jo-ann fabric,Bellingham,1725,1725 #1725,1125 E Sunset Dr Ste 125,WA,98226-1819
Jo-ann fabric,Hillsboro,1727,1727 #1727,2105 Se Tualatin Valley Hwy,OR,97123-5703
Jo-ann fabric,North Bend,1731,1731 #1731,1611 Virginia Ave,OR,97459-2729
Jo-ann fabric,Roseburg,1732,1732 #1732,780 Nw Garden Valley Blvd Ste 70,OR,97471-6517
Jo-ann fabric,Gresham,1735,1735 #1735,320 Nw Eastman Pkwy,OR,97030-7250
Jo-ann fabric,Medford,1739,1739 #1739,2350 Poplar Dr,OR,97504-5273
Jo-ann fabric,Oregon City,1742,1742 #1742,1842 Molalla Ave,OR,97045-4012
Jo-ann fabric,Spanish Fork,1748,1748 #1748,450 N Main St,UT,84660-1440
Jo-ann fabric,Logan,1752,1752 #1752,190 S Main St,UT,84321-5202
Jo-ann fabric,Orem,1756,1756 #1756,172 E University Pkwy,UT,84058-7686
Jo-ann fabric,Rohnert Park,1763,1763 #1763,425 Rohnert Park Expy W,CA,94928-7907
Jo-ann fabric,Yuba City,1768,1768 #1768,729B Colusa Ave,CA,95991-3734
Jo-ann fabric,Carson City,1769,1769 #1769,1344 S Stewart St,NV,89701-5219
Jo-ann fabric,Woodland,1771,1771 #1771,375 W Main St Ste E,CA,95695-3683
Jo-ann fabric,Reno,1774,1774 #1774,3750 Kietzke Ln,NV,89502-4728
Jo-ann fabric,Modesto,1782,1782 #1782,200 Standiford Ave,CA,95350-1153
Jo-ann fabric,Morgan Hill,1787,1787 #1787,225 Tennant Station Way,CA,95037-5463
Jo-ann fabric,Merced,1788,1788 #1788,3120 Meadows Ave,CA,95348-1901
Jo-ann fabric,Alhambra,1798,1798 #1798,2115 W Commonwealth Ave,CA,91803-1403
Jo-ann fabric,La Canada,1803,1803 #1803,2160 Foothill Blvd,CA,91011-1903
Jo-ann fabric,Sherman Oaks,1804,1804 #1804,13323 Riverside Dr,CA,91423-2508
Jo-ann fabric,Valencia,1807,1807 #1807,24355 Magic Mountain Pkwy,CA,91355-3402
Jo-ann fabric,Oxnard,1809,1809 #1809,2351 N Rose Ave,CA,93036-0601
Jo-ann fabric,Santa Monica,1816,1816 #1816,1637 Lincoln Blvd,CA,90404-3711
Jo-ann fabric,Simi Valley,1818,1818 #1818,2242 Tapo St.,CA,93063-3022
Jo-ann fabric,Flagstaff,1831,1831 #1831,1514 S Riordan Ranch St,AZ,86001-6372
Jo-ann fabric,Escondido,1841,1841 #1841,1680 E Valley Pkwy,CA,92027-2409
Jo-ann fabric,Poway,1843,1843 #1843,12313 Poway Rd,CA,92064-4218
Jo-ann fabric,San Diego,1845,1845 #1845,3633 Midway Dr,CA,92110-5202
Jo-ann fabric,Orange,1846,1846 #1846,1620 N Tustin St,CA,92867-3906
Jo-ann fabric,Yorba Linda,1851,1851 #1851,18633 Yorba Linda Blvd,CA,92886-4136
Jo-ann fabric,Northglenn,1858,1858 #1858,341 W 104Th Ave # 3,CO,80234-4154
Jo-ann fabric,Prescott,1859,1859 #1859,1260 Gail Gardner Way,AZ,86305-1641
Jo-ann fabric,Tampa,1861,1861 #1861,6234 Commerce Palms Blvd,FL,33647
Jo-ann fabric,Wellington,1862,1862 #1862,940 Sr 7,FL,33414-6265
Jo-ann fabric,Kokomo,1863,1863 #1863,2130 E Markland Avenue,IN,46901-6240
Jo-ann fabric,Willmar,1864,1864 #1864,1605 1St St S,MN,56201-4234
Jo-ann fabric,Fargo,1865,1865 #1865,"4340 13th Ave S, #101",ND,58103-3300
Jo-ann fabric,Eau Claire,1866,1866 #1866,4045 Commonwealth Ave,WI,54701-9000
Jo-ann fabric,Longview,1867,1867 #1867,700 Ocean Beach Hwy Ste 100,WA,98632-4009
Jo-ann fabric,Horseheads,1868,1868 #1868,1530 County Rt 64,NY,14845-2293
Jo-ann fabric,Mt. Pleasant,1869,1869 #1869,"4208 E Bluegrass Rd, Ste A",MI,48858-7966
Jo-ann fabric,Meridian,1871,1871 #1871,1163 Bonita Lakes Circle,MS,39301-6967
Jo-ann fabric,Spokane Valley,1872,1872 #1872,15110 E Indiana Avenue,WA,99216-1832
Jo-ann fabric,Lakewood,1873,1873 #1873,5255 Lakewood Blvd,CA,90712-2415
Jo-ann fabric,Southaven,1874,1874 #1874,6535 Towne Center Crossing,MS,38671
Jo-ann fabric,Fairfax,1875,1875 #1875,12124 Fairfax Towne Center,VA,22033-2876
Jo-ann fabric,Roseville,1876,1876 #1876,"1649 W County Rd, B2",MN,55113-3021
Jo-ann fabric,Manteca,1877,1877 #1877,2210 Daniels Street,CA,95337-6706
Jo-ann fabric,San Jose,1878,1878 #1878,"4950 Almaden Expwy, Ste 10",CA,95118-2014
Jo-ann fabric,Leominster,1879,1879 #1879,"100 Commercial Rd, Space H",MA,01453-3333
Jo-ann fabric,National City,1886,1886 #1886,1410 E Plaza Blvd Ste A,CA,91950-3614
Jo-ann fabric,Macon,1891,1891 #1891,5080 Riverside Drive,GA,31210-1100
Jo-ann fabric,Baxter,1892,1892 #1892,"14136 Baxter Dr, Ste 120",MN,56401
Jo-ann fabric,Murfreesboro,1893,1893 #1893,1923 Old Fort Pkwy,TN,37129-6905
Jo-ann fabric,Fayetteville,1894,1894 #1894,3835 North Mall Avenue,AR,72703-4905
Jo-ann fabric,North Canton,1900,1900 #1900,5487 Dressler Rd Nw,OH,44720-7748
Jo-ann fabric,Saginaw,1901,1901 #1901,2920 Tittabawassee Rd,MI,48604-9468
Jo-ann fabric,Woodbury,1902,1902 #1902,8208 Tamarack Vlg,MN,55125-3385
Jo-ann fabric,Las Vegas,1903,1903 #1903,2160 N Rainbow Blvd,NV,89108-7365
Jo-ann fabric,Franklin,1905,1905 #1905,2000 Mallory Ln Ste 270,TN,37067-4825
Jo-ann fabric,Columbia,1906,1906 #1906,6161 Columbia Crossing Dr,MD,21045-8206
Jo-ann fabric,Mentor,1907,1907 #1907,8000 Plaza Blvd,OH,44060-5522
Jo-ann fabric,Orlando,1908,1908 #1908,3562 E Colonial Dr,FL,32803-5147
Jo-ann fabric,Boardman,1909,1909 #1909,7386 Market St,OH,44512-5610
Jo-ann fabric,Indianapolis,1910,1910 #1910,8714 Castle Creek Parkway East,IN,46250-4311
Jo-ann fabric,Bel Air,1912,1912 #1912,615 Bel Air Rd Ste F,MD,21014-4315
Jo-ann fabric,Peoria,1913,1913 #1913,8195 W Bell Rd Ste M-3,AZ,85382-3805
Jo-ann fabric,Altamonte Springs,1915,1915 #1915,924 W State Road 436 Ste 1450,FL,32714-2933
Jo-ann fabric,Knoxville,1916,1916 #1916,154 N Peters Rd,TN,37923-4907
Jo-ann fabric,Phoenix,1917,1917 #1917,5021 E Ray Rd,AZ,85044-6407
Jo-ann fabric,Independence,1918,1918 #1918,3810 Crackerneck Rd,MO,64055-6728
Jo-ann fabric,Torrance,1919,1919 #1919,21800 Hawthorne Blvd Ste. 100,CA,90503-7004
Jo-ann fabric,Temecula,1920,1920 #1920,40462 Winchester Rd,CA,92591-5502
Jo-ann fabric,Duluth,1921,1921 #1921,2255 Pleasant Hill Rd Ste 200,GA,30096-2325
Jo-ann fabric,Fort Myers,1922,1922 #1922,4610 S Cleveland Ave,FL,33907-1316
Jo-ann fabric,North Olmsted,1923,1923 #1923,26337 Brookpark Rd,OH,44070-4346
Jo-ann fabric,Manchester,1924,1924 #1924,1440 Pleasant Valley Rd,CT,06042-8761
Jo-ann fabric,Jacksonville,1925,1925 #1925,6001 Argyle Forest Blvd Ste 11,FL,32244-6127
Jo-ann fabric,Overland Park,1926,1926 #1926,11401 Metcalf Ave,KS,66210-4015
Jo-ann fabric,Shelby Township,1927,1927 #1927,14367 Hall Rd,MI,48315-6107
Jo-ann fabric,Columbus,1928,1928 #1928,1265 Polaris Pkwy,OH,43240-2037
Jo-ann fabric,Albany,1929,1929 #1929,1440 Central Ave Ste 2,NY,12205-5118
Jo-ann fabric,Amherst,1930,1930 #1930,1551 Niagara Falls Blvd,NY,14228-2703
Jo-ann fabric,Blasdell,1932,1932 #1932,3540 Mckinley Pkwy,NY,14219-2658
Jo-ann fabric,Novi,1933,1933 #1933,43570 W Oaks Dr # B-3,MI,48377-3302
Jo-ann fabric,Maple Grove,1935,1935 #1935,12550 Elm Creek Blvd N,MN,55369-7050
Jo-ann fabric,Roseville,1940,1940 #1940,20550 E. 13 Mile Road,MI,48066
Jo-ann fabric,Coon Rapids,1941,1941 #1941,12779 Riverdale Blvd Nw,MN,55448-1253
Jo-ann fabric,Newington,1942,1942 #1942,3105 Berlin Tpke,CT,06111-4620
Jo-ann fabric,Rochester,1943,1943 #1943,3333 W Henrietta Rd Ste 90,NY,14623-3533
Jo-ann fabric,Federal Way,1944,1944 #1944,31523 Pacific Hwy S,WA,98003-5405
Jo-ann fabric,Dublin,1947,1947 #1947,2747 Festival Ln,OH,43017-2361
Jo-ann fabric,Taylor,1948,1948 #1948,23877 Eureka Rd,MI,48180-5253
Jo-ann fabric,Rochester,1949,1949 #1949,3042 Ridge Rd W,NY,14626-1645
Jo-ann fabric,Tukwila,1950,1950 #1950,17501 Southcenter Pkwy,WA,98188-3720
Jo-ann fabric,Frederick,1951,1951 #1951,1003-C Route 40 Unit 11,MD,21702-3903
Jo-ann fabric,Apple Valley,1952,1952 #1952,7614 150Th St W,MN,55124-7102
Jo-ann fabric,Northridge,1954,1954 #1954,19819 Rinaldi St,CA,91326-4145
Jo-ann fabric,Kennesaw,1957,1957 #1957,2500 Cobb Place Ln Nw,GA,30144-7521
Jo-ann fabric,Tampa,1958,1958 #1958,12635 Citrus Plaza Dr,FL,33625-3008
Jo-ann fabric,Brandon,1959,1959 #1959,11215 Causeway Blvd,FL,33511-2903
Jo-ann fabric,Alpharetta,1960,1960 #1960,965 N Point Dr,GA,30022-8266
Jo-ann fabric,Foothill Ranch,1961,1961 #1961,26672 Portola Pkwy,CA,92610-1755
Jo-ann fabric,Auburn Hills,1962,1962 #1962,600 Brown Rd,MI,48326-1307
Jo-ann fabric,Ontario,1963,1963 #1963,4470 Ontario Mills Pkwy,CA,91764-5107
Jo-ann fabric,Phoenix,1965,1965 #1965,21001 N Tatum Blvd,AZ,85050-4206
Jo-ann fabric,Avon,1966,1966 #1966,10401 E US Highway 36,IN,46123-7429
Jo-ann fabric,Maplewood,1970,1970 #1970,1739 Beam Ave,MN,55109-1128
Jo-ann fabric,Columbus,2001,2001 #2001,3880 Morse Rd,OH,43219-3014
Jo-ann fabric,Brighton,2003,2003 #2003,8449 W Grand River Ave,MI,48116-2324
Jo-ann fabric,Ypsilanti,2004,2004 #2004,3737 Carpenter Rd,MI,48197-9609
Jo-ann fabric,Snellville,2005,2005 #2005,1630 Scenic Hwy N Ste O,GA,30078-5659
Jo-ann fabric,Silverdale,2007,2007 #2007,2886 Nw Bucklin Hill Rd,WA,98383-8513
Jo-ann fabric,Florence,2010,2010 #2010,354 Cox Creek Pkwy,AL,35630-2811
Jo-ann fabric,Reynoldsburg,2012,2012 #2012,2891 Taylor Rd,OH,43068-8028
Jo-ann fabric,Pueblo,2013,2013 #2013,3449 Dillon Drive,CO,81008-1022
Jo-ann fabric,Henderson,2015,2015 #2015,651 Marks St,NV,89014-8600
Jo-ann fabric,Fayetteville,2016,2016 #2016,250 Pavilion Pkwy,GA,30214-7705
Jo-ann fabric,Flint,2017,2017 #2017,G3603 Miller Rd,MI,48507-1233
Jo-ann fabric,Akron,2021,2021 #2021,3977 Medina Rd,OH,44333-2444
Jo-ann fabric,Lansing,2022,2022 #2022,533 Mall Ct,MI,48912-5200
Jo-ann fabric,Naperville,2024,2024 #2024,526 South State Rt 59,IL,60540-0915
Jo-ann fabric,Saint Petersburg,2025,2025 #2025,2500 66Th St N,FL,33710-4048
Jo-ann fabric,Edina,2026,2026 #2026,3411 Hazelton Rd,MN,55435-4206
Jo-ann fabric,Frisco,2027,2027 #2027,2930 Preston Rd Ste 800,TX,75034-9058
Jo-ann fabric,Greenwood,2030,2030 #2030,1260 Us 31 North,IN,46142-4501
Jo-ann fabric,Dunedin,2031,2031 #2031,2343 Curlew Road,FL,34698-9329
Jo-ann fabric,Orlando,2032,2032 #2032,825 N Alafaya Trail,FL,32828-7049
Jo-ann fabric,Elk Grove,2033,2033 #2033,8509 Bond Road,CA,95624-9457
Jo-ann fabric,Lewisville,2034,2034 #2034,2325 S Stemmons Fwy,TX,75067-8754
Jo-ann fabric,Grapevine,2035,2035 #2035,1250 William D Tate Ave,TX,76051-4030
Jo-ann fabric,Dallas,2036,2036 #2036,"11700 Preston Rd, # 810",TX,75230-2716
Jo-ann fabric,Olympia,2038,2038 #2038,2725 Harrison Ave Nw Ste 500,WA,98502-4585
Jo-ann fabric,Jacksonville,2039,2039 #2039,"10261 River Marsh Drive, Suite 149",FL,32246-7418
Jo-ann fabric,Tucson,2042,2042 #2042,7255 East Broadway Blvd,AZ,85710-1483
Jo-ann fabric,Puyallup,2044,2044 #2044,"13410 Meridian East, Ste A",WA,98373-5627
Jo-ann fabric,Pittsburgh,2045,2045 #2045,7375 Mcknight Rd,PA,15237-3512
Jo-ann fabric,Greenfield,2046,2046 #2046,4950 South 74Th St,WI,53220-4320
Jo-ann fabric,Algonquin,2047,2047 #2047,215 South Randall Road,IL,60102-9781
Jo-ann fabric,Bloomingdale,2048,2048 #2048,362 W Army Trail Rd  Ste 230,IL,60108-2688
Jo-ann fabric,Cranberry Township,2050,2050 #2050,20111 Rt 19,PA,16066-6207
Jo-ann fabric,Monroeville,2051,2051 #2051,3700 William Penn Hwy,PA,15146-2152
Jo-ann fabric,Westminster,2052,2052 #2052,6795 West 88Th Ave,CO,80031-2946
Jo-ann fabric,Pittsburgh,2053,2053 #2053,"1800 Park Manor Blvd, Unit 5",PA,15205-4808
Jo-ann fabric,Columbus,2054,2054 #2054,4600 W Broad St,OH,43228-1611
Jo-ann fabric,Centennial,2055,2055 #2055,9090 East Phillips Place,CO,80112-3354
Jo-ann fabric,Vernon Hills,2057,2057 #2057,"413 North Milwaukee Ave., Unit 500",IL,60061-1573
Jo-ann fabric,Kissimmee,2058,2058 #2058,4801 W Irlo Bronson Memorial Hwy,FL,34746-5311
Jo-ann fabric,Greensburg,2059,2059 #2059,1600 Greengate Centre Blvd,PA,15601-1287
Jo-ann fabric,Rochester Hills,2061,2061 #2061,2105 South Rochester Road,MI,48307-3859
Jo-ann fabric,Colorado Springs,2062,2062 #2062,3795 Bloomington St,CO,80922-3201
Jo-ann fabric,Newark,2063,2063 #2063,341 W Main St,DE,19702-1534
Jo-ann fabric,Fayetteville,2064,2064 #2064,330 Towne Center Dr,NY,13066-1371
Jo-ann fabric,Geneva,2065,2065 #2065,714 Commons Drive,IL,60134-2541
Jo-ann fabric,Bellevue,2067,2067 #2067,15600 Ne 8Th St Ste H1,WA,98008-3496
Jo-ann fabric,Schererville,2068,2068 #2068,715 Us Highway 41,IN,46375-1217
Jo-ann fabric,Palmdale,2069,2069 #2069,39818 10Th Street W,CA,93551-3004
Jo-ann fabric,Shawnee,2070,2070 #2070,11215 West 63Rd St,KS,66203-3333
Jo-ann fabric,Aurora,2071,2071 #2071,7360 South Gartrell Road,CO,80016-4110
Jo-ann fabric,Taylorsville,2074,2074 #2074,5790  S Redwood Road,UT,84123-5395
Jo-ann fabric,Gilbert,2075,2075 #2075,2753 South Market Street,AZ,85295-1302
Jo-ann fabric,Naples,2077,2077 #2077,"6464 Naples Blvd, Ste 501",FL,34109-2013
Jo-ann fabric,Downingtown,2078,2078 #2078,931 East Lancaster Avenue,PA,19335-3328
Jo-ann fabric,Brookfield,2079,2079 #2079,16800 W Bluemound Rd,WI,53005-5918
Jo-ann fabric,Lynnwood,2081,2081 #2081,5824 196Th Street Sw,WA,98036-6001
Jo-ann fabric,Roseville,2082,2082 #2082,5811 Five Star Boulevard,CA,95678-3533
Jo-ann fabric,Hurst,2083,2083 #2083,1439 W Pipeline Road,TX,76053-4628
Jo-ann fabric,Fresno,2084,2084 #2084,8062 N Blackstone Ave,CA,93720-1544
Jo-ann fabric,Madison,2086,2086 #2086,6741 Odana Road,WI,53719-1013
Jo-ann fabric,Williamsville,2087,2087 #2087,4101 Transit Road Ste 1,NY,14221-7243
Jo-ann fabric,Mount Laurel,2089,2089 #2089,66 Centerton Road,NJ,08054-6102
Jo-ann fabric,Parkville,2090,2090 #2090,1951 Joppa Road,MD,21234-2733
Jo-ann fabric,Kansas City,2091,2091 #2091,2201 Nw Barry Road,MO,64154-1001
Jo-ann fabric,Fairless Hills,2092,2092 #2092,320 Commerce Boulevard,PA,19030-1024
Jo-ann fabric,Tacoma,2093,2093 #2093,4104 Tacoma Mall Blvd,WA,98409-7203
Jo-ann fabric,Webster,2094,2094 #2094,915 Holt Road,NY,14580-9101
Jo-ann fabric,Riverside,2095,2095 #2095,2620 Canyon Springs Pkwy,CA,92507-0922
Jo-ann fabric,Redlands,2096,2096 #2096,1625 W Lugonia Ave,CA,92374-2048
Jo-ann fabric,Cedar Hill,2098,2098 #2098,229 East Fm 1382 Ste 510,TX,75104-2184
Jo-ann fabric,Green Bay,2099,2099 #2099,2777 South Oneida Street,WI,54304-5750
Jo-ann fabric,Chesterfield,2100,2100 #2100,50860 Gratiot Avenue,MI,48051-2055
Jo-ann fabric,Hillsboro,2101,2101 #2101,7270 Ne Butler Street,OR,97124-9433
Jo-ann fabric,Vancouver,2102,2102 #2102,"11505 Ne Fourth Plain Rd, Ste 86",WA,98662-6312
Jo-ann fabric,Orland Park,2103,2103 #2103,15752 South La Grange Road,IL,60462-4766
Jo-ann fabric,Allen Park,2104,2104 #2104,23125 Outer Drive,MI,48101-3100
Jo-ann fabric,Fort Worth,2106,2106 #2106,1400 Green Oaks Road,TX,76116-1511
Jo-ann fabric,Riverdale,2107,2107 #2107,4978 South 1050 West,UT,84405-7105
Jo-ann fabric,Fort Wayne,2108,2108 #2108,4616 Coldwater Road,IN,46825-5548
Jo-ann fabric,Pensacola,2109,2109 #2109,"6601 North Davis Highway, Ste 25",FL,32504-6233
Jo-ann fabric,Fort Myers,2110,2110 #2110,10008 Gulf Center Drive,FL,33913-8961
Jo-ann fabric,Springfield,2111,2111 #2111,400 South State Road,PA,19064-1243
Jo-ann fabric,Homewood,2112,2112 #2112,17920 Halsted St,IL,60430-2014
Jo-ann fabric,Arlington Heights,2113,2113 #2113,373 East Palatine Road,IL,60004-3938
Jo-ann fabric,Fairbanks,2114,2114 #2114,250 3Rd St Ste 1,AK,99701-3151
Jo-ann fabric,Stockton,2115,2115 #2115,10904 Trinity Parkway,CA,95219-7230
Jo-ann fabric,Norton Shores,2116,2116 #2116,5663 Harvey Street,MI,49444-7735
Jo-ann fabric,Chicago,2117,2117 #2117,2639 North Elston Avenue,IL,60647-2018
Jo-ann fabric,West Melbourne,2118,2118 #2118,1537 West New Haven Avenue,FL,32904-3905
Jo-ann fabric,Buena Park,2119,2119 #2119,5885 Lincoln Avenue,CA,90620-3461
Jo-ann fabric,Tigard,2120,2120 #2120,"11945 Sw Pacific Highway, Ste 250",OR,97223-6478
Jo-ann fabric,Draper,2121,2121 #2121,268 East 12300 South,UT,84020-8184
Jo-ann fabric,Jackson,2122,2122 #2122,1099 North Wisner Street,MI,49202-3143
Jo-ann fabric,Milford,2123,2123 #2123,1405 Boston Post Road,CT,06460-2756
Jo-ann fabric,Loveland,2124,2124 #2124,1601 Fall River Drive,CO,80538-9063
Jo-ann fabric,Warwick,2125,2125 #2125,"1500 Bald Hill Rd, Ste A",RI,02886-4259
Jo-ann fabric,Irvine,2126,2126 #2126,2170 Barranca Pkwy,CA,92606-4940
Jo-ann fabric,Visalia,2127,2127 #2127,3424 S Mooney Blvd,CA,93277-7772
Jo-ann fabric,Evansville,2128,2128 #2128,929 N Green River Rd,IN,47715-2418
Jo-ann fabric,North Attleboro,2129,2129 #2129,"1360 S Washington St, Unit 3",MA,02760-6293
Jo-ann fabric,Portland,2130,2130 #2130,"3900 Se 82Nd Ave, Ste #1000",OR,97266-2945
Jo-ann fabric,Sanford,2131,2131 #2131,"3900 Se 82Nd Ave, Ste #1000",FL,32771-7416
Jo-ann fabric,Avondale,2132,2132 #2132,1717 N Dysart Rd,AZ,85392-1213
Jo-ann fabric,Concord,2133,2133 #2133,"1675 B Willow Pass Rd, Ste B",CA,94520-2649
Jo-ann fabric,Arlington,2134,2134 #2134,"137 Merchants Row, Ste 165",TX,76018-6024
Jo-ann fabric,Mt Juliet,2135,2135 #2135,"401 S Mt Juliet Rd, Ste 640",TN,37122-8469
Jo-ann fabric,Dayton,2136,2136 #2136,2270 Miamisburg-Centerville Rd,OH,45459-3817
Jo-ann fabric,Mesa,2137,2137 #2137,825 N Dobson Road,AZ,85201-7585
Jo-ann fabric,Fremont,2138,2138 #2138,43435 Boscell Road,CA,94538-5134
Jo-ann fabric,Winter Garden,2139,2139 #2139,3379 Daniels Road,FL,34787-7009
Jo-ann fabric,Austin,2140,2140 #2140,"10515 N Mo Pac Expy, Bldg 1",TX,78759-5468
Jo-ann fabric,Midlothian,2141,2141 #2141,125 Perimeter Drive,VA,23113-7315
Jo-ann fabric,Rancho Mirage,2142,2142 #2142,72765 Dinah Shore Drive,CA,92270-2703
Jo-ann fabric,Augusta,2143,2143 #2143,3435 Wrightsboro Road,GA,30909-2518
Jo-ann fabric,Pembroke Pines,2144,2144 #2144,11251 Pines Blvd,FL,33026-4118
Jo-ann fabric,Louisville,2145,2145 #2145,"4600 Shelbyville Rd, Ste 280",KY,40207
Jo-ann fabric,Citrus Hts,2146,2146 #2146,5425 Sunrise Blvd,CA,95610-7806
Jo-ann fabric,Mason,2147,2147 #2147,8125 Arbor Square Drive,OH,45040-5003
Jo-ann fabric,Brandywine,2148,2148 #2148,15920 Crain Hwy Se,MD,20613
Jo-ann fabric,Appleton,2149,2149 #2149,720 N Casaloma Drive,WI,54913
Jo-ann fabric,El Cerrito,2150,2150 #2150,300 El Cerrito Plaza,CA,94530-4004
Jo-ann fabric,Leesburg,2151,2151 #2151,502 Ft Evans Rd Ne,VA,20176-4097
Jo-ann fabric,Webster,2152,2152 #2152,1529A W Bay Area Blvd,TX,77598-3404
Jo-ann fabric,Ballwin,2153,2153 #2153,15355 Manchester Road,MO,63011-3026
Jo-ann fabric,Memphis,2154,2154 #2154,7746 Polo Grounds,TN,38125-5755
Jo-ann fabric,Round Rock,2155,2155 #2155,201 University Oaks Blvd,TX,78665-2422
Jo-ann fabric,Fairview Heights,2156,2156 #2156,10865 Lincoln Trail,IL,62208-2018
Jo-ann fabric,San Antonio,2157,2157 #2157,"25 Ne Loop, 410 #114",TX,78216-5898
Jo-ann fabric,Woodbridge,2158,2158 #2158,14350 Smoke Town Rd,VA,22192-4710
Jo-ann fabric,Fredericksburg,2159,2159 #2159,9685 Jefferson Davis Hw,VA,22407-9407
Jo-ann fabric,Harrisburg,2160,2160 #2160,5084 Jonestown Rd,PA,17112-4907
Jo-ann fabric,Saugus,2161,2161 #2161,1073 Broadway,MA,01906-3210
Jo-ann fabric,Boise,2162,2162 #2162,1085 N Milwaukee St,ID,83704-9011
Jo-ann fabric,Grand Rapids,2163,2163 #2163,3665 28Th Street Se,MI,49512-1684
Jo-ann fabric,Jensen Beach,2164,2164 #2164,3563 Northwest Federal Hwy,FL,34957-4451
Jo-ann fabric,Terre Haute,2165,2165 #2165,5705 Us Hwy 41,IN,47802-4167
Jo-ann fabric,Alexandria,2166,2166 #2166,3015 Hwy 29 South,MN,56308
Jo-ann fabric,Plantation,2167,2167 #2167,"801 S University Drive, Ste 75",FL,33324
Jo-ann fabric,Bend,2168,2168 #2168,61284 S Hwy 97,OR,97702
Jo-ann fabric,Hoover,2169,2169 #2169,1709 Montgomery Hwy S,AL,35244-1215
Jo-ann fabric,Sevierville,2170,2170 #2170,208 Collier Drive,TN,37862-6913
Jo-ann fabric,Chattanooga,2171,2171 #2171,"2020 Gunbarrel Rd, Ste 198",TN,37421
Jo-ann fabric,Columbia,2172,2172 #2172,"10050 Two Notch Rd, Ste 13",SC,29223-4306
Jo-ann fabric,Arlington,2173,2173 #2173,"3704 172ND ST NE, STE F",WA,98223
Jo-ann fabric,Austin,2174,2174 #2174,1700 17th St NW,MN,55912
Jo-ann fabric,Omaha,2175,2175 #2175,13415 West Center Rd,NE,68144
Jo-ann fabric,Darien,2176,2176 #2176,7511 Lemont Rd  Ste 100,IL,60561-4394
Jo-ann fabric,Montgomery,2177,2177 #2177,7951 Eastchase Pkwy,AL,36117-7041
Jo-ann fabric,St Peters,2178,2178 #2178,5610 Suemandy Road,MO,63376-4312
Jo-ann fabric,Denver,2179,2179 #2179,2580 South Colorado Blvd,CO,80222-5909
Jo-ann fabric,Cedar City,2180,2180 #2180,622 South Main St,UT,84720-3549
Jo-ann fabric,Cincinnati,2181,2181 #2181,Eastgate Crossing,OH,45245
Jo-ann fabric,Pocatello,2183,2183 #2183,1790 Hurley Drive,ID,83201
Jo-ann fabric,Huntsville,2184,2184 #2184,Huntsville Plaza,AL,35806
Jo-ann fabric,Roanoke,2185,2185 #2185,2043 Colonial Avenue,VA,24015
Jo-ann fabric,Bullhead City,2186,2186 #2186,Riverview Mall,AZ,86442
Jo-ann fabric,Fond du Lac,2187,2187 #2187,Forest Plaza,WI,54935
Jo-ann fabric,Dublin,2189,2189 #2189,7177 Amador Plaza Rd,CA,94568
Jo-ann fabric,Clarksville,2190,2190 #2190,951 East Lewis & Clark Pkwy,IN,47129
Jo-ann fabric,Mankato,2191,2191 #2191,Madison East Mall,MN,56001
Jo-ann fabric,Idaho Falls,2192,2192 #2192,2408 South 25th East,ID,83404
Jo-ann fabric,Wichita,2193,2193 #2193,3665 N Rock Rd,KS,67226
Jo-ann fabric,Jackson,2194,2194 #2194,1189 Vann Drive,TN,38305
Jo-ann fabric,Watertown,2195,2195 #2195,1283 Arsenal Street,NY,13601
Jo-ann fabric,Tulsa,2196,2196 #2196,10131 East 71st St,OK,74136-5036
Jo-ann fabric,Rockwall,2197,2197 #2197,1049 East IH 30,TX,75087
Jo-ann fabric,Lombard,2198,2198 #2198,441 E Roosevelt Road,IL,60148
Jo-ann fabric,Mt Vernon,2199,2199 #2199,510 E College Way,WA,98273
Jo-ann fabric,Santa Maria,2200,2200 #2200,1535 S Bradley Road,CA,93454
Jo-ann fabric,Florence,2201,2201 #2201,1945 West Palmetto St,SC,29501
Jo-ann fabric,Sonora,2202,2202 #2202,1151 Sanguinetti Road,CA,95370
Jo-ann fabric,Folsom,2203,2203 #2203,1010 E Bidwell Street,CA,95630
Jo-ann fabric,Elko,2204,2204 #2204,2755 Mountain City Hwy,NV,89801
Jo-ann fabric,Mooresville,2205,2205 #2205,221 Norman Station Blvd,NC,28117
Jo-ann fabric,SUGAR LAND,2206,2206 #2206,16626 SOUTHWEST FREEWAY,TX,77479
Jo-ann fabric,Spartanburg,2207,2207 #2207,660 Spartan Blvd,SC,29301
Jo-ann fabric,Waterloo,2208,2208 #2208,1407 Flammang Drive,IA,50702
Jo-ann fabric,Williamsburg,2209,2209 #2209,5103 Main Street,VA,23188
Jo-ann fabric,Casa Grande,2210,2210 #2210,1325 E Florence Blvd,AZ,85122
Jo-ann fabric,Canandaigua,2211,2211 #2211,3225 SR 364,NY,14424
Jo-ann fabric,Denton,2212,2212 #2212,2640 West University DR,TX,76201
Jo-ann fabric,Tooele,2213,2213 #2213,852 N Main Street,UT,84074
Jo-ann fabric,Osage Beach,2214,2214 #2214,3958 Jr. Prewitt Pkwy,MO,65065
Jo-ann fabric,Plover,2215,2215 #2215,1150 Meridian Dr,WI,54467
Jo-ann fabric,Corvallis,2216,2216 #2216,932 NW Circle Blvd,OR,97330
Jo-ann fabric,Salem,2218,2218 #2218,783 Lancaster Drive NE,OR,97301
Jo-ann fabric,St Louis,2219,2219 #2219,6910 S Lindbergh Blvd,MO,63125
Jo-ann fabric,Joliet,2220,2220 #2220,2741 Plainfield Rd,IL,60435
Jo-ann fabric,Richmond,2222,2222 #2222,7504 W Broad St,VA,23294
Jo-ann fabric,Cheyenne,2223,2223 #2223,1400 Dell Range Blvd,WY,82009
Jo-ann fabric,Greenville,2224,2224 #2224,146 SW Greenville Blvd,NC,27834
Jo-ann fabric,Tupelo,2225,2225 #2225,3875 N Gloster Street,MS,38804
Jo-ann fabric,Katy,2226,2226 #2226,1219 North Fry Road,TX,77449
Jo-ann fabric,New Philadelphia,2227,2227 #2227,400 Mill Street SE,OH,44663
Jo-ann fabric,Fort Collins,2228,2228 #2228,2701 S College Ave,CO,80525
Jo-ann fabric,Indianapolis,2229,2229 #2229,10030 E Washington St,IN,46229
Jo-ann fabric,Dalton,2230,2230 #2230,"816 Walnut Square Blvd, Suite 01",GA,30721
Jo-ann fabric,Norman,2231,2231 #2231,3449 W Main St,OK,73072
Jo-ann fabric,Warrenton,2232,2232 #2232,180 SE Neptune Dr,OR,97146
Jo-ann fabric,Owensboro,2233,2233 #2233,"5241 Frederica St, Space 3",KY,42301
Jo-ann fabric,Lakewood,2234,2234 #2234,"10750 W Colfax Ave, Ste 100",CO,80215
Jo-ann fabric,Wisconsin Dells,2236,2236 #2236,"121 Commerce St, Ste 1",WI,53965
Jo-ann fabric,Grand Junction,2238,2238 #2238,2424 Hwy 6 & 50,CO,81505
Jo-ann fabric,Gainesville,2239,2239 #2239,834-A Dawsonville Hwy,GA,30501
Jo-ann fabric,Cincinnati,2240,2240 #2240,10166 Colerain Avenue,OH,45251
Jo-ann fabric,Scarsdale,2241,2241 #2241,965 Central Park Avenue,NY,10583
Jo-ann fabric,Defiance,2242,2242 #2242,"1001 N Clinton St, Ste 1",OH,43512
Jo-ann fabric,Bismarck,2243,2243 #2243,2700 State St,ND,58501
Jo-ann fabric,Grand Island,2244,2244 #2244,"3404 W 13th Street, STE 153",NE,68803
Jo-ann fabric,Springfield,2246,2246 #2246,3051 W Wabash Avenue,IL,62704
Jo-ann fabric,Brunswick,2247,2247 #2247,137 Golden Isles Plaza,GA,31520
Jo-ann fabric,Charlotte,2248,2248 #2248,9523 South Blvd,NC,28273
Jo-ann fabric,Ankeny,2249,2249 #2249,1205 SE 16th Ct,IA,50021
Jo-ann fabric,Sterling,2250,2250 #2250,3201 E Lincolnway,IL,61081
Jo-ann fabric,San Antonio,2251,2251 #2251,11655 Bandera Rd,TX,78250
Jo-ann fabric,GOLDSBORO,2252,2252 #2252,625 N BERKELEY BLVD #H,NC,27534
Jo-ann fabric,Rocky Mount,2253,2253 #2253,572 Sutter's Creek Blvd,NC,27804
Jo-ann fabric,Charlottesville,2255,2255 #2255,1774 Rio Hill Ctr,VA,22901
Jo-ann fabric,Lafayette,2256,2256 #2256,3559 Ambassador Caffery Pkwy,LA,70503
Jo-ann fabric,Belton,2257,2257 #2257,1153 E North Ave,MO,64012
Jo-ann fabric,McHenry,2259,2259 #2259,3310 Shoppers Dr,IL,60050
Jo-ann fabric,Sierra Vista,2260,2260 #2260,"2200 El Mercado Loop, Suite 1184",AZ,85635
Jo-ann fabric,Florence,2261,2261 #2261,87 Spiral Dr,KY,41042
Jo-ann fabric,Hanover,2262,2262 #2262,1150 Carlisle St,PA,17331
Jo-ann fabric,Elk River,2263,2263 #2263,19154 Freeport St NW,MN,55330
Jo-ann fabric,Clay,2264,2264 #2264,4154 SR 31,NY,13041
Jo-ann fabric,Fort Worth,2265,2265 #2265,5212 S Hulen Street,TX,76132
Jo-ann fabric,Oklahoma City,2267,2267 #2267,8345 N Rockwell Ave,OK,73132
Jo-ann fabric,Jackson,2268,2268 #2268,6361 I-55 North,MS,39213
Jo-ann fabric,Baton Rouge,2269,2269 #2269,10535 S Mall Dr,LA,70809
Jo-ann fabric,Hesperia,2270,2270 #2270,12779 Main St,CA,92340
Jo-ann fabric,San Leandro,2271,2271 #2271,699 Lewelling Blvd Suite 230,CA,94579
Jo-ann fabric,Mayfield Heights,2272,2272 #2272,1533 Golden Gate Plaza  Suite #153,OH,44124
Jo-ann fabric,Joplin,2273,2273 #2273,101 N Range Line Rd,MO,64801
Jo-ann fabric,Comstock Park,2274,2274 #2274,3900 Alpine Ave NW,MI,49321
Jo-ann fabric,White Lake Twp.,2277,2277 #2277,9052 Highland Road,MI,48386
Jo-ann fabric,Vero Beach,2279,2279 #2279,5921 20th St,FL,32966
Jo-ann fabric,Sheboygan Falls,2280,2280 #2280,4079 Highway 28,WI,53085
Jo-ann fabric,Queen Creek,2281,2281 #2281,21238 S. Ellsworth Loop Road,AZ,85142
Jo-ann fabric,SARASOTA,2282,2282 #2282,8441 COOPER CREEK BLVD,FL,34243
Jo-ann fabric,Shakopee,2283,2283 #2283,4120 Dean Lakes Boulevard,MN,55379
Jo-ann fabric,Asheville,2284,2284 #2284,80 South Tunnel Road Suite 30,NC,28805
Jo-ann fabric,Reading,2286,2286 #2286,1075 Woodland Rd,PA,19610
Jo-ann fabric,Schaumburg,2287,2287 #2287,301 South Barrington Rd.,IL,60193
Jo-ann fabric,COLUMBIA,2289,2289 #2289,509 EAST NIFONG,MO,65201
Jo-ann fabric,Champaign,2290,2290 #2290,722 W Town Center Blvd,IL,61822
Jo-ann fabric,Stillwater,2291,2291 #2291,519  N  Main St.,OK,74075
Jo-ann fabric,Spring,2292,2292 #2292,25415 I-45 South,TX,77380
Jo-ann fabric,Wooster,2293,2293 #2293,3786 Burbank Rd  Suite #401,OH,44691
Jo-ann fabric,Crystal City,2294,2294 #2294,101 Twin City Mall,MO,63019
Jo-ann fabric,Centerville,2295,2295 #2295,302 N Market Place Dr,UT,84014
Jo-ann fabric,McKinney,2296,2296 #2296,"2050 West University Drive, Suite 250",TX,75070
Jo-ann fabric,North Little Rock,2297,2297 #2297,2637 Lakewood Village Dr,AR,72116
Jo-ann fabric,Panama City,2298,2298 #2298,413 East 23rd Street,FL,32405
Jo-ann fabric,Toledo,2300,2300 #2300,4948 Monroe St,OH,43623
Jo-ann fabric,TUCSON,2302,2302 #2302,4380 N. ORACLE RD. SUITE 150,AZ,85705
Jo-ann fabric,Glen Mills,2303,2303 #2303,600 Town Centre Drive Suite D-108,PA,19342
Jo-ann fabric,Madison,2305,2305 #2305,2088 Gallatin Pike North,TN,37115
Jo-ann fabric,Cedar Rapids,2306,2306 #2306,255 Collins Road NE,IA,52402
Jo-ann fabric,Sherman,2308,2308 #2308,4127 N Hwy 75,TX,75090
Jo-ann fabric,LYNCHBURG,2309,2309 #2309,3405 CANDLERS MOUNTAIN RD,VA,24502
Jo-ann fabric,St Louis,2310,2310 #2310,3200 Laclede Station Road,MO,63143
Jo-ann fabric,Grants Pass,2311,2311 #2311,1090 Northeast E Street,OR,97526
Jo-ann fabric,Indianapolis,2312,2312 #2312,1361 86th St W,IN,46260
Jo-ann fabric,KNOXVILLE,2313,2313 #2313,4627 GREENWAY DRIVE,TN,37918
Jo-ann fabric,Greenville,2314,2314 #2314,840 Woods Crossing Road,SC,29607
Jo-ann fabric,Billings,2315,2315 #2315,2833 King Avenue West,MT,59102
Jo-ann fabric,EUGENE,2317,2317 #2317,1024 GREEN ACRES ROAD,OR,97408
Jo-ann fabric,MORGANTON,2318,2318 #2318,E132 MORGANTON HEIGHTS BLVD,NC,28655
Jo-ann fabric,GILLETTE,2320,2320 #2320,2610 S. DOUGLAS HWY. SUITE 217,WY,82718
Jo-ann fabric,Klamath Falls,2321,2321 #2321,2880 South 6th Street,OR,97603
Jo-ann fabric,LAKE GENEVA,2322,2322 #2322,600 N. EDWARDS BLVD,WI,53147
Jo-ann fabric,Louisville,2323,2323 #2323,"4801 Outer Loop, Space #2323",KY,40219
Jo-ann fabric,PERU,2324,2324 #2324,3940 ROUTE 251 SUITE A1,IL,61354
Jo-ann fabric,Odessa,2325,2325 #2325,6351 E. Hwy 191,TX,79762
Jo-ann fabric,Coeur d'Alene,2326,2326 #2326,"200 West Hanley Avenue, Suite 1101",ID,83815
Jo-ann fabric,Beaver Dam,2327,2327 #2327,1645 NORTH SPRING STREET,WI,53916
Jo-ann fabric,Charleston,2328,2328 #2328,"2243 Ashley Crossing Drive, Suite C",SC,29414
Jo-ann fabric,Washington,2329,2329 #2329,720 W. Telegraph St.,UT,84780
Jo-ann fabric,Sahuarita,2330,2330 #2330,"18785 W. I-19 Frontage Road, Suite 113",AZ,85629
Jo-ann fabric,American Fork,2331,2331 #2331,640 East State Street,UT,84003
Jo-ann fabric,LANSING,2332,2332 #2332,3750 WEST SAGINAW STREET,MI,48917
Jo-ann fabric,Muscatine,2333,2333 #2333,"1903 Park Avenue, Suite A004",IA,52761
Jo-ann fabric,Clinton,2334,2334 #2334,1803 West 1800 North Suite G1,UT,84015
Jo-ann fabric,Yulee,2335,2335 #2335,463877 State Road 200,FL,32097
Jo-ann fabric,Sault Sainte Marie,2336,2336 #2336,4510 I-75 Business Spur Rd.,MI,49783
Jo-ann fabric,ALBANY,2337,2337 #2337,2800 OLD DAWSON ROAD,GA,31707
Jo-ann fabric,Johnstown,2338,2338 #2338,1425 Scalp Avenue - Space 110,PA,15904
Jo-ann fabric,FONTANA,2339,2339 #2339,"16685 SIERRA PKWY 100, LOT 4 92336",CA,92336
Jo-ann fabric,Ithaca,2342,2342 #2342,"2309 N Triphammer Road, Unit 1",NY,14850
Jo-ann fabric,Corbin,2343,2343 #2343,"14659 N US Highway 25 E, Unit #26",KY,40701
Jo-ann fabric,MANHATTAN,2344,2344 #2344,1000 West Loop Place Ste 120,KS,66502
Jo-ann fabric,Selinsgrove,2345,2345 #2345,"1 Susquehanna Valley Mall Dr., Space # D-6",PA,17870
Jo-ann fabric,AUSTIN,2346,2346 #2346,"9500 S IH 35 SB SERVICE ROAD, BLDG F",TX,78748
Jo-ann fabric,Menomonee Falls,2347,2347 #2347,N78W14531 Appleton Ave.,WI,53051
Jo-ann fabric,Oshkosh,2348,2348 #2348,1226 Koeller Street,WI,54902
Jo-ann fabric,Little Rock,2349,2349 #2349,2616 S Shackleford Rd Ste A,AR,72205
Jo-ann fabric,Red Wing,2350,2350 #2350,160 Tyler Road North,MN,55066
Jo-ann fabric,Summerville,2351,2351 #2351,1215-B North Main Street,SC,29483
Jo-ann fabric,Hendersonville,2352,2352 #2352,1800 Four Seasons Blvd,NC,28792
Jo-ann fabric,Redding,2353,2353 #2353,1175 Dana Drive,CA,96003
Jo-ann fabric,Warrington,2354,2354 #2354,397 Easton Road,PA,18976
Jo-ann fabric,HUDSON,2356,2356 #2356,160 FAIRVIEW AVENUE,NY,12534
Jo-ann fabric,PHILADELPHIA,2357,2357 #2357,11000 ROOSEVELT BLVD,PA,19116
Jo-ann fabric,Shawnee,2358,2358 #2358,4901 N. Kickapoo Street,OK,74804
Jo-ann fabric,Conyers,2359,2359 #2359,1380 Dogwood Drive,GA,30013
Jo-ann fabric,Campbellsville,2360,2360 #2360,399 Campbellsville Bypass #24A,KY,42718
Jo-ann fabric,Washington,2361,2361 #2361,1976 Charlotte's Way Drive,MO,63090
Jo-ann fabric,COMMACK,2362,2362 #2362,6A GARET PLACE,NY,11725
Jo-ann fabric,Slidell,2363,2363 #2363,105-135 Northshore Blvd.,LA,70460
Jo-ann fabric,Newnan,2364,2364 #2364,1074 Bullsboro Drive,GA,30265
Jo-ann fabric,Rock Springs,2366,2366 #2366,"2441 Foothill Blvd, Suite #5",WY,82901
Jo-ann fabric,Montrose,2368,2368 #2368,"1601 Oxbow Drive, Ste. 320",CO,81401
Jo-ann fabric,Livermore,2370,2370 #2370,4650  Arroya Vista S/C,CA,94551
Jo-ann fabric,Lincoln,2371,2371 #2371,"220 N. 66th Street, Ste 270",NE,68505
Jo-ann fabric,Woodland Hills,2374,2374 #2374,22914 W. Victory Blvd.,CA,91367
Jo-ann fabric,PEEKSKILL,2375,2375 #2375,1831 MAIN ST,NY,10566
Jo-ann fabric,Mobile,2376,2376 #2376,3725  Airport Blvd. Unit 100-C,AL,36608
Jo-ann fabric,Battle Creek,2377,2377 #2377,"5420 Beckley Road, Suite M",MI,49015
Jo-ann fabric,Grandville,2378,2378 #2378,3323 Century Center Drive,MI,49418
Jo-ann fabric,Athens,2380,2380 #2380,"743 E. STATE STREET, SUITE O",OH,45701
Jo-ann fabric,PRINCE FREDERICK,2381,2381 #2381,"521 N. SOLOMON'S ISLAND RD, STE 34",MD,20678
Jo-ann fabric,Wheaton,2382,2382 #2382,"11160 Veirs Mill Road, Unit 180",MD,20902
Jo-ann fabric,CHICAGO,2386,2386 #2386,555 W. ROOSEVELT ROAD,IL,60607
Jo-ann fabric,GLENDALE,2389,2389 #2389,1000 SOUTH CENTRAL AVENUE,CA,91204
Jo-ann fabric,ASHLAND,2392,2392 #2392,"500 WINCHESTER AVE, SUITE 700",KY,41101
Jo-ann fabric,BEAVERTON,2396,2396 #2396,4005 SW 117TH STREET,OR,97005
Jo-ann fabric,REDMOND,2397,2397 #2397,732 SW 6TH STREET,OR,97756
Jo-ann fabric,HOUSTON,1433,1433 #1433,12918 WILLOW CHASE DR,TX,77070-5656
Jo-ann fabric,Brookfield,2182,2182 #2182,143 Federal Rd,CT,6804
Jo-ann fabric,Paramus,2217,2217 #2217,30 A & S Drive,NJ,7652
Jo-ann fabric,Enfield,2266,2266 #2266,136 Elm St,CT,6082
Jo-ann fabric,BROCKTON,2288,2288 #2288,200 WESTGATE DR.,MA,2301
Jo-ann fabric,Plymouth,2299,2299 #2299,32 Shops @ 5 Way,MA,2360
Jo-ann fabric,Rochester,2301,2301 #2301,160 Washington St Ste 606,NH,3839
Jo-ann fabric,BARRE,2340,2340 #2340,"1400 U.S. ROUTE 302, SUITE 10",VT,5641
Jo-ann fabric,SUCCASUNNA,2341,2341 #2341,281-28 ROUTE 10E,NJ,7876
Jo-ann fabric,Cherry Hill,2355,2355 #2355,"2234 W. Marlton Pike Road, Plot E3",NJ,8002
Jo-ann fabric,Vernal,2365,2365 #2365,2089 West Hwy 40,UT,84078
Jo-ann fabric,Torrington,2367,2367 #2367,39 South Main St.,CT,6790
Jo-ann fabric,Merrillville,2373,2373 #2373,1916 E 80th Avenue #14,IN,46410
Jo-ann fabric,Riverdale,2383,2383 #2383,48 Route 23,NJ,7457
Jo-ann fabric,New Braunfels,2387,2387 #2387,"1671 IH-35 South, Suite 208",TX,78130-2501
Jo-ann fabric,Gainesville,2391,2391 #2391,3202 SW 35th Blvd,FL,32608
Jo-ann fabric,Vancouver,2394,2394 #2394,7907 NE Highway 99,WA,98665
Jo-ann fabric,El Centro,2395,2395 #2395,522 N. Imperial Ave.,CA,92243
Jo-ann fabric,Tifton,2400,2400 #2400,612 Virginia Ave. North,GA,31794
Jo-ann fabric,TULLAHOMA,2402,2402 #2402,1600 JACKSON ST.,TN,37388
Jo-ann fabric,Faribault,2404,2404 #2404,"200 Western Ave NW, Suite # C10",MN,55021
Jo-ann fabric,Los Angeles,2406,2406 #2406,1250 S La Cienega Blvd,CA,90035
Jo-ann fabric,Toms River,2409,2409 #2409,1379 Hooper Avenue,NJ,8753
Jo-ann fabric,Elyria,2410,2410 #2410,380 Market Dr.,OH,44035
Jo-ann fabric,Southington,2411,2411 #2411,774 Queen St.,CT,6489
Jo-ann fabric,Houston,2415,2415 #2415,9960 Old Katy Road,TX,77055
Jo-ann fabric,GLASGOW,2419,2419 #2419,376 NORTH L. ROGERS WELLS BLVD.,KY,42141
Jo-ann fabric,RIVERSIDE,2422,2422 #2422,3635 RIVERSIDE PLAZA DR. STE.240,CA,92506
Jo-ann fabric,SOUTH BEND,2424,2424 #2424,1217 E. IRELAND ROAD,IN,46614
Jo-ann fabric,MONROE,2426,2426 #2426,2115 W. ROOSEVELT BLVD.,NC,28110
Jo-ann fabric,CLOVIS,2428,2428 #2428,1065 HERNDON AVE.,CA,93611
Jo-ann fabric,BEDFORD,2439,2439 #2439,1224 JAMES AVE.,IN,47421
