keywords,city,Aggdata Store Number,store_number,address,state,zip_code
Jo-Ann Fabric and Craft Stores,Falls Church,102,102 #102 #0102,6320 Seven Corners Ctr,VA,22044-2409
Jo-Ann Fabric and Craft Stores,Gaithersburg,106,106 #106 #0106,2A Bureau Dr,MD,20878-1402
Jo-Ann Fabric and Craft Stores,Middleton,107,107 #107 #0107,230 S Main St,MA,01949-2449
Jo-Ann Fabric and Craft Stores,Corte Madera,112,112 #112 #0112,245 Tamal Vista Blvd,CA,94925-1110
Jo-Ann Fabric and Craft Stores,Sterling,115,115 #115 #0115,46301 Potomac Run Plz Ste 160,VA,20164-6619
Jo-Ann Fabric and Craft Stores,Holbrook,120,120 #120 #0120,5705 Sunrise Hwy,NY,11741-4801
Jo-Ann Fabric and Craft Stores,Greenbelt,123,123 #123 #0123,6200 Greenbelt Rd,MD,20770-1021
Jo-Ann Fabric and Craft Stores,Hooksett,132,132 #132 #0132,1328 Hooksett Rd,NH,03106-1815
Jo-Ann Fabric and Craft Stores,Miami,135,135 #135 #0135,8257 W Flagler St,FL,33144-2060
Jo-Ann Fabric and Craft Stores,Crestwood,138,138 #138 #0138,4917 Cal Sag Rd,IL,60445-4416
Jo-Ann Fabric and Craft Stores,Wheaton,140,140 #140 #0140,36 Danada Sq W,IL,60187-1000
Jo-Ann Fabric and Craft Stores,Whitehall,145,145 #145 #0145,2570 Macarthur Rd Ste 12,PA,18052-3815
Jo-Ann Fabric and Craft Stores,Westbury,153,153 #153 #0153,580 Old Country Rd,NY,11590-4512
Jo-Ann Fabric and Craft Stores,Santa Rosa,154,154 #154 #0154,3620 Industrial Dr,CA,95403-2031
Jo-Ann Fabric and Craft Stores,Tyngsboro,159,159 #159 #0159,440 Middlesex Rd,MA,01879-1070
Jo-Ann Fabric and Craft Stores,Great Falls,163,163 #163 #0163,2515 10Th Ave S,MT,59405-3236
Jo-Ann Fabric and Craft Stores,Wasilla,168,168 #168 #0168,1830 E Parks Hwy Ste A122,AK,99654-7375
Jo-Ann Fabric and Craft Stores,Hudson,171,171 #171 #0171,5381 Darrow Rd,OH,44236-4007
Jo-Ann Fabric and Craft Stores,Minot,172,172 #172 #0172,1015 S Broadway,ND,58701-4667
Jo-Ann Fabric and Craft Stores,Fort Myers,173,173 #173 #0173,15201 N Cleveland Ave Ste 400,FL,33903-2715
Jo-Ann Fabric and Craft Stores,Ann Arbor,176,176 #176 #0176,2897 Oak Valley Dr,MI,48103-9243
Jo-Ann Fabric and Craft Stores,North Dartmouth,177,177 #177 #0177,454 State Rd,MA,02747-4308
Jo-Ann Fabric and Craft Stores,Lancaster,181,181 #181 #0181,838 Plaza Blvd,PA,17601-2738
Jo-Ann Fabric and Craft Stores,Lake Zurich,186,186 #186 #0186,696 S Rand Rd,IL,60047-3409
Jo-Ann Fabric and Craft Stores,Nashua,189,189 #189 #0189,10 Northwest Blvd,NH,03063-4066
Jo-Ann Fabric and Craft Stores,Williamsport,200,200 #200 #0200,1746 E 3Rd St,PA,17701-3848
Jo-Ann Fabric and Craft Stores,Queensbury,206,206 #206 #0206,756 Upper Glen St Ste 15,NY,12804-2029
Jo-Ann Fabric and Craft Stores,Sandusky,211,211 #211 #0211,320 E Perkins Ave,OH,44870-4906
Jo-Ann Fabric and Craft Stores,Ashtabula,212,212 #212 #0212,3315 N Ridge E Ste 140,OH,44004-4347
Jo-Ann Fabric and Craft Stores,Bridgeville,221,221 #221 #0221,1155 Washington Pike,PA,15017-2827
Jo-Ann Fabric and Craft Stores,Butler,224,224 #224 #0224,160 Pullman Sq,PA,16001-5640
Jo-Ann Fabric and Craft Stores,Cranberry,225,225 #225 #0225,6945 US 322,PA,16319-3108
Jo-Ann Fabric and Craft Stores,Lima,227,227 #227 #0227,2720 Elida Rd,OH,45805-1231
Jo-Ann Fabric and Craft Stores,Cockeysville,231,231 #231 #0231,9978 York Rd,MD,21030-3401
Jo-Ann Fabric and Craft Stores,Hermitage,235,235 #235 #0235,2481 E State St,PA,16148-2723
Jo-Ann Fabric and Craft Stores,State College,236,236 #236 #0236,505 Benner Pike,PA,16801-7309
Jo-Ann Fabric and Craft Stores,Washington,241,241 #241 #0241,301 Oak Spring Rd,PA,15301-2966
Jo-Ann Fabric and Craft Stores,Annapolis,245,245 #245 #0245,150 Jennifer Rd Ste C,MD,21401-3044
Jo-Ann Fabric and Craft Stores,Centereach,246,246 #246 #0246,191 Centereach Mall,NY,11720-2751
Jo-Ann Fabric and Craft Stores,Columbus,250,250 #250 #0250,3060 Columbus Ctr,IN,47203-3415
Jo-Ann Fabric and Craft Stores,Marlton,251,251 #251 #0251,515 Route 73 S Ste 12,NJ,08053-9661
Jo-Ann Fabric and Craft Stores,Waterbury,254,254 #254 #0254,861 Wolcott St,CT,06705-1301
Jo-Ann Fabric and Craft Stores,W Babylon,257,257 #257 #0257,735 W Montauk Hwy,NY,11704-8219
Jo-Ann Fabric and Craft Stores,Rochester,259,259 #259 #0259,5154 Highway 52 Ne Frontage Rd,MN,55901-0168
Jo-Ann Fabric and Craft Stores,Newington,266,266 #266 #0266,2064 Woodbury Ave Ste 302,NH,03801-7800
Jo-Ann Fabric and Craft Stores,Adrian,279,279 #279 #0279,2576 S Main St,MI,49221-4305
Jo-Ann Fabric and Craft Stores,East Liverpool,284,284 #284 #0284,"15765 State Route 170, Ste 1",OH,43920-9600
Jo-Ann Fabric and Craft Stores,Findlay,286,286 #286 #0286,1800 Tiffin Ave,OH,45840-6789
Jo-Ann Fabric and Craft Stores,Rutland,289,289 #289 #0289,308 Us Route 7 S,VT,05701-4725
Jo-Ann Fabric and Craft Stores,Pittsfield,292,292 #292 #0292,457 Dalton Ave,MA,01201-2912
Jo-Ann Fabric and Craft Stores,Midland,294,294 #294 #0294,1910 N Saginaw Rd,MI,48640-6613
Jo-Ann Fabric and Craft Stores,Lakewood,301,301 #301 #0301,318 E Fairmount Ave Rm 106,NY,14750-2007
Jo-Ann Fabric and Craft Stores,Niles,304,304 #304 #0304,5555 Youngstown Warren Rd,OH,44446-4804
Jo-Ann Fabric and Craft Stores,Holland,305,305 #305 #0305,12635 Felch St Ste 60,MI,49424-8275
Jo-Ann Fabric and Craft Stores,Grosse Pointe,306,306 #306 #0306,18850 Mack Ave,MI,48236-2925
Jo-Ann Fabric and Craft Stores,West Palm Beach,307,307 #307 #0307,9810 Alternate A1A,FL,33410-4902
Jo-Ann Fabric and Craft Stores,Springfield,308,308 #308 #0308,1608J Upper Valley Pike Ste C9,OH,45504-4065
Jo-Ann Fabric and Craft Stores,Fremont,309,309 #309 #0309,1212 Oak Harbor Rd,OH,43420-1021
Jo-Ann Fabric and Craft Stores,Beckley,310,310 #310 #0310,307 Beckley Plz,WV,25801-2215
Jo-Ann Fabric and Craft Stores,Swansea,311,311 #311 #0311,207 Swansea Mall Dr Ste 100,MA,02777-4120
Jo-Ann Fabric and Craft Stores,Lakeland,312,312 #312 #0312,4241 Us Highway 98 N,FL,33809-3817
Jo-Ann Fabric and Craft Stores,Bluefield,313,313 #313 #0313,531 Commerce Dr,VA,24605-9697
Jo-Ann Fabric and Craft Stores,Madison,319,319 #319 #0319,2021 Zeier Rd,WI,53704-7419
Jo-Ann Fabric and Craft Stores,Lexington,322,322 #322 #0322,"125 E Reynolds Rd, Ste 160",KY,40517-9002
Jo-Ann Fabric and Craft Stores,Pewaukee,324,324 #324 #0324,2020 Silvernail Rd,WI,53072-5524
Jo-Ann Fabric and Craft Stores,Marion,328,328 #328 #0328,1129 N Baldwin Ave Ste 32,IN,46952-2564
Jo-Ann Fabric and Craft Stores,Topsham,329,329 #329 #0329,"49 Topsham Fair Mall Road, Ste 17",ME,04086-1736
Jo-Ann Fabric and Craft Stores,Spring Hill,333,333 #333 #0333,4387 Commercial Way,FL,34606-1963
Jo-Ann Fabric and Craft Stores,Solon,340,340 #340 #0340,33615 Aurora Rd,OH,44139-3707
Jo-Ann Fabric and Craft Stores,Decatur,344,344 #344 #0344,4298 N Prospect St,IL,62526-6100
Jo-Ann Fabric and Craft Stores,Alpena,348,348 #348 #0348,2686 Us Highway 23 S,MI,49707-4620
Jo-Ann Fabric and Craft Stores,Fort Gratiot,351,351 #351 #0351,4405 24Th Ave,MI,48059-3808
Jo-Ann Fabric and Craft Stores,Kent,354,354 #354 #0354,25810 104Th Ave Se,WA,98030-7608
Jo-Ann Fabric and Craft Stores,Cortland,358,358 #358 #0358,162 Clinton St # 2,NY,13045-1343
Jo-Ann Fabric and Craft Stores,Parkersburg,363,363 #363 #0363,2311 Ohio Ave Unit C,WV,26101-2559
Jo-Ann Fabric and Craft Stores,Marion,366,366 #366 #0366,1471A Marion Waldo Rd,OH,43302-7421
Jo-Ann Fabric and Craft Stores,Meadville,372,372 #372 #0372,18921 Park Avenue Plz,PA,16335-4015
Jo-Ann Fabric and Craft Stores,Atlantic  Beach,377,377 #377 #0377,977 Atlantic  Blvd,FL,32233-3311
Jo-Ann Fabric and Craft Stores,Steubenville,378,378 #378 #0378,282 S Hollywood Blvd,OH,43952-2422
Jo-Ann Fabric and Craft Stores,Toledo,379,379 #379 #0379,2559 S Reynolds Rd,OH,43614-1434
Jo-Ann Fabric and Craft Stores,Chillicothe,384,384 #384 #0384,1080 N Bridge St,OH,45601-1789
Jo-Ann Fabric and Craft Stores,Du Bois,387,387 #387 #0387,5456 Shaffer Rd,PA,15801-3313
Jo-Ann Fabric and Craft Stores,Westminster,395,395 #395 #0395,20 Englar Rd,MD,21157-4842
Jo-Ann Fabric and Craft Stores,Beloit,396,396 #396 #0396,2759 Prairie Ave,WI,53511-2246
Jo-Ann Fabric and Craft Stores,Hanover,403,403 #403 #0403,1302 Washington St,MA,02339-1631
Jo-Ann Fabric and Craft Stores,Carlisle,404,404 #404 #0404,East 800 High St  Suite 400,PA,17013-3017
Jo-Ann Fabric and Craft Stores,Natick,408,408 #408 #0408,244 Worcester Rd,MA,01760-1825
Jo-Ann Fabric and Craft Stores,Waterville,410,410 #410 #0410,180 Jkf Plaza,ME,04901-5015
Jo-Ann Fabric and Craft Stores,Batavia,412,412 #412 #0412,4152 W Main St Ste 12,NY,14020-1235
Jo-Ann Fabric and Craft Stores,Traverse City,414,414 #414 #0414,724 Munson Ave,MI,49686-3525
Jo-Ann Fabric and Craft Stores,Akron,417,417 #417 #0417,1500 Canton Rd,OH,44312-4067
Jo-Ann Fabric and Craft Stores,Milford,418,418 #418 #0418,"91 Medway Rd, Ste 3",MA,01757-2923
Jo-Ann Fabric and Craft Stores,Janesville,421,421 #421 #0421,1335 Creston Park Dr,WI,53545-1126
Jo-Ann Fabric and Craft Stores,Vestal,425,425 #425 #0425,736 Vestal Pkwy E,NY,13850-1683
Jo-Ann Fabric and Craft Stores,Owosso,426,426 #426 #0426,210 N Washington St,MI,48867-2821
Jo-Ann Fabric and Craft Stores,Portland,429,429 #429 #0429,1064 Brighton Ave,ME,04102-1030
Jo-Ann Fabric and Craft Stores,California,431,431 #431 #0431,22576 Macarthur Blvd Ste 300,MD,20619-3088
Jo-Ann Fabric and Craft Stores,W Roxbury,438,438 #438 #0438,1580 Vfw Pkwy # 1600,MA,02132-5500
Jo-Ann Fabric and Craft Stores,Deptford,445,445 #445 #0445,1800 Clements Bridge Rd Ste 18,NJ,08096-2022
Jo-Ann Fabric and Craft Stores,Niagara Falls,455,455 #455 #0455,2429 Military Rd,NY,14304-1551
Jo-Ann Fabric and Craft Stores,Lower Burrell,457,457 #457 #0457,155 Hillcrest Shopping Ctr,PA,15068-3504
Jo-Ann Fabric and Craft Stores,Amsterdam,461,461 #461 #0461,"4908 St Hwy 30, Ste 8",NY,12010-6414
Jo-Ann Fabric and Craft Stores,Bridgeport,463,463 #463 #0463,2120 Meadowbrook Rd,WV,26330-9788
Jo-Ann Fabric and Craft Stores,Ogdensburg,464,464 #464 #0464,2981 Ford Street Extension,NY,13669-1747
Jo-Ann Fabric and Craft Stores,Westford,472,472 #472 #0472,174 Littleton Rd,MA,01886-3138
Jo-Ann Fabric and Craft Stores,Minnetonka,473,473 #473 #0473,1635 Plymouth Rd,MN,55305-1956
Jo-Ann Fabric and Craft Stores,Raynham,477,477 #477 #0477,300 New State Hwy,MA,02767-1418
Jo-Ann Fabric and Craft Stores,Hagerstown,480,480 #480 #0480,1109 Maryland Ave,MD,21740-7203
Jo-Ann Fabric and Craft Stores,Erie,485,485 #485 #0485,7200 Peach St Unit 150,PA,16509-4758
Jo-Ann Fabric and Craft Stores,Elkhart,490,490 #490 #0490,3701 S Main St Ste 410,IN,46517-3141
Jo-Ann Fabric and Craft Stores,Essexville,492,492 #492 #0492,2950 Center Ave,MI,48732-1704
Jo-Ann Fabric and Craft Stores,Chambersburg,495,495 #495 #0495,1678 Lincoln Way E # 7,PA,17201-3346
Jo-Ann Fabric and Craft Stores,Portage,498,498 #498 #0498,6151 S Westnedge Ave,MI,49002-2811
Jo-Ann Fabric and Craft Stores,Quincy,503,503 #503 #0503,425 N 32Nd St,IL,62301-4647
Jo-Ann Fabric and Craft Stores,Marietta,506,506 #506 #0506,448 Pike St,OH,45750-3328
Jo-Ann Fabric and Craft Stores,Edwardsville,507,507 #507 #0507,"150 W Side Mall, #150",PA,18704-3111
Jo-Ann Fabric and Craft Stores,Auburn,508,508 #508 #0508,2000 Clark Street Rd,NY,13021-9698
Jo-Ann Fabric and Craft Stores,Severna Park,509,509 #509 #0509,562 Governor Ritchie Hwy Ste A,MD,21146-2925
Jo-Ann Fabric and Craft Stores,Winchester,511,511 #511 #0511,1092 Millwood Pike,VA,22602-4312
Jo-Ann Fabric and Craft Stores,Sioux Falls,516,516 #516 #0516,2725 West 41st Street,SD,57105
Jo-Ann Fabric and Craft Stores,Saint Cloud,518,518 #518 #0518,3332 W Division St,MN,56301-3725
Jo-Ann Fabric and Craft Stores,Carbondale,521,521 #521 #0521,1332 E Main St,IL,62901-3144
Jo-Ann Fabric and Craft Stores,Lancaster,523,523 #523 #0523,1216 N Memorial Dr,OH,43130-1625
Jo-Ann Fabric and Craft Stores,Muncie,525,525 #525 #0525,1625 W Mcgalliard Rd,IN,47304-2206
Jo-Ann Fabric and Craft Stores,South Burlington,526,526 #526 #0526,45 Hinesburg Rd,VT,05403-6526
Jo-Ann Fabric and Craft Stores,Galesburg,527,527 #527 #0527,1920 N Henderson St,IL,61401-1325
Jo-Ann Fabric and Craft Stores,Dekalb,528,528 #528 #0528,1712 Sycamore Rd,IL,60115-2037
Jo-Ann Fabric and Craft Stores,Canton,539,539 #539 #0539,44740 Ford Rd,MI,48187-2942
Jo-Ann Fabric and Craft Stores,Mays Landing,545,545 #545 #0545,3926 Festival @ Hamilton,NJ,08330-3107
Jo-Ann Fabric and Craft Stores,Waterford,549,549 #549 #0549,117 Boston Post Rd,CT,06385-2400
Jo-Ann Fabric and Craft Stores,Lawrenceville,551,551 #551 #0551,3371 Brunswick Ave,NJ,08648-1303
Jo-Ann Fabric and Craft Stores,Soldotna,557,557 #557 #0557,35535 Kenai Spur Hwy,AK,99669-7625
Jo-Ann Fabric and Craft Stores,Anderson,559,559 #559 #0559,2144 S State Road 9,IN,46016-5731
Jo-Ann Fabric and Craft Stores,Michigan City,566,566 #566 #0566,4333 Franklin St,IN,46360-7806
Jo-Ann Fabric and Craft Stores,Dunbar,569,569 #569 #0569,9 Fletcher Sq,WV,25064-3135
Jo-Ann Fabric and Craft Stores,Richmond,573,573 #573 #0573,3527 E Main St,IN,47374-5932
Jo-Ann Fabric and Craft Stores,Kenosha,576,576 #576 #0576,3524 52Nd St,WI,53144-2662
Jo-Ann Fabric and Craft Stores,Milwaukee,581,581 #581 #0581,8633 W Brown Deer Rd,WI,53224-2114
Jo-Ann Fabric and Craft Stores,Miami,583,583 #583 #0583,10875 Caribbean Blvd,FL,33189-1203
Jo-Ann Fabric and Craft Stores,Oswego,584,584 #584 #0584,18 E Cayuga St Ste 5,NY,13126-1162
Jo-Ann Fabric and Craft Stores,Bradley,590,590 #590 #0590,113 Village Square,IL,60915-1360
Jo-Ann Fabric and Craft Stores,Shrewsbury,593,593 #593 #0593,1026 Broad Street,NJ,07702-4324
Jo-Ann Fabric and Craft Stores,Escanaba,596,596 #596 #0596,301 N Lincoln,MI,49829-1382
Jo-Ann Fabric and Craft Stores,Fairborn,603,603 #603 #0603,2850 Centre Dr Ste G,OH,45324-2675
Jo-Ann Fabric and Craft Stores,Cupertino,605,605 #605 #0605,19765 Stevens Creek Blvd,CA,95014-2405
Jo-Ann Fabric and Craft Stores,Bloomington,607,607 #607 #0607,3483 W 3Rd St,IN,47404-4856
Jo-Ann Fabric and Craft Stores,Dayton,608,608 #608 #0608,5001 Salem Ave,OH,45426-2039
Jo-Ann Fabric and Craft Stores,Rockford,610,610 #610 #0610,6280 E State St,IL,61108-2516
Jo-Ann Fabric and Craft Stores,Round Lake Beach,612,612 #612 #0612,845 E Rollins Rd,IL,60073-2244
Jo-Ann Fabric and Craft Stores,Norristown,615,615 #615 #0615,55 E Germantown Pike,PA,19401-1558
Jo-Ann Fabric and Craft Stores,Zanesville,620,620 #620 #0620,3575 Maple Ave,OH,43701-7019
Jo-Ann Fabric and Craft Stores,Freeport,625,625 #625 #0625,1611 S West Ave,IL,61032-6703
Jo-Ann Fabric and Craft Stores,Easton,628,628 #628 #0628,210 Marlboro Ave,MD,21601-2765
Jo-Ann Fabric and Craft Stores,Dover,630,630 #630 #0630,283 N Dupont Hwy Ste F,DE,19901-7532
Jo-Ann Fabric and Craft Stores,Penfield,631,631 #631 #0631,2157 Penfield Rd,NY,14526-1735
Jo-Ann Fabric and Craft Stores,Mcminnville,633,633 #633 #0633,1401 N Highway 99W,OR,97128-2724
Jo-Ann Fabric and Craft Stores,Lavale,640,640 #640 #0640,1313 National Hwy,MD,21502-7618
Jo-Ann Fabric and Craft Stores,Lebanon,644,644 #644 #0644,1860 Quentin Rd,PA,17042-7436
Jo-Ann Fabric and Craft Stores,Kingston,645,645 #645 #0645,1385 Ulster Ave,NY,12401-1514
Jo-Ann Fabric and Craft Stores,Grand Forks,653,653 #653 #0653,2781 32Nd Ave S,ND,58201-6027
Jo-Ann Fabric and Craft Stores,Saint Clairsville,658,658 #658 #0658,67800 Mall Ring Rd,OH,43950-1796
Jo-Ann Fabric and Craft Stores,Mishawaka,665,665 #665 #0665,5612 Grape Rd,IN,46545-1246
Jo-Ann Fabric and Craft Stores,Mason City,667,667 #667 #0667,1624 S Federal Ave,IA,50401-5751
Jo-Ann Fabric and Craft Stores,St Albans,673,673 #673 #0673,319 Swanton Rd,VT,05478-2609
Jo-Ann Fabric and Craft Stores,Holyoke,677,677 #677 #0677,2267 Northampton St,MA,01040-3447
Jo-Ann Fabric and Craft Stores,Belle Vernon,683,683 #683 #0683,360 Tri County Ln,PA,15012-3817
Jo-Ann Fabric and Craft Stores,Madison Heights,690,690 #690 #0690,32065 John R Rd,MI,48071-1322
Jo-Ann Fabric and Craft Stores,Indiana,692,692 #692 #0692,1570 Oakland Ave,PA,15701-2429
Jo-Ann Fabric and Craft Stores,Colma,695,695 #695 #0695,75 Colma Blvd,CA,94014-3231
Jo-Ann Fabric and Craft Stores,Hibbing,697,697 #697 #0697,990 W 41St St Ste 2,MN,55746-3045
Jo-Ann Fabric and Craft Stores,Clinton,701,701 #701 #0701,274 E Main St,CT,06413-2253
Jo-Ann Fabric and Craft Stores,Mountain View,710,710 #710 #0710,435 San Antonio Rd,CA,94040-1215
Jo-Ann Fabric and Craft Stores,Pittsburg,713,713 #713 #0713,4699 Century Blvd,CA,94565-7107
Jo-Ann Fabric and Craft Stores,Owings Mills,722,722 #722 #0722,10377 Reisterstown Rd,MD,21117-3617
Jo-Ann Fabric and Craft Stores,Watertown,728,728 #728 #0728,401 Bernard St,WI,53094-6205
Jo-Ann Fabric and Craft Stores,San Mateo,730,730 #730 #0730,1948 S El Camino Real,CA,94403-1322
Jo-Ann Fabric and Craft Stores,Bloomfield Hills,733,733 #733 #0733,4107 Telegraph Rd,MI,48302-2037
Jo-Ann Fabric and Craft Stores,Tallahassee,736,736 #736 #0736,1802 Thomasville Rd,FL,32303-5710
Jo-Ann Fabric and Craft Stores,Lapeer,753,753 #753 #0753,1865 W Genesee St,MI,48446-1705
Jo-Ann Fabric and Craft Stores,Barboursville,754,754 #754 #0754,7 Mall Rd,WV,25504-1822
Jo-Ann Fabric and Craft Stores,Auburn,758,758 #758 #0758,1809 Howard Rd,WA,98002-6353
Jo-Ann Fabric and Craft Stores,Racine,765,765 #765 #0765,5509 Durand Ave,WI,53406-5059
Jo-Ann Fabric and Craft Stores,Tavares,772,772 #772 #0772,365 E Burleigh Blvd,FL,32778-2201
Jo-Ann Fabric and Craft Stores,Burlington,777,777 #777 #0777,43 Middlesex Tpke,MA,01803-4913
Jo-Ann Fabric and Craft Stores,Milwaukie,780,780 #780 #0780,10898 Se Oak St,OR,97222-6694
Jo-Ann Fabric and Craft Stores,Yakima,783,783 #783 #0783,3702 Tieton Dr,WA,98902-3664
Jo-Ann Fabric and Craft Stores,Spokane,784,784 #784 #0784,1840 W Francis Ave,WA,99205-6834
Jo-Ann Fabric and Craft Stores,Everett,789,789 #789 #0789,7601 Evergreen Way,WA,98203-6424
Jo-Ann Fabric and Craft Stores,Missoula,791,791 #791 #0791,1900 Brooks St,MT,59801-6644
Jo-Ann Fabric and Craft Stores,Albany,792,792 #792 #0792,2248 Santiam Hwy Se,OR,97322-5205
Jo-Ann Fabric and Craft Stores,Renton,793,793 #793 #0793,2823 Ne Sunset Blvd,WA,98056-3105
Jo-Ann Fabric and Craft Stores,Port Orchard,794,794 #794 #0794,1029 Bethel Ave,WA,98366-4207
Jo-Ann Fabric and Craft Stores,Boise,796,796 #796 #0796,3275 S Federal Way,ID,83705-5215
Jo-Ann Fabric and Craft Stores,Springfield,800,800 #800 #0800,2122 Marcola Rd,OR,97477-2592
Jo-Ann Fabric and Craft Stores,Port Angeles,802,802 #802 #0802,150 Port Angeles Plz,WA,98362-4934
Jo-Ann Fabric and Craft Stores,Seattle,805,805 #805 #0805,15236 Aurora Ave N,WA,98133-6124
Jo-Ann Fabric and Craft Stores,Clarkston,810,810 #810 #0810,470 Bridge St,WA,99403-1931
Jo-Ann Fabric and Craft Stores,Eureka,812,812 #812 #0812,510 Harris St,CA,95503-4415
Jo-Ann Fabric and Craft Stores,Hyannis,814,814 #814 #0814,665 Iyannough Rd,MA,02601-1900
Jo-Ann Fabric and Craft Stores,Fort Walton Beach,816,816 #816 #0816,224B Eglin Pkwy Ne,FL,32547-2877
Jo-Ann Fabric and Craft Stores,Warrenton,820,820 #820 #0820,251 W Lee Hwy Ste 659,VA,20186-2078
Jo-Ann Fabric and Craft Stores,Malone,822,822 #822 #0822,228 W Main St Ste 12,NY,12953-9590
Jo-Ann Fabric and Craft Stores,Seabrook,824,824 #824 #0824,270 Lafayette Rd Unit 8,NH,03874-4564
Jo-Ann Fabric and Craft Stores,Ludlow,826,826 #826 #0826,"433 Center St, Ste B",MA,01056-2769
Jo-Ann Fabric and Craft Stores,Belmont,830,830 #830 #0830,12 Old State Rd,NH,03220-3025
Jo-Ann Fabric and Craft Stores,Vacaville,850,850 #850 #0850,2051 Harbison Dr,CA,95687-3904
Jo-Ann Fabric and Craft Stores,Butte,856,856 #856 #0856,3100 Harrison Ave,MT,59701-3652
Jo-Ann Fabric and Craft Stores,Billerica,858,858 #858 #0858,199 Boston Rd,MA,01862-2328
Jo-Ann Fabric and Craft Stores,E Walpole,861,861 #861 #0861,90 Providence Hwy,MA,02032-1524
Jo-Ann Fabric and Craft Stores,Cudahy,862,862 #862 #0862,5656 S Packard Ave,WI,53110-2657
Jo-Ann Fabric and Craft Stores,Hutchinson,863,863 #863 #0863,1060 Highway 15,MN,55350-3157
Jo-Ann Fabric and Craft Stores,Heath,866,866 #866 #0866,789 Hebron Rd,OH,43056-2300
Jo-Ann Fabric and Craft Stores,Lincoln City,870,870 #870 #0870,4069 Nw Logan Rd,OR,97367-5054
Jo-Ann Fabric and Craft Stores,Redwood City,871,871 #871 #0871,308 Walnut St,CA,94063-1718
Jo-Ann Fabric and Craft Stores,Bangor,873,873 #873 #0873,710 Stillwater Ave,ME,04401-3615
Jo-Ann Fabric and Craft Stores,Auburn,875,875 #875 #0875,732 Center St,ME,04210-6316
Jo-Ann Fabric and Craft Stores,Keene,883,883 #883 #0883,401 West St,NH,03431-2416
Jo-Ann Fabric and Craft Stores,Anchorage,884,884 #884 #0884,3101 Penland Pkwy Ste K18,AK,99508-1958
Jo-Ann Fabric and Craft Stores,Chino,885,885 #885 #0885,5471 Philadelphia St Ste A,CA,91710-2479
Jo-Ann Fabric and Craft Stores,Plymouth,889,889 #889 #0889,1406 Pilgrim Lane,IN,46563-3440
Jo-Ann Fabric and Craft Stores,Christiansburg,890,890 #890 #0890,2625 Market St,VA,24073-6517
Jo-Ann Fabric and Craft Stores,Martinsville,891,891 #891 #0891,240 Commonwealth Blvd W,VA,24112-1800
Jo-Ann Fabric and Craft Stores,Middletown,898,898 #898 #0898,88 Dunning Rd Ste 23,NY,10940-2219
Jo-Ann Fabric and Craft Stores,Vincennes,899,899 #899 #0899,630 Niblack Blvd # 6,IN,47591-3630
Jo-Ann Fabric and Craft Stores,Winter Haven,902,902 #902 #0902,1522 3Rd St Sw,FL,33880-4314
Jo-Ann Fabric and Craft Stores,Concord,904,904 #904 #0904,80 Storrs St Ste 5,NH,03301-4840
Jo-Ann Fabric and Craft Stores,The Dalles,915,915 #915 #0915,1324 W 6Th St,OR,97058-3518
Jo-Ann Fabric and Craft Stores,Chico,920,920 #920 #0920,2485 Notre Dame Blvd Ste 310,CA,95928-7162
Jo-Ann Fabric and Craft Stores,Cincinnati,936,936 #936 #0936,3866 Paxton Ave Ste B,OH,45209-2367
Jo-Ann Fabric and Craft Stores,Piqua,944,944 #944 #0944,1256 E Ash St,OH,45356-4110
Jo-Ann Fabric and Craft Stores,Anchorage,950,950 #950 #0950,1920 W Dimond Blvd Ste J,AK,99515-1471
Jo-Ann Fabric and Craft Stores,Niles,957,957 #957 #0957,8245 W Golf Rd,IL,60714-1156
Jo-Ann Fabric and Craft Stores,Miami,968,968 #968 #0968,7706 N Kendall Dr,FL,33156-7523
Jo-Ann Fabric and Craft Stores,Pittsburgh,970,970 #970 #0970,513 Clairton Blvd,PA,15236-3809
Jo-Ann Fabric and Craft Stores,Mansfield,975,975 #975 #0975,594 N Lexington Springmill Rd,OH,44906-3313
Jo-Ann Fabric and Craft Stores,Hamden,976,976 #976 #0976,2300 Dixwell Ave,CT,06514-2108
Jo-Ann Fabric and Craft Stores,Angola,995,995 #995 #0995,2010 N Wayne St Ste G,IN,46703-9104
Jo-Ann Fabric and Craft Stores,Sarasota,998,998 #998 #0998,4934 S Tamiami Trl,FL,34231-4354
Jo-Ann Fabric and Craft Stores,Amarillo,1001,1001 #1001 #01001,3220 S Soncy Rd,TX,79124-2009
Jo-Ann Fabric and Craft Stores,El Cajon,1011,1011 #1011 #01011,2756 Fletcher Pkwy,CA,92020-2110
Jo-Ann Fabric and Craft Stores,Bakersfield,1014,1014 #1014 #01014,3010 Ming Ave,CA,93304-4136
Jo-Ann Fabric and Craft Stores,Savannah,1021,1021 #1021 #01021,7400 Abercorn St,GA,31406-2447
Jo-Ann Fabric and Craft Stores,Pompano Beach,1023,1023 #1023 #01023,1131 S Federal Hwy,FL,33062-7065
Jo-Ann Fabric and Craft Stores,Wichita,1026,1026 #1026 #01026,4600 W Kellogg Dr       (In Towne West Mall),KS,67209-2568
Jo-Ann Fabric and Craft Stores,Corpus Christi,1032,1032 #1032 #01032,5625 S Padre Island Dr # B,TX,78412-3901
Jo-Ann Fabric and Craft Stores,Hollywood,1044,1044 #1044 #01044,4700 Hollywood Blvd,FL,33021-6504
Jo-Ann Fabric and Craft Stores,Salina,1046,1046 #1046 #01046,2259 S 9Th St Ste 38,KS,67401-7313
Jo-Ann Fabric and Craft Stores,Lawton,1053,1053 #1053 #01053,3801 Nw Cache Rd,OK,73505-3740
Jo-Ann Fabric and Craft Stores,West Palm Beach,1059,1059 #1059 #01059,1940 N Military Trl,FL,33409-4718
Jo-Ann Fabric and Craft Stores,Shreveport,1067,1067 #1067 #01067,1271 Shreveport Barksdale Hwy,LA,71105-2405
Jo-Ann Fabric and Craft Stores,Frankfort,1072,1072 #1072 #01072,"260 Versailles Rd, Ste 209",KY,40601-3271
Jo-Ann Fabric and Craft Stores,Altoona,1073,1073 #1073 #01073,"3415 Pleasant Valley Blvd, Ste 78",PA,16602-4321
Jo-Ann Fabric and Craft Stores,Cary,1074,1074 #1074 #01074,2420 Walnut St,NC,27518-9212
Jo-Ann Fabric and Craft Stores,Durham,1078,1078 #1078 #01078,4600 Chapel Hill Blvd Ste 8,NC,27707-2669
Jo-Ann Fabric and Craft Stores,Olean,1089,1089 #1089 #01089,2503B W State St,NY,14760-1822
Jo-Ann Fabric and Craft Stores,Newport News,1094,1094 #1094 #01094,14346 Warwick Blvd Ste 480,VA,23602-3812
Jo-Ann Fabric and Craft Stores,Littleton,1095,1095 #1095 #01095,8601 W Cross Dr Unit Sm,CO,80123-0758
Jo-Ann Fabric and Craft Stores,Juneau,1096,1096 #1096 #01096,8745 Glacier Hwy,AK,99801-8029
Jo-Ann Fabric and Craft Stores,Fayetteville,1098,1098 #1098 #01098,1800 Skibo Road,NC,28303-3280
Jo-Ann Fabric and Craft Stores,Beaumont,1102,1102 #1102 #01102,4035 N Dowlen Rd,TX,77706-6850
Jo-Ann Fabric and Craft Stores,York,1103,1103 #1103 #01103,2136 S Queen St,PA,17403-4809
Jo-Ann Fabric and Craft Stores,Colonia,1106,1106 #1106 #01106,1272 State Rt 27,NJ,07067-3430
Jo-Ann Fabric and Craft Stores,Venice,1107,1107 #1107 #01107,4143 Tamiami Trl S Bay 20,FL,34293-5110
Jo-Ann Fabric and Craft Stores,Yuma,1108,1108 #1108 #01108,1550 S Yuma Palms Parkway,AZ,85365-1718
Jo-Ann Fabric and Craft Stores,Waco,1124,1124 #1124 #01124,3912 Bosque Blvd Unit 9,TX,76710-4934
Jo-Ann Fabric and Craft Stores,West Columbia,1126,1126 #1126 #01126,1200 Charleston Hwy,SC,29169-6166
Jo-Ann Fabric and Craft Stores,El Paso,1129,1129 #1129 #01129,9515 Gateway Blvd W Ste B,TX,79925-7250
Jo-Ann Fabric and Craft Stores,Lemoyne,1131,1131 #1131 #01131,1200 Market St,PA,17043-1417
Jo-Ann Fabric and Craft Stores,Metairie,1142,1142 #1142 #01142,1111 Veterans Memorial Blvd,LA,70005-2728
Jo-Ann Fabric and Craft Stores,Lafayette,1149,1149 #1149 #01149,311 Sagamore Pkwy N,IN,47904-2854
Jo-Ann Fabric and Craft Stores,Placentia,1150,1150 #1150 #01150,1840 N Placentia Ave,CA,92870-2303
Jo-Ann Fabric and Craft Stores,Long Beach,1152,1152 #1152 #01152,3588 Palo Verde Ave,CA,90808-2924
Jo-Ann Fabric and Craft Stores,Huntington Beach,1158,1158 #1158 #01158,15031 Goldenwest St,CA,92647-2710
Jo-Ann Fabric and Craft Stores,Wayne,1185,1185 #1185 #01185,153 E Swedesford Rd,PA,19087-1455
Jo-Ann Fabric and Craft Stores,Laguna Hills,1198,1198 #1198 #01198,25252 Mcintyre St Ste B,CA,92653-5448
Jo-Ann Fabric and Craft Stores,Metairie,1215,1215 #1215 #01215,7000 Veterans Memorial Blvd Ste A,LA,70003-8402
Jo-Ann Fabric and Craft Stores,Thousand Oaks,1223,1223 #1223 #01223,1516 N Moorpark Rd,CA,91360-5127
Jo-Ann Fabric and Craft Stores,Dallas,1227,1227 #1227 #01227,6330 E Mockingbird Ln,TX,75214-2622
Jo-Ann Fabric and Craft Stores,Ocala,1244,1244 #1244 #01244,2405 Sw 27Th Ave,FL,34474-4407
Jo-Ann Fabric and Craft Stores,West Deptford,1248,1248 #1248 #01248,875 Mantua Pike,NJ,08096-3337
Jo-Ann Fabric and Craft Stores,Bryan,1268,1268 #1268 #01268,725 E Villa Maria Rd Ste 4100,TX,77802-5392
Jo-Ann Fabric and Craft Stores,Hampton,1270,1270 #1270 #01270,1076 W Mercury Blvd,VA,23666-3380
Jo-Ann Fabric and Craft Stores,Humble,1283,1283 #1283 #01283,9930 Fm 1960 Bypass Rd W,TX,77338-3579
Jo-Ann Fabric and Craft Stores,La Verne,1288,1288 #1288 #01288,2086 Foothill Blvd Ste A,CA,91750-3562
Jo-Ann Fabric and Craft Stores,Plano,1291,1291 #1291 #01291,700 Alma Dr,TX,75075-8844
Jo-Ann Fabric and Craft Stores,Southampton,1304,1304 #1304 #01304,461 2Nd Street Pike,PA,18966-3801
Jo-Ann Fabric and Craft Stores,Mesa,1305,1305 #1305 #01305,6136 E Main St,AZ,85205-8938
Jo-Ann Fabric and Craft Stores,Las Cruces,1309,1309 #1309 #01309,1711 E University Ave,NM,88001-5780
Jo-Ann Fabric and Craft Stores,Hemet,1318,1318 #1318 #01318,2275 E Florida Ave,CA,92544-4752
Jo-Ann Fabric and Craft Stores,Port Richey,1333,1333 #1333 #01333,10057 Us Highway 19,FL,34668-3742
Jo-Ann Fabric and Craft Stores,Houston,1402,1402 #1402 #01402,15520 Fm 529 Rd,TX,77095-2704
Jo-Ann Fabric and Craft Stores,Mesa,1404,1404 #1404 #01404,965 S Gilbert Rd,AZ,85204-4400
Jo-Ann Fabric and Craft Stores,Covina,1412,1412 #1412 #01412,1316A N Azusa Ave,CA,91722-1249
Jo-Ann Fabric and Craft Stores,Houston,1418,1418 #1418 #01418,5520 Weslayan St,TX,77005-1942
Jo-Ann Fabric and Craft Stores,HOUSTON,1433,1433 #1433 #01433,12918 WILLOW CHASE DR,TX,77070-5656
Jo-Ann Fabric and Craft Stores,Corona,1440,1440 #1440 #01440,2250 Griffin Way,CA,92879-6531
Jo-Ann Fabric and Craft Stores,Salt Lake City,1444,1444 #1444 #01444,1311 E 3300 S,UT,84106-3011
Jo-Ann Fabric and Craft Stores,Tulsa,1445,1445 #1445 #01445,5327 E 41St St,OK,74135-6007
Jo-Ann Fabric and Craft Stores,Huntington Beach,1447,1447 #1447 #01447,9901 Adams Ave,CA,92646-4809
Jo-Ann Fabric and Craft Stores,Boynton Beach,1452,1452 #1452 #01452,1632 S Federal Hwy,FL,33435-6901
Jo-Ann Fabric and Craft Stores,Ramsey,1463,1463 #1463 #01463,36 Interstate Shop Ctr,NJ,07446-1138
Jo-Ann Fabric and Craft Stores,Oceanside,1464,1464 #1464 #01464,2227 S El Camino Real Ste C,CA,92054-6318
Jo-Ann Fabric and Craft Stores,Mesquite,1465,1465 #1465 #01465,1515 N Town East Blvd Ste 159,TX,75150-4142
Jo-Ann Fabric and Craft Stores,Lemon Grove,1469,1469 #1469 #01469,7667 Broadway,CA,91945-1607
Jo-Ann Fabric and Craft Stores,Wilmington,1471,1471 #1471 #01471,352 S College Rd Ste 24,NC,28403-1650
Jo-Ann Fabric and Craft Stores,Athens,1475,1475 #1475 #01475,191 Alps Rd,GA,30606-4093
Jo-Ann Fabric and Craft Stores,Raleigh,1478,1478 #1478 #01478,4412 Falls Of Neuse Rd Ste 101,NC,27609-6230
Jo-Ann Fabric and Craft Stores,Port Charlotte,1484,1484 #1484 #01484,4265 Tamiami Trl Unit I,FL,33980-2149
Jo-Ann Fabric and Craft Stores,Colonial Heights,1486,1486 #1486 #01486,60 Southpark Blvd,VA,23834-2962
Jo-Ann Fabric and Craft Stores,Lubbock,1488,1488 #1488 #01488,5217 82Nd St Unit 123,TX,79424-2829
Jo-Ann Fabric and Craft Stores,Winston-Salem,1490,1490 #1490 #01490,1612 S Stratford Rd,NC,27103-2924
Jo-Ann Fabric and Craft Stores,Saint Joseph,1495,1495 #1495 #01495,603 N Belt Hwy,MO,64506-3009
Jo-Ann Fabric and Craft Stores,Chesapeake,1507,1507 #1507 #01507,1733 Parkview Dr Ste 15-A,VA,23320-2630
Jo-Ann Fabric and Craft Stores,Greensboro,1511,1511 #1511 #01511,4644 W Market St,NC,27407-1285
Jo-Ann Fabric and Craft Stores,Virginia Beach,1518,1518 #1518 #01518,1725 Laskin Rd # 511-513,VA,23454-4502
Jo-Ann Fabric and Craft Stores,Albuquerque,1524,1524 #1524 #01524,10131 Coors Blvd Nw Ste D3,NM,87114-4045
Jo-Ann Fabric and Craft Stores,Whittier,1529,1529 #1529 #01529,16055 Whittier Blvd,CA,90603-2526
Jo-Ann Fabric and Craft Stores,Topeka,1533,1533 #1533 #01533,2829 Sw Wanamaker Rd,KS,66614-4267
Jo-Ann Fabric and Craft Stores,Douglasville,1549,1549 #1549 #01549,9439 Highway 5,GA,30135-1509
Jo-Ann Fabric and Craft Stores,Manassas,1550,1550 #1550 #01550,10368 Festival Ln,VA,20109-3548
Jo-Ann Fabric and Craft Stores,Sacramento,1568,1568 #1568 #01568,3130 Arden Way,CA,95825-2002
Jo-Ann Fabric and Craft Stores,Bloomington,1572,1572 #1572 #01572,1701 E Empire St,IL,61704-3532
Jo-Ann Fabric and Craft Stores,Jefferson City,1577,1577 #1577 #01577,3600 Country Club Dr Spc 408,MO,65109-1481
Jo-Ann Fabric and Craft Stores,Norridge,1579,1579 #1579 #01579,4514 N Harlem Ave,IL,60706-4712
Jo-Ann Fabric and Craft Stores,Columbus,1583,1583 #1583 #01583,"5555 Whittlesey Blvd, Ste 2900",GA,31909-7241
Jo-Ann Fabric and Craft Stores,Scranton,1584,1584 #1584 #01584,429 Scranton Carbondale Hwy,PA,18508-1115
Jo-Ann Fabric and Craft Stores,Wausau,1585,1585 #1585 #01585,3300 Rib Mountain Dr,WI,54401-7438
Jo-Ann Fabric and Craft Stores,Middleburg Heights,1586,1586 #1586 #01586,6901 Pearl Road,OH,44130-3608
Jo-Ann Fabric and Craft Stores,Quakertown,1588,1588 #1588 #01588,"1465 West Broad Street, Suite 20",PA,18951-1189
Jo-Ann Fabric and Craft Stores,Countryside,1589,1589 #1589 #01589,20 Countryside Plaza,IL,60525-3934
Jo-Ann Fabric and Craft Stores,Burton,1590,1590 #1590 #01590,4190 E Court St Ste 101,MI,48509-1745
Jo-Ann Fabric and Craft Stores,Ontario,1591,1591 #1591 #01591,2255 Sw 4Th Avenue,OR,97914-1849
Jo-Ann Fabric and Craft Stores,Medina,1592,1592 #1592 #01592,5005 Grande Blvd,OH,44256-6787
Jo-Ann Fabric and Craft Stores,Benton Harbor,1593,1593 #1593 #01593,1800 Pipestone Road Ste 120,MI,49022-2311
Jo-Ann Fabric and Craft Stores,Petoskey,1594,1594 #1594 #01594,1608 Anderson Rd,MI,49770-9256
Jo-Ann Fabric and Craft Stores,Daytona Beach,1595,1595 #1595 #01595,"2400 W Intl Speedway Blvd, Ste 100",FL,32114-7248
Jo-Ann Fabric and Craft Stores,Margate,1596,1596 #1596 #01596,3340 Nw 62Nd Avenue,FL,33063-8309
Jo-Ann Fabric and Craft Stores,Lady Lake,1598,1598 #1598 #01598,540 N Hwy 441,FL,32159-3776
Jo-Ann Fabric and Craft Stores,Clifton Park,1602,1602 #1602 #01602,19 Clifton Country Rd,NY,12065-3820
Jo-Ann Fabric and Craft Stores,Poughkeepsie,1603,1603 #1603 #01603,2600 South Rd,NY,12601-7003
Jo-Ann Fabric and Craft Stores,New Hartford,1604,1604 #1604 #01604,120 Genesee St,NY,13413-2329
Jo-Ann Fabric and Craft Stores,Norwich,1607,1607 #1607 #01607,117 Salem Tpke,CT,06360-6459
Jo-Ann Fabric and Craft Stores,Hadley,1609,1609 #1609 #01609,367 Russell St Ste A06,MA,01035-9456
Jo-Ann Fabric and Craft Stores,Methuen,1610,1610 #1610 #01610,436 Broadway,MA,01844-2061
Jo-Ann Fabric and Craft Stores,Shrewsbury,1611,1611 #1611 #01611,1000 Boston Tpke,MA,01545-3380
Jo-Ann Fabric and Craft Stores,West Lebanon,1614,1614 #1614 #01614,"200 S Main St, Rt 12A",NH,03784-2014
Jo-Ann Fabric and Craft Stores,Evendale,1621,1621 #1621 #01621,10400 Reading Rd,OH,45241-4816
Jo-Ann Fabric and Craft Stores,North Wales,1626,1626 #1626 #01626,1200 Welsh Rd,PA,19454-3771
Jo-Ann Fabric and Craft Stores,Pottstown,1627,1627 #1627 #01627,635 Schuylkill Rd  Ste Sq13,PA,19465-7429
Jo-Ann Fabric and Craft Stores,Peoria,1637,1637 #1637 #01637,4700 N University St,IL,61614-5890
Jo-Ann Fabric and Craft Stores,Davenport,1645,1645 #1645 #01645,902 W Kimberly Rd Ste 41,IA,52806-5717
Jo-Ann Fabric and Craft Stores,Dubuque,1646,1646 #1646 #01646,555 John F Kennedy Rd Ste 101,IA,52002-5258
Jo-Ann Fabric and Craft Stores,Iowa City,1647,1647 #1647 #01647,1029 S Riverside Dr,IA,52246-5616
Jo-Ann Fabric and Craft Stores,Springfield,1649,1649 #1649 #01649,3370 S Glenstone Ave,MO,65804-4410
Jo-Ann Fabric and Craft Stores,Ames,1650,1650 #1650 #01650,632 Lincoln Way,IA,50010-6911
Jo-Ann Fabric and Craft Stores,Des Moines,1652,1652 #1652 #01652,5034 Se 14Th St,IA,50320-1606
Jo-Ann Fabric and Craft Stores,Clive,1653,1653 #1653 #01653,8801 University Ave # 20C,IA,50325-6310
Jo-Ann Fabric and Craft Stores,Topeka,1664,1664 #1664 #01664,1221 SW Gage Blvd,KS,66604-1896
Jo-Ann Fabric and Craft Stores,Bemidji,1666,1666 #1666 #01666,1401 Paul Bunyan Dr Nw Ste 60,MN,56601-4123
Jo-Ann Fabric and Craft Stores,Santa Fe,1668,1668 #1668 #01668,3140 Cerrillos Rd Ste B,NM,87507-2327
Jo-Ann Fabric and Craft Stores,Albuquerque,1669,1669 #1669 #01669,2240 Wyoming Blvd Ne,NM,87112-2620
Jo-Ann Fabric and Craft Stores,Farmington,1670,1670 #1670 #01670,915 Farmington Ave Ste D,NM,87401-7475
Jo-Ann Fabric and Craft Stores,Aurora,1672,1672 #1672 #01672,13861 E Exposition Ave,CO,80012-2519
Jo-Ann Fabric and Craft Stores,Boulder,1674,1674 #1674 #01674,2440 Arapahoe Ave,CO,80302-6709
Jo-Ann Fabric and Craft Stores,Greeley,1676,1676 #1676 #01676,2650 11Th Ave,CO,80631-8441
Jo-Ann Fabric and Craft Stores,Scottsbluff,1681,1681 #1681 #01681,1704 Broadway,NE,69361-2457
Jo-Ann Fabric and Craft Stores,Nampa,1683,1683 #1683 #01683,1509 Caldwell Blvd,ID,83651-1797
Jo-Ann Fabric and Craft Stores,Walla Walla,1687,1687 #1687 #01687,481 N Wilbur Ave,WA,99362-2253
Jo-Ann Fabric and Craft Stores,Kennewick,1688,1688 #1688 #01688,751 N Columbia Center Blvd,WA,99336-7804
Jo-Ann Fabric and Craft Stores,Twin Falls,1692,1692 #1692 #01692,840 Blue Lakes Blvd N,ID,83301-4040
Jo-Ann Fabric and Craft Stores,Bozeman,1695,1695 #1695 #01695,2825 W Main St Unit S,MT,59718-3927
Jo-Ann Fabric and Craft Stores,Helena,1696,1696 #1696 #01696,3131 N Montana Ave,MT,59602-7813
Jo-Ann Fabric and Craft Stores,Kalispell,1697,1697 #1697 #01697,2165 Hwy 2 East Suite E,MT,59901-2876
Jo-Ann Fabric and Craft Stores,East Wenatchee,1700,1700 #1700 #01700,300 Valley Mall Pkwy,WA,98802-4832
Jo-Ann Fabric and Craft Stores,Spokane,1701,1701 #1701 #01701,2801 E 29Th Ave,WA,99223-4809
Jo-Ann Fabric and Craft Stores,Moscow,1707,1707 #1707 #01707,1730 W Pullman Rd,ID,83843-4015
Jo-Ann Fabric and Craft Stores,Seattle,1711,1711 #1711 #01711,2217 Nw 57Th St,WA,98107-3134
Jo-Ann Fabric and Craft Stores,Bellingham,1725,1725 #1725 #01725,1125 E Sunset Dr Ste 125,WA,98226-1819
Jo-Ann Fabric and Craft Stores,Hillsboro,1727,1727 #1727 #01727,2105 Se Tualatin Valley Hwy,OR,97123-5703
Jo-Ann Fabric and Craft Stores,North Bend,1731,1731 #1731 #01731,1611 Virginia Ave,OR,97459-2729
Jo-Ann Fabric and Craft Stores,Roseburg,1732,1732 #1732 #01732,780 Nw Garden Valley Blvd Ste 70,OR,97471-6517
Jo-Ann Fabric and Craft Stores,Gresham,1735,1735 #1735 #01735,320 Nw Eastman Pkwy,OR,97030-7250
Jo-Ann Fabric and Craft Stores,Medford,1739,1739 #1739 #01739,2350 Poplar Dr,OR,97504-5273
Jo-Ann Fabric and Craft Stores,Oregon City,1742,1742 #1742 #01742,1842 Molalla Ave,OR,97045-4012
Jo-Ann Fabric and Craft Stores,Spanish Fork,1748,1748 #1748 #01748,450 N Main St,UT,84660-1440
Jo-Ann Fabric and Craft Stores,Logan,1752,1752 #1752 #01752,190 S Main St,UT,84321-5202
Jo-Ann Fabric and Craft Stores,Orem,1756,1756 #1756 #01756,172 E University Pkwy,UT,84058-7686
Jo-Ann Fabric and Craft Stores,Rohnert Park,1763,1763 #1763 #01763,425 Rohnert Park Expy W,CA,94928-7907
Jo-Ann Fabric and Craft Stores,Yuba City,1768,1768 #1768 #01768,729B Colusa Ave,CA,95991-3734
Jo-Ann Fabric and Craft Stores,Carson City,1769,1769 #1769 #01769,1344 S Stewart St,NV,89701-5219
Jo-Ann Fabric and Craft Stores,Woodland,1771,1771 #1771 #01771,375 W Main St Ste E,CA,95695-3683
Jo-Ann Fabric and Craft Stores,Reno,1774,1774 #1774 #01774,3750 Kietzke Ln,NV,89502-4728
Jo-Ann Fabric and Craft Stores,Modesto,1782,1782 #1782 #01782,200 Standiford Ave,CA,95350-1153
Jo-Ann Fabric and Craft Stores,Morgan Hill,1787,1787 #1787 #01787,225 Tennant Station Way,CA,95037-5463
Jo-Ann Fabric and Craft Stores,Merced,1788,1788 #1788 #01788,3120 Meadows Ave,CA,95348-1901
Jo-Ann Fabric and Craft Stores,Alhambra,1798,1798 #1798 #01798,2115 W Commonwealth Ave,CA,91803-1403
Jo-Ann Fabric and Craft Stores,La Canada,1803,1803 #1803 #01803,2160 Foothill Blvd,CA,91011-1903
Jo-Ann Fabric and Craft Stores,Sherman Oaks,1804,1804 #1804 #01804,13323 Riverside Dr,CA,91423-2508
Jo-Ann Fabric and Craft Stores,Valencia,1807,1807 #1807 #01807,24355 Magic Mountain Pkwy,CA,91355-3402
Jo-Ann Fabric and Craft Stores,Oxnard,1809,1809 #1809 #01809,2351 N Rose Ave,CA,93036-0601
Jo-Ann Fabric and Craft Stores,Santa Monica,1816,1816 #1816 #01816,1637 Lincoln Blvd,CA,90404-3711
Jo-Ann Fabric and Craft Stores,Simi Valley,1818,1818 #1818 #01818,2242 Tapo St.,CA,93063-3022
Jo-Ann Fabric and Craft Stores,Flagstaff,1831,1831 #1831 #01831,1514 S Riordan Ranch St,AZ,86001-6372
Jo-Ann Fabric and Craft Stores,Escondido,1841,1841 #1841 #01841,1680 E Valley Pkwy,CA,92027-2409
Jo-Ann Fabric and Craft Stores,Poway,1843,1843 #1843 #01843,12313 Poway Rd,CA,92064-4218
Jo-Ann Fabric and Craft Stores,San Diego,1845,1845 #1845 #01845,3633 Midway Dr,CA,92110-5202
Jo-Ann Fabric and Craft Stores,Orange,1846,1846 #1846 #01846,1620 N Tustin St,CA,92867-3906
Jo-Ann Fabric and Craft Stores,Yorba Linda,1851,1851 #1851 #01851,18633 Yorba Linda Blvd,CA,92886-4136
Jo-Ann Fabric and Craft Stores,Northglenn,1858,1858 #1858 #01858,341 W 104Th Ave # 3,CO,80234-4154
Jo-Ann Fabric and Craft Stores,Prescott,1859,1859 #1859 #01859,1260 Gail Gardner Way,AZ,86305-1641
Jo-Ann Fabric and Craft Stores,Tampa,1861,1861 #1861 #01861,6234 Commerce Palms Blvd,FL,33647
Jo-Ann Fabric and Craft Stores,Wellington,1862,1862 #1862 #01862,940 Sr 7,FL,33414-6265
Jo-Ann Fabric and Craft Stores,Kokomo,1863,1863 #1863 #01863,2130 E Markland Avenue,IN,46901-6240
Jo-Ann Fabric and Craft Stores,Willmar,1864,1864 #1864 #01864,1605 1St St S,MN,56201-4234
Jo-Ann Fabric and Craft Stores,Fargo,1865,1865 #1865 #01865,"4340 13th Ave S, #101",ND,58103-3300
Jo-Ann Fabric and Craft Stores,Eau Claire,1866,1866 #1866 #01866,4045 Commonwealth Ave,WI,54701-9000
Jo-Ann Fabric and Craft Stores,Longview,1867,1867 #1867 #01867,700 Ocean Beach Hwy Ste 100,WA,98632-4009
Jo-Ann Fabric and Craft Stores,Horseheads,1868,1868 #1868 #01868,1530 County Rt 64,NY,14845-2293
Jo-Ann Fabric and Craft Stores,Mt. Pleasant,1869,1869 #1869 #01869,"4208 E Bluegrass Rd, Ste A",MI,48858-7966
Jo-Ann Fabric and Craft Stores,Meridian,1871,1871 #1871 #01871,1163 Bonita Lakes Circle,MS,39301-6967
Jo-Ann Fabric and Craft Stores,Spokane Valley,1872,1872 #1872 #01872,15110 E Indiana Avenue,WA,99216-1832
Jo-Ann Fabric and Craft Stores,Lakewood,1873,1873 #1873 #01873,5255 Lakewood Blvd,CA,90712-2415
Jo-Ann Fabric and Craft Stores,Southaven,1874,1874 #1874 #01874,6535 Towne Center Crossing,MS,38671
Jo-Ann Fabric and Craft Stores,Fairfax,1875,1875 #1875 #01875,12124 Fairfax Towne Center,VA,22033-2876
Jo-Ann Fabric and Craft Stores,Roseville,1876,1876 #1876 #01876,"1649 W County Rd, B2",MN,55113-3021
Jo-Ann Fabric and Craft Stores,Manteca,1877,1877 #1877 #01877,2210 Daniels Street,CA,95337-6706
Jo-Ann Fabric and Craft Stores,San Jose,1878,1878 #1878 #01878,"4950 Almaden Expwy, Ste 10",CA,95118-2014
Jo-Ann Fabric and Craft Stores,Leominster,1879,1879 #1879 #01879,"100 Commercial Rd, Space H",MA,01453-3333
Jo-Ann Fabric and Craft Stores,National City,1886,1886 #1886 #01886,1410 E Plaza Blvd Ste A,CA,91950-3614
Jo-Ann Fabric and Craft Stores,Macon,1891,1891 #1891 #01891,5080 Riverside Drive,GA,31210-1100
Jo-Ann Fabric and Craft Stores,Baxter,1892,1892 #1892 #01892,"14136 Baxter Dr, Ste 120",MN,56401
Jo-Ann Fabric and Craft Stores,Murfreesboro,1893,1893 #1893 #01893,1923 Old Fort Pkwy,TN,37129-6905
Jo-Ann Fabric and Craft Stores,Fayetteville,1894,1894 #1894 #01894,3835 North Mall Avenue,AR,72703-4905
Jo-Ann Fabric and Craft Stores,North Canton,1900,1900 #1900 #01900,5487 Dressler Rd Nw,OH,44720-7748
Jo-Ann Fabric and Craft Stores,Saginaw,1901,1901 #1901 #01901,2920 Tittabawassee Rd,MI,48604-9468
Jo-Ann Fabric and Craft Stores,Woodbury,1902,1902 #1902 #01902,8208 Tamarack Vlg,MN,55125-3385
Jo-Ann Fabric and Craft Stores,Las Vegas,1903,1903 #1903 #01903,2160 N Rainbow Blvd,NV,89108-7365
Jo-Ann Fabric and Craft Stores,Franklin,1905,1905 #1905 #01905,2000 Mallory Ln Ste 270,TN,37067-4825
Jo-Ann Fabric and Craft Stores,Columbia,1906,1906 #1906 #01906,6161 Columbia Crossing Dr,MD,21045-8206
Jo-Ann Fabric and Craft Stores,Mentor,1907,1907 #1907 #01907,8000 Plaza Blvd,OH,44060-5522
Jo-Ann Fabric and Craft Stores,Orlando,1908,1908 #1908 #01908,3562 E Colonial Dr,FL,32803-5147
Jo-Ann Fabric and Craft Stores,Boardman,1909,1909 #1909 #01909,7386 Market St,OH,44512-5610
Jo-Ann Fabric and Craft Stores,Indianapolis,1910,1910 #1910 #01910,8714 Castle Creek Parkway East,IN,46250-4311
Jo-Ann Fabric and Craft Stores,Bel Air,1912,1912 #1912 #01912,615 Bel Air Rd Ste F,MD,21014-4315
Jo-Ann Fabric and Craft Stores,Peoria,1913,1913 #1913 #01913,8195 W Bell Rd Ste M-3,AZ,85382-3805
Jo-Ann Fabric and Craft Stores,Altamonte Springs,1915,1915 #1915 #01915,924 W State Road 436 Ste 1450,FL,32714-2933
Jo-Ann Fabric and Craft Stores,Knoxville,1916,1916 #1916 #01916,154 N Peters Rd,TN,37923-4907
Jo-Ann Fabric and Craft Stores,Phoenix,1917,1917 #1917 #01917,5021 E Ray Rd,AZ,85044-6407
Jo-Ann Fabric and Craft Stores,Independence,1918,1918 #1918 #01918,3810 Crackerneck Rd,MO,64055-6728
Jo-Ann Fabric and Craft Stores,Torrance,1919,1919 #1919 #01919,21800 Hawthorne Blvd Ste. 100,CA,90503-7004
Jo-Ann Fabric and Craft Stores,Temecula,1920,1920 #1920 #01920,40462 Winchester Rd,CA,92591-5502
Jo-Ann Fabric and Craft Stores,Duluth,1921,1921 #1921 #01921,2255 Pleasant Hill Rd Ste 200,GA,30096-2325
Jo-Ann Fabric and Craft Stores,Fort Myers,1922,1922 #1922 #01922,4610 S Cleveland Ave,FL,33907-1316
Jo-Ann Fabric and Craft Stores,North Olmsted,1923,1923 #1923 #01923,26337 Brookpark Rd,OH,44070-4346
Jo-Ann Fabric and Craft Stores,Manchester,1924,1924 #1924 #01924,1440 Pleasant Valley Rd,CT,06042-8761
Jo-Ann Fabric and Craft Stores,Jacksonville,1925,1925 #1925 #01925,6001 Argyle Forest Blvd Ste 11,FL,32244-6127
Jo-Ann Fabric and Craft Stores,Overland Park,1926,1926 #1926 #01926,11401 Metcalf Ave,KS,66210-4015
Jo-Ann Fabric and Craft Stores,Shelby Township,1927,1927 #1927 #01927,14367 Hall Rd,MI,48315-6107
Jo-Ann Fabric and Craft Stores,Columbus,1928,1928 #1928 #01928,1265 Polaris Pkwy,OH,43240-2037
Jo-Ann Fabric and Craft Stores,Albany,1929,1929 #1929 #01929,1440 Central Ave Ste 2,NY,12205-5118
Jo-Ann Fabric and Craft Stores,Amherst,1930,1930 #1930 #01930,1551 Niagara Falls Blvd,NY,14228-2703
Jo-Ann Fabric and Craft Stores,Blasdell,1932,1932 #1932 #01932,3540 Mckinley Pkwy,NY,14219-2658
Jo-Ann Fabric and Craft Stores,Novi,1933,1933 #1933 #01933,43570 W Oaks Dr # B-3,MI,48377-3302
Jo-Ann Fabric and Craft Stores,Maple Grove,1935,1935 #1935 #01935,12550 Elm Creek Blvd N,MN,55369-7050
Jo-Ann Fabric and Craft Stores,Roseville,1940,1940 #1940 #01940,20550 E. 13 Mile Road,MI,48066
Jo-Ann Fabric and Craft Stores,Coon Rapids,1941,1941 #1941 #01941,12779 Riverdale Blvd Nw,MN,55448-1253
Jo-Ann Fabric and Craft Stores,Newington,1942,1942 #1942 #01942,3105 Berlin Tpke,CT,06111-4620
Jo-Ann Fabric and Craft Stores,Rochester,1943,1943 #1943 #01943,3333 W Henrietta Rd Ste 90,NY,14623-3533
Jo-Ann Fabric and Craft Stores,Federal Way,1944,1944 #1944 #01944,31523 Pacific Hwy S,WA,98003-5405
Jo-Ann Fabric and Craft Stores,Dublin,1947,1947 #1947 #01947,2747 Festival Ln,OH,43017-2361
Jo-Ann Fabric and Craft Stores,Taylor,1948,1948 #1948 #01948,23877 Eureka Rd,MI,48180-5253
Jo-Ann Fabric and Craft Stores,Rochester,1949,1949 #1949 #01949,3042 Ridge Rd W,NY,14626-1645
Jo-Ann Fabric and Craft Stores,Tukwila,1950,1950 #1950 #01950,17501 Southcenter Pkwy,WA,98188-3720
Jo-Ann Fabric and Craft Stores,Frederick,1951,1951 #1951 #01951,1003-C Route 40 Unit 11,MD,21702-3903
Jo-Ann Fabric and Craft Stores,Apple Valley,1952,1952 #1952 #01952,7614 150Th St W,MN,55124-7102
Jo-Ann Fabric and Craft Stores,Northridge,1954,1954 #1954 #01954,19819 Rinaldi St,CA,91326-4145
Jo-Ann Fabric and Craft Stores,Kennesaw,1957,1957 #1957 #01957,2500 Cobb Place Ln Nw,GA,30144-7521
Jo-Ann Fabric and Craft Stores,Tampa,1958,1958 #1958 #01958,12635 Citrus Plaza Dr,FL,33625-3008
Jo-Ann Fabric and Craft Stores,Brandon,1959,1959 #1959 #01959,11215 Causeway Blvd,FL,33511-2903
Jo-Ann Fabric and Craft Stores,Alpharetta,1960,1960 #1960 #01960,965 N Point Dr,GA,30022-8266
Jo-Ann Fabric and Craft Stores,Foothill Ranch,1961,1961 #1961 #01961,26672 Portola Pkwy,CA,92610-1755
Jo-Ann Fabric and Craft Stores,Auburn Hills,1962,1962 #1962 #01962,600 Brown Rd,MI,48326-1307
Jo-Ann Fabric and Craft Stores,Ontario,1963,1963 #1963 #01963,4470 Ontario Mills Pkwy,CA,91764-5107
Jo-Ann Fabric and Craft Stores,Phoenix,1965,1965 #1965 #01965,21001 N Tatum Blvd,AZ,85050-4206
Jo-Ann Fabric and Craft Stores,Avon,1966,1966 #1966 #01966,10401 E US Highway 36,IN,46123-7429
Jo-Ann Fabric and Craft Stores,Maplewood,1970,1970 #1970 #01970,1739 Beam Ave,MN,55109-1128
Jo-Ann Fabric and Craft Stores,Columbus,2001,2001 #2001 #02001,3880 Morse Rd,OH,43219-3014
Jo-Ann Fabric and Craft Stores,Brighton,2003,2003 #2003 #02003,8449 W Grand River Ave,MI,48116-2324
Jo-Ann Fabric and Craft Stores,Ypsilanti,2004,2004 #2004 #02004,3737 Carpenter Rd,MI,48197-9609
Jo-Ann Fabric and Craft Stores,Snellville,2005,2005 #2005 #02005,1630 Scenic Hwy N Ste O,GA,30078-5659
Jo-Ann Fabric and Craft Stores,Silverdale,2007,2007 #2007 #02007,2886 Nw Bucklin Hill Rd,WA,98383-8513
Jo-Ann Fabric and Craft Stores,Florence,2010,2010 #2010 #02010,354 Cox Creek Pkwy,AL,35630-2811
Jo-Ann Fabric and Craft Stores,Reynoldsburg,2012,2012 #2012 #02012,2891 Taylor Rd,OH,43068-8028
Jo-Ann Fabric and Craft Stores,Pueblo,2013,2013 #2013 #02013,3449 Dillon Drive,CO,81008-1022
Jo-Ann Fabric and Craft Stores,Henderson,2015,2015 #2015 #02015,651 Marks St,NV,89014-8600
Jo-Ann Fabric and Craft Stores,Fayetteville,2016,2016 #2016 #02016,250 Pavilion Pkwy,GA,30214-7705
Jo-Ann Fabric and Craft Stores,Flint,2017,2017 #2017 #02017,G3603 Miller Rd,MI,48507-1233
Jo-Ann Fabric and Craft Stores,Akron,2021,2021 #2021 #02021,3977 Medina Rd,OH,44333-2444
Jo-Ann Fabric and Craft Stores,Lansing,2022,2022 #2022 #02022,533 Mall Ct,MI,48912-5200
Jo-Ann Fabric and Craft Stores,Naperville,2024,2024 #2024 #02024,526 South State Rt 59,IL,60540-0915
Jo-Ann Fabric and Craft Stores,Saint Petersburg,2025,2025 #2025 #02025,2500 66Th St N,FL,33710-4048
Jo-Ann Fabric and Craft Stores,Edina,2026,2026 #2026 #02026,3411 Hazelton Rd,MN,55435-4206
Jo-Ann Fabric and Craft Stores,Frisco,2027,2027 #2027 #02027,2930 Preston Rd Ste 800,TX,75034-9058
Jo-Ann Fabric and Craft Stores,Greenwood,2030,2030 #2030 #02030,1260 Us 31 North,IN,46142-4501
Jo-Ann Fabric and Craft Stores,Dunedin,2031,2031 #2031 #02031,2343 Curlew Road,FL,34698-9329
Jo-Ann Fabric and Craft Stores,Orlando,2032,2032 #2032 #02032,825 N Alafaya Trail,FL,32828-7049
Jo-Ann Fabric and Craft Stores,Elk Grove,2033,2033 #2033 #02033,8509 Bond Road,CA,95624-9457
Jo-Ann Fabric and Craft Stores,Lewisville,2034,2034 #2034 #02034,2325 S Stemmons Fwy,TX,75067-8754
Jo-Ann Fabric and Craft Stores,Grapevine,2035,2035 #2035 #02035,1250 William D Tate Ave,TX,76051-4030
Jo-Ann Fabric and Craft Stores,Dallas,2036,2036 #2036 #02036,"11700 Preston Rd, # 810",TX,75230-2716
Jo-Ann Fabric and Craft Stores,Olympia,2038,2038 #2038 #02038,2725 Harrison Ave Nw Ste 500,WA,98502-4585
Jo-Ann Fabric and Craft Stores,Jacksonville,2039,2039 #2039 #02039,"10261 River Marsh Drive, Suite 149",FL,32246-7418
Jo-Ann Fabric and Craft Stores,Tucson,2042,2042 #2042 #02042,7255 East Broadway Blvd,AZ,85710-1483
Jo-Ann Fabric and Craft Stores,Puyallup,2044,2044 #2044 #02044,"13410 Meridian East, Ste A",WA,98373-5627
Jo-Ann Fabric and Craft Stores,Pittsburgh,2045,2045 #2045 #02045,7375 Mcknight Rd,PA,15237-3512
Jo-Ann Fabric and Craft Stores,Greenfield,2046,2046 #2046 #02046,4950 South 74Th St,WI,53220-4320
Jo-Ann Fabric and Craft Stores,Algonquin,2047,2047 #2047 #02047,215 South Randall Road,IL,60102-9781
Jo-Ann Fabric and Craft Stores,Bloomingdale,2048,2048 #2048 #02048,362 W Army Trail Rd  Ste 230,IL,60108-2688
Jo-Ann Fabric and Craft Stores,Cranberry Township,2050,2050 #2050 #02050,20111 Rt 19,PA,16066-6207
Jo-Ann Fabric and Craft Stores,Monroeville,2051,2051 #2051 #02051,3700 William Penn Hwy,PA,15146-2152
Jo-Ann Fabric and Craft Stores,Westminster,2052,2052 #2052 #02052,6795 West 88Th Ave,CO,80031-2946
Jo-Ann Fabric and Craft Stores,Pittsburgh,2053,2053 #2053 #02053,"1800 Park Manor Blvd, Unit 5",PA,15205-4808
Jo-Ann Fabric and Craft Stores,Columbus,2054,2054 #2054 #02054,4600 W Broad St,OH,43228-1611
Jo-Ann Fabric and Craft Stores,Centennial,2055,2055 #2055 #02055,9090 East Phillips Place,CO,80112-3354
Jo-Ann Fabric and Craft Stores,Vernon Hills,2057,2057 #2057 #02057,"413 North Milwaukee Ave., Unit 500",IL,60061-1573
Jo-Ann Fabric and Craft Stores,Kissimmee,2058,2058 #2058 #02058,4801 W Irlo Bronson Memorial Hwy,FL,34746-5311
Jo-Ann Fabric and Craft Stores,Greensburg,2059,2059 #2059 #02059,1600 Greengate Centre Blvd,PA,15601-1287
Jo-Ann Fabric and Craft Stores,Rochester Hills,2061,2061 #2061 #02061,2105 South Rochester Road,MI,48307-3859
Jo-Ann Fabric and Craft Stores,Colorado Springs,2062,2062 #2062 #02062,3795 Bloomington St,CO,80922-3201
Jo-Ann Fabric and Craft Stores,Newark,2063,2063 #2063 #02063,341 W Main St,DE,19702-1534
Jo-Ann Fabric and Craft Stores,Fayetteville,2064,2064 #2064 #02064,330 Towne Center Dr,NY,13066-1371
Jo-Ann Fabric and Craft Stores,Geneva,2065,2065 #2065 #02065,714 Commons Drive,IL,60134-2541
Jo-Ann Fabric and Craft Stores,Bellevue,2067,2067 #2067 #02067,15600 Ne 8Th St Ste H1,WA,98008-3496
Jo-Ann Fabric and Craft Stores,Schererville,2068,2068 #2068 #02068,715 Us Highway 41,IN,46375-1217
Jo-Ann Fabric and Craft Stores,Palmdale,2069,2069 #2069 #02069,39818 10Th Street W,CA,93551-3004
Jo-Ann Fabric and Craft Stores,Shawnee,2070,2070 #2070 #02070,11215 West 63Rd St,KS,66203-3333
Jo-Ann Fabric and Craft Stores,Aurora,2071,2071 #2071 #02071,7360 South Gartrell Road,CO,80016-4110
Jo-Ann Fabric and Craft Stores,Taylorsville,2074,2074 #2074 #02074,5790  S Redwood Road,UT,84123-5395
Jo-Ann Fabric and Craft Stores,Gilbert,2075,2075 #2075 #02075,2753 South Market Street,AZ,85295-1302
Jo-Ann Fabric and Craft Stores,Naples,2077,2077 #2077 #02077,"6464 Naples Blvd, Ste 501",FL,34109-2013
Jo-Ann Fabric and Craft Stores,Downingtown,2078,2078 #2078 #02078,931 East Lancaster Avenue,PA,19335-3328
Jo-Ann Fabric and Craft Stores,Brookfield,2079,2079 #2079 #02079,16800 W Bluemound Rd,WI,53005-5918
Jo-Ann Fabric and Craft Stores,Lynnwood,2081,2081 #2081 #02081,5824 196Th Street Sw,WA,98036-6001
Jo-Ann Fabric and Craft Stores,Roseville,2082,2082 #2082 #02082,5811 Five Star Boulevard,CA,95678-3533
Jo-Ann Fabric and Craft Stores,Hurst,2083,2083 #2083 #02083,1439 W Pipeline Road,TX,76053-4628
Jo-Ann Fabric and Craft Stores,Fresno,2084,2084 #2084 #02084,8062 N Blackstone Ave,CA,93720-1544
Jo-Ann Fabric and Craft Stores,Madison,2086,2086 #2086 #02086,6741 Odana Road,WI,53719-1013
Jo-Ann Fabric and Craft Stores,Williamsville,2087,2087 #2087 #02087,4101 Transit Road Ste 1,NY,14221-7243
Jo-Ann Fabric and Craft Stores,Mount Laurel,2089,2089 #2089 #02089,66 Centerton Road,NJ,08054-6102
Jo-Ann Fabric and Craft Stores,Parkville,2090,2090 #2090 #02090,1951 Joppa Road,MD,21234-2733
Jo-Ann Fabric and Craft Stores,Kansas City,2091,2091 #2091 #02091,2201 Nw Barry Road,MO,64154-1001
Jo-Ann Fabric and Craft Stores,Fairless Hills,2092,2092 #2092 #02092,320 Commerce Boulevard,PA,19030-1024
Jo-Ann Fabric and Craft Stores,Tacoma,2093,2093 #2093 #02093,4104 Tacoma Mall Blvd,WA,98409-7203
Jo-Ann Fabric and Craft Stores,Webster,2094,2094 #2094 #02094,915 Holt Road,NY,14580-9101
Jo-Ann Fabric and Craft Stores,Riverside,2095,2095 #2095 #02095,2620 Canyon Springs Pkwy,CA,92507-0922
Jo-Ann Fabric and Craft Stores,Redlands,2096,2096 #2096 #02096,1625 W Lugonia Ave,CA,92374-2048
Jo-Ann Fabric and Craft Stores,Cedar Hill,2098,2098 #2098 #02098,229 East Fm 1382 Ste 510,TX,75104-2184
Jo-Ann Fabric and Craft Stores,Green Bay,2099,2099 #2099 #02099,2777 South Oneida Street,WI,54304-5750
Jo-Ann Fabric and Craft Stores,Chesterfield,2100,2100 #2100 #02100,50860 Gratiot Avenue,MI,48051-2055
Jo-Ann Fabric and Craft Stores,Hillsboro,2101,2101 #2101 #02101,7270 Ne Butler Street,OR,97124-9433
Jo-Ann Fabric and Craft Stores,Vancouver,2102,2102 #2102 #02102,"11505 Ne Fourth Plain Rd, Ste 86",WA,98662-6312
Jo-Ann Fabric and Craft Stores,Orland Park,2103,2103 #2103 #02103,15752 South La Grange Road,IL,60462-4766
Jo-Ann Fabric and Craft Stores,Allen Park,2104,2104 #2104 #02104,23125 Outer Drive,MI,48101-3100
Jo-Ann Fabric and Craft Stores,Fort Worth,2106,2106 #2106 #02106,1400 Green Oaks Road,TX,76116-1511
Jo-Ann Fabric and Craft Stores,Riverdale,2107,2107 #2107 #02107,4978 South 1050 West,UT,84405-7105
Jo-Ann Fabric and Craft Stores,Fort Wayne,2108,2108 #2108 #02108,4616 Coldwater Road,IN,46825-5548
Jo-Ann Fabric and Craft Stores,Pensacola,2109,2109 #2109 #02109,"6601 North Davis Highway, Ste 25",FL,32504-6233
Jo-Ann Fabric and Craft Stores,Fort Myers,2110,2110 #2110 #02110,10008 Gulf Center Drive,FL,33913-8961
Jo-Ann Fabric and Craft Stores,Springfield,2111,2111 #2111 #02111,400 South State Road,PA,19064-1243
Jo-Ann Fabric and Craft Stores,Homewood,2112,2112 #2112 #02112,17920 Halsted St,IL,60430-2014
Jo-Ann Fabric and Craft Stores,Arlington Heights,2113,2113 #2113 #02113,373 East Palatine Road,IL,60004-3938
Jo-Ann Fabric and Craft Stores,Fairbanks,2114,2114 #2114 #02114,250 3Rd St Ste 1,AK,99701-3151
Jo-Ann Fabric and Craft Stores,Stockton,2115,2115 #2115 #02115,10904 Trinity Parkway,CA,95219-7230
Jo-Ann Fabric and Craft Stores,Norton Shores,2116,2116 #2116 #02116,5663 Harvey Street,MI,49444-7735
Jo-Ann Fabric and Craft Stores,Chicago,2117,2117 #2117 #02117,2639 North Elston Avenue,IL,60647-2018
Jo-Ann Fabric and Craft Stores,West Melbourne,2118,2118 #2118 #02118,1537 West New Haven Avenue,FL,32904-3905
Jo-Ann Fabric and Craft Stores,Buena Park,2119,2119 #2119 #02119,5885 Lincoln Avenue,CA,90620-3461
Jo-Ann Fabric and Craft Stores,Tigard,2120,2120 #2120 #02120,"11945 Sw Pacific Highway, Ste 250",OR,97223-6478
Jo-Ann Fabric and Craft Stores,Draper,2121,2121 #2121 #02121,268 East 12300 South,UT,84020-8184
Jo-Ann Fabric and Craft Stores,Jackson,2122,2122 #2122 #02122,1099 North Wisner Street,MI,49202-3143
Jo-Ann Fabric and Craft Stores,Milford,2123,2123 #2123 #02123,1405 Boston Post Road,CT,06460-2756
Jo-Ann Fabric and Craft Stores,Loveland,2124,2124 #2124 #02124,1601 Fall River Drive,CO,80538-9063
Jo-Ann Fabric and Craft Stores,Warwick,2125,2125 #2125 #02125,"1500 Bald Hill Rd, Ste A",RI,02886-4259
Jo-Ann Fabric and Craft Stores,Irvine,2126,2126 #2126 #02126,2170 Barranca Pkwy,CA,92606-4940
Jo-Ann Fabric and Craft Stores,Visalia,2127,2127 #2127 #02127,3424 S Mooney Blvd,CA,93277-7772
Jo-Ann Fabric and Craft Stores,Evansville,2128,2128 #2128 #02128,929 N Green River Rd,IN,47715-2418
Jo-Ann Fabric and Craft Stores,North Attleboro,2129,2129 #2129 #02129,"1360 S Washington St, Unit 3",MA,02760-6293
Jo-Ann Fabric and Craft Stores,Portland,2130,2130 #2130 #02130,"3900 Se 82Nd Ave, Ste #1000",OR,97266-2945
Jo-Ann Fabric and Craft Stores,Sanford,2131,2131 #2131 #02131,"3900 Se 82Nd Ave, Ste #1000",FL,32771-7416
Jo-Ann Fabric and Craft Stores,Avondale,2132,2132 #2132 #02132,1717 N Dysart Rd,AZ,85392-1213
Jo-Ann Fabric and Craft Stores,Concord,2133,2133 #2133 #02133,"1675 B Willow Pass Rd, Ste B",CA,94520-2649
Jo-Ann Fabric and Craft Stores,Arlington,2134,2134 #2134 #02134,"137 Merchants Row, Ste 165",TX,76018-6024
Jo-Ann Fabric and Craft Stores,Mt Juliet,2135,2135 #2135 #02135,"401 S Mt Juliet Rd, Ste 640",TN,37122-8469
Jo-Ann Fabric and Craft Stores,Dayton,2136,2136 #2136 #02136,2270 Miamisburg-Centerville Rd,OH,45459-3817
Jo-Ann Fabric and Craft Stores,Mesa,2137,2137 #2137 #02137,825 N Dobson Road,AZ,85201-7585
Jo-Ann Fabric and Craft Stores,Fremont,2138,2138 #2138 #02138,43435 Boscell Road,CA,94538-5134
Jo-Ann Fabric and Craft Stores,Winter Garden,2139,2139 #2139 #02139,3379 Daniels Road,FL,34787-7009
Jo-Ann Fabric and Craft Stores,Austin,2140,2140 #2140 #02140,"10515 N Mo Pac Expy, Bldg 1",TX,78759-5468
Jo-Ann Fabric and Craft Stores,Midlothian,2141,2141 #2141 #02141,125 Perimeter Drive,VA,23113-7315
Jo-Ann Fabric and Craft Stores,Rancho Mirage,2142,2142 #2142 #02142,72765 Dinah Shore Drive,CA,92270-2703
Jo-Ann Fabric and Craft Stores,Augusta,2143,2143 #2143 #02143,3435 Wrightsboro Road,GA,30909-2518
Jo-Ann Fabric and Craft Stores,Pembroke Pines,2144,2144 #2144 #02144,11251 Pines Blvd,FL,33026-4118
Jo-Ann Fabric and Craft Stores,Louisville,2145,2145 #2145 #02145,"4600 Shelbyville Rd, Ste 280",KY,40207
Jo-Ann Fabric and Craft Stores,Citrus Hts,2146,2146 #2146 #02146,5425 Sunrise Blvd,CA,95610-7806
Jo-Ann Fabric and Craft Stores,Mason,2147,2147 #2147 #02147,8125 Arbor Square Drive,OH,45040-5003
Jo-Ann Fabric and Craft Stores,Brandywine,2148,2148 #2148 #02148,15920 Crain Hwy Se,MD,20613
Jo-Ann Fabric and Craft Stores,Appleton,2149,2149 #2149 #02149,720 N Casaloma Drive,WI,54913
Jo-Ann Fabric and Craft Stores,El Cerrito,2150,2150 #2150 #02150,300 El Cerrito Plaza,CA,94530-4004
Jo-Ann Fabric and Craft Stores,Leesburg,2151,2151 #2151 #02151,502 Ft Evans Rd Ne,VA,20176-4097
Jo-Ann Fabric and Craft Stores,Webster,2152,2152 #2152 #02152,1529A W Bay Area Blvd,TX,77598-3404
Jo-Ann Fabric and Craft Stores,Ballwin,2153,2153 #2153 #02153,15355 Manchester Road,MO,63011-3026
Jo-Ann Fabric and Craft Stores,Memphis,2154,2154 #2154 #02154,7746 Polo Grounds,TN,38125-5755
Jo-Ann Fabric and Craft Stores,Round Rock,2155,2155 #2155 #02155,201 University Oaks Blvd,TX,78665-2422
Jo-Ann Fabric and Craft Stores,Fairview Heights,2156,2156 #2156 #02156,10865 Lincoln Trail,IL,62208-2018
Jo-Ann Fabric and Craft Stores,San Antonio,2157,2157 #2157 #02157,"25 Ne Loop, 410 #114",TX,78216-5898
Jo-Ann Fabric and Craft Stores,Woodbridge,2158,2158 #2158 #02158,14350 Smoke Town Rd,VA,22192-4710
Jo-Ann Fabric and Craft Stores,Fredericksburg,2159,2159 #2159 #02159,9685 Jefferson Davis Hw,VA,22407-9407
Jo-Ann Fabric and Craft Stores,Harrisburg,2160,2160 #2160 #02160,5084 Jonestown Rd,PA,17112-4907
Jo-Ann Fabric and Craft Stores,Saugus,2161,2161 #2161 #02161,1073 Broadway,MA,01906-3210
Jo-Ann Fabric and Craft Stores,Boise,2162,2162 #2162 #02162,1085 N Milwaukee St,ID,83704-9011
Jo-Ann Fabric and Craft Stores,Grand Rapids,2163,2163 #2163 #02163,3665 28Th Street Se,MI,49512-1684
Jo-Ann Fabric and Craft Stores,Jensen Beach,2164,2164 #2164 #02164,3563 Northwest Federal Hwy,FL,34957-4451
Jo-Ann Fabric and Craft Stores,Terre Haute,2165,2165 #2165 #02165,5705 Us Hwy 41,IN,47802-4167
Jo-Ann Fabric and Craft Stores,Alexandria,2166,2166 #2166 #02166,3015 Hwy 29 South,MN,56308
Jo-Ann Fabric and Craft Stores,Plantation,2167,2167 #2167 #02167,"801 S University Drive, Ste 75",FL,33324
Jo-Ann Fabric and Craft Stores,Bend,2168,2168 #2168 #02168,61284 S Hwy 97,OR,97702
Jo-Ann Fabric and Craft Stores,Hoover,2169,2169 #2169 #02169,1709 Montgomery Hwy S,AL,35244-1215
Jo-Ann Fabric and Craft Stores,Sevierville,2170,2170 #2170 #02170,208 Collier Drive,TN,37862-6913
Jo-Ann Fabric and Craft Stores,Chattanooga,2171,2171 #2171 #02171,"2020 Gunbarrel Rd, Ste 198",TN,37421
Jo-Ann Fabric and Craft Stores,Columbia,2172,2172 #2172 #02172,"10050 Two Notch Rd, Ste 13",SC,29223-4306
Jo-Ann Fabric and Craft Stores,Arlington,2173,2173 #2173 #02173,"3704 172ND ST NE, STE F",WA,98223
Jo-Ann Fabric and Craft Stores,Austin,2174,2174 #2174 #02174,1700 17th St NW,MN,55912
Jo-Ann Fabric and Craft Stores,Omaha,2175,2175 #2175 #02175,13415 West Center Rd,NE,68144
Jo-Ann Fabric and Craft Stores,Darien,2176,2176 #2176 #02176,7511 Lemont Rd  Ste 100,IL,60561-4394
Jo-Ann Fabric and Craft Stores,Montgomery,2177,2177 #2177 #02177,7951 Eastchase Pkwy,AL,36117-7041
Jo-Ann Fabric and Craft Stores,St Peters,2178,2178 #2178 #02178,5610 Suemandy Road,MO,63376-4312
Jo-Ann Fabric and Craft Stores,Denver,2179,2179 #2179 #02179,2580 South Colorado Blvd,CO,80222-5909
Jo-Ann Fabric and Craft Stores,Cedar City,2180,2180 #2180 #02180,622 South Main St,UT,84720-3549
Jo-Ann Fabric and Craft Stores,Cincinnati,2181,2181 #2181 #02181,Eastgate Crossing,OH,45245
Jo-Ann Fabric and Craft Stores,Brookfield,2182,2182 #2182 #02182,143 Federal Rd,CT,6804
Jo-Ann Fabric and Craft Stores,Pocatello,2183,2183 #2183 #02183,1790 Hurley Drive,ID,83201
Jo-Ann Fabric and Craft Stores,Huntsville,2184,2184 #2184 #02184,Huntsville Plaza,AL,35806
Jo-Ann Fabric and Craft Stores,Roanoke,2185,2185 #2185 #02185,2043 Colonial Avenue,VA,24015
Jo-Ann Fabric and Craft Stores,Bullhead City,2186,2186 #2186 #02186,Riverview Mall,AZ,86442
Jo-Ann Fabric and Craft Stores,Fond du Lac,2187,2187 #2187 #02187,Forest Plaza,WI,54935
Jo-Ann Fabric and Craft Stores,Dublin,2189,2189 #2189 #02189,7177 Amador Plaza Rd,CA,94568
Jo-Ann Fabric and Craft Stores,Clarksville,2190,2190 #2190 #02190,951 East Lewis & Clark Pkwy,IN,47129
Jo-Ann Fabric and Craft Stores,Mankato,2191,2191 #2191 #02191,Madison East Mall,MN,56001
Jo-Ann Fabric and Craft Stores,Idaho Falls,2192,2192 #2192 #02192,2408 South 25th East,ID,83404
Jo-Ann Fabric and Craft Stores,Wichita,2193,2193 #2193 #02193,3665 N Rock Rd,KS,67226
Jo-Ann Fabric and Craft Stores,Jackson,2194,2194 #2194 #02194,1189 Vann Drive,TN,38305
Jo-Ann Fabric and Craft Stores,Watertown,2195,2195 #2195 #02195,1283 Arsenal Street,NY,13601
Jo-Ann Fabric and Craft Stores,Tulsa,2196,2196 #2196 #02196,10131 East 71st St,OK,74136-5036
Jo-Ann Fabric and Craft Stores,Rockwall,2197,2197 #2197 #02197,1049 East IH 30,TX,75087
Jo-Ann Fabric and Craft Stores,Lombard,2198,2198 #2198 #02198,441 E Roosevelt Road,IL,60148
Jo-Ann Fabric and Craft Stores,Mt Vernon,2199,2199 #2199 #02199,510 E College Way,WA,98273
Jo-Ann Fabric and Craft Stores,Santa Maria,2200,2200 #2200 #02200,1535 S Bradley Road,CA,93454
Jo-Ann Fabric and Craft Stores,Florence,2201,2201 #2201 #02201,1945 West Palmetto St,SC,29501
Jo-Ann Fabric and Craft Stores,Sonora,2202,2202 #2202 #02202,1151 Sanguinetti Road,CA,95370
Jo-Ann Fabric and Craft Stores,Folsom,2203,2203 #2203 #02203,1010 E Bidwell Street,CA,95630
Jo-Ann Fabric and Craft Stores,Elko,2204,2204 #2204 #02204,2755 Mountain City Hwy,NV,89801
Jo-Ann Fabric and Craft Stores,Mooresville,2205,2205 #2205 #02205,221 Norman Station Blvd,NC,28117
Jo-Ann Fabric and Craft Stores,SUGAR LAND,2206,2206 #2206 #02206,16626 SOUTHWEST FREEWAY,TX,77479
Jo-Ann Fabric and Craft Stores,Spartanburg,2207,2207 #2207 #02207,660 Spartan Blvd,SC,29301
Jo-Ann Fabric and Craft Stores,Waterloo,2208,2208 #2208 #02208,1407 Flammang Drive,IA,50702
Jo-Ann Fabric and Craft Stores,Williamsburg,2209,2209 #2209 #02209,5103 Main Street,VA,23188
Jo-Ann Fabric and Craft Stores,Casa Grande,2210,2210 #2210 #02210,1325 E Florence Blvd,AZ,85122
Jo-Ann Fabric and Craft Stores,Canandaigua,2211,2211 #2211 #02211,3225 SR 364,NY,14424
Jo-Ann Fabric and Craft Stores,Denton,2212,2212 #2212 #02212,2640 West University DR,TX,76201
Jo-Ann Fabric and Craft Stores,Tooele,2213,2213 #2213 #02213,852 N Main Street,UT,84074
Jo-Ann Fabric and Craft Stores,Osage Beach,2214,2214 #2214 #02214,3958 Jr. Prewitt Pkwy,MO,65065
Jo-Ann Fabric and Craft Stores,Plover,2215,2215 #2215 #02215,1150 Meridian Dr,WI,54467
Jo-Ann Fabric and Craft Stores,Corvallis,2216,2216 #2216 #02216,932 NW Circle Blvd,OR,97330
Jo-Ann Fabric and Craft Stores,Paramus,2217,2217 #2217 #02217,30 A & S Drive,NJ,7652
Jo-Ann Fabric and Craft Stores,Salem,2218,2218 #2218 #02218,783 Lancaster Drive NE,OR,97301
Jo-Ann Fabric and Craft Stores,St Louis,2219,2219 #2219 #02219,6910 S Lindbergh Blvd,MO,63125
Jo-Ann Fabric and Craft Stores,Joliet,2220,2220 #2220 #02220,2741 Plainfield Rd,IL,60435
Jo-Ann Fabric and Craft Stores,Richmond,2222,2222 #2222 #02222,7504 W Broad St,VA,23294
Jo-Ann Fabric and Craft Stores,Cheyenne,2223,2223 #2223 #02223,1400 Dell Range Blvd,WY,82009
Jo-Ann Fabric and Craft Stores,Greenville,2224,2224 #2224 #02224,146 SW Greenville Blvd,NC,27834
Jo-Ann Fabric and Craft Stores,Tupelo,2225,2225 #2225 #02225,3875 N Gloster Street,MS,38804
Jo-Ann Fabric and Craft Stores,Katy,2226,2226 #2226 #02226,1219 North Fry Road,TX,77449
Jo-Ann Fabric and Craft Stores,New Philadelphia,2227,2227 #2227 #02227,400 Mill Street SE,OH,44663
Jo-Ann Fabric and Craft Stores,Fort Collins,2228,2228 #2228 #02228,2701 S College Ave,CO,80525
Jo-Ann Fabric and Craft Stores,Indianapolis,2229,2229 #2229 #02229,10030 E Washington St,IN,46229
Jo-Ann Fabric and Craft Stores,Dalton,2230,2230 #2230 #02230,"816 Walnut Square Blvd, Suite 01",GA,30721
Jo-Ann Fabric and Craft Stores,Norman,2231,2231 #2231 #02231,3449 W Main St,OK,73072
Jo-Ann Fabric and Craft Stores,Warrenton,2232,2232 #2232 #02232,180 SE Neptune Dr,OR,97146
Jo-Ann Fabric and Craft Stores,Owensboro,2233,2233 #2233 #02233,"5241 Frederica St, Space 3",KY,42301
Jo-Ann Fabric and Craft Stores,Lakewood,2234,2234 #2234 #02234,"10750 W Colfax Ave, Ste 100",CO,80215
Jo-Ann Fabric and Craft Stores,Wisconsin Dells,2236,2236 #2236 #02236,"121 Commerce St, Ste 1",WI,53965
Jo-Ann Fabric and Craft Stores,Grand Junction,2238,2238 #2238 #02238,2424 Hwy 6 & 50,CO,81505
Jo-Ann Fabric and Craft Stores,Gainesville,2239,2239 #2239 #02239,834-A Dawsonville Hwy,GA,30501
Jo-Ann Fabric and Craft Stores,Cincinnati,2240,2240 #2240 #02240,10166 Colerain Avenue,OH,45251
Jo-Ann Fabric and Craft Stores,Scarsdale,2241,2241 #2241 #02241,965 Central Park Avenue,NY,10583
Jo-Ann Fabric and Craft Stores,Defiance,2242,2242 #2242 #02242,"1001 N Clinton St, Ste 1",OH,43512
Jo-Ann Fabric and Craft Stores,Bismarck,2243,2243 #2243 #02243,2700 State St,ND,58501
Jo-Ann Fabric and Craft Stores,Grand Island,2244,2244 #2244 #02244,"3404 W 13th Street, STE 153",NE,68803
Jo-Ann Fabric and Craft Stores,Springfield,2246,2246 #2246 #02246,3051 W Wabash Avenue,IL,62704
Jo-Ann Fabric and Craft Stores,Brunswick,2247,2247 #2247 #02247,137 Golden Isles Plaza,GA,31520
Jo-Ann Fabric and Craft Stores,Charlotte,2248,2248 #2248 #02248,9523 South Blvd,NC,28273
Jo-Ann Fabric and Craft Stores,Ankeny,2249,2249 #2249 #02249,1205 SE 16th Ct,IA,50021
Jo-Ann Fabric and Craft Stores,Sterling,2250,2250 #2250 #02250,3201 E Lincolnway,IL,61081
Jo-Ann Fabric and Craft Stores,San Antonio,2251,2251 #2251 #02251,11655 Bandera Rd,TX,78250
Jo-Ann Fabric and Craft Stores,GOLDSBORO,2252,2252 #2252 #02252,625 N BERKELEY BLVD #H,NC,27534
Jo-Ann Fabric and Craft Stores,Rocky Mount,2253,2253 #2253 #02253,572 Sutter's Creek Blvd,NC,27804
Jo-Ann Fabric and Craft Stores,Charlottesville,2255,2255 #2255 #02255,1774 Rio Hill Ctr,VA,22901
Jo-Ann Fabric and Craft Stores,Lafayette,2256,2256 #2256 #02256,3559 Ambassador Caffery Pkwy,LA,70503
Jo-Ann Fabric and Craft Stores,Belton,2257,2257 #2257 #02257,1153 E North Ave,MO,64012
Jo-Ann Fabric and Craft Stores,McHenry,2259,2259 #2259 #02259,3310 Shoppers Dr,IL,60050
Jo-Ann Fabric and Craft Stores,Sierra Vista,2260,2260 #2260 #02260,"2200 El Mercado Loop, Suite 1184",AZ,85635
Jo-Ann Fabric and Craft Stores,Florence,2261,2261 #2261 #02261,87 Spiral Dr,KY,41042
Jo-Ann Fabric and Craft Stores,Hanover,2262,2262 #2262 #02262,1150 Carlisle St,PA,17331
Jo-Ann Fabric and Craft Stores,Elk River,2263,2263 #2263 #02263,19154 Freeport St NW,MN,55330
Jo-Ann Fabric and Craft Stores,Clay,2264,2264 #2264 #02264,4154 SR 31,NY,13041
Jo-Ann Fabric and Craft Stores,Fort Worth,2265,2265 #2265 #02265,5212 S Hulen Street,TX,76132
Jo-Ann Fabric and Craft Stores,Enfield,2266,2266 #2266 #02266,136 Elm St,CT,6082
Jo-Ann Fabric and Craft Stores,Oklahoma City,2267,2267 #2267 #02267,8345 N Rockwell Ave,OK,73132
Jo-Ann Fabric and Craft Stores,Jackson,2268,2268 #2268 #02268,6361 I-55 North,MS,39213
Jo-Ann Fabric and Craft Stores,Baton Rouge,2269,2269 #2269 #02269,10535 S Mall Dr,LA,70809
Jo-Ann Fabric and Craft Stores,Hesperia,2270,2270 #2270 #02270,12779 Main St,CA,92340
Jo-Ann Fabric and Craft Stores,San Leandro,2271,2271 #2271 #02271,699 Lewelling Blvd Suite 230,CA,94579
Jo-Ann Fabric and Craft Stores,Mayfield Heights,2272,2272 #2272 #02272,1533 Golden Gate Plaza  Suite #153,OH,44124
Jo-Ann Fabric and Craft Stores,Joplin,2273,2273 #2273 #02273,101 N Range Line Rd,MO,64801
Jo-Ann Fabric and Craft Stores,Comstock Park,2274,2274 #2274 #02274,3900 Alpine Ave NW,MI,49321
Jo-Ann Fabric and Craft Stores,White Lake Twp.,2277,2277 #2277 #02277,9052 Highland Road,MI,48386
Jo-Ann Fabric and Craft Stores,Vero Beach,2279,2279 #2279 #02279,5921 20th St,FL,32966
Jo-Ann Fabric and Craft Stores,Sheboygan Falls,2280,2280 #2280 #02280,4079 Highway 28,WI,53085
Jo-Ann Fabric and Craft Stores,Queen Creek,2281,2281 #2281 #02281,21238 S. Ellsworth Loop Road,AZ,85142
Jo-Ann Fabric and Craft Stores,SARASOTA,2282,2282 #2282 #02282,8441 COOPER CREEK BLVD,FL,34243
Jo-Ann Fabric and Craft Stores,Shakopee,2283,2283 #2283 #02283,4120 Dean Lakes Boulevard,MN,55379
Jo-Ann Fabric and Craft Stores,Asheville,2284,2284 #2284 #02284,80 South Tunnel Road Suite 30,NC,28805
Jo-Ann Fabric and Craft Stores,Reading,2286,2286 #2286 #02286,1075 Woodland Rd,PA,19610
Jo-Ann Fabric and Craft Stores,Schaumburg,2287,2287 #2287 #02287,301 South Barrington Rd.,IL,60193
Jo-Ann Fabric and Craft Stores,BROCKTON,2288,2288 #2288 #02288,200 WESTGATE DR.,MA,2301
Jo-Ann Fabric and Craft Stores,COLUMBIA,2289,2289 #2289 #02289,509 EAST NIFONG,MO,65201
Jo-Ann Fabric and Craft Stores,Champaign,2290,2290 #2290 #02290,722 W Town Center Blvd,IL,61822
Jo-Ann Fabric and Craft Stores,Stillwater,2291,2291 #2291 #02291,519  N  Main St.,OK,74075
Jo-Ann Fabric and Craft Stores,Spring,2292,2292 #2292 #02292,25415 I-45 South,TX,77380
Jo-Ann Fabric and Craft Stores,Wooster,2293,2293 #2293 #02293,3786 Burbank Rd  Suite #401,OH,44691
Jo-Ann Fabric and Craft Stores,Crystal City,2294,2294 #2294 #02294,101 Twin City Mall,MO,63019
Jo-Ann Fabric and Craft Stores,Centerville,2295,2295 #2295 #02295,302 N Market Place Dr,UT,84014
Jo-Ann Fabric and Craft Stores,McKinney,2296,2296 #2296 #02296,"2050 West University Drive, Suite 250",TX,75070
Jo-Ann Fabric and Craft Stores,North Little Rock,2297,2297 #2297 #02297,2637 Lakewood Village Dr,AR,72116
Jo-Ann Fabric and Craft Stores,Panama City,2298,2298 #2298 #02298,413 East 23rd Street,FL,32405
Jo-Ann Fabric and Craft Stores,Plymouth,2299,2299 #2299 #02299,32 Shops @ 5 Way,MA,2360
Jo-Ann Fabric and Craft Stores,Toledo,2300,2300 #2300 #02300,4948 Monroe St,OH,43623
Jo-Ann Fabric and Craft Stores,Rochester,2301,2301 #2301 #02301,160 Washington St Ste 606,NH,3839
Jo-Ann Fabric and Craft Stores,TUCSON,2302,2302 #2302 #02302,4380 N. ORACLE RD. SUITE 150,AZ,85705
Jo-Ann Fabric and Craft Stores,Glen Mills,2303,2303 #2303 #02303,600 Town Centre Drive Suite D-108,PA,19342
Jo-Ann Fabric and Craft Stores,Madison,2305,2305 #2305 #02305,2088 Gallatin Pike North,TN,37115
Jo-Ann Fabric and Craft Stores,Cedar Rapids,2306,2306 #2306 #02306,255 Collins Road NE,IA,52402
Jo-Ann Fabric and Craft Stores,Sherman,2308,2308 #2308 #02308,4127 N Hwy 75,TX,75090
Jo-Ann Fabric and Craft Stores,LYNCHBURG,2309,2309 #2309 #02309,3405 CANDLERS MOUNTAIN RD,VA,24502
Jo-Ann Fabric and Craft Stores,St Louis,2310,2310 #2310 #02310,3200 Laclede Station Road,MO,63143
Jo-Ann Fabric and Craft Stores,Grants Pass,2311,2311 #2311 #02311,1090 Northeast E Street,OR,97526
Jo-Ann Fabric and Craft Stores,Indianapolis,2312,2312 #2312 #02312,1361 86th St W,IN,46260
Jo-Ann Fabric and Craft Stores,KNOXVILLE,2313,2313 #2313 #02313,4627 GREENWAY DRIVE,TN,37918
Jo-Ann Fabric and Craft Stores,Greenville,2314,2314 #2314 #02314,840 Woods Crossing Road,SC,29607
Jo-Ann Fabric and Craft Stores,Billings,2315,2315 #2315 #02315,2833 King Avenue West,MT,59102
Jo-Ann Fabric and Craft Stores,EUGENE,2317,2317 #2317 #02317,1024 GREEN ACRES ROAD,OR,97408
Jo-Ann Fabric and Craft Stores,MORGANTON,2318,2318 #2318 #02318,E132 MORGANTON HEIGHTS BLVD,NC,28655
Jo-Ann Fabric and Craft Stores,GILLETTE,2320,2320 #2320 #02320,2610 S. DOUGLAS HWY. SUITE 217,WY,82718
Jo-Ann Fabric and Craft Stores,Klamath Falls,2321,2321 #2321 #02321,2880 South 6th Street,OR,97603
Jo-Ann Fabric and Craft Stores,LAKE GENEVA,2322,2322 #2322 #02322,600 N. EDWARDS BLVD,WI,53147
Jo-Ann Fabric and Craft Stores,Louisville,2323,2323 #2323 #02323,"4801 Outer Loop, Space #2323",KY,40219
Jo-Ann Fabric and Craft Stores,PERU,2324,2324 #2324 #02324,3940 ROUTE 251 SUITE A1,IL,61354
Jo-Ann Fabric and Craft Stores,Odessa,2325,2325 #2325 #02325,6351 E. Hwy 191,TX,79762
Jo-Ann Fabric and Craft Stores,Coeur d'Alene,2326,2326 #2326 #02326,"200 West Hanley Avenue, Suite 1101",ID,83815
Jo-Ann Fabric and Craft Stores,Beaver Dam,2327,2327 #2327 #02327,1645 NORTH SPRING STREET,WI,53916
Jo-Ann Fabric and Craft Stores,Charleston,2328,2328 #2328 #02328,"2243 Ashley Crossing Drive, Suite C",SC,29414
Jo-Ann Fabric and Craft Stores,Washington,2329,2329 #2329 #02329,720 W. Telegraph St.,UT,84780
Jo-Ann Fabric and Craft Stores,Sahuarita,2330,2330 #2330 #02330,"18785 W. I-19 Frontage Road, Suite 113",AZ,85629
Jo-Ann Fabric and Craft Stores,American Fork,2331,2331 #2331 #02331,640 East State Street,UT,84003
Jo-Ann Fabric and Craft Stores,LANSING,2332,2332 #2332 #02332,3750 WEST SAGINAW STREET,MI,48917
Jo-Ann Fabric and Craft Stores,Muscatine,2333,2333 #2333 #02333,"1903 Park Avenue, Suite A004",IA,52761
Jo-Ann Fabric and Craft Stores,Clinton,2334,2334 #2334 #02334,1803 West 1800 North Suite G1,UT,84015
Jo-Ann Fabric and Craft Stores,Yulee,2335,2335 #2335 #02335,463877 State Road 200,FL,32097
Jo-Ann Fabric and Craft Stores,Sault Sainte Marie,2336,2336 #2336 #02336,4510 I-75 Business Spur Rd.,MI,49783
Jo-Ann Fabric and Craft Stores,ALBANY,2337,2337 #2337 #02337,2800 OLD DAWSON ROAD,GA,31707
Jo-Ann Fabric and Craft Stores,Johnstown,2338,2338 #2338 #02338,1425 Scalp Avenue - Space 110,PA,15904
Jo-Ann Fabric and Craft Stores,FONTANA,2339,2339 #2339 #02339,"16685 SIERRA PKWY 100, LOT 4 92336",CA,92336
Jo-Ann Fabric and Craft Stores,BARRE,2340,2340 #2340 #02340,"1400 U.S. ROUTE 302, SUITE 10",VT,5641
Jo-Ann Fabric and Craft Stores,SUCCASUNNA,2341,2341 #2341 #02341,281-28 ROUTE 10E,NJ,7876
Jo-Ann Fabric and Craft Stores,Ithaca,2342,2342 #2342 #02342,"2309 N Triphammer Road, Unit 1",NY,14850
Jo-Ann Fabric and Craft Stores,Corbin,2343,2343 #2343 #02343,"14659 N US Highway 25 E, Unit #26",KY,40701
Jo-Ann Fabric and Craft Stores,MANHATTAN,2344,2344 #2344 #02344,1000 West Loop Place Ste 120,KS,66502
Jo-Ann Fabric and Craft Stores,Selinsgrove,2345,2345 #2345 #02345,"1 Susquehanna Valley Mall Dr., Space # D-6",PA,17870
Jo-Ann Fabric and Craft Stores,AUSTIN,2346,2346 #2346 #02346,"9500 S IH 35 SB SERVICE ROAD, BLDG F",TX,78748
Jo-Ann Fabric and Craft Stores,Menomonee Falls,2347,2347 #2347 #02347,N78W14531 Appleton Ave.,WI,53051
Jo-Ann Fabric and Craft Stores,Oshkosh,2348,2348 #2348 #02348,1226 Koeller Street,WI,54902
Jo-Ann Fabric and Craft Stores,Little Rock,2349,2349 #2349 #02349,2616 S Shackleford Rd Ste A,AR,72205
Jo-Ann Fabric and Craft Stores,Red Wing,2350,2350 #2350 #02350,160 Tyler Road North,MN,55066
Jo-Ann Fabric and Craft Stores,Summerville,2351,2351 #2351 #02351,1215-B North Main Street,SC,29483
Jo-Ann Fabric and Craft Stores,Hendersonville,2352,2352 #2352 #02352,1800 Four Seasons Blvd,NC,28792
Jo-Ann Fabric and Craft Stores,Redding,2353,2353 #2353 #02353,1175 Dana Drive,CA,96003
Jo-Ann Fabric and Craft Stores,Warrington,2354,2354 #2354 #02354,397 Easton Road,PA,18976
Jo-Ann Fabric and Craft Stores,Cherry Hill,2355,2355 #2355 #02355,"2234 W. Marlton Pike Road, Plot E3",NJ,8002
Jo-Ann Fabric and Craft Stores,HUDSON,2356,2356 #2356 #02356,160 FAIRVIEW AVENUE,NY,12534
Jo-Ann Fabric and Craft Stores,PHILADELPHIA,2357,2357 #2357 #02357,11000 ROOSEVELT BLVD,PA,19116
Jo-Ann Fabric and Craft Stores,Shawnee,2358,2358 #2358 #02358,4901 N. Kickapoo Street,OK,74804
Jo-Ann Fabric and Craft Stores,Conyers,2359,2359 #2359 #02359,1380 Dogwood Drive,GA,30013
Jo-Ann Fabric and Craft Stores,Campbellsville,2360,2360 #2360 #02360,399 Campbellsville Bypass #24A,KY,42718
Jo-Ann Fabric and Craft Stores,Washington,2361,2361 #2361 #02361,1976 Charlotte's Way Drive,MO,63090
Jo-Ann Fabric and Craft Stores,COMMACK,2362,2362 #2362 #02362,6A GARET PLACE,NY,11725
Jo-Ann Fabric and Craft Stores,Slidell,2363,2363 #2363 #02363,105-135 Northshore Blvd.,LA,70460
Jo-Ann Fabric and Craft Stores,Newnan,2364,2364 #2364 #02364,1074 Bullsboro Drive,GA,30265
Jo-Ann Fabric and Craft Stores,Vernal,2365,2365 #2365 #02365,2089 West Hwy 40,UT,84078
Jo-Ann Fabric and Craft Stores,Rock Springs,2366,2366 #2366 #02366,"2441 Foothill Blvd, Suite #5",WY,82901
Jo-Ann Fabric and Craft Stores,Torrington,2367,2367 #2367 #02367,39 South Main St.,CT,6790
Jo-Ann Fabric and Craft Stores,Montrose,2368,2368 #2368 #02368,"1601 Oxbow Drive, Ste. 320",CO,81401
Jo-Ann Fabric and Craft Stores,Livermore,2370,2370 #2370 #02370,4650  Arroya Vista S/C,CA,94551
Jo-Ann Fabric and Craft Stores,Lincoln,2371,2371 #2371 #02371,"220 N. 66th Street, Ste 270",NE,68505
Jo-Ann Fabric and Craft Stores,Merrillville,2373,2373 #2373 #02373,1916 E 80th Avenue #14,IN,46410
Jo-Ann Fabric and Craft Stores,Woodland Hills,2374,2374 #2374 #02374,22914 W. Victory Blvd.,CA,91367
Jo-Ann Fabric and Craft Stores,PEEKSKILL,2375,2375 #2375 #02375,1831 MAIN ST,NY,10566
Jo-Ann Fabric and Craft Stores,Mobile,2376,2376 #2376 #02376,3725  Airport Blvd. Unit 100-C,AL,36608
Jo-Ann Fabric and Craft Stores,Battle Creek,2377,2377 #2377 #02377,"5420 Beckley Road, Suite M",MI,49015
Jo-Ann Fabric and Craft Stores,Grandville,2378,2378 #2378 #02378,3323 Century Center Drive,MI,49418
Jo-Ann Fabric and Craft Stores,Athens,2380,2380 #2380 #02380,"743 E. STATE STREET, SUITE O",OH,45701
Jo-Ann Fabric and Craft Stores,PRINCE FREDERICK,2381,2381 #2381 #02381,"521 N. SOLOMON'S ISLAND RD, STE 34",MD,20678
Jo-Ann Fabric and Craft Stores,Wheaton,2382,2382 #2382 #02382,"11160 Veirs Mill Road, Unit 180",MD,20902
Jo-Ann Fabric and Craft Stores,Riverdale,2383,2383 #2383 #02383,48 Route 23,NJ,7457
Jo-Ann Fabric and Craft Stores,CHICAGO,2386,2386 #2386 #02386,555 W. ROOSEVELT ROAD,IL,60607
Jo-Ann Fabric and Craft Stores,New Braunfels,2387,2387 #2387 #02387,"1671 IH-35 South, Suite 208",TX,78130-2501
Jo-Ann Fabric and Craft Stores,GLENDALE,2389,2389 #2389 #02389,1000 SOUTH CENTRAL AVENUE,CA,91204
Jo-Ann Fabric and Craft Stores,Gainesville,2391,2391 #2391 #02391,3202 SW 35th Blvd,FL,32608
Jo-Ann Fabric and Craft Stores,ASHLAND,2392,2392 #2392 #02392,"500 WINCHESTER AVE, SUITE 700",KY,41101
Jo-Ann Fabric and Craft Stores,Vancouver,2394,2394 #2394 #02394,7907 NE Highway 99,WA,98665
Jo-Ann Fabric and Craft Stores,El Centro,2395,2395 #2395 #02395,522 N. Imperial Ave.,CA,92243
Jo-Ann Fabric and Craft Stores,BEAVERTON,2396,2396 #2396 #02396,4005 SW 117TH STREET,OR,97005
Jo-Ann Fabric and Craft Stores,REDMOND,2397,2397 #2397 #02397,732 SW 6TH STREET,OR,97756
Jo-Ann Fabric and Craft Stores,Tifton,2400,2400 #2400 #02400,612 Virginia Ave. North,GA,31794
Jo-Ann Fabric and Craft Stores,TULLAHOMA,2402,2402 #2402 #02402,1600 JACKSON ST.,TN,37388
Jo-Ann Fabric and Craft Stores,Faribault,2404,2404 #2404 #02404,"200 Western Ave NW, Suite # C10",MN,55021
Jo-Ann Fabric and Craft Stores,Los Angeles,2406,2406 #2406 #02406,1250 S La Cienega Blvd,CA,90035
Jo-Ann Fabric and Craft Stores,Toms River,2409,2409 #2409 #02409,1379 Hooper Avenue,NJ,8753
Jo-Ann Fabric and Craft Stores,Elyria,2410,2410 #2410 #02410,380 Market Dr.,OH,44035
Jo-Ann Fabric and Craft Stores,Southington,2411,2411 #2411 #02411,774 Queen St.,CT,6489
Jo-Ann Fabric and Craft Stores,Houston,2415,2415 #2415 #02415,9960 Old Katy Road,TX,77055
Jo-Ann Fabric and Craft Stores,GLASGOW,2419,2419 #2419 #02419,376 NORTH L. ROGERS WELLS BLVD.,KY,42141
Jo-Ann Fabric and Craft Stores,RIVERSIDE,2422,2422 #2422 #02422,3635 RIVERSIDE PLAZA DR. STE.240,CA,92506
Jo-Ann Fabric and Craft Stores,SOUTH BEND,2424,2424 #2424 #02424,1217 E. IRELAND ROAD,IN,46614
Jo-Ann Fabric and Craft Stores,MONROE,2426,2426 #2426 #02426,2115 W. ROOSEVELT BLVD.,NC,28110
Jo-Ann Fabric and Craft Stores,CLOVIS,2428,2428 #2428 #02428,1065 HERNDON AVE.,CA,93611
Jo-Ann Fabric and Craft Stores,BEDFORD,2439,2439 #2439 #02439,1224 JAMES AVE.,IN,47421
