keywords,city,Aggdata Store Number,store_number,address,state,zip_code
Journeys,PROVIDENCE,676,#00676 #0676 #676 0676,"PROVIDENCE PLACE , 108 PROVIDENCE PLACE, SPC A-321",RI,02903-1752
Journeys,PORTLAND,677,#00677 #0677 #677 0677,"WASHINGTON SQUARE MALL, 9426 SW WASHINGTON SQUARE RD",OR,97223-4447
Journeys,HARRISONBURG,678,#00678 #0678 #678 0678,"VALLEY MALL, 1925 E MARKET ST, STE 326",VA,22801-3432
Journeys,JENSEN BEACH,679,#00679 #0679 #679 0679,"TREASURE COAST SQUARE MALL, 3422 NW FEDERAL HWY",FL,34957-4440
Journeys,SAN ANTONIO,680,#00680 #0680 #680 0680,"INGRAM PARK MALL, 6301 NW LOOP 410, STE H-2",TX,78238-3898
Journeys,MESQUITE,681,#00681 #0681 #681 0681,"TOWN EAST MALL , 2063 TOWN EAST MALL, STE 2052",TX,75150-4118
Journeys,RICHMOND,682,#00682 #0682 #682 0682,"RICHMOND SQUARE, 3801 NATIONAL ROAD E, STE 571",IN,47374-3687
Journeys,IRVING,683,#00683 #0683 #683 0683,"IRVING MALL, 3880 IRVING MALL",TX,75062-5129
Journeys,BLAINE,684,#00684 #0684 #684 0684,"NORTHTOWN MALL, 398 NORTHTOWN DRIVE, SPC 20",MN,55434-1038
Journeys,BREA,685,#00685 #0685 #685 0685,"BREA MALL, 1035 BREA MALL",CA,92821-5718
Journeys,OMAHA,687,#00687 #0687 #687 0687,"OAK VIEW MALL, 3001 S 144TH ST, STE 1034",NE,68144-5234
Journeys,SHERMAN,688,#00688 #0688 #688 0688,"MIDWAY MALL, 4800 TEXOMA PKWY, STE 220",TX,75090-2083
Journeys,AVENTURA,689,#00689 #0689 #689 0689,"AVENTURA MALL, 19575 BISCAYNE BLVD, STE 1299",FL,33180-2352
Journeys,AKRON,691,#00691 #0691 #691 0691,"SUMMIT MALL, 3265 W MARKET ST, STE 434",OH,44333-3354
Journeys,FARGO,692,#00692 #0692 #692 0692,"WEST ACRES SHOPPING CENTER, 3902 13TH AVE S, STE 525",ND,58103-3357
Journeys,LAREDO,693,#00693 #0693 #693 0693,"MALL DEL NORTE, 5300 SAN DARIO AVE, STE 154",TX,78041-3036
Journeys,TRAVERSE CITY,694,#00694 #0694 #694 0694,"GRAND TRAVERSE MALL, 3200 S AIRPORT RD W, STE 522",MI,49684-8124
Journeys,MYRTLE BEACH,695,#00695 #0695 #695 0695,"COASTAL GRAND, 2000 COASTAL GRAND CIR, STE 180",SC,29577-9613
Journeys,FARMINGTON,696,#00696 #0696 #696 0696,"ANIMAS VALLEY, 4601 E MAIN ST, STE 300",NM,87402-1701
Journeys,GAINESVILLE,697,#00697 #0697 #697 0697,"THE OAKS MALL, 6419 W NEWBERRY RD, SPC A5",FL,32605-4338
Journeys,COLUMBIA,699,#00699 #0699 #699 0699,"COLUMBIA PLACE, 7201 TWO NOTCH RD, 699",SC,29223
Journeys,EVANSVILLE,700,#00700 #0700 #700 0700,"EASTLAND MALL, 800 N GREEN RIVER RD, STE 442",IN,47715-2471
Journeys,ODESSA,701,#00701 #0701 #701 0701,"MUSIC CITY MALL, 4101 E 42ND ST, STE L37",TX,79762-7208
Journeys,EATONTOWN,702,#00702 #0702 #702 0702,"MONMOUTH MALL, 180 STATE ROUTE 35, STE 2134",NJ,7724
Journeys,SIOUX FALLS,703,#00703 #0703 #703 0703,"WEST EMPIRE MALL, 1000 W EMPIRE MALL",SD,57106
Journeys,WEST VALLEY CITY,704,#00704 #0704 #704 0704,"VALLEY FAIR MALL, 3601 S. 2700 WEST, SPC F119",UT,84119
Journeys,KOKOMO,705,#00705 #0705 #705 0705,"MARKLAND MALL, 1233 S. REED ROAD",IN,46902
Journeys,SAN JOSE,707,#00707 #0707 #707 0707,"OAKRIDGE MALL , 925 BLOSSOM HILL ROAD, STE 1559",CA,95123
Journeys,YUBA CITY,711,#00711 #0711 #711 0711,"THE MALL AT YUBA CITY, 1165 COLUSA AVE, STE R",CA,95991
Journeys,BISMARCK,713,#00713 #0713 #713 0713,"KIRKWOOD MALL, 746 KIRKWOOD MALL",ND,58504
Journeys,LA CROSSE,714,#00714 #0714 #714 0714,"VALLEY VIEW MALL, 3800 STATE ROAD 16, STE 130",WI,54601
Journeys,LAS VEGAS,716,#00716 #0716 #716 0716,"THE FASHION SHOW, 3200 LAS VEGAS BLVD S, SPC 2150",NV,89109
Journeys,HOWELL,717,#00717 #0717 #717 0717,"TANGER OUTLET CENTER, 1475 N BURKHART RD, STE D110",MI,48855
Journeys,CANOGA PARK,721,#00721 #0721 #721 0721,"WESTFIELD TOPANGA , 6600 TOPANGA CANYON BLVD, STE 2110",CA,91303-2615
Journeys,WICHITA FALLS,722,#00722 #0722 #722 0722,"SIKES CENTER, 3111 MIDWESTERN PKWY, STE 132",TX,76308-2816
Journeys,SAN MATEO,723,#00723 #0723 #723 0723,"HILLSDALE SHPG CTR, 461 HILLSDALE MALL, STE 2178",CA,94403-3410
Journeys,HOUSTON,724,#00724 #0724 #724 0724,"GREENSPOINT MALL, 12300 NORTH FREEWAY, STE 346",TX,77060-1814
Journeys,JACKSON,725,#00725 #0725 #725 0725,"OLD HICKORY SHPG CTR, 2021 N HIGHLAND AVE, STE E6",TN,38305-4949
Journeys,MONACA,727,#00727 #0727 #727 0727,"BEAVER VALLEY MALL, 570 BEAVER VALLEY MALL, STE 653",PA,15061
Journeys,BLOOMINGDALE,728,#00728 #0728 #728 0728,"STRATFORD SQUARE, 614 STRATFORD SQUARE MALL",IL,60108-2299
Journeys,AUSTIN,729,#00729 #0729 #729 0729,"BARTON CREEK SQUARE, 2901 S CAPITAL OF TEXAS HWY, STE E05",TX,78746-8103
Journeys,LAWTON,730,#00730 #0730 #730 0730,"CENTRAL MALL, 200 SW C AVE, STE 33",OK,73501-4600
Journeys,JACKSONVILLE,731,#00731 #0731 #731 0731,"REGENCY SQUARE MALL, 9501 ARLINGTON EXPRESSWAY, SPC 230",FL,32225
Journeys,WRENTHAM,732,#00732 #0732 #732 0732,"WRENTHAM VLG PREM OUTLETS, 1 PREMIUM OUTLET BLVD, STE 710",MA,2093
Journeys,CARLSBAD,735,#00735 #0735 #735 0735,"PLAZA CAMINO REAL, 2525 EL CAMINO REAL, STE 215",CA,92008-1206
Journeys,HOUSTON,736,#00736 #0736 #736 0736,"ALMEDA MALL, 12200 GULF FWY, SPC C512",TX,77034
Journeys,SAN ANTONIO,737,#00737 #0737 #737 0737,"NORTH STAR MALL, 7400 SAN PEDRO, STE 480",TX,78216-8315
Journeys,LEWISVILLE,738,#00738 #0738 #738 0738,"VISTA RIDGE MALL, 2401 S STEMMONS FREEWAY, STE 1072",TX,75067-2305
Journeys,EL CAJON,740,#00740 #0740 #740 0740,"PARKWAY PLAZA, 651 PARKWAY PLAZA",CA,92020-2533
Journeys,CONCORD,741,#00741 #0741 #741 0741,"CAROLINA MALL, 1480 CONCORD PKWY N, STE 245",NC,28025
Journeys,WATERLOO,742,#00742 #0742 #742 0742,"WATERLOO PREMIUM OUTLETS, 655 STATE ROUTE 318, STE 78",NY,13165
Journeys,WEST MIFFLIN,743,#00743 #0743 #743 0743,"CENTURY III MALL, 3075 CLAIRTON RD, STE 644",PA,15123
Journeys,ST LOUIS,745,#00745 #0745 #745 0745,"SOUTH COUNTY, 345A S COUNTY CENTER WAY",MO,63129
Journeys,PLANO,747,#00747 #0747 #747 0747,"COLLIN CREEK MALL, 811 N CENTRAL EXPRESSWAY, STE 2095",TX,75075-8866
Journeys,MASSAPEQUA,748,#00748 #0748 #748 0748,"WESTFIELD SUNRISE MALL, 1 SUNRISE MALL, STE 2225",NY,11758
Journeys,MIAMI,749,#00749 #0749 #749 0749,"DADELAND MALL, 7439 SW 88TH ST, STE 1510-A",FL,33156
Journeys,NEWARK,750,#00750 #0750 #750 0750,"NEWPARK MALL, 2086 NEWPARK MALL, STE 2043",CA,94560-5247
Journeys,ST PETERS,751,#00751 #0751 #751 0751,"MID RIVERS MALL, 1600 MID RIVERS MALL, SPC 1236",MO,63376
Journeys,MEDFORD,752,#00752 #0752 #752 0752,"ROGUE VALLEY MALL, 1600 N RIVERSIDE AVE, UNIT 2059",OR,97501
Journeys,ARLINGTON,753,#00753 #0753 #753 0753,"THE PARKS AT ARLINGTON, 3811 S COOPER ST, STE 2080",TX,76015-4120
Journeys,SANTA ANA,754,#00754 #0754 #754 0754,"MAIN PLACE MALL, 2800 N. MAIN ST, SPC 1038",CA,92705-6608
Journeys,DOWNEY,755,#00755 #0755 #755 0755,"STONEWOOD MALL, 219 STONEWOOD ST",CA,90241-3906
Journeys,DENTON,757,#00757 #0757 #757 0757,"GOLDEN TRIANGLE MALL, 2201 SOUTH I-35 EAST, SPC M-8",TX,76205
Journeys,HOMESTEAD,758,#00758 #0758 #758 0758,"AT THE WATERFRONT, 214 W BRIDGE ST",PA,15120
Journeys,FLORENCE,761,#00761 #0761 #761 0761,"MAGNOLIA MALL, 2701 DAVID H MCLEOD BLVD, STE 1322",SC,29501
Journeys,COLUMBUS,762,#00762 #0762 #762 0762,"POLARIS FASHION PLACE, 1500 POLARIS PKWY, STE 2160",OH,43240
Journeys,BAYTOWN,763,#00763 #0763 #763 0763,"SAN JACINTO MALL, 1552 SAN JACINTO MALL",TX,77521-9799
Journeys,HENDERSON,764,#00764 #0764 #764 0764,"GALLERIA AT SUNSET, 1300 W SUNSET RD, STE 2233",NV,89014
Journeys,JOHNSON CITY,765,#00765 #0765 #765 0765,"OAKDALE MALL, 601-635 HARRY L. DR, STE 33",NY,13790
Journeys,WESTLAND,766,#00766 #0766 #766 0766,"WESTLAND CENTER, 35000 WARREN RD",MI,48185
Journeys,MONROE,767,#00767 #0767 #767 0767,"PECANLAND MALL, 4700 MILHAVEN RD, STE 1064",LA,71203-7033
Journeys,VALENCIA,768,#00768 #0768 #768 0768,"VALENCIA TOWN CENTER, 24201 W VALENCIA BLVD, STE 2217",CA,91355
Journeys,VIRGINIA BEACH,769,#00769 #0769 #769 0769,"LYNNHAVEN MALL, 701 LYNNHAVEN PKWY, STE 54A",VA,23452-7299
Journeys,PALM BEACH GARDENS,770,#00770 #0770 #770 0770,"GARDENS OF THE PALM BEACH, 3101 PGA BLVD, STE E143",FL,33410
Journeys,MOBILE,771,#00771 #0771 #771 0771,"COLONIAL BEL AIR MALL, 3299 BEL AIR MALL, STE G10",AL,36606-3406
Journeys,YORKTOWN HEIGHTS,772,#00772 #0772 #772 0772,"JEFFERSON VALLEY MALL, 650 LEE BLVD, STE B03",NY,10598
Journeys,BOWLING GREEN,773,#00773 #0773 #773 0773,"GREENWOOD MALL, 2625 SCOTTSVILLE RD, STE 514",KY,42104-6381
Journeys,COLLEGE STATION,774,#00774 #0774 #774 0774,"POST OAK MALL, 1500 HARVEY RD, STE 4040",TX,77840-3713
Journeys,WICHITA,775,#00775 #0775 #775 0775,"TOWNE EAST SQUARE, 7700 E KELLOGG DR, STE 1032",KS,67207-1790
Journeys,BURLINGTON,776,#00776 #0776 #776 0776,"BURLINGTON TOWN CENTER, 49 CHURCH ST, STE 2018",VT,5401
Journeys,PASADENA,777,#00777 #0777 #777 0777,"PASADENA TOWN SQUARE MALL, 131 PASADENA TOWN SQUARE MALL",TX,77506-4894
Journeys,DALY CITY,778,#00778 #0778 #778 0778,"SERRAMONTE CENTER, 32B SERRAMONTE CENTER",CA,94015
Journeys,BARTLESVILLE,779,#00779 #0779 #779 0779,"WASHINGTON PARK MALL, 2350 SE WASHINGTON BLVD, STE 216",OK,74006
Journeys,EL PASO,780,#00780 #0780 #780 0780,"SUNLAND PARK MALL , 750 SUNLAND PARK DR",TX,79912-6710
Journeys,MACON,781,#00781 #0781 #781 0781,"MACON MALL, 3661 EISENHOWER PKWY, STE 90",GA,31206-2649
Journeys,LAKE CHARLES,782,#00782 #0782 #782 0782,"PRIEN LAKE MALL, 536 W PRIEN LAKE RD",LA,70601-8457
Journeys,WESTMINSTER,783,#00783 #0783 #783 0783,"WESTMINSTER MALL, 1025 WESTMINSTER MALL, STE 2020",CA,92683-4950
Journeys,LAKELAND,785,#00785 #0785 #785 0785,"LAKELAND SQUARE, 3800 US HIGHWAY 98 N, STE 272",FL,33809-3800
Journeys,ST PETERSBURG,786,#00786 #0786 #786 0786,"TYRONE COURT, 6901 22ND AVE N, SPC 912",FL,33710-3943
Journeys,LAS VEGAS,788,#00788 #0788 #788 0788,"LAS VEGAS PREMIUM OUTLET, 7400 LAS VEGAS BLVD S, STE 238C",NV,89123
Journeys,SANTA FE,790,#00790 #0790 #790 0790,"SANTA FE PLACE, 4250 CERRILLOS RD, STE 1162",NM,87507
Journeys,OREM,791,#00791 #0791 #791 0791,"UNIVERSITY MALL , 575 E UNIVERSITY PKWY, STE M198",UT,84097
Journeys,GREENVILLE,792,#00792 #0792 #792 0792,"GREENVILLE MALL, 1651 HIGHWAY 1 S, STE 9",MS,38701-7800
Journeys,JACKSONVILLE,793,#00793 #0793 #793 0793,"JACKSONVILLE MALL, 309 JACKSONVILLE MALL, STE L27",NC,28546-7316
Journeys,BLOOMINGTON,794,#00794 #0794 #794 0794,"COLLEGE MALL, 2826 E 3RD ST, STE F09",IN,47401-5424
Journeys,MADISON,795,#00795 #0795 #795 0795,"EAST TOWNE MALL, 124 EAST TOWNE MALL, STE 106",WI,53704-3744
Journeys,BATTLE CREEK,796,#00796 #0796 #796 0796,"LAKEVIEW SQ MALL, 5775 BECKLEY RD, STE 231",MI,49015-7108
Journeys,GLEN ALLEN,797,#00797 #0797 #797 0797,"VIRGINIA CTR COMMONS, 10101 BROOK RD, STE 821",VA,23060-6523
Journeys,RICHMOND,799,#00799 #0799 #799 0799,"CHESTERFIELD TOWNE CENTER, 11500 MIDLOTHIAN TPKE, STE 482",VA,23235-4761
Journeys,COLUMBIA,800,#00800 #0800 #800 0800,"COLUMBIA MALL, 2300 BERNADETTE DR, SPC 514",MO,65203-4607
Journeys,FLINT,801,#00801 #0801 #801 0801,"GENESEE VALLEY CENTER, 3255 S LINDEN RD, STE 300",MI,48507-3011
Journeys,CINCINNATI,803,#00803 #0803 #803 0803,"NORTHGATE MALL, 9621 COLERAIN AVE, STE 18",OH,45251-2005
Journeys,FLORENCE,804,#00804 #0804 #804 0804,"REGENCY SQUARE MALL , 301 COX CREEK PKWY, STE 1108",AL,35630-1590
Journeys,HOUMA,805,#00805 #0805 #805 0805,"SOUTHLAND MALL, 5953 W PARK AVE, STE 2053",LA,70364-1461
Journeys,TOPEKA,806,#00806 #0806 #806 0806,"WEST RIDGE MALL, 1801 SW WANAMAKER RD, STE G17",KS,66604-3846
Journeys,ALBANY,807,#00807 #0807 #807 0807,"ALBANY MALL, 2601 DAWSON RD, STE D8",GA,31707-1674
Journeys,LINCOLN,808,#00808 #0808 #808 0808,"WESTFIELD GATEWAY SHOPPING CENTER, 5 GATEWAY MALL, SPC 204",NE,68505-2432
Journeys,DAYTON,809,#00809 #0809 #809 0809,"FAIRFIELD COMMONS, 2727 FAIRFIELD COMMONS BLVD, STE E261",OH,45431
Journeys,FAYETTEVILLE,810,#00810 #0810 #810 0810,"NORTHWEST ARKANSAS MALL, 4201 N SHILOH DR, STE 1145",AR,72703-5197
Journeys,DAYTON,811,#00811 #0811 #811 0811,"DAYTON MALL, 2700 MIAMISBURG CENTERVILLE RD, STE 288",OH,45459-3730
Journeys,CHAMPAIGN,812,#00812 #0812 #812 0812,"MARKET PLACE SHOPPING CENTER, 2000 N NEIL ST, SPC 270",IL,61820-7808
Journeys,NORTH OLMSTED,813,#00813 #0813 #813 0813,"WESTFIELD GREAT NORTHERN, 4954 GREAT NORTHERN MALL",OH,44070-3345
Journeys,YOUNGSTOWN,814,#00814 #0814 #814 0814,"SOUTHERN PARK MALL, 7401 MARKET ST, STE 309",OH,44512-5695
Journeys,BLOOMINGTON,815,#00815 #0815 #815 0815,"EASTLAND MALL, 1615 E EMPIRE ST, STE B2",IL,61701-3581
Journeys,LYNNWOOD,816,#00816 #0816 #816 0816,"ALDERWOOD MALL, 3000 184TH ST SW, STE 598",WA,98037
Journeys,HAPPY VALLEY,817,#00817 #0817 #817 0817,"CLACKAMAS TOWN CENTER, 12000 SE 82ND AVE, STE 1140",OR,97086
Journeys,FORT SMITH,818,#00818 #0818 #818 0818,"CENTRAL MALL, 5111 ROGERS AVE, STE #138",AR,72903-2040
Journeys,DEPTFORD,819,#00819 #0819 #819 0819,"DEPTFORD MALL, 1750 DEPTFORD CENTER RD, STE 1012",NJ,08096-5218
Journeys,CHESAPEAKE,820,#00820 #0820 #820 0820,"CHESAPEAKE SQUARE, 4200 PORTSMOUTH BLVD, STE 114",VA,23321-2100
Journeys,SAINT CLOUD,821,#00821 #0821 #821 0821,"CROSSROADS CENTER, 4101 W DIVISION ST, STE B8",MN,56301-6600
Journeys,NAPLES,822,#00822 #0822 #822 0822,"COASTLAND CENTER, 1916 TAMIAMI TRAIL N, STE M2",FL,34102-4805
Journeys,COLUMBIA,824,#00824 #0824 #824 0824,"COLUMBIANA CTR , 100 COLUMBIANA CIRCLE, STE 1458",SC,29212-2235
Journeys,PUYALLUP,825,#00825 #0825 #825 0825,"SOUTH HILL MALL, 3500 S MERIDIAN, STE 635",WA,98373-3774
Journeys,TEMECULA,826,#00826 #0826 #826 0826,"THE PROMENADE, 40820 WINCHESTER RD, STE 2370",CA,92591-5539
Journeys,WINCHESTER,829,#00829 #0829 #829 0829,"APPLE BLOSSOM MALL, 1850 APPLE BLOSSOM DR",VA,22601-5187
Journeys,PARMA,831,#00831 #0831 #831 0831,"PARMATOWN MALL , 7853 W RIDGEWOOD DR, STE 447",OH,44129-5515
Journeys,CAPITOLA,832,#00832 #0832 #832 0832,"CAPITOLA MALL, 1855 41ST AVE, STE D1",CA,95010
Journeys,APPLETON,833,#00833 #0833 #833 0833,"FOX RIVER MALL, 4301 W WISCONSIN AVE, STE 410",WI,54913
Journeys,COSTA MESA,835,#00835 #0835 #835 0835,"SOUTH COAST PLAZA, 3333 BRISTOL ST, STE 2061",CA,92626-1805
Journeys,CONCORD,836,#00836 #0836 #836 0836,"SUN VALLEY MALL, 1 SUN VALLEY MALL, STE 222",CA,94520-5806
Journeys,SANFORD,837,#00837 #0837 #837 0837,"SEMINOLE TOWNE CENTER, 200 TOWN CENTER CIRCLE, STE A7",FL,32771-7408
Journeys,TERRE HAUTE,838,#00838 #0838 #838 0838,"HONEY CREEK MALL, 3401 S US HWY 41",IN,47802
Journeys,OVIEDO,839,#00839 #0839 #839 0839,"OVIEDO MARKET PLACE, 1460 OVIEDO MALL BLVD",FL,32765-7475
Journeys,GASTONIA,840,#00840 #0840 #840 0840,"EASTRIDGE-WESTFIELD , 246 N NEW HOPE RD, STE E226",NC,28054-0020
Journeys,ABILENE,841,#00841 #0841 #841 0841,"MALL OF ABILENE , 4310 BUFFALO GAP RD, STE 1114",TX,79606-2724
Journeys,ARCADIA,842,#00842 #0842 #842 0842,"SANTA ANITA MALL , 400 S BALDWIN AVE, STE 708L",CA,91007-1908
Journeys,TEXARKANA,843,#00843 #0843 #843 0843,"CENTRAL MALL, 2400 RICHMOND RD, STE 83",TX,75503-2469
Journeys,LONGVIEW,844,#00844 #0844 #844 0844,"LONGVIEW MALL, 3500 MCCANN RD, STE L4",TX,75605-4416
Journeys,HOT SPRINGS,845,#00845 #0845 #845 0845,"HOT SPRINGS MALL , 4501 CENTRAL AVE, STE 164",AR,71913-7440
Journeys,AMARILLO,846,#00846 #0846 #846 0846,"WESTGATE MALL, 7701 WEST INTERSTATE 40, STE 520",TX,79121-0520
Journeys,FLORENCE,847,#00847 #0847 #847 0847,"FLORENCE MALL, 1086 FLORENCE MALL, STE 1086",KY,41042-1443
Journeys,BELLINGHAM,848,#00848 #0848 #848 0848,"BELLIS FAIR MALL , ONE BELLIS FAIR PKWY, STE 608",WA,98226-5590
Journeys,DES MOINES,850,#00850 #0850 #850 0850,"MERLE HAY MALL , 3800 MERLE HAY RD, STE 308",IA,50310-1303
Journeys,MUNCIE,851,#00851 #0851 #851 0851,"MUNCIE MALL, 3501 N. GRANVILLE AVE, STE K11",IN,47303-1263
Journeys,GREENWOOD,852,#00852 #0852 #852 0852,"GREENWOOD PARK MALL, 1251 N U.S. 31",IN,46142
Journeys,OGDEN,853,#00853 #0853 #853 0853,"NEWGATE MALL, 3651 WALL AVE, STE 1098",UT,84405-1504
Journeys,CHARLESTON,854,#00854 #0854 #854 0854,"CHARLESTON TOWN CENTER MALL, 3000 CHARLESTON TOWN CTR",WV,25389-2085
Journeys,SANDY,856,#00856 #0856 #856 0856,"SOUTH TOWNE CENTER, 10450 S STATE ST, STE 2254",UT,84070-4135
Journeys,CAPE GIRARDEAU,857,#00857 #0857 #857 0857,"WEST PARK MALL, 3049 WILLIAM ST, STE 123",MO,63702
Journeys,AURORA,858,#00858 #0858 #858 0858,"FOX VALLEY CENTER, 195 FOX VALLEY CENTER, STE H4",IL,60504-4184
Journeys,TUSCALOOSA,859,#00859 #0859 #859 0859,"UNIVERSITY MALL, 1701 MCFARLAND BLVD E, STE C7",AL,35404-5824
Journeys,SPRINGFIELD,860,#00860 #0860 #860 0860,"BATTLEFIELD MALL, 2825 S GLENSTONE AVE, SPC R06",MO,65804-3732
Journeys,GREENVILLE,861,#00861 #0861 #861 0861,"HAYWOOD MALL, 700 HAYWOOD RD, STE 2114",SC,29607-2721
Journeys,MURFREESBORO,862,#00862 #0862 #862 0862,"STONES RIVER MALL , 1720 OLD FORT PKWY, STE F140",TN,37129-3332
Journeys,AMES,864,#00864 #0864 #864 0864,"NORTH GRAND MALL, 2801 GRAND AVE, STE 35",IA,50010-4668
Journeys,CHARLOTTESVILLE,865,#00865 #0865 #865 0865,"CHARLOTTESVILLE FASHION SQUARE, 1600 RIO RD E",VA,22901-1402
Journeys,LAS CRUCES,866,#00866 #0866 #866 0866,"MESILLA VALLEY MALL, 700 S TELSHOR BLVD, STE 1140",NM,88011-4669
Journeys,JOPLIN,867,#00867 #0867 #867 0867,"NORTHPARK MALL, 101 N RANGELINE RD, STE 232",MO,64801-4118
Journeys,AURORA,868,#00868 #0868 #868 0868,"CHICAGO PREMIUM OUTLET , 1650 PREMIUM OUTLETS BLVD, STE 345",IL,60502-2908
Journeys,SEATTLE,869,#00869 #0869 #869 0869,"SOUTHCENTER WESTFIELD MALL, 2800 SOUTHCENTER MALL",WA,98188-2819
Journeys,PROVO,871,#00871 #0871 #871 0871,"PROVO TOWNE CENTRE, 1200 TOWNE CENTRE BLVD, STE 2026",UT,84601-5947
Journeys,WACO,872,#00872 #0872 #872 0872,"RICHLAND MALL, 6001 W WACO DR, STE 404",TX,76710
Journeys,BATON ROUGE,873,#00873 #0873 #873 0873,"THE MALL AT CORTANA, 8903 CORTANA PLACE, STE G1",LA,70815-8702
Journeys,WEST DES MOINES,874,#00874 #0874 #874 0874,"VALLEY WEST SHOPPING CENTER, 1551 VALLEY WEST DR, STE 114",IA,50266-1186
Journeys,INDEPENDENCE,875,#00875 #0875 #875 0875,"INDEPENDENCE CENTER, 18801 EAST 39TH STREET S",MO,64057-1729
Journeys,FORSYTH,876,#00876 #0876 #876 0876,"HICKORY POINT MALL, 1146 HICKORY POINT MALL, STE 1180",IL,62535-2005
Journeys,CINCINNATI,877,#00877 #0877 #877 0877,"TRI-COUNTY MALL , 11700 PRINCETON PIKE, UNIT F204",OH,45246-2519
Journeys,ASHEVILLE,879,#00879 #0879 #879 0879,"ASHEVILLE MALL, 3 S TUNNEL RD",NC,28805-2221
Journeys,PINE BLUFF,880,#00880 #0880 #880 0880,"THE PINES, 2901 PINES MALL DR, STE 206",AR,71601-7644
Journeys,HYANNIS,881,#00881 #0881 #881 0881,"CAPE COD MALL, 769 IYANNOUGH ROAD, STE N125",MA,2601
Journeys,AKRON,883,#00883 #0883 #883 0883,"CHAPEL HILL MALL, 2000 BRITTAN RD, STE 654",OH,44310-1814
Journeys,SAN DIEGO,884,#00884 #0884 #884 0884,"UNIVERSITY TOWNE CENTRE, 4485 LAJOLLA VILLAGE DR, SPC F-13",CA,92122
Journeys,GROVE CITY,885,#00885 #0885 #885 0885,"GROVE CITY PREMIUM OUTLETS, 1911 LEESBURG GROVE CITY RD",PA,16137-1131
Journeys,ANN ARBOR,886,#00886 #0886 #886 0886,"BRIARWOOD MALL, 100 BRIARWOOD CIR",MI,48108
Journeys,ATLANTA,887,#00887 #0887 #887 0887,"WEST END MALL, 820 OAK ST SW",GA,30310-1912
Journeys,WEST NYACK,889,#00889 #0889 #889 0889,"PALISADES CENTER, 3422 PALISADES CENTER DR, SPC 301",NY,10994
Journeys,FRANKLIN,890,#00890 #0890 #890 0890,"COOLSPRINGS GALLERIA, 1800 GALLERIA BLVD, STE 2490",TN,37067-1605
Journeys,DENVER,891,#00891 #0891 #891 0891,"DENVER PAVILIONS, 500 16TH ST, STE 265",CO,80202-4281
Journeys,ORLAND PARK,892,#00892 #0892 #892 0892,"ORLAND SQUARE MALL, 832 ORLAND SQUARE DR",IL,60462
Journeys,LOUISVILLE,893,#00893 #0893 #893 0893,"MALL ST MATTHEWS , 5000 SHELBYVILLE RD",KY,40207
Journeys,REDDING,894,#00894 #0894 #894 0894,"MT SHASTA MALL, 900 DANA DR, STE A10",CA,96003
Journeys,MOORESTOWN,895,#00895 #0895 #895 0895,"MOORESTOWN MALL, 400 W ROUTE 38, UNIT 1665",NJ,8057
Journeys,GRAND JUNCTION,896,#00896 #0896 #896 0896,"MESA MALL , 2424 U.S. 6",CO,81505-1115
Journeys,POUGHKEEPSIE,897,#00897 #0897 #897 0897,"POUGHKEEPSIE GALLERIA, 2001 SOUTH RD",NY,12601
Journeys,LEXINGTON,898,#00898 #0898 #898 0898,"FAYETTE MALL, 3401 NICHOLASVILLE RD, STE 402",KY,40503
Journeys,CHERRY HILL,899,#00899 #0899 #899 0899,"CHERRY HILL MALL, 2000 RT 38, STE 1605",NJ,8002
Journeys,CARBONDALE,901,#00901 #0901 #901 0901,"UNIVERSITY MALL, 1207 E MAIN ST, STE 1054",IL,62901-3148
Journeys,SANDUSKY,902,#00902 #0902 #902 0902,"SANDUSKY MALL, 4314 MILAN RD, STE 545",OH,44870-7108
Journeys,LAYTON,904,#00904 #0904 #904 0904,"LAYTON HILLS MALL, 1201 N. HILL FIELD RD, SPC 1006",UT,84041-2103
Journeys,NORTH WALES,905,#00905 #0905 #905 0905,"MONTGOMERY MALL, 239 MONTGOMERY MALL, STE E23",PA,19454-3904
Journeys,VALDOSTA,906,#00906 #0906 #906 0906,"COLONIAL MALL VALDOSTA, 1700 NORMAN DR, SPC 1046",GA,31601-7486
Journeys,HARLINGEN,907,#00907 #0907 #907 0907,"VALLE VISTA MALL , 2000 S EXPRESSWAY 83, STE F4",TX,78552-5902
Journeys,MOLINE,908,#00908 #0908 #908 0908,"SOUTH PARK MALL, 4500 16TH ST, STE 540",IL,61265-7078
Journeys,DAVENPORT,909,#00909 #0909 #909 0909,"NORTHPARK MALL, 320 W KIMBERLY RD, STE 31",IA,52806-5920
Journeys,BOYNTON BEACH,910,#00910 #0910 #910 0910,"BOYNTON BEACH MALL, 801 N CONGRESS AVE, STE 383",FL,33426-3327
Journeys,MELBOURNE,912,#00912 #0912 #912 0912,"MELBOURNE SQUARE, 1700 W NEW HAVEN AVE, STE 219",FL,32904-3916
Journeys,DANVILLE,913,#00913 #0913 #913 0913,"PIEDMONT MALL, 325 PIEDMONT DR, STE 280",VA,24540-4028
Journeys,FORT COLLINS,914,#00914 #0914 #914 0914,"THE FOOTHILLS MALL, 215 E FOOTHILLS PKWY",CO,80525-2661
Journeys,MANKATO,915,#00915 #0915 #915 0915,"RIVER HILLS MALL, 1850 ADAMS ST, STE 104",MN,56001
Journeys,MIDLAND,917,#00917 #0917 #917 0917,"MIDLAND PARK MALL, 4511 N MIDKIFF RD, STE F11",TX,79705-3249
Journeys,LAFAYETTE,919,#00919 #0919 #919 0919,"TIPPECANOE MALL , 2415 SAGAMORE PKWY S, STE D12",IN,47905-5180
Journeys,LAKEWOOD,920,#00920 #0920 #920 0920,"LAKEWOOD CENTER, 20 LAKEWOOD CENTER MALL, SPC 20",CA,90712-2418
Journeys,DALLAS,921,#00921 #0921 #921 0921,"VALLEY VIEW MALL, 13331 PRESTON RD, STE 1156",TX,75240
Journeys,OWENSBORO,922,#00922 #0922 #922 0922,"TOWNE SQUARE MALL, 5000 FREDERICA ST, STE E2",KY,42301-7424
Journeys,ROSEVILLE,923,#00923 #0923 #923 0923,"ROSEDALE CENTER, 139 ROSEDALE CTR, STE 630",MN,55113-3005
Journeys,BOISE,925,#00925 #0925 #925 0925,"BOISE TOWNE SQUARE, 350 N MILWAUKEE ST, STE 2032",ID,83704
Journeys,STATEN ISLAND,926,#00926 #0926 #926 0926,"STATEN ISLAND MALL, 2655 RICHMOND AVE, STE 2550",NY,10314-5821
Journeys,BUFORD,927,#00927 #0927 #927 0927,"MALL OF GEORGIA, 3333 BUFORD DR, STE 1012B",GA,30519
Journeys,SAGINAW,928,#00928 #0928 #928 0928,"FASHION SQUARE MALL, 4868 FASHION SQUARE MALL",MI,48604
Journeys,ORLANDO,929,#00929 #0929 #929 0929,"ORLANDO FASHION SQUARE, 3317 E COLONIAL DR, STE D30",FL,32803
Journeys,SPOKANE,931,#00931 #0931 #931 0931,"SPOKANE VALLEY MALL, 14700 E INDIANA ST, STE 2114",WA,99216-1843
Journeys,CHEYENNE,932,#00932 #0932 #932 0932,"FRONTIER MALL, 1400 DELL RANGE BLVD, SPC 18",WY,82009-4826
Journeys,MISHAWAKA,933,#00933 #0933 #933 0933,"UNIVERSITY PARK MALL, 6501 N GRAPE RD, STE 328A",IN,46545-1007
Journeys,FORT WAYNE,934,#00934 #0934 #934 0934,"GLENBROOK SQUARE, 4201 COLDWATER RD, STE M10",IN,46805-1187
Journeys,TAMPA,935,#00935 #0935 #935 0935,"WESTFIELD CITRUS PARK SHOPPING CENTER, 8021 CITRUS PARK TOWN CENTER",FL,33625-3181
Journeys,NORMAN,936,#00936 #0936 #936 0936,"SOONER MALL, 3337 W MAIN ST, STE 337",OK,73072-4806
Journeys,RALEIGH,937,#00937 #0937 #937 0937,"CRABTREE VALLEY MALL, 4325 GLENWOOD AVE",NC,27612-4504
Journeys,BLOOMINGTON,938,#00938 #0938 #938 0938,"MALL OF AMERICA, 154 N GARDEN",MN,55425-5419
Journeys,THOUSAND OAKS,939,#00939 #0939 #939 0939,"THE OAKS, 210 W HILLCREST DR",CA,91360
Journeys,OMAHA,940,#00940 #0940 #940 0940,"WESTROADS MALL, 10000 CALIFORNIA ST, STE 2142",NE,68114-2335
Journeys,HOUSTON,942,#00942 #0942 #942 0942,"WILLOW BROOK MALL, 2000 WILLOWBROOK MALL, STE 1348",TX,77070-5715
Journeys,PHOENIX,943,#00943 #0943 #943 0943,"PARADISE VALLEY MALL, 4568 E CACTUS RD, STE 166",AZ,85032-7789
Journeys,CARY,944,#00944 #0944 #944 0944,"CARY TOWNE CENTER, 1105 WALNUT ST, STE 2212",NC,27511-4762
Journeys,MORGANTOWN,947,#00947 #0947 #947 0947,"MORGANTOWN MALL, 9319 MALL RD",WV,26501-8536
Journeys,GAITHERSBURG,948,#00948 #0948 #948 0948,"LAKEFOREST MALL, 701 RUSSELL RD, STE F207",MD,20877
Journeys,STROUDSBURG,949,#00949 #0949 #949 0949,"STROUD MALL, 273 STROUD MALL",PA,18360
Journeys,UNION GAP,950,#00950 #0950 #950 0950,"VALLEY MALL, 2529 MAIN ST, STE 134",WA,98903
Journeys,MCALLEN,951,#00951 #0951 #951 0951,"LA PLAZA MALL, 2200 S 10TH ST, STE Q35",TX,78503-5435
Journeys,HICKSVILLE,952,#00952 #0952 #952 0952,"BROADWAY MALL, 669 BROADWAY MALL",NY,11801
Journeys,NEW HARTFORD,953,#00953 #0953 #953 0953,"SANGERTOWN SQUARE, 1 SANGERTOWN SQUARE, SPC R-01",NY,13413
Journeys,PISMO BEACH,954,#00954 #0954 #954 0954,"PRIME OUTLETS @ PISMO BCH, 333 FIVE CITIES DR, STE 129",CA,93449
Journeys,ELLENTON,955,#00955 #0955 #955 0955,"PRIME OUTLETS AT ELLENTON, 5181 FACTORY SHOPS BLVD",FL,34222
Journeys,GLENDALE,958,#00958 #0958 #958 0958,"ARROWHEAD TOWNE CENTER, 7700 W ARROWHEAD TOWNE CENTER DR, STE 2037",AZ,85308-8616
Journeys,DULLES,959,#00959 #0959 #959 0959,"DULLES TOWN CENTER, 21100 DULLES TOWN CIRCLE, STE 221",VA,20166-2400
Journeys,DAYTONA BEACH,960,#00960 #0960 #960 0960,"VOLUSIA MALL, 1700 W INTL SPEEDWAY BLVD, STE 244",FL,32114-1387
Journeys,PLANTATION,961,#00961 #0961 #961 0961,"BROWARD MALL-WESTFIELD, 8000 W BROWARD BLVD, STE 628",FL,33388-0024
Journeys,ANCHORAGE,962,#00962 #0962 #962 0962,"DIMOND CENTER, 800 E DIMOND BLVD, STE 134",AK,99515
Journeys,AUGUSTA,963,#00963 #0963 #963 0963,"AUGUSTA MALL, 3450 WRIGHTSBORO RD, STE 1175",GA,30909-2516
Journeys,NORTH CHARLESTON,965,#00965 #0965 #965 0965,"NORTHWOODS MALL , 2150 NORTHWOODS BLVD, UNIT B6",SC,29406-4045
Journeys,BARBOURSVILLE,966,#00966 #0966 #966 0966,"HUNTINGTON MALL, 500 MALL RD, STE 320",WV,25504
Journeys,BROOMFIELD,967,#00967 #0967 #967 0967,"FLATIRON CROSSING, 1 W FLATIRON CROSSING DR, SPC 1092",CO,80021
Journeys,MESA,968,#00968 #0968 #968 0968,"FIESTA MALL, 1445 W SOUTHERN AVE, STE 2196",AZ,85202-4842
Journeys,WILMINGTON,969,#00969 #0969 #969 0969,"INDEPENDENCE MALL, 3500 OLEANDER DR, STE 1082",NC,28403-0811
Journeys,PORT ARTHUR,970,#00970 #0970 #970 0970,"CENTRAL MALL, 3100 HIGHWAY 365, STE 136",TX,77642-7724
Journeys,FLAGSTAFF,971,#00971 #0971 #971 0971,"FLAGSTAFF MALL, 4650 N US HIGHWAY 89, STE B24",AZ,86004-2457
Journeys,NILES,972,#00972 #0972 #972 0972,"EASTWOOD MALL, 5555 YOUNGSTOWN-WARREN RD, STE 296",OH,44446-4805
Journeys,TUCSON,973,#00973 #0973 #973 0973,"PARK PLACE , 5870 E BROADWAY BLVD, STE 358",AZ,85711-3905
Journeys,HICKORY,974,#00974 #0974 #974 0974,"VALLEY HILLS MALL, 1960 HWY 70 SE",NC,28602
Journeys,FAIRBANKS,975,#00975 #0975 #975 0975,"BENTLEY MALL, 32 COLLEGE RD, STE 4",AK,99701
Journeys,LAS VEGAS,976,#00976 #0976 #976 0976,"THE BOULEVARD, 3564 S MARYLAND PKWY",NV,89169
Journeys,LOMBARD,977,#00977 #0977 #977 0977,"YORKTOWN SHOPPING CENTER, 203 YORKTOWN CENTER, SPC 131",IL,60148-5507
Journeys,PEORIA,978,#00978 #0978 #978 0978,"NORTHWOODS MALL, 2200 W. WAR MEMORIAL DR, STE AU06",IL,61613
Journeys,SPRINGFIELD,979,#00979 #0979 #979 0979,"WHITE OAKS MALL, 2501 WABASH AVE, STE G-08A",IL,62704-4202
Journeys,BEAUMONT,980,#00980 #0980 #980 0980,"PARKDALE MALL, 6155 EASTEX FWY, STE 516",TX,77706-6700
Journeys,FT WORTH,981,#00981 #0981 #981 0981,"RIDGMAR MALL, 2078 GREEN OAKS RD, STE M9",TX,76116-1709
Journeys,CORPUS CHRISTI,982,#00982 #0982 #982 0982,"PADRE STAPLES MALL, 5488 S PADRE ISLAND DR, STE 1510",TX,78411-4118
Journeys,TROY,984,#00984 #0984 #984 0984,"OAKLAND MALL, 358 W 14 MILE RD",MI,48083
Journeys,CONCORD,986,#00986 #0986 #986 0986,"CONCORD MILLS , 8111 CONCORD MILLS BLVD, STE 741",NC,28027-6462
Journeys,GRANDVILLE,987,#00987 #0987 #987 0987,"RIVERTOWN CROSSINGS, 3700 RIVERTOWN PKWY, STE 2146",MI,49418
Journeys,WICHITA,990,#00990 #0990 #990 0990,"TOWNE WEST SQUARE, 4600 W KELLOGG DR, STE K01",KS,67209-2568
Journeys,ELIZABETH,991,#00991 #0991 #991 0991,"THE OUTLET COLLECTION AT JERSEY GARDENS, 651 KAPKOWSKI RD, STE 2062",NJ,07201-2923
Journeys,ANCHORAGE,993,#00993 #0993 #993 0993,"ANCHORAGE 5TH AVENUE, 320 W 5TH AVE, STE 218",AK,99501
Journeys,AUBURN,994,#00994 #0994 #994 0994,"COLONIAL UNIVERSITY VILLAGE, 1627 OPELIKA RD, STE 106",AL,36830-2827
Journeys,ELYRIA,995,#00995 #0995 #995 0995,"MIDWAY MALL, 3300 MIDWAY MALL, STE F8",OH,44035
Journeys,CERRITOS,996,#00996 #0996 #996 0996,"LOS CERRITOS CENTER, 118 LOS CERRITOS MALL",CA,90703-5422
Journeys,KATY,997,#00997 #0997 #997 0997,"KATY MILLS, 5000 KATY MILLS CIRCLE, STE 729",TX,77494-8254
Journeys,NASHVILLE,998,#00998 #0998 #998 0998,"OPRY MILLS MALL, 433 OPRY MILLS DR, SPC 222",TN,37214
Journeys,ANDERSON,999,#00999 #0999 #999 0999,"ANDERSON MALL, 3101 N MAIN ST, STE M12",SC,29621-2692
Journeys,TYLER,1001,#001001 #01001 #1001 01001,"BROADWAY SQUARE, 4601 S BROADWAY, STE B15",TX,75703-1330
Journeys,ROCKFORD,1002,#001002 #01002 #1002 01002,"CHERRYVALE MALL, 7200 HARRISON AVE, STE G73",IL,61112-1017
Journeys,EL PASO,1003,#001003 #01003 #1003 01003,"CIELO VISTA MALL , 8401 GATEWAY BLVD W, STE J05",TX,79925-5600
Journeys,KENNEWICK,1004,#001004 #01004 #1004 01004,"COLUMBIA CENTER, 1321 N COLUMBIA CENTER BLVD, STE 467",WA,99336-1164
Journeys,BILOXI,1006,#001006 #01006 #1006 01006,"EDGEWATER MALL, 2600 BEACH BLVD, STE 40",MS,39531-4606
Journeys,FT MYERS,1007,#001007 #01007 #1007 01007,"EDISON MALL , 4125 CLEVELAND AVE, STE 140",FL,33901-9000
Journeys,SPOKANE,1010,#001010 #01010 #1010 01010,"NORTH TOWN MALL , 4750 N DIVISION ST, STE 2050",WA,99207-1431
Journeys,SAN ANTONIO,1011,#001011 #01011 #1011 01011,"RIVERCENTER, 849 E COMMERCE ST, STE 461",TX,78205-3913
Journeys,GOODLETTSVILLE,1012,#001012 #01012 #1012 01012,"RIVERGATE MALL, 1000 RIVERGATE PARKWAY, STE 1925",TN,37072
Journeys,WEST DUNDEE,1013,#001013 #01013 #1013 01013,"SPRING HILL MALL, 1072 SPRING HILL MALL, STE 1558",IL,60118
Journeys,SALT LAKE CITY,1015,#001015 #01015 #1015 01015,"THE GATEWAY, 60 S RIO GRANDE ST, STE 2079",UT,84101
Journeys,GREENSBURG,1016,#001016 #01016 #1016 01016,"WESTMORELAND MALL , 5256 U.S. 30, SPC NU1",PA,15601
Journeys,IDAHO FALLS,1017,#001017 #01017 #1017 01017,"GRAND TETON MALL, 2300 E 17TH ST, STE 1179",ID,83404
Journeys,LOGAN,1018,#001018 #01018 #1018 01018,"CACHE VALLEY MALL, 1300 N MAIN ST, STE 1112",UT,84341
Journeys,LAWRENCEVILLE,1019,#001019 #01019 #1019 01019,"DISCOVER MILLS, 5900 SUGARLOAF PKWY, STE 503",GA,30043
Journeys,INDIANAPOLIS,1020,#001020 #01020 #1020 01020,"CASTLETON SQUARE, 6020 E 82ND ST, STE 548-A",IN,46250
Journeys,SLIDELL,1021,#001021 #01021 #1021 01021,"NORTH SHORE SQUARE MALL, 150 NORTHSHORE BLVD, STE 4046",LA,70460
Journeys,CHESTERFIELD,1022,#001022 #01022 #1022 01022,"CHESTERFIELD MALL , 55 CHESTERFIELD MALL, STE 224",MO,63017
Journeys,TOMS RIVER,1023,#001023 #01023 #1023 01023,"OCEAN COUNTY MALL, 1201 HOOPER AVE, STE 1066",NJ,8753
Journeys,MORENO VALLEY,1024,#001024 #01024 #1024 01024,"MORENO VALLEY MALL, 22500 TOWN CIR, STE 1135",CA,92553
Journeys,STOCKTON,1026,#001026 #01026 #1026 01026,"WEBERSTOWN MALL, 4950 PACIFIC AVE, STE 417",CA,95207
Journeys,TRUMBULL,1027,#001027 #01027 #1027 01027,"TRUMBULL-WESTFIELD, 5065 MAIN ST, STE 126",CT,6611
Journeys,WELLINGTON,1029,#001029 #01029 #1029 01029,"THE MALL AT WELLINGTON GREEN, 10300 W FOREST HILLS BLVD",FL,33414
Journeys,CINCINNATI,1030,#001030 #01030 #1030 01030,"KENWOOD TOWNE CENTRE, 7875 MONTGOMERY RD, STE L-117",OH,45236
Journeys,PHOENIX,1031,#001031 #01031 #1031 01031,"DESERT RIDGE MARKETPLACE, 21001 N TATUM BLVD, STE 36-127",AZ,85050
Journeys,FORT GRATIOT,1032,#001032 #01032 #1032 01032,"BIRCHWOOD MALL, 4350 24TH AVENUE, STE 626",MI,48059
Journeys,PORTAGE,1033,#001033 #01033 #1033 01033,"THE CROSSROADS, 6650 S WESTNEDGE AVE, STE 106",MI,49024
Journeys,TAMPA,1034,#001034 #01034 #1034 01034,"UNIVERSITY SQUARE MALL, 2131 UNIVERSITY SQUARE MALL",FL,33612-5515
Journeys,MESA,1035,#001035 #01035 #1035 01035,"SUPERSTITION SPRINGS, 6555 E SOUTHERN AVE, STE 2404",AZ,85206-3728
Journeys,PARAMUS,1036,#001036 #01036 #1036 01036,"GARDEN STATE PLAZA , 1 GARDEN STATE PLAZA, STE 1005",NJ,7652
Journeys,GREECE,1038,#001038 #01038 #1038 01038,"GREECE RIDGE CENTER, 244 GREECE RIDGE CENTER DR",NY,14626
Journeys,TAMPA,1039,#001039 #01039 #1039 01039,"INTERNATIONAL PLAZA, 2223 N WEST SHORE BLVD, STE 101A",FL,33607
Journeys,ELMHURST,1040,#001040 #01040 #1040 01040,"QUEENS CENTER, 9015 QUEENS BLVD, STE 3020",NY,11373
Journeys,SCOTTSDALE,1041,#001041 #01041 #1041 01041,"SCOTTSDALE FASHION SQUARE, 7014 E CAMELBACK RD, STE 2116",AZ,85251-1239
Journeys,NATIONAL CITY,1042,#001042 #01042 #1042 01042,"PLAZA BONITA , 3030 PLAZA BONITA RD, STE 1248",CA,91950-8007
Journeys,FREDERICK,1043,#001043 #01043 #1043 01043,"FRANCIS SCOTT KEY MALL, 5500 BUCKEYSTOWN PIKE, STE 251",MD,21703
Journeys,GREENDALE,1044,#001044 #01044 #1044 01044,"SOUTHRIDGE MALL, 5300 S 76TH ST, SPC 700",WI,53129
Journeys,BIRMINGHAM,1045,#001045 #01045 #1045 01045,"BROOKWOOD VILLAGE, 723 BROOKWOOD VILLAGE",AL,35209
Journeys,LAS VEGAS,1046,#001046 #01046 #1046 01046,"LAS VEGAS PREMIUM OUTLET , 775 S GRAND CENTRAL PKWY, STE 1356",NV,89106
Journeys,PORT CHARLOTTE,1047,#001047 #01047 #1047 01047,"PORT CHARLOTTE TOWN SHIP, 1441 TAMIAMI TRL, STE 971",FL,33948
Journeys,PRESCOTT,1048,#001048 #01048 #1048 01048,"PRESCOTT GATEWAY, 3250 GATEWAY BLVD, STE 234",AZ,86303
Journeys,SOUTH PORTLAND,1049,#001049 #01049 #1049 01049,"MAINE MALL, 364 MAINE MALL RD, STE N127",ME,04106-3206
Journeys,TWIN FALLS,1050,#001050 #01050 #1050 01050,"MAGIC VLY MALL, 1485 POLELINE RD E, STE 168",ID,83301
Journeys,LANGHORNE,1051,#001051 #01051 #1051 01051,"OXFORD VALLEY MALL, 2300 E LINCOLN HWY, STE P2",PA,19047-1824
Journeys,HORSEHEADS,1052,#001052 #01052 #1052 01052,"ARNOT MALL, 3300 CHAMBERS RD, STE 5053",NY,14845
Journeys,SCRANTON,1053,#001053 #01053 #1053 01053,"VIEWMONT MALL, 100 VIEWMONT DR, STE 766",PA,18508
Journeys,CINCINNATI,1054,#001054 #01054 #1054 01054,"EASTGATE MALL, 4601 EASTGATE BLVD, STE A-236",OH,45245
Journeys,CENTERVILLE,1056,#001056 #01056 #1056 01056,"HOUSTON COUNTY GALLERIA, 2922 WATSON BLVD",GA,31028-1211
Journeys,OKLAHOMA CITY,1057,#001057 #01057 #1057 01057,"CROSSROADS MALL, 7000 CROSSROADS BLVD, STE 1140",OK,73149-4226
Journeys,TALLAHASSEE,1058,#001058 #01058 #1058 01058,"GOVERNOR'S SQUARE, 1500 APALACHEE PKWY, STE 2051",FL,32301
Journeys,CAMP HILL,1060,#001060 #01060 #1060 01060,"CAPITAL CITY MALL, 3539 CAPITAL CITY MALL DR, STE 634",PA,17011
Journeys,HAGERSTOWN,1061,#001061 #01061 #1061 01061,"VALLEY MALL, 17301 VALLEY MALL ROAD, STE 556",MD,21740
Journeys,CLOVIS,1062,#001062 #01062 #1062 01062,"NORTH PLAINS MALL, 2809 N PRINCE ST, STE 1161",NM,88101
Journeys,ALBUQUERQUE,1063,#001063 #01063 #1063 01063,"COTTONWOOD MALL, 10000 COORS BYPASS NW, STE A214",NM,87114-4040
Journeys,SPARTANBURG,1064,#001064 #01064 #1064 01064,"WESTGATE MALL, 205 W BLACKSTOCK RD, STE 440",SC,29301
Journeys,ROANOKE,1065,#001065 #01065 #1065 01065,"VALLEY VIEW MALL, 4802 VALLEY VIEW BLVD NW",VA,24012-2019
Journeys,WHITE PLAINS,1068,#001068 #01068 #1068 01068,"GALLERIA AT WHITE PLAINS, 100 MAIN ST, STE 337",NY,10601
Journeys,SUGAR LAND,1069,#001069 #01069 #1069 01069,"FIRST COLONY MALL, 16535 SOUTHWEST FWY, STE 280",TX,77479-2322
Journeys,BATON ROUGE,1070,#001070 #01070 #1070 01070,"MALL OF LOUISIANA , 6401 BLUEBONNET BLVD, STE 2064",LA,70836-6401
Journeys,DOUGLASVILLE,1072,#001072 #01072 #1072 01072,"ARBOR PLACE MALL, 1200 ARBOR PLACE MALL",GA,30135-7108
Journeys,KENNER,1073,#001073 #01073 #1073 01073,"THE ESPLANADE , 1401 W ESPLANADE",LA,70065
Journeys,PANAMA CITY,1074,#001074 #01074 #1074 01074,"PANAMA CITY MALL, 2150 M L KING JR BLVD, SPC 2270",FL,32405-5319
Journeys,MARY ESTHER,1075,#001075 #01075 #1075 01075,"SANTA ROSA MALL, 300 MARY ESTHER BLVD, STE 64J",FL,32569-1675
Journeys,COLORADO SPRINGS,1076,#001076 #01076 #1076 01076,"THE CITADEL, 750 CITADEL DR E, STE 2218",CO,80909-5346
Journeys,BAKERSFIELD,1077,#001077 #01077 #1077 01077,"VALLEY PLAZA MALL, 2701 MING AVE, SPC 195",CA,93304-4435
Journeys,LYNCHBURG,1078,#001078 #01078 #1078 01078,"RIVER RIDGE MALL, 3405 CANDLERS MOUNTAIN RD, SPC B40",VA,24502-2241
Journeys,CHESAPEAKE,1079,#001079 #01079 #1079 01079,"GREENBRIER MALL, 1401 GREENBRIER PKWY, STE 1072",VA,23320-2890
Journeys,STERLING HEIGHTS,1080,#001080 #01080 #1080 01080,"LAKESIDE MALL, 14600 LAKESIDE CIRCLE",MI,48313
Journeys,SANTA ROSA,1081,#001081 #01081 #1081 01081,"SANTA ROSA PLAZA, 2037 SANTA ROSA PLAZA",CA,95401
Journeys,TULSA,1082,#001082 #01082 #1082 01082,"WOODLAND HILLS MALL, 7021 S MEMORIAL DR, STE 252",OK,74133-2025
Journeys,LANSING,1083,#001083 #01083 #1083 01083,"LANSING MALL, 5436 W SAGINAW HWY",MI,48917-1915
Journeys,DOTHAN,1084,#001084 #01084 #1084 01084,"WIREGRASS COMMONS MALL, 900 COMMONS DR, STE 204",AL,36303-2283
Journeys,COLUMBUS,1085,#001085 #01085 #1085 01085,"PEACHTREE MALL , 3131 MANCHESTER EXPY, STE 42B",GA,31909-6400
Journeys,OKLAHOMA CITY,1086,#001086 #01086 #1086 01086,"PENN SQUARE MALL , 1901 NW EXPRESSWAY, STE 2092",OK,73118-1607
Journeys,ANNAPOLIS,1087,#001087 #01087 #1087 01087,"ANNAPOLIS MALL, 1205 ANNAPOLIS MALL",MD,21401-3008
Journeys,BALTIMORE,1088,#001088 #01088 #1088 01088,"WHITE MARSH MALL, 8200 PERRY HALL BLVD, STE 1325",MD,21236-4908
Journeys,MILFORD,1090,#001090 #01090 #1090 01090,"CONNECTICUT POST MALL, 1201 BOSTON POST RD, STE 1094",CT,06460-2703
Journeys,TOWSON,1091,#001091 #01091 #1091 01091,"TOWSON TOWN CENTER, 825 DULANEY VALLEY RD, STE 136",MD,21204
Journeys,LAKE GROVE L.I.,1092,#001092 #01092 #1092 01092,"SMITH HAVEN MALL, 300 SMITH HAVEN MALL",NY,11755
Journeys,HATTIESBURG,1093,#001093 #01093 #1093 01093,"TURTLE CREEK MALL, 1000 TURTLE CREEK DR, STE 430",MS,39402
Journeys,HUNTSVILLE,1095,#001095 #01095 #1095 01095,"MADISON SQUARE MALL, 5901 UNIVERSITY DR NW",AL,35806-2532
Journeys,MURRAY,1096,#001096 #01096 #1096 01096,"FASHION PLACE MALL, 6191 SOUTH STATE STREET, STE 337",UT,84107-7258
Journeys,FRISCO,1097,#001097 #01097 #1097 01097,"STONEBRIAR CENTRE, 2601 PRESTON RD, STE 2262",TX,75034
Journeys,MAYS LANDING,1098,#001098 #01098 #1098 01098,"HAMILTON MALL, 4403 BLACK HORSE PK, STE 2114",NJ,08330-3115
Journeys,PADUCAH,1099,#001099 #01099 #1099 01099,"KENTUCKY OAKS MALL, 5101 HINKLEVILLE RD, STE 560",KY,42001
Journeys,BRANDON,1100,#001100 #01100 #1100 01100,"WESTFIELD BRANDON MALL, 459 BRANDON TOWN CENTER, SPC 347",FL,33511-4758
Journeys,JOHNSON CITY,1101,#001101 #01101 #1101 01101,"THE MALL AT JOHNSON CITY, 2011 N ROAN ST, STE 19",TN,37601-3130
Journeys,VENTURA,1102,#001102 #01102 #1102 01102,"PACIFIC VIEW MALL, 3301 E MAIN ST, STE 2337",CA,93003-5076
Journeys,FAIRFIELD,1104,#001104 #01104 #1104 01104,"SOLANO MALL, 1350 TRAVIS BLVD, STE 1459A",CA,94533-4646
Journeys,RIDGELAND,1105,#001105 #01105 #1105 01105,"NORTHPARK MALL, 1200 E COUNTY LINE RD, STE 225",MS,39157
Journeys,HURST,1106,#001106 #01106 #1106 01106,"NORTH EAST MALL , 1101 MELBOURNE RD, STE 3013",TX,76053-6205
Journeys,NORTH LITTLE ROCK,1108,#001108 #01108 #1108 01108,"MCCAIN MALL , 3929 MCCAIN BLVD",AR,72116
Journeys,OKEMOS,1109,#001109 #01109 #1109 01109,"MERIDIAN MALL, 1982 W GRAND RIVER AVE, STE 241",MI,48864
Journeys,ROCKAWAY,1110,#001110 #01110 #1110 01110,"ROCKAWAY TOWNSQUARE MALL, 301 MOUNT HOPE AVE, STE 2072",NJ,07866-2130
Journeys,COLUMBIA,1111,#001111 #01111 #1111 01111,"THE MALL IN COLUMBIA, 10300 LITTLE PATUXENT PKWY, STE 2715",MD,21044
Journeys,FT WORTH,1112,#001112 #01112 #1112 01112,"HULEN MALL, 4800 S HULEN ST, STE 2060",TX,76132-1498
Journeys,PLYMOUTH MEETING,1113,#001113 #01113 #1113 01113,"PLYMOUTH MTG MALL, 500 W GERMANTOWN PIKE, STE 2250",PA,19462-1304
Journeys,MINNETONKA,1114,#001114 #01114 #1114 01114,"RIDGEDALE CENTER, 12401 WAYZATA BLVD, SPC 1260",MN,55305-5604
Journeys,GRAPEVINE,1115,#001115 #01115 #1115 01115,"GRAPEVINE MILLS, 3000 GRAPEVINE MILLS PKWY, STE 420",TX,76051-2018
Journeys,CEDAR PARK,1116,#001116 #01116 #1116 01116,"LAKELINE MALL1, 11200 LAKELINE MALL DR, STE K1",TX,78613-1509
Journeys,BAY SHORE,1117,#001117 #01117 #1117 01117,"WESTFIELD SOUTH SHORE MALL, 1701 SUNRISE HWY",NY,11706-6009
Journeys,HANOVER,1118,#001118 #01118 #1118 01118,"ARUNDEL MILLS , 7000 ARUNDEL MILLS CIR, STE 551",MD,21076-1382
Journeys,EUREKA,1119,#001119 #01119 #1119 01119,"BAYSHORE MALL, 3300 BROADWAY, STE 536",CA,95501-0536
Journeys,MILPITAS,1120,#001120 #01120 #1120 01120,"GREAT MALL, 408 GREAT MALL DR",CA,95035-8028
Journeys,EXTON,1122,#001122 #01122 #1122 01122,"EXTON SQUARE MALL, 324 EXTON SQUARE PKWY, STE 2075",PA,19341-0325
Journeys,AUBURN,1123,#001123 #01123 #1123 01123,"THE OUTLET COLLECTION SEATTLE, 1101 SUPERMALL WAY, STE 1337",WA,98001
Journeys,HOUSTON,1124,#001124 #01124 #1124 01124,"WEST OAKS MALL, 100 WEST OAKS MALL, SPC 237",TX,77082-1700
Journeys,BROWNSVILLE,1125,#001125 #01125 #1125 01125,"SUNRISE MALL, 2370 N EXPRESSWAY, STE 1136",TX,78526-4508
Journeys,PITTSBURGH,1126,#001126 #01126 #1126 01126,"THE MALL AT ROBINSON, 100 ROBINSON CENTER DR, SPC 2590",PA,15205
Journeys,TAYLOR,1128,#001128 #01128 #1128 01128,"SOUTHLAND CENTER , 23000 EUREKA ROAD, STE 1410",MI,48180-5254
Journeys,LUFKIN,1130,#001130 #01130 #1130 01130,"LUFKIN MALL , 4600 S MEDFORD DR, STE 1290",TX,75901
Journeys,VICTORIA,1131,#001131 #01131 #1131 01131,"VICTORIA MALL, 7800 N NAVARRO ST, STE 109",TX,77904-2611
Journeys,SAN ANTONIO,1133,#001133 #01133 #1133 01133,"SOUTHPARK MALL, 2310 SW MILITARY DR, SPC 321",TX,78224-1409
Journeys,LANCASTER,1134,#001134 #01134 #1134 01134,"RIVER VALLEY MALL, 1635 RIVER VALLEY CIRCLE S, STE 229",OH,43130-1465
Journeys,MIDDLETOWN,1135,#001135 #01135 #1135 01135,"GALLERIA AT CRYSTAL RUN, 1 GALLERIA DR, SPC B202",NY,10940
Journeys,WOODBRIDGE,1136,#001136 #01136 #1136 01136,"POTOMAC MILLS, 2700 POTOMAC MILLS CIR, STE 626",VA,22192-4625
Journeys,SAN BERNARDINO,1137,#001137 #01137 #1137 01137,"INLAND CENTER, 500 INLAND CTR DR, SPC 446",CA,92408
Journeys,SALISBURY,1138,#001138 #01138 #1138 01138,"CENTRE @ SALISBURY, 2300 N SALISBURY BLVD, STE 131",MD,21801-7826
Journeys,SALINAS,1140,#001140 #01140 #1140 01140,"NORTHRIDGE MALL, 796 NORTHRIDGE MALL, SPC M8",CA,93906
Journeys,DOVER,1141,#001141 #01141 #1141 01141,"DOVER MALL, 1365 N DUPONT HWY, STE 1092",DE,19901
Journeys,SARASOTA,1142,#001142 #01142 #1142 01142,"WESTFIELD SARASOTA SQUARE, 8201 S TAMIAMI TRL, STE 66",FL,34238-2990
Journeys,PALM DESERT,1143,#001143 #01143 #1143 01143,"WESTFIELD PALM DESERT, 72-840 HIGHWAY 111",CA,92260
Journeys,BURLINGTON,1145,#001145 #01145 #1145 01145,"CASCADE MALL, 725 CASCADE MALL DR, STE A12",WA,98233-3253
Journeys,GREENSBORO,1146,#001146 #01146 #1146 01146,"FOUR SEASONS TOWN CENTRE, 134 FOUR SEASONS TOWN CTR",NC,27407
Journeys,CITY OF INDUSTRY,1147,#001147 #01147 #1147 01147,"PUENTE HILLS MALL, 1600 S AZUSA AVE, UNIT 137",CA,91748-1620
Journeys,PHOENIX,1148,#001148 #01148 #1148 01148,"METROCENTER , 9617 N METRO PKWY W, STE 2014",AZ,85051-1400
Journeys,NEWPORT,1149,#001149 #01149 #1149 01149,"NEWPORT ON THE LEVEE, ONE LEVEE WAY, STE 2120",KY,41071
Journeys,OVERLAND PARK,1150,#001150 #01150 #1150 01150,"OAK PARK MALL, 11683 W 95TH ST, STE 126",KS,66214
Journeys,MERIDEN,1151,#001151 #01151 #1151 01151,"WESTFIELD MERIDEN, 470 LEWIS AVE",CT,06451-2103
Journeys,ASHLAND,1152,#001152 #01152 #1152 01152,"ASHLAND TOWN CENTER, 500 WINCHESTER AVE, STE 548",KY,41101
Journeys,CANTON,1153,#001153 #01153 #1153 01153,"WESTFIELD BELDEN VILLAGE MALL, 4230 BELDEN VILLAGE MALL, SPC A7",OH,44718
Journeys,SAINT PAUL,1154,#001154 #01154 #1154 01154,"MAPLEWOOD MALL , 3001 WHITE BEAR AVE N, STE 1037A",MN,55109
Journeys,CLEARWATER,1155,#001155 #01155 #1155 01155,"COUNTRYSIDE MALL, 27001 US HIGHWAY 19 N, STE 1045",FL,33761-3415
Journeys,SHAWNEE,1156,#001156 #01156 #1156 01156,"SHAWNEE MALL, 4901 N KICKAPOO AVE, STE 1118",OK,74804
Journeys,DES PERES,1157,#001157 #01157 #1157 01157,"WEST COUNTY CENTRE, 137 WEST CO. CENTRE, STE 2165",MO,63131
Journeys,SAN ANTONIO,1158,#001158 #01158 #1158 01158,"ROLLING OAKS MALL, 6909 N LOOP 1604 E, STE 2025",TX,78247-5317
Journeys,RENO,1159,#001159 #01159 #1159 01159,"MEADOWOOD MALL, 5492 MEADOWOOD MALL CIRCLE",NV,89502
Journeys,ALBUQUERQUE,1160,#001160 #01160 #1160 01160,"CORONADO CENTER, 6600 MENAUL BLVD NE, STE 2014",NM,87110-3445
Journeys,LAWRENCEVILLE,1161,#001161 #01161 #1161 01161,"QUAKER BRIDGE MALL, 150 QUAKERBRIDGE MALL",NJ,8648
Journeys,DULUTH,1162,#001162 #01162 #1162 01162,"MILLER HILL MALL , 1600 MILLER TRUNK HWY",MN,55811
Journeys,MARLBORO,1163,#001163 #01163 #1163 01163,"SOLOMON POND MALL, 601 DONALD LYNCH BLVD, STE S128",MA,1752
Journeys,FAYETTEVILLE,1164,#001164 #01164 #1164 01164,"CROSS CREEK MALL, 419 CROSS CREEK MALL, STE 317",NC,28303
Journeys,SAN DIEGO,1165,#001165 #01165 #1165 01165,"FASHION VALLEY CENTER, 7007 FRIARS RD, STE 239",CA,92108-1282
Journeys,NEWINGTON,1166,#001166 #01166 #1166 01166,"FOX RUN MALL, 50 FOX RUN RD, STE 106",NH,03801-2860
Journeys,DARTMOUTH,1167,#001167 #01167 #1167 01167,"DARTMOUTH MALL, 101 N DARTMOUTH MALL, STE 1141",MA,2747
Journeys,SILVERDALE,1168,#001168 #01168 #1168 01168,"KITSAP MALL , 10315 SILVERDALE WAY NW",WA,98383
Journeys,MERRITT ISLAND,1169,#001169 #01169 #1169 01169,"MERRITT SQUARE MALL , 777 E MERRITT ISLAND CSWY",FL,32952-3501
Journeys,LITTLETON,1170,#001170 #01170 #1170 01170,"SOUTHWEST PLAZA MALL, 8501 WEST BOWLES AVE",CO,80123
Journeys,BOCA RATON,1171,#001171 #01171 #1171 01171,"TOWN CENTER @ BOCA RATON, 6000 GLADES RD, STE 1112A",FL,33431
Journeys,DURHAM,1172,#001172 #01172 #1172 01172,"THE STREETS AT SOUTHPOINT, 6910 FAYETTEVILLE RD, STE 285",NC,27713
Journeys,VISALIA,1173,#001173 #01173 #1173 01173,"VISALIA MALL , 2133 S MOONEY BLVD, STE 1655",CA,93277
Journeys,BRADENTON,1174,#001174 #01174 #1174 01174,"DESOTO SQUARE, 303 U S 301 BLVD",FL,34205-7991
Journeys,SCRANTON,1176,#001176 #01176 #1176 01176,"THE MALL AT STEAMTOWN, 300 LACKAWANNA AVE, STE 136",PA,18503
Journeys,ST JOSEPH,1177,#001177 #01177 #1177 01177,"EAST HILLS SHOPPING CENTER, 3702 FREDERICK BLVD, STE 40",MO,64506
Journeys,TAUNTON,1179,#001179 #01179 #1179 01179,"SILVER CITY GALLERIA, 2 GALLERIA MALL DR, STE D209",MA,2780
Journeys,HUNTSVILLE,1180,#001180 #01180 #1180 01180,"PARKWAY PLACE, 2801 MEMORIAL PKWY SW, STE 241",AL,35801
Journeys,PINEVILLE,1181,#001181 #01181 #1181 01181,"CAROLINA PLACE , 11025 CAROLINA PLACE PKWY",NC,28134
Journeys,JEFFERSONVILLE,1182,#001182 #01182 #1182 01182,"TANGER OUTLETS, 8835 FACTORY SHOPS BLVD",OH,43128
Journeys,TUCSON,1183,#001183 #01183 #1183 01183,"TUCSON MALL, 4500 N ORACLE RD, STE 311",AZ,85705-1606
Journeys,RICHMOND,1184,#001184 #01184 #1184 01184,"SHORT PUMP TOWN CENTER, 11800 W BROAD ST, STE 2412",VA,23233
Journeys,HOOVER,1185,#001185 #01185 #1185 01185,"RIVERCHASE GALLERIA, 2000 RIVERCHASE GALLERIA, STE 205",AL,35244
Journeys,SAUGUS,1186,#001186 #01186 #1186 01186,"SQUARE ONE MALL, RT 1 SOUTH, STE W127",MA,1906
Journeys,NORTH ATTLEBORO,1187,#001187 #01187 #1187 01187,"EMERALD SQUARE, 999 S WASHINGTON ST",MA,2760
Journeys,CEDAR RAPIDS,1188,#001188 #01188 #1188 01188,"LINDALE MALL, 4444 1ST AVE NE, STE 500",IA,52402
Journeys,EAST BRUNSWICK,1189,#001189 #01189 #1189 01189,"BRUNSWICK SQUARE, 755 STATE ROUTE 18, STE 504A",NJ,8816
Journeys,SALEM,1190,#001190 #01190 #1190 01190,"MALL AT ROCKINGHAM PK, 99 ROCKINGHAM PARK BLVD, STE W163",NH,3079
Journeys,MANCHESTER,1191,#001191 #01191 #1191 01191,"THE SHOPPES AT BUCKLAND HILLS, 194 BUCKLAND HILLS DR, STE 2190",CT,6042
Journeys,NASHUA,1192,#001192 #01192 #1192 01192,"PHEASANT LANE MALL, 310 DANIEL WEBSTER HWY, STE W135",NH,03060-5730
Journeys,RACINE,1193,#001193 #01193 #1193 01193,"REGENCY MALL, 5784 DURAND, STE A160",WI,53406
Journeys,NEWPORT NEWS,1194,#001194 #01194 #1194 01194,"PATRICK HENRY MALL, 12300 JEFFERSON AVE, STE 820",VA,23602
Journeys,LAKE JACKSON,1195,#001195 #01195 #1195 01195,"BRAZOS MALL, 100 HIGHWAY 332 W, STE 1282",TX,77566
Journeys,BRAINTREE,1196,#001196 #01196 #1196 01196,"SOUTH SHORE PLAZA, 250 GRANITE ST, STE 2055",MA,2184
Journeys,SEATTLE,1197,#001197 #01197 #1197 01197,"NORTHGATE SHOPPING CENTER, 401 NE NORTHGATE WAY, SPC 532",WA,98125
Journeys,MANCHESTER,1198,#001198 #01198 #1198 01198,"THE MALL OF NEW HAMPSHIRE, 1500 S WILLOW ST, SPC W149",NH,3103
Journeys,HANOVER,1199,#001199 #01199 #1199 01199,"THE HANOVER MALL , 1775 WASHINGTON ST, STE 437",MA,2339
Journeys,LIMA,1200,#001200 #01200 #1200 01200,"LIMA MALL, 2400 ELIDA RD, STE 708",OH,45805
Journeys,WATERBURY,1201,#001201 #01201 #1201 01201,"BRASS MILL CENTER, 495 UNION ST, STE 2020",CT,6706
Journeys,SYRACUSE,1204,#001204 #01204 #1204 01204,"DESTINY USA, 9507 DESTINY USA DR, SPC F102",NY,13204
Journeys,VERO BEACH,1205,#001205 #01205 #1205 01205,"INDIAN RIVER MALL, 6200 20TH ST, STE 642",FL,32966
Journeys,MUSKEGON,1206,#001206 #01206 #1206 01206,"THE LAKES MALL, 5600 HARVEY ST, STE 2016",MI,49444
Journeys,MEMPHIS,1207,#001207 #01207 #1207 01207,"OAK COURT, 4465 POPLAR AVE, STE 1020",TN,38117
Journeys,CITRUS HEIGHTS,1208,#001208 #01208 #1208 01208,"SUNRISE MALL, 6041 SUNRISE MALL, STE 6005",CA,95610-6903
Journeys,ORLANDO,1209,#001209 #01209 #1209 01209,"THE FLORIDA MALL, 8001 S ORANGE BLOSSOM TRAIL, STE 116",FL,32809-7654
Journeys,SEVIERVILLE,1210,#001210 #01210 #1210 01210,"TANGER FACTORY OUTLET, 1645 PARKWAY, STE 430",TN,37862
Journeys,CHANDLER,1211,#001211 #01211 #1211 01211,"CHANDLER FASHION CENTER, 3111 W CHANDLER BLVD, STE 2028",AZ,85226
Journeys,HEATH,1212,#001212 #01212 #1212 01212,"INDIAN MOUND, 771 S 30TH ST, STE 525",OH,43056
Journeys,ST GEORGE,1213,#001213 #01213 #1213 01213,"RED CLIFFS MALL, 1770 RED CLIFFS DR, STE 109",UT,84790-8159
Journeys,MENTOR,1214,#001214 #01214 #1214 01214,"GREAT LAKES MALL, 7850 MENTOR AVE, SPC 726",OH,44060-5590
Journeys,WAUWATOSA,1215,#001215 #01215 #1215 01215,"MAYFAIR MALL, 2500 N MAYFAIR RD, STE 631",WI,53226
Journeys,ROCHESTER,1217,#001217 #01217 #1217 01217,"MARKET PLACE MALL, 420 MIRACLE MILE DR, SPC E14",NY,14623-5823
Journeys,SANTA CLARA,1219,#001219 #01219 #1219 01219,"VALLEY FAIR MALL, 2855 STEVENS CREEK BLVD, SPC 2571",CA,95050
Journeys,EDEN PRAIRIE,1221,#001221 #01221 #1221 01221,"EDEN PRAIRIE CENTER , 8251 FLYING CLOUD DR, STE 2300",MN,55344
Journeys,GREEN BAY,1222,#001222 #01222 #1222 01222,"BAY PARK SQUARE, 303 BAY PARK SQUARE, STE 233",WI,54304
Journeys,AMHERST,1223,#001223 #01223 #1223 01223,"BOULEVARD MALL, 730 ALBERTA DR, SPC #617",NY,14226
Journeys,JERSEY CITY,1224,#001224 #01224 #1224 01224,"NEWPORT CENTRE, 30 MALL DRIVE W, STE 139",NJ,7310
Journeys,SAN DIEGO,1225,#001225 #01225 #1225 01225,"WESTFIELD HORTON PLAZA, 324 HORTON PLAZA, STE 215",CA,92101
Journeys,EUGENE,1226,#001226 #01226 #1226 01226,"VALLEY RIVER CENTER, 293 VALLEY RIVER CENTER, STE 502",OR,97401
Journeys,TEMPE,1227,#001227 #01227 #1227 01227,"ARIZONA MILLS , 5000 ARIZONA MILLS CIR, STE 115",AZ,85282
Journeys,ORLANDO,1228,#001228 #01228 #1228 01228,"PREMIUM OUTLETS, 8200 VINELAND AVE, STE 1236",FL,32821-6815
Journeys,LAFAYETTE,1229,#001229 #01229 #1229 01229,"THE MALL OF ACADIANA, 5725 JOHNSTON ST, STE E211",LA,70503
Journeys,AUBURN,1231,#001231 #01231 #1231 01231,"AUBURN MALL, 385 SOUTHBRIDGE ST, STE N441",MA,1501
Journeys,CHARLESTON,1232,#001232 #01232 #1232 01232,"CITADEL MALL, 2070 SAM RITTENBERG BLVD, STE A132",SC,29407
Journeys,SALEM,1233,#001233 #01233 #1233 01233,"LANCASTER MALL, 831 LANCASTER DR NE, STE 39",OR,97301
Journeys,SPRINGFIELD,1234,#001234 #01234 #1234 01234,"EASTFIELD MALL, 1655 BOSTON RD, UNIT B14",MA,01129-1388
Journeys,SALINA,1235,#001235 #01235 #1235 01235,"CENTRAL MALL, 2259 S 9TH ST, STE 50",KS,67401
Journeys,CHATTANOOGA,1237,#001237 #01237 #1237 01237,"HAMILTON PLACE, 2100 HAMILTON PLACE BLVD, STE 107",TN,37421
Journeys,BANGOR,1238,#001238 #01238 #1238 01238,"BANGOR MALL, 663 STILLWATER AVE, STE 1177",ME,4401
Journeys,BEL AIR,1239,#001239 #01239 #1239 01239,"HARFORD MALL, 696 BEL AIR ROAD, SPC H9",MD,21014
Journeys,RIVERHEAD,1240,#001240 #01240 #1240 01240,"RIVERHEAD II OUTLET CTR, 1770 W MAIN ST, STE 1418",NY,11901
Journeys,WATERFORD,1241,#001241 #01241 #1241 01241,"CRYSTAL MALL , 850 HARTFORD TURNPIKE",CT,06385-4237
Journeys,MORRISTOWN,1242,#001242 #01242 #1242 01242,"COLLEGE SQUARE, 2550 E MORRIS BLVD, STE 50",TN,37813
Journeys,BUFFALO,1243,#001243 #01243 #1243 01243,"MCKINLEY MALL, 3701 MCKINLEY PKWY, UNIT 816",NY,14219
Journeys,CAMBRIDGE,1244,#001244 #01244 #1244 01244,"CAMBRIDGESIDE GALL , 100 CAMBRIDGESIDE PL, STE W106",MA,2141
Journeys,DALTON,1245,#001245 #01245 #1245 01245,"WALNUT SQUARE MALL, 816 WALNUT SQUARE BLVD, STE 23",GA,30721
Journeys,LUBBOCK,1246,#001246 #01246 #1246 01246,"SOUTH PLAINS MALL, 6002 SLIDE RD, STE G36",TX,79414
Journeys,STRONGSVILLE,1248,#001248 #01248 #1248 01248,"SOUTHPARK CENTER, 1116 SOUTHPARK CENTER",OH,44136
Journeys,KENNESAW,1249,#001249 #01249 #1249 01249,"TOWN CENTER AT COBB, 400 ERNEST W BART PKWY NW, SPC 110",GA,30144-4950
Journeys,MONTCLAIR,1250,#001250 #01250 #1250 01250,"MONTCLAIR PLAZA, 5060 E MONTCLAIR PLAZA LANE",CA,91763
Journeys,ESCONDIDO,1251,#001251 #01251 #1251 01251,"NORTH COUNTY MALL, 272 E. VIA RANCHO PKWY, SPC 431",CA,92025-8002
Journeys,ONTARIO,1252,#001252 #01252 #1252 01252,"ONTARIO MILLS, 1 MILLS CIRCLE, STE 217",CA,91764-5200
Journeys,ALBANY,1253,#001253 #01253 #1253 01253,"CROSSGATES MALL, 1 CROSSGATES MALL ROAD, SPC C102",NY,12203
Journeys,YORK,1254,#001254 #01254 #1254 01254,"YORK GALLERIA , 2899 WHITEFORD RD, STE 180",PA,17402
Journeys,MODESTO,1255,#001255 #01255 #1255 01255,"VINTAGE FAIRE MALL, 3401 DALE ROAD, STE 243",CA,95356-0556
Journeys,LAKEWOOD,1256,#001256 #01256 #1256 01256,"COLORADO MILLS, 14500 W COLFAX AVE, UNIT 377",CO,80401
Journeys,CLARKSVILLE,1257,#001257 #01257 #1257 01257,"GOVERNOR'S SQUARE MALL, 2801 WILMA - RUDOLPH BLVD, STE 420",TN,37040
Journeys,FRIENDSWOOD,1258,#001258 #01258 #1258 01258,"BAYBROOK MALL, 1106 BAYBROOK MALL",TX,77546-2740
Journeys,CHICO,1259,#001259 #01259 #1259 01259,"CHICO MALL, 1950 E 20TH ST, STE 313",CA,95928
Journeys,WEST COVINA,1260,#001260 #01260 #1260 01260,"WESTFIELD WEST COVINA, 448 PLAZA DRIVE",CA,91790-2824
Journeys,BURLINGTON,1263,#001263 #01263 #1263 01263,"BURLINGTON MALL, 75 MIDDLESEX TPKE, STE 1064",MA,1803
Journeys,CONCORD,1264,#001264 #01264 #1264 01264,"STEEPLEGATE MALL , 270 LOUDON ROAD, UNIT 1190",NH,3301
Journeys,NOVI,1265,#001265 #01265 #1265 01265,"TWELVE OAKS MALL, 27314 NOVI RD, STE C-150",MI,48377
Journeys,GRAND FORKS,1266,#001266 #01266 #1266 01266,"COLUMBIA MALL, 2800 S COLUMBIA RD, STE 239",ND,58201
Journeys,PEABODY,1267,#001267 #01267 #1267 01267,"NORTHSHORE MALL, 210 ANDOVER ST, STE W127",MA,1960
Journeys,SCHAUMBURG,1268,#001268 #01268 #1268 01268,"WOODFIELD MALL, 5 WOODFIELD MALL, SPC F323",IL,60173
Journeys,NATICK,1269,#001269 #01269 #1269 01269,"NATICK MALL, 1245 WORCESTER ST, STE 2186",MA,1760
Journeys,MINOT,1270,#001270 #01270 #1270 01270,"DAKOTA SQUARE MALL, 2400 10TH ST SW, STE 216",ND,58701
Journeys,HOUSTON,1271,#001271 #01271 #1271 01271,"THE GALLERIA II, 5085 WESTHEIMER, STE 3545",TX,77056
Journeys,COUNCIL BLUFFS,1272,#001272 #01272 #1272 01272,"MALL OF THE BLUFFS, 1751 MADISON AVE, STE 610",IA,51503
Journeys,DUBLIN,1273,#001273 #01273 #1273 01273,"MALL AT TUTTLE CROSSING, 5043 TUTTLE CROSSING BLVD, STE 285",OH,43016
Journeys,GREELEY,1274,#001274 #01274 #1274 01274,"GREELEY MALL, 1995 GREELEY MALL",CO,80631
Journeys,BENSALEM,1275,#001275 #01275 #1275 01275,"NESHAMINY MALL, 608 NESHAMINY MALL",PA,19020
Journeys,INDIANAPOLIS,1276,#001276 #01276 #1276 01276,"CIRCLE CENTRE, 49 W MARYLAND, STE E-06",IN,46204
Journeys,CLAY,1277,#001277 #01277 #1277 01277,"GREAT NORTHERN MALL , 4155 STATE ROUTE 31, STE C128",NY,13041
Journeys,AUBURN HILLS,1278,#001278 #01278 #1278 01278,"GREAT LAKES CROSSING, 4518 BALDWIN RD, STE 845",MI,48326
Journeys,TEMPLE,1279,#001279 #01279 #1279 01279,"TEMPLE MALL, 3111 S. 31ST ST, STE 3069",TX,76502
Journeys,KNOXVILLE,1280,#001280 #01280 #1280 01280,"WEST TOWN MALL, 7600 KINGSTON PIKE, SPC 1024",TN,37919-5603
Journeys,FREEHOLD,1281,#001281 #01281 #1281 01281,"FREEHOLD RACEWAY MALL, 3710 US HIGHWAY 9, STE B216",NJ,07728-4815
Journeys,BURNSVILLE,1282,#001282 #01282 #1282 01282,"BURNSVILLE CENTER, 1029 BURNSVILLE CTR, STE 1029",MN,55306-4480
Journeys,SAN ANGELO,1283,#001283 #01283 #1283 01283,"SUNSET MALL , 4001 SOUTHWEST BLVD, STE 1180",TX,76904-5609
Journeys,ERIE,1284,#001284 #01284 #1284 01284,"MILLCREEK MALL, 654 MILLCREEK MALL, SPC 320",PA,16565-0604
Journeys,GURNEE,1285,#001285 #01285 #1285 01285,"GURNEE MILLS, 6170 W GRAND AVE, STE 827",IL,60031-1701
Journeys,OLYMPIA,1286,#001286 #01286 #1286 01286,"CAPITAL SHOPPING CENTRE, 625 BLACK LAKE BLVD, STE 330",WA,98502-8601
Journeys,HAZELWOOD,1288,#001288 #01288 #1288 01288,"ST. LOUIS MILLS , 5555 ST. LOUIS MILLS BLVD, STE 512",MO,63042
Journeys,MEMPHIS,1289,#001289 #01289 #1289 01289,"WOLFCHASE GALLERIA, 2760 N GERMANTOWN PKWY, STE 2150A",TN,38133-8155
Journeys,WINSTON-SALEM,1290,#001290 #01290 #1290 01290,"HANES MALL, 3320 SILAS CREEK PKWY",NC,27103
Journeys,FINDLAY,1291,#001291 #01291 #1291 01291,"FINDLAY VILLAGE MALL, 1800 TIFFIN AVE, STE D14",OH,45840
Journeys,KILLEEN,1292,#001292 #01292 #1292 01292,"KILLEEN MALL, 2100 SOUTH WS YOUNG DRIVE, STE 1020",TX,76543-5399
Journeys,MANHATTAN,1293,#001293 #01293 #1293 01293,"MANHATTAN TOWN CENTER, 100 MANHATTAN TOWN CENTER, STE 680",KS,66502-6079
Journeys,HOUSTON,1295,#001295 #01295 #1295 01295,"MEMORIAL CITY, 674 MEMORIAL CITY WAY",TX,77024
Journeys,SACRAMENTO,1296,#001296 #01296 #1296 01296,"ARDEN FAIR MALL, 1689 ARDEN WAY, STE 2036",CA,95815-4089
Journeys,TULSA,1298,#001298 #01298 #1298 01298,"TULSA PROMENADE, 4107 S. YALE AVE",OK,74135-6064
Journeys,ALTOONA,1299,#001299 #01299 #1299 01299,"LOGAN VALLEY MALL, 5580 GOODS LN, STE 2155",PA,16602
Journeys,RIVERSIDE,1300,#001300 #01300 #1300 01300,"GALLERIA AT TYLER, 2266 GALLERIA AT TYLER",CA,92503-4137
Journeys,STATE COLLEGE,1303,#001303 #01303 #1303 01303,"NITTANY MALL, 2901 E COLLEGE AVE",PA,16801-7518
Journeys,VERNON HILLS,1304,#001304 #01304 #1304 01304,"HAWTHORN CENTER, 622 HAWTHORN CTR",IL,60061-1502
Journeys,ROSEVILLE,1306,#001306 #01306 #1306 01306,"GALLERIA AT ROSEVILLE, 1151 GALLERIA BLVD, SPC 268",CA,95678-1945
Journeys,EL PASO,1309,#001309 #01309 #1309 01309,"BASSETT CENTER, 6101 GATEWAY BLVD W, STE 225",TX,79925
Journeys,VANCOUVER,1310,#001310 #01310 #1310 01310,"VANCOUVER-WESTFIELD, 8700 NE VANCOUVER MALL DR, STE 228",WA,98662
Journeys,LANCASTER,1311,#001311 #01311 #1311 01311,"PARK CITY CENTER, 725 PARK CITY CENTER",PA,17601
Journeys,GARDEN CITY,1312,#001312 #01312 #1312 01312,"ROOSEVELT FIELD MALL, 630 OLD COUNTRY RD, STE 1056",NY,11530
Journeys,TACOMA,1313,#001313 #01313 #1313 01313,"TACOMA MALL, 4502 S STEELE ST, STE 509",WA,98409-7225
Journeys,WOODBRIDGE,1314,#001314 #01314 #1314 01314,"WOODBRIDGE CENTER , 391 WOODBRIDGE CTR DR, STE 1370",NJ,7095
Journeys,HOLYOKE,1316,#001316 #01316 #1316 01316,"HOLYOKE MALL, 50 HOLYOKE ST, STE F389",MA,01040-2709
Journeys,PORTLAND,1317,#001317 #01317 #1317 01317,"LLOYD CENTER MALL, 2201 LLOYD CENTER",OR,97232
Journeys,GLEN BURNIE,1318,#001318 #01318 #1318 01318,"MARLEY STATION, 7900 GOV RITCHIE HWY, SPC E103",MD,21061
Journeys,SUNRISE,1322,#001322 #01322 #1322 01322,"SAWGRASS MILLS, 12801 W SUNRISE BLVD, STE 613",FL,33323
Journeys,WEST DES MOINES,1324,#001324 #01324 #1324 01324,"JORDAN CREEK TOWN CENTER, 101 JORDAN CREEK PKWY, STE 12355",IA,50266
Journeys,BURBANK,1326,#001326 #01326 #1326 01326,"BURBANK TOWN CENTER, 201 E MAGNOLIA BLVD, STE 288",CA,91501
Journeys,WAYNE,1327,#001327 #01327 #1327 01327,"WILLOWBROOK MALL, 2105 WILLOWBROOK MALL",NJ,7470
Journeys,BETHESDA,1329,#001329 #01329 #1329 01329,"MONTGOMERY MALL, 7101 DEMOCRACY BLVD, SPC 1046",MD,20817
Journeys,LITTLE ROCK,1330,#001330 #01330 #1330 01330,"PARK PLAZA, 6000 W MARKHAM, STE 3020",AR,72205
Journeys,RANCHO CUCAMONGA,1331,#001331 #01331 #1331 01331,"VICTORIA GARDENS, 12533 N MAINSTREET",CA,91739
Journeys,WILLOW GROVE,1332,#001332 #01332 #1332 01332,"WILLOW GROVE PARK, 2500 MORELAND RD, STE 3061",PA,19090
Journeys,HONOLULU,1334,#001334 #01334 #1334 01334,"ALA MOANA CENTER, 1450 ALA MOANA BLVD, STE 3232",HI,96814
Journeys,MERRILLVILLE,1336,#001336 #01336 #1336 01336,"SOUTHLAKE MALL , 1971 SOUTHLAKE MALL",IN,46410
Journeys,LIVINGSTON,1337,#001337 #01337 #1337 01337,"LIVINGSTON MALL , 112 EISENHOWER PKWY, STE 1011A",NJ,7039
Journeys,NORTH CONWAY,1338,#001338 #01338 #1338 01338,"SETTLERS GREEN OUTLET VILLAGE, 2 COMMON COURT, STE H30",NH,3860
Journeys,HANFORD,1339,#001339 #01339 #1339 01339,"HANFORD MALL, 1675 W LACEY BLVD, STE G11",CA,93230
Journeys,MAPLE GROVE,1340,#001340 #01340 #1340 01340,"THE SHOPPES AT ARBOR LAKES, 12457 ELM CREEK BLVD, STE G4",MN,55369
Journeys,MISSOULA,1341,#001341 #01341 #1341 01341,"SOUTHGATE MALL, 2901 BROOKS ST, STE D15",MT,59801
Journeys,CASPER,1342,#001342 #01342 #1342 01342,"EASTRIDGE MALL, 601 SE WYOMING BLVD, STE 1264",WY,82609
Journeys,GALLUP,1343,#001343 #01343 #1343 01343,"RIO WEST MALL, 1300 W I-40 FRONTAGE RD",NM,87301
Journeys,WHEATON,1344,#001344 #01344 #1344 01344,"WHEATON MALL, 11160 VEIRS MILL RD, SPC 140",MD,20902
Journeys,FAIRFAX,1345,#001345 #01345 #1345 01345,"FAIR OAKS MALL, 11946U FAIR OAKS MALL, STE M203",VA,22033
Journeys,EL CENTRO,1346,#001346 #01346 #1346 01346,"IMPERIAL VALLEY, 3451 S DOGWOOD RD, STE 1144",CA,92243
Journeys,OSAGE BEACH,1348,#001348 #01348 #1348 01348,"OSAGE BEACH PREMIUM OUTLET, 4540 OSAGE BEACH PKWY, STE R3",MO,65065
Journeys,NORFOLK,1349,#001349 #01349 #1349 01349,"MACARTHUR CENTER, 300 MONTICELLO AVE, SPC 112",VA,23510
Journeys,RAPID CITY,1350,#001350 #01350 #1350 01350,"RUSHMORE MALL, 2200 N MAPLE AVE, UNIT 320",SD,57701
Journeys,AUSTIN,1351,#001351 #01351 #1351 01351,"HIGHLAND MALL, 6001 AIRPORT BLVD, STE 1102",TX,78752-4216
Journeys,WOODBURN,1352,#001352 #01352 #1352 01352,"WOODBURN COMPANY STORES, 1001 N ARNEY RD, STE 421",OR,97071
Journeys,TOLEDO,1355,#001355 #01355 #1355 01355,"FRANKLIN PARK, 5001 MONROE ST, SPC 1820",OH,43623
Journeys,TULALIP,1356,#001356 #01356 #1356 01356,"SEATTLE PREMIUM OUTLET, 10600 QUIL CEDA BLVD, STE 730",WA,98271
Journeys,BRIDGEWATER,1358,#001358 #01358 #1358 01358,"BRIDGEWATER COMMONS, 400 COMMONS WAY, STE 355",NJ,8807
Journeys,WILKES-BARRE,1359,#001359 #01359 #1359 01359,"WYOMING VALLEY MALL, 20 1/2 WYOMING VLY MALL",PA,18702-6809
Journeys,WESTMINSTER,1361,#001361 #01361 #1361 01361,"TOWN MALL OF WESTMINSTER, 400 N CENTER ST, STE 229",MD,21157
Journeys,VIRGINIA BEACH,1362,#001362 #01362 #1362 01362,"PEMBROKE MALL, 4554 VIRGINIA BEACH BLVD, STE 910",VA,23462
Journeys,TARENTUM,1363,#001363 #01363 #1363 01363,"GALLERIA AT PITTSBURGH MILLS, 360 PITTSBURGH MILLS CIR",PA,15084
Journeys,ALBERTVILLE,1364,#001364 #01364 #1364 01364,"ALBERTVILLE PREMIUM OUTLETS, 6415 LABEAUX AVE NE, SPC C110",MN,55301
Journeys,PITTSBURGH,1365,#001365 #01365 #1365 01365,"SOUTH HILLS VILLAGE , 301 SOUTH HILLS VILLAGE, STE 1055",PA,15241
Journeys,WESTLAKE,1367,#001367 #01367 #1367 01367,"CROCKER PARK, 34 MAIN STREET",OH,44145
Journeys,CHARLOTTE,1368,#001368 #01368 #1368 01368,"NORTHLAKE MALL, 6801 NORTHLAKE MALL DR, STE 183",NC,28216
Journeys,SAN ANTONIO,1369,#001369 #01369 #1369 01369,"SHOPS AT LA CANTERA, 15900 LA CANTERA PKWY BLDG 6, STE 6635",TX,78256
Journeys,HILO,1370,#001370 #01370 #1370 01370,"PRINCE KUHIO PLAZA, 111 E PUAINAKO ST, SPC 445",HI,96720
Journeys,SIMI VALLEY,1371,#001371 #01371 #1371 01371,"SIMI VALLEY TOWN CENTER , 1555 SIMI TOWN CENTER WAY, SPC 655",CA,93063
Journeys,REHOBOTH BEACH,1372,#001372 #01372 #1372 01372,"TANGER FACTORY OUTLET, 36706 BAYSIDE OUTLET DR, STE 435",DE,19971
Journeys,KING OF PRUSSIA,1373,#001373 #01373 #1373 01373,"PLAZA AT KING OF PRUSSIA, 160 N GULPH RD, STE 1056",PA,19406-2937
Journeys,COLLIERVILLE,1374,#001374 #01374 #1374 01374,"THE AVENUE CARRIAGE CROSSING, 4650 MERCHANTS PARK CIRCLE, SPC 818",TN,38017
Journeys,SOUTHAVEN,1375,#001375 #01375 #1375 01375,"SOUTHAVEN, 6532 TOWNE CENTRE LOOP",MS,38671
Journeys,KAHULUI,1377,#001377 #01377 #1377 01377,"QUEEN KA'AHUMANU CENTER, 275 W KA'AHUMANU AVE, STE C5",HI,96732
Journeys,GARLAND,1379,#001379 #01379 #1379 01379,"FIREWHEEL TOWN CENTER, 420 CEDAR SAGE DR",TX,75040
Journeys,PLAINFIELD,1380,#001380 #01380 #1380 01380,"METROPOLIS, 2499 FUTURA PKWY, STE 160",IN,46168
Journeys,ROME,1383,#001383 #01383 #1383 01383,"MOUNT BERRY SQUARE, 716 MOUNT BERRY SQUARE NE",GA,30165
Journeys,SAN BRUNO,1384,#001384 #01384 #1384 01384,"THE SHOPS AT TANFORAN, 1150 EL CAMINO REAL, STE 132",CA,94066
Journeys,KNOXVILLE,1385,#001385 #01385 #1385 01385,"KNOXVILLE CENTER , 3001 KNOXVILLE CTR DR, STE 214",TN,37924
Journeys,CLARKSVILLE,1386,#001386 #01386 #1386 01386,"GREENTREE MALL, 757 LEWIS & CLARK PKWY E, STE 214",IN,47129
Journeys,LEOMINSTER,1387,#001387 #01387 #1387 01387,"THE MALL AT WHITNEY FIELDS, 100 COMMERCIAL RD, STE 16",MA,1453
Journeys,MIAMI BEACH,1388,#001388 #01388 #1388 01388,"LINCOLN ROAD MALL,  603 LINCOLN RD, STE 150",FL,33139
Journeys,KINGSTON,1390,#001390 #01390 #1390 01390,"INDEPENDENCE MALL, 101 INDEPENDENCE MALL WAY, SPC D111",MA,2364
Journeys,LANESBORO,1391,#001391 #01391 #1391 01391,"BERKSHIRE MALL, 655 CHESHIRE RD, SPC D104",MA,1237
Journeys,HARRISBURG,1392,#001392 #01392 #1392 01392,"COLONIAL PARK MALL, RT 22 AT COLONIAL RD, STE 66",PA,17109
Journeys,LOS ANGELES,1396,#001396 #01396 #1396 01396,"CITADEL OUTLETS, 100 CITADEL DR, STE 436",CA,90040
Journeys,BRIDGEPORT,1397,#001397 #01397 #1397 01397,"MEADOWBROOK MALL , 2399 MEADOWBROOK RD, STE 520",WV,26330
Journeys,THE WOODLANDS,1398,#001398 #01398 #1398 01398,"THE WOODLANDS MALL , 1201 LAKE WOODLANDS DR, STE 2026",TX,77380
Journeys,NEW YORK,1401,#001401 #01401 #1401 01401,"28 E 14TH ST,",NY,10003
Journeys,ST LOUIS,1402,#001402 #01402 #1402 01402,"ST. LOUIS GALLERIA, 2081 SAINT LOUIS GALLERIA",MO,63117
Journeys,BUFFALO,1404,#001404 #01404 #1404 01404,"WALDEN GALLERIA, 1 WALDEN GALLERIA, STE L203",NY,14225
Journeys,PRIMM,1405,#001405 #01405 #1405 01405,"FASHION OUTLETS OF LAS VEGAS , 32100 LAS VEGAS BLVD S, STE 422",NV,89019
Journeys,MANSFIELD,1406,#001406 #01406 #1406 01406,"RICHLAND MALL, 2201 RICHLAND MALL, STE D8",OH,44906
Journeys,GRAND RAPIDS,1408,#001408 #01408 #1408 01408,"WOODLAND CENTER, 3191 28TH ST SE, STE B103",MI,49512
Journeys,BILLINGS,1409,#001409 #01409 #1409 01409,"RIMROCK MALL, 300 S 24TH ST W, STE E5",MT,59102
Journeys,SAN DIEGO,1410,#001410 #01410 #1410 01410,"SHOPS AT LAS AMERICAS , 4051 CAMINO DE LA PLAZA, STE 101",CA,92173
Journeys,FOLEY,1412,#001412 #01412 #1412 01412,"TANGER OUTLET CENTER, 2601 S MCKENZIE ST, STE 180",AL,36535
Journeys,SOUTH BURLINGTON,1414,#001414 #01414 #1414 01414,"UNIVERSITY MALL, 155 DORSET ST, STE H01",VT,5403
Journeys,SAN MARCOS,1415,#001415 #01415 #1415 01415,"TANGER OUTLET CENTER, 4015 S INTERSTATE 35, STE 1005",TX,78666
Journeys,OKLAHOMA CITY,1416,#001416 #01416 #1416 01416,"QUAIL SPRINGS MALL, 2501 W MEMORIAL RD, STE 244",OK,73134
Journeys,LAS VEGAS,1417,#001417 #01417 #1417 01417,"MEADOWS MALL, 4300 MEADOWS LN, STE 2130",NV,89107-3008
Journeys,SPANISH FORT,1418,#001418 #01418 #1418 01418,"EASTERN SHORE CENTRE, 30500 STATE HIGHWAY 181, SPC 104",AL,36527
Journeys,DALLAS,1420,#001420 #01420 #1420 01420,"GALLERIA DALLAS, 13350 DALLAS PKWY, STE 3495",TX,75240
Journeys,GOLDSBORO,1421,#001421 #01421 #1421 01421,"BERKELEY MALL, 621-B BERKELEY BLVD, STE G2",NC,27534
Journeys,FT LAUDERDALE,1422,#001422 #01422 #1422 01422,"GALLERIA AT FT LAUDERDALE, 2320 E SUNRISE BLVD",FL,33304
Journeys,PHOENIX,1423,#001423 #01423 #1423 01423,"CHRISTOWN MALL, 1644 W MONTEBELLO AVE, UNIT 4",AZ,85015-2517
Journeys,KINGSTON,1425,#001425 #01425 #1425 01425,"HUDSON VLY MALL, 1300 ULSTER AVE, STE A12",NY,12401
Journeys,BOSSIER CITY,1426,#001426 #01426 #1426 01426,"PIERRE BOSSIER MALL, 2950 E TEXAS ST, STE 19",LA,71111
Journeys,GAFFNEY,1427,#001427 #01427 #1427 01427,"GAFFNEY PREMIUM OUTLETS, 1 FACTORY SHOPS BLVD, SPC 12",SC,29341
Journeys,JONESBORO,1428,#001428 #01428 #1428 01428,"THE MALL @ TURTLE CREEK, 3000 E HIGHLAND DR, STE 317",AR,72401
Journeys,MADISON,1430,#001430 #01430 #1430 01430,"WEST TOWNE MALL, 8 WEST TOWNE, STE C7",WI,53719
Journeys,SMITHFIELD,1431,#001431 #01431 #1431 01431,"CAROLINA PREMIUM OUTLETS , 1025 INDUSTRIAL PARK DR, STE 260",NC,27577
Journeys,PUEBLO,1432,#001432 #01432 #1432 01432,"PUEBLO MALL, 3297 DILLON DR, STE E01",CO,81008
Journeys,VICTOR,1433,#001433 #01433 #1433 01433,"EASTVIEW MALL, 501 EASTVIEW MALL, STE 132",NY,14564
Journeys,DALLAS,1434,#001434 #01434 #1434 01434,"NORTHPARK CENTER, 8687 N CENTRAL EXPRESSWAY, SPC 2106",TX,75225
Journeys,KNOXVILLE,1436,#001436 #01436 #1436 01436,"PINNACLE AT TURKEY CREEK, 11379 PARKSIDE DR, SPC 938",TN,37934
Journeys,YUMA,1437,#001437 #01437 #1437 01437,"YUMA PALMS MALL, 1327 S YUMA PALMS PKWY, SPC D3",AZ,85365
Journeys,TULARE,1438,#001438 #01438 #1438 01438,"TULARE OUTLET CENTER, 1493 RETHERFORD ST, STE D15",CA,93274
Journeys,NEWARK,1439,#001439 #01439 #1439 01439,"CHRISTIANA MALL, 538 CHRISTIANA MALL",DE,19702
Journeys,SHREVEPORT,1440,#001440 #01440 #1440 01440,"MALL ST VINCENT , 1133 ST VINCENT AVE, STE 330",LA,71104
Journeys,COLUMBIA,1441,#001441 #01441 #1441 01441,"VILLAGE AT SANDHILL, 495 TOWN CENTER PL, STE 4",SC,29229
Journeys,MONROEVILLE,1442,#001442 #01442 #1442 01442,"MONROEVILLE MALL, 126 MONROEVILLE MALL",PA,15146-2225
Journeys,PLATTSBURGH,1443,#001443 #01443 #1443 01443,"CHAMPLAIN CENTRE, 60 SMITHFIELD BLVD, STE A115",NY,12901
Journeys,SPRINGFIELD,1444,#001444 #01444 #1444 01444,"UPPER VALLEY MALL, 1475 UPPER VALLEY PIKE, SPC 216C",OH,45504
Journeys,BIRCH RUN,1445,#001445 #01445 #1445 01445,"BIRCH RUN PREMIUM OUTLETS, 12156 S BEYER RD, STE V014",MI,48415
Journeys,BARABOO,1446,#001446 #01446 #1446 01446,"TANGER OUTLET CENTER, 210 N GASSER RD, STE 950",WI,53913
Journeys,KISSIMMEE,1447,#001447 #01447 #1447 01447,"THE LOOP, 3264 N JOHN YOUNG PKWY, STE H8",FL,34741
Journeys,PLEASANT PRAIRIE,1448,#001448 #01448 #1448 01448,"PLEASANT PRAIRIE PREMIUM OUTLET, 11601 108TH ST, STE 522",WI,53158
Journeys,BRANSON,1449,#001449 #01449 #1449 01449,"BRANSON LANDING, 803 BRANSON LANDING",MO,65616
Journeys,BLUFFTON,1455,#001455 #01455 #1455 01455,"TANGER OUT HILTON HEAD II, 1414 FORDING ISLAND RD, STE F155",SC,29910
Journeys,PITTSBURGH,1456,#001456 #01456 #1456 01456,"ROSS PARK MALL, 1000 ROSS PARK MALL DR, STE N048",PA,15237
Journeys,ROUND ROCK,1458,#001458 #01458 #1458 01458,"ROUND ROCK PREMIUM OUTLETS, 4401 N INTERSTATE 35, SPC 229",TX,78664
Journeys,RICHMOND,1462,#001462 #01462 #1462 01462,"REGENCY SQUARE MALL, 1404 N PARHAM RD, STE H212",VA,23229
Journeys,MANASSAS,1465,#001465 #01465 #1465 01465,"MANASSAS MALL, 8300 SUDLEY RD, STE N12",VA,20109
Journeys,KANSAS CITY,1467,#001467 #01467 #1467 01467,"ZONA ROSA , 6989 NW 86TH TERRACE, STE A106",MO,64153
Journeys,LAS VEGAS,1468,#001468 #01468 #1468 01468,"MIRACLE MILE, 3663 LAS VEGAS BLVD S, STE 630",NV,89109
Journeys,KANEOHE,1469,#001469 #01469 #1469 01469,"WINDWARD MALL, 46-056 KAMEHAMEHA HWY, STE A09",HI,96744
Journeys,ESTERO,1472,#001472 #01472 #1472 01472,"MIROMAR OUTLETS , 10801 CORKSCREW RD, STE 506",FL,33928
Journeys,MERCEDES,1473,#001473 #01473 #1473 01473,"RIO GRANDE VALLEY PREMIUM OUTLET, 5001 E EXPRESSWAY 83, STE 619",TX,78570
Journeys,NIAGARA FALLS,1478,#001478 #01478 #1478 01478,"FASHION OUTLETS AT NIAGARA, 1944 MILITARY RD, SPC 103",NY,14304
Journeys,TANNERSVILLE,1479,#001479 #01479 #1479 01479,"CROSSINGS FACTORY STORES, 1000 ROUTE 611, STE G12",PA,18372
Journeys,DEARBORN,1485,#001485 #01485 #1485 01485,"FAIRLANE TOWN CENTER, 18900 MICHIGAN AVE, STE G307",MI,48126
Journeys,COMMERCE,1487,#001487 #01487 #1487 01487,"TANGER OUTLET CENTER COMMERCE II, 800 STEVEN B TANGER BLVD, STE 105B",GA,30529
Journeys,SANTA MONICA,1488,#001488 #01488 #1488 01488,"THIRD ST. PROMENADE, 1427 THIRD STREET",CA,90401
Journeys,MIDLAND,1495,#001495 #01495 #1495 01495,"MIDLAND MALL, 6800 EASTMAN AVE, STE 532",MI,48642
Journeys,EAGLE PASS,1497,#001497 #01497 #1497 01497,"MALL DE LAS AGUILAS, 455 S BIBB AVE, STE 522",TX,78852-5017
Journeys,ANTIOCH,1499,#001499 #01499 #1499 01499,"SOMERSVILLE TOWNE CENTER, 2550 SOMERSVILLE RD, STE 18",CA,94509
Journeys,AURORA,1500,#001500 #01500 #1500 01500,"TOWN CENTER AT AURORA, 14200 E ALAMEDA AVE, UNIT 2022",CO,80012
Journeys,FREDERICKSBURG,1509,#001509 #01509 #1509 01509,"SPOTSYLVANIA TOWNE CENTRE, 480 SPOTSYLVANIA MALL",VA,22407
Journeys,NORTH CHARLESTON,1510,#001510 #01510 #1510 01510,"TANGER OUTLET CENTERS, 4840 TANGER OUTLET BLVD, STE 1042",SC,29418
Journeys,BEAVERCREEK,1512,#001512 #01512 #1512 01512,"THE GREENE, 80 CHESTNUT ST, STE H116",OH,45440
Journeys,TEMPE,1514,#001514 #01514 #1514 01514,"TEMPE MARKETPLACE , 2000 E RIO SALADO PKWY, STE 1122",AZ,85281
Journeys,BIRMINGHAM,1515,#001515 #01515 #1515 01515,"COLONIAL PINNACLE AT TUTWILER FARM, 5048 PINNACLE SQUARE, STE 108",AL,35235
Journeys,LAKE WALES,1516,#001516 #01516 #1516 01516,"EAGLE RIDGE MALL, 460 EAGLE RIDGE DR, SPC 540A",FL,33859-4738
Journeys,CANUTILLO,1517,#001517 #01517 #1517 01517,"OUTLET SHOPPES AT EL PASO, 7051 S DESERT BLVD, STE A149",TX,79835-8558
Journeys,DAWSONVILLE,1518,#001518 #01518 #1518 01518,"NORTH GEORGIA PREM OUTLET, 800 HWY 400 S, STE 775",GA,30534-8024
Journeys,MCLEAN,1520,#001520 #01520 #1520 01520,"TYSONS CORNER CENTER, 1916 CHAIN BRIDGE RD",VA,22102
Journeys,WYOMISSING,1521,#001521 #01521 #1521 01521,"BERKSHIRE MALL, 1665 STATE HILL RD, STE 360",PA,19610
Journeys,CHRISTIANSBURG,1522,#001522 #01522 #1522 01522,"NEW RIVER VALLEY MALL, 835 NEW RIVER RD",VA,24073
Journeys,GREEN OAK TOWNSHIP,1525,#001525 #01525 #1525 01525,"GREEN OAK VILLAGE PLACE, 9610 VILLAGE PLACE BLVD, BLDG E",MI,48116
Journeys,HARRISBURG,1527,#001527 #01527 #1527 01527,"HARRISBURG MALL, 3501 PAXTON ST",PA,17111
Journeys,BURLINGTON,1529,#001529 #01529 #1529 01529,"HOLLY HILL MALL, 141 HOLLY HILL MALL",NC,27215
Journeys,GLENDALE,1532,#001532 #01532 #1532 01532,"BAYSHORE MALL, 5800 N BAYSHORE DR",WI,53217
Journeys,HUMBLE,1534,#001534 #01534 #1534 01534,"DEERBROOK MALL, 20131 HIGHWAY 59 N, SPC 2306",TX,77338
Journeys,HOUSTON,1536,#001536 #01536 #1536 01536,"SHARPSTOWN CENTER, 7500 BELLAIRE BLVD, STE 742",TX,77036-5018
Journeys,CENTER VALLEY,1537,#001537 #01537 #1537 01537,"THE SHOPS @ SAUCON VALLEY, 2805 CTR VLY PKWY, STE 608",PA,18034
Journeys,ATLANTA,1539,#001539 #01539 #1539 01539,"ATLANTIC STATION, 264 19TH ST NW, STE 2105",GA,30363
Journeys,AURORA,1540,#001540 #01540 #1540 01540,"AURORA FARMS PREMIUM OUTLET, 549 S CHILLICOTHE RD, STE 70",OH,44202
Journeys,SPRINGFIELD,1541,#001541 #01541 #1541 01541,"SPRINGFIELD MALL, 1250 BALTIMORE PIKE, STE L23",PA,19064
Journeys,RALEIGH,1542,#001542 #01542 #1542 01542,"TRIANGLE TOWN CENTER, 5959 TRIANGLE TOWN BLVD",NC,27616
Journeys,ESTERO,1543,#001543 #01543 #1543 01543,"COCONUT POINT, 23106 FASHION DR, STE 104",FL,33928
Journeys,MONTEBELLO,1544,#001544 #01544 #1544 01544,"MONTEBELLO TOWN CENTER, 2027 MONTEBELLO TOWN CTR",CA,90640-2170
Journeys,AURORA,1546,#001546 #01546 #1546 01546,"MAIN STREET @ SOUTHLANDS, 6155 S MAIN ST, STE E105",CO,80016
Journeys,LINCOLNWOOD,1551,#001551 #01551 #1551 01551,"LINCOLNWOOD TOWN CENTER, 3333 W TOUHY AVE, UNIT E04",IL,60712
Journeys,MAUMEE,1552,#001552 #01552 #1552 01552,"SHOPS AT FALLEN TIMBERS, 3100 MAIN ST, STE 1355",OH,43537
Journeys,ORLANDO,1553,#001553 #01553 #1553 01553,"PREMIUM OUTLETS - INTERNATIONAL DRIVE, 4973 INTERNATIONAL DRIVE",FL,32819
Journeys,GRETNA,1554,#001554 #01554 #1554 01554,"OAKWOOD CENTER, 197 WESTBANK EXPRESSWAY, STE 1080",LA,70056
Journeys,GILBERT,1555,#001555 #01555 #1555 01555,"SAN TAN VILLAGE, 2200 E WILLIAMS FIELD RD, STE 111",AZ,85295
Journeys,PARK CITY,1557,#001557 #01557 #1557 01557,"PARK CITY OUTLET CENTER, 6699 N LANDMARK DR, STE G105B",UT,84098
Journeys,LAS VEGAS,1558,#001558 #01558 #1558 01558,"TOWN SQ MALL, 6623 LAS VEGAS BLVD S, STE A137",NV,89119-3245
Journeys,TROY,1560,#001560 #01560 #1560 01560,"SOMERSET COLLECTION, 2800 W BIG BEAVER RD, STE W330",MI,48084
Journeys,JANESVILLE,1561,#001561 #01561 #1561 01561,"JANESVILLE MALL, 2500 MILTON AVE, STE 159",WI,53546
Journeys,TUPELO,1562,#001562 #01562 #1562 01562,"MALL AT BARNES CROSSING, 1001 BARNES CROSSING, STE 614",MS,38804
Journeys,LOUISVILLE,1564,#001564 #01564 #1564 01564,"JEFFERSON MALL, 4801 OUTER LOOP, STE A232",KY,40219
Journeys,VIENNA,1565,#001565 #01565 #1565 01565,"GRAND CENTRAL MALL, 247 GRAND CENTRAL AVE, STE 6042",WV,26105
Journeys,MACON,1566,#001566 #01566 #1566 01566,"SHOPPES AT RIVER CROSSING, 5080 RIVERSIDE DR, STE 304",GA,31210
Journeys,WILLIAMSBURG,1567,#001567 #01567 #1567 01567,"PRIME OUTLETS AT WILLIAMSBURG, 5555 RICHMOND RD, STE G120",VA,23188
Journeys,WATERTOWN,1568,#001568 #01568 #1568 01568,"SALMON RUN MALL , 21182 SALMON RUN MALL LOOP W",NY,13601
Journeys,BROOKLYN,1569,#001569 #01569 #1569 01569,"KINGS PLAZA MALL, 5157 KINGS PLAZA, STE 2025",NY,11234
Journeys,MERIDIAN,1570,#001570 #01570 #1570 01570,"BONITA LAKES MALL, 1000 BONITA LAKES MALL, STE 90",MS,39301
Journeys,PEARLAND,1571,#001571 #01571 #1571 01571,"PEARLAND TOWN CENTER, 11200 BROADWAY ST, STE 300",TX,77584
Journeys,WASHINGTON,1572,#001572 #01572 #1572 01572,"TANGER OUTLET CENTER, 2200 TANGER BLVD, STE 915",PA,15301
Journeys,PANAMA CITY BEACH,1573,#001573 #01573 #1573 01573,"PIER PARK, 204 BLUEFISH DR, STE 115",FL,32413
Journeys,DEER PARK,1574,#001574 #01574 #1574 01574,"TANGER OUTLET DEER PARK, 1538 THE ARCHES CIRCLE",NY,11729
Journeys,WESLEY CHAPEL,1576,#001576 #01576 #1576 01576,"THE SHOPS AT WIREGRASS, 28152 PASEO DR, STE 180",FL,33544-5369
Journeys,WHITEHALL,1579,#001579 #01579 #1579 01579,"LEHIGH VALLEY MALL, 141 LEHIGH VALLEY MALL",PA,18052
Journeys,MURRAY,1582,#001582 #01582 #1582 01582,"FASHION PLACE MALL, 6191 S STATE ST, STE 1795",UT,84107
Journeys,FRANKLIN,1583,#001583 #01583 #1583 01583,"COOLSPRINGS GALLERIA, 1800 GALLERIA BLVD, SPC 2461",TN,37067-1605
Journeys,ARLINGTON,1584,#001584 #01584 #1584 01584,"THE PARKS AT ARLINGTON, 3811 S COOPER ST, STE 1200",TX,76015-4148
Journeys,HOUSTON,1585,#001585 #01585 #1585 01585,"WILLOWBROOK MALL, 2000 WILLOWBROOK MALL, STE 1398",TX,77070-5715
Journeys,MCALLEN,1586,#001586 #01586 #1586 01586,"LA PLAZA MALL, 2200 S 10TH ST, STE D04",TX,78503-5435
Journeys,KENNEWICK,1587,#001587 #01587 #1587 01587,"COLUMBIA CENTER, 1321 N COLUMBIA CENTER BLVD, STE 475",WA,99336
Journeys,BOISE,1589,#001589 #01589 #1589 01589,"BOISE TOWNE SQUARE, 350 N MILWAUKEE ST, STE 2150",ID,83704
Journeys,WOODBRIDGE,1590,#001590 #01590 #1590 01590,"WOODBRIDGE CENTER, 411 WOODBRIDGE CTR DR, STE 2090",NJ,7095
Journeys,TUCSON,1591,#001591 #01591 #1591 01591,"TUCSON MALL, 4500 N ORACLE RD, STE 139",AZ,85705-1606
Journeys,SAN MARCOS,1592,#001592 #01592 #1592 01592,"TANGER OUTLET CENTER, 4015 S INTERSTATE 35 FRONTAGE RD, STE 930",TX,78666
Journeys,OKLAHOMA CITY,1593,#001593 #01593 #1593 01593,"QUAIL SPRINGS MALL, 2501 W MEMORIAL RD, STE 154",OK,73134
Journeys,HENDERSON,1594,#001594 #01594 #1594 01594,"GALLERIA AT SUNSET, 1300 W SUNSET RD, STE 2249",NV,89014
Journeys,ONTARIO,1595,#001595 #01595 #1595 01595,"ONTARIO MILLS, 1 MILLS CIRCLE, STE 304",CA,91764-5200
Journeys,MODESTO,1596,#001596 #01596 #1596 01596,"VINTAGE FAIRE MALL, 3401 DALE RD, STE 403",CA,95356-0556
Journeys,GREENVILLE,1598,#001598 #01598 #1598 01598,"HAYWOOD MALL, 700 HAYWOOD RD, STE 2115A",SC,29607
Journeys,MIAMI,1599,#001599 #01599 #1599 01599,"DOLPHIN MALL, 11401 NW 12TH ST, STE E-293",FL,33172
Journeys,FRIENDSWOOD,1600,#001600 #01600 #1600 01600,"BAYBROOK MALL, 1370 BAYBROOK MALL DRIVE",TX,77546-2740
Journeys,NORTHRIDGE,1601,#001601 #01601 #1601 01601,"NORTHRIDGE FASHION CTR, 9301 TAMPA AVE, UNIT 171",CA,91324-2501
Journeys,FAYETTEVILLE,1602,#001602 #01602 #1602 01602,"NORTHWEST ARKANSAS MALL, 4201 N SHILOH DR, SPC 304",AR,72703-5197
Journeys,SAN ANTONIO,1603,#001603 #01603 #1603 01603,"INGRAM PARK MALL, 6301 NW LOOP 410",TX,78238
Journeys,MESQUITE,1604,#001604 #01604 #1604 01604,"TOWN EAST MALL, 2063 TOWN EAST MALL, STE 2016",TX,75150-4118
Journeys,ALBUQUERQUE,1605,#001605 #01605 #1605 01605,"CORONADO CENTER, 6600 MENAUL BLVD NE, STE 253",NM,87110-3445
Journeys,FAYETTEVILLE,1606,#001606 #01606 #1606 01606,"CROSS CREEK MALL, 244 CROSS CREEK MALL",NC,28303
Journeys,IRVING,1608,#001608 #01608 #1608 01608,"IRVING MALL, 3736 IRVING MALL, STE E-8A",TX,75062-5156
Journeys,DALLAS,1609,#001609 #01609 #1609 01609,"VALLEY VIEW MALL, 13331 PRESTON RD, STE 1158",TX,75240
Journeys,HATTIESBURG,1610,#001610 #01610 #1610 01610,"TURTLE CREEK MALL, 1000 TURTLE CREEK DR, STE 400",MS,39402
Journeys,LAREDO,1611,#001611 #01611 #1611 01611,"MALL DEL NORTE, 5300 SAN DARIO AVE, STE 144",TX,78041-3000
Journeys,INDEPENDENCE,1612,#001612 #01612 #1612 01612,"INDEPENDENCE CENTER, 18801 E 39TH ST S",MO,64057
Journeys,LEXINGTON,1613,#001613 #01613 #1613 01613,"FAYETTE MALL, 3401 NICHOLASVILLE RD, STE D-404",KY,40503
Journeys,BEAUMONT,1614,#001614 #01614 #1614 01614,"PARKDALE MALL, 6155 EASTEX FWY, STE 708",TX,77706
Journeys,BATON ROUGE,1615,#001615 #01615 #1615 01615,"MALL OF LOUISIANA , 6401 BLUEBONNET BLVD, STE 2060",LA,70836
Journeys,PHOENIX,1616,#001616 #01616 #1616 01616,"METROCENTER, 9617 N METRO PKWY W, STE 2022",AZ,85051
Journeys,WINSTON-SALEM,1617,#001617 #01617 #1617 01617,"HANES MALL, 3320 SILAS CREEK PKWY",NC,27103-3032
Journeys,PARAMUS,1618,#001618 #01618 #1618 01618,"GARDEN STATE PLAZA , 1 GARDEN STATE PLAZA, STE 1203",NJ,07652-2411
Journeys,NATIONAL CITY,1619,#001619 #01619 #1619 01619,"PLAZA BONITA , 3030 PLAZA BONITA RD, STE 2046",CA,91950-8007
Journeys,ST LOUIS,1620,#001620 #01620 #1620 01620,"SOUTH COUNTY, 445 S COUNTY CENTER WAY",MO,63129
Journeys,AMARILLO,1622,#001622 #01622 #1622 01622,"WESTGATE MALL, 7701 I-40 WEST, STE 652",TX,79121
Journeys,TEMPE,1623,#001623 #01623 #1623 01623,"ARIZONA MILLS, 5000 S ARIZONA MILLS CIRCLE, STE 531",AZ,85282
Journeys,TULSA,1624,#001624 #01624 #1624 01624,"WOODLAND HILLS MALL, 7021 S MEMORIAL DR, STE 130",OK,74133
Journeys,LAS VEGAS,1625,#001625 #01625 #1625 01625,"MEADOWS MALL, 4300 MEADOWS LN, STE 2210",NV,89107
Journeys,EL PASO,1626,#001626 #01626 #1626 01626,"CIELO VISTA MALL , 8401 GATEWAY W, STE A05A",TX,79925
Journeys,CHANDLER,1627,#001627 #01627 #1627 01627,"CHANDLER FASHION CENTER, 3111 W CHANDLER BLVD, STE 2134",AZ,85226
Journeys,FRISCO,1628,#001628 #01628 #1628 01628,"STONEBRIAR CENTRE, 2601 PRESTON RD, STE 1026",TX,75034
Journeys,OREM,1629,#001629 #01629 #1629 01629,"UNIVERSITY MALL , 575 E UNIVERSITY PKWY, STE M211",UT,84097
Journeys,CINCINNATI,1630,#001630 #01630 #1630 01630,"TRI-COUNTY MALL, 11700 PRINCETON PIKE, STE B211",OH,45246
Journeys,ORLANDO,1631,#001631 #01631 #1631 01631,"THE FLORIDA MALL, 8001 S ORANGE BLOSSOM TRAIL, STE 1208",FL,32809-7654
Journeys,ANNAPOLIS,1632,#001632 #01632 #1632 01632,"WESTFIELD ANNAPOLIS, 2002 ANNAPOLIS MALL",MD,21401-3008
Journeys,RALEIGH,1633,#001633 #01633 #1633 01633,"CRABTREE VALLEY MALL, 4325 GLENWOOD AVE, SPC 2062",NC,27612
Journeys,HOUSTON,1634,#001634 #01634 #1634 01634,"MEMORIAL CITY, 303 MEMORIAL CITY WAY, STE 570",TX,77024
Journeys,TAMPA,1635,#001635 #01635 #1635 01635,"INTERNATIONAL PLAZA, 2223 N WEST SHORE BLVD, STE 185",FL,33607
Journeys,HUMBLE,1636,#001636 #01636 #1636 01636,"DEERBROOK MALL, 20131 HIGHWAY 59 N, STE 2064",TX,77338-2334
Journeys,CHATTANOOGA,1637,#001637 #01637 #1637 01637,"HAMILTON PLACE , 2100 HAMILTON PLACE BLVD, STE 214",TN,37421
Journeys,BROWNSVILLE,1638,#001638 #01638 #1638 01638,"SUNRISE MALL, 2370 N EXPRESSWAY, STE 1182",TX,78526-4508
Journeys,SAN ANTONIO,1639,#001639 #01639 #1639 01639,"NORTH STAR MALL, 7400 SAN PEDRO AVE, STE 478",TX,78216-8315
Journeys,BALTIMORE,1640,#001640 #01640 #1640 01640,"WHITE MARSH MALL , 8200 PERRY HALL BLVD, STE 2335",MD,21236-4908
Journeys,ORLAND PARK,1641,#001641 #01641 #1641 01641,"ORLAND SQUARE, 204 ORLAND SQUARE DR, STE B02",IL,60462
Journeys,NAPLES,1642,#001642 #01642 #1642 01642,"COASTLAND CENTER , 1994 TAMIAMI TRAIL N, STE E11",FL,34102
Journeys,LOUISVILLE,1643,#001643 #01643 #1643 01643,"MALL ST MATTHEWS, 5000 SHELBYVILLE RD, STE 1366",KY,40207
Journeys,NORTH WALES,1645,#001645 #01645 #1645 01645,"MONTGOMERY MALL, 216 MONTGOMERY MALL, STE 2092",PA,19454-3904
Journeys,LANGHORNE,1646,#001646 #01646 #1646 01646,"OXFORD VALLEY MALL, 2300 E LINCOLN HWY, STE 235",PA,19047
Journeys,ORLANDO,1647,#001647 #01647 #1647 01647,"ORLANDO FASHION SQUARE, 3435 E COLONIAL DR, STE C-16",FL,32803
Journeys,DEPTFORD,1648,#001648 #01648 #1648 01648,"DEPTFORD MALL, 1750 DEPTFORD CENTER RD, STE 1237",NJ,8096
Journeys,BAKERSFIELD,1649,#001649 #01649 #1649 01649,"VALLEY PLAZA MALL, 2701 MING AVE, STE 305",CA,93304
Journeys,ST PETERS,1650,#001650 #01650 #1650 01650,"MID RIVERS MALL, 1600 MID RIVERS MALL, STE 2100",MO,63376
Journeys,LAKE GROVE,1651,#001651 #01651 #1651 01651,"SMITH HAVEN MALL, 313 SMITH HAVEN MALL, STE 248",NY,11755
Journeys,CHESTERFIELD,1652,#001652 #01652 #1652 01652,"CHESTERFIELD MALL, 291 CHESTERFIELD MALL, STE 245",MO,63017
Journeys,KING OF PRUSSIA,1653,#001653 #01653 #1653 01653,"PLAZA AT KING OF PRUSSIA, 160 N GULPH RD, STE 1055",PA,19406
Journeys,MONROE,1654,#001654 #01654 #1654 01654,"PECANLAND MALL, 4700 MILHAVEN RD, STE 1428",LA,71203-7033
Journeys,MISHAWAKA,1655,#001655 #01655 #1655 01655,"UNIVERSITY PARK MALL, 6501 N GRAPE RD, STE 360B",IN,46545-1007
Journeys,ALBUQUERQUE,1656,#001656 #01656 #1656 01656,"COTTONWOOD MALL, 10000 COORS BYPASS NW, STE G210",NM,87114-4040
Journeys,ELIZABETH,1657,#001657 #01657 #1657 01657,"JERSEY GARDENS, 651 KAPKOWSKI RD, STE 2210",NJ,7201
Journeys,NOVI,1658,#001658 #01658 #1658 01658,"TWELVE OAKS MALL, 27338 NOVI RD, STE D160",MI,48377
Journeys,BUFORD,1659,#001659 #01659 #1659 01659,"MALL OF GEORGIA, 3333 BUFORD DR, STE 1007",GA,30519
Journeys,FORT WAYNE,1660,#001660 #01660 #1660 01660,"GLENBROOK SQUARE, 4201 COLDWATER RD, SPC F01",IN,46805
Journeys,DES PERES,1661,#001661 #01661 #1661 01661,"WEST COUNTY CENTRE, 161 W COUNTY CENTRE, STE 2237",MO,63131
Journeys,THE WOODLANDS,1662,#001662 #01662 #1662 01662,"THE WOODLANDS MALL, 1201 LAKE WOODLANDS DR, STE 2134",TX,77380
Journeys,KENNESAW,1663,#001663 #01663 #1663 01663,"TOWN CENTER AT COBB, 400 ERNEST W BARRETT PKWY, STE 137",GA,30144-4950
Journeys,EL PASO,1664,#001664 #01664 #1664 01664,"SUNLAND PARK MALL, 750 SUNLAND PARK DR, STE C02",TX,79912
Journeys,KENNER,1665,#001665 #01665 #1665 01665,"THE ESPLANADE , 1401 W ESPLANADE AVE",LA,70065
Journeys,CEDAR PARK,1666,#001666 #01666 #1666 01666,"LAKELINE MALL , 11200 LAKELINE MALL DR, STE B03",TX,78613
Journeys,LUBBOCK,1667,#001667 #01667 #1667 01667,"SOUTH PLAINS MALL, 6002 SLIDE RD, STE G22",TX,79414
Journeys,STRONGSVILLE,1668,#001668 #01668 #1668 01668,"WESTFIELD SOUTHPARK SHOPPING CENTER, 500 SOUTHPARK CENTER, STE 1136",OH,44136
Journeys,NASHVILLE,1669,#001669 #01669 #1669 01669,"OPRY MILLS MALL, 433 OPRY MILLS DR, SPC 748",TN,37214
Journeys,OKLAHOMA CITY,1670,#001670 #01670 #1670 01670,"PENN SQUARE MALL, 1901 NW EXPRESSWAY, STE 2094",OK,73118
Journeys,PEORIA,1671,#001671 #01671 #1671 01671,"NORTHWOODS MALL, 2200 W WAR MEMORIAL DR",IL,61613
Journeys,LAFAYETTE,1673,#001673 #01673 #1673 01673,"THE MALL OF ACADIANA, 5725 JOHNSTON ST, STE B-126",LA,70503
Journeys,EVANSVILLE,1674,#001674 #01674 #1674 01674,"EASTLAND MALL, 800 N GREEN RIVER RD, STE 62A",IN,47715
Journeys,EATONTOWN,1675,#001675 #01675 #1675 01675,"MONMOUTH MALL, 180 STATE ROUTE 35, STE 2140",NJ,7724
Journeys,DAYTON,1676,#001676 #01676 #1676 01676,"FAIRFIELD COMMONS, 2727 FAIRFIELD COMMONS BLVD, STE W165",OH,45431
Journeys,DANBURY,1677,#001677 #01677 #1677 01677,"DANBURY FAIR MALL , 7 BACKUS AVE, STE C210",CT,6810
Journeys,HOLYOKE,1678,#001678 #01678 #1678 01678,"HOLYOKE MALL, 50 HOLYOKE ST, STE B312",MA,1040
Journeys,SPRINGFIELD,1679,#001679 #01679 #1679 01679,"BATTLEFIELD MALL, 2825 S GLENSTONE AVE, STE R03",MO,65804
Journeys,AUBURN HILLS,1680,#001680 #01680 #1680 01680,"GREAT LAKES CROSSING, 4592 BALDWIN RD, STE 811",MI,48326
Journeys,LEWISVILLE,1681,#001681 #01681 #1681 01681,"VISTA RIDGE MALL, 2401 S STEMMONS FREEWAY, STE 2142",TX,75067
Journeys,CLEARWATER,1682,#001682 #01682 #1682 01682,"COUNTRYSIDE MALL, 27001 US HIGHWAY 19 N, STE 1034",FL,33761
Journeys,DOUGLASVILLE,1683,#001683 #01683 #1683 01683,"ARBOR PLACE MALL, 6700 DOUGLAS BLVD, STE 1515",GA,30135
Journeys,BRANDON,1684,#001684 #01684 #1684 01684,"WESTFIELD BRANDON SHOPPING CENTER, 459 BRANDON TOWN CENTER MALL, STE 354",FL,33511
Journeys,EXTON,1685,#001685 #01685 #1685 01685,"EXTON SQUARE MALL, 259 EXTON SQUARE MALL, STE 2855",PA,19341
Journeys,CARLSBAD,1686,#001686 #01686 #1686 01686,"PLAZA CAMINO REAL, 2525 EL CAMINO REAL, STE 121",CA,92008
Journeys,MESA,1687,#001687 #01687 #1687 01687,"SUPERSTITION SPRINGS, 6555 E SOUTHERN AVE, STE 1026",AZ,85206
Journeys,SEATTLE,1689,#001689 #01689 #1689 01689,"WESTFIELD SOUTHCENTER SHOPPING CENTER, 2800 SOUTHCENTER MALL, STE 991",WA,98188
Journeys,BLOOMINGTON,1690,#001690 #01690 #1690 01690,"COLLEGE MALL, 2936 E 3RD ST, STE C-08",IN,47401
Journeys,CORPUS CHRISTI,1691,#001691 #01691 #1691 01691,"LA PALMERA, 5488 S PADRE ISLAND DRIVE, STE 1630",TX,78411
Journeys,SUGAR LAND,1692,#001692 #01692 #1692 01692,"FIRST COLONY MALL, 16535 SOUTHWST FWY, STE 115",TX,77479
Journeys,DUBLIN,1693,#001693 #01693 #1693 01693,"MALL AT TUTTLE CROSSING, 5043 TUTTLE CROSSING BLVD, STE 159",OH,43016
Journeys,GREENWOOD,1694,#001694 #01694 #1694 01694,"GREENWOOD PARK MALL, 1251 US HIGHWAY 31 N",IN,46142
Journeys,BURNSVILLE,1695,#001695 #01695 #1695 01695,"BURNSVILLE CENTER, 1178 BURNSVILLE CENTER, STE 1033",MN,55306
Journeys,MEMPHIS,1696,#001696 #01696 #1696 01696,"WOLFCHASE GALLERIA, 2670 N GERMANTOWN PKWY, STE 2390",TN,38133
Journeys,AIEA,1697,#001697 #01697 #1697 01697,"PEARLRIDGE CENTER, 98-1005 MOANALUA RD, SPC 154",HI,96701
Journeys,FLORENCE,1698,#001698 #01698 #1698 01698,"FLORENCE MALL, 2028 FLORENCE MALL, STE 1170",KY,41042
Journeys,SANTA ROSA,1699,#001699 #01699 #1699 01699,"SANTA ROSA PLAZA, 1071 SANTA ROSA PLAZA, STE 1063",CA,95401
Journeys,SANDY,1700,#001700 #01700 #1700 01700,"SOUTH TOWNE CENTER, 10450 S STATE ST, STE 2250",UT,84070
Journeys,PITTSBURGH,1701,#001701 #01701 #1701 01701,"THE MALL AT ROBINSON, 100 ROBINSON CTR DR, SPC 2350",PA,15205
Journeys,SYRACUSE,1702,#001702 #01702 #1702 01702,"DESTINY USA, 9090 DESTINY USA DR, SPC F102",NY,13204
Journeys,COLUMBUS,1703,#001703 #01703 #1703 01703,"POLARIS FASHION PLACE, 1500 POLARIS PKWY, STE 2192",OH,43240
Journeys,MASSAPEQUA,1704,#001704 #01704 #1704 01704,"WESTFIELD SUNRISE SHOPPING CENTER, ONE SUNRISE MALL, STE 1175",NY,11758
Journeys,ROSEVILLE,1705,#001705 #01705 #1705 01705,"GALLERIA @ ROSEVILLE, 1151 GALLERIA BLVD, STE 1015",CA,95678
Journeys,BAY SHORE,1706,#001706 #01706 #1706 01706,"WESTFIELD SOUTH SHORE SHOPPING CENTER, 1701 SUNRISE HWY",NY,11706
Journeys,MARY ESTHER,1707,#001707 #01707 #1707 01707,"SANTA ROSA MALL, 300 MARY ESTHER BLVD, STE 29",FL,32569
Journeys,CANTON,1708,#001708 #01708 #1708 01708,"WESTFIELD BELDEN VILLAGE MALL, 4230 BELDEN VILLAGE MALL, SPC B4",OH,44718
Journeys,MAYS LANDING,1709,#001709 #01709 #1709 01709,"HAMILTON MALL, 4403 BLACK HORSE PIKE, STE 249",NJ,8330
Journeys,FLINT,1710,#001710 #01710 #1710 01710,"GENESEE VALLEY CENTER, 3341 S LINDEN RD, STE 370A",MI,48507
Journeys,ALBANY,1712,#001712 #01712 #1712 01712,"CROSSGATES MALL , 1 CROSSGATES MALL RD, STE L102",NY,12203
Journeys,MOBILE,1713,#001713 #01713 #1713 01713,"COLONIAL BEL AIR MALL, 3262 BEL AIR MALL, SPC A12",AL,36606
Journeys,JOHNSON CITY,1715,#001715 #01715 #1715 01715,"OAKDALE MALL, 601-635 HARRY L. DR, STE 73",NY,13790
Journeys,WILMINGTON,1717,#001717 #01717 #1717 01717,"INDEPENDENCE MALL, 3500 OLEANDER DR, STE A26",NC,28403
Journeys,KILLEEN,1718,#001718 #01718 #1718 01718,"KILLEEN MALL, 2100 SOUTH WS YOUNG DRIVE, STE 1080",TX,76543
Journeys,FOLEY,1719,#001719 #01719 #1719 01719,"TANGER OUTLET CENTER, 2601 S MCKENZIE ST, SPC 172",AL,36535
Journeys,RIDGELAND,1721,#001721 #01721 #1721 01721,"NORTHPARK MALL , 1200 E COUNTY LINE RD, STE 160",MS,39157
Journeys,SAINT PAUL,1722,#001722 #01722 #1722 01722,"MAPLEWOOD MALL, 3001 WHITE BEAR AVE, STE 2024",MN,55109
Journeys,VANCOUVER,1723,#001723 #01723 #1723 01723,"WESTFIELD VANCOUVER SHOPPING CENTER, 8700 NE VANCOUVER MALL DR, STE 237",WA,98662
Journeys,OLYMPIA,1724,#001724 #01724 #1724 01724,"WESTFIELD CAPITAL SHOPPING CENTER, 625 BLACK LAKE BLVD, STE 350",WA,98502
Journeys,FRANKLIN,1725,#001725 #01725 #1725 01725,"COOLSPRINGS GALLERIA, 1800 GALLERIA BLVD, STE 2350",TN,37067
Journeys,ST PETERS,1726,#001726 #01726 #1726 01726,"MID RIVERS MALL, 1600 MID RIVERS MALL, STE 2240",MO,63376
Journeys,DES PERES,1727,#001727 #01727 #1727 01727,"WEST COUNTY CENTRE, 147 WEST CO. CENTRE, STE 2187",MO,63131
Journeys,BAKERSFIELD,1728,#001728 #01728 #1728 01728,"VALLEY PLAZA MALL, 2701 MING AVE, STE 243",CA,93304
Journeys,BLOOMINGTON,1729,#001729 #01729 #1729 01729,"MALL OF AMERICA, 268 EAST BROADWAY",MN,55425
Journeys,SAN ANTONIO,1730,#001730 #01730 #1730 01730,"INGRAM PARK MALL, 6301 NW LOOP 410, STE N09",TX,78238-3801
Journeys,FRIENDSWOOD,1731,#001731 #01731 #1731 01731,"BAYBROOK MALL, 1332 BAYBROOK MALL DRIVE",TX,77546-2740
Journeys,ROCKAWAY,1732,#001732 #01732 #1732 01732,"ROCKAWAY TOWNSQUARE MALL, 301 MT HOPE AVE, STE 2049A",NJ,07866-2130
Journeys,FRISCO,1733,#001733 #01733 #1733 01733,"STONEBRIAR CENTRE, 2601 PRESTON RD, STE 2026",TX,75034
Journeys,ARLINGTON,1734,#001734 #01734 #1734 01734,"THE PARKS AT ARLINGTON, 3811 S COOPER ST, STE 2044",TX,76015-4120
Journeys,CORPUS CHRISTI,1735,#001735 #01735 #1735 01735,"PADRE STAPLES MALL, 5488 S PADRE ISLAND DR, STE 1502",TX,78411-4118
Journeys,INDEPENDENCE,1736,#001736 #01736 #1736 01736,"INDEPENDENCE CENTER , 18801 E 39TH ST S",MO,64057-1731
Journeys,HUMBLE,1737,#001737 #01737 #1737 01737,"DEERBROOK MALL, 20131 HWY 59 NORTH, STE 1172",TX,77338
Journeys,TOLEDO,1738,#001738 #01738 #1738 01738,"FRANKLIN PARK, 5001 MONROE ST, STE 1240",OH,43623
Journeys,FORT WAYNE,1739,#001739 #01739 #1739 01739,"GLENBROOK SQUARE, 4201 COLDWATER RD",IN,46805-1187
Journeys,WEST NYACK,1740,#001740 #01740 #1740 01740,"PALISADES CENTER, 3472 PALISADES CENTER DR, STE B308",NY,10994
Journeys,NOVI,1741,#001741 #01741 #1741 01741,"TWELVE OAKS MALL, 27250 NOVI RD, STE B129",MI,48377
Journeys,MODESTO,1742,#001742 #01742 #1742 01742,"VINTAGE FAIRE MALL, 3401 DALE RD, STE 147",CA,95356-0556
Journeys,HOOVER,1743,#001743 #01743 #1743 01743,"RIVERCHASE GALLERIA, 2000 RIVERCHASE GALLERIA, STE 289",AL,35244
Journeys,STRONGSVILLE,1745,#001745 #01745 #1745 01745,"SOUTHPARK MALL, 500 SOUTHPARK CENTER",OH,44136
Journeys,KENNESAW,1746,#001746 #01746 #1746 01746,"TOWN CENTER AT COBB, 400 BARRETT PKWY, STE 209",GA,30144-4950
Journeys,TUCSON,1747,#001747 #01747 #1747 01747,"TUCSON MALL, 4500 N ORACLE RD, STE 273",AZ,85705-1606
Journeys,WOODBRIDGE,1749,#001749 #01749 #1749 01749,"WOODBRIDGE CENTER MALL, 250 WOODBRIDGE CTR DR, STE 350",NJ,7095
Journeys,LEXINGTON,1750,#001750 #01750 #1750 01750,"FAYETTE MALL, 3401 NICHOLASVILLE RD, STE 512",KY,40503
Journeys,NASHVILLE,1752,#001752 #01752 #1752 01752,"OPRY MILLS MALL, 433 OPRY MILLS DR, SPC 263",TN,37214
Journeys,ROSEVILLE,1753,#001753 #01753 #1753 01753,"ROSEDALE CENTER, 1000 ROSEDALE CTR, STE 525",MN,55113-3005
Journeys,JERSEY CITY,1754,#001754 #01754 #1754 01754,"NEWPORT CENTRE, 30 MALL DR W., STE A42A",NJ,7310
Journeys,COLUMBUS,1755,#001755 #01755 #1755 01755,"POLARIS FASHION PLACE, 1500 POLARIS PKWY, STE 2034",OH,43240
Journeys,GURNEE,1756,#001756 #01756 #1756 01756,"GURNEE MILLS, 6170 W GRAND AVE, STE 775",IL,60031-1701
Journeys,EATONTOWN,1758,#001758 #01758 #1758 01758,"MONMOUTH MALL, 180 ROUTE 35 S, STE 2115",NJ,7724
Journeys,ALBANY,1759,#001759 #01759 #1759 01759,"CROSSGATES MALL, 1 CROSSGATES MALL RD, SPC K203",NY,12203
Journeys,DAYTON,1760,#001760 #01760 #1760 01760,"DAYTON MALL, 2700 MIAMISBURG-CENTERVILLE RD, SPC 250",OH,45459
Journeys,WILLOW GROVE,1761,#001761 #01761 #1761 01761,"WILLOW GROVE PARK , WEST 2500 MORELAND RD, STE 2033",PA,19090
Journeys,GREENWOOD,1762,#001762 #01762 #1762 01762,"GREENWOOD PARK MALL, 1251 U.S. HWY 31",IN,46142
Journeys,CLINTON TOWNSHIP,1763,#001763 #01763 #1763 01763,"MALL @ PARTRIDGE CREEK, 17410 HALL RD, STE 171",MI,48038
Journeys,LAKE GROVE L.I.,1764,#001764 #01764 #1764 01764,"SMITH HAVEN MALL, 405 SMITH HAVEN MALL, STE C03",NY,11755
Journeys,AUBURN HILLS,1765,#001765 #01765 #1765 01765,"GREAT LAKES CROSSING, 4282 BALDWIN RD, STE 526",MI,48326
Journeys,SAN MARCOS,1766,#001766 #01766 #1766 01766,"TANGER OUTLET CENTER, 4015 S INTERSTATE 35 FRONTAGE RD, SPC 715",TX,78666
Journeys,BRANDON,1768,#001768 #01768 #1768 01768,"BRANDON - WESTFIELD , 554 BRANDON TOWN CENTER, STE 554",FL,33511
Journeys,DUBLIN,1769,#001769 #01769 #1769 01769,"MALL AT TUTTLE CROSSING, 5043 TUTTLE CROSSING BLVD, STE 231",OH,43016
Journeys,GRANDVILLE,1770,#001770 #01770 #1770 01770,"RIVERTOWN CROSSINGS, 3700 RIVERTOWN PKWY, STE 1186",MI,49418
Journeys,MISHAWAKA,1771,#001771 #01771 #1771 01771,"UNIVERSITY PARK MALL, 6501 N GRAPE RD, STE 454",IN,46545
Journeys,WINSTON-SALEM,1772,#001772 #01772 #1772 01772,"HANES MALL , 3320 SILAS CREEK",NC,27103
Journeys,HOLYOKE,1773,#001773 #01773 #1773 01773,"HOLYOKE MALL, 50 HOLYOKE ST, STE H-311",MA,1040
Journeys,RALEIGH,1774,#001774 #01774 #1774 01774,"CRABTREE VALLEY MALL, 4325 GLENWOOD AVE, STE 1064A",NC,27612
Journeys,ALBUQUERQUE,1775,#001775 #01775 #1775 01775,"COTTONWOOD MALL, 10000 COORS BLVD BYP NW, STE G205",NM,87114
Journeys,INDIANAPOLIS,1777,#001777 #01777 #1777 01777,"CASTLETON SQUARE, 6020 EAST 82ND ST, STE 928",IN,46250
Journeys,SANDY,1778,#001778 #01778 #1778 01778,"SOUTH TOWNE CENTER, 10450 S STATE ST, STE 1222",UT,84070
Journeys,EL PASO,1779,#001779 #01779 #1779 01779,"CIELO VISTA MALL, 8401 GATEWAY BLVD W, STE J08",TX,79925
Journeys,MIDLAND,1780,#001780 #01780 #1780 01780,"MIDLAND PARK MALL, 4511 N MIDKIFF RD, STE F-07",TX,79705
Journeys,VALLEY STREAM,1781,#001781 #01781 #1781 01781,"GREEN ACRES MALL, 1057 GREEN ACRES MALL, STE 18",NY,11581-1531
Journeys,BROOKFIELD,1783,#001783 #01783 #1783 01783,"BROOKFIELD SQUARE MALL, 95 N MOORLAND RD, STE D14",WI,53005-6053
Journeys,VISALIA,1784,#001784 #01784 #1784 01784,"VISALIA MALL, 2135 S MOONEY BLVD, STE 1660",CA,93277
Journeys,ARLINGTON,1785,#001785 #01785 #1785 01785,"FASHION CENTER AT PENTAGON CITY, 1100 S HAYES ST",VA,22202-4907
Journeys,ST AUGUSTINE,1786,#001786 #01786 #1786 01786,"PRIME OUTLETS ST. AUGUSTINE, 500 PRIME OUTLETS BLVD, STE 80",FL,32084-0388
Journeys,JOLIET,1787,#001787 #01787 #1787 01787,"LOUIS JOLIET - WESTFIELD, 3340 MALL LOOP, SPC 1216",IL,60431
Journeys,FAIRVIEW HEIGHTS,1788,#001788 #01788 #1788 01788,"ST CLAIR SQUARE, 134 ST CLAIR SQUARE, STE 144",IL,62208
Journeys,DAYTONA BEACH,1789,#001789 #01789 #1789 01789,"VOLUSIA MALL, 1700 W INTERNATIONAL SPDWY BLVD, STE 586",FL,32114
Journeys,DESTIN,1790,#001790 #01790 #1790 01790,"SILVER SANDS FACTORY STORES, 10562 EMERALD COAST PWKY, SPC 100",FL,32550-4999
Journeys,ORLANDO,1792,#001792 #01792 #1792 01792,"THE MALL AT MILLENIA, 4200 CONROY RD, STE 203",FL,32839
Journeys,GREENSBORO,1795,#001795 #01795 #1795 01795,"FOUR SEASONS TOWN CENTRE, 410 FOUR SEASONS TOWN CTR, STE 138",NC,27427
Journeys,HAMPTON,1796,#001796 #01796 #1796 01796,"PENINSULA TOWN CENTER, 2366 MCMENAMIN ST, SPC E-130",VA,23666
Journeys,COLUMBUS,1797,#001797 #01797 #1797 01797,"EASTON TOWN CENTER, 121 EASTON TOWN CENTER, SPC B104",OH,43219
Journeys,AVENTURA,1798,#001798 #01798 #1798 01798,"AVENTURA MALL, 19575 BISCAYNE BLVD, STE 1305",FL,33180
Journeys,NEW YORK,1802,#001802 #01802 #1802 01802,"626 BROADWAY,",NY,10012
Journeys,GRAPEVINE,1803,#001803 #01803 #1803 01803,"GRAPEVINE MILLS, 3000 GRAPEVINE MILLS PKWY, STE 423",TX,76051
Journeys,BLOOMINGTON,1804,#001804 #01804 #1804 01804,"MALL OF AMERICA, N GARDEN",MN,55425
Journeys,TINTON FALLS,1805,#001805 #01805 #1805 01805,"JERSEY SHORE PREMIUM OUTLETS, 1 PREMIUM OUTLET BLVD",NJ,7753
Journeys,CLARKSVILLE,1806,#001806 #01806 #1806 01806,"GOVERNOR'S SQUARE, 2801 WILMA RUDOLPH BLVD",TN,37040
Journeys,KNOXVILLE,1810,#001810 #01810 #1810 01810,"WEST TOWN MALL, 7600 KINGSTON PKE, STE 1506",TN,37919
Journeys,OKLAHOMA CITY,1811,#001811 #01811 #1811 01811,"THE OUTLET SHOPPES, 7642 WEST RENO AVENUE, SPC D445",OK,73127
Journeys,SAN ANTONIO,1813,#001813 #01813 #1813 01813,"SOUTH PARK MALL, 2310 SW MILITARY DR, STE 416",TX,78224
Journeys,MONTGOMERY,1816,#001816 #01816 #1816 01816,"EASTDALE MALL, 1051 EASTDALE MALL",AL,36117
Journeys,SAN FRANCISCO,1829,#001829 #01829 #1829 01829,236 POWELL STREET,CA,94102
Journeys,TOLEDO,1831,#001831 #01831 #1831 01831,"FRANKLIN PARK, 5001 MONROE ST, SPC 1135",OH,43623
Journeys,GRAND PRAIRIE,1832,#001832 #01832 #1832 01832,"PARAGON OUTLETS GRAND PRAIRIE, 2950 W INTERSTATE 20, SPC 920",TX,75052
Journeys,CONCORD,1834,#001834 #01834 #1834 01834,"CONCORD MILLS, 8111 CONCORD MILLS BLVD, SPC 205",NC,28027
Journeys,WEST DES MOINES,1835,#001835 #01835 #1835 01835,"JORDAN CREEK TOWN CENTER, 101 JORDAN CREEK PKWY, STE 12280",IA,50266
Journeys,CAMARILLO,1836,#001836 #01836 #1836 01836,"CAMARILLO OUTLETS, 620 E VENTURA BLVD",CA,93010
Journeys,BEACHWOOD,1837,#001837 #01837 #1837 01837,"BEACHWOOD PLACE, 26300 CEDAR RD, SPC 2090",OH,44122
Journeys,SOUTHLAKE,1838,#001838 #01838 #1838 01838,"SOUTHLAKE TOWN SQUARE, 234 STATE STREET",TX,76092
Journeys,NORTH RIVERSIDE,1839,#001839 #01839 #1839 01839,"NORTH RIVERSIDE PARK MALL, 7501 W CERMAK RD, STE M7",IL,60546
Journeys,CHARLOTTE,1840,#001840 #01840 #1840 01840,"SOUTHPARK, 4400 SHARON RD, SPC K01",NC,28211
Journeys,LIVERMORE,1841,#001841 #01841 #1841 01841,"PARAGON OUTLETS LIVERMORE VALLEY, 3060 PARAGON OUTLERS DR",CA,94551
Journeys,LEHI,1844,#001844 #01844 #1844 01844,"OUTLETS AT TRAVERSE MOUNTAIN, 3700 N. CABELAS BLVD, SPC 359",UT,84043
Journeys,PINEVILLE,1845,#001845 #01845 #1845 01845,"CAROLINA PLACE, 11025 CAROLINA PLACE PKWY, SPC D26A",NC,28134
Journeys,MERRILLVILLE,1846,#001846 #01846 #1846 01846,"SOUTHLAKE MALL, 2002 SOUTHLAKE MALL, SPC 200",IN,46410
Journeys,FAIRFIELD,1849,#001849 #01849 #1849 01849,"WESTERN HILLS MALL, 7201 AARON ARONOV DR, SPC 7",AL,35064-1831
Journeys,NORTH LITTLE ROCK,1850,#001850 #01850 #1850 01850,"MCCAIN MALL, 3929 MCCAIN BLVD, SPC KO1-A",AR,72116
Journeys,PHOENIX,1852,#001852 #01852 #1852 01852,"DESERT SKY MALL, 7611 W THOMAS RD, STE B40",AZ,85075-5441
Journeys,NATIONAL CITY,1853,#001853 #01853 #1853 01853,"WESTFIELD PLAZA BONITA, 3030 PLAZA BONITA RD, STE 1080",CA,91950-8010
Journeys,AURORA,1855,#001855 #01855 #1855 01855,"TOWN CENTER AT AURORA, 14200 E ALAMEDA AVE",CO,80012
Journeys,COLORADO SPRINGS,1856,#001856 #01856 #1856 01856,"THE CITADEL, 720 CITADEL DR E, STE 2040",CO,80909-5303
Journeys,BOYNTON BEACH,1857,#001857 #01857 #1857 01857,"BOYNTON BEACH MALL, 801 NORTH CONGRESS AVE, STE 759",FL,33426-3315
Journeys,CORAL SPRINGS,1858,#001858 #01858 #1858 01858,"CORAL SQUARE MALL, 9477 WEST ATLANTIC BLVD, SPC G-14",FL,33071-6945
Journeys,FT. MYERS,1859,#001859 #01859 #1859 01859,"EDISON MALL, 4125 CLEVELAND AVE, SPC 102",FL,33901-9046
Journeys,JACKSONVILLE,1860,#001860 #01860 #1860 01860,"THE AVENUES, 10300 SOUTHSIDE BLVD, STE #244",FL,32256-0770
Journeys,JACKSONVILLE,1861,#001861 #01861 #1861 01861,"REGENCY SQUARE, 9501 ARLINGTON EXPWY, SPC 165",FL,32225-8293
Journeys,MIAMI,1862,#001862 #01862 #1862 01862,"DOLPHIN MALL, 11401 NW 12TH ST, STE 260",FL,33172-6910
Journeys,ORLANDO,1863,#001863 #01863 #1863 01863,"FLORIDA MALL, 8001 S ORANGE BLOSSOM TRL, STE 778",FL,32809
Journeys,PENSACOLA,1864,#001864 #01864 #1864 01864,"CORDOVA MALL, 5100 N 9TH AVENUE, SPC C-325",FL,32504-8753
Journeys,TALLAHASSE,1866,#001866 #01866 #1866 01866,"GOVERNORS SQUARE, 1500 APALACHEE PKWY, STE 1100",FL,32301-3056
Journeys,AUGUSTA,1867,#001867 #01867 #1867 01867,"AUGUSTA MALL, 3450 WRIGHTSBORO RD",GA,30909-2516
Journeys,LITHONIA,1868,#001868 #01868 #1868 01868,"THE MALL AT STONECREST, 8000 MALL PKWY, SPC 1100",GA,30038-2542
Journeys,MORROW,1869,#001869 #01869 #1869 01869,"SOUTHLAKE MALL, 1217 SOUTHLAKE MALL",GA,30260-2324
Journeys,SAVANNAH,1870,#001870 #01870 #1870 01870,"OGLETHORPE MALL, 7804 ABERCORN ST, SPC 39",GA,31406-3500
Journeys,AURORA,1872,#001872 #01872 #1872 01872,"FOX VALLEY CTR, 2452 FOX VALLEY CTR DR, SPC B11",IL,60504-4140
Journeys,CHICAGO,1873,#001873 #01873 #1873 01873,"FORD CITY MALL, 7601 S CICERO AVE, STE 1258",IL,60652-1022
Journeys,JOLIET,1875,#001875 #01875 #1875 01875,"LOUIS JOLIET MALL, 1034 LOUIS JOLIET MALL",IL,60431-8835
Journeys,LINCOLNWOOD,1876,#001876 #01876 #1876 01876,"LINCOLNWOOD TOWN CTR, 3333 W TOUHY AVE, STE G8",IL,60712-2721
Journeys,NORRIDGE,1877,#001877 #01877 #1877 01877,"HARLEM IRVING PLAZA, 4134 E HARLEM AVE, STE 21",IL,60706
Journeys,NORTH RIVERSIDE,1878,#001878 #01878 #1878 01878,"NORTH RIVERSIDE PARK MALL, 7501 WEST CERMAK RD, STE E10",IL,60546-1461
Journeys,INDIANAPOLIS,1879,#001879 #01879 #1879 01879,"LAFAYETTE SQUARE, 3919 LAFAYETTE DR, STE 276",IN,46254-2531
Journeys,LOUISVILLE,1880,#001880 #01880 #1880 01880,"JEFFERSON MALL, 4801 OUTER LOOP, SPC 618",KY,40219-3201
Journeys,BATON ROUGE,1881,#001881 #01881 #1881 01881,"THE MALL AT CORTANA, 9477 CORTANA PLACE",LA,70815-8606
Journeys,MONROE,1884,#001884 #01884 #1884 01884,"PECANLAND MALL, 4700 MILL HAVEN, STE 1122",LA,71203-7027
Journeys,BALTIMORE,1885,#001885 #01885 #1885 01885,"MONDAWMIN MALL, 2401 LIBERTY HEIGHTS AVE., STE 3195",MD,21215-8019
Journeys,WHEATON,1887,#001887 #01887 #1887 01887,"WESTFIELD WHEATON, 11160 VEIRS MILL RD",MD,20902
Journeys,STERLING HEIGHTS,1888,#001888 #01888 #1888 01888,"LAKESIDE MALL, 14600 LAKESIDE CIRCLE, STE 2415",MI,48313-1320
Journeys,DEARBORN,1889,#001889 #01889 #1889 01889,"FAIRLANE CTR, 18900 MICHIGAN AVE, STE M115",MI,48126-3929
Journeys,HARPER WOODS,1890,#001890 #01890 #1890 01890,"EASTLAND CENTER, 18000 VERNIER RD, STE 129",MI,48225-1046
Journeys,ROSEVILLE,1891,#001891 #01891 #1891 01891,"MACOMB MALL, 32405 GRATIOT AVE",MI,48066-1156
Journeys,TROY,1893,#001893 #01893 #1893 01893,"OAKLAND MALL, 312 W 14 MILE RD",MI,48083-4218
Journeys,BILOXI,1895,#001895 #01895 #1895 01895,"EDGEWATER MALL, 2600 BEACH BLVD, STE 82",MS,39531-4601
Journeys,JACKSON,1896,#001896 #01896 #1896 01896,"METRO CENTER MALL, US 80 & 1-20, STE 79",MS,39209-7520
Journeys,ASHEVILLE,1897,#001897 #01897 #1897 01897,"ASHEVILLE MALL, 3 SOUTH TUNNEL RD",NC,28805
Journeys,DURHAM,1898,#001898 #01898 #1898 01898,"NORTHGATE MALL, 1058 W CLUB BLVD, STE 468",NC,27701-1115
Journeys,FAYETTEVILLE,1899,#001899 #01899 #1899 01899,"CROSS CREEK MALL, 243 CROSS CREEK MALL",NC,28303-7239
Journeys,GREENVILLE,1900,#001900 #01900 #1900 01900,"COLONIAL MALL, 714 GREENVILLE BLVD SE, STE E11",NC,27858-5141
Journeys,JACKSONVILLE,1901,#001901 #01901 #1901 01901,"JACKSONVILLE MALL, 331 JACKSONVILLE MALL",NC,28546-7350
Journeys,ROCKY MOUNT,1902,#001902 #01902 #1902 01902,"GOLDEN E CROSSING, 1100 N WESLEYAN BLVD, SPC 1012",NC,27804-1827
Journeys,PARAMUS,1903,#001903 #01903 #1903 01903,"WESTFIELD GARDEN STATE PLAZA, 1 GARDEN STATE PLAZA",NJ,07652-2404
Journeys,ALBUQUERQUE,1905,#001905 #01905 #1905 01905,"COTTONWOOD MALL, 10000 COORS BLVD BYP NW, STE E-227",NM,87114-4081
Journeys,ALBANY,1906,#001906 #01906 #1906 01906,"CROSSGATES MALL, 1 CROSSGATES MALL RD",NY,12203-5385
Journeys,BUFFALO,1907,#001907 #01907 #1907 01907,"WALDEN GALLERIA, 1 WALDEN GALLERIA DR, SPC A211",NY,14225-5408
Journeys,ELMHURST,1908,#001908 #01908 #1908 01908,"QUEENS CENTER, 90-15 QUEENS BLVD, STE 3034",NY,11373-4900
Journeys,ROCHESTER,1909,#001909 #01909 #1909 01909,"MARKET PLACE MALL, 511 MIRACLE MILE DRIVE, SPC B3",NY,14623-5860
Journeys,CINCINNATI,1911,#001911 #01911 #1911 01911,"TRI-COUNTY MALL, 11700 PRINCETON PIKE, SPC A208",OH,45246-2535
Journeys,COLUMBUS,1912,#001912 #01912 #1912 01912,"EASTLAND MALL, 2718 EASTLAND MALL",OH,43232-4901
Journeys,PHILADELPHIA,1913,#001913 #01913 #1913 01913,"GALLERY AT MARKET EAST, 901 MARKET ST",PA,19107-5599
Journeys,COLUMBIA,1914,#001914 #01914 #1914 01914,"COLUMBIA PLACE, 7201 TWO NOTCH RD",SC,29223
Journeys,NORTH CHARLESTON,1915,#001915 #01915 #1915 01915,"NORTHWOODS MALL, 2150 NORTHWOODS BLVD",SC,29406-4021
Journeys,GOODLETTSVILLE,1917,#001917 #01917 #1917 01917,"RIVERGATE MALL, 1000 RIVERGATE PKWY, STE 1165",TN,37072-2402
Journeys,DALLAS,1919,#001919 #01919 #1919 01919,"SOUTHWEST CTR MALL, W CAMP WISDOM RD, STE 2010",TX,75237-9991
Journeys,HOUSTON,1921,#001921 #01921 #1921 01921,"ALMEDA MALL, 12200 GULF FWY",TX,77034
Journeys,HOUSTON,1922,#001922 #01922 #1922 01922,"SHARPSTOWN MALL, 204 SHARPSTOWN MALL",TX,77036-5035
Journeys,IRVING,1923,#001923 #01923 #1923 01923,"IRVING MALL, 3880 IRVING MALL",TX,75062
Journeys,MESQUITE,1924,#001924 #01924 #1924 01924,"TOWN EAST MALL, 2063 TOWN EAST MALL",TX,75150-4118
Journeys,ARLINGTON,1925,#001925 #01925 #1925 01925,"BALLSTON COMMONS, 4238 WILSON BLVD, STE 1220",VA,22203-1827
Journeys,COLONIAL HEIGHTS,1926,#001926 #01926 #1926 01926,"SOUTHPARK MALL, 238 SOUTH PARK CIRCLE",VA,23834-2964
Journeys,NEWPORT NEWS,1927,#001927 #01927 #1927 01927,"PATRICK HENRY MALL, 12300 JEFFERSON AVE, STE 702",VA,23602-6900
Journeys,NORFOLK,1928,#001928 #01928 #1928 01928,"GALLERY AT MILITARY CIRCLE, 880 N MILITARY HWY, STE 1035",VA,23502-3716
Journeys,NORFOLK,1929,#001929 #01929 #1929 01929,"MACARTHUR CTR, 300 MONTICELLO AVE, STE 195A",VA,23510-2429
Journeys,MILWAUKEE,1930,#001930 #01930 #1930 01930,"THE GRAND AVENUE, 275 W WISCONSIN AVE, STE 1145",WI,53203-3318
Journeys,HYATTSVILLE,1931,#001931 #01931 #1931 01931,"THE MALL AT PRINCE GEORGES, 3500 EAST WEST HWY, SPC 1404",MD,20782-1916
Journeys,SPARTANBURG,1932,#001932 #01932 #1932 01932,"WESTGATE MALL, 205 W BLACKSTOCK RD",SC,29301-1383
Journeys,NORTH MIAMI BEACH,1933,#001933 #01933 #1933 01933,"THE MALL AT 163RD STREET, 1205 NE 163rd ST",FL,33162
Journeys,BEAUMONT,1934,#001934 #01934 #1934 01934,"PARKDALE MALL, 6155 EASTEX FREEWAY, STE A-122",TX,77706-6797
Journeys,ATLANTA,1935,#001935 #01935 #1935 01935,"UNDERGROUND ATLANTA, 50 UPPER ALABAMA ST, SPC 114",GA,30303-3165
Journeys,MCALLEN,1936,#001936 #01936 #1936 01936,"LA PLAZA MALL, 2200 S 10TH ST, STE C02",TX,78503-5437
Journeys,BROOKLYN,1937,#001937 #01937 #1937 01937,"FULTON MALL,  462 FULTON STREET",NY,11201-5216
Journeys,BROWNSVILLE,1939,#001939 #01939 #1939 01939,"SUNRISE MALL, 2370 N EXPRESS WAY, STE 1424",TX,78521-4518
Journeys,HOUSTON,1940,#001940 #01940 #1940 01940,"GREENSPOINT MALL, 12300 N FREEWAY, STE 235",TX,77060-1811
Journeys,TOLEDO,1941,#001941 #01941 #1941 01941,"WESTFIELD FRANKLIN PARK, 5001 MONROE STREET, STE N18",OH,43623-3697
Journeys,WICHITA,1942,#001942 #01942 #1942 01942,"TOWNE EAST MALL, 7700 E KELLOGG, STE 819",KS,67207-1778
Journeys,ARLINGTON,1943,#001943 #01943 #1943 01943,"THE PARKS AT ARLINGTON, 3811 S COOPER, STE 1164",TX,76015-4160
Journeys,TYLER,1944,#001944 #01944 #1944 01944,"BROADWAY SQUARE, S. 4601 BROADWAY, STE F08",TX,75703-1300
Journeys,COLUMBUS,1945,#001945 #01945 #1945 01945,"PEACHTREE MALL, 3131 MANCHESTER EXPWY, STE 33",GA,31909-6455
Journeys,MERRILLVILLE,1946,#001946 #01946 #1946 01946,"WESTFIELD SOUTHLAKE MALL, 2109 SOUTHLAKE MALL",IN,46410-6440
Journeys,CARLSBAD,1947,#001947 #01947 #1947 01947,"PLAZA CAMINO REAL, 2525 EL CAMINO REAL, STE 248",CA,92008-1204
Journeys,MIAMI,1948,#001948 #01948 #1948 01948,"SOUTHLAND MALL, 20505 S DIXIE HWY, STE 1135",FL,33189-1221
Journeys,FORT WORTH,1949,#001949 #01949 #1949 01949,"HULEN MALL, 4800 S HULEN ST, STE 140",TX,76132-1415
Journeys,MOBILE,1951,#001951 #01951 #1951 01951,"COLONIAL BEL AIR MALL, 3232 BEL AIR MALL, STE B6",AL,36606-3204
Journeys,ATLANTA,1952,#001952 #01952 #1952 01952,"NORTHLAKE MALL, 2015 NORTHLAKE MALL",GA,30345-2750
Journeys,LOUISVILLE,1953,#001953 #01953 #1953 01953,"MALL ST. MATTHEWS, 5000 SHELBYVILLE RD #1785",KY,40207-3342
Journeys,TUCSON,1954,#001954 #01954 #1954 01954,"TUCSON MALL, 4500 N ORACLE, STE 353",AZ,85705-1604
Journeys,ATLANTA,1955,#001955 #01955 #1955 01955,"GREENBRIAR MALL, 2841 GREENBRIAR PKWY SW, STE N466/468",GA,30331-2620
Journeys,HUNTSVILLE,1956,#001956 #01956 #1956 01956,"MADISON SQUARE, 5901 UNIVERSITY DR, SPC 51A",AL,35806-2506
Journeys,DULUTH,1957,#001957 #01957 #1957 01957,"GWINNETT PLACE, 2100 PLEASANT HILL RD, STE 227",GA,30096-4746
Journeys,TAYLOR,1958,#001958 #01958 #1958 01958,"SOUTHLAND CENTER, 23000 EUREKA RD, STE B5",MI,48180-5254
Journeys,OCOEE,1959,#001959 #01959 #1959 01959,"WEST OAKS MALL, 9401 W COLONIAL DR, STE 528",FL,34761-6802
Journeys,MACON,1960,#001960 #01960 #1960 01960,"MACON MALL, 3661 EISENHOWER PKWY, SPC 111",GA,31206-2649
Journeys,TULSA,1961,#001961 #01961 #1961 01961,"TULSA PROMENADE MALL, 4107 SOUTH YALE AVE, SPC 106",OK,74135-6015
Journeys,TAMPA,1962,#001962 #01962 #1962 01962,"UNIVERSTY MALL, 2200 E FOWLER AVE",FL,33612
Journeys,INDIANAPOLIS,1963,#001963 #01963 #1963 01963,"CASTLETON SQUARE, 6020 E 82ND ST, SPC 616A",IN,46250-4572
Journeys,SAN ANTONIO,1964,#001964 #01964 #1964 01964,"INGRAM PARK MALL, 6301 NW LOOP 410, STE S-11",TX,78238-3819
Journeys,RICHMOND HEIGHTS,1965,#001965 #01965 #1965 01965,"RICHMOND TOWN SQUARE, 691 RICHMOND ROAD",OH,44143-2990
Journeys,HOUSTON,1966,#001966 #01966 #1966 01966,"WEST OAKS MALL, 344 WEST OAKS MALL",TX,77082-1729
Journeys,CHARLOTTE,1967,#001967 #01967 #1967 01967,"NORTHLAKE MALL, 6801 NORTHLAKE MALL DR, SPC 130",NC,28216-0711
Journeys,CALUMET CITY,1968,#001968 #01968 #1968 01968,"RIVER OAKS CENTER, 96 RIVER OAKS CENTER DR, SPC A25",IL,60409
Journeys,MEDIA,1969,#001969 #01969 #1969 01969,"GRANITE RUN MALL, 1067 W BALTIMORE PIKE, SPC 136B",PA,19063-5121
Journeys,ST PETERSBURG,1970,#001970 #01970 #1970 01970,"TYRONE SQUARE MALL, 6901 22ND AVE N, SPC 118",FL,33710-3951
Journeys,PHILADELPHIA,1971,#001971 #01971 #1971 01971,"CHELTENHAM MALL, 2385 CHELTENHAM AVE, SPC 440A",PA,19150-1506
Journeys,WAYNE,1972,#001972 #01972 #1972 01972,"WILLOWBROOK MALL, 1400 WILLOWBROOK MALL, STE 2070",NJ,07470-6905
Journeys,MEMPHIS,1973,#001973 #01973 #1973 01973,"WOLFCHASE GALLERIA, 2760 N GERMANTOWN PKWY, STE 212",TN,38133-8153
Journeys,MILFORD,1974,#001974 #01974 #1974 01974,"CONNECTICUT POST, 1201 BOSTON POST RD, STE 2449",CT,06460-2702
Journeys,CHERRY HILL,1975,#001975 #01975 #1975 01975,"CHERRY HILL MALL, 2000 ROUTE 38, SPC 1560",NJ,08002-2114
Journeys,LAREDO,1977,#001977 #01977 #1977 01977,"MALL DEL NORTE, 5300 SAN DARIO AVE, STE 554",TX,78041-3087
Journeys,HUMBLE,1978,#001978 #01978 #1978 01978,"DEERBROOK MALL, 20131 HWY 59 NORTH, SPC 2388",TX,77338
Journeys,CLEVELAND,1979,#001979 #01979 #1979 01979,"THE AVE AT TOWER CITY CENTER, 230 W HURON RD, STE 7262",OH,44113
Journeys,GREENSBORO,1980,#001980 #01980 #1980 01980,"FOUR SEASONS TOWN CENTRE, 410 FOUR SEASONS TOWN CENTRE",NC,27427-4741
Journeys,GRETNA,1981,#001981 #01981 #1981 01981,"OAKWOOD CENTER, 197 WESTBANK EXPWY, STE 1095",LA,70056-2535
Journeys,GREENVILLE,1982,#001982 #01982 #1982 01982,"HAYWOOD MALL, 700 HAYWOOD RD, STE 1115",SC,29607-2781
Journeys,KENNER,1983,#001983 #01983 #1983 01983,"THE ESPLANADE, 1401 W ESPLANADE AVE, SPC 1014",LA,70065-2845
Journeys,DECATUR,1984,#001984 #01984 #1984 01984,"SOUTH DEKALB MALL, 2801 CANDLER RD, SPC 5",GA,30034-1423
Journeys,ATLANTA,1985,#001985 #01985 #1985 01985,"CUMBERLAND MALL, 1404 CUMBERLAND MALL",GA,30339-3139
Journeys,GREENSBORO,1986,#001986 #01986 #1986 01986,"FOUR SEASONS TOWN CENTRE, 410 FOUR SEASONS BLVD",NC,27427
Journeys,EDINA,1987,#001987 #01987 #1987 01987,"SOUTHDALE CENTER, 2770 E SOUTHDALE CENTER",MN,55435
Journeys,OMAHA,1988,#001988 #01988 #1988 01988,"WESTROADS MALL, 10000 CALIFORNIA ST, SPC 2220",NE,68114
Journeys,CULVER CITY,1989,#001989 #01989 #1989 01989,"WESTFIELD-CULVER CITY, 6000 SEPULVEDA BLVD, SPC F5",CA,90230
Journeys,CEDAR HILL,1990,#001990 #01990 #1990 01990,"UPTOWN VILLAGE AT CEDAR HILL, 305 W. FM 1382, SPC 717",TX,75104
Journeys,OCALA,1991,#001991 #01991 #1991 01991,"PADDOCK MALL, 3100 SW COLLEGE RD, SPC 548",FL,34474-4419
Journeys,MANCHESTER,1992,#001992 #01992 #1992 01992,"THE SHOPPES AT BUCKLAND HILLS, 194 BUCKLAND HILLS DR, SPC 2052",CT,6042
Journeys,PUYALLUP,1993,#001993 #01993 #1993 01993,"SOUTH HILL MALL, 3500 S MERIDIAN, SPC 922",WA,98373
Journeys,ST LOUIS,1994,#001994 #01994 #1994 01994,"SAINT LOUIS GALLERIA, 2083 SAINT LOUIS GALLERIA",MO,63117
Journeys,NEWARK,1996,#001996 #01996 #1996 01996,"CHRISTIANA MALL, 542 CHRISTIANA MALL, SPC 1008",DE,19702
Journeys,WELLINGTON,1997,#001997 #01997 #1997 01997,"THE MALL AT WELLINGTON GREEN, 10300 W FOREST HILL BLVD, SPC 129",FL,33414
Journeys,WACO,1998,#001998 #01998 #1998 01998,"RICHLAND MALL, 6001 W. WACO DR, SPC 311",TX,76710
Journeys,LANCASTER,1999,#001999 #01999 #1999 01999,"PARK CITY CENTER, 626 PARK CITY CENTER",PA,17601
Journeys,GREENDALE,2000,#002000 #02000 #2000 02000,"SOUTHRIDGE MALL, 5300 S 76TH ST, SPC 240B",WI,53129
Journeys,TULSA,2007,#002007 #02007 #2007 02007,"TULSA PROMENADE, 4107 S. YALE AVE, SPC 202B",OK,74135
Journeys,LAKEWOOD,2008,#002008 #02008 #2008 02008,"COLORADO MILLS, 14500 W. COLFAX AVE, SPC 503",CO,80401
Journeys,SAN ANTONIO,2010,#002010 #02010 #2010 02010,"RIVERCENTER, 849 E. COMMERCE, SPC 268",TX,78205
Journeys,SALEM,2011,#002011 #02011 #2011 02011,"SALEM CENTER, 480 CENTER STREET NE, SPC 214",OR,97301
Journeys,CHICAGO,2012,#002012 #02012 #2012 02012,133 S. STATE STREET,IL,60603
Journeys,ODESSA,2013,#002013 #02013 #2013 02013,"MUSIC CITY MALL, 4101 E. 42ND STREET, SPC #L36",TX,79762
Journeys,GLENDALE,2015,#002015 #02015 #2015 02015,"BAYSHORE TOWN CENTER, 5768 N. BAYSHORE DRIVE, SPC #Q110",WI,53217
Journeys,PEARL,2016,#002016 #02016 #2016 02016,"THE OUTLETS AT BLOOMFIELD, 200 BASS PRO DRIVE, SPC #455",MS,39208
Journeys,WALDORF,2017,#002017 #02017 #2017 02017,"ST. CHARLES TOWNE CENTER, 11110 MALL CIRCLE, SPC #Q09A",MD,20603
Journeys,HOWELL,2018,#002018 #02018 #2018 02018,"TANGER OUTLET CENTER HOWELL, 1475 N. BURKHART ROAD, SPC #165",MI,48855
Journeys,SAVANNAH,2020,#002020 #02020 #2020 02020,"OGLETHORPE MALL, 7804 ABERCORN ST, SPC 85",GA,31406
Journeys,WEST COVINA,2021,#002021 #02021 #2021 02021,"WEST COVINA-WESTFIELD, 190 PLAZA DRIVE",CA,91790
Journeys,RALEIGH,2022,#002022 #02022 #2022 02022,"TRIANGLE TOWN CENTER, 5959 TRIANGLE TOWN BLVD, SPC #FL-1029",NC,27616
Journeys,MYRTLE BEACH,2023,#002023 #02023 #2023 02023,"TANGER OUTLETS AT HWY 17, 10839 KINGS RD, SPC #776",SC,29572-6089
Journeys,LONGVIEW,2024,#002024 #02024 #2024 02024,"LONGVIEW MALL, 3500 MCCANN RD. SPC #G01A",TX,75605-4406
Journeys,AUGUSTA,2025,#002025 #02025 #2025 02025,"AUGUSTA MALL, 3450 WRIGHTSBORO RD, SPC #1175",GA,30909
Journeys,GRETNA,2026,#002026 #02026 #2026 02026,"NEBRASKA CROSSING OUTLETS, 21311 NEBRASKA CROSSING DR, SPC #B105",NE,68028
Journeys,OMAHA,2027,#002027 #02027 #2027 02027,"OAK VIEW MALL, 3001 S. 144TH ST, SPC #2116",NE,68144
