keywords,city,Aggdata Store Number,store_number,address,state,zip_code
Kaiser,Wildomar,100001,1 #1 100001 20901,36485 Inland Valley Drive,CA,92595
Kaiser,San Bernardino,100005,5 #5 100005 20905,2101 N. Waterman Avenue,CA,92404
Kaiser,Palm Desert,100010,10 #10 100010 209010,"72-630 Fred Waring Drive, Suite 101",CA,92260
Kaiser,Downey,100016,16 #16 100016 209016,9449 Imperial Highway,CA,90242
Kaiser,San Diego,100017,17 #17 100017 209017,4510 Viewridge Ave.,CA,92123
Kaiser,Yucca Valley,100019,19 #19 100019 209019,"58471 29 Palms Highway, Suite 303",CA,92284
Kaiser,Ontario,100020,20 #20 100020 209020,3330 Centre Lake Drive,CA,91761
Kaiser,Downey,100021,21 #21 100021 209021,9353 Imperial Highway,CA,90242
Kaiser,Palm Springs,100022,22 #22 100022 209022,"1100 N. Palm Canyon Drive, Suite 208",CA,92262
Kaiser,Ontario,100023,23 #23 100023 209023,2295 S. Vineyard Ave.,CA,91761
Kaiser,Bakersfield,100024,24 #24 100024 209024,4801 Coffee Road,CA,93308
Kaiser,Yorba Linda,100025,25 #25 100025 209025,22550 Savi Ranch Parkway,CA,92887
Kaiser,Los Angeles,100026,26 #26 100026 209026,6041 Cadillac Ave.,CA,90034
Kaiser,West Covina,100028,28 #28 100028 209028,1511 West Garvey Ave. North,CA,91790
Kaiser,Whittier,100029,29 #29 100029 209029,12470 Whittier Blvd.,CA,90602
Kaiser,San Diego,100031,31 #31 100031 209031,4405 Vandever Ave.,CA,92120
Kaiser,Riverside,100032,32 #32 100032 209032,3951 Van Buren Blvd.,CA,92503
Kaiser,West Covina,100036,36 #36 100036 209036,1249 S Sunset Ave.,CA,91790
Kaiser,Santa Ana,100037,37 #37 100037 209037,1900 E. 4th St.,CA,92705
Kaiser,Thousand Oaks,100039,39 #39 100039 209039,365 E. Hillcrest Drive,CA,91360
Kaiser,Thousand Oaks,100040,40 #40 100040 209040,145 Hodencamp Road,CA,91360
Kaiser,Wildomar,100041,41 #41 100041 209041,36450 Inland Valley Drive,CA,92595
Kaiser,Bakersfield,100042,42 #42 100042 209042,3501 Stockdale Highway,CA,93309
Kaiser,Simi Valley,100043,43 #43 100043 209043,3900 Alamo St.,CA,93063
Kaiser,Reseda,100044,44 #44 100044 209044,18040 Sherman Way,CA,91335
Kaiser,Harbor City,100045,45 #45 100045 209045,25825 Vermont Ave.,CA,90710
Kaiser,Santa Clarita,100046,46 #46 100046 209046,27201 Tourney Road,CA,91355
Kaiser,Santa Clarita,100047,47 #47 100047 209047,27107 Tourney Rd.,CA,91355
Kaiser,Torrance,100048,48 #48 100048 209048,20790 Madrona Ave.,CA,90503
Kaiser,Irvine,100049,49 #49 100049 209049,6670 Alton Parkway,CA,92618
Kaiser,San Diego,100050,50 #50 100050 209050,10990 San Diego Mission Road,CA,92108
Kaiser,Palm Desert,100051,51 #51 100051 209051,University Park Centre 75-036 Gerald Ford Drive,CA,92211
Kaiser,San Diego,100052,52 #52 100052 209052,6511 Mission Gorge Rd.,CA,92120
Kaiser,San Juan Capistrano,100053,53 #53 100053 209053,30400 Camino Capistrano,CA,92675
Kaiser,San Bernardino,100055,55 #55 100055 209055,1717 E. Date Place,CA,92404
Kaiser,Bellflower,100056,56 #56 100056 209056,9333 E. Rosecrans Ave.,CA,90706
Kaiser,Riverside,100057,57 #57 100057 209057,10800 Magnolia Ave.,CA,92505
Kaiser,La Mesa,100058,58 #58 100058 209058,3875 Avocado Blvd.,CA,91941
Kaiser,Rancho Cucamonga,100059,59 #59 100059 209059,10850 Arrow Route,CA,91730
Kaiser,San Diego,100060,60 #60 100060 209060,7035 Convoy Court,CA,92111
Kaiser,San Bernardino,100061,61 #61 100061 209061,325 W. Hospitality Lane Suite 312,CA,92408
Kaiser,Riverside,100062,62 #62 100062 209062,10689 Magnolia Ave.,CA,92505
Kaiser,Culver City,100063,63 #63 100063 209063,5620 Mesmer Ave.,CA,90230
Kaiser,Pasadena,100064,64 #64 100064 209064,3280 E. Foothill Blvd.,CA,91107
Kaiser,Panorama City,100065,65 #65 100065 209065,13651 Willard Street,CA,91402
Kaiser,Escondido,100066,66 #66 100066 209066,555 East Valley Parkway,CA,92025
Kaiser,Palmdale,100067,67 #67 100067 209067,4502 E. Avenue S,CA,93552
Kaiser,Palm Springs,100068,68 #68 100068 209068,"1717 E. Vista Chino, Suite B-2",CA,92262
Kaiser,Oxnard,100070,70 #70 100070 209070,2200 E. Gonzales Road,CA,93036
Kaiser,Anaheim,100071,71 #71 100071 209071,5475 E. La Palma Ave. Suite 201,CA,92807
Kaiser,Orange,100072,72 #72 100072 209072,4201 W. Chapman Ave.,CA,92868
Kaiser,Orange,100073,73 #73 100073 209073,200 N. Lewis St.,CA,92868
Kaiser,Pasadena,100074,74 #74 100074 209074,"1055 E. Colorado Blvd., Suite 100",CA,91106
Kaiser,San Diego,100077,77 #77 100077 209077,4647 Zion Ave.,CA,92120
Kaiser,Northridge,100078,78 #78 100078 209078,"19300 Rinaldi St., Suite I",CA,91326
Kaiser,San Dimas,100079,79 #79 100079 209079,1255 W. Arrow Highway,CA,91773
Kaiser,Moreno Valley,100080,80 #80 100080 209080,12815 Heacock St.,CA,92553
Kaiser,Montclair,100081,81 #81 100081 209081,5330 San Bernardino St.,CA,91763
Kaiser,Bakersfield,100082,82 #82 100082 209082,8800 Ming Ave.,CA,93311
Kaiser,Mission Viejo,100084,84 #84 100084 209084,23781 Maquina Ave.,CA,92691
Kaiser,San Diego,100086,86 #86 100086 209086,3250 Fordham St.,CA,92110
Kaiser,San Diego,100087,87 #87 100087 209087,17140 Bernardo Center Drive,CA,92128
Kaiser,Riverside,100088,88 #88 100088 209088,10917 Magnolia Ave.,CA,92505
Kaiser,Los Angeles,100089,89 #89 100089 209089,4867 W Sunset Blvd.,CA,90027
Kaiser,Montebello,100091,91 #91 100091 209091,1550 Town Center Drive,CA,90640
Kaiser,Lomita,100092,92 #92 100092 209092,2081 Palos Verdes Drive North,CA,90717
Kaiser,Lancaster,100093,93 #93 100093 209093,43112 15th St. West,CA,93534
Kaiser,Anaheim,100094,94 #94 100094 209094,411 N. Lakeview Ave.,CA,92807
Kaiser,La Palma,100098,98 #98 100098 209098,5 Centerpointe Drive,CA,90623
Kaiser,Vista,100099,99 #99 100099 209099,780 Shadowridge Drive,CA,92083
Kaiser,Los Angeles,100100,100 #100 100100 2090100,5105 W. Goldleaf Circle,CA,90056
Kaiser,Irvine,100101,101 #101 100101 2090101,6 Willard,CA,92604
Kaiser,Inglewood,100105,105 #105 100105 2090105,"3451 W Century Blvd., Suite B-3",CA,90303
Kaiser,Inglewood,100106,106 #106 100106 2090106,110 N. La Brea Ave.,CA,90301
Kaiser,Downey,100108,108 #108 100108 2090108,12200 Bellflower Blvd.,CA,90242
Kaiser,Claremont,100109,109 #109 100109 2090109,250 W. San Jose Street,CA,91711
Kaiser,Long Beach,100111,111 #111 100111 2090111,3900 E. Pacific Coast Highway,CA,90804
Kaiser,Huntington Beach,100113,113 #113 100113 2090113,18081 Beach Blvd.,CA,92648
Kaiser,Los Angeles,100114,114 #114 100114 2090114,765 W. College St.,CA,90012
Kaiser,Santa Ana,100115,115 #115 100115 2090115,3401 S. Harbor Blvd.,CA,92704
Kaiser,Glendale,100117,117 #117 100117 2090117,444 W. Glenoaks Blvd.,CA,91202
Kaiser,Gardena,100118,118 #118 100118 2090118,15446 S. Western Ave.,CA,90249
Kaiser,Fontana,100119,119 #119 100119 2090119,9310 Sierra Ave.,CA,92335
Kaiser,Fontana,100120,120 #120 100120 2090120,9961 Sierra Ave.,CA,92335
Kaiser,Anaheim,100121,121 #121 100121 2090121,1188 N. Euclid St.,CA,92801
Kaiser,Garden Grove,100122,122 #122 100122 2090122,12100 Euclid St.,CA,92840
Kaiser,Escondido,100123,123 #123 100123 2090123,732 N. Broadway,CA,92025
Kaiser,Joshua Tree,100124,124 #124 100124 2090124,6601 White Feather Road,CA,92252
Kaiser,El Cajon,100125,125 #125 100125 2090125,250 Travelodge Drive,CA,92020
Kaiser,Woodland Hills,100126,126 #126 100126 2090126,21263 Erwin St.,CA,91364
Kaiser,Los Angeles,100127,127 #127 100127 2090127,5119 Pomona Blvd.,CA,90022
Kaiser,Bakersfield,100128,128 #128 100128 2090128,3700 Mall View Road,CA,93306
Kaiser,Bakersfield,100129,129 #129 100129 2090129,1200 Discovery Drive,CA,93309
Kaiser,Palm Springs,100130,130 #130 100130 2090130,1150 N. Indian Canyon Drive,CA,92262
Kaiser,La Mesa,100131,131 #131 100131 2090131,8080 Parkway Drive,CA,91942
Kaiser,Los Angeles,100133,133 #133 100133 2090133,12001 W. Washington Blvd.,CA,90066
Kaiser,Ventura,100134,134 #134 100134 2090134,147 N. Brent Street,CA,93003
Kaiser,Cudahy,100136,136 #136 100136 2090136,7825 Atlantic Ave.,CA,90201
Kaiser,Corona,100137,137 #137 100137 2090137,2055 Kellogg Ave.,CA,92879
Kaiser,Colton,100138,138 #138 100138 2090138,789 E. Cooley Drive,CA,92324
Kaiser,San Diego,100139,139 #139 100139 2090139,7060 Clairemont Mesa Blvd.,CA,92111
Kaiser,Chino,100142,142 #142 100142 2090142,11911 Central Ave.,CA,91710
Kaiser,Bakersfield,100144,144 #144 100144 2090144,3733 San Dimas St.,CA,93301
Kaiser,Carlsbad,100145,145 #145 100145 2090145,6860 Avenida Encinas,CA,92009
Kaiser,Indio,100146,146 #146 100146 2090146,47111 Monroe St.,CA,92201
Kaiser,Riverside,100147,147 #147 100147 2090147,5225 Canyon Crest Drive Building 100 Suite 103,CA,92507
Kaiser,Brea,100148,148 #148 100148 2090148,1900 E. Lambert Road,CA,92821
Kaiser,El Cajon,100150,150 #150 100150 2090150,1630 E. Main St.,CA,92021
Kaiser,Bonita,100151,151 #151 100151 2090151,3955 Bonita Rd.,CA,91902
Kaiser,Bellflower,100152,152 #152 100152 2090152,9400 E. Rosecrans Ave.,CA,90706
Kaiser,Granada Hills,100153,153 #153 100153 2090153,"10605 Balboa Blvd., Suite 330",CA,91344
Kaiser,Baldwin Park,100154,154 #154 100154 2090154,1011 Baldwin Park Blvd.,CA,91706
Kaiser,Bakersfield,100155,155 #155 100155 2090155,5055 California Ave.,CA,93309
Kaiser,Lancaster,100156,156 #156 100156 2090156,1600 W. Avenue J,CA,93534
Kaiser,Aliso Viejo,100160,160 #160 100160 2090160,24502 Pacific Park Drive,CA,92656
Kaiser,Lancaster,100161,161 #161 100161 2090161,44444 20th St. West,CA,93534
Kaiser,Bakersfield,100163,163 #163 100163 2090163,"4900 California Ave. Tower A, Suite 200",CA,93309
Kaiser,Willoughby,100165,165 #165 100165 2090165,36000 Euclid Avenue,OH,44094
Kaiser,Parma,100166,166 #166 100166 2090166,7007 Powers Boulevard,OH,44129
Kaiser,Chagrin Falls,100167,167 #167 100167 2090167,16765 Chillicothe Rd.,OH,44023
Kaiser,Windham,100170,170 #170 100170 2090170,9680 E. Center St.,OH,44288
Kaiser,Akron,100172,172 #172 100172 2090172,4053 S Main Street,OH,44319
Kaiser,Wellington,100173,173 #173 100173 2090173,814 N. Main St.,OH,44090
Kaiser,Wadsworth,100174,174 #174 100174 2090174,120 High St.,OH,44281
Kaiser,Vermilion,100175,175 #175 100175 2090175,4208 Liberty Ave.,OH,44089
Kaiser,Ravenna,100176,176 #176 100176 2090176,6693 N. Chestnut St.,OH,44266
Kaiser,Painesville,100178,178 #178 100178 2090178,1201 Mentor Ave.,OH,44077
Kaiser,Oberlin,100182,182 #182 100182 2090182,12289 Leavitt Road,OH,44074
Kaiser,Madison,100183,183 #183 100183 2090183,6556 North Ridge Road,OH,44057
Kaiser,Mantua,100185,185 #185 100185 2090185,10870 Main St.,OH,44255
Kaiser,Lodi,100186,186 #186 100186 2090186,661 Wooster St.,OH,44254
Kaiser,Garrettsville,100187,187 #187 100187 2090187,8295 Windham St.,OH,44231
Kaiser,Amherst,100188,188 #188 100188 2090188,300 Leavitt Road,OH,44001
Kaiser,Vancouver,100189,189 #189 100189 2090189,7101 NE 137th Ave.,WA,98682
Kaiser,Vancouver,100192,192 #192 100192 2090192,2211 East Mill Plain Blvd.,WA,98661
Kaiser,Tualatin,100194,194 #194 100194 2090194,19185 SW 90th Ave.,OR,97062
Kaiser,Hillsboro,100195,195 #195 100195 2090195,19400 NW Evergreen Parkway,OR,97124
Kaiser,Clackamas,100196,196 #196 100196 2090196,10180 SE Sunnyside Road,OR,97015
Kaiser,Clackamas,100197,197 #197 100197 2090197,10180 SE Sunnyside Road,OR,97015
Kaiser,Salem,100200,200 #200 100200 2090200,5125 Skyline Road South,OR,97306
Kaiser,Vancouver,100203,203 #203 100203 2090203,14406 NE 20th Ave.,WA,98686
Kaiser,Salem,100204,204 #204 100204 2090204,890 Oak Street SE,OR,97301
Kaiser,Portland,100207,207 #207 100207 2090207,19500 SE Stark St.,OR,97233
Kaiser,Portland,100209,209 #209 100209 2090209,9205 SW Barnes Road,OR,97225
Kaiser,Clackamas,100211,211 #211 100211 2090211,"10163 SE Sunnyside Road, Suite 490",OR,97015
Kaiser,Salem,100212,212 #212 100212 2090212,2400 Lancaster Drive NE,OR,97305
Kaiser,Clackamas,100216,216 #216 100216 2090216,10100 SE Sunnyside Road,OR,97015
Kaiser,Clackamas,100217,217 #217 100217 2090217,9800 SE Sunnyside Road,OR,97015
Kaiser,Portland,100218,218 #218 100218 2090218,9427 SW Barnes Road,OR,97225
Kaiser,Vancouver,100220,220 #220 100220 2090220,203 SE Park Plaza Dr Suite 140,WA,98684
Kaiser,Longview,100225,225 #225 100225 2090225,1230 Seventh Avenue,WA,98632
Kaiser,Milwaukie,100227,227 #227 100227 2090227,"6902 SE Lake Road, Suite 100",OR,97267
Kaiser,Portland,100228,228 #228 100228 2090228,3325 North Interstate Ave.,OR,97227
Kaiser,Portland,100230,230 #230 100230 2090230,3500 North Interstate Ave.,OR,97227
Kaiser,Portland,100245,245 #245 100245 2090245,3550 North Interstate Ave.,OR,97227
Kaiser,Portland,100246,246 #246 100246 2090246,3600 North Interstate Ave.,OR,97227
Kaiser,Portland,100247,247 #247 100247 2090247,3181 SW Sam Jackson Park Road,OR,97201
Kaiser,Gresham,100248,248 #248 100248 2090248,"1550 NW Eastman Parkway, Suite 100",OR,97030
Kaiser,Clackamas,100249,249 #249 100249 2090249,12100 SE Stevens Court Suite 106,OR,97086
Kaiser,Vancouver,100252,252 #252 100252 2090252,12607 SE Mill Plain Blvd.,WA,98684
Kaiser,Portland,100253,253 #253 100253 2090253,3800 North Interstate Ave,OR,97227
Kaiser,Beaverton,100254,254 #254 100254 2090254,4855 SW Western Ave.,OR,97005
Kaiser,Vallejo,100255,255 #255 100255 2090255,975 Sereno Drive,CA,94589
Kaiser,Modesto,100257,257 #257 100257 2090257,4601 Dale Road,CA,95356
Kaiser,Lincoln,100258,258 #258 100258 2090258,1900 Dresden Drive,CA,95648
Kaiser,Fresno,100259,259 #259 100259 2090259,"1630 E. Shaw Avenue, Suite 124",CA,93710
Kaiser,Santa Clara,100260,260 #260 100260 2090260,700 Lawrence Expressway,CA,95051
Kaiser,Santa Rosa,100261,261 #261 100261 2090261,3559 Round Barn Blvd.,CA,95403
Kaiser,Modesto,100262,262 #262 100262 2090262,1320 Standiford Avenue,CA,95350
Kaiser,Tracy,100263,263 #263 100263 2090263,2417 Naglee Road,CA,95304
Kaiser,Santa Rosa,100264,264 #264 100264 2090264,3554 Round Barn Blvd.,CA,95403
Kaiser,Walnut Creek,100265,265 #265 100265 2090265,1425 South Main St.,CA,94596
Kaiser,Vacaville,100266,266 #266 100266 2090266,1 Quality Drive,CA,95688
Kaiser,Vallejo,100267,267 #267 100267 2090267,975 Sereno Drive,CA,94589
Kaiser,Tracy,100268,268 #268 100268 2090268,2185 W. Grant Line Road,CA,95377
Kaiser,Stockton,100269,269 #269 100269 2090269,7373 West Lane,CA,95210
Kaiser,South San Francisco,100270,270 #270 100270 2090270,1200 El Camino Real,CA,94080
Kaiser,Sacramento,100271,271 #271 100271 2090271,6600 Bruceville Road,CA,95823
Kaiser,Selma,100273,273 #273 100273 2090273,2651 Highland Avenue,CA,93662
Kaiser,San Jose,100275,275 #275 100275 2090275,250 Hospital Parkway,CA,95119
Kaiser,Santa Rosa,100276,276 #276 100276 2090276,401 Bicentennial Way,CA,95403
Kaiser,San Rafael,100288,288 #288 100288 2090288,1033 Third St.,CA,94901
Kaiser,San Rafael,100298,298 #298 100298 2090298,99 Montecillo Road,CA,94903
Kaiser,San Francisco,100301,301 #301 100301 2090301,2425 Geary Boulevard,CA,94115
Kaiser,San Bruno,100302,302 #302 100302 2090302,901 El Camino Real,CA,94066
Kaiser,Sacramento,100303,303 #303 100303 2090303,2025 Morse Avenue,CA,95825
Kaiser,Roseville,100305,305 #305 100305 2090305,1600 Eureka Road,CA,95661
Kaiser,Rohnert Park,100306,306 #306 100306 2090306,5900 State Farm Drive,CA,94928
Kaiser,Roseville,100307,307 #307 100307 2090307,1001 Riverside Ave.,CA,95678
Kaiser,Richmond,100309,309 #309 100309 2090309,901 Nevin Ave.,CA,94801
Kaiser,Redwood City,100311,311 #311 100311 2090311,1150 Veterans Blvd.,CA,94063
Kaiser,Rancho Cordova,100312,312 #312 100312 2090312,10725 International Drive,CA,95670
Kaiser,Sacramento,100313,313 #313 100313 2090313,1650 Response Road,CA,95815
Kaiser,Pleasanton,100315,315 #315 100315 2090315,7601 Stoneridge Drive,CA,94588
Kaiser,Petaluma,100316,316 #316 100316 2090316,3900 Lakeville Highway,CA,94954
Kaiser,Walnut Creek,100317,317 #317 100317 2090317,320 Lennon Lane,CA,94598
Kaiser,Oakland,100318,318 #318 100318 2090318,280 W MacArthur Blvd,CA,94611
Kaiser,Oakhurst,100319,319 #319 100319 2090319,40595 Westlake Drive,CA,93644
Kaiser,Oakdale,100320,320 #320 100320 2090320,1449 East F Street,CA,95361
Kaiser,Novato,100321,321 #321 100321 2090321,97 San Marin Drive,CA,94945
Kaiser,Newman,100322,322 #322 100322 2090322,1935 N St.,CA,95360
Kaiser,Napa,100323,323 #323 100323 2090323,3285 Claremont Way,CA,94558
Kaiser,Mountain View,100324,324 #324 100324 2090324,555 Castro St.,CA,94041
Kaiser,Milpitas,100326,326 #326 100326 2090326,770 E. Calaveras Blvd.,CA,95035
Kaiser,Martinez,100327,327 #327 100327 2090327,200 Muir Road,CA,94553
Kaiser,Manteca,100328,328 #328 100328 2090328,1777 W. Yosemite Avenue,CA,95337
Kaiser,Union City,100329,329 #329 100329 2090329,3555 Whipple Road,CA,94587
Kaiser,Oakland,100330,330 #330 100330 2090330,"2923 Webster Street, Suite 201",CA,94609
Kaiser,Hayward,100331,331 #331 100331 2090331,27400 Hesperian Blvd.,CA,94545
Kaiser,Gilroy,100332,332 #332 100332 2090332,7520 Arroyo Circle,CA,95020
Kaiser,Fresno,100333,333 #333 100333 2090333,7300 North Fresno St.,CA,93720
Kaiser,Livermore,100336,336 #336 100336 2090336,3000 Las Positas Road,CA,94551
Kaiser,Folsom,100337,337 #337 100337 2090337,2155 Iron Point Road,CA,95630
Kaiser,Fresno,100338,338 #338 100338 2090338,4785 North 1st Street,CA,93726
Kaiser,Fremont,100339,339 #339 100339 2090339,39400 Paseo Padre Parkway,CA,94538
Kaiser,Sacramento,100340,340 #340 100340 2090340,2345 Fair Oaks Blvd.,CA,95825
Kaiser,Elk Grove,100341,341 #341 100341 2090341,9201 Big Horn Blvd,CA,95758
Kaiser,Fairfield,100343,343 #343 100343 2090343,1550 Gateway Blvd.,CA,94533
Kaiser,Davis,100344,344 #344 100344 2090344,1955 Cowell Blvd.,CA,95618
Kaiser,Stockton,100345,345 #345 100345 2090345,525 West Acacia St.,CA,95203
Kaiser,Daly City,100346,346 #346 100346 2090346,395 Hickey Blvd.,CA,94015
Kaiser,Clovis,100347,347 #347 100347 2090347,2071 Herndon Ave.,CA,93611
Kaiser,Oakland,100348,348 #348 100348 2090348,969 Broadway,CA,94607
Kaiser,Campbell,100349,349 #349 100349 2090349,220 E. Hacienda Ave.,CA,95008
Kaiser,San Bruno,100351,351 #351 100351 2090351,801 Traeger Ave.,CA,94066
Kaiser,Modesto,100353,353 #353 100353 2090353,3800 Dale Rd.,CA,95356
Kaiser,Antioch,100354,354 #354 100354 2090354,4501 Sand Creek Road,CA,94531
Kaiser,Modesto,100355,355 #355 100355 2090355,4125 Bangs Ave.,CA,95356
Kaiser,Alameda,100356,356 #356 100356 2090356,2417 Central Ave.,CA,94501
Kaiser,Arlington,100358,358 #358 100358 2090358,1701 N. George Mason Drive,VA,22205
Kaiser,Frederick,100360,360 #360 100360 2090360,7190 Crestwood Blvd.,MD,21703
Kaiser,Ashburn,100361,361 #361 100361 2090361,43480 Yukon Drive Suite 100,VA,20147
Kaiser,Baltimore,100362,362 #362 100362 2090362,7141 Security Blvd.,MD,21244
Kaiser,Woodbridge,100363,363 #363 100363 2090363,14139 Potomac Mills Road,VA,22192
Kaiser,Nottingham,100364,364 #364 100364 2090364,4920 Campbell Blvd.,MD,21236
Kaiser,Lutherville,100365,365 #365 100365 2090365,"1447 York Road, Suite 100",MD,21093
Kaiser,Kensington,100366,366 #366 100366 2090366,10500 Summit Avenue,MD,20895
Kaiser,Springfield,100367,367 #367 100367 2090367,6501 Loisdale Court,VA,22150
Kaiser,Silver Spring,100368,368 #368 100368 2090368,12201 Plum Orchard Drive,MD,20904
Kaiser,Silver Spring,100370,370 #370 100370 2090370,"1400 Forest Glen Road, Suite 300",MD,20910
Kaiser,Rockville,100371,371 #371 100371 2090371,1396 Piccard Drive,MD,20850
Kaiser,Pasadena,100372,372 #372 100372 2090372,"8028 Ritchie Highway, Suite 134",MD,21122
Kaiser,Hyattsville,100373,373 #373 100373 2090373,6525 Belcrest Road,MD,20782
Kaiser,Suitland,100374,374 #374 100374 2090374,5100 Auth Way,MD,20746
Kaiser,Manassas,100376,376 #376 100376 2090376,10701 Rosemary Drive,VA,20109
Kaiser,Kensington,100377,377 #377 100377 2090377,10810 Connecticut Ave,MD,20895
Kaiser,Fairfax,100379,379 #379 100379 2090379,12255 Fair Lakes Parkway,VA,22033
Kaiser,Falls Church,100380,380 #380 100380 2090380,201 N. Washington St.,VA,22046
Kaiser,Baltimore,100381,381 #381 100381 2090381,10 Hopkins Plaza,MD,21201
Kaiser,Columbia,100382,382 #382 100382 2090382,7070 Samuel Morse Drive,MD,21046
Kaiser,Burke,100383,383 #383 100383 2090383,5999 Burke Commons Road,VA,22015
Kaiser,Temple Hills,100384,384 #384 100384 2090384,6104 Old Branch Ave.,MD,20748
Kaiser,Annapolis,100385,385 #385 100385 2090385,"888 Bestgate Road, Suite 102",MD,21401
Kaiser,Wailuku,100389,389 #389 100389 2090389,221 Mahalani St.,HI,96793
Kaiser,Kamuela,100391,391 #391 100391 2090391,67-1185A Mamalahoa Highway,HI,96743
Kaiser,Waianae,100392,392 #392 100392 2090392,87-2116 Farrington Highway,HI,96792
Kaiser,Lahaina,100393,393 #393 100393 2090393,910 Wainee St.,HI,96761
Kaiser,Kihei,100394,394 #394 100394 2090394,"1279 South Kihei Road, Suite 120",HI,96753
Kaiser,Kapolei,100395,395 #395 100395 2090395,599 Farrington Highway,HI,96707
Kaiser,Kailua,100397,397 #397 100397 2090397,"201 Hamakua Drive, Building B",HI,96734
Kaiser,Kahuku,100398,398 #398 100398 2090398,56-565 Kamehameha Highway,HI,96731
Kaiser,Hilo,100399,399 #399 100399 2090399,1292 Waianuenue Ave.,HI,96720
Kaiser,Honolulu,100400,400 #400 100400 2090400,"6700 Kalanianaole Highway, Suite 111",HI,96825
Kaiser,Austell,100401,401 #401 100401 2090401,3640 Tramore Pointe Parkway,GA,30106
Kaiser,Atlanta,100402,402 #402 100402 2090402,1968 Peachtree Rd. NW,GA,30309
Kaiser,Atlanta,100403,403 #403 100403 2090403,1000 Johnson Ferry Road N.E.,GA,30342
Kaiser,Atlanta,100404,404 #404 100404 2090404,1001 Johnson Ferry Road,GA,30342
Kaiser,Kennesaw,100405,405 #405 100405 2090405,750 TownPark Lane NW,GA,30144
Kaiser,Lithonia,100408,408 #408 100408 2090408,5440 Hillandale Drive,GA,30058
Kaiser,McDonough,100409,409 #409 100409 2090409,1125 Towne Centre Village Drive,GA,30253
Kaiser,Cumming,100411,411 #411 100411 2090411,"1400 Northside Forsyth Drive, Suite 350",GA,30041
Kaiser,Atlanta,100412,412 #412 100412 2090412,2525 Cumberland Parkway SE,GA,30339
Kaiser,Tucker,100418,418 #418 100418 2090418,200 Crescent Center Parkway,GA,30084
Kaiser,Atlanta,100419,419 #419 100419 2090419,1175 Cascade Parkway,GA,30311
Kaiser,Atlanta,100420,420 #420 100420 2090420,"1745 Peachtree St. NE, Suite U",GA,30309
Kaiser,Duluth,100422,422 #422 100422 2090422,3650 Steve Reynolds Blvd.,GA,30096
Kaiser,Alpharetta,100423,423 #423 100423 2090423,3550 Preston Ridge Road,GA,30005
Kaiser,Highlands Ranch,100424,424 #424 100424 2090424,9285 Hepburn Street,CO,80129
Kaiser,Wheat Ridge,100425,425 #425 100425 2090425,4803 Ward Road,CO,80033
Kaiser,Westminster,100426,426 #426 100426 2090426,11245 Huron St.,CO,80234
Kaiser,Littleton,100428,428 #428 100428 2090428,5257 S. Wadsworth Blvd.,CO,80123
Kaiser,Aurora,100429,429 #429 100429 2090429,16290 E. Quincy Ave.,CO,80015
Kaiser,Denver,100430,430 #430 100430 2090430,1375 E. 20th Avenue,CO,80205
Kaiser,Lafayette,100431,431 #431 100431 2090431,280 Exempla Circle,CO,80026
Kaiser,Longmont,100432,432 #432 100432 2090432,2345 Bent Way,CO,80503
Kaiser,Lakewood,100433,433 #433 100433 2090433,8383 W Alameda Ave.,CO,80226
Kaiser,Littleton,100434,434 #434 100434 2090434,7600 Shaffer Parkway,CO,80127
Kaiser,Denver,100436,436 #436 100436 2090436,10350 E. Dakota Ave.,CO,80247
Kaiser,Westminster,100437,437 #437 100437 2090437,7701 Sheridan Blvd,CO,80003
Kaiser,Denver,100438,438 #438 100438 2090438,2045 Franklin Street,CO,80205
Kaiser,Englewood,100439,439 #439 100439 2090439,2955 S. Broadway,CO,80113
Kaiser,Denver,100440,440 #440 100440 2090440,10400 E. Alameda Ave.,CO,80247
Kaiser,Aurora,100441,441 #441 100441 2090441,14701 E. Exposition Ave.,CO,80012
Kaiser,Boulder,100442,442 #442 100442 2090442,580 Mohawk Drive,CO,80303
Kaiser,Centennial,100443,443 #443 100443 2090443,5555 East Arapahoe Road,CO,80122
Kaiser,Lynwood,100444,444 #444 100444 2090444,3830 Martin Luther King Jr. Blvd.,CA,90262
Kaiser,Ventura,100445,445 #445 100445 2090445,888 S. Hill Road,CA,93003
Kaiser,Murrieta,100446,446 #446 100446 2090446,25500 Medical Center Drive,CA,92562
Kaiser,Coachella,100448,448 #448 100448 2090448,51101 Harrison St.,CA,92236
Kaiser,Camarillo,100449,449 #449 100449 2090449,309 W. Ventura Blvd. Suite B,CA,93010
Kaiser,Santa Ana,100450,450 #450 100450 2090450,1851 E. First St.,CA,92705
Kaiser,Santa Paula,100451,451 #451 100451 2090451,221 E. Harvard Blvd.,CA,93060
Kaiser,Oxnard,100452,452 #452 100452 2090452,2103 E. Gonzales Road,CA,93036
Kaiser,Anaheim,100453,453 #453 100453 2090453,1011 S. East St.,CA,92805
Kaiser,Desert Hot Springs,100454,454 #454 100454 2090454,14001 Palm Drive,CA,92240
Kaiser,Ventura,100455,455 #455 100455 2090455,2601 E. Main St.,CA,93003
Kaiser,Oxnard,100456,456 #456 100456 2090456,2200 E. Gonzalez Rd,CA,93036
Kaiser,Cathedral City,100457,457 #457 100457 2090457,31575 Date Palm Drive,CA,92234
Kaiser,Clackamas,100458,458 #458 100458 2090458,9900 SE Sunnyside Road,OR,97015
Kaiser,Barberton,100460,460 #460 100460 2090460,"41 5th Street, SE",OH,44203
Kaiser,San Leandro,100461,461 #461 100461 2090461,1440 168th Ave.,CA,94578
Kaiser,Mill Valley,100462,462 #462 100462 2090462,"750 Redwood Hwy., Suite 1206",CA,94941
Kaiser,Antioch,100463,463 #463 100463 2090463,3400 Delta Fair Blvd.,CA,94509
Kaiser,Sugar Hill,100464,464 #464 100464 2090464,1435 Broadmoor Blvd.,GA,30518
Kaiser,Lithonia,100465,465 #465 100465 2090465,8011 Mall Parkway,GA,30038
Kaiser,Novato,100508,508 #508 100508 2090508,"100 Rowland Way, Suite 125",CA,94945
Kaiser,Irvine,100509,509 #509 100509 2090509,6640 Alton Pkwy.,CA,92618
Kaiser,Diamond Bar,100510,510 #510 100510 2090510,1336 Bridgegate Dr.,CA,91765
Kaiser,Palm Desert,100511,511 #511 100511 2090511,75-036 Gerald Ford Drive,CA,92211
Kaiser,Santa Ana,100512,512 #512 100512 2090512,3601 S. Harbor Blvd.,CA,92704
Kaiser,Pinole,100513,513 #513 100513 2090513,1301 Pinole Valley Road,CA,94564
Kaiser,Pueblo,100514,514 #514 100514 2090514,"3670 Parker Boulevard, Suite 200",CO,81008
Kaiser,Parker,100515,515 #515 100515 2090515,10168 Parkglenn Way,CO,80138
Kaiser,Santa Clarita,100516,516 #516 100516 2090516,26415 Carl Boyer Drive,CA,91350
Kaiser,Mission Hills,100518,518 #518 100518 2090518,11001 Sepulveda Blvd.,CA,91345
Kaiser,Temecula,100519,519 #519 100519 2090519,27309 Madison Ave.,CA,92590
Kaiser,Redlands,100520,520 #520 100520 2090520,1301 California St.,CA,92374
Kaiser,Bakersfield,100521,521 #521 100521 2090521,2615 Chester Ave.,CA,93301
Kaiser,Upland,100522,522 #522 100522 2090522,1183 E. Foothill Blvd.,CA,91786
Kaiser,Downey,100523,523 #523 100523 2090523,9333 Imperial Highway,CA,90242
Kaiser,Beaverton,100524,524 #524 100524 2090524,11200 Murray Scholls Place Suite 100,OR,97007
Kaiser,Marietta,100525,525 #525 100525 2090525,"1205 Johnson Ferry Road, Suite 107",GA,30068
Kaiser,Decatur,100527,527 #527 100527 2090527,"201 W Ponce de Leon Avenue, Suite A",GA,30030
Kaiser,Concord Township,100528,528 #528 100528 2090528,7590 Auburn Road,OH,44077
Kaiser,City of Industry,100530,530 #530 100530 2090530,"12801 Crossroads Pkwy. South, Suite 100 West Entrance",CA,91746
Kaiser,Avon,100531,531 #531 100531 2090531,2100 Center Road,OH,44094
Kaiser,Brunswick,100532,532 #532 100532 2090532,3724 Center Road,OH,44212
Kaiser,Akron,100533,533 #533 100533 2090533,One Perkins Square,OH,44308
Kaiser,Chardon,100536,536 #536 100536 2090536,510 Fifth Ave.,OH,44024
Kaiser,Madison,100537,537 #537 100537 2090537,6270 North Ridge Road,OH,44057
Kaiser,Mentor,100540,540 #540 100540 2090540,9485 Mentor Avenue,OH,44060
Kaiser,Mentor,100541,541 #541 100541 2090541,7956 Tyler Blvd.,OH,44060
Kaiser,Willowick,100542,542 #542 100542 2090542,29804 Lakeshore Blvd.,OH,44095
Kaiser,Massillon,100544,544 #544 100544 2090544,7337 Caritas Circle NW,OH,44646
Kaiser,Canton,100545,545 #545 100545 2090545,"1320 Timken Mercy Drive, NW",OH,44708
Kaiser,North Canton,100547,547 #547 100547 2090547,"6200 Whipple Ave., NW",OH,44720
Kaiser,Ravenna,100548,548 #548 100548 2090548,6847 N. Chestnut Street,OH,44266
Kaiser,Rocky River,100549,549 #549 100549 2090549,19895 Detroit Avenue,OH,44116
Kaiser,Willoughby,100550,550 #550 100550 2090550,35900 Euclid Avenue,OH,44094
Kaiser,Avon,100551,551 #551 100551 2090551,1997 Healthway Drive,OH,44011
Kaiser,Elyria,100552,552 #552 100552 2090552,630 E. River Street,OH,44035
Kaiser,Cleveland,100553,553 #553 100553 2090553,"2999 Payne Ave., Suite 216",OH,44114
Kaiser,Pepper Pike,100554,554 #554 100554 2090554,"29125 Chagrin Boulevard, Suite 110",OH,44122
Kaiser,Cleveland,100556,556 #556 100556 2090556,6835 Broadway Avenue,OH,44105
Kaiser,Cleveland,100558,558 #558 100558 2090558,2816 East 116th Street,OH,44120
Kaiser,Cleveland,100560,560 #560 100560 2090560,11100 St. Clair Ave.,OH,44108
Kaiser,Cleveland,100561,561 #561 100561 2090561,"4071 Lee Road, Ste. 260",OH,44128
Kaiser,Cleveland,100571,571 #571 100571 2090571,2500 MetroHealth Drive,OH,44109
Kaiser,Cleveland,100574,574 #574 100574 2090574,4330 West 150th St.,OH,44111
Kaiser,Cleveland,100576,576 #576 100576 2090576,3525 Scranton Road,OH,44109
Kaiser,Cleveland,100578,578 #578 100578 2090578,4229 Pearl Road,OH,44109
Kaiser,Cleveland,100619,619 #619 100619 2090619,4242 Lorain Ave.,OH,44113
Kaiser,Cleveland,100621,621 #621 100621 2090621,3838 West 150th St,OH,44111
Kaiser,Madison,100623,623 #623 100623 2090623,6067 N. Ridge Rd.,OH,44057
Kaiser,Painesville,100625,625 #625 100625 2090625,132 Richmond St.,OH,44077
Kaiser,Alliance,300005,5 #5 300005 20905,2444 W. State St,OH,44601
Kaiser,Medina,300011,11 #11 300011 209011,1041 N. Court Street,OH,44256
Kaiser,Ravenna,300012,12 #12 300012 209012,219 W. Main St.,OH,44266
Kaiser,Vermilion,300013,13 #13 300013 209013,"1605 State Route 60, Suite 11",OH,44089
Kaiser,Elyria,300016,16 #16 300016 209016,"125 E. Broad St., Suite 109",OH,44035
Kaiser,Grafton,300017,17 #17 300017 209017,479 Main St.,OH,44044
Kaiser,Mentor,300019,19 #19 300019 209019,9400 Mentor Ave.,OH,44060
Kaiser,Ventura,300020,20 #20 300020 209020,131 W. Main St.,CA,93001
Kaiser,Camarillo,300021,21 #21 300021 209021,5259 Mission Oaks Blvd.,CA,93010
Kaiser,Camarillo,300022,22 #22 300022 209022,2550 Las Posas Road,CA,93010
Kaiser,Fredericksburg,300023,23 #23 300023 209023,1201 Hospital Drive,VA,22401
Kaiser,Folsom,300024,24 #24 300024 209024,285 Palladio Parkway,CA,95630
Kaiser,Salem,300025,25 #25 300025 209025,1160 Wallace Road NW,OR,97304
Kaiser,Monument,300026,26 #26 300026 209026,15854 Jackson Creek Pkwy.,CO,80132
Kaiser,Woodland Park,300027,27 #27 300027 209027,41 State Highway 67,CO,80863
Kaiser,Hilo,300028,28 #28 300028 209028,1190 Waianuenue Ave.,HI,96720
Kaiser,Kealakekua,300029,29 #29 300029 209029,79-1019 Haukapila St.,HI,96750
Kaiser,Lanai City,300031,31 #31 300031 209031,628 Seventh Street,HI,96763
Kaiser,Kaunakakai,300034,34 #34 300034 209034,280 Puali St.,HI,96748
Kaiser,Kamuela,300035,35 #35 300035 209035,67-1125 Mamalahoa Hwy.,HI,96743
Kaiser,Kapaa,300037,37 #37 300037 209037,4800 Kawaihau Rd.,HI,96746
Kaiser,Waimea,300039,39 #39 300039 209039,4643 Waimea Canyon Drive,HI,96766
Kaiser,Lihue,300041,41 #41 300041 209041,3-3420 Kuhio Hwy.,HI,96766
Kaiser,Pueblo,300042,42 #42 300042 209042,4112 Outlook Blvd,CO,81008
Kaiser,Colorado Springs,300043,43 #43 300043 209043,"9480 Briar Village Pt., Suite 201",CO,80920
Kaiser,Colorado Springs,300044,44 #44 300044 209044,"3010 N. Circle Drive, Suite 120",CO,80909
Kaiser,Colorado Springs,300045,45 #45 300045 209045,"6011 E. Woodmen Rd., Suite 100",CO,80923
Kaiser,Colorado Springs,300049,49 #49 300049 209049,5731 Silverstone Terrace,CO,80919
Kaiser,Colorado Springs,300050,50 #50 300050 209050,"Highway 24 and 67, Suite C",CO,80863
Kaiser,Colorado Springs,300051,51 #51 300051 209051,"1625 Medical Center Point, Suite 100",CO,80907
Kaiser,Pueblo,300052,52 #52 300052 209052,2131 Jerry Murphy Rd.,CO,81001
Kaiser,Pueblo,300053,53 #53 300053 209053,58 Glen Royal Dr.,CO,81005
Kaiser,Portland,300057,57 #57 300057 209057,3620 N. Interstate Ave.,OR,97227
Kaiser,Clackamas,300058,58 #58 300058 209058,10180 SE Sunnyside Road,OR,97015
Kaiser,Kapolei,300059,59 #59 300059 209059,"91-590 Farrington Highway, Room 300",HI,96707
Kaiser,Laie,300060,60 #60 300060 209060,55-510 Kamehameha Hwy.,HI,96762
Kaiser,Kamuela,300062,62 #62 300062 209062,67-1185 Mamalahoa Hwy,HI,96743
Kaiser,Kapaau,300063,63 #63 300063 209063,54-3877 Akoni Pule Highway,HI,96755
Kaiser,Kamuela,300064,64 #64 300064 209064,65-1158 Mamalahoa Highway,HI,96743
Kaiser,Westlake,300065,65 #65 300065 209065,850 Columbia Road,OH,44145
Kaiser,Marietta,300066,66 #66 300066 209066,"1121 Johnson Ferry Road, Suite 100",GA,30068
Kaiser,Westlake,300067,67 #67 300067 209067,"2211 Crocker Road, Number 140",OH,44145
Kaiser,Middleburg Hts,300068,68 #68 300068 209068,"19250 Bagley Road, Suite 202",OH,44130
Kaiser,Aurora,300069,69 #69 300069 209069,700 Walden Place,OH,44202
Kaiser,Streetsboro,300070,70 #70 300070 209070,9318 State Route 14,OH,44241
Kaiser,Kent,300072,72 #72 300072 209072,"401 Devon Place, Number 115",OH,44240
Kaiser,Louisville,300073,73 #73 300073 209073,1302 W. Main St.,OH,44641
Kaiser,Canton,300074,74 #74 300074 209074,1811 Schneider St.,OH,44721
Kaiser,Uniontown,300075,75 #75 300075 209075,11932 King Church Ave,OH,44685
Kaiser,Canton,300076,76 #76 300076 209076,4760 Belpar St,OH,44718
Kaiser,Canton,300086,86 #86 300086 209086,5005 Whipple Ave,OH,44718
Kaiser,Akron,300087,87 #87 300087 209087,"701 White Pond Drive, Suite 300",OH,44320
Kaiser,Akron,300088,88 #88 300088 209088,130 W. Exchange St,OH,44302
Kaiser,Stow,300089,89 #89 300089 209089,4161 Bridgewater Parkway,OH,44224
Kaiser,Suwanee,300090,90 #90 300090 209090,"1300 Peachtree Industrial Blvd., Suite 4101",GA,30024
Kaiser,Morrow,300091,91 #91 300091 209091,2201 Mount Zion Parkway,GA,30260
Kaiser,Roswell,300092,92 #92 300092 209092,11710 Alpharetta Highway,GA,30076
Kaiser,Canton,300093,93 #93 300093 209093,3785 Sixes Road,GA,30114
Kaiser,Marietta,300094,94 #94 300094 209094,"3905 Due West Road, NW",GA,30064
Kaiser,Chamblee,300095,95 #95 300095 209095,5764 Peachtree Industrial Blvd.,GA,30341
Kaiser,Tustin,300096,96 #96 300096 209096,17542 E. 17th St.,CA,92780
Kaiser,Peachtree City,300097,97 #97 300097 209097,101 Lexington Circle,GA,30269
Kaiser,Atlanta,300098,98 #98 300098 209098,"865 North Highland Avenue, NE",GA,30306
Kaiser,Smyrna,300102,102 #102 300102 2090102,2994 Atlanta Road,GA,30080
Kaiser,Lawrenceville,300106,106 #106 300106 2090106,5710 Sugarloaf Parkway,GA,30043
Kaiser,Norcross,300108,108 #108 300108 2090108,5095 Peachtree Parkway,GA,30092
Kaiser,Decatur,300116,116 #116 300116 2090116,2738 Decatur Road,GA,30033
Kaiser,Roswell,300117,117 #117 300117 2090117,1380 Woodstock Road,GA,30075
Kaiser,Kennesaw,300125,125 #125 300125 2090125,3070 North Main Street,GA,30144
Kaiser,Suwanee,300132,132 #132 300132 2090132,5370 Laurel Springs Parkway,GA,30024
Kaiser,Woodstock,300135,135 #135 300135 2090135,1600 Towne Lake Parkway,GA,30189
Kaiser,Dacula,300136,136 #136 300136 2090136,3027 Jim Moore Road,GA,30019
Kaiser,Stockbridge,300137,137 #137 300137 2090137,5095 Mount Zion Parkway,GA,30281
Kaiser,Newnan,300138,138 #138 300138 2090138,2305 Hwy 34 East,GA,30265
Kaiser,Canton,300139,139 #139 300139 2090139,6120 Hickory Flat Highway,GA,30115
Kaiser,Covington,300140,140 #140 300140 2090140,4192 Salem Road,GA,30016
Kaiser,Douglasville,300141,141 #141 300141 2090141,6031 Fairburn Road,GA,30134
Kaiser,Atlanta,300142,142 #142 300142 2090142,2429 Martin Luther King Jr Drive,GA,30311
Kaiser,Atlanta,300143,143 #143 300143 2090143,"4300 Paces Ferry Road, SE",GA,30339
Kaiser,Loganville,300144,144 #144 300144 2090144,2720 Loganville Highway,GA,30052
Kaiser,Austell,300145,145 #145 300145 2090145,4120 Austell Road,GA,30106
Kaiser,Kennesaw,300146,146 #146 300146 2090146,"2779 North Cobb Parkway, NW",GA,30152
Kaiser,Marietta,300147,147 #147 300147 2090147,2464 Roswell Road,GA,30062
Kaiser,Norcross,300148,148 #148 300148 2090148,5985 Peachtree Parkway,GA,30092
Kaiser,Smyrna,300149,149 #149 300149 2090149,2670 Cobb Parkway,GA,30080
Kaiser,Powder Springs,300150,150 #150 300150 2090150,5230 Dallas Highway,GA,30127
Kaiser,Acworth,300151,151 #151 300151 2090151,1762 Mars Hill Road NW,GA,30101
Kaiser,Marietta,300152,152 #152 300152 2090152,2988 Shallowford Road,GA,30066
Kaiser,Atlanta,300153,153 #153 300153 2090153,7530 Roswell Road,GA,30350
Kaiser,Alpharetta,300154,154 #154 300154 2090154,3003 Old Alabama Road,GA,30022
Kaiser,Lawrenceville,300155,155 #155 300155 2090155,2990 Five Forks Trickum Road,GA,30044
Kaiser,Stone Mountain,300156,156 #156 300156 2090156,5320 Memorial Drive,GA,30083
Kaiser,Lawrenceville,300158,158 #158 300158 2090158,181 South Clayton Street,GA,30045
Kaiser,Douglasville,300160,160 #160 300160 2090160,9465 Highway 5,GA,30135
Kaiser,Lithonia,300161,161 #161 300161 2090161,2945 Panola Road,GA,30038
Kaiser,Stockbridge,300162,162 #162 300162 2090162,1855 Hudson Bridge Road,GA,30281
Kaiser,Atlanta,300163,163 #163 300163 2090163,"3800 Princeton Lake Parkway, HW",GA,30331
Kaiser,Atlanta,300164,164 #164 300164 2090164,1050 Delta Boulevard,GA,30354
Kaiser,Blue Ridge,300165,165 #165 300165 2090165,"101 Riverstone Vista, Suite 111",GA,30513
Kaiser,Roswell,300166,166 #166 300166 2090166,900 Holcomb Bridge Road,GA,30076
Kaiser,Lawrenceville,300167,167 #167 300167 2090167,"455 Philip Blvd., Suite 130",GA,30046
Kaiser,Holly Springs,300168,168 #168 300168 2090168,"684 Sixes Rd., Suite 275",GA,30115
Kaiser,Atlanta,300170,170 #170 300170 2090170,"2004 Peachtree Road, NW, Suite 100",GA,30309
Kaiser,Jonesboro,300171,171 #171 300171 2090171,2470 Mt. Zion Parkway,GA,30236
Kaiser,Duluth,300179,179 #179 300179 2090179,3620 Howell Ferry Road,GA,30045
Kaiser,Stockbridge,300180,180 #180 300180 2090180,1133 Eagle's Landing Parkway,GA,30281
Kaiser,Canton,300181,181 #181 300181 2090181,201 Hospital Road,GA,30114
Kaiser,Cumming,300182,182 #182 300182 2090182,1200 Northside Forsyth Drive,GA,30041
Kaiser,Fayetteville,300183,183 #183 300183 2090183,1255 Highway 54 West,GA,30214
Kaiser,Jasper,300184,184 #184 300184 2090184,1266 Highway 515 South,GA,30143
Kaiser,Newnan,300185,185 #185 300185 2090185,745 Poplar Road,GA,30265
Kaiser,Duluth,300186,186 #186 300186 2090186,3215 McClure Bridge Road,GA,30096
Kaiser,Atlanta,300187,187 #187 300187 2090187,1405 Clifton Road NE,GA,30322
Kaiser,Atlanta,300188,188 #188 300188 2090188,"2020 Peachtree Road, NW",GA,30309
Kaiser,Athens,300190,190 #190 300190 2090190,1199 Prince Avenue,GA,30606
Kaiser,Norwalk,300192,192 #192 300192 2090192,"12501 E. Imperial Hwy., Suite 400",CA,90650
Kaiser,Los Angeles,300195,195 #195 300195 2090195,1843 1/2 La Cienega Blvd.,CA,90035
Kaiser,Bakersfield,300196,196 #196 300196 2090196,2531 Chester Avenue,CA,93301
Kaiser,Evergreen,300197,197 #197 300197 2090197,2942 Evergreen Parkway,CO,80439
Kaiser,Kealakekua,300198,198 #198 300198 2090198,81-6629 Mamalahoa Hwy.,HI,96750
Kaiser,Kaunakakai,300199,199 #199 300199 2090199,"28 Kamoi St., Suite 100",HI,96748
Kaiser,Princeville,300200,200 #200 300200 2090200,5-4280 Kuhio Highway,HI,96722
Kaiser,Kapaa,300201,201 #201 300201 2090201,4-771 Kuhio Highway,HI,96746
Kaiser,San Diego,300202,202 #202 300202 2090202,5893 Copley Dr.,CA,92111
Kaiser,Lihue,300204,204 #204 300204 2090204,3-3295 Kuhio Hwy,HI,96766
Kaiser,Waimea,300205,205 #205 300205 2090205,4643-A Waimea Canyon Rd.,HI,96796
Kaiser,Lihue,300206,206 #206 300206 2090206,4491 A Kolopa St.,HI,96766
Kaiser,Eleele,300207,207 #207 300207 2090207,"4469 Waialo Rd., Suite C5",HI,96705
Kaiser,Kapaa,300208,208 #208 300208 2090208,4-831 Kuhio Hwy. Suite 500,HI,96746
Kaiser,Lihue,300209,209 #209 300209 2090209,"3-2600 Kaumualii Hwy., Suite 2000",HI,96766
Kaiser,Waimea,300210,210 #210 300210 2090210,1-9655 Kaumualii Hwy.,HI,96796
Kaiser,Kilauea,300211,211 #211 300211 2090211,"2460 Oka St., Suite 100",HI,96754
Kaiser,Kalaheo,300212,212 #212 300212 2090212,"4469 Papalina Rd., Suite 948",HI,96741
Kaiser,Koloa,300213,213 #213 300213 2090213,5330 Koloa Road,HI,96756
Kaiser,Lihue,300214,214 #214 300214 2090214,3-3300 Kuhio Hwy,HI,96766
Kaiser,Hanapepe,300215,215 #215 300215 2090215,1-3845 Kaumualii Hwy.,HI,96716
Kaiser,Wheat Ridge,300216,216 #216 300216 2090216,8300 W. 38th Avenue,CO,80033
Kaiser,Aurora,300217,217 #217 300217 2090217,12605 East 16th Ave.,CO,80045
Kaiser,Kailua-Kona,300218,218 #218 300218 2090218,78-6831 Alii Drive,HI,96740
Kaiser,Hilo,300219,219 #219 300219 2090219,50 E Puainako,HI,96720
Kaiser,Kihei,300220,220 #220 300220 2090220,1215 South Kihei Road,HI,96753
Kaiser,Honolulu,300221,221 #221 300221 2090221,1330 Pali Highway,HI,96813
Kaiser,Honolulu,300222,222 #222 300222 2090222,"1450 Ala Moana Blvd., Suite 2004",HI,96814
Kaiser,Honolulu,300223,223 #223 300223 2090223,1088 Bishop St.,HI,96813
Kaiser,Ewa Beach,300224,224 #224 300224 2090224,91-1401 Fort Weaver Road,HI,96706
Kaiser,Honolulu,300225,225 #225 300225 2090225,"2070 N King St., Suite 5",HI,96819
Kaiser,Haleiwa,300226,226 #226 300226 2090226,66-197 Kamehameha Hwy.,HI,96712
Kaiser,Honolulu,300227,227 #227 300227 2090227,377 Keahole St.,HI,96825
Kaiser,Hilo,300228,228 #228 300228 2090228,"82 Puuhonu Pl., Suite 103",HI,96720
Kaiser,Hilo,300229,229 #229 300229 2090229,"670 Ponahawai St., Suite 213",HI,96720
Kaiser,Hilo,300230,230 #230 300230 2090230,555 Kilauea Ave.,HI,96720
Kaiser,Hilo,300232,232 #232 300232 2090232,111 East Puainako St.,HI,96720
Kaiser,Honolulu,300233,233 #233 300233 2090233,4211 Waialae Ave.,HI,96816
Kaiser,Honolulu,300234,234 #234 300234 2090234,966 Kaheka St.,HI,96814
Kaiser,Kailua,300235,235 #235 300235 2090235,609 Kailua Road,HI,96734
Kaiser,Kailua,300236,236 #236 300236 2090236,"30 Aulike St., Suite 104",HI,96734
Kaiser,Honolulu,300237,237 #237 300237 2090237,3221 Waialae Avenue,HI,96816
Kaiser,Honolulu,300238,238 #238 300238 2090238,1620 N. School St.,HI,96817
Kaiser,Kaneohe,300239,239 #239 300239 2090239,46-047 Kamehameha Highway,HI,96744
Kaiser,Keaau,300240,240 #240 300240 2090240,16-586 Old Volcano Rd.,HI,96749
Kaiser,Kihei,300241,241 #241 300241 2090241,"41 E. Lipoa St., Suite 23A",HI,96753
Kaiser,Kailua-Kona,300242,242 #242 300242 2090242,"78-2600 Alii Dr., Suite H",HI,96740
Kaiser,Kailua-Kona,300243,243 #243 300243 2090243,75-5595 Palani Road,HI,96740
Kaiser,Lahaina,300244,244 #244 300244 2090244,1221 Honoapiilani Highway,HI,96761
Kaiser,Honolulu,300246,246 #246 300246 2090246,1748 Liliha St.,HI,96817
Kaiser,Honolulu,300247,247 #247 300247 2090247,2750 Woodlawn Dr.,HI,96822
Kaiser,Kahului,300248,248 #248 300248 2090248,70 Kaahumanu Ave.,HI,96732
Kaiser,Mililani,300249,249 #249 300249 2090249,94-780 A Meheula Parkway,HI,96789
Kaiser,Mililani,300250,250 #250 300250 2090250,95-1249 D Meheula Parkway,HI,96789
Kaiser,Honolulu,300251,251 #251 300251 2090251,2470 South King Street,HI,96826
Kaiser,Pahala,300252,252 #252 300252 2090252,"96-1115 Kamani St., Suite 36",HI,96777
Kaiser,Pearl City,300253,253 #253 300253 2090253,850 Kamehameha Highway,HI,96782
Kaiser,Aiea,300255,255 #255 300255 2090255,98-1005 Moanalua Road,HI,96701
Kaiser,Pukalani,300256,256 #256 300256 2090256,55 Kiopaa St.,HI,96768
Kaiser,Honolulu,300257,257 #257 300257 2090257,848 Ala Lilikoi Street,HI,96818
Kaiser,Kamuela,300259,259 #259 300259 2090259,65-1267 Kawaihae Rd.,HI,96743
Kaiser,Wahiawa,300260,260 #260 300260 2090260,"302 California Ave., Suite 105",HI,96786
Kaiser,Wahiawa,300261,261 #261 300261 2090261,925 California Ave.,HI,96786
Kaiser,Waianae,300262,262 #262 300262 2090262,86-120 Farrington Highway,HI,96792
Kaiser,Wailuku,300263,263 #263 300263 2090263,"1900 Main St., Suite 4",HI,96793
Kaiser,Waipahu,300267,267 #267 300267 2090267,94-060 Farrington Highway,HI,96797
Kaiser,Kaneohe,300268,268 #268 300268 2090268,45-480 Kaneohe Bay Drive,HI,96744
Kaiser,Mililani,300269,269 #269 300269 2090269,95-390 Kauahelani Ave.,HI,96789
Kaiser,Aiea,300288,288 #288 300288 2090288,99-115 Aiea Heights Drive,HI,96701
Kaiser,Honolulu,300294,294 #294 300294 2090294,1290 S. Beretania Street,HI,96814
Kaiser,Honolulu,300295,295 #295 300295 2090295,1173 21st Ave.,HI,96816
Kaiser,Kailua,300296,296 #296 300296 2090296,590 Kailua Road,HI,96734
Kaiser,Kaneohe,300297,297 #297 300297 2090297,45-934 Kamehameha Highway,HI,96744
Kaiser,Kaneohe,300298,298 #298 300298 2090298,47-388 Hui Iwa St.,HI,96744
Kaiser,Waipahu,300299,299 #299 300299 2090299,94-615 Kupuohi St.,HI,96753
Kaiser,Pearl City,300300,300 #300 300300 2090300,98-1264 Kaahumanu St.,HI,96782
Kaiser,Waipahu,300301,301 #301 300301 2090301,94-766 Farrington Highway,HI,96797
Kaiser,Marietta,300302,302 #302 300302 2090302,"1401 Johnson Ferry Road, Suite 390",GA,30062
Kaiser,Marietta,300303,303 #303 300303 2090303,2505 Dallas Highway,GA,30064
Kaiser,Douglasville,300304,304 #304 300304 2090304,"6875 Douglas Blvd., Suite A",GA,30315
Kaiser,Snellville,300305,305 #305 300305 2090305,2240 Fountain Drive,GA,30078
Kaiser,Newnan,300306,306 #306 300306 2090306,203 Newnan Crossing Bypass,GA,30263
Kaiser,Atlanta,300307,307 #307 300307 2090307,225 Peachtree ST NE STE C-08,GA,30303
Kaiser,Conyers,300308,308 #308 300308 2090308,1478 Dogwood Drive,GA,30013
Kaiser,Fayetteville,300309,309 #309 300309 2090309,101 Banks Road,GA,30214
Kaiser,Palm Desert,300310,310 #310 300310 2090310,"73733 Fred Waring Dr., Suite 110",CA,92260
Kaiser,Los Angeles,300311,311 #311 300311 2090311,1550 W. Manchester Ave.,CA,90047
Kaiser,Ewa Beach,300312,312 #312 300312 2090312,"91-919 Ft. Weaver Rd., Suite 106",HI,96706
Kaiser,Pearl City,300313,313 #313 300313 2090313,1130 Kuala St.,HI,96782
Kaiser,San Mateo,300314,314 #314 300314 2090314,1000 Franklin Parkway,CA,94403
Kaiser,Modesto,300315,315 #315 300315 2090315,"1444 Florida Ave., Suite 202",CA,95350
Kaiser,Modesto,300316,316 #316 300316 2090316,1320 Celeste Drive,CA,95355
Kaiser,Patterson,300317,317 #317 300317 2090317,101 North 3rd Street,CA,95363
Kaiser,Oakdale,300318,318 #318 300318 2090318,1300 West F Street,CA,95361
Kaiser,Turlock,300320,320 #320 300320 2090320,651 N. Golden State Boulevard,CA,95380
Kaiser,Patterson,300321,321 #321 300321 2090321,1035 Sperry Ave.,CA,95363
Kaiser,Turlock,300322,322 #322 300322 2090322,1100 Delbon Ave.,CA,95382
Kaiser,Stockton,300323,323 #323 300323 2090323,15 W. Harding Way,CA,95204
Kaiser,Stockton,300324,324 #324 300324 2090324,7929 Lower Sacramento Road,CA,95210
Kaiser,Pueblo,300325,325 #325 300325 2090325,908 W. Highway 50,CO,81008
Kaiser,Colorado Springs,300326,326 #326 300326 2090326,1633 Medical Center Point,CO,80907
Kaiser,Pueblo,300327,327 #327 300327 2090327,"201 Lamkin Street, Suite 101A",CO,81003
Kaiser,Colorado Springs,300328,328 #328 300328 2090328,3090 N. Academy Blvd.,CO,80917
Kaiser,Calhan,300329,329 #329 300329 2090329,"506 Golden St., Suite 120",CO,80808
Kaiser,Falcon,300330,330 #330 300330 2090330,7622 McLaughlin Road,CO,80831
Kaiser,Pueblo,300331,331 #331 300331 2090331,4301 Thatcher Avenue,CO,81005
Kaiser,Bolinas,300332,332 #332 300332 2090332,88 Mesa Road,CA,94924
Kaiser,Point Reyes Station,300333,333 #333 300333 2090333,3 Sixth Street,CA,94956
Kaiser,Stinson Beach,300334,334 #334 300334 2090334,3419 State Route 1,CA,94970
Kaiser,Point Reyes Station,300335,335 #335 300335 2090335,11150 State Route 1,CA,94956
Kaiser,Point Reyes Station,300336,336 #336 300336 2090336,11 Fourth Street,CA,94956
Kaiser,Pueblo,300337,337 #337 300337 2090337,1910 Lake Avenue,CO,81004
Kaiser,Kailua,300338,338 #338 300338 2090338,640 Ulukahiki Street,HI,96734
Kaiser,Honolulu,300339,339 #339 300339 2090339,2230 Liliha Street,HI,96817
Kaiser,Ewa Beach,300340,340 #340 300340 2090340,91-2141 Fort Weaver Road,HI,96706
Kaiser,Kahuku,300341,341 #341 300341 2090341,56-117 Pualalea Street,HI,96731
Kaiser,Honolulu,300342,342 #342 300342 2090342,1319 Punahou Street,HI,96826
Kaiser,Honolulu,300343,343 #343 300343 2090343,347 North Kuakini Street,HI,96817
Kaiser,Aiea,300344,344 #344 300344 2090344,98-1079 Moanalua Road,HI,96701
Kaiser,Honolulu,300345,345 #345 300345 2090345,1301 Punchbowl Street,HI,96813
Kaiser,Honolulu,300346,346 #346 300346 2090346,888 S. King Street,HI,96813
Kaiser,Wahiawa,300347,347 #347 300347 2090347,128 Lehua Street,HI,96786
Kaiser,Chardon,300348,348 #348 300348 2090348,501 Water Street,OH,44024
Kaiser,Castle Rock,300349,349 #349 300349 2090349,4318 Trail Boss Drive,CO,80104
Kaiser,Brighton,300350,350 #350 300350 2090350,859 S. Fourth Ave.,CO,80601
Kaiser,Atlanta,300351,351 #351 300351 2090351,"595 Piedmont Ave. NE, Suite 100",GA,30308
Kaiser,Carrollton,300352,352 #352 300352 2090352,794 South Park Street,GA,30117
Kaiser,Conyers,300353,353 #353 300353 2090353,1510 Milstead Ave. NE,GA,30012
Kaiser,Duluth,300354,354 #354 300354 2090354,1490 Pleasant Hill Road,GA,30096
Kaiser,Fayetteville,300355,355 #355 300355 2090355,780 Glynn St. North,GA,30212
Kaiser,Gainesville,300356,356 #356 300356 2090356,649 Shallowford Road NW,GA,30504
Kaiser,Loganville,300357,357 #357 300357 2090357,4398 Atlanta Highway,GA,30052
Kaiser,Smyrna,300358,358 #358 300358 2090358,"2670 Cobb Parkway, SE",GA,30080
Kaiser,San Diego,300359,359 #359 300359 2090359,"9834 Genesee Ave., Suite 114",CA,92037
Kaiser,Hillsboro,300360,360 #360 300360 2090360,5373 W Baseline Rd,OR,97123
Kaiser,Canon City,300361,361 #361 300361 2090361,715 S 9th Avenue,CO,81212
Kaiser,Elk Grove,300362,362 #362 300362 2090362,10305 Promenade Parkway,CA,95757
Kaiser,Cleveland,300363,363 #363 300363 2090363,4229 Pearl Road,OH,44109
Kaiser,Portland,300364,364 #364 300364 2090364,7201 North Intestate Ave,OR,97217
Kaiser,Portland,300365,365 #365 300365 2090365,3704 N Interstate Ave,OR,97227
Kaiser,Athens,300366,366 #366 300366 2090366,2142 West Broad Street,GA,30606
Kaiser,Stow,300367,367 #367 300367 2090367,4300 Allen Road,OH,44224
Kaiser,Cuyahoga Falls,300368,368 #368 300368 2090368,"330 Broadway Street, East",OH,44221
Kaiser,Akron,300369,369 #369 300369 2090369,400 Wabash Avenue,OH,44307
Kaiser,Lodi,300370,370 #370 300370 2090370,225 Elyria Street,OH,44254
Kaiser,Akron,300371,371 #371 300371 2090371,320 W. Exchange Street,OH,44302
Kaiser,Uniontown,300372,372 #372 300372 2090372,1940 Town Park Boulevard,OH,44685
Kaiser,Akron,300375,375 #375 300375 2090375,4125 Medina Road,OH,44333
Kaiser,Tallmadge,300376,376 #376 300376 2090376,33 North Avenue,OH,44278
Kaiser,Willoughby,300377,377 #377 300377 2090377,34600 Chardon Road,OH,44094
Kaiser,Lyndhurst,300378,378 #378 300378 2090378,5183 Mayfield Road,OH,44124
Kaiser,Mentor,300379,379 #379 300379 2090379,8401 Mentor Avenue,OH,44060
Kaiser,Westlake,300380,380 #380 300380 2090380,"25200 Center Ridge Road, Suite 2100",OH,44145
Kaiser,Painesville,300381,381 #381 300381 2090381,74 South Park Avenue,OH,44077
Kaiser,Cleveland,300382,382 #382 300382 2090382,5208 Memphis Ave,OH,44144
Kaiser,Lakewood,300383,383 #383 300383 2090383,14701 Detroit Avenue,OH,44107
Kaiser,Westlake,300384,384 #384 300384 2090384,"24700 Center Ridge Road, suite 220 and 230",OH,44145
Kaiser,Monument,300385,385 #385 300385 2090385,550 Highway 105,CO,80132
Kaiser,Pueblo West,300386,386 #386 300386 2090386,346 S. Orchard Springs Drive,CO,81007
Kaiser,Ontario,300388,388 #388 300388 2090388,2295 S. Vineyard Ave,CA,91761
Kaiser,Stow,300389,389 #389 300389 2090389,"3913 Darrow Road, Suite 100",OH,44224
Kaiser,Kealakekua,300390,390 #390 300390 2090390,79-7400 Mamalahoa Hwy,HI,96750
Kaiser,Monument,300391,391 #391 300391 2090391,"550 Highway 105, Suite 105",CO,80132
Kaiser,Colorado Springs,300392,392 #392 300392 2090392,6001 E. Woodmen Road,CO,80923
Kaiser,Colorado Springs,300395,395 #395 300395 2090395,"2222 N. Nevada Avenue, 1st Floor",CO,80908
Kaiser,Colorado Springs,300398,398 #398 300398 2090398,"2222 N. Nevada Avenue, Suite 2017",CO,80908
Kaiser,Colorado Springs,300400,400 #400 300400 2090400,3205 N. Academy Blvd.,CO,80917
Kaiser,Woodland Park,300401,401 #401 300401 2090401,41 N. Highway 67,CO,80863
Kaiser,Middlefield,300404,404 #404 300404 2090404,15050 South Springdale Avenue,OH,44062
Kaiser,Wooster,300405,405 #405 300405 2090405,629 Beall Avenue,OH,44691
Kaiser,Fort Collins,300406,406 #406 300406 2090406,2950 E Harmony Rd,CO,80528
Kaiser,Loveland,300407,407 #407 300407 2090407,4901 Thompson Pkwy,CO,80534
Kaiser,Greeley,300408,408 #408 300408 2090408,1801 16th St,CO,80631
Kaiser,Loveland,300409,409 #409 300409 2090409,2000 Boise Ave,CO,80538
Kaiser,Amherst,300410,410 #410 300410 2090410,254 Cleveland Avenue,OH,44001
Kaiser,Akron,300411,411 #411 300411 2090411,2603 W Market St Ste 200,OH,44313
Kaiser,Uniontown,300413,413 #413 300413 2090413,1940 Town Park Blvd,OH,44685
Kaiser,Stow,300414,414 #414 300414 2090414,4300 Allen Road,OH,44224
Kaiser,Tallmadge,300415,415 #415 300415 2090415,33 North Ave Ste 202,OH,44278
Kaiser,Akron,300416,416 #416 300416 2090416,762 S Cleveland Massillon Rd,OH,44333
Kaiser,Streetsboro,300419,419 #419 300419 2090419,9318 State Route 14,OH,44241
Kaiser,Elyria,300420,420 #420 300420 2090420,160 Cleveland St,OH,44035
Kaiser,Cleveland,300421,421 #421 300421 2090421,6835 Broadway Ave,OH,44105
Kaiser,Fort Collins,300422,422 #422 300422 2090422,"1721 West Harmony Road, Suite 102",CO,80526
Kaiser,Greeley,300425,425 #425 300425 2090425,"2001 70th Ave, Suite 110",CO,80634
Kaiser,Loveland,300426,426 #426 300426 2090426,2555 E 13th Street Suite 110,CO,80537
Kaiser,Fairview Park,300427,427 #427 300427 2090427,21720 Lorain Road,OH,44126
Kaiser,Akron,300428,428 #428 300428 2090428,325 E Waterloo Road,OH,44319
Kaiser,Uniontown,300429,429 #429 300429 2090429,1587 Boettler Road,OH,44685
Kaiser,Cripple Creek,300436,436 #436 300436 2090436,1101 Teller County Road 1,CO,80813
Kaiser,Glendale,300437,437 #437 300437 2090437,501 N Orange Street,CA,91203
Kaiser,Yucca Valley,300438,438 #438 300438 2090438,57701 Twentynine Palms Highway,CA,92284
Kaiser,Indio,300439,439 #439 300439 2090439,46-900 Monroe Street,CA,92201
Kaiser,Woodland Hills,300440,440 #440 300440 2090440,5601 De Soto Ave.,CA,91367
Kaiser,Twentynine Palms,300441,441 #441 300441 2090441,72253 Twentynine Palms Highway,CA,92277
Kaiser,San Marcos,300442,442 #442 300442 2090442,400 Craven Road,CA,92078
Kaiser,San Diego,300443,443 #443 300443 2090443,4650 Palm Ave.,CA,92154
Kaiser,Victorville,300444,444 #444 300444 2090444,14011 Park Ave.,CA,92392
Kaiser,Carson,300445,445 #445 300445 2090445,23621 Main Street,CA,90745
Kaiser,Anaheim,300446,446 #446 300446 2090446,3440 E La Palma Ave,CA,92806
Kaiser,Strongsville,300447,447 #447 300447 2090447,17406 Royalton Road,OH,44136
Kaiser,Seville,300448,448 #448 300448 2090448,255 Center Street,OH,44273
Kaiser,Willoughby,300449,449 #449 300449 2090449,5105 S.O.M. Center Road,OH,44094
Kaiser,Hartville,300450,450 #450 300450 2090450,900 W. Maple St.,OH,44632
Kaiser,Fairlawn,300451,451 #451 300451 2090451,"4055 Embassy Parkway, Suite 110",OH,44333
Kaiser,Cleveland Heights,300452,452 #452 300452 2090452,10 Severance Circle,OH,44118
Kaiser,Parma,300453,453 #453 300453 2090453,12301 Snow Road,OH,44130
Kaiser,Twinsburg,300454,454 #454 300454 2090454,8920 Canyon Falls Blvd.,OH,44087
Kaiser,Akron,300455,455 #455 300455 2090455,1260 Independence Ave,OH,44310
Kaiser,Avon,300456,456 #456 300456 2090456,36711 American Way,OH,44011
Kaiser,Bedford,300457,457 #457 300457 2090457,19999 Rockside Road,OH,44146
Kaiser,Santa Rosa,300458,458 #458 300458 2090458,3333 Mendocino Ave,CA,95403
Kaiser,Santa Rosa,300459,459 #459 300459 2090459,3925 Old Redwood Highway,CA,95403
Kaiser,Manteca,300460,460 #460 300460 2090460,1721 West Yosemite Avenue,CA,95337
Kaiser,Baltimore,300461,461 #461 300461 2090461,6701 North Charles Street,MD,21204
Kaiser,Reston,300462,462 #462 300462 2090462,1890 Metro Center Drive,VA,20190
Kaiser,Upper Marlboro,300463,463 #463 300463 2090463,1221 Mercantile Lane,MD,20774
Kaiser,Honolulu,300464,464 #464 300464 2090464,2828 Paa Street,HI,96819
Kaiser,Waipahu,300466,466 #466 300466 2090466,94-1480 Moaniani St.,HI,96797
Kaiser,Wailuku,300467,467 #467 300467 2090467,80 Mahalani St.,HI,96793
Kaiser,Wailuku,300468,468 #468 300468 2090468,"2073 Wells Street, Suite 101",HI,96793
Kaiser,Honolulu,300469,469 #469 300469 2090469,3288 Moanalua Road,HI,96819
Kaiser,Wailuku,300471,471 #471 300471 2090471,55 Maui Lani Parkway,HI,96793
Kaiser,Kaneohe,300472,472 #472 300472 2090472,45-602 Kamehameha Highway,HI,96744
Kaiser,Kailua-Kona,300473,473 #473 300473 2090473,75-184 Hualalai Road,HI,96740
Kaiser,Honolulu,300474,474 #474 300474 2090474,"1441 Kapiolani Blvd, Suite 1600",HI,96814
Kaiser,Honolulu,300477,477 #477 300477 2090477,1010 Pensacola St.,HI,96814
Kaiser,Jonesboro,300478,478 #478 300478 2090478,2400 Mt. Zion Parkway,GA,30236
Kaiser,Sandy Springs,300480,480 #480 300480 2090480,20 Glenlake Parkway NE,GA,30328
Kaiser,Englewood,300484,484 #484 300484 2090484,501 East Hampden Avenue,CO,80110
Kaiser,Lone Tree,300485,485 #485 300485 2090485,10101 RidgeGate Parkway,CO,80124
Kaiser,Denver,300486,486 #486 300486 2090486,1835 Franklin Street,CO,80218
Kaiser,Highlands Ranch,300487,487 #487 300487 2090487,9139 S Ridgeline Blvd,CO,80129
Kaiser,Aurora,300488,488 #488 300488 2090488,13123 East 16th Avenue,CO,80045
Kaiser,Camarillo,300490,490 #490 300490 2090490,2620 East Las Posas Road,CA,93010
Kaiser,Bermunda Dunes,300491,491 #491 300491 2090491,42010 Washington St.,CA,92203
Kaiser,Colorado Springs,300492,492 #492 300492 2090492,"4105 Briargate Parkway, Suite 125",CO,80920
Kaiser,Moreno Valley,300493,493 #493 300493 2090493,27300 Iris Ave.,CA,92555
Kaiser,Palm Desert,300494,494 #494 300494 2090494,"42575 Washington Street, Suite B",CA,92211
Kaiser,Anaheim,300496,496 #496 300496 2090496,3460 E. La Palma Ave.,CA,92806
Kaiser,Oxnard,300499,499 #499 300499 2090499,2303 E. Vineyard Ave.,CA,93030
Kaiser,Fillmore,300501,501 #501 300501 2090501,600 W. Ventura St.,CA,93015
Kaiser,Pueblo,300502,502 #502 300502 2090502,400 W. 16th St.,CO,81003
Kaiser,Canon City,300505,505 #505 300505 2090505,1338 Phay Ave.,CO,81212
Kaiser,Monument,300506,506 #506 300506 2090506,"550 Highway 105, Suite 101",CO,80132
Kaiser,Woodland Park,300510,510 #510 300510 2090510,"400 W. Midland Ave., Suite 100",CO,80863
Kaiser,Pueblo,300511,511 #511 300511 2090511,3204 Spaudling Ave.,CO,81008
Kaiser,Rocky River,300512,512 #512 300512 2090512,"20575 Center Ridge Road, Suite 500",OH,44116
Kaiser,Alpharetta,300513,513 #513 300513 2090513,"11180 State Bridge Road, Suite 501",GA,30022
Kaiser,Cumming,300514,514 #514 300514 2090514,"5610 Bethelview Road, Suite 500",GA,30040
Kaiser,Marietta,300519,519 #519 300519 2090519,"220 N. Cobb Parkway, Suite 400",GA,30062
Kaiser,Hapeville,300522,522 #522 300522 2090522,3580 Atlanta Avenue,GA,30354
Kaiser,Atlanta,300524,524 #524 300524 2090524,5670 Fulton Industrial Blvd.,GA,30336
Kaiser,Atlanta,300525,525 #525 300525 2090525,688 Spring Street,GA,30308
Kaiser,Lawrenceville,300526,526 #526 300526 2090526,"755 Lawrenceville Suwanee Road, Ste. 1600",GA,30043
Kaiser,Peachtree,300527,527 #527 300527 2090527,"8 Eastbrook Bend, Suite B",GA,30269
Kaiser,Duluth,300528,528 #528 300528 2090528,2660 Satellite Blvd.,GA,30096
Kaiser,Kennesaw,300529,529 #529 300529 2090529,2985 George Busbee Parkway,GA,30144
Kaiser,Alpharetta,300533,533 #533 300533 2090533,3795 Mansell Road,GA,30022
Kaiser,Lawrenceville,300534,534 #534 300534 2090534,1000 Medical Center Boulevard,GA,30046
Kaiser,Washington,300535,535 #535 300535 2090535,700 2nd St NE,DC,20002
Kaiser,Boulder,300536,536 #536 300536 2090536,1100 Balsam Avenue,CO,80301
Kaiser,Denver,300538,538 #538 300538 2090538,1400 Jackson Street,CO,80206
Kaiser,Aurora,300539,539 #539 300539 2090539,1501 South Potomac Street,CO,80012
Kaiser,Atlanta,300540,540 #540 300540 2090540,"2700 Clairmont Road, NE",GA,30329
Kaiser,Kealakekua,300541,541 #541 300541 2090541,81-6350 Mamalahoa Highway Unit 100,HI,96750
Kaiser,Pueblo,300542,542 #542 300542 2090542,"3676 Parker Blvd., Suite 165",CO,81008
Kaiser,Pueblo,300581,581 #581 300581 2090581,404 W. 12th Street,CO,81003
Kaiser,Pueblo,300583,583 #583 300583 2090583,"1619 N. Greenwood Ave., Suite 308",CO,81003
Kaiser,Pueblo,300585,585 #585 300585 2090585,"1600 N Grand Avenue, Suite 139",CO,81003
Kaiser,McLean,300587,587 #587 300587 2090587,8008 Westpark Dr.,VA,22102
Kaiser,Gaithersburg,300589,589 #589 300589 2090589,655 Watkins Mill Road,MD,20879
Kaiser,Washington,300681,681 #681 300681 2090681,2301 M Street Northwest,DC,20037
Kaiser,North Canton,300683,683 #683 300683 2090683,4914 Portage Road,OH,44720
Kaiser,Mentor,300685,685 #685 300685 2090685,7695 Mentor Avenue,OH,44060
Kaiser,Concord Township,300781,781 #781 300781 2090781,7536 Fredle Drive,OH,44077
Kaiser,Kent,300783,783 #783 300783 2090783,2500 State Route 59,OH,44240
Kaiser,Medina,300785,785 #785 300785 2090785,3443 Medina Road,OH,44256
Kaiser,Canon City,300881,881 #881 300881 2090881,1121 Main Street,CO,81212
Kaiser,Florence,300883,883 #883 300883 2090883,"517 W. 3rd Street, Suite 220",CO,81226
Kaiser,Canon City,300981,981 #981 300981 2090981,1336 Bauer Lane,CO,81212
Kaiser,Sunnyvale,301081,81 #81 301081 209081,1263 E Arques Ave,CA,94085
Kaiser,Massillon,301185,185 #185 301185 2090185,1 Massillon Market Place Drive SW,OH,44646
Kaiser,Ventura,301281,281 #281 301281 2090281,1000 S Hill Road Ste 100,CA,93003
Kaiser,Escondido,301381,381 #381 301381 2090381,2185 W Citracado Parkway,CA,92029
Kaiser,Halethorpe,301481,481 #481 301481 2090481,1701 Twin Springs Road,MD,21227
Kaiser,Beaverton,301581,581 #581 301581 2090581,15050 SW Koll Parkway Suite J,OR,97006
Kaiser,Thousand Oaks,301681,681 #681 301681 2090681,322 E. Thousand Oaks Blvd,CA,91360
Kaiser,Foothill Ranch,301781,781 #781 301781 2090781,26882 Towne Centre Dr Fl 1,CA,92610
Kaiser,Moreno Valley,301783,783 #783 301783 2090783,27200 Iris Ave FL 1,CA,92555
Kaiser,Palm Springs,301881,881 #881 301881 2090881,"100 S Sunrise Way, Ste. A",CA,92262
Kaiser,San Leandro,301981,981 #981 301981 2090981,2500 Merced Street,CA,94577
Kaiser,San Rafael,302081,81 #81 302081 209081,820 Las Gallinas Ave,CA,94903
Kaiser,Hillsboro,302181,181 #181 302181 2090181,2875 NW Stucki Ave,OR,97124
Kaiser,Indian Wells,302281,281 #281 302281 2090281,"74785 Hwy 111, Suite 100",CA,92210
Kaiser,San Ramon,302381,381 #381 302381 2090381,2300 Camino Ramon,CA,94583
Kaiser,Gardena (Carson),302481,481 #481 302481 2090481,18600 S. Figuerora Street,CA,90248
Kaiser,San Diego,302581,581 #581 302581 2090581,3851 Shaw Ridge Rd,CA,92130
Kaiser,Tustin,302681,681 #681 302681 2090681,2521 Michelle Drive,CA,92780
Kaiser,Beaverton,302781,781 #781 302781 2090781,15950 SW Millikan Way,OR,97006
Kaiser,Portland,302783,783 #783 302783 2090783,6640 SW Redwood Lane,OR,97224
Kaiser,Portland,302785,785 #785 302785 2090785,800 SW 13th Ave,OR,97205
Kaiser,Tigard,302787,787 #787 302787 2090787,9250 SW Hall Blvd,OR,97223
Kaiser,Portland,302789,789 #789 302789 2090789,"541 NE 20th Ave., Suite 210",OR,97232
Kaiser,Hillsboro,302791,791 #791 302791 2090791,256 SE Second Ave,OR,97123
Kaiser,Portland,302793,793 #793 302793 2090793,5847 NE 122nd Ave,OR,97230
Kaiser,North Hollywood,302881,881 #881 302881 2090881,5250 Lankershim Blvd.,CA,91601
Kaiser,Littleton,303181,181 #181 303181 2090181,6196 South Ammons Way,CO,80123
Kaiser,Centennial,303281,281 #281 303281 2090281,14200 East Arapahoe Road,CO,80112
Kaiser,Denver,303381,381 #381 303381 2090381,1835 Franklin Street,CO,80218
Kaiser,Hillsboro,303481,481 #481 303481 2090481,2875 NW Stucki Avenue,OR,97124
Kaiser,Pueblo West,303581,581 #581 303581 2090581,899 E. Industrial Blvd,CO,81007
Kaiser,Pueblo,303583,583 #583 303583 2090583,"3676 Parker Blvd, Suite 140",CO,81008
Kaiser,Aiea,303681,681 #681 303681 2090681,"98-1005 Moanalua Rd., Suite 1000",HI,96701
Kaiser,Wailuku,303781,781 #781 303781 2090781,75 Maui Lani Pkwy,HI,96793
Kaiser,Denver,303881,881 #881 303881 2090881,777 Bannock Street,CO,80204
Kaiser,Denver,303883,883 #883 303883 2090883,2525 S. Downing Street,CO,80210
Kaiser,Aurora,303885,885 #885 303885 2090885,900 Potomac Street,CO,80011
Kaiser,Lafayette,303887,887 #887 303887 2090887,200 Exempla Circle,CO,80026
Kaiser,Thornton,303889,889 #889 303889 2090889,9191 Grant Street,CO,80229
Kaiser,Denver,303891,891 #891 303891 2090891,4567 E. 9th Avenue,CO,80220
Kaiser,Denver,303981,981 #981 303981 2090981,1719 E. 19th Ave,CO,80218
Kaiser,Colorado Springs,303983,983 #983 303983 2090983,7621 Austin Bluffs Parkway,CO,80920
Kaiser,Colorado Springs,303985,985 #985 303985 2090985,1106 North Cascade Avenue,CO,80903
Kaiser,Estes Park,303987,987 #987 303987 2090987,555 Prospect Avenue,CO,80517
Kaiser,Denver,304281,281 #281 304281 2090281,"5250 Leetsdale Drive, Suite 125",CO,80246
Kaiser,Colorado Springs,304285,285 #285 304285 2090285,8890 N. Union Boulevard,CO,80920
Kaiser,Loveland,304381,381 #381 304381 2090381,1632 Hoffman Drive,CO,80535
Kaiser,Louisville,304383,383 #383 304383 2090383,2255 S. 88th Street,CO,80027
Kaiser,Denver,304385,385 #385 304385 2090385,2695 S. Jersey Street,CO,80222
Kaiser,Denver,304481,481 #481 304481 2090481,3520 W. Oxford Avenue,CO,80236
Kaiser,Lakewood,304483,483 #483 304483 2090483,421 Zang Street,CO,80228
Kaiser,Pueblo,304583,583 #583 304583 2090583,"1930 E. Orman Avenue, Suite B",CO,81004
Kaiser,Loveland,304587,587 #587 304587 2090587,"1805 E. 18th Street, Suite 7-8",CO,80538
Kaiser,Johnstown,304589,589 #589 304589 2090589,222 Johnstown Center Drive,CO,80534
Kaiser,Greeley,304591,591 #591 304591 2090591,"5890 W. 13th Street, Suite 100",CO,80634
Kaiser,Windsor,304593,593 #593 304593 2090593,1300 Main Street,CO,80550
Kaiser,Greeley,304595,595 #595 304595 2090595,1517 16th Avenue Court,CO,80631
Kaiser,Johnstown,304689,689 #689 304689 2090689,4401 A Union Street,CO,80534
Kaiser,Denver,304691,691 #691 304691 2090691,1690 Meade Street,CO,80204
Kaiser,Denver,304693,693 #693 304693 2090693,1920 High Street,CO,80218
Kaiser,Thornton,304695,695 #695 304695 2090695,8451 Pearl Street,CO,80229
Kaiser,Englewood,304697,697 #697 304697 2090697,3425 S. Clarkson Street,CO,80113
Kaiser,Victorville,304781,781 #781 304781 2090781,14011 Park Ave,CA,92392
Kaiser,Pueblo,304881,881 #881 304881 2090881,650 Dittmer Avenue,CO,81005
Kaiser,Canon City,304883,883 #883 304883 2090883,"933 Sell Avenue, Suite B",CO,81212
Kaiser,Colorado Springs,304885,885 #885 304885 2090885,"5901 Corporate Drive, Suite A",CO,80919
Kaiser,Colorado Springs,304887,887 #887 304887 2090887,3030 N. Circle Drive,CO,80909
Kaiser,Colorado Springs,304889,889 #889 304889 2090889,"4110 Briargate Parkway, Suite 100",CO,80920
Kaiser,Colorado Springs,304891,891 #891 304891 2090891,1615 Medical Center Point,CO,80907
Kaiser,Pueblo,304903,903 #903 304903 2090903,25 Montebello Road,CO,81001
Kaiser,Pueblo,304905,905 #905 304905 2090905,"1600 N. Grand Avenue, Suite 420",CO,81003
Kaiser,Pueblo,304907,907 #907 304907 2090907,1402 Fortino Boulevard,CO,81008
Kaiser,Broomfield,304983,983 #983 304983 2090983,"469 W. State Highway 7, Suite 2",CO,80023
Kaiser,Greeley,304985,985 #985 304985 2090985,"5890 W. 13th Street, Suite 102",CO,80634
Kaiser,Fort Collins,304987,987 #987 304987 2090987,2500 E. Prospect Road,CO,80525
Kaiser,Loveland,304989,989 #989 304989 2090989,"2555 E. 13th Street, Suite 200",CO,80537
Kaiser,Denver,304991,991 #991 304991 2090991,8155 E. 1st Avenue,CO,80230
Kaiser,Denver,304993,993 #993 304993 2090993,13772 Denver West Parkway,CO,80401
Kaiser,Woodland Park,305083,83 #83 305083 209083,16222 W. US Highway 24,CO,80863
Kaiser,Pueblo,305085,85 #85 305085 209085,1207 Pueblo Boulevard Way,CO,81005
Kaiser,Canon City,305087,87 #87 305087 209087,601 Greenwood Avenue,CO,81212
Kaiser,Greeley,305089,89 #89 305089 209089,2726 W. 11th Street Road,CO,80634
Kaiser,Windsor,305091,91 #91 305091 209091,"1580 Main Street, Suite 2",CO,80550
Kaiser,Loveland,305093,93 #93 305093 209093,"2000 N. Boise Avenue, 3rd Floor",CO,80538
Kaiser,Wheat Ridge,305097,97 #97 305097 209097,8300 W. 38th Avenue,CO,80033
Kaiser,Lone Tree,305099,99 #99 305099 209099,"10103 Ridgegate Parkway, Suite 106",CO,80124
Kaiser,Lafayette,305105,105 #105 305105 2090105,2594 Trailridge Drive,CO,80026
Kaiser,Louisville,305107,107 #107 305107 2090107,1855 Plaza Drive,CO,80027
Kaiser,Colorado Springs,305181,181 #181 305181 2090181,1633 Medical Center Point,CO,80907
Kaiser,Wheat Ridge,305283,283 #283 305283 2090283,"8550 W. 38th Avenue, Suite 102",CO,80033
Kaiser,Fort Collins,305285,285 #285 305285 2090285,"1915 Wilmington Drive, Suite 101",CO,80528
Kaiser,Fort Collins,305287,287 #287 305287 2090287,"2127 E. Harmony Road, Suite 130",CO,80528
Kaiser,Loveland,305289,289 #289 305289 2090289,"2555 E. 13th Street, Suite 100",CO,80537
Kaiser,Greeley,305291,291 #291 305291 2090291,2001 70th Avenue,CO,80634
Kaiser,Pueblo,305385,385 #385 305385 2090385,850 Eagle Ridge Boulevard,CO,81008
Kaiser,Arvada,305387,387 #387 305387 2090387,"5265 Vance Street, Suite 100",CO,80002
Kaiser,Lafayette,305389,389 #389 305389 2090389,"2655 Crescent Drive, Suite C",CO,80026
Kaiser,Lakewood,305391,391 #391 305391 2090391,6166 W. Alameda Avenue,CO,80226
Kaiser,Longmont,305393,393 #393 305393 2090393,"1960 Ken Pratt Boulevard, Suite A",CO,80501
Kaiser,Westminster,305395,395 #395 305395 2090395,8410 Decatur Street,CO,80031
Kaiser,Castle Rock,305397,397 #397 305397 2090397,"4348 Woodlands Boulevard, Suite 131",CO,80104
Kaiser,Aurora,305399,399 #399 305399 2090399,509 North Sable Boulevard,CO,80011
Kaiser,Thornton,305401,401 #401 305401 2090401,8451 Pearl Street,CO,80229
Kaiser,Englewood,305481,481 #481 305481 2090481,"799 E. Hampden Avenue, Suite 300",CO,80112
Kaiser,Pueblo,305485,485 #485 305485 2090485,1601 Constitution,CO,81004
Kaiser,Colorado Springs,305487,487 #487 305487 2090487,3490 Centennial Boulevard,CO,80907
Kaiser,Pueblo,305493,493 #493 305493 2090493,2611 Jones Avenue,CO,81004
Kaiser,Canon City,305495,495 #495 305495 2090495,515 Fairview Street,CO,81212
Kaiser,Fort Collins,305499,499 #499 305499 2090499,940 Worthington Circle,CO,80526
Kaiser,Greeley,305501,501 #501 305501 2090501,708 22nd Street,CO,80632
Kaiser,Loveland,305503,503 #503 305503 2090503,2101 S. Garfield Avenue,CO,80537
Kaiser,Fort Collins,305505,505 #505 305505 2090505,4824 S. Lemay Avenue,CO,80525
Kaiser,Loveland,305507,507 #507 305507 2090507,1365 W. 29th Street,CO,80538
Kaiser,Northglenn,305509,509 #509 305509 2090509,401 Malley Drive,CO,80233
Kaiser,Lakewood,305511,511 #511 305511 2090511,7395 W. Eastman Place,CO,80227
Kaiser,Littleton,305513,513 #513 305513 2090513,5555 S. Elati Street,CO,80120
Kaiser,Westminster,305515,515 #515 305515 2090515,7481 Knox Place,CO,80030
Kaiser,Lakewood,305517,517 #517 305517 2090517,1655 Yarrow Street,CO,80214
Kaiser,Aurora,305519,519 #519 305519 2090519,14101 E. Evans Avenue,CO,80014
Kaiser,Boulder,305521,521 #521 305521 2090521,2800 Palo Parkway,CO,80301
Kaiser,Denver,305523,523 #523 305523 2090523,290 South Monaco Pkway,CO,80224
Kaiser,Wheat Ridge,305581,581 #581 305581 2090581,4800 Tabor Street,CO,80033
Kaiser,Aurora,305583,583 #583 305583 2090583,14699 E. Hampden Avenue,CO,80014
Kaiser,Parker,305587,587 #587 305587 2090587,12230 Lioness Way,CO,80134
Kaiser,Longmont,305589,589 #589 305589 2090589,1440 Coffman Street,CO,80501
Kaiser,Lakewood,305591,591 #591 305591 2090591,1625 Carr Street,CO,80215
Kaiser,Aurora,305593,593 #593 305593 2090593,1600 S. Potomac Street,CO,80012
Kaiser,Denver,305595,595 #595 305595 2090595,"2490 W. 26th Ave, Suites 120A, 10A, 55A, 5A",CO,80211
Kaiser,Golden,305597,597 #597 305597 2090597,"660 Golden Ridge Road, Suite 120A",CO,80401
Kaiser,Thornton,305599,599 #599 305599 2090599,"9005 Grant Street, Suite 400",CO,80229
Kaiser,Louisville,305601,601 #601 305601 2090601,972 W. Dillon Road,CO,80027
Kaiser,Sandy Springs,305681,681 #681 305681 2090681,"1100 Lake Hearn Drive, N.E.",GA,30342
Kaiser,Woodland Park,305881,881 #881 305881 2090881,16420 West Highway 24,CO,80863
Kaiser,Vancouver,305981,981 #981 305981 2090981,2211 NE 139th Street,WA,98686
Kaiser,Lafayette,306081,81 #81 306081 209081,"1724 Majestic Drive, Suite 109",CO,80026
Kaiser,Lakewood,306083,83 #83 306083 209083,1200 Wadworth Boulevard,CO,80214
Kaiser,Lancaster,306181,181 #181 306181 2090181,"44105 15th St. W., 4th Floor",CA,93534
Kaiser,Bakersfield,306281,281 #281 306281 2090281,2620 Chester Ave,CA,93301
Kaiser,Beachwood,306381,381 #381 306381 2090381,3999 Richmond Rd,OH,44122
Kaiser,Cleveland,306383,383 #383 306383 2090383,11100 Euclid Ave,OH,44106
Kaiser,Cleveland,306385,385 #385 306385 2090385,11100 Euclid Ave,OH,44106
Kaiser,Cleveland,306387,387 #387 306387 2090387,11100 Euclid Ave,OH,44106
Kaiser,Richmond heights,306389,389 #389 306389 2090389,27100 Chardon Rd,OH,44143
Kaiser,Lone Tree,306681,681 #681 306681 2090681,10240 Park Meadows Drive,CO,80124
Kaiser,Denver,306683,683 #683 306683 2090683,1919 East 18th Avenue,CO,80206
Kaiser,Canon City,306781,781 #781 306781 2090781,3245 E. Highway 50,CO,81212
Kaiser,Falcon,306783,783 #783 306783 2090783,7475 McLaughlin Road,CO,80831
Kaiser,Colorado Springs,306881,881 #881 306881 2090881,1400 East Boulder Street,CO,80909
Kaiser,Parker,306883,883 #883 306883 2090883,"9399 Crown Crest Boulevard, Suite 300",CO,80138
Kaiser,Colorado Springs,306885,885 #885 306885 2090885,4125 Briargate Parkway,CO,80920
Kaiser,Pueblo,306887,887 #887 306887 2090887,"704 Fortino Boulevard, Suite A",CO,81008
Kaiser,Wheat Ridge,306889,889 #889 306889 2090889,3455 Lutheran Parkway Suite 230,CO,80033
Kaiser,Parker,306891,891 #891 306891 2090891,9395 Crown Crest Boulevard,CO,80138
Kaiser,Parker,306895,895 #895 306895 2090895,19285 Cottonwood Drive,CO,80138
Kaiser,Westminster,306897,897 #897 306897 2090897,"7577 West 103rd Avenue, Suite 200",CO,80031
Kaiser,Colorado Springs,306899,899 #899 306899 2090899,"175 South Union Boulevard, Suite 225",CO,80910
Kaiser,Loveland,306981,981 #981 306981 2090981,2923 Ginnala Drive,CO,80538
Kaiser,Fort Collins,306983,983 #983 306983 2090983,1230 SW 14th Street,CO,80525
Kaiser,Greeley,306985,985 #985 306985 2090985,1600 23rd Ave,CO,80634
Kaiser,Loveland,306987,987 #987 306987 2090987,"2555 E. 13th St., Suite 115",CO,80537
Kaiser,Greeley,306989,989 #989 306989 2090989,2001 70th Avenue,CO,80634
Kaiser,Fort Collins,307081,81 #81 307081 209081,702 W. Drake Road,CO,80526
Kaiser,Portland,307181,181 #181 307181 2090181,1700 NE 102nd Ave,OR,97220
Kaiser,Greeley,307281,281 #281 307281 2090281,2429 35th Ave,CO,80634
Kaiser,Baltimore,307383,383 #383 307383 2090383,900 South Caton Avenue,MD,21229
Kaiser,Silver Spring,307385,385 #385 307385 2090385,1500 Forest Glen Road,MD,20910
Kaiser,Bethesda,307387,387 #387 307387 2090387,8600 Old Georgetown Road,MD,20814
Kaiser,Reston,307389,389 #389 307389 2090389,1850 Town Center Parkway,VA,20190
Kaiser,Fredericksburg,307391,391 #391 307391 2090391,1001 Sam Perry Blvd.,VA,22401
Kaiser,Stafford,307393,393 #393 307393 2090393,101 Hospital Center Blvd.,VA,22554
Kaiser,Washington,307395,395 #395 307395 2090395,111 Michigan Ave NW,DC,20010
Kaiser,Washington,307397,397 #397 307397 2090397,"5255 Loughboro Road, N.W.",DC,20016
Kaiser,Washington,307399,399 #399 307399 2090399,"110 Irving Street, NW",DC,20010
Kaiser,Bakersfield,307481,481 #481 307481 2090481,9000 Ming Ave,CA,93311
Kaiser,Arvada,307681,681 #681 307681 2090681,"9950 W 80TH Ave, Suite 25",CO,80005
Kaiser,Denver,307683,683 #683 307683 2090683,755 S Colorado Blvd,CO,80246
Kaiser,Boulder,307685,685 #685 307685 2090685,"2880 Folsom St., Suite 110",CO,80304
Kaiser,Brighton,307687,687 #687 307687 2090687,"4700 E Bromley Lane, Suite 103",CO,80601
Kaiser,Denver,307689,689 #689 307689 2090689,"2900 Downing st., Suite C",CO,80205
Kaiser,Aurora,307781,781 #781 307781 2090781,482 S Chambers Rd,CO,80017
Kaiser,Englewood,307783,783 #783 307783 2090783,3247 S Lincoln St,CO,80113
Kaiser,Fountain,307785,785 #785 307785 2090785,6910 Bandley Drive,CO,80817
Kaiser,Lakewood,307787,787 #787 307787 2090787,"1057 S Wadsworth Blvd, Suite 100",CO,80226
Kaiser,Lakewood,307881,881 #881 307881 2090881,"1750 Pierce St., Suite C",CO,80214
Kaiser,Englewood,307883,883 #883 307883 2090883,"9777 Mount Pyramid Ct., Suite 140",CO,80112
Kaiser,Longmont,307885,885 #885 307885 2090885,"1715 Iron Hourse Dr., Suite 170",CO,80501
Kaiser,Denver,307889,889 #889 307889 2090889,"7465 E. 1st Ave., Suite A",CO,80230
Kaiser,Lakewood,307891,891 #891 307891 2090891,"1750 Pierce St., Suite A",CO,80214
Kaiser,Westminster,307895,895 #895 307895 2090895,"12365 Huron St., Suite 500",CO,80234
Kaiser,Parker,307897,897 #897 307897 2090897,"10371 S. Parkglenn Way, Suite 180",CO,80138
Kaiser,Aurora,307899,899 #899 307899 2090899,1411 S Potomac St AMC AMC II Suite 100,CO,80012
Kaiser,Littleton,307901,901 #901 307901 2090901,209 W County Line Road,CO,80129
Kaiser,Denver,307903,903 #903 307903 2090903,"850 E Harvard Ave, Suite 60",CO,80210
Kaiser,Thornton,307907,907 #907 307907 2090907,8800 Fox Drive,CO,80260
Kaiser,Commerce City,307909,909 #909 307909 2090909,6320 Holly St,CO,80022
Kaiser,Lakewood,307915,915 #915 307915 2090915,"11700 West 2nd Pl., Suite 325",CO,80228
Kaiser,Westminster,307917,917 #917 307917 2090917,"9053 Harlan St., Suite 90",CO,80031
Kaiser,Palm Desert,307981,981 #981 307981 2090981,"73733 Fred Waring Drive, Suite 110",CA,92260
Kaiser,Strongsville,308081,81 #81 308081 209081,16224 Pearl Road,OH,44136
Kaiser,Beachwood,308083,83 #83 308083 209083,23350 Mercantile Road,OH,44122
Kaiser,Willoughby,308085,85 #85 308085 209085,388789 Mentor Avenue,OH,44094
Kaiser,Middlefield,308087,87 #87 308087 209087,15596 West High Street,OH,44062
Kaiser,Medina,308089,89 #89 308089 209089,275 Forest Meadows Drive,OH,44256
Kaiser,Medina,308091,91 #91 308091 209091,3626 Medina Road,OH,44256
Kaiser,Strongsville,308093,93 #93 308093 209093,19980 West 130th Street,OH,44136
Kaiser,Garfield Heights,308095,95 #95 308095 209095,5090 Turney Road,OH,44125
Kaiser,Parma,308097,97 #97 308097 209097,5400 Pearl Road,OH,44129
Kaiser,South Euclid,308099,99 #99 308099 209099,2135 Warrensville Center Road,OH,44121
Kaiser,Windsor,308181,181 #181 308181 2090181,1300 Main Street,CO,80550
Kaiser,Oceanside,308281,281 #281 308281 2090281,1302 Rocky Point Drive,CA,92056
Kaiser,Fort Morgan,308381,381 #381 308381 2090381,909 E Railroad Avenue,CO,80701
Kaiser,Fort Collins,308383,383 #383 308383 2090383,303 Colland Drive,CO,80525
Kaiser,Greeley,308481,481 #481 308481 2090481,1700 18th Avenue,CO,80631
Kaiser,Kailua-Kona,308585,585 #585 308585 2090585,"76-6831 Alii Dr., Ste 418",HI,96740
Kaiser,Cerritos,308681,681 #681 308681 2090681,10820 E. 183rd St.,CA,90703
