keywords,city,Aggdata Store Number,store_number,address,state,zip_code
Kenneth Cole,Santa Monica,140,140,"395 Santa Monica Place, STE #140",CA,90401
Kenneth Cole,New York,1005,1005,95 Fifth Avenue,NY,10003
Kenneth Cole,San Francisco,1007,1007,"865 Market Street, SPACE #136",CA,94103
Kenneth Cole,Dallas,1014,1014,"610 NorthPark Center, Space C2-610",TX,75225
Kenneth Cole,Arlington,1022,1022,"1100 South Hayes Street, Fashion Cnt Pentagon City, Box Q03A",VA,22202
Kenneth Cole,King of Prussia,1023,1023,"160 N. Gulph Road, Plaza at King of Prussia",PA,19406
Kenneth Cole,Miami Beach,1027,1027,190 8th Street,FL,33139
Kenneth Cole,New York,1034,1034,595 Broadway,NY,10012
Kenneth Cole,Los Angeles,1037,1037,"10250 Santa Monica Blvd, Century City Shopping Center, Space 686",CA,90067
Kenneth Cole,Houston,1042,1042,"5135 West Alabama, The Galleria, Space 7065",TX,77056
Kenneth Cole,New York,1049,1049,107 E. 42nd Street,NY,10017
Kenneth Cole,Scottsdale,1058,1058,"7014 East Camelback, Scottsdale Fashion Square, Space #1001",AZ,85251
Kenneth Cole,Las Vegas,1060,1060,"3377 South Las Vegas Blvd., The Grand Canal Shops, Suite 2100",NV,89109
Kenneth Cole,Dallas,1067,1067,"13350 Dallas Parkway, Space 1585",TX,75240
Kenneth Cole,New York,1070,1070,130 East 57th Street,NY,10022
Kenneth Cole,Philadelphia,1074,1074,1422 Walnut Street,PA,19102
Kenneth Cole,Atlanta,1104,1104,"3393 Peachtree Road, Suite 3098",GA,30326
Kenneth Cole,Pasadena,1111,1111,"88 West Colorado Blvd, Space #101",CA,91105
Kenneth Cole,Las Vegas,1126,1126,"3200 South Las Vegas Blvd., Space 2070",NV,89109
Kenneth Cole,Los Angeles,1170,1170,"8500 Beverly Boulevard, The Give-back Boutique, Space 622",CA,90048
Kenneth Cole,Central Valley,5009,5009,"327 Red Apple Court, Woodbury Common Premium Outlet",NY,10917
Kenneth Cole,Gilroy,5012,5012,"8300 Arroyo Circle, Gilroy Premium Outlets, Suite #B-010",CA,95020
Kenneth Cole,Napa,5017,5017,"591 Factory Stores Drive, Napa Premium Outlets",CA,94558
Kenneth Cole,Destin,5019,5019,"10562 Emerald Coast Pkwy West, Silver Sands Factory Stores, Suite 114",FL,32550
Kenneth Cole,Sunrise,5024,5024,"12801 West Sunrise Blvd, Sawgrass Mills Mall, Space 505",FL,33323
Kenneth Cole,Secaucus,5025,5025,25 Enterprise Avenue,NJ,7094
Kenneth Cole,Cabazon,5026,5026,"48400 Seminole Drive, Desert Hills Premium Outlets, Suite 338",CA,92230
Kenneth Cole,Clinton,5033,5033,"20 Killingworth Turnpike, Clinton Crossing Premium Out., Suite 440",CT,6413
Kenneth Cole,Riverhead,5047,5047,"Tanger Drive, Tanger Outlet Center, Suite 809",NY,11901
Kenneth Cole,Orlando,5048,5048,"4953 International Drive, Space # 1A.09",FL,32819
Kenneth Cole,Primm,5052,5052,"32100 Las Vegas Blvd South, Fashion Outlet at Las Vegas, Suite 202",NV,89019
Kenneth Cole,Leesburg,5056,5056,"241 Ft. Evans Rd. NE, Leesburg Corner Premium Outlet, Space 301",VA,20176
Kenneth Cole,Philadelphia,5059,5059,"1631 Franklin Mills Circle, Space 223",PA,19154
Kenneth Cole,Elizabeth,5063,5063,651 Kapkowski Road,NJ,7201
Kenneth Cole,Camarillo,5065,5065,"990 Camarillo Center Drive, Camarillo Premium Outlets, Suite 1016",CA,93010
Kenneth Cole,Katy,5066,5066,"5000 Katy Mills Circle, Space #238",TX,77494
Kenneth Cole,Tempe,5068,5068,"5000 Arizona Mills Circle, Space #412",AZ,85282
Kenneth Cole,Dawsonville,5073,5073,"800 Highway 400 South, North Georgia Premium Outlets",GA,30534
Kenneth Cole,Lancaster,5075,5075,"501 Stanley K Tanger Blvd., Tanger Factory Outlet Center",PA,17602
Kenneth Cole,Orlando,5076,5076,"8200 Vineland Avenue, Orlando Premium Outlets, Suite 405",FL,32821
Kenneth Cole,Allen,5077,5077,"820 West Stacy Road, Allen Premium Outlets, Suite 140",TX,75013
Kenneth Cole,Hanover,5078,5078,"7000 Arundel Mills Circle, Space 452",MD,21076
Kenneth Cole,Wrentham,5079,5079,"One Premium Outlets Blvd, Wrentham Village Premium Out., Suite 185 - Wrentham Street",MA,2093
Kenneth Cole,San Marcos,5081,5081,"4015 Interstate 35 South, Tanger Factory Outlet Center, Suite 510",TX,78666
Kenneth Cole,Folsom,5084,5084,"13000 Folsom Blvd, Folsom Premium Oulets, Unit 1550",CA,95630
Kenneth Cole,Lawrenceville,5087,5087,"5900 Sugarloaf Parkway, Suite 249",GA,30043
Kenneth Cole,Las Vegas,5089,5089,855 Grand Central Parkway,NV,89106
Kenneth Cole,Lakewood,5092,5092,"14500 Colfax Avenue, Space 214",CO,80401
Kenneth Cole,Atlantic City,5093,5093,"15 North Michigan Avenue, The Walk Mall, Suite #428",NJ,8401
Kenneth Cole,Aurora,5094,5094,"1650 Premium Outlets Blvd, Chicago Premium Outlets, Suite 985",IL,60502
Kenneth Cole,Ontario,5097,5097,"One Mills Circle, Suite 816",CA,91764
Kenneth Cole,San Diego,5100,5100,"4125 Camino De La Plaza, Suite A-418",CA,92173
Kenneth Cole,ALBERTVILLE,5103,5103,"6500 LABEAUX AVENUE NE, STE F-010",MN,55301
Kenneth Cole,Estero,5106,5106,"10801 Corkscrew Road, Suite 405",FL,33928
Kenneth Cole,Auburn Hills,5110,5110,"4710 Baldwin Road, Suite 205",MI,48326
Kenneth Cole,Round Rock,5113,5113,"4401 N. IH-35, SUITE 766",TX,78664
Kenneth Cole,Tulalip,5114,5114,"10600 Quil Ceda Blvd, Space #815",WA,98271
Kenneth Cole,Commerce,5117,5117,"100 Citadel Drive, SPACE #448",CA,90040
Kenneth Cole,Ellenton,5118,5118,"5503 Factory Shops Blvd, Space # 200",FL,34222
Kenneth Cole,Miami,5119,5119,"11401 NW 12th St, Space # 344",FL,33172
Kenneth Cole,Canutillo,5120,5120,7051 South Desert Blvd.,TX,79835
Kenneth Cole,North Charleston,5123,5123,"4840 Tanger Outlet Blvd, Space #431",SC,29418
Kenneth Cole,Mercedes,5125,5125,"5001 East US 83, Space #921",TX,78570
Kenneth Cole,Cypress,5127,5127,"29300 Hempstead Road, Space #813",TX,77433
Kenneth Cole,Limerick,5128,5128,"18 West Lightcap Rd., Philadelphia Premium Outlets",PA,19464
Kenneth Cole,Deer Park,5129,5129,"407 The Arches Circle, Space #407",NY,11729
Kenneth Cole,Tinton Falls,5130,5130,1 Premium Outlet Boulevard,NJ,7753
Kenneth Cole,St. Augustine,5131,5131,"510 Prime Outlet Blvd, Suite 1045",FL,32092
Kenneth Cole,Silverthorne,5136,5136,"135-A Stephens Way, Space# R220",CO,80498
Kenneth Cole,Tannersville,5138,5138,1000 Premium Outlets Drive,PA,18372
Kenneth Cole,Michigan City,5139,5139,1004 Lighthouse Place,IN,46360
Kenneth Cole,Gonzales,5141,5141,"2200 Tanger Blvd, Suite 118",LA,70737
Kenneth Cole,Sparks,5142,5142,"1310 Scheels Dr., Suite 108",NV,89434
Kenneth Cole,Foley,5144,5144,"2601 S. McKenzie Street, Suite 454",AL,36535
Kenneth Cole,Monroe,5145,5145,"870 Premium Outlet Drive, Suite 870",OH,45050
Kenneth Cole,Vacaville,5146,5146,321 Nut Tree Rd.,CA,95687
Kenneth Cole,Las Vegas,5147,5147,7400 Las Vegas Blvd. South,NV,89123
Kenneth Cole,Milipitas,5148,5148,447 Great Mall Dr.,CA,95035
Kenneth Cole,Lake George,5150,5150,"1439 State Route 9, No. 10",NY,12845
Kenneth Cole,Woodbridge,5154,5154,2700 Potomac Mills Dr,VA,22192
Kenneth Cole,Gurnee,5155,5155,"6170 West Grand Avenue, Suite #599",IL,60031
Kenneth Cole,Grapevine,5156,5156,"3000 Grapevine Mills Parkway, Space No: 220",TX,76051
Kenneth Cole,Castle Rock,5158,5158,"5050 Factory Shops Blvd, Suite 305",CO,80108
Kenneth Cole,Texas City,5159,5159,"5885 IH 45N-Space 225, Space 225",TX,77591
Kenneth Cole,Leeds,5160,5160,"6200 Grand River Boulevard E, Space No: 218",AL,35094
Kenneth Cole,Myrtle Beach,5161,5161,"4635 Factory Store Blvd., Suite A130",SC,29579
Kenneth Cole,Blufton,5163,5163,"1254 Fording Island Rd, Space 252",SC,29910
Kenneth Cole,Livermore,5164,5164,"2654 Paragon Outlets Drive, Space 855",CA,94551
Kenneth Cole,Grand Prairie,5165,5165,2950 W. Interstate 20- Space 200,TX,75052
Kenneth Cole,Oklahoma City,5166,5166,"7624 W. Reno Ave, Suite I-960",OK,73127
Kenneth Cole,Rosemont,5167,5167,"5220 Fashion Outlets Way, Fashion Outlets of Chicago, Suite 2155",IL,60018
Kenneth Cole,West Palm Beach,5169,5169,"1771 Palm Beach Lake Blvd, Palm Beach Outlet, Suite W311",FL,33401
