keywords,city,Aggdata Store Number,store_number,address,state,zip_code
Kay Jewelers,Frankfort,5,#5,1309 U.S. 127,KY,40601
Kay Jewelers,Medina,6,#6,4939 Grande Shops Ave,OH,44256
Kay Jewelers,Ashland,9,#9,500 Winchester Ave.,KY,41101-7362
Kay Jewelers,Winchester,15,#15,1942 Bypass Rd,KY,40391
Kay Jewelers,Elizabethtown,20,#20,1704 N. Dixie Hwy.,KY,42701
Kay Jewelers,Stamford,22,#22,100 Greyrock Pl.,CT,06901-3118
Kay Jewelers,Dayton,25,#25,2700 Miamisburg Centerville Rd,OH,45459
Kay Jewelers,Wausau,26,#26,C302 Wausau Center,WI,54403
Kay Jewelers,Vienna,29,#29,267 Grand Central Mall,WV,26105
Kay Jewelers,Flint,32,#32,3241 S. Linden Rd.,MI,48507
Kay Jewelers,Farmington,36,#36,83 Westfarms Mall,CT,6032
Kay Jewelers,Taylor,42,#42,23000 Eureka Rd.,MI,48180
Kay Jewelers,Harper Woods,43,#43,18000 Vernier Rd.,MI,48225
Kay Jewelers,Troy,45,#45,380 W. 14 Mile Rd.,MI,48083
Kay Jewelers,Westland,48,#48,35000 W. Warren Rd.,MI,48185
Kay Jewelers,Novi,49,#49,27320 Novi Rd.,MI,48377
Kay Jewelers,Grand Rapids,52,#52,3155 28th St. SE,MI,49512
Kay Jewelers,Dearborn,53,#53,18900 Michigan Ave.,MI,48126
Kay Jewelers,Ann Arbor,54,#54,846 Briarwood Cir.,MI,48108-1616
Kay Jewelers,Akron,55,#55,2000 Brittain Rd.,OH,44310-1804
Kay Jewelers,Akron,56,#56,3265 W. Market St.,OH,44333
Kay Jewelers,Niles,57,#57,5555 Youngstown-Warren Rd.,OH,44446-4804
Kay Jewelers,Glen Burnie,67,#67,7900 Governor Ritchie Hwy,MD,21061
Kay Jewelers,Schaumburg,70,#70,5 Woodfield Shopping Center,IL,60173-5012
Kay Jewelers,Rockford,72,#72,7200 Harrison Ave.,IL,61112
Kay Jewelers,Norridge,74,#74,4210 N. Harlem Ave.,IL,60706
Kay Jewelers,Lincolnwood,76,#76,3333 W. Touhy Ave.,IL,60712
Kay Jewelers,Joliet,77,#77,3340 Mall Loop Dr.,IL,60431-1057
Kay Jewelers,Bourbonnais,78,#78,1602 N State Route 50,IL,60914
Kay Jewelers,Canton,81,#81,4307 Belden Village Mall,OH,44718
Kay Jewelers,Heath,82,#82,"771 S. 30th St., Unit 553",OH,43056
Kay Jewelers,Burton,83,#83,4190 E Court St Unit 737,MI,48509
Kay Jewelers,North Olmsted,84,#84,180 Great Northern Mall,OH,44070
Kay Jewelers,Sterling Hts.,85,#85,14600 Lakeside Cir.,MI,48313-1356
Kay Jewelers,Lansing,87,#87,5466 W. Saginaw Hwy,MI,48917
Kay Jewelers,Knoxville,89,#89,3001 Knoxville Center Mall,TN,37924
Kay Jewelers,Lancaster,91,#91,1635 River Valley Cir. S.,OH,43130-1465
Kay Jewelers,Okemos,92,#92,1982 Grand River Ave.,MI,48864
Kay Jewelers,Merrillville,93,#93,"1903 Southlake Mall, Unit DL-462",IN,46410
Kay Jewelers,Morristown,94,#94,2550 E. Morris Blvd.,TN,37813-5827
Kay Jewelers,Saginaw,96,#96,4699 Fashion Square Mall Space 310,MI,48604
Kay Jewelers,Holland,97,#97,12331 James St.,MI,49424
Kay Jewelers,Monroe,98,#98,2121 N. Monroe St.,MI,48162-5316
Kay Jewelers,Duluth,102,#102,1600 Miller Trunk Hwy.,MN,55811
Kay Jewelers,Rochester,103,#103,307 Apache Mall,MN,55902
Kay Jewelers,Saint Cloud,106,#106,4101 W. Division St.,MN,56301
Kay Jewelers,Roseville,109,#109,117 Rosedale Center,MN,55113
Kay Jewelers,Eau Claire,115,#115,4800 Golf Rd.,WI,54701-8914
Kay Jewelers,Sioux Falls,116,#116,1150 Empire Mall,SD,57106-6515
Kay Jewelers,Saint Louis,125,#125,341 South County Center Way,MO,63129
Kay Jewelers,Saint Peters,126,#126,2136 Mid Rivers Mall,MO,63376
Kay Jewelers,Cape Girardeau,128,#128,183 West Park Mall,MO,63703-6340
Kay Jewelers,Erie,138,#138,503 Millcreek Mall,PA,16565
Kay Jewelers,Fremont,142,#142,2200 Sean Street,OH,43420
Kay Jewelers,Adrian,143,#143,1357 S. Main St.,MI,49221
Kay Jewelers,Toledo,147,#147,5001 Monroe St.,OH,43623
Kay Jewelers,Lima,148,#148,2400 Elida Rd.,OH,45805
Kay Jewelers,Portage,156,#156,6650 S. Westnedge Ave.,MI,49024
Kay Jewelers,Madison,161,#161,65 West Towne Mall,WI,53719-1019
Kay Jewelers,Madison,162,#162,18 East Towne Mall,WI,53704
Kay Jewelers,Janesville,163,#163,2500 Milton Ave.,WI,53545-0452
Kay Jewelers,Brookfield,164,#164,95 N. Moorland Rd.,WI,53005
Kay Jewelers,La Crosse,165,#165,3800 State Rd. 16,WI,54601-1826
Kay Jewelers,Racine,166,#166,"5740 Durand Ave., Unit C392",WI,53406-5054
Kay Jewelers,Greendale,169,#169,5300 S. 76th St.,WI,53129-1102
Kay Jewelers,Rockaway,185,#185,301 Mt Hope Ave,NJ,7866
Kay Jewelers,Bloomington,195,#195,278 W. Market St.,MN,55425
Kay Jewelers,Midland,196,#196,6800 Eastman Rd.,MI,48642
Kay Jewelers,Barboursville,202,#202,500 Mall Rd.,WV,25504
Kay Jewelers,Blasdell,206,#206,626 McKinley Mall,NY,14219
Kay Jewelers,Sandusky,215,#215,4314 Milan Rd.,OH,44870
Kay Jewelers,Cambridge,219,#219,61233 Southgate Pkwy.,OH,43725
Kay Jewelers,New Hartford,220,#220,8555 Seneca Turnpike,NY,13413
Kay Jewelers,Piqua,221,#221,987 E. Ash St.,OH,45356-4133
Kay Jewelers,W. Burlington,222,#222,550 S. Gear Ave.,IA,52655
Kay Jewelers,Washington Court House,223,#223,1359 Leesburg Ave.,OH,43160
Kay Jewelers,Springfield,225,#225,1475 Upper Valley Pike,OH,45504-4047
Kay Jewelers,Zanesville,227,#227,3575 Maple Ave.,OH,43701-7019
Kay Jewelers,Amherst,235,#235,1265 Niagara Falls Blvd.,NY,14226-1104
Kay Jewelers,Gainesville,241,#241,150 Pearl Nix Pkwy Unit D5,GA,30501
Kay Jewelers,Cedar Falls,242,#242,306 Viking Road,IA,50613
Kay Jewelers,Ames,244,#244,2801 Grand Ave.,IA,50010
Kay Jewelers,Cedar Rapids,246,#246,4444 1st Ave. NE,IA,52402
Kay Jewelers,Sioux City,247,#247,4400 Sergeant Rd.,IA,51106-4740
Kay Jewelers,Dubuque,249,#249,555 John F. Kennedy Rd.,IA,52002
Kay Jewelers,Middlesboro,250,#250,905 N. 12th St.,KY,40965-1855
Kay Jewelers,Paducah,251,#251,5101 Hinkleville Rd. #455,KY,42001
Kay Jewelers,Newington,253,#253,50 Fox Run Rd.,NH,3801
Kay Jewelers,S. Portland,256,#256,364 Maine Mall Rd.,ME,4106
Kay Jewelers,Medford,260,#260,3850 Mystic Valley Pkwy.,MA,02155-6901
Kay Jewelers,Watertown,262,#262,"21182 Salmon Run Mall Loop W.,Spc #110B",NY,13601-2244
Kay Jewelers,South Burlington,267,#267,155 Dorset St.,VT,05403-6346
Kay Jewelers,Plattsburgh,268,#268,60 Smithfield Blvd.,NY,12901-2104
Kay Jewelers,Clarksville,269,#269,2801 Wilma Rudolph Blvd.,TN,37040-5011
Kay Jewelers,Dothan,271,#271,900 Commons Dr.,AL,36303-2283
Kay Jewelers,Camp Hill,277,#277,3538 Capital City Mall,PA,17011
Kay Jewelers,Poughkeepsie,280,#280,2001 South Rd.,NY,12601-5978
Kay Jewelers,Marshalltown,281,#281,2500 S. Center St.,IA,50158-4564
Kay Jewelers,Albany,286,#286,1 Crossgates Mall Rd.,NY,12203
Kay Jewelers,Waterloo,289,#289,2060 Crossroads Blvd.,IA,50702-4424
Kay Jewelers,Davenport,290,#290,320 W. Kimberly Rd.,IA,52806-5920
Kay Jewelers,Ashtabula,302,#302,3315 Northridge E.,OH,44004
Kay Jewelers,Elyria,303,#303,3345 Midway Mall,OH,44035
Kay Jewelers,Moline,304,#304,4500 16th St.,IL,61265-7078
Kay Jewelers,Minot,305,#305,2400 10th St. SW,ND,58701
Kay Jewelers,Colorado Springs,306,#306,1710 Briargate Blvd.,CO,80920
Kay Jewelers,Grand Junction,307,#307,2424 U.S. 6,CO,81505-1115
Kay Jewelers,Rapid City,308,#308,1601 Eglin Street,SD,57701
Kay Jewelers,Paramus,310,#310,252 Garden State Plaza,NJ,7652
Kay Jewelers,Bridgewater,311,#311,400 Commons Way,NJ,8807
Kay Jewelers,Langhorne,313,#313,2300 E. Lincoln Hwy.,PA,19047-1824
Kay Jewelers,Moorestown,318,#318,400 Route 38,NJ,8057
Kay Jewelers,Roanoke,321,#321,4284 Electric Rd.,VA,24018
Kay Jewelers,Christiansburg,323,#323,634 New River Rd.,VA,24073-6500
Kay Jewelers,Franklin,329,#329,1800 Mallory Lane,TN,37067
Kay Jewelers,Fort Gratiot,334,#334,4350 24th Ave.,MI,48059
Kay Jewelers,Marion,335,#335,1430 Mount Vernon Ave,OH,43302
Kay Jewelers,Bloomington,337,#337,2956 E. 3rd St.,IN,47401
Kay Jewelers,Kokomo,339,#339,1154 S. 17th St.,IN,46902-1901
Kay Jewelers,Buford,350,#350,3333 Buford Dr.,GA,30519
Kay Jewelers,Miami,357,#357,1455 NW 107th Ave.,FL,33172
Kay Jewelers,Coral Springs,358,#358,9469 W Atlantic Blvd,FL,33071
Kay Jewelers,Mary Esther,363,#363,300 Mary Esther Blvd.,FL,32569
Kay Jewelers,Pensacola,364,#364,5100 N. 9th Ave.,FL,32504-8735
Kay Jewelers,Port Richey,365,#365,9409 US Hwy 19,FL,34668
Kay Jewelers,St. Petersburg,367,#367,6856 Tyrone Square,FL,33710
Kay Jewelers,Lakeland,368,#368,3800 N US Hwy 98,FL,33809
Kay Jewelers,Leesburg,371,#371,10401 US Hwy. 441,FL,34788-8787
Kay Jewelers,Orlando,374,#374,3471 E. Colonial Dr.,FL,32803
Kay Jewelers,Tampa,376,#376,2200 E. Fowler Avenue,FL,33612
Kay Jewelers,Brandon,377,#377,585 Brandon Town Center Mall,FL,33511
Kay Jewelers,Melbourne,378,#378,1700 W. New Haven Ave.,FL,32904
Kay Jewelers,Saint Louis,379,#379,2124 Saint Louis Galleria,MO,63117
Kay Jewelers,Milford,382,#382,"1201 Boston Post Rd., Space 1022",CT,6460
Kay Jewelers,Des Peres,387,#387,"164 West County Center, Space 2244",MO,63131
Kay Jewelers,Overland Park,391,#391,11261 W. 95th St.,KS,66214-1825
Kay Jewelers,Saint Joseph,395,#395,3702 Frederick Blvd.,MO,64506-3083
Kay Jewelers,Topeka,396,#396,1801 SW Wanamaker Rd.,KS,66604
Kay Jewelers,Wichita,397,#397,7700 E. Kellogg Dr.,KS,67207-1772
Kay Jewelers,Wichita,398,#398,4600 W. Kellogg,KS,67209-2568
Kay Jewelers,Independence,399,#399,18813 E. 39th St. S.,MO,64057
Kay Jewelers,Green Bay,401,#401,375 Bay Park Square,WI,54304-5104
Kay Jewelers,Marion,404,#404,3000 W. DeYoung St.,IL,62959
Kay Jewelers,Carbondale,406,#406,1215 E. Main St.,IL,62901
Kay Jewelers,Dayton,407,#407,2727 Fairfield Commons Blvd,OH,45431
Kay Jewelers,Presque Isle,408,#408,830 Main St.,ME,4769
Kay Jewelers,Bangor,410,#410,663 Stillwater Ave.,ME,4401
Kay Jewelers,Auburn,412,#412,550 Center St.,ME,4210
Kay Jewelers,Montclair,504,#504,2122 Montclair Plaza Ln.,CA,91763-1535
Kay Jewelers,Torrance,508,#508,297 Del Amo Fashion Center,CA,90503-5713
Kay Jewelers,San Bernardino,511,#511,500 Inland Center Dr.,CA,92408
Kay Jewelers,Victorville,515,#515,14400 Bear Valley Rd.,CA,92392-5470
Kay Jewelers,Santa Maria,521,#521,134 Town Center E.,CA,93454
Kay Jewelers,Stockton,522,#522,4950 Pacific Ave.,CA,95207
Kay Jewelers,Brea,523,#523,1010 Brea Mall,CA,92821
Kay Jewelers,Palm Desert,532,#532,72-840 Hwy 111,CA,92260
Kay Jewelers,Fresno,533,#533,627 E. Shaw Ave.,CA,93710
Kay Jewelers,Santa Rosa,534,#534,1060 Santa Rosa Plaza,CA,95401
Kay Jewelers,Columbus,540,#540,3507 Manchester Expy,GA,31909
Kay Jewelers,Citrus Heights,547,#547,6079 Sunrise Mall Blvd,CA,95610
Kay Jewelers,Titusville,548,#548,3055 Columbia Blvd.,FL,32780
Kay Jewelers,El Cajon,551,#551,373 Parkway Plaza,CA,92020-2528
Kay Jewelers,Laguna Hills,556,#556,24221 Laguna Hills Mall,CA,92653-3612
Kay Jewelers,Eureka,562,#562,3300 Broadway,CA,95501-3809
Kay Jewelers,Hayward,563,#563,263 Southland Mall,CA,94545-2129
Kay Jewelers,Capitola,565,#565,1855 41st Ave.,CA,95010
Kay Jewelers,Chico,566,#566,1950 E. 20th St.,CA,95928-6369
Kay Jewelers,Pleasanton,574,#574,1060 Stoneridge Mall,CA,94588
Kay Jewelers,Sebring,576,#576,901 US 27 N.,FL,33870-2115
Kay Jewelers,Colonial Heights,577,#577,34 Southpark Mall,VA,23834
Kay Jewelers,Biloxi,578,#578,2800 Beach Blvd.,MS,39531
Kay Jewelers,Asheville,579,#579,3 S. Tunnel Rd.,NC,28805
Kay Jewelers,Burlington,580,#580,375 Cascade Mall Dr.,WA,98233-3255
Kay Jewelers,Puyallup,582,#582,3500 S. Meridian,WA,98373-3779
Kay Jewelers,E. Wenatchee,584,#584,511 Valley Mall Pkwy.,WA,98802-3808
Kay Jewelers,Federal Way,587,#587,1936 S Commons,WA,98003
Kay Jewelers,Olympia,589,#589,625 Black Lake Blvd.,WA,98502
Kay Jewelers,Spokane,593,#593,4750 N. Division,WA,99207-1402
Kay Jewelers,Kennewick,597,#597,1321 N. Columbia Center Blvd.,WA,99336
Kay Jewelers,Boise,599,#599,350 North Milwaukee Street,ID,83704
Kay Jewelers,Tacoma,603,#603,4502 South Steele St.,WA,98411
Kay Jewelers,Tukwila,605,#605,667 Southcenter Mall,WA,98188
Kay Jewelers,West Covina,619,#619,400 Plaza Dr.,CA,91790
Kay Jewelers,San Diego,620,#620,1640 Camino Del Rio North,CA,92108
Kay Jewelers,Oxford,623,#623,700 Quintard Dr.,AL,36203
Kay Jewelers,Auburn,624,#624,1627-09 Opelika Rd.,AL,36830
Kay Jewelers,Birmingham,626,#626,2000 Riverchase Galleria,AL,35244
Kay Jewelers,Decatur,628,#628,1801 Beltline Rd. SW,AL,35601-5501
Kay Jewelers,Fairfield,629,#629,7201 Aronov Dr.,AL,35064
Kay Jewelers,Florence,631,#631,301 Cox Creek Pkwy.,AL,35630
Kay Jewelers,Gadsden,632,#632,1001 Rainbow Drive,AL,35901
Kay Jewelers,Huntsville,634,#634,5901 University Dr.,AL,35806
Kay Jewelers,Mobile,635,#635,3404 Bel Air Mall,AL,36606
Kay Jewelers,Montgomery,636,#636,1024 Eastdale Mall,AL,36117
Kay Jewelers,Tuscaloosa,638,#638,1701 McFarland Blvd. E,AL,35404
Kay Jewelers,Bradenton,639,#639,303 US 301 Blvd W,FL,34205
Kay Jewelers,Clearwater,640,#640,27001 U.S. Hwy. 19 N.,FL,33761
Kay Jewelers,Daytona Beach,642,#642,1700 W. Int'l Speedway Blvd. #536,FL,32114
Kay Jewelers,DeLand,643,#643,2663 S. Woodland Blvd.,FL,32720
Kay Jewelers,Louisville,653,#653,7900 Shelbyville Rd.,KY,40222
Kay Jewelers,Vero Beach,659,#659,6200 20th St.,FL,32966
Kay Jewelers,Albany,660,#660,2601 Dawson Rd.,GA,31707
Kay Jewelers,Athens,662,#662,1121 Georgia Square Mall,GA,30606
Kay Jewelers,Augusta,663,#663,3450 Wrightsboro Rd,GA,30909
Kay Jewelers,Brunswick,664,#664,101 Mall Blvd.,GA,31525
Kay Jewelers,Warner Robins,665,#665,2911 Watson Blvd.,GA,31093
Kay Jewelers,Covington,667,#667,3117 Hwy. 278 NE,GA,30014
Kay Jewelers,Dalton,668,#668,816 Walnut Square Blvd,GA,30721
Kay Jewelers,Dublin,669,#669,2005 Veterans Blvd.,GA,31021
Kay Jewelers,Griffin,670,#670,1637 North Expy.,GA,30223
Kay Jewelers,LaGrange,671,#671,1501 Lafayette Pkwy.,GA,30241
Kay Jewelers,Milledgeville,672,#672,2400 N. Columbia St.,GA,31061
Kay Jewelers,Rome,673,#673,906 Mount Berry Square NE,GA,30165
Kay Jewelers,Savannah,674,#674,14045 Abercorn St.,GA,31419
Kay Jewelers,Valdosta,675,#675,1700 Norman Dr Ste 1050,GA,31601
Kay Jewelers,Alexandria,676,#676,3437 Masonic Dr.,LA,71301
Kay Jewelers,Hattiesburg,677,#677,1000 Turtle Creek Dr.,MS,39402
Kay Jewelers,Meridian,679,#679,1490 Bonita Lakes Circle,MS,39301
Kay Jewelers,Ridgeland,683,#683,1200 E. County Line Rd.,MS,39157
Kay Jewelers,Tupelo,684,#684,1001 Barnes Crossing Rd.,MS,38804
Kay Jewelers,Asheboro,685,#685,1437 E Dixie Dr,NC,27203
Kay Jewelers,Concord,686,#686,8111 Concord Mills Blvd.,NC,28027
Kay Jewelers,Durham,687,#687,1058 W. Club Blvd.,NC,27701
Kay Jewelers,Gastonia,688,#688,246 N. New Hope Rd.,NC,28054
Kay Jewelers,Goldsboro,689,#689,621C N. Berkeley Blvd,NC,27534
Kay Jewelers,High Point,690,#690,921 Eastchester Dr.,NC,27262-7646
Kay Jewelers,Cambridge,693,#693,100 Cambridgeside Pl.,MA,02141-2218
Kay Jewelers,Hyannis,695,#695,793 Iyannough Rd.,MA,2601
Kay Jewelers,Pineville,696,#696,11025 Carolina Place Pkwy.,NC,28134
Kay Jewelers,Rocky Mount,697,#697,1100 N. Wesleyan Blvd.,NC,27804
Kay Jewelers,Jacksonville,698,#698,330 JACKSONVILLE MALL RD,NC,28546
Kay Jewelers,Raleigh,699,#699,5959 Triangle Town Blvd.,NC,27616
Kay Jewelers,Anchorage,710,#710,320 W. 5th Ave.,AK,99501-2357
Kay Jewelers,Scottsdale,717,#717,7014 E. Camelback Rd.,AZ,85251
Kay Jewelers,Bellingham,718,#718,1 Bellis Fair Pkwy.,WA,98226-5590
Kay Jewelers,Littleton,722,#722,8501 W. Bowles Ave.,CO,80123-9502
Kay Jewelers,Anchorage,728,#728,800 E. Dimond Blvd.,AK,99515
Kay Jewelers,Henderson,732,#732,1300 West Sunset Road,NV,89014
Kay Jewelers,Medford,734,#734,1600 N. Riverside Ave.,OR,97501-4652
Kay Jewelers,Salisbury,743,#743,1935 Jake Alexander Blvd.,NC,28147-1164
Kay Jewelers,Portland,744,#744,"1206 Lloyd Center, Space 225",OR,97232-1301
Kay Jewelers,Shelby,745,#745,2001-46 E. Dixon Blvd.,NC,28152-6967
Kay Jewelers,Bend,746,#746,3188 N. Hwy. 97,OR,97701
Kay Jewelers,Everett,748,#748,1402 SE Everett Mall Way,WA,98208-2857
Kay Jewelers,Roseburg,750,#750,1444 NW Garden Valley Blvd.,OR,97470-6065
Kay Jewelers,The Dalles,751,#751,318 E. 2nd St.,OR,97058
Kay Jewelers,Aiken,752,#752,2441 Whiskey Rd S,SC,29803
Kay Jewelers,Anderson,753,#753,3131 N. Main St.,SC,29621
Kay Jewelers,Seattle,754,#754,469 Northgate Mall,WA,98125
Kay Jewelers,Salem,755,#755,831 Lancaster Dr. NE,OR,97301-2676
Kay Jewelers,Charleston,759,#759,2070 Sam Rittenberg Blvd.,SC,29407
Kay Jewelers,Florence,763,#763,2701 David H. McLeod Blvd.,SC,29501
Kay Jewelers,Tucson,765,#765,4500 N. Oracle Rd.,AZ,85705-1662
Kay Jewelers,N. Charleston,766,#766,2150 Northwoods Blvd.,SC,29406
Kay Jewelers,Orangeburg,771,#771,2390 Chestnut NE,SC,29115
Kay Jewelers,Rock Hill,772,#772,2301-155 Dave Lyle Blvd.,SC,29730-7200
Kay Jewelers,Greenwood,774,#774,420-30 Bypass NW,SC,29649
Kay Jewelers,Northridge,775,#775,9301 Tampa Ave.,CA,91324
Kay Jewelers,Portland,779,#779,12000 SE 82nd Ave.,OR,97086
Kay Jewelers,Cleveland,780,#780,200 NW Paul Huff Pkwy.,TN,37312
Kay Jewelers,Portland,781,#781,"9312 SW Washington Square Rd., Unit W1",OR,97223
Kay Jewelers,Jackson,782,#782,2021 N. Highland Ave.,TN,38305
Kay Jewelers,Knoxville,784,#784,7600 Kingston Pike,TN,37919
Kay Jewelers,Maryville,785,#785,169 Foothills Mall,TN,37801
Kay Jewelers,Westminster,787,#787,2059 Westminster Mall,CA,92683
Kay Jewelers,Memphis,790,#790,2760 N. Germantown Pkwy.,TN,38133
Kay Jewelers,Colorado Springs,791,#791,750 Citadel Dr. E.,CO,80909
Kay Jewelers,Phoenix,792,#792,7611 W Thomas Rd,AZ,85033
Kay Jewelers,Aurora,798,#798,14200 E. Alameda Ave.,CO,80012
Kay Jewelers,Murfreesboro,799,#799,1720 Old Fort Pkwy,TN,37129
Kay Jewelers,Owensboro,1012,#1012,5000 Frederica St,KY,42301
Kay Jewelers,Elmhurst,1028,#1028,90-15 Queens Blvd.,NY,11373
Kay Jewelers,Syracuse,1047,#1047,9746 Destiny Dr,NY,13290
Kay Jewelers,Middletown,1048,#1048,1 N. Galleria Dr.,NY,10941
Kay Jewelers,Schenectady,1050,#1050,93 W. Campbell Rd.,NY,12306
Kay Jewelers,Albany,1051,#1051,131 Colonie Center,NY,12205-2751
Kay Jewelers,Rochester,1052,#1052,232 Greece Ridge Center Dr.,NY,14626
Kay Jewelers,Victor,1053,#1053,186 Eastview Mall,NY,14564
Kay Jewelers,Rochester,1054,#1054,511 Miracle Mile Dr,NY,14623
Kay Jewelers,Massena,1055,#1055,Rte. 37,NY,13662
Kay Jewelers,Hicksville,1056,#1056,"600 Broadway Mall, Unit 640",NY,11801
Kay Jewelers,Kingston,1059,#1059,1300 Ulster Ave.,NY,12401
Kay Jewelers,Auburn,1061,#1061,2000 Clark St.,NY,13022
Kay Jewelers,Clifton Park,1063,#1063,22 Clifton Country Rd.,NY,12065-3832
Kay Jewelers,Newburgh,1066,#1066,"1401 Rte. 300, Suite 1102",NY,12550-6902
Kay Jewelers,De Witt,1069,#1069,3649 Erie Blvd. E.,NY,13214
Kay Jewelers,Queensbury,1070,#1070,578 Aviation Rd.,NY,12804
Kay Jewelers,Johnson City,1073,#1073,601-635 Harry L. Dr,NY,13790
Kay Jewelers,Ithaca,1074,#1074,40 Catherwood Rd.,NY,14850
Kay Jewelers,Olean,1075,#1075,400 N. Union St.,NY,14760-2631
Kay Jewelers,Williamsville,1076,#1076,"4545 Transit Rd., Unit 692",NY,14221
Kay Jewelers,Horseheads,1077,#1077,3300 Chambers Rd.,NY,14845
Kay Jewelers,Clay,1079,#1079,4155 Rte. 31,NY,13041
Kay Jewelers,Willow Grove,1082,#1082,2500 W. Moreland Rd.,PA,19090
Kay Jewelers,Martinsburg,1085,#1085,800 Foxcroft Ave.,WV,25401
Kay Jewelers,Pittsburgh,1087,#1087,1000 Ross Park Mall Dr.,PA,15237-3875
Kay Jewelers,Allentown,1088,#1088,"3300 Lehigh St., Unit #711",PA,18103
Kay Jewelers,Carlisle,1091,#1091,800 E High St,PA,17013
Kay Jewelers,Stroudsburg,1092,#1092,344 Stroud Mall Rd. Suite 340,PA,18360
Kay Jewelers,Scranton,1093,#1093,300 Lackawanna Ave Spc. 228,PA,18503
Kay Jewelers,North Warren,1094,#1094,"2801 Market Street, Suite 60",PA,16365
Kay Jewelers,West Mifflin,1095,#1095,3075 Clairton Rd.,PA,15123
Kay Jewelers,Reading,1097,#1097,3050 N 5th St.,PA,19605
Kay Jewelers,Butler,1098,#1098,101 Clearview Circle,PA,16001
Kay Jewelers,King of Prussia,1100,#1100,160 N. Gulph Rd.,PA,19406
Kay Jewelers,Hanover,1101,#1101,1155 Carlisle St.,PA,17331-1200
Kay Jewelers,Wyomissing,1102,#1102,1665 State Hill Rd.,PA,19610-1900
Kay Jewelers,Pittsburgh,1105,#1105,100 Robinson Centre Dr.,PA,15205
Kay Jewelers,State College,1106,#1106,2900 E. College Ave. Spc. 604,PA,16801
Kay Jewelers,York,1107,#1107,1800 Loucks Rd,PA,17408
Kay Jewelers,Lancaster,1108,#1108,110 Park City Center,PA,17601-2706
Kay Jewelers,Wilkes Barre,1109,#1109,"89 Wyoming Valley Mall, Space 754 & 756",PA,18702-6813
Kay Jewelers,Pennsdale,1112,#1112,300 Lycoming Mall Cir.,PA,17756
Kay Jewelers,Uniontown,1115,#1115,"1368 West Main Street, Space 900/902",PA,15401
Kay Jewelers,Pottsville,1116,#1116,7211 Fairlane Village Mall,PA,17901
Kay Jewelers,Pittsburgh,1117,#1117,301 South Hills Village,PA,15241
Kay Jewelers,Altoona,1119,#1119,5580 Goods Lane,PA,16602
Kay Jewelers,Indiana,1120,#1120,2334 Oakland Ave.,PA,15701
Kay Jewelers,Hagerstown,1122,#1122,"17301 Valley Mall Rd., Suite 264",MD,21740
Kay Jewelers,Wilmington,1123,#1123,4737 Concord Pike,DE,19803
Kay Jewelers,Monroeville,1126,#1126,200 Mall Circle Drive,PA,15146
Kay Jewelers,Selinsgrove,1127,#1127,One Susquehanna Valley Mall Dr.,PA,17870
Kay Jewelers,Monaca,1128,#1128,330 Beaver Valley Mall,PA,15061
Kay Jewelers,Du Bois,1130,#1130,5522 Shaffer Rd.,PA,15801-3315
Kay Jewelers,Harrisburg,1131,#1131,3501 Paxton Street,PA,17111
Kay Jewelers,Bethlehem,1132,#1132,2375-M Schoenersville Rd.,PA,18017-7416
Kay Jewelers,Scranton,1133,#1133,64 Viewmont Mall,PA,18508-1360
Kay Jewelers,York,1134,#1134,"2899 Whiteford Rd, Space #278",PA,17402
Kay Jewelers,Cranberry,1135,#1135,6945 US 322,PA,16319
Kay Jewelers,Easton,1138,#1138,154 Palmer Park Mall,PA,18045
Kay Jewelers,South Pottstown,1140,#1140,351 W Schuylkill Rd,PA,19465
Kay Jewelers,Johnstown,1141,#1141,500 Galleria Dr.,PA,15904
Kay Jewelers,Lebanon,1143,#1143,2263 Lebanon Valley Mall,PA,17042-2568
Kay Jewelers,Whitehall,1145,#1145,204 Lehigh Valley Mall,PA,18052-5719
Kay Jewelers,Greensburg,1146,#1146,1 Westmoreland Mall,PA,15601
Kay Jewelers,North Wales,1147,#1147,178 Montgomery Mall,PA,19454-3911
Kay Jewelers,Temple Hills,1149,#1149,3853 Branch Ave.,MD,20748
Kay Jewelers,Annapolis,1151,#1151,1305 Annapolis Mall,MD,21401
Kay Jewelers,Newport News,1153,#1153,12300 Jefferson Ave.,VA,23602
Kay Jewelers,Virginia Beach,1155,#1155,4554 Virginia Beach Blvd.,VA,23462
Kay Jewelers,Alexandria,1156,#1156,5801 Duke St.,VA,22304
Kay Jewelers,Chesapeake,1157,#1157,1401 Greenbrier Pkwy. S,VA,23320
Kay Jewelers,Virginia Beach,1158,#1158,701 Lynnhaven Pkwy.,VA,23452-7299
Kay Jewelers,Springfield,1159,#1159,6699 Frontier Dr Suite D,VA,22150
Kay Jewelers,McLean,1160,#1160,"1961 Chain Bridge Rd, Suite E1U",VA,22102-4501
Kay Jewelers,Fairfax,1161,#1161,"11739U Fair Oaks Mall, Unit J210",VA,22033-3326
Kay Jewelers,Chesapeake,1162,#1162,4200 Portsmouth Blvd.,VA,23321-2100
Kay Jewelers,Manassas,1163,#1163,8300 Sudley Rd.,VA,20109
Kay Jewelers,Hampton,1164,#1164,1631 Merchant Lane,VA,23666
Kay Jewelers,Norfolk,1165,#1165,880 N. Military Hwy.,VA,23502
Kay Jewelers,Harrisonburg,1166,#1166,1925 E. Market St.,VA,22801-3432
Kay Jewelers,Towson,1167,#1167,"825 Dulaney Valley Rd., Space #2065",MD,21204
Kay Jewelers,Fredericksburg,1170,#1170,255 Spotsylvania Mall,VA,22407
Kay Jewelers,Arlington,1172,#1172,1100 S. Hayes St,VA,22202
Kay Jewelers,Salisbury,1174,#1174,2300 N. Salisbury Blvd.,MD,21801-7810
Kay Jewelers,Hyattsville,1175,#1175,3500 East-West Hwy.,MD,20782
Kay Jewelers,Bethesda,1176,#1176,7101 Democracy Blvd.,MD,20817
Kay Jewelers,Bel Air,1177,#1177,636 Bel Air Rd.,MD,21014
Kay Jewelers,Windsor Mill,1178,#1178,6901 Security Blvd.,MD,21244
Kay Jewelers,Cumberland,1181,#1181,1262 Vocke Rd.,MD,21502-7720
Kay Jewelers,Gaithersburg,1182,#1182,701 Russell Ave.,MD,20877-2631
Kay Jewelers,District Heights,1185,#1185,3253 Donnell Drive,MD,20747
Kay Jewelers,Baltimore,1187,#1187,8200 Perry Hall Blvd.,MD,21236
Kay Jewelers,Waldorf,1188,#1188,11110 Mall Cir.,MD,20603
Kay Jewelers,Wheaton,1189,#1189,11160 Veirs Mill Rd,MD,20902
Kay Jewelers,Baltimore,1190,#1190,7807-B Eastpoint Mall,MD,21224-2120
Kay Jewelers,Winchester,1191,#1191,1850 Apple Blossom Dr.,VA,22601
Kay Jewelers,Richmond,1192,#1192,11500 Midlothian Tpke.,VA,23235-4780
Kay Jewelers,Glen Allen,1193,#1193,10101 Brook Rd.,VA,23059
Kay Jewelers,Jackson,1194,#1194,"1828 W. Michigan Ave., Unit 828",MI,49202
Kay Jewelers,Enfield,1201,#1201,90 Elm St.,CT,6082
Kay Jewelers,Danbury,1202,#1202,7 Backus Ave.,CT,6810
Kay Jewelers,Waterbury,1203,#1203,475 Union St.,CT,6706
Kay Jewelers,Meriden,1204,#1204,470 Lewis Ave.,CT,06451-2103
Kay Jewelers,Waterford,1205,#1205,850 Hartford Tpke.,CT,06385-4238
Kay Jewelers,Trumbull,1208,#1208,5065 Main St Spc. 1111,CT,6611
Kay Jewelers,Manchester,1210,#1210,194 Buckland Hills Dr,CT,06042-8705
Kay Jewelers,Springfield,1212,#1212,1655 Boston Rd.,MA,01129-1148
Kay Jewelers,Burlington,1213,#1213,75 Middlesex Turnpike,MA,01803-4923
Kay Jewelers,Swansea,1216,#1216,262 Swansea Mall Dr.,MA,2777
Kay Jewelers,Holyoke,1217,#1217,50 Holyoke St.,MA,1040
Kay Jewelers,Braintree,1218,#1218,250 Granite St.,MA,02184-2804
Kay Jewelers,Manchester,1221,#1221,1500 S. Willow St.,NH,03103-3220
Kay Jewelers,Taunton,1222,#1222,"2 Galleria Mall Drive, Suite 229",MA,02780-6991
Kay Jewelers,Lanesborough,1224,#1224,Old State Road,MA,1237
Kay Jewelers,North Attleboro,1226,#1226,103 Emerald Square,MA,02760-3639
Kay Jewelers,Saugus,1227,#1227,1277 Broadway,MA,1906
Kay Jewelers,Natick,1228,#1228,1245 Worcester St.,MA,01760-1515
Kay Jewelers,Marlborough,1229,#1229,601 Donald Lynch Blvd,MA,1752
Kay Jewelers,Nashua,1231,#1231,310 Daniel Webster Hwy.,NH,03060-5730
Kay Jewelers,Concord,1232,#1232,270 Loudon Rd,NH,3301
Kay Jewelers,Salem,1233,#1233,99 Rockingham Park Blvd.,NH,3079
Kay Jewelers,Buffalo,1237,#1237,D222 Walden Galleria,NY,14225-5126
Kay Jewelers,Lakewood,1238,#1238,318 E. Fairmount Ave.,NY,14750
Kay Jewelers,Lockport,1239,#1239,5776 S. Transit Rd.,NY,14094
Kay Jewelers,Danvers,1243,#1243,100 Independence Way,MA,01923-3626
Kay Jewelers,Peabody,1244,#1244,210 Andover St.,MA,1960
Kay Jewelers,Hanover,1245,#1245,1775 Washington St.,MA,02339-1701
Kay Jewelers,Pueblo,1246,#1246,"3225 Dillon Dr., H10",CO,81008
Kay Jewelers,Broomfield,1248,#1248,1 W. FlatIron Cir.,CO,80021
Kay Jewelers,Phoenix,1251,#1251,9617 N. Metro Pkwy. W.,AZ,85051
Kay Jewelers,Phoenix,1252,#1252,4550-204 E. Cactus Rd.,AZ,85032
Kay Jewelers,Mesa,1254,#1254,1445 W. Southern Ave.,AZ,85202-4803
Kay Jewelers,Flagstaff,1257,#1257,4650 N. Hwy. 89,AZ,86004
Kay Jewelers,Tucson,1262,#1262,5870 E. Broadway Blvd.,AZ,85711-3914
Kay Jewelers,Mesa,1263,#1263,6555 E. Southern Ave.,AZ,85206
Kay Jewelers,Glendale,1264,#1264,7700 W Arrowhead Towne Ctr,AZ,85308
Kay Jewelers,Chandler,1267,#1267,3111 W. Chandler Blvd.,AZ,85226
Kay Jewelers,Brockton,1273,#1273,200 Westgate Dr.,MA,2301
Kay Jewelers,Rutland,1281,#1281,46 Diamond Run Mall Pl,VT,5701
Kay Jewelers,Warwick,1282,#1282,400 Bald Hill Rd.,RI,2886
Kay Jewelers,Dartmouth,1283,#1283,105 North Dartmouth Mall,MA,02747-4201
Kay Jewelers,Auburn,1284,#1284,385 Southbridge St.,MA,1501
Kay Jewelers,Leominster,1285,#1285,"100 Commercial Rd., Space 285",MA,1453
Kay Jewelers,Lakewood,1289,#1289,47 Lakewood Center Mall,CA,90712
Kay Jewelers,San Jose,1291,#1291,925 Blossom Hill Rd.,CA,95123
Kay Jewelers,Orange,1302,#1302,1500 E. Village Way,CA,92865
Kay Jewelers,Massapequa,1308,#1308,610 Sunrise Mall,NY,11758
Kay Jewelers,West Nyack,1317,#1317,"1380 Palisades Center Dr., E106",NY,10994
Kay Jewelers,Woodbridge,1333,#1333,243 Woodbridge Center Dr.,NJ,7095
Kay Jewelers,Saratoga Springs,1338,#1338,3065 RTE 50,NY,12866
Kay Jewelers,Jersey City,1339,#1339,30 Mall Dr. W.,NJ,7310
Kay Jewelers,Edison,1340,#1340,337 Menlo Park,NJ,08837-4400
Kay Jewelers,Lawrence Township,1341,#1341,221 Quaker Bridge Mall,NJ,8648
Kay Jewelers,Voorhees,1342,#1342,1475 Voorhees Town Center,NJ,8043
Kay Jewelers,Burlington,1343,#1343,2501 Burlington Mount Holly Rd #158,NJ,8016
Kay Jewelers,Phillipsburg,1344,#1344,1200 Hwy. 22,NJ,08865-4111
Kay Jewelers,Eatontown,1345,#1345,180 Rte 35,NJ,7724
Kay Jewelers,Freehold,1346,#1346,3710 Rte. 9,NJ,7728
Kay Jewelers,Greenville,1347,#1347,714 SE Greenville Blvd.,NC,27858
Kay Jewelers,Sacramento,1348,#1348,1689 Arden Way,CA,95815-4030
Kay Jewelers,Daly City,1352,#1352,27 Serramonte Center,CA,94015
Kay Jewelers,San Diego,1361,#1361,7007 Friars Rd.,CA,92108-1148
Kay Jewelers,Chula Vista,1362,#1362,555 Broadway,CA,91910
Kay Jewelers,National City,1363,#1363,3030 Plaza Bonita Rd.,CA,91950-8009
Kay Jewelers,Carlsbad,1374,#1374,2525 El Camino Real,CA,92008
Kay Jewelers,San Jose,1378,#1378,2200 Eastridge Loop,CA,95122
Kay Jewelers,Waco,1385,#1385,219 Richland Mall,TX,76710-6245
Kay Jewelers,Amarillo,1386,#1386,7701 W. Interstate 40,TX,79121
Kay Jewelers,Victoria,1389,#1389,7800 N Navarro St,TX,77904-2608
Kay Jewelers,Corpus Christi,1393,#1393,5488 La Palmera,TX,78411
Kay Jewelers,The Woodlands,1397,#1397,1201 Lake Woodlands Dr.,TX,77380
Kay Jewelers,Humble,1398,#1398,20131 Hwy. 59,TX,77338
Kay Jewelers,Newark,1399,#1399,1101 NewPark Mall,CA,94560
Kay Jewelers,Fort Worth,1400,#1400,2068 Green Oaks Rd.,TX,76116
Kay Jewelers,Houston,1401,#1401,1422 Willowbrook Mall,TX,77070-5797
Kay Jewelers,Macon,1404,#1404,3661 Eisenhower Pkwy.,GA,31206
Kay Jewelers,Kennesaw,1405,#1405,400 Ernest W. Barrett Pkwy.,GA,30144
Kay Jewelers,Morrow,1406,#1406,1202 Southlake Mall,GA,30260
Kay Jewelers,Jacksonville,1420,#1420,"9501 Arlington Expy., Space #360",FL,32225
Kay Jewelers,Orange Park,1422,#1422,1910 Wells Rd.,FL,32073
Kay Jewelers,Altamonte Springs,1423,#1423,451 E. Altamonte Dr.,FL,32701-4613
Kay Jewelers,Naples,1426,#1426,1808 Tamiami Trl N Ste. K-12,FL,34102
Kay Jewelers,Plantation,1427,#1427,8000 W. Broward Blvd.,FL,33388
Kay Jewelers,Tallahassee,1428,#1428,1500 Apalachee Pkwy. Space 2380,FL,32301
Kay Jewelers,Greenville,1435,#1435,700 Haywood Rd.,SC,29607
Kay Jewelers,Atlanta,1436,#1436,1148 Cumberland Mall SE,GA,30339
Kay Jewelers,Atlanta,1437,#1437,1002 Northlake Mall,GA,30345
Kay Jewelers,Winston Salem,1447,#1447,3320 Silas Creek Pkwy.,NC,27103
Kay Jewelers,Wilmington,1452,#1452,3500 Oleander Dr.,NC,28403
Kay Jewelers,Hickory,1453,#1453,1960 US Hwy. 70 SE,NC,28602
Kay Jewelers,Columbia,1455,#1455,100 Columbiana Cir.,SC,29212
Kay Jewelers,Spartanburg,1456,#1456,205 W. Blackstock Rd.,SC,29301
Kay Jewelers,Douglasville,1457,#1457,2085 Arbor Place Mall,GA,30135
Kay Jewelers,Cary,1459,#1459,1105 Walnut St.,NC,27511-4762
Kay Jewelers,Sumter,1460,#1460,1057 Broad St.,SC,29150
Kay Jewelers,Lake Wales,1462,#1462,483 Eagle Ridge Dr.,FL,33859-4739
Kay Jewelers,New Bern,1463,#1463,3010 DR M L King Jr Blvd,NC,28562
Kay Jewelers,Roanoke Rapids,1465,#1465,257 Premier Blvd.,NC,27870
Kay Jewelers,Sarasota,1468,#1468,8201 Tamiami Trl.,FL,34238-2966
Kay Jewelers,Ocoee,1469,#1469,9401 W. Colonial Dr.,FL,34761
Kay Jewelers,Miami,1470,#1470,7493 N. Kendall Dr.,FL,33156
Kay Jewelers,Ocala,1471,#1471,3100 SW College Rd.,FL,34474
Kay Jewelers,Jensen Beach,1477,#1477,3394 NW Federal Hwy. #1,FL,34957
Kay Jewelers,Merritt Island,1480,#1480,777 E. Merritt Island Cswy.,FL,32952
Kay Jewelers,Miami,1481,#1481,20505 S. Dixie Hwy.,FL,33189
Kay Jewelers,Oviedo,1482,#1482,1290 Oviedo Marketplace Blvd,FL,32765
Kay Jewelers,Bridgeport,1484,#1484,2492 Meadowbrook Rd.,WV,26330
Kay Jewelers,Saint Clairsville,1485,#1485,67800 Mall Ring Road,OH,43950
Kay Jewelers,Bluefield,1486,#1486,261 Mercer Mall Rd #322,WV,24701
Kay Jewelers,Mount Hope,1487,#1487,45 Crossroads Mall Suite F015,WV,25880-9507
Kay Jewelers,Charleston,1488,#1488,1067 Charleston Town Center,WV,25389-0004
Kay Jewelers,Arlington,1489,#1489,3811 S. Cooper Street Ste. #1070,TX,76015
Kay Jewelers,El Paso,1490,#1490,8401 Gateway Blvd W,TX,79925-5657
Kay Jewelers,Plano,1491,#1491,811 N. Central Expy.,TX,75075
Kay Jewelers,San Antonio,1494,#1494,6909 North Loop 1604 East,TX,78247-5317
Kay Jewelers,Abilene,1496,#1496,4310 Buffalo Gap Rd.,TX,79606-2724
Kay Jewelers,Albuquerque,1497,#1497,10000 Coors Blvd. NW,NM,87114
Kay Jewelers,McAllen,1498,#1498,2200 S. 10th St.,TX,78503
Kay Jewelers,Killeen,1499,#1499,2100 S. W.S. Young Dr.,TX,76543
Kay Jewelers,Mesquite,1500,#1500,1050 Town East Mall,TX,75150
Kay Jewelers,Lewisville,1502,#1502,2401 Stemmons Fwy.,TX,75067
Kay Jewelers,Chattanooga,1504,#1504,2100 Hamilton Place Blvd.,TN,37421-6006
Kay Jewelers,Goodlettsville,1505,#1505,"1000 Rivergate Pkwy., Ste. 1170",TN,37072
Kay Jewelers,Lexington,1509,#1509,3557 Nicholasville Rd.,KY,40503
Kay Jewelers,Concord,1516,#1516,1480 Concord Parkway N,NC,28025
Kay Jewelers,Louisville,1517,#1517,4801 Outer Loop,KY,40219
Kay Jewelers,Johnson City,1518,#1518,"2011 N. Roan St., Unit F-5",TN,37601
Kay Jewelers,Bloomingdale,1521,#1521,616 Stratford Square,IL,60108
Kay Jewelers,Louisville,1522,#1522,6801 Dixie Hwy.,KY,40258
Kay Jewelers,Bowling Green,1526,#1526,2625 Scottsville Rd.,KY,42104
Kay Jewelers,Bloomington,1528,#1528,1615 E. Empire St.,IL,61701
Kay Jewelers,Chicago Ridge,1529,#1529,361 Chicago Ridge Mall,IL,60415
Kay Jewelers,Fairview Hts.,1531,#1531,147 St. Clair Square,IL,62208
Kay Jewelers,Champaign,1532,#1532,2000 N. Neil St.,IL,61820-7808
Kay Jewelers,Springfield,1533,#1533,"2501 W. Wabash, Spc. B06",IL,62704
Kay Jewelers,Peru,1534,#1534,5255 State Rte 251,IL,61354
Kay Jewelers,Morgantown,1535,#1535,9251 Mall Rd.,WV,26501-8528
Kay Jewelers,Cedar Park,1540,#1540,11200 Lakeline Mall Dr.,TX,78613
Kay Jewelers,Evansville,1541,#1541,800 N. Green River Rd.,IN,47715
Kay Jewelers,Marion,1543,#1543,1129 N. Baldwin Ave.,IN,46952-2562
Kay Jewelers,Greenwood,1544,#1544,1251 US 31 N,IN,46142
Kay Jewelers,Aventura,1546,#1546,19575 Biscayne Blvd,FL,33180
Kay Jewelers,Muncie,1548,#1548,3501 N. Granville Ave.,IN,47303
Kay Jewelers,Richmond,1549,#1549,3801 National Rd. E.,IN,47374
Kay Jewelers,Fort Wayne,1550,#1550,4201 Coldwater Rd.,IN,46805-1113
Kay Jewelers,Indianapolis,1554,#1554,6020 E. 82nd St.,IN,46250-4746
Kay Jewelers,Indianapolis,1555,#1555,10202 E. Washington St.,IN,46229-2670
Kay Jewelers,Clarksville,1556,#1556,757 E Lewis and Clark Pkwy,IN,47129
Kay Jewelers,Findlay,1557,#1557,1800 Tiffin Ave.,OH,45840
Kay Jewelers,Richmond Hts,1558,#1558,"691 Richmond Rd., #A21",OH,44143
Kay Jewelers,Strongsville,1559,#1559,"500 Southpark Center, Unit EU1104",OH,44136
Kay Jewelers,Steubenville,1561,#1561,100 Mall Dr.,OH,43952-3092
Kay Jewelers,Cincinnati,1563,#1563,4601 Eastgate Blvd.,OH,45245
Kay Jewelers,Columbus,1564,#1564,2732 Eastland Mall,OH,43232-4901
Kay Jewelers,Mentor,1565,#1565,7850 Mentor Ave.,OH,44060-5520
Kay Jewelers,Youngstown,1566,#1566,7401 Market St.,OH,44512
Kay Jewelers,Hermitage,1567,#1567,3345 E. State St.,PA,16148-3302
Kay Jewelers,Columbus,1569,#1569,1500 Polaris Pkwy.,OH,43240
Kay Jewelers,Jacksonville,1570,#1570,10300 Southside Blvd.,FL,32256-0770
Kay Jewelers,Port Charlotte,1571,#1571,1441 Tamiami Trl.,FL,33948-1098
Kay Jewelers,Fort Myers,1572,#1572,4125 Cleveland Ave.,FL,33901-9046
Kay Jewelers,Boca Raton,1573,#1573,6000 Glades Rd.,FL,33431
Kay Jewelers,Memphis,1575,#1575,4465 Poplar Ave.,TN,38117
Kay Jewelers,Chattanooga,1576,#1576,"302 Northgate Mall, J010",TN,37415
Kay Jewelers,Kingsport,1577,#1577,2101 Fort Henry Dr.,TN,37664
Kay Jewelers,Monroe,1580,#1580,4700 Millhaven Rd.,LA,71203
Kay Jewelers,Shreveport,1581,#1581,1133 St. Vincent Ave. #150,LA,71104-4146
Kay Jewelers,Kenner,1587,#1587,1401 W Esplanade Ave,LA,70065
Kay Jewelers,Gretna,1588,#1588,197 Westbank Expy.,LA,70053-2459
Kay Jewelers,Lake Charles,1589,#1589,496 W. Prien Lake Rd. #C-6,LA,70601
Kay Jewelers,Beaumont,1590,#1590,6155 Eastex Fwy.,TX,77706
Kay Jewelers,San Antonio,1591,#1591,7400 San Pedro,TX,78216
Kay Jewelers,Fort Worth,1592,#1592,4800 S. Hulen St.,TX,76132
Kay Jewelers,Lubbock,1593,#1593,"6002 Slide Rd., Space D-9",TX,79414
Kay Jewelers,Tyler,1594,#1594,4601 S. Broadway,TX,75703
Kay Jewelers,Chicago,1605,#1605,1001 W. North Ave.,IL,60622
Kay Jewelers,New York,1606,#1606,136 W. 34th St.,NY,10001
Kay Jewelers,Brooklyn,1607,#1607,446 Fulton St.,NY,11201
Kay Jewelers,Bay City,1615,#1615,4101 Wilder Rd.,MI,48706-2214
Kay Jewelers,Traverse City,1616,#1616,3200 S. Airport Rd. W.,MI,49684
Kay Jewelers,Appleton,1623,#1623,4301 W. Wisconsin Ave.,WI,54913
Kay Jewelers,Wauwatosa,1624,#1624,2500 N. Mayfair Rd.,WI,53226
Kay Jewelers,Bismarck,1625,#1625,"608 Kirkwood Mall, Spc. 120-G5",ND,58504
Kay Jewelers,Grand Forks,1626,#1626,2800 Columbia Rd.,ND,58201
Kay Jewelers,Aurora,1635,#1635,2370 Fox Valley Center,IL,60504
Kay Jewelers,Peoria,1636,#1636,"2200 W. War Memorial Dr., Space EL-20",IL,61613
Kay Jewelers,Elkhart,1642,#1642,3701 S. Main St.,IN,46517-3106
Kay Jewelers,Lafayette,1644,#1644,2415 Sagamore Pkwy,IN,47905
Kay Jewelers,Terre Haute,1645,#1645,3401 S. US Hwy. 41,IN,47802
Kay Jewelers,West Des Moines,1646,#1646,1551 Valley West Dr.,IA,50266
Kay Jewelers,Des Moines,1647,#1647,3800 Merle Hay Rd.,IA,50310
Kay Jewelers,Jefferson City,1650,#1650,3600 Country Club Dr.,MO,65109
Kay Jewelers,Columbia,1651,#1651,2300 Bernadette Dr.,MO,65203
Kay Jewelers,Richmond,1658,#1658,11800 W. Broad St.,VA,23233
Kay Jewelers,Charlottesville,1659,#1659,1570 E. Rio Rd.,VA,22901
Kay Jewelers,Dulles,1662,#1662,21100 Dulles Town Center,VA,20166
Kay Jewelers,El Paso,1673,#1673,750 Sunland Park Dr.,TX,79912
Kay Jewelers,Lake Jackson,1674,#1674,100 West Highway 332,TX,77566
Kay Jewelers,Houston,1675,#1675,5137 West Alabama,TX,77056
Kay Jewelers,Layton,1676,#1676,2028 Layton Hills Mall,UT,84041
Kay Jewelers,Great Falls,1680,#1680,1200 10th Ave. S,MT,59405
Kay Jewelers,Billings,1681,#1681,300 S. 24th St. W,MT,59102
Kay Jewelers,Missoula,1682,#1682,2901 Brooks,MT,59801
Kay Jewelers,Oklahoma City,1684,#1684,2501 W. Memorial Rd.,OK,73134
Kay Jewelers,Franklin,1692,#1692,3461 Towne Blvd.,OH,45005
Kay Jewelers,Parma,1693,#1693,7917 W. Ridgewood Dr.,OH,44129
Kay Jewelers,Cincinnati,1710,#1710,7875 Montgomery Road,OH,45236
Kay Jewelers,Mansfield,1711,#1711,660 Richland Mall,OH,44906-1246
Kay Jewelers,Cincinnati,1712,#1712,9565-B Colerain Ave.,OH,45251-2003
Kay Jewelers,Cincinnati,1714,#1714,11700 Princeton Rd.,OH,45246
Kay Jewelers,Mishawaka,1741,#1741,6501 N. Grape Rd.,IN,46545-1007
Kay Jewelers,Chicago,1753,#1753,7601 S. Cicero Ave.,IL,60652-1022
Kay Jewelers,Sanford,1773,#1773,214 Towne Center Cir,FL,32771
Kay Jewelers,Orlando,1774,#1774,8001 S. Orange Blossom Trl,FL,32809
Kay Jewelers,Austin,1778,#1778,2901 Capital of Texas Hwy.,TX,78746
Kay Jewelers,Friendswood,1781,#1781,1150 Baybrook Mall,TX,77546-2740
Kay Jewelers,Houston,1782,#1782,1000 W. Oaks Mall,TX,77082
Kay Jewelers,San Antonio,1784,#1784,6301 Northwest Loop 410,TX,78238-3824
Kay Jewelers,San Angelo,1785,#1785,4001 Sunset Dr.,TX,76904
Kay Jewelers,Slidell,1788,#1788,150 N. Shore Blvd.,LA,70460
Kay Jewelers,Florence,1796,#1796,2062 Florence Mall,KY,41042
Kay Jewelers,Spokane Valley,1810,#1810,14700 E Indiana Ave,WA,99216
Kay Jewelers,Union Gap,1811,#1811,2529 Main St.,WA,98903
Kay Jewelers,Cheyenne,1812,#1812,1400 Dell Range Blvd.,WY,82009
Kay Jewelers,Tulsa,1813,#1813,7021 S. Memorial Dr.,OK,74133
Kay Jewelers,Las Vegas,1815,#1815,4300 Meadows Ln.,NV,89107
Kay Jewelers,Las Vegas,1816,#1816,3200 Las Vegas Blvd. S,NV,89109
Kay Jewelers,Albuquerque,1817,#1817,6600 Menaul Blvd. NE,NM,87110
Kay Jewelers,Fairfield,1820,#1820,1350 Travis Blvd.,CA,94533
Kay Jewelers,Montebello,1823,#1823,2112 Montebello Town Ctr,CA,90640
Kay Jewelers,Culver City,1824,#1824,6000 Sepulveda Blvd,CA,90230
Kay Jewelers,Coralville,1830,#1830,1451 Coral Ridge Ave.,IA,52241
Kay Jewelers,Muskegon,1832,#1832,5600 Harvey St.,MI,49444
Kay Jewelers,Bloomington,1833,#1833,174 N Garden St,MN,55425
Kay Jewelers,Blaine,1834,#1834,532 Northtown Dr.,MN,55434
Kay Jewelers,Burnsville,1835,#1835,1067 Burnsville Center,MN,55306
Kay Jewelers,Frisco,1837,#1837,2601 Preston Rd.,TX,75034-9468
Kay Jewelers,San Antonio,1838,#1838,2310 SW Military Dr.,TX,78224
Kay Jewelers,Lithonia,1839,#1839,2929 Turner Hill Rd.,GA,30038
Kay Jewelers,Savannah,1840,#1840,7804 Abercorn St.,GA,31406
Kay Jewelers,Myrtle Beach,1842,#1842,2000 Coastal Grand Circle,SC,29577
Kay Jewelers,Calumet City,1844,#1844,96 River Oaks Center,IL,60409
Kay Jewelers,Vernon Hills,1845,#1845,216 Hawthorn Center,IL,60061
Kay Jewelers,North Riverside,1846,#1846,7501 W. Cermak Rd.,IL,60546
Kay Jewelers,Orland Park,1849,#1849,548 Orland Square Mall,IL,60462
Kay Jewelers,Omaha,1851,#1851,10000 California St.,NE,68114
Kay Jewelers,Harrisburg,1856,#1856,Route 22 & Colonial Rd.,PA,17109
Kay Jewelers,Bensalem,1857,#1857,310 Neshaminy Mall,PA,19020-1608
Kay Jewelers,Washington,1858,#1858,1500 W. Chestnut St.,PA,15301
Kay Jewelers,Hialeah,1861,#1861,1645 W. 49th St.,FL,33012
Kay Jewelers,Tampa,1862,#1862,2223 North West Shore Blvd.,FL,33607
Kay Jewelers,Grandville,1863,#1863,3799 RiverTown Pkwy.,MI,49418
Kay Jewelers,Battle Creek,1864,#1864,5775 Beckley Rd.,MI,49015
Kay Jewelers,Tampa,1866,#1866,7905 Citrus Park Town Center,FL,33625
Kay Jewelers,Pembroke Pines,1867,#1867,11401 Pines Blvd.,FL,33026
Kay Jewelers,Gainesville,1868,#1868,6333 Newberry Rd.,FL,32605
Kay Jewelers,Boynton Beach,1869,#1869,801 N. Congress Ave.,FL,33426
Kay Jewelers,Wellington,1871,#1871,10300 W. Forest Hill Blvd.,FL,33414
Kay Jewelers,North Little Rock,1873,#1873,"3929 McCain Blvd., E05B",AR,72116
Kay Jewelers,Little Rock,1874,#1874,6000 W. Markham St.,AR,72205
Kay Jewelers,Fayetteville,1875,#1875,4201 N. Shiloh Dr.,AR,72703
Kay Jewelers,Frederick,1880,#1880,5500 Buckeystown Pike,MD,21703
Kay Jewelers,Owings Mills,1881,#1881,10300 Mill Run Cir.,MD,21117
Kay Jewelers,Richmond,1884,#1884,9200 Stony Point Pkwy.,VA,23235
Kay Jewelers,Norfolk,1886,#1886,300 Monticello Ave.,VA,23510
Kay Jewelers,Birmingham,1887,#1887,748 Brookwood Village,AL,35209
Kay Jewelers,Huntsville,1888,#1888,2801 Memorial Parkway S,AL,35801
Kay Jewelers,Oklahoma City,2100,#2100,1901 NW Expy.,OK,73118
Kay Jewelers,Eugene,2101,#2101,259 Valley River Center,OR,97401
Kay Jewelers,Alpharetta,2103,#2103,"2156 North Point Cir., Spc. 2158",GA,30022
Kay Jewelers,Chesterfield,2104,#2104,50 Chesterfield Mall #400,MO,63017
Kay Jewelers,Escondido,2106,#2106,200 E. Via Rancho Pkwy.,CA,92025
Kay Jewelers,San Bruno,2107,#2107,1150 El Camino Real,CA,94066
Kay Jewelers,Huntington Station,2108,#2108,160 Walt Whitman Rd.,NY,11746
Kay Jewelers,Springfield,2110,#2110,2825 South Glenstone Ave.,MO,65804
Kay Jewelers,Charlotte,2111,#2111,4400 Sharon Rd.,NC,28211
Kay Jewelers,Tampa,2112,#2112,214 West Shore Plaza #C40,FL,33609
Kay Jewelers,El Centro,2113,#2113,3451 S. Dogwood Rd,CA,92243
Kay Jewelers,Rancho Cucamonga,2114,#2114,12479 S. Main St.,CA,91739
Kay Jewelers,Kahului,2115,#2115,275 W. Kaahumanu Ave.,HI,96732
Kay Jewelers,Charlotte,2118,#2118,"6801 Northlake Mall Dr., Spc. 269",NC,28216
Kay Jewelers,Minnetonka,2121,#2121,12535 Wayzata Blvd.,MN,55305
Kay Jewelers,Denton,2124,#2124,2201 Interstate 35E,TX,76205
Kay Jewelers,Baton Rouge,2127,#2127,9275 Cortana Place,LA,70815
Kay Jewelers,Downey,2130,#2130,411 Stonewood St.,CA,90241
Kay Jewelers,Bowie,2131,#2131,15502 Emerald Way B15,MD,20716
Kay Jewelers,Orem,2138,#2138,575 E. University Parkway,UT,84097
Kay Jewelers,Valencia,2139,#2139,24201 W. Valencia Blvd.,CA,91355
Kay Jewelers,West Dundee,2140,#2140,1272 Spring Hill Mall,IL,60118
Kay Jewelers,Silverdale,2141,#2141,10315 Silverdale Way NW,WA,98383
Kay Jewelers,Santa Ana,2143,#2143,2800 N. Main St.,CA,92705
Kay Jewelers,Roanoke,2144,#2144,4802 Valley View Blvd. NW,VA,24012
Kay Jewelers,San Antonio,2148,#2148,15900 La Cantera Pkwy,TX,78256
Kay Jewelers,Greeley,2149,#2149,2081 Greeley Mall,CO,80631
Kay Jewelers,College Station,2152,#2152,1500 Harvey Rd.,TX,77840
Kay Jewelers,San Diego,2154,#2154,4445 La Jolla Village Dr. Suite H10,CA,92122-1205
Kay Jewelers,Lake Grove,2155,#2155,370 Smith Haven Mall,NY,11755
Kay Jewelers,Hurst,2167,#2167,1101 Melbourne Rd,TX,76053
Kay Jewelers,Irvine,2171,#2171,81 Fortune Dr.,CA,92618
Kay Jewelers,East Brunswick,2172,#2172,755 State Hwy 18,NJ,8816
Kay Jewelers,Yorktown Heights,2173,#2173,650 Lee Blvd. Spc. K06A,NY,10598
Kay Jewelers,Bossier City,2179,#2179,2950 East Texas St.,LA,71111
Kay Jewelers,Columbia,2183,#2183,10300 Little Patuxent Pky,MD,21044
Kay Jewelers,Newark,2184,#2184,503 Christiana Mall,DE,19702
Kay Jewelers,Paramus,2185,#2185,1110 Paramus Park Shopping Center,NJ,7652
Kay Jewelers,Louisville,2186,#2186,5000 Shelbyville Rd.,KY,40207
Kay Jewelers,Murray,2187,#2187,6191 S. State St.,UT,84107
Kay Jewelers,Lawton,2190,#2190,200 SW C Ave.,OK,73501
Kay Jewelers,Lincoln,2191,#2191,"6100 O Street, Unit 412",NE,68505
Kay Jewelers,Idaho Falls,2193,#2193,2300 E. 17th St.,ID,83404
Kay Jewelers,Manhattan,2194,#2194,100 Manhattan Town Center,KS,66502
Kay Jewelers,Lufkin,2197,#2197,4600 S. Medford Dr.,TX,75901
Kay Jewelers,Bakersfield,2198,#2198,2701 Ming Ave.,CA,93304
Kay Jewelers,Garland,2201,#2201,310 Cedar Sage Dr.,TX,75040
Kay Jewelers,Brooklyn,2202,#2202,5376 Kings Plaza,NY,11234
Kay Jewelers,Lihue,2203,#2203,3-2600 Kaumualii Hwy,HI,96766
Kay Jewelers,Kaneohe,2208,#2208,46-056 Kamehameha Hwy.,HI,96744
Kay Jewelers,Modesto,2209,#2209,3401 Dale Rd,CA,95356
Kay Jewelers,Salinas,2211,#2211,536 Northridge Mall,CA,93906
Kay Jewelers,Hanford,2213,#2213,"1675 W. Lacey Blvd., Spc. B-11",CA,93230
Kay Jewelers,Jonesboro,2215,#2215,3000 E. Highland Dr.,AR,72401
Kay Jewelers,Lafayette,2216,#2216,5725 Johnston St.,LA,70503
Kay Jewelers,Santa Fe,2217,#2217,4250 Cerrillos Rd.,NM,87507
Kay Jewelers,Tarentum,2218,#2218,423 Pittsburgh Mills Circle,PA,15084
Kay Jewelers,Greensboro,2220,#2220,220 Four Seasons Town Ctr,NC,27407
Kay Jewelers,Fort Smith,2221,#2221,5111 Rogers Ave.,AR,72903
Kay Jewelers,Las Cruces,2222,#2222,700 S. Telshor Blvd.,NM,88011
Kay Jewelers,Norman,2223,#2223,3341 W. Main St.,OK,73072
Kay Jewelers,Danville,2224,#2224,325 Piedmont Drive,VA,24540
Kay Jewelers,Mays Landing,2227,#2227,4403 Black Horse Pike,NJ,8330
Kay Jewelers,Houma,2231,#2231,5953 W. Park Ave.,LA,70364
Kay Jewelers,Anderson,2232,#2232,2109 S. Scatterfield Rd.,IN,46016
Kay Jewelers,Aiea,2233,#2233,98-1005 Moanalua Rd.,HI,96701
Kay Jewelers,Irving,2234,#2234,3705 Irving Mall,TX,75062
Kay Jewelers,Yuba City,2235,#2235,1125D Colusa Ave.,CA,95991
Kay Jewelers,Temple,2237,#2237,3111 S. 31st St.,TX,76502
Kay Jewelers,Farmington,2239,#2239,4601 E. Main St.,NM,87402
Kay Jewelers,New Philadelphia,2241,#2241,400 Mill Ave. SE,OH,44663
Kay Jewelers,Santa Clara,2242,#2242,2855 Stevens Creek Blvd.,CA,95050
Kay Jewelers,Canoga Park,2243,#2243,6600 Topanga Canyon Blvd.,CA,91303
Kay Jewelers,Panama City,2244,#2244,2208 Martin Luther King Jr. Blvd.,FL,32405
Kay Jewelers,Westminster,2246,#2246,400 N. Center St.,MD,21157
Kay Jewelers,Maumee,2247,#2247,3100 Main Street,OH,43537
Kay Jewelers,Gilbert,2250,#2250,2200 E Williams Field,AZ,85295
Kay Jewelers,Durango,2253,#2253,800 S. Camino Del Rio,CO,81301
Kay Jewelers,Visalia,2254,#2254,2171 S Mooney Blvd,CA,93277
Kay Jewelers,Tulsa,2255,#2255,4107 S. Yale Ave.,OK,74135
Kay Jewelers,Mankato,2258,#2258,1850 Adams St.,MN,56001
Kay Jewelers,Fargo,2259,#2259,3902 13th Ave. SW,ND,58103
Kay Jewelers,San Francisco,2262,#2262,865 Market St,CA,94103
Kay Jewelers,Clinton Township,2263,#2263,17410 Hall Rd. Suite 176,MI,48038
Kay Jewelers,Concord,2264,#2264,240 Sunvalley Mall,CA,94520
Kay Jewelers,Rogers,2266,#2266,2203 Promenade Blvd,AR,72758
Kay Jewelers,Wesley Chapel,2267,#2267,28210 Paseo Drive,FL,33543
Kay Jewelers,Baton Rouge,2269,#2269,"6401 Blue Bonnet Blvd.,",LA,70836
Kay Jewelers,Cedar Hill,2270,#2270,"305 West FM 1382, Suite 700",TX,75104
Kay Jewelers,Chambersburg,2271,#2271,907 Chambersburg Mall,PA,17202-8193
Kay Jewelers,Vancouver,2272,#2272,8700 NE Vancouver Mall Dr.,WA,98662
Kay Jewelers,Albany,2276,#2276,"2025 14th Ave SE, Ste. D417",OR,97322
Kay Jewelers,King of Prussia,2277,#2277,690 W. DeKalb Pike,PA,19406
Kay Jewelers,St. George,2278,#2278,1770 E. Red Cliffs Dr.,UT,84790
Kay Jewelers,Staunton,2281,#2281,90 Lee Jackson Hwy,VA,24401
Kay Jewelers,Sandy,2283,#2283,10450 S. State St.,UT,84070
Kay Jewelers,Ft. Lauderdale,2288,#2288,2504 E. Sunrise Blvd,FL,33304
Kay Jewelers,Lynchburg,2289,#2289,3405 Candlers Mountain Rd,VA,24502
Kay Jewelers,Bristol,2292,#2292,500 Gate City HWY,VA,24201
Kay Jewelers,Port Arthur,2293,#2293,3100 HWY 365 Unit# 47,TX,77642
Kay Jewelers,Texarkana,2295,#2295,95 Central Mall,TX,75503
Kay Jewelers,Tracy,2298,#2298,3200 North Naglee Rd. Spc. #490,CA,95304
Kay Jewelers,Staten Island,2299,#2299,2655 Richmond Avenue Ste. #2333,NY,10314
Kay Jewelers,Statesboro,2303,#2303,"718 Northside Drive East, Suite 29B",GA,30458
Kay Jewelers,Panama City Beach,2308,#2308,100 Bluefish Drive,FL,32413
Kay Jewelers,City of Industry,2314,#2314,1600 Azusa Ave. Ste. #434,CA,91748
Kay Jewelers,Pearland,2315,#2315,"11200 Broadway, Suite 700",TX,77584
Kay Jewelers,Westminster,2316,#2316,14647 Delaware St Suite 800,CO,80023
Kay Jewelers,Nashville,2320,#2320,2126 Abbott Martin Rd. Suite 292A,TN,37215
Kay Jewelers,Pasadena,2322,#2322,386 E Colorado Blvd,CA,91101
Kay Jewelers,Salem,2323,#2323,"401 Center Street NE, Suite 2283",OR,97301
Kay Jewelers,Saint Paul,2324,#2324,"3001 White Bear Ave. North, Suite 1056",MN,55109
Kay Jewelers,Casper,2325,#2325,601 S.E. Wyoming Blvd.,WY,82609
Kay Jewelers,Moreno Valley,2326,#2326,"22500 Town Circle Suite, 1042",CA,92553
Kay Jewelers,Indianapolis,2327,#2327,"49 West Maryland Street, Space #D17A",IN,46204
Kay Jewelers,Hot Springs,2328,#2328,"4501 Central Ave., Suite 155",AR,71913
Kay Jewelers,Woodbury,2330,#2330,1750 Deptford Center Road,NJ,8096
Kay Jewelers,Ventura,2332,#2332,3301 E. Main Street,CA,93003
Kay Jewelers,Beachwood,2336,#2336,26300 Cedar Road,OH,44122
Kay Jewelers,Quincy,2338,#2338,3344 Quincy Mall,IL,62301
Kay Jewelers,Harlingen,2339,#2339,2000 South Expressway 83,TX,78552
Kay Jewelers,Temecula,2341,#2341,40820 Winchester Road,CA,92591
Kay Jewelers,Plymouth Meeting,2343,#2343,500 West Germantown Pike,PA,19462
Kay Jewelers,Forsyth,2346,#2346,1146 Hickory Point Mall US #51 N,IL,62535
Kay Jewelers,Dover,2351,#2351,1365 North DuPont Hwy,DE,19901
Kay Jewelers,Midland,2352,#2352,4511 N Midkiff Rd.,TX,79705-3256
Kay Jewelers,Fayetteville,2353,#2353,218 Cross Creek Mall,NC,28303
Kay Jewelers,Raleigh,2354,#2354,4325 Glenwood Ave,NC,27612
Kay Jewelers,Dublin,2355,#2355,5043 Tuttle Crossing Blvd.,OH,43016
Kay Jewelers,Brownsville,2356,#2356,2370 N. Expressway,TX,78521
Kay Jewelers,Durham,2357,#2357,6910 Fayetteville Rd.,NC,27713
Kay Jewelers,San Mateo,2358,#2358,165 Hillsdale Shopping Center,CA,94403
Kay Jewelers,San Francisco,2359,#2359,3251 20th Ave.,CA,94132
Kay Jewelers,Livingston,2360,#2360,112 Eisenhower Parkway,NJ,7039
Kay Jewelers,Twin Falls,2362,#2362,1485 East Pole Line Rd,ID,83301
Kay Jewelers,Newnan,2363,#2363,386A Newnan Crossing Bypass,GA,30265
Kay Jewelers,Laredo,2364,#2364,5300 San Dario Ave,TX,78041
Kay Jewelers,Salt Lake City,2365,#2365,51 S. Main St.,UT,84111-1931
Kay Jewelers,Hammond,2367,#2367,411 Palace Dr.,LA,70403
Kay Jewelers,Springfield,2368,#2368,1250 Baltimore Pike,PA,19064
Kay Jewelers,Omaha,2370,#2370,3001 S. 144th St,NE,68144
Kay Jewelers,Grand Island,2371,#2371,3404 W 13th St,NE,68803-2389
Kay Jewelers,Lake City,2375,#2375,2469 W. US Hwy 90,FL,32055
Kay Jewelers,Salina,2376,#2376,2259 S. 9th Street,KS,67401
Kay Jewelers,Oneonta,2377,#2377,5006 State Highway 23,NY,13820
Kay Jewelers,Providence,2379,#2379,93 Providence Place,RI,2903
Kay Jewelers,Riverside,2380,#2380,1284 Galleria At Tyler,CA,92503
Kay Jewelers,Roseville,2381,#2381,32373 Gratiot Avenue,MI,48066
Kay Jewelers,Hilo,2384,#2384,111 E. Puainako St,HI,96720
Kay Jewelers,Eagle Pass,2385,#2385,455 S. Bibb Ave,TX,78852
Kay Jewelers,Denver,2388,#2388,3000 E First Ave,CO,80206
Kay Jewelers,Wichita Falls,2389,#2389,3111 Midwestern Pkwy,TX,76308
Kay Jewelers,Ogden,2390,#2390,3651 Wall Avenue,UT,84405
Kay Jewelers,Palmdale,2391,#2391,1233 W Rancho Vista Blvd,CA,93551
Kay Jewelers,Nanuet,2394,#2394,8119 Fashion Drive,NY,10954
Kay Jewelers,Hendersonville,2395,#2395,1800 Four Seasons Blvd,NC,28792
Kay Jewelers,Edina,2396,#2396,2293 Southdale Center,MN,55435
Kay Jewelers,Fairbanks,2397,#2397,32 College Rd,AK,99701
Kay Jewelers,Geneva,2600,#2600,414 Commons Drive,IL,60134
Kay Jewelers,East Point,2601,#2601,3662 Marketplace Blvd.,GA,30344
Kay Jewelers,Marietta,2603,#2603,3625 Dallas Highway SW,GA,30064
Kay Jewelers,Largo,2605,#2605,900P Capital Centre Blvd.,MD,20774
Kay Jewelers,Kansas City,2606,#2606,7270 NW 86th Place,MO,64153
Kay Jewelers,Smithfield,2608,#2608,371 Putnam Pike,RI,2917
Kay Jewelers,Orange Park,2609,#2609,1524 County Rd. 220,FL,32003
Kay Jewelers,Augusta,2611,#2611,2 Stephen King Dr.,ME,4330
Kay Jewelers,Kissimmee,2612,#2612,3216 N. John Young Pky.,FL,34741
Kay Jewelers,Melbourne,2613,#2613,2261 Town Center Ave.,FL,32940
Kay Jewelers,Yuma,2614,#2614,1401 South Yuma Palms Parkway,AZ,85365
Kay Jewelers,St. Augustine,2615,#2615,340 C B L Drive,FL,32086
Kay Jewelers,Jacksonville,2616,#2616,10281 Midtown Pkwy.,FL,32246
Kay Jewelers,Spanish Fort,2617,#2617,30500 State Hwy 181,AL,36527
Kay Jewelers,Columbus,2618,#2618,3995 Gramercy,OH,43219
Kay Jewelers,Aurora,2620,#2620,7175 Aurora Rd.,OH,44202
Kay Jewelers,Southaven,2622,#2622,6588 Town Center Loop,MS,38671
Kay Jewelers,Fort Mitchell,2623,#2623,2893 Town Center Blvd,KY,41017
Kay Jewelers,Flowood,2625,#2625,172 Promenade Blvd.,MS,39232
Kay Jewelers,Collierville,2628,#2628,4670 Merchants Park Cir.,TN,38017
Kay Jewelers,Woodbury,2629,#2629,7150 Valley Creek Rd.,MN,55125
Kay Jewelers,Wichita,2630,#2630,2441 North Maize Rd.,KS,67205-7935
Kay Jewelers,Louisville,2632,#2632,4212 Summit Plaza Dr.,KY,40241
Kay Jewelers,Morgantown,2634,#2634,4221 University Town Centre Dr.,WV,26501
Kay Jewelers,Birmingham,2636,#2636,5006 Pinnacle Sq.,AL,35235
Kay Jewelers,Loveland,2637,#2637,5971 Sky Pond Dr.,CO,80538
Kay Jewelers,Center Valley,2638,#2638,2960 Center Valley Pkwy.,PA,18034
Kay Jewelers,Knoxville,2639,#2639,11357 Parkside Dr.,TN,37934
Kay Jewelers,Bolingbrook,2640,#2640,641 E. Boughton Rd.,IL,60440
Kay Jewelers,Brighton,2641,#2641,9730 Village Place Blvd.,MI,48116
Kay Jewelers,Snellville,2643,#2643,1350 Scenic Hwy.,GA,30078
Kay Jewelers,Burlington,2647,#2647,1007 Boston Drive,NC,27217
Kay Jewelers,Glendale,2648,#2648,5758 N. Bayshore Dr.,WI,53217
Kay Jewelers,Wilson,2649,#2649,3401 Raleigh Rd Pkwy W,NC,27896
Kay Jewelers,Nampa,2650,#2650,16435 North Marketplace Blvd,ID,83687
Kay Jewelers,Monroe,2652,#2652,3039 W. Hwy. 74,NC,28110
Kay Jewelers,DeKalb,2653,#2653,2462 Sycamore Rd.,IL,60115
Kay Jewelers,Dayton,2654,#2654,4430 Glengarry Dr.,OH,45440
Kay Jewelers,Macon,2656,#2656,5080 Riverside Dr,GA,31210
Kay Jewelers,Millbury,2657,#2657,70 Worcester Providence TPKE,MA,1527
Kay Jewelers,Jacksonville,2658,#2658,13221 City Station Dr.,FL,32218
Kay Jewelers,Fairview Park,2661,#2661,3120 Westgate,OH,44126
Kay Jewelers,Williamsburg,2662,#2662,5118 Main St,VA,23188
Kay Jewelers,Atlanta,2663,#2663,1380 Atlantic Dr. NW,GA,30363
Kay Jewelers,Coon Rapids,2664,#2664,12669 Riverdale Blvd.,MN,55448
Kay Jewelers,Garfield Heights,2665,#2665,9501 Vista Way,OH,44125
Kay Jewelers,Winter Garden,2666,#2666,3251 Daniels Rd,FL,34787
Kay Jewelers,Summerville,2667,#2667,436 B. Azalea Square Blvd.,SC,29483
Kay Jewelers,Murfreesboro,2668,#2668,2615 Medical Center Pkwy,TN,37129
Kay Jewelers,Fultondale,2670,#2670,3465 Lowery Parkway,AL,35068
Kay Jewelers,Huntsville,2671,#2671,300 The Bridge St,AL,35806
Kay Jewelers,Georgetown,2672,#2672,1019 West University Ave,TX,78628
Kay Jewelers,Fort Myers,2673,#2673,9902 Gulf Coast Main St,FL,33913
Kay Jewelers,San Antonio,2675,#2675,22810 U.S. Highway 281 North,TX,78259
Kay Jewelers,San Antonio,2676,#2676,255 East Basse Rd #150,TX,78209
Kay Jewelers,Lansing,2679,#2679,2940 Towne Centre Blvd,MI,48912
Kay Jewelers,Cleveland,2681,#2681,3415 Steelyard Dr,OH,44109
Kay Jewelers,Papillion,2682,#2682,7474 Towne Center Parkway,NE,68046
Kay Jewelers,Peoria,2685,#2685,5201 W. Memorial Dr,IL,61615
Kay Jewelers,Emeryville,2686,#2686,5657 Bay Street,CA,94608
Kay Jewelers,Johnsburg,2687,#2687,2890 Commerce Drive,IL,60051-5410
Kay Jewelers,Richmond,2688,#2688,4501A South Laburnum Ave.,VA,23231
Kay Jewelers,Chesapeake,2689,#2689,237 Carmichael Way,VA,23322
Kay Jewelers,Pleasant Prairie,2690,#2690,9780 76th Street,WI,53158
Kay Jewelers,Keizer,2691,#2691,6395 Keizer Station Blvd NE,OR,97303
Kay Jewelers,Brooksville,2693,#2693,7153 Coastal Blvd.,FL,34613
Kay Jewelers,Las Vegas,2694,#2694,6659 Las Vegas Blvd South,NV,89119
Kay Jewelers,Portland,2697,#2697,10115 NE Cascades Parkway,OR,97220
Kay Jewelers,Massillon,2698,#2698,10 Massillon Marketplace,OH,44646
Kay Jewelers,Glen mills,2699,#2699,600 Town Centre Drive,PA,19342
Kay Jewelers,Mooresville,2702,#2702,598 A River Highway,NC,28117
Kay Jewelers,Hamilton,2704,#2704,3417 Princeton Rd,OH,45011
Kay Jewelers,Alabaster,2705,#2705,100 S. Colonial Drive,AL,35007
Kay Jewelers,Rosenberg,2707,#2707,24102 Commercial Dr,TX,77471
Kay Jewelers,Yorkville,2708,#2708,905 Erica Lane,IL,60560
Kay Jewelers,Charlotte,2710,#2710,14141 Steele Creek Rd,NC,28273
Kay Jewelers,Webster,2712,#2712,935 Holt Road,NY,14580
Kay Jewelers,Mechanicsburg,2714,#2714,6416 Carlisle Pike,PA,17050
Kay Jewelers,Wooster,2715,#2715,3969 Burbank Rd.,OH,44691
Kay Jewelers,Gresham,2716,#2716,1135 NW Civic Drive,OR,97030
Kay Jewelers,Bessemer,2718,#2718,4897 Promenade Parkway,AL,35022
Kay Jewelers,Columbia,2720,#2720,481 Town Center Place,SC,29229
Kay Jewelers,Millville,2724,#2724,2160 N. 2nd Street,NJ,8332
Kay Jewelers,Palm Coast,2727,#2727,5200 East Highway 100,FL,32164
Kay Jewelers,Sparks,2728,#2728,"151 Disc Drive, Suite 101",NV,89436
Kay Jewelers,Noblesville,2729,#2729,13976 Town Center Blvd,IN,46060
Kay Jewelers,Lexington,2730,#2730,5135K Sunset Blvd.,SC,29072
Kay Jewelers,Cherry Hill,2736,#2736,2020 RT. 70 West,NJ,8002
Kay Jewelers,Raleigh,2737,#2737,8211-107 Brier Creek Pkwy,NC,27617
Kay Jewelers,Ontario,2740,#2740,4190 East 4th Street,CA,91764
Kay Jewelers,Gaithersburg,2744,#2744,26-A Grand Corner Ave.,MD,20878
Kay Jewelers,Mount Juliet,2753,#2753,401 S. Mt. Juliet Rd.,TN,37122
Kay Jewelers,New Braunfels,2754,#2754,161 Creekside Way,TX,78130
Kay Jewelers,Spring Hill,2755,#2755,1036-A Crossings Blvd.,TN,37174
Kay Jewelers,Cartersville,2756,#2756,450 Cherokee Place,GA,30121
Kay Jewelers,Chillicothe,2757,#2757,1075 Bridge St,OH,45601
Kay Jewelers,Maple Grove,2758,#2758,8066 Wedgewood Lane,MN,55369
Kay Jewelers,Virginia Beach,2759,#2759,1157 Nimmo Pkwy.,VA,23456
Kay Jewelers,Bethlehem,2760,#2760,"916 Loganville Highway, Bldg 600",GA,30620
Kay Jewelers,Carrollton,2761,#2761,1109 S. Park Street,GA,30117
Kay Jewelers,Beaufort,2762,#2762,330 Robert Smalls Parkway,SC,29906-4237
Kay Jewelers,Columbus,2764,#2764,3058 Columbus Center,IN,47203-3415
Kay Jewelers,Warsaw,2765,#2765,610 W. 300 N,IN,46582
Kay Jewelers,Cookeville,2767,#2767,377 W. Jackson St.,TN,38501
Kay Jewelers,Flanders,2768,#2768,30 International Dr,NJ,7836
Kay Jewelers,D'Iberville,2770,#2770,3868 Promenade Parkway,MS,39540
Kay Jewelers,Madison,2771,#2771,8213 Hwy 72 West,AL,35758
Kay Jewelers,Fort Wayne,2772,#2772,4602 Illinois Rd,IN,46804
Kay Jewelers,Destin,2773,#2773,4351 Legendary Dr,FL,32541
Kay Jewelers,Marietta,2775,#2775,201 Captain D Seeley Mia Dr,OH,45750
Kay Jewelers,Palm Beach Gardens,2776,#2776,11345 Legacy Ave,FL,33410
Kay Jewelers,Kansas City,2777,#2777,9302 NE 83rd Terrace,MO,64158
Kay Jewelers,Huber Heights,2778,#2778,8285 Old Troy Pike,OH,45424
Kay Jewelers,Fort Collins,2779,#2779,2842 Council Tree Ave,CO,80525
Kay Jewelers,Plymouth,2780,#2780,168 Colony Place,MA,2360
Kay Jewelers,Morganton,2781,#2781,A102 Morganton Height Blvd.,NC,28655
Kay Jewelers,Southern Pines,2782,#2782,178 Brucewood Rd,NC,28387
Kay Jewelers,Sherman,2783,#2783,613 E. North Creek Dr.,TX,75092
Kay Jewelers,Holly Springs,2784,#2784,144 Grand Hill Place,NC,27540
Kay Jewelers,Fayetteville,2785,#2785,113 Pavilion Pkwy,GA,30214
Kay Jewelers,Gambrills,2786,#2786,2389 Bandermill Blvd,MD,21054
Kay Jewelers,Lexington Park,2788,#2788,46360 Lexington Village Way,MD,20653
Kay Jewelers,Harahan,2789,#2789,1126 Clearview Pkwy,LA,70123
Kay Jewelers,West Lebanon,2790,#2790,250 Plainfield Rd,NH,3784
Kay Jewelers,Kernersville,2791,#2791,1022 S. Main St.,NC,27284
Kay Jewelers,Dayville,2793,#2793,1081 Killingly Common Dr,CT,6241
Kay Jewelers,Cullman,2794,#2794,620 Olive Street SW,AL,35055
Kay Jewelers,Des Moines,2795,#2795,1111 E. Army Post Rd,IA,50315
Kay Jewelers,Council Bluffs,2797,#2797,3617 Denmark Dr.,IA,51501
Kay Jewelers,Greensboro,2798,#2798,644 Friendly Center Rd,NC,27408
Kay Jewelers,Valparaiso,2800,#2800,2410 LaPorte Ave,IN,46383
Kay Jewelers,Oak Park Heights,2801,#2801,13331 60th St. N,MN,55082
Kay Jewelers,Stillwater,2802,#2802,725 N. Perkins Rd,OK,74075-5419
Kay Jewelers,Canton,2803,#2803,1810 Cumming Hwy,GA,30114
Kay Jewelers,Lake Geneva,2804,#2804,656 Edwards Blvd.,WI,53147
Kay Jewelers,Joplin,2805,#2805,631 A S. Range Line Road,MO,64801
Kay Jewelers,Cockeysville,2806,#2806,112-10 Shawan Rd.,MD,21030
Kay Jewelers,Tinley Park,2808,#2808,7320 191st St.,IL,60487
Kay Jewelers,Amsterdam,2809,#2809,520 Amsterdam Commons Rd,NY,12010
Kay Jewelers,Marysville,2810,#2810,1087 Delaware Ave.,OH,43040
Kay Jewelers,Hinesville,2812,#2812,755 Oglethorpe Hwy,GA,31313
Kay Jewelers,Arlington Heights,2813,#2813,206 E Rand,IL,60004
Kay Jewelers,Mason City,2815,#2815,4109 4th SW,IA,50401
Kay Jewelers,Cranberry Township,2817,#2817,20111 Route 19,PA,16066
Kay Jewelers,Thomasville,2818,#2818,15039 U.S. Highway 19 South,GA,31792
Kay Jewelers,Clovis,2819,#2819,1345 Herndon Avenue,CA,93612
Kay Jewelers,Epping,2820,#2820,1 Brickyard Square,NH,3042
Kay Jewelers,Kalamazoo,2821,#2821,5250 W. Main,MI,49009
Kay Jewelers,Katy,2900,#2900,5000 Katy Mills Cir.,TX,77494
Kay Jewelers,Auburn Hills,2901,#2901,4256 Baldwin Rd,MI,48326
Kay Jewelers,San Marcos,2902,#2902,4015 Interstate 35 S.,TX,78666
Kay Jewelers,Elizabeth,2903,#2903,651 Kapkowski Rd.,NJ,7201
Kay Jewelers,Riverhead,2904,#2904,1770 W. Main St.,NY,11901
Kay Jewelers,Washington,2905,#2905,2200 Tanger Blvd,PA,15301
Kay Jewelers,Miami,2907,#2907,11401 NW 12th St,FL,33172
Kay Jewelers,Orlando,2908,#2908,4973 International Dr,FL,32819
Kay Jewelers,Lancaster,2909,#2909,117 Stanley K. Tanger Blvd.,PA,17602-1468
Kay Jewelers,Canutillo,2910,#2910,7051 S Desert Blvd,TX,79835
Kay Jewelers,Foley,2911,#2911,2601 South McKenzie St,AL,36535
Kay Jewelers,Tilton,2913,#2913,120 Laconia Road,NH,3276
Kay Jewelers,Oklahoma City,2914,#2914,7638 W. Reno Ave,OK,73127
Kay Jewelers,Auburn,2915,#2915,1101 Super Mall Way,WA,98001
Kay Jewelers,Gurnee,2916,#2916,6170 West Grand Ave,IL,60031
Kay Jewelers,Mebane,2917,#2917,4000 Arrowhead Blvd.,NC,27302
Kay Jewelers,Cypress,2919,#2919,29300 Hempstead Rd,TX,77433
Kay Jewelers,Tempe,2921,#2921,5000 Arizona Mills Circle,AZ,85282
Kay Jewelers,Niagara Falls,2922,#2922,1856 Military Rd. (37),NY,14304
Kay Jewelers,Leeds,2923,#2923,6200 Grand River Blvd. E,AL,35094
Kay Jewelers,Bluffton,2924,#2924,1252 Fording Island Rd,SC,29910
Kay Jewelers,Lakewood,2925,#2925,14500 W. Colfax Ave,CO,80401
Kay Jewelers,Philadelphia,2926,#2926,1509 Franklin Mills Circle,PA,19154
Kay Jewelers,Grand Prairie,2927,#2927,2950 West Interstate 20,TX,75052
Kay Jewelers,Hanover,2928,#2928,7000 Arundel Mills Circle,MD,21076
Kay Jewelers,Merrimack,2929,#2929,80 Premium Outlet Blvd,NH,3054
Kay Jewelers,Texas City,2930,#2930,5885 Gulf Freeway,TX,77591
Kay Jewelers,Woodstock,2931,#2931,915 Ridgewalk Parkway,GA,30188
Kay Jewelers,Gretna,2933,#2933,21317 Nebraska Crossing Dr.,NE,68028
Kay Jewelers,Pearl,2934,#2934,200 Bass Pro Dr,MS,39208
Kay Jewelers,Gilroy,2936,#2936,8375 Arroyo Circle,CA,95020
Kay Jewelers,Monroe,2937,#2937,901 Premium Outlets Dr,OH,45050
Kay Jewelers,Wrentham,2938,#2938,1 Premium Outlet Blvd,MA,2093
Kay Jewelers,San Diego,2939,#2939,"4265 Camino de la Plaza, Bldg. I",CA,92173
Kay Jewelers,Oshkosh,2942,#2942,3001 S. Washburn St,WI,54904
Kay Jewelers,Rehoboth Beach,2943,#2943,35016 Midway Outlet Dr,DE,19971
Kay Jewelers,Myrtle Beach,2944,#2944,10839 Kings Rd,SC,29572
Kay Jewelers,Chesterfield,2945,#2945,18511 Outlet Blvd,MO,63005
Kay Jewelers,North Conway,2947,#2947,2 Common Ct,NH,3860
Kay Jewelers,Locust Grove,2949,#2949,1000 Tanger Dr,GA,30248
Kay Jewelers,Vero Beach,2950,#2950,1836 94th Drive,FL,32966
Kay Jewelers,Park City,2951,#2951,6699 North Landmark Dr.,UT,84098
Kay Jewelers,Hershey,2953,#2953,85 Outlet Square,PA,17033
Kay Jewelers,Woodbridge,2954,#2954,2700 Potomac Mills Circle,VA,22192
Kay Jewelers,Lawrenceville,2959,#2959,5900 Sugarloaf Pkwy,GA,30043
Kay Jewelers,Vacaville,2963,#2963,266 Nut Tree Rd.,CA,95687
Kay Jewelers,Calexico,2964,#2964,888 2nd Street,CA,92231
Kay Jewelers,Lahaina,2966,#2966,900 Front Street,HI,96761
Kay Jewelers,Tuscola,2969,#2969,D1000 Tuscola Blvd,IL,61953
Kay Jewelers,Ocean City,2970,#2970,12741 Ocean Gateway,MD,21842
Kay Jewelers,Ellenton,4021,#4021,5323 Factory Shops Blvd,FL,34222
Kay Jewelers,Hagerstown,4023,#4023,635 Prime Outlets Blvd,MD,21740
Kay Jewelers,Central Valley,4029,#4029,344 Red Apple Court,NY,10917
Kay Jewelers,Jackson,4030,#4030,537 Monmouth Road,NJ,8527
Kay Jewelers,Ontario,4033,#4033,1 Mills Circle,CA,91764
Kay Jewelers,Jeffersonville,4040,#4040,8185 Factory Shops Blvd,OH,43128
Kay Jewelers,Grove City,4042,#4042,1911 Leesburg-Grove City Rd,PA,16127
Kay Jewelers,Michigan City,4043,#4043,601 Lighthouse Pl,IN,46360
Kay Jewelers,Laughlin,4047,#4047,1955 So. Casino Drive,NV,89029
Kay Jewelers,Las Vegas,4052,#4052,7400 Las Vegas Blvd S,NV,89123
Kay Jewelers,Howell,4056,#4056,1475 N. Burkhart Road,MI,48855
Kay Jewelers,Phoenix,4061,#4061,4250 W. Anthem Way,AZ,85086
Kay Jewelers,Cabazon,4062,#4062,48650 Seminole Rd,CA,92230
Kay Jewelers,Camarillo,4063,#4063,690 E Ventura Blvd,CA,93010
Kay Jewelers,Dawsonville,4065,#4065,800 Hwy. 400 S,GA,30534
Kay Jewelers,Castle Rock,4069,#4069,5050 Factory Shops Blvd,CO,80108
Kay Jewelers,Folsom,4077,#4077,13000 Folsom Blvd,CA,95630
Kay Jewelers,Edinburgh,4078,#4078,3095 Outlet Drive,IN,46124
Kay Jewelers,Alpine,4079,#4079,5005 Willows Rd,CA,91901
Kay Jewelers,Barstow,4081,#4081,2796 Tanger Way,CA,92311
Kay Jewelers,Osage Beach,4082,#4082,4540 Highway 54,MO,65065
Kay Jewelers,Branson,4083,#4083,300 Tanger Blvd,MO,65616
Kay Jewelers,Orange,4088,#4088,20 City Drive,CA,92868
Kay Jewelers,Gulfport,4089,#4089,10750 Factory Shop Blvd,MS,39503
Kay Jewelers,Grapevine,4090,#4090,3000 Grapevine Parkway,TX,76051
Kay Jewelers,Leesburg,4092,#4092,241 Fort Evans Road NE,VA,20176
Kay Jewelers,Estero,4093,#4093,10801 Corkscrew Road,FL,33928
Kay Jewelers,Woodburn,4095,#4095,1001 Amey Road,OR,97071
Kay Jewelers,Williamsburg,4102,#4102,5711-23 Richmond Road,VA,23188
Kay Jewelers,Napa,4105,#4105,861 Factory Stores Drive,CA,94558
Kay Jewelers,Albertville,4119,#4119,6415 Labeaux Ave. NE,MN,55301
Kay Jewelers,Orlando,4120,#4120,8200 Vineland Avenue,FL,32821
Kay Jewelers,Nashville,4121,#4121,360 Opry Mills Drive,TN,37214
Kay Jewelers,Myrtle Beach,4128,#4128,4635 Factory Stores,SC,29579
Kay Jewelers,Milpitas,4132,#4132,561 Great Mall Dr,CA,95035
Kay Jewelers,Allen,4134,#4134,820 W. Stacy Road,TX,75013
Kay Jewelers,Tannersville,4135,#4135,1000 Rte 611,PA,18372
Kay Jewelers,Las Vegas,4145,#4145,855 S Grand Central Parkway,NV,89106
Kay Jewelers,Las Vegas,4146,#4146,750 S Rampart,NV,89145
Kay Jewelers,Aurora,4149,#4149,1650 Premium Outlet Blvd,IL,60502
Kay Jewelers,Primm,4151,#4151,32100 Las Vegas Blvd,NV,89019
Kay Jewelers,Gonzales,4152,#4152,2400 Tanger Blvd,LA,70737
Kay Jewelers,Pleasant Prairie,4154,#4154,11211-120th Avenue,WI,53158
Kay Jewelers,Atlantic City,4158,#4158,106 N. Michigan Avenue,NJ,8401
Kay Jewelers,Birch Run,4159,#4159,8825 Marketplace Drive,MI,48415
Kay Jewelers,Bossier City,4162,#4162,440 Boardwalk Blvd,LA,71111
Kay Jewelers,Tulalip,4163,#4163,10600 Quil Ceda Blvd,WA,98271
Kay Jewelers,Commerce,4165,#4165,800 Steven B Tanger Blvd,GA,30529
Kay Jewelers,Smithfield,4170,#4170,1025 Industrial Park Drive,NC,27577
Kay Jewelers,Waterloo,4171,#4171,655 Route 318,NY,13165
Kay Jewelers,Kansas City,4174,#4174,1829 Village West Parkway,KS,66111
Kay Jewelers,Queenstown,4175,#4175,129 Outlet Center Drive,MD,21658
Kay Jewelers,North Charleston,4176,#4176,4840 Tanger Outlet Blvd,SC,29418
Kay Jewelers,Round Rock,4177,#4177,4401 North IH-35,TX,78664
Kay Jewelers,Baraboo,4178,#4178,210 Gasser Road,WI,53913
Kay Jewelers,Clinton,4179,#4179,20-A Killingworth Turnpike,CT,6413
Kay Jewelers,Mercedes,4180,#4180,5001 E. Expressway 83,TX,78570
Kay Jewelers,Carlsbad,4183,#4183,5600 Paseo Del Norte,CA,92008
Kay Jewelers,St. Augustine,4188,#4188,2700 State Road 16,FL,32092
Kay Jewelers,Pottstown,4189,#4189,18 Lightcap Road,PA,19464
Kay Jewelers,Deer Park,4193,#4193,1450 The Arches Circle,NY,11729
Kay Jewelers,Paramus,4200,#4200,1 Bergen Town Center,NJ,7652
Kay Jewelers,Bethlehem,4202,#4202,77 Sands Blvd,PA,18015
Kay Jewelers,Livermore,4206,#4206,3290 Paragon Outlets Drive,CA,94551
Kay Jewelers,Glendale,4207,#4207,6800 N. 95th Ave,AZ,85305
Kay Jewelers,Lehi,4208,#4208,3700 North Cabelas Blvd,UT,84043
Kay Jewelers,Oxon Hills,4209,#4209,6800 Oxon Hill Rd,MD,20745
Kay Jewelers,Rosemont,4211,#4211,5220 Fashion Outlet Way,IL,60018
