keywords,city,Aggdata Store Number,store_number,address,state,zip_code
Kohls,Roseville,7,#7 #07,32100 Beaconsfield St,MI,48066
Kohls,Troy,8,#8 #08,1265 Coolidge Hwy,MI,48084
Kohls,Troy,8,#8 #08,500 John R Rd,MI,48083
Kohls,Novi,9,#9 #09,43550 W Oaks Dr,MI,48377
Kohls,Sterling Heights,10,#10 #010,44200 Schoenherr Rd,MI,48313
Kohls,Westland,11,#11 #011,35000 Warren Rd,MI,48185
Kohls,Kentwood,14,#14 #014,3131 Woodland Dr SE,MI,49512
Kohls,Taylor,17,#17 #017,14500 Racho Blvd,MI,48180
Kohls,Walker,18,#18 #018,745 Center Dr NW,MI,49544
Kohls,Bolingbrook,19,#19 #019,1138 W Boughton Rd,IL,60440
Kohls,Grand Junction,25,#25 #025,636 Market St,CO,81505
Kohls,Clarksburg,31,#31 #031,330 Emily Dr,WV,26301
Kohls,Lake Worth,32,#32 #032,6054 Azle Ave,TX,76135
Kohls,Wilkes Barre,33,#33 #033,445 Wilkes Barre Township Blvd,PA,18702
Kohls,Yuma,34,#34 #034,1350 S Castle Dome Ave,AZ,85365
Kohls,Horseheads,35,#35 #035,1200 County Route 64,NY,14845
Kohls,Fort Gratiot,37,#37 #037,4485 24th Ave Ste 100,MI,48059
Kohls,Brookfield,39,#39 #039,2315 N 124th St,WI,53005
Kohls,West Allis,41,#41 #041,2601 S 108th St,WI,53227
Kohls,Milwaukee,43,#43 #043,3737 S 27th St,WI,53221
Kohls,Brown Deer,44,#44 #044,9060 N Green Bay Rd,WI,53209
Kohls,Onalaska,48,#48 #048,9404 State Road 16,WI,54650
Kohls,Burnsville,49,#49 #049,13900 Aldrich Ave S,MN,55337
Kohls,Brooklyn Center,51,#51 #051,2501 County Rd 10,MN,55430
Kohls,Maplewood,52,#52 #052,3001 Maplewood Dr,MN,55109
Kohls,Roseville,54,#54 #054,1651 County Road B2 W,MN,55113
Kohls,Woodbury,55,#55 #055,7100 Valley Creek Plz,MN,55125
Kohls,Norridge,57,#57 #057,4220 N Harlem Ave,IL,60706
Kohls,West Dundee,59,#59 #059,3000 Spring Hill Mall,IL,60118
Kohls,Arlington Heights,60,#60 #060,800 W Dundee Rd,IL,60004
Kohls,Chicago Ridge,62,#62 #062,9700 Ridgeland Ave,IL,60415
Kohls,Burbank,63,#63 #063,7608 La Crosse Ave,IL,60459
Kohls,Woodridge,64,#64 #064,1001 75th St,IL,60517
Kohls,Bloomingdale,65,#65 #065,6 Stratford Square Mall,IL,60108
Kohls,Downers Grove,66,#66 #066,2920 Finley Rd,IL,60515
Kohls,Aurora,67,#67 #067,4340 Fox Valley Center Dr,IL,60504
Kohls,Orland Park,68,#68 #068,3 Orland Park Pl,IL,60462
Kohls,Niles,70,#70 #070,590 Golf Mill Ctr,IL,60714
Kohls,Greendale,71,#71 #071,5300 S 76th St,WI,53129
Kohls,Peoria,72,#72 #072,4100 W Willow Knolls Dr,IL,61615
Kohls,Hodgkins,73,#73 #073,9350 Joliet Rd,IL,60525
Kohls,Schaumburg,75,#75 #075,171 Barrington Rd,IL,60194
Kohls,Schaumburg,75,#75 #075,410 E Golf Rd,IL,60173
Kohls,Wheaton,77,#77 #077,401 S County Farm Rd,IL,60187
Kohls,Saint Charles,78,#78 #078,3840 E Main St,IL,60174
Kohls,Eagan,79,#79 #079,1350 Town Centre Dr,MN,55123
Kohls,West Bend,82,#82 #082,1400 S Main St,WI,53095
Kohls,Merrillville,83,#83 #083,1601 Southlake Mall,IN,46410
Kohls,Carmel,84,#84 #084,2005 E Greyhound Pass,IN,46033
Kohls,Carmel,84,#84 #084,9895 N Michigan Rd,IN,46032
Kohls,Waite Park,86,#86 #086,145 2nd St S,MN,56387
Kohls,Glendale,89,#89 #089,5650 N Bayshore Dr,WI,53217
Kohls,Waukesha,91,#91 #091,2130 E Moreland Blvd,WI,53186
Kohls,Waukesha,91,#91 #091,2140 W Saint Paul Ave,WI,53188
Kohls,Columbus,95,#95 #095,3360 Olentangy River Rd,OH,43202
Kohls,Columbus,95,#95 #095,4865 N Hamilton Rd,OH,43230
Kohls,Westerville,96,#96 #096,133 Huber Village Blvd,OH,43081
Kohls,Dublin,97,#97 #097,6063 Sawmill Rd,OH,43017
Kohls,Ashwaubenon,99,#99 #099,500 Bay Park Sq,WI,54304
Kohls,Menomonee Falls,101,#101 #0101,N95W18000 Appleton Ave,WI,53051
Kohls,Springfield,102,#102 #0102,2901 S Veterans Pkwy,IL,62704
Kohls,Clive,103,#103 #0103,10201 University Ave,IA,50325
Kohls,Des Moines,104,#104 #0104,3800 Merle Hay Rd,IA,50310
Kohls,Sioux Falls,105,#105 #0105,3800 S Louise Ave,SD,57106
Kohls,Sioux Falls,105,#105 #0105,921 S Highline Pl,SD,57110
Kohls,Indianapolis,106,#106 #0106,8141 E 96th St,IN,46256
Kohls,Indianapolis,106,#106 #0106,8487 Union Chapel Rd,IN,46240
Kohls,Indianapolis,107,#107 #0107,5660 Crawfordsville Rd,IN,46224
Kohls,Anderson,108,#108 #0108,4544 S Scatterfield Rd,IN,46013
Kohls,Oak Creek,109,#109 #0109,9035 S Howell Ave,WI,53154
Kohls,Fort Wayne,110,#110 #0110,1410 Apple Glen Blvd,IN,46804
Kohls,Fort Wayne,110,#110 #0110,835 E Coliseum Blvd,IN,46805
Kohls,Green Bay,111,#111 #0111,2300 E Mason St,WI,54302
Kohls,Vernon Hills,112,#112 #0112,235 N Milwaukee Ave,IL,60061
Kohls,Appleton,113,#113 #0113,3226 E Calumet St,WI,54915
Kohls,Appleton,113,#113 #0113,800 W Northland Ave,WI,54914
Kohls,Midwest City,114,#114 #0114,7401 SE 29th St,OK,73110
Kohls,Wichita Falls,115,#115 #0115,3712 Call Field Rd Lot 3 Block 1,TX,76308
Kohls,Papillion,117,#117 #0117,8909 S 71st Plz,NE,68133
Kohls,Terre Haute,118,#118 #0118,5679 S US Highway 41,IN,47802
Kohls,Wentzville,119,#119 #0119,1239 W Pearce Blvd,MO,63385
Kohls,Sheboygan,123,#123 #0123,3347 Kohler Memorial Dr,WI,53081
Kohls,Monona,125,#125 #0125,2501 W Broadway,WI,53713
Kohls,Champaign,126,#126 #0126,109 Convenience Center Rd,IL,61820
Kohls,Forsyth,127,#127 #0127,1080 Hickory Point Mall,IL,62535
Kohls,Bloomington,129,#129 #0129,1615 E Empire St,IL,61701
Kohls,Fort Wayne,130,#130 #0130,10310 Maysville Rd,IN,46835
Kohls,Fond du Lac,132,#132 #0132,913 W Johnson St,WI,54935
Kohls,Greenwood,134,#134 #0134,550 Fry Rd,IN,46142
Kohls,Indianapolis,136,#136 #0136,4850 E Southport Rd,IN,46237
Kohls,Lafayette,138,#138 #0138,2415 Sagamore Pkwy S,IN,47905
Kohls,Athens,139,#139 #0139,1991 Epps Bridge Pkwy,GA,30606
Kohls,Rockford,140,#140 #0140,6125 E State St,IL,61108
Kohls,Watertown,141,#141 #0141,21850 Towne Center Dr,NY,13601
Kohls,Janesville,142,#142 #0142,2500 Milton Ave,WI,53545
Kohls,Sherman,143,#143 #0143,4111 N US Highway 75,TX,75090
Kohls,Bowling Green,147,#147 #0147,2321 Gary Farms Blvd,KY,42104
Kohls,Grand Blanc,148,#148 #0148,6300 S Saginaw Rd,MI,48439
Kohls,Millville,149,#149 #0149,2102 N 2nd St,NJ,8332
Kohls,Paducah,153,#153 #0153,5191 Hinkleville Rd,KY,42001
Kohls,Cape Girardeau,154,#154 #0154,315 Shirley Dr,MO,63701
Kohls,New Hartford,155,#155 #0155,8625 Clinton St,NY,13413
Kohls,Newport News,156,#156 #0156,551 Bland Blvd,VA,23602
Kohls,Sandusky,158,#158 #0158,815 Crossings Rd,OH,44870
Kohls,Wadsworth,159,#159 #0159,1119 Williams Reserve Blvd,OH,44281
Kohls,Wooster,160,#160 #0160,3792 Burbank Rd,OH,44691
Kohls,Dover,161,#161 #0161,299 N DuPont Hwy,DE,19901
Kohls,Pottstown,162,#162 #0162,351 W Schuylkill Rd,PA,19465
Kohls,Salinas,163,#163 #0163,1950 N Davis Rd,CA,93907
Kohls,Willimantic,165,#165 #0165,95 Storrs Rd,CT,6226
Kohls,Evans,166,#166 #0166,4227 Washington Rd,GA,30809
Kohls,Sioux City,167,#167 #0167,5001 Sergeant Rd,IA,51106
Kohls,Peru,168,#168 #0168,5253 State Route 251,IL,61354
Kohls,Evansville,169,#169 #0169,201 N Burkhardt Rd,IN,47715
Kohls,Evansville,169,#169 #0169,4200 Hogue Rd,IN,47712
Kohls,Georgetown,170,#170 #0170,112 Magnolia Dr,KY,40324
Kohls,Severn,171,#171 #0171,418 George Claus Blvd,MD,21144
Kohls,Salisbury,172,#172 #0172,128 W Dagsboro Rd,MD,21801
Kohls,Augusta,173,#173 #0173,80 Stephen King Dr Ste 1,ME,4330
Kohls,Machesney Park,174,#174 #0174,10153 N 2nd St,IL,61115
Kohls,Mount Pleasant,175,#175 #0175,5500 Washington Ave,WI,53406
Kohls,Gurnee,176,#176 #0176,6120 Grand Ave,IL,60031
Kohls,Mt Prospect,177,#177 #0177,1500 S Elmhurst Rd,IL,60056
Kohls,Blaine,179,#179 #0179,10311 Baltimore St NE,MN,55449
Kohls,Homewood,180,#180 #0180,17620 Halsted St,IL,60430
Kohls,Joplin,182,#182 #0182,301 Geneva Ave,MO,64801
Kohls,Fayetteville,183,#183 #0183,255 Glensford Dr,NC,28314
Kohls,Bismarck,184,#184 #0184,1129 W Century Ave,ND,58503
Kohls,Grand Island,185,#185 #0185,221 Wilmar Ave,NE,68803
Kohls,Monroe,186,#186 #0186,2323 N Telegraph Rd,MI,48162
Kohls,Zanesville,187,#187 #0187,3825 Gorsky Dr,OH,43701
Kohls,Carlisle,188,#188 #0188,226 Westminster Dr,PA,17013
Kohls,Dickson City,189,#189 #0189,3907 Commerce Blvd,PA,18519
Kohls,Bartonsville,190,#190 #0190,5045 Windsor Dr,PA,18321
Kohls,Johnson City,191,#191 #0191,190 Marketplace Dr,TN,37604
Kohls,Georgetown,192,#192 #0192,1019 E University Ave,TX,78626
Kohls,Lynchburg,193,#193 #0193,225 Simons Run Ste A,VA,24502
Kohls,North Logan,195,#195 #0195,1660 N Main St,UT,84341
Kohls,Saint Joseph,196,#196 #0196,5505 N Belt Hwy,MO,64506
Kohls,City of Industry,197,#197 #0197,21818 Valley Blvd,CA,91789
Kohls,Bangor,198,#198 #0198,520 Stillwater Ave,ME,4401
Kohls,Beaumont,200,#200 #0200,4075 Dowlen Rd,TX,77706
Kohls,Davenport,201,#201 #0201,3910 Elmore Ave,IA,52807
Kohls,Fargo,202,#202 #0202,4444 13th Ave S,ND,58103
Kohls,Beavercreek,204,#204 #0204,2850 Centre Dr,OH,45324
Kohls,Dayton,205,#205 #0205,6400 Wilmington Pike,OH,45459
Kohls,Huber Heights,206,#206 #0206,8301 Troy Pike,OH,45424
Kohls,Delafield,207,#207 #0207,3105 Golf Rd,WI,53018
Kohls,Cincinnati,208,#208 #0208,100 Cincinnati Mills Dr,OH,45240
Kohls,Cincinnati,208,#208 #0208,4607 Eastgate Blvd,OH,45245
Kohls,Florence,209,#209 #0209,61 Spiral Dr,KY,41042
Kohls,Cincinnati,210,#210 #0210,9201 Fields Ertel Rd,OH,45249
Kohls,Holland,211,#211 #0211,12288 Felch St,MI,49424
Kohls,Kenosha,212,#212 #0212,7200 Green Bay Rd,WI,53142
Kohls,Madison,213,#213 #0213,2602 East Springs Dr,WI,53704
Kohls,Madison,213,#213 #0213,7401 W Towne Way,WI,53719
Kohls,Saginaw,214,#214 #0214,3090 Tittabawassee Rd,MI,48604
Kohls,Eden Prairie,215,#215 #0215,450 Prairie Center Dr,MN,55344
Kohls,Cincinnati,216,#216 #0216,6580 Harrison Ave,OH,45247
Kohls,Cedar Rapids,217,#217 #0217,3030 Wiley Blvd SW,IA,52404
Kohls,Cedar Rapids,217,#217 #0217,361 Collins Rd NE,IA,52402
Kohls,Portage,218,#218 #0218,6100 S Westnedge Ave,MI,49002
Kohls,Duluth,219,#219 #0219,2115 Miller Trunk Hwy,MN,55811
Kohls,Omaha,220,#220 #0220,3351 Oak View Dr,NE,68144
Kohls,Omaha,220,#220 #0220,909 S 72nd St,NE,68114
Kohls,Erie,221,#221 #0221,1906 Keystone Dr,PA,16509
Kohls,Findlay,222,#222 #0222,2310 Tiffin Ave,OH,45840
Kohls,Crestwood,224,#224 #0224,13130 Rivercrest Dr,IL,60445
Kohls,West Chester,225,#225 #0225,7935 Tylersville Rd,OH,45069
Kohls,Middletown,226,#226 #0226,6825 Roosevelt Ave,OH,45005
Kohls,Ontario,227,#227 #0227,524 N Lexington Springmill Rd,OH,44906
Kohls,St Louis Park,228,#228 #0228,8440 Highway 7,MN,55426
Kohls,Highland,229,#229 #0229,10353 Indianapolis Blvd,IN,46322
Kohls,Independence,230,#230 #0230,18800 E 39th St S,MO,64057
Kohls,Olathe,231,#231 #0231,16250 W 135th St,KS,66062
Kohls,Overland Park,232,#232 #0232,11585 Metcalf Ave,KS,66210
Kohls,Kansas City,233,#233 #0233,8500 N Madison Ave,MO,64155
Kohls,Kansas City,233,#233 #0233,8540 Church Rd,MO,64157
Kohls,Topeka,234,#234 #0234,6130 SW 17th St,KS,66615
Kohls,Macedonia,235,#235 #0235,8100 Macedonia Commons Blvd,OH,44056
Kohls,Medina,236,#236 #0236,4095 Pearl Rd,OH,44256
Kohls,Mentor,237,#237 #0237,9581 Mentor Ave,OH,44060
Kohls,Fairview Park,238,#238 #0238,3221 Westgate,OH,44126
Kohls,North Canton,239,#239 #0239,5478 Dressler Rd NW,OH,44720
Kohls,Youngstown,240,#240 #0240,383 Boardman Poland Rd,OH,44512
Kohls,Maple Grove,241,#241 #0241,8080 Wedgwood Ln N,MN,55369
Kohls,Parma,242,#242 #0242,6860 Ridge Rd,OH,44129
Kohls,Jackson,243,#243 #0243,1222 Jackson Xing,MI,49202
Kohls,Warren,244,#244 #0244,2350 Niles Cortland Rd SE,OH,44484
Kohls,Eau Claire,245,#245 #0245,3711 Gateway Dr,WI,54701
Kohls,Springfield,246,#246 #0246,1909 E Independence St,MO,65804
Kohls,Wichita,247,#247 #0247,3561 N Rock Rd,KS,67226
Kohls,Wichita,247,#247 #0247,6900 W Kellogg Dr,KS,67209
Kohls,Matthews,249,#249 #0249,9617 E Independence Blvd,NC,28105
Kohls,Charlotte,250,#250 #0250,9315 N Tryon St,NC,28262
Kohls,Charlotte,250,#250 #0250,9579 South Blvd,NC,28273
Kohls,Louisville,251,#251 #0251,110 Oxmoor Ln,KY,40222
Kohls,Louisville,251,#251 #0251,4200 Towne Center Dr,KY,40241
Kohls,Highland Heights,252,#252 #0252,6245 Wilson Mills Rd,OH,44143
Kohls,Toledo,253,#253 #0253,4865 Monroe St,OH,43623
Kohls,Strongsville,254,#254 #0254,17555 Southpark Ctr,OH,44136
Kohls,Lancaster,255,#255 #0255,1135 Park City Ctr,PA,17601
Kohls,Lancaster,255,#255 #0255,2350 Lincoln Hwy E,PA,17602
Kohls,Moline,256,#256 #0256,800 42nd Avenue Dr,IL,61265
Kohls,Bloomington,257,#257 #0257,7931 Southtown Ctr,MN,55431
Kohls,Lincoln,258,#258 #0258,401 N 84th St,NE,68505
Kohls,Lincoln,258,#258 #0258,8700 S 28th St,NE,68516
Kohls,Mishawaka,259,#259 #0259,4410 Grape Rd,IN,46545
Kohls,North Riverside,260,#260 #0260,2200 Harlem Ave,IL,60546
Kohls,Barboursville,262,#262 #0262,300 Mall Rd,WV,25504
Kohls,Bowie,263,#263 #0263,4200 Mitchellville Rd,MD,20716
Kohls,Ellicott City,264,#264 #0264,4320 Montgomery Rd,MD,21043
Kohls,Germantown,265,#265 #0265,20918 Frederick Rd,MD,20876
Kohls,Laurel,266,#266 #0266,3323 Corridor Marketplace,MD,20724
Kohls,Waldorf,267,#267 #0267,11120 Mall Cir,MD,20603
Kohls,Woodbridge,268,#268 #0268,13725 Foulger Sq,VA,22192
Kohls,Fredericksburg,269,#269 #0269,1571 Carl D Silver Pkwy,VA,22401
Kohls,Fredericksburg,269,#269 #0269,9683 Jefferson Davis Hwy,VA,22407
Kohls,Kingstowne,270,#270 #0270,5701 Kingstowne Blvd,VA,22315
Kohls,Wilmington,271,#271 #0271,401 Rocky Run Pkwy,DE,19803
Kohls,Wilmington,271,#271 #0271,4437 Kirkwood Hwy,DE,19808
Kohls,Whitehall,273,#273 #0273,2010 Whitehall Mall,PA,18052
Kohls,Philadelphia,274,#274 #0274,8500 Henry Ave,PA,19128
Kohls,Morton,275,#275 #0275,405 Baltimore Pike,PA,19070
Kohls,Blue Bell,276,#276 #0276,1301 Skippack Pike,PA,19422
Kohls,Exton,277,#277 #0277,229 W Lincoln Hwy,PA,19341
Kohls,Media,278,#278 #0278,1067 W Baltimore Pike,PA,19063
Kohls,Mays Landing,279,#279 #0279,110 Consumer Sq,NJ,8330
Kohls,Havertown,280,#280 #0280,250 W Chester Pike,PA,19083
Kohls,Yardley,282,#282 #0282,1641 Big Oak Rd,PA,19067
Kohls,Winchester,283,#283 #0283,2194 S Pleasant Valley Rd,VA,22601
Kohls,Marlton,284,#284 #0284,301 W Route 70,NJ,8053
Kohls,Cherry Hill,285,#285 #0285,2133 Route 38,NJ,8002
Kohls,Warminster,286,#286 #0286,918 West St Rd,PA,18974
Kohls,Winston Salem,287,#287 #0287,1010 Hanes Mall Blvd,NC,27103
Kohls,Louisville,288,#288 #0288,11811 Standiford Plaza Dr,KY,40229
Kohls,Monroeville,289,#289 #0289,3624 William Penn Hwy,PA,15146
Kohls,Glenview,290,#290 #0290,2201 Willow Rd,IL,60025
Kohls,Bethel Park,291,#291 #0291,4000 Oxford Dr,PA,15102
Kohls,West Mifflin,292,#292 #0292,9911 Mountain View Dr,PA,15122
Kohls,Pittsburgh,293,#293 #0293,4801 McKnight Rd,PA,15237
Kohls,Pittsburgh,293,#293 #0293,6571 Steubenville Pike,PA,15205
Kohls,Princeton,294,#294 #0294,200 Nassau Park Blvd,NJ,8540
Kohls,Sterling,295,#295 #0295,21245 Signal Hill Plz,VA,20164
Kohls,Lake Orion,296,#296 #0296,4872 S Baldwin Rd,MI,48359
Kohls,Omaha,297,#297 #0297,13550 W Maple Rd,NE,68164
Kohls,Lansdale,298,#298 #0298,2333 W Main St,PA,19446
Kohls,Vestal,299,#299 #0299,3208 Vestal Pkwy E,NY,13850
Kohls,Shawnee,301,#301 #0301,15500 Shawnee Mission Pkwy,KS,66217
Kohls,Greensboro,302,#302 #0302,1210 Bridford Pkwy Unit A,NC,27407
Kohls,Greensboro,302,#302 #0302,3315 Battleground Ave,NC,27410
Kohls,Knoxville,304,#304 #0304,220 Morrell Rd,TN,37919
Kohls,Knoxville,304,#304 #0304,5312 Washington Pike,TN,37918
Kohls,Farragut,306,#306 #0306,11530 Kingston Pike,TN,37934
Kohls,Muncie,307,#307 #0307,1200 E Princeton Ave,IN,47303
Kohls,Mechanicsville,308,#308 #0308,7390 Bell Creek Rd,VA,23111
Kohls,Glen Allen,310,#310 #0310,11240 W Broad St,VA,23060
Kohls,Fairfax,312,#312 #0312,12551 Fair Lakes Cir,VA,22033
Kohls,Leesburg,313,#313 #0313,1040 Edwards Ferry Rd NE,VA,20176
Kohls,Turnersville,314,#314 #0314,5851 Route 42,NJ,8012
Kohls,Silver Spring,315,#315 #0315,12024 Cherry Hill Rd,MD,20904
Kohls,Westampton,316,#316 #0316,2703 Route 541,NJ,8060
Kohls,Canton,317,#317 #0317,44444 Ford Rd,MI,48187
Kohls,Canton,317,#317 #0317,47250 Michigan Ave,MI,48188
Kohls,Gastonia,318,#318 #0318,3648 E Franklin Blvd,NC,28056
Kohls,Huntersville,319,#319 #0319,9743 Sam Furr Rd,NC,28078
Kohls,Crystal Lake,320,#320 #0320,5420 Northwest Hwy,IL,60014
Kohls,Plainfield,321,#321 #0321,11860 S Route 59,IL,60585
Kohls,Plainfield,321,#321 #0321,2510 S Route 59,IL,60586
Kohls,Batavia,322,#322 #0322,251 N Randall Rd,IL,60510
Kohls,Northville,323,#323 #0323,20155 Haggerty Rd,MI,48167
Kohls,Holland,324,#324 #0324,1220 S Holland Sylvania Rd,OH,43528
Kohls,Gaithersburg,325,#325 #0325,9871 Washingtonian Blvd,MD,20878
Kohls,Manassas,326,#326 #0326,11190 Bulloch Dr,VA,20109
Kohls,Charleston,327,#327 #0327,222 R H L Blvd,WV,25309
Kohls,Lewis Center,328,#328 #0328,120 Meadow Park Ave,OH,43035
Kohls,Lawrence,330,#330 #0330,3240 Iowa St,KS,66046
Kohls,Stow,331,#331 #0331,4240 Kent Rd,OH,44224
Kohls,Ann Arbor,332,#332 #0332,3160 Lohr Rd,MI,48108
Kohls,Bensalem,333,#333 #0333,2325 St Rd,PA,19020
Kohls,Lexington,334,#334 #0334,1988 Pavillon Way,KY,40509
Kohls,Goshen,336,#336 #0336,3802 Midway Rd,IN,46526
Kohls,Mechanicsburg,337,#337 #0337,6444 Carlisle Pike,PA,17050
Kohls,Hanover,338,#338 #0338,360 Eisenhower Dr,PA,17331
Kohls,York,339,#339 #0339,1800 Loucks Rd,PA,17408
Kohls,York,339,#339 #0339,2600 Pleasant Valley Rd,PA,17402
Kohls,Herndon,340,#340 #0340,2100 Centreville Rd,VA,20170
Kohls,Lone Tree,341,#341 #0341,8660 S Quebec St,CO,80124
Kohls,Aurora,342,#342 #0342,18307 E Hampden Ave,CO,80013
Kohls,Aurora,342,#342 #0342,6584 S Parker Rd,CO,80016
Kohls,Louisville,343,#343 #0343,919 W Dillon Rd,CO,80027
Kohls,Westminster,344,#344 #0344,11875 Sheridan Blvd,CO,80020
Kohls,Thornton,345,#345 #0345,12090 Colorado Blvd,CO,80241
Kohls,Aurora,346,#346 #0346,1350 S Ironton St Unit 130,CO,80012
Kohls,Plainfield,347,#347 #0347,2685 E Main St,IN,46168
Kohls,Hickory,348,#348 #0348,1920 Catawba Valley Blvd SE,NC,28602
Kohls,Midlothian,349,#349 #0349,4701 Commonwealth Centre Pkwy,VA,23112
Kohls,Frederick,350,#350 #0350,7350 Guilford Dr,MD,21704
Kohls,Arnold,351,#351 #0351,2150 Michigan Ave,MO,63010
Kohls,Bridgeton,352,#352 #0352,12222 Saint Charles Rock Rd,MO,63044
Kohls,Creve Coeur,353,#353 #0353,955 Woodcrest Executive Dr,MO,63141
Kohls,Fairview Heights,354,#354 #0354,6109 N Illinois St,IL,62208
Kohls,Manchester,355,#355 #0355,14425 Andersohn Dr,MO,63011
Kohls,O Fallon,356,#356 #0356,2110 Highway K,MO,63368
Kohls,Saint Peters,357,#357 #0357,4000 S Saint Peters Pkwy,MO,63304
Kohls,Round Lake Beach,358,#358 #0358,230 E Rollins Rd,IL,60073
Kohls,Harrisburg,359,#359 #0359,5125 Jonestown Rd,PA,17112
Kohls,Rochester,360,#360 #0360,20 25th St SE,MN,55904
Kohls,Carrollton,361,#361 #0361,4120 Old Denton Rd,TX,75010
Kohls,Cedar Hill,362,#362 #0362,424 N Highway 67,TX,75104
Kohls,Flower Mound,363,#363 #0363,2501 Cross Timbers Rd,TX,75028
Kohls,Garland,364,#364 #0364,3353 N President George Bush Hwy,TX,75040
Kohls,Fort Worth,365,#365 #0365,5520 SW Loop 820,TX,76132
Kohls,Keller,366,#366 #0366,2001 S Main St,TX,76248
Kohls,Lewisville,367,#367 #0367,1001 Valley Ridge Blvd,TX,75077
Kohls,North Richland Hills,368,#368 #0368,6091 Precinct Line Rd,TX,76180
Kohls,Plano,369,#369 #0369,2400 McDermott Rd,TX,75025
Kohls,Plano,369,#369 #0369,4708 W Spring Creek Pkwy,TX,75024
Kohls,Rockwall,370,#370 #0370,823 E Interstate 30,TX,75087
Kohls,Arlington,371,#371 #0371,5410 S Cooper St,TX,76017
Kohls,Lansing,372,#372 #0372,6528 W Saginaw Hwy,MI,48917
Kohls,Grandville,373,#373 #0373,3790 Rivertown Pkwy SW,MI,49418
Kohls,Levittown,374,#374 #0374,3601 Hempstead Tpke,NY,11756
Kohls,Deer Park,376,#376 #0376,409 Commack Rd,NY,11729
Kohls,East Setauket,377,#377 #0377,5000 Nesconset Hwy,NY,11733
Kohls,Lake Ronkonkoma,378,#378 #0378,106 Ronkonkoma Ave,NY,11779
Kohls,Shirley,379,#379 #0379,999 Montauk Hwy Unit 21,NY,11967
Kohls,Nanuet,380,#380 #0380,220 E Route 59,NY,10954
Kohls,Paramus,381,#381 #0381,165 W State Rt 4,NJ,7652
Kohls,Woodland Park,382,#382 #0382,1710 US Highway 46,NJ,7424
Kohls,Morris Plains,383,#383 #0383,1711 State Route 10,NJ,7950
Kohls,Succasunna,384,#384 #0384,275 State Route 10 E,NJ,7876
Kohls,Secaucus,385,#385 #0385,3 Mill Creek Dr,NJ,7094
Kohls,North Plainfield,386,#386 #0386,107 US Highway 22,NJ,7060
Kohls,South Plainfield,387,#387 #0387,4971 Stelton Rd,NJ,7080
Kohls,Holmdel,388,#388 #0388,2145 State Route 35,NJ,7733
Kohls,Englishtown,389,#389 #0389,168 US Highway 9,NJ,7726
Kohls,Brick,390,#390 #0390,664 Route 70,NJ,8723
Kohls,Toms River,391,#391 #0391,1 Route 37 W,NJ,8753
Kohls,Severna Park,392,#392 #0392,575 Ritchie Hwy,MD,21146
Kohls,Yonkers,393,#393 #0393,2350 Central Park Ave,NY,10710
Kohls,Bedford Hills,394,#394 #0394,777 Bedford Rd,NY,10507
Kohls,Cortlandt Manor,395,#395 #0395,3008 E Main St,NY,10567
Kohls,Wappingers Falls,396,#396 #0396,859 Old Route 9 N,NY,12590
Kohls,Port Chester,397,#397 #0397,431 Boston Post Rd,NY,10573
Kohls,Norwalk,398,#398 #0398,500 Connecticut Ave,CT,6854
Kohls,Ridgefield,399,#399 #0399,125 Danbury Rd,CT,6877
Kohls,Brookfield,401,#401 #0401,84 Federal Rd,CT,6804
Kohls,Fairfield,402,#402 #0402,290 Tunxis Hill Rd,CT,6825
Kohls,Trumbull,403,#403 #0403,100 Hawley Ln,CT,6611
Kohls,Branford,405,#405 #0405,1075 W Main St,CT,6405
Kohls,Hamden,406,#406 #0406,2380 Dixwell Ave,CT,6514
Kohls,Wallingford,407,#407 #0407,1248 S Broad St,CT,6492
Kohls,Coon Rapids,408,#408 #0408,12785 Riverdale Blvd NW,MN,55448
Kohls,Plano,409,#409 #0409,2704 N Central Expy,TX,75074
Kohls,Jericho,411,#411 #0411,28 Jericho Tpke,NY,11753
Kohls,Dallas,413,#413 #0413,18224 Preston Rd,TX,75252
Kohls,Dallas,413,#413 #0413,5750 Skillman St,TX,75206
Kohls,Grand Prairie,414,#414 #0414,3865 S Carrier Pkwy,TX,75052
Kohls,Littleton,415,#415 #0415,8444 S Kipling Pkwy,CO,80127
Kohls,McKinney,416,#416 #0416,3001 S Central Expy,TX,75070
Kohls,Massapequa Park,417,#417 #0417,5300 Sunrise Hwy,NY,11762
Kohls,Oceanside,418,#418 #0418,3600 Long Beach Rd,NY,11572
Kohls,Lemont,419,#419 #0419,13440 S Archer Ave,IL,60439
Kohls,Lake Zurich,420,#420 #0420,675 N Rand Rd,IL,60047
Kohls,Golden,421,#421 #0421,16700 W Colfax Ave,CO,80401
Kohls,Cranberry Township,422,#422 #0422,1717 Route 228,PA,16066
Kohls,Southlake,423,#423 #0423,3001 E State Highway 114,TX,76092
Kohls,Bay Shore,424,#424 #0424,2040 Sunrise Hwy,NY,11706
Kohls,Tulsa,425,#425 #0425,11011 E 71st St,OK,74133
Kohls,Tulsa,425,#425 #0425,9595 S Delaware Ave,OK,74137
Kohls,Owasso,427,#427 #0427,12405 E 96th St N,OK,74055
Kohls,Elmhurst,428,#428 #0428,303 S IL Route 83,IL,60126
Kohls,Longmont,429,#429 #0429,1211 S Hover St,CO,80501
Kohls,Fort Collins,430,#430 #0430,813 E Harmony Rd,CO,80525
Kohls,Easton,431,#431 #0431,3768 Easton Nazareth Hwy,PA,18045
Kohls,Kernersville,432,#432 #0432,224 Harmon Creek Rd,NC,27284
Kohls,Flint,433,#433 #0433,3030 S Linden Rd,MI,48507
Kohls,Fenton,434,#434 #0434,115 Gravois Bluffs Plaza Dr,MO,63026
Kohls,Neenah,435,#435 #0435,1175 W Winneconne Ave,WI,54956
Kohls,Rochester Hills,436,#436 #0436,223 E Auburn Rd,MI,48307
Kohls,Stockbridge,437,#437 #0437,5005 Mount Zion Pkwy,GA,30281
Kohls,Fayetteville,438,#438 #0438,300 Pavilion Pkwy,GA,30214
Kohls,Newnan,439,#439 #0439,1140 Highway 34 E,GA,30265
Kohls,Hiram,440,#440 #0440,5220 Jimmy Lee Smith Pkwy,GA,30141
Kohls,Acworth,441,#441 #0441,3354 Cobb Pkwy NW,GA,30101
Kohls,Austell,442,#442 #0442,1825 E West Connector,GA,30106
Kohls,Woodstock,443,#443 #0443,120 Woodstock Square Ave,GA,30189
Kohls,Marietta,444,#444 #0444,1289 Johnson Ferry Rd,GA,30068
Kohls,Roswell,445,#445 #0445,2342 Holcomb Bridge Rd,GA,30076
Kohls,Roswell,445,#445 #0445,620 W Crossville Rd,GA,30075
Kohls,Cumming,446,#446 #0446,1615 Market Place Blvd,GA,30041
Kohls,Suwanee,447,#447 #0447,3620 Peachtree Pkwy,GA,30024
Kohls,Duluth,449,#449 #0449,2050 W Liddell Rd,GA,30096
Kohls,Snellville,450,#450 #0450,2059 Scenic Hwy N,GA,30078
Kohls,Conyers,451,#451 #0451,1630 Dogwood Dr SE,GA,30013
Kohls,Lawrenceville,452,#452 #0452,640 Collins Hill Rd,GA,30046
Kohls,Chattanooga,453,#453 #0453,1812 Gunbarrel Rd,TN,37421
Kohls,Wausau,454,#454 #0454,3600 Rib Mountain Dr,WI,54401
Kohls,Fayetteville,455,#455 #0455,3575 N Shiloh Dr,AR,72703
Kohls,Fort Smith,456,#456 #0456,7801 Rogers Ave,AR,72903
Kohls,Rogers,457,#457 #0457,301 N 46th St,AR,72756
Kohls,Apple Valley,458,#458 #0458,14926 Florence Trl,MN,55124
Kohls,North Huntingdon,459,#459 #0459,88 Rocky Rd,PA,15642
Kohls,Enfield,460,#460 #0460,95 Elm St,CT,6082
Kohls,Plainville,461,#461 #0461,200 New Britain Ave,CT,6062
Kohls,Colorado Springs,462,#462 #0462,2725 Janitell Rd,CO,80906
Kohls,Colorado Springs,462,#462 #0462,3110 N Powers Blvd,CO,80922
Kohls,Bel Air,463,#463 #0463,5K Bel Air South Pkwy,MD,21015
Kohls,Avon,464,#464 #0464,35906 Detroit Rd,OH,44011
Kohls,Cary,465,#465 #0465,2350 Walnut St,NC,27518
Kohls,Raleigh,466,#466 #0466,7822 Alexander Promenade Pl,NC,27617
Kohls,Raleigh,466,#466 #0466,9600 Falls of Neuse Rd,NC,27615
Kohls,Mesquite,468,#468 #0468,19065 Lyndon B Johnson Fwy,TX,75150
Kohls,Trenton,469,#469 #0469,460 Marketplace Blvd,NJ,8691
Kohls,Groton,470,#470 #0470,220 Route 12,CT,6340
Kohls,Lisbon,471,#471 #0471,160 River Rd Ste A100,CT,6351
Kohls,Lees Summit,472,#472 #0472,1820 NW Chipman Rd,MO,64081
Kohls,Valparaiso,473,#473 #0473,350 Silhavy Rd,IN,46383
Kohls,Frankfort,474,#474 #0474,11055 W Lincoln Hwy,IL,60423
Kohls,McHenry,475,#475 #0475,2450 N Richmond Rd,IL,60051
Kohls,Howell,476,#476 #0476,4799 US Highway 9,NJ,7731
Kohls,Santa Maria,477,#477 #0477,2501 S Broadway,CA,93454
Kohls,Hillsborough,478,#478 #0478,315 US Highway 206,NJ,8844
Kohls,Royersford,479,#479 #0479,989 S Township Line Rd,PA,19468
Kohls,Brighton,480,#480 #0480,6650 Whitmore Lake Rd,MI,48116
Kohls,Shelby Township,481,#481 #0481,8320 26 Mile Rd,MI,48316
Kohls,Midland,482,#482 #0482,901 Joe Mann Blvd,MI,48642
Kohls,Delavan,484,#484 #0484,1921 E Geneva St,WI,53115
Kohls,Muskego,485,#485 #0485,S68W15388 Janesville Rd,WI,53150
Kohls,Aurora,486,#486 #0486,7005 Market Place Dr,OH,44202
Kohls,Edmond,487,#487 #0487,2201 W Danforth Rd,OK,73003
Kohls,Oklahoma City,488,#488 #0488,9001 NW Passage,OK,73132
Kohls,Yukon,489,#489 #0489,1715 Garth Brooks Blvd,OK,73099
Kohls,Moore,490,#490 #0490,2600 S Telephone Rd,OK,73160
Kohls,Westminster,491,#491 #0491,840 Market St,MD,21157
Kohls,Eldersburg,492,#492 #0492,1324 Londontown Blvd,MD,21784
Kohls,Greenville,493,#493 #0493,1219 Woodruff Rd,SC,29607
Kohls,Asheville,494,#494 #0494,149 Bleachery Blvd,NC,28805
Kohls,Columbus,495,#495 #0495,711 Creekview Dr,IN,47201
Kohls,Johnson Creek,496,#496 #0496,570 Wright Rd,WI,53038
Kohls,Coralville,500,#500 #0500,2795 Commerce Dr,IA,52241
Kohls,Cedar Falls,501,#501 #0501,5911 University Ave Ste 400,IA,50613
Kohls,Perrysburg,502,#502 #0502,10323 Fremont Pike,OH,43551
Kohls,Manchester,503,#503 #0503,155 Tolland Tpke,CT,6042
Kohls,Newark,504,#504 #0504,2800 Pulaski Hwy,DE,19702
Kohls,Middletown,505,#505 #0505,470 Route 211 E,NY,10940
Kohls,South Elgin,506,#506 #0506,350 Randall Rd,IL,60177
Kohls,El Paso,507,#507 #0507,1319 George Dieter Dr,TX,79936
Kohls,El Paso,507,#507 #0507,5680 N Desert Blvd,TX,79912
Kohls,El Paso,508,#508 #0508,6001 Gateway Blvd W Ste 2,TX,79925
Kohls,Austin,509,#509 #0509,11111 Lakeline Blvd,TX,78717
Kohls,Austin,509,#509 #0509,13609 N Interstate 35,TX,78753
Kohls,Round Rock,511,#511 #0511,200 Sundance Pkwy,TX,78681
Kohls,New Albany,512,#512 #0512,3899 Charlestown Rd,IN,47150
Kohls,Louisville,513,#513 #0513,7915 Bardstown Rd,KY,40291
Kohls,Battle Creek,514,#514 #0514,12765 Harper Village Dr,MI,49014
Kohls,Frisco,515,#515 #0515,7150 Preston Rd,TX,75034
Kohls,Rocky Point,516,#516 #0516,346 Route 25A Ste 130,NY,11778
Kohls,Gainesville,517,#517 #0517,975 Dawsonville Hwy,GA,30501
Kohls,Dacula,518,#518 #0518,2270 Hamilton Creek Pkwy,GA,30019
Kohls,Bloomington,519,#519 #0519,3140 W Whitehall Crossing Blvd,IN,47404
Kohls,Shakopee,520,#520 #0520,1529 17th Ave E,MN,55379
Kohls,Conroe,521,#521 #0521,16640 Interstate 45 S,TX,77384
Kohls,Conroe,521,#521 #0521,2808 Interstate 45 N,TX,77303
Kohls,Franklin,522,#522 #0522,300 Spring Creek Dr,TN,37067
Kohls,Nashville,523,#523 #0523,2330 Jackson Downs Blvd,TN,37214
Kohls,Hendersonville,524,#524 #0524,1030 Glenbrook Way,TN,37075
Kohls,Murfreesboro,525,#525 #0525,2535 Old Fort Pkwy,TN,37128
Kohls,Burleson,526,#526 #0526,1173 N Burleson Blvd,TX,76028
Kohls,Houston,527,#527 #0527,1200 Fry Rd,TX,77084
Kohls,Houston,527,#527 #0527,12330 FM 1960 Rd W,TX,77065
Kohls,Burlington,528,#528 #0528,150 Lexington St,MA,1803
Kohls,Chelmsford,529,#529 #0529,265 Chelmsford St,MA,1824
Kohls,Hingham,530,#530 #0530,100 Derby St,MA,2043
Kohls,Medford,531,#531 #0531,3850 Mystic Valley Pkwy,MA,2155
Kohls,Milford,532,#532 #0532,91 Medway Rd,MA,1757
Kohls,Nashua,533,#533 #0533,101 Coliseum Ave,NH,3063
Kohls,Newington,534,#534 #0534,45 Gosling Rd Unit 7,NH,3801
Kohls,North Andover,535,#535 #0535,350 Winthrop Ave,MA,1845
Kohls,Pembroke,536,#536 #0536,139 Church St,MA,2359
Kohls,Plaistow,537,#537 #0537,30 Plaistow Rd,NH,3865
Kohls,Salem,538,#538 #0538,2 Cluff Crossing Rd,NH,3079
Kohls,East Walpole,539,#539 #0539,100 Providence Hwy,MA,2032
Kohls,Woburn,540,#540 #0540,425 Washington St,MA,1801
Kohls,Clifton,541,#541 #0541,14 Main Ave,NJ,7014
Kohls,Ramsey,542,#542 #0542,1300 State Rt 17,NJ,7446
Kohls,Wayne,543,#543 #0543,1800 State Route 23,NJ,7470
Kohls,Cypress,544,#544 #0544,7150 Barker Cypress Rd,TX,77433
Kohls,Houston,545,#545 #0545,22529 State Highway 249,TX,77070
Kohls,Brewster,546,#546 #0546,60 Independent Way,NY,10509
Kohls,Smithfield,547,#547 #0547,371 Putnam Pike Ste A280,RI,2917
Kohls,Rancho Santa Margarita,548,#548 #0548,22215 El Paseo,CA,92688
Kohls,Spring,549,#549 #0549,20614 Interstate 45,TX,77373
Kohls,Friendswood,550,#550 #0550,18178 Gulf Fwy,TX,77546
Kohls,Seekonk,551,#551 #0551,1 Commerce Way,MA,2771
Kohls,Houston,552,#552 #0552,11785 Westheimer Rd,TX,77077
Kohls,Missouri City,553,#553 #0553,5660 Highway 6,TX,77459
Kohls,Humble,554,#554 #0554,20755 Highway 59 N,TX,77338
Kohls,Humble,554,#554 #0554,7103 FM 1960 Rd E,TX,77346
Kohls,Pasadena,555,#555 #0555,5555 Fairmont Pkwy,TX,77505
Kohls,Pearland,556,#556 #0556,10318 Broadway St,TX,77584
Kohls,Houston,557,#557 #0557,4730 W Bellfort St,TX,77035
Kohls,Indianapolis,558,#558 #0558,5825 Sunnyside Rd,IN,46235
Kohls,Madison,559,#559 #0559,7630 Highway 72 W,AL,35758
Kohls,Burke,560,#560 #0560,5793 Burke Centre Pkwy,VA,22015
Kohls,Lexington,562,#562 #0562,5440 Sunset Blvd,SC,29072
Kohls,Columbia,563,#563 #0563,10136 Two Notch Rd Ste 108,SC,29229
Kohls,Columbia,563,#563 #0563,120 Harbison Blvd,SC,29212
Kohls,Beaver Dam,564,#564 #0564,1734 N Spring St,WI,53916
Kohls,Clinton,565,#565 #0565,2281 Valley West Ct,IA,52732
Kohls,Gaylord,567,#567 #0567,2450 W M 32,MI,49735
Kohls,Wilkesboro,568,#568 #0568,1515 Winkler Mill Rd,NC,28697
Kohls,Greeley,569,#569 #0569,4224 Centerplace Dr,CO,80634
Kohls,Parker,570,#570 #0570,11485 S Twenty Mile Rd,CO,80134
Kohls,Danvers,574,#574 #0574,50 Independence Way,MA,1923
Kohls,Framingham,575,#575 #0575,1 Worcester Rd,MA,1701
Kohls,Mankato,576,#576 #0576,1921 Bassett Dr,MN,56001
Kohls,Lino Lakes,577,#577 #0577,733 Apollo Dr,MN,55014
Kohls,Lima,579,#579 #0579,2750 Elida Rd,OH,45805
Kohls,Warwick,580,#580 #0580,650 Bald Hill Rd Ste 300,RI,2886
Kohls,Taunton,581,#581 #0581,80 Taunton Depot Dr,MA,2780
Kohls,Ventura,583,#583 #0583,4950 Telephone Rd,CA,93003
Kohls,Murrieta,585,#585 #0585,24661 Madison Ave,CA,92562
Kohls,Pueblo,586,#586 #0586,5627 N Elizabeth St,CO,81008
Kohls,Central Valley,587,#587 #0587,43 Centre Dr,NY,10917
Kohls,Sunset Valley,588,#588 #0588,4805 W Highway 290,TX,78735
Kohls,Buena Park,589,#589 #0589,8191 La Palma Ave,CA,90620
Kohls,Cerritos,590,#590 #0590,12821 Towne Center Dr,CA,90703
Kohls,Chino,591,#591 #0591,4093 Grand Ave,CA,91710
Kohls,Corona,592,#592 #0592,2489 Tuscany St,CA,92881
Kohls,Corona,592,#592 #0592,470 Hidden Valley Pkwy,CA,92879
Kohls,Glendora,595,#595 #0595,1225 S Lone Hill Ave,CA,91740
Kohls,La Habra,596,#596 #0596,1610 W Imperial Hwy,CA,90631
Kohls,Ladera Ranch,597,#597 #0597,27426 Antonio Pkwy,CA,92694
Kohls,Irvine,598,#598 #0598,14101 Jeffrey Rd,CA,92620
Kohls,La Verne,599,#599 #0599,2229 Foothill Blvd,CA,91750
Kohls,Moorpark,600,#600 #0600,872 New Los Angeles Ave,CA,93021
Kohls,Ontario,601,#601 #0601,1051 N Milliken Ave,CA,91764
Kohls,Fontana,602,#602 #0602,14960 Summit Ave,CA,92336
Kohls,Riverside,603,#603 #0603,19260 Van Buren Blvd,CA,92508
Kohls,Riverside,603,#603 #0603,3520 Tyler St,CA,92503
Kohls,Seal Beach,604,#604 #0604,12345 Seal Beach Blvd,CA,90740
Kohls,Simi Valley,605,#605 #0605,2930 Tapo Canyon Rd,CA,93063
Kohls,Temecula,606,#606 #0606,32085 Temecula Pkwy,CA,92592
Kohls,Upland,607,#607 #0607,1923 N Campus Ave,CA,91784
Kohls,Upland,607,#607 #0607,233 S Mountain Ave,CA,91786
Kohls,Valencia,608,#608 #0608,24200 Valencia Blvd,CA,91355
Kohls,Hooksett,609,#609 #0609,200 Quality Dr,NH,3106
Kohls,Noblesville,610,#610 #0610,16701 Clover Rd,IN,46060
Kohls,Kalamazoo,611,#611 #0611,5159 W Main St,MI,49009
Kohls,Garner,612,#612 #0612,185 Shenstone Ln,NC,27529
Kohls,Phoenix,613,#613 #0613,21001 N Tatum Blvd,AZ,85050
Kohls,Phoenix,613,#613 #0613,4637 E Chandler Blvd,AZ,85048
Kohls,Gilbert,614,#614 #0614,1121 E Baseline Rd,AZ,85233
Kohls,Gilbert,614,#614 #0614,1497 E Williams Field Rd,AZ,85295
Kohls,Phoenix,615,#615 #0615,17232 N 19th Ave,AZ,85023
Kohls,East Brunswick,616,#616 #0616,333 State Route 18,NJ,8816
Kohls,Laguna Niguel,618,#618 #0618,27380 Heather Ridge Rd,CA,92677
Kohls,Chandler,619,#619 #0619,1430 S Arizona Ave,AZ,85286
Kohls,Scottsdale,620,#620 #0620,8680 E Raintree Dr,AZ,85260
Kohls,Surprise,622,#622 #0622,14020 W Bell Rd,AZ,85374
Kohls,Surprise,622,#622 #0622,15357 W Cactus Rd,AZ,85379
Kohls,Ankeny,623,#623 #0623,1935 SE Delaware Ave,IA,50021
Kohls,Chillicothe,624,#624 #0624,45 River Trce,OH,45601
Kohls,Millbury,625,#625 #0625,70 Worcester Providence Tpke Ste 110,MA,1527
Kohls,Troy,626,#626 #0626,1869 W Main St,OH,45373
Kohls,Milford,627,#627 #0627,1164 State Route 28,OH,45150
Kohls,West Hills,628,#628 #0628,6651 Fallbrook Ave,CA,91307
Kohls,Newbury Park,630,#630 #0630,1960 Newbury Rd,CA,91320
Kohls,Redlands,631,#631 #0631,27540 W Lugonia Ave,CA,92374
Kohls,Torrance,632,#632 #0632,25375 Crenshaw Blvd,CA,90505
Kohls,Lakewood,633,#633 #0633,2650 Carson St,CA,90712
Kohls,Flemington,634,#634 #0634,325 US Highway 202,NJ,8822
Kohls,Victorville,636,#636 #0636,14305 Bear Valley Rd,CA,92392
Kohls,Phoenix,638,#638 #0638,34830 N North Valley Pkwy,AZ,85086
Kohls,West Springfield,639,#639 #0639,935G Riverdale St,MA,1089
Kohls,Rocky Hill,640,#640 #0640,1899 Silas Deane Hwy,CT,6067
Kohls,Nicholasville,641,#641 #0641,150 Commerce Dr,KY,40356
Kohls,Selma,642,#642 #0642,8098 Agora Pkwy,TX,78154
Kohls,San Antonio,643,#643 #0643,11781 Bandera Rd,TX,78250
Kohls,San Antonio,643,#643 #0643,1950 N Loop 1604 E,TX,78232
Kohls,San Antonio,644,#644 #0644,10838 Potranco Rd,TX,78251
Kohls,Stafford,645,#645 #0645,1220 Stafford Market Pl,VA,22556
Kohls,Cold Spring,646,#646 #0646,395 Cross Roads Blvd,KY,41076
Kohls,Chesterfield,647,#647 #0647,50500 Gratiot Ave,MI,48051
Kohls,Lincolnwood,648,#648 #0648,3333 W Touhy Ave,IL,60712
Kohls,Kannapolis,649,#649 #0649,2450 Supercenter Dr NE,NC,28083
Kohls,Virginia Beach,650,#650 #0650,3344 Princess Anne Rd,VA,23456
Kohls,Virginia Beach,650,#650 #0650,4564 Virginia Beach Blvd,VA,23462
Kohls,Glendale,652,#652 #0652,5408 W Bell Rd,AZ,85308
Kohls,Glendale,652,#652 #0652,9220 W Northern Ave,AZ,85305
Kohls,Huntington Beach,654,#654 #0654,7777 Edinger Ave Ste 136,CA,92647
Kohls,Huntington Beach,654,#654 #0654,9811 Adams Ave,CA,92646
Kohls,Doylestown,655,#655 #0655,1745 S Easton Rd,PA,18901
Kohls,Chesapeake,656,#656 #0656,1547 Sams Cir,VA,23320
Kohls,Birmingham,657,#657 #0657,1100 Inverness Cors,AL,35242
Kohls,Birmingham,657,#657 #0657,5900 Chalkville Mountain Rd,AL,35235
Kohls,Flagstaff,659,#659 #0659,500 W Forest Meadows St,AZ,86001
Kohls,Avondale,660,#660 #0660,1611 N Dysart Rd,AZ,85392
Kohls,Canton,661,#661 #0661,104 Albany Tpke,CT,6019
Kohls,Algonquin,662,#662 #0662,734 S Randall Rd,IL,60102
Kohls,Folsom,663,#663 #0663,1013 Riley St,CA,95630
Kohls,Plymouth,664,#664 #0664,68 W Long Pond Rd,MA,2360
Kohls,Timonium,665,#665 #0665,50 W Ridgely Rd,MD,21093
Kohls,Henderson,667,#667 #0667,1316 W Sunset Rd,NV,89014
Kohls,Henderson,667,#667 #0667,30 N Valle Verde Dr,NV,89074
Kohls,Las Vegas,668,#668 #0668,6700 N Durango Dr,NV,89149
Kohls,Las Vegas,668,#668 #0668,8671 W Charleston Blvd,NV,89117
Kohls,Las Vegas,669,#669 #0669,4250 Blue Diamond Rd,NV,89139
Kohls,Saint Louis,671,#671 #0671,9701 Watson Rd,MO,63126
Kohls,Edwardsville,672,#672 #0672,2120 Troy Rd,IL,62025
Kohls,Simpsonville,673,#673 #0673,621 Fairview Rd Ste A,SC,29680
Kohls,El Cajon,675,#675 #0675,2398 Jamacha Rd,CA,92019
Kohls,La Quinta,677,#677 #0677,78950 Highway 111,CA,92253
Kohls,Cottage Grove,678,#678 #0678,7990 Hardwood Ave S,MN,55016
Kohls,Roseville,680,#680 #0680,10375 Fairway Dr,CA,95678
Kohls,Quakertown,681,#681 #0681,200 N West End Blvd,PA,18951
Kohls,Howell,682,#682 #0682,1400 Lawson Dr,MI,48843
Kohls,Sacramento,683,#683 #0683,4700 Natomas Blvd,CA,95835
Kohls,Sacramento,683,#683 #0683,8810 Calvine Rd,CA,95828
Kohls,Biddeford,684,#684 #0684,75 Gateway Plaza,ME,4005
Kohls,Tucson,685,#685 #0685,199 N Pantano Rd,AZ,85710
Kohls,Tucson,685,#685 #0685,5850 W Arizona Pavilions Dr,AZ,85743
Kohls,Corpus Christi,686,#686 #0686,5626 Saratoga Blvd,TX,78414
Kohls,Colorado Springs,687,#687 #0687,4910 N Nevada Ave,CO,80918
Kohls,Lakewood,689,#689 #0689,3150 S Wadsworth Blvd,CO,80227
Kohls,Kokomo,690,#690 #0690,2156 E Boulevard,IN,46902
Kohls,Clifton Park,691,#691 #0691,54 Crossing Blvd,NY,12065
Kohls,Albany,692,#692 #0692,1814 Central Ave,NY,12205
Kohls,Middletown,693,#693 #0693,800 State Route 35,NJ,7748
Kohls,Trexlertown,694,#694 #0694,6900 Hamilton Blvd,PA,18087
Kohls,Elk Grove,695,#695 #0695,9650 Bruceville Rd,CA,95757
Kohls,Little Rock,696,#696 #0696,13909 Chenal Pkwy,AR,72211
Kohls,Sherwood,697,#697 #0697,7600 Warden Rd,AR,72120
Kohls,Conway,698,#698 #0698,801 Elsinger Blvd,AR,72032
Kohls,Oceanside,700,#700 #0700,3410 Marron Rd,CA,92056
Kohls,Visalia,701,#701 #0701,2208 S Mooney Blvd,CA,93277
Kohls,Bakersfield,702,#702 #0702,5385 Gosford Rd,CA,93313
Kohls,Bakersfield,702,#702 #0702,9400 Rosedale Hwy,CA,93312
Kohls,Westbrook,703,#703 #0703,41 Main St,ME,4092
Kohls,Rogers,704,#704 #0704,21985 S Diamond Lake Rd,MN,55374
Kohls,Antelope,705,#705 #0705,5030 Antelope Rd,CA,95843
Kohls,San Marcos,707,#707 #0707,720 Center Dr,CA,92069
Kohls,Stockton,708,#708 #0708,10850 Trinity Pkwy,CA,95219
Kohls,Fresno,709,#709 #0709,175 E Alluvial Ave,CA,93720
Kohls,Fresno,709,#709 #0709,3699 W Shaw Ave,CA,93711
Kohls,Poway,710,#710 #0710,12880 Gregg Ct,CA,92064
Kohls,South Burlington,711,#711 #0711,155 Dorset St,VT,5403
Kohls,West Lebanon,712,#712 #0712,250 Plainfield Rd,NH,3784
Kohls,Modesto,714,#714 #0714,2225 Plaza Pkwy Ste G,CA,95350
Kohls,Turlock,715,#715 #0715,2751 Countryside Dr,CA,95380
Kohls,Dekalb,716,#716 #0716,2070 Sycamore Rd,IL,60115
Kohls,Cordova,717,#717 #0717,2335 N Germantown Pkwy,TN,38016
Kohls,Collierville,718,#718 #0718,3575 S Houston Levee Rd,TN,38017
Kohls,Southaven,719,#719 #0719,1160 Goodman Rd E,MS,38671
Kohls,Durham,720,#720 #0720,5241 McFarland Rd,NC,27707
Kohls,Apex,721,#721 #0721,1301 Beaver Creek Commons Dr,NC,27502
Kohls,Mantua,722,#722 #0722,300 Bridgeton Pike,NJ,8051
Kohls,Voorhees,723,#723 #0723,79 Route 73,NJ,8043
Kohls,Chicago,725,#725 #0725,2140 N Elston Ave,IL,60614
Kohls,Chula Vista,726,#726 #0726,1870 Main Ct,CA,91911
Kohls,Chula Vista,726,#726 #0726,2325 Otay Lakes Rd,CA,91915
Kohls,Arvada,727,#727 #0727,15680 W 64th Ave,CO,80007
Kohls,Castle Rock,728,#728 #0728,4800 Milestone Ln,CO,80104
Kohls,Saugus,729,#729 #0729,333 Broadway (Route 1),MA,1906
Kohls,Norton Shores,730,#730 #0730,5695 Harvey St,MI,49444
Kohls,Pickerington,731,#731 #0731,175 Postage Cir,OH,43147
Kohls,Phillipsburg,732,#732 #0732,1200 US Highway 22,NJ,8865
Kohls,Liverpool,733,#733 #0733,3827 State Route 31,NY,13090
Kohls,Fayetteville,734,#734 #0734,100 Towne Dr,NY,13066
Kohls,Chester,735,#735 #0735,2701 W Hundred Rd,VA,23831
Kohls,Harrisonburg,736,#736 #0736,2035 E Market St Ste 25,VA,22801
Kohls,Gilroy,737,#737 #0737,6765 Camino Arroyo,CA,95020
Kohls,Okemos,738,#738 #0738,1710 Newman Rd,MI,48864
Kohls,Sussex,739,#739 #0739,N66W25225 Silver Spring Dr,WI,53089
Kohls,Lebanon,740,#740 #0740,1261 Quentin Rd,PA,17042
Kohls,Traverse City,741,#741 #0741,3333 N US Highway 31 N,MI,49686
Kohls,Belton,742,#742 #0742,914 E North Ave,MO,64012
Kohls,Baxter,743,#743 #0743,7565 Excelsior Rd,MN,56425
Kohls,Oak Park Heights,744,#744 #0744,5805 Krueger Ln,MN,55082
Kohls,Lake Delton,745,#745 #0745,131 Commerce St,WI,53941
Kohls,Wilmington,746,#746 #0746,228 Old Eastwood Rd,NC,28403
Kohls,Summerville,747,#747 #0747,480 Azalea Square Blvd,SC,29483
Kohls,Amarillo,748,#748 #0748,2610 S Soncy Rd,TX,79124
Kohls,Mesa,749,#749 #0749,1632 S Signal Butte Rd,AZ,85209
Kohls,Mesa,749,#749 #0749,5833 E McKellips Rd,AZ,85215
Kohls,San Gabriel,750,#750 #0750,7279 Rosemead Blvd,CA,91775
Kohls,Santa Clarita,752,#752 #0752,19307 Golden Valley Rd,CA,91387
Kohls,Palmdale,753,#753 #0753,39850 10th St W,CA,93551
Kohls,Santa Ana,754,#754 #0754,1351 W 17th St,CA,92706
Kohls,Yorba Linda,755,#755 #0755,23001 Savi Ranch Pkwy,CA,92887
Kohls,Santee,756,#756 #0756,9412 Mission Gorge Rd,CA,92071
Kohls,Vacaville,757,#757 #0757,570 Orange Dr,CA,95687
Kohls,Brentwood,758,#758 #0758,5511 Lone Tree Way,CA,94513
Kohls,Fremont,759,#759 #0759,43782 Christy St,CA,94538
Kohls,Petaluma,760,#760 #0760,1363 N McDowell Blvd,CA,94954
Kohls,Pleasanton,761,#761 #0761,4525 Rosewood Dr,CA,94588
Kohls,San Leandro,762,#762 #0762,15555 E 14th St,CA,94578
Kohls,Vallejo,763,#763 #0763,1190 Admiral Callaghan Ln,CA,94591
Kohls,Leominster,765,#765 #0765,10 Orchard Hill Park Dr,MA,1453
Kohls,Stoughton,766,#766 #0766,501 Technology Center Dr,MA,2072
Kohls,Mansfield,767,#767 #0767,280K School St,MA,2048
Kohls,Mooresville,768,#768 #0768,350 W Plaza Dr Ste A,NC,28117
Kohls,Fresh Meadows,769,#769 #0769,6111 188th St,NY,11365
Kohls,Greece,770,#770 #0770,4100 W Ridge Rd,NY,14626
Kohls,Rochester,771,#771 #0771,3150 W Henrietta Rd,NY,14623
Kohls,Webster,772,#772 #0772,925 Holt Rd,NY,14580
Kohls,New Braunfels,773,#773 #0773,1050 N Interstate 35,TX,78130
Kohls,West Valley City,774,#774 #0774,3031 S 5600 W,UT,84120
Kohls,West Jordan,775,#775 #0775,7292 S Plaza Center Dr,UT,84084
Kohls,Draper,776,#776 #0776,147 E 12300 S,UT,84020
Kohls,American Fork,777,#777 #0777,634 W Pacific Dr,UT,84003
Kohls,Layton,778,#778 #0778,1298 N Main St,UT,84041
Kohls,Akron,779,#779 #0779,2975 S Arlington Rd,OH,44312
Kohls,Marquette,780,#780 #0780,3000 US Highway 41 W,MI,49855
Kohls,Brooklyn,781,#781 #0781,8973 Bay Pkwy Ste 1,NY,11214
Kohls,Staten Island,782,#782 #0782,2239 Forest Ave,NY,10303
Kohls,Waco,783,#783 #0783,2708 W Loop 340,TX,76711
Kohls,Montgomery,784,#784 #0784,2430 Berryhill Rd,AL,36117
Kohls,Flowood,785,#785 #0785,300 Ridge Way,MS,39232
Kohls,Jacksonville,786,#786 #0786,11824 Atlantic Blvd,FL,32225
Kohls,Jacksonville,786,#786 #0786,13760 Old Saint Augustine Rd,FL,32258
Kohls,Jacksonville,787,#787 #0787,9701 Crosshill Blvd,FL,32222
Kohls,Fleming Island,788,#788 #0788,1995 Eastwest Pkwy,FL,32003
Kohls,Jackson,789,#789 #0789,1131 Vann Dr,TN,38305
Kohls,Alhambra,790,#790 #0790,1201 S Fremont Ave,CA,91803
Kohls,Lubbock,795,#795 #0795,3307 98th St,TX,79423
Kohls,McAllen,796,#796 #0796,7900 N 10th St,TX,78504
Kohls,Midland,797,#797 #0797,3200 N Loop 250 W,TX,79707
Kohls,Altamonte Springs,798,#798 #0798,945 W State Road 436 Ste 1155,FL,32714
Kohls,Clermont,799,#799 #0799,12305 US Highway 27,FL,34711
Kohls,Kissimmee,951,#951 #0951,3200 N John Young Pkwy,FL,34741
Kohls,Orange City,952,#952 #0952,1065 Harley Strickland Blvd,FL,32763
Kohls,Viera,953,#953 #0953,6729 Colonnade Ave,FL,32940
Kohls,Orlando,954,#954 #0954,422 N Alafaya Trl,FL,32828
Kohls,Orlando,954,#954 #0954,7143 Narcoossee Rd,FL,32822
Kohls,Lakeland,955,#955 #0955,1401 Town Center Dr,FL,33803
Kohls,East Peoria,956,#956 #0956,401 N Main St,IL,61611
Kohls,Rapid City,957,#957 #0957,737 Disk Dr,SD,57701
Kohls,Paso Robles,960,#960 #0960,100 Niblick Rd,CA,93446
Kohls,Depew,962,#962 #0962,4835 Transit Rd,NY,14043
Kohls,Amherst,963,#963 #0963,3115 Niagara Falls Blvd,NY,14228
Kohls,Orchard Park,964,#964 #0964,3430 Amelia Dr,NY,14127
Kohls,Loveland,967,#967 #0967,1340 Sculptor Dr,CO,80537
Kohls,Orange,968,#968 #0968,250 Bull Hill Ln,CT,6477
Kohls,Waterbury,969,#969 #0969,3776 E Main St,CT,6705
Kohls,Altoona,970,#970 #0970,213 Sophrira Ln,PA,16602
Kohls,State College,971,#971 #0971,275 Colonnade Blvd,PA,16803
Kohls,Dartmouth,973,#973 #0973,81 Faunce Corner Mall Rd,MA,2747
Kohls,Reno,974,#974 #0974,5150 Mae Anne Ave Ste 100,NV,89523
Kohls,Reno,974,#974 #0974,70 Damonte Ranch Pkwy,NV,89521
Kohls,Sparks,975,#975 #0975,5035 Pyramid Way,NV,89436
Kohls,Manteca,976,#976 #0976,2360 Daniels St,CA,95337
Kohls,Campbell,977,#977 #0977,525 E Hamilton Ave,CA,95008
Kohls,Pleasant Hill,978,#978 #0978,2302 Monument Blvd,CA,94523
Kohls,San Jose,979,#979 #0979,2323 McKee Rd,CA,95116
Kohls,San Jose,979,#979 #0979,890 Blossom Hill Rd,CA,95123
Kohls,Santa Rosa,980,#980 #0980,3746 Airway Dr,CA,95403
Kohls,Colma,981,#981 #0981,1200 El Camino Real,CA,94014
Kohls,Plover,982,#982 #0982,150 Crossroads Dr,WI,54467
Kohls,Santa Clara,984,#984 #0984,3700 El Camino Real,CA,95051
Kohls,Dubuque,985,#985 #0985,2595 NW Arterial,IA,52002
Kohls,Thorndale,986,#986 #0986,3455 Lincoln Hwy,PA,19372
Kohls,Hagerstown,987,#987 #0987,17145 Cole Rd,MD,21740
Kohls,Kingston,988,#988 #0988,800 Miron Ln,NY,12401
Kohls,Manahawkin,989,#989 #0989,205 Route 72 W,NJ,8050
Kohls,Quincy,990,#990 #0990,6100 Broadway St,IL,62305
Kohls,Commack,991,#991 #0991,45 Crooked Hill Rd,NY,11725
Kohls,Macon,992,#992 #0992,6275 Zebulon Rd,GA,31210
Kohls,Weatherford,993,#993 #0993,148 E Interstate 20,TX,76087
Kohls,Milpitas,994,#994 #0994,1150 Great Mall Dr,CA,95035
Kohls,Mason City,995,#995 #0995,556 Indian Head Dr,IA,50401
Kohls,Carbondale,996,#996 #0996,625 N Giant City Rd,IL,62902
Kohls,South Bend,997,#997 #0997,1290 E Ireland Rd,IN,46614
Kohls,Warsaw,998,#998 #0998,590 W 300 N,IN,46582
Kohls,Beaverton,1002,#1002 #01002,11055 SW Canyon Rd,OR,97005
Kohls,Vancouver,1003,#1003 #01003,17001 SE Mill Plain Blvd,WA,98684
Kohls,Vancouver,1003,#1003 #01003,9312 NE 5th Ave,WA,98665
Kohls,Hillsboro,1004,#1004 #01004,7360 NE Butler St,OR,97124
Kohls,Columbia,1005,#1005 #01005,1010 E Green Meadows Rd,MO,65201
Kohls,Wood Village,1006,#1006 #01006,22557 NE Park Ln,OR,97060
Kohls,Washington,1007,#1007 #01007,650 W Telegraph St,UT,84780
Kohls,New Philadelphia,1008,#1008 #01008,400 Mill Ave SE,OH,44663
Kohls,Columbus,1009,#1009 #01009,5550 Whittlesey Blvd,GA,31909
Kohls,Beckley,1010,#1010 #01010,1048 N Eisenhower Dr,WV,25801
Kohls,Springfield,1011,#1011 #01011,2950 Gateway St,OR,97477
Kohls,Owensboro,1012,#1012 #01012,3440 Villa Pt,KY,42303
Kohls,Cape Coral,1013,#1013 #01013,513 SW Pine Island Rd,FL,33991
Kohls,Spartanburg,1014,#1014 #01014,7600 Warren H Abernathy Hwy,SC,29301
Kohls,Clearwater,1015,#1015 #01015,2514 State Road 580,FL,33761
Kohls,Marysville,1017,#1017 #01017,3713 116th St NE,WA,98271
Kohls,Covington,1018,#1018 #01018,17002 SE 270th Pl,WA,98042
Kohls,Clarksville,1019,#1019 #01019,2840 Wilma Rudolph Blvd,TN,37040
Kohls,Yuba City,1020,#1020 #01020,1480 Sunsweet Blvd,CA,95993
Kohls,Auburn,1021,#1021 #01021,105 Mount Auburn Ave,ME,4210
Kohls,Washington,1022,#1022 #01022,353 Washington Rd,PA,15301
Kohls,Mobile,1023,#1023 #01023,845 Schillinger Rd S,AL,36695
Kohls,Richmond,1024,#1024 #01024,3722 National Rd E,IN,47374
Kohls,Lutz,1025,#1025 #01025,3979 Van Dyke Rd,FL,33558
Kohls,Brandon,1026,#1026 #01026,11151 Lake Brandon Dr,FL,33511
Kohls,Florence,1027,#1027 #01027,350 Seville St,AL,35630
Kohls,Oro Valley,1028,#1028 #01028,7785 N Oracle Rd,AZ,85704
Kohls,Jonesboro,1029,#1029 #01029,2117 Fair Park Blvd,AR,72401
Kohls,Bryant,1030,#1030 #01030,7333 Alcoa Rd,AR,72022
Kohls,Chico,1031,#1031 #01031,1505 Springfield Dr,CA,95928
Kohls,Mira Loma,1032,#1032 #01032,12315 Limonite Ave,CA,91752
Kohls,Douglasville,1033,#1033 #01033,2989 Chapel Hill Rd,GA,30135
Kohls,Bourbonnais,1034,#1034 #01034,2006 N State Route 50,IL,60914
Kohls,Oswego,1035,#1035 #01035,2500 US Highway 34,IL,60543
Kohls,Baton Rouge,1036,#1036 #01036,10770 N Mall Dr,LA,70809
Kohls,Lafayette,1037,#1037 #01037,4310 Ambassador Caffery Pkwy,LA,70508
Kohls,Shreveport,1038,#1038 #01038,7651 Youree Dr,LA,71105
Kohls,Lapeer,1040,#1040 #01040,1880 Demille Rd,MI,48446
Kohls,Mount Pleasant,1041,#1041 #01041,4855 Encore Blvd,MI,48858
Kohls,Adrian,1042,#1042 #01042,2050 E US Highway 223,MI,49221
Kohls,Owatonna,1043,#1043 #01043,1450 21st Ave NW,MN,55060
Kohls,Las Vegas,1044,#1044 #01044,1300 S Nellis Blvd,NV,89104
Kohls,Jersey City,1045,#1045 #01045,40 Mall Dr E,NJ,7310
Kohls,Albuquerque,1046,#1046 #01046,3715 Ellison Rd NW,NM,87114
Kohls,Albuquerque,1046,#1046 #01046,6800 Holly Ave NE,NM,87113
Kohls,Albuquerque,1047,#1047 #01047,6600 Menaul Blvd NE,NM,87110
Kohls,Newburgh,1048,#1048 #01048,150 Old Little Britain Rd,NY,12550
Kohls,Grand Forks,1049,#1049 #01049,3301 32nd Ave S,ND,58201
Kohls,Fairfield,1050,#1050 #01050,3173 Princeton Rd,OH,45011
Kohls,Lorain,1051,#1051 #01051,3080 Jaeger Rd,OH,44053
Kohls,Marion,1052,#1052 #01052,400 McMahan Blvd,OH,43302
Kohls,Albany,1053,#1053 #01053,410 Airport Rd SE,OR,97322
Kohls,Myrtle Beach,1054,#1054 #01054,8646 Highway 17 Byp S,SC,29588
Kohls,Morristown,1055,#1055 #01055,2550 E Morris Blvd,TN,37813
Kohls,Spring Hill,1056,#1056 #01056,1020 Crossings Blvd,TN,37174
Kohls,Cookeville,1057,#1057 #01057,700 W Jackson St,TN,38501
Kohls,Lake Jackson,1058,#1058 #01058,201 Highway 332 W,TX,77566
Kohls,Laredo,1059,#1059 #01059,5219 Santa Maria Ave,TX,78041
Kohls,Killeen,1060,#1060 #01060,1600 Lowes Blvd,TX,76542
Kohls,Culpeper,1062,#1062 #01062,791 Nalles Mill Rd,VA,22701
Kohls,Parkersburg,1063,#1063 #01063,189 Bosley Pkwy,WV,26101
Kohls,Monument,1064,#1064 #01064,15866 Jackson Creek Pkwy,CO,80132
Kohls,Lenexa,1065,#1065 #01065,12381 W 95th St,KS,66215
Kohls,West Bloomfield,1066,#1066 #01066,7200 Orchard Lake Rd,MI,48322
Kohls,Hackettstown,1067,#1067 #01067,1875 State Route 57,NJ,7840
Kohls,Monaca,1068,#1068 #01068,97 Wagner Rd,PA,15061
Kohls,Redding,1069,#1069 #01069,895 Browning St,CA,96003
Kohls,Valdosta,1070,#1070 #01070,1511 Baytree Rd,GA,31602
Kohls,Northfield,1072,#1072 #01072,49 Lowes Dr,NH,3276
Kohls,Victoria,1075,#1075 #01075,8905 N Navarro St,TX,77904
Kohls,Lynnwood,1076,#1076 #01076,18405 Alderwood Mall Pkwy,WA,98037
Kohls,Riverbank,1077,#1077 #01077,2351 Claribel Rd,CA,95367
Kohls,Benton Harbor,1078,#1078 #01078,980 E Napier Ave,MI,49022
Kohls,Auburn,1079,#1079 #01079,1628 Clark Street Rd,NY,13021
Kohls,Medford,1081,#1081 #01081,1900 N Riverside Ave,OR,97501
Kohls,Bellingham,1082,#1082 #01082,40 Bellis Fair Pkwy,WA,98226
Kohls,Peoria,1084,#1084 #01084,10072 W Happy Valley Rd,AZ,85383
Kohls,Newark,1085,#1085 #01085,1041 Mount Vernon Rd,OH,43055
Kohls,Ammon,1086,#1086 #01086,3175 S 25th E,ID,83406
Kohls,Defiance,1087,#1087 #01087,8683 N State Route 66,OH,43512
Kohls,Prescott Valley,1089,#1089 #01089,3280 N Glassford Hill Rd,AZ,86314
Kohls,Cartersville,1091,#1091 #01091,600 E Main St,GA,30121
Kohls,Pensacola,1092,#1092 #01092,9300 Baldridge Rd,FL,32514
Kohls,Greenville,1093,#1093 #01093,3501 Galleria Dr,NC,27834
Kohls,Meridian,1094,#1094 #01094,3275 N Eagle Rd,ID,83646
Kohls,Nampa,1095,#1095 #01095,16566 N Market Place Blvd,ID,83687
Kohls,Portage,1096,#1096 #01096,6495 US Highway 6,IN,46368
Kohls,White Lake,1097,#1097 #01097,7375 Highland Rd,MI,48383
Kohls,Washington,1098,#1098 #01098,3198 Phoenix Center Dr,MO,63090
Kohls,Branson,1103,#1103 #01103,1001 Branson Hills Pkwy,MO,65616
Kohls,Brownsburg,1104,#1104 #01104,580 W Northfield Dr,IN,46112
Kohls,Brownsville,1105,#1105 #01105,4475 N W Expressway 77-83,TX,78520
Kohls,Burlington,1106,#1106 #01106,1942 Marketplace Dr,WA,98233
Kohls,Casa Grande,1107,#1107 #01107,976 N Mission Pkwy,AZ,85194
Kohls,Clackamas,1108,#1108 #01108,8500 SE Sunnyside Rd,OR,97015
Kohls,College Station,1109,#1109 #01109,1701 Texas Ave S,TX,77840
Kohls,Covington,1110,#1110 #01110,6103 Pinnacle Pkwy,LA,70433
Kohls,Derby,1111,#1111 #01111,2800 N Commerce Dr,KS,67037
Kohls,Eagle Pass,1112,#1112 #01112,414 Bibb Ave,TX,78852
Kohls,Williamsville,1113,#1113 #01113,8500 Transit Rd,NY,14221
Kohls,Florence,1115,#1115 #01115,3041 W Radio Dr,SC,29501
Kohls,Jefferson City,1118,#1118 #01118,715 Stoneridge Blvd,MO,65109
Kohls,Lacey,1119,#1119 #01119,681 Sleater Kinney Rd SE,WA,98503
Kohls,Livermore,1121,#1121 #01121,2900 Las Positas Rd,CA,94551
Kohls,Marina,1122,#1122 #01122,111 General Stillwell Dr,CA,93933
Kohls,McDonough,1123,#1123 #01123,1570 Highway 20 W,GA,30253
Kohls,Middletown,1124,#1124 #01124,601 S Ridge Ave,DE,19709
Kohls,Moreno Valley,1125,#1125 #01125,27200 Eucalyptus Ave,CA,92555
Kohls,Mount Pleasant,1126,#1126 #01126,3075 Proprietors Pl,SC,29466
Kohls,Naples,1127,#1127 #01127,6381 Naples Blvd,FL,34109
Kohls,New Port Richey,1128,#1128 #01128,8333 Little Rd,FL,34654
Kohls,North Las Vegas,1130,#1130 #01130,6650 N 5th St,NV,89084
Kohls,Old Bridge,1132,#1132 #01132,1043 US Highway 9,NJ,8857
Kohls,Panama City,1133,#1133 #01133,2610 Martin Luther King Jr Blvd,FL,32405
Kohls,Portland,1134,#1134 #01134,10010 NE Halsey St,OR,97220
Kohls,Redmond,1136,#1136 #01136,17601 NE Union Hill Rd,WA,98052
Kohls,Rochester,1137,#1137 #01137,160 Washington St,NH,3839
Kohls,Rock Hill,1138,#1138 #01138,1522 Meeting Blvd,SC,29730
Kohls,Rosenberg,1139,#1139 #01139,24934 Commercial Dr,TX,77471
Kohls,Salem,1140,#1140 #01140,450 Marion St NE,OR,97301
Kohls,Santa Fe,1141,#1141 #01141,4401 Cerrillos Rd,NM,87507
Kohls,Ocean,1143,#1143 #01143,1502 State Route 35,NJ,7712
Kohls,Silverdale,1144,#1144 #01144,10315 Silverdale Way NW,WA,98383
Kohls,South Lebanon,1145,#1145 #01145,500 Corwin Nixon Blvd,OH,45065
Kohls,Spokane,1146,#1146 #01146,4740 N Division St,WA,99207
Kohls,Springfield,1147,#1147 #01147,1600 N Bechtle Ave,OH,45504
Kohls,St Petersburg,1149,#1149 #01149,4820 Park St N,FL,33709
Kohls,Tallahassee,1150,#1150 #01150,2010 Apalachee Pkwy,FL,32301
Kohls,Tallahassee,1150,#1150 #01150,6785 Thomasville Rd,FL,32312
Kohls,Texarkana,1151,#1151 #01151,4101 Gibson Ln,TX,75503
Kohls,Tukwila,1152,#1152 #01152,17150 Southcenter Pkwy,WA,98188
Kohls,Vincennes,1153,#1153 #01153,616 N Bierhaus Blvd,IN,47591
Kohls,Williamsport,1155,#1155 #01155,251 William St,PA,17701
Kohls,Chambersburg,1156,#1156 #01156,955 Norland Ave,PA,17201
Kohls,Grove City,1157,#1157 #01157,1548 Stringtown Rd,OH,43123
Kohls,Ranson,1158,#1158 #01158,260 West Virginia Way,WV,25438
Kohls,Sacramento,1159,#1159 #01159,1896 Arden Way,CA,95815
Kohls,Jensen Beach,1160,#1160 #01160,2751 NW Mall Cir,FL,34957
Kohls,Brighton,1161,#1161 #01161,2425 Prairie Center Pkwy,CO,80601
Kohls,Oviedo,1162,#1162 #01162,5521 Deep Lake Rd,FL,32765
Kohls,Flowery Branch,1163,#1163 #01163,5851 Spout Springs Rd,GA,30542
Kohls,Warner Robins,1164,#1164 #01164,3050 Watson Blvd,GA,31093
Kohls,Coeur D Alene,1165,#1165 #01165,545 W Aqua Ave,ID,83815
Kohls,Council Bluffs,1166,#1166 #01166,3626 Metro Dr,IA,51501
Kohls,Monroe,1167,#1167 #01167,4491 Millhaven Rd,LA,71203
Kohls,Hilliard,1168,#1168 #01168,1855 Hilliard Rome Rd,OH,43026
Kohls,Richland,1169,#1169 #01169,1457 Tapteal Dr,WA,99352
Kohls,Mission,1171,#1171 #01171,2504 E Expressway 83,TX,78572
Kohls,Saratoga Springs,1174,#1174 #01174,79 Weibel Ave,NY,12866
Kohls,Williamsburg,1175,#1175 #01175,100 Gristmill Plz,VA,23185
Kohls,Abilene,1176,#1176 #01176,4757 Southwest Dr,TX,79606
Kohls,Baytown,1177,#1177 #01177,6520 Garth Rd,TX,77521
Kohls,Dothan,1179,#1179 #01179,4401 Montgomery Hwy Ste 200,AL,36303
Kohls,Longview,1180,#1180 #01180,3096 N Eastman Rd Ste 100,TX,75605
Kohls,Mansfield,1181,#1181 #01181,126 Highway 287 S,TX,76063
Kohls,Tinley Park,1182,#1182 #01182,7500 191st St,IL,60487
Kohls,Tupelo,1183,#1183 #01183,3982 N Gloster St,MS,38804
Kohls,Tyler,1184,#1184 #01184,7715 S Broadway Ave,TX,75703
Kohls,Yorkville,1185,#1185 #01185,945 Erica Ln,IL,60560
Kohls,Beaumont,1186,#1186 #01186,1479 E 2nd St,CA,92223
Kohls,Palm Desert,1187,#1187 #01187,34940 Monterey Ave,CA,92211
Kohls,Bullhead City,1188,#1188 #01188,3699 Highway 95,AZ,86442
Kohls,Effingham,1189,#1189 #01189,1600 Ford Ave,IL,62401
Kohls,Elizabethtown,1190,#1190 #01190,3100 N Dixie Ave,KY,42701
Kohls,Hattiesburg,1191,#1191 #01191,6053 U S Highway 98,MS,39402
Kohls,Ellisville,1192,#1192 #01192,25 Ellisville Towne Centr Dr,MO,63011
Kohls,Las Cruces,1193,#1193 #01193,2500 N Triviz Dr,NM,88001
Kohls,Norman,1194,#1194 #01194,2110 24th Ave NW,OK,73069
Kohls,Kingsport,1196,#1196 #01196,2626 E Stone Dr Ste 190,TN,37660
Kohls,Smyrna,1197,#1197 #01197,819 Industrial Blvd,TN,37167
Kohls,Triadelphia,1198,#1198 #01198,620 Cabela Dr,WV,26059
Kohls,Rhinelander,1199,#1199 #01199,1035 Lincoln St,WI,54501
Kohls,Spanish Fort,1200,#1200 #01200,21000 Town Center Ave,AL,36527
Kohls,Sanford,1202,#1202 #01202,1371 Rinehart Rd,FL,32771
Kohls,Ithaca,1203,#1203 #01203,410 Elmira Rd Ste 2,NY,14850
Kohls,Lancaster,1204,#1204 #01204,1355 Ety Pointe Dr NW,OH,43130
Kohls,Cheyenne,1205,#1205 #01205,5232 Rue Terre,WY,82009
Kohls,Queen Creek,1207,#1207 #01207,21058 S Ellsworth Loop Rd,AZ,85142
Kohls,Port Charlotte,1209,#1209 #01209,19600 Cochran Blvd Ste G,FL,33948
Kohls,Ocala,1211,#1211 #01211,4031 SW 43rd Street Rd,FL,34474
Kohls,Canton,1212,#1212 #01212,2034 Cumming Hwy,GA,30115
Kohls,Lithonia,1213,#1213 #01213,2929 Turner Hill Rd,GA,30038
Kohls,Atlanta,1214,#1214 #01214,4820 Briarcliff Rd NE,GA,30345
Kohls,Easley,1215,#1215 #01215,185 Rolling Hills Cir,SC,29640
Kohls,Suffolk,1216,#1216 #01216,6253 College Dr,VA,23435
Kohls,Spokane Valley,1217,#1217 #01217,16301 E Broadway Ave,WA,99037
Kohls,Harlingen,1219,#1219 #01219,2715 W Expressway 83,TX,78552
Kohls,North Kingstown,1221,#1221 #01221,110 Gate Rd,RI,2852
Kohls,Boynton Beach,1222,#1222 #01222,1901 N Congress Ave,FL,33426
Kohls,Frankfort,1223,#1223 #01223,7700 John Davis Dr,KY,40601
Kohls,Grafton,1224,#1224 #01224,1050 N Port Washington Rd,WI,53024
Kohls,Richmond,1225,#1225 #01225,2047 Merchant Dr,KY,40475
Kohls,Centerville,1227,#1227 #01227,26 South 400 West,UT,84014
Kohls,Cleveland,1228,#1228 #01228,4580 Frontage Rd NW,TN,37312
Kohls,Lady Lake,1229,#1229 #01229,492 N US Highway 441,FL,32159
Kohls,West Burlington,1232,#1232 #01232,306 E Agency Rd,IA,52655
Kohls,Irving,1233,#1233 #01233,1035 Market Pl,TX,75063
Kohls,Albany,1234,#1234 #01234,2813 Nottingham Way,GA,31707
Kohls,Forked River,1235,#1235 #01235,304 N Main St,NJ,8731
Kohls,Waynesboro,1238,#1238 #01238,841 Town Center Dr,VA,22980
Kohls,Tolleson,1240,#1240 #01240,3000 S 99th Ave,AZ,85353
Kohls,Gainesville,1242,#1242 #01242,3501 SW Archer Rd,FL,32608
Kohls,Coconut Creek,1243,#1243 #01243,6950 N State Road 7,FL,33073
Kohls,Hialeah,1244,#1244 #01244,700 W 49th St,FL,33012
Kohls,Hollywood,1245,#1245 #01245,4999 Sheridan St,FL,33021
Kohls,Homestead,1246,#1246 #01246,2455 NE 10th Ct,FL,33033
Kohls,Kendall,1247,#1247 #01247,11800 Mills Dr,FL,33183
Kohls,Miramar,1248,#1248 #01248,12200 Miramar Pkwy,FL,33025
Kohls,Plantation,1249,#1249 #01249,821 S University Dr,FL,33324
Kohls,Lake Wales,1250,#1250 #01250,2803 Ridge Way,FL,33859
Kohls,West Des Moines,1253,#1253 #01253,6515 Mills Civic Pkwy,IA,50266
Kohls,Seabrook,1255,#1255 #01255,325 Lafayette Rd,NH,3874
Kohls,Linden,1256,#1256 #01256,1900 E Linden Ave,NJ,7036
Kohls,Newton,1257,#1257 #01257,11 N Park Dr,NJ,7860
Kohls,Anderson,1261,#1261 #01261,130 Fritz Dr,SC,29621
Kohls,Puyallup,1262,#1262 #01262,16918 Meridian E,WA,98375
Kohls,Milton,1264,#1264 #01264,13097 Highway 9 N,GA,30004
Kohls,Billings,1265,#1265 #01265,3900 King Ave W,MT,59102
Kohls,Chaska,1266,#1266 #01266,1140 Hazeltine Blvd,MN,55318
Kohls,Crete,1267,#1267 #01267,23755 S Volbrecht Rd,IL,60417
Kohls,Delaware,1268,#1268 #01268,980 Sunbury Rd,OH,43015
Kohls,Fort Myers,1269,#1269 #01269,9357 Ben C Pratt/6 Mile Cypress Pkwy,FL,33966
Kohls,Fort Walton Beach,1270,#1270 #01270,800 Beal Pkwy NW,FL,32547
Kohls,Gibsonia,1271,#1271 #01271,5357 William Flynn Hwy,PA,15044
Kohls,Jeffersonville,1272,#1272 #01272,2650 Allison Ln,IN,47130
Kohls,Richmond,1275,#1275 #01275,5550 W Grand Pkwy S,TX,77406
Kohls,Kyle,1276,#1276 #01276,20185 Market Pl,TX,78640
Kohls,League City,1279,#1279 #01279,2825 Gulf Fwy S,TX,77573
Kohls,Leander,1280,#1280 #01280,1245 S Highway 183,TX,78641
Kohls,Menifee,1282,#1282 #01282,30252 Haun Rd,CA,92584
Kohls,Northborough,1283,#1283 #01283,7102 Shops Way,MA,1532
Kohls,Opelika,1284,#1284 #01284,2774 Enterprise Dr,AL,36801
Kohls,Orem,1285,#1285 #01285,1281 S 800 E,UT,84097
Kohls,Oxford,1286,#1286 #01286,1600 Oxford Exchange Blvd,AL,36203
Kohls,Lake Park,1287,#1287 #01287,400 N Congress Ave,FL,33403
Kohls,Palm Coast,1288,#1288 #01288,665 Palm Coast Pkwy SW,FL,32137
Kohls,Port Orange,1290,#1290 #01290,1682 Taylor Rd,FL,32128
Kohls,Salisbury,1291,#1291 #01291,1395 Klumac Rd,NC,28147
Kohls,Snohomish,1292,#1292 #01292,2909 Bickford Ave,WA,98290
Kohls,Brooksville,1293,#1293 #01293,3201 Aerial Way,FL,34604
Kohls,Eustis,1294,#1294 #01294,2700 E Burleigh Blvd,FL,32726
Kohls,Walton,1295,#1295 #01295,12300 Towne Center Dr,KY,41094
Kohls,Romeoville,1300,#1300 #01300,261 S Weber Rd,IL,60446
Kohls,Franklin,1301,#1301 #01301,415 Mallory Pkwy,IN,46131
Kohls,Angola,1302,#1302 #01302,3300 N Wayne St,IN,46703
Kohls,Kansas City,1303,#1303 #01303,10730 Parallel Pkwy,KS,66109
Kohls,Lavale,1304,#1304 #01304,12101 Winchester Rd,MD,21502
Kohls,Woodhaven,1305,#1305 #01305,20840 West Rd,MI,48183
Kohls,Buffalo,1306,#1306 #01306,2232 Delaware Ave,NY,14216
Kohls,Knightdale,1307,#1307 #01307,302 Hinton Oaks Blvd,NC,27545
Kohls,Manitowoc,1308,#1308 #01308,4411 Dewey St,WI,54220
Kohls,Alton,1309,#1309 #01309,1770 Homer M Adams Pkwy,IL,62002
Kohls,Salina,1310,#1310 #01310,2580 S 9th St,KS,67401
Kohls,Victor,1312,#1312 #01312,439 Commerce Dr,NY,14564
Kohls,Fuquay Varina,1313,#1313 #01313,640 Lakestone Commons Ave,NC,27526
Kohls,Selinsgrove,1314,#1314 #01314,405 Marketplace Blvd,PA,17870
Kohls,Burlington,1315,#1315 #01315,1032 Milwaukee Ave,WI,53105
Kohls,Royal Palm Beach,1316,#1316 #01316,8751 Southern Blvd,FL,33411
Kohls,Lexington Park,1317,#1317 #01317,46240 Lexington Village Way,MD,20653
Kohls,Riverton,1318,#1318 #01318,13319 S 3600 W Ste 13Lot,UT,84065
Kohls,Clinton,1320,#1320 #01320,1814 W 1800 N,UT,84015
Kohls,Wake Forest,1322,#1322 #01322,12620 Capital Blvd,NC,27587
Kohls,Alameda,1324,#1324 #01324,2201 S Shore Ctr,CA,94501
Kohls,Anchorage,1325,#1325 #01325,1200 N Muldoon Rd Ste D,AK,99504
Kohls,Bend,1326,#1326 #01326,3188 N Highway 97,OR,97701
Kohls,West Melbourne,1327,#1327 #01327,205 Palm Bay Rd NE,FL,32904
Kohls,Rego Park,1328,#1328 #01328,6135 Junction Blvd,NY,11374
Kohls,Middle River,1329,#1329 #01329,1420 Martin Blvd,MD,21220
Kohls,Forest Hill,1330,#1330 #01330,50 Osborne Pkwy,MD,21050
Kohls,Hoover,1331,#1331 #01331,5513 Grove Blvd,AL,35226
Kohls,Cambridge,1332,#1332 #01332,2200 3rd Ave NE,MN,55008
Kohls,Prattville,1334,#1334 #01334,1460 Cotton Exchange,AL,36066
Kohls,Diberville,1340,#1340 #01340,3901 Promenade Pkwy,MS,39540
Kohls,Burlington,1342,#1342 #01342,1361 Boone Station Dr,NC,27215
Kohls,Kent,1343,#1343 #01343,3886 Cascades Blvd,OH,44240
Kohls,Collinsville,1349,#1349 #01349,605 Belt Line Rd,IL,62234
Kohls,Blue Springs,1350,#1350 #01350,1280 NE Coronado Dr,MO,64014
Kohls,Annapolis,1352,#1352 #01352,260 Solomons Island Rd,MD,21401
Kohls,Butler,1353,#1353 #01353,700 Butler Crossing,PA,16001
Kohls,Lake Charles,1354,#1354 #01354,538 W Prien Lake Rd,LA,70601
Kohls,Salt Lake City,1357,#1357 #01357,1154 E Brickyard Rd,UT,84106
Kohls,Capitola,1358,#1358 #01358,1855 41st Ave,CA,95010
Kohls,San Diego,1359,#1359 #01359,3450 College Ave,CA,92115
Kohls,San Diego,1359,#1359 #01359,8140 Mira Mesa Blvd,CA,92126
Kohls,Downey,1360,#1360 #01360,300 Stonewood St,CA,90241
Kohls,Eureka,1361,#1361 #01361,3300 Broadway,CA,95501
Kohls,Fullerton,1362,#1362 #01362,3204 Yorba Linda Blvd,CA,92831
Kohls,Citrus Heights,1363,#1363 #01363,6135 San Juan Ave,CA,95610
Kohls,Lodi,1366,#1366 #01366,530 W Kettleman Ln,CA,95240
Kohls,Merced,1367,#1367 #01367,400 Merced Mall,CA,95348
Kohls,San Diego,1369,#1369 #01369,5505 Balboa Ave,CA,92111
Kohls,Monrovia,1370,#1370 #01370,504 W Huntington Dr,CA,91016
Kohls,Napa,1371,#1371 #01371,1116 1st St,CA,94559
Kohls,Las Vegas,1372,#1372 #01372,4265 S Grand Canyon Dr,NV,89147
Kohls,Northridge,1373,#1373 #01373,8800 Corbin Ave,CA,91324
Kohls,Rancho Cordova,1375,#1375 #01375,11051 Olson Dr,CA,95670
Kohls,Redondo Beach,1376,#1376 #01376,1799 Hawthorne Blvd,CA,90278
Kohls,San Luis Obispo,1378,#1378 #01378,205 Madonna Rd,CA,93405
Kohls,San Rafael,1379,#1379 #01379,5010 Northgate Dr,CA,94903
Kohls,Hayward,1380,#1380 #01380,545 Southland Mall,CA,94545
Kohls,Sun Valley,1381,#1381 #01381,8501 Laurel Canyon Blvd,CA,91352
Kohls,Tustin,1382,#1382 #01382,18182 Irvine Blvd,CA,92780
Kohls,Ukiah,1383,#1383 #01383,437 N Orchard Ave,CA,95482
Kohls,Westchester,1385,#1385 #01385,8739 S Sepulveda Blvd,CA,90045
Kohls,Whittier,1386,#1386 #01386,15602 Whittwood Ln,CA,90603
Kohls,Cypress,1387,#1387 #01387,10201 Valley View St,CA,90630
Kohls,Mountain View,1388,#1388 #01388,350 Showers Dr,CA,94040
Kohls,Redwood City,1389,#1389 #01389,250 Walnut St,CA,94063
Kohls,Wylie,1393,#1393 #01393,3060 W FM 544,TX,75098
Kohls,Valley Stream,1395,#1395 #01395,1098 Green Acres Mall,NY,11581
Kohls,Mount Vernon,1396,#1396 #01396,141 Davidson Rd,IL,62864
Kohls,Rice Lake,1397,#1397 #01397,2960 Decker Dr,WI,54868
Kohls,Clovis,1399,#1399 #01399,1000 Shaw Ave,CA,93612
Kohls,Hanford,1400,#1400 #01400,1677 W Lacey Blvd,CA,93230
Kohls,North Chesterfield,1401,#1401 #01401,11331 Midlothian Tpke,VA,23235
Kohls,Porterville,1403,#1403 #01403,1275 W Henderson Ave,CA,93257
Kohls,Sonora,1404,#1404 #01404,13777 Mono Way,CA,95370
Kohls,Carson City,1407,#1407 #01407,3871 S Carson St,NV,89701
Kohls,Charlottesville,1408,#1408 #01408,396 Towncenter Ln,VA,22911
Kohls,Bedford,1409,#1409 #01409,81 South River Rd Rte 3,NH,3110
Kohls,Union Gap,1410,#1410 #01410,2551 Main St,WA,98903
Kohls,Hudson,1411,#1411 #01411,488 Fairview Ave,NY,12534
Kohls,Sterling,1413,#1413 #01413,3220 E Lynn Blvd,IL,61081
Kohls,Roanoke,1414,#1414 #01414,4210 Franklin Rd SW,VA,24014
Kohls,Encinitas,1415,#1415 #01415,134 N El Camino Real,CA,92024
Kohls,Charleston,1416,#1416 #01416,2245 Ashley Crossing Dr,SC,29414
Kohls,Miamisburg,1418,#1418 #01418,10800 Innovation Ct,OH,45342
Kohls,Bozeman,1419,#1419 #01419,981 S 29th Ave,MT,59718
Kohls,Casper,1420,#1420 #01420,1800 Newport,WY,82609
Kohls,Lake Ozark,1421,#1421 #01421,2455 Goldie Prewitt Memorial Pkwy,MO,65049
Kohls,Temple,1422,#1422 #01422,3170 S 31st St,TX,76502
Kohls,Hixson,1424,#1424 #01424,5953 Highway 153,TN,37343
Kohls,Saint Marys,1425,#1425 #01425,415 Fortman Dr,OH,45885
Kohls,Alliance,1426,#1426 #01426,2025 W State St,OH,44601
Kohls,Coral Springs,1428,#1428 #01428,9001 W Atlantic Blvd,FL,33071
Kohls,Doral,1429,#1429 #01429,1275 NW 107th Ave,FL,33172
Kohls,Sarasota,1430,#1430 #01430,3950 Central Sarasota Pkwy,FL,34238
Kohls,Southern Pines,1431,#1431 #01431,190 Brucewood Rd,NC,28387
Kohls,Waxhaw,1432,#1432 #01432,601 Sherman Pl,NC,28173
Kohls,El Centro,1434,#1434 #01434,808 E Danenberg Dr,CA,92243
Kohls,Lawton,1435,#1435 #01435,321 NW 2nd St,OK,73507
Kohls,Shawnee,1436,#1436 #01436,4901 N Kickapoo Ave,OK,74804
Kohls,Huntsville,1438,#1438 #01438,2775 Carl T Jones Dr SE,AL,35802
Kohls,Dalton,1439,#1439 #01439,835 Shugart Rd,GA,30720
Kohls,Fort Dodge,1440,#1440 #01440,2941 5th Ave S,IA,50501
Kohls,Boise,1441,#1441 #01441,400 N Milwaukee St,ID,83704
Kohls,Marion,1442,#1442 #01442,4114 S Western Ave,IN,46953
Kohls,Easton,1443,#1443 #01443,207 Marlboro Ave,MD,21601
Kohls,Yulee,1445,#1445 #01445,463893 State Road 200,FL,32097
Kohls,Amsterdam,1447,#1447 #01447,120 Amsterdam Commons,NY,12010
Kohls,Berlin,1448,#1448 #01448,245 Berlin Tpke,CT,6037
Kohls,New Milford,1452,#1452 #01452,169 Danbury Rd,CT,6776
Kohls,Rolla,1453,#1453 #01453,2200 N Bishop Ave,MO,65401
Kohls,Springfield,1454,#1454 #01454,800 Boston Rd,MA,1119
Kohls,Federal Way,1455,#1455 #01455,2101 S Commons,WA,98003
Kohls,Savannah,1456,#1456 #01456,7939 Abercorn St,GA,31406
Kohls,Worcester,1457,#1457 #01457,10 Country Club Blvd,MA,1605
Kohls,Gig Harbor,1458,#1458 #01458,4929 Point Fosdick Dr NW,WA,98335
Kohls,Denton,1461,#1461 #01461,2620 W University Dr,TX,76201
Kohls,Dayville,1462,#1462 #01462,1050 N Main St,CT,6241
Kohls,Livonia,1463,#1463 #01463,29580 7 Mile Rd,MI,48152
Kohls,Olean,1465,#1465 #01465,400 North Union St Olean Center Mall,NY,14760
Kohls,Pottsville,1466,#1466 #01466,7211 Fairlane Village Mall,PA,17901
Kohls,Woodstock,1467,#1467 #01467,2200 Lake Ave,IL,60098
Kohls,Haymarket,1468,#1468 #01468,6490 Trading Sq,VA,20169
Kohls,Tomball,1469,#1469 #01469,14443 FM 2920 Rd,TX,77377
Kohls,Plymouth,1470,#1470 #01470,4190 Vinewood Ln N,MN,55442
Kohls,Jacksonville,1474,#1474 #01474,2132 Gateway Dr S,NC,28546
Kohls,Reading,1476,#1476 #01476,2700 Papermill Rd,PA,19610
Kohls,Aspen Hill,1480,#1480 #01480,3901 Aspen Hill Rd,MD,20906
Kohls,Danville,1481,#1481 #01481,3707 N Vermilion St,IL,61832
Kohls,Houma,1484,#1484 #01484,1779 Mlk Blvd Suite 400,LA,70360
Kohls,Ottumwa,1487,#1487 #01487,1100 Wildwood Dr,IA,52501
Kohls,Decatur,1492,#1492 #01492,2407 6th Ave SE,AL,35601
Kohls,Greenwood,1493,#1493 #01493,259 Hospitality Blvd,SC,29649
Kohls,Hutchinson,1494,#1494 #01494,1300 E 17th Ave,KS,67501
Kohls,Minot,1497,#1497 #01497,1905 22nd Ave SW,ND,58701
Kohls,Ames,1499,#1499 #01499,2423 Grand Ave,IA,50010
Kohls,Michigan City,1500,#1500 #01500,210 Dunes Plz,IN,46360
Kohls,Sherwood,1501,#1501 #01501,16685 SW 12th St,OR,97140
Kohls,Slidell,1502,#1502 #01502,310 Town Center Pkwy,LA,70458
Kohls,Keene,1503,#1503 #01503,480 West St,NH,3431
Kohls,Hermitage,1504,#1504 #01504,570 S Hermitage Rd,PA,16148
Kohls,Hyannis,1506,#1506 #01506,65 Independence Dr,MA,2601
