keywords,city,Aggdata Store Number,store_number,address,state,zip_code
Kum & Go,Hampton,1,#1 #01 1,609 Central Ave W,IA,50441
Kum & Go,Lamoni,4,#4 #04 4,2091 E Main St,IA,50140
Kum & Go,Mason City,6,#6 #06 6,1920 S Federal Ave,IA,50401
Kum & Go,West Des Moines,8,#8 #08 8,1293 8th St,IA,50265
Kum & Go,Grinnell,22,#22 #022 22,715 Lang Creek Ave,IA,50112
Kum & Go,Neola,23,#23 #023 23,29356 298th St,IA,51559
Kum & Go,Pleasant Hill,24,#24 #024 24,5970 Morning Star Ct,IA,50317
Kum & Go,Adrian,26,#26 #026 26,305 N Maine Ave,MN,56110
Kum & Go,Norwalk,28,#28 #028 28,2991 Sunset Dr,IA,50211
Kum & Go,Sarcoxie,29,#29 #029 29,2577 High St,MO,64862
Kum & Go,Colfax,32,#32 #032 32,1200 N Walnut St,IA,50054
Kum & Go,Ottumwa,37,#37 #037 37,2508 N Court St,IA,52501
Kum & Go,Ottumwa,38,#38 #038 38,534 Church St,IA,52501
Kum & Go,Ottumwa,40,#40 #040 40,502 2nd St W,IA,52501
Kum & Go,New Virginia,43,#43 #043 43,1453 County Highway G76,IA,50210
Kum & Go,Walnut,46,#46 #046 46,1709 Antique City Dr,IA,51577
Kum & Go,Newton,47,#47 #047 47,1708 S 8th Ave E,IA,50208
Kum & Go,West Des Moines,50,#50 #050 50,745 S 51st St,IA,50265
Kum & Go,Iowa City,51,#51 #051 51,323 E Burlington St,IA,52240-1606
Kum & Go,Iowa City,52,#52 #052 52,25 W Burlington St,IA,52240-3812
Kum & Go,Iowa City,53,#53 #053 53,955 Morman Trek Blvd,IA,52246-4410
Kum & Go,Bevington,56,#56 #056 56,101 E IA Highway 92,IA,50033
Kum & Go,Waukee,59,#59 #059 59,400 Prairie Bluff Dr,IA,50263
Kum & Go,Johnston,62,#62 #062 62,6130 NW 86th St,IA,50131
Kum & Go,West Des Moines,66,#66 #066 66,5308 University Ave,IA,50266
Kum & Go,West Des Moines,74,#74 #074 74,141 S Jordan Creek Pkwy,IA,50266
Kum & Go,Waukee,75,#75 #075 75,350 SE University Ave,IA,50263
Kum & Go,Adair,76,#76 #076 76,109 S 5th St,IA,50002
Kum & Go,Riverside,80,#80 #080 80,1178 Enterprise Dr,IA,52327
Kum & Go,Casey,83,#83 #083 83,501 McPherson St,IA,50048
Kum & Go,Fort Dodge,87,#87 #087 87,1601 5th Ave,IA,50501-5030
Kum & Go,Fort Dodge,89,#89 #089 89,115 N 22nd St,IA,50501-3526
Kum & Go,Boone,90,#90 #090 90,1704 S Story St,IA,50036
Kum & Go,Ankeny,92,#92 #092 92,1025 E 1st St,IA,50021
Kum & Go,De Soto,95,#95 #095 95,1203 Guthrie St,IA,50069
Kum & Go,Webster City,96,#96 #096 96,1803 Superior St,IA,50595
Kum & Go,West Des Moines,97,#97 #097 97,196 S 50th St,IA,50265
Kum & Go,Truro,101,#101 #0101 101,318 E North St,IA,50257
Kum & Go,Mason City,109,#109 #0109 109,1224 N Federal Ave,IA,50401
Kum & Go,Ames,113,#113 #0113 113,2801 E 13th St,IA,50010
Kum & Go,Perry,115,#115 #0115 115,1115 IA Highway 141,IA,50220
Kum & Go,Willmar,116,#116 #0116 116,2550 US Highway 12 E,MN,56201
Kum & Go,Spirit Lake,117,#117 #0117 117,300 18th St,IA,51360
Kum & Go,Des Moines,120,#120 #0120 120,101 SW Army Post Rd,IA,50315
Kum & Go,Urbandale,121,#121 #0121 121,12041 Douglas Pkwy,IA,50322
Kum & Go,Story City,124,#124 #0124 124,1554 Broad St,IA,50248
Kum & Go,Story City,125,#125 #0125 125,527 Park Ave,IA,50248
Kum & Go,Johnston,129,#129 #0129 129,5225 NW 86th St,IA,50131
Kum & Go,Des Moines,130,#130 #0130 130,2930 Hickman Rd,IA,50310
Kum & Go,Ellsworth,133,#133 #0133 133,1111 IA Highway 175,IA,50075
Kum & Go,Fairfield,134,#134 #0134 134,1601 W Burlington Ave,IA,52556
Kum & Go,Polk City,135,#135 #0135 135,303 W Broadway St,IA,50226
Kum & Go,Tiffin,137,#137 #0137 137,101 Village Dr,IA,52340
Kum & Go,Little Rock,140,#140 #0140 140,6201 Colonel Glenn Rd,AR,72204
Kum & Go,Grimes,141,#141 #0141 141,1880 SE Princeton Dr,IA,50111
Kum & Go,Cabot,143,#143 #0143 143,1303 S Pine St,AR,72023
Kum & Go,North Little Rock,144,#144 #0144 144,5216 JFK Blvd,AR,72116
Kum & Go,Little Rock,146,#146 #0146 146,7620 Baseline Rd,AR,72209
Kum & Go,Bryant,147,#147 #0147 147,1709 N Reynolds Rd,AR,72022
Kum & Go,Sherwood,150,#150 #0150 150,3400 E Kiehl Ave,AR,72120
Kum & Go,North Little Rock,152,#152 #0152 152,3220 Springhill Dr,AR,72117
Kum & Go,North Little Rock,153,#153 #0153 153,8801 Maumelle Blvd,AR,72113
Kum & Go,Maumelle,155,#155 #0155 155,21510 Hwy 365 N,AR,72113
Kum & Go,Clive,156,#156 #0156 156,15600 Hickman Rd,IA,50325
Kum & Go,Urbandale,157,#157 #0157 157,4585 156th St,IA,50323
Kum & Go,Conway,158,#158 #0158 158,2050 Dave Ward Dr,AR,72032
Kum & Go,Conway,159,#159 #0159 159,4095 Prince St,AR,72034
Kum & Go,Urbandale,170,#170 #0170 170,6990 Douglas Ave,IA,50322
Kum & Go,Sherburn,187,#187 #0187 187,600 MN Highway 4,MN,56171
Kum & Go,Des Moines,194,#194 #0194 194,4001 SW 9th St,IA,50315
Kum & Go,Webster City,196,#196 #0196 196,1102 2nd St,IA,50595
Kum & Go,Ames,200,#200 #0200 200,4510 Mortensen Rd,IA,50014
Kum & Go,Coralville,201,#201 #0201 201,822 1st Ave,IA,52241-2106
Kum & Go,Waukee,202,#202 #0202 202,85 4th St,IA,50263
Kum & Go,Perry,203,#203 #0203 203,1219 1st St,IA,50220
Kum & Go,Red Oak,204,#204 #0204 204,710 N Broadway St,IA,51566
Kum & Go,Clive,206,#206 #0206 206,1725 NW 86th,IA,50325
Kum & Go,Des Moines,207,#207 #0207 207,4200 E Hubbell Ave,IA,50317
Kum & Go,Des Moines,208,#208 #0208 208,3200 SE 14th St,IA,50320
Kum & Go,Waterloo,211,#211 #0211 211,1976 Franklin St,IA,50703
Kum & Go,Waterloo,212,#212 #0212 212,117 E San Marnan Dr,IA,50702
Kum & Go,Ames,214,#214 #0214 214,111 Duff Ave,IA,50010
Kum & Go,Ames,215,#215 #0215 215,4506 Lincoln Way,IA,50010
Kum & Go,Ames,216,#216 #0216 216,203 Welch Ave,IA,50010
Kum & Go,Council Bluffs,219,#219 #0219 219,154 Bennett Ave,IA,51503
Kum & Go,Council Bluffs,220,#220 #0220 220,2024 5th Ave,IA,51501
Kum & Go,Sioux City,221,#221 #0221 221,1401 Court St,IA,51105
Kum & Go,Grinnell,222,#222 #0222 222,1002 West St,IA,50112
Kum & Go,Sioux City,223,#223 #0223 223,2626 Court St,IA,51104
Kum & Go,Sioux City,224,#224 #0224 224,2930 Gordon Dr,IA,51106
Kum & Go,Sioux City,225,#225 #0225 225,1031 Morningside Ave,IA,51106
Kum & Go,Sioux City,226,#226 #0226 226,1373 Pierce St,IA,51105
Kum & Go,Ames,227,#227 #0227 227,2108 Isaac Newton Dr,IA,50010
Kum & Go,Sioux City,228,#228 #0228 228,1925 S Lakeport St,IA,51106
Kum & Go,Sioux City,229,#229 #0229 229,1821 Hamilton Blvd,IA,51103
Kum & Go,Glenwood,235,#235 #0235 235,1 N Locust St,IA,51534
Kum & Go,Grimes,237,#237 #0237 237,801 N 1st St,IA,50111
Kum & Go,Jefferson,238,#238 #0238 238,303 N Elm St,IA,50129
Kum & Go,Norwalk,240,#240 #0240 240,530 North Ave,IA,50211
Kum & Go,Winterset,246,#246 #0246 246,111 E Jefferson,IA,50273
Kum & Go,Sioux City,248,#248 #0248 248,2026 Riverside Blvd,IA,51109
Kum & Go,South Sioux City,250,#250 #0250 250,3808 Dakota Ave,NE,68776
Kum & Go,West Branch,254,#254 #0254 254,620 S Downey St,IA,52358
Kum & Go,Tipton,267,#267 #0267 267,2050 IA Highway 38,IA,52772
Kum & Go,Ankeny,292,#292 #0292 292,1825 N Ankeny Blvd,IA,50021
Kum & Go,Clear Lake,301,#301 #0301 301,2005 US Highway 18 E,IA,50428
Kum & Go,Clear Lake,302,#302 #0302 302,2905 4th Ave S,IA,50428
Kum & Go,Newton,333,#333 #0333 333,405 1st Ave E,IA,50208
Kum & Go,Columbus,338,#338 #0338 338,771 33rd Ave,NE,68601
Kum & Go,Norfolk,346,#346 #0346 346,101 Omaha Ave,NE,68701
Kum & Go,Omaha,347,#347 #0347 347,3352 N 108th St,NE,68164
Kum & Go,Omaha,348,#348 #0348 348,12011 Blondo St,NE,68134
Kum & Go,Paragould,349,#349 #0349 349,3400 Linwood Dr,AR,72450
Kum & Go,Omaha,351,#351 #0351 351,720 N 108th Ct,NE,68154
Kum & Go,Omaha,352,#352 #0352 352,1010 S 154th St,NE,68154
Kum & Go,Omaha,360,#360 #0360 360,10025 S 168th Ave,NE,68136
Kum & Go,Omaha,361,#361 #0361 361,1010 S 189th St,NE,68022
Kum & Go,Jonesboro,362,#362 #0362 362,2214 E Johnson Ave,AR,72401
Kum & Go,Omaha,363,#363 #0363 363,1819 N 72nd St,NE,68104
Kum & Go,Omaha,364,#364 #0364 364,8990 Boyd St,NE,68134
Kum & Go,Omaha,366,#366 #0366 366,4443 S 84th St,NE,68127
Kum & Go,Omaha,367,#367 #0367 367,18908 Q St,NE,68135
Kum & Go,Omaha,368,#368 #0368 368,4041 N 168th St,NE,68116
Kum & Go,Omaha,369,#369 #0369 369,11111 Emmet St,NE,68164
Kum & Go,Gretna,370,#370 #0370 370,11205 Wickersham Blvd,NE,68028
Kum & Go,Omaha,371,#371 #0371 371,13149 Fort St,NE,68164
Kum & Go,Omaha,372,#372 #0372 372,7152 Pacific St,NE,68106-1022
Kum & Go,Bellevue,373,#373 #0373 373,13905 Williamsburg Dr,NE,68005
Kum & Go,Papillion,374,#374 #0374 374,10764 Virginia Plz,NE,68046
Kum & Go,Omaha,376,#376 #0376 376,2627 S HWS Cleveland Blvd,NE,68130
Kum & Go,Omaha,377,#377 #0377 377,8242 Maple St,NE,68134
Kum & Go,Omaha,378,#378 #0378 378,14353 Q St,NE,68137
Kum & Go,Black Rock,379,#379 #0379 379,3430 US Highway 63,AR,72450
Kum & Go,Fort Smith,380,#380 #0380 380,2112 Dodson Ave,AR,72901
Kum & Go,Harrison,381,#381 #0381 381,524 Highway 62-65 S,AR,72601
Kum & Go,Lowell,382,#382 #0382 382,104 S Bloomington St,AR,72745
Kum & Go,Springdale,383,#383 #0383 383,1010 N Thompson St,AR,72764
Kum & Go,Springdale,384,#384 #0384 384,2351 W Sunset Ave,AR,72764
Kum & Go,Van Buren,385,#385 #0385 385,2720 Alma Hwy,AR,72956
Kum & Go,Bono,386,#386 #0386 386,200 US Highway 63,AR,72416
Kum & Go,Bono,387,#387 #0387 387,10144 US Highway 63,AR,72416
Kum & Go,Brookland,388,#388 #0388 388,801 N Holman St,AR,72450
Kum & Go,Jonesboro,389,#389 #0389 389,2028 N Church St,AR,72401
Kum & Go,Jonesboro,390,#390 #0390 390,2515 S Culberhouse St,AR,72401
Kum & Go,Jonesboro,391,#391 #0391 391,4810 E Highland Dr,AR,72401
Kum & Go,Jonesboro,393,#393 #0393 393,3418 E Johnson Ave,AR,72401
Kum & Go,Paragould,394,#394 #0394 394,2625 W Kingshighway,AR,72450
Kum & Go,Jonesboro,395,#395 #0395 395,2607 Stadium Blvd,AR,72401
Kum & Go,Nevada,396,#396 #0396 396,136 Lincoln Hwy,IA,50201
Kum & Go,Jonesboro,397,#397 #0397 397,3105 Stadium Blvd,AR,72401
Kum & Go,Paragould,398,#398 #0398 398,4610 W Kings Hwy,AR,72450
Kum & Go,Lowell,399,#399 #0399 399,978 W Pleasant Grove Rd,AR,72745
Kum & Go,Springdale,400,#400 #0400 400,4231 Elm Springs Rd,AR,72764
Kum & Go,Rogers,401,#401 #0401 401,1701 W New Hope Rd,AR,72756
Kum & Go,Lowell,402,#402 #0402 402,816 W Monroe Ave,AR,72745
Kum & Go,Rogers,403,#403 #0403 403,2400 W Hudson Rd,AR,72756
Kum & Go,Mason City,404,#404 #0404 404,1303 4th St SW,IA,50401
Kum & Go,Bentonville,405,#405 #0405 405,2710 Moberly Ln,AR,72712
Kum & Go,Springdale,406,#406 #0406 406,500 N Old Missouri Rd,AR,72762
Kum & Go,Bentonville,408,#408 #0408 408,2811 E Central Ave,AR,72712
Kum & Go,Fayetteville,409,#409 #0409 409,2388 North College Ave,AR,72703
Kum & Go,Bentonville,412,#412 #0412 412,3610 SW Regional Airport Blvd,AR,72712
Kum & Go,Fayetteville,413,#413 #0413 413,729 W Martin Luther King Blvd,AR,72701
Kum & Go,Springdale,414,#414 #0414 414,1220 E Robinson Ave,AR,72764
Kum & Go,Bentonville,416,#416 #0416 416,800 SE J St,AR,72712
Kum & Go,Springdale,417,#417 #0417 417,500 S Thompson St,AR,72764
Kum & Go,Sioux Center,421,#421 #0421 421,402 N Main Ave,IA,51250
Kum & Go,Iowa City,422,#422 #0422 422,513 S Riverside Dr,IA,52240
Kum & Go,Missouri Valley,430,#430 #0430 430,717 E Erie St,IA,51555
Kum & Go,Battlefield,431,#431 #0431 431,5505 S State Highway FF,MO,65619
Kum & Go,Bolivar,432,#432 #0432 432,3303 W Broadway St,MO,65613
Kum & Go,Bolivar,433,#433 #0433 433,2565 S Springfield Ave,MO,65613
Kum & Go,Clever,434,#434 #0434 434,414 N Public Ave,MO,65631
Kum & Go,Fair Grove,435,#435 #0435 435,103 W Old Mill Rd,MO,65648
Kum & Go,Muscatine,436,#436 #0436 436,501 Cedar St,IA,52761
Kum & Go,Muscatine,437,#437 #0437 437,709 Grandview Ave,IA,52761
Kum & Go,Muscatine,438,#438 #0438 438,1429 Park Ave,IA,52761
Kum & Go,Wapello,439,#439 #0439 439,303 US Highway 61 N,IA,52653
Kum & Go,Hollister,441,#441 #0441 441,195 Gage Dr,MO,65672
Kum & Go,Joplin,442,#442 #0442 442,1631 E 4th St,MO,64804
Kum & Go,Williamsburg,443,#443 #0443 443,2177 M Ave,IA,52361
Kum & Go,Joplin,446,#446 #0446 446,3931 E 7th St,MO,64801
Kum & Go,Joplin,447,#447 #0447 447,2307 W 7th St,MO,64801
Kum & Go,Neosho,449,#449 #0449 449,15679 Kodiak Rd,MO,64850
Kum & Go,Bolivar,452,#452 #0452 452,2560 S Springfield Ave,MO,65613
Kum & Go,Joplin,453,#453 #0453 453,1503 S Range Line Rd,MO,64804
Kum & Go,Joplin,454,#454 #0454 454,3504 S Range Line Rd,MO,64804
Kum & Go,Lebanon,455,#455 #0455 455,501 Cowan Dr,MO,65636
Kum & Go,Lebanon,456,#456 #0456 456,656 N Jefferson Ave,MO,65536-2746
Kum & Go,Republic,458,#458 #0458 458,638 E US Highway 60,MO,65738-1523
Kum & Go,Joplin,459,#459 #0459 459,1832 S Maiden Ln,MO,64801
Kum & Go,Springfield,460,#460 #0460 460,1313 W Battlefield St,MO,65807-4104
Kum & Go,Joplin,461,#461 #0461 461,5958 N Main St,MO,64801
Kum & Go,Springfield,463,#463 #0463 463,425 NW Bypass,MO,65802-5348
Kum & Go,Springfield,464,#464 #0464 464,2808 S Campbell Ave,MO,65807-3613
Kum & Go,Springfield,465,#465 #0465 465,5384 S Campbell Ave,MO,65810-2513
Kum & Go,Springfield,466,#466 #0466 466,2506 W College Rd,MO,65802-4572
Kum & Go,Springfield,467,#467 #0467 467,2963 E Division St,MO,65803-5214
Kum & Go,Springfield,468,#468 #0468 468,609 E Elm St,MO,65806-2427
Kum & Go,Springfield,469,#469 #0469 469,529 S Grant Ave,MO,65806-2007
Kum & Go,Springfield,470,#470 #0470 470,1605 E Kearney St,MO,65803-4105
Kum & Go,Springfield,471,#471 #0471 471,2953 N National Ave,MO,65803-4420
Kum & Go,Springfield,472,#472 #0472 472,1505 N National Ave,MO,65803
Kum & Go,Springfield,473,#473 #0473 473,620 N National Ave,MO,65804-0022
Kum & Go,Springfield,474,#474 #0474 474,2930 S National Ave,MO,65804-3634
Kum & Go,Springfield,475,#475 #0475 475,3416 S National Ave,MO,65807-7307
Kum & Go,Springfield,476,#476 #0476 476,2161 E Republic Ct,MO,65804-6521
Kum & Go,Springfield,478,#478 #0478 478,2782 W Republic Rd,MO,65807
Kum & Go,Springfield,479,#479 #0479 479,510 W Republic Rd,MO,65807-5817
Kum & Go,Springfield,480,#480 #0480 480,3030 S Jefferson Ave,MO,65803-4952
Kum & Go,Springfield,481,#481 #0481 481,3623 E Sunshine St,MO,65809-2822
Kum & Go,Springfield,482,#482 #0482 482,3352 E Sunshine St,MO,65804-2109
Kum & Go,Springfield,483,#483 #0483 483,2404 E Sunshine St,MO,65804-1823
Kum & Go,Springfield,484,#484 #0484 484,1306 W Sunshine St,MO,65807-2345
Kum & Go,Springfield,485,#485 #0485 485,2650 W Sunshine St,MO,65807
Kum & Go,Strafford,486,#486 #0486 486,125 S State Highway 125,MO,65757
Kum & Go,Webb City,487,#487 #0487 487,411 S Madison Ave,MO,64870
Kum & Go,Springfield,488,#488 #0488 488,1704 W Norton Rd,MO,65803
Kum & Go,Springfield,489,#489 #0489 489,4020 W Battlefield St,MO,65807
Kum & Go,Joplin,491,#491 #0491 491,5302 S Range Line Rd,MO,64804
Kum & Go,Monett,492,#492 #0492 492,870 E US Highway 60,MO,65708
Kum & Go,Neosho,493,#493 #0493 493,16140 MO Highway 59,MO,64850
Kum & Go,Nixa,494,#494 #0494 494,402 Massey Blvd,MO,65714
Kum & Go,Nixa,495,#495 #0495 495,102 Ridgecrest Ave,MO,65714
Kum & Go,Mason City,496,#496 #0496 496,418 S Federal Ave,IA,50401
Kum & Go,Republic,497,#497 #0497 497,6935 W US Highway 60,MO,65738
Kum & Go,Rogersville,498,#498 #0498 498,4996 S State Highway 125,MO,65742
Kum & Go,Rogersville,499,#499 #0499 499,1894 S State Highway 125,MO,65742
Kum & Go,Marion,503,#503 #0503 503,3215 7th Ave,IA,52302
Kum & Go,North Liberty,507,#507 #0507 507,610 N Kansas Ave,IA,52317
Kum & Go,Cedar Rapids,508,#508 #0508 508,30 Four Oaks Drive SW,IA,52404
Kum & Go,Marion,509,#509 #0509 509,1203 Blairs Ferry Rd,IA,52302
Kum & Go,Stuart,510,#510 #0510 510,629 S Division St,IA,50250
Kum & Go,Ackley,513,#513 #0513 513,420 Sherman Ave,IA,50601
Kum & Go,Cedar Rapids,514,#514 #0514 514,1420 Mt Vernon Rd SE,IA,52404
Kum & Go,Cedar Rapids,517,#517 #0517 517,3132 1st Ave NE,IA,52406
Kum & Go,Ankeny,518,#518 #0518 518,3603 NE Otter View Cir,IA,50021
Kum & Go,Cedar Rapids,520,#520 #0520 520,2604 16th Ave,IA,52404
Kum & Go,Nevada,533,#533 #0533 533,731 Lincoln Hwy,IA,50201
Kum & Go,Eagle Grove,544,#544 #0544 544,1120 S Commercial Ave,IA,50533
Kum & Go,Rockwell City,545,#545 #0545 545,730 High St,IA,50579
Kum & Go,Springfield,550,#550 #0550 550,3264 E Battlefield St,MO,65804
Kum & Go,Springfield,551,#551 #0551 551,2149 S Campbell Ave,MO,65802
Kum & Go,Clarion,553,#553 #0553 553,300 Central Ave W,IA,50525
Kum & Go,Springfield,554,#554 #0554 554,2744 E Chestnut Expwy,MO,65802
Kum & Go,Springfield,555,#555 #0555 555,3450 W Division St,MO,65802
Kum & Go,Springfield,556,#556 #0556 556,1550 N Glenstone Ave,MO,65803
Kum & Go,Springfield,557,#557 #0557 557,1700 E Valley Water Mill Rd,MO,65803
Kum & Go,Springfield,558,#558 #0558 558,959 S Glenstone Ave,MO,65804
Kum & Go,Springfield,560,#560 #0560 560,215 S Kansas Expwy,MO,65806
Kum & Go,Springfield,561,#561 #0561 561,3445 E Kearney St,MO,65803
Kum & Go,Springfield,562,#562 #0562 562,3449 W Kearney St,MO,65803
Kum & Go,Springfield,563,#563 #0563 563,3015 W Republic Rd,MO,65807
Kum & Go,Humboldt,564,#564 #0564 564,1212 8th Ave N,IA,50548
Kum & Go,Springfield,566,#566 #0566 566,1701 N Smith St,MO,65803
Kum & Go,Springfield,567,#567 #0567 567,2904 E Sunshine St,MO,65804
Kum & Go,Waynesville,568,#568 #0568 568,308 Ichord Ave,MO,65583
Kum & Go,Webb City,569,#569 #0569 569,2587 N Range Line Rd,MO,64870
Kum & Go,Johnston,570,#570 #0570 570,5800 Northglenn Dr,IA,50131
Kum & Go,Mount Vernon,571,#571 #0571 571,900 E Mt Vernon Blvd,MO,65712
Kum & Go,Urbandale,572,#572 #0572 572,4860 NW Urbandale Dr,IA,50322
Kum & Go,Des Moines,573,#573 #0573 573,5830 SE 14th St,IA,50315
Kum & Go,Urbandale,574,#574 #0574 574,8600 Meredith Dr,IA,50322
Kum & Go,West Des Moines,576,#576 #0576 576,3501 EP True Pkwy,IA,50265
Kum & Go,St Robert,578,#578 #0578 578,130 Old Route 66,MO,65584
Kum & Go,Ankeny,579,#579 #0579 579,165 SW Magazine Rd,IA,50023
Kum & Go,Algona,582,#582 #0582 582,220 S Phillips St,IA,50511
Kum & Go,Okoboji,608,#608 #0608 608,1001 Sanborn Ave,IA,51355
Kum & Go,Sioux Falls,611,#611 #0611 611,501 N Minnesota Ave,SD,57104
Kum & Go,Ottumwa,612,#612 #0612 612,1317 E Mary St,IA,52501
Kum & Go,Elk Point,615,#615 #0615 615,32562 477th Ave,SD,57025
Kum & Go,Sioux Falls,616,#616 #0616 616,6001 S Western Ave,SD,57108
Kum & Go,Sioux Falls,618,#618 #0618 618,4721 E 26th St,SD,57110
Kum & Go,Sioux Falls,620,#620 #0620 620,412 N Sycamore Ave,SD,57110
Kum & Go,Sioux Falls,625,#625 #0625 625,7100 W 41st St,SD,57106
Kum & Go,Denison,630,#630 #0630 630,1108 4th Ave S,IA,51442
Kum & Go,Sioux Falls,631,#631 #0631 631,1400 N Cliff Ave,SD,57101
Kum & Go,Monument,650,#650 #0650 650,1410 Cipriani Lp,CO,80132
Kum & Go,Centerville,652,#652 #0652 652,830 N 18th St,IA,52544
Kum & Go,Mason City,656,#656 #0656 656,637 12th St NE,IA,50401
Kum & Go,Colorado Springs,657,#657 #0657 657,2190 Vickers Dr,CO,80903
Kum & Go,Colorado Springs,658,#658 #0658 658,6125 Barnes Rd,CO,80922
Kum & Go,Olin,662,#662 #0662 662,400 Jackson St,IA,52320
Kum & Go,Colorado Springs,663,#663 #0663 663,5771 N Carefree Cir,CO,80917
Kum & Go,Colorado Springs,665,#665 #0665 665,1206 Interquest Pkwy,CO,80921
Kum & Go,Colorado Springs,667,#667 #0667 667,7385 Duryea Rd,CO,80920
Kum & Go,Colorado Springs,669,#669 #0669 669,6735 N Carefree Cir,CO,80922
Kum & Go,Fountain,670,#670 #0670 670,8050 Fountain Mesa Rd,CO,80817
Kum & Go,Colorado Springs,672,#672 #0672 672,3025 Hancock Expy,CO,80916
Kum & Go,Colorado Springs,673,#673 #0673 673,620 E Fillmore St,CO,80907
Kum & Go,Colorado Springs,674,#674 #0674 674,1021 S Nevada Ave,CO,80903
Kum & Go,Marshalltown,701,#701 #0701 701,613 N 3rd Ave,IA,50158
Kum & Go,Mason City,727,#727 #0727 727,1465 4th St SE,IA,50401
Kum & Go,Hospers,768,#768 #0768 768,107 IA Highway 60,IA,51238
Kum & Go,Pocahontas,772,#772 #0772 772,700 W Elm Ave,IA,50574
Kum & Go,Urbandale,777,#777 #0777 777,8228 Douglas Ave,IA,50322
Kum & Go,Smithville,778,#778 #0778 778,1102 S US Highway 169,MO,64089
Kum & Go,Bethany,779,#779 #0779 779,3807 Miller St,MO,64424
Kum & Go,Bowman,801,#801 #0801 801,611 1st Ave SW,ND,58623
Kum & Go,Dickinson,802,#802 #0802 802,1005 E Villard St,ND,58601
Kum & Go,Watford City,804,#804 #0804 804,124 Main St S,ND,58854
Kum & Go,Williston,805,#805 #0805 805,910 11th St E,ND,58801
Kum & Go,Williston,806,#806 #0806 806,621 26th St W,ND,58801
Kum & Go,Williston,807,#807 #0807 807,1404 2nd St W,ND,58801
Kum & Go,Plentywood,808,#808 #0808 808,211 1st Ave W,MT,59254
Kum & Go,Bismarck,813,#813 #0813 813,207 E Rosser Ave,ND,58501
Kum & Go,Minot,816,#816 #0816 816,2626 E Burdick Expy,ND,58701
Kum & Go,Fargo,818,#818 #0818 818,2237 13th Ave S,ND,58102
Kum & Go,Claremore,820,#820 #0820 820,1302 W Will Rogers Blvd,OK,74017
Kum & Go,Bixby,834,#834 #0834 834,11115 S Memorial Dr,OK,74008-2032
Kum & Go,Bixby,835,#835 #0835 835,13101 S Memorial Dr,OK,74008-3107
Kum & Go,Broken Arrow,837,#837 #0837 837,24101 S State Highway 51,OK,74014-9246
Kum & Go,Broken Arrow,838,#838 #0838 838,1000 E Kenosha St,OK,74012
Kum & Go,Broken Arrow,839,#839 #0839 839,2100 W New Orleans St,OK,74012
Kum & Go,Claremore,840,#840 #0840 840,1100 N Lynn Riggs Blvd,OK,74017-3040
Kum & Go,Claremore,841,#841 #0841 841,1035 E Will Rogers Blvd,OK,74017
Kum & Go,Cushing,842,#842 #0842 842,2001 E Main St,OK,74023
Kum & Go,Jenks,844,#844 #0844 844,11030 S Elm St,OK,74037
Kum & Go,Locust Grove,846,#846 #0846 846,701 S OK Highway 82,OK,74352
Kum & Go,Muskogee,849,#849 #0849 849,702 S 32nd St,OK,74401-5013
Kum & Go,Muskogee,850,#850 #0850 850,2315 E Chandler Rd,OK,74403-4628
Kum & Go,Muskogee,851,#851 #0851 851,4001 W Okmulgee Ave,OK,74401-4658
Kum & Go,Muskogee,852,#852 #0852 852,76 E Peak Blvd,OK,74403
Kum & Go,Muskogee,853,#853 #0853 853,29 W Southside Blvd,OK,74403-7046
Kum & Go,Owasso,858,#858 #0858 858,307 E 2nd Ave,OK,74055-3202
Kum & Go,Owasso,859,#859 #0859 859,12807 E 86th St N,OK,74055-3202
Kum & Go,Pawhuska,860,#860 #0860 860,2101 E Main St,OK,74056
Kum & Go,Pryor,861,#861 #0861 861,901 S Mill Rd,OK,74361-6801
Kum & Go,Sand Springs,862,#862 #0862 862,230 S Adams Rd,OK,74063
Kum & Go,Sapulpa,863,#863 #0863 863,709 N 9th St,OK,74066
Kum & Go,Skiatook,864,#864 #0864 864,951 W Rogers Blvd,OK,74070-1015
Kum & Go,Tulsa,865,#865 #0865 865,7675 E 51st St,OK,74145
Kum & Go,Tulsa,866,#866 #0866 866,14495 E 51st St S,OK,74134
Kum & Go,Tulsa,867,#867 #0867 867,11296 E 71st St,OK,74133
Kum & Go,Tulsa,871,#871 #0871 871,5105 S Mingo Rd,OK,74146
Kum & Go,Tulsa,872,#872 #0872 872,10021 S Mingo Rd,OK,74133
Kum & Go,Tulsa,873,#873 #0873 873,3939 S Peoria Ave,OK,74105-3130
Kum & Go,Tulsa,874,#874 #0874 874,10010 S Riverside Pkwy,OK,74137
Kum & Go,Jenks,875,#875 #0875 875,510 S Elm St,OK,74037
Kum & Go,Owasso,876,#876 #0876 876,14505 E 86th St N,OK,74055
Kum & Go,Broken Arrow,877,#877 #0877 877,1050 E Albany St,OK,74012
Kum & Go,Stillwater,878,#878 #0878 878,1890 N Perkins Rd,OK,74075
Kum & Go,Broken Arrow,879,#879 #0879 879,8001 S Garnett Rd,OK,74012
Kum & Go,Lone Chimney,880,#880 #0880 880,"Cimarron Turnpike, Exit 36",OK,74058
Kum & Go,Tulsa,881,#881 #0881 881,2502  N Harvard Ave,OK,74115
Kum & Go,Tulsa,883,#883 #0883 883,2109 S Sheridan Rd,OK,74129
Kum & Go,Broken Arrow,884,#884 #0884 884,3621 S Elm St,OK,74011
Kum & Go,Tulsa,885,#885 #0885 885,4728 S Yale Ave,OK,74135
Kum & Go,Owasso,886,#886 #0886 886,10603 E 86th St N,OK,74055
Kum & Go,Tulsa,887,#887 #0887 887,1111 W 81st St S,OK,74132
Kum & Go,Yampa,900,#900 #0900 900,16065 CO Highway 131,CO,80483
Kum & Go,Craig,901,#901 #0901 901,895 Yampa Ave,CO,81625
Kum & Go,Craig,902,#902 #0902 902,1302 W Victory Way,CO,81625
Kum & Go,Craig,903,#903 #0903 903,700 E Victory Way,CO,81625
Kum & Go,Silt,905,#905 #0905 905,905 Main St,CO,81652
Kum & Go,Battlement Mesa,906,#906 #0906 906,10 Stone Quarry Rd,CO,81635
Kum & Go,Silverthorne,907,#907 #0907 907,101 Ruby Ranch Rd,CO,80498
Kum & Go,Kremmling,909,#909 #0909 909,605 Park Ave,CO,80459
Kum & Go,Greeley,910,#910 #0910 910,366 71st Ave,CO,80634
Kum & Go,Conifer,912,#912 #0912 912,30393 Kings Valley Dr,CO,80433
Kum & Go,Longmont,913,#913 #0913 913,13799 Pacific Cir,CO,80504
Kum & Go,Greeley,914,#914 #0914 914,7027 20th St,CO,80634
Kum & Go,Leadville,915,#915 #0915 915,300 Harrison Ave,CO,80461
Kum & Go,Leadville,916,#916 #0916 916,203 Mountain View Dr,CO,80461
Kum & Go,Rangely,919,#919 #0919 919,317 E Main St,CO,81648
Kum & Go,Steamboat Springs,920,#920 #0920 920,2032 Curve Plz,CO,80477
Kum & Go,Rifle,921,#921 #0921 921,120 E 1st St,CO,81650
Kum & Go,Rifle,922,#922 #0922 922,120 E 26th St,CO,81650
Kum & Go,New Castle,927,#927 #0927 927,801 Castle Valley Blvd,CO,81647
Kum & Go,Steamboat Springs,928,#928 #0928 928,80 Anglers Dr,CO,80477
Kum & Go,Battlement Mesa,929,#929 #0929 929,59 Tamarisk Trl,CO,81635
Kum & Go,Brighton,930,#930 #0930 930,2150 E Bridge St,CO,80601
Kum & Go,Evans,931,#931 #0931 931,2901 37th St,CO,80620
Kum & Go,Loveland,933,#933 #0933 933,115 Knobcone Dr,CO,80538
Kum & Go,Wellington,934,#934 #0934 934,8150 6th St,CO,80549
Kum & Go,Gypsum,935,#935 #0935 935,103 Oakridge Dr,CO,81637
Kum & Go,De Beque,937,#937 #0937 937,4530 Old US Highway 6,CO,81630
Kum & Go,Granby,938,#938 #0938 938,308 Agate Ave,CO,80446
Kum & Go,Brighton,940,#940 #0940 940,70 W Bridge St,CO,80601
Kum & Go,Greeley,942,#942 #0942 942,6503 29th St,CO,80634
Kum & Go,Cheyenne,952,#952 #0952 952,3354 E Lincolnway,WY,82001
Kum & Go,Buffalo,953,#953 #0953 953,109 N Main St,WY,82834
Kum & Go,Casper,954,#954 #0954 954,1455 S McKinley St,WY,82601
Kum & Go,Cheyenne,955,#955 #0955 955,1617 S Greeley Hwy,WY,82009
Kum & Go,Cheyenne,956,#956 #0956 956,215 E Lincolnway,WY,82001
Kum & Go,Cheyenne,957,#957 #0957 957,4505 Ridge Rd,WY,82001
Kum & Go,Evansville,958,#958 #0958 958,3 Curtiss St,WY,82636
Kum & Go,Gillette,959,#959 #0959 959,719 N US Highway 14-16,WY,82716
Kum & Go,Gillette,960,#960 #0960 960,1504 US Highway 14-16,WY,82716
Kum & Go,Gillette,961,#961 #0961 961,310 Skyline Dr,WY,82716
Kum & Go,Kemmerer,963,#963 #0963 963,1209 Beech St,WY,83101
Kum & Go,Laramie,964,#964 #0964 964,569 N 3rd St,WY,82070
Kum & Go,Rawlins,966,#966 #0966 966,1115 N Higley Blvd,WY,82301
Kum & Go,Rock Springs,967,#967 #0967 967,1806 Elk St,WY,82901
Kum & Go,Rock Springs,968,#968 #0968 968,2004 Dewer Dr,WY,82901
Kum & Go,Rock Springs,969,#969 #0969 969,1540 9th St,WY,82901
Kum & Go,Saratoga,970,#970 #0970 970,312 S 1st St,WY,82331
Kum & Go,Boulder,972,#972 #0972 972,2375 Canyon Blvd,CO,80302-5605
Kum & Go,Dacono,973,#973 #0973 973,127 Laura Way,CO,80514
Kum & Go,Idaho Springs,975,#975 #0975 975,1319 Miner St,CO,80452
Kum & Go,Eagle,978,#978 #0978 978,18 Market St,CO,81631
Kum & Go,Bristow,981,#981 #0981 981,510 S Main St,OK,74010
Kum & Go,Coweta,982,#982 #0982 982,15139 S OK Highway 72,OK,74429
Kum & Go,Muskogee,986,#986 #0986 986,3305 Chandler Rd,OK,74403
Kum & Go,Muskogee,987,#987 #0987 987,2400 E Hancock Rd,OK,74403
Kum & Go,Muskogee,989,#989 #0989 989,3450 E Shawnee Rd,OK,74401
Kum & Go,Wagoner,991,#991 #0991 991,2221 W OK Highway 51,OK,74467
Kum & Go,Loveland,995,#995 #0995 995,1600 E Eisenhower Blvd,CO,80537
Kum & Go,Oskaloosa,1273,#1273 #01273 1273,1201 N Market St,IA,52577
Kum & Go,Eldora,1959,#1959 #01959 1959,2359 Edgington Ave,IA,50627
Kum & Go,West Des Moines,2035,#2035 #02035 2035,7265 Vista Dr,IA,50266
Kum & Go,West Des Moines,2091,#2091 #02091 2091,5969 Ashworth Rd,IA,50266
Kum & Go,Adel,2093,#2093 #02093 2093,409 Nile Kinnick Dr,IA,50003
Kum & Go,Boone,2217,#2217 #02217 2217,315 Story St,IA,50036
Kum & Go,Des Moines,2722,#2722 #02722 2722,2211 University Ave,IA,50311
Kum & Go,Des Moines,2731,#2731 #02731 2731,3104 University Ave,IA,50311
Kum & Go,Hettinger,2811,#2811 #02811 2811,306 Adams Ave,ND,58639
Kum & Go,Tioga,2812,#2812 #02812 2812,518 2nd St NE,ND,58852
Kum & Go,Meeker,2925,#2925 #02925 2925,39065 CO Highway 13,CO,81641
Kum & Go,Glenwood Springs,2926,#2926 #02926 2926,2510 Gilstrap Ct,CO,81601
Kum & Go,Ankeny,4020,#4020 #04020 4020,1910 SW White Birch Cir,IA,50023
Kum & Go,Altoona,4084,#4084 #04084 4084,101 8th St SW,IA,50009
Kum & Go,Windsor Heights,4098,#4098 #04098 4098,7229 University Ave,IA,50311
Kum & Go,Des Moines,4110,#4110 #04110 4110,2110 Guthrie Ave,IA,50317
Kum & Go,Sloan,4127,#4127 #04127 4127,1864 Old Hwy 141,IA,51055
Kum & Go,Belmond,4786,#4786 #04786 4786,112 River Ave S,IA,50421
Kum & Go,Hayden,4904,#4904 #04904 4904,230 W Jefferson Ave,CO,81639
Kum & Go,Rifle,4923,#4923 #04923 4923,705 Taughenbaugh Blvd,CO,81650
Kum & Go,Rifle,4924,#4924 #04924 4924,1248 Railroad Ave,CO,81650
Kum & Go,Glenwood Springs,4951,#4951 #04951 4951,105 6th St,CO,81601
Kum & Go,Manson,5100,#5100 #05100 5100,208 Main St,IA,50563
