keywords,city,Aggdata Store Number,store_number,address,state,zip_code
Kwik Shop,Davenport,67200593,593 #593 #0593 67200593 67100593,303 W Locust St,IA,52803
Kwik Shop,Bellevue,67200670,670 #670 #0670 67200670 67100670,2103 Capehart Rd,NE,68123
Kwik Shop,Omaha,67200673,673 #673 #0673 67200673 67100673,5306 N 103Rd St,NE,68134
Kwik Shop,Topeka,67200713,713 #713 #0713 67200713 67100713,5700 Sw 21St St,KS,66604
Kwik Shop,Wichita,67200727,727 #727 #0727 67200727 67100727,7107 W 37Th St N,KS,67205
Kwik Shop,Newton,67200730,730 #730 #0730 67200730 67100730,1315 Washington Rd,KS,67114
Kwik Shop,Newton,67200735,735 #735 #0735 67200735 67100735,1220 N Main St,KS,67114
Kwik Shop,Derby,67200751,751 #751 #0751 67200751 67100751,200 W Patriot Ave,KS,67037
Kwik Shop,Wichita,67200754,754 #754 #0754 67200754 67100754,4811 S Seneca St,KS,67217
Kwik Shop,Goddard,67200756,756 #756 #0756 67200756 67100756,20300 W Kellogg Dr,KS,67052
Kwik Shop,Valley Center,67200771,771 #771 #0771 67200771 67100771,110 E 5Th St,KS,67147
Kwik Shop,Topeka,67200780,780 #780 #0780 67200780 67100780,2520 SW 6Th Ave,KS,66606
Kwik Shop,Wichita,67200790,790 #790 #0790 67200790 67100790,3750 North Maize Rd.,KS,67205
Kwik Shop,Germantown,67100201,201 #201 #0201 67200201 67100201,9423 Poplar Ave Hwy 72,TN,38138
Kwik Shop,Cordova,67100202,202 #202 #0202 67200202 67100202,1210 N Germantown Pkwy,TN,38016
Kwik Shop,Bartlett,67100203,203 #203 #0203 67200203 67100203,6740 Stage Rd,TN,38134
Kwik Shop,Memphis,67100204,204 #204 #0204 67200204 67100204,751 Truse Pkwy,TN,38117
Kwik Shop,Memphis,67100205,205 #205 #0205 67200205 67100205,5274 Riverdale Rd,TN,38141
Kwik Shop,Memphis,67100206,206 #206 #0206 67200206 67100206,9027 US Hwy 64,TN,38002
Kwik Shop,Horn Lake,67100300,300 #300 #0300 67200300 67100300,3950 Goodman Rd W,MS,38637
Kwik Shop,Southaven,67100301,301 #301 #0301 67200301 67100301,945A Goodman Rd E,MS,38671
Kwik Shop,Carter Lake,67200520,520 #520 #0520 67200520 67100520,1202 Locust St,IA,51510
Kwik Shop,Council Bluffs,67200527,527 #527 #0527 67200527 67100527,3632 Avenue G,IA,51501
Kwik Shop,Council Bluffs,67200532,532 #532 #0532 67200532 67100532,1602 Avenue G,IA,51501
Kwik Shop,Glenwood,67200541,541 #541 #0541 67200541 67100541,309 N Locust St,IA,51534
Kwik Shop,Cedar Rapids,67200560,560 #560 #0560 67200560 67100560,3301 J St Sw,IA,52404
Kwik Shop,Cedar Rapids,67200561,561 #561 #0561 67200561 67100561,2904 Center Point Rd Ne,IA,52402
Kwik Shop,Cedar Rapids,67200563,563 #563 #0563 67200563 67100563,1001 1St Ave Sw,IA,52405
Kwik Shop,Cedar Rapids,67200565,565 #565 #0565 67200565 67100565,4201 Center Point Rd Ne,IA,52402
Kwik Shop,Hiawatha,67200568,568 #568 #0568 67200568 67100568,300 E Blairs Ferry Rd,IA,52233
Kwik Shop,Davenport,67200577,577 #577 #0577 67200577 67100577,1732 Marquette St,IA,52804
Kwik Shop,Davenport,67200578,578 #578 #0578 67200578 67100578,2242 E 12Th St,IA,52803
Kwik Shop,Davenport,67200579,579 #579 #0579 67200579 67100579,2805 Telegraph Rd,IA,52804
Kwik Shop,Davenport,67200583,583 #583 #0583 67200583 67100583,3129 Rockingham Rd,IA,52802
Kwik Shop,Davenport,67200584,584 #584 #0584 67200584 67100584,3624 W Locust St,IA,52804
Kwik Shop,Davenport,67200586,586 #586 #0586 67200586 67100586,201 W 53Rd St,IA,52806
Kwik Shop,Davenport,67200587,587 #587 #0587 67200587 67100587,1670 W Kimberly,IA,52806
Kwik Shop,Davenport,67200588,588 #588 #0588 67200588 67100588,1136 E Locust St,IA,52803
Kwik Shop,Eldridge,67200589,589 #589 #0589 67200589 67100589,1 Grove Rd,IA,52748
Kwik Shop,Lincoln,67200618,618 #618 #0618 67200618 67100618,4750 Calvert St,NE,68506
Kwik Shop,Lincoln,67200619,619 #619 #0619 67200619 67100619,2302 Cornhusker Hwy,NE,68521
Kwik Shop,Omaha,67200622,622 #622 #0622 67200622 67100622,9545 Q St,NE,68127
Kwik Shop,Elkhorn,67200623,623 #623 #0623 67200623 67100623,3103 N 204Th St,NE,68022
Kwik Shop,Lincoln,67200632,632 #632 #0632 67200632 67100632,3602 Touzalin,NE,68506
Kwik Shop,Lincoln,67200634,634 #634 #0634 67200634 67100634,2940 N 14Th St,NE,68521
Kwik Shop,Lincoln,67200635,635 #635 #0635 67200635 67100635,2330 N 1St St,NE,68521
Kwik Shop,Lincoln,67200637,637 #637 #0637 67200637 67100637,2710 W St,NE,68503
Kwik Shop,Omaha,67200640,640 #640 #0640 67200640 67100640,3606 Leavenworth,NE,68105
Kwik Shop,Lincoln,67200641,641 #641 #0641 67200641 67100641,2811 N 48Th St,NE,68504
Kwik Shop,Lincoln,67200642,642 #642 #0642 67200642 67100642,3939 A St,NE,68510
Kwik Shop,Fremont,67200645,645 #645 #0645 67200645 67100645,710 N. Broad St.,NE,68025
Kwik Shop,Lincoln,67200646,646 #646 #0646 67200646 67100646,3301 Holdrege St,NE,68503
Kwik Shop,Falls City,67200648,648 #648 #0648 67200648 67100648,1403 Harlan,NE,68355
Kwik Shop,Nebraska City,67200649,649 #649 #0649 67200649 67100649,503 S 11Th St,NE,68410
Kwik Shop,Lincoln,67200650,650 #650 #0650 67200650 67100650,5600 Holdrege St,NE,68505
Kwik Shop,Omaha,67200652,652 #652 #0652 67200652 67100652,3222 Q St,NE,68107
Kwik Shop,Omaha,67200653,653 #653 #0653 67200653 67100653,5929 N 72Nd St,NE,68134
Kwik Shop,Fremont,67200654,654 #654 #0654 67200654 67100654,1615 N Bell St,NE,68025
Kwik Shop,Omaha,67200657,657 #657 #0657 67200657 67100657,7525 Cass St,NE,68114
Kwik Shop,Omaha,67200660,660 #660 #0660 67200660 67100660,9606 F St,NE,68127
Kwik Shop,Lincoln,67200662,662 #662 #0662 67200662 67100662,2040 S 56Th St,NE,68506
Kwik Shop,Lincoln,67200663,663 #663 #0663 67200663 67100663,4400 Cornhusker,NE,68504
Kwik Shop,Lavista,67200664,664 #664 #0664 67200664 67100664,6910 S 108Th St,NE,68128
Kwik Shop,Omaha,67200665,665 #665 #0665 67200665 67100665,15556 Blondo St,NE,68116
Kwik Shop,Omaha,67200667,667 #667 #0667 67200667 67100667,4855 L St,NE,68117
Kwik Shop,Omaha,67200668,668 #668 #0668 67200668 67100668,6845 S 167Th St,NE,68135
Kwik Shop,Ralston,67200672,672 #672 #0672 67200672 67100672,5208 S 72Nd St,NE,68127
Kwik Shop,Bellevue,67200675,675 #675 #0675 67200675 67100675,502 W. Mission,NE,68005
Kwik Shop,Lincoln,67200680,680 #680 #0680 67200680 67100680,1441 N Cotner Blvd,NE,68505
Kwik Shop,Lincoln,67200681,681 #681 #0681 67200681 67100681,4400 O St,NE,68510
Kwik Shop,Papillion,67200687,687 #687 #0687 67200687 67100687,101 Cedardale Rd,NE,68046
Kwik Shop,Bellevue,67200688,688 #688 #0688 67200688 67100688,602 Galvin Rd S,NE,68005
Kwik Shop,Bellevue,67200689,689 #689 #0689 67200689 67100689,4151 Harrison St,NE,68147
Kwik Shop,Garden City,67200701,701 #701 #0701 67200701 67100701,1102 N Campus Dr,KS,67846
Kwik Shop,Lawrence,67200702,702 #702 #0702 67200702 67100702,1846 Massachusetts St,KS,66044
Kwik Shop,Dodge City,67200703,703 #703 #0703 67200703 67100703,1500 W Wyatt Earp Blvd,KS,67801
Kwik Shop,Greensburg,67200704,704 #704 #0704 67200704 67100704,203 W Kansas Ave,KS,67054
Kwik Shop,Topeka,67200705,705 #705 #0705 67200705 67100705,1114 Nw Topeka Blvd,KS,66608
Kwik Shop,Wichita,67200706,706 #706 #0706 67200706 67100706,3601 E 47Th St S,KS,67210
Kwik Shop,Pratt,67200709,709 #709 #0709 67200709 67100709,116 Washington St,KS,67124
Kwik Shop,McPherson,67200710,710 #710 #0710 67200710 67100710,820 E Kansas,KS,67460
Kwik Shop,Salina,67200712,712 #712 #0712 67200712 67100712,305 W Schilling Rd,KS,67401
Kwik Shop,Wichita,67200716,716 #716 #0716 67200716 67100716,2424 W 37Th St N,KS,67204
Kwik Shop,Andover,67200717,717 #717 #0717 67200717 67100717,114 W Us Highway 54,KS,67002
Kwik Shop,Lawrence,67200718,718 #718 #0718 67200718 67100718,3440 W 6Th St,KS,66049
Kwik Shop,Topeka,67200720,720 #720 #0720 67200720 67100720,102 Se. 37Th Street,KS,66611
Kwik Shop,Lawrence,67200721,721 #721 #0721 67200721 67100721,845 Mississippi St,KS,66044
Kwik Shop,Wichita,67200722,722 #722 #0722 67200722 67100722,3959 S Hydraulic St,KS,67216
Kwik Shop,Salina,67200723,723 #723 #0723 67200723 67100723,2003 S Ohio St,KS,67401
Kwik Shop,Hutchinson,67200724,724 #724 #0724 67200724 67100724,1701 N Monroe St,KS,67502
Kwik Shop,Hutchinson,67200725,725 #725 #0725 67200725 67100725,1401 E 4Th Ave,KS,67501
Kwik Shop,Hutchinson,67200726,726 #726 #0726 67200726 67100726,500 N Monroe St,KS,67501
Kwik Shop,Maize,67200728,728 #728 #0728 67200728 67100728,5340 N Maize Rd,KS,67101
Kwik Shop,Topeka,67200729,729 #729 #0729 67200729 67100729,1700 Sw Topeka Blvd,KS,66612
Kwik Shop,Wichita,67200731,731 #731 #0731 67200731 67100731,710 W 29Th St N,KS,67204
Kwik Shop,Manhattan,67200733,733 #733 #0733 67200733 67100733,1337 Anderson Ave,KS,66502
Kwik Shop,Emporia,67200734,734 #734 #0734 67200734 67100734,105 W 12Th Ave,KS,66801
Kwik Shop,Hutchinson,67200736,736 #736 #0736 67200736 67100736,4216 N Plum St,KS,67502
Kwik Shop,Hutchinson,67200738,738 #738 #0738 67200738 67100738,1330 E 30Th Ave,KS,67502
Kwik Shop,Salina,67200739,739 #739 #0739 67200739 67100739,1600 S 9Th St,KS,67401
Kwik Shop,Topeka,67200740,740 #740 #0740 67200740 67100740,2277 Sw 10Th Ave,KS,66604
Kwik Shop,Larned,67200741,741 #741 #0741 67200741 67100741,1323 Broadway St,KS,67550
Kwik Shop,Salina,67200742,742 #742 #0742 67200742 67100742,657 Fairdale Rd,KS,67401
Kwik Shop,Abilene,67200745,745 #745 #0745 67200745 67100745,1401 N Buckeye Ave,KS,67410
Kwik Shop,Great Bend,67200747,747 #747 #0747 67200747 67100747,2334 North Main,KS,67530
Kwik Shop,Wichita,67200748,748 #748 #0748 67200748 67100748,2809 E Douglas Ave,KS,67211
Kwik Shop,Wichita,67200749,749 #749 #0749 67200749 67100749,2142 N Webb Rd,KS,67206
Kwik Shop,Derby,67200750,750 #750 #0750 67200750 67100750,1431 N Rock Rd,KS,67037
Kwik Shop,Great Bend,67200753,753 #753 #0753 67200753 67100753,3907 Broadway Ave,KS,67530
Kwik Shop,Topeka,67200757,757 #757 #0757 67200757 67100757,2619 Sw 21St St,KS,66604
Kwik Shop,Wichita,67200758,758 #758 #0758 67200758 67100758,6327 E. 13th Street North,KS,67205
Kwik Shop,Hays,67200759,759 #759 #0759 67200759 67100759,1301 Vine St,KS,67601
Kwik Shop,Haven,67200760,760 #760 #0760 67200760 67100760,100 E Industrial Dr,KS,67543
Kwik Shop,Burrton,67200761,761 #761 #0761 67200761 67100761,515 E Dean St,KS,67020
Kwik Shop,Dodge City,67200762,762 #762 #0762 67200762 67100762,1811 Central Ave,KS,67801
Kwik Shop,Ellsworth,67200763,763 #763 #0763 67200763 67100763,510 N Douglas Ave,KS,67439
Kwik Shop,Hutchinson,67200764,764 #764 #0764 67200764 67100764,2617 N Main St,KS,67502
Kwik Shop,Hutchinson,67200765,765 #765 #0765 67200765 67100765,434 E 17Th Ave,KS,67501
Kwik Shop,Nickerson,67200766,766 #766 #0766 67200766 67100766,12 S Nickerson St,KS,67561
Kwik Shop,Dighton,67200767,767 #767 #0767 67200767 67100767,100 E Long St,KS,67839
Kwik Shop,South Hutchinson,67200768,768 #768 #0768 67200768 67100768,8 N Main St,KS,67505
Kwik Shop,South Hutchinson,67200769,769 #769 #0769 67200769 67100769,1006 S Main St,KS,67505
Kwik Shop,Wichita,67200772,772 #772 #0772 67200772 67100772,2750 S Oliver St,KS,67210
Kwik Shop,Hutchinson,67200774,774 #774 #0774 67200774 67100774,1401 E 17Th Ave,KS,67501
Kwik Shop,Topeka,67200781,781 #781 #0781 67200781 67100781,4500 SW Topeka Blvd,KS,66609
Kwik Shop,Lenexa,67200782,782 #782 #0782 67200782 67100782,10111 Woodland Dr,KS,66220
Kwik Shop,Eudora,67200783,783 #783 #0783 67200783 67100783,1436 Church St,KS,66025
Kwik Shop,Lawrence,67200784,784 #784 #0784 67200784 67100784,1420 Kasold Dr,KS,66049
Kwik Shop,Lawrence,67200785,785 #785 #0785 67200785 67100785,1611 E 23Rd St,KS,66046
Kwik Shop,Lawrence,67200786,786 #786 #0786 67200786 67100786,4841 W 6Th St,KS,66049
Kwik Shop,Baldwin City,67200787,787 #787 #0787 67200787 67100787,600 Ames St,KS,66006
Kwik Shop,Topeka,67200788,788 #788 #0788 67200788 67100788,1414 Sw 17Th St,KS,66604
Kwik Shop,Topeka,67200789,789 #789 #0789 67200789 67100789,746 Ne Wabash Ave,KS,66616
Kwik Shop,Salina,67200793,793 #793 #0793 67200793 67100793,1727 W. Crawford,KS,67401
