keywords,city,Aggdata Store Number,store_number,address,state,zip_code
Kwik Trip,Plover,202,2020000202X 20200202X 0000202XXXX,5339 Harding Ave,WI,54467
Kwik Trip,Wausau,204,2040000204X 20400204X 0000204XXXX,4701 Rib Mountain Dr,WI,54401
Kwik Trip,Maquoketa,212,2120000212X 21200212X 0000212XXXX,102 David Street,IA,52060
Kwik Trip,River Falls,301,3010000301X 30100301X 0000301XXXX,1200 South Main Street,WI,54022
Kwik Trip,Oregon,302,3020000302X 30200302X 0000302XXXX,856 North Main,WI,53575
Kwik Trip,Brooklyn,303,3030000303X 30300303X 0000303XXXX,4183 Hwy 21,IA,52211
Kwik Trip,Red Wing,305,3050000305X 30500305X 0000305XXXX,915 Main St.,MN,55066
Kwik Trip,Lake Mills,306,3060000306X 30600306X 0000306XXXX,105 West Tyranena Park Road,WI,53551
Kwik Trip,Prairie Du Chien,307,3070000307X 30700307X 0000307XXXX,1000 S Marquette Rd,WI,53821
Kwik Trip,Stoddard,308,3080000308X 30800308X 0000308XXXX,202 Main St  Po Box 268,WI,54658
Kwik Trip,Burnsville,309,3090000309X 30900309X 0000309XXXX,501 Crystal Lake Rd West,MN,55306
Kwik Trip,Wisconsin Rapids,310,3100000310X 31000310X 0000310XXXX,2520 West Grand Ave,WI,54495
Kwik Trip,Holmen,311,3110000311X 31100311X 0000311XXXX,1550 South Holmen Drive,WI,54636
Kwik Trip,Kenosha,312,3120000312X 31200312X 0000312XXXX,3920 Washington Rd,WI,53144
Kwik Trip,Neillsville,313,3130000313X 31300313X 0000313XXXX,110 East Division Street,WI,54456
Kwik Trip,Pardeeville,314,3140000314X 31400314X 0000314XXXX,108 N Main St  Po Box 706,WI,53954
Kwik Trip,Greenwood,315,3150000315X 31500315X 0000315XXXX,206 S. Main Street,WI,54437
Kwik Trip,Hutchinson,316,3160000316X 31600316X 0000316XXXX,10 Denver Avenue Se,MN,55350
Kwik Trip,Sparta,317,3170000317X 31700317X 0000317XXXX,10219 State Hwy 16,WI,54656
Kwik Trip,Sparta,318,3180000318X 31800318X 0000318XXXX,630 So Black River Dr,WI,54656
Kwik Trip,Spencer,319,3190000319X 31900319X 0000319XXXX,404 S Pacific Hwy 13,WI,54479
Kwik Trip,Elroy,320,3200000320X 32000320X 0000320XXXX,1003 Academy,WI,53929
Kwik Trip,Rochester,321,3210000321X 32100321X 0000321XXXX,1350 Salem Road Sw,MN,55902
Kwik Trip,Wausau,322,3220000322X 32200322X 0000322XXXX,1440 W Campus Drive,WI,54401
Kwik Trip,Verona,323,3230000323X 32300323X 0000323XXXX,7583 Mineral Point Rd,WI,53593
Kwik Trip,Juneau,324,3240000324X 32400324X 0000324XXXX,210 South Main,WI,53039
Kwik Trip,Mequon,325,3250000325X 32500325X 0000325XXXX,10360 Cedarburg Rd,WI,53092
Kwik Trip,Janesville,326,3260000326X 32600326X 0000326XXXX,3123 South Hwy 51,WI,53546
Kwik Trip,Hayward,327,3270000327X 32700327X 0000327XXXX,15831 Us Hwy 63,WI,54843
Kwik Trip,Blair,328,3280000328X 32800328X 0000328XXXX,511 W. 4th Street,WI,54616
Kwik Trip,Spooner,329,3290000329X 32900329X 0000329XXXX,201 West Maple Street,WI,54801
Kwik Trip,Belle Plaine,330,3300000330X 33000330X 0000330XXXX,104 Aspen Lane,MN,56011
Kwik Trip,Wisconsin Rapids,331,3310000331X 33100331X 0000331XXXX,3030 Plover Rd,WI,54494
Kwik Trip,Horicon,332,3320000332X 33200332X 0000332XXXX,305 Barstow St,WI,53032
Kwik Trip,Mankato,334,3340000334X 33400334X 0000334XXXX,1271 North River Drive,MN,56001
Kwik Trip,Rochester,335,3350000335X 33500335X 0000335XXXX,2335 26th Street Ne,MN,55906
Kwik Trip,Mayville,336,3360000336X 33600336X 0000336XXXX,121 N Main St,WI,53050
Kwik Trip,New Richmond,337,3370000337X 33700337X 0000337XXXX,124 Paperjack Dr.,WI,54017
Kwik Trip,Plover,338,3380000338X 33800338X 0000338XXXX,1900 Post Rd,WI,54467
Kwik Trip,Cuba City,339,3390000339X 33900339X 0000339XXXX,212 S Main St,WI,53807
Kwik Trip,Dodgeville,340,3400000340X 34000340X 0000340XXXX,1122 North Bequette Street,WI,53533
Kwik Trip,Rochester,341,3410000341X 34100341X 0000341XXXX,315 12th St S.e.,MN,55904
Kwik Trip,Stevens Point,342,3420000342X 34200342X 0000342XXXX,3533 Stanley Street,WI,54481
Kwik Trip,Lakeville,343,3430000343X 34300343X 0000343XXXX,17388 Glacier Way,MN,55044
Kwik Trip,Mankato,344,3440000344X 34400344X 0000344XXXX,1549 Madison Ave,MN,56001
Kwik Trip,Monticello,345,3450000345X 34500345X 0000345XXXX,9440 State Hwy 25,MN,55362
Kwik Trip,Beaver Dam,346,3460000346X 34600346X 0000346XXXX,W9153 Cty Hwy G,WI,53916
Kwik Trip,Wisconsin Rapids,347,3470000347X 34700347X 0000347XXXX,4611 8th Street South,WI,54494
Kwik Trip,Clinton,348,3480000348X 34800348X 0000348XXXX,2321 Lincoln Way St,IA,52732
Kwik Trip,Onalaska,350,3500000350X 35000350X 0000350XXXX,9421 Hwy 16,WI,54650
Kwik Trip,Medford,351,3510000351X 35100351X 0000351XXXX,177 South 8th St,WI,54451
Kwik Trip,Chippewa Falls,352,3520000352X 35200352X 0000352XXXX,2997 Commercial Boulevard,WI,54729
Kwik Trip,Watertown,354,3540000354X 35400354X 0000354XXXX,1731 S Church St,WI,53094
Kwik Trip,Weston,356,3560000356X 35600356X 0000356XXXX,5603 Business Hwy 51,WI,54476
Kwik Trip,Rochester,357,3570000357X 35700357X 0000357XXXX,1221 Marion Rd Se,MN,55904
Kwik Trip,Wales,358,3580000358X 35800358X 0000358XXXX,230 W. Summit,WI,53183
Kwik Trip,Appleton,359,3590000359X 35900359X 0000359XXXX,650 West Northland Ave,WI,54911
Kwik Trip,Oconomowoc,360,3600000360X 36000360X 0000360XXXX,N56 W39345 Wisconsin Ave,WI,53066
Kwik Trip,Sheboygan,361,3610000361X 36100361X 0000361XXXX,1618 Calumet Drive,WI,53081
Kwik Trip,Richland Center,363,3630000363X 36300363X 0000363XXXX,2393 Hwy 14 E,WI,53581
Kwik Trip,Rochester,364,3640000364X 36400364X 0000364XXXX,3490 55th St Nw,MN,55901
Kwik Trip,Green Bay,365,3650000365X 36500365X 0000365XXXX,2498 Lineville Road,WI,54313
Kwik Trip,Waterloo,366,3660000366X 36600366X 0000366XXXX,115 Portland Rd,WI,53594
Kwik Trip,Fox Lake,367,3670000367X 36700367X 0000367XXXX,701 W State St,WI,53933
Kwik Trip,Kenosha,371,3710000371X 37100371X 0000371XXXX,6300 52nd Street,WI,53140
Kwik Trip,Oregon,372,3720000372X 37200372X 0000372XXXX,916 Janesville St,WI,53575
Kwik Trip,Waukesha,373,3730000373X 37300373X 0000373XXXX,1809 W St Paul Ave,WI,53186
Kwik Trip,Loyal,374,3740000374X 37400374X 0000374XXXX,100 South Main,WI,54446
Kwik Trip,Red Wing,376,3760000376X 37600376X 0000376XXXX,301 West 7th Street,MN,55066
Kwik Trip,Onalaska,377,3770000377X 37700377X 0000377XXXX,1802 East Main Street,WI,54650
Kwik Trip,Mankato,379,3790000379X 37900379X 0000379XXXX,1701 Monks Ave,MN,56001
Kwik Trip,Waterloo,380,3800000380X 38000380X 0000380XXXX,506 W 9th,IA,50702
Kwik Trip,Chippewa Falls,381,3810000381X 38100381X 0000381XXXX,1010 Woodward Ave,WI,54729
Kwik Trip,Rochester,382,3820000382X 38200382X 0000382XXXX,4120 Hwy 52 North,MN,55901
Kwik Trip,Onalaska,383,3830000383X 38300383X 0000383XXXX,408 Sand Lake Rd,WI,54650
Kwik Trip,Janesville,384,3840000384X 38400384X 0000384XXXX,3359 Milton Ave,WI,53545
Kwik Trip,Northfield,385,3850000385X 38500385X 0000385XXXX,500 Laurel Court,MN,55057
Kwik Trip,Merrill,386,3860000386X 38600386X 0000386XXXX,2311 E Main St,WI,54452
Kwik Trip,Rochester,388,3880000388X 38800388X 0000388XXXX,3111 Wellner Drive Ne,MN,55906
Kwik Trip,Eau Claire,389,3890000389X 38900389X 0000389XXXX,108 W Madison,WI,54701
Kwik Trip,Eau Claire,390,3900000390X 39000390X 0000390XXXX,2327 N Clairemont Avenue,WI,54703
Kwik Trip,La Crosse,391,3910000391X 39100391X 0000391XXXX,1333 Rose St,WI,54603
Kwik Trip,Ripon,392,3920000392X 39200392X 0000392XXXX,1123 W Fond Du Lac St,WI,54971
Kwik Trip,Sun Prairie,393,3930000393X 39300393X 0000393XXXX,1252 W. Main St.,WI,53590
Kwik Trip,Marshalltown,394,3940000394X 39400394X 0000394XXXX,2500 S Center St,IA,50158
Kwik Trip,Sturtevant,395,3950000395X 39500395X 0000395XXXX,7155 Durand Avenue,WI,53177
Kwik Trip,Waukesha,396,3960000396X 39600396X 0000396XXXX,W229 N2086 Redford Blvd.,WI,53186
Kwik Trip,Apple Valley,397,3970000397X 39700397X 0000397XXXX,15065 Dodd Blvd,MN,55124
Kwik Trip,Eau Claire,398,3980000398X 39800398X 0000398XXXX,2135 Brackett Avenue,WI,54703
Kwik Trip,Necedah,399,3990000399X 39900399X 0000399XXXX,100 3rd Street,WI,54646
Kwik Trip,Beaver Dam,400,4000000400X 40000400X 0000400XXXX,2006 N Spring Street,WI,53916
Kwik Trip,Burlington,401,4010000401X 40100401X 0000401XXXX,500 Falcon Ridge Dr (store),WI,53105
Kwik Trip,Chanhassen,402,4020000402X 40200402X 0000402XXXX,2201 West 78th Street,MN,55317
Kwik Trip,Owatonna,403,4030000403X 40300403X 0000403XXXX,2270 46th St Nw,MN,55060
Kwik Trip,Kimberly,405,4050000405X 40500405X 0000405XXXX,701 Schelfhout Lane,WI,54136
Kwik Trip,Apple Valley,406,4060000406X 40600406X 0000406XXXX,7545 145th St. W.,MN,55124
Kwik Trip,Woodbury,407,4070000407X 40700407X 0000407XXXX,10100 Hudson Road,MN,55129
Kwik Trip,Woodbury,408,4080000408X 40800408X 0000408XXXX,8477 City Centre Drive,MN,55125
Kwik Trip,Hudson,410,4100000410X 41000410X 0000410XXXX,2401 Crestview Drive,WI,54016
Kwik Trip,Plymouth,411,4110000411X 41100411X 0000411XXXX,1605 Annapolis Lane,MN,55441
Kwik Trip,Appleton,412,4120000412X 41200412X 0000412XXXX,3825 W Wisconsin,WI,54914
Kwik Trip,Arcadia,413,4130000413X 41300413X 0000413XXXX,1625 East Main Street,WI,54612
Kwik Trip,Stewartville,414,4140000414X 41400414X 0000414XXXX,101 Schumann Dr Nw,MN,55976
Kwik Trip,Stillwater,415,4150000415X 41500415X 0000415XXXX,3550 Settlers Way,MN,55082
Kwik Trip,De Pere,416,4160000416X 41600416X 0000416XXXX,2618 Monroe Road,WI,54115
Kwik Trip,Oconomowoc,417,4170000417X 41700417X 0000417XXXX,1220 Brown Street,WI,53066
Kwik Trip,Rochester,418,4180000418X 41800418X 0000418XXXX,3531 9th St Nw,MN,55901
Kwik Trip,Charles City,419,4190000419X 41900419X 0000419XXXX,1510 South Grand Ave,IA,50616
Kwik Trip,Green Bay,420,4200000420X 42000420X 0000420XXXX,1712 E Mason St,WI,54302
Kwik Trip,Apple Valley,421,4210000421X 42100421X 0000421XXXX,14941 Florence Trail,MN,55124
Kwik Trip,Oak Creek,422,4220000422X 42200422X 0000422XXXX,9535 S 13th Street,WI,53154
Kwik Trip,Fairmont,424,4240000424X 42400424X 0000424XXXX,217 S State Street,MN,56031
Kwik Trip,Waukesha,425,4250000425X 42500425X 0000425XXXX,2530 N.grandview Blvd,WI,53188
Kwik Trip,Rice Lake,426,4260000426X 42600426X 0000426XXXX,220 W. Knapp St.,WI,54868
Kwik Trip,Bloomer,427,4270000427X 42700427X 0000427XXXX,1625 Woodard Road,WI,54724
Kwik Trip,Cresco,428,4280000428X 42800428X 0000428XXXX,330 2nd Ave South East,IA,52136
Kwik Trip,Forest Lake,429,4290000429X 42900429X 0000429XXXX,4868 208th St N,MN,55025
Kwik Trip,Ashwaubenon,430,4300000430X 43000430X 0000430XXXX,871 Hansen Rd,WI,54304
Kwik Trip,Mankato,431,4310000431X 43100431X 0000431XXXX,17 Stoltzman Road,MN,56001
Kwik Trip,New Ulm,432,4320000432X 43200432X 0000432XXXX,1521 South Broadway,MN,56073
Kwik Trip,Rochester,433,4330000433X 43300433X 0000433XXXX,560 11th Avenue Nw,MN,55901
Kwik Trip,Neenah,434,4340000434X 43400434X 0000434XXXX,903 S. Green Bay Road,WI,54956
Kwik Trip,Owatonna,435,4350000435X 43500435X 0000435XXXX,1075 W.frontage Rd,MN,55060
Kwik Trip,Waukesha,436,4360000436X 43600436X 0000436XXXX,924 Fleetfoot Dr,WI,53186
Kwik Trip,La Crescent,437,4370000437X 43700437X 0000437XXXX,319 S. 3rd Street,MN,55947
Kwik Trip,Rochester,438,4380000438X 43800438X 0000438XXXX,2109 2nd Street Sw,MN,55902
Kwik Trip,Ft Atkinson,439,4390000439X 43900439X 0000439XXXX,1565 Madison Avenue,WI,53538
Kwik Trip,Mosinee,440,4400000440X 44000440X 0000440XXXX,500 Cherry Street,WI,54455
Kwik Trip,Shakopee,441,4410000441X 44100441X 0000441XXXX,1522 Vierling Drive East,MN,55379
Kwik Trip,Waseca,442,4420000442X 44200442X 0000442XXXX,501 West Elm Avenue,MN,56093
Kwik Trip,Farmington,443,4430000443X 44300443X 0000443XXXX,18290 Pilot Knob Rd,MN,55024
Kwik Trip,Austin,445,4450000445X 44500445X 0000445XXXX,1401 4th Street Nw,MN,55912
Kwik Trip,Oconomowoc,446,4460000446X 44600446X 0000446XXXX,1292 Oconomowoc Parkway,WI,53066
Kwik Trip,Shakopee,447,4470000447X 44700447X 0000447XXXX,8225 Crossings Blvd,MN,55379
Kwik Trip,Brooklyn Park,448,4480000448X 44800448X 0000448XXXX,9495 Noble Pkwy,MN,55443
Kwik Trip,Mankato,449,4490000449X 44900449X 0000449XXXX,1291 Raintree Road,MN,56002
Kwik Trip,Slinger,450,4500000450X 45000450X 0000450XXXX,1200 E Commerce Blvd,WI,53086
Kwik Trip,Antigo,451,4510000451X 45100451X 0000451XXXX,455 State Hwy 64,WI,54409
Kwik Trip,Appleton,452,4520000452X 45200452X 0000452XXXX,3721 W College Avenue,WI,54914
Kwik Trip,River Falls,453,4530000453X 45300453X 0000453XXXX,1238 N Main St,WI,54022
Kwik Trip,Hugo,454,4540000454X 45400454X 0000454XXXX,14730 Victor Hugo Blvd N,MN,55038
Kwik Trip,Ladysmith,455,4550000455X 45500455X 0000455XXXX,100 West 9th Street North,WI,54848
Kwik Trip,Verona,456,4560000456X 45600456X 0000456XXXX,2145 County Road Pb,WI,53593
Kwik Trip,Oshkosh,457,4570000457X 45700457X 0000457XXXX,2400 S Washburn St,WI,54904
Kwik Trip,Buffalo,458,4580000458X 45800458X 0000458XXXX,1600 Cessna Street,MN,55313
Kwik Trip,Eau Claire,459,4590000459X 45900459X 0000459XXXX,2232 Otter Rd,WI,54701
Kwik Trip,Waconia,460,4600000460X 46000460X 0000460XXXX,809 Vista Blvd.,MN,55387
Kwik Trip,Burlington,462,4620000462X 46200462X 0000462XXXX,1164 S Pine Street,WI,53105
Kwik Trip,Zumbrota,463,4630000463X 46300463X 0000463XXXX,100 Jefferson Dr E,MN,55992
Kwik Trip,Rochester,464,4640000464X 46400464X 0000464XXXX,4760 Commercial Drive Sw,MN,55902
Kwik Trip,Coon Rapids,465,4650000465X 46500465X 0000465XXXX,9250 Springbrook Dr Nw,MN,55433
Kwik Trip,St Peter,466,4660000466X 46600466X 0000466XXXX,1305 S Minnesota Ave,MN,56082
Kwik Trip,Charles City,468,4680000468X 46800468X 0000468XXXX,605 Gilbert Street,IA,50616
Kwik Trip,Plymouth,470,4700000470X 47000470X 0000470XXXX,2480 Eastern Ave.,WI,53073
Kwik Trip,Eau Claire,472,4720000472X 47200472X 0000472XXXX,1130 W Macarthur Avenue,WI,54701
Kwik Trip,Anoka,474,4740000474X 47400474X 0000474XXXX,2900 Cutters Grove Avenue,MN,55303
Kwik Trip,Rice Lake,476,4760000476X 47600476X 0000476XXXX,2851 Decker Drive,WI,54868
Kwik Trip,St Bonifacius,477,4770000477X 47700477X 0000477XXXX,8800 State Hwy 7,MN,55375
Kwik Trip,Red Wing,481,4810000481X 48100481X 0000481XXXX,4820 Highway 61 West,MN,55066
Kwik Trip,Tomah,484,4840000484X 48400484X 0000484XXXX,124 W Mccoy Blvd,WI,54660
Kwik Trip,Elkhorn,485,4850000485X 48500485X 0000485XXXX,6 W Hidden Trail,WI,53121
Kwik Trip,Fond Du Lac,486,4860000486X 48600486X 0000486XXXX,1061 E Johnson,WI,54935
Kwik Trip,Johnson Creek,487,4870000487X 48700487X 0000487XXXX,465 Village Walk Lane,WI,53038
Kwik Trip,Mayville,488,4880000488X 48800488X 0000488XXXX,205 S. Clark Street,WI,53050
Kwik Trip,Northfield,489,4890000489X 48900489X 0000489XXXX,1910 Honeylocust Dr,MN,55057
Kwik Trip,Cedar Falls,490,4900000490X 49000490X 0000490XXXX,7500 Nordic Drive,IA,50613
Kwik Trip,Manitowoc,491,4910000491X 49100491X 0000491XXXX,2103 South 42nd Street,WI,54220
Kwik Trip,Chanhassen,492,4920000492X 49200492X 0000492XXXX,8921 Crossroads Blvd,MN,55317
Kwik Trip,Onalaska,494,4940000494X 49400494X 0000494XXXX,W6782 Abbey Rd,WI,54650
Kwik Trip,Dubuque,495,4950000495X 49500495X 0000495XXXX,2685 Dodge St,IA,52003
Kwik Trip,Sun Prairie,496,4960000496X 49600496X 0000496XXXX,2599 Ironwood Drive,WI,53590
Kwik Trip,Dakota,497,4970000497X 49700497X 0000497XXXX,42165 Cty Rd 12,MN,55925
Kwik Trip,Menomonie,498,4980000498X 49800498X 0000498XXXX,1213 South Broadway St,WI,54751
Kwik Trip,New Berlin,499,4990000499X 49900499X 0000499XXXX,15700 W Small Rd,WI,53151
Kwik Trip,Waterloo,500,5000000500X 50000500X 0000500XXXX,1803 La Porte Road,IA,50702
Kwik Trip,Wausau,501,5010000501X 50100501X 0000501XXXX,109 S. 17th Avenue,WI,54401
Kwik Trip,Bettendorf,502,5020000502X 50200502X 0000502XXXX,2312 State Street,IA,52722
Kwik Trip,Des Moines,503,5030000503X 50300503X 0000503XXXX,400 Euclid Ave,IA,50313
Kwik Trip,Dubuque,504,5040000504X 50400504X 0000504XXXX,806 Wacker Drive,IA,52001
Kwik Trip,Stevens Point,505,5050000505X 50500505X 0000505XXXX,2830 Church St,WI,54481
Kwik Trip,West Des Moines,506,5060000506X 50600506X 0000506XXXX,1540 22nd Street,IA,50266
Kwik Trip,Urbandale,507,5070000507X 50700507X 0000507XXXX,6535 Douglas Avenue,IA,50322
Kwik Trip,Mason City,508,5080000508X 50800508X 0000508XXXX,1610 Federal Avenue,IA,50401
Kwik Trip,Fort Dodge,509,5090000509X 50900509X 0000509XXXX,3105 5th Avenue South,IA,50501
Kwik Trip,Des Moines,510,5100000510X 51000510X 0000510XXXX,3409 Sw 9th Street,IA,50315
Kwik Trip,Madison,514,5140000514X 51400514X 0000514XXXX,1113 N Sherman Ave #a,WI,53704
Kwik Trip,Des Moines,519,5190000519X 51900519X 0000519XXXX,3019 Se 14th Street,IA,50320
Kwik Trip,Cedar Rapids,520,5200000520X 52000520X 0000520XXXX,124 Collins Rd Suite C,IA,52402
Kwik Trip,Des Moines,521,5210000521X 52100521X 0000521XXXX,3301 E. Euclid Ave.,IA,50317
Kwik Trip,Wauwatosa,523,5230000523X 52300523X 0000523XXXX,11712 W. North Avenue,WI,53226
Kwik Trip,Chippewa Falls,525,5250000525X 52500525X 0000525XXXX,2209 South Prairie View Road,WI,54729
Kwik Trip,Neenah,526,5260000526X 52600526X 0000526XXXX,501 S. Commercial Street,WI,54956
Kwik Trip,Waukesha,527,5270000527X 52700527X 0000527XXXX,1411 Summit Ave,WI,53188
Kwik Trip,Kenosha,528,5280000528X 52800528X 0000528XXXX,2111 22nd Ave,WI,53140
Kwik Trip,Madison,529,5290000529X 52900529X 0000529XXXX,3868 E Washington Suite P,WI,53704
Kwik Trip,Ames,530,5300000530X 53000530X 0000530XXXX,204 S Duff Ave,IA,50010
Kwik Trip,Monona,531,5310000531X 53100531X 0000531XXXX,6300 Monona Drive,WI,53717
Kwik Trip,La Crosse,532,5320000532X 53200532X 0000532XXXX,3525 Hwy 157,WI,54603
Kwik Trip,New Berlin,534,5340000534X 53400534X 0000534XXXX,3620 S. Moorland Road,WI,53151
Kwik Trip,Iowa City,537,5370000537X 53700537X 0000537XXXX,923 S Riverside Dr,IA,52246
Kwik Trip,Marshfield,541,5410000541X 54100541X 0000541XXXX,121 W. Upham Street,WI,54449
Kwik Trip,Green Bay,543,5430000543X 54300543X 0000543XXXX,1215 E. Mason St,WI,54301
Kwik Trip,Davenport,546,5460000546X 54600546X 0000546XXXX,902 W Kimberly Rd #56,IA,52806
Kwik Trip,Middleton,550,5500000550X 55000550X 0000550XXXX,6621 University Ave,WI,53562
Kwik Trip,Mason City,552,5520000552X 55200552X 0000552XXXX,2480 4th Street Sw,IA,50401
Kwik Trip,Appleton,556,5560000556X 55600556X 0000556XXXX,1342 W Prospect Ave,WI,54914
Kwik Trip,Coralville,558,5580000558X 55800558X 0000558XXXX,2411 2nd Street Suite #4,IA,52241
Kwik Trip,Wausau,559,5590000559X 55900559X 0000559XXXX,1041 S 3rd Ave,WI,54401
Kwik Trip,Cedar Rapids,560,5600000560X 56000560X 0000560XXXX,2846 Mt Vernon Rd Se,IA,52405
Kwik Trip,Cedar Falls,561,5610000561X 56100561X 0000561XXXX,4116 University Ave #106,IA,50613
Kwik Trip,Davenport,562,5620000562X 56200562X 0000562XXXX,4619 Brady Street,IA,52806
Kwik Trip,Waukesha,563,5630000563X 56300563X 0000563XXXX,433 W. Sunset Drive,WI,53186
Kwik Trip,West Des Moines,565,5650000565X 56500565X 0000565XXXX,1220 Grand Avenue Suite 101,IA,50265
Kwik Trip,Lake City,600,6000000600X 60000600X 0000600XXXX,119 N Lakeshore Dr,MN,55041
Kwik Trip,Wausau,601,6010000601X 60100601X 0000601XXXX,3853 North 6th St,WI,54403
Kwik Trip,Chetek,602,6020000602X 60200602X 0000602XXXX,324 2nd Street,WI,54728
Kwik Trip,Wilson,603,6030000603X 60300603X 0000603XXXX,531 Hwy 128,WI,54027
Kwik Trip,Wilson,604,6040000604X 60400604X 0000604XXXX,I-94 & Hwy 128 (rest),WI,54027
Kwik Trip,Milton,605,6050000605X 60500605X 0000605XXXX,603 W Madison Ave,WI,53563
Kwik Trip,Fond Du Lac,606,6060000606X 60600606X 0000606XXXX,471 North Park Ave,WI,54935
Kwik Trip,Marshalltown,607,6070000607X 60700607X 0000607XXXX,814 S 6th St,IA,50158
Kwik Trip,Chatfield,608,6080000608X 60800608X 0000608XXXX,150 Hwy 30,MN,55923
Kwik Trip,Rushford,609,6090000609X 60900609X 0000609XXXX,110 State Rd Hwy 16  Po Box723,MN,55971
Kwik Trip,Manitowoc,611,6110000611X 61100611X 0000611XXXX,2102 Washington Avenue,WI,54220
Kwik Trip,Winneconne,612,6120000612X 61200612X 0000612XXXX,915 East Main,WI,54986
Kwik Trip,Fond Du Lac,613,6130000613X 61300613X 0000613XXXX,456 So Main,WI,54935
Kwik Trip,La Crescent,614,6140000614X 61400614X 0000614XXXX,216 N 4th St,MN,55947
Kwik Trip,North Mankato,615,6150000615X 61500615X 0000615XXXX,1740 Commerce Drive,MN,56003
Kwik Trip,Nashua,616,6160000616X 61600616X 0000616XXXX,201 Greenwood,IA,50658
Kwik Trip,Janesville,617,6170000617X 61700617X 0000617XXXX,254 E Memorial Ave,WI,53545
Kwik Trip,Kasson,619,6190000619X 61900619X 0000619XXXX,101 8th Street Se,MN,55944
Kwik Trip,Shawano,620,6200000620X 62000620X 0000620XXXX,1241 East Green Bay Street,WI,54166
Kwik Trip,Bonduel,621,6210000621X 62100621X 0000621XXXX,102 Express Way,WI,54107
Kwik Trip,Byron,622,6220000622X 62200622X 0000622XXXX,16 Second Ave Nw,MN,55920
Kwik Trip,Minnesota City,623,6230000623X 62300623X 0000623XXXX,7020 Hwy 61 W,MN,55959
Kwik Trip,La Crosse,624,6240000624X 62400624X 0000624XXXX,530 West Ave N,WI,54601
Kwik Trip,Waupaca,625,6250000625X 62500625X 0000625XXXX,226 W Fulton St,WI,54981
Kwik Trip,Montello,626,6260000626X 62600626X 0000626XXXX,99 E Montello St  Po Box 444,WI,53949
Kwik Trip,Manitowoc,627,6270000627X 62700627X 0000627XXXX,910 Hamilton Street,WI,54220
Kwik Trip,Larsen,628,6280000628X 62800628X 0000628XXXX,5600 Cty Rd Ii,WI,54947
Kwik Trip,Decorah,629,6290000629X 62900629X 0000629XXXX,905 S Short Street,IA,52101
Kwik Trip,Chilton,630,6300000630X 63000630X 0000630XXXX,45 Chestnut St,WI,53014
Kwik Trip,Germantown,631,6310000631X 63100631X 0000631XXXX,W188 N10963 Maple Rd,WI,53022
Kwik Trip,Camanche,632,6320000632X 63200632X 0000632XXXX,803 7th Ave.,IA,52730
Kwik Trip,Eau Claire,633,6330000633X 63300633X 0000633XXXX,2715 Golf Road,WI,54701
Kwik Trip,Kiel,634,6340000634X 63400634X 0000634XXXX,213 Fremont,WI,53042
Kwik Trip,Lodi,635,6350000635X 63500635X 0000635XXXX,215 North Main,WI,53555
Kwik Trip,Manitowoc,636,6360000636X 63600636X 0000636XXXX,2819 Meadow Lane,WI,54220
Kwik Trip,Manitowoc,637,6370000637X 63700637X 0000637XXXX,401 North 8th Street,WI,54220
Kwik Trip,Two Rivers,638,6380000638X 63800638X 0000638XXXX,2107 Washington,WI,54241
Kwik Trip,Appleton,639,6390000639X 63900639X 0000639XXXX,2175 South Memorial Drive,WI,54915
Kwik Trip,Pine Island,640,6400000640X 64000640X 0000640XXXX,100 First St E,MN,55963
Kwik Trip,Owatonna,641,6410000641X 64100641X 0000641XXXX,1220 So Oak St,MN,55060
Kwik Trip,Clinton,642,6420000642X 64200642X 0000642XXXX,911 So 14th St,IA,52732
Kwik Trip,Onalaska,643,6430000643X 64300643X 0000643XXXX,1276 Crossing Meadows Dr,WI,54650
Kwik Trip,New Holstein,644,6440000644X 64400644X 0000644XXXX,1517 Wisconsin Ave,WI,53061
Kwik Trip,Lancaster,645,6450000645X 64500645X 0000645XXXX,141 North Madison,WI,53813
Kwik Trip,Blue Earth,646,6460000646X 64600646X 0000646XXXX,209 S Grove St,MN,56013
Kwik Trip,Janesville,647,6470000647X 64700647X 0000647XXXX,2518 West Court St.,WI,53548
Kwik Trip,Black River Falls,648,6480000648X 64800648X 0000648XXXX,751 Hwy 54 East,WI,54615
Kwik Trip,Cottage Grove,650,6500000650X 65000650X 0000650XXXX,1601 Landmark Dr,WI,53527
Kwik Trip,Waupun,651,6510000651X 65100651X 0000651XXXX,800 W Main St,WI,53963
Kwik Trip,Fond Du Lac,652,6520000652X 65200652X 0000652XXXX,1123 West Johnson,WI,54935
Kwik Trip,Portage,653,6530000653X 65300653X 0000653XXXX,1223 E. Wisconsin Street,WI,53901
Kwik Trip,Winona,654,6540000654X 65400654X 0000654XXXX,375 Cottonwood Dr,MN,55987
Kwik Trip,Hartford,655,6550000655X 65500655X 0000655XXXX,1411 East Sumner Street,WI,53027
Kwik Trip,Manitowoc,656,6560000656X 65600656X 0000656XXXX,2315 Menasha Ave,WI,54220
Kwik Trip,Baraboo,657,6570000657X 65700657X 0000657XXXX,604 8th St,WI,53913
Kwik Trip,Watertown,658,6580000658X 65800658X 0000658XXXX,900 W Main,WI,53098
Kwik Trip,Rochester,659,6590000659X 65900659X 0000659XXXX,1990 Scott Road Nw,MN,55901
Kwik Trip,Chippewa Falls,660,6600000660X 66000660X 0000660XXXX,503 Grand Ave,WI,54729
Kwik Trip,Monroe,661,6610000661X 66100661X 0000661XXXX,1019 9th Street,WI,53566
Kwik Trip,Eagan,662,6620000662X 66200662X 0000662XXXX,3145 Dodd Rd,MN,55121
Kwik Trip,Savage,663,6630000663X 66300663X 0000663XXXX,14175 Vernon Ave S,MN,55378
Kwik Trip,Muskego,664,6640000664X 66400664X 0000664XXXX,S79w18884 Janesville Road,WI,53150
Kwik Trip,Oelwein,665,6650000665X 66500665X 0000665XXXX,10 First Ave Se,IA,50662
Kwik Trip,Mauston,666,6660000666X 66600666X 0000666XXXX,611 State Rd 82 (rest),WI,53948
Kwik Trip,Rochester,672,6720000672X 67200672X 0000672XXXX,1941 S Broadway,MN,55904
Kwik Trip,Windsor,673,6730000673X 67300673X 0000673XXXX,6325 Pepsi Way,WI,53598
Kwik Trip,Menomonie,674,6740000674X 67400674X 0000674XXXX,6107 3m Dr.,WI,54751
Kwik Trip,Edgerton,675,6750000675X 67500675X 0000675XXXX,505 N Main Street,WI,53534
Kwik Trip,Appleton,678,6780000678X 67800678X 0000678XXXX,3232 South Oneida,WI,54915
Kwik Trip,Sheboygan,679,6790000679X 67900679X 0000679XXXX,4220 County Road J,WI,53083
Kwik Trip,St Michael,681,6810000681X 68100681X 0000681XXXX,4400 O'day Ave Ne,MN,55376
Kwik Trip,Portage,683,6830000683X 68300683X 0000683XXXX,2970 New Pinery Road,WI,53901
Kwik Trip,West Salem,684,6840000684X 68400684X 0000684XXXX,985 W Cty Hwy 16,WI,54669
Kwik Trip,Appleton,685,6850000685X 68500685X 0000685XXXX,4085 E. Calumet Street,WI,54915
Kwik Trip,Sturtevant,686,6860000686X 68600686X 0000686XXXX,943 Se Frontage Rd,WI,53177
Kwik Trip,Wales,687,6870000687X 68700687X 0000687XXXX,415 N. Wales Road,WI,53183
Kwik Trip,Austin,689,6890000689X 68900689X 0000689XXXX,1201 W Oakland Ave,MN,55912
Kwik Trip,Stevens Point,691,6910000691X 69100691X 0000691XXXX,1600 Maria Drive,WI,54481
Kwik Trip,Lakeville,692,6920000692X 69200692X 0000692XXXX,20187 Dodd Blvd,MN,55044
Kwik Trip,Farmington,693,6930000693X 69300693X 0000693XXXX,217 Elm Street,MN,55024
Kwik Trip,Lakeville,694,6940000694X 69400694X 0000694XXXX,16260 Kenrick,MN,55044
Kwik Trip,Apple Valley,695,6950000695X 69500695X 0000695XXXX,13357 Palomino Dr,MN,55124
Kwik Trip,Baldwin,696,6960000696X 69600696X 0000696XXXX,940 Baldwin Plaza Dr.,WI,54002
Kwik Trip,Rosemount,697,6970000697X 69700697X 0000697XXXX,14810 S Roberts Trail,MN,55068
Kwik Trip,Clinton,698,6980000698X 69800698X 0000698XXXX,249 Main Ave.,IA,52732
Kwik Trip,Green Bay,700,7000000700X 70000700X 0000700XXXX,1871 Shawano Avenue,WI,54301
Kwik Trip,Denver,701,7010000701X 70100701X 0000701XXXX,341 State St  Po Box 71,IA,50622
Kwik Trip,Dunkerton,702,7020000702X 70200702X 0000702XXXX,813 S. Canfield  Po Box 87,IA,50626
Kwik Trip,Dike,703,7030000703X 70300703X 0000703XXXX,109 E Dike Rd,IA,50624
Kwik Trip,Parkersburg,704,7040000704X 70400704X 0000704XXXX,605 Hwy 57,IA,50665
Kwik Trip,Shell Rock,705,7050000705X 70500705X 0000705XXXX,705 N Public Rd  Po Box 739,IA,50670
Kwik Trip,Marshalltown,706,7060000706X 70600706X 0000706XXXX,810 S Third Ave,IA,50158
Kwik Trip,Waverly,707,7070000707X 70700707X 0000707XXXX,400 E Bremer Ave,IA,50677
Kwik Trip,Readlyn,708,7080000708X 70800708X 0000708XXXX,County Road 49  Po Box 96,IA,50668
Kwik Trip,Toledo,710,7100000710X 71000710X 0000710XXXX,201 Hwy 30 West,IA,52342
Kwik Trip,Monona,711,7110000711X 71100711X 0000711XXXX,12801 Falcon Avenue Po Box 612,IA,52159
Kwik Trip,Janesville,712,7120000712X 71200712X 0000712XXXX,811 Barrick Rd,IA,50647
Kwik Trip,Jesup,713,7130000713X 71300713X 0000713XXXX,841 S St  Po Box 458,IA,50648
Kwik Trip,New Hampton,714,7140000714X 71400714X 0000714XXXX,115 East Main,IA,50659
Kwik Trip,Waterloo,715,7150000715X 71500715X 0000715XXXX,1636 W 4th St,IA,50702
Kwik Trip,Dumont,716,7160000716X 71600716X 0000716XXXX,210 South Street,IA,50625
Kwik Trip,Independence,717,7170000717X 71700717X 0000717XXXX,100 Fifth Ave  N E,IA,50644
Kwik Trip,Tomah,718,7180000718X 71800718X 0000718XXXX,1504 Superior Ave,WI,54660
Kwik Trip,Marshfield,719,7190000719X 71900719X 0000719XXXX,101 N Central Avenue,WI,54449
Kwik Trip,Mc Gregor,720,7200000720X 72000720X 0000720XXXX,125 Main,IA,52157
Kwik Trip,Marshall,721,7210000721X 72100721X 0000721XXXX,504 Plaza Dr,WI,53559
Kwik Trip,Waterloo,722,7220000722X 72200722X 0000722XXXX,1214 Franklin,IA,50703
Kwik Trip,Waterloo,723,7230000723X 72300723X 0000723XXXX,707 Broadway St,IA,50703
Kwik Trip,Waterloo,724,7240000724X 72400724X 0000724XXXX,1105 Cedar Bend Drive,IA,50703
Kwik Trip,Howard,725,7250000725X 72500725X 0000725XXXX,399 Cardinal Ln,WI,54313
Kwik Trip,Cedar Falls,726,7260000726X 72600726X 0000726XXXX,2019 College St,IA,50613
Kwik Trip,La Crosse,727,7270000727X 72700727X 0000727XXXX,105 Clinton,WI,54603
Kwik Trip,Wausau,728,7280000728X 72800728X 0000728XXXX,200 E Kent Street,WI,54403
Kwik Trip,Whitehall,729,7290000729X 72900729X 0000729XXXX,36281 Main St,WI,54773
Kwik Trip,Oregon,731,7310000731X 73100731X 0000731XXXX,135 N Main,WI,53575
Kwik Trip,Waterloo,732,7320000732X 73200732X 0000732XXXX,324 Fletcher,IA,50701
Kwik Trip,Caledonia,733,7330000733X 73300733X 0000733XXXX,110 N. Sunset Blvd.,MN,55921
Kwik Trip,Tomah,734,7340000734X 73400734X 0000734XXXX,310 E Mc Coy Road (rest),WI,54660
Kwik Trip,Wausau,735,7350000735X 73500735X 0000735XXXX,2203 North 6th St,WI,54403
Kwik Trip,Spring Grove,736,7360000736X 73600736X 0000736XXXX,142 W Main St,MN,55974
Kwik Trip,Lewiston,737,7370000737X 73700737X 0000737XXXX,195 Co Rd 25,MN,55952
Kwik Trip,Stoughton,738,7380000738X 73800738X 0000738XXXX,1231 East Main,WI,53589
Kwik Trip,Stoughton,739,7390000739X 73900739X 0000739XXXX,517 West Main,WI,53589
Kwik Trip,Hortonville,740,7400000740X 74000740X 0000740XXXX,261 E Main St,WI,54944
Kwik Trip,Oshkosh,741,7410000741X 74100741X 0000741XXXX,215 W. 20th Avenue,WI,54902
Kwik Trip,Oshkosh,742,7420000742X 74200742X 0000742XXXX,2115 Jackson St,WI,54901
Kwik Trip,Menasha,743,7430000743X 74300743X 0000743XXXX,1870 Ush 10/st H114,WI,54952
Kwik Trip,Faribault,744,7440000744X 74400744X 0000744XXXX,1508 Sw 9th Ave,MN,55021
Kwik Trip,Faribault,745,7450000745X 74500745X 0000745XXXX,102 Ne 5th Ave,MN,55021
Kwik Trip,Winona,746,7460000746X 74600746X 0000746XXXX,1058 Homer Road,MN,55987
Kwik Trip,Baldwin,747,7470000747X 74700747X 0000747XXXX,1010 Main St  Po Box 102,WI,54002
Kwik Trip,Barron,748,7480000748X 74800748X 0000748XXXX,211 E Division & N 2nd St,WI,54812
Kwik Trip,Rice Lake,749,7490000749X 74900749X 0000749XXXX,1821 S Main,WI,54868
Kwik Trip,La Crosse,750,7500000750X 75000750X 0000750XXXX,4828 Mormon Coulee Rd,WI,54601
Kwik Trip,Waverly,752,7520000752X 75200752X 0000752XXXX,500 W Bremer,IA,50677
Kwik Trip,Eyota,753,7530000753X 75300753X 0000753XXXX,380 Sandstone Drive Nw,MN,55934
Kwik Trip,St Charles,754,7540000754X 75400754X 0000754XXXX,160 East 6th Street,MN,55972
Kwik Trip,Fennimore,755,7550000755X 75500755X 0000755XXXX,745 Lincoln Ave,WI,53809
Kwik Trip,Osseo,756,7560000756X 75600756X 0000756XXXX,13907 10th St,WI,54758
Kwik Trip,Viroqua,757,7570000757X 75700757X 0000757XXXX,1301 N Main St,WI,54665
Kwik Trip,Viroqua,758,7580000758X 75800758X 0000758XXXX,603 S Main,WI,54665
Kwik Trip,La Crosse,761,7610000761X 76100761X 0000761XXXX,506 Cass St,WI,54601
Kwik Trip,La Crosse,762,7620000762X 76200762X 0000762XXXX,1133 W George St,WI,54603
Kwik Trip,Sauk City,763,7630000763X 76300763X 0000763XXXX,110 Phillips Blvd,WI,53583
Kwik Trip,Portage,764,7640000764X 76400764X 0000764XXXX,1925 New Pinery Rd,WI,53901
Kwik Trip,Dodgeville,765,7650000765X 76500765X 0000765XXXX,115 S Iowa St,WI,53533
Kwik Trip,Mcfarland,766,7660000766X 76600766X 0000766XXXX,4701 Farwell St,WI,53558
Kwik Trip,Onalaska,767,7670000767X 76700767X 0000767XXXX,229 Oak Forest Drive,WI,54650
Kwik Trip,Mineral Point,768,7680000768X 76800768X 0000768XXXX,537 Ridge St,WI,53565
Kwik Trip,Ripon,770,7700000770X 77000770X 0000770XXXX,545 East Fond Du Lac,WI,54971
Kwik Trip,La Crosse,771,7710000771X 77100771X 0000771XXXX,71 Copeland Ave,WI,54603
Kwik Trip,Faribault,772,7720000772X 77200772X 0000772XXXX,1405 Hwy 60 W,MN,55021
Kwik Trip,La Crosse,773,7730000773X 77300773X 0000773XXXX,2506 South Ave,WI,54601
Kwik Trip,Adams,774,7740000774X 77400774X 0000774XXXX,237 N Main St,WI,53910
Kwik Trip,Mauston,775,7750000775X 77500775X 0000775XXXX,611 State Rd 82,WI,53948
Kwik Trip,Mauston,776,7760000776X 77600776X 0000776XXXX,22 North Union Street,WI,53948
Kwik Trip,Berlin,777,7770000777X 77700777X 0000777XXXX,247 Broadway,WI,54923
Kwik Trip,Winona,778,7780000778X 77800778X 0000778XXXX,1601 West 5th St,MN,55987
Kwik Trip,Sheboygan,780,7800000780X 78000780X 0000780XXXX,2622 S. Business Drive,WI,53081
Kwik Trip,Redgranite,781,7810000781X 78100781X 0000781XXXX,549 W Bannerman Ave,WI,54970
Kwik Trip,Horicon,782,7820000782X 78200782X 0000782XXXX,716 E Lake St,WI,53032
Kwik Trip,Omro,784,7840000784X 78400784X 0000784XXXX,244 East Main,WI,54963
Kwik Trip,Beaver Dam,785,7850000785X 78500785X 0000785XXXX,1504 N Center,WI,53916
Kwik Trip,Princeton,786,7860000786X 78600786X 0000786XXXX,303 Fulton St  Box 13,WI,54968
Kwik Trip,Weston,787,7870000787X 78700787X 0000787XXXX,3207 Schofield Ave,WI,54476
Kwik Trip,Richland Center,788,7880000788X 78800788X 0000788XXXX,172 S Main,WI,53581
Kwik Trip,Dodge Center,789,7890000789X 78900789X 0000789XXXX,408 2nd Ave Nw,MN,55927
Kwik Trip,Manchester,790,7900000790X 79000790X 0000790XXXX,1000 W Main St,IA,52057
Kwik Trip,New London,791,7910000791X 79100791X 0000791XXXX,984 N Shawano Street,WI,54961
Kwik Trip,New London,792,7920000792X 79200792X 0000792XXXX,1500 Mill St,WI,54961
Kwik Trip,Faribault,793,7930000793X 79300793X 0000793XXXX,1112 Second Ave Nw,MN,55021
Kwik Trip,Mt Horeb,794,7940000794X 79400794X 0000794XXXX,525 Springdale St,WI,53572
Kwik Trip,Platteville,795,7950000795X 79500795X 0000795XXXX,430 South Water Street,WI,53818
Kwik Trip,Tomah,796,7960000796X 79600796X 0000796XXXX,310 E. Mc Coy Road (store),WI,54660
Kwik Trip,Osage,801,8010000801X 80100801X 0000801XXXX,809 Main St,IA,50461
Kwik Trip,Alma,802,8020000802X 80200802X 0000802XXXX,603 N Main St,WI,54610
Kwik Trip,Stewartville,803,8030000803X 80300803X 0000803XXXX,410 North Main Street,MN,55976
Kwik Trip,Albert Lea,804,8040000804X 80400804X 0000804XXXX,906 Front Street,MN,56007
Kwik Trip,Albert Lea,805,8050000805X 80500805X 0000805XXXX,1210 E. Main Street,MN,56007
Kwik Trip,Owatonna,806,8060000806X 80600806X 0000806XXXX,320 Mineral Spring Rd,MN,55060
Kwik Trip,Brillion,807,8070000807X 80700807X 0000807XXXX,108 W Ryan,WI,54110
Kwik Trip,Columbus,808,8080000808X 80800808X 0000808XXXX,204 Dix St,WI,53925
Kwik Trip,Winona,810,8100000810X 81000810X 0000810XXXX,268 W Sarnia,MN,55987
Kwik Trip,Winona,811,8110000811X 81100811X 0000811XXXX,872 West Broadway,MN,55987
Kwik Trip,Andover,812,8120000812X 81200812X 0000812XXXX,1756 Bunker Lake Blvd Nw,MN,55304
Kwik Trip,Eau Claire,813,8130000813X 81300813X 0000813XXXX,3360 Birch St,WI,54703
Kwik Trip,Kellogg,814,8140000814X 81400814X 0000814XXXX,115 S. Knowlton Street,MN,55945
Kwik Trip,Cumberland,815,8150000815X 81500815X 0000815XXXX,1180 Elm St,WI,54829
Kwik Trip,La Crosse,816,8160000816X 81600816X 0000816XXXX,3130 State Road,WI,54601
Kwik Trip,Calmar,817,8170000817X 81700817X 0000817XXXX,205 N Maryville,IA,52132
Kwik Trip,Lansing,818,8180000818X 81800818X 0000818XXXX,301 Main Street,IA,52151
Kwik Trip,La Crosse,819,8190000819X 81900819X 0000819XXXX,921 Losey Boulevard So,WI,54601
Kwik Trip,Onalaska,822,8220000822X 82200822X 0000822XXXX,950 2nd Ave No,WI,54650
Kwik Trip,Waukon,823,8230000823X 82300823X 0000823XXXX,101 Rossville Rd,IA,52172
Kwik Trip,Winona,824,8240000824X 82400824X 0000824XXXX,770 East Broadway,MN,55987
Kwik Trip,Hokah,825,8250000825X 82500825X 0000825XXXX,Hwys 16 & 44  Po Box 316,MN,55941
Kwik Trip,La Crosse,826,8260000826X 82600826X 0000826XXXX,4605 Mormon Coulee Road,WI,54601
Kwik Trip,Green Bay,827,8270000827X 82700827X 0000827XXXX,935 Lombardi Ave,WI,54304
Kwik Trip,Altoona,828,8280000828X 82800828X 0000828XXXX,2367 Spooner Ave,WI,54720
Kwik Trip,La Crosse,829,8290000829X 82900829X 0000829XXXX,507 Lang Drive,WI,54603
Kwik Trip,Spring Valley,831,8310000831X 83100831X 0000831XXXX,640 N Broadway,MN,55975
Kwik Trip,Waunakee,832,8320000832X 83200832X 0000832XXXX,208 E Main,WI,53597
Kwik Trip,Cross Plains,833,8330000833X 83300833X 0000833XXXX,2508 Main St,WI,53528
Kwik Trip,Baraboo,834,8340000834X 83400834X 0000834XXXX,602 West Pine,WI,53913
Kwik Trip,Fountain City,835,8350000835X 83500835X 0000835XXXX,41 Southshore Dr,WI,54629
Kwik Trip,New Lisbon,836,8360000836X 83600836X 0000836XXXX,108 West Bridge St,WI,53950
Kwik Trip,Verona,837,8370000837X 83700837X 0000837XXXX,400 East Verona Ave,WI,53593
Kwik Trip,Reedsburg,838,8380000838X 83800838X 0000838XXXX,1825 Main St,WI,53959
Kwik Trip,Reedsburg,839,8390000839X 83900839X 0000839XXXX,101 So Albert,WI,53959
Kwik Trip,Hillsboro,841,8410000841X 84100841X 0000841XXXX,229 Mill Street,WI,54634
Kwik Trip,Prairie Du Chien,842,8420000842X 84200842X 0000842XXXX,211 S. Marquette Rd,WI,53821
Kwik Trip,Wabasha,843,8430000843X 84300843X 0000843XXXX,106 Hiawatha Dr,MN,55981
Kwik Trip,Lake City,844,8440000844X 84400844X 0000844XXXX,994 Lyon,MN,55041
Kwik Trip,Wautoma,845,8450000845X 84500845X 0000845XXXX,935 E Main Street,WI,54982
Kwik Trip,Coon Valley,846,8460000846X 84600846X 0000846XXXX,308 Central Ave,WI,54623
Kwik Trip,Union Center,847,8470000847X 84700847X 0000847XXXX,321 Bridge St  Po Box 79,WI,53962
Kwik Trip,Harmony,848,8480000848X 84800848X 0000848XXXX,415 Main Ave North,MN,55939
Kwik Trip,La Crosse,850,8500000850X 85000850X 0000850XXXX,Support Center C-Store,WI,54603
Kwik Trip,Wausau,851,8510000851X 85100851X 0000851XXXX,2950 Stewart Avenue,WI,54401
Kwik Trip,Franklin,857,8570000857X 85700857X 0000857XXXX,10750 W Speedway Drive,WI,53132
Kwik Trip,Oshkosh,862,8620000862X 86200862X 0000862XXXX,1090 N Washburn Street,WI,54903
Kwik Trip,Stevens Point,863,8630000863X 86300863X 0000863XXXX,5311 Old Highway 18,WI,54482
Kwik Trip,Oakdale,869,8690000869X 86900869X 0000869XXXX,3355 Hadley Avenue,MN,55128
Kwik Trip,La Crosse,870,8700000870X 87000870X 0000870XXXX,2002 Kwik Trip Way,WI,54603
Kwik Trip,Oshkosh,871,8710000871X 87100871X 0000871XXXX,5821 Green Valley Road,WI,54901
Kwik Trip,Jefferson,872,8720000872X 87200872X 0000872XXXX,102 Collins Road,WI,53549
Kwik Trip,Sheboygan,873,8730000873X 87300873X 0000873XXXX,625 South Taylor Drive,WI,53081
Kwik Trip,Chisago City,874,8740000874X 87400874X 0000874XXXX,11085 Lake Boulevard,MN,55013
Kwik Trip,Albert Lea,875,8750000875X 87500875X 0000875XXXX,2611 Bridge Avenue,MN,56007
Kwik Trip,Brooklyn Park,880,8800000880X 88000880X 0000880XXXX,5801 96th Ave N,MN,55443
Kwik Trip,Oshkosh,881,8810000881X 88100881X 0000881XXXX,1725 W 9th Avenue,WI,54901
Kwik Trip,Oshkosh,882,8820000882X 88200882X 0000882XXXX,2500 Witzel Avenue,WI,54904
Kwik Trip,Neenah,883,8830000883X 88300883X 0000883XXXX,1400 West American Drive,WI,54956
Kwik Trip,Clintonville,884,8840000884X 88400884X 0000884XXXX,12 W Madison St,WI,54929
Kwik Trip,Chaska,886,8860000886X 88600886X 0000886XXXX,2900 N Chestnut St,MN,55318
Kwik Trip,Appleton,887,8870000887X 88700887X 0000887XXXX,4735 Converters Dr,WI,54913
Kwik Trip,Waupaca,888,8880000888X 88800888X 0000888XXXX,106 County Road Qq,WI,54981
Kwik Trip,Maquoketa,894,8940000894X 89400894X 0000894XXXX,917 West Platt Street,IA,52060
Kwik Trip,New Hampton,895,8950000895X 89500895X 0000895XXXX,825 W Milwaukee Street,IA,50659
Kwik Trip,Blaine,896,8960000896X 89600896X 0000896XXXX,1355 85th Ave Ne,MN,55434
Kwik Trip,Sheboygan,897,8970000897X 89700897X 0000897XXXX,2033 North Ave,WI,53083
