keywords,city,Aggdata Store Number,store_number,address,state,zip_code
Kwik Fill,Cicero,2,02 2,6182  RT 31,NY,13039
Kwik Fill,Liverpool,3,03 3,7342 Oswego Rd.,NY,13090
Kwik Fill,Mexico,4,04 4,3251 East Main Street,NY,13114
Kwik Fill,Syracuse,5,05 5,7167 State Fair Boulevard,NY,13209
Kwik Fill,Fulton,7,07 7,800 W. Broadway,NY,13069
Kwik Fill,Oswego,8,08 8,7559 Route 104 W.,NY,13126
Kwik Fill,Pulaski,9,09 9,3897 Rome St.,NY,13142
Kwik Fill,Fulton,10,010 10,2718 State Rte 3,NY,13069
Kwik Fill,Canastota,11,011 11,3347 Seneca Turnpike,NY,13032
Kwik Fill,Auburn,12,012 12,334 Grant Avenue Road,NY,13021
Kwik Fill,Auburn,13,013 13,134 State Street,NY,13021
Kwik Fill,Canandaigua,14,014 14,2572 Rochester Road,NY,14424
Kwik Fill,Syracuse,16,016 16,6254 Thompson Rd.,NY,13206
Kwik Fill,Syracuse,17,017 17,3331 S. Salina St.,NY,13205
Kwik Fill,E. Syracuse,19,019 19,6301 Fly Road,NY,13057
Kwik Fill,E. Syracuse,20,020 20,6652 Manlius Center Road,NY,13104
Kwik Fill,Waterloo,21,021 21,395 Waterloo-Geneva Rd.,NY,13165
Kwik Fill,Weedsport,22,022 22,2695 Erie Drive,NY,13166
Kwik Fill,Binghamton,23,023 23,267 Main St.,NY,13905
Kwik Fill,Binghamton,24,024 24,1053 Front St.,NY,13905
Kwik Fill,Binghamton,25,025 25,4 W. State St.,NY,13905
Kwik Fill,Endwell,26,026 26,3408 E. Main St.,NY,13760
Kwik Fill,Johnson City,27,027 27,200 Harry L Dr.,NY,13790
Kwik Fill,Norwich,29,029 29,6135 State Route 12,NY,13815
Kwik Fill,Vestal,31,031 31,321 Bridge St.,NY,13850
Kwik Fill,Bath,34,034 34,7219 State Rte 54,NY,14810
Kwik Fill,Elmira,35,035 35,155 Madison Ave.,NY,14901
Kwik Fill,Elmira,36,036 36,1997 Lake Rd.,NY,14901
Kwik Fill,Horseheads,37,037 37,119 N. Main St.,NY,14845
Kwik Fill,Ithaca,38,038 38,303 Elmira Rd.,NY,14850
Kwik Fill,Owego,40,040 40,5 W. Main,NY,13827
Kwik Fill,Owego,41,041 41,450 North Ave.,NY,13827
Kwik Fill,Elmira,42,042 42,357 S. Walnut St.,NY,14904
Kwik Fill,Bath,43,043 43,346 W. Morris St.,NY,14810
Kwik Fill,Lyons,44,044 44,1 Forgham St.,NY,14489
Kwik Fill,Newark,45,045 45,363 W. Union St.,NY,14513
Kwik Fill,Honeoye,46,046 46,8697 Main Street,NY,14471
Kwik Fill,Naples,47,047 47,190 S. Main St.,NY,14512
Kwik Fill,Victor,48,048 48,7188 Route 96,NY,14564
Kwik Fill,Lima,49,049 49,1870 Rochester St.,NY,14485
Kwik Fill,Victor,50,050 50,7453 State Route 96,NY,14564
Kwik Fill,Newark,51,051 51,245 E. Union St.,NY,14513
Kwik Fill,Palmyra,52,052 52,703 East Main Street,NY,14522
Kwik Fill,Walworth,53,053 53,2166 Penfield-Walworth Rd.,NY,14568
Kwik Fill,Ontario,54,054 54,98 Rte. 104,NY,14519
Kwik Fill,Ontario,55,055 55,1661 Rte. 104,NY,14519
Kwik Fill,Rochester,56,056 56,950 Chili Ave.,NY,14611
Kwik Fill,Rochester,57,057 57,85 Stonewood Ave.,NY,14612
Kwik Fill,Rochester,58,058 58,3093 W. Henrietta Rd.,NY,14623
Kwik Fill,Rochester,60,060 60,201 N. Washington Ave.,NY,14445
Kwik Fill,Rochester,62,062 62,3255 Chili Ave.,NY,14624
Kwik Fill,Arcade,65,065 65,582 W. Main Street,NY,14009
Kwik Fill,Franklinville,66,066 66,66 S. Main Street,NY,14737
Kwik Fill,Olean,67,067 67,1257 Olean - Porterville Rd.,NY,14760
Kwik Fill,Olean,69,069 69,3108 W. State Street,NY,14760
Kwik Fill,Wellsville,70,070 70,3283 Riverside Drive (Rt 19),NY,14895
Kwik Fill,Wellsville,74,074 74,3 North Main Street,NY,14895
Kwik Fill,Olean,75,075 75,428 Main Street,NY,14760
Kwik Fill,Lakewood,76,076 76,301 E. Fairmount Ave.,NY,14750
Kwik Fill,Falconer,77,077 77,455 W. Main St.,NY,14733
Kwik Fill,Jamestown,78,078 78,700 Fairmount Ave.,NY,14701
Kwik Fill,Jamestown,79,079 79,161 Fluvanna Ave.,NY,14701
Kwik Fill,Mayville,80,080 80,14 Water St.,NY,14757
Kwik Fill,Westfield,82,082 82,7630 E. Main Rd.,NY,14787
Kwik Fill,Jamestown,83,083 83,1781 Foote Ave. Ext.,NY,14701
Kwik Fill,Jamestown,84,084 84,1617 West Third Street,NY,14701
Kwik Fill,Buffalo,85,085 85,2323 Clinton St.,NY,14227
Kwik Fill,Gowanda,87,087 87,290 Buffalo Street,NY,14070
Kwik Fill,Hamburg,88,088 88,4909 S. Park,NY,14075
Kwik Fill,Hamburg,90,090 90,5466 Camp Rd.,NY,14075
Kwik Fill,Lancaster,91,091 91,5835 Broadway,NY,14086
Kwik Fill,Springville,94,094 94,75 Waverly Street,NY,14141
Kwik Fill,West Seneca,95,095 95,3850 Clinton St.,NY,14224
Kwik Fill,Dunkirk,96,096 96,769 Central Ave.,NY,14048
Kwik Fill,Buffalo,98,098 98,2543 Deelaware Ave.,NY,14216
Kwik Fill,Buffalo,99,099 99,2212 Niagara St.,NY,14207
Kwik Fill,Cheektowaga,100,0100 100,2270 Walden Ave.,NY,14225
Kwik Fill,Cheektowaga,101,0101 101,2493 Broadway,NY,14227
Kwik Fill,Depew,102,0102 102,6439 Transit Rd.,NY,14043
Kwik Fill,Lockport,103,0103 103,263 S. Transit Rd.,NY,14094
Kwik Fill,Tonawanda,105,0105 105,2255 Military Rd.,NY,14150
Kwik Fill,N. Tonawanda,106,0106 106,555 River Rd.,NY,14120
Kwik Fill,N. Tonawanda,107,0107 107,3945 Niagara Falls Blvd.,NY,14120
Kwik Fill,Albion,109,0109 109,19 East Ave.,NY,14411
Kwik Fill,Batavia,111,0111 111,99 Jackson Street,NY,14020
Kwik Fill,Dansville,112,0112 112,29 Main St.,NY,14437
Kwik Fill,Mt. Morris,113,0113 113,26 East State St.,NY,14510
Kwik Fill,Perry,114,0114 114,175 S. Main St.,NY,14530
Kwik Fill,Lakeville,115,0115 115,6004 Big Tree Rd. Box 354B,NY,14480
Kwik Fill,North Dansville,116,0116 116,9485 Foster Wheeler Road,NY,14437
Kwik Fill,Leroy,118,0118 118,7010 W. Main Rd.,NY,14482
Kwik Fill,Geneseo,121,0121 121,4170 Lakeville Rd.,NY,14454
Kwik Fill,North Chili,123,0123 123,4385 Buffalo Rd.,NY,14514
Kwik Fill,Rochester,124,0124 124,2734 Dewey Ave.,NY,14616
Kwik Fill,Rochester,125,0125 125,1541 E. Ridge Ave.,NY,14621
Kwik Fill,Rochester,126,0126 126,1862 Hudson Ave.,NY,14617
Kwik Fill,Rochester,127,0127 127,3400 W. Ridge Rd.,NY,14626
Kwik Fill,Rochester,128,0128 128,2440 W. Ridge Rd.,NY,14626
Kwik Fill,Spencerport,129,0129 129,501 S.Union St.,NY,14559
Kwik Fill,Rochester,130,0130 130,3701 Dewey Ave.,NY,14616
Kwik Fill,Spencerport,131,0131 131,5251 Ridge Rd.,NY,14559
Kwik Fill,Brockport,132,0132 132,82 Main St.,NY,14420
Kwik Fill,Rochester,133,0133 133,1578 Spencerport Rd.,NY,14606
Kwik Fill,Amherst,134,0134 134,5169 Sheridan Dr.,NY,14221
Kwik Fill,Clarence,135,0135 135,9970 Main St.,NY,14031
Kwik Fill,E. Aurora,136,0136 136,5 Ernst Pl.,NY,14052
Kwik Fill,Medina,138,0138 138,118 Pearl St.,NY,14103
Kwik Fill,Orchard Park,139,0139 139,3625 S. Orchard Park Rd.,NY,14127
Kwik Fill,West Seneca,140,0140 140,2170 Transit Rd.,NY,14224
Kwik Fill,Warsaw,141,0141 141,427 N. Main St.,NY,14569
Kwik Fill,Hornell,142,0142 142,7270 Seneca St.,NY,14843
Kwik Fill,Penn Yan,143,0143 143,227 Lake St.,NY,14527
Kwik Fill,Rochester,144,0144 144,851 Howard Rd.,NY,14624
Kwik Fill,S. Bath,146,0146 146,6765 South Rt 415,NY,14810
Kwik Fill,Mt. Morris,147,0147 147,56 N. Main St.,NY,14510
Kwik Fill,Geneva,148,0148 148,390 Hamilton St.,NY,14456
Kwik Fill,Warren,149,0149 149,600 Penna. Ave. East,PA,16365
Kwik Fill,Erie,150,0150 150,7760 Peach Street,PA,16509
Kwik Fill,Erie,151,0151 151,1603 W. 26th St.,PA,16508
Kwik Fill,Warren,152,0152 152,201 Hickory Street,PA,16365
Kwik Fill,Erie,154,0154 154,1101 E. Lake Rd.,PA,16507
Kwik Fill,Erie,156,0156 156,921 E. 26th St.,PA,16504
Kwik Fill,Erie,157,0157 157,1588 E. 38th St.,PA,16510
Kwik Fill,Erie,158,0158 158,3620 Peach St.,PA,16508
Kwik Fill,Harbor Creek,159,0159 159,6707 Buffalo Rd. Box 146,PA,16421
Kwik Fill,Erie,160,0160 160,7725 Perry Highway,PA,16509
Kwik Fill,Erie,161,0161 161,2304 Buffalo Rd.,PA,16510
Kwik Fill,Erie,162,0162 162,3360 W.38th St.,PA,16506
Kwik Fill,North East,163,0163 163,169 S. Pearl St.,PA,16428
Kwik Fill,North East,164,0164 164,82 E. Main St.,PA,16428
Kwik Fill,Girard,165,0165 165,271 W. Main St.,PA,16417
Kwik Fill,Saegerstown,166,0166 166,270 Main St.,PA,16433
Kwik Fill,Meadville,167,0167 167,275 Linden Street,PA,16335
Kwik Fill,Oil City,168,0168 168,1500 Riverside Dr.,PA,16301
Kwik Fill,Franklin,169,0169 169,1040 15th St.,PA,16323
Kwik Fill,Franklin,171,0171 171,105 N. 13th St.,PA,16323
Kwik Fill,Meadville,172,0172 172,401 North St.,PA,16335
Kwik Fill,Meadville,173,0173 173,11144 Perry Hwy.,PA,16335
Kwik Fill,Cambridge Springs,174,0174 174,135 N. Main St.,PA,16403
Kwik Fill,Franklin,175,0175 175,1293 Allegheny Avenue,PA,16323
Kwik Fill,Seneca,176,0176 176,3670 State Route 257,PA,16346
Kwik Fill,Oil City,177,0177 177,672 North Seneca St.,PA,16301
Kwik Fill,Philipsburg,178,0178 178,1579 Walton Street,PA,16866
Kwik Fill,Philipsburg,179,0179 179,978 North Front Street,PA,16866
Kwik Fill,St. Marys,180,0180 180,926 South Saint Marys Street,PA,15857
Kwik Fill,Port Allegany,181,0181 181,36 S. Main St.,PA,16743
Kwik Fill,Emporium,182,0182 182,558 E. Allegany,PA,15834
Kwik Fill,Coudersport,183,0183 183,194 Route 6 West,PA,16915
Kwik Fill,Kane,184,0184 184,400 N. Fraley St.,PA,16735
Kwik Fill,Ridgway,185,0185 185,112 W. Main St.,PA,15853
Kwik Fill,Smethport,186,0186 186,326 W. Main St.,PA,16749
Kwik Fill,Johnsonburg,187,0187 187,1040 East Center Street,PA,15845
Kwik Fill,Mill Hall,188,0188 188,165 Hogan Blvd.,PA,17751
Kwik Fill,Bellefonte,189,0189 189,915 Pleasant View Blvd.,PA,16823
Kwik Fill,Boalsburg,190,0190 190,120 Boal Ave.,PA,16827
Kwik Fill,Williamsport,192,0192 192,2705 W. 4th St.,PA,17701
Kwik Fill,Williamsport,193,0193 193,2601 Lycoming Creek Rd.,PA,17701
Kwik Fill,Williamsport,194,0194 194,843 Highway 15,PA,17701
Kwik Fill,Sayre,195,0195 195,200 N. Keystone Ave.,PA,18840
Kwik Fill,Lawrenceville,196,0196 196,23 Main St. (Rt 15),PA,16929
Kwik Fill,Union City,197,0197 197,3 Titusville Rd.,PA,16438
Kwik Fill,Corry,198,0198 198,949 N. Center St.,PA,16407
Kwik Fill,Titusville,200,0200 200,1001 E. Spring St.,PA,16354
Kwik Fill,Bradford,201,0201 201,227 E. Main St.,PA,16701
Kwik Fill,Youngsville,202,0202 202,27630 Route 6,PA,16371
Kwik Fill,Bradford,203,0203 203,713 South Ave.,PA,16701
Kwik Fill,Warren,205,0205 205,2351 Market Street,PA,16365
Kwik Fill,Waterford,206,0206 206,717 High St.,PA,16441
Kwik Fill,Titusville,207,0207 207,302 E. Central Ave.,PA,16354
Kwik Fill,Kittanning,208,0208 208,13499 Indiana Rd,PA,16201
Kwik Fill,Clearfield,210,0210 210,2519 Daisy St. Ext.,PA,16830
Kwik Fill,Clearfield,211,0211 211,1322 S. 2nd. St.,PA,16830
Kwik Fill,Punxsutawney,212,0212 212,1040 W. Mahoning Ave.,PA,15767
Kwik Fill,Clearfield,213,0213 213,102 Race St.,PA,16830
Kwik Fill,Clarion,214,0214 214,22386 Route 68,PA,16214
Kwik Fill,Dubois,216,0216 216,1200 S. Brady St.,PA,15801
Kwik Fill,Zelienople,218,0218 218,631 W. New Castle St.,PA,16063
Kwik Fill,Cranberry Twp.,219,0219 219,21199 Rt. 19,PA,16066
Kwik Fill,New Brighton,220,0220 220,5th and 6th Streets,PA,15066
Kwik Fill,New Brighton,221,0221 221,Rte. 51 Fallston,PA,15066
Kwik Fill,Beaver,225,0225 225,1499 3rd Ave. Rte 68,PA,15009
Kwik Fill,Kylertown,226,0226 226,73 Rolling Stone Rd.,PA,16847
Kwik Fill,Geneva,227,0227 227,1635 State Rt 534,OH,44041
Kwik Fill,North East,228,0228 228,12201 E. Main Rd.,PA,16428
Kwik Fill,Harrisville,229,0229 229,5574 State Route 8,PA,16038
Kwik Fill,California,231,0231 231,323 Third Ave.,PA,15419
Kwik Fill,Eighty-Four,232,0232 232,1794 Route 136,PA,15330
Kwik Fill,Uniontown,233,0233 233,2 Duck Hollow Road,PA,15401
Kwik Fill,Burgettstown,234,0234 234,1604 Main Street,PA,15021
Kwik Fill,Houston,236,0236 236,2230 W. Pike St.,PA,15342
Kwik Fill,Uniontown,238,0238 238,1051 National Pike,PA,15401
Kwik Fill,Crescent,239,0239 239,152 McGovern Blvd.,PA,15046
Kwik Fill,Homer City,241,0241 241,119 Box 900 RD 4,PA,15748
Kwik Fill,Oakmont,246,0246 246,400 Allegheny River Blvd.,PA,15139
Kwik Fill,Somerset,247,0247 247,1274 North Center Avenue,PA,15501
Kwik Fill,Tyrone,248,0248 248,5660 E. Pleasant Valley Blvd,PA,16686
Kwik Fill,Duncansville,249,0249 249,663 Old Rt 22,PA,16635
Kwik Fill,Huntingdon,250,0250 250,11192 William Penn Hwy,PA,16652
Kwik Fill,Johnstown,252,0252 252,3786 William Penn Highway,PA,15909
Kwik Fill,Clymer,253,0253 253,1030 Franklin Street,PA,15728
Kwik Fill,Indiana,254,0254 254,2311 Oakland Avenue,PA,15701
Kwik Fill,Bedford,255,0255 255,8739 Lincoln Highway,PA,15522
Kwik Fill,Chambersburg,257,0257 257,1080 Wayne Ave.,PA,17201
Kwik Fill,Mechanicsburg,259,0259 259,6479 Carlisle Pike,PA,17055
Kwik Fill,Carlisle,262,0262 262,244 York Rd.  Rte. 74S,PA,17013
Kwik Fill,York,266,0266 266,4415 Lincoln Highway,PA,17406
Kwik Fill,Struthers,268,0268 268,630 Youngstown - Poland Rd.,OH,44471
Kwik Fill,N. Jackson,269,0269 269,11086 Mahoning Ave.,OH,44451
Kwik Fill,Champion,270,0270 270,4994 Mahoning Ave.,OH,44483
Kwik Fill,Slippery Rock,277,0277 277,106 Franklin,PA,16057
Kwik Fill,Butler,278,0278 278,1801 N. Main St.,PA,16001
Kwik Fill,Grove City,279,0279 279,1650 W. Main St. Ext.,PA,16127
Kwik Fill,Ellwood City,280,0280 280,1692 State Route 65,PA,16117
Kwik Fill,Prospect,282,0282 282,1120 New Castle Rd.,PA,16052
Kwik Fill,Grove City,283,0283 283,501 N. Broad St.,PA,16127
Kwik Fill,Evans City,284,0284 284,300 East Main Street,PA,16033
Kwik Fill,New Philadelphia,286,0286 286,1025 W. High St.,OH,44663
Kwik Fill,Coshocton,287,0287 287,209 Second St.,OH,43812
Kwik Fill,Rittman,289,0289 289,195 N. Main St.,OH,44270
Kwik Fill,Somerset,292,0292 292,142 Plank Rd.,PA,15501
Kwik Fill,Ellicottville,293,0293 293,47 Washington Street,NY,14731
Kwik Fill,Warren,294,0294 294,6 Penna. Ave. East,PA,16365
Kwik Fill,Warren,295,0295 295,2016 Penna. Ave. East,PA,16365
Kwik Fill,Mansfield,297,0297 297,RR 1 Box 89,PA,16933
Kwik Fill,Sunbury,298,0298 298,106 State St.,PA,17801
Kwik Fill,Sugar Grove,299,0299 299,7 Warren Road,PA,16350
Kwik Fill,Cortland,302,0302 302,162 Homer Avenue,NY,13045
Kwik Fill,Meadville,304,0304 304,21268 Blooming Vly.,PA,16335
Kwik Fill,Jamestown,312,0312 312,342 Forest Ave.,NY,14701
Kwik Fill,Kylertown,315,0315 315,101 Rolling Stone Rd,PA,16847
Kwik Fill,Erie,317,0317 317,4702 W. Ridge Rd.,PA,16506
Kwik Fill,N. Tonawanda,318,0318 318,1269 Ruie Rd.,NY,14120
Kwik Fill,Tonawanda,319,0319 319,4205 Delaware Ave.,NY,14150
Kwik Fill,Tonawanda,320,0320 320,2209 Colvin Blvd.,NY,14150
Kwik Fill,Amherst,322,0322 322,645 Millersport,NY,14226
Kwik Fill,Kenmore,323,0323 323,2260 Elmwood,NY,14217
Kwik Fill,Cheektowaga,327,0327 327,3724 Harlem,NY,14215
Kwik Fill,Buffalo,329,0329 329,1779 Clinton St.,NY,14206
Kwik Fill,Rochester,331,0331 331,1155 Hudson Ave.,NY,14621
Kwik Fill,Rochester,332,0332 332,2271 Culver Rd.,NY,14609
Kwik Fill,Rochester,333,0333 333,1550 Spencerport Rd.,NY,14606
Kwik Fill,Rochester,335,0335 335,360 N. Winton Rd.,NY,14610
Kwik Fill,Rochester,336,0336 336,1835 Mount Hope Rd.,NY,14620
Kwik Fill,Rochester,337,0337 337,3215 Chili Ave.,NY,14624
Kwik Fill,Marion,338,0338 338,3563 Palmyra Rd.,NY,14505
Kwik Fill,Cortland,339,0339 339,312 Thompkins St.,NY,13045
Kwik Fill,Lyons,345,0345 345,30 Geneva St.,NY,14489
Kwik Fill,Wolcott,346,0346 346,11955 W. Main St.,NY,14590
Kwik Fill,Unadilla,347,0347 347,29 Main Street,NY,13849
Kwik Fill,Oneonta,348,0348 348,65 Chestnut St.,NY,13820
Kwik Fill,Richfield Springs,349,0349 349,88 Main St.,NY,13439
Kwik Fill,Moravia,351,0351 351,160 Main Street,NY,13118
Kwik Fill,Auburn,352,0352 352,302 Genessee St.,NY,13021
Kwik Fill,Apalachin,353,0353 353,8894 Rt 434,NY,13732
Kwik Fill,Port Crane,356,0356 356,Route 369,NY,13833
Kwik Fill,Binghamton,357,0357 357,23 Floral Ave.,NY,13902
Kwik Fill,Groton,358,0358 358,176 Main St.,NY,13073
Kwik Fill,Canastota,360,0360 360,109 N. Peterboro,NY,13032
Kwik Fill,Oneida,361,0361 361,129 N. Main St.,NY,13421
Kwik Fill,Cazenovia,363,0363 363,122 Albany St.,NY,13035
Kwik Fill,Baldwinsville,365,0365 365,2371 W. Genesee Street,NY,13027
Kwik Fill,Cicero,366,0366 366,5812 Rte. 31,NY,13039
Kwik Fill,E. Syracuse,367,0367 367,7078 Manlius Center,NY,13057
Kwik Fill,N. Syracuse,368,0368 368,5919 E. Taft Rd.,NY,13212
Kwik Fill,New Berlin,369,0369 369,53 N. Main St.,NY,13411
Kwik Fill,Warren,371,0371 371,4170 Market Street,PA,16365
Kwik Fill,Titusville,374,0374 374,302 East Central Ave.,PA,16354
Kwik Fill,Corry,376,0376 376,10 East Columbus Avenue,PA,16407
Kwik Fill,Skaneateles,377,0377 377,797 W. Genesee St.,NY,13152
Kwik Fill,Hornell,379,0379 379,149 Seneca Street,NY,14843
Kwik Fill,Fredonia,380,0380 380,10419 Bennett Road,NY,14063
Kwik Fill,Pittsfield,381,0381 381,30345 Route 6,PA,16340
Kwik Fill,Erie,384,0384 384,3745 McClelland Avenue,PA,16510
Kwik Fill,Grove City,385,0385 385,1914 Leesburg - Grove City Rd.,PA,16127
Kwik Fill,Kylertown,387,0387 387,87 Rolling Stone Rd.,PA,16847
Kwik Fill,Erie,389,0389 389,8795 Wattsburg Rd.,PA,16509
Kwik Fill,Blossburg,390,0390 390,4320 Old Bloss Road,PA,16912
Kwik Fill,Marienville,391,0391 391,42085 Route 66,PA,16239
Kwik Fill,Jamestown,395,0395 395,2930 Main St. Ext.,NY,14701
Kwik Fill,Strykersville,705,0705 705,3635 Main Street Rt.78,NY,14145
Kwik Fill,Cassadaga,706,0706 706,86 N. Main Street,NY,14718
Kwik Fill,Alden,712,0712 712,11615 Clinton Street,NY,14004
Kwik Fill,Hammondsport,716,0716 716,8280 State Rt 54,NY,14840
Kwik Fill,Cranberry,724,0724 724,7101 Highway 322,PA,16319
Kwik Fill,New Castle,782,0782 782,2985 New Butler Rd,PA,16101
Kwik Fill,New Castle,783,0783 783,1010 Willington Road,PA,16101
Kwik Fill,New Castle,785,0785 785,2785 West State Street,PA,16101
Kwik Fill,Blassdell,789,0789 789,3326 Lakeshore Road (Rt.5),NY,14219
