keywords,city,Aggdata Store Number,store_number,address,state,zip_code
Les Schwab,Redmond,9,#9 #09 #009,845 NW 6th St,OR,97756
Les Schwab,Prineville,11,#11 #011 #0011,1250 E 3rd,OR,97754
Les Schwab,Bend,12,#12 #012 #0012,105 NE Franklin Ave,OR,97701
Les Schwab,Madras,13,#13 #013 #0013,28 NE Plum St,OR,97741
Les Schwab,John Day,14,#14 #014 #0014,551 W Main St,OR,97845
Les Schwab,Hood River,15,#15 #015 #0015,3140 Cascade Ave,OR,97031
Les Schwab,The Dalles,16,#16 #016 #0016,2645 E 2nd St,OR,97058
Les Schwab,Klamath Falls,17,#17 #017 #0017,5757 S 6th St,OR,97603
Les Schwab,Hermiston,18,#18 #018 #0018,830 N 1st St,OR,97838
Les Schwab,Lebanon,19,#19 #019 #0019,2275 S Santiam Hwy,OR,97355
Les Schwab,Burns,20,#20 #020 #0020,179 Hines Blvd,OR,97720
Les Schwab,Sweet Home,21,#21 #021 #0021,1707 Main Street,OR,97386
Les Schwab,Albany,23,#23 #023 #0023,2925 Santiam Hwy SE,OR,97322
Les Schwab,Milton Freewater,24,#24 #024 #0024,609 E Broadway,OR,97862
Les Schwab,Ontario,25,#25 #025 #0025,511 E Idaho Ave,OR,97914
Les Schwab,Lakeview,26,#26 #026 #0026,422 North F Street,OR,97630
Les Schwab,Springfield,27,#27 #027 #0027,3294 Main St,OR,97478
Les Schwab,Pendleton,28,#28 #028 #0028,1550 Southgate Place,OR,97801
Les Schwab,Corvallis,29,#29 #029 #0029,2119 NW 9th St,OR,97330
Les Schwab,Eugene,30,#30 #030 #0030,2295 W 11th Ave,OR,97402
Les Schwab,Medford,31,#31 #031 #0031,500 Matt Loop,OR,97501
Les Schwab,La Grande,32,#32 #032 #0032,2306 Adams Avenue,OR,97850
Les Schwab,Grants Pass,33,#33 #033 #0033,1694 NW 6th St,OR,97526
Les Schwab,Salem,34,#34 #034 #0034,1710 Lancaster Dr NE,OR,97305
Les Schwab,Milwaukie,37,#37 #037 #0037,16685 SE McLoughlin Blvd,OR,97267
Les Schwab,Medford,38,#38 #038 #0038,701 N Central Ave,OR,97501
Les Schwab,Lewiston,82,#82 #082 #0082,1408 Main Street,ID,83501
Les Schwab,Coeur d'Alene,83,#83 #083 #0083,2818 N Government Way,ID,83815
Les Schwab,Grangeville,84,#84 #084 #0084,411 East Main,ID,83530
Les Schwab,Moscow,85,#85 #085 #0085,1421 E White Ave,ID,83843
Les Schwab,Orofino,86,#86 #086 #0086,302 Johnson Avenue,ID,83544
Les Schwab,Kellogg,87,#87 #087 #0087,15 E Cameron Ave,ID,83837
Les Schwab,Weiser,89,#89 #089 #0089,250 E 1st St,ID,83672
Les Schwab,Saint Maries,90,#90 #090 #0090,930 Main Ave,ID,83861
Les Schwab,Nampa,91,#91 #091 #0091,133 Caldwell Blvd,ID,83651
Les Schwab,Twin Falls,92,#92 #092 #0092,421 Blue Lakes Blvd N,ID,83301
Les Schwab,Hayden,93,#93 #093 #0093,8820 Commerce Drive,ID,83835
Les Schwab,Jerome,94,#94 #094 #0094,1848 S Lincoln Ave,ID,83338
Les Schwab,Twin Falls,95,#95 #095 #0095,389 Poleline Rd,ID,83301
Les Schwab,Lewiston,96,#96 #096 #0096,251 Thain Road,ID,83501
Les Schwab,Boise,101,#101 #0101 #00101,6017 W Fairview Ave,ID,83704
Les Schwab,Mountain Home,102,#102 #0102 #00102,400 Airbase Rd,ID,83647
Les Schwab,Boise,103,#103 #0103 #00103,6520 W State St,ID,83714
Les Schwab,Emmett,104,#104 #0104 #00104,419 N Washington Ave,ID,83617
Les Schwab,Post Falls,105,#105 #0105 #00105,302 E Seltice Way,ID,83877
Les Schwab,Priest River,106,#106 #0106 #00106,4357 Highway 2,ID,83856
Les Schwab,Caldwell,107,#107 #0107 #00107,315 S 22nd Ave,ID,83605
Les Schwab,Ponderay,108,#108 #0108 #00108,279 Bonner Mall Way,ID,83852
Les Schwab,Pocatello,109,#109 #0109 #00109,332 N 5th Ave,ID,83201
Les Schwab,Blackfoot,110,#110 #0110 #00110,990 W Bridge St,ID,83221
Les Schwab,Idaho Falls,112,#112 #0112 #00112,970 E 17th St,ID,83404
Les Schwab,Idaho Falls,113,#113 #0113 #00113,210 Constitution Way,ID,83402
Les Schwab,Rexburg,114,#114 #0114 #00114,407 S 5th W,ID,83440
Les Schwab,Pocatello,115,#115 #0115 #00115,4020 Yellowstone Ave,ID,83202
Les Schwab,Boise,116,#116 #0116 #00116,2085 Broadway Ave,ID,83706
Les Schwab,Hailey,117,#117 #0117 #00117,520 N River St,ID,83333
Les Schwab,Boise,118,#118 #0118 #00118,1324 W Jefferson St,ID,83702
Les Schwab,Meridian,119,#119 #0119 #00119,275 S Main St,ID,83642
Les Schwab,Buhl,120,#120 #0120 #00120,1241 Burley Ave,ID,83316
Les Schwab,Eagle,121,#121 #0121 #00121,1467 E Iron Eagle Dr,ID,83616
Les Schwab,American Falls,123,#123 #0123 #00123,2842 Pocatello Ave,ID,83211
Les Schwab,Boise,124,#124 #0124 #00124,1850 S Cole Rd,ID,83709
Les Schwab,McCall,125,#125 #0125 #00125,500 Deinhard Ln,ID,83638
Les Schwab,Nampa,126,#126 #0126 #00126,2901 12th Ave Rd,ID,83686
Les Schwab,Rathdrum,127,#127 #0127 #00127,13500 N Hwy 53,ID,83858
Les Schwab,Kuna,128,#128 #0128 #00128,975 E Avalon,ID,83634
Les Schwab,Meridian,129,#129 #0129 #00129,3595 E Ustick Road,ID,83646
Les Schwab,Aurora,151,#151 #0151 #00151,3430 N Tower Road,CO,80011
Les Schwab,Denver,152,#152 #0152 #00152,2001 Federal Blvd,CO,80211
Les Schwab,Highlands Ranch,153,#153 #0153 #00153,945 Sgt Jon Stiles Drive,CO,80129
Les Schwab,Littleton,154,#154 #0154 #00154,13331 W Bowles Avenue,CO,80127
Les Schwab,Commerce City,155,#155 #0155 #00155,10489 Chambers Rd,CO,80022
Les Schwab,Parker,156,#156 #0156 #00156,11265 Pikes Peak Drive,CO,80138
Les Schwab,Thornton,157,#157 #0157 #00157,800 E 88th Ave,CO,80229
Les Schwab,Centennial,158,#158 #0158 #00158,15787 E Arapahoe Rd,CO,80016
Les Schwab,Gresham,201,#201 #0201 #00201,390 NE Burnside Rd,OR,97030
Les Schwab,McMinnville,202,#202 #0202 #00202,170 NE Highway 99W,OR,97128
Les Schwab,Ashland,203,#203 #0203 #00203,2308 Ashland St,OR,97520
Les Schwab,Woodburn,204,#204 #0204 #00204,1140 N Pacific Hwy,OR,97071
Les Schwab,Portland,205,#205 #0205 #00205,7304 SE 82nd Ave,OR,97266
Les Schwab,Nyssa,206,#206 #0206 #00206,204 Thunderegg Blvd,OR,97913
Les Schwab,Beaverton,207,#207 #0207 #00207,10340 SW Canyon Rd,OR,97005
Les Schwab,Heppner,208,#208 #0208 #00208,124 N Main,OR,97836
Les Schwab,Cottage Grove,209,#209 #0209 #00209,109 S Pacific Hwy,OR,97424
Les Schwab,Eugene,210,#210 #0210 #00210,52 Division Ave,OR,97404
Les Schwab,Salem,211,#211 #0211 #00211,1405 Barnes Ave SE,OR,97306
Les Schwab,Salem,212,#212 #0212 #00212,3030 River Rd N,OR,97303
Les Schwab,Tigard,213,#213 #0213 #00213,11581 SW Pacific Hwy,OR,97223
Les Schwab,Independence,214,#214 #0214 #00214,1710 Monmouth St,OR,97351
Les Schwab,Portland,215,#215 #0215 #00215,2952 NE Sandy Blvd,OR,97232
Les Schwab,Dallas,216,#216 #0216 #00216,121 Main St,OR,97338
Les Schwab,Newberg,217,#217 #0217 #00217,110 Sitka Ave,OR,97132
Les Schwab,Lincoln City,218,#218 #0218 #00218,1025 SW Highway 101,OR,97367
Les Schwab,Florence,219,#219 #0219 #00219,4325 Highway 101 N,OR,97439
Les Schwab,Oregon City,220,#220 #0220 #00220,1625 Beavercreek Rd,OR,97045
Les Schwab,Portland,221,#221 #0221 #00221,5510 N Lombard St,OR,97203
Les Schwab,Tillamook,222,#222 #0222 #00222,1220 Main Ave,OR,97141
Les Schwab,Enterprise,223,#223 #0223 #00223,802 NW First Street,OR,97828
Les Schwab,Lake Oswego,224,#224 #0224 #00224,17171 Boones Ferry Rd,OR,97035
Les Schwab,Springfield,225,#225 #0225 #00225,530 Harlow Rd,OR,97477
Les Schwab,Portland,226,#226 #0226 #00226,2010 NE 82nd Ave,OR,97220
Les Schwab,Clackamas,227,#227 #0227 #00227,10602 SE Highway 212,OR,97015
Les Schwab,Sandy,228,#228 #0228 #00228,37895 Highway 26,OR,97055
Les Schwab,Saint Helens,229,#229 #0229 #00229,555 S Columbia River Hwy,OR,97051
Les Schwab,Silverton,230,#230 #0230 #00230,911 N 1st St,OR,97381
Les Schwab,Merrill,231,#231 #0231 #00231,State Line Rd Hwy 139,OR,97633
Les Schwab,Aloha,232,#232 #0232 #00232,19100 SW Shaw St,OR,97007
Les Schwab,La Pine,233,#233 #0233 #00233,52596 Highway 97,OR,97739
Les Schwab,Portland,234,#234 #0234 #00234,2140 NE Columbia Blvd,OR,97211
Les Schwab,Estacada,235,#235 #0235 #00235,140 SW Frontage Rd,OR,97023
Les Schwab,Portland,237,#237 #0237 #00237,16650 SE Division St,OR,97236
Les Schwab,Canby,238,#238 #0238 #00238,333 SW 1st Ave,OR,97013
Les Schwab,Portland,239,#239 #0239 #00239,12110 NE Erin Way,OR,97220
Les Schwab,Wilsonville,240,#240 #0240 #00240,29175 SW Town Center Loop,OR,97070
Les Schwab,Beaverton,241,#241 #0241 #00241,15825 SW Walker Rd,OR,97006
Les Schwab,Portland,242,#242 #0242 #00242,4105 SE Powell Blvd,OR,97202
Les Schwab,Portland,243,#243 #0243 #00243,1210 NW 19th Ave,OR,97209
Les Schwab,Corvallis,244,#244 #0244 #00244,2220 SW 3rd St,OR,97333
Les Schwab,Vale,245,#245 #0245 #00245,225 Main St N,OR,97918
Les Schwab,Tigard,246,#246 #0246 #00246,15348 SW Pacific Hwy,OR,97224
Les Schwab,Salem,247,#247 #0247 #00247,530 Wallace Rd NW,OR,97304
Les Schwab,Brookings,248,#248 #0248 #00248,801 Chetco,OR,97415
Les Schwab,Coquille,249,#249 #0249 #00249,484 N Central St,OR,97423
Les Schwab,Reedsport,250,#250 #0250 #00250,174 N 16th St,OR,97467
Les Schwab,North Bend,251,#251 #0251 #00251,3025 Broadway St,OR,97459
Les Schwab,Coos Bay,252,#252 #0252 #00252,579 S Broadway,OR,97420
Les Schwab,Medford,253,#253 #0253 #00253,2095 Commerce Dr,OR,97504
Les Schwab,Eugene,254,#254 #0254 #00254,95 E 18th Ave,OR,97401
Les Schwab,Salem,255,#255 #0255 #00255,2350 Mission St SE,OR,97302
Les Schwab,Portland,256,#256 #0256 #00256,2410 SE 122nd Ave,OR,97233
Les Schwab,Tigard,257,#257 #0257 #00257,9385 SW Greenburg Rd,OR,97223
Les Schwab,West Linn,258,#258 #0258 #00258,1990 8th Ave,OR,97068
Les Schwab,Sherwood,259,#259 #0259 #00259,15905 SW Tultn-Shrwd Hwy,OR,97140
Les Schwab,Portland,260,#260 #0260 #00260,8910 SW Barbur Blvd,OR,97219
Les Schwab,Hillsboro,261,#261 #0261 #00261,22235 NW Imbrie Dr,OR,97124
Les Schwab,Molalla,262,#262 #0262 #00262,31291 S Highway 213,OR,97038
Les Schwab,Grants Pass,263,#263 #0263 #00263,320 Union Ave,OR,97527
Les Schwab,Bend,264,#264 #0264 #00264,63590 Hunnell Rd,OR,97701
Les Schwab,Scappoose,265,#265 #0265 #00265,51531 SE Second St,OR,97056
Les Schwab,Portland,266,#266 #0266 #00266,2500 SE Tacoma St,OR,97202
Les Schwab,Tacoma,301,#301 #0301 #00301,5131 6th Ave,WA,98406
Les Schwab,Kenmore,302,#302 #0302 #00302,6330 NE Bothell Way,WA,98028
Les Schwab,Spokane,303,#303 #0303 #00303,101 W 2nd Ave,WA,99201
Les Schwab,Bothell,304,#304 #0304 #00304,19401 Bothell Everett Hwy,WA,98012
Les Schwab,Tacoma,305,#305 #0305 #00305,3809 Steilacoom Blvd SW,WA,98499
Les Schwab,Centralia,306,#306 #0306 #00306,1211 Harrison Ave,WA,98531
Les Schwab,Grand Coulee,307,#307 #0307 #00307,211 Spokane & Federal Way,WA,99133
Les Schwab,Yakima,308,#308 #0308 #00308,702 E Yakima Ave,WA,98901
Les Schwab,Veradale,309,#309 #0309 #00309,15915 E Sprague Ave,WA,99037
Les Schwab,Tumwater,310,#310 #0310 #00310,6328 Capitol Blvd SE,WA,98501
Les Schwab,Aberdeen,311,#311 #0311 #00311,2601 Simpson Ave,WA,98520
Les Schwab,Bellevue,312,#312 #0312 #00312,2011 148th Ave NE,WA,98007
Les Schwab,Tacoma,313,#313 #0313 #00313,7424 Pacific Ave,WA,98408
Les Schwab,Renton,314,#314 #0314 #00314,354 Union Ave NE,WA,98059
Les Schwab,Seattle,315,#315 #0315 #00315,13609 1st Ave S,WA,98168
Les Schwab,Auburn,316,#316 #0316 #00316,903 Auburn Way S,WA,98002
Les Schwab,Pullman,317,#317 #0317 #00317,160 SE Bishop Blvd,WA,99163
Les Schwab,Colfax,318,#318 #0318 #00318,W 215 Walla Walla Hwy,WA,99111
Les Schwab,Pasco,320,#320 #0320 #00320,1019 W Court St,WA,99301
Les Schwab,Moses Lake,321,#321 #0321 #00321,418 E Broadway Ave,WA,98837
Les Schwab,Spanaway,322,#322 #0322 #00322,16819 Pacific Ave S,WA,98387
Les Schwab,Marysville,323,#323 #0323 #00323,8405 State Ave,WA,98270
Les Schwab,Omak,324,#324 #0324 #00324,712 Okoma Dr,WA,98841
Les Schwab,Monroe,325,#325 #0325 #00325,19134 State Route 2,WA,98272
Les Schwab,Othello,326,#326 #0326 #00326,315 S Broadway Ave,WA,99344
Les Schwab,Colville,327,#327 #0327 #00327,434 S Main St,WA,99114
Les Schwab,Vancouver,328,#328 #0328 #00328,216 SE 118th Ave,WA,98684
Les Schwab,Kent,329,#329 #0329 #00329,25101 Pacific Hwy S,WA,98089
Les Schwab,Cheney,330,#330 #0330 #00330,7 Spokane St,WA,99004
Les Schwab,Quincy,331,#331 #0331 #00331,315 F St SW,WA,98848
Les Schwab,Spokane,332,#332 #0332 #00332,8103 N Division St,WA,99208
Les Schwab,Richland,333,#333 #0333 #00333,837 Stevens Dr,WA,99352
Les Schwab,Longview,334,#334 #0334 #00334,1420 Industrial Way,WA,98632
Les Schwab,Vancouver,335,#335 #0335 #00335,917 NE Minnehaha St,WA,98665
Les Schwab,Kennewick,336,#336 #0336 #00336,4110 W Clearwater Ave,WA,99336
Les Schwab,Chehalis,337,#337 #0337 #00337,36 N Market Blvd,WA,98532
Les Schwab,Kent,338,#338 #0338 #00338,758 Central Ave N,WA,98032
Les Schwab,Ellensburg,339,#339 #0339 #00339,1206 S Canyon Road,WA,98926
Les Schwab,Spokane,340,#340 #0340 #00340,2528 W Northwest Blvd,WA,99205
Les Schwab,Longview,341,#341 #0341 #00341,3186 Ocean Beach Hwy,WA,98632
Les Schwab,Ephrata,342,#342 #0342 #00342,160 Basin St SW,WA,98823
Les Schwab,East Wenatchee,343,#343 #0343 #00343,301 Grant Rd,WA,98802
Les Schwab,Yakima,344,#344 #0344 #00344,2002 S First,WA,98909
Les Schwab,Toppenish,346,#346 #0346 #00346,105 Asotin Ave,WA,98948
Les Schwab,Sunnyside,347,#347 #0347 #00347,1537 Lincoln Avenue,WA,98944
Les Schwab,Goldendale,348,#348 #0348 #00348,606 E Broadway St,WA,98620
Les Schwab,Walla Walla,350,#350 #0350 #00350,2150 E Isaacs Ave,WA,99362
Les Schwab,Spokane Valley,361,#361 #0361 #00361,E 6320 Alki,WA,99213
Les Schwab,Vancouver,362,#362 #0362 #00362,2420 NE Andresen Rd,WA,98661
Les Schwab,North Bend,363,#363 #0363 #00363,610 E North Bend Way,WA,98045
Les Schwab,Elma,364,#364 #0364 #00364,410 N. 3rd Street,WA,98541
Les Schwab,Lacey,365,#365 #0365 #00365,150 Marvin Rd SE,WA,98503
Les Schwab,Aberdeen,367,#367 #0367 #00367,420 E Heron St,WA,98520
Les Schwab,Snohomish,368,#368 #0368 #00368,711 Avenue D,WA,98290
Les Schwab,Battle Ground,369,#369 #0369 #00369,1719 W Main St,WA,98604
Les Schwab,Wenatchee,370,#370 #0370 #00370,1643 N Wenatchee Ave,WA,98801
Les Schwab,Arlington,371,#371 #0371 #00371,233 Lebanon St,WA,98223
Les Schwab,Kirkland,372,#372 #0372 #00372,12410 128th Ln NE,WA,98034
Les Schwab,Seattle,373,#373 #0373 #00373,6111 4th Ave S,WA,98108
Les Schwab,Lynnwood,374,#374 #0374 #00374,17117 Highway 99,WA,98037
Les Schwab,Olympia,375,#375 #0375 #00375,2825 Capitol Mall Dr SW,WA,98502
Les Schwab,Renton,376,#376 #0376 #00376,710 Rainier Ave S,WA,98057
Les Schwab,Spokane,377,#377 #0377 #00377,3105 S Regal St,WA,99223
Les Schwab,Federal Way,378,#378 #0378 #00378,34415 16th Ave S,WA,98063
Les Schwab,Port Townsend,379,#379 #0379 #00379,2355 W Sims Way,WA,98368
Les Schwab,Port Angeles,380,#380 #0380 #00380,2527 Hwy 101 E,WA,98362
Les Schwab,Sequim,381,#381 #0381 #00381,802 East Washington,WA,98382
Les Schwab,Clarkston,382,#382 #0382 #00382,1468 Bridge St,WA,99403
Les Schwab,Tukwila,383,#383 #0383 #00383,6804 S 180th St,WA,98188
Les Schwab,Enumclaw,384,#384 #0384 #00384,649 Griffin Ave,WA,98022
Les Schwab,Everett,385,#385 #0385 #00385,9736 Evergreen Way,WA,98204
Les Schwab,Covington,386,#386 #0386 #00386,17235 SE 272nd St,WA,98042
Les Schwab,Spokane,387,#387 #0387 #00387,10312 E Sprague Ave,WA,99206
Les Schwab,Spokane,388,#388 #0388 #00388,1120 W Francis Ave,WA,99205
Les Schwab,Richland,389,#389 #0389 #00389,1550 Tapteal Dr,WA,99352
Les Schwab,Seattle,390,#390 #0390 #00390,12215 Aurora Ave N,WA,98133
Les Schwab,Bonney Lake,391,#391 #0391 #00391,9911 214th Ave E,WA,98391
Les Schwab,Ferndale,392,#392 #0392 #00392,1731 Labounty Dr,WA,98248
Les Schwab,Vancouver,393,#393 #0393 #00393,11804 NE 78th Way,WA,98682
Les Schwab,Redmond,394,#394 #0394 #00394,6651 E LK SAM Pkwy NE # P,WA,98052
Les Schwab,Mill Creek,395,#395 #0395 #00395,13223 Bothell Everett Hwy,WA,98012
Les Schwab,Seattle,396,#396 #0396 #00396,9801 Lake City Way NE,WA,98115
Les Schwab,Auburn,397,#397 #0397 #00397,2604 Auburn Way N,WA,98002
Les Schwab,Maple Valley,398,#398 #0398 #00398,27215 Black Diamond Rd SE,WA,98038
Les Schwab,Gig Harbor,399,#399 #0399 #00399,5353 33rd Ave NW,WA,98335
Les Schwab,Arlington,400,#400 #0400 #00400,16607 Smokey Point Blvd,WA,98223
Les Schwab,Puyallup,401,#401 #0401 #00401,213 43rd Ave SE,WA,98374
Les Schwab,Lake Stevens,402,#402 #0402 #00402,923 Vernon Rd,WA,98258
Les Schwab,Puyallup,403,#403 #0403 #00403,10115 171st Street Ct E,WA,98375
Les Schwab,Kent,404,#404 #0404 #00404,22101 84th Ave S,WA,98032
Les Schwab,Bremerton,405,#405 #0405 #00405,240 Bruenn Ave,WA,98312
Les Schwab,Poulsbo,406,#406 #0406 #00406,424 NW Edvard St,WA,98370
Les Schwab,Port Orchard,407,#407 #0407 #00407,1216 Bay St,WA,98366
Les Schwab,Bremerton,408,#408 #0408 #00408,7194 State Highway 303 NE,WA,98311
Les Schwab,Belfair,409,#409 #0409 #00409,NE 23090 State Route 3,WA,98528
Les Schwab,Puyallup,410,#410 #0410 #00410,14009 Canyon Rd E,WA,98373
Les Schwab,Airway Heights,411,#411 #0411 #00411,11003 W Sunset Hwy # 2,WA,99001
Les Schwab,Bellingham,412,#412 #0412 #00412,4020 Meridian St,WA,98226
Les Schwab,Clinton,413,#413 #0413 #00413,11038 State Route 525 # 8,WA,98236
Les Schwab,Oak Harbor,414,#414 #0414 #00414,31720 State Route 20,WA,98277
Les Schwab,Bellingham,415,#415 #0415 #00415,2121 James St,WA,98225
Les Schwab,Anacortes,416,#416 #0416 #00416,2311 Commercial Ave,WA,98221
Les Schwab,Bellingham,417,#417 #0417 #00417,3805 Irongate Rd,WA,98226
Les Schwab,Selah,418,#418 #0418 #00418,365 N Wenas Road,WA,98942
Les Schwab,Bellevue,419,#419 #0419 #00419,12828 Bel Red Rd,WA,98005
Les Schwab,Pasco,420,#420 #0420 #00420,5410 Road 68,WA,99301
Les Schwab,Vancouver,421,#421 #0421 #00421,3200 SE 192nd Ave,WA,98683
Les Schwab,Mukilteo,422,#422 #0422 #00422,11500 Mukilteo Speedway,WA,98275
Les Schwab,Yelm,423,#423 #0423 #00423,811 Yelm Ave E,WA,98597
Les Schwab,College Place,424,#424 #0424 #00424,1735 SE Meadowbrook Blvd,WA,99324
Les Schwab,Seattle,425,#425 #0425 #00425,3801 SW Alaska ST,WA,98126
Les Schwab,Woodland,426,#426 #0426 #00426,1495 Dike Access Rd,WA,98674
Les Schwab,Edgewood,427,#427 #0427 #00427,1283 Meridian Ave E,WA,98371
Les Schwab,Richland,428,#428 #0428 #00428,2825 Queensgate Drive,WA,99352
Les Schwab,Centerville,501,#501 #0501 #00501,285 S Frontage Rd,UT,84014
Les Schwab,Bountiful,502,#502 #0502 #00502,2651 S Main St,UT,84010
Les Schwab,Salt Lake City,503,#503 #0503 #00503,2105 S Redwood Rd,UT,84119
Les Schwab,Ogden,504,#504 #0504 #00504,268 W 12th St,UT,84404
Les Schwab,Midvale,505,#505 #0505 #00505,144 W 7200 S,UT,84047
Les Schwab,Murray,506,#506 #0506 #00506,4355 S State St,UT,84107
Les Schwab,Provo,507,#507 #0507 #00507,965 S University Ave,UT,84601
Les Schwab,Lindon,508,#508 #0508 #00508,589 Lindon Pkwy,UT,84042
Les Schwab,North Logan,509,#509 #0509 #00509,1986 N Main St,UT,84341
Les Schwab,West Valley City,510,#510 #0510 #00510,3751 W 3500 S,UT,84120
Les Schwab,Taylorsville,511,#511 #0511 #00511,3235 W 5400 S,UT,84118
Les Schwab,Brigham City,512,#512 #0512 #00512,885 S Main St,UT,84302
Les Schwab,Holladay,513,#513 #0513 #00513,4011 Highland Dr,UT,84124
Les Schwab,Tooele,514,#514 #0514 #00514,1162 N Main St,UT,84074
Les Schwab,South Jordan,515,#515 #0515 #00515,10532 S Redwood Rd,UT,84095
Les Schwab,Heber City,516,#516 #0516 #00516,1160 S Main St,UT,84032
Les Schwab,Draper,518,#518 #0518 #00518,653 E 12300 S,UT,84020
Les Schwab,Layton,519,#519 #0519 #00519,1270 N Main St,UT,84041
Les Schwab,South Ogden,520,#520 #0520 #00520,5985 Fashion Point Dr,UT,84403
Les Schwab,Riverdale,521,#521 #0521 #00521,627 W Riverdale Rd,UT,84405
Les Schwab,American Fork,522,#522 #0522 #00522,485 N 900 W,UT,84003
Les Schwab,Roy,524,#524 #0524 #00524,5832 S 1900 W,UT,84067
Les Schwab,Kaysville,525,#525 #0525 #00525,251 N 400 W,UT,84037
Les Schwab,Clinton,527,#527 #0527 #00527,1329 N 2000 W,UT,84015
Les Schwab,Logan,528,#528 #0528 #00528,36 West 1200 South,UT,84323
Les Schwab,Dinuba,551,#551 #0551 #00551,1060 W El Monte Way,CA,93618
Les Schwab,Fresno,552,#552 #0552 #00552,3966 N Blackstone Ave,CA,93726
Les Schwab,Fresno,553,#553 #0553 #00553,5740 E Kings Canyon Rd,CA,93727
Les Schwab,Fresno,554,#554 #0554 #00554,4588 W Shaw,CA,93722
Les Schwab,Clovis,555,#555 #0555 #00555,1742 Clovis Ave,CA,93612
Les Schwab,Los Banos,556,#556 #0556 #00556,1500 E Pacheco Blvd,CA,93635
Les Schwab,Bakersfield,558,#558 #0558 #00558,4901 Ming Ave,CA,93309
Les Schwab,Bakersfield,559,#559 #0559 #00559,2512 Oswell St,CA,93306
Les Schwab,Porterville,560,#560 #0560 #00560,640 S Jaye St,CA,93257
Les Schwab,Anderson,601,#601 #0601 #00601,2630 Balls Ferry Rd,CA,96007
Les Schwab,Redding,602,#602 #0602 #00602,1201 Hilltop Dr,CA,96003
Les Schwab,Red Bluff,603,#603 #0603 #00603,522 Antelope Blvd,CA,96080
Les Schwab,Susanville,604,#604 #0604 #00604,2385 Main St,CA,96130
Les Schwab,Alturas,605,#605 #0605 #00605,1201 Spruce St,CA,96101
Les Schwab,Chico,606,#606 #0606 #00606,2420 Notre Dame Blvd,CA,95928
Les Schwab,Paradise,607,#607 #0607 #00607,6308 Skyway,CA,95969
Les Schwab,Oroville,608,#608 #0608 #00608,2103 Lincoln St,CA,95966
Les Schwab,Eureka,609,#609 #0609 #00609,2440 Broadway Street,CA,95501
Les Schwab,Burney,610,#610 #0610 #00610,37462 State Highway 299 E,CA,96013
Les Schwab,Corning,611,#611 #0611 #00611,1436 Solano St,CA,96021
Les Schwab,Orland,612,#612 #0612 #00612,1306 6th St,CA,95963
Les Schwab,Redding,613,#613 #0613 #00613,3161 S Market St,CA,96001
Les Schwab,Yuba City,614,#614 #0614 #00614,1481 Bridge St,CA,95993
Les Schwab,Fortuna,615,#615 #0615 #00615,275 N Fortuna Blvd,CA,95540
Les Schwab,McKinleyville,616,#616 #0616 #00616,2210 Central Ave,CA,95519
Les Schwab,Gridley,617,#617 #0617 #00617,1742 State Highway 99,CA,95948
Les Schwab,Marysville,618,#618 #0618 #00618,5998 Lindhurst Ave,CA,95901
Les Schwab,Chico,619,#619 #0619 #00619,201 W East Ave,CA,95926
Les Schwab,Woodland,620,#620 #0620 #00620,65 W Main St,CA,95695
Les Schwab,Colusa,621,#621 #0621 #00621,1108 Market St,CA,95932
Les Schwab,Crescent City,622,#622 #0622 #00622,1105 Northcrest Dr,CA,95531
Les Schwab,Fairfield,623,#623 #0623 #00623,2160 N Texas St,CA,94533
Les Schwab,Rohnert Park,624,#624 #0624 #00624,5353 Redwood Dr,CA,94928
Les Schwab,Sacramento,625,#625 #0625 #00625,4746 Madison Ave,CA,95841
Les Schwab,Sacramento,626,#626 #0626 #00626,3606 Bradshaw Rd,CA,95827
Les Schwab,Citrus Heights,627,#627 #0627 #00627,8124 Auburn Blvd,CA,95610
Les Schwab,Grass Valley,628,#628 #0628 #00628,570 Freeman Ln,CA,95949
Les Schwab,Folsom,629,#629 #0629 #00629,750 E Bidwell St,CA,95630
Les Schwab,Elk Grove,630,#630 #0630 #00630,8410 Elk Grove Blvd,CA,95758
Les Schwab,Vacaville,631,#631 #0631 #00631,801 Mason St,CA,95688
Les Schwab,Rancho Cordova,632,#632 #0632 #00632,2838 Sunrise Blvd,CA,95742
Les Schwab,Orangevale,633,#633 #0633 #00633,9465 Madison Ave,CA,95662
Les Schwab,Sacramento,634,#634 #0634 #00634,2625 Fulton Ave,CA,95821
Les Schwab,Windsor,635,#635 #0635 #00635,6700 Hembree Ln,CA,95492
Les Schwab,Roseville,636,#636 #0636 #00636,9095 Fairway Dr,CA,95678
Les Schwab,Willits,637,#637 #0637 #00637,1565 S Main St,CA,95490
Les Schwab,Sacramento,639,#639 #0639 #00639,5501 Florin Rd,CA,95823
Les Schwab,Ukiah,640,#640 #0640 #00640,1250 Airport Park Blvd,CA,95482
Les Schwab,Rocklin,641,#641 #0641 #00641,5610 Pacific St,CA,95677
Les Schwab,Lodi,642,#642 #0642 #00642,615 E Lodi Ave,CA,95240
Les Schwab,Antelope,643,#643 #0643 #00643,7880 Walerga Rd,CA,95843
Les Schwab,Sacramento,644,#644 #0644 #00644,3554 Northgate Blvd,CA,95834
Les Schwab,West Sacramento,645,#645 #0645 #00645,631 Harbor Blvd,CA,95691
Les Schwab,Santa Rosa,646,#646 #0646 #00646,1600 Santa Rosa Ave,CA,95404
Les Schwab,Livermore,647,#647 #0647 #00647,2650 Las Positas Rd,CA,94551
Les Schwab,Manteca,648,#648 #0648 #00648,1240 W Yosemite Ave,CA,95337
Les Schwab,Napa,649,#649 #0649 #00649,830 W Imola Ave,CA,94559
Les Schwab,Brentwood,650,#650 #0650 #00650,6361 Lone Tree Way,CA,94513
Les Schwab,Escalon,652,#652 #0652 #00652,1980 McHenry Ave,CA,95320
Les Schwab,Placerville,653,#653 #0653 #00653,1415 Broadway,CA,95667
Les Schwab,Galt,654,#654 #0654 #00654,450 Fairway Dr,CA,95632
Les Schwab,Oakley,656,#656 #0656 #00656,89 Carol Ln,CA,94561
Les Schwab,Stockton,657,#657 #0657 #00657,3554 E Hammer Ln,CA,95212
Les Schwab,Santa Rosa,659,#659 #0659 #00659,4341 Montgomery Dr,CA,95405
Les Schwab,South Lake Tahoe,661,#661 #0661 #00661,1901 Lake Tahoe Blvd,CA,96150
Les Schwab,Jackson,662,#662 #0662 #00662,10861 State Highway 49-88,CA,95642
Les Schwab,Martinez,663,#663 #0663 #00663,3800 Alhambra Ave,CA,94553
Les Schwab,Riverbank,664,#664 #0664 #00664,2560 Patterson Rd,CA,95367
Les Schwab,Tracy,665,#665 #0665 #00665,3260 W Grant Line Rd,CA,95304
Les Schwab,Turlock,668,#668 #0668 #00668,2602 Geer Rd,CA,95382
Les Schwab,San Carlos,669,#669 #0669 #00669,260 El Camino Real,CA,94070
Les Schwab,Modesto,670,#670 #0670 #00670,1830 E Hatch Rd,CA,95351
Les Schwab,Oakdale,671,#671 #0671 #00671,1300 E F St,CA,95361
Les Schwab,Fremont,672,#672 #0672 #00672,36761 Fremont Blvd,CA,94536
Les Schwab,Stockton,673,#673 #0673 #00673,1717 W Charter Way,CA,95206
Les Schwab,Vallejo,674,#674 #0674 #00674,3301 Sonoma Blvd,CA,94590
Les Schwab,Concord,675,#675 #0675 #00675,625 Contra Costa Blvd,CA,94523
Les Schwab,Yreka,676,#676 #0676 #00676,1508 Fairlane Rd,CA,96097
Les Schwab,Ripon,677,#677 #0677 #00677,750 N Jack Tone Rd,CA,95366
Les Schwab,Dixon,678,#678 #0678 #00678,1920 N First St,CA,95620
Les Schwab,Sacramento,679,#679 #0679 #00679,8301 Elk Grove Florin Rd,CA,95829
Les Schwab,Missoula,901,#901 #0901 #00901,2800 W Broadway,MT,59808
Les Schwab,Missoula,902,#902 #0902 #00902,2605 Brooks St,MT,59801
Les Schwab,Kalispell,904,#904 #0904 #00904,1015 W Center St,MT,59901
Les Schwab,Columbia Falls,905,#905 #0905 #00905,1737 9th St W,MT,59912
Les Schwab,Kalispell,906,#906 #0906 #00906,2335 US Highway 2 E,MT,59901
Les Schwab,Whitefish,907,#907 #0907 #00907,6355 US Highway 93 S,MT,59937
Les Schwab,Helena,908,#908 #0908 #00908,2970 Prospect Ave,MT,59601
Les Schwab,Butte,909,#909 #0909 #00909,290 Holland St,MT,59701
Les Schwab,Polson,910,#910 #0910 #00910,36030 Memory Ln,MT,59860
Les Schwab,Ronan,912,#912 #0912 #00912,63360 Hwy 93 S,MT,59864
Les Schwab,Reno,951,#951 #0951 #00951,1290 Kietzke Ln,NV,89502
Les Schwab,Reno,952,#952 #0952 #00952,4175 S Virginia St,NV,89502
Les Schwab,Carson City,953,#953 #0953 #00953,3020 S Carson St,NV,89701
Les Schwab,Fallon,954,#954 #0954 #00954,2555 Reno Hwy,NV,89406
Les Schwab,Winnemucca,955,#955 #0955 #00955,3290 Fountain Way,NV,89445
Les Schwab,Elko,956,#956 #0956 #00956,650 W Silver St,NV,89801
Les Schwab,Sparks,957,#957 #0957 #00957,1405 E Prater Way,NV,89434
Les Schwab,Reno,958,#958 #0958 #00958,1900 Silverada Blvd,NV,89512
Les Schwab,Carson City,959,#959 #0959 #00959,3219 N Carson St,NV,89706
Les Schwab,Reno,960,#960 #0960 #00960,9500 S Virginia St,NV,89511
Les Schwab,Sparks,961,#961 #0961 #00961,501 Los Altos Pkwy,NV,89436
Les Schwab,Roseburg,A03,#A03 #0A03 #00A03,2460 NE Stephens,OR,97470
Les Schwab,Baker City,A08,#A08 #0A08 #00A08,210 Bridge Street,OR,97814
Les Schwab,Quincy,A09,#A09 #0A09 #00A09,116 E Main,CA,95971
Les Schwab,Camas,A14,#A14 #0A14 #00A14,2375 SE 8th Ave,WA,98607
Les Schwab,Davenport,A15,#A15 #0A15 #00A15,310 Morgan,WA,99122
Les Schwab,Stevensville,A16,#A16 #0A16 #00A16,4026 Highway 93N,MT,59870
Les Schwab,Gardnerville,A17,#A17 #0A17 #00A17,1151 Hwy 395 N,NV,89410
Les Schwab,Portland,A18,#A18 #0A18 #00A18,633 NE Broadway,OR,97232
Les Schwab,Portola,A19,#A19 #0A19 #00A19,73816 S Delleker Rd,CA,96122
Les Schwab,Warrenton,A21,#A21 #0A21 #00A21,1167 SE Marlin Avenue,OR,97146
Les Schwab,Seaside,A22,#A22 #0A22 #00A22,2155 S Roosevelt,OR,97138
Les Schwab,Bonners Ferry,A23,#A23 #0A23 #00A23,6804 Denver St HWY 95,ID,83805
Les Schwab,Deer Lodge,A24,#A24 #0A24 #00A24,217 Main,MT,59722
Les Schwab,Newport,A25,#A25 #0A25 #00A25,1155 SW Coast Highway,OR,97365
Les Schwab,Toledo,A26,#A26 #0A26 #00A26,415 NW A St,OR,97391
Les Schwab,Oakridge,A27,#A27 #0A27 #00A27,47406 Hwy 58,OR,97463
Les Schwab,Hillsboro,A28,#A28 #0A28 #00A28,320 SE 10th,OR,97123
Les Schwab,Forest Grove,A29,#A29 #0A29 #00A29,2730 Pacific Avenue,OR,97116
Les Schwab,Ritzville,A35,#A35 #0A35 #00A35,1004 W First Ave,WA,99169
Les Schwab,Rigby,A36,#A36 #0A36 #00A36,126 S State,ID,83442
Les Schwab,Junction City,A40,#A40 #0A40 #00A40,222 W 1st,OR,97448
Les Schwab,Prosser,A43,#A43 #0A43 #00A43,310 Wine Country Road,WA,99350
Les Schwab,Rupert,A46,#A46 #0A46 #00A46,109 S 100 W Hwy 24,ID,83350
Les Schwab,Paul,A47,#A47 #0A47 #00A47,25 W Ellis,ID,83347
Les Schwab,Burley,A52,#A52 #0A52 #00A52,2555 S Overland,ID,83318
Les Schwab,Hamilton,A53,#A53 #0A53 #00A53,211 North 1st St,MT,59840
Les Schwab,Libby,A55,#A55 #0A55 #00A55,32032 Hwy 2,MT,59923
Les Schwab,St. Anthony,A57,#A57 #0A57 #00A57,205 S Bridge,ID,83445
Les Schwab,Sublimity,A62,#A62 #0A62 #00A62,400 SW Sublimity Blvd,OR,97385
Les Schwab,Sisters,A63,#A63 #0A63 #00A63,600 W Hood Ave,OR,97759
Les Schwab,Oroville,A67,#A67 #0A67 #00A67,2304 N Hwy 97,WA,98844
Les Schwab,Salmon,A70,#A70 #0A70 #00A70,71 Hwy 28,ID,83467
Les Schwab,Deer Park,A72,#A72 #0A72 #00A72,202 W First,WA,99006
Les Schwab,Wapato,A73,#A73 #0A73 #00A73,403 West First Street,WA,98951
Les Schwab,Dillon,A75,#A75 #0A75 #00A75,1035 Selway Dr,MT,59725
Les Schwab,Auburn,A77,#A77 #0A77 #00A77,2547 Grass Valley Hwy,CA,95603
Les Schwab,Royal City,A79,#A79 #0A79 #00A79,430 Acacia East,WA,99357
Les Schwab,Republic,A81,#A81 #0A81 #00A81,30398 E Highway 20,WA,99166
Les Schwab,Benton City,A83,#A83 #0A83 #00A83,744 9th Street,WA,99320
Les Schwab,Grandview,A84,#A84 #0A84 #00A84,812 W Wine Country Rd,WA,98930
Les Schwab,Price,A87,#A87 #0A87 #00A87,200 E Main St,UT,84501
Les Schwab,Bend,A89,#A89 #0A89 #00A89,61085 S Hwy 97,OR,97702
Les Schwab,Lynden,S02,#S02 #0S02 #00S02,210 Birch Bay-Lynden Rd,WA,98264
Les Schwab,Edmonds,S05,#S05 #0S05 #00S05,23110A Highway 99,WA,98026
Les Schwab,Shoreline,S06,#S06 #0S06 #00S06,17754 15th NE,WA,98155
Les Schwab,Seattle,S08,#S08 #0S08 #00S08,5000 15th NW,WA,98107
Les Schwab,Lynnwood,S09,#S09 #0S09 #00S09,4933 196th SW,WA,98036
Les Schwab,Everett,S10,#S10 #0S10 #00S10,4805 Evergreen Way,WA,98203
Les Schwab,Everett,S12,#S12 #0S12 #00S12,2701 Walnut Street,WA,98206
Les Schwab,Everett,S13,#S13 #0S13 #00S13,1415 112th St SE,WA,98208
Les Schwab,Olympia,S20,#S20 #0S20 #00S20,210 State Ave NW,WA,98501
Les Schwab,Puyallup,S22,#S22 #0S22 #00S22,403 N Meridian,WA,98371
Les Schwab,Chelan,S23,#S23 #0S23 #00S23,1056 E Woodin Avenue,WA,98816
Les Schwab,Juneau,S24,#S24 #0S24 #00S24,8555 Airport Blvd,AK,99801
Les Schwab,Brewster,S27,#S27 #0S27 #00S27,510 N Bridge,WA,98812
Les Schwab,Twisp,S29,#S29 #0S29 #00S29,216 S Methow Valley Hwy,WA,98856
Les Schwab,Fife,S30,#S30 #0S30 #00S30,1334 54th Ave E,WA,98424
Les Schwab,Shelton,S32,#S32 #0S32 #00S32,2505 Olympic Hwy N #300,WA,98584
Les Schwab,Burlington,S33,#S33 #0S33 #00S33,903 S Burlington Blvd,WA,98233
Les Schwab,Stanwood,S34,#S34 #0S34 #00S34,27001 Pioneer Hwy,WA,98292
Les Schwab,Sedro Woolley,S35,#S35 #0S35 #00S35,204 W Moore St,WA,98284
Les Schwab,Mount Vernon,S40,#S40 #0S40 #00S40,1003 W Division,WA,98273
