keywords,city,Aggdata Store Number,store_number,address,state,zip_code
Life time Fitness,Eagan,2,#2 2,1565 Thomas Center Drive,MN,55122
Life time Fitness,Woodbury,3,#3 3,675 Commons Drive,MN,55125
Life time Fitness,Roseville,4,#4 4,2480 Fairview Avenue North,MN,55113
Life time Fitness,St Paul,5,#5 5,2145 Ford Parkway,MN,55116
Life time Fitness,Coon Rapids,6,#6 6,2100 Northdale Boulevard NW,MN,55433
Life time Fitness,Bloomington,7,#7 7,5250 West 84th Street,MN,55437
Life time Fitness,Plymouth,8,#8 8,3600 Plymouth Boulevard,MN,55446
Life time Fitness,Apple Valley,10,#10 10,5995 149th Street West,MN,55124
Life time Fitness,Minneapolis,11,#11 11,615 Second Avenue South,MN,55402
Life time Fitness,Champlin,12,#12 12,11989 Champlin Drive,MN,55316
Life time Fitness,Algonquin,14,#14 14,451 Rolls Drive,IL,60102
Life time Fitness,Orland Park,15,#15 15,16333 South La Grange Rd.,IL,60467
Life time Fitness,Troy,20,#20 20,4700 Investment Drive,MI,48098
Life time Fitness,Novi,21,#21 21,40000 High Pointe Boulevard,MI,48375
Life time Fitness,Shelby,22,#22 22,14843 Lakeside Blvd.,MI,48315
Life time Fitness,INpolis,30,#30 30,8705 Castle Creek Parkway,IN,46250
Life time Fitness,Centreville,35,#35 35,5900 Trinity Parkway,VA,20120
Life time Fitness,Fairfax,36,#36 36,9602 Main Street,VA,22031
Life time Fitness,Columbus,40,#40 40,3900 Easton Station,OH,43219
Life time Fitness,Schaumburg,50,#50 50,900 East Higgins Road,IL,60173
Life time Fitness,Bloomingdale,51,#51 51,455 Scott Drive,IL,60108
Life time Fitness,Warrenville,52,#52 52,28141 Diehl Rd,IL,60555
Life time Fitness,Burr Ridge,53,#53 53,601 Burr Ridge Parkway,IL,60527
Life time Fitness,Rochester Hills,126,#126 126,200 West Avon Road,MI,48307
Life time Fitness,Skokie,128,#128 128,5300 Old Orchard Road,IL,60077
Life time Fitness,Canton,131,#131 131,1700 Haggerty Road North,MI,48187
Life time Fitness,Tempe,132,#132 132,1616 West Ruby Drive,AZ,85284
Life time Fitness,Savage,133,#133 133,6554 Loftus Lane West,MN,55378
Life time Fitness,Plano,136,#136 136,7100 Preston Road,TX,75024
Life time Fitness,Gilbert,137,#137 137,381 East Warner Road,AZ,85296
Life time Fitness,Houston,138,#138 138,7717 Willowchase Blvd,TX,77070
Life time Fitness,Garland,139,#139 139,5602 Naaman Forest Blvd.,TX,75044
Life time Fitness,Sugar Land,140,#140 140,1331 Highway 6,TX,77478
Life time Fitness,New Hope,141,#141 141,4239 Winnetka Ave. No.,MN,55428
Life time Fitness,Colleyville,142,#142 142,1221 Church Street,TX,76034
Life time Fitness,Flower Mound,143,#143 143,3100 Churchill Drive,TX,75022
Life time Fitness,Commerce Township,144,#144 144,2901 Commerce Crossing Blvd,MI,48390
Life time Fitness,Katy,146,#146 146,23211 Cinco Ranch Blvd.,TX,77494
Life time Fitness,Dallas,147,#147 147,3419 Trinity Mills Road,TX,75287
Life time Fitness,Columbia,148,#148 148,7220 Lee DeForest Dr.,MD,21046
Life time Fitness,Austin,149,#149 149,13725 No. R.M. 620,TX,78717
Life time Fitness,Romeoville,150,#150 150,1220 Lakeview Drive,IL,60446
Life time Fitness,Chanhassen,151,#151 151,2901 Corporate Place,MN,55317
Life time Fitness,San Antonio,152,#152 152,18510 US 281 North,TX,78259
Life time Fitness,Allen,153,#153 153,971 State Hwy 121,TX,75013
Life time Fitness,South Jordan,154,#154 154,10996 South River Front Pkwy,UT,84095
Life time Fitness,Scottsdale,155,#155 155,6850 East Chauncey Lane,AZ,85054
Life time Fitness,Goodyear,156,#156 156,14540 West McDowell Road,AZ,85395
Life time Fitness,Overland Park,157,#157 157,6800 West 138th Street,KS,66223
Life time Fitness,Alpharetta,158,#158 158,855 North Point Parkway,GA,30005
Life time Fitness,Dublin,159,#159 159,3825 Hard Road,OH,43016
Life time Fitness,Cary,160,#160 160,1700 Regency Parkway,NC,27518
Life time Fitness,Omaha,161,#161 161,17007 Elm St.,NE,68130
Life time Fitness,Deerfield Township,162,#162 162,8310 Wilkens Blvd,OH,45040
Life time Fitness,Austin,163,#163 163,7101 S. MoPac Expy NB,TX,78749
Life time Fitness,Lakeville,164,#164 164,18425 Dodd Blvd,MN,55044
Life time Fitness,Florham Park,165,#165 165,14 Fernwood Road,NJ,7932
Life time Fitness,Minnetonka,166,#166 166,3310 County Road 101 South,MN,55391
Life time Fitness,Maple Grove,167,#167 167,12601 82nd Ave. No.,MN,55369
Life time Fitness,Parker,168,#168 168,9250 Crown Crest Blvd.,CO,80138
Life time Fitness,Lawrenceville,169,#169 169,1823 N Brown Rd NW,GA,30043
Life time Fitness,Fridley,170,#170 170,1200 East Moore Lake Drive,MN,55432
Life time Fitness,Minnetonka,171,#171 171,1201 Ford Road,MN,55305
Life time Fitness,Minneapolis,172,#172 172,600 1st Ave. N,MN,55403
Life time Fitness,Eden Prairie,173,#173 173,6233 Baker Road,MN,55344
Life time Fitness,St. Louis Park,174,#174 174,5525 Cedar Lake Road,MN,55416
Life time Fitness,Eden Prairie,175,#175 175,755 Prairie Center Drive,MN,55344
Life time Fitness,Bloomington,176,#176 176,1001 West 98th Street,MN,55431
Life time Fitness,Boca Raton,178,#178 178,1499 Yamato Road,FL,33431
Life time Fitness,San Antonio,179,#179 179,5639 Worth Parkway,TX,78257
Life time Fitness,Houston,180,#180 180,815 Town & Country Lane,TX,77024
Life time Fitness,Ellisville,181,#181 181,3058 Clarkson Road,MO,63017
Life time Fitness,Woodstock,182,#182 182,14200 Highway 92,GA,30188
Life time Fitness,Vernon Hills,183,#183 183,680 Woodlands Parkway,IL,60061
Life time Fitness,Johns Creek,184,#184 184,11555 Johns Creek Parkway,GA,30097
Life time Fitness,Mansfield,185,#185 185,1551 E. Debbie Lane,TX,76063
Life time Fitness,Sterling,186,#186 186,44610 Prentice Drive,VA,20166
Life time Fitness,Collierville,187,#187 187,3470 Houston Levee Road,TN,38139
Life time Fitness,Berkeley Heights,188,#188 188,25 Connell Drive,NJ,7922
Life time Fitness,White Bear Lake,189,#189 189,4800 White Bear Parkway,MN,55110
Life time Fitness,Dallas,190,#190 190,5910 North Central Expressway,TX,75206
Life time Fitness,Rockville,191,#191 191,1151 Seven Locks Road,MD,20854
Life time Fitness,Westminster,192,#192 192,397 West 148th Ave,CO,80020
Life time Fitness,Las Vegas,193,#193 193,10721 West Charleston Boulevard,NV,89135
Life time Fitness,Centennial,194,#194 194,5000 E Dry Creek Road,CO,80122
Life time Fitness,Beachwood,195,#195 195,3850 Richmond Road,OH,44122
Life time Fitness,Humble,196,#196 196,13600 Will Clayton Parkway,TX,77346
Life time Fitness,CO Springs,197,#197 197,4410 Royal Pine Drive,CO,80920
Life time Fitness,Lenexa,198,#198 198,16851 West 90th Street,KS,66219
Life time Fitness,Bixby,199,#199 199,10642 South Memorial Dr.,OK,74133
Life time Fitness,Syosset,200,#200 200,350 Robbins Lane,NY,11791
Life time Fitness,Vestavia Hills,201,#201 201,3051 Healthy Way,AL,35243
Life time Fitness,Scottsdale,203,#203 203,8642 East Shea Blvd,AZ,85260
Life time Fitness,Minneapolis,204,#204 204,2901 Hennepin Ave. So,MN,55408
Life time Fitness,Humble,206,#206 206,20515 West Lake Houston Pkwy,TX,77346
Life time Fitness,Sandy Springs,208,#208 208,5580 Roswell Road,GA,30342
Life time Fitness,Tampa,213,#213 213,2223 N. Westshore BLVD #1002,FL,33607
Life time Fitness,Bloomfield Township,217,#217 217,4106 Telegraph Road,MI,48302
Life time Fitness,Matthews,221,#221 221,9915 East Independence Blvd,NC,28105
Life time Fitness,Charlotte,222,#222 222,8514 University Blvd.,NC,28213
Life time Fitness,Columbus,223,#223 223,1860 Henderson Road,OH,43220
Life time Fitness,Pickerington,224,#224 224,1520 Stonecreek Drive South,OH,43147
Life time Fitness,INpolis,225,#225 225,11691 Fishers Corner Blvd.,IN,46038
Life time Fitness,INpolis,226,#226 226,9525 Meridian Street,IN,46260
Life time Fitness,Apex,227,#227 227,1040 Vision Drive,NC,27523
Life time Fitness,Raleigh,228,#228 228,6461 Triangle Plantation Dr,NC,27616
Life time Fitness,Raleigh,229,#229 229,601 E. Six Forks Road,NC,27609
Life time Fitness,Plano,230,#230 230,7090 Preston Road,TX,75024
Life time Fitness,Centennial,231,#231 231,5000 E Dry Creek Road,CO,80122
Life time Fitness,Norcross,232,#232 232,6350 Courtside Drive,GA,30092
Life time Fitness,Reston,233,#233 233,1757 Business Center Drive,VA,20190
Life time Fitness,Montvale,235,#235 235,10 Van Riper Road,NJ,7645
Life time Fitness,Harrison,236,#236 236,1 Westchester Park Drive,NY,10604
Life time Fitness,Laguna Niguel,237,#237 237,"28221 Crown Valley Pkwy, Suite F/G",CA,92677
Life time Fitness,Urbandale,238,#238 238,11911 Hickman Road,IA,50323
