keywords,city,Aggdata Store Number,store_number,address,state,zip_code
Loaf 'N Jug,Fowler,67300001,#001 #1 #0001 01 #01 67300001,2Nd. & Cranston,CO,81039
Loaf 'N Jug,Pueblo,67300002,#002 #2 #0002 02 #02 67300002,2050 Lake Ave,CO,81004
Loaf 'N Jug,Walsenburg,67300003,#003 #3 #0003 03 #03 67300003,200 Main St,CO,81089
Loaf 'N Jug,Boise City,67300004,#004 #4 #0004 04 #04 67300004,323 Main St.,OK,73933
Loaf 'N Jug,Springfield,67300005,#005 #5 #0005 05 #05 67300005,1101 Main St,CO,81073
Loaf 'N Jug,Colorado Springs,67300006,#006 #6 #0006 06 #06 67300006,4770 Drennan Rd,CO,80916
Loaf 'N Jug,Parker,67300007,#007 #7 #0007 07 #07 67300007,9028 S Woodman Way,CO,80134
Loaf 'N Jug,Pueblo,67300008,#008 #8 #0008 08 #08 67300008,2610 Santa Fe Dr,CO,81006
Loaf 'N Jug,Buena Vista,67300009,#009 #9 #0009 09 #09 67300009,610 Us Highway 24 S,CO,81211
Loaf 'N Jug,Alamosa,67300010,#0010 #10 #00010 010 #010 67300010,102 Highway 160 East,CO,81101
Loaf 'N Jug,Castle Rock,67300011,#0011 #11 #00011 011 #011 67300011,4901 Castleton Dr,CO,80109
Loaf 'N Jug,Berthoud,67300012,#0012 #12 #00012 012 #012 67300012,67 Gateway Cir,CO,80513
Loaf 'N Jug,La Junta,67300013,#0013 #13 #00013 013 #013 67300013,918 W 3Rd St,CO,81050
Loaf 'N Jug,Pueblo,67300014,#0014 #14 #00014 014 #014 67300014,1201 W Pueblo Blvd,CO,81004
Loaf 'N Jug,Avondale,67300015,#0015 #15 #00015 015 #015 67300015,243 E Us Highway 50,CO,81022
Loaf 'N Jug,La Junta,67300016,#0016 #16 #00016 016 #016 67300016,101 N Main St,CO,81050
Loaf 'N Jug,Centennial,67300018,#0018 #18 #00018 018 #018 67300018,19853 E Smoky Hill Rd,CO,80015
Loaf 'N Jug,Fort Collins,67300019,#0019 #19 #00019 019 #019 67300019,150 W. Drake Rd.,CO,80525
Loaf 'N Jug,Littleton,67300020,#0020 #20 #00020 020 #020 67300020,5091 S Jellison Way,CO,80123
Loaf 'N Jug,Greenwood Village,67300022,#0022 #22 #00022 022 #022 67300022,5950 S Holly St,CO,80111
Loaf 'N Jug,Colorado City,67300024,#0024 #24 #00024 024 #024 67300024,4401 Hwy 165,CO,81019
Loaf 'N Jug,Pueblo,67300025,#0025 #25 #00025 025 #025 67300025,4800 Thatcher Ave,CO,81005
Loaf 'N Jug,Woodland Park,67300026,#0026 #26 #00026 026 #026 67300026,260 E. Hwy 24,CO,80863
Loaf 'N Jug,Raton,67300027,#0027 #27 #00027 027 #027 67300027,1262 S 2Nd St,NM,87740
Loaf 'N Jug,Pueblo,67300028,#0028 #28 #00028 028 #028 67300028,120 S Santa Fe Ave,CO,81003
Loaf 'N Jug,Colorado Springs,67300033,#0033 #33 #00033 033 #033 67300033,2802 E Pikes Peak Ave,CO,80909
Loaf 'N Jug,Pueblo,67300034,#0034 #34 #00034 034 #034 67300034,33 Montebello Rd,CO,81001
Loaf 'N Jug,Pueblo,67300035,#0035 #35 #00035 035 #035 67300035,36031 E Us Highway 50,CO,81006
Loaf 'N Jug,Colorado Springs,67300036,#0036 #36 #00036 036 #036 67300036,710 Cheyenne Meadows Rd,CO,80906
Loaf 'N Jug,Pueblo,67300037,#0037 #37 #00037 037 #037 67300037,3980 Ivywood Ln,CO,81005
Loaf 'N Jug,Pueblo,67300038,#0038 #38 #00038 038 #038 67300038,1002 Bonforte Blvd,CO,81001
Loaf 'N Jug,Colorado Springs,67300039,#0039 #39 #00039 039 #039 67300039,2505 S Chelton Rd,CO,80916
Loaf 'N Jug,Colorado Springs,67300040,#0040 #40 #00040 040 #040 67300040,4335 Airport Rd,CO,80916
Loaf 'N Jug,Colorado Springs,67300041,#0041 #41 #00041 041 #041 67300041,6857 Space Village Ave,CO,80915
Loaf 'N Jug,Colorado Springs,67300042,#0042 #42 #00042 042 #042 67300042,1930 S Academy Blvd,CO,80916
Loaf 'N Jug,Parker,67300043,#0043 #43 #00043 043 #043 67300043,9364 S. Jordan Rd.,CO,80134
Loaf 'N Jug,Colorado Springs,67300045,#0045 #45 #00045 045 #045 67300045,3705 Drennan Rd,CO,80910
Loaf 'N Jug,Eagle,67300047,#0047 #47 #00047 047 #047 67300047,0112 Fairgrounds Rd.,CO,81631
Loaf 'N Jug,Frisco,67300048,#0048 #48 #00048 048 #048 67300048,201 Main Street,CO,80443
Loaf 'N Jug,Rocky Ford,67300049,#0049 #49 #00049 049 #049 67300049,305 N 10Th St,CO,81067
Loaf 'N Jug,Calhan,67300050,#0050 #50 #00050 050 #050 67300050,1025 5Th St,CO,80808
Loaf 'N Jug,Pueblo,67300052,#0052 #52 #00052 052 #052 67300052,2405 W Northern Ave,CO,81004
Loaf 'N Jug,Colorado Springs,67300053,#0053 #53 #00053 053 #053 67300053,6695 Galley Rd,CO,80915
Loaf 'N Jug,Canon City,67300054,#0054 #54 #00054 054 #054 67300054,912 Royal Gorge Blvd,CO,81212
Loaf 'N Jug,Salida,67300055,#0055 #55 #00055 055 #055 67300055,448 Highway 50 East,CO,81201
Loaf 'N Jug,Manitou Springs,67300056,#0056 #56 #00056 056 #056 67300056,137 Manitou Ave,CO,80829
Loaf 'N Jug,Lamar,67300057,#0057 #57 #00057 057 #057 67300057,1107 S Main St,CO,81052
Loaf 'N Jug,Lamar,67300058,#0058 #58 #00058 058 #058 67300058,300 N Main St,CO,81052
Loaf 'N Jug,Las Animas,67300059,#0059 #59 #00059 059 #059 67300059,415 Ambassador Thompson Blvd,CO,81054
Loaf 'N Jug,Breckenridge,67300060,#0060 #60 #00060 060 #060 67300060,440 N Park Ave,CO,80424
Loaf 'N Jug,Colorado Springs,67300061,#0061 #61 #00061 061 #061 67300061,13854 Gleneagle Dr,CO,80921
Loaf 'N Jug,Limon,67300064,#0064 #64 #00064 064 #064 67300064,707 Main St,CO,80828
Loaf 'N Jug,Pueblo,67300065,#0065 #65 #00065 065 #065 67300065,2119 E 4Th St,CO,81001
Loaf 'N Jug,Flagler,67300066,#0066 #66 #00066 066 #066 67300066,317 E High St,CO,80815
Loaf 'N Jug,Pueblo,67300067,#0067 #67 #00067 067 #067 67300067,1525 W 4Th St,CO,81004
Loaf 'N Jug,Hugo,67300068,#0068 #68 #00068 068 #068 67300068,109 West 4Th Street,CO,80821
Loaf 'N Jug,Woodland Park,67300069,#0069 #69 #00069 069 #069 67300069,519 W Hwy 24,CO,80866
Loaf 'N Jug,Pueblo,67300070,#0070 #70 #00070 070 #070 67300070,4001 Jerry Murphy Rd,CO,81001
Loaf 'N Jug,Pueblo,67300071,#0071 #71 #00071 071 #071 67300071,1201 W 17Th St,CO,81003
Loaf 'N Jug,Pueblo,67300073,#0073 #73 #00073 073 #073 67300073,2202 W 18Th St,CO,81003
Loaf 'N Jug,Pueblo,67300074,#0074 #74 #00074 074 #074 67300074,31918 Hwy 96 East,CO,81006
Loaf 'N Jug,Pueblo,67300075,#0075 #75 #00075 075 #075 67300075,1700 Santa Fe Dr,CO,81006
Loaf 'N Jug,Florence,67300076,#0076 #76 #00076 076 #076 67300076,506 E Main St,CO,81226
Loaf 'N Jug,Pueblo,67300078,#0078 #78 #00078 078 #078 67300078,2120 Oakshire Ln,CO,81001
Loaf 'N Jug,Pueblo,67300079,#0079 #79 #00079 079 #079 67300079,420 Eagleridge Blvd,CO,81008
Loaf 'N Jug,Fountain,67300080,#0080 #80 #00080 080 #080 67300080,102 S Santa Fe Ave,CO,80817
Loaf 'N Jug,Golden,67300081,#0081 #81 #00081 081 #081 67300081,102 N Rubey Dr,CO,80403
Loaf 'N Jug,Pueblo West,67300082,#0082 #82 #00082 082 #082 67300082,14 W Spaulding Ave,CO,81007
Loaf 'N Jug,Golden,67300083,#0083 #83 #00083 083 #083 67300083,700 Warner Dr,CO,80401
Loaf 'N Jug,Pueblo,67300084,#0084 #84 #00084 084 #084 67300084,1104 Pueblo Boulevard Way,CO,81005
Loaf 'N Jug,Pueblo,67300085,#0085 #85 #00085 085 #085 67300085,136 S Purcell Blvd,CO,81007
Loaf 'N Jug,Pueblo,67300086,#0086 #86 #00086 086 #086 67300086,2810 Troy Ave,CO,81001
Loaf 'N Jug,Pueblo,67300087,#0087 #87 #00087 087 #087 67300087,4125 W Northern Ave,CO,81005
Loaf 'N Jug,Evergreen,67300089,#0089 #89 #00089 089 #089 67300089,1277 Bergen Pkwy,CO,80439
Loaf 'N Jug,Conifer,67300090,#0090 #90 #00090 090 #090 67300090,26067 Conifer Rd,CO,80433
Loaf 'N Jug,Colorado Springs,67300091,#0091 #91 #00091 091 #091 67300091,5375 Airport Rd,CO,80916
Loaf 'N Jug,Colorado Springs,67300092,#0092 #92 #00092 092 #092 67300092,1019 Space Center Dr,CO,80915
Loaf 'N Jug,Pueblo,67300093,#0093 #93 #00093 093 #093 67300093,905 W Us Highway 50,CO,81008
Loaf 'N Jug,Arvada,67300094,#0094 #94 #00094 094 #094 67300094,16355 W 64Th Ave,CO,80007
Loaf 'N Jug,Longmont,67300095,#0095 #95 #00095 095 #095 67300095,200 Lashley St,CO,80501
Loaf 'N Jug,Bailey,67300097,#0097 #97 #00097 097 #097 67300097,173 Bull Dogger Rd,CO,80421
Loaf 'N Jug,Colorado Springs,67300098,#0098 #98 #00098 098 #098 67300098,5825 N Academy Blvd,CO,80918
Loaf 'N Jug,Colorado Springs,67300099,#0099 #99 #00099 099 #099 67300099,4098 Arrowswest Dr,CO,80907
Loaf 'N Jug,Casper,67300102,#00102 #102 #000102 0102 #0102 67300102,933 N Center St,WY,82601
Loaf 'N Jug,Casper,67300103,#00103 #103 #000103 0103 #0103 67300103,285 Honeysuckle St,WY,82604
Loaf 'N Jug,Casper,67300104,#00104 #104 #000104 0104 #0104 67300104,2400 Cy Ave,WY,82604
Loaf 'N Jug,Casper,67300105,#00105 #105 #000105 0105 #0105 67300105,1900 E 2Nd St,WY,82601
Loaf 'N Jug,Casper,67300106,#00106 #106 #000106 0106 #0106 67300106,4380 S Poplar St,WY,82601
Loaf 'N Jug,Casper,67300107,#00107 #107 #000107 0107 #0107 67300107,703 N Mckinley St,WY,82601
Loaf 'N Jug,Casper,67300109,#00109 #109 #000109 0109 #0109 67300109,1199 S Beverly St,WY,82609
Loaf 'N Jug,Casper,67300110,#00110 #110 #000110 0110 #0110 67300110,3597 Salt Creek Hwy,WY,82601
Loaf 'N Jug,Casper,67300111,#00111 #111 #000111 0111 #0111 67300111,3830 E 2Nd St,WY,82609
Loaf 'N Jug,Mills,67300114,#00114 #114 #000114 0114 #0114 67300114,4603 W. Yellowstone,WY,82644
Loaf 'N Jug,Cheyenne,67300115,#00115 #115 #000115 0115 #0115 67300115,820 Randall Ave,WY,82001
Loaf 'N Jug,Cheyenne,67300116,#00116 #116 #000116 0116 #0116 67300116,5539 Yellowstone Rd,WY,82009
Loaf 'N Jug,Cheyenne,67300118,#00118 #118 #000118 0118 #0118 67300118,1922 E Lincolnway,WY,82001
Loaf 'N Jug,Cheyenne,67300119,#00119 #119 #000119 0119 #0119 67300119,534 Vandehei Ave,WY,82009
Loaf 'N Jug,Laramie,67300122,#00122 #122 #000122 0122 #0122 67300122,818 S 3Rd St,WY,82070
Loaf 'N Jug,Laramie,67300123,#00123 #123 #000123 0123 #0123 67300123,2318 E Grand Ave,WY,82070
Loaf 'N Jug,Rawlins,67300124,#00124 #124 #000124 0124 #0124 67300124,902 W Spruce St,WY,82301
Loaf 'N Jug,Douglas,67300125,#00125 #125 #000125 0125 #0125 67300125,714 S 4Th St,WY,82633
Loaf 'N Jug,Evansville,67300127,#00127 #127 #000127 0127 #0127 67300127,59 S. Curtis,WY,82636
Loaf 'N Jug,Casper,67300130,#00130 #130 #000130 0130 #0130 67300130,938 S Poplar St,WY,82601
Loaf 'N Jug,Casper,67300131,#00131 #131 #000131 0131 #0131 67300131,1510 Centennial Court,WY,82609
Loaf 'N Jug,Big Piney,67300134,#00134 #134 #000134 0134 #0134 67300134,109 Us 189,WY,83113
Loaf 'N Jug,Jackson,67300136,#00136 #136 #000136 0136 #0136 67300136,395 W Broadway Ave,WY,83001
Loaf 'N Jug,Gillette,67300149,#00149 #149 #000149 0149 #0149 67300149,401 S Douglas Hwy,WY,82716
Loaf 'N Jug,Rock Springs,67300150,#00150 #150 #000150 0150 #0150 67300150,1310 Dewar Dr,WY,82901
Loaf 'N Jug,Rock Springs,67300151,#00151 #151 #000151 0151 #0151 67300151,2558 Foothill Blvd,WY,82901
Loaf 'N Jug,Green River,67300152,#00152 #152 #000152 0152 #0152 67300152,1325 Bridger Dr,WY,82935
Loaf 'N Jug,Green River,67300153,#00153 #153 #000153 0153 #0153 67300153,895 Uinta Dr,WY,82935
Loaf 'N Jug,Green River,67300154,#00154 #154 #000154 0154 #0154 67300154,515 E Flaming Gorge Way,WY,82935
Loaf 'N Jug,Lander,67300155,#00155 #155 #000155 0155 #0155 67300155,195 Main St,WY,82520
Loaf 'N Jug,Riverton,67300156,#00156 #156 #000156 0156 #0156 67300156,305 N Federal Blvd,WY,82501
Loaf 'N Jug,Worland,67300157,#00157 #157 #000157 0157 #0157 67300157,1200 Big Horn Ave,WY,82401
Loaf 'N Jug,Evanston,67300158,#00158 #158 #000158 0158 #0158 67300158,40 Yellow Creek Rd,WY,82930
Loaf 'N Jug,Rock Springs,67300159,#00159 #159 #000159 0159 #0159 67300159,3036 College Dr,WY,82901
Loaf 'N Jug,Gillette,67300162,#00162 #162 #000162 0162 #0162 67300162,2800 South Hwy 59,WY,82716
Loaf 'N Jug,Newcastle,67300167,#00167 #167 #000167 0167 #0167 67300167,731 Washington Blvd,WY,82701
Loaf 'N Jug,Jackson,67300174,#00174 #174 #000174 0174 #0174 67300174,750 S Hwy 89,WY,83001
Loaf 'N Jug,Cheyenne,67300192,#00192 #192 #000192 0192 #0192 67300192,3920 E 12Th St,WY,82001
Loaf 'N Jug,Cheyenne,67300193,#00193 #193 #000193 0193 #0193 67300193,2414 Dell Range Blvd,WY,82009
Loaf 'N Jug,Cheyenne,67300194,#00194 #194 #000194 0194 #0194 67300194,1610 S Greeley Hwy,WY,82007
Loaf 'N Jug,Cheyenne,67300195,#00195 #195 #000195 0195 #0195 67300195,4373 E Lincolnway,WY,82001
Loaf 'N Jug,Pueblo,67300202,#00202 #202 #000202 0202 #0202 67300202,1818 N Norwood Ave,CO,81001
Loaf 'N Jug,Pueblo,67300203,#00203 #203 #000203 0203 #0203 67300203,2419 N Elizabeth St,CO,81003
Loaf 'N Jug,Gering,67300333,#00333 #333 #000333 0333 #0333 67300333,2015 10Th St,NE,69341
Loaf 'N Jug,Rapid City,67300443,#00443 #443 #000443 0443 #0443 67300443,3106 W Main St,SD,57702
Loaf 'N Jug,Rapid City,67300444,#00444 #444 #000444 0444 #0444 67300444,1627 Mount Rushmore Rd,SD,57701
Loaf 'N Jug,Spearfish,67300445,#00445 #445 #000445 0445 #0445 67300445,813 Main St,SD,57783
Loaf 'N Jug,Rapid City,67300446,#00446 #446 #000446 0446 #0446 67300446,2700 E Highway 44,SD,57703
Loaf 'N Jug,Rapid City,67300447,#00447 #447 #000447 0447 #0447 67300447,1601 North Haines,SD,57701
Loaf 'N Jug,Box Elder,67300449,#00449 #449 #000449 0449 #0449 67300449,437 N Ellsworth Rd,SD,57719
Loaf 'N Jug,Fountain,67300601,#00601 #601 #000601 0601 #0601 67300601,7055 Alegre Cir,CO,80817
Loaf 'N Jug,Fargo,67300619,#00619 #619 #000619 0619 #0619 67300619,1833 University Dr S,ND,58103
Loaf 'N Jug,Grand Forks,67300642,#00642 #642 #000642 0642 #0642 67300642,4250 University Ave,ND,58203
Loaf 'N Jug,Grand Forks,67300664,#00664 #664 #000664 0664 #0664 67300664,4326 Gateway Dr,ND,58203
Loaf 'N Jug,Minot,67300670,#00670 #670 #000670 0670 #0670 67300670,1512 4Th Ave Nw,ND,58703
Loaf 'N Jug,Minot,67300671,#00671 #671 #000671 0671 #0671 67300671,409 4Th Ave Se,ND,58701
Loaf 'N Jug,Minot,67300673,#00673 #673 #000673 0673 #0673 67300673,810 N Broadway,ND,58703
Loaf 'N Jug,Dickinson,67300675,#00675 #675 #000675 0675 #0675 67300675,797 S Main Ave,ND,58601
Loaf 'N Jug,Jamestown,67300679,#00679 #679 #000679 0679 #0679 67300679,424 1St Ave N,ND,58401
Loaf 'N Jug,Bismarck,67300682,#00682 #682 #000682 0682 #0682 67300682,2600 E Rosser Ave,ND,58501
Loaf 'N Jug,Beulah,67300684,#00684 #684 #000684 0684 #0684 67300684,515 W Main St,ND,58523
Loaf 'N Jug,Bismarck,67300685,#00685 #685 #000685 0685 #0685 67300685,2835 N Washington St,ND,58501
Loaf 'N Jug,Fargo,67300687,#00687 #687 #000687 0687 #0687 67300687,1201 University Dr N,ND,58102
Loaf 'N Jug,Fargo,67300688,#00688 #688 #000688 0688 #0688 67300688,3201 Broadway N,ND,58102
Loaf 'N Jug,Fargo,67300689,#00689 #689 #000689 0689 #0689 67300689,2201 18Th St S,ND,58103
Loaf 'N Jug,Glendive,67300710,#00710 #710 #000710 0710 #0710 67300710,322 E Barry St,MT,59330
Loaf 'N Jug,Sidney,67300712,#00712 #712 #000712 0712 #0712 67300712,706 S Central Ave,MT,59270
Loaf 'N Jug,Fairview,67300714,#00714 #714 #000714 0714 #0714 67300714,516 S. Ellery,MT,59221
Loaf 'N Jug,Bozeman,67300728,#00728 #728 #000728 0728 #0728 67300728,717 W College St,MT,59715
Loaf 'N Jug,Bozeman,67300729,#00729 #729 #000729 0729 #0729 67300729,1910 W Main St,MT,59718
Loaf 'N Jug,Great Falls,67300765,#00765 #765 #000765 0765 #0765 67300765,3726 2Nd Ave N,MT,59401
Loaf 'N Jug,Great Falls,67300766,#00766 #766 #000766 0766 #0766 67300766,900 1St Ave N,MT,59401
Loaf 'N Jug,Great Falls,67300767,#00767 #767 #000767 0767 #0767 67300767,601 Smelter Ave Ne,MT,59404
Loaf 'N Jug,Great Falls,67300768,#00768 #768 #000768 0768 #0768 67300768,1225 Central Ave W,MT,59404
Loaf 'N Jug,Denver,67300801,#00801 #801 #000801 0801 #0801 67300801,1495 S Colorado Blvd,CO,80222
Loaf 'N Jug,Lakewood,67300802,#00802 #802 #000802 0802 #0802 67300802,198 S Union Blvd,CO,80228
Loaf 'N Jug,Englewood,67300803,#00803 #803 #000803 0803 #0803 67300803,490 W Hampden Ave,CO,80110
Loaf 'N Jug,Steamboat Springs,67300804,#00804 #804 #000804 0804 #0804 67300804,555 Marketplace Plaza,CO,80488
Loaf 'N Jug,Wellington,67300846,#00846 #846 #000846 0846 #0846 67300846,8211 Sixth St.,CO,80549
Loaf 'N Jug,Windsor,67300848,#00848 #848 #000848 0848 #0848 67300848,1201 Main St,CO,80550
Loaf 'N Jug,Greeley,67300850,#00850 #850 #000850 0850 #0850 67300850,1001 39Th Ave,CO,80634
Loaf 'N Jug,Evans,67300852,#00852 #852 #000852 0852 #0852 67300852,3200 23Rd Ave,CO,80620
Loaf 'N Jug,Fort Collins,67300858,#00858 #858 #000858 0858 #0858 67300858,1801 N College Ave,CO,80524
Loaf 'N Jug,Rangely,67300867,#00867 #867 #000867 0867 #0867 67300867,783 Highway 64 W,CO,81648
Loaf 'N Jug,Dinosaur,67300868,#00868 #868 #000868 0868 #0868 67300868,101 W. Brontosaurus Blvd.,CO,81610
Loaf 'N Jug,Craig,67300869,#00869 #869 #000869 0869 #0869 67300869,2441 W Victory Way,CO,81625
