keywords,city,Aggdata Store Number,store_number,address,state,zip_code
LongHorn Steakhouse,Marietta,5002,0005002 #5002 5002,4721 Lower Roswell Rd,GA,30068
LongHorn Steakhouse,Sandy Springs,5005,0005005 #5005 5005,6390 Roswell Road,GA,30328
LongHorn Steakhouse,Roswell,5007,0005007 #5007 5007,900 Mansell Road,GA,30076
LongHorn Steakhouse,Tucker,5008,0005008 #5008 5008,4315 Hugh Howell Road,GA,30084
LongHorn Steakhouse,Kennesaw,5010,0005010 #5010 5010,"2700 Town Center Drive, Suite 7",GA,30144
LongHorn Steakhouse,Douglasville,5011,0005011 #5011 5011,8471 Hospital Drive,GA,30134
LongHorn Steakhouse,Chattanooga,5015,0005015 #5015 5015,5771 Brainerd Road,TN,37411
LongHorn Steakhouse,Jacksonville Beach,5016,0005016 #5016 5016,796 Marsh Landing Parkway,FL,32250
LongHorn Steakhouse,Nashville,5020,0005020 #5020 5020,1175 Murfreesboro Rd,TN,37217
LongHorn Steakhouse,Jacksonville,5021,0005021 #5021 5021,6015 Argyle Forest Blvd.,FL,32244
LongHorn Steakhouse,Snellville,5022,0005022 #5022 5022,2120 Killian Hill Road,GA,30039
LongHorn Steakhouse,Madison,5023,0005023 #5023 5023,2021 North Gallatin Road #296,TN,37115
LongHorn Steakhouse,Columbus,5024,0005024 #5024 5024,3201 Macon Road,GA,31906
LongHorn Steakhouse,Rome,5025,0005025 #5025 5025,144 Shorter Avenue,GA,30165
LongHorn Steakhouse,Macon,5027,0005027 #5027 5027,3072 Riverside Drive,GA,31210
LongHorn Steakhouse,Savannah,5028,0005028 #5028 5028,7825 Abercorn Expressway,GA,31406
LongHorn Steakhouse,Tallahassee,5029,0005029 #5029 5029,2400 North Monroe Street,FL,32303
LongHorn Steakhouse,Jacksonville,5032,0005032 #5032 5032,9276 Arlington Expressway,FL,32225
LongHorn Steakhouse,Augusta,5033,0005033 #5033 5033,3241 Washington Road,GA,30907
LongHorn Steakhouse,Ocala,5034,0005034 #5034 5034,307 S E 17th Street,FL,34471
LongHorn Steakhouse,Cincinnati,5041,0005041 #5041 5041,"2692 Madison Road, Suite L",OH,45208
LongHorn Steakhouse,Austell,5043,0005043 #5043 5043,"1355 East-West Connector, Suite B-1",GA,30106
LongHorn Steakhouse,Lake Mary,5044,0005044 #5044 5044,3700 Lake Emma Road,FL,32746
LongHorn Steakhouse,Altamonte Springs,5045,0005045 #5045 5045,149 Douglas Avenue,FL,32714
LongHorn Steakhouse,Florence,5046,0005046 #5046 5046,7501 Foltz Drive,KY,41042
LongHorn Steakhouse,Rocky River,5048,0005048 #5048 5048,20999 Center Ridge Road,OH,44116
LongHorn Steakhouse,Jacksonville,5049,0005049 #5049 5049,9051 Southside Blvd,FL,32256
LongHorn Steakhouse,Boynton Beach,5050,0005050 #5050 5050,501 N Congress Avenue,FL,33426
LongHorn Steakhouse,Davie,5053,0005053 #5053 5053,2375 S University Drive,FL,33324
LongHorn Steakhouse,Gainesville,5054,0005054 #5054 5054,1709 Browns Bridge Road,GA,30501
LongHorn Steakhouse,Kissimmee,5055,0005055 #5055 5055,5351 W Irlo Bronson Memorial Hwy,FL,34746
LongHorn Steakhouse,Peachtree City,5056,0005056 #5056 5056,2633 Floy Farr Parkway,GA,30269
LongHorn Steakhouse,Solon,5057,0005057 #5057 5057,6015 Enterprise Parkway,OH,44139
LongHorn Steakhouse,Cuyahoga Falls,5058,0005058 #5058 5058,443 Howe Avenue,OH,44221
LongHorn Steakhouse,High Point,5061,0005061 #5061 5061,1540 North Main Street,NC,27262
LongHorn Steakhouse,Greensboro,5062,0005062 #5062 5062,"2925 Battleground Ave, Suite A",NC,27408
LongHorn Steakhouse,Atlanta,5063,0005063 #5063 5063,2892 North Druid Hills Road,GA,30329
LongHorn Steakhouse,Miami,5064,0005064 #5064 5064,15135 North Kendall Drive,FL,33196
LongHorn Steakhouse,Montgomery,5065,0005065 #5065 5065,4095 Eastern Blvd,AL,36116
LongHorn Steakhouse,Miami,5066,0005066 #5066 5066,1630 NW 87th Ave,FL,33172
LongHorn Steakhouse,Fort Myers,5067,0005067 #5067 5067,13701 South Tamiami Trail,FL,33912
LongHorn Steakhouse,Mobile,5068,0005068 #5068 5068,6201 Airport Blvd,AL,36608
LongHorn Steakhouse,Dothan,5069,0005069 #5069 5069,3411 Ross Clark Circle,AL,36303
LongHorn Steakhouse,Valdosta,5071,0005071 #5071 5071,1110 N St Augustine Rd,GA,31601
LongHorn Steakhouse,Mentor,5072,0005072 #5072 5072,9557 Mentor Avenue,OH,44060
LongHorn Steakhouse,Strongsville,5073,0005073 #5073 5073,17211 Southpark Center,OH,44136
LongHorn Steakhouse,Columbia,5076,0005076 #5076 5076,902-A Gervais Street,SC,29201
LongHorn Steakhouse,Lawrenceville,5077,0005077 #5077 5077,800 Lawrenceville-Suwanee Rd,GA,30043
LongHorn Steakhouse,Merritt Island,5078,0005078 #5078 5078,770 E. Merritt Island Causeway,FL,32952
LongHorn Steakhouse,Brandon,5079,0005079 #5079 5079,11102 Causeway Blvd,FL,33511
LongHorn Steakhouse,Sarasota,5080,0005080 #5080 5080,5440 Fruitville Road,FL,34232
LongHorn Steakhouse,Jensen Beach,5081,0005081 #5081 5081,2901 NW Federal Hwy,FL,34957
LongHorn Steakhouse,Destin,5082,0005082 #5082 5082,34863 Emerald Coast Parkway,FL,32541
LongHorn Steakhouse,North Canton,5083,0005083 #5083 5083,6626 Strip Avenue,OH,44720
LongHorn Steakhouse,Statesboro,5084,0005084 #5084 5084,719 Northside Drive East,GA,30458
LongHorn Steakhouse,Fort Lauderdale,5085,0005085 #5085 5085,6225 N Andrews Ave,FL,33309
LongHorn Steakhouse,Albany,5089,0005089 #5089 5089,2733 Dawson Road,GA,31707
LongHorn Steakhouse,Largo,5090,0005090 #5090 5090,5375 East Bay Drive,FL,33764
LongHorn Steakhouse,Dublin,5091,0005091 #5091 5091,6035 Blazer Memorial Pkwy,OH,43017
LongHorn Steakhouse,Huntersville,5092,0005092 #5092 5092,16641 Statesville Rd,NC,28078
LongHorn Steakhouse,Cartersville,5093,0005093 #5093 5093,463 East Main Street,GA,30120
LongHorn Steakhouse,Columbia,5094,0005094 #5094 5094,171 Harbison Road,SC,29212
LongHorn Steakhouse,Columbia,5095,0005095 #5095 5095,2760 Decker Blvd.,SC,29206
LongHorn Steakhouse,Burlington,5096,0005096 #5096 5096,153 Huffman Mill Road,NC,27215
LongHorn Steakhouse,Morrow,5097,0005097 #5097 5097,2256 Mount Zion Parkway,GA,30260
LongHorn Steakhouse,Saint Augustine,5098,0005098 #5098 5098,166 State Road 312,FL,32086
LongHorn Steakhouse,Pineville,5099,0005099 #5099 5099,10605 Centrum Parkway,NC,28134
LongHorn Steakhouse,Florissant,5100,0005100 #5100 5100,2317 N Highway 67,MO,63033
LongHorn Steakhouse,Marietta,5101,0005101 #5101 5101,2636 Dallas Hwy. SW,GA,30064
LongHorn Steakhouse,Concord,5102,0005102 #5102 5102,351 Copperfield Blvd,NC,28025
LongHorn Steakhouse,Johns Creek,5103,0005103 #5103 5103,10845 Medlock Bridge Rd,GA,30097
LongHorn Steakhouse,Fairview Heights,5104,0005104 #5104 5104,6115 N Illinois St.,IL,62208
LongHorn Steakhouse,Cumming,5106,0005106 #5106 5106,925 Market Place Blvd,GA,30041
LongHorn Steakhouse,Sunset Hills,5108,0005108 #5108 5108,3642 S Lindbergh Blvd,MO,63127
LongHorn Steakhouse,Pembroke Pines,5109,0005109 #5109 5109,11900 Pines Blvd,FL,33026
LongHorn Steakhouse,Naples,5110,0005110 #5110 5110,8010 Trail Blvd,FL,34108
LongHorn Steakhouse,Warner Robins,5111,0005111 #5111 5111,2901 Watson Blvd,GA,31093
LongHorn Steakhouse,Canton,5112,0005112 #5112 5112,1375 Riverstone Pkwy,GA,30114
LongHorn Steakhouse,Tampa,5113,0005113 #5113 5113,2055 N Dale Mabry Hwy,FL,33607
LongHorn Steakhouse,Daytona Beach,5114,0005114 #5114 5114,2504 W International Speedway Blvd,FL,32114
LongHorn Steakhouse,Greensboro,5115,0005115 #5115 5115,6012 Landmark Center Blvd,NC,27407
LongHorn Steakhouse,Newnan,5116,0005116 #5116 5116,1112 Bullsboro Dr,GA,30264
LongHorn Steakhouse,Cincinnati,5117,0005117 #5117 5117,853 Eastgate North Dr,OH,45245
LongHorn Steakhouse,Huntsville,5118,0005118 #5118 5118,1450 Perimeter Pkwy,AL,35806
LongHorn Steakhouse,Woodstock,5119,0005119 #5119 5119,1420 Towne Lake Pkwy,GA,30189
LongHorn Steakhouse,Buford,5120,0005120 #5120 5120,1800 Mall Of Georgia Blvd,GA,30519
LongHorn Steakhouse,Pickerington,5121,0005121 #5121 5121,1740 Hill Rd North,OH,43147
LongHorn Steakhouse,Hickory,5122,0005122 #5122 5122,1332 Highway 70 SE,NC,28602
LongHorn Steakhouse,O Fallon,5123,0005123 #5123 5123,2102 Highway K,MO,63366
LongHorn Steakhouse,Tampa,5124,0005124 #5124 5124,8212 Citrus Park Drive,FL,33625
LongHorn Steakhouse,Rock Hill,5125,0005125 #5125 5125,2255 Cross Pointe Dr,SC,29730
LongHorn Steakhouse,Saint Clairsville,5126,0005126 #5126 5126,68040 Mall Ring Rd,OH,43950
LongHorn Steakhouse,Clarksville,5127,0005127 #5127 5127,2788 Wilma Rudolph Blvd,TN,37040
LongHorn Steakhouse,Charleston,5128,0005128 #5128 5128,91 Rhl Blvd,WV,25309
LongHorn Steakhouse,Orlando,5129,0005129 #5129 5129,12901 S Orange Blossom Trail,FL,32837
LongHorn Steakhouse,Dalton,5130,0005130 #5130 5130,1315 West Walnut Ave,GA,30720
LongHorn Steakhouse,Concord,5131,0005131 #5131 5131,217 Loudon Rd,NH,3301
LongHorn Steakhouse,Port Richey,5132,0005132 #5132 5132,9524 US 19 North,FL,34668
LongHorn Steakhouse,Orlando,5133,0005133 #5133 5133,309 North Alafaya Trail,FL,32828
LongHorn Steakhouse,Chesterfield,5134,0005134 #5134 5134,17100 Chesterfield Airport Rd,MO,63005
LongHorn Steakhouse,Bowling Green,5135,0005135 #5135 5135,2635 Scottsville Rd,KY,42104
LongHorn Steakhouse,Charlotte,5136,0005136 #5136 5136,8115 Old Mallard Creek Rd,NC,28262
LongHorn Steakhouse,Sarasota,5137,0005137 #5137 5137,2020 Gulf Gate Drive,FL,34231
LongHorn Steakhouse,Medina,5138,0005138 #5138 5138,4907 Grande Blvd,OH,44256
LongHorn Steakhouse,Erie,5139,0005139 #5139 5139,6750 Peach Street,PA,16509
LongHorn Steakhouse,Franklin,5140,0005140 #5140 5140,250 Franklin Village Dr,MA,2038
LongHorn Steakhouse,Manchester,5141,0005141 #5141 5141,1580 South Willow St,NH,3103
LongHorn Steakhouse,Independence,5142,0005142 #5142 5142,17800 39th Street,MO,64055
LongHorn Steakhouse,Leawood,5143,0005143 #5143 5143,4500 West 119th Street,KS,66209
LongHorn Steakhouse,Warwick,5144,0005144 #5144 5144,"400 Bald Hill Road, Suite 451",RI,2886
LongHorn Steakhouse,Leominister,5145,0005145 #5145 5145,227 N Main Street,MA,1453
LongHorn Steakhouse,Jacksonville,5147,0005147 #5147 5147,4401 Roosevelt Blvd,FL,32210
LongHorn Steakhouse,Boston,5148,0005148 #5148 5148,401 Park Drive,MA,2215
LongHorn Steakhouse,Hoover,5150,0005150 #5150 5150,4775 Hwy 280 South,AL,35242
LongHorn Steakhouse,Boardman,5151,0005151 #5151 5151,953 Boardman-Poland Rd,OH,44512
LongHorn Steakhouse,Mount Plesant,5152,0005152 #5152 5152,1845 N Hwy 17,SC,29464
LongHorn Steakhouse,Wooster,5153,0005153 #5153 5153,4049 Burbank Rd,OH,44691
LongHorn Steakhouse,Prattville,5155,0005155 #5155 5155,2295 Cobbs Ford Rd,AL,36066
LongHorn Steakhouse,Marlborough,5156,0005156 #5156 5156,191 Boston Post Rd W,MA,1752
LongHorn Steakhouse,Avon,5157,0005157 #5157 5157,10107 E US Highway 36,IN,46123
LongHorn Steakhouse,North Attleboro,5158,0005158 #5158 5158,"1250 S Washington St, Fashion Crossing Mall",MA,2760
LongHorn Steakhouse,Indianapolis,5159,0005159 #5159 5159,4820 East Southport Rd,IN,46237
LongHorn Steakhouse,Bensalem,5160,0005160 #5160 5160,100 Rockhill Drive,PA,19020
LongHorn Steakhouse,Dulles,5161,0005161 #5161 5161,21075 Dulles Town Circle,VA,20166
LongHorn Steakhouse,Parsippany,5162,0005162 #5162 5162,690 Route 46,NJ,7054
LongHorn Steakhouse,Lee's Summit,5164,0005164 #5164 5164,1696 NW Chipman,MO,64081
LongHorn Steakhouse,Maumee,5166,0005166 #5166 5166,459 West Dussel Drive,OH,43537
LongHorn Steakhouse,Germantown,5167,0005167 #5167 5167,20017 Century Blvd,MD,20874
LongHorn Steakhouse,Winston-Salem,5168,0005168 #5168 5168,955 Hanes Mall Rd,NC,27103
LongHorn Steakhouse,Independence,5169,0005169 #5169 5169,4171 Rockside Rd,OH,44131
LongHorn Steakhouse,Hiram,5170,0005170 #5170 5170,4800 Jimmy Lee Smith Pkwy,GA,30141
LongHorn Steakhouse,Louisville,5171,0005171 #5171 5171,2535 Hurstbourne Gem Lane,KY,40220
LongHorn Steakhouse,Exton,5172,0005172 #5172 5172,100 Bartlett Ave,PA,19341
LongHorn Steakhouse,Nashua,5173,0005173 #5173 5173,5 Harold Drive,NH,3060
LongHorn Steakhouse,Bowie,5174,0005174 #5174 5174,4100 Town Center Blvd,MD,20716
LongHorn Steakhouse,Delray Beach,5175,0005175 #5175 5175,1562 S Federal Hwy,FL,33483
LongHorn Steakhouse,McDonough,5177,0005177 #5177 5177,1856 Jonesboro Rd,GA,30253
LongHorn Steakhouse,Waldorf,5178,0005178 #5178 5178,3315 Crain Highway,MD,20603
LongHorn Steakhouse,Tifton,5179,0005179 #5179 5179,1314 Highway 82 W,GA,31794
LongHorn Steakhouse,Norristown,5180,0005180 #5180 5180,690 S Trooper Rd,PA,19403
LongHorn Steakhouse,Haverhill,5181,0005181 #5181 5181,59 Plaistow Rd,MA,1830
LongHorn Steakhouse,West Palm Beach,5182,0005182 #5182 5182,6841 Okeechobee Blvd,FL,33411
LongHorn Steakhouse,Columbia,5183,0005183 #5183 5183,8650 Snowden River Pkwy,MD,21045
LongHorn Steakhouse,South Portland,5184,0005184 #5184 5184,300 Maine Mall Rd,ME,4106
LongHorn Steakhouse,Piscataway,5185,0005185 #5185 5185,1368 Cententennial Ave,NJ,8854
LongHorn Steakhouse,East Point,5186,0005186 #5186 5186,3480 Camp Creek Pkwy,GA,30344
LongHorn Steakhouse,Lexington,5187,0005187 #5187 5187,2217 Harrodsburg Rd,KY,40504
LongHorn Steakhouse,Orange Park,5188,0005188 #5188 5188,1605 County Road 220,FL,32003
LongHorn Steakhouse,Cincinnati,5189,0005189 #5189 5189,6620 Harrison Ave,OH,45247
LongHorn Steakhouse,Belton,5190,0005190 #5190 5190,1212 North Ave,MO,64012
LongHorn Steakhouse,North Brunswick,5191,0005191 #5191 5191,2251 Route 1,NJ,8902
LongHorn Steakhouse,Flanders,5192,0005192 #5192 5192,50-J International Dr South,NJ,7836
LongHorn Steakhouse,Hollywood,5193,0005193 #5193 5193,4899 Sheridan St,FL,33021
LongHorn Steakhouse,Winter Haven,5194,0005194 #5194 5194,875 1st Street SW,FL,33880
LongHorn Steakhouse,Moraine,5195,0005195 #5195 5195,1921 W Dorothy Lane,OH,45439
LongHorn Steakhouse,West Springfield,5196,0005196 #5196 5196,1105 Riverdale St,MA,1089
LongHorn Steakhouse,Jacksonville,5197,0005197 #5197 5197,1366 Airport Rd,FL,32218
LongHorn Steakhouse,Cold Spring,5198,0005198 #5198 5198,200 Crossroads Blvd,KY,41076
LongHorn Steakhouse,Jacksonville,5200,0005200 #5200 5200,11998 Atlantic Blvd,FL,32225
LongHorn Steakhouse,Daphne,5201,0005201 #5201 5201,6870 US Highway 90,AL,36526
LongHorn Steakhouse,North Charleston,5202,0005202 #5202 5202,"7250 Rivers Ave., Unit 400",SC,29406
LongHorn Steakhouse,Howell,5203,0005203 #5203 5203,4801 US Highway 9,NJ,7731
LongHorn Steakhouse,Williston,5204,0005204 #5204 5204,1405 Maple Tree Place,VT,5495
LongHorn Steakhouse,Columbia,5205,0005205 #5205 5205,31 Conley Road,MO,65201
LongHorn Steakhouse,Lawrence,5206,0005206 #5206 5206,3050 Iowa Street,KS,66046
LongHorn Steakhouse,Anderson,5207,0005207 #5207 5207,3730 Clemson Blvd,SC,29621
LongHorn Steakhouse,Augusta,5208,0005208 #5208 5208,"12 Stephen King Dr, Suite 1",ME,4330
LongHorn Steakhouse,Lake Orion,5209,0005209 #5209 5209,4965 S Baldwin Rd,MI,48359
LongHorn Steakhouse,Kansas City,5210,0005210 #5210 5210,1708 Village West Pkwy,KS,66111
LongHorn Steakhouse,Topeka,5211,0005211 #5211 5211,1915 SW Wanamaker Rd,KS,66604
LongHorn Steakhouse,Palm Harbor,5212,0005212 #5212 5212,35645 US Hwy 19,FL,34684
LongHorn Steakhouse,Frederick,5213,0005213 #5213 5213,5744 Buckeystown Pike,MD,21704
LongHorn Steakhouse,Newington,5214,0005214 #5214 5214,41 Gosling Rd,NH,3801
LongHorn Steakhouse,West Chester,5215,0005215 #5215 5215,7711 Voice Of America Centre Dr,OH,45069
LongHorn Steakhouse,Wilmington,5216,0005216 #5216 5216,925 International Dr,NC,28405
LongHorn Steakhouse,Hagerstown,5217,0005217 #5217 5217,1000 Prime Outlets Blvd,MD,21740
LongHorn Steakhouse,Saint Peters,5218,0005218 #5218 5218,3979 Veterans Memorial Pkwy,MO,63376
LongHorn Steakhouse,Jefferson City,5219,0005219 #5219 5219,3545 Missouri Blvd,MO,65109
LongHorn Steakhouse,Frankfort,5220,0005220 #5220 5220,"101 Westridge Dr, Suite A",KY,40601
LongHorn Steakhouse,Evansville,5221,0005221 #5221 5221,320 N Green River Rd,IN,47715
LongHorn Steakhouse,Chantilly,5222,0005222 #5222 5222,14056 Thunderbolt Place,VA,20151
LongHorn Steakhouse,Woodbridge,5223,0005223 #5223 5223,366 US Hwy Route 9,NJ,7095
LongHorn Steakhouse,Dawsonville,5224,0005224 #5224 5224,795 Hwy 400 South,GA,30534
LongHorn Steakhouse,Opelika,5225,0005225 #5225 5225,2601 Gateway Dr,AL,36801
LongHorn Steakhouse,Millbury,5226,0005226 #5226 5226,"70 Worcester Providence Dr, Suite 635",MA,1527
LongHorn Steakhouse,Philadelphia,5227,0005227 #5227 5227,9769 Roosevelt Blvd,PA,19114
LongHorn Steakhouse,Hazelwood,5228,0005228 #5228 5228,5552 Saint Louis Mills Blvd,MO,63042
LongHorn Steakhouse,Westland,5230,0005230 #5230 5230,35400 Warren Rd,MI,48185
LongHorn Steakhouse,Greenville,5231,0005231 #5231 5231,520 Greenville Blvd SE,NC,27858
LongHorn Steakhouse,Melbourne,5232,0005232 #5232 5232,6691 Lake Andrew Dr,FL,32940
LongHorn Steakhouse,Raynham,5233,0005233 #5233 5233,800 Route 44,MA,2767
LongHorn Steakhouse,Lancaster,5234,0005234 #5234 5234,993 Plaza Blvd,PA,17601
LongHorn Steakhouse,Philadelphia,5235,0005235 #5235 5235,2120 South Columbus Blvd,PA,19148
LongHorn Steakhouse,Indianapolis,5236,0005236 #5236 5236,10240 East Washington St,IN,46229
LongHorn Steakhouse,Gahanna,5237,0005237 #5237 5237,4950 N Hamilton Rd,OH,43230
LongHorn Steakhouse,Grove City,5238,0005238 #5238 5238,1742 Stringtown Rd,OH,43123
LongHorn Steakhouse,Myrtle Beach,5239,0005239 #5239 5239,1180 Oak Forrest Lane,SC,29577
LongHorn Steakhouse,Tampa,5240,0005240 #5240 5240,2110 East Fowler Ave,FL,33612
LongHorn Steakhouse,Springfield,5241,0005241 #5241 5241,2451 Wabash Ave,IL,62704
LongHorn Steakhouse,Asheville,5242,0005242 #5242 5242,3 Restaurant Court,NC,28805
LongHorn Steakhouse,Bear,5243,0005243 #5243 5243,1299 Quintillo Drive,DE,19701
LongHorn Steakhouse,Covington,5244,0005244 #5244 5244,6112 Pavilion Way NW,GA,30014
LongHorn Steakhouse,West Homestead,5245,0005245 #5245 5245,410 West Waterfront Dr,PA,15120
LongHorn Steakhouse,Atlanta,5246,0005246 #5246 5246,2430 Piedmont Rd,GA,30324
LongHorn Steakhouse,Carrollton,5247,0005247 #5247 5247,1155 Bankhead Hwy,GA,30117
LongHorn Steakhouse,Brentwood,5248,0005248 #5248 5248,774 Old Hickory Blvd,TN,37027
LongHorn Steakhouse,Pottstown,5249,0005249 #5249 5249,1110 Town Square Rd,PA,19465
LongHorn Steakhouse,Fort Walton Beach,5250,0005250 #5250 5250,544 Mary Esther Cut Off NW,FL,32548
LongHorn Steakhouse,Raleigh,5251,0005251 #5251 5251,8121 Brier Creek Pkwy,NC,27617
LongHorn Steakhouse,Tarentum,5252,0005252 #5252 5252,1000 Pittsburgh Mills Blvd,PA,15084
LongHorn Steakhouse,Keene,5253,0005253 #5253 5253,8 Ashbrooke Rd,NH,3431
LongHorn Steakhouse,Norridge,5254,0005254 #5254 5254,7070 Forrest Preserve Ave,IL,60706
LongHorn Steakhouse,Laurel,5255,0005255 #5255 5255,"13600 Baltimore Ave, Suite 500",MD,20707
LongHorn Steakhouse,Hamilton,5256,0005256 #5256 5256,185 Market Place Blvd,NJ,8650
LongHorn Steakhouse,Copley,5257,0005257 #5257 5257,45 Montrose West Avenue,OH,44321
LongHorn Steakhouse,Hattiesburg,5258,0005258 #5258 5258,4503 Hardy St,MS,39403
LongHorn Steakhouse,Commerce,5259,0005259 #5259 5259,30769 Hwy 441 South,GA,30529
LongHorn Steakhouse,Warrington,5260,0005260 #5260 5260,240 Easton Rd,PA,18976
LongHorn Steakhouse,East Ellijay,5261,0005261 #5261 5261,30 Highland Xing South,GA,30540
LongHorn Steakhouse,Allen Park,5262,0005262 #5262 5262,3190 Fairlane Blvd,MI,48101
LongHorn Steakhouse,Merrillville,5263,0005263 #5263 5263,2345 E 80th Street,IN,46410
LongHorn Steakhouse,Clinton Township,5264,0005264 #5264 5264,15340 Hall Rd,MI,48038
LongHorn Steakhouse,Acworth,5265,0005265 #5265 5265,3366 Cobb Parkway NW,GA,30101
LongHorn Steakhouse,Peoria,5266,0005266 #5266 5266,7401 North Grand Praire Dr,IL,61615
LongHorn Steakhouse,Auburn,5267,0005267 #5267 5267,"649 Turner Street, Suite 400",ME,4210
LongHorn Steakhouse,Hixson,5268,0005268 #5268 5268,5583 Highway 153,TN,37343
LongHorn Steakhouse,Grand Rapids,5269,0005269 #5269 5269,5088 28th Street SE,MI,49512
LongHorn Steakhouse,Bloomington,5270,0005270 #5270 5270,721 South College Mall Rd,IN,47401
LongHorn Steakhouse,Millville,5272,0005272 #5272 5272,110 Bluebird Lane,NJ,8332
LongHorn Steakhouse,Fredericksburg,5273,0005273 #5273 5273,10012 Southpoint Pkwy,VA,22407
LongHorn Steakhouse,Pooler,5274,0005274 #5274 5274,300 Pooler Pkwy,GA,31322
LongHorn Steakhouse,Morgantown,5275,0005275 #5275 5275,1201 University Town Center Blvd,WV,26505
LongHorn Steakhouse,Phoenix,5275,0005275 #5275 5275,10047 N Metro Parkway,AZ,85051
LongHorn Steakhouse,Largo,5275,0005275 #5275 5275,1100 Capital Centre Blvd,MD,20774
LongHorn Steakhouse,Tampa,5275,0005275 #5275 5275,1820 N West Shore Blvd,FL,33607
LongHorn Steakhouse,Wilkes Barre,5275,0005275 #5275 5275,25 Bear Creek Blvd,PA,18702
LongHorn Steakhouse,Bethlehem,5275,0005275 #5275 5275,420 Exchange Blvd,GA,30620
LongHorn Steakhouse,Rockford,5275,0005275 #5275 5275,6655 E. State St,IL,61108
LongHorn Steakhouse,Orlando,5275,0005275 #5275 5275,8181 International Drive,FL,32819
LongHorn Steakhouse,Florence,5276,0005276 #5276 5276,3021 West Radio Dr,SC,29501
LongHorn Steakhouse,Apex,5277,0005277 #5277 5277,1411 Beaver Creek Commons Dr,NC,27502
LongHorn Steakhouse,Amherst,5278,0005278 #5278 5278,124 State Route 101a,NH,3031
LongHorn Steakhouse,Portage,5279,0005279 #5279 5279,1650 Olmstead Dr,IN,46368
LongHorn Steakhouse,Williamsburg,5280,0005280 #5280 5280,4970-13 Monticello Ave,VA,23188
LongHorn Steakhouse,Clarksville,5281,0005281 #5281 5281,1210 Veterans Pkwy,IN,47129
LongHorn Steakhouse,Rosedale,5282,0005282 #5282 5282,8655 Pulaski Hwy,MD,21237
LongHorn Steakhouse,Biddeford,5283,0005283 #5283 5283,510 Mariner Way,ME,4005
LongHorn Steakhouse,Tewksbury,5284,0005284 #5284 5284,1910 Andover St,MA,1876
LongHorn Steakhouse,Cranberry Township,5285,0005285 #5285 5285,1679 State Road 228,PA,16066
LongHorn Steakhouse,Bartonsville,5286,0005286 #5286 5286,"300 Crossroads Mall, Rural Route 611",PA,18321
LongHorn Steakhouse,Louisville,5287,0005287 #5287 5287,9700 Von Allmen Courtt,KY,40241
LongHorn Steakhouse,Perry,5288,0005288 #5288 5288,100 Hampton Court,GA,31069
LongHorn Steakhouse,Covington,5289,0005289 #5289 5289,69368 Highway 21,LA,70433
LongHorn Steakhouse,Oxford,5290,0005290 #5290 5290,301 Oxford Exchange Blvd,AL,36203
LongHorn Steakhouse,Oak Lawn,5291,0005291 #5291 5291,9530 S Pulaski Rd,IL,60453
LongHorn Steakhouse,Moosic,5292,0005292 #5292 5292,8011 Shoppes Blvd,PA,18507
LongHorn Steakhouse,Pittsburgh,5293,0005293 #5293 5293,200 Robinson Center Dr,PA,15205
LongHorn Steakhouse,Mechanicsburg,5294,0005294 #5294 5294,"6416 Carlisle Pike, Suite 100",PA,17050
LongHorn Steakhouse,Panama City Beach,5295,0005295 #5295 5295,15721 Panama City Beach Pkwy,FL,32413
LongHorn Steakhouse,Mansfield,5296,0005296 #5296 5296,390 West Street,MA,2048
LongHorn Steakhouse,LaGrange,5297,0005297 #5297 5297,1518 Lafayette Pkwy,GA,30241
LongHorn Steakhouse,Southaven,5298,0005298 #5298 5298,294 Goodman Rd West,MS,38671
LongHorn Steakhouse,Gallatin,5299,0005299 #5299 5299,1003 Nashville Pike,TN,37066
LongHorn Steakhouse,Alabaster,5300,0005300 #5300 5300,30 South Colonial Pkwy,AL,35007
LongHorn Steakhouse,Snellville,5301,0005301 #5301 5301,"1350 Scenic Hwy, Building 700",GA,30078
LongHorn Steakhouse,Calhoun,5302,0005302 #5302 5302,1301 Lovers Lane Rd,GA,30701
LongHorn Steakhouse,Atlantic City,5303,0005303 #5303 5303,2108 Atlantic Ave,NJ,8401
LongHorn Steakhouse,Port Saint Lucie,5305,0005305 #5305 5305,10201 SW Meeting Street,FL,34987
LongHorn Steakhouse,Cookeville,5306,0005306 #5306 5306,1000 Jefferson Ave South,TN,38501
LongHorn Steakhouse,Greenville,5307,0005307 #5307 5307,"1125 Woodruff Rd, Suite 1500",SC,29607
LongHorn Steakhouse,Murfreesboro,5308,0005308 #5308 5308,2821 Medical Center Pkwy,TN,37129
LongHorn Steakhouse,Glen Allen,5309,0005309 #5309 5309,"11311 West Broad St., Suite A",VA,23060
LongHorn Steakhouse,Pembroke,5310,0005310 #5310 5310,125 Church Street,MA,2359
LongHorn Steakhouse,Brunswick,5311,0005311 #5311 5311,1000 Glynn Isles,GA,31525
LongHorn Steakhouse,Freehold,5312,0005312 #5312 5312,300 West Main Street,NJ,7728
LongHorn Steakhouse,Gulf Shores,5313,0005313 #5313 5313,3810 Gulf Shores Parkway,AL,36542
LongHorn Steakhouse,Olathe,5314,0005314 #5314 5314,16689 W 119th Street,KS,66061
LongHorn Steakhouse,Des Plaines,5315,0005315 #5315 5315,1470 East Touhy Avenue,IL,60016
LongHorn Steakhouse,Newburgh,5317,0005317 #5317 5317,1286 Route 300 NE,NY,12550
LongHorn Steakhouse,Huntsville,5318,0005318 #5318 5318,2732 Carl T Jones Rd SE,AL,35802
LongHorn Steakhouse,York,5319,0005319 #5319 5319,2901 Concord Rd,PA,17402
LongHorn Steakhouse,Shelton,5321,0005321 #5321 5321,838 Bridgeport Avenue,CT,6484
LongHorn Steakhouse,Lakewood,5322,0005322 #5322 5322,1895 Route 70,NJ,8701
LongHorn Steakhouse,Wareham,5323,0005323 #5323 5323,2421 Cranberry Highway,MA,2571
LongHorn Steakhouse,Dublin,5324,0005324 #5324 5324,106 Travel Center Blvd,GA,31021
LongHorn Steakhouse,Reading,5325,0005325 #5325 5325,39 Walker'S Brook Drive,MA,1867
LongHorn Steakhouse,Winter Garden,5326,0005326 #5326 5326,3118 Daniels Rd,FL,34787
LongHorn Steakhouse,Lady Lake,5327,0005327 #5327 5327,590 North Hwy 27/441,FL,32159
LongHorn Steakhouse,Orland Park,5328,0005328 #5328 5328,15531 S La Grange Rr,IL,60462
LongHorn Steakhouse,Monroe,5329,0005329 #5329 5329,185 Martin Luther King Jr. Blvd,GA,30655
LongHorn Steakhouse,Gulfport,5330,0005330 #5330 5330,15270 Crossroad Parkway,MS,39503
LongHorn Steakhouse,Flemington,5331,0005331 #5331 5331,150 Route 31 North,NJ,8822
LongHorn Steakhouse,Manassas,5333,0005333 #5333 5333,9695 Liberia Ave,VA,20111
LongHorn Steakhouse,Waterford,5334,0005334 #5334 5334,"850 Hartford Turnpike, Unit F",CT,6385
LongHorn Steakhouse,Virginia Beach,5335,0005335 #5335 5335,3400 Princess Anne Rd,VA,23456
LongHorn Steakhouse,Collierville,5336,0005336 #5336 5336,3581 Houston Levee Rd,TN,38017
LongHorn Steakhouse,Bartlett,5337,0005337 #5337 5337,8324 Hwy. 64,TN,38133
LongHorn Steakhouse,Tuscaloosa,5338,0005338 #5338 5338,"1800 McFarland Blvd East, Suite 412",AL,35404
LongHorn Steakhouse,Denham Springs,5339,0005339 #5339 5339,249 Range 12 Blvd,LA,70726
LongHorn Steakhouse,Bolingbrook,5340,0005340 #5340 5340,708 Janes Ave,IL,60440
LongHorn Steakhouse,Shreveport,5341,0005341 #5341 5341,7231 Youree Dr,LA,71105
LongHorn Steakhouse,Chesterfield,5342,0005342 #5342 5342,14500 Hancock Village Street,VA,23832
LongHorn Steakhouse,Bangor,5343,0005343 #5343 5343,605 Hogan Road,ME,4401
LongHorn Steakhouse,Oklahoma City,5344,0005344 #5344 5344,2521 W. Memorial Road,OK,73134
LongHorn Steakhouse,Tulsa,5345,0005345 #5345 5345,9111 E. 71st Street,OK,74133
LongHorn Steakhouse,Cornelia,5346,0005346 #5346 5346,278 Carpenters Cove Lane,GA,30531
LongHorn Steakhouse,Kissimmee,5347,0005347 #5347 5347,8150 W. Irlo Bronson Memorial Hwy,FL,34747
LongHorn Steakhouse,Sevierville,5348,0005348 #5348 5348,1706 Parkway,TN,37862
LongHorn Steakhouse,Salisbury,5349,0005349 #5349 5349,1371 Klumac Road,NC,28147
LongHorn Steakhouse,Richmond,5350,0005350 #5350 5350,4409 S. Laburnum Ave,VA,23231
LongHorn Steakhouse,Bayonne,5351,0005351 #5351 5351,907 Bayonne Crossing Way,NJ,7002
LongHorn Steakhouse,Homestead,5352,0005352 #5352 5352,2531 NE 8th Street,FL,33033
LongHorn Steakhouse,Monroe,5353,0005353 #5353 5353,4461 Pecanland Mall Dr,LA,71203
LongHorn Steakhouse,Green Bay,5354,0005354 #5354 5354,2475 S. Oneida St.,WI,54304
LongHorn Steakhouse,Henrietta,5355,0005355 #5355 5355,680 Jefferson Road,NY,14623
LongHorn Steakhouse,North Haven,5356,0005356 #5356 5356,70 Universal Drive,CT,6473
LongHorn Steakhouse,Victor,5357,0005357 #5357 5357,7720 State Route 96,NY,14564
LongHorn Steakhouse,Hanover,5358,0005358 #5358 5358,7059 Arundel Mills Circle,MD,21076
LongHorn Steakhouse,Orlando,5359,0005359 #5359 5359,5449 Gateway Village Circle,FL,32812
LongHorn Steakhouse,San Antonio,5360,0005360 #5360 5360,5803 N Loop 1604 W,TX,78256
LongHorn Steakhouse,Madison,5361,0005361 #5361 5361,418 S Gammon Rd,WI,53719
LongHorn Steakhouse,Conyers,5362,0005362 #5362 5362,1294 SW Iris Drive,GA,30094
LongHorn Steakhouse,Lafayette,5363,0005363 #5363 5363,4248 Ambassador Caffery Parkway,LA,70508
LongHorn Steakhouse,San Antonio,5364,0005364 #5364 5364,5706 W Loop 1604 N,TX,78251
LongHorn Steakhouse,Thomasville,5365,0005365 #5365 5365,21 Constitution Avenue,GA,31757
LongHorn Steakhouse,Warrenton,5366,0005366 #5366 5366,"505 Fletcher Drive, Northrock Shopping Center",VA,20186
LongHorn Steakhouse,San Antonio,5367,0005367 #5367 5367,7833 Interstate 35 S,TX,78224
LongHorn Steakhouse,Selinsgrove,5369,0005369 #5369 5369,44 Nina Dr,PA,17870
LongHorn Steakhouse,Decatur,5370,0005370 #5370 5370,1213 Point Mallard Parkway SE,AL,35601
LongHorn Steakhouse,Greensburg,5371,0005371 #5371 5371,5296 Route 30,PA,15601
LongHorn Steakhouse,Whitehall,5372,0005372 #5372 5372,1035 Grape Street,PA,18052
LongHorn Steakhouse,Manchester,5373,0005373 #5373 5373,350 Buckland Hills Drive,CT,6042
LongHorn Steakhouse,Waterloo,5374,0005374 #5374 5374,1425 E San Marnan Drive,IA,50702
LongHorn Steakhouse,Fort Smith,5375,0005375 #5375 5375,3805 Phoenix Ave,AR,72903
LongHorn Steakhouse,Texarkana,5376,0005376 #5376 5376,3912 Saint Michael Drive,TX,75503
LongHorn Steakhouse,Bluffton,5377,0005377 #5377 5377,"1262 Fording Island Rd, Tanger I Outlet Center",SC,29910
LongHorn Steakhouse,Jackson,5378,0005378 #5378 5378,631 Vann Drive,TN,38305
LongHorn Steakhouse,Griffin,5379,0005379 #5379 5379,1653 N Expressway,GA,30224
LongHorn Steakhouse,Chillicothe,5380,0005380 #5380 5380,1077 North Bridge Street,OH,45601
LongHorn Steakhouse,San Antonio,5381,0005381 #5381 5381,7439 San Pedro Ave,TX,78216
LongHorn Steakhouse,Orlando,5383,0005383 #5383 5383,8398 Vineland Ave,FL,32821
LongHorn Steakhouse,New Braunfels,5384,0005384 #5384 5384,2963 Cold Spring Drive,TX,78130
LongHorn Steakhouse,Cherry Hill,5385,0005385 #5385 5385,2301 Route 38,NJ,8002
LongHorn Steakhouse,Manhattan,5386,0005386 #5386 5386,505 Tuttle Creek Blvd,KS,66502
LongHorn Steakhouse,Greece,5387,0005387 #5387 5387,1837 West Ridge Road,NY,14615
LongHorn Steakhouse,San Antonio,5388,0005388 #5388 5388,"22503 N US Hwy 281, Bldg 2",TX,78258
LongHorn Steakhouse,Spartanburg,5390,0005390 #5390 5390,1504 W O Ezell Blvd,SC,29301
LongHorn Steakhouse,Kingsland,5391,0005391 #5391 5391,121 Crown Pointe,GA,31548
LongHorn Steakhouse,Castleton,5392,0005392 #5392 5392,5910 East 82nd St.,IN,46250
LongHorn Steakhouse,Toledo,5393,0005393 #5393 5393,4155 Talmadge Rd,OH,43623
LongHorn Steakhouse,Jonesboro,5394,0005394 #5394 5394,2626 Stadium Blvd,AR,72401
LongHorn Steakhouse,McAllen,5395,0005395 #5395 5395,3600 Expressway 83,TX,78501
LongHorn Steakhouse,Austin,5396,0005396 #5396 5396,"9900 S Interstate 35, Bldg U",TX,78748
LongHorn Steakhouse,Council Bluffs,5397,0005397 #5397 5397,3727 Denmark Drive,IA,51501
LongHorn Steakhouse,Tupelo,5398,0005398 #5398 5398,3574 North Gloster Street,MS,38804
LongHorn Steakhouse,Roanoke,5399,0005399 #5399 5399,4845 Valley View Blvd. NW,VA,24012
LongHorn Steakhouse,Omaha,5401,0005401 #5401 5401,3040 S 143 Plaza,NE,68144
LongHorn Steakhouse,Altoona,5402,0005402 #5402 5402,333 W Plank Rd,PA,16602
LongHorn Steakhouse,Springfield,5403,0005403 #5403 5403,3121 S Glenstone Avenue,MO,65804
LongHorn Steakhouse,Champaign,5404,0005404 #5404 5404,2101 N Prospect Ave,IL,61822
LongHorn Steakhouse,Hanover,5405,0005405 #5405 5405,20 Wilson Avenue,PA,17331
LongHorn Steakhouse,Rapid City,5406,0005406 #5406 5406,1510 Eglin St.,SD,57701
LongHorn Steakhouse,Winchester,5408,0005408 #5408 5408,2173 S Pleasant Valley Rd,VA,22601
LongHorn Steakhouse,Fayetteville,5409,0005409 #5409 5409,1320 Highway 85 N,GA,30214
LongHorn Steakhouse,West Melbourne,5410,0005410 #5410 5410,255 Palm Bay Rd,FL,32904
LongHorn Steakhouse,Salisbury,5411,0005411 #5411 5411,2312 N Salisbury Blvd,MD,21801
LongHorn Steakhouse,Athens,5413,0005413 #5413 5413,2170 W Broad Street,GA,30606
LongHorn Steakhouse,Round Rock,5414,0005414 #5414 5414,"2702 Parker Rd, Ste C",TX,78681
LongHorn Steakhouse,Hialeah,5415,0005415 #5415 5415,1360 W 49th Street,FL,33012
LongHorn Steakhouse,Kingsport,5416,0005416 #5416 5416,1750 E Stone Dr,TN,37660
LongHorn Steakhouse,Heath,5417,0005417 #5417 5417,71 Central Parkway,OH,43056
LongHorn Steakhouse,Wichita,5418,0005418 #5418 5418,2720 N Maize Road,KS,67205
LongHorn Steakhouse,Flowood,5419,0005419 #5419 5419,114 Laurel Park Cove,MS,39232
LongHorn Steakhouse,Columbus,5420,0005420 #5420 5420,5435 Whittlesey Blvd,GA,31909
LongHorn Steakhouse,Cedar Park,5421,0005421 #5421 5421,1469 East Whitestone Blvd,TX,78613
LongHorn Steakhouse,Omaha,5422,0005422 #5422 5422,"7425 Dodge Street, Suite # 103",NE,68114
LongHorn Steakhouse,Sunset Valley,5423,0005423 #5423 5423,4809 W Hwy 290,TX,78735
LongHorn Steakhouse,Deptford,5424,0005424 #5424 5424,1440 Almonesson Road,NJ,8096
LongHorn Steakhouse,Georgetown,5425,0005425 #5425 5425,1005 W University Ave,TX,78628
LongHorn Steakhouse,Monroe,5426,0005426 #5426 5426,2117 W Roosevelt Blvd,NC,28110
LongHorn Steakhouse,Johnson City,5427,0005427 #5427 5427,2280 N Roan Street,TN,37601
LongHorn Steakhouse,Sugar Land,5428,0005428 #5428 5428,16746 Southwest Freeway,TX,77479
LongHorn Steakhouse,Louisville,5429,0005429 #5429 5429,4813 Outer Loop,KY,40219
LongHorn Steakhouse,Salina,5430,0005430 #5430 5430,2590 South 9th Street,KS,67401
LongHorn Steakhouse,McAllen,5431,0005431 #5431 5431,7401 N 10th Street,TX,78504
LongHorn Steakhouse,Fargo,5432,0005432 #5432 5432,4410 13th Ave South,ND,58103
LongHorn Steakhouse,Schaumburg,5434,0005434 #5434 5434,1901 E Golf Rd,IL,60173
LongHorn Steakhouse,Mount Juliet,5435,0005435 #5435 5435,355 Pleasant Grove Road,TN,37122
LongHorn Steakhouse,Elizabethtown,5437,0005437 #5437 5437,1614 N Dixie Hwy.,KY,42701
LongHorn Steakhouse,Houston,5439,0005439 #5439 5439,6201 E Sam Houston Pkwy N,TX,77049
LongHorn Steakhouse,Goldsboro,5440,0005440 #5440 5440,609 N Berkeley Blvd,NC,27534
LongHorn Steakhouse,Easton,5441,0005441 #5441 5441,3784 Dryland Way,PA,18045
LongHorn Steakhouse,Pearland,5442,0005442 #5442 5442,2809 Business Center Drive,TX,77584
LongHorn Steakhouse,Spring,5443,0005443 #5443 5443,26805 I-45 N,TX,77380
LongHorn Steakhouse,Smyrna,5444,0005444 #5444 5444,975 Industrial Blvd,TN,37167
LongHorn Steakhouse,Fort Myers,5445,0005445 #5445 5445,10030 University Plaza Drive,FL,33913
LongHorn Steakhouse,California,5446,0005446 #5446 5446,23054 Three Notch Road,MD,20619
LongHorn Steakhouse,Chambersburg,5447,0005447 #5447 5447,980 Norland Avenue,PA,17201
LongHorn Steakhouse,Mesa,5448,0005448 #5448 5448,1434 S Alma School Rd,AZ,85210
LongHorn Steakhouse,Milledgeville,5449,0005449 #5449 5449,"2470 North Columbia St., Suite A35",GA,31061
LongHorn Steakhouse,Orchard Park,5450,0005450 #5450 5450,3494 Amelia Dr,NY,14127
LongHorn Steakhouse,Lake City,5451,0005451 #5451 5451,3092 W US Hwy 90,FL,32055
LongHorn Steakhouse,Wichita,5452,0005452 #5452 5452,440 S Towne East Mall Drive,KS,67207
LongHorn Steakhouse,Corpus Christi,5454,0005454 #5454 5454,5488 S Padre Island Dr,TX,78411
LongHorn Steakhouse,Chandler,5455,0005455 #5455 5455,980 N 54th Street,AZ,85226
LongHorn Steakhouse,Zanesville,5457,0005457 #5457 5457,3557 Maple Ave,OH,43701
LongHorn Steakhouse,Easley,5458,0005458 #5458 5458,180 Rolling Hills Circle,SC,29640
LongHorn Steakhouse,North Myrtle Beach,5459,0005459 #5459 5459,4723 Highway 17 South,SC,29582
LongHorn Steakhouse,Farragut,5460,0005460 #5460 5460,11644 Parkside Drive,TN,37934
LongHorn Steakhouse,Phoenix,5461,0005461 #5461 5461,4585 E Cactus Road,AZ,85032
LongHorn Steakhouse,Morehead City,5462,0005462 #5462 5462,5120 Hwy 70,NC,28557
LongHorn Steakhouse,Joplin,5463,0005463 #5463 5463,1930 Range Line Road,MO,64804
LongHorn Steakhouse,Cheektowaga,5464,0005464 #5464 5464,2015 Walden Avenue,NY,14225
LongHorn Steakhouse,Harlingen,5465,0005465 #5465 5465,106 Bass Pro Dr,TX,78552
LongHorn Steakhouse,South Jordan,5466,0005466 #5466 5466,11346 River Heights Drive,UT,84095
LongHorn Steakhouse,Reading,5467,0005467 #5467 5467,1085 Woodland Road,PA,19610
LongHorn Steakhouse,Ogden,5468,0005468 #5468 5468,3647 Wall Avenue,UT,84401
LongHorn Steakhouse,Midvale,5469,0005469 #5469 5469,963 E. Fort Union Blvd,UT,84047
LongHorn Steakhouse,Atlanta,5470,0005470 #5470 5470,"2955 Cobb Parkway, Suite 810",GA,30339
LongHorn Steakhouse,Houston,5471,0005471 #5471 5471,9401-A Katy Freeway,TX,77024
LongHorn Steakhouse,Lubbock,5472,0005472 #5472 5472,"4805 S Loop 289, Bldg 500",TX,79424
LongHorn Steakhouse,Hampton,5473,0005473 #5473 5473,108 Marketplace Drive,VA,23666
LongHorn Steakhouse,Greendale,5474,0005474 #5474 5474,5220 S 76th St,WI,53129
LongHorn Steakhouse,Columbus,5476,0005476 #5476 5476,2023 Highway 45 N,MS,39705
LongHorn Steakhouse,Surprise,5477,0005477 #5477 5477,14127 W Bell Road,AZ,85374
LongHorn Steakhouse,Jacksonville,5478,0005478 #5478 5478,3510 Western Blvd,NC,28546
LongHorn Steakhouse,Little Rock,5479,0005479 #5479 5479,2628 S Shackleford Road,AR,72205
LongHorn Steakhouse,Newport News,5480,0005480 #5480 5480,12581 Jefferson Avenue,VA,23602
LongHorn Steakhouse,Katy,5481,0005481 #5481 5481,20636 Katy Freeway,TX,77449
LongHorn Steakhouse,Sandusky,5482,0005482 #5482 5482,5219 Milan Road,OH,44870
LongHorn Steakhouse,Coralville,5483,0005483 #5483 5483,2671 James Street,IA,52241
LongHorn Steakhouse,Mays Landing,5484,0005484 #5484 5484,4417 Black Horse Pike,NJ,8330
LongHorn Steakhouse,Sanford,5485,0005485 #5485 5485,4695 St Johns Parkway,FL,32771
LongHorn Steakhouse,Humble,5487,0005487 #5487 5487,20127 Hwy 59 N,TX,77338
LongHorn Steakhouse,Webster,5488,0005488 #5488 5488,19019 Gulf Freeway,TX,77598
LongHorn Steakhouse,Cincinnati,5490,0005490 #5490 5490,9681 Colerain Ave,OH,45251
LongHorn Steakhouse,Cleveland,5491,0005491 #5491 5491,4305 Holiday Inn Express Way NW,TN,37312
LongHorn Steakhouse,Florence,5492,0005492 #5492 5492,102 Cox Creek Parkway,AL,35630
LongHorn Steakhouse,Southern Pines,5493,0005493 #5493 5493,194 Brucewood Road,NC,28387
LongHorn Steakhouse,Aiken,5495,0005495 #5495 5495,2480 Whiskey Road,SC,29803
LongHorn Steakhouse,Weslaco,5496,0005496 #5496 5496,701 E Expressway 83,TX,78596
LongHorn Steakhouse,Gastonia,5497,0005497 #5497 5497,405 Cox Road,NC,28054
LongHorn Steakhouse,Hot Springs,5498,0005498 #5498 5498,1470 Higdon Ferry Road,AR,71913
LongHorn Steakhouse,Phoenix,5499,0005499 #5499 5499,2475 N 75th Avenue,AZ,85033
LongHorn Steakhouse,Minot,5500,0005500 #5500 5500,1707 22nd Avenue SW,ND,58701
LongHorn Steakhouse,Enfield,5504,0005504 #5504 5504,10 Phoenix Avenue,CT,6082
LongHorn Steakhouse,Lebanon,5505,0005505 #5505 5505,2125 Cumberland Street,PA,17042
LongHorn Steakhouse,Rockford,5512,0005512 #5512 5512,6655 E. State St,IL,61106
