keywords,city,Aggdata Store Number,store_number,address,state,zip_code
Love's Travel Stops,Watonga,1,00001X COUNTRY00001X COUNTRY000001X,304 W. Russworm,OK,73772
Love's Travel Stops,Kingfisher,5,00005X COUNTRY00005X COUNTRY000005X,203 S. Main,OK,73750
Love's Travel Stops,Gunnison,7,00007X COUNTRY00007X COUNTRY000007X,108 S. 12th,CO,81230
Love's Travel Stops,Altus,8,00008X COUNTRY00008X COUNTRY000008X,619 N. Main,OK,73521
Love's Travel Stops,Hollis,10,000010X COUNTRY000010X COUNTRY0000010X,408 E. Broadway,OK,73550
Love's Travel Stops,Great Bend,11,000011X COUNTRY000011X COUNTRY0000011X,1221 10th Street,KS,67530
Love's Travel Stops,LaJunta,12,000012X COUNTRY000012X COUNTRY0000012X,308 East 1st,CO,81050
Love's Travel Stops,Marlow,13,000013X COUNTRY000013X COUNTRY0000013X,811 N. Broadway,OK,73055
Love's Travel Stops,Fairview,15,000015X COUNTRY000015X COUNTRY0000015X,401 N. Main,OK,73737
Love's Travel Stops,Woodward,16,000016X COUNTRY000016X COUNTRY0000016X,3020 NW Williams Ave.,OK,73801
Love's Travel Stops,Alva,18,000018X COUNTRY000018X COUNTRY0000018X,607 E. Oklahoma Blvd.,OK,73717
Love's Travel Stops,Guymon,19,000019X COUNTRY000019X COUNTRY0000019X,101 SE 2nd St.,OK,73942
Love's Travel Stops,Beaver,21,000021X COUNTRY000021X COUNTRY0000021X,801 Douglas,OK,73932
Love's Travel Stops,Clayton,22,000022X COUNTRY000022X COUNTRY0000022X,703 South 1st,NM,88415
Love's Travel Stops,Lamar,23,000023X COUNTRY000023X COUNTRY0000023X,605 N. Main,CO,81052
Love's Travel Stops,Liberal,24,000024X COUNTRY000024X COUNTRY0000024X,208 West Pancake Blvd.,KS,67901
Love's Travel Stops,Purcell,28,000028X COUNTRY000028X COUNTRY0000028X,225 North Green Ave.,OK,73080
Love's Travel Stops,Duncan,29,000029X COUNTRY000029X COUNTRY0000029X,202 West Main,OK,73533
Love's Travel Stops,Monte Vista,30,000030X COUNTRY000030X COUNTRY0000030X,1537 Grande Ave.,CO,81144
Love's Travel Stops,Elk City,31,000031X COUNTRY000031X COUNTRY0000031X,2703 East 66,OK,73644
Love's Travel Stops,Pratt,32,000032X COUNTRY000032X COUNTRY0000032X,1412 East 1st,KS,67124
Love's Travel Stops,Mangum,33,000033X COUNTRY000033X COUNTRY0000033X,301 N. Louis Tittle,OK,73554
Love's Travel Stops,Buffalo,36,000036X COUNTRY000036X COUNTRY0000036X,Hwy 64 & Brule,OK,73834
Love's Travel Stops,Springfield,37,000037X COUNTRY000037X COUNTRY0000037X,1100 Main,CO,81073
Love's Travel Stops,Lamar,38,000038X COUNTRY000038X COUNTRY0000038X,301 East Olive,CO,81052
Love's Travel Stops,Syracuse,39,000039X COUNTRY000039X COUNTRY0000039X,208 E. Hwy 50,KS,67878
Love's Travel Stops,Hays,44,000044X COUNTRY000044X COUNTRY0000044X,2500 Vine Street,KS,67601
Love's Travel Stops,Hooker,46,000046X COUNTRY000046X COUNTRY0000046X,201 E. Hwy 54,OK,73945
Love's Travel Stops,Woodward,47,000047X COUNTRY000047X COUNTRY0000047X,2615 Oklahoma,OK,73801
Love's Travel Stops,Hennessey,48,000048X COUNTRY000048X COUNTRY0000048X,721 South Main,OK,73742
Love's Travel Stops,Shawnee,49,000049X COUNTRY000049X COUNTRY0000049X,1005 North Kickapoo,OK,74801
Love's Travel Stops,Pauls Valley,50,000050X COUNTRY000050X COUNTRY0000050X,309 West Grant,OK,73075
Love's Travel Stops,Tecumseh,51,000051X COUNTRY000051X COUNTRY0000051X,100 East Walnut,OK,74873
Love's Travel Stops,Ada,52,000052X COUNTRY000052X COUNTRY0000052X,300 N. Mississippi,OK,74820
Love's Travel Stops,Ardmore,54,000054X COUNTRY000054X COUNTRY0000054X,3201 NW 12th,OK,73401
Love's Travel Stops,Comanche,55,000055X COUNTRY000055X COUNTRY0000055X,120 S. Rodeo Dr.,OK,73529
Love's Travel Stops,Marlow,56,000056X COUNTRY000056X COUNTRY0000056X,701 South Broadway,OK,73055
Love's Travel Stops,Henryetta,57,000057X COUNTRY000057X COUNTRY0000057X,413 East Main,OK,74437
Love's Travel Stops,Dodge City,58,000058X COUNTRY000058X COUNTRY0000058X,1108 W. Wyatt Earp,KS,67801
Love's Travel Stops,Phillipsburg,59,000059X COUNTRY000059X COUNTRY0000059X,709 East State Street,KS,67661
Love's Travel Stops,Norton,60,000060X COUNTRY000060X COUNTRY0000060X,303 W. Holme St.,KS,67654
Love's Travel Stops,Colby,61,000061X COUNTRY000061X COUNTRY0000061X,265 West 4th,KS,67701
Love's Travel Stops,Dodge City,62,000062X COUNTRY000062X COUNTRY0000062X,400 E. Wyatt Earp,KS,67801
Love's Travel Stops,Durant,68,000068X COUNTRY000068X COUNTRY0000068X,1223 North 1st,OK,74702
Love's Travel Stops,Durant,69,000069X COUNTRY000069X COUNTRY0000069X,524 West Main,OK,74702
Love's Travel Stops,Miami,73,000073X COUNTRY000073X COUNTRY0000073X,1015 E. Steve Owens,OK,74354
Love's Travel Stops,Lindsay,74,000074X COUNTRY000074X COUNTRY0000074X,502 West Cherokee,OK,73052
Love's Travel Stops,Tahlequah,78,000078X COUNTRY000078X COUNTRY0000078X,111 E. Downing,OK,74464
Love's Travel Stops,Ada,80,000080X COUNTRY000080X COUNTRY0000080X,524 West Main,OK,74820
Love's Travel Stops,Madill,84,000084X COUNTRY000084X COUNTRY0000084X,411 South 1st,OK,73446
Love's Travel Stops,Guthrie,85,000085X COUNTRY000085X COUNTRY0000085X,1223 S. Division,OK,73044
Love's Travel Stops,Chickasha,86,000086X COUNTRY000086X COUNTRY0000086X,1326 S. 4th,OK,73018
Love's Travel Stops,Yukon,88,000088X COUNTRY000088X COUNTRY0000088X,1016 West Main,OK,73099
Love's Travel Stops,Broken Bow,94,000094X COUNTRY000094X COUNTRY0000094X,504 South Park Ave.,OK,74728
Love's Travel Stops,Chickasha,95,000095X COUNTRY000095X COUNTRY0000095X,1001 W. Choctaw,OK,73018
Love's Travel Stops,Arkansas City,97,000097X COUNTRY000097X COUNTRY0000097X,1712 North Summit,KS,67005
Love's Travel Stops,El Reno,114,0000114X COUNTRY0000114X COUNTRY00000114X,1645 E. Hwy 66,OK,73036
Love's Travel Stops,Oklahoma City,123,0000123X COUNTRY0000123X COUNTRY00000123X,8005 S. Morgan Rd.,OK,73120
Love's Travel Stops,Amarillo,200,0000200X COUNTRY0000200X COUNTRY00000200X,"I-40, Exit 74",TX,79120
Love's Travel Stops,Elk City,201,0000201X COUNTRY0000201X COUNTRY00000201X,"I-40, Exit 41",OK,73644
Love's Travel Stops,Oklahoma City,203,0000203X COUNTRY0000203X COUNTRY00000203X,"I-40, Exit 140",OK,73128
Love's Travel Stops,Eufaula,204,0000204X COUNTRY0000204X COUNTRY00000204X,"Hwy 69, Exit Birkes Rd.",OK,74432
Love's Travel Stops,Oklahoma City,205,0000205X COUNTRY0000205X COUNTRY00000205X,"I-35, Exit 137",OK,73131
Love's Travel Stops,Loxley,206,0000206X COUNTRY0000206X COUNTRY00000206X,"I-10, Exit 44",AL,36551
Love's Travel Stops,Coachella,207,0000207X COUNTRY0000207X COUNTRY00000207X,"I-10, Exit 146",CA,92236
Love's Travel Stops,Canton,208,0000208X COUNTRY0000208X COUNTRY00000208X,"I-55, Exit 119",MS,39046
Love's Travel Stops,Greenwood,209,0000209X COUNTRY0000209X COUNTRY00000209X,"I-20, Exit 3",LA,71033
Love's Travel Stops,Albuquerque,210,0000210X COUNTRY0000210X COUNTRY00000210X,"I-40, Exit 158",NM,87102
Love's Travel Stops,Oklahoma City,211,0000211X COUNTRY0000211X COUNTRY00000211X,"I-35, Exit 120",OK,73149
Love's Travel Stops,Tonkawa,213,0000213X COUNTRY0000213X COUNTRY00000213X,"I-35, Exit 211",OK,74653
Love's Travel Stops,El Paso,214,0000214X COUNTRY0000214X COUNTRY00000214X,"I-10, Exit 37",TX,79928
Love's Travel Stops,Gallup,215,0000215X COUNTRY0000215X COUNTRY00000215X,"I-40, Exit 16",NM,87301
Love's Travel Stops,Midlothian,216,0000216X COUNTRY0000216X COUNTRY00000216X,"Hwy 67, Exit Hwy 287",TX,76065
Love's Travel Stops,Denton,217,0000217X COUNTRY0000217X COUNTRY00000217X,"I-35, Exit 473",TX,76207
Love's Travel Stops,Guthrie,218,0000218X COUNTRY0000218X COUNTRY00000218X,"I-35, Exit 157",OK,73044
Love's Travel Stops,Seminole,219,0000219X COUNTRY0000219X COUNTRY00000219X,"I-40, Exit 200",OK,74868
Love's Travel Stops,Cheyenne,220,0000220X COUNTRY0000220X COUNTRY00000220X,"I-25, Exit 7",WY,82007
Love's Travel Stops,Zanesville,221,0000221X COUNTRY0000221X COUNTRY00000221X,"I-70, Exit 160",OH,43701
Love's Travel Stops,Richmond,222,0000222X COUNTRY0000222X COUNTRY00000222X,"I-70, Exit 149B",IN,47374
Love's Travel Stops,Ripon,223,0000223X COUNTRY0000223X COUNTRY00000223X,"Hwy 99, Exit 237B",CA,95366
Love's Travel Stops,Evergreen,225,0000225X COUNTRY0000225X COUNTRY00000225X,"I-65, Exit 93",AL,36401
Love's Travel Stops,Pueblo,226,0000226X COUNTRY0000226X COUNTRY00000226X,"I-25, Exit 104",CO,81008
Love's Travel Stops,McCalla,227,0000227X COUNTRY0000227X COUNTRY00000227X,"I-20, Exit 100",AL,35111
Love's Travel Stops,Auburndale,228,0000228X COUNTRY0000228X COUNTRY00000228X,"I-4, Exit 44",FL,33868
Love's Travel Stops,Claude,229,0000229X COUNTRY0000229X COUNTRY00000229X,"I-40, Exit 96",TX,79068
Love's Travel Stops,Lost Hills,230,0000230X COUNTRY0000230X COUNTRY00000230X,"I-5, Exit 278",CA,93249
Love's Travel Stops,Hillsboro,231,0000231X COUNTRY0000231X COUNTRY00000231X,"I-35, Exit 368A",TX,76645
Love's Travel Stops,Waller,233,0000233X COUNTRY0000233X COUNTRY00000233X,"Hwy 290, Exit FM 2920",TX,77484
Love's Travel Stops,Katy,234,0000234X COUNTRY0000234X COUNTRY00000234X,"I-10, Exit 737",TX,77494
Love's Travel Stops,St. Joseph,235,0000235X COUNTRY0000235X COUNTRY00000235X,"I-29, Exit 44",MO,64507
Love's Travel Stops,N. Little Rock,236,0000236X COUNTRY0000236X COUNTRY00000236X,"I-40, Exit 161",AR,72117
Love's Travel Stops,Tallulah,237,0000237X COUNTRY0000237X COUNTRY00000237X,"I-20, Exit 171",LA,71282
Love's Travel Stops,Shepherdsville,238,0000238X COUNTRY0000238X COUNTRY00000238X,"I-65, Exit 116",KY,40165
Love's Travel Stops,Max Meadows,239,0000239X COUNTRY0000239X COUNTRY00000239X,"I-81, Exit 84",VA,24360
Love's Travel Stops,Port Allen,240,0000240X COUNTRY0000240X COUNTRY00000240X,"I-10, Exit 151",LA,70767
Love's Travel Stops,San Antonio,242,0000242X COUNTRY0000242X COUNTRY00000242X,"I-35, Exit 144",TX,78073
Love's Travel Stops,Lake Charles,243,0000243X COUNTRY0000243X COUNTRY00000243X,"I-10, Exit 43",LA,70647
Love's Travel Stops,Jackson,244,0000244X COUNTRY0000244X COUNTRY00000244X,"I-40, Exit 87",TN,38305
Love's Travel Stops,Oklahoma City,245,0000245X COUNTRY0000245X COUNTRY00000245X,3233 SW 89th,OK,73189
Love's Travel Stops,Fernley,246,0000246X COUNTRY0000246X COUNTRY00000246X,"I-80, Exit 46",NV,89408
Love's Travel Stops,Memphis,247,0000247X COUNTRY0000247X COUNTRY00000247X,"Hwy 287, Exit Hwy 256",TX,79245
Love's Travel Stops,Clinton,248,0000248X COUNTRY0000248X COUNTRY00000248X,"I-40, Exit 71",OK,73601
Love's Travel Stops,Williamsville,249,0000249X COUNTRY0000249X COUNTRY00000249X,"I-55, Exit 109",IL,62693
Love's Travel Stops,Amarillo,250,0000250X COUNTRY0000250X COUNTRY00000250X,"I-40, Exit 60",TX,79124
Love's Travel Stops,McLoud,252,0000252X COUNTRY0000252X COUNTRY00000252X,12601 McLoud Rd.,OK,74851
Love's Travel Stops,Erick,253,0000253X COUNTRY0000253X COUNTRY00000253X,"I-40, Exit 7",OK,73645
Love's Travel Stops,Belleville,254,0000254X COUNTRY0000254X COUNTRY00000254X,"I-70, Exit 59",IN,46158
Love's Travel Stops,Webber Falls,255,0000255X COUNTRY0000255X COUNTRY00000255X,"I-40, Exit 287",OK,78059
Love's Travel Stops,Van Horn,256,0000256X COUNTRY0000256X COUNTRY00000256X,"I-10, Exit 140B",TX,79855
Love's Travel Stops,Milan,257,0000257X COUNTRY0000257X COUNTRY00000257X,"I-40, Exit 79",NM,87021
Love's Travel Stops,Ottawa,258,0000258X COUNTRY0000258X COUNTRY00000258X,"I-35, Exit 183",KS,66067
Love's Travel Stops,Las Cruces,259,0000259X COUNTRY0000259X COUNTRY00000259X,"I-10, Exit 132",NM,88005
Love's Travel Stops,Norman,260,0000260X COUNTRY0000260X COUNTRY00000260X,"I-35, Exit 106",OK,73072
Love's Travel Stops,Amarillo,261,0000261X COUNTRY0000261X COUNTRY00000261X,"I-27, Exit 116",TX,79110
Love's Travel Stops,Tucumcari,262,0000262X COUNTRY0000262X COUNTRY00000262X,"I-40, Exit 333",NM,88401
Love's Travel Stops,Lawton,263,0000263X COUNTRY0000263X COUNTRY00000263X,"I-44, Exit 45",OK,73501
Love's Travel Stops,Luling,264,0000264X COUNTRY0000264X COUNTRY00000264X,"I-10, Exit 632",TX,78648
Love's Travel Stops,Casa Grande,265,0000265X COUNTRY0000265X COUNTRY00000265X,"I-10, Exit 200",AZ,85222
Love's Travel Stops,Ardmore,266,0000266X COUNTRY0000266X COUNTRY00000266X,"I-35, Exit 32",OK,73401
Love's Travel Stops,Morrilton,267,0000267X COUNTRY0000267X COUNTRY00000267X,"I-40, Exit 107",AR,72110
Love's Travel Stops,Atoka,268,0000268X COUNTRY0000268X COUNTRY00000268X,"Hwy 69, Exit Hwy 75",OK,74525
Love's Travel Stops,Wichita Falls,269,0000269X COUNTRY0000269X COUNTRY00000269X,"Hwy 287, Exit FM 1124",TX,76301
Love's Travel Stops,Ranger,270,0000270X COUNTRY0000270X COUNTRY00000270X,"I-20, Exit 349",TX,76470
Love's Travel Stops,Ozark,271,0000271X COUNTRY0000271X COUNTRY00000271X,"I-40, Exit 37",AR,72949
Love's Travel Stops,Kingman,272,0000272X COUNTRY0000272X COUNTRY00000272X,"I-40, Exit 59",AZ,86401
Love's Travel Stops,Weatherford,273,0000273X COUNTRY0000273X COUNTRY00000273X,"I-20, Exit 410",TX,76086
Love's Travel Stops,Okemah,274,0000274X COUNTRY0000274X COUNTRY00000274X,"I-40, Exit 221",OK,74859
Love's Travel Stops,Palestine,275,0000275X COUNTRY0000275X COUNTRY00000275X,"I-40, Exit 233",AR,72372
Love's Travel Stops,Lordsburg,276,0000276X COUNTRY0000276X COUNTRY00000276X,"I-10, Exit 20",NM,88045
Love's Travel Stops,Prescott,277,0000277X COUNTRY0000277X COUNTRY00000277X,"I-30, Exit 46",AR,71857
Love's Travel Stops,Joseph City,278,0000278X COUNTRY0000278X COUNTRY00000278X,"I-40, Exit 277",AZ,86032
Love's Travel Stops,Mt. Vernon,279,0000279X COUNTRY0000279X COUNTRY00000279X,"I-30, Exit 147",TX,75457
Love's Travel Stops,Buckeye,280,0000280X COUNTRY0000280X COUNTRY00000280X,"I-10, Exit 114",AZ,85326
Love's Travel Stops,Ft. Worth,281,0000281X COUNTRY0000281X COUNTRY00000281X,"I-35W, Exit 40",TX,76140
Love's Travel Stops,Joplin,282,0000282X COUNTRY0000282X COUNTRY00000282X,"I-44, Exit 4",MO,64804
Love's Travel Stops,Rockwall,283,0000283X COUNTRY0000283X COUNTRY00000283X,"I-30, Exit 70",TX,75075
Love's Travel Stops,Edinburg,284,0000284X COUNTRY0000284X COUNTRY00000284X,"Hwy 281, Exit FM 2812",TX,78539
Love's Travel Stops,Santa Rosa,285,0000285X COUNTRY0000285X COUNTRY00000285X,"I-40, Exit 277",NM,88435
Love's Travel Stops,Quartzsite,286,0000286X COUNTRY0000286X COUNTRY00000286X,"I-10, Exit 17",AZ,85346
Love's Travel Stops,Van,287,0000287X COUNTRY0000287X COUNTRY00000287X,"I-20, Exit 540",TX,75790
Love's Travel Stops,Fairfield,288,0000288X COUNTRY0000288X COUNTRY00000288X,"I-45, Exit 198",TX,75840
Love's Travel Stops,Minden,289,0000289X COUNTRY0000289X COUNTRY00000289X,"I-20, Exit 49",LA,71055
Love's Travel Stops,Lufkin,290,0000290X COUNTRY0000290X COUNTRY00000290X,"Loop 287, Exit 842",TX,75901
Love's Travel Stops,Richmond,291,0000291X COUNTRY0000291X COUNTRY00000291X,"I-75, Exit 95",KY,40475
Love's Travel Stops,Dwight,292,0000292X COUNTRY0000292X COUNTRY00000292X,"I-55, Exit 220",IL,60420
Love's Travel Stops,Cleveland,293,0000293X COUNTRY0000293X COUNTRY00000293X,"Hwy 59, Exit FM 2025",TX,77328
Love's Travel Stops,Dallas,294,0000294X COUNTRY0000294X COUNTRY00000294X,"I-20, Exit 466",TX,75232
Love's Travel Stops,Chouteau,295,0000295X COUNTRY0000295X COUNTRY00000295X,"Hwy 69, Exit Hwy 412",OK,74337
Love's Travel Stops,Gila Bend,296,0000296X COUNTRY0000296X COUNTRY00000296X,"I-8, Exit 115",AZ,85337
Love's Travel Stops,Edna,297,0000297X COUNTRY0000297X COUNTRY00000297X,"Hwy 59, Exit Milby Rd.",TX,77957
Love's Travel Stops,Laredo,298,0000298X COUNTRY0000298X COUNTRY00000298X,"I-35, Exit 39",TX,78019
Love's Travel Stops,Anna,299,0000299X COUNTRY0000299X COUNTRY00000299X,"Hwy 75, Exit FM 455",TX,75409
Love's Travel Stops,Bennett,300,0000300X COUNTRY0000300X COUNTRY00000300X,"I-70, Exit 304",CO,80102
Love's Travel Stops,Post Falls,301,0000301X COUNTRY0000301X COUNTRY00000301X,"I-90, Exit 2",ID,83854
Love's Travel Stops,Boise City,302,0000302X COUNTRY0000302X COUNTRY00000302X,"Hwy 278, Exit Hwy 412",OK,73933
Love's Travel Stops,Waddy,303,0000303X COUNTRY0000303X COUNTRY00000303X,"I-64, Exit 43",KY,40076
Love's Travel Stops,Steele,304,0000304X COUNTRY0000304X COUNTRY00000304X,"I-59, Exit 174",AL,35987
Love's Travel Stops,Tom's Brook,305,0000305X COUNTRY0000305X COUNTRY00000305X,"I-81, Exit 291",VA,22660
Love's Travel Stops,Dandridge,306,0000306X COUNTRY0000306X COUNTRY00000306X,"I-40, Exit 412",TN,37725
Love's Travel Stops,Jackson,307,0000307X COUNTRY0000307X COUNTRY00000307X,"I-75, Exit 201",GA,30233
Love's Travel Stops,Marion,308,0000308X COUNTRY0000308X COUNTRY00000308X,"I-40, Exit 86",NC,28752
Love's Travel Stops,Aurora,309,0000309X COUNTRY0000309X COUNTRY00000309X,"I-80, Exit 332",NE,68818
Love's Travel Stops,Wamsutter,310,0000310X COUNTRY0000310X COUNTRY00000310X,"I-80, Exit 173",WY,82336
Love's Travel Stops,Waco,311,0000311X COUNTRY0000311X COUNTRY00000311X,"I-20, Exit 9",GA,30182
Love's Travel Stops,Roseburg,312,0000312X COUNTRY0000312X COUNTRY00000312X,"I-5, Exit 119",OR,97470
Love's Travel Stops,Matthews,313,0000313X COUNTRY0000313X COUNTRY00000313X,"I-55, Exit 58",MO,63867
Love's Travel Stops,Christiana,314,0000314X COUNTRY0000314X COUNTRY00000314X,"I-24, Exit 89",TN,37037
Love's Travel Stops,Houston,315,0000315X COUNTRY0000315X COUNTRY00000315X,"Loop 610, Exit 24A",TX,77013
Love's Travel Stops,Ormond Beach,316,0000316X COUNTRY0000316X COUNTRY00000316X,"I-95, Exit 273",FL,32174
Love's Travel Stops,Skippers,317,0000317X COUNTRY0000317X COUNTRY00000317X,"I-95, Exit 4",VA,23879
Love's Travel Stops,Ina,318,0000318X COUNTRY0000318X COUNTRY00000318X,"I-57, Exit 83",IL,62846
Love's Travel Stops,Pittsboro,319,0000319X COUNTRY0000319X COUNTRY00000319X,"I-74, Exit 61",IN,46167
Love's Travel Stops,Dublin,320,0000320X COUNTRY0000320X COUNTRY00000320X,"I-16, Exit 49",GA,31021
Love's Travel Stops,Corbin,321,0000321X COUNTRY0000321X COUNTRY00000321X,"I-75, Exit 29",KY,40701
Love's Travel Stops,Roscoe,322,0000322X COUNTRY0000322X COUNTRY00000322X,"I-90, Exit 3",IL,61073
Love's Travel Stops,Marion,323,0000323X COUNTRY0000323X COUNTRY00000323X,"I-69, Exit 264",IN,46952
Love's Travel Stops,Mifflinville,324,0000324X COUNTRY0000324X COUNTRY00000324X,"I-80, Exit 242",PA,18631
Love's Travel Stops,Tifton,325,0000325X COUNTRY0000325X COUNTRY00000325X,"I-75, Exit 59",GA,31794
Love's Travel Stops,Orangeburg,326,0000326X COUNTRY0000326X COUNTRY00000326X,"I-26, Exit 154A",SC,29115
Love's Travel Stops,Kingsville,327,0000327X COUNTRY0000327X COUNTRY00000327X,"Hwy 77, Exit Corral Rd.",TX,78363
Love's Travel Stops,Chandler,328,0000328X COUNTRY0000328X COUNTRY00000328X,"I-10, Exit 162",AZ,85226
Love's Travel Stops,Clovis,329,0000329X COUNTRY0000329X COUNTRY00000329X,"Hwy 60, Exit Curry Rd.",NM,88101
Love's Travel Stops,Baxter,330,0000330X COUNTRY0000330X COUNTRY00000330X,"I-40, Exit 280",TN,38544
Love's Travel Stops,Hutchins,331,0000331X COUNTRY0000331X COUNTRY00000331X,"I-45, Exit 272",TX,75141
Love's Travel Stops,Burbank,332,0000332X COUNTRY0000332X COUNTRY00000332X,"I-71, Exit 204",OH,44214
Love's Travel Stops,Ft. Mill,333,0000333X COUNTRY0000333X COUNTRY00000333X,"I-77, Exit 83",SC,29708
Love's Travel Stops,Heyburn,334,0000334X COUNTRY0000334X COUNTRY00000334X,"I-84, Exit 211",ID,83336
Love's Travel Stops,Cedar City,335,0000335X COUNTRY0000335X COUNTRY00000335X,"I-15, Exit 62",UT,84720
Love's Travel Stops,Marshall,336,0000336X COUNTRY0000336X COUNTRY00000336X,"I-94, Exit 112",MI,49068
Love's Travel Stops,Albert Lea,337,0000337X COUNTRY0000337X COUNTRY00000337X,"I-35, Exit 11",MN,56007
Love's Travel Stops,Richmond Hill,338,0000338X COUNTRY0000338X COUNTRY00000338X,"I-95, Exit 90",GA,31324
Love's Travel Stops,Odessa,339,0000339X COUNTRY0000339X COUNTRY00000339X,"I-20, Exit 115",TX,79766
Love's Travel Stops,Las Vegas,340,0000340X COUNTRY0000340X COUNTRY00000340X,"I-15, Exit 64",NV,89105
Love's Travel Stops,Rolla,341,0000341X COUNTRY0000341X COUNTRY00000341X,"I-44, Exit 189",MO,65401
Love's Travel Stops,Three Rivers,342,0000342X COUNTRY0000342X COUNTRY00000342X,"I-37, Exit 72",TX,78071
Love's Travel Stops,Toomsuba,343,0000343X COUNTRY0000343X COUNTRY00000343X,"I-20, Exit 165",MS,39364
Love's Travel Stops,Memphis,344,0000344X COUNTRY0000344X COUNTRY00000344X,"Hwy 78, Exit 21",TN,37118
Love's Travel Stops,Oakdale,345,0000345X COUNTRY0000345X COUNTRY00000345X,"I-90, Exit 48",WI,54660
Love's Travel Stops,Columbia,346,0000346X COUNTRY0000346X COUNTRY00000346X,"I-65, Exit 46",TN,38401
Love's Travel Stops,Boonville,347,0000347X COUNTRY0000347X COUNTRY00000347X,"I-70, Exit 101",MO,65233
Love's Travel Stops,Calvert City,348,0000348X COUNTRY0000348X COUNTRY00000348X,"I-24, Exit 27",KY,42029
Love's Travel Stops,Yuma,349,0000349X COUNTRY0000349X COUNTRY00000349X,"I-8, Exit 3",AZ,85365
Love's Travel Stops,Utica,351,0000351X COUNTRY0000351X COUNTRY00000351X,"I-80, Exit 81",IL,61373
Love's Travel Stops,Jeffersonville,352,0000352X COUNTRY0000352X COUNTRY00000352X,"I-71, Exit 65",OH,43128
Love's Travel Stops,Fargo,353,0000353X COUNTRY0000353X COUNTRY00000353X,"I-29, Exit 62",ND,58104
Love's Travel Stops,Thomson,354,0000354X COUNTRY0000354X COUNTRY00000354X,"I-20, Exit 172",GA,30824
Love's Travel Stops,Memphis,355,0000355X COUNTRY0000355X COUNTRY00000355X,"I-65, Exit 16",IN,47143
Love's Travel Stops,N. Baltimore,356,0000356X COUNTRY0000356X COUNTRY00000356X,"I-75, Exit 167",OH,45872
Love's Travel Stops,Fountain,357,0000357X COUNTRY0000357X COUNTRY00000357X,5505 Travel Plaza Drive,CO,80817
Love's Travel Stops,Hamburg,358,0000358X COUNTRY0000358X COUNTRY00000358X,"I-78, Exit 23",PA,19526
Love's Travel Stops,Emerson,359,0000359X COUNTRY0000359X COUNTRY00000359X,"I-75, Exit 283",GA,30121
Love's Travel Stops,Horse Cave,360,0000360X COUNTRY0000360X COUNTRY00000360X,"I-65, Exit 58",KY,42749
Love's Travel Stops,Newton,361,0000361X COUNTRY0000361X COUNTRY00000361X,"I-80, Exit 168",IA,50208
Love's Travel Stops,Vinton,362,0000362X COUNTRY0000362X COUNTRY00000362X,"I-10, Exit 7",LA,70668
Love's Travel Stops,Ocala,363,0000363X COUNTRY0000363X COUNTRY00000363X,"I-75, Exit 358",FL,34482
Love's Travel Stops,Charleston,364,0000364X COUNTRY0000364X COUNTRY00000364X,"I-75, Exit 33",TN,37310
Love's Travel Stops,Wells,365,0000365X COUNTRY0000365X COUNTRY00000365X,"I-80, Exit 352",NV,89835
Love's Travel Stops,Jonestown,366,0000366X COUNTRY0000366X COUNTRY00000366X,"I-81, Exit 90",PA,17038
Love's Travel Stops,Le Roy,367,0000367X COUNTRY0000367X COUNTRY00000367X,"I-74, Exit 149",IL,61752
Love's Travel Stops,Clanton,368,0000368X COUNTRY0000368X COUNTRY00000368X,"I-65, Exit 208",AL,35045
Love's Travel Stops,Dickson,369,0000369X COUNTRY0000369X COUNTRY00000369X,"I-40, Exit 163",TN,37055
Love's Travel Stops,Hubbard,370,0000370X COUNTRY0000370X COUNTRY00000370X,"I-80, Exit 234",OH,44425
Love's Travel Stops,Dillon,371,0000371X COUNTRY0000371X COUNTRY00000371X,"I-95, Exit 190",SC,29536
Love's Travel Stops,Ontario,372,0000372X COUNTRY0000372X COUNTRY00000372X,"I-84, Exit 374",OR,97914
Love's Travel Stops,Colbert,373,0000373X COUNTRY0000373X COUNTRY00000373X,"Hwy 69, Exit Platter Rd.",OK,74730
Love's Travel Stops,Barstow,374,0000374X COUNTRY0000374X COUNTRY00000374X,"I-15, Exit 178",CA,92311
Love's Travel Stops,Hearne,375,0000375X COUNTRY0000375X COUNTRY00000375X,"Hwy 6, Exit FM 485",TX,77859
Love's Travel Stops,Hogansville,376,0000376X COUNTRY0000376X COUNTRY00000376X,"I-85, Exit 28",GA,30230
Love's Travel Stops,Hudson,377,0000377X COUNTRY0000377X COUNTRY00000377X,"I-76, Exit 31",CO,80642
Love's Travel Stops,Ripley,378,0000378X COUNTRY0000378X COUNTRY00000378X,"I-77, Exit 132",WV,25271
Love's Travel Stops,Lee,379,0000379X COUNTRY0000379X COUNTRY00000379X,"I-10, Exit 262",FL,32059
Love's Travel Stops,Rhome,380,0000380X COUNTRY0000380X COUNTRY00000380X,W State Highway 114,TX,76078
Love's Travel Stops,Falkville,381,0000381X COUNTRY0000381X COUNTRY00000381X,"I-65, Exit 322",AL,35622
Love's Travel Stops,Tulare,382,0000382X COUNTRY0000382X COUNTRY00000382X,"Hwy 99, Exit Paige Ave.",CA,93274
Love's Travel Stops,Sparta,383,0000383X COUNTRY0000383X COUNTRY00000383X,"I-71, Exit 55",KY,41083
Love's Travel Stops,Greenville,384,0000384X COUNTRY0000384X COUNTRY00000384X,"I-70, Exit 45",IL,62246
Love's Travel Stops,Hinton,385,0000385X COUNTRY0000385X COUNTRY00000385X,"I-40, Exit 101",OK,73047
Love's Travel Stops,Lake Havasu City,386,0000386X COUNTRY0000386X COUNTRY00000386X,"I-40, Exit 9",AZ,86404
Love's Travel Stops,Fair Play,387,0000387X COUNTRY0000387X COUNTRY00000387X,"I-85, Exit 4",SC,29643
Love's Travel Stops,Batesville,388,0000388X COUNTRY0000388X COUNTRY00000388X,"I-55, Exit 246",MS,38606
Love's Travel Stops,Conneaut,389,0000389X COUNTRY0000389X COUNTRY00000389X,"I-90, Exit 241",OH,44030
Love's Travel Stops,North Platte,390,0000390X COUNTRY0000390X COUNTRY00000390X,"I-80, Exit 179",NE,69101
Love's Travel Stops,St. Paul,391,0000391X COUNTRY0000391X COUNTRY00000391X,"I-74, Exit 123",IN,47272
Love's Travel Stops,Tehachapi,392,0000392X COUNTRY0000392X COUNTRY00000392X,"Hwy 58, Exit 151",CA,93561
Love's Travel Stops,McComb,393,0000393X COUNTRY0000393X COUNTRY00000393X,"I-55, Exit 13",MS,39648
Love's Travel Stops,Demotte,394,0000394X COUNTRY0000394X COUNTRY00000394X,"I-65, Exit 230",IN,46310
Love's Travel Stops,Kankakee,395,0000395X COUNTRY0000395X COUNTRY00000395X,"I-57, Exit 308",IL,60901
Love's Travel Stops,Newberry,396,0000396X COUNTRY0000396X COUNTRY00000396X,"I-26, Exit 76",SC,29108
Love's Travel Stops,Blacksburg,397,0000397X COUNTRY0000397X COUNTRY00000397X,"I-85, Exit 104",SC,29702
Love's Travel Stops,Tupelo,398,0000398X COUNTRY0000398X COUNTRY00000398X,"Hwy 78, Exit 81",MS,38804
Love's Travel Stops,Lambsburg,399,0000399X COUNTRY0000399X COUNTRY00000399X,"I-77, Exit 1",VA,24351
Love's Travel Stops,Baytown,401,0000401X COUNTRY0000401X COUNTRY00000401X,"I-10, Exit 789",TX,77521
Love's Travel Stops,Biloxi,402,0000402X COUNTRY0000402X COUNTRY00000402X,"I-10, Exit 44",MS,39532
Love's Travel Stops,Binghamton,403,0000403X COUNTRY0000403X COUNTRY00000403X,"I-81, Exit 3",NY,13904
Love's Travel Stops,Bordentown,404,0000404X COUNTRY0000404X COUNTRY00000404X,"I-295, Exit 57",NJ,8505
Love's Travel Stops,Brunswick,405,0000405X COUNTRY0000405X COUNTRY00000405X,"I-95, Exit 29",GA,31520
Love's Travel Stops,Carlisle,407,0000407X COUNTRY0000407X COUNTRY00000407X,"I-81, Exit 52B",PA,17013
Love's Travel Stops,Corning,410,0000410X COUNTRY0000410X COUNTRY00000410X,"I-5, Exit 630",CA,96021
Love's Travel Stops,Clive,411,0000411X COUNTRY0000411X COUNTRY00000411X,"I-80, Exit 125",IA,50325
Love's Travel Stops,Dunn,412,0000412X COUNTRY0000412X COUNTRY00000412X,"I-95, Exit 77",NC,28334
Love's Travel Stops,Ellensburg,413,0000413X COUNTRY0000413X COUNTRY00000413X,"I-90, Exit 106",WA,98926
Love's Travel Stops,Haubstadt,414,0000414X COUNTRY0000414X COUNTRY00000414X,"I-64, Exit 25B",IN,47639
Love's Travel Stops,Ft. Pierce,415,0000415X COUNTRY0000415X COUNTRY00000415X,"I-95, Exit 129",FL,34945
Love's Travel Stops,Gary,417,0000417X COUNTRY0000417X COUNTRY00000417X,"I-94, Exit 9",IN,46408
Love's Travel Stops,Grayson,418,0000418X COUNTRY0000418X COUNTRY00000418X,"I-64, Exit 172",KY,41143
Love's Travel Stops,Houston,419,0000419X COUNTRY0000419X COUNTRY00000419X,"I-45, Exit 50",TX,77009
Love's Travel Stops,Flowood,420,0000420X COUNTRY0000420X COUNTRY00000420X,"I-20, Exit 47",MS,39232
Love's Travel Stops,Lexington,424,0000424X COUNTRY0000424X COUNTRY00000424X,"I-20, Exit 51",SC,29073
Love's Travel Stops,Dayton,427,0000427X COUNTRY0000427X COUNTRY00000427X,"I-75, Exit 51",OH,45417
Love's Travel Stops,Nashville,429,0000429X COUNTRY0000429X COUNTRY00000429X,"I-65, Exit 87",TN,37207
Love's Travel Stops,Oak Creek,432,0000432X COUNTRY0000432X COUNTRY00000432X,"I-94, Exit 322",WI,53154
Love's Travel Stops,Ruther Glen,435,0000435X COUNTRY0000435X COUNTRY00000435X,"I-95, Exit 104",VA,22546
Love's Travel Stops,Salt Lake City,436,0000436X COUNTRY0000436X COUNTRY00000436X,"I-80, Exit 118 on Redwood Rd.",UT,84116
Love's Travel Stops,Santa Nella,441,0000441X COUNTRY0000441X COUNTRY00000441X,"I-5, Exit 407",CA,95322
Love's Travel Stops,Sioux Falls,445,0000445X COUNTRY0000445X COUNTRY00000445X,"I-90, Exit 399",SD,57104
Love's Travel Stops,Anthony,447,0000447X COUNTRY0000447X COUNTRY00000447X,"I-10, Exit 0",TX,79821
Love's Travel Stops,Tacoma,448,0000448X COUNTRY0000448X COUNTRY00000448X,"I-5, Exit 136",WA,98424
Love's Travel Stops,Troutdale,449,0000449X COUNTRY0000449X COUNTRY00000449X,"I-84, Exit 17",OR,97060
Love's Travel Stops,West Memphis,450,0000450X COUNTRY0000450X COUNTRY00000450X,"I-40, Exit 280",AR,72301
Love's Travel Stops,Whiteland,451,0000451X COUNTRY0000451X COUNTRY00000451X,"I-65, Exit 95",IN,46184
Love's Travel Stops,Pauls Valley,452,0000452X COUNTRY0000452X COUNTRY00000452X,"I-35, Exit 70",OK,73075
Love's Travel Stops,Cottondale,453,0000453X COUNTRY0000453X COUNTRY00000453X,"I-10, Exit 130",FL,32431
Love's Travel Stops,Napavine,454,0000454X COUNTRY0000454X COUNTRY00000454X,"I-5, Exit 72",WA,98532
Love's Travel Stops,Ellis,455,0000455X COUNTRY0000455X COUNTRY00000455X,"70, Exit 145",KS,67637
Love's Travel Stops,Perrysburg,456,0000456X COUNTRY0000456X COUNTRY00000456X,"I-280, Exit 1B",OH,43551
Love's Travel Stops,Little Rock,457,0000457X COUNTRY0000457X COUNTRY00000457X,"I-30, Exit 128",AR,72210
Love's Travel Stops,Strafford,458,0000458X COUNTRY0000458X COUNTRY00000458X,"I-44, Exit 88",MO,65757
Love's Travel Stops,Whitestown,459,0000459X COUNTRY0000459X COUNTRY00000459X,"I-65, Exit 133",IN,46075
Love's Travel Stops,Benson,460,0000460X COUNTRY0000460X COUNTRY00000460X,"I-10, Exit 302",AZ,85602
Love's Travel Stops,St. Louis,461,0000461X COUNTRY0000461X COUNTRY00000461X,"I-70, Exit 246A",MO,63147
Love's Travel Stops,Seguin,463,0000463X COUNTRY0000463X COUNTRY00000463X,"I-10, Exit 604",TX,78155
Love's Travel Stops,Comfort,464,0000464X COUNTRY0000464X COUNTRY00000464X,"I-10, Exit 523",TX,78013
Love's Travel Stops,Jasper,466,0000466X COUNTRY0000466X COUNTRY00000466X,"Hwy 78, Exit 65",AL,35501
Love's Travel Stops,Willis,468,0000468X COUNTRY0000468X COUNTRY00000468X,"I-45, Exit 95",TX,77318
Love's Travel Stops,South Hill,469,0000469X COUNTRY0000469X COUNTRY00000469X,"I-85, Exit 15",VA,23970
Love's Travel Stops,Jasper,470,0000470X COUNTRY0000470X COUNTRY00000470X,"I-75, Exit 451",FL,32052
Love's Travel Stops,Natalia,471,0000471X COUNTRY0000471X COUNTRY00000471X,"I-35, Exit 127",TX,78059
Love's Travel Stops,Leary,473,0000473X COUNTRY0000473X COUNTRY00000473X,"I-30, Exit 213",TX,75501
Love's Travel Stops,Williston,474,0000474X COUNTRY0000474X COUNTRY00000474X,"Hwy 2, Exit 42nd St.",ND,58801
Love's Travel Stops,Sweetwater,475,0000475X COUNTRY0000475X COUNTRY00000475X,"I-20, Exit 242",TX,79556
Love's Travel Stops,Davenport,476,0000476X COUNTRY0000476X COUNTRY00000476X,"I-80, Exit 292",IA,52806
Love's Travel Stops,Idaho Falls,478,0000478X COUNTRY0000478X COUNTRY00000478X,"I-15, Exit 113",ID,83402
Love's Travel Stops,Sioux City,479,0000479X COUNTRY0000479X COUNTRY00000479X,"I-29, Exit 143",IA,51111
Love's Travel Stops,Lenoir City,480,0000480X COUNTRY0000480X COUNTRY00000480X,"I-40, Exit 364",TN,37771
Love's Travel Stops,Deer Park,481,0000481X COUNTRY0000481X COUNTRY00000481X,"HWY 225, Exit Independence",TX,77536
Love's Travel Stops,Weimar,484,0000484X COUNTRY0000484X COUNTRY00000484X,"I-10, Exit 682",TX,78962
Love's Travel Stops,Bloomsdale,488,0000488X COUNTRY0000488X COUNTRY00000488X,"I-55, Exit 157",MO,63627
Love's Travel Stops,Nickajack Lake,490,0000490X COUNTRY0000490X COUNTRY00000490X,"I-24, Exit 158",TN,37347
Love's Travel Stops,Pecos,492,0000492X COUNTRY0000492X COUNTRY00000492X,"I-20, Exit 42",TX,79772
Love's Travel Stops,Eagleville,500,0000500X COUNTRY0000500X COUNTRY00000500X,"I-35, Exit 106",MO,64442
Love's Travel Stops,Ritzville,514,0000514X COUNTRY0000514X COUNTRY00000514X,"I-90, Exit 221",WA,99169
Love's Travel Stops,Springville,518,0000518X COUNTRY0000518X COUNTRY00000518X,"I-15, Exit 260",UT,84663
Love's Travel Stops,Moody,530,0000530X COUNTRY0000530X COUNTRY00000530X,"I-20, Exit 147",AL,35004
