keywords,city,Aggdata Store Number,store_number,address,state,zip_code
Lowe's,WILKESBORO,1998,#01998*,1605 CURTIS BRIDGE ROAD,NC,28697
Lowe's,MOORESVILLE,1999,#01999*,1000 LOWE'S BOULEVARD,NC,28115
Lowe's,COLUMBUS,3,#03*,2888 BRICE ROAD,OH,43232
Lowe's,SEATTLE,4,#04*,2700 RAINIER AVENUE SOUTH,WA,98144
Lowe's,SHAWNEE,5,#05*,4817 NORTH KICKAPOO STREET,OK,74804
Lowe's,COLUMBIA,8,#08*,201 CONLEY ROAD NORTH,MO,65201
Lowe's,BELLEFONTAINE,9,#09*,2168 US 68 SOUTH,OH,43311
Lowe's,TUKWILA,10,#010*,101 ANDOVER PARK EAST,WA,98188
Lowe's,LAFAYETTE,12,#012*,100 NORTH CREASY LANE,IN,47905
Lowe's,LAYTON,15,#015*,1055 W. ANTELOPE DRIVE,UT,84041
Lowe's,MADISONVILLE,16,#016*,550 ISLAND FORD ROAD,KY,42431
Lowe's,COEUR D ALENE,18,#018*,901 APPLEWAY AVENUE,ID,83814
Lowe's,FREMONT,19,#019*,"1952 NORTH STATE, ROUTE 53",OH,43420
Lowe's,KAHULUI,21,#021*,"270 DAIRY ROAD, BUILDING A",HI,96732
Lowe's,LEBANON,22,#022*,1755 QUENTIN ROAD,PA,17042
Lowe's,TACOMA,26,#026*,2701 SOUTH ORCHARD STREET,WA,98466
Lowe's,TEXAS CITY,28,#028*,3620 EMMETT F. LOWRY EXPWAY,TX,77590
Lowe's,HENDERSONVILLE,31,#031*,"1415 - 7TH AVENUE, EAST",NC,28792
Lowe's,NEWNAN,33,#033*,955 BULLSBORO DRIVE,GA,30265
Lowe's,MOUNT VERNON,35,#035*,1717 FREEWAY DRIVE,WA,98273
Lowe's,HILLIARD,37,#037*,3600 PARK MILL RUN DRIVE,OH,43026
Lowe's,BELLEVUE,40,#040*,11959 NORTHUPWAY,WA,98005
Lowe's,TROTWOOD,42,#042*,5252 SALEM AVENUE,OH,45426
Lowe's,STEUBENVILLE,44,#044*,4115 MALL DRIVE,OH,43952
Lowe's,BENTON HARBOR,46,#046*,1300 MALL DRIVE,MI,49022
Lowe's,DANVILLE,52,#052*,3636 NORTH VERMILLION,IL,61832
Lowe's,FORT WAYNE,53,#053*,4430 ILLINOIS ROAD,IN,46804
Lowe's,NORWALK,56,#056*,14873 CARMENITA ROAD,CA,90650
Lowe's,BURLINGTON,57,#057*,3435 AGENCY,IA,52601
Lowe's,DEKALB,59,#059*,2050 SYCAMORE ROAD,IL,60115
Lowe's,ARLINGTON,61,#061*,3300 169TH PLACE NE,WA,98223
Lowe's,MIDLAND,63,#063*,3315 NORTH LOOP 250 W.,TX,79707
Lowe's,MOUNT VERNON,66,#066*,111 DAVIDSON AVENUE,IL,62864
Lowe's,BATTLE CREEK,69,#069*,"6122 B"" DRIVE NORTH""",MI,49014
Lowe's,GOSHEN,71,#071*,2219 RIETH BOULEVARD,IN,46526
Lowe's,PONCA CITY,72,#072*,3500 NORTH 14TH STREET,OK,74601
Lowe's,WICHITA FALLS,75,#075*,3301 KELL BLVD.,TX,76308
Lowe's,SANDUSKY,77,#077*,5500 MILAN ROAD - SPACE 304,OH,44870
Lowe's,CHAMPAIGN,80,#080*,1904 NORTH PROSPECT AVENUE,IL,61822
Lowe's,LUFKIN,82,#082*,3501 SOUTH MEDFORD,TX,75901
Lowe's,VIRGINIA BEACH,86,#086*,3565 HOLLAND ROAD,VA,23452
Lowe's,ADRIAN,88,#088*,1369 DIVISION STREET,MI,49221
Lowe's,FAIRBORN,89,#089*,2850-I CENTRE DRIVE,OH,45324
Lowe's,SAN ANGELO,90,#090*,5301 SHERWOOD WAY,TX,76904
Lowe's,CORINTH,91,#091*,1800 SOUTH PARKWAY,MS,38834
Lowe's,GALESBURG,92,#092*,531 WEST CARL SANDBURG DRIVE,IL,61401
Lowe's,BEAUMONT,95,#095*,4120 DOWLEN ROAD,TX,77706
Lowe's,BAYTOWN,97,#097*,5002 GARTH ROAD,TX,77521
Lowe's,HOUSTON,98,#098*,19935 KATY FREEWAY,TX,77094
Lowe's,AURORA,102,#0102*,1701 SOUTH HAVANA STREET,CO,80012
Lowe's,BRYAN,103,#0103*,3225 FREEDOM BLVD.,TX,77802
Lowe's,MOLINE,104,#0104*,3820 44TH AVENUE DRIVE,IL,61265
Lowe's,DAVENPORT,107,#0107*,3955 ELMORE AVENUE,IA,52807
Lowe's,SAINT CLAIRSVILLE,110,#0110*,50421 VALLEY PLAZA DRIVE,OH,43950
Lowe's,NORTH CHESTERFIELD,113,#0113*,1512 WEST KOGER CENTER DRIVE,VA,23235
Lowe's,MUNCIE,116,#0116*,4401 WEST CLARA LANE,IN,47304
Lowe's,DUBUQUE,117,#0117*,4100 DODGE STREET,IA,52003
Lowe's,BRADLEY,118,#0118*,860 KINZIE AVENUE,IL,60915
Lowe's,WAIPAHU,119,#0119*,94-805 LUMIAINA STREET,HI,96797
Lowe's,BELLE VERNON,120,#0120*,203 SARAH WAY,PA,15012
Lowe's,MUSKOGEE,124,#0124*,2901 EAST SHAWNEE,OK,74403
Lowe's,FORT WAYNE,126,#0126*,1929 NORTH COLISEUM BLVD.,IN,46805
Lowe's,SHERMAN,127,#0127*,2801 US HIGHWAY 75 NORTH,TX,75090
Lowe's,WACO,129,#0129*,201 NORTH NEW ROAD,TX,76710
Lowe's,LAKE JACKSON,137,#0137*,200 HIGHWAY 332 EAST,TX,77566
Lowe's,ABILENE,138,#0138*,4134 RIDGEMONT DRIVE,TX,79606
Lowe's,ISSAQUAH,140,#0140*,1625 11TH AVENUE N.W.,WA,98027
Lowe's,INDIANAPOLIS,145,#0145*,8440 MICHIGAN ROAD,IN,46268
Lowe's,JACKSON,146,#0146*,1535 BOARDMAN ROAD,MI,49202
Lowe's,EVERETT,149,#0149*,2505 PACIFIC AVENUE,WA,98201
Lowe's,WENATCHEE,152,#0152*,1200 WALLA WALLA AVENUE,WA,98801
Lowe's,SAN MARCOS,159,#0159*,2211 IH 35 SOUTH,TX,78666
Lowe's,BUTLER,165,#0165*,500 MORAINE POINT PLAZA,PA,16001
Lowe's,PEORIA,167,#0167*,5001 NORTH BIG HOLLOW ROAD,IL,61615
Lowe's,HAMILTON,168,#0168*,1495 MAIN STREET,OH,45013
Lowe's,TEXARKANA,174,#0174*,501 WALTON DRIVE,TX,75501
Lowe's,JOHNSTOWN,175,#0175*,630 SOLOMON RUN ROAD,PA,15904
Lowe's,STATESBORO,177,#0177*,24065 HIGHWAY 80 EAST,GA,30461
Lowe's,OREM,178,#0178*,140 WEST UNIVERSITY PARKWAY,UT,84058
Lowe's,LAKE CITY,179,#0179*,3463 NW BASCOM NORRIS DRIVE,FL,32055
Lowe's,GREENSBURG,180,#0180*,"HEMPFIELD SQUARE, RT. 30 W.",PA,15601
Lowe's,COLUMBUS,181,#0181*,1675 GEORGESVILLE SQUARE DRIVE,OH,43228
Lowe's,DENTON,183,#0183*,1255 SOUTH LOOP 288,TX,76205
Lowe's,BATON ROUGE,186,#0186*,10303 SOUTH MALL DRIVE,LA,70809
Lowe's,UNIONTOWN,187,#0187*,79 MATTHEW DRIVE,PA,15401
Lowe's,YOUNGSTOWN,188,#0188*,1100 DORAL DRIVE,OH,44514
Lowe's,CARTERSVILLE,190,#0190*,301 MARKETPLACE BOULEVARD,GA,30120
Lowe's,ROCKFORD,191,#0191*,7130 EAST STATE ROAD,IL,61108
Lowe's,MICHIGAN CITY,195,#0195*,5200 FRANKLIN STREET,IN,46360
Lowe's,INDIANA,197,#0197*,475 BEN FRANKLIN ROAD SOUTH,PA,15701
Lowe's,MUSKEGON,199,#0199*,2035 EAST SHERMAN BLVD.,MI,49444
Lowe's,MISHAWAKA,200,#0200*,4660 NORTH GRAPE ROAD,IN,46545
Lowe's,VESTAL,202,#0202*,225 SYCAMORE ROAD,NY,13850
Lowe's,WEST CARROLLTON,203,#0203*,2900 MARTIN'S DRIVE,OH,45449
Lowe's,ENID,205,#0205*,5201 WEST GARRIOTT,OK,73703
Lowe's,CENTERVILLE,207,#0207*,6300 WILMINGTON PIKE,OH,45459
Lowe's,LA QUINTA,208,#0208*,78-865 HIGHWAY 111,CA,92253
Lowe's,KILLEEN,209,#0209*,2801 SOUTH W.S. YOUNG DRIVE,TX,76542
Lowe's,ZANESVILLE,210,#0210*,3755 FRAZEYSBURG ROAD,OH,43701
Lowe's,MARION,211,#0211*,2842 SOUTH WESTERN AVENUE,IN,46953
Lowe's,MOBILE,212,#0212*,151 EAST I-65 SERVICE ROAD SOUTH,AL,36606
Lowe's,TERRE HAUTE,215,#0215*,4701 SOUTH U.S. HIGHWAY 41,IN,47802
Lowe's,BEAR,217,#0217*,800 EDEN CIRCLE,DE,19701
Lowe's,LOUISVILLE,220,#0220*,1171 DILLON ROAD,CO,80027
Lowe's,TEMPLE,221,#0221*,605 SW H. K. DODGEN LOOP,TX,76502
Lowe's,NORTH CANTON,222,#0222*,"6375 STRIP AVENUE, N.W.",OH,44720
Lowe's,GAITHERSBURG,223,#0223*,40 MARKET STREET,MD,20878
Lowe's,ELYRIA,224,#0224*,646 MIDWAY BLVD,OH,44035
Lowe's,ERIE,226,#0226*,1930 KEYSTONE DR. SUITE 2,PA,16509
Lowe's,DEFIANCE,231,#0231*,1831 NORTH CLINTON STREET,OH,43512
Lowe's,CONROE,232,#0232*,1920 WESTVIEW BLVD.,TX,77304
Lowe's,RUSSELLVILLE,235,#0235*,3011 PARKWAY EAST,AR,72802
Lowe's,CONWAY,236,#0236*,1325 HIGHWAY 64 WEST,AR,72032
Lowe's,VERO BEACH,240,#0240*,6110 20TH STREET,FL,32966
Lowe's,STILLWATER,241,#0241*,1616 NORTH PERKINS ROAD,OK,74075
Lowe's,DICKSON CITY,242,#0242*,901 VIEWMONT DRIVE,PA,18519
Lowe's,TULSA,243,#0243*,"10156 EAST 71ST STREET, SOUTH",OK,74133
Lowe's,WARREN,244,#0244*,940 NILES CORTLAND ROAD,OH,44484
Lowe's,FORSYTH,245,#0245*,990 HICKORY POINT PLAZA,IL,62535
Lowe's,NORTHGLENN,246,#0246*,261 WEST 104TH AVENUE,CO,80234
Lowe's,RICHMOND,247,#0247*,8001 BROOK ROAD,VA,23227
Lowe's,MEDFORD,248,#0248*,3601 CRATER LAKE HIGHWAY,OR,97504
Lowe's,KENNEWICK,249,#0249*,N. 1020 COLORADO STREET,WA,99336
Lowe's,TORRANCE,250,#0250*,22255 WESTERN AVENUE,CA,90501
Lowe's,SEATTLE,252,#0252*,12525 AURORA AVENUE NORTH,WA,98133
Lowe's,LIMA,255,#0255*,2411 NORTH EASTOWN ROAD,OH,45807
Lowe's,SPRINGFIELD,258,#0258*,3101 WEST WABASH,IL,62704
Lowe's,MANSFIELD,264,#0264*,940 N LEXINGTON SPRING MILL RD,OH,44906
Lowe's,COLUMBUS,265,#0265*,4141 MORSE CROSSING,OH,43219
Lowe's,OKLAHOMA CITY,268,#0268*,100 SW 74TH STREET,OK,73139
Lowe's,NEW PHILADELPHIA,269,#0269*,495 MILL ROAD,OH,44663
Lowe's,AMARILLO,270,#0270*,5000 SOUTH COULTER STREET,TX,79119
Lowe's,LUBBOCK,271,#0271*,5022 WEST LOOP 289,TX,79424
Lowe's,INDIANAPOLIS,272,#0272*,8801 EAST 25TH STREET,IN,46219
Lowe's,INDIANAPOLIS,275,#0275*,975 BEACHWAY DRIVE,IN,46224
Lowe's,JOPLIN,278,#0278*,2600 RANGE LINE ROAD,MO,64804
Lowe's,READING,279,#0279*,500 MADISON AVENUE,PA,19605
Lowe's,ENTERPRISE,281,#0281*,1301 BOLL WEEVIL CIRCLE,AL,36330
Lowe's,VICTORIA,282,#0282*,8602 NORTH NAVARRO STREET,TX,77904
Lowe's,LYNNWOOD,285,#0285*,3100 196TH S.W.,WA,98036
Lowe's,INDIANAPOLIS,288,#0288*,8002 NORTH SHADELAND AVE.,IN,46250
Lowe's,ANCHORAGE,289,#0289*,333 EAST TUDOR ROAD,AK,99503
Lowe's,WEST HAZLETON,292,#0292*,200 WEIS LANE,PA,18202
Lowe's,ALLIANCE,297,#0297*,2595 WEST STATE STREET,OH,44601
Lowe's,WILMINGTON,298,#0298*,1175 ROMBACH AVENUE,OH,45177
Lowe's,MIDDLETOWN,303,#0303*,3125 TOWNE BOULEVARD,OH,45044
Lowe's,SAINT JOSEPH,305,#0305*,3901 N. BELT HIGHWAY,MO,64506
Lowe's,GREENWOOD VILLAGE,311,#0311*,9100 EAST PEAKVIEW AVENUE,CO,80111
Lowe's,CULLMAN,313,#0313*,"1717 CHEROKEE AVENUE, SW",AL,35055
Lowe's,CHINO HILLS,316,#0316*,13251 PEYTON DRIVE,CA,91709
Lowe's,CAPE GIRARDEAU,317,#0317*,3440 LOWES DRIVE,MO,63701
Lowe's,PUEBLO,318,#0318*,1225 HIGHWAY 50 WEST,CO,81008
Lowe's,BILLINGS,319,#0319*,2717 KING AVENUE WEST,MT,59102
Lowe's,RENO,321,#0321*,5075 KIETZKE LANE,NV,89511
Lowe's,HOLLAND,330,#0330*,"12635 FELCH ST., SUITE 10",MI,49424
Lowe's,ARVADA,340,#0340*,5405 WADSWORTH BYPASS,CO,80002
Lowe's,MURRAY,342,#0342*,469 WEST 4500 SOUTH,UT,84123
Lowe's,BARTLESVILLE,351,#0351*,2205 S. E. ADAMS BLVD.,OK,74006
Lowe's,MONTOURSVILLE,356,#0356*,701 LOYALSOCK AVENUE,PA,17754
Lowe's,KOKOMO,357,#0357*,4005 SOUTH LAFOUNTAIN,IN,46902
Lowe's,SUMMERVILLE,358,#0358*,1207 NORTH MAIN STREET,SC,29483
Lowe's,CHARLOTTE,377,#0377*,10625 MCMULLEN CREEK PKWY,NC,28226
Lowe's,RICHMOND,381,#0381*,9490 WEST BROAD ST,VA,23294
Lowe's,COLUMBIA,385,#0385*,390 HARBISON BLVD,SC,29212
Lowe's,GREENSBORO,387,#0387*,3001 BATTLEGROUND AVE,NC,27408
Lowe's,FAYETTEVILLE,388,#0388*,1929 SKIBO SQUARE,NC,28314
Lowe's,HERMITAGE,390,#0390*,5025 OLD HICKORY BLVD.,TN,37076
Lowe's,MANASSAS,397,#0397*,7500 BROKEN BRANCH LANE,VA,20109
Lowe's,WALDORF,402,#0402*,2525 CRAIN HWY,MD,20601
Lowe's,SAVANNAH,403,#0403*,11114 ABERCORN STREET,GA,31419
Lowe's,GREENSBORO,404,#0404*,1703 SOUTH FORTY DRIVE,NC,27407
Lowe's,CHARLOTTE,408,#0408*,1100 CHANCELLOR PARK DR,NC,28213
Lowe's,MYRTLE BEACH,410,#0410*,1160 SEABOARD STREET,SC,29577
Lowe's,HUNTSVILLE,411,#0411*,10050 S. MEMORIAL PARKWAY,AL,35803
Lowe's,MADISON,413,#0413*,10 CAMPBELL ROAD,TN,37115
Lowe's,JONESBORO,414,#0414*,2111 FAIR PARK BLVD,AR,72401
Lowe's,YORK,415,#0415*,2449 EAST MARKET STREET,PA,17402
Lowe's,ROCK HILL,416,#0416*,1350 SPRINGDALE ROAD,SC,29730
Lowe's,TALLAHASSEE,417,#0417*,2121 N.E. CAPITOL CIRCLE,FL,32308
Lowe's,GAINESVILLE,418,#0418*,3500 SW ARCHER ROAD,FL,32608
Lowe's,ROANOKE,419,#0419*,"5040 RUTGERS STREET, N.W.",VA,24012
Lowe's,NEWPORT NEWS,420,#0420*,300 CHATHAM DRIVE,VA,23602
Lowe's,SPRINGFIELD,422,#0422*,1850 EAST PRIMROSE,MO,65804
Lowe's,TUSCALOOSA,423,#0423*,4900 OSCAR BAXTER DRIVE,AL,35405
Lowe's,SALISBURY,424,#0424*,2606 N. SALISBURY BLVD.,MD,21801
Lowe's,CHATTANOOGA,425,#0425*,2180 GUNBARREL ROAD,TN,37421
Lowe's,CARY,426,#0426*,2000 WALNUT STREET,NC,27518
Lowe's,SHREVEPORT,428,#0428*,2710 ALKAY DRIVE,LA,71118
Lowe's,FAYETTEVILLE,432,#0432*,1050 ZION ROAD,AR,72703
Lowe's,COLUMBIA,433,#0433*,7441 TWO NOTCH ROAD,SC,29223
Lowe's,GAINESVILLE,434,#0434*,1514 SKELTON ROAD,GA,30504
Lowe's,PIKEVILLE,435,#0435*,183 CASSADY BLVD.,KY,41501
Lowe's,WINSTON SALEM,436,#0436*,935 HANES MALL BLVD,NC,27103
Lowe's,LYNCHBURG,437,#0437*,8216 TIMBERLAKE ROAD,VA,24502
Lowe's,PENSACOLA,438,#0438*,1201 AIRPORT BLVD,FL,32504
Lowe's,CHESAPEAKE,439,#0439*,"1308 BATTLEFIELD BLVD, NORTH",VA,23320
Lowe's,OCALA,440,#0440*,3535 SW 36TH AVENUE,FL,34474
Lowe's,MONTGOMERY,441,#0441*,1950 EASTERN BLVD,AL,36117
Lowe's,INDIANAPOLIS,442,#0442*,8850 SOUTH MADISON AVENUE,IN,46227
Lowe's,RALEIGH,444,#0444*,4601 CAPITAL BLVD.,NC,27604
Lowe's,ALTOONA,446,#0446*,1707 MCMAHON ROAD,PA,16602
Lowe's,CHRISTIANSBURG,447,#0447*,"350 PEPPERS FERRY ROAD, NE",VA,24073
Lowe's,PANAMA CITY,448,#0448*,300 EAST 23RD STREET,FL,32405
Lowe's,ASHEBORO,449,#0449*,1120 EAST DIXIE DRIVE,NC,27203
Lowe's,MONROE,450,#0450*,4750 FRONTAGE ROAD,LA,71202
Lowe's,BOWLING GREEN,451,#0451*,150 AMERICAN LANE,KY,42104
Lowe's,BOWIE,452,#0452*,16301 HERITAGE BLVD.,MD,20716
Lowe's,SPRINGFIELD,453,#0453*,1601 NORTH BECHTLE AVENUE,OH,45504
Lowe's,BARBOURSVILLE,454,#0454*,700 MALL ROAD,WV,25504
Lowe's,SOUTH POINT,455,#0455*,"294 COUNTY ROAD, 120 SOUTH",OH,45680
Lowe's,BRISTOL,456,#0456*,13255 LEE HIGHWAY,VA,24202
Lowe's,GASTONIA,457,#0457*,3250 EAST FRANKLIN BLVD.,NC,28056
Lowe's,STATESVILLE,458,#0458*,140 N. POINTE BLVD.,NC,28625
Lowe's,HIGH POINT,459,#0459*,2600 NORTH MAIN STREET,NC,27265
Lowe's,ELIZABETHTOWN,460,#0460*,100 LOWE'S DRIVE,KY,42701
Lowe's,BATON ROUGE,461,#0461*,9460 CORTANA PLACE,LA,70815
Lowe's,FORT SMITH,462,#0462*,8001 ROGERS AVENUE,AR,72903
Lowe's,TYLER,463,#0463*,5720 SOUTH BROADWAY,TX,75703
Lowe's,WINCHESTER,464,#0464*,1221 BY-PASS ROAD,KY,40391
Lowe's,PADUCAH,465,#0465*,5176 HINKLEVILLE ROAD,KY,42001
Lowe's,GULFPORT,466,#0466*,2151 JOHN HILL BOULEVARD,MS,39501
Lowe's,ORANGE CITY,467,#0467*,901 SAXON BLVD.,FL,32763
Lowe's,LAVALE,468,#0468*,1211 NATIONAL HIGHWAY,MD,21502
Lowe's,EASLEY,469,#0469*,6068 CALHOUN MEMORIAL HWY,SC,29640
Lowe's,WAYNESVILLE,470,#0470*,100 LINER COVE ROAD,NC,28786
Lowe's,HAGERSTOWN,471,#0471*,1500 WESEL BLVD.,MD,21740
Lowe's,CHILLICOTHE,472,#0472*,867 NORTH BRIDGE STREET,OH,45601
Lowe's,VIENNA,473,#0473*,1300 GRAND CENTRAL AVENUE,WV,26105
Lowe's,LOUISVILLE,474,#0474*,501 SO. HURSTBOURNE PKWY,KY,40222
Lowe's,FREDERICKSBURG,476,#0476*,1361 CARL D. SILVER PKWY,VA,22401
Lowe's,WHEELERSBURG,477,#0477*,7915 OHIO RIVER ROAD,OH,45694
Lowe's,MOUNT AIRY,478,#0478*,"692 SOUTH ANDY GRIFFITH PARKWAY, STE. 100",NC,27030
Lowe's,FORT WALTON BEACH,479,#0479*,774 BEAL PARKWAY,FL,32547
Lowe's,WINSTON SALEM,480,#0480*,5901 UNIVERSITY PKY,NC,27105
Lowe's,FLORENCE,481,#0481*,130 COX CREEK PKWY. SOUTH,AL,35630
Lowe's,AUGUSTA,482,#0482*,224 BOBBY JONES EXP.,GA,30907
Lowe's,WARNER ROBINS,483,#0483*,2704 WATSON BLVD.,GA,31093
Lowe's,LAFAYETTE,484,#0484*,3726 AMBASSADOR CAFFERY,LA,70503
Lowe's,FT. OGLETHORPE,485,#0485*,2215 BATTLEFIELD PARKWAY,GA,30742
Lowe's,KNOXVILLE,486,#0486*,210 N. PETERS ROAD,TN,37923
Lowe's,CHAPEL HILL,487,#0487*,1801 FORDHAM BOULEVARD,NC,27514
Lowe's,GARNER,488,#0488*,1575 U S HIGHWAY 70 WEST,NC,27529
Lowe's,HUNTERSVILLE,489,#0489*,16830 STATESVILLE ROAD,NC,28078
Lowe's,LEXINGTON,490,#0490*,130 LOWE'S BLVD.,NC,27292
Lowe's,ALBANY,491,#0491*,1200 NORTH WESTOVER BLVD.,GA,31707
Lowe's,FRANKFORT,492,#0492*,350 LEONARDWOOD DRIVE,KY,40601
Lowe's,CARBONDALE,493,#0493*,1170 EAST RENDLEMAN ROAD,IL,62901
Lowe's,CORBIN,494,#0494*,777 WEST CUMBERLAND GAP PKY.,KY,40701
Lowe's,SALISBURY,495,#0495*,207 FAITH ROAD,NC,28146
Lowe's,JACKSON,496,#0496*,671 VANN DRIVE,TN,38305
Lowe's,NORTH CHARLESTON,497,#0497*,7555 NORTHWOOD BLVD.,SC,29406
Lowe's,CLARKSVILLE,498,#0498*,2150 LOWE'S DRIVE,TN,37040
Lowe's,WEST COLUMBIA,499,#0499*,2829 AUGUSTA ROAD,SC,29170
Lowe's,MONACA,500,#0500*,115 WAGNER ROAD,PA,15061
Lowe's,HOUSTON,501,#0501*,"19580 TOMBALL PKWY, STATE HWY 249",TX,77070
Lowe's,JACKSONVILLE,502,#0502*,4040 OLDFIELD CROSSING DRIVE,FL,32223
Lowe's,JACKSONVILLE,503,#0503*,"9525 REGENCY SQUARE BLVD, NO.",FL,32225
Lowe's,TITUSVILLE,504,#0504*,4660 SOUTH STREET,FL,32780
Lowe's,PLANO,505,#0505*,5001 CENTRAL EXPRESSWAY,TX,75023
Lowe's,ATHENS,506,#0506*,1851 EPPS BRIDGE ROAD,GA,30606
Lowe's,LEXINGTON,507,#0507*,200 OLD TODDS ROAD,KY,40509
Lowe's,BURLINGTON,508,#0508*,125 HUFFMAN MILL ROAD,NC,27215
Lowe's,HARRISONBURG,509,#0509*,201 LINDA LANE,VA,22802
Lowe's,MESQUITE,510,#0510*,4444 N. GALLOWAY AVENUE,TX,75150
Lowe's,SUGAR LAND,511,#0511*,16510 S. W. FREEWAY,TX,77479
Lowe's,STOCKBRIDGE,512,#0512*,3505 MT. ZION ROAD,GA,30281
Lowe's,DALLAS,513,#0513*,8520 S. HAMPTON ROAD,TX,75232
Lowe's,BURLESON,514,#0514*,920 N. BURLESON BLVD.,TX,76028
Lowe's,DALLAS,515,#0515*,11920 INWOOD ROAD,TX,75244
Lowe's,FREDERICK,516,#0516*,5611 BUCKEYSTOWN PIKE,MD,21704
Lowe's,CHARLOTTESVILLE,517,#0517*,400 WOODBROOK DRIVE,VA,22901
Lowe's,GREENWOOD,518,#0518*,513 BYPASS 72 NW,SC,29649
Lowe's,LONGVIEW,519,#0519*,3313 NORTH FOURTH STREET,TX,75605
Lowe's,ARLINGTON,520,#0520*,1000 WEST ARBROOK,TX,76015
Lowe's,TOPEKA,521,#0521*,1621 SOUTHWEST ARVONIA PLACE,KS,66615
Lowe's,HARRISBURG,522,#0522*,4000 UNION DEPOSIT ROAD,PA,17109
Lowe's,UTICA,523,#0523*,710 HORATIO STREET,NY,13502
Lowe's,KINGSTON,524,#0524*,901 FRANK SOTTILE BLVD.,NY,12401
Lowe's,FORT WORTH,525,#0525*,4305 BRYANT IRVIN ROAD,TX,76132
Lowe's,ASHEVILLE,526,#0526*,95 SMOKEY PARK HIGHWAY,NC,28806
Lowe's,LANCASTER,527,#0527*,2240 LOWES DRIVE,OH,43130
Lowe's,SIMPSONVILLE,528,#0528*,3958 GRANDVIEW DRIVE,SC,29680
Lowe's,TUPELO,529,#0529*,3354 NORTH GLOSTER STREET,MS,38804
Lowe's,ELMIRA,530,#0530*,"913 COUNTY RD., ROUTE 64",NY,14903
Lowe's,AUSTELL,531,#0531*,1717 EAST WEST CONNECTOR,GA,30106
Lowe's,FRANKLIN,532,#0532*,3060 MALLORY LANE,TN,37067
Lowe's,HURST,533,#0533*,770 GRAPEVINE HWY.,TX,76054
Lowe's,CINCINNATI,534,#0534*,10235 COLERAIN AVENUE,OH,45251
Lowe's,OKLAHOMA CITY,535,#0535*,2400 W. MEMORIAL ROAD,OK,73134
Lowe's,HATTIESBURG,537,#0537*,6004 US HWY. 98,MS,39402
Lowe's,SOUTHERN PINES,538,#0538*,10845 US 15-501 HWY.,NC,28387
Lowe's,MOUNT PLEASANT,539,#0539*,1104 MARKET CENTER BLVD.,SC,29464
Lowe's,MIDDLETOWN,540,#0540*,700 NORTH GALLERIA DRIVE,NY,10941
Lowe's,POUGHKEEPSIE,541,#0541*,1941 SOUTH ROAD,NY,12601
Lowe's,MASON,542,#0542*,9380 MASON-MONTGOMERY RD.,OH,45040
Lowe's,WOODSTOCK,543,#0543*,575 MOLLY LANE,GA,30189
Lowe's,MARIETTA,545,#0545*,2650 DALLAS HWY. S.W.,GA,30064
Lowe's,MACON,546,#0546*,3190 MACON TECH DRIVE,GA,31206
Lowe's,ROCKY MOUNT,547,#0547*,700 N. WESLEYAN BLVD.,NC,27804
Lowe's,CROSSVILLE,548,#0548*,2431 N. MAIN,TN,38555
Lowe's,MOBILE,549,#0549*,7760 AIRPORT BLVD.,AL,36608
Lowe's,CARROLLTON,550,#0550*,1253 EAST TRINITY MILLS RD.,TX,75006
Lowe's,LEWISVILLE,551,#0551*,1051 STEMMONS FREEWAY,TX,75067
Lowe's,WEST DES MOINES,552,#0552*,1700 50TH STREET,IA,50266
Lowe's,POTTSVILLE,553,#0553*,PA ROUTE 61 & ANN STREET,PA,17901
Lowe's,FLORENCE,554,#0554*,4800 HOUSTON ROAD,KY,41042
Lowe's,HOUSTON,555,#0555*,15555 FM529,TX,77095
Lowe's,JACKSONVILLE,556,#0556*,1255 WESTERN BLVD.,NC,28546
Lowe's,GOLDSBORO,557,#0557*,1202 BERKELEY BLVD.,NC,27534
Lowe's,SOMERSET,558,#0558*,2001 SOUTH HWY. 27,KY,42501
Lowe's,ORANGEBURG,559,#0559*,2896 NORTH ROAD HWY 178,SC,29118
Lowe's,SARATOGA SPRINGS,560,#0560*,10 LOWE'S DRIVE,NY,12866
Lowe's,AUBURN,561,#0561*,299 GRANT AVENUE,NY,13021
Lowe's,SAGINAW,562,#0562*,2258 TITTABAWASEE RD.,MI,48604
Lowe's,SPRING,563,#0563*,20201 N. IH 45,TX,77388
Lowe's,TAMPA,564,#0564*,6275 W. WATERS AVENUE,FL,33634
Lowe's,NEW BERN,566,#0566*,1400 LOWE'S BLVD,NC,28562
Lowe's,MORGANTOWN,567,#0567*,901 VENTURE DRIVE,WV,26508
Lowe's,WESTMINSTER,568,#0568*,777 MARKET STREET,MD,21157
Lowe's,LEESBURG,569,#0569*,9540 US HWY 441,FL,34788
Lowe's,BRANDON,573,#0573*,11375 CAUSEWAY BLVD.,FL,33511
Lowe's,MIDLAND,575,#0575*,1918 AIRPORT RD.,MI,48642
Lowe's,DURHAM,576,#0576*,117 WILLIAM PENN PLAZA,NC,27704
Lowe's,FOLEY,577,#0577*,3101 SOUTH MCKENZIE HWY. 59,AL,36535
Lowe's,COOKEVILLE,578,#0578*,510 NEAL STREET,TN,38501
Lowe's,MORRISTOWN,579,#0579*,2744 WEST ANDREW JOHNSON HIGHWAY,TN,37814
Lowe's,HOMEWOOD,580,#0580*,375 STATE FARM PKWY. W.,AL,35209
Lowe's,AMES,581,#0581*,120 AIRPORT RD.,IA,50010
Lowe's,FORT MYERS,582,#0582*,14960 S. TAMIAMI TRAIL,FL,33912
Lowe's,ALEXANDRIA,586,#0586*,3201 INDUSTRIAL STREET,LA,71301
Lowe's,DOVER,587,#0587*,1450 N. DUPONT HIGHWAY,DE,19901
Lowe's,LOGAN,588,#0588*,119 NORMAN MORGAN BLVD,WV,25601
Lowe's,LAKE CHARLES,589,#0589*,2800 DEREK DRIVE,LA,70607
Lowe's,AUSTIN,590,#0590*,"13201 N. RANCH RD. 620, BLDG. G.",TX,78717
Lowe's,ALTON,591,#0591*,1619 HOMER ADAMS PKWY.,IL,62002
Lowe's,CAPE CORAL,592,#0592*,1651 N. E. PINE ISLAND RD.,FL,33909
Lowe's,NEW HAVEN,593,#0593*,115 FOXON BLVD.,CT,6513
Lowe's,BIRMINGHAM,594,#0594*,1885 EDWARDS LAKE RD.,AL,35235
Lowe's,HOUMA,596,#0596*,1592 MARTIN LUTHER KING BLV.,LA,70360
Lowe's,HOT SPRINGS,597,#0597*,300 CORNER STONE BLVD.,AR,71913
Lowe's,WINTERVILLE,598,#0598*,800 THOMAS LANGSTON ROAD,NC,28590
Lowe's,CHESTER,599,#0599*,2601 WEIR PLACE,VA,23831
Lowe's,NORTH MYRTLE BEACH,603,#0603*,214 U.S. HWY. #17 NORTH,SC,29582
Lowe's,ALTAMONTE SPRINGS,604,#0604*,110 N. STATE ROAD 434,FL,32714
Lowe's,STOW,605,#0605*,3570 HUDSON DRIVE,OH,44224
Lowe's,DOTHAN,606,#0606*,2671 ROSS CLARK CIRCLE,AL,36301
Lowe's,LEXINGTON,607,#0607*,4055 NICHOLS PARK DRIVE,KY,40503
Lowe's,CHESTERFIELD,609,#0609*,7001 WINTERPOCK ROAD,VA,23832
Lowe's,ROCKWALL,610,#0610*,851 N. STEGER TOWN DRIVE,TX,75032
Lowe's,GARLAND,611,#0611*,2949 N. GEORGE BUSH FREEWAY,TX,75040
Lowe's,SHELBY,612,#0612*,425 EARL ROAD,NC,28150
Lowe's,NAPLES,613,#0613*,6415 NAPLES BLVD.,FL,34109
Lowe's,WICHITA,614,#0614*,333 SOUTH RIDGE ROAD,KS,67209
Lowe's,ALPHARETTA,615,#0615*,10580 DUKE DRIVE,GA,30004
Lowe's,CROSS LANES,616,#0616*,1000 NITRO MARKETPLACE,WV,25313
Lowe's,ASHEVILLE,617,#0617*,89 SOUTH TUNNEL ROAD,NC,28805
Lowe's,LAFAYETTE,618,#0618*,120 EAST GLORIA SWITCH ROAD,LA,70507
Lowe's,MOREHEAD CITY,619,#0619*,5219 HWY 70,NC,28557
Lowe's,HOOVER,620,#0620*,2100 VALLEYDALE ROAD,AL,35244
Lowe's,ORANGE,621,#0621*,50 BOSTON POST ROAD,CT,6477
Lowe's,WILMINGTON,622,#0622*,"3100 BRANDYWINE PKWY, 1ST FLOOR",DE,19803
Lowe's,NEWINGTON,623,#0623*,3270 BERLIN TURNPIKE,CT,6111
Lowe's,BALTIMORE,624,#0624*,5900 BALTIMORE NATIONAL PIKE,MD,21228
Lowe's,RALEIGH,625,#0625*,4831 GROVE BARTON RD,NC,27613
Lowe's,SUMTER,626,#0626*,1251 BROAD STREET,SC,29150
Lowe's,MARTINSBURG,627,#0627*,14725 APPLE HARVEST DRIVE,WV,25401
Lowe's,HANOVER,628,#0628*,310 EISENHOWER DRIVE,PA,17331
Lowe's,NASHVILLE,629,#0629*,7034 CHARLOTTE PIKE,TN,37209
Lowe's,EVANSVILLE,630,#0630*,6716 OAK GROVE ROAD,IN,47715
Lowe's,GLEN BURNIE,631,#0631*,6650 RITCHIE HWY ROUTE 2,MD,21061
Lowe's,WILLIAMSBURG,632,#0632*,801 EAST ROCHAMBEAU DRIVE,VA,23188
Lowe's,AKRON,633,#0633*,186 N. CLEVELAND MASSILLON ROAD,OH,44333
Lowe's,BLOOMINGTON,634,#0634*,350 NORTH GATES DRIVE,IN,47404
Lowe's,INDIANAPOLIS,635,#0635*,6002 NORTH RURAL STREET,IN,46220
Lowe's,COLUMBUS,636,#0636*,6750 VETERANS PARKWAY,GA,31909
Lowe's,KNOXVILLE,637,#0637*,6600 CLINTON HWY,TN,37912
Lowe's,ALCOA,638,#0638*,1098 HUNTERS CROSSING DRIVE,TN,37701
Lowe's,AIKEN,639,#0639*,2470 WHISKEY ROAD,SC,29803
Lowe's,LILBURN,640,#0640*,4855 STONE MOUNTAIN HIGHWAY,GA,30047
Lowe's,QUEENSBURY,641,#0641*,251 QUAKER ROAD,NY,12804
Lowe's,ORLANDO,642,#0642*,8700 W. COLONIAL DRIVE,FL,32818
Lowe's,FAIRVIEW HEIGHTS,643,#0643*,6211 N. ILLINOIS,IL,62208
Lowe's,SELINSGROVE,644,#0644*,1389 NORTH SUSQUEHANNA TRAIL,PA,17870
Lowe's,ROCHESTER,645,#0645*,2350 MARKETPLACE DRIVE,NY,14623
Lowe's,STAUNTON,646,#0646*,1028D RICHMOND ROAD,VA,24401
Lowe's,SMITHFIELD,647,#0647*,1230 N. BRIGHTLEAF BLVD,NC,27577
Lowe's,CLEVELAND,649,#0649*,229 PAUL HUFF PARKWAY NW,TN,37312
Lowe's,PLAINVILLE,650,#0650*,246 NEW BRITAIN AVENUE,CT,6062
Lowe's,WEBSTER,651,#0651*,19225 GULF FREEWAY,TX,77598
Lowe's,WILKES BARRE,652,#0652*,501 ARENA HUB PLAZA,PA,18702
Lowe's,CRANBERRY TOWNSHIP,653,#0653*,1717 ROUTE 228,PA,16066
Lowe's,ROYAL PALM BEACH,654,#0654*,103 SOUTH STATE ROAD 7,FL,33411
Lowe's,CHARLESTON,655,#0655*,3125 GLENN MCCONNELL PARKWAY,SC,29414
Lowe's,WINCHESTER,656,#0656*,2200 S. PLEASANT VALLEY ROAD,VA,22601
Lowe's,OWENSBORO,657,#0657*,415 FULTON DRIVE,KY,42303
Lowe's,LEWES,658,#0658*,20364 PLANTATIONS ROAD,DE,19958
Lowe's,MURFREESBORO,659,#0659*,1825 OLD FORT PARKWAY,TN,37129
Lowe's,SPRINGFIELD,660,#0660*,1600 BOSTON ROAD,MA,1129
Lowe's,CHARLESTON,661,#0661*,770 DANIEL ELLIS DRIVE,SC,29412
Lowe's,BUFORD,662,#0662*,1955 BUFORD MILL DRIVE,GA,30519
Lowe's,MADISON,663,#0663*,7920 HIGHWAY 72 WEST,AL,35758
Lowe's,ROANOKE,664,#0664*,4224 VALLEY AVENUE,VA,24018
Lowe's,DALLAS,665,#0665*,19210 PRESTON ROAD,TX,75252
Lowe's,GREER,667,#0667*,1370 WADE HAMPTON BLVD. WEST,SC,29650
Lowe's,HENDERSONVILLE,668,#0668*,360 EAST MAIN STREET,TN,37075
Lowe's,FLINT,669,#0669*,2100 T.A. MANSOUR BLVD.,MI,48532
Lowe's,ORLANDO,670,#0670*,2800 WEST SANDLAKE ROAD,FL,32819
Lowe's,WASHINGTON,671,#0671*,STRABANE SQUARE 355 WASHINGTON ROAD,PA,15301
Lowe's,CHANDLER,674,#0674*,7100 WEST RAY ROAD,AZ,85226
Lowe's,CHARLESTON,675,#0675*,5750 MACCORKLE AVE. S.E.,WV,25304
Lowe's,RICHMOND,676,#0676*,2501 SHEILA LANE,VA,23225
Lowe's,GARNER,677,#0677*,101 CLEVELAND CROSSING DRIVE,NC,27529
Lowe's,CUMMING,678,#0678*,935 MARKETPLACE BLVD.,GA,30041
Lowe's,EVANSVILLE,679,#0679*,103 SOUTH RED BANK ROAD,IN,47712
Lowe's,MONROE,680,#0680*,2350 WEST ROOSEVELT BLVD,NC,28110
Lowe's,HOUSTON,681,#0681*,1521 NORTH LOOP WEST,TX,77008
Lowe's,SOUTHPORT,682,#0682*,5084 SOUTHPORT - SUPPLY ROAD SOUTHEAST,NC,28461
Lowe's,WARREN,684,#0684*,31140 VAN DYKE AVENUE,MI,48093
Lowe's,PEARLAND,685,#0685*,2741 BROADWAY STREET,TX,77581
Lowe's,FAYETTEVILLE,686,#0686*,1030 GLYNN STREET NORTH,GA,30214
Lowe's,GLEN ALLEN,687,#0687*,4401 POUNCEY TRACT ROAD,VA,23060
Lowe's,BOISE,688,#0688*,7990 WEST OVERLAND ROAD,ID,83709
Lowe's,AUSTIN,689,#0689*,5510 SOUTH IH35,TX,78745
Lowe's,D'IBERVILLE,690,#0690*,3700 SANGANI BLVD.,MS,39540
Lowe's,BALTIMORE,691,#0691*,5300 CAMPBELL BLVD.,MD,21236
Lowe's,PISCATAWAY,692,#0692*,1345 CENTENNIAL AVENUE,NJ,8854
Lowe's,SEVIERVILLE,693,#0693*,610 WINFIELD DUNN PARKWAY,TN,37876
Lowe's,ROGERS,694,#0694*,300 NORTH 46TH STREET,AR,72756
Lowe's,FORT GRATIOT,695,#0695*,4200 24TH AVE,MI,48059
Lowe's,MELBOURNE,696,#0696*,2150 MINTON ROAD,FL,32904
Lowe's,CONCORD,697,#0697*,940 CONCORD PARKWAY NORTH,NC,28027
Lowe's,OXFORD,698,#0698*,1836 US HIGHWAY 78 EAST,AL,36203
Lowe's,LINCOLNTON,700,#0700*,1603 EAST MAIN STREET,NC,28092
Lowe's,WILKESBORO,701,#0701*,2003 US HIGHWAY 421,NC,28697
Lowe's,UPPER MARLBORO,702,#0702*,10440 CAMPUS WAY SOUTH,MD,20774
Lowe's,JENSEN BEACH,703,#0703*,4100 NORTHWEST FEDERAL HIGHWAY,FL,34957
Lowe's,CORAL SPRINGS,704,#0704*,3651 TURTLE CREEK DRIVE,FL,33067
Lowe's,LOUISVILLE,705,#0705*,6651 DIXIE HIGHWAY,KY,40258
Lowe's,CHAMBERSBURG,706,#0706*,1600 LINCOLN WAY EAST,PA,17201
Lowe's,MARTINSVILLE,707,#0707*,1059 COMMONWEALTH BLVD.,VA,24112
Lowe's,HEATH,708,#0708*,888 HEBRON ROAD,OH,43056
Lowe's,CHESAPEAKE,709,#0709*,4708 PORTSMOUTH BLVD.,VA,23321
Lowe's,SUWANEE,710,#0710*,3580 PEACHTREE PARKWAY,GA,30024
Lowe's,COLUMBUS,711,#0711*,1465 POLARIS PARKWAY,OH,43240
Lowe's,PASCAGOULA,712,#0712*,3301 DENNY AVENUE,MS,39581
Lowe's,BLOOMFIELD HILLS,713,#0713*,1801 TELEGRAPH ROAD,MI,48302
Lowe's,MESA,714,#0714*,1440 SOUTH HIGLEY ROAD,AZ,85206
Lowe's,ALEXANDRIA,715,#0715*,6750 RICHMOND HIGHWAY,VA,22306
Lowe's,TALLAHASSEE,716,#0716*,5500 COMMONWEALTH BLVD.,FL,32303
Lowe's,FRANKLIN,717,#0717*,161 FRANKLIN PLAZA,NC,28734
Lowe's,KINGSPORT,718,#0718*,2526 EAST STONE DRIVE,TN,37660
Lowe's,CALIFORNIA,719,#0719*,45075 WORTH AVENUE,MD,20619
Lowe's,TIMONIUM,720,#0720*,19 TEXAS STATION COURT,MD,21093
Lowe's,OLATHE,721,#0721*,13750 SOUTH BLACKBOB ROAD,KS,66062
Lowe's,MURRAY,722,#0722*,1400 LOWE'S DRIVE,KY,42071
Lowe's,NEW PORT RICHEY,724,#0724*,8312 LITTLE ROAD,FL,34654
Lowe's,SOUTHWEST RANCHES,725,#0725*,6600 DYKES ROAD,FL,33331
Lowe's,WILSON,726,#0726*,2501 FOREST HILLS ROAD WEST,NC,27893
Lowe's,TULLAHOMA,727,#0727*,2211 NORTH JACKSON STREET,TN,37388
Lowe's,ANDERSON,728,#0728*,3515 CLEMSON BLVD.,SC,29621
Lowe's,COLUMBIA,729,#0729*,2000 HILLARY DRIVE,TN,38401
Lowe's,DOUGLASVILLE,730,#0730*,7001 DOUGLAS BLVD.,GA,30135
Lowe's,CHESTERFIELD,731,#0731*,290 T.H.F. BLVD,MO,63005
Lowe's,SOUTHLAKE,732,#0732*,201 NORTH KIMBALL AVENUE,TX,76092
Lowe's,SPRINGFIELD,733,#0733*,1707 WEST NORTON ROAD,MO,65803
Lowe's,YPSILANTI,734,#0734*,3900 CARPENTER ROAD,MI,48197
Lowe's,WARRINGTON,735,#0735*,425 EASTON ROAD,PA,18976
Lowe's,OPELIKA,736,#0736*,1701 FREDERICK ROAD,AL,36801
Lowe's,JOHNSON CITY,737,#0737*,180 MARKET PLACE BLVD.,TN,37604
Lowe's,HENDERSON,738,#0738*,166 DABNEY ROAD,NC,27537
Lowe's,LUMBERTON,739,#0739*,5060 FAYETTEVILLE ROAD,NC,28358
Lowe's,SAINT PETERSBURG,740,#0740*,2365 25TH STREET NORTH,FL,33713
Lowe's,PORT ORANGE,741,#0741*,1751 DUNLAWTON AVENUE,FL,32127
Lowe's,ORMOND BEACH,742,#0742*,1340 WEST GRANADA BLVD.,FL,32174
Lowe's,SOUTH CHARLESTON,746,#0746*,#50 RHL BLVD.,WV,25309
Lowe's,FLORISSANT,748,#0748*,3180 NORTH HIGHWAY 67,MO,63033
Lowe's,HIXSON,749,#0749*,5428 HIGHWAY 153,TN,37343
Lowe's,KINGWOOD,750,#0750*,22600 EASTEX FREEWAY/HIGHWAY 59 NORTH,TX,77339
Lowe's,TURNERSVILLE,751,#0751*,100 WATSON DRIVE,NJ,8012
Lowe's,SAINT PETERS,753,#0753*,8501 MEXICO ROAD,MO,63376
Lowe's,OAKLAND PARK,754,#0754*,1001 WEST OAKLAND PARK BLVD.,FL,33311
Lowe's,DUBLIN,755,#0755*,6555 DUBLIN CENTER DRIVE,OH,43017
Lowe's,ALBUQUERQUE,756,#0756*,6200 PASEO DEL-NORTE,NM,87113
Lowe's,PLYMOUTH MEETING,757,#0757*,2002 CHEMICAL ROAD,PA,19462
Lowe's,RANCHO SANTA MARGARITA,758,#0758*,30481 AVENIDA DE LAS FLORES,CA,92688
Lowe's,REDLANDS,759,#0759*,1725 WEST REDLANDS BLVD.,CA,92373
Lowe's,CINCINNATI,760,#0760*,505 EAST KEMPER ROAD,OH,45246
Lowe's,BURTON,761,#0761*,4274 EAST COURT STREET,MI,48509
Lowe's,MANCHESTER,763,#0763*,31 BUCKLAND HILLS DRIVE,CT,6042
Lowe's,KIRKWOOD,764,#0764*,1212 SOUTH KIRKWOOD ROAD,MO,63122
Lowe's,KALAMAZOO,765,#0765*,5125 WEST MAIN STREET,MI,49009
Lowe's,MASSILLON,766,#0766*,101 MASSILLON MARKETPLACE DRIVE S.W.,OH,44646
Lowe's,FAYETTEVILLE,767,#0767*,3909 RAMSEY STREET,NC,28311
Lowe's,WESTLAND,768,#0768*,6555 NEWBURGH ROAD,MI,48185
Lowe's,IRVINE,769,#0769*,13300 JAMBOREE ROAD,CA,92602
Lowe's,BROOKLYN,770,#0770*,7327 NORTH CLIFF AVENUE,OH,44144
Lowe's,CLEARWATER,771,#0771*,26990 NORTH HWY 19,FL,33761
Lowe's,BRADENTON,772,#0772*,7395 52ND PLACE EAST,FL,34203
Lowe's,LONG BEACH,773,#0773*,7300 EAST CARSON STREET,CA,90808
Lowe's,RANCHO CUCAMONGA,774,#0774*,11399 FOOTHILL BLVD.,CA,91730
Lowe's,TEMECULA,775,#0775*,40390 WINCHESTER ROAD,CA,92591
Lowe's,LANSING,777,#0777*,320 MARKETPLACE BLVD.,MI,48917
Lowe's,ROUND ROCK,778,#0778*,120 SUNDANCE PARKWAY,TX,78681
Lowe's,HOWELL,779,#0779*,1100 SOUTH LATSON ROAD,MI,48843
Lowe's,MUNHALL,780,#0780*,690 WATERFRONT DRIVE EAST,PA,15120
Lowe's,HUBER HEIGHTS,781,#0781*,8421 OLD TROY PIKE,OH,45424
Lowe's,LAKELAND,783,#0783*,3525 LAKELAND HIGHLANDS ROAD,FL,33803
Lowe's,LAS VEGAS,784,#0784*,7550 WEST WASHINGTON,NV,89128
Lowe's,LONG BEACH,785,#0785*,2840 BELLFLOWER BLVD.,CA,90815
Lowe's,WASHINGTON,786,#0786*,1701 CAROLINA AVENUE,NC,27889
Lowe's,DANVILLE,787,#0787*,280 LOWE'S DRIVE,VA,24540
Lowe's,BAKERSFIELD,790,#0790*,7825 ROSEDALE HIGHWAY,CA,93308
Lowe's,PALMDALE,791,#0791*,39500 LOWES DRIVE,CA,93551
Lowe's,SCOTTSDALE,792,#0792*,16285 NORTH SCOTTSDALE ROAD,AZ,85254
Lowe's,FRESNO,795,#0795*,7651 NORTH BLACKSTONE AVENUE,CA,93720
Lowe's,VICTORVILLE,1001,#01001*,14333 BEAR VALLEY ROAD,CA,92392
Lowe's,TAMPA,1003,#01003*,6201 COMMERCE PALMS DRIVE,FL,33647
Lowe's,MYRTLE BEACH,1004,#01004*,8672 HIGHWAY 17 BYPASS,SC,29588
Lowe's,RICHMOND,1006,#01006*,814 EASTERN BYPASS,KY,40475
Lowe's,CLINTON TOWNSHIP,1008,#01008*,15350 HALL ROAD,MI,48038
Lowe's,DU BOIS,1010,#01010*,100 COMMONS DRIVE,PA,15801
Lowe's,SAN DIEGO,1013,#01013*,2318 NORTHSIDE DRIVE,CA,92108
Lowe's,NORTH ATTLEBORO,1014,#01014*,1360 S. WASHINGTON STREET,MA,2760
Lowe's,MACON,1016,#01016*,"6011 ZEBULON ROAD, PO BOX 26460",GA,31210
Lowe's,SAN BRUNO,1019,#01019*,1340 EL CAMINO REAL,CA,94066
Lowe's,WATERTOWN,1022,#01022*,"20828 NEW YORK STATE, ROUTE 3 (ARSENAL STREET)",NY,13601
Lowe's,BEDFORD HEIGHTS,1023,#01023*,24500 MILES ROAD,OH,44146
Lowe's,CARSON CITY,1024,#01024*,430 FAIRVIEW DRIVE,NV,89701
Lowe's,PALM SPRINGS,1026,#01026*,5201 EAST RAMON ROAD,CA,92264
Lowe's,ANAHEIM,1030,#01030*,1500 N. LEMON STREET,CA,92801
Lowe's,ANDERSON,1031,#01031*,3335 SOUTH SCATTERFIELD ROAD,IN,46013
Lowe's,CHANDLER,1032,#01032*,2900 WEST CHANDLER BLVD.,AZ,85224
Lowe's,HENDERSON,1033,#01033*,440 MARKS STREET,NV,89014
Lowe's,EGG HARBOR TOWNSHIP,1034,#01034*,6048 BLACK HORSE PIKE,NJ,8234
Lowe's,HOLMDEL,1035,#01035*,2194 STATE ROUTE 35,NJ,7733
Lowe's,RICHMOND,1037,#01037*,1640 WEST BROAD STREET,VA,23220
Lowe's,ROCKINGHAM,1038,#01038*,1300-A EAST BROAD AVENUE,NC,28379
Lowe's,SUMMERSVILLE,1040,#01040*,5200 WEBSTER ROAD,WV,26651
Lowe's,UPLAND,1041,#01041*,1659 W. FOOTHILL BLVD,CA,91786
Lowe's,PHOENIX,1042,#01042*,1620 NORTH 75TH AVENUE,AZ,85035
Lowe's,ANTIOCH,1043,#01043*,1951 AUTO CENTER DRIVE,CA,94509
Lowe's,FINDLAY,1045,#01045*,1077 BRIGHT ROAD,OH,45840
Lowe's,HAMILTON,1046,#01046*,1000 MARKETPLACE BOULEVARD,NJ,8691
Lowe's,OAKS,1047,#01047*,"200-B MILL ROAD, PO BOX 1028",PA,19456
Lowe's,RIVERSIDE,1048,#01048*,9851 MAGNOLIA AVENUE,CA,92503
Lowe's,SAN CLEMENTE,1050,#01050*,907 AVENIDA PICO,CA,92673
Lowe's,TOMBALL,1052,#01052*,14236 FM 2920,TX,77377
Lowe's,PASADENA,1053,#01053*,5400 FAIRMONT PARKWAY,TX,77505
Lowe's,METAIRIE,1054,#01054*,3640 VETERANS MEMORIAL BLVD.,LA,70002
Lowe's,FENTON,1055,#01055*,1 GRAVOIS BLUFFS PLAZA DRIVE,MO,63026
Lowe's,SAINT CHARLES,1057,#01057*,2900 WEST CLAY STREET,MO,63301
Lowe's,HOUSTON,1058,#01058*,9640 OLD KATY ROAD,TX,77055
Lowe's,FRISCO,1059,#01059*,3360 PRESTON ROAD,TX,75034
Lowe's,CHARLOTTE,1060,#01060*,8192 SOUTH TRYON STREET,NC,28273
Lowe's,COLUMBIA,1064,#01064*,7420 GARNERS FERRY ROAD,SC,29209
Lowe's,NORFOLK,1065,#01065*,1081 NORTH MILITARY HIGHWAY,VA,23502
Lowe's,LEXINGTON,1066,#01066*,5412 SUNSET BLVD.,SC,29072
Lowe's,SEDALIA,1067,#01067*,3811 WEST BROADWAY,MO,65301
Lowe's,SHALLOTTE,1068,#01068*,351 WHITEVILLE ROAD,NC,28470
Lowe's,BOCA RATON,1069,#01069*,21870 STATE ROAD 7,FL,33428
Lowe's,HAMMOND,1070,#01070*,3007 HIGHWAY 190 WEST,LA,70401
Lowe's,HIGHLAND HEIGHTS,1071,#01071*,2369 ALEXANDRIA PIKE,KY,41076
Lowe's,GALAX,1072,#01072*,8417 CARROLLTON/PIKE ROAD,VA,24333
Lowe's,GULF BREEZE,1073,#01073*,1421 TIGER PARK LANE,FL,32563
Lowe's,MONROE,1074,#01074*,2191 NORTH TELEGRAPH ROAD,MI,48162
Lowe's,FLORENCE,1075,#01075*,1701 FREEDOM BLVD.,SC,29505
Lowe's,CONYERS,1076,#01076*,1901 GEORGIA HIGHWAY 138 S.E.,GA,30013
Lowe's,JEFFERSON CITY,1077,#01077*,3441 MISSOURI BLVD.,MO,65109
Lowe's,KANSAS CITY,1078,#01078*,8601 N. BOARDWALK AVENUE,MO,64154
Lowe's,WINTER HAVEN,1079,#01079*,700 3RD STREET S.W. / 490 CITI CENTRE,FL,33880
Lowe's,RIVERDALE,1080,#01080*,4155 SOUTH RIVERDALE ROAD,UT,84405
Lowe's,LAKEWOOD,1081,#01081*,5115 100TH STREET SW LAKE,WA,98499
Lowe's,YUMA,1082,#01082*,115 WEST 32ND STREET,AZ,85364
Lowe's,ROLLA,1083,#01083*,2300 NORTH BISHOP AVENUE,MO,65401
Lowe's,SHAWNEE,1084,#01084*,16300 WEST 65TH STREET,KS,66217
Lowe's,HARVEY,1085,#01085*,1351 MANHATTAN BLVD.,LA,70058
Lowe's,MODESTO,1086,#01086*,3801 PELANDALE AVENUE,CA,95356
Lowe's,FOLSOM,1087,#01087*,800 EAST BIDWELL STREET,CA,95630
Lowe's,SAN ANTONIO,1088,#01088*,11333 BANDERA ROAD,TX,78250
Lowe's,AUBURN,1089,#01089*,1232 A STREET NORTHEAST,WA,98002
Lowe's,GILBERT,1090,#01090*,734 SOUTH GILBERT ROAD,AZ,85296
Lowe's,MARION,1091,#01091*,1840 MARION MT. GILEAD ROAD,OH,43302
Lowe's,RICHMOND,1092,#01092*,510 WEST EATON PIKE,IN,47374
Lowe's,MUSCLE SHOALS,1093,#01093*,3415 WOODWARD AVENUE,AL,35661
Lowe's,DANVERS,1094,#01094*,153 ANDOVER STREET,MA,1923
Lowe's,KNIGHTDALE,1095,#01095*,7316 KNIGHTDALE BOULEVARD,NC,27545
Lowe's,HOLLISTER,1096,#01096*,165 MALL ROAD,MO,65672
Lowe's,MORGANTON,1097,#01097*,1224 BURKEMONT AVENUE,NC,28655
Lowe's,INDEPENDENCE,1098,#01098*,19000 EAST VALLEY VIEW PARKWAY,MO,64055
Lowe's,COLORADO SPRINGS,1099,#01099*,2945 NEW CENTER POINT,CO,80922
Lowe's,FORT WAYNE,1105,#01105*,6931 NORTH LIMA ROAD,IN,46818
Lowe's,NORTH BERGEN,1106,#01106*,7801 TONNELLE AVENUE,NJ,7047
Lowe's,NEW IBERIA,1107,#01107*,2816 HIGHWAY 14,LA,70560
Lowe's,TIGARD,1108,#01108*,12615 S. W. 72ND AVENUE,OR,97223
Lowe's,STUART,1109,#01109*,3620 SOUTHEAST FEDERAL HIGHWAY,FL,34997
Lowe's,PORTAGE,1110,#01110*,5108 SOUTH WESTNEDGE AVENUE,MI,49002
Lowe's,BOYNTON BEACH,1111,#01111*,1500 CORPORATE DRIVE,FL,33426
Lowe's,CHARLOTTE,1112,#01112*,5310 BALLANTYNE COMMONS PARKWAY,NC,28277
Lowe's,SUNRISE,1113,#01113*,8050 WEST OAKLAND PARK BLVD.,FL,33351
Lowe's,WOOD VILLAGE,1114,#01114*,1000 NE WOOD VILLAGE BLVD.,OR,97060
Lowe's,GUNTERSVILLE,1115,#01115*,11190 U.S. HIGHWAY 431 SOUTH,AL,35976
Lowe's,AUGUSTA,1116,#01116*,3214 PEACH ORCHARD ROAD,GA,30906
Lowe's,PEORIA,1117,#01117*,8497 WEST THUNDERBIRD ROAD,AZ,85381
Lowe's,SAINT GEORGE,1118,#01118*,415 SOUTH RIVER ROAD,UT,84790
Lowe's,CHAMBLEE,1119,#01119*,4950 PEACHTREE INDUSTRIAL BLVD.,GA,30341
Lowe's,FLORENCE,1120,#01120*,2301 DAVID H. MCLEOD BLVD.,SC,29501
Lowe's,GRANDVILLE,1121,#01121*,4705 CANAL AVENUE,MI,49418
Lowe's,NEW CARROLLTON,1122,#01122*,7710 RIVERDALE ROAD,MD,20784
Lowe's,ASHLAND,1123,#01123*,350 DIEDRICH BLVD.,KY,41101
Lowe's,MATTHEWS,1124,#01124*,2115 MATTHEWS TOWNSHIP PARKWAY,NC,28105
Lowe's,STERLING,1125,#01125*,45430 DULLES CROSSING PLAZA,VA,20166
Lowe's,SUFFOLK,1126,#01126*,1216 N. MAIN STREET,VA,23434
Lowe's,LANCASTER,1127,#01127*,25 ROHRERSTOWN ROAD,PA,17603
Lowe's,HOUSTON,1128,#01128*,1000 GULFGATE CENTER MALL,TX,77087
Lowe's,NEW CASTLE,1130,#01130*,2640 WEST STATE STREET,PA,16101
Lowe's,HOUSTON,1131,#01131*,2610 KIRKWOOD DRIVE,TX,77077
Lowe's,UNION CITY,1132,#01132*,32040 UNION LANDING BLVD.,CA,94587
Lowe's,WEST VALLEY CITY,1133,#01133*,4050 SOUTH 5600 WEST,UT,84120
Lowe's,YUKON,1134,#01134*,1605 SOUTH GARTH BROOKS BLVD.,OK,73099
Lowe's,AVON,1135,#01135*,7893 EAST U.S. HIGHWAY 36,IN,46123
Lowe's,CLINTON,1136,#01136*,8755 BRANCH AVENUE,MD,20735
Lowe's,EL PASO,1137,#01137*,4531 WOODROW BEAN - TRANSMOUNTAIN ROAD,TX,79924
Lowe's,WILMINGTON,1138,#01138*,5110 S. COLLEGE ROAD,NC,28412
Lowe's,NORTHFIELD,1139,#01139*,8224 GOLDEN LINK BOULEVARD,OH,44067
Lowe's,OVIEDO,1140,#01140*,1155 VIDINA PLACE,FL,32765
Lowe's,KERNERSVILLE,1141,#01141*,145 HARMON CREEK ROAD,NC,27284
Lowe's,PENSACOLA,1142,#01142*,4301 WEST FAIRFIELD DRIVE,FL,32505
Lowe's,VACAVILLE,1143,#01143*,1751 EAST MONTE VISTA AVENUE,CA,95688
Lowe's,BURBANK,1144,#01144*,2000 EMPIRE AVENUE,CA,91504
Lowe's,HOUSTON,1145,#01145*,6161 E. SAM HOUSTON PARKWAY N.,TX,77049
Lowe's,EL PASO,1146,#01146*,11950 ROJAS DRIVE,TX,79936
Lowe's,OSAGE BEACH,1147,#01147*,950 HIGHWAY 42,MO,65065
Lowe's,ELK GROVE,1148,#01148*,8369 POWER INN ROAD,CA,95624
Lowe's,LAWNSIDE,1149,#01149*,122 WEST OAK AVENUE,NJ,8045
Lowe's,LIVERMORE,1150,#01150*,4255 FIRST STREET,CA,94551
Lowe's,PORT ARTHUR,1151,#01151*,8383 MEMORIAL BLVD.,TX,77640
Lowe's,EL PASO,1152,#01152*,430 EAST REDD ROAD,TX,79912
Lowe's,MCDONOUGH,1153,#01153*,101 WILLOW LANE,GA,30253
Lowe's,SAN ANTONIO,1155,#01155*,7901 CALLAGHAN ROAD,TX,78229
Lowe's,CHESTERFIELD,1156,#01156*,27990 23 MILE ROAD,MI,48051
Lowe's,PRESCOTT,1157,#01157*,2300 EAST STATE ROUTE 69,AZ,86301
Lowe's,LAS CRUCES,1158,#01158*,3200 NORTH MAIN STREET,NM,88001
Lowe's,OMAHA,1159,#01159*,7525 DODGE STREET,NE,68114
Lowe's,CINCINNATI,1160,#01160*,618 MOUNT MORIAH DRIVE,OH,45245
Lowe's,ORLANDO,1161,#01161*,12200 LAKE UNDERHILL ROAD,FL,32825
Lowe's,WEST HILLS,1162,#01162*,8383 TOPANGA CANYON BLVD.,CA,91304
Lowe's,MEMPHIS,1163,#01163*,7895 WINCHESTER ROAD,TN,38125
Lowe's,WYTHEVILLE,1164,#01164*,185 DOMINION STREET,VA,24382
Lowe's,NORMAN,1165,#01165*,2555 HEMPHILL DRIVE,OK,73069
Lowe's,COLUMBUS,1166,#01166*,2301 WOODMONT DRIVE,MS,39705
Lowe's,OLYMPIA,1167,#01167*,4230 MARTIN WAY EAST,WA,98516
Lowe's,MOORESVILLE,1168,#01168*,851 BRIDGE STREET,IN,46158
Lowe's,SAN DIMAS,1170,#01170*,633 WEST BONITA AVENUE,CA,91773
Lowe's,BROCKTON,1174,#01174*,135 WEST GATE DRIVE,MA,2301
Lowe's,COLUMBUS,1175,#01175*,2345 SILVER DRIVE,OH,43211
Lowe's,DECATUR,1176,#01176*,1641 BELTLINE ROAD SW,AL,35601
Lowe's,LATHAM,1177,#01177*,790 LOUDON ROAD,NY,12110
Lowe's,LEES SUMMIT,1180,#01180*,1830 NORTHWEST CHIPMAN ROAD,MO,64081
Lowe's,PRATTVILLE,1181,#01181*,2307 COBBS FORD ROAD,AL,36066
Lowe's,OMAHA,1184,#01184*,18375 WRIGHT STREET,NE,68130
Lowe's,PRINCETON,1185,#01185*,3504 BRUNSWICK PIKE,NJ,8540
Lowe's,HAMPTON,1186,#01186*,2002 POWER PLANT PARKWAY,VA,23666
Lowe's,BARTLETT,1187,#01187*,8300 HIGHWAY 64,TN,38133
Lowe's,LAUREL,1188,#01188*,14300 BALTIMORE AVENUE,MD,20707
Lowe's,MEDFORD,1189,#01189*,2796 ROUTE 112,NY,11763
Lowe's,PINELLAS PARK,1190,#01190*,7301 PARK BLVD.,FL,33781
Lowe's,NOBLESVILLE,1191,#01191*,16800 MERCANTILE BLVD.,IN,46060
Lowe's,ORANGEBURG,1192,#01192*,206 ROUTE 303,NY,10962
Lowe's,EAST PEORIA,1193,#01193*,201 RIVERSIDE DRIVE,IL,61611
Lowe's,PLATTSBURGH,1195,#01195*,39 CENTRE DRIVE,NY,12901
Lowe's,ATHENS,1196,#01196*,1751 SOUTH CONGRESS PARKWAY,TN,37303
Lowe's,WOBURN,1198,#01198*,15 COMMERCE WAY,MA,1801
Lowe's,ALLEN,1199,#01199*,1010 WEST MCDERMOTT DRIVE,TX,75013
Lowe's,PITTSBURGH,1200,#01200*,400 DAVIS BLVD.,PA,15275
Lowe's,GREENEVILLE,1202,#01202*,2375 EAST ANDREW JOHNSON HIGHWAY,TN,37745
Lowe's,BLOOMINGTON,1203,#01203*,2101 EAST EMPIRE STREET,IL,61704
Lowe's,PHOENIX,1204,#01204*,2929 W. THUNDERBIRD ROAD,AZ,85053
Lowe's,SOUTHGATE,1205,#01205*,16410 TRENTON ROAD,MI,48195
Lowe's,WORCESTER,1206,#01206*,533 LINCOLN STREET,MA,1605
Lowe's,ROSEVILLE,1207,#01207*,10201 FAIRWAY DRIVE,CA,95678
Lowe's,SIKESTON,1209,#01209*,1240 S. MAIN STREET,MO,63801
Lowe's,REIDSVILLE,1210,#01210*,5201 US 29 BUSINESS,NC,27320
Lowe's,COLUMBUS,1211,#01211*,3616 EAST BROAD STREET,OH,43213
Lowe's,OWASSO,1500,#01500*,12001 E. 96TH STREET NORTH,OK,74055
Lowe's,LOGAN,1501,#01501*,313 E. 1400 NORTH,UT,84341
Lowe's,BINGHAMTON,1502,#01502*,1318 UPPER FRONT STREET,NY,13901
Lowe's,BALLWIN,1503,#01503*,14810 MANCHESTER ROAD,MO,63011
Lowe's,SAN ANTONIO,1504,#01504*,203 LOOP 410 S.W.,TX,78245
Lowe's,CRANSTON,1505,#01505*,247 GARFIELD AVENUE,RI,2920
Lowe's,ROCKLEDGE,1506,#01506*,3790 FISKE BLVD.,FL,32955
Lowe's,NORCROSS,1507,#01507*,2035 BEAVER RUIN ROAD,GA,30071
Lowe's,TIFTON,1508,#01508*,2000 US HIGHWAY 82 WEST,GA,31793
Lowe's,LENOIR,1509,#01509*,1201 HICKORY BLVD. S.E.,NC,28645
Lowe's,SANTA CLARITA,1510,#01510*,26415 BOUQUET CANYON ROAD,CA,91350
Lowe's,MANSFIELD,1511,#01511*,1901 US HIGHWAY 287,TX,76063
Lowe's,FLANDERS,1512,#01512*,20 INTERNATIONAL DRIVE SOUTH,NJ,7836
Lowe's,ROME,1513,#01513*,2338 SHORTER AVENUE N.W.,GA,30165
Lowe's,GRAND RAPIDS,1514,#01514*,4297 PLAINFIELD AVENUE N.E.,MI,49525
Lowe's,CONROE,1515,#01515*,3052 COLLEGE PARK DRIVE,TX,77384
Lowe's,COLUMBUS,1516,#01516*,3500 10TH STREET,IN,47201
Lowe's,KENTWOOD,1517,#01517*,3330 28TH STREET SOUTH EAST,MI,49512
Lowe's,LOUISVILLE,1518,#01518*,9800 PRESTON CROSSING BLVD.,KY,40229
Lowe's,ASHTABULA,1519,#01519*,2416 DILLON DRIVE,OH,44004
Lowe's,OMAHA,1520,#01520*,3333 N. 147TH STREET,NE,68116
Lowe's,BEAUFORT,1521,#01521*,207 ROBERT SMALLS PARKWAY,SC,29906
Lowe's,BOONE,1522,#01522*,1855 BLOWING ROCK ROAD,NC,28607
Lowe's,TROY,1523,#01523*,2000 WEST MAIN STREET,OH,45373
Lowe's,KELLER,1524,#01524*,600 N. TARRANT PARKWAY,TX,76248
Lowe's,CARMEL,1525,#01525*,14598 LOWES WAY,IN,46033
Lowe's,CORDOVA,1526,#01526*,430 S. GERMANTOWN PARKWAY,TN,38018
Lowe's,GREENVILLE,1527,#01527*,1886 DR. MARTIN LUTHER KING JR. BLVD.,MS,38701
Lowe's,LEXINGTON,1528,#01528*,1255 NORTH LEE HIGHWAY,VA,24450
Lowe's,ALBEMARLE,1529,#01529*,814-14 N.C. 24-27 BYPASS EAST,NC,28001
Lowe's,HUMBLE,1530,#01530*,7355 FM 1960 ROAD EAST,TX,77346
Lowe's,BESSEMER,1531,#01531*,1201 19TH STREET NORTH,AL,35020
Lowe's,BIXBY,1532,#01532*,11114 SOUTH MEMORIAL DRIVE,OK,74008
Lowe's,BLUFFTON,1533,#01533*,35 MALPHRUS ROAD,SC,29910
Lowe's,BREMERTON,1534,#01534*,5600 STATE HIGHWAY 303 N.E.,WA,98311
Lowe's,BRICK,1535,#01535*,520 ROUTE 70,NJ,8723
Lowe's,BROKEN ARROW,1536,#01536*,1900 EAST HILLSIDE DRIVE,OK,74012
Lowe's,HENDERSON,1537,#01537*,1401 SOUTH BOULDER HIGHWAY,NV,89015
Lowe's,CHANTILLY,1538,#01538*,13856 METROTECH DRIVE,VA,20151
Lowe's,CHEYENNE,1539,#01539*,1608 PRAIRIE AVENUE,WY,82009
Lowe's,CITRUS HEIGHTS,1540,#01540*,7840 GREENBACK LANE,CA,95610
Lowe's,CLOVIS,1541,#01541*,875 SHAW AVENUE,CA,93612
Lowe's,DEPTFORD,1542,#01542*,1480 CLEMENTS BRIDGE ROAD,NJ,8096
Lowe's,ALBUQUERQUE,1543,#01543*,3010 JUAN TABO BOULEVARD N.E.,NM,87111
Lowe's,KNOXVILLE,1544,#01544*,3100 SOUTH MALL ROAD,TN,37924
Lowe's,STOCKTON,1545,#01545*,3645 EAST HAMMER LANE,CA,95212
Lowe's,VIRGINIA BEACH,1546,#01546*,2403 VIRGINIA BEACH BOULEVARD,VA,23454
Lowe's,WICHITA,1547,#01547*,11959 EAST KELLOGG DRIVE,KS,67207
Lowe's,EATONTOWN,1548,#01548*,118 HIGHWAY 35,NJ,7724
Lowe's,EDMOND,1549,#01549*,1320 EAST 2ND STREET,OK,73034
Lowe's,GAYLORD,1551,#01551*,600 EDELWEISS VILLAGE PARKWAY,MI,49735
Lowe's,GILROY,1552,#01552*,7151 CAMINO ARROYO,CA,95020
Lowe's,GOODYEAR,1553,#01553*,13191 WEST MCDOWELL ROAD,AZ,85338
Lowe's,GRAND JUNCTION,1554,#01554*,2525 RIMROCK AVENUE,CO,81505
Lowe's,HAWTHORNE,1555,#01555*,2800 120TH STREET,CA,90250
Lowe's,HEMET,1556,#01556*,350 SOUTH SANDERSON AVENUE,CA,92545
Lowe's,HICKORY,1557,#01557*,1550 21ST STREET DRIVE S.E.,NC,28602
Lowe's,HILLSBORO,1558,#01558*,1951 S.E. 24TH AVENUE,OR,97123
Lowe's,SALINA,1559,#01559*,3035 SOUTH 9TH STREET,KS,67401
Lowe's,KERRVILLE,1560,#01560*,651 LOOP 534,TX,78028
Lowe's,KAILUA KONA,1561,#01561*,75-5677 HALE KAPILI STREET,HI,96740
Lowe's,LA HABRA,1562,#01562*,1380 SOUTH BEACH BOULEVARD,CA,90631
Lowe's,LAREDO,1563,#01563*,6623 SAN DARIO AVENUE,TX,78041
Lowe's,THOMASVILLE,1564,#01564*,13911 U.S. HIGHWAY 19 SOUTH,GA,31792
Lowe's,LIBERTY,1565,#01565*,1920 NORTH STEWART ROAD,MO,64068
Lowe's,MARIETTA,1566,#01566*,842 PIKE STREET,OH,45750
Lowe's,MORGANVILLE,1567,#01567*,57 U.S. HIGHWAY 9 SOUTH,NJ,7751
Lowe's,MERIDIAN,1568,#01568*,100 15TH PLACE SOUTH,MS,39301
Lowe's,MERRILLVILLE,1569,#01569*,1520 EAST 79TH AVENUE,IN,46410
Lowe's,HOUSTON,1570,#01570*,4645 BEECHNUT STREET,TX,77096
Lowe's,MIDDLETOWN,1571,#01571*,500 WEST MAIN STREET,DE,19709
Lowe's,LANGHORNE,1572,#01572*,1400 EAST LINCOLN HIGHWAY,PA,19047
Lowe's,MILL CREEK,1573,#01573*,2002 132ND STREET S.E.,WA,98012
Lowe's,MORENO VALLEY,1574,#01574*,12400 DAY STREET,CA,92553
Lowe's,LUMBERTON,1575,#01575*,"1520 ROUTE 38, BUILDING 10",NJ,8048
Lowe's,MURRIETA,1576,#01576*,24701 MADISON AVENUE,CA,92562
Lowe's,HUNTSVILLE,1577,#01577*,3505 NORTH MEMORIAL PARKWAY N.W.,AL,35810
Lowe's,SAN ANTONIO,1579,#01579*,1200 NORTH F.M. 1604 WEST,TX,78248
Lowe's,TULSA,1580,#01580*,1525 SOUTH YALE AVENUE,OK,74112
Lowe's,WEBSTER,1581,#01581*,900 FIVE MILE LINE ROAD,NY,14580
Lowe's,FORT WORTH,1582,#01582*,3500 NORTH WEST CENTRE DRIVE,TX,76135
Lowe's,STATEN ISLAND,1583,#01583*,2171 FOREST AVENUE,NY,10303
Lowe's,NEWBURGH,1584,#01584*,1239 ROUTE 300,NY,12550
Lowe's,CINCINNATI,1585,#01585*,5385 RIDGE AVENUE,OH,45213
Lowe's,OCEANSIDE,1588,#01588*,155 OLD GROVE ROAD,CA,92057
Lowe's,PHILLIPSBURG,1590,#01590*,1325 U.S. ROUTE 22,NJ,8865
Lowe's,PICO RIVERA,1591,#01591*,8600 WASHINGTON BOULEVARD,CA,90660
Lowe's,PLANT CITY,1592,#01592*,2801 JAMES L. REDMAN PARKWAY,FL,33566
Lowe's,PORTSMOUTH,1593,#01593*,4040 VICTORY BLVD.,VA,23701
Lowe's,COLUMBUS,1595,#01595*,3899 SOUTH HIGH STREET,OH,43207
Lowe's,LANSING,1596,#01596*,6821 SOUTH CEDAR STREET,MI,48911
Lowe's,STATEN ISLAND,1597,#01597*,2790 ARTHUR KILL ROAD,NY,10309
Lowe's,ORLANDO,1598,#01598*,3500 SOUTH SEMORAN BOULEVARD,FL,32822
Lowe's,MOBILE,1599,#01599*,4401 RANGELINE ROAD,AL,36619
Lowe's,SALEM,1600,#01600*,1930 TURNER ROAD SOUTHEAST,OR,97302
Lowe's,SCHERERVILLE,1601,#01601*,637 U.S. HIGHWAY 41,IN,46375
Lowe's,WOODBRIDGE,1602,#01602*,13720 SMOKETOWN ROAD,VA,22192
Lowe's,SNELLVILLE,1603,#01603*,1615 SCENIC HIGHWAY,GA,30078
Lowe's,SOUTHFIELD,1604,#01604*,28650 TELEGRAPH ROAD,MI,48034
Lowe's,SPRING HILL,1605,#01605*,4780 COMMERCIAL WAY,FL,34606
Lowe's,STREETSBORO,1606,#01606*,1210 STATE ROUTE 303,OH,44241
Lowe's,SURPRISE,1607,#01607*,13363 W. GRAND AVENUE,AZ,85374
Lowe's,TOMS RIVER,1608,#01608*,1375 HOOPER AVENUE,NJ,8753
Lowe's,TRAVERSE CITY,1609,#01609*,3150 NORTH US 31 SOUTH,MI,49684
Lowe's,VINCENNES,1610,#01610*,2700 NORTH 6TH STREET,IN,47591
Lowe's,VISALIA,1611,#01611*,4144 SOUTH MOONEY BOULEVARD,CA,93277
Lowe's,SCHENECTADY,1612,#01612*,422 BALLTOWN ROAD,NY,12304
Lowe's,WEST JORDAN,1613,#01613*,7456 SOUTH PLAZA CENTER DRIVE,UT,84084
Lowe's,TOLEDO,1614,#01614*,7000 CENTRAL AVENUE,OH,43617
Lowe's,WARSAW,1615,#01615*,2495 JALYNN STREET,IN,46582
Lowe's,VISTA,1616,#01616*,151 VISTA VILLAGE DRIVE,CA,92083
Lowe's,WAYCROSS,1617,#01617*,2308 MEMORIAL DRIVE,GA,31501
Lowe's,WEYMOUTH,1618,#01618*,729 BRIDGE STREET,MA,2191
Lowe's,FORT WORTH,1619,#01619*,600 STATE HIGHWAY 183,TX,76114
Lowe's,LAS VEGAS,1620,#01620*,2875 E. CHARLESTON BOULEVARD,NV,89104
Lowe's,MENTOR,1621,#01621*,9600 MENTOR AVENUE,OH,44060
Lowe's,DANVILLE,1622,#01622*,51 MAY BOULEVARD,KY,40422
Lowe's,KANSAS CITY,1623,#01623*,1700 WEST 133RD STREET,MO,64145
Lowe's,GARDEN CITY,1624,#01624*,700 DIBBLEE DRIVE,NY,11530
Lowe's,SAN ANTONIO,1625,#01625*,11718 I.H. 35 NORTH,TX,78233
Lowe's,SMYRNA,1626,#01626*,410 GENIE LANE,TN,37167
Lowe's,NORTH LITTLE ROCK,1627,#01627*,4330 EAST MCCAIN BOULEVARD,AR,72117
Lowe's,PINE BLUFF,1628,#01628*,2906A EAST HARDING AVENUE,AR,71601
Lowe's,TAMPA,1629,#01629*,4210 SOUTH DALE MABRY HIGHWAY,FL,33611
Lowe's,LITTLETON,1630,#01630*,5258 SOUTH WADSWORTH BOULEVARD,CO,80123
Lowe's,BELLINGHAM,1631,#01631*,1050 EAST SUNSET DRIVE,WA,98226
Lowe's,VANCOUVER,1632,#01632*,11413 NORTHEAST 76TH STREET,WA,98662
Lowe's,ANCHORAGE,1633,#01633*,10900 OLD SEWARD HIGHWAY,AK,99515
Lowe's,RAPID CITY,1634,#01634*,2550 HAINES AVENUE,SD,57701
Lowe's,SENECA,1635,#01635*,195 BILO PLACE,SC,29678
Lowe's,ALBUQUERQUE,1636,#01636*,3500 NM 528 NW,NM,87114
Lowe's,MAPLE SHADE,1637,#01637*,2834 ROUTE 73 NORTH,NJ,8052
Lowe's,TUCSON,1638,#01638*,4151 NORTH ORACLE ROAD,AZ,85705
Lowe's,LAS VEGAS,1639,#01639*,4625 WEST CHARLESTON BOULEVARD,NV,89102
Lowe's,GADSDEN,1640,#01640*,615 GEORGE WALLACE DRIVE,AL,35903
Lowe's,CLARKSBURG,1641,#01641*,494 EMILY DRIVE,WV,26301
Lowe's,WILLOUGHBY,1642,#01642*,36300 EUCLID AVENUE,OH,44094
Lowe's,TOLEDO,1643,#01643*,5501 AIRPORT HIGHWAY,OH,43615
Lowe's,MILLEDGEVILLE,1644,#01644*,1731 NORTH COLUMBIA STREET,GA,31061
Lowe's,SAN ANTONIO,1645,#01645*,1470 AUSTIN HIGHWAY,TX,78209
Lowe's,DALTON,1646,#01646*,1212 CLEVELAND HIGHWAY,GA,30721
Lowe's,FERNANDINA BEACH,1647,#01647*,474283 EAST SR 200,FL,32034
Lowe's,WASHINGTON,1648,#01648*,2023 WASHINGTON CROSSING,MO,63090
Lowe's,PERRYSBURG,1649,#01649*,10295 FREMONT PIKE,OH,43551
Lowe's,FARGO,1650,#01650*,5001 13TH AVENUE SW,ND,58103
Lowe's,KENNESAW,1651,#01651*,3250 COBB PARKWAY,GA,30152
Lowe's,KISSIMMEE,1652,#01652*,1300 OSCEOLA PARKWAY WEST,FL,34741
Lowe's,ELKIN,1653,#01653*,492 CC CAMP ROAD,NC,28621
Lowe's,ERIE,1654,#01654*,2305 ASBURY ROAD,PA,16506
Lowe's,ROCHESTER,1655,#01655*,3150 WEST RIDGE ROAD,NY,14626
Lowe's,HILLSBOROUGH,1656,#01656*,315 ROUTE 206 SUITE 600,NJ,8844
Lowe's,SANFORD,1657,#01657*,3780 ORLANDO DRIVE,FL,32773
Lowe's,TOLEDO,1659,#01659*,1136 WEST ALEXIS ROAD,OH,43612
Lowe's,MONROEVILLE,1660,#01660*,4200 WILLIAM PENN HIGHWAY,PA,15146
Lowe's,SANTEE,1661,#01661*,9416 MISSION GORGE ROAD,CA,92071
Lowe's,KINGSTON,1663,#01663*,32 WILLIAM C. GOULD WAY,MA,2364
Lowe's,MILFORD,1664,#01664*,5694 ROMAR DRIVE,OH,45150
Lowe's,BLOOMFIELD,1665,#01665*,325 COTTAGE GROVE ROAD,CT,6002
Lowe's,HOPKINSVILLE,1666,#01666*,4580 FORT CAMPBELL BOULEVARD,KY,42240
Lowe's,QUAKERTOWN,1667,#01667*,1001 SOUTH WEST END BOULEVARD,PA,18951
Lowe's,ALPHARETTA,1668,#01668*,4925 WINDWARD PARKWAY,GA,30004
Lowe's,LANSDALE,1669,#01669*,630 COWPATH ROAD,PA,19446
Lowe's,DELRAN,1670,#01670*,1331 FAIRVIEW BOULEVARD,NJ,8075
Lowe's,MORGANTOWN,1671,#01671*,9595 MALL ROAD,WV,26501
Lowe's,MERCED,1672,#01672*,1750 WEST OLIVE AVENUE,CA,95348
Lowe's,BROOKLYN,1674,#01674*,118 2ND AVENUE,NY,11215
Lowe's,DICKSON,1675,#01675*,116 JACKSON BROTHERS BOULEVARD,TN,37055
Lowe's,HOWELL,1676,#01676*,4975 US HIGHWAY 9,NJ,7731
Lowe's,HARPER WOODS,1677,#01677*,19340 VERNIER ROAD,MI,48225
Lowe's,WISE,1678,#01678*,201 WOODLAND DRIVE S.W.,VA,24293
Lowe's,SPRINGFIELD,1679,#01679*,2560 NORTH DIRKSEN PARKWAY,IL,62702
Lowe's,QUINCY,1680,#01680*,6030 BROADWAY STREET,IL,62305
Lowe's,PEMBROKE PINES,1681,#01681*,130 NORTH UNIVERSITY DRIVE,FL,33024
Lowe's,MISSOULA,1682,#01682*,3100 NORTH RESERVE STREET,MT,59808
Lowe's,VENICE,1683,#01683*,1745 TAMIAMI TRAIL SOUTH,FL,34293
Lowe's,SLIDELL,1684,#01684*,39184 NATCHEZ DRIVE,LA,70461
Lowe's,LADY LAKE,1685,#01685*,13705 US 441,FL,32159
Lowe's,LATROBE,1687,#01687*,200 COLONY LANE,PA,15650
Lowe's,CORALVILLE,1688,#01688*,2701 2ND STREET,IA,52241
Lowe's,CLINTON,1689,#01689*,911 SUNSET AVENUE,NC,28328
Lowe's,BEND,1690,#01690*,20501 COOLEY ROAD,OR,97701
Lowe's,JACKSONVILLE,1691,#01691*,5155 LENOX AVENUE,FL,32205
Lowe's,LEBANON,1692,#01692*,634 SOUTH CUMBERLAND STREET,TN,37087
Lowe's,MCMINNVILLE,1693,#01693*,1250 SW BOOTH BEND ROAD,OR,97128
Lowe's,SIOUX CITY,1695,#01695*,5758 SUNNYBROOK DRIVE,IA,51106
Lowe's,WOOSTER,1696,#01696*,3788 BURBANK ROAD,OH,44691
Lowe's,COVINGTON,1698,#01698*,1280 NORTH HIGHWAY 190,LA,70433
Lowe's,JACKSONVILLE,1699,#01699*,12945 ATLANTIC BOULEVARD,FL,32225
Lowe's,FONTANA,1700,#01700*,16851 SIERRA LAKES PARKWAY,CA,92336
Lowe's,LARGO,1701,#01701*,11101 ULMERTON ROAD,FL,33778
Lowe's,PHARR,1702,#01702*,707 SOUTH JACKSON ROAD,TX,78577
Lowe's,LAS VEGAS,1703,#01703*,5050 SOUTH FORT APACHE ROAD,NV,89148
Lowe's,UNION CITY,1704,#01704*,800 WEST REELFOOT AVENUE,TN,38261
Lowe's,CONWAY,1705,#01705*,2301 HIGHWAY 501 EAST,SC,29526
Lowe's,LODI,1706,#01706*,1389 S. LOWER SACRAMENTO ROAD,CA,95242
Lowe's,TUCSON,1707,#01707*,4075 WEST INA ROAD,AZ,85741
Lowe's,BAKERSFIELD,1708,#01708*,6200 COLONY STREET,CA,93307
Lowe's,BAY SHORE,1709,#01709*,800 SUNRISE HIGHWAY,NY,11706
Lowe's,CARLISLE,1710,#01710*,850 EAST HIGH STREET,PA,17013
Lowe's,NAPERVILLE,1711,#01711*,1440 SOUTH ROUTE 59,IL,60564
Lowe's,WATERLOO,1712,#01712*,400 EAST TOWER PARK DRIVE,IA,50701
Lowe's,ELIZABETH CITY,1713,#01713*,1605 WEST EHRINGHAUS STREET,NC,27909
Lowe's,CLEARWATER,1714,#01714*,2619 GULF TO BAY BOULEVARD,FL,33759
Lowe's,EAST POINT,1715,#01715*,3625 NORTH COMMERCE DRIVE,GA,30344
Lowe's,CLINTON TOWNSHIP,1716,#01716*,35115 SOUTH GRATIOT AVENUE,MI,48035
Lowe's,SINKING SPRING,1717,#01717*,2625 SHILLINGTON ROAD,PA,19608
Lowe's,GREENVILLE,1718,#01718*,1900 POINSETT HIGHWAY,SC,29609
Lowe's,LAS VEGAS,1719,#01719*,9955 SOUTH EASTERN AVENUE,NV,89183
Lowe's,LAKE PARK,1720,#01720*,401 NORTH CONGRESS AVENUE,FL,33403
Lowe's,SOUTHAVEN,1721,#01721*,178 GOODMAN ROAD WEST,MS,38671
Lowe's,KINSTON,1722,#01722*,4489 HIGHWAY 70 WEST,NC,28504
Lowe's,GLOUCESTER,1723,#01723*,6659 GEORGE WASHINGTON MEMORIAL HIGHWAY,VA,23061
Lowe's,LAWTON,1724,#01724*,4402 N.W. CACHE ROAD,OK,73505
Lowe's,AUSTIN,1725,#01725*,"13000 N I-35 SVC ROAD SB, BUILDING 12",TX,78753
Lowe's,BIRMINGHAM,1726,#01726*,5291 HIGHWAY 280 SOUTH,AL,35242
Lowe's,AUSTIN,1727,#01727*,8000 SHOAL CREEK BOULEVARD,TX,78757
Lowe's,GLENDALE,1728,#01728*,5809 WEST NORTHERN AVENUE,AZ,85301
Lowe's,DOWNINGTOWN,1729,#01729*,1250 CORNERSTONE BOULEVARD,PA,19335
Lowe's,AURORA,1730,#01730*,4455 SOUTH BUCKLEY ROAD,CO,80015
Lowe's,DYERSBURG,1731,#01731*,1155 HIGHWAY 51 BYPASS WEST,TN,38024
Lowe's,PORT CHARLOTTE,1732,#01732*,2000 TAMIAMI TRAIL,FL,33948
Lowe's,GRIFFIN,1733,#01733*,1520 HIGHWAY 16 WEST,GA,30223
Lowe's,VENTURA,1734,#01734*,500 SOUTH MILLS ROAD,CA,93003
Lowe's,MADISON,1735,#01735*,511 IVY TECH DRIVE,IN,47250
Lowe's,GEORGETOWN,1736,#01736*,109 MAGNOLIA DRIVE,KY,40324
Lowe's,LEEDS,1737,#01737*,8900 WEAVER AVENUE,AL,35094
Lowe's,SAINT CHARLES,1738,#01738*,955 SOUTH RANDALL ROAD,IL,60174
Lowe's,LAKE IN THE HILLS,1739,#01739*,300 NORTH RANDALL ROAD,IL,60156
Lowe's,HALFMOON,1740,#01740*,476 ROUTE 146,NY,12065
Lowe's,ROSEBURG,1741,#01741*,3300 NW AVIATION DRIVE,OR,97470
Lowe's,CHULA VISTA,1742,#01742*,2225 OTAY LAKES ROAD,CA,91915
Lowe's,CORONA,1743,#01743*,1285 MAGNOLIA AVENUE,CA,92879
Lowe's,FULTONDALE,1744,#01744*,1335 WALKER CHAPEL ROAD,AL,35068
Lowe's,HUTCHINSON,1745,#01745*,1930 EAST 17TH AVENUE,KS,67501
Lowe's,FARMINGTON,1746,#01746*,625 WEST KARSCH BOULEVARD,MO,63640
Lowe's,SPRINGFIELD,1747,#01747*,3480 TOM AUSTIN HIGHWAY,TN,37172
Lowe's,LINCOLNWOOD,1748,#01748*,3601 WEST TOUHY AVENUE,IL,60712
Lowe's,ARDMORE,1749,#01749*,2701 12TH AVENUE NW,OK,73401
Lowe's,ANN ARBOR,1750,#01750*,5900 JACKSON ROAD,MI,48103
Lowe's,CAMDEN,1751,#01751*,11 BAY LANE,SC,29020
Lowe's,GROVE,1752,#01752*,2131 SOUTH MAIN STREET,OK,74344
Lowe's,HUNTINGTON BEACH,1753,#01753*,8175 WARNER AVENUE,CA,92647
Lowe's,TUCSON,1754,#01754*,7105 EAST SPEEDWAY BOULEVARD,AZ,85710
Lowe's,PARKER,1755,#01755*,10000 SOUTH TWENTY MILE ROAD,CO,80134
Lowe's,SAN JOSE,1756,#01756*,5550 COTTLE ROAD,CA,95123
Lowe's,BATESVILLE,1757,#01757*,1135 HIGHWAY 6 EAST,MS,38606
Lowe's,PEMBROKE,1758,#01758*,108 OLD CHURCH STREET,MA,2359
Lowe's,EASTON,1759,#01759*,4443 BIRKLAND PLACE,PA,18045
Lowe's,SOUTH BOSTON,1760,#01760*,3603 OLD HALIFAX ROAD,VA,24592
Lowe's,ALAMOGORDO,1761,#01761*,4201 NORTH SCENIC DRIVE,NM,88310
Lowe's,MARSHALL,1762,#01762*,910 EAST END BOULEVARD NORTH,TX,75670
Lowe's,KINGSVILLE,1763,#01763*,1420 EAST GENERAL CAVAZOS BOULEVARD,TX,78363
Lowe's,ROANOKE,1764,#01764*,4520 CHALLENGER AVENUE,VA,24012
Lowe's,MOUNT VERNON,1765,#01765*,1010 COSHOCTON AVENUE,OH,43050
Lowe's,JACKSONVILLE,1766,#01766*,2301 T. P. WHITE DRIVE,AR,72076
Lowe's,SHELBYVILLE,1767,#01767*,1734 NORTH MAIN STREET,TN,37160
Lowe's,AKRON,1768,#01768*,940 INTERSTATE PARKWAY,OH,44312
Lowe's,JASPER,1769,#01769*,900 WEST GIBSON,TX,75951
Lowe's,CAMPBELLSVILLE,1770,#01770*,205 JEFRA AVENUE,KY,42718
Lowe's,DALLAS,1771,#01771*,1710 CHALK HILL ROAD EAST,TX,75212
Lowe's,NACOGDOCHES,1772,#01772*,220 NORTH STALLINGS DRIVE,TX,75965
Lowe's,BLUFFTON,1773,#01773*,2105 NORTH MAIN STREET,IN,46714
Lowe's,MCCOMB,1774,#01774*,1802 PIKES POINT CIRCLE,MS,39648
Lowe's,SEARCY,1775,#01775*,3701 EAST RACE AVENUE,AR,72143
Lowe's,YORK,1776,#01776*,1010 EAST LIBERTY STREET,SC,29745
Lowe's,ERWIN,1777,#01777*,524 EAST JACKSON BOULEVARD,NC,28339
Lowe's,PORTAGE,1778,#01778*,6221 U.S. HIGHWAY 6,IN,46368
Lowe's,STERLING HEIGHT,1779,#01779*,2000 METROPOLITAN PARKWAY,MI,48310
Lowe's,DALLAS,1780,#01780*,11333 E. NORTHWEST HIGHWAY,TX,75238
Lowe's,CLOVIS,1781,#01781*,3601 NORTH PRINCE STREET,NM,88101
Lowe's,CRESTVIEW,1782,#01782*,298 RASBERRY ROAD,FL,32536
Lowe's,DOUGLAS,1783,#01783*,1340 S.E. BOWENS MILL ROAD,GA,31533
Lowe's,GLENMONT,1784,#01784*,271 ROUTE 9 WEST,NY,12077
Lowe's,NAMPA,1785,#01785*,1400 NAMPA-CALDWELL BOULEVARD,ID,83651
Lowe's,FORT PAYNE,1786,#01786*,1600 GLENN BOULEVARD SW,AL,35968
Lowe's,VIDALIA,1787,#01787*,3209 EAST FIRST STREET,GA,30474
Lowe's,FOREST CITY,1788,#01788*,184 LOWE'S BOULEVARD,NC,28043
Lowe's,PARIS,1789,#01789*,117 MEMORIAL DRIVE,TN,38242
Lowe's,LIVINGSTON,1790,#01790*,120 US 59 LOOP SOUTH,TX,77351
Lowe's,TUCSON,1791,#01791*,1800 WEST VALENCIA ROAD,AZ,85746
Lowe's,POMPANO BEACH,1792,#01792*,1851 NORTH FEDERAL HIGHWAY,FL,33062
Lowe's,EAST ELLIJAY,1793,#01793*,380 HIGHLAND CROSSING,GA,30540
Lowe's,VALDOSTA,1794,#01794*,1106 NORTH ST. AUGUSTINE ROAD,GA,31601
Lowe's,GLEN CARBON,1795,#01795*,159 WHISTLE STOP DRIVE,IL,62034
Lowe's,GLASGOW,1796,#01796*,208 SL ROGERS WELLS BOULEVARD,KY,42141
Lowe's,PAINTSVILLE,1797,#01797*,527 NORTH MAYO TRAIL,KY,41240
Lowe's,WAKE FOREST,1798,#01798*,11800 GALAXY DRIVE,NC,27587
Lowe's,ATHENS,1799,#01799*,1109 US HIGHWAY 72 EAST,AL,35611
Lowe's,HARRIMAN,1800,#01800*,1800 ROANE STATE HIGHWAY,TN,37748
Lowe's,GUN BARREL CITY,1801,#01801*,201 WEST MAIN STREET,TX,75156
Lowe's,MOUNT PLEASANT,1802,#01802*,1220 LAKEWOOD DRIVE,TX,75455
Lowe's,CULPEPER,1803,#01803*,15150 MONTANUS DRIVE,VA,22701
Lowe's,BUCKHANNON,1805,#01805*,40 CLARKSBURG ROAD,WV,26201
Lowe's,FAYETTEVILLE,1806,#01806*,3231 W. MARTIN LUTHER KING BLVD.,AR,72704
Lowe's,SANDY SPRINGS,1807,#01807*,5925 ROSWELL ROAD NE,GA,30328
Lowe's,MOREHEAD,1808,#01808*,100 KROGER CENTER,KY,40351
Lowe's,FESTUS,1809,#01809*,1111 BRADLEY STREET,MO,63028
Lowe's,SULPHUR SPRINGS,1810,#01810*,1711 SOUTH BROADWAY STREET,TX,75482
Lowe's,IRVING,1811,#01811*,3500 WEST AIRPORT FREEWAY,TX,75062
Lowe's,GREELEY,1812,#01812*,2400 47TH AVENUE,CO,80634
Lowe's,BOSSIER CITY,1813,#01813*,2360 AIRLINE DRIVE,LA,71111
Lowe's,COMMERCE TOWNSHIP,1814,#01814*,2745 WEST MAPLE ROAD,MI,48390
Lowe's,ROANOKE RAPIDS,1815,#01815*,1600 JULIAN ALLSBROOK HIGHWAY,NC,27870
Lowe's,MILLVILLE,1816,#01816*,113 BLUEBIRD LANE,NJ,8332
Lowe's,CANANDAIGUA,1817,#01817*,4200 RECREATION DRIVE,NY,14424
Lowe's,TAHLEQUAH,1818,#01818*,161 MEADOW CREEK DRIVE,OK,74464
Lowe's,HAZARD,1819,#01819*,81 COMMERCE DRIVE,KY,41701
Lowe's,PALATKA,1820,#01820*,500 NORTH STATE ROAD 19,FL,32177
Lowe's,CAROL STREAM,1821,#01821*,400 WEST ARMY TRAIL,IL,60188
Lowe's,OPELOUSAS,1822,#01822*,1130 EAST LANDRY STREET,LA,70570
Lowe's,WHITE LAKE,1823,#01823*,8550 HIGHLAND ROAD,MI,48386
Lowe's,MILWAUKIE,1824,#01824*,13631 SE JOHNSON ROAD,OR,97222
Lowe's,CORPUS CHRISTI,1825,#01825*,1530 AIRLINE ROAD,TX,78412
Lowe's,SPRINGDALE,1826,#01826*,4233 WEST SUNSET AVENUE,AR,72762
Lowe's,BROOKSVILLE,1827,#01827*,7117 BROAD STREET,FL,34601
Lowe's,ORLAND PARK,1828,#01828*,15601 SOUTH LAGRANGE ROAD,IL,60462
Lowe's,GURNEE,1829,#01829*,7735 WEST GRAND AVENUE,IL,60031
Lowe's,KANSAS CITY,1830,#01830*,6920 STATE AVENUE,KS,66102
Lowe's,WESTBOROUGH,1831,#01831*,260-266 TURNPIKE ROAD,MA,1581
Lowe's,N. DARTMOUTH,1832,#01832*,55 FAUNCE CORNER ROAD,MA,2747
Lowe's,COON RAPIDS,1833,#01833*,2700 MAIN STREET,MN,55448
Lowe's,BANNER ELK,1834,#01834*,2014 TYNECASTLE HIGHWAY,NC,28604
Lowe's,CARY,1835,#01835*,1920 NW MAYNARD ROAD,NC,27513
Lowe's,LAS VEGAS,1836,#01836*,851 SOUTH PAVILION CENTER DRIVE,NV,89144
Lowe's,WILLOW GROVE,1837,#01837*,4055 WELSH ROAD,PA,19090
Lowe's,POUNDING MILL,1838,#01838*,4375 INDIAN PAINT ROAD,VA,24637
Lowe's,MADISON HEIGHTS,1839,#01839*,150 RIVER JAMES SHOPPING CENTER,VA,24572
Lowe's,HIALEAH,1841,#01841*,17460 NORTHWEST 57TH AVENUE,FL,33015
Lowe's,JACKSONVILLE,1842,#01842*,8054 PHILIPS HIGHWAY,FL,32256
Lowe's,BRADENTON,1843,#01843*,4012 14TH STREET WEST,FL,34205
Lowe's,CHICAGO,1845,#01845*,2630 N. NARRAGANSETT AVENUE,IL,60639
Lowe's,CANTON,1847,#01847*,44080 FORD ROAD,MI,48187
Lowe's,PHILADELPHIA,1848,#01848*,9701 EAST ROOSEVELT BOULEVARD,PA,19114
Lowe's,PHILADELPHIA,1849,#01849*,2106 S. CHRISTOPHER COLUMBUS BOULEVARD,PA,19148
Lowe's,SCOTTSDALE,1850,#01850*,7950 EAST MCDOWELL ROAD,AZ,85257
Lowe's,PACOIMA,1852,#01852*,13500 PAXTON STREET,CA,91331
Lowe's,INVERNESS,1853,#01853*,2301 EAST GULF TO LAKE HIGHWAY,FL,34453
Lowe's,ZEPHYRHILLS,1854,#01854*,7921 GALL BOULEVARD,FL,33541
Lowe's,OCALA,1855,#01855*,4600 EAST SILVER SPRINGS BOULEVARD,FL,34470
Lowe's,HINESVILLE,1856,#01856*,735 WEST OGLETHORPE HIGHWAY,GA,31313
Lowe's,RAYNHAM,1857,#01857*,850 ROUTE 44,MA,2767
Lowe's,LEOMINSTER,1858,#01858*,198 NEW LANCASTER ROAD,MA,1453
Lowe's,ALLEN PARK,1859,#01859*,23111 OUTER DRIVE,MI,48101
Lowe's,NILES,1860,#01860*,2055 SOUTH 11TH STREET,MI,49120
Lowe's,RIO GRANDE,1861,#01861*,3171 ROUTE 9 SOUTH,NJ,8242
Lowe's,EAST BRUNSWICK,1862,#01862*,339 STATE HIGHWAY ROUTE 18,NJ,8816
Lowe's,LAS VEGAS,1863,#01863*,6050 WEST CRAIG ROAD,NV,89130
Lowe's,ITHACA,1864,#01864*,130 FAIRGROUNDS MEMORIAL PARKWAY,NY,14850
Lowe's,ROME,1865,#01865*,1230 ERIE BLVD. WEST,NY,13440
Lowe's,ATHENS,1866,#01866*,983 EAST STATE STREET,OH,45701
Lowe's,BETHLEHEM,1867,#01867*,1235 MARTIN COURT,PA,18018
Lowe's,BLOOMSBURG,1868,#01868*,50 LUNGER DRIVE,PA,17815
Lowe's,MILLINGTON,1869,#01869*,8490 HIGHWAY 51 NORTH,TN,38053
Lowe's,GAINESVILLE,1870,#01870*,13000 GATEWAY CENTER DRIVE,VA,20155
Lowe's,VALLEJO,1871,#01871*,401 COLUMBUS PARKWAY,CA,94591
Lowe's,CITY OF INDUSTRY,1872,#01872*,17789 CASTLETON STREET,CA,91748
Lowe's,NORTHRIDGE,1873,#01873*,19601 WEST NORDHOFF STREET,CA,91324
Lowe's,LONGMONT,1874,#01874*,355 KEN PRATT BOULEVARD,CO,80501
Lowe's,ATLANTA,1875,#01875*,1280 CAROLINE STREET NE,GA,30307
Lowe's,JEFFERSON,1877,#01877*,121 JEFFERSON HIGHWAY,LA,70121
Lowe's,APEX,1878,#01878*,1101 BEAVER CREEK COMMONS DRIVE,NC,27502
Lowe's,GREENLAND,1879,#01879*,1440 GREENLAND ROAD,NH,3840
Lowe's,AMSTERDAM,1880,#01880*,4825 STATE HIGHWAY 30,NY,12010
Lowe's,WILLIAMSVILLE,1881,#01881*,8150 TRANSIT ROAD,NY,14221
Lowe's,ORCHARD PARK,1882,#01882*,3195 SOUTHWESTERN BOULEVARD,NY,14127
Lowe's,AMHERST,1883,#01883*,1659 NIAGARA FALLS BOULEVARD,NY,14228
Lowe's,POTTSTOWN,1886,#01886*,1136 TOWN SQUARE ROAD,PA,19465
Lowe's,LONGVIEW,1887,#01887*,2850 OCEAN BEACH HIGHWAY,WA,98632
Lowe's,BECKLEY,1888,#01888*,1210 NORTH EISENHOWER DRIVE,WV,25801
Lowe's,MILFORD,1889,#01889*,40 FORTUNE BOULEVARD,MA,1757
Lowe's,MC MINNVILLE,1890,#01890*,"1339 SMITHVILLE HIGHWAY, SUITE 10",TN,37110
Lowe's,CLAREMORE,1891,#01891*,1746 SOUTH LYNN RIGGS BOULEVARD,OK,74019
Lowe's,PALESTINE,1892,#01892*,2715 SOUTH LOOP 256,TX,75801
Lowe's,JACKSON,1893,#01893*,2071 SOUTH HIGHLAND AVENUE,TN,38301
Lowe's,BEDFORD,1894,#01894*,3300 16TH STREET,IN,47421
Lowe's,FREMONT,1895,#01895*,43612 PACIFIC COMMONS BLVD,CA,94538
Lowe's,GRAND FORKS,1896,#01896*,4001 32ND AVENUE SOUTH,ND,58201
Lowe's,ORANGE PARK,1897,#01897*,2285 KINGSLEY AVENUE,FL,32073
Lowe's,ROSENBERG,1898,#01898*,28005 SOUTHWEST FREEWAY,TX,77471
Lowe's,SULPHUR,1899,#01899*,305 SOUTH CITIES SERVICE HIGHWAY,LA,70663
Lowe's,ALISO VIEJO,1900,#01900*,26501 ALISO CREEK ROAD,CA,92656
Lowe's,COTATI,1901,#01901*,7921 REDWOOD DRIVE,CA,94931
Lowe's,LAKEWOOD,1903,#01903*,10555 WEST COLFAX AVENUE,CO,80215
Lowe's,KALISPELL,1904,#01904*,2360 HIGHWAY 93 NORTH,MT,59901
Lowe's,GLENWOOD SPRINGS,1905,#01905*,215 WEST MEADOWS DRIVE,CO,81601
Lowe's,IDAHO FALLS,1906,#01906*,925 E 17TH STREET,ID,83404
Lowe's,BEDFORD,1907,#01907*,222 SOUTH RIVER ROAD,NH,3110
Lowe's,OSWEGO,1908,#01908*,445 STATE ROUTE 104,NY,13126
Lowe's,STAFFORD,1909,#01909*,1330 STAFFORD MARKET PLACE,VA,22556
Lowe's,KIMBALL,1910,#01910*,525 DIXIE LEE CENTER ROAD,TN,37347
Lowe's,RIVERVIEW,1911,#01911*,10425 GIBSONTON DRIVE,FL,33578
Lowe's,SOUTH BURLINGTON,1913,#01913*,189 HANNAFORD DRIVE,VT,5403
Lowe's,DEDHAM,1914,#01914*,306 PROVIDENCE HIGHWAY,MA,2026
Lowe's,HADLEY,1916,#01916*,282 RUSSELL STREET,MA,1035
Lowe's,FARMINGDALE,1917,#01917*,90 PRICE PARKWAY,NY,11735
Lowe's,CHARLOTTE,1920,#01920*,8826 ALBEMARLE ROAD,NC,28227
Lowe's,MARION,1922,#01922*,480 US 70 WEST,NC,28752
Lowe's,LOUISVILLE,1923,#01923*,2100 BASHFORD MANOR LANE,KY,40218
Lowe's,MARIANNA,1924,#01924*,4860 MALLOY PLAZA,FL,32448
Lowe's,CORNELIA,1925,#01925*,281 CARPENTERS COVE LANE,GA,30531
Lowe's,REDDING,1926,#01926*,1200 EAST CYPRESS AVENUE,CA,96002
Lowe's,SEEKONK,1932,#01932*,1000 FALL RIVER AVENUE,MA,2771
Lowe's,YUBA CITY,1933,#01933*,935 THARP ROAD,CA,95993
Lowe's,MOUNT POCONO,1934,#01934*,3207 ROUTE 940,PA,18344
Lowe's,SARASOTA,1935,#01935*,5750 FRUITVILLE ROAD,FL,34232
Lowe's,JERSEY CITY,1937,#01937*,727 ROUTE 440,NJ,7304
Lowe's,HACKETTSTOWN,1938,#01938*,217 MOUNTAIN AVENUE,NJ,7840
Lowe's,UNION,1939,#01939*,1721 MORRIS AVENUE,NJ,7083
Lowe's,BANGOR,1940,#01940*,70 SPRINGER DRIVE,ME,4401
Lowe's,OXNARD,1941,#01941*,301 WEST GONZALES ROAD,CA,93036
Lowe's,E. RUTHERFORD,1942,#01942*,150 ROUTE 17 NORTH,NJ,7073
Lowe's,SOMERSET,1944,#01944*,1730 NORTH CENTER AVENUE,PA,15501
Lowe's,DELAND,1945,#01945*,303 INTERNATIONAL SPEEDWAY BLVD,FL,32724
Lowe's,PORTLAND,1946,#01946*,1058 BRIGHTON AVENUE,ME,4102
Lowe's,BEE CAVE,1948,#01948*,12611 SUITE 100 SHOPS PARKWAY,TX,78738
Lowe's,MATAMORAS,1952,#01952*,115 WENLOCK ROAD,PA,18336
Lowe's,CORTLAND,1953,#01953*,872 ROUTE 13,NY,13045
Lowe's,PLYMOUTH,1955,#01955*,3205 VICKSBURG LANE NORTH,MN,55447
Lowe's,PLYMOUTH,1956,#01956*,1100 PILGRIM LANE,IN,46563
Lowe's,BUTLER,1957,#01957*,1210 ROUTE 23 NORTH,NJ,7405
Lowe's,MADISON,1958,#01958*,1821 EATONTON HIGHWAY,GA,30650
Lowe's,BLUEFIELD,1959,#01959*,515 COMMERCE DRIVE,VA,24605
Lowe's,WEST PALM BEACH,1962,#01962*,4701 OKEECHOBEE BOULEVARD,FL,33417
Lowe's,LINDALE,1965,#01965*,3200 SOUTH MAIN STREET,TX,75771
Lowe's,MAPLEWOOD,1966,#01966*,2300 MAPLEWOOD COMMONS DRIVE,MO,63143
Lowe's,ONEONTA,1967,#01967*,5283 STATE HIGHWAY 23,NY,13820
Lowe's,SHREVEPORT,1968,#01968*,7301 YOUREE DRIVE,LA,71105
Lowe's,WEATHERFORD,1969,#01969*,118 E INTERSTATE 20,TX,76087
Lowe's,SIMI VALLEY,1971,#01971*,1275 SIMI TOWN CENTER WAY,CA,93065
Lowe's,SANTA CLARITA,1972,#01972*,19001 GOLDEN VALLEY ROAD,CA,91321
Lowe's,COLONIE,1973,#01973*,1482 CENTRAL AVENUE,NY,12205
Lowe's,NEWTON,1976,#01976*,39 HAMPTON HOUSE ROAD,NJ,7860
Lowe's,SEABROOK,1979,#01979*,417 LAFAYETTE ROAD,NH,3874
Lowe's,TREVOSE,1980,#01980*,3421 HORIZON BOULEVARD,PA,19053
Lowe's,EASTON,1982,#01982*,501 GLEBE ROAD,MD,21601
Lowe's,GREENVILLE,1983,#01983*,1131 WOODRUFF ROAD,SC,29607
Lowe's,PRINCETON,1984,#01984*,1155 OAKVALE ROAD,WV,24740
Lowe's,FAIRBANKS,1985,#01985*,425 MERHAR AVENUE,AK,99701
Lowe's,BOILING SPRINGS,1986,#01986*,170 RAINBOW LAKE ROAD,SC,29316
Lowe's,LAKE ELSINORE,1987,#01987*,29335 CENTRAL AVENUE,CA,92532
Lowe's,OLIVE BRANCH,1988,#01988*,8370 CAMP CREEK BOULEVARD,MS,38654
Lowe's,WESTMINSTER,1989,#01989*,5600 WEST 88TH AVENUE,CO,80031
Lowe's,BREVARD,1990,#01990*,119 ECUSTA ROAD,NC,28712
Lowe's,ARDEN,2201,#02201*,19 MCKENNA ROAD,NC,28704
Lowe's,BULLHEAD CITY,2202,#02202*,1680 HIGHWAY 95,AZ,86442
Lowe's,CROWLEY,2203,#02203*,142 JULIA JOHN DRIVE,LA,70526
Lowe's,ATHENS,2204,#02204*,3341 LEXINGTON ROAD,GA,30605
Lowe's,FAYETTEVILLE,2205,#02205*,46 FAYETTE TOWN CENTER ROAD,WV,25840
Lowe's,MANITOWOC,2206,#02206*,4401 DEWEY STREET,WI,54220
Lowe's,NORTH AUGUSTA,2207,#02207*,1220 KNOX AVENUE,SC,29841
Lowe's,PHILADELPHIA,2208,#02208*,1105 CENTRAL DRIVE,MS,39350
Lowe's,PRESQUE ISLE,2209,#02209*,135 MAYSVILLE STREET,ME,4769
Lowe's,ROXBORO,2210,#02210*,2044 DURHAM ROAD,NC,27573
Lowe's,SUNNYVALE,2211,#02211*,811 EAST ARQUES AVENUE,CA,94085
Lowe's,TROY,2212,#02212*,1421 US HIGHWAY 231 SOUTH,AL,36081
Lowe's,WADSWORTH,2213,#02213*,1065 WILLIAMS RESERVE BOULEVARD,OH,44281
Lowe's,DURANT,2214,#02214*,720 UNIVERSITY PLACE,OK,74701
Lowe's,HANFORD,2215,#02215*,1955 WEST LACEY BOULEVARD,CA,93230
Lowe's,LEWISTOWN,2216,#02216*,10472 US HIGHWAY 522 SOUTH,PA,17044
Lowe's,ROCKY MOUNT,2217,#02217*,800 OLD FRANKLIN TURNPIKE,VA,24151
Lowe's,SAVANNAH,2218,#02218*,1895 WAYNE ROAD,TN,38372
Lowe's,TARENTUM,2219,#02219*,1005 VILLAGE CENTER DRIVE,PA,15084
Lowe's,CLEBURNE,2220,#02220*,2100 NORTH MAIN STREET,TX,76033
Lowe's,FT. MYERS,2221,#02221*,8040 DANI DRIVE,FL,33966
Lowe's,GREENSBORO,2222,#02222*,109 WEST ELMSLEY DRIVE,NC,27406
Lowe's,MECHANICSBURG,2223,#02223*,5500 CARLISLE PIKE,PA,17050
Lowe's,SEBRING,2224,#02224*,2050 US 27 NORTH,FL,33870
Lowe's,GRANBURY,2225,#02225*,1021 EAST HIGHWAY 377,TX,76048
Lowe's,OZARK,2226,#02226*,1800 WEST MARLER LANE,MO,65721
Lowe's,STOCKTON,2227,#02227*,10342 TRINITY PARKWAY,CA,95219
Lowe's,WAYNESBORO,2228,#02228*,12925 WASHINGTON TOWNSHIP BOULEVARD,PA,17268
Lowe's,MILL HALL,2229,#02229*,284 HOGAN BOULEVARD,PA,17751
Lowe's,BENTONVILLE,2230,#02230*,1100 N.W. LOWES AVENUE,AR,72712
Lowe's,CEDAR RAPIDS,2231,#02231*,5300 BLAIRS FOREST BLVD NE,IA,52402
Lowe's,LITHONIA,2232,#02232*,5375 FAIRINGTON ROAD,GA,30038
Lowe's,STONY BROOK,2233,#02233*,2150 NESCONSET HIGHWAY,NY,11790
Lowe's,LEESVILLE,2234,#02234*,2200 MCRAE STREET,LA,71446
Lowe's,DECATUR,2235,#02235*,1201 WEST US HIGHWAY 380 BUSINESS,TX,76234
Lowe's,MOUNTAIN HOME,2236,#02236*,124 CHARLES BLACKBURN DRIVE,AR,72653
Lowe's,MEMPHIS,2237,#02237*,585 NORTH PERKINS ROAD,TN,38122
Lowe's,KNOXVILLE,2239,#02239*,7520 MOUNTAIN GROVE DRIVE,TN,37920
Lowe's,LAKE WALES,2240,#02240*,23227 US HIGHWAY 27,FL,33859
Lowe's,PALM COAST,2241,#02241*,315 CYPRESS EDGE DRIVE,FL,32164
Lowe's,ELKRIDGE,2244,#02244*,8281 GATEWAY OVERLOOK DRIVE,MD,21075
Lowe's,LOUISVILLE,2245,#02245*,4930 NORTON HEALTHCARE BOULEVARD,KY,40241
Lowe's,PARKERSBURG,2246,#02246*,2 WALTON DRIVE,WV,26101
Lowe's,BETHEL PARK,2247,#02247*,5775 BAPTIST ROAD,PA,15102
Lowe's,SEAFORD,2248,#02248*,22880 SUSSEX HIGHWAY,DE,19973
Lowe's,NANUET,2249,#02249*,100 OVERLOOK BOULEVARD,NY,10954
Lowe's,POTSDAM,2250,#02250*,61 COUNTRY LANE,NY,13676
Lowe's,DAPHNE,2251,#02251*,29645 FREDERICK BOULEVARD,AL,36526
Lowe's,BARTONSVILLE,2252,#02252*,5027 WINDSOR DRIVE,PA,18321
Lowe's,LAKELAND,2253,#02253*,3600 NORTH ROAD 98,FL,33809
Lowe's,HIALEAH,2254,#02254*,1650 WEST 37TH STREET,FL,33012
Lowe's,W. JEFFERSON,2255,#02255*,158 LOWE'S DRIVE,NC,28694
Lowe's,HAMPSTEAD,2256,#02256*,106 WILKES LANE,NC,28443
Lowe's,SYLVA,2257,#02257*,1716 EAST MAIN STREET,NC,28779
Lowe's,NEWARK,2258,#02258*,2000 OGLETOWN ROAD,DE,19711
Lowe's,MANAHAWKIN,2260,#02260*,"297 ROUTE 72 WEST, SUITE 30",NJ,8050
Lowe's,NAPLES,2261,#02261*,12730 TAMIAMI TRAIL EAST,FL,34113
Lowe's,WATERFORD,2263,#02263*,167 WATERFORD PARKWAY NORTH,CT,6385
Lowe's,AUGUSTA,2265,#02265*,53 CROSSING WAY,ME,4330
Lowe's,QUINCY,2267,#02267*,599 THOMAS BURGIN PARKWAY,MA,2169
Lowe's,TORRANCE,2268,#02268*,2700 SKYPARK DRIVE,CA,90505
Lowe's,ONTARIO,2270,#02270*,2390 SOUTH GROVE AVENUE,CA,91761
Lowe's,LAS VEGAS,2271,#02271*,5825 SOUTH EASTERN AVENUE,NV,89119
Lowe's,CASA GRANDE,2272,#02272*,1436 EAST FLORENCE BOULEVARD,AZ,85122
Lowe's,DUBLIN,2273,#02273*,3750 DUBLIN BOULEVARD,CA,94568
Lowe's,CASTLE ROCK,2274,#02274*,1360 NEW BEALE STREET,CO,80108
Lowe's,SALT LAKE CITY,2275,#02275*,1335 SOUTH 300 WEST,UT,84115
Lowe's,HELENA,2277,#02277*,3291 NORTH SANDERS STREET,MT,59602
Lowe's,PORTERVILLE,2278,#02278*,500 WEST VANDALIA AVENUE,CA,93257
Lowe's,SONORA,2279,#02279*,120 OLD WARDS FERRY ROAD,CA,95370
Lowe's,DALLAS,2280,#02280*,6011 LEMMON AVENUE,TX,75209
Lowe's,BRANDON,2282,#02282*,1515 EAST BRANDON BOULEVARD,FL,33511
Lowe's,BROOKLYN,2284,#02284*,5602 AVENUE U,NY,11234
Lowe's,WALLINGFORD,2288,#02288*,1094 NORTH COLONY ROAD,CT,6492
Lowe's,ONEIDA,2289,#02289*,1200 LOWE'S DRIVE,NY,13421
Lowe's,BREWER,2291,#02291*,15 ARISTA DRIVE,ME,4412
Lowe's,LEHI,2293,#02293*,242 NORTH 1200 EAST,UT,84043
Lowe's,MENIFEE,2294,#02294*,30472 HAUN ROAD,CA,92584
Lowe's,BUCKEYE,2295,#02295*,700 SOUTH WATSON ROAD,AZ,85326
Lowe's,RIVERTON,2296,#02296*,12462 S. CREEK MEADOW ROAD,UT,84065
Lowe's,BRIDGETON,2299,#02299*,11974 PAUL MAYER AVENUE,MO,63044
Lowe's,SAINT LOUIS,2300,#02300*,932 LOUGHBOROUGH AVENUE,MO,63111
Lowe's,CHICAGO,2301,#02301*,8411 SOUTH HOLLAND ROAD,IL,60620
Lowe's,BELLEVILLE,2302,#02302*,2501 GREENMOUNT COMMONS,IL,62221
Lowe's,ARNOLD,2303,#02303*,920 ARNOLD COMMONS,MO,63010
Lowe's,CHICAGO,2304,#02304*,7971 SOUTH CICERO,IL,60652
Lowe's,ROCHESTER HILLS,2305,#02305*,3277 SOUTH ROCHESTER ROAD,MI,48307
Lowe's,OSHKOSH,2308,#02308*,1075 NORTH WASHBURN STREET,WI,54904
Lowe's,WAUWATOSA,2309,#02309*,12000 WEST BURLEIGH STREET,WI,53222
Lowe's,MACHESNEY PARK,2310,#02310*,9700 NORTH ALPINE ROAD,IL,61115
Lowe's,LAKE SAINT LOUIS,2311,#02311*,6302 RONALD REAGAN DRIVE,MO,63367
Lowe's,MADISON HEIGHTS,2312,#02312*,434 WEST TWELVE MILE,MI,48071
Lowe's,WEST ST. PAUL,2313,#02313*,1795 ROBERT STREET,MN,55118
Lowe's,REPUBLIC,2314,#02314*,1225 US HIGHWAY 60 EAST,MO,65738
Lowe's,OAK PARK HEIGHTS,2315,#02315*,5888 NOVA SCOTIA AVENUE NORTH,MN,55082
Lowe's,LUDINGTON,2318,#02318*,4460 WEST US 10,MI,49431
Lowe's,INDIANAPOLIS,2319,#02319*,4444 SOUTH EMERSON AVENUE,IN,46203
Lowe's,LITTLETON,2321,#02321*,1037 MEADOW STREET,NH,3561
Lowe's,GILFORD,2322,#02322*,1407 LAKESHORE ROAD,NH,3249
Lowe's,HIGHLAND,2326,#02326*,650 ROUTE 299,NY,12528
Lowe's,DERBY,2327,#02327*,496 NEW HAVEN AVENUE,CT,6418
Lowe's,PATERSON,2328,#02328*,265 MCLEAN BOULEVARD,NJ,7504
Lowe's,MIRA LOMA,2330,#02330*,6413 PATS RANCH ROAD,CA,91752
Lowe's,CARLSBAD,2331,#02331*,2515 PALOMAR AIRPORT RD,CA,92008
Lowe's,HIBBING,2333,#02333*,12025 HIGHWAY 169,MN,55746
Lowe's,TURLOCK,2334,#02334*,3303 ENTERTAINMENT WAY,CA,95380
Lowe's,JACKSON,2335,#02335*,12071 INDUSTRY BOULEVARD,CA,95642
Lowe's,HONOLULU,2336,#02336*,411 PACIFIC STREET,HI,96817
Lowe's,CINCINNATI,2338,#02338*,6150 HARRISON ROAD,OH,45247
Lowe's,STRONGSVILLE,2339,#02339*,9149 PEARL ROAD,OH,44136
Lowe's,WICHITA,2340,#02340*,2626 NORTH MAIZE ROAD,KS,67205
Lowe's,RANCHO CORDOVA,2341,#02341*,3251 ZINFANDEL DRIVE,CA,95670
Lowe's,HILLSBORO,2343,#02343*,107 SOUTH CAREYTOWN ROAD,OH,45133
Lowe's,PASCO,2344,#02344*,4520 ROAD 68,WA,99301
Lowe's,LEXINGTON,2345,#02345*,2300 GREY LAG WAY,KY,40509
Lowe's,FEDERAL WAY,2346,#02346*,35425 ENCHANTED PARKWAY SOUTH,WA,98003
Lowe's,CHARLOTTE,2348,#02348*,217 IVERSON WAY,NC,28203
Lowe's,PORT ST. LUCIE,2349,#02349*,701 NW ST. LUCIE WEST BOULEVARD,FL,34986
Lowe's,WAVELAND,2350,#02350*,9020 HIGHWAY 603,MS,39576
Lowe's,INDIAN HARBOUR BEACH,2351,#02351*,1934 HIGHWAY A1A,FL,32937
Lowe's,CHARLOTTE,2352,#02352*,10275 PERIMETER PARKWAY,NC,28216
Lowe's,LA PLATA,2354,#02354*,300 ROSEWICK ROAD,MD,20646
Lowe's,STATE COLLEGE,2355,#02355*,104 VALLEY VISTA DRIVE,PA,16803
Lowe's,COLUMBIA,2356,#02356*,10106 TWO NOTCH ROAD,SC,29223
Lowe's,HAGERSTOWN,2357,#02357*,12809 SHANK FARM WAY,MD,21740
Lowe's,GAFFNEY,2358,#02358*,1601 WEST FLOYD BAKER BOULEVARD,SC,29341
Lowe's,TAMPA,2360,#02360*,12901 N. DALE MABRY HIGHWAY,FL,33618
Lowe's,CAPE CORAL,2361,#02361*,285 SW 25TH LANE,FL,33914
Lowe's,ESTERO,2362,#02362*,10070 ESTERO TOWN COMMONS PLACE,FL,33928
Lowe's,KISSIMMEE,2363,#02363*,4420 PLEASANT HILL ROAD,FL,34746
Lowe's,DELTONA,2364,#02364*,2170 HOWLAND BOULEVARD,FL,32738
Lowe's,GAINESVILLE,2365,#02365*,2564 N.W. 13TH STREET,FL,32609
Lowe's,EVANS,2366,#02366*,4305 WASHINGTON ROAD,GA,30809
Lowe's,PANAMA CITY BEACH,2367,#02367*,11751 PANAMA CITY BEACH PARKWAY,FL,32407
Lowe's,KANNAPOLIS,2368,#02368*,3025 DALE EARNHARDT BOULEVARD,NC,28083
Lowe's,JACKSON,2369,#02369*,2250 GREENWAY DRIVE,MS,39204
Lowe's,HICKORY,2370,#02370*,1450 2ND STREET NE,NC,28601
Lowe's,CYPRESS,2371,#02371*,14128 CYPRESS-ROSEHILL ROAD,TX,77429
Lowe's,SAUGUS,2372,#02372*,1500 BROADWAY,MA,1906
Lowe's,CONWAY,2374,#02374*,32 MOUNTAIN VALLEY BOULEVARD,NH,3818
Lowe's,HUDSON,2375,#02375*,6 HIGHLAND COMMON EAST,MA,1749
Lowe's,WAREHAM,2376,#02376*,"2421 CRANBERRY HIGHWAY, SUITE 100",MA,2571
Lowe's,PHILADELPHIA,2378,#02378*,1500 NORTH 50TH STREET,PA,19131
Lowe's,LIVERPOOL,2379,#02379*,3856 STATE ROUTE 31,NY,13090
Lowe's,SYRACUSE,2380,#02380*,131 SIMON DRIVE,NY,13224
Lowe's,SALEM,2382,#02382*,541 SOUTH BROADWAY,NH,3079
Lowe's,CROMWELL,2383,#02383*,90 BERLIN ROAD,CT,6416
Lowe's,FRAMINGHAM,2384,#02384*,350 COCHITUATE ROAD,MA,1701
Lowe's,SAYRE,2385,#02385*,2151 ELMIRA STREET,PA,18840
Lowe's,WARE,2386,#02386*,348 PALMER ROAD,MA,1082
Lowe's,SANFORD,2388,#02388*,1900 MAIN STREET,ME,4073
Lowe's,VOORHEES,2389,#02389*,144 ROUTE 73 NORTH,NJ,8043
Lowe's,NASHUA,2391,#02391*,143 DANIEL WEBSTER HIGHWAY,NH,3060
Lowe's,PLAINVILLE,2393,#02393*,201 WASHINGTON STREET,MA,2762
Lowe's,TORRINGTON,2395,#02395*,420 WINSTED ROAD,CT,6790
Lowe's,DAYVILLE,2396,#02396*,1150 KILLINGLY COMMONS DRIVE,CT,6241
Lowe's,WARWICK,2397,#02397*,555 GREENWICH AVENUE,RI,2886
Lowe's,NORWICH,2399,#02399*,5411 STATE HIGHWAY 12,NY,13815
Lowe's,HERKIMER,2400,#02400*,182 LOWES BOULEVARD,NY,13350
Lowe's,OGDENSBURG,2401,#02401*,2001 FORD STREET EXTENSION,NY,13669
Lowe's,SEWELL,2402,#02402*,611 WOODBURY GLASSBORO ROAD,NJ,8080
Lowe's,AVONDALE,2405,#02405*,561 HEPBURN ROAD,PA,19311
Lowe's,SCARBOROUGH,2407,#02407*,1000 GALLERY BOULEVARD,ME,4074
Lowe's,YORK,2409,#02409*,1175 CARLISLE ROAD,PA,17404
Lowe's,GIBSONIA,2411,#02411*,700 GRANDVIEW CROSSING ROAD,PA,15044
Lowe's,EDWARDSVILLE,2412,#02412*,50 WEST SIDE MALL,PA,18704
Lowe's,POCOMOKE CITY,2414,#02414*,275 NEWTOWN BOULEVARD,MD,21851
Lowe's,CARNEGIE,2417,#02417*,2100 WASHINGTON PIKE,PA,15106
Lowe's,RUSTON,2418,#02418*,809 MORRISON DRIVE,LA,71270
Lowe's,LITTLETON,2419,#02419*,5095 S. SANTA FE DRIVE,CO,80120
Lowe's,RENTON,2420,#02420*,1000 GARDEN AVENUE NORTH,WA,98055
Lowe's,PHOENIX,2421,#02421*,1950 WEST BASELINE ROAD,AZ,85041
Lowe's,COLORADO SPRINGS,2423,#02423*,4880 N NEVADA AVENUE,CO,80918
Lowe's,BAKERSFIELD,2424,#02424*,1601 COLUMBUS STREET,CA,93305
Lowe's,MANCHESTER,2428,#02428*,1053 HIGHWAY 70,NJ,8759
Lowe's,NEW CASTLE,2429,#02429*,2225 HESSLER BOULEVARD,DE,19720
Lowe's,PARAMUS,2431,#02431*,2000 BERGEN TOWN CENTER,NJ,7652
Lowe's,WESTMINSTER,2432,#02432*,13650 ORCHARD PARKWAY,CO,80023
Lowe's,BROCKPORT,2434,#02434*,300 OWENS ROAD,NY,14420
Lowe's,BROOKINGS,2435,#02435*,812 25TH AVENUE,SD,57006
Lowe's,CAPE CARTERET,2436,#02436*,401 WB MCLEAN DRIVE,NC,28584
Lowe's,CLERMONT,2437,#02437*,1501 SANDY GROVE AVENUE,FL,34711
Lowe's,CLERMONT,2438,#02438*,16905 CAGAN CROSSINGS BOULEVARD,FL,34714
Lowe's,EULESS,2440,#02440*,3000 S.H. 121,TX,76039
Lowe's,FORNEY,2441,#02441*,902 HIGHWAY 80,TX,75126
Lowe's,FORT MILL,2442,#02442*,1640 HIGHWAY 160 WEST,SC,29708
Lowe's,HORNELL,2444,#02444*,949 STATE ROUTE 36,NY,14843
Lowe's,PITTSBORO,2448,#02448*,121 LOWE'S DRIVE,NC,27312
Lowe's,ROCHESTER,2449,#02449*,"160 WASHINGTON STREET, SUITE 800",NH,3839
Lowe's,ROCKY RIVER,2450,#02450*,20639 CENTER RIDGE ROAD,OH,44116
Lowe's,OWENS CROSS ROADS,2451,#02451*,6584 US HIGHWAY 431 SOUTH,AL,35763
Lowe's,SOUTH SAN FRANCISCO,2452,#02452*,720 DUBUQUE AVENUE,CA,94080
Lowe's,SPRINGVILLE,2453,#02453*,440 SOUTH CASCADE DRIVE,NY,14141
Lowe's,AUBURNDALE,2457,#02457*,2301 US HIGHWAY 92 WEST,FL,33823
Lowe's,RADFORD,2458,#02458*,6115 LOWES DRIVE,VA,24141
Lowe's,CHILLICOTHE,2459,#02459*,100 WEST BUSINESS 36,MO,64601
Lowe's,PADUCAH,2460,#02460*,3131 IRVIN COBB DRIVE,KY,42003
Lowe's,LIVE OAK,2462,#02462*,208 72ND TRACE,FL,32064
Lowe's,GOOSE CREEK,2464,#02464*,520 SAINT JAMES AVENUE,SC,29445
Lowe's,BLAINE,2465,#02465*,11651 ULYSESS STREET,MN,55434
Lowe's,SIOUX FALLS,2466,#02466*,4601 W. 26TH STREET,SD,57106
Lowe's,HARLINGEN,2468,#02468*,4705 SOUTH EXPRESSWAY 77/83,TX,78550
Lowe's,NEW ORLEANS,2470,#02470*,2501 ELYSIAN FIELDS AVENUE,LA,70117
Lowe's,BRYANT,2471,#02471*,2330 NORTH REYNOLDS ROAD,AR,72022
Lowe's,JACKSONVILLE,2472,#02472*,13125 CITY SQUARE DRIVE,FL,32218
Lowe's,TULARE,2473,#02473*,1145 EAST PROSPERITY AVENUE,CA,93274
Lowe's,SPRING HILL,2474,#02474*,2000 BELSHIRE WAY,TN,37174
Lowe's,ELVERSON,2476,#02476*,340 CROSSING BOULEVARD,PA,19520
Lowe's,LAS VEGAS,2477,#02477*,2465 N NELLIS BOULEVARD,NV,89115
Lowe's,KATHLEEN,2478,#02478*,1109 HIGHWAY 96,GA,31047
Lowe's,BRIGHTON,2479,#02479*,4980 EAST BROMLEY LANE,CO,80601
Lowe's,SAN ANTONIO,2480,#02480*,18303 RIM DRIVE,TX,78257
Lowe's,ESCONDIDO,2481,#02481*,620 WEST MISSION AVENUE,CA,92025
Lowe's,CATSKILL,2483,#02483*,60 CATSKILL COMMONS,NY,12414
Lowe's,BATON ROUGE,2484,#02484*,1777 MILLERVILLE ROAD,LA,70816
Lowe's,EDINBURG,2485,#02485*,2802 WEST UNIVERSITY DRIVE,TX,78539
Lowe's,APPLETON,2486,#02486*,W3255 VAN ROY ROAD,WI,54915
Lowe's,MILAN,2487,#02487*,15471 SOUTH FIRST STREET,TN,38358
Lowe's,NORTHPORT,2488,#02488*,5703 MCFARLAND BOULEVARD,AL,35476
Lowe's,KINGSLAND,2489,#02489*,1410 EAST BOONE AVENUE,GA,31548
Lowe's,MAYFIELD,2490,#02490*,1208C PARIS ROAD,KY,42066
Lowe's,SILOAM SPRINGS,2491,#02491*,3499 HIGHWAY 412 E,AR,72761
Lowe's,THOMASTON,2496,#02496*,164 NEW COUNTY ROAD,ME,4861
Lowe's,MAYSVILLE,2497,#02497*,314 EAST MAPLE LEAF ROAD,KY,41056
Lowe's,LINCOLN,2499,#02499*,51 LINCOLN BLVD.,CA,95648
Lowe's,KENT,2500,#02500*,218 NICHOLAS WAY,OH,44240
Lowe's,FARMINGTON,2501,#02501*,5451 EAST PINON HILLS BOULEVARD,NM,87402
Lowe's,LANCASTER,2502,#02502*,730 WEST AVENUE K,CA,93534
Lowe's,ALTOONA,2503,#02503*,3610 8TH STREET SW,IA,50009
Lowe's,DERBY,2504,#02504*,424 WEST PATRIOT AVENUE,KS,67037
Lowe's,MURPHY,2505,#02505*,198 BULLDOG DRIVE,NC,28906
Lowe's,ARANSAS PASS,2506,#02506*,150 SOUTH FM 1069,TX,78336
Lowe's,LEWISBURG,2507,#02507*,20 GATEWAY BOULEVARD,WV,24901
Lowe's,ANTIOCH,2508,#02508*,5503 LONE TREE WAY,CA,94531
Lowe's,ELIZABETHTON,2509,#02509*,925 PATRIOT DRIVE,TN,37643
Lowe's,ESPANOLA,2510,#02510*,407 LOWDERMILK LANE,NM,87532
Lowe's,SIDNEY,2511,#02511*,2700 MICHIGAN STREET,OH,45365
Lowe's,WASILLA,2512,#02512*,2561 EAST SUN MOUNTAIN AVENUE,AK,99654
Lowe's,AUSTIN,2513,#02513*,6400 BRODIE LANE,TX,78745
Lowe's,AUBURN,2514,#02514*,650 TURNER STREET,ME,4210
Lowe's,FLOWER MOUND,2516,#02516*,6200 LONG PRAIRIE ROAD,TX,75028
Lowe's,MEBANE,2517,#02517*,200 LOWES BOULEVARD,NC,27302
Lowe's,OWATONNA,2518,#02518*,1280 21ST AVENUE NW,MN,55060
Lowe's,STARKVILLE,2519,#02519*,882 HIGHWAY 12 WEST,MS,39759
Lowe's,NEWBERRY,2520,#02520*,2911 MAIN STREET,SC,29108
Lowe's,BRENHAM,2521,#02521*,2750 HIGHWAY 36 SOUTH,TX,77833
Lowe's,LAWRENCEBURG,2522,#02522*,970 WEST EADS PARKWAY,IN,47025
Lowe's,FRANKLIN,2523,#02523*,2219 NORTH MORTON STREET,IN,46131
Lowe's,GREENVILLE,2524,#02524*,1550 WAGNER AVENUE,OH,45331
Lowe's,ALABASTER,2525,#02525*,235 COLONIAL PROMENADE PARKWAY,AL,35007
Lowe's,AMHERST,2526,#02526*,"124 ROUTE 101A, UNIT 15",NH,3031
Lowe's,MESA,2527,#02527*,1229 S. ELLSWORTH ROAD,AZ,85209
Lowe's,APPLE VALLEY,2528,#02528*,12189 APPLE VALLEY ROAD,CA,92308
Lowe's,ARLINGTON HEIGHTS,2529,#02529*,990 WEST ALGONQUIN ROAD,IL,60005
Lowe's,BARDSTOWN,2530,#02530*,3790 EAST JOHN ROWAN BOULEVARD,KY,40004
Lowe's,BARTOW,2531,#02531*,425 EAST VAN FLEET DRIVE,FL,33830
Lowe's,BIG RAPIDS,2532,#02532*,21555 PERRY AVENUE,MI,49307
Lowe's,BISMARCK,2533,#02533*,1401 CENTURY AVENUE WEST,ND,58503
Lowe's,BLYTHEVILLE,2534,#02534*,3790 EAST MAIN STREET,AR,72315
Lowe's,BOLINGBROOK,2535,#02535*,245 SOUTH WEBER ROAD,IL,60490
Lowe's,BRUNSWICK,2536,#02536*,250 BATH ROAD,ME,4011
Lowe's,CAMDEN,2537,#02537*,516 WALMART DRIVE,DE,19934
Lowe's,CAMILLUS,2538,#02538*,5377 WEST GENESEE STREET,NY,13031
Lowe's,ALBUQUERQUE,2539,#02539*,2001 12TH STREET NW,NM,87104
Lowe's,OKLAHOMA CITY,2540,#02540*,3801 NORTH MAY AVENUE,OK,73112
Lowe's,CICERO,2541,#02541*,5701 EAST CIRCLE DRIVE,NY,13039
Lowe's,CLARKSVILLE,2542,#02542*,1350 VETERANS PARKWAY,IN,47129
Lowe's,COLLIERVILLE,2543,#02543*,425 NEW BYHALIA ROAD,TN,38017
Lowe's,DANBURY,2544,#02544*,67 EAGLE ROAD,CT,6810
Lowe's,DELAVAN,2545,#02545*,2015 EAST GENEVA STREET,WI,53115
Lowe's,FT. WORTH,2546,#02546*,1111 EASTCHASE PARKWAY,TX,76120
Lowe's,PALMDALE,2547,#02547*,37080 47TH STREET EAST,CA,93552
Lowe's,SPARTANBURG,2548,#02548*,2079 EAST MAIN STREET,SC,29307
Lowe's,EL CENTRO,2550,#02550*,2053 NORTH IMPERIAL AVENUE,CA,92243
Lowe's,EPPING,2551,#02551*,36 FRESH RIVER ROAD,NH,3042
Lowe's,FLEMINGTON,2552,#02552*,150 ROUTE 31,NJ,8822
Lowe's,FLOWOOD,2553,#02553*,120 RIDGE WAY,MS,39232
Lowe's,FRANKLIN,2554,#02554*,7027 SOUTH 27TH STREET,WI,53132
Lowe's,FRONT ROYAL,2555,#02555*,80 RIVERTON COMMONS DRIVE,VA,22630
Lowe's,SANTA FE,2556,#02556*,3458 ZAFARANO ROAD,NM,87507
Lowe's,PHOENIX,2557,#02557*,"2501 W. HAPPY VALLEY ROAD, BLDG 40",AZ,85085
Lowe's,HENDERSON,2558,#02558*,2190 US HIGHWAY 60 EAST,KY,42420
Lowe's,HENDERSON,2559,#02559*,1603 US HIGHWAY 79 SOUTH,TX,75654
Lowe's,KENOSHA,2560,#02560*,6500 GREEN BAY ROAD,WI,53142
Lowe's,KENT,2561,#02561*,24050 PACIFIC HIGHWAY SOUTH,WA,98032
Lowe's,LAKE HAVASU CITY,2562,#02562*,4000 HIGHWAY 95N,AZ,86404
Lowe's,LAUREL,2563,#02563*,1490 HIGHWAY 15 NORTH,MS,39440
Lowe's,LAURINBURG,2564,#02564*,910 US 15-401 BY-PASS,NC,28352
Lowe's,LEBANON,2565,#02565*,190 EAST HIGHWAY 32,MO,65536
Lowe's,LEHIGHTON,2566,#02566*,1204 BLAKESLEE BLVD DRIVE EAST,PA,18235
Lowe's,LITTLE ELM,2567,#02567*,2773 EAST ELDORADO PARKWAY,TX,75068
Lowe's,LOVELAND,2568,#02568*,1355 SCULPTOR DRIVE,CO,80537
Lowe's,NEW HUDSON,2570,#02570*,30547 LYON CENTER DRIVE EAST,MI,48165
Lowe's,MCALESTER,2571,#02571*,530 SOUTH GEORGE NIGH EXPRESSWAY,OK,74501
Lowe's,MECHANICSVILLE,2572,#02572*,6425 MECHANICSVILLE TURNPIKE,VA,23111
Lowe's,MERIDIAN,2573,#02573*,3400 NORTH EAGLE ROAD,ID,83646
Lowe's,MIDWEST CITY,2574,#02574*,7151 SE 29TH STREET,OK,73110
Lowe's,MOCKSVILLE,2575,#02575*,1427 YADKINVILLE ROAD,NC,27028
Lowe's,MONETT,2576,#02576*,925 EAST US HIGHWAY 60,MO,65708
Lowe's,MT. DORA,2577,#02577*,18795 US HIGHWAY 441,FL,32757
Lowe's,COLORADO SPRINGS,2578,#02578*,4252 ROYAL PINE DRIVE,CO,80920
Lowe's,PORTLAND,2579,#02579*,1160 N. HAYDEN MEADOWS DRIVE,OR,97217
Lowe's,NEW LENOX,2580,#02580*,2480 EAST LINCOLN HIGHWAY,IL,60451
Lowe's,NICHOLASVILLE,2581,#02581*,1421 KEENE ROAD,KY,40356
Lowe's,CHANDLER,2582,#02582*,4300 SOUTH ARIZONA AVENUE,AZ,85248
Lowe's,PALM DESERT,2583,#02583*,35900 MONTEREY AVENUE,CA,92211
Lowe's,PALMYRA,2584,#02584*,70 NORTH LONDONDERRY SQUARE,PA,17078
Lowe's,PETOSKEY,2585,#02585*,2140 ANDERSON ROAD,MI,49770
Lowe's,PLOVER,2586,#02586*,230 CROSSROADS DRIVE,WI,54467
Lowe's,POCATELLO,2587,#02587*,650 BULLOCK STREET,ID,83202
Lowe's,ROELAND PARK,2588,#02588*,4960 ROE BOULEVARD,KS,66205
Lowe's,ABINGDON,2589,#02589*,414 CONSTANT FRIENDSHIP BOULEVARD,MD,21009
Lowe's,BRISTOL,2591,#02591*,1340 VOLUNTEER PARKWAY,TN,37620
Lowe's,SHELBYVILLE,2592,#02592*,544 TAYLORSVILLE ROAD,KY,40065
Lowe's,SOUTH BEND,2593,#02593*,250 WEST IRELAND ROAD,IN,46614
Lowe's,SEVERN,2594,#02594*,415 GEORGE CLAUSS BOULEVARD,MD,21144
Lowe's,SPARTANBURG,2595,#02595*,120 EAST BLACKSTOCK ROAD,SC,29301
Lowe's,THIBODAUX,2596,#02596*,614 NORTH CANAL,LA,70301
Lowe's,TWIN FALLS,2597,#02597*,1350 BLUE LAKES BOULEVARD NORTH,ID,83301
Lowe's,VAN BUREN,2598,#02598*,2120 FAYETTEVILLE ROAD,AR,72956
Lowe's,WARRENSBURG,2600,#02600*,912 NORTH COLLEGE AVENUE,MO,64093
Lowe's,WAXAHACHIE,2601,#02601*,1420 N. HIGHWAY 77,TX,75165
Lowe's,WAYNESBORO,2602,#02602*,801 LEW DEWITT BOULEVARD,VA,22980
Lowe's,XENIA,2603,#02603*,126 HOSPITALITY DRIVE,OH,45385
Lowe's,CONCORD,2604,#02604*,1935 ARNOLD INDUSTRIAL WAY,CA,94520
Lowe's,TUSTIN,2605,#02605*,2500 PARK AVENUE,CA,92782
Lowe's,SANDY,2606,#02606*,9291 SOUTH QUARRY BEND DRIVE,UT,84094
Lowe's,FOUNTAIN,2607,#02607*,7710 FOUNTAIN MESA ROAD,CO,80817
Lowe's,BOZEMAN,2608,#02608*,1731 TSCHACHE LANE,MT,59718
Lowe's,NEWPORT,2609,#02609*,120 EPLEY ROAD,TN,37821
Lowe's,TILTON,2610,#02610*,48 LOWES DRIVE,NH,3276
Lowe's,PAPILLION,2611,#02611*,8707 SOUTH 71ST PLAZA,NE,68133
Lowe's,HICKSVILLE,2612,#02612*,920 SOUTH BROADWAY,NY,11801
Lowe's,CLEARFIELD,2613,#02613*,100 LOWES BOULEVARD,PA,16830
Lowe's,WARREN,2614,#02614*,2625 MARKET STREET,PA,16365
Lowe's,CONCORD,2617,#02617*,90 FORT EDDY ROAD,NH,3301
Lowe's,GALLATIN,2618,#02618*,1301 NASHVILLE PIKE,TN,37066
Lowe's,KEIZER,2619,#02619*,6225 ULALI DRIVE NE,OR,97303
Lowe's,MADISON,2620,#02620*,128 GRANDVIEW BOULEVARD,MS,39110
Lowe's,MOULTRIE,2621,#02621*,602 VETERAN'S PARKWAY NORTH,GA,31788
Lowe's,RIDGELAND,2622,#02622*,910 EAST COUNTY LINE,MS,39157
Lowe's,FREDERICKSBURG,2623,#02623*,10101 SOUTHPOINT PARKWAY,VA,22407
Lowe's,TAPPAHANNOCK,2624,#02624*,2000 TAPPAHANNOCK BOULEVARD,VA,22560
Lowe's,WHEELING,2625,#02625*,2801 CHAPLINE STREET,WV,26003
Lowe's,RAYMORE,2626,#02626*,225 NORTH DEAN AVENUE,MO,64083
Lowe's,MAPLE GROVE,2627,#02627*,11201 FOUNTAINS DRIVE NORTH,MN,55369
Lowe's,SHAKOPEE,2628,#02628*,4270 DEAN LAKES BOULEVARD,MN,55379
Lowe's,WINDHAM,2629,#02629*,64 MANCHESTER DRIVE,ME,4062
Lowe's,SICKLERVILLE,2630,#02630*,485 CROSS KEYS ROAD,NJ,8081
Lowe's,WEAVERVILLE,2634,#02634*,24 NORTHRIDGE COMMONS PARKWAY,NC,28787
Lowe's,DENVER,2636,#02636*,7144 HIGHWAY 73,NC,28037
Lowe's,WOODSTOCK,2637,#02637*,1220 HENRY FORD DRIVE,VA,22664
Lowe's,WAXHAW,2638,#02638*,2508 CUTHBERTSON ROAD,NC,28173
Lowe's,TAMPA,2639,#02639*,13841 W. HILLSBOROUGH AVENUE,FL,33635
Lowe's,BRUNSWICK,2643,#02643*,300 GLYNN ISLES,GA,31525
Lowe's,PALM BAY,2644,#02644*,1166 MALABAR ROAD,FL,32907
Lowe's,GONZALES,2645,#02645*,12484 AIRLINE HIGHWAY,LA,70737
Lowe's,GREENVILLE,2646,#02646*,3122 INTERSTATE 30 WEST,TX,75402
Lowe's,CARTHAGE,2647,#02647*,433 WEST FIR ROAD,MO,64836
Lowe's,WEST DES MOINES,2648,#02648*,450 SOUTH JORDAN CREEK PARKWAY,IA,50266
Lowe's,WEST CHESTER,2649,#02649*,7975 TYLERSVILLE SQUARE ROAD,OH,45069
Lowe's,BELMONT,2650,#02650*,200 CALDWELL FARM ROAD,NC,28012
Lowe's,WINTER GARDEN,2651,#02651*,3391 DANIELS ROAD,FL,34787
Lowe's,FERN PARK,2652,#02652*,6735 SOUTH US HIGHWAY 17-92,FL,32730
Lowe's,WINSTON SALEM,2653,#02653*,1450 LUMBER LANE,NC,27127
Lowe's,MT. JULIET,2654,#02654*,"300 PLEASANT GROVE RD, SUITE 200",TN,37122
Lowe's,MOORE,2655,#02655*,1501 SOUTH I-35 SERVICE ROAD,OK,73160
Lowe's,MCALLEN,2656,#02656*,5700 NORTH 10TH STREET,TX,78504
Lowe's,LOWELL,2657,#02657*,50 LOWES WAY,MA,1851
Lowe's,MILFORD,2658,#02658*,311 OLD GATE LANE,CT,6460
Lowe's,ANNISTON,2659,#02659*,4901 MCCLELLAN BOULEVARD,AL,36206
Lowe's,VISALIA,2660,#02660*,3020 NORTH DEMAREE STREET,CA,93291
Lowe's,FERNLEY,2661,#02661*,375 STANLEY DRIVE,NV,89408
Lowe's,WEST BOUNTIFUL,2662,#02662*,350 NORTH 545 WEST,UT,84087
Lowe's,SIERRA VISTA,2663,#02663*,3700 MARTIN LUTHER KING PARKWAY,AZ,85635
Lowe's,ROSEDALE,2664,#02664*,253-01 ROCKAWAY BOULEVARD,NY,11422
Lowe's,LONDON,2666,#02666*,136 KEAVY ROAD,KY,40744
Lowe's,MACEDON,2668,#02668*,1605 MACEDON PARKWAY,NY,14502
Lowe's,BROWNSVILLE,2669,#02669*,525 EAST RUBEN TORRES BOULEVARD,TX,78520
Lowe's,HUTTO,2670,#02670*,201 ED SCHMIDT BOULEVARD,TX,78634
Lowe's,APOPKA,2673,#02673*,1651 WEST ORANGE BLOSSOM TRAIL,FL,32712
Lowe's,AMERICUS,2674,#02674*,1700 EAST LAMAR STREET,GA,31709
Lowe's,BAYONNE,2676,#02676*,400 BAYONNE CROSSING WAY,NJ,7002
Lowe's,BROWNSBURG,2681,#02681*,630 WEST NORTHFIELD DRIVE,IN,46112
Lowe's,CAREFREE,2683,#02683*,34700 N. CAVE CREEK ROAD,AZ,85377
Lowe's,CHESTER,2685,#02685*,3924 SUMMERVILLE WAY,NY,10918
Lowe's,LANCASTER,2687,#02687*,1845 HEMPSTEAD ROAD,PA,17601
Lowe's,NEW ORLEANS,2690,#02690*,5770 READ BOULEVARD,LA,70127
Lowe's,HENRICO,2691,#02691*,4551 S. LABURNUM AVENUE,VA,23231
Lowe's,ESSEX JUNCTION,2693,#02693*,10 SUSIE WILSON ROAD,VT,5452
Lowe's,FORT COLLINS,2697,#02697*,4227 CORBETT DRIVE,CO,80525
Lowe's,FRANKLIN,2698,#02698*,1240 ARMORY DRIVE,VA,23851
Lowe's,GAUTIER,2700,#02700*,3200 HIGHWAY 90,MS,39553
Lowe's,GLENVILLE,2701,#02701*,93 FREEMANS BRIDGE ROAD,NY,12302
Lowe's,HAINES CITY,2702,#02702*,37051 US HIGHWAY 27,FL,33844
Lowe's,HAMBURG,2704,#02704*,4950 SOUTHWESTERN BOULEVARD,NY,14075
Lowe's,HATFIELD,2706,#02706*,160 FORTY FOOT ROAD,PA,19440
Lowe's,HOMESTEAD,2707,#02707*,1850 NE CAMPBELL DRIVE,FL,33033
Lowe's,JEFFERSON CITY,2709,#02709*,638 E. BROADWAY BOULEVARD,TN,37760
Lowe's,MADERA,2712,#02712*,2100 WEST CLEVELAND AVENUE,CA,93637
Lowe's,LOS ANGELES,2714,#02714*,4550 WEST PICO BOULEVARD UNIT D-101,CA,90019
Lowe's,PACE,2715,#02715*,5143 HIGHWAY 90,FL,32571
Lowe's,ABILENE,2719,#02719*,1634 MUSGRAVE BOULEVARD,TX,79601
Lowe's,NORTH LAS VEGAS,2721,#02721*,2570 EAST CRAIG ROAD,NV,89030
Lowe's,NORTH SMITHFIELD,2723,#02723*,19 DOWLING VILLAGE BLVD,RI,2896
Lowe's,WINCHESTER,2724,#02724*,261 MARKET STREET,VA,22602
Lowe's,NASHVILLE,2725,#02725*,5520 NOLENSVILLE PIKE,TN,37211
Lowe's,NEW HARTFORD,2726,#02726*,4699 MIDDLE SETTLEMENT ROAD,NY,13413
Lowe's,NORTH PORT,2727,#02727*,5601 TUSCOLA BOULEVARD,FL,34287
Lowe's,NORTHBROOK,2728,#02728*,1000 WILLOW ROAD,IL,60062
Lowe's,SULLIVAN,2729,#02729*,760 EAGLES COURT,MO,63080
Lowe's,PASO ROBLES,2730,#02730*,2445 GOLDEN HILL ROAD,CA,93446
Lowe's,EAST PATCHOGUE,2731,#02731*,825 MONTAUK HIGHWAY,NY,11772
Lowe's,PHILADELPHIA,2732,#02732*,3800 ARAMINGO AVENUE,PA,19137
Lowe's,PORT ORCHARD,2733,#02733*,150 SEDGWICK ROAD,WA,98366
Lowe's,PUYALLUP,2734,#02734*,3511 5TH STREET SE,WA,98374
Lowe's,ROCHESTER,2736,#02736*,4550 MAINE AVENUE SE,MN,55904
Lowe's,JACKSONVILLE,2737,#02737*,425 YOPP ROAD,NC,28540
Lowe's,LACEY,2738,#02738*,5610 CORPORATE CENTER LANE SE,WA,98503
Lowe's,LINCOLN,2739,#02739*,6101 APPLES WAY,NE,68516
Lowe's,PUEBLO,2742,#02742*,2900 WEST PUEBLO BOULEVARD,CO,81005
Lowe's,SILVERDALE,2746,#02746*,2221 NW MYHRE ROAD,WA,98383
Lowe's,TROUTMAN,2750,#02750*,1041 CHARLOTTE HIGHWAY,NC,28166
Lowe's,VERNON HILLS,2751,#02751*,1660 N. MILWAUKEE AVENUE,IL,60061
Lowe's,WEST BRIDGEWATER,2752,#02752*,724 WEST CENTER STREET,MA,2379
Lowe's,OCALA,2753,#02753*,7575 SW 90TH STREET,FL,34476
Lowe's,WEST SACRAMENTO,2755,#02755*,2250 LAKE WASHINGTON BOULEVARD,CA,95691
Lowe's,TULSA,2756,#02756*,7225 SOUTH OLYMPIA WEST,OK,74132
Lowe's,GENEVA,2759,#02759*,3030 SESSLER DRIVE,NY,14456
Lowe's,WENTZVILLE,2761,#02761*,1889 WENTZVILLE PARKWAY,MO,63385
Lowe's,WHITEHALL,2763,#02763*,2650 MACARTHUR ROAD,PA,18052
Lowe's,WOODHAVEN,2765,#02765*,21000 WEST ROAD,MI,48183
Lowe's,ZIONSVILLE,2766,#02766*,6711 WHITESTOWN PKWY,IN,46077
Lowe's,KANSAS CITY,2767,#02767*,4811 N. OAK TRAFFICWAY,MO,64118
Lowe's,MT STERLING,2768,#02768*,550 INDIAN MOUND DRIVE,KY,40353
Lowe's,SAINT ROBERT,2769,#02769*,120 CARSON BOULEVARD,MO,65584
Lowe's,AVON,2770,#02770*,1445 CENTER ROAD,OH,44011
Lowe's,GREENSBORO,2771,#02771*,2005 EAST CONE BOULEVARD,NC,27405
Lowe's,POOLER,2772,#02772*,1565 POOLER PARKWAY,GA,31322
Lowe's,KINGSPORT,2773,#02773*,2324 WEST STONE DRIVE,TN,37660
Lowe's,LEANDER,2774,#02774*,1495 HIGHWAY 183,TX,78641
Lowe's,FRANKLIN,2776,#02776*,1555 NASHVILLE ROAD,KY,42134
Lowe's,DURHAM,2778,#02778*,4402 FAYETTEVILLE ROAD,NC,27713
Lowe's,RICHARDSON,2779,#02779*,501 SOUTH PLANO ROAD,TX,75081
Lowe's,AURORA,2780,#02780*,24505 E. WHEATLANDS PARKWAY,CO,80016
Lowe's,MONROE,2781,#02781*,19393 TJERNE PLACE SE,WA,98272
Lowe's,CHINO HILLS,2783,#02783*,4777 CHINO HILLS PARKWAY,CA,91709
Lowe's,ABINGTON,2785,#02785*,400 BEDFORD STREET,MA,2351
Lowe's,SAN ANTONIO,2786,#02786*,7843 IH 35 S,TX,78224
Lowe's,PENSACOLA,2788,#02788*,777 WEST NINE MILE ROAD,FL,32534
Lowe's,SAN ANTONIO,2789,#02789*,3302 GOLIAD ROAD,TX,78223
Lowe's,SAN JOSE,2790,#02790*,775 RIDDER PARK DRIVE,CA,95131
Lowe's,MERIDIAN,2792,#02792*,305 WEST OVERLAND ROAD,ID,83642
Lowe's,SPOKANE VALLEY,2793,#02793*,16205 EAST BROADWAY AVENUE,WA,99037
Lowe's,MILLSBORO,2795,#02795*,26688 CENTERVIEW DRIVE,DE,19966
Lowe's,EAGLE PASS,2798,#02798*,574 SOUTH BIBB AVENUE,TX,78852
Lowe's,OAKLAND,2800,#02800*,7000 LOWES DRIVE,MD,21550
Lowe's,AMARILLO,2801,#02801*,6401 LOWES LANE,TX,79124
Lowe's,HARTSVILLE,2803,#02803*,819 SOUTH FOURTH STREET,SC,29550
Lowe's,COLORADO SPRINGS,2806,#02806*,701 NORTH ACADEMY BOULEVARD,CO,80909
Lowe's,GILBERT,2808,#02808*,4730 S. HIGLEY ROAD,AZ,85297
Lowe's,BEDFORD,2809,#02809*,1820 EAST LYNCHBURG SALEM TPKE,VA,24523
Lowe's,FARMVILLE,2810,#02810*,2644 FARMVILLE ROAD,VA,23901
Lowe's,NEW BRAUNFELS,2812,#02812*,1455 IH 35 SOUTH,TX,78130
Lowe's,RINCON,2813,#02813*,5150 HIGHWAY 21 SOUTH,GA,31326
Lowe's,SHIPPENSBURG,2816,#02816*,250 SOUTH CONESTOGA DRIVE,PA,17257
Lowe's,READING,2819,#02819*,4535 PERKIOMEN AVENUE,PA,19606
Lowe's,PEORIA,2820,#02820*,25311 N. LAKE PLEASANT PARKWAY,AZ,85383
Lowe's,LEAGUE CITY,2821,#02821*,1655 W. FM 646,TX,77573
Lowe's,SPRING,2822,#02822*,20902 KUYKENDAHL ROAD,TX,77379
Lowe's,LA FOLLETTE,2823,#02823*,2444 JACKSBORO PIKE,TN,37766
Lowe's,SCHERTZ,2824,#02824*,17280 IH 35 N,TX,78154
Lowe's,MCKINNEY,2825,#02825*,2055 N. CENTRAL EXPRESSWAY,TX,75070
Lowe's,FREDERICK,2826,#02826*,7850 WORMANS MILL ROAD,MD,21701
Lowe's,RUCKERSVILLE,2828,#02828*,385 STONERIDGE DRIVE NORTH,VA,22968
Lowe's,SHOW LOW,2833,#02833*,5800 SOUTH WHITE MOUNTAIN ROAD,AZ,85901
Lowe's,VERNAL,2834,#02834*,2105 WEST HIGHWAY 40,UT,84078
Lowe's,GREENVILLE,2837,#02837*,3840 EAST 10TH STREET,NC,27858
Lowe's,CANTON,2838,#02838*,2044 CUMMING HIGHWAY,GA,30114
Lowe's,BASTROP,2840,#02840*,719 HIGHWAY 71 WEST,TX,78602
Lowe's,SAN JOSE,2842,#02842*,750 NEWHALL DRIVE,CA,95110
Lowe's,LAS VEGAS,2844,#02844*,7751 N EL CAPITAN WAY,NV,89143
Lowe's,CLINTON,2845,#02845*,1986 NORTH 2000 WEST,UT,84015
Lowe's,PARAGOULD,2847,#02847*,212 NORTH 23RD STREET,AR,72450
Lowe's,NORTH EAST,2848,#02848*,425 MAULDIN AVENUE,MD,21901
Lowe's,NEOSHO,2849,#02849*,1490 CLEMON DRIVE,MO,64850
Lowe's,NASHVILLE,2851,#02851*,3460 DICKERSON PIKE,TN,37207
Lowe's,REYNOLDSBURG,2852,#02852*,8231 EAST BROAD STREET,OH,43068
Lowe's,SOUTH LEBANON,2853,#02853*,575 CORWIN NIXON BOULEVARD,OH,45065
Lowe's,EDMOND,2854,#02854*,2401 NORTH KELLY AVENUE,OK,73003
Lowe's,MANKATO,2855,#02855*,2015 BASSETT DRIVE,MN,56001
Lowe's,HIGHLAND,2856,#02856*,27847 GREENSPOT ROAD,CA,92346
Lowe's,OGDEN,2858,#02858*,344 N. WASHINGTON BOULEVARD,UT,84404
Lowe's,GORDONSVILLE,2862,#02862*,165 CAMP CREEK PARKWAY,VA,22942
Lowe's,NORTH PROVIDENCE,2863,#02863*,1703 MINERAL SPRINGS AVENUE,RI,2904
Lowe's,REDMOND,2865,#02865*,1313 SW CANAL BOULEVARD,OR,97756
Lowe's,DAYTON,2866,#02866*,3535 RHEA COUNTY HIGHWAY,TN,37321
Lowe's,LORAIN,2867,#02867*,7500 OAK POINT ROAD,OH,44053
Lowe's,MARQUETTE,2868,#02868*,3500 US 41 WEST,MI,49855
Lowe's,WHITEVILLE,2869,#02869*,100 GREEN HILL DRIVE,NC,28472
Lowe's,FREDERICKSBURG,2870,#02870*,299 BANKS FORD PARKWAY,VA,22406
Lowe's,MCKINNEY,2878,#02878*,8550 S.H. 121,TX,75070
Lowe's,RIO RANCHO,2879,#02879*,3805 NORTHERN BOULEVARD NE,NM,87124
Lowe's,DOTHAN,2884,#02884*,4801 MONTGOMERY HIGHWAY,AL,36303
Lowe's,WETUMPKA,2885,#02885*,4501 US HIGHWAY 231,AL,36092
Lowe's,DEFUNIAK SPRINGS,2886,#02886*,135 BUSINESS PARK ROAD,FL,32435
Lowe's,MANSFIELD,2893,#02893*,2165 SOUTH MAIN STREET,PA,16933
Lowe's,HAMBURG,2894,#02894*,20 WILDERNESS TRAIL,PA,19526
Lowe's,BONNEY LAKE,2895,#02895*,19911 SOUTH PRAIRIE ROAD EAST,WA,98391
Lowe's,SAN ANTONIO,2898,#02898*,5303 W LOOP 1604 N,TX,78253
Lowe's,MUSTANG,2903,#02903*,1000 EAST STATE HIGHWAY 152,OK,73064
Lowe's,MIAMI,2904,#02904*,9191 SW 137TH AVENUE,FL,33186
Lowe's,FAYETTEVILLE,2905,#02905*,7771 GOOD MIDDLING DRIVE,NC,28304
Lowe's,INDIAN TRAIL,2907,#02907*,5711 W. HIGHWAY 74,NC,28079
Lowe's,SUWANEE,2908,#02908*,3260 LAWRENCEVILLE SUWANEE ROAD,GA,30024
Lowe's,SOUTHINGTON,2910,#02910*,500 EXECUTIVE BOULEVARD,CT,6489
Lowe's,PRINCE GEORGE,2918,#02918*,2085 WATERSIDE DRIVE,VA,23875
Lowe's,CLOVER,2920,#02920*,5288 HIGHWAY 557,SC,29710
Lowe's,RIVERHEAD,2921,#02921*,1461 OLD COUNTRY ROAD,NY,11901
Lowe's,HUDSON,2927,#02927*,490 FAIRVIEW AVENUE,NY,12534
Lowe's,EL PASO,2928,#02928*,12100 MONTANA AVENUE,TX,79938
Lowe's,MURPHY,2929,#02929*,111 EAST FM 544,TX,75094
Lowe's,TIFFIN,2930,#02930*,1025 WEST MARKET STREET,OH,44883
Lowe's,SARASOTA,2933,#02933*,4020 CENTRAL SARASOTA PARKWAY,FL,34238
Lowe's,LISBON,2938,#02938*,155 RIVER ROAD,CT,6351
Lowe's,SALEM,2939,#02939*,840 WEST MAIN STREET,VA,24153
Lowe's,EUGENE,2940,#02940*,3595 WEST 11TH AVENUE,OR,97402
Lowe's,ELKHART,2942,#02942*,110 COUNTY ROAD 6 W,IN,46514
Lowe's,KANSAS CITY,2943,#02943*,4201 STERLING AVENUE,MO,64133
Lowe's,MARYSVILLE,2944,#02944*,15775 US 36E,OH,43040
Lowe's,SHEPHERDSVILLE,2945,#02945*,800 CONESTOGA PARKWAY,KY,40165
Lowe's,SUMMERVILLE,2948,#02948*,9600 DORCHESTER ROAD,SC,29485
Lowe's,VANCOUVER,2954,#02954*,18801 SE MILL PLAIN BOULEVARD,WA,98683
Lowe's,ANCHORAGE,2955,#02955*,1200 NORTH MULDOON,AK,99504
Lowe's,MOSES LAKE,2956,#02956*,1400 EAST YONEZAWA BOULEVARD,WA,98837
Lowe's,KYLE,2961,#02961*,5753 KYLE PARKWAY,TX,78640
Lowe's,ODESSA,2962,#02962*,"4101 EAST 42ND STREET, STE P",TX,79762
Lowe's,PINEVILLE,2965,#02965*,3200 MONROE HIGHWAY,LA,71360
Lowe's,LEXINGTON,2967,#02967*,5570 PLATT SPRINGS ROAD,SC,29073
Lowe's,CARROLLTON,2968,#02968*,1665 HIGHWAY 27 SOUTH,GA,30117
Lowe's,LOGANVILLE,2969,#02969*,4022 ATLANTA HIGHWAY,GA,30052
Lowe's,MIDDLEBURG,2970,#02970*,1700 BLANDING BOULEVARD,FL,32068
Lowe's,ABINGDON,2974,#02974*,24500 FALCON PLACE BOULEVARD,VA,24211
Lowe's,MARRERO,2975,#02975*,4950 PROMENADE BOULEVARD,LA,70072
Lowe's,WAPAKONETA,2978,#02978*,1340 BELLEFONTAINE STREET,OH,45895
Lowe's,WESLACO,2980,#02980*,1015 EAST EXPRESSWAY 83,TX,78596
Lowe's,CONCORD,2981,#02981*,8670 CONCORD MILLS BOULEVARD,NC,28027
Lowe's,WILMINGTON,2982,#02982*,191 PORTERS NECK ROAD,NC,28411
Lowe's,ALACHUA,2984,#02984*,15910 NW 144 TERRACE,FL,32615
Lowe's,HANNIBAL,2991,#02991*,3651 STARDUST DRIVE,MO,63401
Lowe's,JONESBOROUGH,2993,#02993*,1498 E. JACKSON BOULEVARD,TN,37659
Lowe's,PARKVILLE,2995,#02995*,1400 TAYLOR AVENUE,MD,21234
Lowe's,MAYODAN,2996,#02996*,6844 NC HIGHWAY 135,NC,27027
Lowe's,TEMPE,3000,#03000*,777 EAST BASELINE ROAD,AZ,85283
Lowe's,MARBLE FALLS,3002,#03002*,3200 HIGHWAY 281,TX,78654
Lowe's,CLARKSVILLE,3003,#03003*,1622 MADISON STREET,TN,37043
Lowe's,HARTSELLE,3006,#03006*,1807 HIGHWAY 31 NW,AL,35640
Lowe's,ABBEVILLE,3015,#03015*,2700 CHARITY STREET,LA,70510
Lowe's,TARBORO,3022,#03022*,111 RIVER OAKS DRIVE,NC,27886
Lowe's,COLUMBIA,3026,#03026*,1051 SAMS CROSSING DRIVE,SC,29229
Lowe's,MISSOURI CITY,3027,#03027*,3807 FM 1092,TX,77459
Lowe's,GRANITE CITY,3028,#03028*,1333 SCHAEFER ROAD,IL,62040
Lowe's,COLLEGE STATION,3032,#03032*,4451 HIGHWAY 6 SOUTH,TX,77845
Lowe's,PETAL,3033,#03033*,40 TYNER ROAD,MS,39465
Lowe's,SPARKS,3034,#03034*,1355 SCHEELS DRIVE,NV,89434
Lowe's,GRAYSVILLE,3039,#03039*,1100 BANKHEAD HIGHWAY,AL,35073
Lowe's,INDIAN LAND,3040,#03040*,181 FORT MILL HIGHWAY,SC,29707
Lowe's,NEW ALBANY,3041,#03041*,500 PARK PLAZA DRIVE,MS,38652
Lowe's,SPOKANE,3045,#03045*,6606 NORTH DIVISION STREET,WA,99208
Lowe's,LOS LUNAS,3048,#03048*,1600 MAIN STREET NW,NM,87031
Lowe's,ANDERSON,3050,#03050*,408 HIGHWAY 28 BY-PASS,SC,29626
Lowe's,PITTSBURGH,3051,#03051*,9051 ST SIMON WAY,PA,15237
Lowe's,CENTRAL,3071,#03071*,608 ISSAQUEENA TRAIL,SC,29630
Lowe's,MOBERLY,3088,#03088*,1800 EAST OUTER ROAD,MO,65270
Lowe's,SAN FRANCISCO,3095,#03095*,491 BAYSHORE BOULEVARD,CA,94124
Lowe's,COVINA,3151,#03151*,1348 NORTH AZUSA AVENUE,CA,91722
Lowe's,FAIRFIELD,3164,#03164*,3400 NORTH TEXAS STREET,CA,94533
Lowe's,DESTIN,3166,#03166*,4405 LEGENDARY DRIVE,FL,32541
Lowe's,CARLSBAD,3167,#03167*,2519 WEST PIERCE STREET,NM,88220
Lowe's,HAVERTOWN,3169,#03169*,116 WEST TOWNSHIP LINE RD.,PA,19083
Lowe's,HOBBS,3202,#03202*,1510 WEST JOE HARVEY BOULEVARD,NM,88240
Lowe's,SILVERTHORNE,3206,#03206*,201 BUFFALO MOUNTAIN DRIVE,CO,80498
Lowe's,KILL DEVIL HILLS,3216,#03216*,1500 NORTH CROATAN HIGHWAY,NC,27948
Lowe's,WALL TOWNSHIP,3501,#03501*,"1933 ROUTE 35 SOUTH, SUITE 125",NJ,7719
Lowe's,SANFORD,3608,#03608*,3015 S. HORNER BOULEVARD,NC,27332
