keywords,city,Aggdata Store Number,store_number,address,state,zip_code
Mariano's,Arlington Heights,8501,PALA0008501 FRESH0008501,802 E Northwest Hwy,IL,60004
Mariano's,Vernon Hills,8502,PALA0008502 FRESH0008502,1720 N Milwaukee Ave,IL,60061
Mariano's,Chicago,8503,PALA0008503 FRESH0008503,"333 E Benton Pl, off Upper Randolph",IL,60601
Mariano's,Chicago,8504,PALA0008504 FRESH0008504,3350 N Western Ave,IL,60618
Mariano's,Palatine,8505,PALA0008505 FRESH0008505,545 N Hicks Rd,IL,60067
Mariano's,Hoffman Estates,8506,PALA0008506 FRESH0008506,2575 W Golf Rd,IL,60169
Mariano's,Chicago,8507,PALA0008507 FRESH0008507,5353 N Elston Ave,IL,60630
Mariano's,Chicago,8508,PALA0008508 FRESH0008508,40 S Halsted St,IL,60661
Mariano's,Frankfort,8509,PALA0008509 FRESH0008509,21001 S LaGrange Rd,IL,60423
Mariano's,Harwood Heights,8510,PALA0008510 FRESH0008510,7401 W Lawrence Ave,IL,60706
Mariano's,Elmhurst,8511,PALA0008511 FRESH0008511,678 N York St,IL,60126
Mariano's,Chicago,8512,PALA0008512 FRESH0008512,1615 S Clark St,IL,60616
Mariano's,Wheaton,8513,PALA0008513 FRESH0008513,625 S Main St,IL,60187
Mariano's,Lake Zurich,8514,PALA0008514 FRESH0008514,1350 E Route 22,IL,60047
Mariano's,Chicago,8515,PALA0008515 FRESH0008515,1800 W Lawrence Ave,IL,60640
Mariano's,Chicago,8516,PALA0008516 FRESH0008516,2112 North Ashland Ave,IL,60614
Mariano's,Aurora,8519,PALA0008519 FRESH0008519,3025 E New York St,IL,60504
Mariano's,Chicago,8520,PALA0008520 FRESH0008520,3145 S Ashland Ave,IL,60608
Mariano's,Buffalo Grove,8521,PALA0008521 FRESH0008521,450 W Half Day Rd,IL,60089
Mariano's,Chicago,8522,PALA0008522 FRESH0008522,5201 N Sheridan Rd,IL,60640
Mariano's,Gurnee,8523,PALA0008523 FRESH0008523,6655 Grand Ave,IL,60031
Mariano's,Northfield,8524,PALA0008524 FRESH0008524,1822 Willow Rd,IL,60093
Mariano's,Park Ridge,8525,PALA0008525 FRESH0008525,1900 S Cumberland Ave,IL,60068
Mariano's,Shorewood,8526,PALA0008526 FRESH0008526,950 Brook Forest Ave,IL,60404
Mariano's,Chicago,8527,PALA0008527 FRESH0008527,2021 W Chicago Ave,IL,60622
Mariano's,Westchester,8528,PALA0008528 FRESH0008528,3020 S Wolf Rd,IL,60154
Mariano's,Western Springs,8529,PALA0008529 FRESH0008529,4700 Gilbert Ave,IL,60558
