keywords,city,Aggdata Store Number,store_number,address,state,zip_code
Maverik,Boise,4,#4,5200 Chinden Blvd,ID,83714
Maverik,Bridger,7,#7,Highway   310  North,MT,59014
Maverik,Bountiful,130,#130,105  South  200  West,UT,84010
Maverik,Winnemucca,134,#134,105  East Winnemucca,NV,89445
Maverik,Sheridan,135,#135,1571  North  Main,WY,82801
Maverik,Lyman,136,#136,222  South  Main,WY,82937
Maverik,Snowflake,137,#137,7th  & Main,AZ,85937
Maverik,Centerville,145,#145,94  North  Main,UT,84014
Maverik,Elko,146,#146,1111  Idaho Street,NV,89801
Maverik,Rigby,152,#152,200  East  Main,ID,83442
Maverik,St. Anthony,155,#155,226  South Bridge,ID,83445
Maverik,Evanston,162,#162,535  County  Road,WY,82930
Maverik,Worland,166,#166,1501  Bighorn  Ave,WY,82401
Maverik,Bountiful,168,#168,1500  South Main,UT,84010
Maverik,Rexburg,169,#169,12  South  2nd  West,ID,83440
Maverik,Blackfoot,172,#172,895 West Bridge Street,ID,83221
Maverik,Boise,175,#175,1909 West Boise Ave,ID,83706
Maverik,Aberdeen,177,#177,78 North Main,ID,83210
Maverik,Nampa,178,#178,723  North 12th Ave Road,ID,83686
Maverik,Richmond,180,#180,10  South  200  West,UT,84333
Maverik,Layton,184,#184,2014  North 400  West,UT,84041
Maverik,Idaho Falls,185,#185,3290  South Yellowstone,ID,83402
Maverik,Thermopolis,187,#187,425  South 6th,WY,82443
Maverik,Rupert,189,#189,318  Scott Street,ID,83350
Maverik,Riverton,192,#192,1604  West Main,WY,82501
Maverik,Riverton,193,#193,601  South Federal,WY,82501
Maverik,Pocatello,194,#194,3206  Poleline Road,ID,83201
Maverik,Rexburg,195,#195,75   North  2nd  East,ID,83440
Maverik,Midvale,196,#196,7728 South Main,UT,84047
Maverik,Layton,197,#197,87  North Main,UT,84041
Maverik,Boise,198,#198,7333 Ustick Road,ID,83704
Maverik,Salt Lake,199,#199,1707  South 300  West,UT,84115
Maverik,Lake Havasu,201,#201,2197  McCulloch,AZ,86403
Maverik,Cody,202,#202,1802   17th Street,WY,82414
Maverik,Kimberly,204,#204,120  Main  Street,ID,83341
Maverik,Boise,205,#205,2710 Main Street,ID,83702
Maverik,Mt. Pleasant,208,#208,381  South State,UT,84647
Maverik,MTN HOME,209,#209,140  North 10th  East,ID,83647
Maverik,Emmett,212,#212,110   West Hwy  52,ID,83617
Maverik,Weiser,214,#214,703  East  Main,ID,83672
Maverik,Wendell,217,#217,20  South Idaho Street,ID,83355
Maverik,Boise,221,#221,7350  West Victory,ID,83709
Maverik,Greybull,222,#222,524   North 6th  Street,WY,82426
Maverik,Twin Falls,224,#224,120  6th  Ave West,ID,83301
Maverik,Caldwell,225,#225,720  North Illinois,ID,83605
Maverik,Salt Lake,227,#227,2650  South Main,UT,84115
Maverik,West Valley,228,#228,2675  South 3200  West,UT,84119
Maverik,St. George,229,#229,690 River Road,UT,84790
Maverik,Parowan,231,#231,P.O. Box 1060,UT,84761
Maverik,Gooding,232,#232,1899  US  Hwy  26,ID,83330
Maverik,Meridian,233,#233,1605  Cherry  Lane,ID,83642
Maverik,Stansbury,234,#234,6527  North Hwy  36,UT,84074
Maverik,Kemmerer,235,#235,521  Coral,WY,83101
Maverik,Montpelier,236,#236,107 South 4th  Street,ID,83254
Maverik,Elko,237,#237,2520  Mt City Hwy,NV,89801
Maverik,Moab,238,#238,435  North  Main,UT,84532
Maverik,St. George,241,#241,1880 West Sunset Blvd,UT,84770
Maverik,St. George,242,#242,702 East St George Blvd,UT,84770
Maverik,Hurricane,243,#243,200   West State,UT,84737
Maverik,Cedar City,244,#244,809  West 200  North,UT,84720
Maverik,Cedar City,245,#245,204  South Main,UT,84720
Maverik,Richfield,246,#246,295  South  Main,UT,84701
Maverik,Salina,247,#247,195 West Main,UT,84654
Maverik,Huntington,248,#248,200  North  Main,UT,84528
Maverik,Price,249,#249,295  East Main,UT,84501
Maverik,Eden,250,#250,5100 East 2500 North,UT,84310
Maverik,Soda Springs,251,#251,10  East  2nd  Street,ID,83276
Maverik,Jerome,252,#252,352  South Lincoln,ID,83338
Maverik,Sandy,254,#254,425  West 9000  South,UT,84070
Maverik,Ephraim,257,#257,95  North Main,UT,84627
Maverik,Springville,258,#258,309  North  Main,UT,84663
Maverik,Burley,259,#259,1209  East Main,ID,83318
Maverik,Castledale,260,#260,285  East Main,UT,84513
Maverik,St. George,261,#261,336  West Hilton  Drive,UT,84770
Maverik,West Valley,262,#262,4692 South  4800  West,UT,84120
Maverik,SALT LAKE,263,#263,676  North Redwood Road,UT,84116
Maverik,RIVERTON(U),264,#264,2707  West 12600  South,UT,84065
Maverik,Hyde Park,265,#265,25 East 3700 North,UT,84318
Maverik,Bluffdale,266,#266,14416 South Camp Williams Road,UT,84065
Maverik,Overton,267,#267,230 N. Moapa Valley Blvd,NV,89040
Maverik,Winnemucca,268,#268,863  E.  Winnemucca  Blvd,NV,89445
Maverik,Clinton,269,#269,1036 West 1800 North,UT,84015
Maverik,Lovell,270,#270,217 West Main Street,WY,82431
Maverik,McCall,271,#271,622 North 3rd Street,ID,83638
Maverik,Cottonwood,272,#272,690 West Hwy 89 A,AZ,86326
Maverik,Nampa,273,#273,2516 West Karcher Rd,ID,83651
Maverik,Cortez,275,#275,10223  US  Hwy  491,CO,81321
Maverik,Thayne,276,#276,160 North Main,WY,83127
Maverik,West Valley,277,#277,3112 South Redwood Road,UT,84119
Maverik,Springville,279,#279,1509 North 1750 West,UT,84663
Maverik,Lehi,280,#280,520  West Main Street,UT,84043
Maverik,Fillmore,281,#281,965 South Hwy 99,UT,84631
Maverik,Gillette,282,#282,1616 East Hwy 14-16,WY,82716
Maverik,Syracuse,283,#283,1991 West 1700 South,UT,84075
Maverik,Evanston,284,#284,350 Front Street,WY,82930
Maverik,Nampa,287,#287,2211 East Franklin Road,ID,83687
Maverik,Flagstaff,288,#288,1690 West Route 66,AZ,86001
Maverik,Vernal,289,#289,951 West  Hwy 40,UT,84078
Maverik,Flagstaff,290,#290,5700  North Hwy  89,AZ,86004
Maverik,Salt Lake,291,#291,1927  South 3230  West,UT,84104
Maverik,Payson,292,#292,715 N Beeline Highway,AZ,85541
Maverik,Torrington,293,#293,500 East Valley Road,WY,82240
Maverik,Camp Verde,294,#294,541 W. Finnie Flat Rd.,AZ,86322
Maverik,West Jordan,295,#295,3985  West 7800  South,UT,84088
Maverik,Douglas,296,#296,1108 W. Yellowstone Hwy,WY,82633
Maverik,Layton,299,#299,849 East Gordon Ave,UT,84040
Maverik,Clearfield,302,#302,1510 East 700 South,UT,84015
Maverik,Clearfield,303,#303,709 South State,UT,84015
Maverik,Draper,304,#304,11415 South 700 East,UT,84020
Maverik,Salt Lake,306,#306,1300 East 6855 South,UT,84121
Maverik,Midvale,307,#307,686 East 7200 South,UT,84047
Maverik,Murray,310,#310,530 West 4800 South,UT,84123
Maverik,Ogden,312,#312,1212 West Wall,UT,84404
Maverik,Orem,316,#316,1240 South 800 East,UT,84097
Maverik,Price,319,#319,891 East Main,UT,84501
Maverik,Provo,321,#321,1410 South University,UT,84601
Maverik,Salt Lake,323,#323,2680 South 2000 East,UT,84109
Maverik,Salt Lake,324,#324,880 West  3300 South,UT,84119
Maverik,Salt Lake,326,#326,710 East 2700 South,UT,84106
Maverik,Salt Lake,327,#327,206  West North Temple,UT,84103
Maverik,Salt Lake,328,#328,508 East 300 South,UT,84102
Maverik,Salt Lake,330,#330,310 South 900 East,UT,84102
Maverik,Salt Lake,331,#331,615 South  200 West,UT,84101
Maverik,Salt Lake,332,#332,1270 South Main,UT,84101
Maverik,South Jordan,333,#333,10419 South 2700 West,UT,84095
Maverik,Orem,339,#339,85 West 800 North,UT,84057
Maverik,Roy,340,#340,3495 West 5600 South,UT,84067
Maverik,Moab,341,#341,985 South Highway 191,UT,84532
Maverik,Mesquite,342,#342,14 North Sandhill Blvd,NV,89027
Maverik,Meridian,343,#343,1545 E Overland Rd,ID,83642
Maverik,Sheridan,344,#344,1242 East Bundage Lane,WY,82801
Maverik,Green River,345,#345,59  Uinta  Drive,WY,82935
Maverik,Powell,346,#346,P.O. Box 1175,WY,82435
Maverik,Pocatello,347,#347,2100 East Center Street,ID,83201
Maverik,Clearfield,349,#349,390 East 1700 South,UT,84015
Maverik,Chino Valley,350,#350,1060 South Hwy 89,AZ,86323
Maverik,Jackson Hole,353,#353,1005 South Hwy 89,WY,83001
Maverik,Afton,355,#355,P.O. Box 288,WY,83110
Maverik,Bullhead,356,#356,2612 Desert Foothills Blvd.,AZ,86429
Maverik,West Jordan,357,#357,2714 West 9000 South,UT,84088
Maverik,Lehi,358,#358,3569 North Thanksgiving Way,UT,84043
Maverik,Perry,359,#359,2241 South Hwy 89,UT,84302
Maverik,Salt Lake,360,#360,1680  S Redwood Road,UT,84104
Maverik,Heber City,361,#361,435 North Main,UT,84032
Maverik,Cody,363,#363,2321 Big Horn Avenue,WY,82414
Maverik,Pocatello,364,#364,855 East Alameda,ID,83201
Maverik,Tooele,365,#365,1959 N. Aaron Dr.,UT,84074
Maverik,Payette,367,#367,275 North 16th Street,ID,83661
Maverik,Nibley,368,#368,3090 South Main,UT,84321
Maverik,Clearfield,369,#369,985 West 300 North,UT,84015
Maverik,Roosevelt,371,#371,1025 East 200 North,UT,84066
Maverik,Tremonton,372,#372,1035 West Main,UT,84337
Maverik,Golden Valley,376,#376,5031 West Hwy 68,AZ,86413
Maverik,Santaquin,377,#377,725 East Main Street,UT,84655
Maverik,Slaterville,378,#378,509 North 2000 West,UT,84404
Maverik,Eagle Mountain,380,#380,9217 North Ranches Parkway,UT,84005
Maverik,Layton,381,#381,1455 East 3000 North,UT,84040
Maverik,Boise,383,#383,6168 South Cloverdale Road,ID,83709
Maverik,N. Salt Lake,386,#386,880 West Center Street,UT,84054
Maverik,Winslow,387,#387,2110 North Park Drive,AZ,86047
Maverik,Show Low,388,#388,901 Penrod Road,AZ,85901
Maverik,Lander,389,#389,135 East Main Street,WY,82520
Maverik,Washington,390,#390,980 North Hoodoo Way,UT,84780
Maverik,Wheatland,391,#391,1650 South Street,WY,82201
Maverik,Burley,394,#394,703 North Overland,ID,83318
Maverik,Idaho Falls,396,#396,145 South Woodruff,ID,83401
Maverik,Page,398,#398,701 Tunnel Road,AZ,86040
Maverik,Orem,399,#399,833 North 1200 West,UT,84057
Maverik,Fruita,400,#400,1103 East US Hwy 50,CO,81521
Maverik,Dewey,401,#401,1344 N Prescott Country Club,AZ,86327
Maverik,Hurricane,402,#402,55 North 3400 West,UT,84737
Maverik,Ammon,406,#406,3540 Sunnyside Road,ID,83406
Maverik,Naples,408,#408,2503 South 1500 East,UT,84078
Maverik,Carson City,409,#409,1451 College Parkway,NV,89706
Maverik,Washington Terrace,411,#411,5153 S Adams Avenue,UT,84405
Maverik,Dayton,412,#412,245 Riverboat Road,NV,89403
Maverik,Roy,414,#414,2815 West 4000 South,UT,84067
Maverik,Fallon,416,#416,850 West Williams Avenue,NV,89406
Maverik,Clifton,417,#417,3249 F Road,CO,81520
Maverik,Grand Junction,418,#418,2948 F Road,CO,81504
Maverik,Prescott Valley,419,#419,3576 North  Glassford Hills Road,AZ,86314
Maverik,West Valley,420,#420,2678 South 5600 West,UT,84120
Maverik,Reno,421,#421,10495 Stead Blvd,NV,89506
Maverik,Buffalo,422,#422,74  East  US Hwy 16,WY,82834
Maverik,Salt Lake,423,#423,425 South Redwood Road,UT,84104
Maverik,Fruitland,425,#425,500 North Whitely,ID,83619
Maverik,Cheyenne,426,#426,140 Gardenia Drive,WY,82009
Maverik,Reno,427,#427,995 Ambassador Drive,NV,89523
Maverik,Sunnyside,428,#428,1601 E Lincoln Ave,WA,98944
Maverik,Roosevelt,429,#429,17 West Hwy 40,UT,84066
Maverik,Caldwell,430,#430,4923 Cleveland Blvd,ID,83605
Maverik,Las Vegas,434,#434,6510 S. Fort Apache Road,NV,89148
Maverik,Laverkin,435,#435,460 North State Street,UT,84745
Maverik,Pahrump,437,#437,3010 S. Nevada Hwy 160,NV,89048
Maverik,Salt Lake City,438,#438,414 West 500 South,UT,84101
Maverik,Baker City,439,#439,1520 Campbell Street,OR,97814
Maverik,Yerington,440,#440,402 West Goldfield Ave,NV,89447
Maverik,Pasco,441,#441,5505  Road 68,WA,99301
Maverik,Scottsbluff,442,#442,920 West 36th Street,NE,69361
Maverik,Reno,443,#443,15 Panther Drive,NV,89506
Maverik,Monticello,444,#444,265 East Center Street,UT,84535
Maverik,Lakeside,445,#445,4555 W. White Mount Blvd,AZ,85929
Maverik,Mead,447,#447,4206 E Day Mt Spokane Rd,WA,99021
Maverik,Richland,448,#448,3520 Keene Road,WA,99352
Maverik,South Salt Lake,449,#449,3260 South West Temple,UT,84115
Maverik,West Valley,452,#452,5372 South 5600  West,UT,84118
Maverik,Battle Mountain,453,#453,775 South Broad Street,NV,89820
Maverik,Cheney,454,#454,2827 First Street,WA,99004
Maverik,Las Vegas,456,#456,10490 Bermuda Road,NV,89183
Maverik,Lewiston,457,#457,404 Thaine Road,ID,83501
Maverik,Newcastle,458,#458,500 West Main Street,WY,82701
Maverik,Pleasant Grove,459,#459,705 South State Street,UT,84062
Maverik,Minden,460,#460,1651 Highway 88,NV,89423
Maverik,Plain City,461,#461,4098 West 1975 North,UT,84404
Maverik,Delta,463,#463,101 Highway 92,CO,81416
Maverik,Star,465,#465,11243 West State Street,ID,83669
Maverik,Pasco,468,#468,3505 Road 68,WA,99301
Maverik,Ogden,469,#469,2810 Washington Blvd,UT,84401
Maverik,Kingman,471,#471,3480 E. Andy Divine Avenue,AZ,86401
Maverik,Sparks,475,#475,1223 East Prater Way,NV,89434
Maverik,Reno,477,#477,11795 Veterans Parkway,NV,89521
Maverik,Holbrook,478,#478,1301 Navajo Blvd,AZ,86025
Maverik,Castle Rock,479,#479,3991 Limelight Drive,CO,80109
Maverik,Fort Morgan,480,#480,1206 Main Street,CO,80701
Maverik,Boise,6,#6,8561 West State,ID,83703
Maverik,Ririe,156,#156,90  West  Hwy  26,ID,83443
Maverik,Gillette,165,#165,308  West Lakeway Road,WY,82716
Maverik,Providence,181,#181,P.O. Box 550,UT,84332
Maverik,Provo,200,#200,325 South State,UT,84601
Maverik,Boise,206,#206,9030 West Franklin Road,ID,83704
Maverik,Ft. Mohave,213,#213,4495  Hwy  95,AZ,86427
Maverik,South Jordan,223,#223,10425 South 1300 West,UT,84065
Maverik,Idaho Falls,239,#239,2625  West Broadway,ID,83401
Maverik,Boise,240,#240,12170 West Ustick,ID,83704
Maverik,Boise,255,#255,4680 Federal Way,ID,83706
Maverik,Mt View,274,#274,655 Hwy 414,WY,82939
Maverik,Salt Lake,285,#285,514  West 3900  South,UT,84123
Maverik,Caldwell,298,#298,510 East Ustick,ID,83605
Maverik,Orem,314,#314,795 So State Street,UT,84058
Maverik,Park City,317,#317,P.O. Box  682974,UT,84068
Maverik,Cedar City,348,#348,444 East Hwy 91,UT,84720
Maverik,Herriman,352,#352,4604 West 12600 South,UT,84065
Maverik,Cedar City,362,#362,220 North Airport Road,UT,84720
Maverik,St. George,370,#370,2078 East Riverside,UT,84770
Maverik,Grantsville,384,#384,824 East Main Street,UT,84024
Maverik,Idaho Falls,385,#385,1663 North Ammon Road,ID,83406
Maverik,Farrmington,397,#397,957 West Shepard Lane,UT,84025
Maverik,Meridian,410,#410,1630 E McMillan Road,ID,84364
Maverik,South Jordan,413,#413,11792 South 3600 West,UT,84095
Maverik,Ogden,415,#415,689 Washington Blvd.,UT,84405
Maverik,Provo,462,#462,870 West Center Street,UT,84601
Maverik,Boise,470,#470,12127 W Franklin Road,ID,83709
Maverik,Spokane Valley,473,#473,717 N. Evergreen Road,WA,99206
Maverik,Salt Lake City,474,#474,1445 South Gustin Road,UT,84104
Maverik,Gillette,476,#476,4301 S Douglas Highway,WY,82716
Maverik,Farr West,481,#481,1874  West 2700 North,UT,84404
Maverik,West Haven,484,#484,2577 South 1900 West,UT,84401
Maverik,Chubbuck,489,#489,4564 Yellowstone Avenue,ID,83202
Maverik,Coeur DAlene,491,#491,6415 North Ramsey Road,ID,83814
Maverik,Twin Falls,492,#492,883 Blue Lakes Blvd,ID,83301
Maverik,Delta,493,#493,44 North US Highway 6,UT,84624
