keywords,city,Aggdata Store Number,store_number,address,state,zip_code
McAlister's,Oxford,1001,#1001 1001,1515 University Avenue,MS,38655
McAlister's,Hattiesburg,1002,#1002 1002,2300 Hardy Street,MS,39401
McAlister's,Tupelo,1003,#1003 1003,495 South Gloster,MS,38801
McAlister's,Ridgeland,1004,#1004 1004,"731 South Pear Orchard Road, Suite 49",MS,39157
McAlister's,Germantown,1005,#1005 1005,7710 Poplar Avenue,TN,38138
McAlister's,Hattiesburg,1006,#1006 1006,122 Sheffield Loop,MS,39402
McAlister's,Laurel,1007,#1007 1007,1106 Sawmill Road,MS,39440
McAlister's,Flowood,1008,#1008 1008,1065 River Oaks Drive,MS,39232
McAlister's,Tuscaloosa,1009,#1009 1009,101 15th Street,AL,35401
McAlister's,Memphis,1010,#1010 1010,3482 Plaza Avenue,TN,38111
McAlister's,Little Rock,1011,#1011 1011,12019 Westhaven Drive,AR,72211
McAlister's,Meridian,1012,#1012 1012,4909 27th Place,MS,39305
McAlister's,Gainesville,1013,#1013 1013,"618 Northwest 60th Street, Suite C",FL,32607
McAlister's,Auburn,1015,#1015 1015,1651 East University Drive,AL,36830
McAlister's,New Albany,1018,#1018 1018,217 State Highway 30 West,MS,38652
McAlister's,Gainesville,1019,#1019 1019,3262 Southwest 35th Boulevard,FL,32608
McAlister's,Clinton,1020,#1020 1020,620 Highway 80 East,MS,39056
McAlister's,Southaven,1021,#1021 1021,"975 East Goodman Road, Suite 21",MS,38671
McAlister's,Columbia,1022,#1022 1022,300 Columbiana Drive,SC,29212
McAlister's,Birmingham,1023,#1023 1023,"1801 4th Avenue South, Suite 111",AL,35233
McAlister's,Conway,1025,#1025 1025,2465 Sanders Road,AR,72032
McAlister's,Corinth,1026,#1026 1026,1510 South Harper Road,MS,38834
McAlister's,Brandon,1027,#1027 1027,"1490 West Government Street, Suite 5",MS,39042
McAlister's,Jonesboro,1029,#1029 1029,2400 South Caraway,AR,72401
McAlister's,Springfield,1030,#1030 1030,1460 East Primrose Street,MO,65804
McAlister's,Roswell,1031,#1031 1031,"1425 Market Boulevard, Suite 1370",GA,30076
McAlister's,Pelham,1032,#1032 1032,152 Bowling Lane,AL,35244
McAlister's,Grenada,1033,#1033 1033,1650 Sunset Drive,MS,38901
McAlister's,Vicksburg,1034,#1034 1034,4200 East Clay Street,MS,39180
McAlister's,Destin,1035,#1035 1035,"10859 Highway 98 West, Suite 105",FL,32550
McAlister's,Murfreesboro,1036,#1036 1036,1624 Memorial Boulevard,TN,37129
McAlister's,Wilmington,1037,#1037 1037,740 South College Road,NC,28403
McAlister's,Columbia,1041,#1041 1041,4710-A Forest Drive,SC,29206
McAlister's,Longview,1043,#1043 1043,2804 Judson Road,TX,75605
McAlister's,Jackson,1044,#1044 1044,1240 East Northside Drive,MS,39211
McAlister's,Charlotte,1045,#1045 1045,8046-D Providence Road,NC,28277
McAlister's,Greenville,1046,#1046 1046,1708 B Augusta Street,SC,29605
McAlister's,Tyler,1047,#1047 1047,4325 Old Bullard Road,TX,75701
McAlister's,Gulfport,1048,#1048 1048,15140 Creosote Road,MS,39503
McAlister's,Cordova,1049,#1049 1049,"7990 Trinity Road, Suite 129",TN,38018
McAlister's,Madison,1050,#1050 1050,2129 Main Street,MS,39110
McAlister's,Charlotte,1051,#1051 1051,15201A John J. Delaney Drive,NC,28277
McAlister's,Mobile,1052,#1052 1052,1200 Satchel Paige Drive,AL,36606
McAlister's,Greenville,1056,#1056 1056,"740 Southeast Greenville Blvd., Suite 600",NC,27858
McAlister's,Monroe,1057,#1057 1057,1202 Pecanland Road,LA,71203
McAlister's,Chapel Hill,1059,#1059 1059,205 East Franklin Street,NC,27514
McAlister's,Springfield,1060,#1060 1060,"210 West Sunshine, Suite A",MO,65807
McAlister's,Columbia,1061,#1061 1061,119 Sparkleberry Lane,SC,29229
McAlister's,Greenville,1062,#1062 1062,1401-A Woodruff Road,SC,29607
McAlister's,North Little Rock,1063,#1063 1063,4842 North Hills Boulevard,AR,72116
McAlister's,Waco,1065,#1065 1065,1505 Hewitt Drive,TX,76712
McAlister's,Rock Hill,1066,#1066 1066,735 Addison Avenue,SC,29730
McAlister's,Cornelius,1067,#1067 1067,"19930 West Catawba Avenue, #150",NC,28031
McAlister's,Charlotte,1068,#1068 1068,4130 Carmel Road,NC,28226
McAlister's,Bartlett,1069,#1069 1069,"6600 Stage Road, Suite 120",TN,38134
McAlister's,Mobile,1071,#1071 1071,6750 Airport Boulevard,AL,36608
McAlister's,Charlotte,1072,#1072 1072,2706 W Mallard Creek Church Rd,NC,28262
McAlister's,Dothan,1073,#1073 1073,3106 Ross Clark Circle,AL,36303
McAlister's,Columbus,1074,#1074 1074,6755 Veterans Parkway,GA,31909
McAlister's,Homewood,1075,#1075 1075,"350 State Farm Parkway, Suite 104",AL,35209
McAlister's,Biloxi,1076,#1076 1076,"2422 Pass Road, Unit A",MS,39531
McAlister's,West Monroe,1077,#1077 1077,198 Thomas Road,LA,71291
McAlister's,Louisville,1078,#1078 1078,10041 Forest Green Boulevard,KY,40223
McAlister's,Louisville,1079,#1079 1079,2721 South Hurstbourne Parkway,KY,40220
McAlister's,Huntsville,1080,#1080 1080,1480 Perimeter Parkway NW,AL,35806
McAlister's,Lexington,1082,#1082 1082,5175 Sunset Blvd.,SC,29072
McAlister's,Boone,1084,#1084 1084,Trivette Hall/140 Stadium Dr.,NC,28608
McAlister's,Matthews,1085,#1085 1085,2217-A Matthew Township Pkwy,NC,28105
McAlister's,Greystone,1088,#1088 1088,"5406 Highway 280, Suite E-101",AL,35242
McAlister's,Waco,1091,#1091 1091,812 South 6th Street,TX,76706
McAlister's,Temple,1092,#1092 1092,"2102 Southwest HK Dodgen Loop, Suite 122",TX,76504
McAlister's,Ballwin,1093,#1093 1093,14848 Manchester Road,MO,63011
McAlister's,Texarkana,1094,#1094 1094,5001 Cowhorn Creek Road,TX,75503
McAlister's,Carmel,1095,#1095 1095,2355 East 116th Street,IN,46032
McAlister's,Fayetteville,1096,#1096 1096,4055 North Steele Boulevard,AR,72703
McAlister's,Knoxville,1098,#1098 1098,11140 Parkside Drive,TN,37934
McAlister's,Metairie,1099,#1099 1099,"2701 Airline Highway, Suite T",LA,70001
McAlister's,Northport,1101,#1101 1101,3021 Tyler Road,AL,35476
McAlister's,Collierville,1102,#1102 1102,336 Market Blvd.,TN,38017
McAlister's,Ocean Springs,1103,#1103 1103,1530 Bienville Blvd.,MS,39564
McAlister's,Owasso,1105,#1105 1105,8529 N. 129th E. Avenue,OK,74055
McAlister's,Kennesaw,1106,#1106 1106,"2950 Busbee Parkway, Suite 102",GA,30144
McAlister's,Stillwater,1109,#1109 1109,205 East Hall of Fame,OK,74075
McAlister's,Norman,1110,#1110 1110,1440 W. Lindsey Street,OK,73069
McAlister's,Lansing,1112,#1112 1112,2901 Preyde Boulevard,MI,48912
McAlister's,Cincinnati,1113,#1113 1113,7720 Montgomery Road,OH,45236
McAlister's,Athens,1115,#1115 1115,"220 Crestway Drive, Suite 116",TX,75751
McAlister's,Lawrenceville,1116,#1116 1116,"1030 Old Peachtree Rd NW, Suite 106",GA,30043
McAlister's,Shreveport,1117,#1117 1117,1671 E 70th Street,LA,71105
McAlister's,Edmond,1119,#1119 1119,1021 E. 2nd Street,OK,73034
McAlister's,Destin,1120,#1120 1120,"985 Hwy 98 East, Suite A",FL,32541
McAlister's,College Station,1121,#1121 1121,1006 University Dr. East,TX,77840
McAlister's,Charlotte,1122,#1122 1122,"8943 South Tryon Street, Suite A",NC,28273
McAlister's,Oxford,1123,#1123 1123,815 Hamric Drive East,AL,36203
McAlister's,Broken Arrow,1124,#1124 1124,720 North Aspen,OK,74012
McAlister's,Lafayette,1125,#1125 1125,"4409 Ambassador Caffery Pkwy, Suite 800",LA,70508
McAlister's,Knoxville,1126,#1126 1126,2758 Schaad Road,TN,37921
McAlister's,Greenwood,1128,#1128 1128,529 Bypass 72 NW,SC,29646
McAlister's,Spartanburg,1129,#1129 1129,"150 Dorman Centre Road, Suite B",SC,29301
McAlister's,Jackson,1131,#1131 1131,"220 E. Amite Street, Suite PG01",MS,39201
McAlister's,St. Charles,1132,#1132 1132,1598 Country Club Plaza Dr.,MO,63303
McAlister's,Fishers,1133,#1133 1133,"8355 East 116th Street, Suite 101",IN,46038
McAlister's,Louisville,1135,#1135 1135,2400 Lime Kiln Lane,KY,40222
McAlister's,Summerville,1136,#1136 1136,400-A Azalea Square Blvd,SC,29483
McAlister's,Memphis,1138,#1138 1138,580 S. Mendenhall,TN,38117
McAlister's,Cincinnati,1139,#1139 1139,4560 Cornell Road,OH,45241
McAlister's,West Chester,1140,#1140 1140,7622 Cox Lane,OH,45069
McAlister's,Franklin,1141,#1141 1141,"401-A Cool Springs Blvd, Suite 100",TN,37064
McAlister's,Richland,1142,#1142 1142,"1040 Hwy 49 South, Suite A",MS,39218
McAlister's,Carrollton,1143,#1143 1143,3432 E. Hebron Pkwy,TX,75007
McAlister's,New Orleans,1144,#1144 1144,#4 Canal St.,LA,70130
McAlister's,Mason,1145,#1145 1145,5040 Deerfield Blvd,OH,45040
McAlister's,Byram,1146,#1146 1146,7385 Siwell Road,MS,39272
McAlister's,Concord,1148,#1148 1148,8657 Concord Mills Blvd,NC,28027
McAlister's,Louisville,1149,#1149 1149,6510 Bardstown Road,KY,40291
McAlister's,Indianapolis,1150,#1150 1150,9140 Rockville Rd.,IN,46234
McAlister's,Kenner,1151,#1151 1151,"1000 West Esplanade, Suite. A13",LA,70065
McAlister's,Chattanooga,1152,#1152 1152,2288 Gunbarrel Road,TN,37421
McAlister's,San Antonio,1153,#1153 1153,"5886 De Zavela Road, Suite 100",TX,78249
McAlister's,Cape Girardeau,1155,#1155 1155,244 S. Mt. Auburn,MO,63701
McAlister's,Knoxville,1156,#1156 1156,232 Morrell Rd,TN,37919
McAlister's,Macon,1157,#1157 1157,4641 Presidential Pkwy,GA,31220
McAlister's,Lake Charles,1158,#1158 1158,635 W. Prien Lake Rd,LA,70601
McAlister's,Normal,1159,#1159 1159,Campus Box 2610,IL,61790
McAlister's,Tampa,1160,#1160 1160,11402 N. 30th St.,FL,33612
McAlister's,Clarksville,1161,#1161 1161,"1305 Veterans Pkwy, Suite 100",IN,47129
McAlister's,Killeen,1162,#1162 1162,1908-A East Central Texas Expressway,TX,76541
McAlister's,Raleigh,1163,#1163 1163,4361 Lassiter Ave,NC,27609
McAlister's,Flowood,1164,#1164 1164,276 Dogwood Blvd.,MS,39232
McAlister's,Greenville,1165,#1165 1165,535-A Congaree Rd,SC,29607
McAlister's,Houston,1167,#1167 1167,7502 FM 1960 West,TX,77070
McAlister's,Olive Branch,1168,#1168 1168,"8120 Camp Creek Blvd, Suite 110y",MS,38654
McAlister's,Kingsport,1169,#1169 1169,2003 N. Eastman Rd,TN,37660
McAlister's,Odessa,1170,#1170 1170,2002 E. 42nd Street,TX,79762
McAlister's,Mt. Pleasant,1171,#1171 1171,644-A Long Point Rd,SC,29464
McAlister's,Bentonville,1172,#1172 1172,900 SE Walton Blvd,AR,72712
McAlister's,Baton Rouge,1173,#1173 1173,7242 Perkins Rd.,LA,70808
McAlister's,Indianapolis,1174,#1174 1174,8487 Union Chapel Road,IN,46240
McAlister's,McKinney,1175,#1175 1175,"2107 Eldorado Pkwy, Suite 105",TX,75070
McAlister's,Tulsa,1176,#1176 1176,"8955 S. Memorial Dr., Ste. B",OK,74133
McAlister's,Rock Hill,1177,#1177 1177,"335 Herlong Ave, Suite 20",SC,29732
McAlister's,Covington,1179,#1179 1179,"206 Lake Drive, Suite 15",LA,70433
McAlister's,Memphis,1181,#1181 1181,3855 Hacks Cross Rd.,TN,38125
McAlister's,Wichita Falls,1182,#1182 1182,3900 Call Field Rd.,TX,76308
McAlister's,Okemos,1183,#1183 1183,4760 Marsh Road,MI,48864
McAlister's,Hot Springs,1184,#1184 1184,"3954 Central Ave., Suite A",AR,71901
McAlister's,Macon,1185,#1185 1185,"6255 Zebulon Rd, Suite 370",GA,31210
McAlister's,Springfield,1186,#1186 1186,2445 N. Kansas Expwy Suite A,MO,65803
McAlister's,Winston Salem,1187,#1187 1187,368 East Hanes Mill Rd,NC,27105
McAlister's,Hattiesburg,1189,#1189 1189,"1000 Turtle Creek Drive, Suite 255",MS,39402
McAlister's,Lubbock,1191,#1191 1191,2415 19th Street,TX,79401
McAlister's,Crestview Hills,1192,#1192 1192,2865 Dixie Highway,KY,41017
McAlister's,Brentwood,1193,#1193 1193,330 Franklin Road,TN,37027
McAlister's,Midland,1194,#1194 1194,"2306 Rankin Hwy, Suite 100",TX,79701
McAlister's,Myrtle Beach,1195,#1195 1195,1760 Pine Island Rd.,SC,29577
McAlister's,Southlake,1196,#1196 1196,"100 North Kimball Avenue, Suite 110, LB 111",TX,76092
McAlister's,San Antonio,1197,#1197 1197,"119 Southwest Loop 410, Suite 101",TX,78245
McAlister's,Creve Coeur,1198,#1198 1198,12515 Olive Blvd,MO,63141
McAlister's,Bossier City,1199,#1199 1199,2511 Beene Blvd,LA,71111
McAlister's,Starkville,1200,#1200 1200,"500 Russell Street, Suite 7",MS,39759
McAlister's,Monroe,1203,#1203 1203,2803 West Highway 74,NC,28110
McAlister's,Georgetown,1204,#1204 1204,1013 West University #301,TX,78626
McAlister's,Galveston,1205,#1205 1205,6612 Seawall Blvd,TX,77551
McAlister's,Highpoint,1206,#1206 1206,"5870 Samet Drive, Suite 119",NC,27265
McAlister's,Charlotte,1209,#1209 1209,"4805 Park Road, Suite 101",NC,28209
McAlister's,Myrtle Beach,1210,#1210 1210,"1000 South Commons Rd, Suite 5",SC,29588
McAlister's,Nixa,1211,#1211 1211,"703 N. McCroskey, Suite 1 Bldg A",MO,65714
McAlister's,Wichita,1212,#1212 1212,"7130 W Maple St., Suite 320",KS,67209
McAlister's,Bartlesville,1214,#1214 1214,2330 S. E. Washington Blvd.,OK,74006
McAlister's,Myrtle Beach,1217,#1217 1217,10736 Kings Road,SC,29572
McAlister's,Cypress,1218,#1218 1218,"25672 NW Freeway, Suite A",TX,77429
McAlister's,San Angelo,1219,#1219 1219,4525 Sherwood Way,TX,76901
McAlister's,Kokomo,1220,#1220 1220,"2020 South Reed Road, Suite 120",IN,46902
McAlister's,Lafayette,1222,#1222 1222,"100 South Creasy Lane, Suite 1000",IN,47905
McAlister's,Wichita,1224,#1224 1224,"306 N Rock Road, Suite 30",KS,67206
McAlister's,Alcoa,1225,#1225 1225,465 Marilyn Lane,TN,37701
McAlister's,Webster,1227,#1227 1227,"20911 Gulf Freeway, Suite D",TX,77598
McAlister's,The Woodlands,1228,#1228 1228,"3335 College Park Drive, Suite 100",TX,77384
McAlister's,Indianapolis,1230,#1230 1230,9702 E. Washington Street,IN,46229
McAlister's,Rosenberg,1231,#1231 1231,"24200 Southwest Freeway, Suite 602",TX,77471
McAlister's,Houston,1232,#1232 1232,"Bldg # 553, Parking Garage # 1, Suite 105",TX,77204
McAlister's,Statesboro,1234,#1234 1234,"1100 Brampton Ave., Suite A",GA,30458
McAlister's,Meridian,1235,#1235 1235,534 Bonita Lakes Dr.,MS,39301
McAlister's,Baton Rouge,1236,#1236 1236,6808 Seigen Lane,LA,70810
McAlister's,Charlotte,1237,#1237 1237,"9864 Rea Road, Suite A",NC,28227
McAlister's,Dallas,1238,#1238 1238,"15212 Monfort Dr., Suite 303",TX,75248
McAlister's,Durham,1240,#1240 1240,"5318 New Hope Commons Dr. Ext, Suite 104",NC,27707
McAlister's,Champaign,1241,#1241 1241,421 Town Center Road,IL,61820
McAlister's,Springfield,1242,#1242 1242,"1711 West Battlefield, Suite M",MO,65807
McAlister's,North Richland Hills,1243,#1243 1243,"9143 Boulevard 26, Ste 110",TX,76180
McAlister's,Marion,1244,#1244 1244,"2704 17th Street, Suite A",IL,62959
McAlister's,Greensboro,1245,#1245 1245,"1603 Highwoods Blvd., Suite. A",NC,27410
McAlister's,Millington,1246,#1246 1246,"8390 HWY 51 North, Suite 110",TN,38053
McAlister's,Tulsa,1247,#1247 1247,8102-B S. Lewis Avenue,OK,74137
McAlister's,Chattanooga,1248,#1248 1248,"541 Signal Mountain Road, Suite 287",TN,37405
McAlister's,Arlington,1249,#1249 1249,"137 Merchants Row, Suite 101",TX,76018
McAlister's,Moore,1250,#1250 1250,931 SW 25th St.,OK,73160
McAlister's,Colleyville,1251,#1251 1251,"5615 Colleyville Blvd., Suite 200",TX,76034
McAlister's,Highland Village,1253,#1253 1253,3180 FM 407,TX,75077
McAlister's,Jefferson City,1254,#1254 1254,2323 Missouri Blvd,MO,65109
McAlister's,Slidell,1255,#1255 1255,"796 E I-10 Service Rd., Suite 150",LA,70461
McAlister's,Des Peres,1256,#1256 1256,12101-A Manchester Road,MO,63131
McAlister's,Pineville,1257,#1257 1257,"11025 Carolina Place Parkway, Suite FC-14",NC,28134
McAlister's,Louisville,1258,#1258 1258,"12911 Shelbyville Road, Suite 1",KY,40243
McAlister's,Cullowhee,1259,#1259 1259,160 University Way,NC,28723
McAlister's,Beaumont,1260,#1260 1260,"3050 Dowlen Road, Suite A",TX,77706
McAlister's,Port Arthur,1261,#1261 1261,8393 Memorial Blvd,TX,77640
McAlister's,Waco,1262,#1262 1262,4551-A W. Waco Drive,TX,76710
McAlister's,Manhattan,1263,#1263 1263,"427 Tuttle Creek, Building B, Suite 102",KS,66502
McAlister's,Denton,1264,#1264 1264,"1931 South Loop 288, Suite 100",TX,76205
McAlister's,Pigeon Forge,1265,#1265 1265,"3784 Parkway, Suite 103",TN,37863
McAlister's,Jackson,1266,#1266 1266,"1012 Vann Drive, Suite A",TN,38305
McAlister's,Ft. Collins,1267,#1267 1267,1120 South College Ave,CO,80524
McAlister's,San Antonio,1268,#1268 1268,"18402 US Hwy 281 N, Suite 101",TX,78259
McAlister's,Memphis,1269,#1269 1269,"8385 Stage Rd., Suite 115",TN,38133
McAlister's,Charleston,1270,#1270 1270,4950 Centre Pointe Drive,SC,29418
McAlister's,Tallahassee,1271,#1271 1271,1500 Appalachee Parkway,FL,32301
McAlister's,Bloomington,1272,#1272 1272,2510 East 3rd Street,IN,47401
McAlister's,Greenwood,1273,#1273 1273,7711 Shelby Street,IN,46227
McAlister's,Prattville,1274,#1274 1274,2747 Legends Parkway,AL,36066
McAlister's,Indianapolis,1275,#1275 1275,"9450 N. Meridian St., Suite C",IN,46260
McAlister's,Knoxville,1276,#1276 1276,1600 Phillip Fulmer Way,TN,37992
McAlister's,Columbia,1277,#1277 1277,1205 Grindstone Parkway #121,MO,65201
McAlister's,Mooresville,1278,#1278 1278,"601 River Highway, Suite C",NC,28117
McAlister's,Augusta,1279,#1279 1279,"3450 Wrightsboro Road, Suite A120",GA,30909
McAlister's,Bryant,1280,#1280 1280,"7401 Alcoa Road, Suite 1",AR,72022
McAlister's,Magee,1281,#1281 1281,"1573 Simpson Hwy 49, Suite 7",MS,39111
McAlister's,Mesquite,1282,#1282 1282,1515 N. Town East Blvd.,TX,75115
McAlister's,Corpus Christi,1283,#1283 1283,"5801 Saratoga Blvd, Bldg A",TX,78414
McAlister's,New Orleans,1284,#1284 1284,5300 Tchoupitoulas Street,LA,70115
McAlister's,Asheville,1285,#1285 1285,"3 South Tunnel Rd., Suite F5",NC,28805
McAlister's,Indianapolis,1286,#1286 1286,"8840 N Michigan Rd., Suite 104",IN,46268
McAlister's,Huntsville,1287,#1287 1287,C/O Air Host Inc. @ Huntsville Airport 1000 Glenn Heam Boulevard Box 20155,AL,35821
McAlister's,Albuquerque,1288,#1288 1288,2200 A Louisiana Blvd NE,NM,87110
McAlister's,Peoria,1289,#1289 1289,4810 North University Street,IL,61614
McAlister's,Shiloh,1290,#1290 1290,3240 Green Mount Crossing Drive,IL,62269
McAlister's,Germantown,1291,#1291 1291,"9091 Hwy 72, #101",TN,38138
McAlister's,Fenton,1292,#1292 1292,"170 Gravois Bluffs Circle Drive, Suite G",MO,63026
McAlister's,St. Louis,1293,#1293 1293,4000 Lemay Ferry,MO,63125
McAlister's,Ft. Collins,1294,#1294 1294,"2550 East Harmony Rd., Suite 102",CO,80528
McAlister's,Aurora,1295,#1295 1295,"3471 North Salida Street, Suite 102",CO,80011
McAlister's,Gastonia,1296,#1296 1296,"411 Cox Rd., Suite 110",NC,28054
McAlister's,Tulsa,1298,#1298 1298,4951 East 21st Street,OK,74112
McAlister's,Shawnee,1299,#1299 1299,"4605 Kickapoo Street, Suite 4603",OK,74804
McAlister's,Canton,1300,#1300 1300,182 East Peace Street,MS,39046
McAlister's,Joplin,1301,#1301 1301,"2330 S. Range Line, Suite H",MO,64804
McAlister's,Harrisonburg,1302,#1302 1302,"1645 reservoir Street, Suite 185",VA,22801
McAlister's,Laramie,1303,#1303 1303,"2317 Grand Avenue, Suite A",WY,82070
McAlister's,Noblesville,1304,#1304 1304,"14191 Town Center Blvd, Suite150",IN,46060
McAlister's,Waynesboro,1305,#1305 1305,"740 E Town Center Drive, Suite A",VA,22980
McAlister's,Searcy,1306,#1306 1306,3512 East Race,AR,72143
McAlister's,Boone,1307,#1307 1307,140 Stadium Drive,NC,28609
McAlister's,Lawrence,1308,#1308 1308,2108 W. 27th Street,KS,66047
McAlister's,Austin,1309,#1309 1309,"2525 West Anderson Lane, Suite 130",TX,78757
McAlister's,Lubbock,1310,#1310 1310,"4210 82nd Street, Unit 212",TX,79423
McAlister's,Alexandria,1311,#1311 1311,"3601 Masonic Dr., Space #2525",LA,71301
McAlister's,Bessemer,1312,#1312 1312,"4977 Promenade Parkway, Suite 121",AL,35022
McAlister's,Roanoke,1315,#1315 1315,"2063 Colonial Ave, #132",VA,24015
McAlister's,Rowlett,1316,#1316 1316,4305 Lakeview Parkway Suite 300,TX,75088
McAlister's,McAllen,1317,#1317 1317,"3620 Exp 83, Suite 100",TX,78503
McAlister's,Las Cruces,1318,#1318 1318,2800 Mall Drive,NM,88011
McAlister's,Ocala,1319,#1319 1319,"3930 SW 42nd St, Suite 110",FL,34474
McAlister's,Paducah,1320,#1320 1320,5021 Hinkleville RD,KY,42001
McAlister's,Weatherford,1321,#1321 1321,215 Adams Drive,TX,76086
McAlister's,Columbus,1322,#1322 1322,1723 HWY 45 North,MS,39705
McAlister's,Grand Junction,1323,#1323 1323,"480 West Park Drive, #106",CO,81505
McAlister's,Oklahoma City,1324,#1324 1324,3525 West Memorial Road,OK,73134
McAlister's,Louisville,1325,#1325 1325,"1200 South Floyd St., #W206",KY,40280
McAlister's,Springfield,1326,#1326 1326,C/O Air Host Inc. @ Branson National Airport 2300 North Airport Blvd,MO,65802
McAlister's,Midlothian,1327,#1327 1327,15600 WC Commons Ways,VA,23113
McAlister's,Republic,1328,#1328 1328,586 East Harrison St.,MO,65738
McAlister's,Cleveland,1329,#1329 1329,5300 Riverside Drive,OH,44135
McAlister's,Front Royal,1331,#1331 1331,70 Riverton Commons Plaza Ste 100,VA,22630
McAlister's,Lee's Summit,1332,#1332 1332,910-C NW Blue Parkway,MO,64086
McAlister's,Midland,1334,#1334 1334,4415 Wadley Drive,TX,79707
McAlister's,Oklahoma City,1335,#1335 1335,"10440 South Western, Suite A",OK,74137
McAlister's,Ft. Wayne,1336,#1336 1336,1310 South Illinois Road,IN,46804
McAlister's,Russellville,1337,#1337 1337,"319 Weir Road, Suite 3",AR,72802
McAlister's,Louisville,1338,#1338 1338,4675 Outer Loop,KY,40219
McAlister's,Pearl,1339,#1339 1339,200 Riverwind Drive,MS,39208
McAlister's,Johnson City,1340,#1340 1340,"2111 Roan Street, Suite 15",TN,37601
McAlister's,Amarillo,1342,#1342 1342,8605 SW 34th Avenue,TX,79119
McAlister's,Richmond,1343,#1343 1343,1300A Gaskins Road,VA,23238
McAlister's,Richmond,1344,#1344 1344,"11530 West Broad Street, Unit A",VA,23233
McAlister's,Fairview Heights,1345,#1345 1345,101 Frey Lane,IL,62208
McAlister's,Plano,1346,#1346 1346,701 North Central Expressway Suite #100,TX,75075
McAlister's,Greenwood,1347,#1347 1347,1011 N. State Road 135,IN,46142
McAlister's,St. Joseph,1348,#1348 1348,3815 Frederick Blvd,MO,64506
McAlister's,Ruston,1349,#1349 1349,"100 Wisteria Drive, Room 151",LA,71272
McAlister's,Louisville,1350,#1350 1350,980 Breckenridge Lane,KY,40205
McAlister's,Pueblo,1351,#1351 1351,1425 Hwy 50 West,CO,81008
McAlister's,South Bend,1352,#1352 1352,"1130 Angela Blvd., Suite 102",IN,46617
McAlister's,Durham,1353,#1353 1353,6807 Fayetteville Road # 117,NC,27713-8299
McAlister's,Indianapolis,1354,#1354 1354,Indianapolis Indians Victory Field 501 West Maryland St.,IN,46225
McAlister's,Greensboro,1356,#1356 1356,1601 East Market Street,NC,27411
McAlister's,Herndon,1357,#1357 1357,13007 Worldgate Drive,VA,20170
McAlister's,Aurora,1358,#1358 1358,13950 E. Mississippi Ave.,CO,80012
McAlister's,Portland,1359,#1359 1359,1704 US Hwy 181,TX,78374
McAlister's,Odessa,1360,#1360 1360,2744 North County Road West,TX,79764
McAlister's,Lexington,1361,#1361 1361,836 Euclid Avenue,KY,40502
McAlister's,Phoenix,1362,#1362 1362,12847 North Tatum Blvd. Ste E01,AZ,85032
McAlister's,Ft. Worth,1363,#1363 1363,3053 South University Blvd.,TX,76109
McAlister's,Carmel,1364,#1364 1364,2550 East 146th Street,IN,46033
McAlister's,Abilene,1365,#1365 1365,3318 South Clack St.,TX,79606
McAlister's,Colorado Springs,1366,#1366 1366,7170 North Academy Blvd,CO,80920
McAlister's,Ft. Worth,1367,#1367 1367,6333 Camp Bowie Blvd.,TX,76116
McAlister's,Fort Mill,1368,#1368 1368,"936 Market Street, Ste. 106",SC,29708
McAlister's,Oak Ridge,1369,#1369 1369,371 South Illinois Avenue,TN,37830
McAlister's,Ft Smith,1370,#1370 1370,"7110 Rogers Avenue, Suite 108",AR,72903
McAlister's,Elizabethtown,1371,#1371 1371,4031 N Dixie Highway (US31),KY,42701
McAlister's,Clemson,1372,#1372 1372,"1390 Tiger Blvd., Suite 306",SC,29631
McAlister's,Richmond,1373,#1373 1373,"620 Eastern Bypass , Suite 620",KY,40475
McAlister's,Dallas,1374,#1374 1374,"4235 Northwest Hwy, Suite 800",TX,75220
McAlister's,Midwest City,1375,#1375 1375,2600 South Air Depot Blvd,OK,73110
McAlister's,Sherman,1376,#1376 1376,3801 Highway 75 North,TX,75090
McAlister's,Tampa,1377,#1377 1377,"4410 W. Boy Scout Blvd., Suite 150",FL,33607
McAlister's,Carbondale,1378,#1378 1378,1382 East Main Street,IL,62903
McAlister's,Maplewood,1379,#1379 1379,3200-B Laclede Station Rd.,MO,63143
McAlister's,Abilene,1380,#1380 1380,849 N. Judge Ely Blvd.,TX,79601
McAlister's,Nashville,1381,#1381 1381,2004 Belmont Blvd.,TN,37212
McAlister's,Andrews,1382,#1382 1382,1200 North Main Street,TX,79714
McAlister's,Omaha,1383,#1383 1383,12405 W. Center Road,NE,68144
McAlister's,Lawton,1384,#1384 1384,2910 NW Cache Rd,OK,73505
McAlister's,Irving,1385,#1385 1385,3501 Regent Blvd.,TX,75063
McAlister's,Evansville,1387,#1387 1387,2220 North Green River Rd.,IN,47715
McAlister's,Columbus,1390,#1390 1390,7664 Sawmill Rd,OH,43016
McAlister's,Carlsbad,1392,#1392 1392,2304 West Pierce St.,NM,88220
