keywords,city,Aggdata Store Number,store_number,address,state,zip_code
The Men's Wearhouse,HOUSTON,1101,1101,5602 WESTHEIMER RD,TX,77056
The Men's Wearhouse,PASADENA,1103,1103,5556 FAIRMONT PARKWAY,TX,77505
The Men's Wearhouse,HOUSTON,1105,1105,1120 FRY ROAD,TX,77084
The Men's Wearhouse,HUMBLE,1106,1106,20125 HIGHWAY 59,TX,77338
The Men's Wearhouse,BEAUMONT,1110,1110,"4030 DOWLEN RD., SUITE 1",TX,77706
The Men's Wearhouse,HOUSTON,1113,1113,11081 WESTHEIMER RD. STE. A,TX,77042
The Men's Wearhouse,HOUSTON,1115,1115,7696 FM 1960 ROAD WEST,TX,77070
The Men's Wearhouse,FRIENDSWOOD,1117,1117,19222 GULF FREEWAY,TX,77546
The Men's Wearhouse,HOUSTON,1118,1118,4946 BEECHNUT,TX,77096
The Men's Wearhouse,HOUSTON,1119,1119,6545 HIGHWAY 6 NORTH,TX,77084
The Men's Wearhouse,HOUSTON,1120,1120,1947 WEST GRAY,TX,77019
The Men's Wearhouse,SUGARLAND,1121,1121,2621 TOWN CENTER BLVD,TX,77479
The Men's Wearhouse,SHENANDOAH,1123,1123,19075 IH45 SUITE 116B,TX,77385-8705
The Men's Wearhouse,CONROE,1124,1124,2960 INTERSTATE I-45 N. #100,TX,77303
The Men's Wearhouse,PEARLAND,1125,1125,2813 BUSINESS CENTER DR.,TX,77584
The Men's Wearhouse,HOUSTON,1127,1127,6191 E. SAM HOUSTON PKWY N,TX,77049
The Men's Wearhouse,TEMPLE,1210,1210,3550 S GENERAL BRUCE DR #D120,TX,76504
The Men's Wearhouse,SAN ANTONIO,1211,1211,5531 LOOP 1604 N,TX,78253
The Men's Wearhouse,ROUND ROCK,1212,1212,2711 LA FRONTERA BLVD. STE.100,TX,78681
The Men's Wearhouse,AUSTIN,1213,1213,9600 S I H 35 STE S300,TX,78748
The Men's Wearhouse,SAN ANTONIO,1214,1214,"1903 N LOOP 1604 E BLD 1, #101",TX,78232
The Men's Wearhouse,LAS CRUCES,1216,1216,2240 EAST LOHMAN AVE.,NM,88001-8490
The Men's Wearhouse,SANTA FE,1217,1217,"3513 ZAFARANO DRIVE, STE. A1-2",NM,87507
The Men's Wearhouse,SELMA,1218,1218,"8235 AGORA PKWY, SUITE 101",TX,78154
The Men's Wearhouse,ALBUQUERQUE,1219,1219,10260 COORS BYP. NW,NM,87114-4088
The Men's Wearhouse,EL PASO,1220,1220,807 SUNLAND PARK DRIVE,TX,79912
The Men's Wearhouse,AUSTIN,1221,1221,"6406 N INTERSTATE 35, 2375",TX,78752
The Men's Wearhouse,AUSTIN,1222,1222,2901 SOUTH CAPITAL OF TX HWY,TX,78746
The Men's Wearhouse,CEDAR PARK,1223,1223,"11200 LAKELINE MALL DRIVE,F-13",TX,78613
The Men's Wearhouse,SAN ANTONIO,1224,1224,11745 WEST I-10 SUITE 755,TX,78230
The Men's Wearhouse,SAN ANTONIO,1225,1225,"125 NW LOOP 410, STE.401",TX,78216-5388
The Men's Wearhouse,CORPUS CHRISTI,1227,1227,5425 S.PADRE ISL DR #150,TX,78411
The Men's Wearhouse,EL PASO,1228,1228,"1111 HAWKINS BLVD, #3-D",TX,79925-6400
The Men's Wearhouse,MCALLEN,1229,1229,2017 S. 10TH ST,TX,78503
The Men's Wearhouse,ALBUQUERQUE,1230,1230,"6307 MENAUL BLVD., N.E.",NM,87110
The Men's Wearhouse,FORT WORTH,1231,1231,"5284 SOUTH HULEN STREET, #110",TX,76132
The Men's Wearhouse,DALLAS,1232,1232,5225 BELTLINE RD. STE. 202,TX,75254
The Men's Wearhouse,MESQUITE,1233,1233,1515 N. TOWN EAST BLVD STE 188,TX,75150
The Men's Wearhouse,PLANO,1235,1235,2401 PRESTON,TX,75093
The Men's Wearhouse,DALLAS,1236,1236,9100 N. CENTRAL EXPY #137,TX,75231
The Men's Wearhouse,FORT WORTH,1237,1237,"4701 WEST FREEWAY, SUITE 250",TX,76107
The Men's Wearhouse,ARLINGTON,1238,1238,951 INTERSTATE 20 W STE. 101,TX,76015
The Men's Wearhouse,HURST,1239,1239,1341 W. PIPELINE ROAD,TX,76053-4624
The Men's Wearhouse,CEDAR HILL,1240,1240,364 N. HIGHWAY 67,TX,75104
The Men's Wearhouse,DALLAS,1241,1241,8239 PRESTON RD.,TX,75225
The Men's Wearhouse,PLANO,1243,1243,909 N CNTRL EXPRESSWY 200,TX,75075
The Men's Wearhouse,TYLER,1244,1244,4601 S. BROADWAY SUITE JOA,TX,75702
The Men's Wearhouse,LUBBOCK,1245,1245,6211 SLIDE ROAD,TX,79414
The Men's Wearhouse,LEWISVILLE,1246,1246,2267 S. STEMMONS FREEWAY #601,TX,75067-8760
The Men's Wearhouse,SOUTHLAKE,1248,1248,3030 EAST SOUTHLAKE BLVD,TX,76092
The Men's Wearhouse,IRVING,1249,1249,"901 MACARTHUR PARK, SUITE 190",TX,75063
The Men's Wearhouse,FRISCO,1250,1250,"8500 GAYLORD PARKWAY, #1",TX,75034
The Men's Wearhouse,TULSA,1251,1251,"8518 E. 71ST STREET, STE. D",OK,74133
The Men's Wearhouse,OKLAHOMA CITY,1252,1252,2530 WEST MEMORIAL RD.,OK,73134-8001
The Men's Wearhouse,OKLAHOMA CITY,1253,1253,1901 NW EXPSY #1066-1074,OK,73118
The Men's Wearhouse,MOORE,1254,1254,2550 SOUTH I-35 SERVICE RD.,OK,73160
The Men's Wearhouse,WICHITA,1255,1255,7700 E KELLOGG DR # 1460,KS,67207
The Men's Wearhouse,WACO,1256,1256,2400 W LOOP 340 STE 3,TX,76711-2412
The Men's Wearhouse,COLLEGE STATION,1257,1257,"2002 TEXAS AVE. SOUTH, STE.200",TX,77840
The Men's Wearhouse,MIDLAND,1258,1258,"4610 GARFIELD ST, SUITE D-1",TX,79705
The Men's Wearhouse,OWASSO,1259,1259,9045 N 121ST EAST AVE. STE.700,OK,74055-5359
The Men's Wearhouse,GARLAND,1260,1260,320 HORSESHOE DRIVE,TX,75040
The Men's Wearhouse,DENTON,1261,1261,"1931 S. LOOP 288, STE. 110",TX,76205
The Men's Wearhouse,AMARILLO,1262,1262,121 WESTGATE PARKWAY WEST,TX,79121-1103
The Men's Wearhouse,ALLEN,1263,1263,190 E. STACY RD. BLDG 4000,TX,75002
The Men's Wearhouse,WICHITA FALLS,1264,1264,"3201 LAWRENCE RD, SUITE#525",TX,76308
The Men's Wearhouse,ARLINGTON,1265,1265,241 E IH-20,TX,76018
The Men's Wearhouse,DALLAS,1266,1266,3501 MCKINNEY AVE,TX,75204
The Men's Wearhouse,ABILENE,1267,1267,3550 CATCLAW DR,TX,79606
The Men's Wearhouse,AUSTIN,1297,1297,5207 BRODIE LANE STE#135,TX,78745
The Men's Wearhouse,AURORA,1301,1301,14181 E. CEDAR AVE.,CO,80012
The Men's Wearhouse,BOULDER,1302,1302,1600 28TH STREET STE. 1220,CO,80301
The Men's Wearhouse,DENVER,1303,1303,201 FILLMORE STREET,CO,80206
The Men's Wearhouse,HIGHLANDS RANCH,1304,1304,2040 EAST COUNTY LINE RD.,CO,80126
The Men's Wearhouse,WESTMINSTER,1305,1305,8801 HARLAN ST. UNIT C,CO,80030
The Men's Wearhouse,LAKEWOOD,1306,1306,"415 S. WADSWORTH, UNIT A",CO,80226
The Men's Wearhouse,COLORADO SPRINGS,1307,1307,3130 NEW CENTER POINT,CO,80922
The Men's Wearhouse,LITTLETON,1308,1308,5132 S. WADSWORTH BLVD STE 120,CO,80123
The Men's Wearhouse,FORT COLLINS,1309,1309,3636 SOUTH COLLEGE AVENUE,CO,80525
The Men's Wearhouse,LONE TREE,1310,1310,8699 PARK MEADOWS CENTER DRIVE,CO,80124
The Men's Wearhouse,COLORADO SPRINGS,1311,1311,7580 GODDARD STREET,CO,80920-3206
The Men's Wearhouse,BROOMFIELD,1312,1312,160 E FLATIRON CROSSING DR,CO,80021
The Men's Wearhouse,AURORA,1313,1313,6262 S. CENTRAL STREET,CO,80016
The Men's Wearhouse,GRAND JUNCTION,1314,1314,2424 HIGHWAY 6 & 50,CO,81505
The Men's Wearhouse,CHEYENNE,1330,1330,"1650 DELL RANGE BLVD, STE C",WY,82009
The Men's Wearhouse,COLORADO SPRINGS,1398,1398,2014 SOUTHGATE RD.,CO,80906
The Men's Wearhouse,METAIRIE,1401,1401,3033 N. CAUSEWAY BLVD.,LA,70002-4803
The Men's Wearhouse,HARVEY,1402,1402,"1629 WESTBANK EXPWY, SPACE C",LA,70058
The Men's Wearhouse,BATON ROUGE,1403,1403,5915 BLUEBONNET BLVD. C-2,LA,70836
The Men's Wearhouse,LAFAYETTE,1404,1404,5725 JOHNSTON STREET,LA,70503
The Men's Wearhouse,MONROE,1405,1405,4756 PECANLAND MALL RD.,LA,71201
The Men's Wearhouse,LAKE CHARLES,1406,1406,630 WEST PRIEN LAKE ROAD,LA,70601-8316
The Men's Wearhouse,SHREVEPORT,1407,1407,"7151 YOUREE DRIVE., SUITE 100",LA,71105-5106
The Men's Wearhouse,SLIDELL,1408,1408,61123 AIRPORT ROAD,LA,70460
The Men's Wearhouse,JACKSON,1411,1411,"1039 EAST COUNTY LINE RD, #103",MS,39211
The Men's Wearhouse,SOUTHAVEN,1412,1412,6622 TOWNE CENTER CROSSING,MS,38671
The Men's Wearhouse,HATTIESBURG,1413,1413,24 CROSS CREEK PARKWAY,MS,39402
The Men's Wearhouse,BILOXI,1414,1414,2600 BEACH BLVD #69,MS,39531
The Men's Wearhouse,MOBILE,1421,1421,3240 BEL AIR MALL,AL,36606
The Men's Wearhouse,PENSACOLA,1431,1431,"5100 N 9TH AVE, F601",FL,32504
The Men's Wearhouse,ALEXANDRIA,1480,1480,2385 S. MACARTHUR DR. #102,LA,71301
The Men's Wearhouse,TUPELO,1483,1483,3944 NORTH GLOSTER STREET #C,MS,38804
The Men's Wearhouse,PENSACOLA,1484,1484,5912 N DAVIS HWY STE A,FL,32503
The Men's Wearhouse,BOSSIER CITY,1488,1488,2930 MEADOW CREEK DR.,LA,71111
The Men's Wearhouse,HARAHAN,1492,1492,1130 SOUTH CLEARVIEW PKWY #E,LA,70123
The Men's Wearhouse,GRETNA,1494,1494,197 WEST BANK EXPRESSWAY #1145,LA,70053
The Men's Wearhouse,MONROE,1495,1495,4301 PECANLAND MALL DRIVE,LA,71203
The Men's Wearhouse,BATON ROUGE,1497,1497,6401 BLUEBONNET BLVD. #2088,LA,70836
The Men's Wearhouse,LAFAYETTE,1498,1498,3521 AMBASSADOR CAFFERY #E,LA,70503
The Men's Wearhouse,COLLIERVILLE,1501,1501,10210 COLLIERVILLE RD. STE 101,TN,38017
The Men's Wearhouse,MEMPHIS,1502,1502,5835 US HWY 72,TN,38119
The Men's Wearhouse,MEMPHIS,1504,1504,8095 GIACOSA PLACE,TN,38133
The Men's Wearhouse,NASHVILLE,1510,1510,3908 HILLSBORO PIKE,TN,37215
The Men's Wearhouse,MURFREESBORO,1511,1511,1970 OLD FORT PARKWAY,TN,37129-6935
The Men's Wearhouse,MADISON,1512,1512,"1921 GALLATIN PIKE NORTH, #1",TN,37115
The Men's Wearhouse,FRANKLIN,1513,1513,1800 GALLERIA BLVD #2610,TN,37067
The Men's Wearhouse,MT. JULIET,1514,1514,401 S. MT. JULIET RD. STE. 325,TN,37122
The Men's Wearhouse,CLARKSVILLE,1515,1515,2804 WILMA RUDOLPH BLVD,TN,37040
The Men's Wearhouse,KNOXVILLE,1516,1516,11477 PARKSIDE DR SPACE 203,TN,37934
The Men's Wearhouse,KNOXVILLE,1521,1521,"7818 KINGSTON PIKE, SPACE #2",TN,37919-5520
The Men's Wearhouse,JOHNSON CITY,1522,1522,1914 N. ROAN ST. STE. 102,TN,37601
The Men's Wearhouse,JACKSON,1523,1523,1012 VANN DRIVE,TN,38305
The Men's Wearhouse,LITTLE ROCK,1531,1531,12305 SUITE A CHENAL PARKWAY,AR,72211
The Men's Wearhouse,NORTH LITTLE ROCK,1532,1532,4205 MCCAIN BOULEVARD,AR,72117
The Men's Wearhouse,ROGERS,1533,1533,4407 WEST WALNUT STREET,AR,72756-9526
The Men's Wearhouse,JONESBORO,1534,1534,"2303 STADIUM BLVD, SUITE B",AR,72401
The Men's Wearhouse,CHATTANOOGA,1541,1541,2021 GUNBARREL ROAD,TN,37421
The Men's Wearhouse,MURFREESBORO,1584,1584,2615 MEDICAL CENTER PKWY #1720,TN,37129
The Men's Wearhouse,CHATTANOOGA,1588,1588,271 NORTHGATE MALL #K060,TN,37415
The Men's Wearhouse,CHATTANOOGA,1589,1589,2100 HAMILTON BLVD #210,TN,37421
The Men's Wearhouse,JACKSON,1590,1590,1032 VANN DRIVE -H,TN,38305
The Men's Wearhouse,JOHNSON CITY,1591,1591,3135 PEOPLES STREET #200,TN,37604
The Men's Wearhouse,KNOXVILLE,1593,1593,7600 KINGSTON PIKE SPACE 1184,TN,37919
The Men's Wearhouse,LENEXA,1601,1601,9590 QUIVERA RD,KS,66215
The Men's Wearhouse,LEE SUMMIT,1602,1602,1704 W. CHIPMAN,MO,64063
The Men's Wearhouse,KANSAS CITY,1603,1603,8431 NW PRAIRIE VIEW ROAD,MO,64153-1842
The Men's Wearhouse,INDEPENDENCE,1604,1604,18680 E. 39TH ST. SOUTH,MO,64057
The Men's Wearhouse,OLATHE,1605,1605,13540 SOUTH ALDEN,KS,66062
The Men's Wearhouse,TOPEKA,1606,1606,1920 SW WANAMAKER RD. STE. 100,KS,66604-3855
The Men's Wearhouse,OVERLAND PARK,1607,1607,6655 W. 135TH STREET,KS,66223
The Men's Wearhouse,WICHITA,1608,1608,2441 NORTH MAIZE RD STE 107,KS,67205
The Men's Wearhouse,INDEPENDENCE,1696,1696,18813 EAST 39TH ST S. #2042,MO,64057
The Men's Wearhouse,LENEXA,1698,1698,9320 MARSHALL DRIVE,KS,66215
The Men's Wearhouse,LEAWOOD,1699,1699,4829 WEST 117TH STREET,KS,66211
The Men's Wearhouse,BRENTWOOD,1701,1701,8332 EAGER RD.,MO,63144-1412
The Men's Wearhouse,FLORISSANT,1702,1702,14055 NEW HALLS FERRY RD.,MO,63033-2708
The Men's Wearhouse,CHESTERFIELD,1704,1704,1668 CLARKSON RD,MO,63017
The Men's Wearhouse,FAIRVIEW HEIGHTS,1705,1705,6651 N. ILLINOIS STREET,IL,62208
The Men's Wearhouse,SPRINGFIELD,1706,1706,"1724 EAST BATTLEFIELD, PLOT 6",MO,65804-3735
The Men's Wearhouse,ST. PETERS,1707,1707,1600 MID RIVERS MALL DR. 2008A,MO,63376
The Men's Wearhouse,DES PERES,1708,1708,106 WEST COUNTY CENTER,MO,63131
The Men's Wearhouse,ST. LOUIS,1709,1709,30 SOUTH COUNTY CENTER WAY,MO,63129
The Men's Wearhouse,COLUMBIA,1710,1710,303 N. STADIUM BLVD. STE.#107,MO,65203
The Men's Wearhouse,CAPE GIRARDEAU,1790,1790,155 SIEMERS DRIVE SUITE 2,MO,63701
The Men's Wearhouse,JOPLIN,1791,1791,323 SOUTH RANGE LINE ROAD,MO,64801
The Men's Wearhouse,ST. JOSEPH,1792,1792,5301 NORTH BELT HIGHWAY #113,MO,64506
The Men's Wearhouse,ST. PETERS,1795,1795,1600 MID RIVERS MALL #1508,MO,63376
The Men's Wearhouse,SUNSET HILLS,1797,1797,10746 SUNSET HILLS PLAZA,MO,63127
The Men's Wearhouse,BILLINGS,1801,1801,2350 KING AVE W STE100,MT,59102
The Men's Wearhouse,DALY CITY,2109,2109,42 SERRAMONTE CENTER,CA,94015
The Men's Wearhouse,FAIRFIELD,2111,2111,1350 TRAVIS BLVD. SPACE VI,CA,94533
The Men's Wearhouse,PLEASANTON,2112,2112,1388 STONERIDGE MALL #D101,CA,94588
The Men's Wearhouse,SAN JOSE,2116,2116,925 BLOSSOM HILL RD. STE. 1002,CA,95123
The Men's Wearhouse,SAN JOSE,2151,2151,5353 ALMADEN EXPY STE 39,CA,95118
The Men's Wearhouse,FREMONT,2153,2153,43805 PACIFIC COMMONS BLVD,CA,94538
The Men's Wearhouse,PLEASANT HILL,2154,2154,552 CONTRA COSTA BLVD.,CA,94523
The Men's Wearhouse,SAN FRANCISCO,2156,2156,785 MARKET STREET,CA,94103
The Men's Wearhouse,GREENBRAE,2158,2158,2048 REDWOOD HIGHWAY,CA,94904
The Men's Wearhouse,SAN JOSE,2159,2159,3121 STEVENS CREEK BLVD.,CA,95117-1141
The Men's Wearhouse,WALNUT CREEK,2160,2160,1101 LOCUST STREET,CA,94596-5103
The Men's Wearhouse,SUNNYVALE,2161,2161,804 W. EL CAMINO REAL,CA,94087
The Men's Wearhouse,SAN MATEO,2162,2162,1960 S. EL CAMINO REAL,CA,94403-1322
The Men's Wearhouse,SAN LEANDRO,2163,2163,1239 MARINA BLVD.,CA,94577
The Men's Wearhouse,COLMA,2167,2167,"47 COLMA, E8",CA,94014
The Men's Wearhouse,SAN RAMON,2168,2168,2441 SAN RAMON VALLEY BLV,CA,94583
The Men's Wearhouse,OAKLAND,2169,2169,"300 FRANK H. OGAWA PLAZA, #110",CA,94612
The Men's Wearhouse,SANTA ROSA,2171,2171,1001 STEELE LN,CA,95403-2988
The Men's Wearhouse,FAIRFIELD,2178,2178,"1350 TRAVIS BLVD, #W11",CA,94533
The Men's Wearhouse,SAN JOSE,2179,2179,1640 SARATOGA AVE.,CA,95129
The Men's Wearhouse,CAPITOLA,2180,2180,2145 41ST AVE.,CA,95010
The Men's Wearhouse,EMERYVILLE,2182,2182,"5727 CHRISTIE ST., #C4",CA,94608
The Men's Wearhouse,REDWOOD CITY,2183,2183,2505 EL CAMINO REAL,CA,94061
The Men's Wearhouse,MONTEREY,2186,2186,390 DEL MONTE CENTER,CA,93940
The Men's Wearhouse,PLEASANTON,2187,2187,2013 STONERIDGE MALL ROAD,CA,94588-3215
The Men's Wearhouse,NOVATO,2189,2189,"236 VINTAGE WAY, STE P",CA,94945
The Men's Wearhouse,MILPITAS,2191,2191,200 RANCH DRIVE,CA,95035
The Men's Wearhouse,ANTIOCH,2192,2192,5789 LONETREE WAY,CA,94531
The Men's Wearhouse,MORGAN HILL,2193,2193,1031 COCHRANE RD. STE. 140,CA,95037
The Men's Wearhouse,ELK GROVE,2203,2203,7423 LAGUNA BLVD. #300,CA,95758
The Men's Wearhouse,MERCED,2206,2206,765 MERCED MALL #A16,CA,95348
The Men's Wearhouse,FRESNO,2207,2207,639 E SHAW AVE. STE.103,CA,93710
The Men's Wearhouse,FOLSOM,2264,2264,2761 EAST BIDWELL ST #500,CA,95630
The Men's Wearhouse,SACRAMENTO,2265,2265,1701 ETHAN WAY,CA,95815
The Men's Wearhouse,CITRUS HEIGHTS,2266,2266,6177 SUNRISE BLVD.,CA,95610
The Men's Wearhouse,ROSEVILLE,2270,2270,1224 GALLERIA BOULEVARD,CA,95678
The Men's Wearhouse,MODESTO,2272,2272,3401 DALE RD SPACE W-3,CA,95356-0502
The Men's Wearhouse,STOCKTON,2273,2273,"5756 PACIFIC AVENUE, #44",CA,95207
The Men's Wearhouse,RIVERBANK,2274,2274,2401 CLARIBEL RD.,CA,95367
The Men's Wearhouse,FRESNO,2276,2276,488 E. SHAW,CA,93710
The Men's Wearhouse,VISALIA,2281,2281,2226 S. MOONEY BLVD. STE. A-15,CA,93277
The Men's Wearhouse,BAKERSFIELD,2285,2285,3006 MING AVE. SUITE A,CA,93304-4136
The Men's Wearhouse,CHICO,2286,2286,1950 EAST 20TH ST. STE. E-501,CA,95928
The Men's Wearhouse,ELK GROVE,2294,2294,"7427 LAGUNA BLVD., SUITE 100",CA,95758-5060
The Men's Wearhouse,REDDING,2295,2295,905 SUITE 1-D DANA DRIVE,CA,96003-4020
The Men's Wearhouse,SACRAMENTO,2296,2296,3635 N FREEWAY BLVD.,CA,95834-2902
The Men's Wearhouse,SAN DIEGO,2301,2301,10761 WESTVIEW PARKWAY,CA,92126
The Men's Wearhouse,SAN DIEGO,2302,2302,"5171 MISSION CENTER ROAD, B",CA,92108
The Men's Wearhouse,ESCONDIDO,2303,2303,1276 B AUTO PARK WAY 165,CA,92029
The Men's Wearhouse,SAN DIEGO,2305,2305,8650 GENESEE AVE #224,CA,92122
The Men's Wearhouse,OCEANSIDE,2307,2307,2555 VISTA WAY STE C,CA,92054-6339
The Men's Wearhouse,NATIONAL CITY,2308,2308,3030 PLAZA BONITA RD #2500,CA,91950
The Men's Wearhouse,ENCINITAS,2310,2310,1042 H NORTH EL CAMINO REAL,CA,92024
The Men's Wearhouse,LA MESA,2311,2311,"5465 GROSSMONT CENTER DRIVE, D",CA,91942
The Men's Wearhouse,SAN DIEGO,2391,2391,11950 CARMEL MOUNTAIN RD #228,CA,92128
The Men's Wearhouse,CARLSBAD,2395,2395,2525 EL CAMINO REAL #203,CA,92008
The Men's Wearhouse,LAS VEGAS,2401,2401,1159 E TWAIN # 104-107,NV,89109
The Men's Wearhouse,LAS VEGAS,2402,2402,8950 W. CHARLESTON BLVD,NV,89117-5406
The Men's Wearhouse,RENO,2403,2403,5000 SMITHRIDGE CTR #B12,NV,89502-5654
The Men's Wearhouse,HENDERSON,2404,2404,"509 N. STEPHANIE STREET, SP# B",NV,89014
The Men's Wearhouse,LAS VEGAS,2405,2405,2110 NORTH RAINBOW,NV,89108-7051
The Men's Wearhouse,LAS VEGAS,2406,2406,7295 ARROYO CROSSING,NV,89113
The Men's Wearhouse,RENO,2497,2497,5487 MEADOWOOD MALL CIR #C32,NV,89502
The Men's Wearhouse,PHOENIX,2501,2501,10810 N. TATUM BLVD.,AZ,85028
The Men's Wearhouse,TEMPE,2502,2502,2010 E. RIO SALADO PKWY #105,AZ,85281-3042
The Men's Wearhouse,PHOENIX,2503,2503,1945 E. CAMELBACK ROAD,AZ,85016
The Men's Wearhouse,SCOTTSDALE,2504,2504,9019 EAST INDIAN BEND ROAD,AZ,85250-8521
The Men's Wearhouse,PEORIA,2505,2505,16840 N 77TH AVENUE,AZ,85382-3807
The Men's Wearhouse,PHOENIX,2506,2506,4933 EAST RAY RD STE 101,AZ,85044
The Men's Wearhouse,TUCSON,2507,2507,90 WEST RIVER ROAD,AZ,85704
The Men's Wearhouse,TUCSON,2508,2508,5628 EAST BROADWAY BLVD.,AZ,85711-3812
The Men's Wearhouse,PHOENIX,2509,2509,2310 W HAPPY VALLEY RD #1013,AZ,85085
The Men's Wearhouse,SCOTTSDALE,2510,2510,16495 N SCOTTSDALE RD # 5A-2,AZ,85254
The Men's Wearhouse,MESA,2511,2511,6355 E. SOUTHERN AVENUE,AZ,85206
The Men's Wearhouse,CHANDLER,2512,2512,3400 WEST CHANDLER BLVD. STE 1,AZ,85226-5116
The Men's Wearhouse,GILBERT,2513,2513,2703 S. MARKET,AZ,85296-6302
The Men's Wearhouse,PEORIA,2514,2514,24640 N. LAKE PLEASANT PKWY,AZ,85383
The Men's Wearhouse,AVONDALE,2515,2515,"10005 W MCDOWELL RD, STE#104",AZ,85392
The Men's Wearhouse,TUCSON,2595,2595,4500 N ORACLE RD #417,AZ,85705
The Men's Wearhouse,PEORIA,2597,2597,7575 WEST BELL ROAD #102,AZ,85382
The Men's Wearhouse,BURLINGTON,2624,2624,1835 S. BURLINGTON BLVD. #120,WA,98233
The Men's Wearhouse,BEND,2664,2664,"63455 N. HIGHWAY 97, VS-240",OR,97701
The Men's Wearhouse,RIVERDALE,2665,2665,4099 RIVERDALE RD SUITE A,UT,84405
The Men's Wearhouse,TIGARD,2666,2666,16940 SW 72ND AVE.,OR,97224-7209
The Men's Wearhouse,SALT LAKE CITY,2668,2668,2121 HIGHLAND DRIVE,UT,84106
The Men's Wearhouse,GRESHAM,2669,2669,1064 NW NORMAN AVENUE,OR,97030
The Men's Wearhouse,HILLSBORO,2670,2670,18565 NW TANASBOURNE DR.,OR,97124
The Men's Wearhouse,OREM,2671,2671,474 E UNIVERSITY PARKWAY,UT,84097
The Men's Wearhouse,WEST JORDAN,2672,2672,7211 S. PLAZA CTR DR # 190,UT,84084
The Men's Wearhouse,MURRAY,2673,2673,6396 SOUTH STATE STREET,UT,84107
The Men's Wearhouse,SANDY,2674,2674,10491 SOUTH STATE STREET,UT,84070
The Men's Wearhouse,LAYTON,2675,2675,1850 N 1000 W,UT,84041
The Men's Wearhouse,PUYALLUP,2676,2676,"4102 MERIDIAN SOUTH, STE.B2",WA,98373-5962
The Men's Wearhouse,KENNEWICK,2677,2677,7500 W. QUINAULT AVE.,WA,99336
The Men's Wearhouse,EUGENE,2678,2678,1011 VALLEY RIVER WAY #121,OR,97401
The Men's Wearhouse,AUBURN,2679,2679,1424 OUTLET COLLECTION WAY,WA,98001
The Men's Wearhouse,PORTLAND,2680,2680,994 LLOYD CENTER,OR,97232
The Men's Wearhouse,OLYMPIA,2681,2681,"1001 COOPER POINT RD, S.W.",WA,98502
The Men's Wearhouse,SEATTLE,2682,2682,500 NE NORTHGATE WAY,WA,98125
The Men's Wearhouse,SPOKANE,2683,2683,5005 N DIVISION #105/106,WA,99207
The Men's Wearhouse,BELLEVUE,2684,2684,550 106TH AVENUE NE,WA,98004-5005
The Men's Wearhouse,TACOMA,2685,2685,2505 S 38TH STREET STE T,WA,98409
The Men's Wearhouse,LYNNWOOD,2686,2686,2701 184TH ST SW #114,WA,98037
The Men's Wearhouse,REDMOND,2687,2687,2110 148TH AVE. NE,WA,98052
The Men's Wearhouse,TUKWILA,2688,2688,16971 SOUTHCENTER PKWY,WA,98188
The Men's Wearhouse,BELLINGHAM,2689,2689,1 BELLIS FAIR PARKWAY,WA,98226-5563
The Men's Wearhouse,SILVERDALE,2690,2690,3236 N.W. PLAZA ROAD,WA,98383
The Men's Wearhouse,SEATTLE,2692,2692,1404 4TH AVENUE,WA,98101
The Men's Wearhouse,BOISE,2693,2693,"510 N. MILWAUKEE, SPACE 102",ID,83704
The Men's Wearhouse,PORTLAND,2694,2694,851 S. W. 6TH AVE.,OR,97204
The Men's Wearhouse,CLACKAMAS,2695,2695,8876 S.E. SUNNYSIDE,OR,97015
The Men's Wearhouse,BEAVERTON,2696,2696,"11915 SW CANYON, SUITE A",OR,97005-2151
The Men's Wearhouse,KEIZER,2697,2697,6065 KEIZER STATION BLVD,OR,97303
The Men's Wearhouse,AMMON,2698,2698,1779 S 25TH EAST,ID,83406
The Men's Wearhouse,HUNTINGTON BEACH,2701,2701,7738 EDINGER AVE.,CA,92647
The Men's Wearhouse,WOODLAND HILLS,2702,2702,6400 OWENSMOUTH AVENUE,CA,91367
The Men's Wearhouse,SANTA MONICA,2703,2703,1701 WILSHIRE BLVD.,CA,90403
The Men's Wearhouse,NORTHRIDGE,2704,2704,9021 TAMPA AVE.,CA,91324
The Men's Wearhouse,RIVERSIDE,2705,2705,3764 TYLER STREET,CA,92503
The Men's Wearhouse,BREA,2706,2706,985 E. BIRCH ST.,CA,92821
The Men's Wearhouse,SANTA ANA,2707,2707,"3930 S. BRISTOL ST., SUITE 101",CA,92704-7431
The Men's Wearhouse,TORRANCE,2708,2708,18407 HAWTHORNE BLVD.,CA,90504
The Men's Wearhouse,IRVINE,2709,2709,3730 BARRANCA PKWY,CA,92606
The Men's Wearhouse,OXNARD,2710,2710,1991 VENTURA BLVD.,CA,93030
The Men's Wearhouse,GLENDALE,2711,2711,120 N. GLENDALE AVE.,CA,91206
The Men's Wearhouse,SAN BERNARDINO,2712,2712,895 SOUTH E STREET,CA,92408
The Men's Wearhouse,CERRITOS,2713,2713,17550 BLOOMFIELD AVE SUITE B-1,CA,90703
The Men's Wearhouse,RANCHO CUCAMONGA,2714,2714,"12238 FOOTHILL BLVD.,STE. 150",CA,91730
The Men's Wearhouse,PASADENA,2716,2716,406 SOUTH LAKE AVENUE,CA,91101
The Men's Wearhouse,SANTA BARBARA,2717,2717,719 STATE STREET,CA,93101-3329
The Men's Wearhouse,MONTCLAIR,2718,2718,9177 CENTRAL AVE. #A,CA,91763-1624
The Men's Wearhouse,ARCADIA,2719,2719,400 S. BALDWIN AVE STE 437-U,CA,91007
The Men's Wearhouse,LAKE FOREST,2721,2721,23700 A EL TORO RD.,CA,92630
The Men's Wearhouse,SANTA CLARITA,2723,2723,24145 MAGIC MOUNTAIN PARKWAY,CA,91355-3914
The Men's Wearhouse,THOUSAND OAKS,2726,2726,33 N. MOORPARK ROAD STE C,CA,91360
The Men's Wearhouse,MONTEREY PARK,2727,2727,1901 S. ATLANTIC BLVD,CA,91754
The Men's Wearhouse,MARINA DEL REY,2729,2729,13161 MINDANAO WAY #D6,CA,90292
The Men's Wearhouse,WEST COVINA,2732,2732,426 PLAZA DR. STE#1420,CA,91790
The Men's Wearhouse,CHINO,2733,2733,"4004 GRAND AVENUE, UNIT D",CA,91710
The Men's Wearhouse,PALMDALE,2735,2735,1201 WEST RANCHO VISTA BLVD,CA,93551
The Men's Wearhouse,ORANGE,2736,2736,745 SOUTH MAIN STREET,CA,92866
The Men's Wearhouse,TEMECULA,2737,2737,"40788 WINCHESTER ROAD, SUITE A",CA,92591-4020
The Men's Wearhouse,MISSION VIEJO,2739,2739,27632 CROWN VALLEY PARKWAY,CA,92691-6522
The Men's Wearhouse,BURBANK,2740,2740,1403 VICTORY PLACE,CA,91502
The Men's Wearhouse,SAN LUIS OBISPO,2742,2742,283 MADONNA RD. SUITE C,CA,93405-6506
The Men's Wearhouse,CORONA,2743,2743,2690 TUSCANY ST. SUITE 110,CA,92881
The Men's Wearhouse,REDLANDS,2744,2744,9990 ALABAMA SUITE A,CA,92374
The Men's Wearhouse,LAKEWOOD,2745,2745,4447 CANDLEWOOD ST,CA,90712
The Men's Wearhouse,PALM DESERT,2746,2746,72290 STATE HIGHWAY 111,CA,92260
The Men's Wearhouse,LOS ANGELES,2747,2747,100 N LA CIENEGA SPACE 122,CA,90048
The Men's Wearhouse,REDLANDS,2773,2773,27530 LUGONIA AVENUE #B7,CA,92374
The Men's Wearhouse,STUDIO CITY,2774,2774,12457 VENTURA BLVD,CA,91604
The Men's Wearhouse,REDONDO BEACH,2777,2777,1815 HAWTHORNE BLVD #371,CA,90278
The Men's Wearhouse,DOWNEY,2778,2778,251 STONEWOOD STREET SPACE F05,CA,90241
The Men's Wearhouse,SIMI VALLEY,2782,2782,1555 SIMI TOWN CENTER WAY #590,CA,93065
The Men's Wearhouse,SANTA ANA,2791,2791,2800 NORTH MAIN STREET,CA,92705
The Men's Wearhouse,BREA,2793,2793,1002 BREA MALL,CA,92821
The Men's Wearhouse,ANCHORAGE,2801,2801,601 EAST DIMOND BLVD,AK,99515
The Men's Wearhouse,HONOLULU,2950,2950,310 KAMAKEE ST SPACE#10,HI,96814
The Men's Wearhouse,KENNESAW,3101,3101,425 ERNEST BARRETT PKWY #5000,GA,30144
The Men's Wearhouse,DULUTH,3102,3102,2131 PLEASANT HILL RD STE#104,GA,30096
The Men's Wearhouse,ATLANTA,3103,3103,"3255 PEACHTREE RD. NE, #AA",GA,30305
The Men's Wearhouse,ATLANTA,3104,3104,2931 COBB PARKWAY,GA,30339
The Men's Wearhouse,ALPHARETTA,3105,3105,6012 NORTH POINT PARKWAY,GA,30022
The Men's Wearhouse,SNELLVILLE,3106,3106,1350 SCENIC HIGHWAY STE 304,GA,30078
The Men's Wearhouse,ATLANTA,3107,3107,1000 NORTHLAKE MALL #2035,GA,30345
The Men's Wearhouse,MCDONOUGH,3108,3108,1876 JONESBORO RD,GA,30253
The Men's Wearhouse,ATLANTA,3109,3109,1121 HAMMOND DRIVE NORTH EAST,GA,30346
The Men's Wearhouse,AUGUSTA,3110,3110,263 ROBERT C. DANIELS JR. PKWY,GA,30909
The Men's Wearhouse,SAVANNAH,3112,3112,"7929 ABERCORN STREET, STE.205",GA,31406
The Men's Wearhouse,FAYETTEVILLE,3113,3113,145 PAVILION PARKWAY,GA,30214
The Men's Wearhouse,BUFORD,3114,3114,3385 WOODWARD CROSSINGBLVD#320,GA,30519
The Men's Wearhouse,DOUGLASVILLE,3115,3115,9330 THE LANDING DRIVE,GA,30135
The Men's Wearhouse,LITHONIA,3116,3116,7200 STONECREST PARKWAY,GA,30038
The Men's Wearhouse,MACON,3117,3117,5080 RIVERSIDE DR. SUITE 322,GA,31210
The Men's Wearhouse,COLUMBUS,3118,3118,5555 WHITTLESEY BLVD. STE.1540,GA,31909
The Men's Wearhouse,NEWNAN,3119,3119,335 NEWNAN CROSSING BYPASS #1,GA,30265
The Men's Wearhouse,ATHENS,3120,3120,3700 ATLANTA HIGHWAY SPACE#112,GA,30606
The Men's Wearhouse,ALBANY,3178,3178,2601 DAWSON ROAD #A17,GA,31707
The Men's Wearhouse,ATLANTA,3181,3181,3500 PEACHTREE RD. NE #E-24,GA,30326
The Men's Wearhouse,MARIETTA,3183,3183,3625 DALLAS HIGHWAY SW #680,GA,30064
The Men's Wearhouse,COLUMBUS,3185,3185,3507 MANCHESTER EXPRESSWAY #22,GA,31909
The Men's Wearhouse,MACON,3186,3186,3661 EISENHOWER PKWY STE 80,GA,31206
The Men's Wearhouse,AUGUSTA,3190,3190,3450 WRIGHTSBORO RD #1410,GA,30909
The Men's Wearhouse,MORROW,3191,3191,6735 JONESBORO ROAD #F,GA,30260
The Men's Wearhouse,ALPHARETTA,3195,3195,1000 N. POINT CIRCLE #1222,GA,30022
The Men's Wearhouse,KENNESAW,3199,3199,440 BARRETT PKWY #35,GA,30144
The Men's Wearhouse,CARY,3201,3201,214 CROSSROADS BLVD. STE. 2470,NC,27518
The Men's Wearhouse,DURHAM,3202,3202,5406 NEW HOPE COMMONS DRIVE,NC,27707
The Men's Wearhouse,CHARLOTTE,3203,3203,4718 SHARON RD.,NC,28210
The Men's Wearhouse,MATTHEWS,3204,3204,2325 MATTHEWS TOWNSHIP PKWY #C,NC,28105
The Men's Wearhouse,PINEVILLE,3205,3205,11215 CAROLINA PLACE PARKWAY,NC,28134
The Men's Wearhouse,WINSTON-SALEM,3207,3207,3282 SILAS CREEK PARKWAY,NC,27103
The Men's Wearhouse,RALEIGH,3208,3208,3791 SUMNER BLVD. #170,NC,27616-2988
The Men's Wearhouse,GREENSBORO,3209,3209,"5402 HORNADAY RD., SUITE 101",NC,27407
The Men's Wearhouse,GREENSBORO,3210,3210,2806 BATTLEGROUND AVENUE,NC,27408
The Men's Wearhouse,CHARLESTON,3211,3211,1890 SAM RITTENBERG BLVD. #200,SC,29407
The Men's Wearhouse,COLUMBIA,3212,3212,120 COLUMBIANA CIRCLE,SC,29212
The Men's Wearhouse,GREENVILLE,3213,3213,765 HAYWOOD ROAD,SC,29607
The Men's Wearhouse,ASHEVILLE,3215,3215,2A HAW CREEK LANE,NC,28805
The Men's Wearhouse,WILMINGTON,3216,3216,3920 OLEANDER DRIVE,NC,28403
The Men's Wearhouse,CHARLOTTE,3217,3217,9310 CENTER LAKE DRIVE,NC,28216
The Men's Wearhouse,MOUNT PLEASANT,3218,3218,1700 TOWNE CENTRE WAY,SC,29464
The Men's Wearhouse,MYRTLE BEACH,3219,3219,1311 OAK FOREST LANE,SC,29577
The Men's Wearhouse,GREENVILLE,3220,3220,3150 EVANS ST,NC,27834
The Men's Wearhouse,DURHAM,3221,3221,6901 FAYETTEVILLE ROAD #104,NC,27713
The Men's Wearhouse,RALEIGH,3222,3222,8531-101 BRIER CREEK PARKWAY,NC,27617
The Men's Wearhouse,COLUMBIA,3223,3223,231 FORUM DR,SC,29229
The Men's Wearhouse,COLUMBIA,3224,3224,701 HARDEN STREET,SC,29205
The Men's Wearhouse,FLORENCE,3225,3225,2887 DAVID MCLEOD BLVD. C,SC,29501
The Men's Wearhouse,ANDERSON,3226,3226,3517 B CLEMSON BLVD,SC,29623
The Men's Wearhouse,FAYETTEVILLE,3227,3227,419 CROSS CREEK MALL STE#100,NC,28303
The Men's Wearhouse,CHARLOTTE,3268,3268,6801 NORTHLAKE MALL DR. #294,NC,28216
The Men's Wearhouse,BURLINGTON,3270,3270,3174 WALDEN LANE,NC,27215
The Men's Wearhouse,SPARTANBURG,3271,3271,205 WEST BLACKSTOCK RD #120,SC,29301
The Men's Wearhouse,ROCK HILL,3272,3272,526 JOHN ROSS PKWY #107,SC,29730
The Men's Wearhouse,MYRTLE BEACH,3273,3273,2000 COASTAL GRAND CIRCLE #235,SC,29577
The Men's Wearhouse,GREENVILLE,3274,3274,700 HAYWOOD RD #133,SC,29607
The Men's Wearhouse,COLUMBIA,3277,3277,275 HARBISON ROAD #EE,SC,29212
The Men's Wearhouse,CHARLESTON,3278,3278,2150 NORTHWOODS BLVD #G508,SC,29406
The Men's Wearhouse,CHARLESTON,3279,3279,2070 SAM RITTENBERG BLVD #700,SC,29407
The Men's Wearhouse,GASTONIA,3280,3280,250 NORTH NEW HOPE ROAD,NC,28054
The Men's Wearhouse,CONCORD,3281,3281,1480 CONCORD PKWY N #240,NC,28025
The Men's Wearhouse,WILMINGTON,3284,3284,859 INSPIRATION DRIVE,NC,28405
The Men's Wearhouse,GREENSBORO,3286,3286,400 FOUR SEASONS TOWN CENTER,NC,27407
The Men's Wearhouse,RALEIGH,3288,3288,4325 GLENWOOD AVE. #239,NC,27612
The Men's Wearhouse,RALEIGH,3289,3289,4229 LOUISBURG RD #131,NC,27604
The Men's Wearhouse,WINSTON-SALEM,3290,3290,115B HANES SQUARE CIRCLE,NC,27103
The Men's Wearhouse,CHARLOTTE,3293,3293,10832 PROVIDENCE ROAD #200,NC,28277
The Men's Wearhouse,CHARLOTTE,3295,3295,4400 SHARON ROAD,NC,28211
The Men's Wearhouse,ALTAMONTE SPRINGS,3301,3301,430 E. ALTAMONTE DRIVE,FL,32701-4602
The Men's Wearhouse,ORLANDO,3302,3302,2606 E. COLONIAL DR STE 400-11,FL,32803
The Men's Wearhouse,CLEARWATER,3303,3303,2719 GULF TO BAY #1135,FL,33759
The Men's Wearhouse,TAMPA,3304,3304,"1101 N DALE MABRY HWY, STE.101",FL,33607-4810
The Men's Wearhouse,TAMPA,3305,3305,"13242 N. DALE MABRY HWY, 59-61",FL,33618-2408
The Men's Wearhouse,BRANDON,3306,3306,115 BRANDON TOWN CENTER DRIVE,FL,33511
The Men's Wearhouse,JACKSONVILLE,3307,3307,4624 TOWN CROSSING DR. STE.101,FL,32246-7420
The Men's Wearhouse,JACKSONVILLE,3308,3308,13141 CITY STATION DR. STE.101,FL,32218
The Men's Wearhouse,ST. PETERSBURG,3309,3309,2480 66TH STREET NORTH,FL,33710
The Men's Wearhouse,ORLANDO,3310,3310,4194 CONROY RD SUITE 101,FL,32839
The Men's Wearhouse,TALLAHASSEE,3311,3311,1594 - 1 GOVERNOR SQUARE BLVD.,FL,32301
The Men's Wearhouse,TAMPA,3312,3312,18025 HIGHWOODS PRESERVE PKWY,FL,33647
The Men's Wearhouse,SARASOTA,3313,3313,1507 SOUTH TAMIAMI TRAIL,FL,34239
The Men's Wearhouse,WINTER GARDEN,3314,3314,"3239 DANIELS RD, 102 & 104",FL,34787
The Men's Wearhouse,MELBOURNE,3315,3315,1745 WEST NEW HAVEN AVENUE,FL,32904-3929
The Men's Wearhouse,ORANGE PARK,3316,3316,1939 WELLS ROAD,FL,32073-2326
The Men's Wearhouse,FT. MYERS,3317,3317,4951 SOUTH CLEVELAND AVENUE,FL,33907-1399
The Men's Wearhouse,DAYTONA BEACH,3318,3318,2500 W. INTERNATIONAL SPEEDWAY,FL,32114-1105
The Men's Wearhouse,TAMPA,3319,3319,8009 CITRUS PARK DRIVE,FL,33625
The Men's Wearhouse,GAINESVILLE,3320,3320,6915 W. NEWBERRY ROAD,FL,32605-4316
The Men's Wearhouse,CORAL SPRINGS,3321,3321,1203 N UNIVERSITY DR,FL,33071
The Men's Wearhouse,HIALEAH,3322,3322,1190 W. 49TH ST. #300,FL,33012
The Men's Wearhouse,AVENTURA,3323,3323,18707 BISCAYNE BOULEVARD,FL,33180
The Men's Wearhouse,PALM BEACH GARDENS,3324,3324,11295 LEGACY AVE. STE. 110,FL,33410
The Men's Wearhouse,MIAMI,3325,3325,7268 SW 89TH ST,FL,33156-7805
The Men's Wearhouse,PLANTATION,3326,3326,8110 WEST BROWARD BOULEVARD,FL,33324
The Men's Wearhouse,MIAMI,3327,3327,8722 MILLS DR. #A12 & A13,FL,33183
The Men's Wearhouse,BOCA RATON,3329,3329,"8903 W. GLADES ROAD BAY, L 7-9",FL,33434
The Men's Wearhouse,FT. LAUDERDALE,3330,3330,1638 N. FEDERAL HIGHWAY,FL,33305
The Men's Wearhouse,PEMBROKE PINES,3331,3331,12202 PINES BLVD.,FL,33026
The Men's Wearhouse,BOYNTON BEACH,3332,3332,830 N CONGRESS AVE #130,FL,33436
The Men's Wearhouse,MIAMI,3333,3333,1650 NW 107TH AVE,FL,33172
The Men's Wearhouse,STUART,3334,3334,2730 NW FEDERAL HIGHWAY,FL,34994
The Men's Wearhouse,NAPLES,3335,3335,"1000 IMMOKALEE RD, STE 10",FL,34110
The Men's Wearhouse,WELLINGTON,3336,3336,"2335 STATE RD 7, SUITE 500",FL,33414
The Men's Wearhouse,ORLANDO,3337,3337,"688 N. ALAFAYA TRAIL, 101&102",FL,32828
The Men's Wearhouse,VIERA,3338,3338,6670 COLONNADE AVE. SUITE 101,FL,32940-6000
The Men's Wearhouse,ESTERO,3339,3339,23050 VIA VILLAGIO STE 101,FL,33928-8307
The Men's Wearhouse,LAKELAND,3340,3340,3957 US HIGHWAY 98 NORTH,FL,33809
The Men's Wearhouse,KISSIMMEE,3341,3341,3299 GREENWALD WAY NORTH,FL,34741
The Men's Wearhouse,DESTIN,3342,3342,4424 COMMONS DR E UNIT #551,FL,32541
The Men's Wearhouse,CORAL GABLES,3343,3343,350 MIRACLE MILE,FL,33134
The Men's Wearhouse,MIAMI,3345,3345,20505 SOUTH DIXIE HIGHWAY,FL,33189
The Men's Wearhouse,WINTER GARDEN,3361,3361,14748 WEST COLONIAL DRIVE,FL,34787
The Men's Wearhouse,OCOEE,3362,3362,9401 W COLONIAL DR #400,FL,34761
The Men's Wearhouse,OCALA,3364,3364,3100 SW COLLEGE ROAD #328,FL,34474
The Men's Wearhouse,WELLINGTON,3365,3365,10300 W FOREST HILL BLVD #244B,FL,33414
The Men's Wearhouse,WEST PALM BEACH,3366,3366,4256 OKEECHOBEE BLVD.,FL,33409
The Men's Wearhouse,SUNRISE,3367,3367,12605A W. SUNRISE BLVD.,FL,33323
The Men's Wearhouse,OVIEDO,3369,3369,1405 OVIEDO MARKETPLACE BLVD,FL,32765
The Men's Wearhouse,LAKELAND,3370,3370,3800 US HWY 98 N. #510,FL,33809
The Men's Wearhouse,BOYNTON BEACH,3372,3372,801 NORTH CONGRESS AVE #397,FL,33426
The Men's Wearhouse,BOCA RATON,3374,3374,6000 GLADES ROAD #1113,FL,33431
The Men's Wearhouse,MIAMI,3376,3376,7535 N KENDALL DR SPACE #1060,FL,33156
The Men's Wearhouse,DAYTONA BEACH,3378,3378,1700 W INTL SPEEDWAY BLVD #543,FL,32114
The Men's Wearhouse,CORAL SPRINGS,3382,3382,9561 WEST ATLANTIC BLVD.,FL,33071
The Men's Wearhouse,GAINESVILLE,3383,3383,6751 NEWBERRY ROAD,FL,32605
The Men's Wearhouse,SARASOTA,3384,3384,8201 SOUTH TAMIAMI TRAIL #A024,FL,34238
The Men's Wearhouse,TALLAHASSEE,3386,3386,1634-1B GOVERNORS SQUARE BLVD,FL,32301
The Men's Wearhouse,JACKSONVILLE,3387,3387,10300 SOUTHSIDE BLVD #230,FL,32256
The Men's Wearhouse,JACKSONVILLE,3388,3388,4668 TOWN CROSSING SUITE 119,FL,32246
The Men's Wearhouse,JACKSONVILLE,3389,3389,9501 ARLINGTON EXPRESSWAY #310,FL,32225
The Men's Wearhouse,CLEARWATER,3395,3395,2663 GULF TO BAY BLVD #930,FL,33759
The Men's Wearhouse,ORLANDO,3396,3396,4640 MILLENIA PLAZA WAY,FL,32839
The Men's Wearhouse,ORLANDO,3397,3397,8001 S. ORANGE BLOSSOM #1300,FL,32809
The Men's Wearhouse,BIRMINGHAM,3401,3401,"4606 HIGHWAY 280, SUITE 100",AL,35242
The Men's Wearhouse,HOOVER,3402,3402,"181 MAIN STREET, SUITE 141",AL,35244-5060
The Men's Wearhouse,HUNTSVILLE,3403,3403,"6275 UNIVERSITY DRIVE, STE. 8A",AL,35806-1776
The Men's Wearhouse,MONTGOMERY,3404,3404,6866 EAST CHASE PKWY,AL,36117
The Men's Wearhouse,SPANISH FORT,3405,3405,30500 STATE HWY 181 STE#242,AL,36527
The Men's Wearhouse,HUNTSVILLE,3406,3406,2801 MEMORIAL PKWY S SPACE187,AL,35801
The Men's Wearhouse,OPELIKA,3407,3407,2540 ENTERPRISE DR,AL,36801
The Men's Wearhouse,TUSCALOOSA,3492,3492,1140B VETERANS MEMORIAL PKWY E,AL,35404
The Men's Wearhouse,TRUSSVILLE,3493,3493,5078 PINNACLE SQUARE #104,AL,35235
The Men's Wearhouse,MONTGOMERY,3495,3495,1000 EASTDALE MALL #A12 & A13,AL,36117
The Men's Wearhouse,HUNTSVILLE,3497,3497,5901 UNIVERSITY DRIVE #69,AL,35806
The Men's Wearhouse,HOOVER,3498,3498,1717 MONTGOMERY HIGHWAY S #109,AL,35244
The Men's Wearhouse,STERLING,3501,3501,45450 DULLES CROSSING PLAZA,VA,20166
The Men's Wearhouse,RESTON,3502,3502,11870 SPECTRUM CENTER,VA,20190
The Men's Wearhouse,SPRINGFIELD,3503,3503,6500 FRONTIER DR.,VA,22150
The Men's Wearhouse,GAITHERSBURG,3504,3504,15770 SHADY GROVE ROAD,MD,20877
The Men's Wearhouse,FAIRFAX,3505,3505,12227 FAIR LAKES PROMENADE DR.,VA,22033
The Men's Wearhouse,WOODBRIDGE,3507,3507,2784 PRINCE WILLIAM PARKWAY,VA,22192
The Men's Wearhouse,ROCKVILLE,3508,3508,12218 ROCKVILLE PIKE,MD,20852
The Men's Wearhouse,COLUMBIA,3509,3509,9021 SNOWDEN SQUARE DRIVE,MD,21046
The Men's Wearhouse,VIENNA,3510,3510,8342 LEESBURG PIKE,VA,22182
The Men's Wearhouse,FREDERICKSBURG,3511,3511,1210 CARL D. SILVER PARKWAY,VA,22401
The Men's Wearhouse,WASHINGTON,3512,3512,1024 CONNECTICUT AVENUE,DC,20036
The Men's Wearhouse,WALDORF,3513,3513,2970 FESTIVAL WAY,MD,20601
The Men's Wearhouse,ALEXANDRIA,3514,3514,3825 JEFFERSON DAVIS HWY #C,VA,22305
The Men's Wearhouse,ANNAPOLIS,3515,3515,2341 FOREST DR SUITE E,MD,21401
The Men's Wearhouse,PIKESVILLE,3516,3516,1800 REISTERSTOWN ROAD,MD,21208
The Men's Wearhouse,TOWSON,3517,3517,825 DULANEY VALLEY RD ST#4340,MD,21204
The Men's Wearhouse,BALTIMORE,3518,3518,8157 HONEYGO BLVD UNIT C,MD,21236
The Men's Wearhouse,HANOVER,3519,3519,7069 ARUNDEL MILLS BLVD.,MD,21076-1395
The Men's Wearhouse,MANASSAS,3520,3520,8301 SUDLEY ROAD,VA,20109-3508
The Men's Wearhouse,BEL AIR,3521,3521,615 BEL AIR RD - SUITE T,MD,21014-4315
The Men's Wearhouse,GAMBRILLS,3522,3522,2382 BRANDERMILL BLVD,MD,21054
The Men's Wearhouse,ROANOKE,3523,3523,4757 VALLEY VIEW ROAD,VA,24012
The Men's Wearhouse,FREDERICK,3524,3524,5461 URBANA PIKE,MD,21704
The Men's Wearhouse,SILVER SPRING,3525,3525,8514 FENTON STREET,MD,20910
The Men's Wearhouse,BOWIE,3526,3526,15432 EMERALD WAY,MD,20716
The Men's Wearhouse,LANHAM,3527,3527,"2800 CAMPUS WAY NORTH, #400",MD,20706
The Men's Wearhouse,CHARLESTON,3528,3528,86 RHL BOULEVARD,WV,25309
The Men's Wearhouse,HAGERSTOWN,3529,3529,17301 VALLEY MALL RD STE#0240,MD,21740
The Men's Wearhouse,CHESAPEAKE,3531,3531,1244 GREENBRIER PKWY #530,VA,23320
The Men's Wearhouse,RICHMOND,3532,3532,11358 MIDLOTHIAN TURNPIKE,VA,23235
The Men's Wearhouse,GLEN ALLEN,3533,3533,10911 W. BROAD ST BLDG A,VA,23060
The Men's Wearhouse,VIRGINIA BEACH,3534,3534,4545 VIRGINIA BEACH BLVD.,VA,23462-3003
The Men's Wearhouse,NEWPORT NEWS,3535,3535,12146 JEFFERSON AVENUE,VA,23602
The Men's Wearhouse,NORFOLK,3536,3536,"300 MONTICELLO AVE, #167",VA,23510-2428
The Men's Wearhouse,CHARLOTTESVILLE,3537,3537,200 TWENTYNINTH PLACE CT,VA,22901
The Men's Wearhouse,MIDLOTHIAN,3538,3538,5203 COMMONWEALTH CENTRE PKWY,VA,23112
The Men's Wearhouse,GLEN ALLEN,3539,3539,9970 BROOK RD.,VA,23059
The Men's Wearhouse,SALISBURY,3540,3540,2328 N. SALISBURY BLVD #A07,MD,21801
The Men's Wearhouse,BALTIMORE,3559,3559,7839 EASTPOINT MALL #7804,MD,21224
The Men's Wearhouse,GLEN BURNIE,3561,3561,6322 GOVERNOR RITCHIE HWY,MD,21061
The Men's Wearhouse,GLEN BURNIE,3562,3562,7900 GOVERNOR RITCHIE HWY D203,MD,21061
The Men's Wearhouse,HYATTSVILLE,3566,3566,3500 EAST WEST HIGHWAY #1216,MD,20782
The Men's Wearhouse,DANVILLE,3567,3567,325 PIEDMONT DRIVE,VA,24540
The Men's Wearhouse,LYNCHBURG,3568,3568,3405 CANDLERS MOUNTAIN RD.,VA,24502
The Men's Wearhouse,COLONIAL HEIGHTS,3569,3569,82 SOUTHPARK CIRCLE,VA,23834
The Men's Wearhouse,HAMPTON,3570,3570,7 COLISEUM CROSSING,VA,23666
The Men's Wearhouse,CHARLOTTESVILLE,3573,3573,1541 EAST RIO RD. #1326B,VA,22901
The Men's Wearhouse,VIRGINIA BEACH,3577,3577,701 LYNNHAVEN PARKWAY,VA,23452
The Men's Wearhouse,RICHMOND,3578,3578,9101 WEST BROAD STREET,VA,23294
The Men's Wearhouse,RICHMOND,3579,3579,11500 MIDLOTHIAN TURNPIKE #240,VA,23235
The Men's Wearhouse,CHESAPEAKE,3581,3581,4200 PORTSMOUTH BLVD.,VA,23321
The Men's Wearhouse,CHESAPEAKE,3582,3582,1401 GREENBRIER PKWY #2173,VA,23320
The Men's Wearhouse,BOWIE,3583,3583,3831 EVERGREEN PARKWAY,MD,20716
The Men's Wearhouse,FREDERICK,3584,3584,5500 BUCKEYSTOWN PIKE #478,MD,21703
The Men's Wearhouse,ROANOKE,3585,3585,4802 VALLEY VIEW BLVD. NW,VA,24012
The Men's Wearhouse,TOWSON,3589,3589,825 DULANEY VALLEY RD STE#2010,MD,21204
The Men's Wearhouse,ANNAPOLIS,3590,3590,1465 ANNAPOLIS MALL,MD,21401
The Men's Wearhouse,WALDORF,3592,3592,11110 MALL CIRCLE DR. #Q13,MD,20603
The Men's Wearhouse,FREDERICKSBURG,3593,3593,"137 SPOTSYLVANIA MALL DR, 512",VA,22407
The Men's Wearhouse,COLUMBIA,3594,3594,10300 LITTLE PATUXENT #1065,MD,21044
The Men's Wearhouse,GAITHERSBURG,3596,3596,701 RUSSELL AVENUE #F238,MD,20877
The Men's Wearhouse,FAIRFAX,3597,3597,11839L FAIR OAKS MALL,VA,22033
The Men's Wearhouse,DULLES,3599,3599,21100 DULLES TOWN CIR STE.196,VA,20166
The Men's Wearhouse,ROSEVILLE,4101,4101,"2401 FAIRVIEW AVE. N, STE.103",MN,55113
The Men's Wearhouse,EDINA,4102,4102,1960 SOUTHDALE CENTER,MN,55435
The Men's Wearhouse,MINNETONKA,4103,4103,"14200 WAYZATA BLVD, STE M",MN,55305
The Men's Wearhouse,BURNSVILLE,4104,4104,14063 ALDRICH AVE. SOUTH,MN,55337
The Men's Wearhouse,MINNEAPOLIS,4105,4105,"800 NICOLLET MALL, SUITE 180",MN,55402
The Men's Wearhouse,WOODBURY,4107,4107,8390 TAMARACK VLG. #503-505,MN,55125
The Men's Wearhouse,ROCHESTER,4108,4108,"1200 12TH ST. SW, STE 1005",MN,55902
The Men's Wearhouse,COON RAPIDS,4109,4109,12778 RIVERDALE BLVD.,MN,55448
The Men's Wearhouse,MAPLE GROVE,4110,4110,7745 MAIN STREET,MN,55369
The Men's Wearhouse,MAPLEWOOD,4111,4111,3001 WHITE BEAR AVE N,MN,55109
The Men's Wearhouse,SAINT CLOUD,4112,4112,4101 WEST DIVISION ST,MN,56301
The Men's Wearhouse,EDEN PRAIRIE,4113,4113,8251 FLYING CLOUD DR,MN,55344
The Men's Wearhouse,WEST DES MOINES,4121,4121,1540B VALLEY WEST DR #1&3,IA,50265
The Men's Wearhouse,DAVENPORT,4122,4122,4770 ELMORE AVE,IA,52807
The Men's Wearhouse,SIOUX CITY,4123,4123,5016 SERGEANT RD.,IA,51106
The Men's Wearhouse,CEDAR RAPIDS,4124,4124,4444 FIRST AVENUE NE,IA,52402
The Men's Wearhouse,COUNCIL BLUFFS,4125,4125,3617 DENMARK DRIVE,IA,51501
The Men's Wearhouse,CORALVILLE,4126,4126,2510 CORRIDOR WAY,IA,52241
The Men's Wearhouse,WATERLOO,4127,4127,2837 CROSSROADS BLVD,IA,50702
The Men's Wearhouse,ANKENY,4128,4128,1805 SE DELAWARE AVE #1500,IA,50021
The Men's Wearhouse,LINCOLN,4131,4131,5141 O STREET,NE,68510
The Men's Wearhouse,OMAHA,4132,4132,7767 DODGE STREET,NE,68114
The Men's Wearhouse,OMAHA,4133,4133,3209 OAKVIEW DRIVE,NE,68144-5627
The Men's Wearhouse,EAU CLAIRE,4139,4139,4619 KEYSTONE XING,WI,54701
The Men's Wearhouse,SIOUX FALLS,4141,4141,3801 W 41ST,SD,57106-0722
The Men's Wearhouse,RAPID CITY,4142,4142,1612 EGLIN STREET SUITE #700,SD,57701
The Men's Wearhouse,FARGO,4151,4151,4302 13TH AVE. SOUTH,ND,58103
The Men's Wearhouse,BISMARCK,4152,4152,1221 W. CENTURY AVE,ND,58503
The Men's Wearhouse,SIOUX FALLS,4184,4184,740 EMPIRE MALL,SD,57106
The Men's Wearhouse,OMAHA,4185,4185,835 NORTH 98TH STREET,NE,68114
The Men's Wearhouse,WEST DES MOINES,4189,4189,1551 VALLEY WEST DR. STE.173,IA,50266
The Men's Wearhouse,DULUTH,4190,4190,5115 BURNING TREE RD #302,MN,55811
The Men's Wearhouse,BLOOMINGTON,4191,4191,N. 364 GARDEN,MN,55425
The Men's Wearhouse,ROCHESTER,4194,4194,1300 SALEM ROAD SW,MN,55902
The Men's Wearhouse,OAKDALE,4195,4195,8302 3RD STREET NORTH,MN,55128
The Men's Wearhouse,BURNSVILLE,4196,4196,2037 BURNSVILLE CENTER,MN,55306
The Men's Wearhouse,MINNETONKA,4197,4197,12301 WAYZATA BLVD #1110,MN,55305
The Men's Wearhouse,ROSEVILLE,4199,4199,10 ROSEDALE CENTER SPACE #445,MN,55113
The Men's Wearhouse,TROY,4201,4201,880 E. BIG BEAVER RD.,MI,48083-1404
The Men's Wearhouse,UTICA,4202,4202,13277 HALL RD STE C100,MI,48315-5834
The Men's Wearhouse,ROYAL OAK,4205,4205,31921 WOODWARD AVE,MI,48073
The Men's Wearhouse,ANN ARBOR,4206,4206,2927 OAK VALLEY DRIVE,MI,48103
The Men's Wearhouse,FARMINGTON HILLS,4207,4207,31045 ORCHARD LAKE RD.,MI,48334
The Men's Wearhouse,DEARBORN,4208,4208,22179 MICHIGAN AVENUE,MI,48124
The Men's Wearhouse,ROSEVILLE,4209,4209,31890 GRATIOT,MI,48066
The Men's Wearhouse,TAYLOR,4210,4210,22169 EUREKA RD,MI,48180
The Men's Wearhouse,WESTLAND,4211,4211,7040 N. WAYNE RD.,MI,48185
The Men's Wearhouse,GRAND RAPIDS,4212,4212,3685 28TH STREET SE,MI,49512
The Men's Wearhouse,FLINT,4213,4213,4088 MILLER ROAD,MI,48507
The Men's Wearhouse,NOVI,4215,4215,43323 CRESCENT DRIVE,MI,48375-1208
The Men's Wearhouse,LANSING,4216,4216,5340 WEST SAGINAW,MI,48917
The Men's Wearhouse,SAGINAW,4217,4217,4757 BAY ROAD,MI,48603
The Men's Wearhouse,TOLEDO,4218,4218,5029 MONROE STREET,OH,43623
The Men's Wearhouse,PORTAGE,4219,4219,6513 SOUTH WESTNEDGE,MI,49002
The Men's Wearhouse,ORION,4220,4220,4862 SOUTH BALDWIN,MI,48359
The Men's Wearhouse,GRANDVILLE,4221,4221,3590 RIVERTOWN PARKWAY,MI,49418
The Men's Wearhouse,GROSSE POINTE WOODS,4222,4222,19435 MACK AVENUE,MI,48236-2840
The Men's Wearhouse,BRIGHTON,4223,4223,9980 VILLAGE PLACE BLVD.,MI,48116
The Men's Wearhouse,OKEMOS,4224,4224,1982 GRAND RIVER AVE,MI,48864
The Men's Wearhouse,JACKSON,4225,4225,1228 JACKSON CROSSING #J104,MI,49202
The Men's Wearhouse,MUSKEGON,4226,4226,5600 HARVEY ST,MI,49444
The Men's Wearhouse,TOLEDO,4268,4268,5001 MONROE STREET,OH,43623
The Men's Wearhouse,TRAVERSE CITY,4271,4271,3200 S. AIRPORT RD WEST #434,MI,49684
The Men's Wearhouse,GRANDVILLE,4274,4274,3700 RIVERTOWN PKWY SW #1028,MI,49418
The Men's Wearhouse,BATTLE CREEK,4276,4276,5775 BECKLEY ROAD #315,MI,49015
The Men's Wearhouse,BAY CITY,4278,4278,4101 EAST WILDER ROAD #C337,MI,48706
The Men's Wearhouse,MIDLAND,4279,4279,6800 EASTMAN AVENUE #512,MI,48642
The Men's Wearhouse,STERLING HEIGHTS,4282,4282,14000 LAKESIDE CIRCLE #2095,MI,48313
The Men's Wearhouse,LIVONIA,4284,4284,37544 WEST SIX MILE RD,MI,48152
The Men's Wearhouse,FORT GRATIOT,4285,4285,4350 24 AVENUE #108,MI,48059
The Men's Wearhouse,PORTAGE,4287,4287,6650 S WESTNEDGE,MI,49024
The Men's Wearhouse,SAGINAW,4288,4288,4793 FASHION SQUARE,MI,48604
The Men's Wearhouse,NOVI,4291,4291,27736 NOVI ROAD,MI,48377
The Men's Wearhouse,FLINT,4292,4292,G-3292 SOUTH LINDEN ROAD,MI,48507
The Men's Wearhouse,TAYLOR,4295,4295,23000 EUREKA ROAD #E20,MI,48180
The Men's Wearhouse,DEARBORN,4297,4297,18900 MICHIGAN AVE #H324,MI,48126
The Men's Wearhouse,ANN ARBOR,4298,4298,874 W. EISENHOWER PKWY,MI,48103
The Men's Wearhouse,TROY,4299,4299,346 JOHN R. ROAD,MI,48083
The Men's Wearhouse,AVON,4301,4301,10849 EAST US HIGHWAY 36,IN,46123
The Men's Wearhouse,GREENWOOD,4302,4302,"838 US HWY 31 NORTH, #840",IN,46142
The Men's Wearhouse,INDIANAPOLIS,4303,4303,5868 E. 82ND STREET,IN,46250
The Men's Wearhouse,CARMEL,4304,4304,14400 CLAY TERRACE BLVD #130,IN,46032
The Men's Wearhouse,FORT WAYNE,4305,4305,4216 COLDWATER RD.,IN,46805-1110
The Men's Wearhouse,MISHAWAKA,4306,4306,6501 N. GRAPE RD.,IN,46545
The Men's Wearhouse,LAFAYETTE,4307,4307,"100 S. CREASY LANE, STE 1300",IN,47905
The Men's Wearhouse,NOBLESVILLE,4308,4308,14139 TOWNE CENTER RD,IN,46060
The Men's Wearhouse,TERRE HAUTE,4390,4390,5783 SOUTH US HWY 41,IN,47802
The Men's Wearhouse,EVANSVILLE,4392,4392,6401 E LLOYD EXPRESSWAY #11,IN,47715
The Men's Wearhouse,CLARKSVILLE,4393,4393,1025 VETERANS PARKWAY #150,IN,47129
The Men's Wearhouse,FORT WAYNE,4395,4395,4201 COLDWATER RD P15,IN,46805
The Men's Wearhouse,INDIANAPOLIS,4397,4397,5025 EAST 82ND STREET,IN,46250
The Men's Wearhouse,GREENWOOD,4399,4399,1251 US HWY 31 N. SPACE K03B,IN,46142
The Men's Wearhouse,FAIRLAWN,4401,4401,3757- A WEST MARKET STREET,OH,44333
The Men's Wearhouse,BOARDMAN,4402,4402,7310 MARKET STREET,OH,44512
The Men's Wearhouse,MENTOR,4403,4403,7699 MENTOR AVENUE,OH,44060
The Men's Wearhouse,NORTH OLMSTED,4404,4404,25102 BROOKPARK RD. STE. 194,OH,44070
The Men's Wearhouse,MAYFIELD HEIGHTS,4405,4405,6330 MAYFIELD ROAD,OH,44124-3213
The Men's Wearhouse,AKRON,4406,4406,1906 BUCHOLTZER BLVD. #08,OH,44310
The Men's Wearhouse,NORTH CANTON,4407,4407,"6674 STRIP AVE, NW",OH,44720-9204
The Men's Wearhouse,STRONGSVILLE,4408,4408,17230 ROYALTON ROAD,OH,44136
The Men's Wearhouse,AVON,4409,4409,35942 DETROIT ROAD,OH,44011
The Men's Wearhouse,CINCINNATI,4410,4410,"7800 MONTGOMERY ROAD, #6",OH,45236
The Men's Wearhouse,FLORENCE,4411,4411,7623 MALL ROAD,KY,41042
The Men's Wearhouse,CINCINNATI,4412,4412,"11700 PRINCETON PIKE, SP F11",OH,45246
The Men's Wearhouse,CINCINNATI,4413,4413,4611 EASTGATE BLVD STE#A,OH,45245
The Men's Wearhouse,DAYTON,4414,4414,2860 MIAMISBURG-CENTERVILLE RD,OH,45459
The Men's Wearhouse,BEAVERCREEK,4415,4415,2750 NORTH FAIRFIELD ROAD,OH,45431-1779
The Men's Wearhouse,COLUMBUS,4416,4416,3862 MORSE ROAD,OH,43219
The Men's Wearhouse,COLUMBUS,4417,4417,1763 OLENTANGY RIVER ROAD,OH,43212
The Men's Wearhouse,DUBLIN,4418,4418,"5043 TUTTLE CROSSING BLVD,#193",OH,43016
The Men's Wearhouse,COLUMBUS,4419,4419,1142 POLARIS PARKWAY,OH,43240
The Men's Wearhouse,MANSFIELD,4420,4420,815 N. LEXINGTON SPRINGMILL RD,OH,44906
The Men's Wearhouse,ST. CLAIRSVILLE,4421,4421,67800 OHIO VALLEY MALL RD,OH,43950
The Men's Wearhouse,MAUMEE,4422,4422,3100 MAIN ST #715 & 720,OH,43537
The Men's Wearhouse,WARREN,4423,4423,"1920 NILES CORTLAND RD SE, #30",OH,44484
The Men's Wearhouse,HAMILTON,4480,4480,3318 PRINCETON RD,OH,45011
The Men's Wearhouse,CINCINNATI,4483,4483,3645 STONE CREEK BLVD STE A,OH,45251
The Men's Wearhouse,COLUMBUS,4485,4485,2729 EASTLAND MALL,OH,43232
The Men's Wearhouse,LIMA,4487,4487,2139 ELIDA ROAD,OH,45805
The Men's Wearhouse,SANDUSKY,4488,4488,4314 MILAN ROAD #125,OH,44870
The Men's Wearhouse,DUBLIN,4492,4492,5043 TUTTLE CROSSING BLVD #211,OH,43016
The Men's Wearhouse,COLUMBUS,4495,4495,1621 GEORGESVILLE SQUARE DRIVE,OH,43228
The Men's Wearhouse,COLUMBUS,4496,4496,3922 TOWNSFAIR WAY,OH,43219
The Men's Wearhouse,STRONGSVILLE,4497,4497,17986 ROYALTON ROAD,OH,44136
The Men's Wearhouse,PITTSBURGH,4501,4501,1000 ROSS PARK MALL DRIVE,PA,15237
The Men's Wearhouse,GREENSBURG,4502,4502,"5256 ROUTE 30, SPACE #212",PA,15601
The Men's Wearhouse,MONROEVILLE,4503,4503,3911 WILLIAM PENN HWY,PA,15146
The Men's Wearhouse,PITTSBURGH,4504,4504,342 SOUTH HILLS VILLAGE,PA,15241
The Men's Wearhouse,HOMESTEAD,4505,4505,324 AMITY ST.,PA,15120
The Men's Wearhouse,PITTSBURGH,4507,4507,217 SUMMIT PARK DRIVE,PA,15275
The Men's Wearhouse,ERIE,4508,4508,"654 MILLCREEK MALL, UNIT 400",PA,16565
The Men's Wearhouse,CRANBERRY TOWNSHIP,4509,4509,2040 MCKENZIE WAY,PA,16066
The Men's Wearhouse,PITTSBURGH,4597,4597,6521 ROBINSON CENTRE DRIVE,PA,15205
The Men's Wearhouse,MONROEVILLE,4598,4598,3747 WILLIAM PENN HWY #1110,PA,15146
The Men's Wearhouse,PITTSBURGH,4599,4599,7300 MCKNIGHT ROAD,PA,15237
The Men's Wearhouse,SKOKIE,4601,4601,9314 SKOKIE BLVD,IL,60077-1309
The Men's Wearhouse,WHEATON,4602,4602,49 RICE LAKE SQUARE,IL,60187
The Men's Wearhouse,OAKBROOK TERRACE,4603,4603,17W440 22ND STREET,IL,60181
The Men's Wearhouse,SCHAUMBURG,4604,4604,1251 E. GOLF RD. #12,IL,60173
The Men's Wearhouse,NILES,4606,4606,5618 W. TOUHY AVE.,IL,60714
The Men's Wearhouse,CALUMET CITY,4607,4607,1374 TORRENCE AVENUE,IL,60409
The Men's Wearhouse,VERNON HILLS,4608,4608,700 NORTH MILWAUKEE AVE #112,IL,60061
The Men's Wearhouse,CHICAGO,4609,4609,2070 N. CLYBOURN AVE. #G,IL,60614
The Men's Wearhouse,BLOOMINGDALE,4610,4610,357 WEST ARMY TRAIL STE 30,IL,60108
The Men's Wearhouse,ARLINGTON HEIGHTS,4611,4611,202 E. RAND ROAD,IL,60004
The Men's Wearhouse,CHICAGO,4612,4612,112 S. STATE STREET,IL,60603
The Men's Wearhouse,NORRIDGE,4613,4613,7227 FOREST PRESERVE DRIVE,IL,60706
The Men's Wearhouse,BOLINGBROOK,4614,4614,708 E. BOUGHTON RD.,IL,60440
The Men's Wearhouse,HOBART,4615,4615,2379 E. 81ST AVE. US UNIT 30,IN,46342
The Men's Wearhouse,ORLAND PARK,4616,4616,14900 S. LA GRANGE ROAD,IL,60462
The Men's Wearhouse,DEERFIELD,4617,4617,"114 S. WAUKEGAN RD, SPACE C",IL,60015
The Men's Wearhouse,OAK LAWN,4618,4618,9625 SOUTH CICERO,IL,60453
The Men's Wearhouse,GENEVA,4619,4619,1492 S. RANDALL RD. STE. K,IL,60134-4610
The Men's Wearhouse,AURORA,4620,4620,4404 E. NEW YORK STREET,IL,60504-4128
The Men's Wearhouse,CRYSTAL LAKE,4621,4621,4777 NW HIGHWAY,IL,60014
The Men's Wearhouse,ROCKFORD,4622,4622,6250 MULFORD VILLAGE DR,IL,61107-6615
The Men's Wearhouse,PEORIA,4623,4623,4819 ROCKWOOD DRIVE NORTH,IL,61615-3659
The Men's Wearhouse,BLOOMINGTON,4624,4624,305 N. VETERAN'S PKWY STE. 106,IL,61704
The Men's Wearhouse,RIVER FOREST,4625,4625,7203 LAKE STREET,IL,60305
The Men's Wearhouse,OSWEGO,4626,4626,1540 DOUGLAS RD.,IL,60543-5108
The Men's Wearhouse,CHAMPAIGN,4627,4627,726 WEST TOWN CENTER,IL,61822
The Men's Wearhouse,SPRINGFIELD,4628,4628,3145 S VETERANS PKWY,IL,62704
The Men's Wearhouse,ALGONQUIN,4629,4629,2503 COUNTY LINE RD,IL,60102
The Men's Wearhouse,ONALASKA,4630,4630,9372 HWY 16 EAST,WI,54650
The Men's Wearhouse,GLENDALE,4631,4631,5518 N. PORT WASHINGTON ROAD,WI,53217
The Men's Wearhouse,MEQUON,4633,4633,10984 N. PORT WASHINGTON RD#18,WI,53092
The Men's Wearhouse,CHICAGO,4634,4634,535 N. MICHIGAN AVE,IL,60611
The Men's Wearhouse,BROOKFIELD,4635,4635,17300 W. BLUE MOUND RD.,WI,53045
The Men's Wearhouse,MADISON,4636,4636,7874 MINERAL POINT ROAD,WI,53717
The Men's Wearhouse,GRAND CHUTE,4637,4637,319 NORTH CASALOMA DR,WI,54913-8580
The Men's Wearhouse,GREEN BAY,4638,4638,2279 S. ONEIDA STREET,WI,54304
The Men's Wearhouse,MADISON,4640,4640,3908 EAST WASHINGTON AVE,WI,53704
The Men's Wearhouse,MADISON,4643,4643,"114 WEST TOWNE MALL, SPACE C60",WI,53719
The Men's Wearhouse,GLENDALE,4645,4645,385 WEST FOUNTAINVIEW DR #F120,WI,53217
The Men's Wearhouse,GREEN BAY,4651,4651,511 BAY PARK SQUARE,WI,54304
The Men's Wearhouse,APPLETON,4652,4652,4301 WEST WISCONSIN AVE #208,WI,54913
The Men's Wearhouse,BROOKFIELD,4653,4653,95 NORTH MOORLAND ROAD #6,WI,53005
The Men's Wearhouse,MERRILLVILLE,4655,4655,1657 EAST 80TH AVE,IN,46410
The Men's Wearhouse,BOLINGBROOK,4658,4658,643 EAST BOUGHTON #100,IL,60440
The Men's Wearhouse,SPRINGFIELD,4659,4659,2501 WEST WABASH ST #D14C,IL,62704
The Men's Wearhouse,RIVERSIDE,4661,4661,2308 SOUTH HARLEM AVENUE,IL,60546
The Men's Wearhouse,WILLOWBROOK,4663,4663,820 75TH STREET,IL,60527
The Men's Wearhouse,OAK BROOK,4664,4664,103 OAKBROOK CENTER,IL,60523
The Men's Wearhouse,OAK LAWN,4665,4665,4954 WEST 95TH STREET,IL,60453
The Men's Wearhouse,MATTESON,4666,4666,208 LINCOLN MALL #105,IL,60443
The Men's Wearhouse,JOLIET,4668,4668,3340 MALL LOOP DRIVE #1462,IL,60431
The Men's Wearhouse,SOUTH BARRINGTON,4669,4669,100 HIGGINS RD SPACE L-10,IL,60010
The Men's Wearhouse,LOMBARD,4671,4671,430 EAST ROOSEVELT,IL,60148
The Men's Wearhouse,WEST DUNDEE,4672,4672,1154 SPRING HILL MALL,IL,60118
The Men's Wearhouse,WILMETTE,4673,4673,3232 LAKE AVE #190,IL,60091
The Men's Wearhouse,GURNEE,4674,4674,7075 GRAND AVENUE #3B,IL,60031
The Men's Wearhouse,ROLLING MEADOWS,4675,4675,1219 WEST GOLF RD.,IL,60008
The Men's Wearhouse,PEORIA,4676,4676,2200 W. WAR MEMORIAL DR. #DU09,IL,61613
The Men's Wearhouse,ROCKFORD,4677,4677,735 SOUTH PERRYVILLE ROAD,IL,61108
The Men's Wearhouse,AURORA,4678,4678,2454 FOX VALLEY MALL #B17,IL,60504
The Men's Wearhouse,NORRIDGE,4683,4683,4124 NORTH HARLEM AVE.,IL,60706
The Men's Wearhouse,CHICAGO,4684,4684,2906 NORTH ASHLAND AVENUE,IL,60657
The Men's Wearhouse,CHICAGO,4688,4688,542 WEST ROOSEVELT ROAD,IL,60607
The Men's Wearhouse,BLOOMINGDALE,4691,4691,739 STRATFORD SQUARE,IL,60108
The Men's Wearhouse,SCHAUMBURG,4697,4697,G-127 WOODFIELD MALL,IL,60173
The Men's Wearhouse,LOUISVILLE,4701,4701,4370 SUMMIT PLAZA DRIVE,KY,40241
The Men's Wearhouse,LOUISVILLE,4702,4702,7621 SHELBYVILLE ROAD,KY,40222
The Men's Wearhouse,EVANSVILLE,4703,4703,163 N. BURKHARDT ROAD,IN,47715
The Men's Wearhouse,LEXINGTON,4704,4704,3707 NICHOLASVILLE ROAD,KY,40503-4441
The Men's Wearhouse,BOWLING GREEN,4705,4705,2625 SCOTTSVILLE RD #540,KY,42104
The Men's Wearhouse,PADUCAH,4795,4795,5101 HINKLEVILLE RD #530,KY,42001
The Men's Wearhouse,LEXINGTON,4796,4796,3473 NICHOLASVILLE ROAD #862,KY,40503
The Men's Wearhouse,LOUISVILLE,4798,4798,7900 SHELBYVILLE RD. #F1,KY,40222
The Men's Wearhouse,LOUISVILLE,4799,4799,4801 OUTER LOOP #A124,KY,40219
The Men's Wearhouse,FRAMINGHAM,5101,5101,150 WORCESTER RD ROUTE 9,MA,1701
The Men's Wearhouse,CAMBRIDGE,5102,5102,100 CAMBRIDGE SIDE PLACE,MA,2141
The Men's Wearhouse,PEABODY,5103,5103,260 ANDOVER STREET,MA,1960
The Men's Wearhouse,MARLBOROUGH,5104,5104,"601 DONALD LYNCH BLVD, #S144",MA,1752
The Men's Wearhouse,HOLYOKE,5105,5105,21 HOLYOKE STREET,MA,1040
The Men's Wearhouse,BURLINGTON,5106,5106,60 SOUTH AVENUE,MA,1803
The Men's Wearhouse,DEDHAM,5107,5107,707 PROVIDENCE HIGHWAY,MA,02026-6832
The Men's Wearhouse,SAUGUS,5108,5108,444 BROADWAY (ROUTE 1),MA,1906
The Men's Wearhouse,FRANKLIN,5109,5109,145 FRANKLIN VILLAGE DR,MA,2038
The Men's Wearhouse,MEDFORD,5110,5110,616 FELLSWAY,MA,2155
The Men's Wearhouse,BOSTON,5111,5111,406 BOYLSTON STREET,MA,2116
The Men's Wearhouse,NORTH ATTLEBORO,5112,5112,999 S. WASHINGTON ST #147,MA,2760
The Men's Wearhouse,HANOVER,5113,5113,1264 WASHINGTON STREET,MA,02339-1631
The Men's Wearhouse,BOSTON,5114,5114,32 SUMMER ST.,MA,02110-1003
The Men's Wearhouse,BRAINTREE,5115,5115,44 GRANITE STREET,MA,2184
The Men's Wearhouse,DARTMOUTH,5116,5116,158 DARTMOUTH MALL NORTH #1361,MA,2747
The Men's Wearhouse,HYANNIS,5117,5117,769 IYANNOUGH ROAD,MA,2601
The Men's Wearhouse,AUBURN,5118,5118,385 SOUTHBRIDGE ST,MA,1501
The Men's Wearhouse,LEOMINSTER,5119,5119,14 COMMERCIAL RD,MA,1453
The Men's Wearhouse,NEWINGTON,5120,5120,50 FOX RUN ROAD,NH,3801
The Men's Wearhouse,SALEM,5121,5121,99 ROCKINGHAM PARK BLVD # 135,NH,3079
The Men's Wearhouse,NASHUA,5122,5122,274 DANIEL WEBSTER HIGHWAY,NH,3060
The Men's Wearhouse,MANCHESTER,5123,5123,"1500 S WILLOW ST, #W101",NH,3103
The Men's Wearhouse,CONCORD,5124,5124,62 D'AMANTE DR,NH,3301
The Men's Wearhouse,SOUTH WINDSOR,5132,5132,95 BUCKLAND ROAD,CT,6074
The Men's Wearhouse,WEST HARTFORD,5133,5133,1455 NEW BRITAIN AVE,CT,6110
The Men's Wearhouse,WATERFORD,5134,5134,850 HARTFORD TURNPIKE #L-113,CT,6385
The Men's Wearhouse,MERIDEN,5136,5136,470 LEWIS AVENUE STE 40,CT,6450
The Men's Wearhouse,SIMSBURY,5137,5137,6 ALBANY TURNPIKE,CT,6092
The Men's Wearhouse,HAMDEN,5138,5138,2300 DIXWELL AVE,CT,6514
The Men's Wearhouse,ENFIELD,5139,5139,48 HAZARD AVE,CT,6082
The Men's Wearhouse,WARWICK,5140,5140,850 BALD HILL RD,RI,2886
The Men's Wearhouse,WILLISTON,5150,5150,38 CONNOR WAY,VT,5495
The Men's Wearhouse,CRANSTON,5158,5158,508 RESERVOIR AVENUE,RI,2910
The Men's Wearhouse,PROVIDENCE,5159,5159,137 PROVIDENCE PLACE,RI,2903
The Men's Wearhouse,WARWICK,5160,5160,685 BALD HILL ROAD,RI,2886
The Men's Wearhouse,DANBURY,5162,5162,15 BACKUS AVENUE #17,CT,6810
The Men's Wearhouse,WATERBURY,5163,5163,495 UNION STREET #1100,CT,6706
The Men's Wearhouse,NASHUA,5168,5168,254 DANIEL WEBSTER HWY,NH,3060
The Men's Wearhouse,TAUNTON,5170,5170,2 GALLERIA MALL DRIVE,MA,2780
The Men's Wearhouse,SWANSEA,5171,5171,262 SWANSEA MALL DR #705,MA,2777
The Men's Wearhouse,BROCKTON,5175,5175,200 WESTGATE DR SPACE N107,MA,2301
The Men's Wearhouse,QUINCY,5176,5176,377 WILLARD STREET,MA,2169
The Men's Wearhouse,DANVERS,5179,5179,8 NEWBURY ST #7A,MA,1923
The Men's Wearhouse,DANVERS,5180,5180,100 INDEPENDENCE WAY,MA,1923
The Men's Wearhouse,LAWRENCE,5181,5181,59 MERRIMACK STREET,MA,1843
The Men's Wearhouse,FRAMINGHAM,5184,5184,575 WORCESTER ROAD,MA,1701
The Men's Wearhouse,WORCESTER,5185,5185,424 BELMONT STREET,MA,1604
The Men's Wearhouse,SPRINGFIELD,5188,5188,1267 BOSTON ROAD,MA,1119
The Men's Wearhouse,WEST SPRINGFIELD,5189,5189,1321 RIVERDALE STREET,MA,1089
The Men's Wearhouse,NORTH ATTLEBORO,5192,5192,999 S WASHINGTON ST #105,MA,2760
The Men's Wearhouse,BRIGHTON,5194,5194,270 PARSONS STREET,MA,2135
The Men's Wearhouse,BURLINGTON,5197,5197,64 MIDDLESEX TURNPIKE,MA,1803
The Men's Wearhouse,KING OF PRUSSIA,5201,5201,139 EAST DEKALB PIKE,PA,19406
The Men's Wearhouse,LANGHORNE,5202,5202,2424 EAST LINCOLN HWY E-13,PA,19047
The Men's Wearhouse,WILLOW GROVE,5203,5203,1929 EASTON ROAD,PA,19090
The Men's Wearhouse,NORTH WALES,5204,5204,9 AIRPORT SQUARE,PA,19454
The Men's Wearhouse,PHILADELPHIA,5205,5205,9475 ROOSEVELT BLVD,PA,19114
The Men's Wearhouse,PHILADELPHIA,5206,5206,1624-1626 CHESTNUT STREET,PA,19103
The Men's Wearhouse,LANCASTER,5207,5207,1601 MANHEIM PIKE,PA,17601
The Men's Wearhouse,HARRISBURG,5208,5208,"5125 JONESTOWN ROAD, SUITE 135",PA,17112
The Men's Wearhouse,WHITEHALL,5209,5209,1901 WHITEHALL MALL,PA,18052-5120
The Men's Wearhouse,PLYMOUTH MEETING,5210,5210,"2500 CHEMICAL ROAD,SPACE S-12A",PA,19462
The Men's Wearhouse,SPRINGFIELD,5211,5211,1001 BALTIMORE PIKE,PA,19064-2852
The Men's Wearhouse,EXTON,5212,5212,147-149 E. SWEDESFORD ROAD,PA,19341
The Men's Wearhouse,LAWRENCEVILLE,5213,5213,"3375 BRUNSWICK PIKE, SUITE 1",NJ,8648
The Men's Wearhouse,READING,5214,5214,"2733 PAPER MILL ROAD, UNIT X-1",PA,19610
The Men's Wearhouse,YORK,5215,5215,2917 WHITEFORD RD.,PA,17402
The Men's Wearhouse,DICKSON CITY,5216,5216,1106 COMMERCE BLVD.,PA,18519-1688
The Men's Wearhouse,CHERRY HILL,5217,5217,2026 ROUTE 70 W. STE. 4,NJ,8002
The Men's Wearhouse,WILKES BARRE,5218,5218,415 ARENA HUB PLAZA,PA,18702
The Men's Wearhouse,QUAKERTOWN,5219,5219,652 NORTH WEST END BLVD,PA,18951
The Men's Wearhouse,CAMP HILL,5220,5220,3514 CAPITAL CITY MALL,PA,17011
The Men's Wearhouse,MAY'S LANDING,5221,5221,2210 WRANGLEBORO ROAD,NJ,8330
The Men's Wearhouse,MAPLE SHADE,5222,5222,490 S. LENOLA RD.,NJ,8052
The Men's Wearhouse,DEPTFORD,5223,5223,1559 ALMONESSON ROAD,NJ,8096
The Men's Wearhouse,ALTOONA,5224,5224,1606 OSGOOD DR,PA,16602
The Men's Wearhouse,NEWARK,5231,5231,850 CENTER BLVD.,DE,19702
The Men's Wearhouse,WILMINGTON,5232,5232,4701 CONCORD PIKE,DE,19803-1408
The Men's Wearhouse,DOVER,5233,5233,1365 N DUPONT HWY STE#2050,DE,19901
The Men's Wearhouse,YORK,5264,5264,"2805 CONCORD ROAD, SPACE A-1A",PA,17402
The Men's Wearhouse,NEWARK,5268,5268,715 CHRISTIANA MALL,DE,19702
The Men's Wearhouse,PHILLIPSBURG,5270,5270,1200 U.S. HIGHWAY 22 #219,NJ,8865
The Men's Wearhouse,E. BRUNSWICK,5272,5272,755 STATE ROUTE 18 #312,NJ,8816
The Men's Wearhouse,BRIDGEWATER,5273,5273,400 COMMONS WAY SUITE 155,NJ,8807
The Men's Wearhouse,MAYS LANDING,5278,5278,4403 BLACK HORSE PIKE #1075,NJ,8330
The Men's Wearhouse,PISCATAWAY,5279,5279,1297 CENTENNIAL AVENUE,NJ,8854
The Men's Wearhouse,UPPER DARBY,5281,5281,6846 MARKET STREET #48,PA,19082
The Men's Wearhouse,BENSALEM,5284,5284,707 NESHAMINY MALL #650,PA,19020
The Men's Wearhouse,PLYMOUTH MEETING,5288,5288,500 WEST GERMANTOWN PIKE #2360,PA,19462
The Men's Wearhouse,WHITEHALL,5289,5289,2556 MACARTHUR BLVD #10,PA,18052
The Men's Wearhouse,WHITEHALL,5290,5290,100 LEHIGH VALLEY MALL #1073,PA,18052
The Men's Wearhouse,LANCASTER,5292,5292,138 PARK CITY CENTER SUITE 138,PA,17601
The Men's Wearhouse,PHILADELPHIA,5295,5295,2600 COTTMAN AVENUE,PA,19149
The Men's Wearhouse,NORTH WALES,5296,5296,230 MONTGOMERY MALL STE. 1065,PA,19454
The Men's Wearhouse,WILLOW GROVE,5297,5297,2500 WEST MORELAND RD #3077,PA,19090
The Men's Wearhouse,CHEEKTOWAGA,5301,5301,1779 WALDEN AVE,NY,14225
The Men's Wearhouse,AMHERST,5302,5302,1267 NIAGARA FALLS BLVD #701,NY,14226
The Men's Wearhouse,ROCHESTER,5310,5310,2410 RIDGE RD W,NY,14626
The Men's Wearhouse,ROCHESTER,5311,5311,600 JEFFERSON ROAD SUITE 2,NY,14623
The Men's Wearhouse,VICTOR,5312,5312,6 COMMERCE DR,NY,14564
The Men's Wearhouse,DEWITT,5313,5313,3470 ERIE BLVD,NY,13214
The Men's Wearhouse,CICERO,5314,5314,5663 EAST CIRCLE DR STE#1200,NY,13039
The Men's Wearhouse,NISKAYUNA,5319,5319,"441 BALLTOWN RD, STE#1",NY,12309
The Men's Wearhouse,CLIFTON PARK,5320,5320,24 PARK AVE,NY,12065
The Men's Wearhouse,COLONIE,5321,5321,18 WOLF ROAD,NY,12205
The Men's Wearhouse,NEW HARTFORD,5322,5322,4642 COMMERCIAL DR,NY,13413-6203
The Men's Wearhouse,BUFFALO,5396,5396,1 WALDEN GALLERIA STE. 206,NY,14225
The Men's Wearhouse,HORSEHEADS,5397,5397,3345 CHAMBERS ROAD SOUTH #6,NY,14845
The Men's Wearhouse,BLASDELL,5398,5398,3670 NS. MCKINLEY PKWY #3,NY,14219
The Men's Wearhouse,STATEN ISLAND,5401,5401,2505 RICHMOND AVE,NY,10314-5803
The Men's Wearhouse,NEW YORK,5402,5402,380 MADISON AVENUE,NY,10017
The Men's Wearhouse,FOREST HILLS,5403,5403,7000 AUSTIN STREET,NY,11375
The Men's Wearhouse,CARLE PLACE,5404,5404,141 OLD COUNTRY ROAD,NY,11514
The Men's Wearhouse,LAKE GROVE,5405,5405,2073 NESCONSET HWY,NY,11755
The Men's Wearhouse,PATCHOGUE,5406,5406,"499 N SERVICE RD, NO.54",NY,11772
The Men's Wearhouse,HUNTINGTON STATION,5407,5407,301 WALT WHITMAN RD. STE. 5,NY,11746-4808
The Men's Wearhouse,NEW YORK,5408,5408,650 6TH AVE,NY,10011
The Men's Wearhouse,NANUET,5409,5409,156 ROCKLAND PLAZA,NY,10954-2217
The Men's Wearhouse,NEW YORK,5410,5410,115 BROADWAY,NY,10006-1604
The Men's Wearhouse,VALLEY STREAM,5411,5411,18 WEST CIRCLE DRIVE,NY,11581-1604
The Men's Wearhouse,BRONX,5412,5412,2021 BARTOW AVENUE,NY,10475
The Men's Wearhouse,WHITE PLAINS,5413,5413,360 TARRYTOWN ROAD,NY,10607-1424
The Men's Wearhouse,OCEANSIDE,5414,5414,3400 LONG BEACH ROAD,NY,11572-5439
The Men's Wearhouse,BAYSIDE,5415,5415,24-20 BELL BLVD.,NY,11360
The Men's Wearhouse,SCARSDALE,5416,5416,731 CENTRAL PARK AVENUE,NY,10583
The Men's Wearhouse,VESTAL,5417,5417,3150 VESTAL PARKWAY EAST,NY,13850
The Men's Wearhouse,PLAINVIEW,5418,5418,413/415 SOUTH OYSTER BAY ROAD,NY,11803
The Men's Wearhouse,POUGHKEEPSIE,5419,5419,2020 SOUTH ROAD,NY,12601
The Men's Wearhouse,BROOKLYN,5420,5420,139 FLATBUSH AVE.,NY,11217
The Men's Wearhouse,NEW YORK,5421,5421,350 FIFTH AVE.,NY,10118
The Men's Wearhouse,HORSEHEADS,5422,5422,1621 COUNTY ROUTE 64,NY,14845
The Men's Wearhouse,MASSAPEQUA PARK,5423,5423,5294 SUNRISE HWY,NY,11762
The Men's Wearhouse,NEW YORK,5424,5424,730 3RD AVE,NY,10017
The Men's Wearhouse,BROOKLYN,5425,5425,1608 FLATBUSH AVE,NY,11210
The Men's Wearhouse,MIDDLETOWN,5426,5426,541 ROUTE 211 EAST,NY,10941
The Men's Wearhouse,NEW YORK,5427,5427,1219 THIRD AVE,NY,10021
The Men's Wearhouse,BRIDGEWATER,5428,5428,313 ROUTE 202-206,NJ,8807
The Men's Wearhouse,TOMS RIVER,5429,5429,1379 HOOPER AVE.,NJ,8753
The Men's Wearhouse,EDGEWATER,5430,5430,18 EDGEWATER TOWNE CENTRE,NJ,7020
The Men's Wearhouse,FREEHOLD,5431,5431,3710 ROUTE 9 SOUTH SPACES D213,NJ,7728
The Men's Wearhouse,PARAMUS,5432,5432,165 SOUTH STATE ROUTE 17,NJ,7652
The Men's Wearhouse,LEDGEWOOD,5434,5434,"401 STATE ROUTE, 10 EAST",NJ,7852
The Men's Wearhouse,EDISON,5435,5435,92 PARSONAGE RD,NJ,08837-2424
The Men's Wearhouse,UNION,5436,5436,2491 US HWY 22 WEST,NJ,07083-8514
The Men's Wearhouse,EATONTOWN,5438,5438,45 RT 36,NJ,7724
The Men's Wearhouse,TOTOWA,5439,5439,360 ROUTE 46 EAST,NJ,07512-1810
The Men's Wearhouse,LIVINGSTON,5440,5440,466 W. MOUNT PLEASANT AVE,NJ,07039-1701
The Men's Wearhouse,STAMFORD,5441,5441,2254 SUMMER STREET,CT,6905
The Men's Wearhouse,DANBURY,5442,5442,"7 BACKUS AVE, SPACE C103-105",CT,06810-7422
The Men's Wearhouse,WESTPORT,5443,5443,950 POST ROAD,CT,6880
The Men's Wearhouse,MILFORD,5444,5444,1270 BOSTON POST ROAD,CT,6460
The Men's Wearhouse,YORKTOWN HGTS.,5474,5474,650 LEE BLVD. SPACE J03A,NY,10598
The Men's Wearhouse,POUGHKEEPSIE,5476,5476,2001 SOUTH ROAD,NY,12601
The Men's Wearhouse,LAKE GROVE,5478,5478,570 SMITH HAVEN MALL,NY,11755
The Men's Wearhouse,TRUMBULL,5481,5481,5065 MAIN STREET #1096,CT,6611
The Men's Wearhouse,ORANGE,5482,5482,116 BOSTON POST ROAD,CT,6477
The Men's Wearhouse,MANCHESTER,5484,5484,194 BUCKLAND HILLS DR #1072,CT,6042
The Men's Wearhouse,ROCKAWAY,5486,5486,301 MOUNT HOPE AVE #1030A,NJ,7866
The Men's Wearhouse,WOODBRIDGE,5488,5488,250 WOODBRIDGE CENTER DR #424,NJ,7095
The Men's Wearhouse,EATONTOWN,5490,5490,180 WYCOFF RD.,NJ,7724
The Men's Wearhouse,PARAMUS,5491,5491,1 GARDEN STATE PLAZA,NJ,7652
The Men's Wearhouse,PARAMUS,5492,5492,700 PARAMUS PARK #2020,NJ,7652
The Men's Wearhouse,BAYSHORE,5493,5493,1701 SUNRISE HIGHWAY #D8,NY,11706
The Men's Wearhouse,GARDEN CITY,5494,5494,630 OLD COUNTRY RD #1148A,NY,11530
The Men's Wearhouse,DEWITT,5495,5495,3140 ERIE BLVD. EAST SUITE 600,NY,13214
The Men's Wearhouse,WESTBURY,5498,5498,1504 OLD COUNTRY RD #D04,NY,11590
The Men's Wearhouse,STATEN ISLAND,5499,5499,2655 RICHMOND AVE #1385,NY,10314
The Men's Wearhouse,SOUTH PORTLAND,5501,5501,"200 RUNNING HILL ROAD, SUITE 8",ME,04106-3258
The Men's Wearhouse,NEW BEDFORD,8108,8108,11 BELLEVILLE RD,MA,2745
