keywords,city,Aggdata Store Number,store_number,address,state,zip_code
New York & Company,HICKSVILLE,2,#02 #2 #002 2 #0002,202 BROADWAY MALL,NY,11801
New York & Company,ATLANTA,5,#05 #5 #005 5 #0005,4400 ASHFORD DUNOODY SP#2020,GA,30346
New York & Company,NEW YORK,7,#07 #7 #007 7 #0007,83 NASSAU STREET,NY,10038
New York & Company,RIDGEWOOD,11,#011 #11 #0011 11 #00011,5723 MYRTLE AVE,NY,11385
New York & Company,YONKERS,12,#012 #12 #0012 12 #00012,15-17 MALL WALK,NY,10704
New York & Company,WINSTON SALEM,13,#013 #13 #0013 13 #00013,3320 SILAS CREEK PKW ST 5500,NC,27103
New York & Company,APPLETON,14,#014 #14 #0014 14 #00014,4301 W. WISCONSIN AVE SP#101,WI,54913
New York & Company,SAN JOSE,15,#015 #15 #0015 15 #00015,925 BLOSSOM HILL RD SU 1480,CA,95123
New York & Company,BROOKLYN,16,#016 #16 #0016 16 #00016,5308 FIFTH AVENUE,NY,11220
New York & Company,NEW YORK,20,#020 #20 #0020 20 #00020,4261 BROADWAY,NY,10033
New York & Company,BABYLON,22,#022 #22 #0022 22 #00022,835 WEST MONTAUK HIGHWAY,NY,11704
New York & Company,VALLEY STREAM,23,#023 #23 #0023 23 #00023,1072 GREEN ACRES MALL,NY,11581
New York & Company,VERNON HILLS,24,#024 #24 #0024 24 #00024,122 HAWTHORNE CENTER SP#12,IL,60061
New York & Company,BALTIMORE,25,#025 #25 #0025 25 #00025,8200 PERRY HALL BLVD #1180,MD,21236
New York & Company,EDISON,27,#027 #27 #0027 27 #00027,MENLO PARK SP#2030A,NJ,8837
New York & Company,HOUSTON,28,#028 #28 #0028 28 #00028,5135 WEST ALABAMA SP#5210A,TX,77056
New York & Company,LAKE GROVE,29,#029 #29 #0029 29 #00029,468 MIDDLE COUNTY ROAD,NY,11755
New York & Company,BROOKLYN,31,#031 #31 #0031 31 #00031,5100 KINGS PLAZA BLVD #219,NY,11234
New York & Company,ALBANY,33,#033 #33 #0033 33 #00033,1 CROSSGATES MALL ROAD,NY,12203
New York & Company,SAN ANTONIO,34,#034 #34 #0034 34 #00034,7400 SAN PEDRO SP#860,TX,78216
New York & Company,HOUSTON,46,#046 #46 #0046 46 #00046,1644 WILLOW BROOK MALL 1650,TX,77070
New York & Company,MYRTLE BEACH,47,#047 #47 #0047 47 #00047,2000 COASTAL GRAND CIR SP210,SC,29577
New York & Company,BUFORD,48,#048 #48 #0048 48 #00048,3333 BUFORD DRIVE #2010,GA,30519
New York & Company,PHILADELPHIA,50,#050 #50 #0050 50 #00050,9TH & MARKET ST,PA,19107
New York & Company,EL CENTRO,56,#056 #56 #0056 56 #00056,3451 SOUTH DOGWOOD SP #1116,CA,92243
New York & Company,MIDDLETOWN,58,#058 #58 #0058 58 #00058,1 GALLERIA DR #A-105,NY,10940
New York & Company,BRONX,60,#060 #60 #0060 60 #00060,1453 METROPOLITAN AVE SP-C-7,NY,10462
New York & Company,YORKTOWN HEIGHTS,61,#061 #61 #0061 61 #00061,650 LEE BOULEVARD,NY,10598
New York & Company,STATEN ISLAND,62,#062 #62 #0062 62 #00062,430 NEW DORP LANE,NY,10306
New York & Company,LANCASTER,65,#065 #65 #0065 65 #00065,775 PARK CITY CENTER,PA,17601
New York & Company,KING OF PRUSSIA,69,#069 #69 #0069 69 #00069,160 N GULPH RD SP#3108,PA,19406
New York & Company,UNION CITY,70,#070 #70 #0070 70 #00070,3701 BERGENLINE AVENUE,NJ,7087
New York & Company,STATEN ISLAND,75,#075 #75 #0075 75 #00075,2655 RICHMOND AVE SP#1070,NY,10314
New York & Company,NEW YORK,77,#077 #77 #0077 77 #00077,715 LEXINGTON AVE SP#A,NY,10022
New York & Company,CHARLESTON,78,#078 #78 #0078 78 #00078,3000 CHARLESTON TC SP#1035,WV,25389
New York & Company,WOODBRIDGE,79,#079 #79 #0079 79 #00079,188 WOODBRIDGE CENTER,NJ,7095
New York & Company,GLEN BURNIE,81,#081 #81 #0081 81 #00081,7900 GOV RITCHIE HWY #E205,MD,21061
New York & Company,TRUMBULL,84,#084 #84 #0084 84 #00084,5065 MAIN STREET SP#216,CT,6611
New York & Company,BROOKLYN,85,#085 #85 #0085 85 #00085,515-521 86TH STREET,NY,11209
New York & Company,DOUGLASVILLE,91,#091 #91 #0091 91 #00091,6700 DOUGLAS BLVD SP # 1120,GA,30135
New York & Company,VISALIA,92,#092 #92 #0092 92 #00092,2053 S. MOONEY BLVD,CA,93277
New York & Company,RICHMOND HEIGHTS,95,#095 #95 #0095 95 #00095,1155 ST LOUIS GALLERIA,MO,63117
New York & Company,WILLOW GROVE,96,#096 #96 #0096 96 #00096,2500 MORELAND RD. SP# 3000,PA,19090
New York & Company,SAUGUS,97,#097 #97 #0097 97 #00097,12777 BROADWAY SP#208,MA,1906
New York & Company,AUSTIN,100,#0100 #100 #00100 100 #000100,2901 CAPITAL OF TEXAS HIGHWA,TX,78746
New York & Company,RANCHOCUCAMONGA,103,#0103 #103 #00103 103 #000103,12561 S MAIN ST SP#1620,CA,91730
New York & Company,GREEN BAY,105,#0105 #105 #00105 105 #000105,303 BAY PARK SQUARE SP#689A,WI,54304
New York & Company,CALUMET CITY,106,#0106 #106 #00106 106 #000106,RIVER OAKS CENTER RD. SP 49A,IL,60409
New York & Company,SAN ANTONIO,107,#0107 #107 #00107 107 #000107,2310 SOUTHWEST MILITARY DR.,TX,78224
New York & Company,DURHAM,111,#0111 #111 #00111 111 #000111,6910 FAYETTEVILLE RD SP#122,NC,27713
New York & Company,JACKSONVILLE,112,#0112 #112 #00112 112 #000112,10300 SOUTHSIDE BLVD SP#164,FL,32256
New York & Company,METAIRIE,119,#0119 #119 #00119 119 #000119,3301 VETERANS HWY SP#61,LA,70002
New York & Company,BIRMINGHAM,120,#0120 #120 #00120 120 #000120,200 SUMMIT BLVD SP# A4,AL,35243
New York & Company,LAKEWOOD,121,#0121 #121 #00121 121 #000121,310 LAKEWOOD CTR,CA,90712
New York & Company,CINCINNATI,122,#0122 #122 #00122 122 #000122,11700 PRINCETON PIKE,OH,45246
New York & Company,MURFREESBORO,126,#0126 #126 #00126 126 #000126,2615 MEDICAL CENTER PKWY,TN,37129
New York & Company,TAUTON,131,#0131 #131 #00131 131 #000131,2 GALLERIA MALL DR,MA,2718
New York & Company,OMAHA,132,#0132 #132 #00132 132 #000132,3001 S 144 ST SP#D10&D10B,NE,68144
New York & Company,DANBURY,135,#0135 #135 #00135 135 #000135,7 BACKUS AVENUE #C220,CT,6810
New York & Company,HUMBLE,136,#0136 #136 #00136 136 #000136,20131 HIGHWAY 59 N  SP#1086,TX,77338
New York & Company,HOUSTON,140,#0140 #140 #00140 140 #000140,303 MEMORIAL CITY STE 257,TX,77024
New York & Company,BENSALEM,141,#0141 #141 #00141 141 #000141,320 NESHAMINY MALL,PA,19020
New York & Company,COMMACK,142,#0142 #142 #00142 142 #000142,132-138 JERICHO TNPKE,NY,11725
New York & Company,LAFAYETTE,143,#0143 #143 #00143 143 #000143,5725 JOHNSON STREET,LA,70503
New York & Company,JOHNSON CITY,144,#0144 #144 #00144 144 #000144,HARRY L  DR & REYNOLDS RD,NY,13790
New York & Company,POUGHKEEPSIE,145,#0145 #145 #00145 145 #000145,790 SOUTH ROAD SP# A211,NY,12601
New York & Company,ST. PETERS,148,#0148 #148 #00148 148 #000148,1600 MID RIVERS MALL,MO,63376
New York & Company,SANDY,149,#0149 #149 #00149 149 #000149,10450 S STATE STREET SP#1238,UT,84070
New York & Company,MT. JULIET,150,#0150 #150 #00150 150 #000150,401 S. MT JULIET RD,TN,37122
New York & Company,WESTLAND,152,#0152 #152 #00152 152 #000152,3500 WEST WARREN ROAD,MI,48185
New York & Company,MOOSIC,153,#0153 #153 #00153 153 #000153,2251 SHOPPES BLVD #2251,PA,18507
New York & Company,RAMSEY,154,#0154 #154 #00154 154 #000154,75 INTERSTATE SHOP CTR SP101,NJ,7446
New York & Company,SIMI VALLEY,156,#0156 #156 #00156 156 #000156,1555 SIMI VALLEY WAY SP#525,CA,93063
New York & Company,COLUMBIA,159,#0159 #159 #00159 159 #000159,470-11 TOWN CENTER  SPB113,SC,29229
New York & Company,CORAL SPRINGS,163,#0163 #163 #00163 163 #000163,9175 W ATLANTIC BLVD,FL,33071
New York & Company,PEABODY,164,#0164 #164 #00164 164 #000164,RTS 114 & 128 SP#W115,MA,1960
New York & Company,LAKEWOOD,166,#0166 #166 #00166 166 #000166,351 SOUTH TELLER STREET,CO,80226
New York & Company,ST CLOUD,167,#0167 #167 #00167 167 #000167,4101 W DIVISION ST.  SP#B23,MN,56301
New York & Company,NEWARK,168,#0168 #168 #00168 168 #000168,2088 NEWPARK MALL SP#2023,CA,94560
New York & Company,WARWICK,169,#0169 #169 #00169 169 #000169,100 WARWICK MALL SP#A107,RI,2886
New York & Company,VICTOR,173,#0173 #173 #00173 173 #000173,7979 VICTOR PITTSFORD RD,NY,14564
New York & Company,GARDEN CITY,174,#0174 #174 #00174 174 #000174,630 OLD COUNTRY RD SP#1039D,NY,11530
New York & Company,WHEATON,177,#0177 #177 #00177 177 #000177,11160 VIERS MILL ROAD SP112,MD,20902
New York & Company,EATONTOWN,178,#0178 #178 #00178 178 #000178,MONMOUTH SHOPPING CTR #2112,NJ,7724
New York & Company,PHILADELPHIA,180,#0180 #180 #00180 180 #000180,2311 COTTMAN AVE SP#22,PA,19149
New York & Company,TEMECULA,182,#0182 #182 #00182 182 #000182,40820 WINCHESTER RD SP#2630,CA,92591
New York & Company,PARAMUS,184,#0184 #184 #00184 184 #000184,700 PARAMUS PARK SP#1580,NJ,7652
New York & Company,CHINO HILLS,185,#0185 #185 #00185 185 #000185,13855 CITY CENTER DRIVE,CA,91709
New York & Company,BILOXI,188,#0188 #188 #00188 188 #000188,2600 BEACH BLVD,MS,39531
New York & Company,GREENSBORO,189,#0189 #189 #00189 189 #000189,3100 KATHLEEN AVE,NC,27408
New York & Company,FORT MYERS,191,#0191 #191 #00191 191 #000191,4125 CLEVELAND AVE  SP#1470,FL,33901
New York & Company,TAMPA,193,#0193 #193 #00193 193 #000193,253 WEST SHORE PLAZA,FL,33609
New York & Company,MOBILE,195,#0195 #195 #00195 195 #000195,3277 BEL AIR MALL SP#G14,AL,36606
New York & Company,OMAHA,197,#0197 #197 #00197 197 #000197,10000 CALIFORNIA ST SP#2228,NE,68114
New York & Company,OKEMOS,203,#0203 #203 #00203 203 #000203,1982 GRAND RIVER AVE SP#561,MI,48864
New York & Company,EXTON,204,#0204 #204 #00204 204 #000204,176 EXTON SQUARE SP# 176,PA,19341
New York & Company,MAYS LANDING,209,#0209 #209 #00209 209 #000209,100 W BLACKHORSE PIKE SP#251,NJ,8330
New York & Company,CINCINNATI,210,#0210 #210 #00210 210 #000210,9501 COLERAIN AVE SP#166,OH,45251
New York & Company,BIRMINGHAM,211,#0211 #211 #00211 211 #000211,768 BROOKWOOD VILLAGE MALL,AL,35209
New York & Company,ASHEVILLE,212,#0212 #212 #00212 212 #000212,3 SOUTH TUNNEL ROAD,NC,28805
New York & Company,HIGHLAND VILLAGE,214,#0214 #214 #00214 214 #000214,4151 WALLER CREEK #120,TX,75077
New York & Company,YOUNGSTOWN,215,#0215 #215 #00215 215 #000215,7401 MARKET ST SP#803A,OH,44512
New York & Company,FAIRLAWN,219,#0219 #219 #00219 219 #000219,3265 W. MARKET ST #580A,OH,44333
New York & Company,WEST SENECA,223,#0223 #223 #00223 223 #000223,1014 UNION ROAD,NY,14224
New York & Company,ALBANY,224,#0224 #224 #00224 224 #000224,131 COLONIE CENTER SP#337,NY,12205
New York & Company,NORFOLK,225,#0225 #225 #00225 225 #000225,300 MONTICELLO AVE SP#174,VA,23510
New York & Company,GLENDALE,226,#0226 #226 #00226 226 #000226,7700 ARROWHEAD SP# 1208,AZ,85308
New York & Company,MESQUITE,228,#0228 #228 #00228 228 #000228,2063 TOWN EAST MALL SP#2010,TX,75150
New York & Company,AMHERST,232,#0232 #232 #00232 232 #000232,1289 NIAGARA FALLS BLV SP737,NY,14226
New York & Company,NILES,233,#0233 #233 #00233 233 #000233,5555 YOUNGSTOWN-WARREN RD.,OH,44446
New York & Company,GREENSBORO,236,#0236 #236 #00236 236 #000236,400 FOUR SEASONS TOWN CENTER,NC,27407
New York & Company,HENDERSON,237,#0237 #237 #00237 237 #000237,1300 SUNSET BLVD #137,NV,89014
New York & Company,GASTONIA,238,#0238 #238 #00238 238 #000238,246 NORTH NEW HOPE RD #130,NC,28053
New York & Company,STRONGSVILLE,240,#0240 #240 #00240 240 #000240,736 SOUTHPARK CENTER #AU736,OH,44136
New York & Company,BRANDON,241,#0241 #241 #00241 241 #000241,459 BRANDON TOWN CTR # 407,FL,33511
New York & Company,HATTIESBURG,243,#0243 #243 #00243 243 #000243,1000 TURTLECREEK DRIVE,MS,39402
New York & Company,WEST DES MOINES,244,#0244 #244 #00244 244 #000244,101 74ST STREET SP#1046,IA,50266
New York & Company,ROCHESTER,246,#0246 #246 #00246 246 #000246,1 MIRACLE MILE DRIVE,NY,14624
New York & Company,CHICAGO,247,#0247 #247 #00247 247 #000247,4190E NORTH HARLEM AVENUE,IL,60634
New York & Company,LANESBOROUGH,248,#0248 #248 #00248 248 #000248,OLD STATE RD & RTE 8 SP#B105,MA,1237
New York & Company,INDEPENDENCE,253,#0253 #253 #00253 253 #000253,2060 INDEPENDENCE CENTER DR,MO,64057
New York & Company,ATLANTA,256,#0256 #256 #00256 256 #000256,1401 NORTHLAKE MALL,GA,30345
New York & Company,PLEASANTON,257,#0257 #257 #00257 257 #000257,2329 STONERIDGE MALL SP#-212,CA,94588
New York & Company,HUNTSVILLE,261,#0261 #261 #00261 261 #000261,340 BRIDGE STREET #124,AL,35806
New York & Company,JERSEY CITY,262,#0262 #262 #00262 262 #000262,30-148 MALL DRIVE WEST,NJ,7302
New York & Company,WHITEHALL,263,#0263 #263 #00263 263 #000263,153 LEHIGH VALLEY MALL,PA,18052
New York & Company,MASON,264,#0264 #264 #00264 264 #000264,5425 DEERFIELD BLVD SP#2060,OH,45040
New York & Company,GARLAND,267,#0267 #267 #00267 267 #000267,205 CEDAR SAGE DRIVE SP#E-01,TX,75040
New York & Company,ALPHARETTA,268,#0268 #268 #00268 268 #000268,1000 NORTH POINT CR SP#2072,GA,30022
New York & Company,WELLINGTON,269,#0269 #269 #00269 269 #000269,10300 W FOREST HILL BLVD 207,FL,33414
New York & Company,CRESTVIEW HILLS,274,#0274 #274 #00274 274 #000274,2901 DIXIE HWY SP#3040,KY,41017
New York & Company,FAYETTEVILLE,275,#0275 #275 #00275 275 #000275,4201 NORTH SHILOH DR SP#1750,AR,72703
New York & Company,CONCORD,277,#0277 #277 #00277 277 #000277,270 LOUDON ROAD,NH,3301
New York & Company,MILFORD,281,#0281 #281 #00281 281 #000281,1201 BOSTON POST RD SP#1210,CT,6460
New York & Company,PLATTSBURGH,282,#0282 #282 #00282 282 #000282,60 SMITHFIELD BLVD SP#C115,NY,12901
New York & Company,SCHAUMBURG,283,#0283 #283 #00283 283 #000283,WOODFIELD MALL SP# F-112,IL,60173
New York & Company,FT. WORTH,284,#0284 #284 #00284 284 #000284,4800 SOUTH HULEN STREET,TX,76132
New York & Company,LOUDOUN,286,#0286 #286 #00286 286 #000286,21100 DULLES TOWN CTR F-112,VA,20166
New York & Company,ERIE,288,#0288 #288 #00288 288 #000288,480 MILLCREEK MALL,PA,16509
New York & Company,MONROEVILLE,290,#0290 #290 #00290 290 #000290,290 MONROEVILLE MALL SP#159,PA,15146
New York & Company,DAYTON,292,#0292 #292 #00292 292 #000292,2700 MIAMIBURG CENTERVILLE,OH,45459
New York & Company,SMYRNA,293,#0293 #293 #00293 293 #000293,815 INDUSTRIAL BLVD,TN,37167
New York & Company,WINTER GARDEN,294,#0294 #294 #00294 294 #000294,3251 DANIELS ROAD,FL,34787
New York & Company,FAIRFIELD,295,#0295 #295 #00295 295 #000295,1350 TRAVIS BLVD #R-5,CA,94533
New York & Company,N. BRUNSWICK,301,#0301 #301 #00301 301 #000301,757 SHOPPES BOULEVARD,NJ,8902
New York & Company,SAN ANTONIO,305,#0305 #305 #00305 305 #000305,15900 LA CANTERA PKY SP#1040,TX,78256
New York & Company,PITTSBURGH,308,#0308 #308 #00308 308 #000308,301 SOUTH HILLS VILL. #2015A,PA,15241
New York & Company,ALLEN,315,#0315 #315 #00315 315 #000315,877 MARKET STREET,TX,75013
New York & Company,WAYNE,316,#0316 #316 #00316 316 #000316,1828 WILLOWBROOK MALL SP#30,NJ,7470
New York & Company,MERIDEN,321,#0321 #321 #00321 321 #000321,"470 LEWIS STREET, SPACE 1020",CT,6450
New York & Company,ROCHESTER,322,#0322 #322 #00322 322 #000322,462 GREECE RIDGE CENTER DR,NY,14626
New York & Company,COLUMBIA,323,#0323 #323 #00323 323 #000323,10300 LITTLE PATUXENT PKWY,MD,21044
New York & Company,MASSAPEQUA,324,#0324 #324 #00324 324 #000324,1 SUNRISE MALL #1305,NY,11758
New York & Company,LIVINGSTON,326,#0326 #326 #00326 326 #000326,112 EISENHOWER PKWY #1042D,NJ,7039
New York & Company,CINCINNATI,329,#0329 #329 #00329 329 #000329,2675 EDMONDSON RD SP#B4,OH,45209
New York & Company,HOUSTON,330,#0330 #330 #00330 330 #000330,242  ALEMEDA MALL,TX,77075
New York & Company,WILLIAMSVILLE,334,#0334 #334 #00334 334 #000334,4545 TRANSIT RD,NY,14221
New York & Company,HURST,339,#0339 #339 #00339 339 #000339,1101 MELBORNE STREET #D05-A,TX,76053
New York & Company,SAVANNAH,340,#0340 #340 #00340 340 #000340,7804 ABERCORN HWY SP#56,GA,31406
New York & Company,WARRINGTON,343,#0343 #343 #00343 343 #000343,1580 MAIN STREET,PA,18976
New York & Company,PENSACOLA,344,#0344 #344 #00344 344 #000344,5100 N 9TH AVE SP-F613A,FL,32504
New York & Company,HIALEAH,346,#0346 #346 #00346 346 #000346,1685 W 49TH ST SP# 1112,FL,33012
New York & Company,MEMPHIS,349,#0349 #349 #00349 349 #000349,2760 NORTH GERMANTOWN PKWY,TN,38133
New York & Company,PITTSBURGH,353,#0353 #353 #00353 353 #000353,1590 ROBINSON CENTER DRIVE,PA,15205
New York & Company,BEAUMONT,356,#0356 #356 #00356 356 #000356,6155 EAST FREEWAY   SP 696,TX,77706
New York & Company,NORTH CHARLESTON,358,#0358 #358 #00358 358 #000358,2150 NORTHWOODS BLV UNIT E10,SC,29406
New York & Company,WILMINGTON,359,#0359 #359 #00359 359 #000359,6869 MAIN STREET,NC,28405
New York & Company,ATLANTA,362,#0362 #362 #00362 362 #000362,1000 CUMBERLAND MALL SP#249,GA,30339
New York & Company,FAYETTEVILLE,364,#0364 #364 #00364 364 #000364,211 CROSS CREEK MALL,NC,28303
New York & Company,DAYTONA BEACH,369,#0369 #369 #00369 369 #000369,1700 INTERNATIONAL SPEEDWAY,FL,32114
New York & Company,GAITHERSBURG,370,#0370 #370 #00370 370 #000370,701 RUSSELL AVENUE #225,MD,20877
New York & Company,FOREST HILLS,371,#0371 #371 #00371 371 #000371,71-40 AUSTIN STREET,NY,11375
New York & Company,PALMDALE,372,#0372 #372 #00372 372 #000372,1233 W AVE PLACE,CA,93551
New York & Company,SYRACUSE,373,#0373 #373 #00373 373 #000373,1 Destiny Drive,NY,13290
New York & Company,VALDOSTA,375,#0375 #375 #00375 375 #000375,1000-1018 VALDOSTA SP 1012,GA,31601
New York & Company,MORGANTOWN,376,#0376 #376 #00376 376 #000376,9233 MALL ROAD,WV,26501
New York & Company,EL CAJON,380,#0380 #380 #00380 380 #000380,415 PARKWAY PLAZA SP-651,CA,92020
New York & Company,HADLEY,382,#0382 #382 #00382 382 #000382,367 RUSSELL ST SP#A07,MA,1035
New York & Company,GREENVILLE,383,#0383 #383 #00383 383 #000383,714 E GREENVILLE BLVD SP#C2,NC,27858
New York & Company,ROCHESTER,388,#0388 #388 #00388 388 #000388,306 APACHE MALL SP#306,MN,55902
New York & Company,EAST BRUNSWICK,390,#0390 #390 #00390 390 #000390,755 NJ STATE HWY 18,NJ,8816
New York & Company,KNOXVILLE,391,#0391 #391 #00391 391 #000391,11341 PARKSIDE DRIVE SP416,TN,37934
New York & Company,SANTA ANA,393,#0393 #393 #00393 393 #000393,2800 N MAIN ST SP#603,CA,92705
New York & Company,SPRINGFIELD,394,#0394 #394 #00394 394 #000394,1200 BALTIMORE PIKE,PA,19064
New York & Company,SARASOTA,395,#0395 #395 #00395 395 #000395,8201 SOUTH TAMIAMI TRAIL,FL,34238
New York & Company,GLENDALE,396,#0396 #396 #00396 396 #000396,5800 N. BAYSHORE DR. SP#B123,WI,53217
New York & Company,DEPTFORD,399,#0399 #399 #00399 399 #000399,1750 DEPTFORD CENTER SP#207A,NJ,8096
New York & Company,WESTMINSTER,400,#0400 #400 #00400 400 #000400,400 NORTH CENTER ST SP#1453,MD,21157
New York & Company,TAMPA,401,#0401 #401 #00401 401 #000401,8112 CITRUS PARK,FL,33625
New York & Company,FRANKLIN,407,#0407 #407 #00407 407 #000407,1800 GALLERIA BLVD,TN,37067
New York & Company,TUCSON,408,#0408 #408 #00408 408 #000408,5870 E BROADWAY BLVD SP#409,AZ,85711
New York & Company,OLD BRIDGE,410,#0410 #410 #00410 410 #000410,3813 US HIGHWAY 9,NJ,8857
New York & Company,MONTCLAIR,414,#0414 #414 #00414 414 #000414,2138 MONTCLAIR PLAZA SP 2138,CA,91763
New York & Company,HUNT VALLEY,416,#0416 #416 #00416 416 #000416,118 SHAWAN ROAD SUITE E,MD,21030
New York & Company,TUCSON,417,#0417 #417 #00417 417 #000417,4500 N ORACLE RD,AZ,85705
New York & Company,PROVIDENCE,418,#0418 #418 #00418 418 #000418,1 PROVIDENCE PLACE SP#3210,RI,2903
New York & Company,YONKERS,419,#0419 #419 #00419 419 #000419,2500 CENTRAL PARK AVENUE,NY,10710
New York & Company,SOUTHLAKE,420,#0420 #420 #00420 420 #000420,267 GRAND AVE SP#C-220,TX,76092
New York & Company,CARMEL,423,#0423 #423 #00423 423 #000423,14400 CLAY TERRACE SP#D08,IN,46032
New York & Company,ENGLEWOOD,425,#0425 #425 #00425 425 #000425,22 W. PALISADE AVENUE,NJ,7631
New York & Company,CORONA,426,#0426 #426 #00426 426 #000426,2790 CABOT ROAD,CA,92883
New York & Company,FAIRFAX,427,#0427 #427 #00427 427 #000427,11750 FAIR OAKS SP#G-110,VA,22033
New York & Company,WYOMISSING,430,#0430 #430 #00430 430 #000430,770 WOODLAND ROAD,PA,19610
New York & Company,GLEN ALLEN,433,#0433 #433 #00433 433 #000433,10101 BROOK ROAD #740,VA,23059
New York & Company,TYLER,434,#0434 #434 #00434 434 #000434,BROADWAY SQUARE MALL SP#H18B,TX,75703
New York & Company,DOWNEY,435,#0435 #435 #00435 435 #000435,"251 STONEWOOD SP#C17,19,21",CA,90241
New York & Company,TUSCALOOSA,438,#0438 #438 #00438 438 #000438,1800 MCFARLAND BLVD E.,AL,35404
New York & Company,AUBURN,439,#0439 #439 #00439 439 #000439,385 SOUTH BRIDGE STREET,MA,1501
New York & Company,El Paso,440,#0440 #440 #00440 440 #000440,8401 Gateway West,TX,79925
New York & Company,COLUMBUS,442,#0442 #442 #00442 442 #000442,4074 NEW BOND ST SP#322,OH,43219
New York & Company,HOUSTON,443,#0443 #443 #00443 443 #000443,2400 UNIVERSITY BLVD SP#177,TX,77005
New York & Company,PHOENIX,444,#0444 #444 #00444 444 #000444,4568 E CACTUS RD SP# 246,AZ,85032
New York & Company,THE WOODLANDS,445,#0445 #445 #00445 445 #000445,1201 LAKE WOODLANDS SP#1200,TX,77380
New York & Company,CARY,447,#0447 #447 #00447 447 #000447,1105 WALNUT STREET  SP#G1120,NC,27511
New York & Company,BOWLING GREEN,449,#0449 #449 #00449 449 #000449,2625 SCOTTSVILLE RD SP#129,KY,42104
New York & Company,CHATTANOGA,450,#0450 #450 #00450 450 #000450,2100 HAMILTON PLACE BLD #248,TN,37421
New York & Company,CHICO,451,#0451 #451 #00451 451 #000451,1950 E. 20TH STREET,CA,95928
New York & Company,SNELLVILLE,453,#0453 #453 #00453 453 #000453,1350 SCENIC HWY 124 SP#332,GA,30078
New York & Company,BATON ROUGE,455,#0455 #455 #00455 455 #000455,6401 BLUEBONNET BLVD #2180,LA,70836
New York & Company,CANTON,456,#0456 #456 #00456 456 #000456,4164 BELDEN VILLAGE SP#C13,OH,44718
New York & Company,SAGINAW,457,#0457 #457 #00457 457 #000457,4787 FASHION SQ MALL SP#C326,MI,48604
New York & Company,CAMP HILL,462,#0462 #462 #00462 462 #000462,3506 CAPITAL CITY MALL DRIVE,PA,17011
New York & Company,LOUISVILLE,463,#0463 #463 #00463 463 #000463,7900 SHELBYVILLE ROAD,KY,40222
New York & Company,TORRANCE,464,#0464 #464 #00464 464 #000464,3525 CARSON ST SPACE#151,CA,90503
New York & Company,TAYLOR,465,#0465 #465 #00465 465 #000465,23000 EUREKA,MI,48180
New York & Company,DALY CITY,466,#0466 #466 #00466 466 #000466,64 SERRAMONTE BLVD #624,CA,94015
New York & Company,ROANOKE,467,#0467 #467 #00467 467 #000467,4802 VALLEY VIEW BLVD SP#UE2,VA,24012
New York & Company,SAN DIEGO,469,#0469 #469 #00469 469 #000469,1640 CAMINO DEL RIO N SP#230,CA,92108
New York & Company,CRANBERRY TOWNSHIP,470,#0470 #470 #00470 470 #000470,20430 ROUTE 19 #140,PA,16066
New York & Company,EL PASO,471,#0471 #471 #00471 471 #000471,6101 GATEWAY WEST SP#B-7,TX,79925
New York & Company,CHULA VISTA,472,#0472 #472 #00472 472 #000472,555 BROADWAY SP#1050,CA,91910
New York & Company,HICKORY,476,#0476 #476 #00476 476 #000476,244 VALLEY HILLS MALL SP180,NC,28602
New York & Company,TOWSON,478,#0478 #478 #00478 478 #000478,825 DULANEY VALLY RD SP#4310,MD,21204
New York & Company,HAYWARD,480,#0480 #480 #00480 480 #000480,262 SOUTHLAND MALL- SP#240,CA,94545
New York & Company,PLANO,486,#0486 #486 #00486 486 #000486,6121 W PARK BLVD SP#B-214,TX,75093
New York & Company,MANASSAS,487,#0487 #487 #00487 487 #000487,8300 SUDLEY ROAD E-16,VA,20109
New York & Company,CORPUS CHRISTI,490,#0490 #490 #00490 490 #000490,5488 S PADRE ISLAND DR SP110,TX,78411
New York & Company,BIRMINGHAM,491,#0491 #491 #00491 491 #000491,5012 PINNACLE SQ #320,AL,35235
New York & Company,NATICK,493,#0493 #493 #00493 493 #000493,1245 WORCHESTER ST. SP#2064,MA,1760
New York & Company,LAS VEGAS,495,#0495 #495 #00495 495 #000495,6611 LAS VEGAS BLVD SOUTH,NV,89119
New York & Company,CINCINNATI,498,#0498 #498 #00498 498 #000498,4601 EASTGATE BLVD #324,OH,45245
New York & Company,FRESNO,500,#0500 #500 #00500 500 #000500,701 EAST SHAW AVE SP#101,CA,93710
New York & Company,SAN JOSE,501,#0501 #501 #00501 501 #000501,2200 EASTRIDGE LOOP SP#1036,CA,95122
New York & Company,CERRITOS,502,#0502 #502 #00502 502 #000502,434 LOS CERRITOS CTR SP#E05,CA,90703
New York & Company,SALINAS,504,#0504 #504 #00504 504 #000504,566 NORTHRIDGE MALL SP E11A,CA,93906
New York & Company,CHANDLER,506,#0506 #506 #00506 506 #000506,3111 W CHANDLER BLVD SP1136,AZ,85224
New York & Company,CULVER CITY,508,#0508 #508 #00508 508 #000508,6000 SEPULVEDA BLVD SP#C7,CA,90230
New York & Company,RIVERSIDE,509,#0509 #509 #00509 509 #000509,1263 GALLERIA MALL SP#E-105,CA,92503
New York & Company,BURR RIDGE,510,#0510 #510 #00510 510 #000510,565 VILLAGE CENTER DRIVE,IL,60527
New York & Company,BOLINGBROOK,511,#0511 #511 #00511 511 #000511,639 E. BOUGHTON RD. #650,IL,60440
New York & Company,MANIKATO,512,#0512 #512 #00512 512 #000512,1850 ADAMS STREET,MN,56001
New York & Company,NEW HYDE PARK,513,#0513 #513 #00513 513 #000513,1436 UNION TURNPIKE,NY,11040
New York & Company,STERLING HEIGHTS,515,#0515 #515 #00515 515 #000515,14600 LAKE CIRCLE,MI,48313
New York & Company,CEDAR PARK,518,#0518 #518 #00518 518 #000518,11200 LAKESTOP BLVD  SP G-10,TX,78613
New York & Company,COCONUT CREEK,519,#0519 #519 #00519 519 #000519,4451 LYONS ROAD,FL,33063
New York & Company,HAMILTON,520,#0520 #520 #00520 520 #000520,549 ROUTE 130 SUITE 430,NJ,8691
New York & Company,AURORA,521,#0521 #521 #00521 521 #000521,14200 E ALAMEDA    SP 1006B,CO,80012
New York & Company,ALBUQUERQUE,522,#0522 #522 #00522 522 #000522,6600 MENAUL BLVD NE SP#B12,NM,87110
New York & Company,TOLEDO,524,#0524 #524 #00524 524 #000524,5001 MONROE ST SP#1025,OH,43623
New York & Company,WILMINGTON,527,#0527 #527 #00527 527 #000527,4737 CONCORD PIKE SP#700,DE,19803
New York & Company,CENTER VALLEY,530,#0530 #530 #00530 530 #000530,2960 CENTER VALLEY PKWY #740,PA,18034
New York & Company,CHARLOTTE,533,#0533 #533 #00533 533 #000533,9876 REA ROAD,NC,28277
New York & Company,Mc Allen,535,#0535 #535 #00535 535 #000535,2200 S 10th St,TX,78503
New York & Company,FORT WORTH,536,#0536 #536 #00536 536 #000536,1968 GREEN OAKS ROAD,TX,76116
New York & Company,FREDERICKSBURG,537,#0537 #537 #00537 537 #000537,190 SPOTSYLVANIA MALL SP#190,VA,22407
New York & Company,NORMAN,538,#0538 #538 #00538 538 #000538,3235 W. MAIN STREET,OK,73072
New York & Company,MERRILLVILLE,541,#0541 #541 #00541 541 #000541,2125 SOUTHLAKE MALL SP#824,IN,46410
New York & Company,AURORA,542,#0542 #542 #00542 542 #000542,2038 FOX VALLEY CTR,IL,60504
New York & Company,CHARLOTTE,543,#0543 #543 #00543 543 #000543,6801 NORTHLAKE MALL SP 140,NC,28216
New York & Company,CHESTERFIELD,546,#0546 #546 #00546 546 #000546,78 CHESTERFIELD MALL SP#320,MO,63017
New York & Company,ORLAND PARK,547,#0547 #547 #00547 547 #000547,636 ORLAND SQUARE #F09C,IL,60462
New York & Company,WEST NYACK,551,#0551 #551 #00551 551 #000551,1000 PALISADES CTR  SP#C205,NY,10994
New York & Company,FLORENCE,556,#0556 #556 #00556 556 #000556,2000 FLORENCE MALL,KY,41042
New York & Company,NORTH OLMSTED,557,#0557 #557 #00557 557 #000557,4954 GREAR NORTHERN SP#352,OH,44070
New York & Company,GREENSBURG,559,#0559 #559 #00559 559 #000559,ROUTE 30 EAST SP#261,PA,15601
New York & Company,SPARTANBURG,562,#0562 #562 #00562 562 #000562,205 W. BLACKSTOCK ROAD,SC,29301
New York & Company,ALBANY,563,#0563 #563 #00563 563 #000563,2601 DAWSON RD   SP C6,GA,31707
New York & Company,MORROW,564,#0564 #564 #00564 564 #000564,GA 54 & I-75 SOUTH  SP 2431,GA,30260
New York & Company,BLOOMINGTON,567,#0567 #567 #00567 567 #000567,276 SOUTH AVE SP#S276,MN,55425
New York & Company,ANDERSON,570,#0570 #570 #00570 570 #000570,3131 NORTH MAIN ST. SP#C01A,SC,29621
New York & Company,MACON,573,#0573 #573 #00573 573 #000573,5080 RIVERSIDE DRIVE #224,GA,31210
New York & Company,BURLINGTON,574,#0574 #574 #00574 574 #000574,6 WAYSIDE ROAD,MA,1803
New York & Company,CLEARWATER,575,#0575 #575 #00575 575 #000575,27001 US HIGHWAY 19 N. 2016,FL,33761
New York & Company,KANSAS CITY,576,#0576 #576 #00576 576 #000576,7240 NW 86TH PLACE SP#181,MO,64153
New York & Company,TOMS RIVER,581,#0581 #581 #00581 581 #000581,1201 HOOPER AVE SP#1008A,NJ,8753
New York & Company,LAWRENCEVILLE,583,#0583 #583 #00583 583 #000583,265 QUAKERBRIDGE MALL,NJ,8648
New York & Company,DUBLIN,584,#0584 #584 #00584 584 #000584,5043 TUTTLE CROSSING BLVD,OH,43016
New York & Company,ROCKAWAY,585,#0585 #585 #00585 585 #000585,301 MOUNT HOPE AVE SP#1087,NJ,7866
New York & Company,KENNER,588,#0588 #588 #00588 588 #000588,1401 ESPLANADE AVENUE #1602,LA,70065
New York & Company,MERCED,590,#0590 #590 #00590 590 #000590,264 MERCED MALL,CA,95348
New York & Company,CHERRY HILL,592,#0592 #592 #00592 592 #000592,2000 RT 38 SPACE# 1865,NJ,8002
New York & Company,CHESAPEAKE,595,#0595 #595 #00595 595 #000595,1401 GREENBRIER PKWY,VA,23320
New York & Company,HOLYOKE,597,#0597 #597 #00597 597 #000597,50 HOLYOKE ST. SP#B225,MA,1040
New York & Company,OVERLAND PARK,598,#0598 #598 #00598 598 #000598,11621 W 95TH STREET SP#105,KS,66214
New York & Company,BURBANK,600,#0600 #600 #00600 600 #000600,201 E MAGNOLIA AVE,CA,91502
New York & Company,RICHMOND,601,#0601 #601 #00601 601 #000601,11500 MIDLOTHIAN TURNPIKE,VA,23235
New York & Company,OKLAHOMA CITY,604,#0604 #604 #00604 604 #000604,1901 NW EXPRESSWAY SP#2015,OK,73118
New York & Company,ARLINGTON,606,#0606 #606 #00606 606 #000606,3811 SOUTH COOPER SP#1118,TX,76015
New York & Company,PEMBROKE PINES,611,#0611 #611 #00611 611 #000611,417 SW 145TH TERRACE,FL,33027
New York & Company,BAYSIDE,612,#0612 #612 #00612 612 #000612,23-92 BELL BLVD SP#23-92,NY,11360
New York & Company,ALEXANDRIA,615,#0615 #615 #00615 615 #000615,3631 JEFFERSON DAVIS  SP3631,VA,22305
New York & Company,LEAWOOD,616,#0616 #616 #00616 616 #000616,W 119TH & ROE AVE SP3220,KS,66209
New York & Company,DES PERES,617,#0617 #617 #00617 617 #000617,64 WEST COUNTY CENTER SP1250,MO,63131
New York & Company,BRICK TOWNSHIP,618,#0618 #618 #00618 618 #000618,660 ROUTE 70 W,NJ,8723
New York & Company,ROGERS,619,#0619 #619 #00619 619 #000619,2203 PROMENADE BLVD SP#9110,AR,72758
New York & Company,AURORA,621,#0621 #621 #00621 621 #000621,6240 S. MAIN STREET #110,CO,80016
New York & Company,AUGUSTA,630,#0630 #630 #00630 630 #000630,3450 WRIGHTBORO ROAD,GA,30909
New York & Company,FLORENCE,634,#0634 #634 #00634 634 #000634,2701 DAVID MCLEOD BLVD SP534,SC,29501
New York & Company,ROSEVILLE,638,#0638 #638 #00638 638 #000638,1151 HARDING AVE SP#109,CA,95678
New York & Company,BEAVER CREEK,639,#0639 #639 #00639 639 #000639,64 PLUM STREET SP#E-108,OH,45440
New York & Company,GREENVILLE,640,#0640 #640 #00640 640 #000640,700 HAYWOOD MALL -SP#1028B,SC,29606
New York & Company,SUMTER,642,#0642 #642 #00642 642 #000642,1057-10 BROAD STREET,SC,29150
New York & Company,ATHENS,645,#0645 #645 #00645 645 #000645,3700 ATLANTA HIGHWAY SP 129,GA,30606
New York & Company,WATERBURY,646,#0646 #646 #00646 646 #000646,495 UNION STREET SP 1052,CT,6721
New York & Company,RALEIGH,648,#0648 #648 #00648 648 #000648,4325 GLENWOOD AVE SP#U-234,NC,27612
New York & Company,FAIRVIEW HTS,651,#0651 #651 #00651 651 #000651,113 ST. CLAIR SQUARE,IL,62208
New York & Company,UNIONTOWN,654,#0654 #654 #00654 654 #000654,1368 W. MAIN ST.,PA,15401
New York & Company,SIOUX FALLS,655,#0655 #655 #00655 655 #000655,4001 WEST 41ST ST #0017B,SD,57106
New York & Company,JOLIET,656,#0656 #656 #00656 656 #000656,3340 MALL LOOP DRIVE SP#A-9,IL,60435
New York & Company,GILBERT,657,#0657 #657 #00657 657 #000657,2174 E. WILLIAMS FIELD RD,AZ,85295
New York & Company,WINCHESTER,658,#0658 #658 #00658 658 #000658,1850 APPLE BLOSSOM DR #S127A,VA,22601
New York & Company,ASTORIA,660,#0660 #660 #00660 660 #000660,30-37 STEINWAY ST. SPACE #30,NY,11103
New York & Company,iNDIANAPOLIS,661,#0661 #661 #00661 661 #000661,6020 EAST 82ND STREET SP 20B,IN,46250
New York & Company,LITHONIA,662,#0662 #662 #00662 662 #000662,8000 MALL PARKWAY SP1560,GA,30038
New York & Company,ROSEVILLE,665,#0665 #665 #00665 665 #000665,501 ROSEDALE CENTER,MN,55113
New York & Company,CLARKSVILLE,666,#0666 #666 #00666 666 #000666,757 LEWIS AND CLARK PKWY E,IN,47129
New York & Company,GRETNA,667,#0667 #667 #00667 667 #000667,197 W. BANK EXPRESSWAY,LA,70056
New York & Company,PANAMA CITY BEACH,671,#0671 #671 #00671 671 #000671,15611 STARFISH STREET,FL,32413
New York & Company,BOYNTON BEACH,672,#0672 #672 #00672 672 #000672,801 NORTH CONGRESS AVE,FL,33426
New York & Company,NASHVILLE,674,#0674 #674 #00674 674 #000674,2126 ABBOTT MARTIN ROAD,TN,37215
New York & Company,CUMMING,679,#0679 #679 #00679 679 #000679,410 PEACHTREE PKWY,GA,30041
New York & Company,LAYTON,680,#0680 #680 #00680 680 #000680,1400 N HILLFIELD RD SP#2056,UT,84041
New York & Company,PLANTATION,682,#0682 #682 #00682 682 #000682,8000 BROWARD MALL SP#723,FL,33388
New York & Company,BRIDGEWATER,683,#0683 #683 #00683 683 #000683,395 ROUTE 206/206 #3,NJ,8807
New York & Company,TALLAHASSEE,684,#0684 #684 #00684 684 #000684,1500 APALACHEE PKWY #2102,FL,32301
New York & Company,LANGHORNE,686,#0686 #686 #00686 686 #000686,2300 E LINCOLN HWY SP E3/E2A,PA,19047
New York & Company,LAKE SAINT LOUIS,688,#0688 #688 #00688 688 #000688,21 MEADOW CIRCLE DRIVE,MO,63367
New York & Company,FARGO,689,#0689 #689 #00689 689 #000689,3902 13th Ave S #1613,ND,58103
New York & Company,ST. LOUIS,690,#0690 #690 #00690 690 #000690,316 SOUTH COUNTY CENTER #316,MO,63129
New York & Company,N RIVERSIDE,693,#0693 #693 #00693 693 #000693,7501 W CERMAK RD SP#G-10,IL,60546
New York & Company,LAS VEGAS,697,#0697 #697 #00697 697 #000697,4300 MEADOWS LANE,NV,89107
New York & Company,SACRAMENTO,698,#0698 #698 #00698 698 #000698,1689 ARDEN WAY SP#1198,CA,95815
New York & Company,PLYMOUTH MEETING,700,#0700 #700 #00700 700 #000700,500 GERMANTOWN PIKE  SP 1090,PA,19462
New York & Company,CARLSBAD,701,#0701 #701 #00701 701 #000701,2525 EL CAMINO REAL SP#122,CA,92008
New York & Company,MINNETONKA,705,#0705 #705 #00705 705 #000705,12319 WAYZATA BLVD SP#1055,MN,55305
New York & Company,WESTMINSTER,708,#0708 #708 #00708 708 #000708,1025 WESTMINSTER SP# 2016,CA,92683
New York & Company,PERRYSBURG,709,#0709 #709 #00709 709 #000709,3150 LEVIS COMM BLVD SP#830,OH,43551
New York & Company,BOWIE,710,#0710 #710 #00710 710 #000710,15443 EMERALD WAY,MD,20716
New York & Company,CLOVIS,714,#0714 #714 #00714 714 #000714,1050 SHAW AVE,CA,93612
New York & Company,ORANGE PARK,717,#0717 #717 #00717 717 #000717,1910 WELLS ROAD,FL,32073
New York & Company,MENTOR,718,#0718 #718 #00718 718 #000718,7850 MENTOR AVE,OH,44060
New York & Company,RICHMOND HEIGHTS,719,#0719 #719 #00719 719 #000719,591 RICHMOND RD,OH,44143
New York & Company,BARBOURSVILLE,721,#0721 #721 #00721 721 #000721,HUNTINGTON MALL  SP560,WV,25504
New York & Company,KNOXVILLE,722,#0722 #722 #00722 722 #000722,7600 KINGSTON PIKE SP#1404,TN,37919
New York & Company,SEAL BEACH,724,#0724 #724 #00724 724 #000724,12181 SEAL BEACH BLVD,CA,90740
New York & Company,DENVER,728,#0728 #728 #00728 728 #000728,8216 NORTHFIELD BLVD #1343,CO,80238
New York & Company,NOBLESVILLE,729,#0729 #729 #00729 729 #000729,13901 TOWN CENTER BLVD,IN,46060
New York & Company,WATERFORD,730,#0730 #730 #00730 730 #000730,850 HARTFORD TURNPIKE SPR204,CT,6385
New York & Company,LAREDO,731,#0731 #731 #00731 731 #000731,5300 SAN DARIO   SP 206,TX,78041
New York & Company,NASHVILLE,732,#0732 #732 #00732 732 #000732,6720 CHARLOTTE PIKE,TN,37209
New York & Company,SAN ANTONIO,735,#0735 #735 #00735 735 #000735,6301 NW LOOP 410,TX,78238
New York & Company,BEL AIR,737,#0737 #737 #00737 737 #000737,696A BEL AIR RD SP#W12,MD,21014
New York & Company,BROWNSVILLE,739,#0739 #739 #00739 739 #000739,2370 N EXPRESSWAY SP#1480,TX,78526
New York & Company,PHOENIX,742,#0742 #742 #00742 742 #000742,2000 EAST SALADO PKWY,AZ,85281
New York & Company,NEWPORT NEWS,743,#0743 #743 #00743 743 #000743,12300 JEFFERSON AVE SP#106,VA,23602
New York & Company,MCLEAN,746,#0746 #746 #00746 746 #000746,7963L TYSON CORNER CENTER,VA,22102
New York & Company,LYNCHBURG,748,#0748 #748 #00748 748 #000748,3405 CANDLERS MOUNTAIN RD.,VA,24502
New York & Company,SHREVEPORT,749,#0749 #749 #00749 749 #000749,1133 ST VINCENT AVE SP#185,LA,71104
New York & Company,NEWBURGH,751,#0751 #751 #00751 751 #000751,1401 ROUTE 300 SUITE 111,NY,12550
New York & Company,CHARLOTTESVILLE,752,#0752 #752 #00752 752 #000752,1532 RIO ROAD,VA,22901
New York & Company,EL PASO,758,#0758 #758 #00758 758 #000758,750 SUNLAND PARK DRIVE #D8,TX,79912
New York & Company,COLONIAL HEIGHTS,760,#0760 #760 #00760 760 #000760,170 SOUTHPARK DRIVE - SP#F17,VA,23834
New York & Company,GRAND RAPIDS,761,#0761 #761 #00761 761 #000761,3195 28TH STREET SE SP#H110A,MI,49512
New York & Company,SAN ANTONIO,762,#0762 #762 #00762 762 #000762,6909 NORTH LOOP 1604 E.,TX,78247
New York & Company,PHOENIX,763,#0763 #763 #00763 763 #000763,455 N THIRD STREET STE#170,AZ,85004
New York & Company,ELMHURST,766,#0766 #766 #00766 766 #000766,90-15 QUEENS BLVD SP#2060,NY,11373
New York & Company,Annapolis,769,#0769 #769 #00769 769 #000769,2002 Annapolis Mall Sp#175,MD,21401
New York & Company,NORTH WALES,770,#0770 #770 #00770 770 #000770,292 MONTGOMERY MALL,PA,19454
New York & Company,LOUISVILLE,773,#0773 #773 #00773 773 #000773,5000 SHELBYVILLE ROAD,KY,40207
New York & Company,PEARLAND,774,#0774 #774 #00774 774 #000774,11200 BROADWAY STREET,TX,77584
New York & Company,NEW YORK,777,#0777 #777 #00777 777 #000777,166 SPRING STREET # 166,NY,10012
New York & Company,VIRGINIA BEACH,779,#0779 #779 #00779 779 #000779,LYNNHAVEN MALL SP#E058,VA,23452
New York & Company,NEW HARTFORD,780,#0780 #780 #00780 780 #000780,COMMERCIAL DRIVE SP#A05,NY,13413
New York & Company,ALGONQUIN,781,#0781 #781 #00781 781 #000781,1944 S RANDALL RD SP#4090,IL,60102
New York & Company,CHARLESTON,783,#0783 #783 #00783 783 #000783,2070 SAM RITTENBERG SP#C-462,SC,29407
New York & Company,CANOGA PARK,785,#0785 #785 #00785 785 #000785,6600 TOPANGA CANYON BLD 1088,CA,91303
New York & Company,GENEVA,789,#0789 #789 #00789 789 #000789,410 COMMONS DRIVE SP#2160,IL,60134
New York & Company,SICKLERVILLE,790,#0790 #790 #00790 790 #000790,611 BERLIN CROSS KEY RD D446,NJ,8081
New York & Company,EAGLE PASS,793,#0793 #793 #00793 793 #000793,455 SOUTH BIBB ST.,TX,78852
New York & Company,SPRINGFIELD,795,#0795 #795 #00795 795 #000795,2825 S GLENSTONE AVE SP#H01C,MO,65804
New York & Company,ARCADIA,804,#0804 #804 #00804 804 #000804,400 S BALDWIN SU #239-U/235U,CA,91007
New York & Company,HUNTSVILLE,805,#0805 #805 #00805 805 #000805,2801 MEMORIAL PKWY SP#165,AL,35801
New York & Company,TROY,806,#0806 #806 #00806 806 #000806,630 W 14 MILE RD,MI,48083
New York & Company,LOVELAND,807,#0807 #807 #00807 807 #000807,CENTERRA BLVD EAST SPD330,CO,80537
New York & Company,HARRISBURG,808,#0808 #808 #00808 808 #000808,3201 PAXTON STREET,PA,17111
New York & Company,VALENCIA,809,#0809 #809 #00809 809 #000809,24201 VALENCIA BLVD SP#1113,CA,91355
New York & Company,RALEIGH,811,#0811 #811 #00811 811 #000811,5959 TRIANGLE TOWN  SP#1042,NC,27616
New York & Company,SPANISH FORT,812,#0812 #812 #00812 812 #000812,30500 STATE HWAY 181 SP#124,AL,36527
New York & Company,COLLIERVILLE,814,#0814 #814 #00814 814 #000814,4670 MERCHANT'S PARK SP650,TN,38017
New York & Company,TRACY,819,#0819 #819 #00819 819 #000819,3200 NAGLEE RD. SUITE 510,CA,95304
New York & Company,FORT WAYNE,823,#0823 #823 #00823 823 #000823,4201 COLDWATER RD SP#G02,IN,46805
New York & Company,FLEMINGTON,824,#0824 #824 #00824 824 #000824,100 REAVILLE AVE,NJ,8822
New York & Company,CAPE GIRARDEAU,825,#0825 #825 #00825 825 #000825,3049 ROUTE K SP# 125,MO,63701
New York & Company,BLOOMINGDALE,826,#0826 #826 #00826 826 #000826,153 STRATFORD SQ SP#G-17,IL,60108
New York & Company,GREENWOOD,829,#0829 #829 #00829 829 #000829,1251 US HIGHWAY 31N,IN,46142
New York & Company,CHICAGO RIDGE,830,#0830 #830 #00830 830 #000830,170 CHICAGO RIDGE SP204,IL,60415
New York & Company,MADISON,832,#0832 #832 #00832 832 #000832,66 WEST TOWN SPACE#B11,WI,53719
New York & Company,OKLAHOMA CITY,834,#0834 #834 #00834 834 #000834,2501 WEST MEMORIAL,OK,73134
New York & Company,PEORIA,837,#0837 #837 #00837 837 #000837,5201 W WAR MEMORIAL DR SP305,IL,61615
New York & Company,PALM DESERT,839,#0839 #839 #00839 839 #000839,72-840 HIGHWAY 11 SP#109,CA,92260
New York & Company,HAMPTON,844,#0844 #844 #00844 844 #000844,1450 MERCHANT LANE SP#B-131,VA,23666
New York & Company,ROSEVILLE,845,#0845 #845 #00845 845 #000845,32357 GRATIOT AVE,MI,48066
New York & Company,PADUCAH,851,#0851 #851 #00851 851 #000851,5101 HINKLEVILLE RD SP #680,KY,42001
New York & Company,NATIONAL CITY,852,#0852 #852 #00852 852 #000852,3030 PLAZA BONITA SP#1144,CA,91950
New York & Company,LAKELAND,853,#0853 #853 #00853 853 #000853,1473 TOWN CENTER DRIVE,FL,33803
New York & Company,PALM BEACH GARDENS,856,#0856 #856 #00856 856 #000856,11340 LEGACY DRIVE,FL,33410
New York & Company,LUBBOCK,857,#0857 #857 #00857 857 #000857,6002 SLIDE RD SP#G-3,TX,79414
New York & Company,TULSA,859,#0859 #859 #00859 859 #000859,7021 S. MEMORIAL DR SP#278-A,OK,74133
New York & Company,LINCOLN,867,#0867 #867 #00867 867 #000867,39 GATEWAY MALL SP#A-104,NE,68505
New York & Company,MORENO VALLEY,868,#0868 #868 #00868 868 #000868,22500 TOWN CIRCLE,CA,92553
New York & Company,LITTLE ROCK,870,#0870 #870 #00870 870 #000870,6000 W MARKHAM SP#2006,AR,72205
New York & Company,PINEVILLE,871,#0871 #871 #00871 871 #000871,11025 CAROLINA PLACE PWY,NC,28134
New York & Company,SUGARLAND,874,#0874 #874 #00874 874 #000874,16535 SOUTHWEST PARKWAY,TX,77479
New York & Company,FLOWOOD,876,#0876 #876 #00876 876 #000876,110 DOGWOOD BLVD. #2251,MS,39232
New York & Company,WALDORF,878,#0878 #878 #00878 878 #000878,11110 MALL CIRCLE SP#F02A,MD,20603
New York & Company,PEMBROKE PINES,879,#0879 #879 #00879 879 #000879,11401 PINES BLVD SO 322,FL,33026
New York & Company,COLUMBUS,882,#0882 #882 #00882 882 #000882,3131 MANCHESTER EXPRESSWAY,GA,31909
New York & Company,FREEHOLD,885,#0885 #885 #00885 885 #000885,3710 ROUTE 9 #E120,NJ,7728
New York & Company,SALISBURY,886,#0886 #886 #00886 886 #000886,2300 N. SALISBURY BLD SPD117,MD,21801
New York & Company,PLAINVIEW,894,#0894 #894 #00894 894 #000894,369 SOUTH OYSTER BAY ROAD,NY,11803
New York & Company,MIAMI,895,#0895 #895 #00895 895 #000895,8500 MILLS DRIVE SP#C-12,FL,33183
New York & Company,LEXINGTON,897,#0897 #897 #00897 897 #000897,3401 NICHOLASVILLE ROAD,KY,40503
New York & Company,ELYRIA,899,#0899 #899 #00899 899 #000899,3207 MIDWAY MALL RD SP#G-12,OH,44035
New York & Company,YORK,901,#0901 #901 #00901 901 #000901,2899 WHITEFORD ROAD  SP160,PA,17402
New York & Company,NORTH ATTLEBORO,902,#0902 #902 #00902 902 #000902,999 SO WASHINGTON ST,MA,2760
New York & Company,BURLINGTON,904,#0904 #904 #00904 904 #000904,3189 WALTHAM BLVD.,NC,27215
New York & Company,INDIANAPOLIS,909,#0909 #909 #00909 909 #000909,49 WEST MARYLAND ST. D15,IN,46204
New York & Company,GRANDVILLE,912,#0912 #912 #00912 912 #000912,4700 WILSON SPACE #2208,MI,49418
New York & Company,FLINT,914,#0914 #914 #00914 914 #000914,3395 SOUTH LINDEN ROAD,MI,48507
New York & Company,LEWISVILLE,916,#0916 #916 #00916 916 #000916,VISTA RIDGE MALL SPACE 1436,TX,75067
New York & Company,HARRISBURG,921,#0921 #921 #00921 921 #000921,2541 BRINDLE RD SP# T,PA,17110
New York & Company,SILVER SPRINGS,922,#0922 #922 #00922 922 #000922,937 ELLSWORTH DRIVE #C2B,MD,20910
New York & Company,OAK BROOK,923,#0923 #923 #00923 923 #000923,100 OAKBROOK CENTER SP#528,IL,60523
New York & Company,KINGSTON,924,#0924 #924 #00924 924 #000924,100 INDEPENDENCE MALL SPB103,MA,2364
New York & Company,MEMPHIS,926,#0926 #926 #00926 926 #000926,4465 POPLAR AVE SP#2315B,TN,38117
New York & Company,RIDGELAND,928,#0928 #928 #00928 928 #000928,1200 E COUNTY LINE RD,MS,39157
New York & Company,COLUMBIA,931,#0931 #931 #00931 931 #000931,2300 BERNADETTE DRIVE SP#336,MO,65203
New York & Company,ORLANDO,932,#0932 #932 #00932 932 #000932,8001 S ORANGE TRAIL SP#1138,FL,32809
New York & Company,MONROE,934,#0934 #934 #00934 934 #000934,4700 MILHAVEN RD    SP1404,LA,71203
New York & Company,BIRMINGHAM,935,#0935 #935 #00935 935 #000935,2000-182 RIVERCHASE GALLERIA,AL,35244
New York & Company,MONTEBELLO,936,#0936 #936 #00936 936 #000936,2147 MONTEBELLO TOWN CTR,CA,90640
New York & Company,BANGOR,940,#0940 #940 #00940 940 #000940,663 STILLWATER AVE SP#1042,ME,4401
New York & Company,PITTSBURGH,941,#0941 #941 #00941 941 #000941,1000 ROSS PAARK DR SP#L11,PA,15237
New York & Company,NASHUA,943,#0943 #943 #00943 943 #000943,310 DANIEL WEBSTER HWY SP212,NH,3060
New York & Company,MONTGOMERY,946,#0946 #946 #00946 946 #000946,7274 EASTCHASE PKY SP#C185,AL,36117
New York & Company,BLASDELL,947,#0947 #947 #00947 947 #000947,BOX 730 OR 732,NY,14219
New York & Company,RICHMOND,950,#0950 #950 #00950 950 #000950,11800 W BROAD ST #1028,VA,23233
New York & Company,BUFFALO,951,#0951 #951 #00951 951 #000951,1 WALDEN GALLERIA SP#A103,NY,14225
New York & Company,CHESAPEAKE,952,#0952 #952 #00952 952 #000952,4200 PORTSMOUTH BLVD,VA,23321
New York & Company,HENDERSONVILLE,954,#0954 #954 #00954 954 #000954,300 INDIAN LAKE BLVD,TN,37075
New York & Company,KENNESAW,955,#0955 #955 #00955 955 #000955,400 ERNEST W BARRETT  SU#329,GA,30144
New York & Company,MANCHESTER,961,#0961 #961 #00961 961 #000961,194 BUCKLAND HILLS DRIVE,CT,6040
New York & Company,BROOMFIELD,963,#0963 #963 #00963 963 #000963,1 W FLATIRON CROSSING SP1196,CO,80021
New York & Company,LINCOLNWOOD,964,#0964 #964 #00964 964 #000964,3401 TOUHY SP# D-11,IL,60712
New York & Company,BURLINGTON,965,#0965 #965 #00965 965 #000965,201 CASCADE MALL # E-09,WA,98233
New York & Company,COLUMBIA,966,#0966 #966 #00966 966 #000966,100 COLUMBIANA CIR SP#1222,SC,29212
New York & Company,GREENDALE,967,#0967 #967 #00967 967 #000967,5300 SOUTH 76TH STREET 1720A,WI,53129
New York & Company,MOORESTOWN,968,#0968 #968 #00968 968 #000968,400 RTE 38 & LENOLA RD,NJ,8057
New York & Company,AUBURN HILLS,3529,#03529 #3529 #003529 3529 #0003529,4032 BALDWIN RD SP#303,MI,48326
New York & Company,HAGERSTOWN,3530,#03530 #3530 #003530 3530 #0003530,495 PREMIUM OUTLET BLVD #505,MD,21740
New York & Company,ORLANDO,3531,#03531 #3531 #003531 3531 #0003531,4967 INTERNATIONAL DR SP3A17,FL,32819
New York & Company,PLEASANT PRAIRIE,3532,#03532 #3532 #003532 3532 #0003532,11211 120TH AVE I-94 SPA009B,WI,53158
New York & Company,SAN MARCOS,3533,#03533 #3533 #003533 3533 #0003533,3939 IH-35 SOUTH SP#302,TX,78666
New York & Company,ST AUGUSTINE,3534,#03534 #3534 #003534 3534 #0003534,500 PRIME OUTLET BLVD SP#230,FL,32084
New York & Company,BIRCH RUN,3536,#03536 #3536 #003536 3536 #0003536,12240 SOUTH BEYER RD SP#V027,MI,48415
New York & Company,GAFFNEY,3537,#03537 #3537 #003537 3537 #0003537,620 FACTORY SHOPS BLVD,SC,29341
New York & Company,ELLENTON,3538,#03538 #3538 #003538 3538 #0003538,5431 FACTORY SHOP BLVD SP136,FL,34222
New York & Company,GROVE CITY,3539,#03539 #3539 #003539 3539 #0003539,1911 LEESBURG RD SP#1015,PA,16127
New York & Company,ALBERTVILLE,3540,#03540 #3540 #003540 3540 #0003540,6415 LABEAUX AVE SP#F030,MN,55301
New York & Company,SMITHFIELD,3541,#03541 #3541 #003541 3541 #0003541,1025 INDUSTRIAL PARK  SP#700,NC,27577
New York & Company,AURORA,3542,#03542 #3542 #003542 3542 #0003542,1650 PREMIUM OUTLETS  SP520,IL,60502
New York & Company,MONROE,3543,#03543 #3543 #003543 3543 #0003543,122 PREMIUM OUTLETS  DRIVE,OH,45050
New York & Company,CYPRESS,3544,#03544 #3544 #003544 3544 #0003544,29300 HEMPSTEAD RD SP#1212,TX,77433
New York & Company,LIMERICK,3545,#03545 #3545 #003545 3545 #0003545,18 WEST LIGHTCAP RD SP#1149,PA,19464
New York & Company,ROUNDROCK,3546,#03546 #3546 #003546 3546 #0003546,4401 IH-35 NORTH SP#149,TX,78664
New York & Company,MYRTLE BEACH,3547,#03547 #3547 #003547 3547 #0003547,10835 KINGS RD SP# 320,SC,29572
New York & Company,DEER PARK,3548,#03548 #3548 #003548 3548 #0003548,152 THE ARCHES CIRCLE SP#549,NY,11729
New York & Company,MERCEDES,3549,#03549 #3549 #003549 3549 #0003549,5001 E EXPRESSWAY 83 SP#643,TX,78570
New York & Company,TANNERSVILLE,3550,#03550 #3550 #003550 3550 #0003550,1000 ROUTE 611 SP#A-21,PA,18372
New York & Company,GRAPEVINE,3552,#03552 #3552 #003552 3552 #0003552,3000 GRAPEVINE MILL PKWY 210,TX,76051
New York & Company,PARAMUS,3553,#03553 #3553 #003553 3553 #0003553,2701 BERGAN MALL SP#5,NJ,7652
New York & Company,MIAMI,3554,#03554 #3554 #003554 3554 #0003554,11404 NW 12 STREET,FL,33172
New York & Company,KATY,3555,#03555 #3555 #003555 3555 #0003555,5000 KATY MILLS DR SP#226,TX,77494
New York & Company,ELIZABETH,3556,#03556 #3556 #003556 3556 #0003556,651 KAPKOWSKI RD SP#1018,NJ,7201
New York & Company,GILROY,3557,#03557 #3557 #003557 3557 #0003557,681 LEAVESLEY ROAD,CA,95020
New York & Company,MILPITAS,3558,#03558 #3558 #003558 3558 #0003558,406 GREAT MALL DR SP#406,CA,95035
New York & Company,SAN DIEGO,3559,#03559 #3559 #003559 3559 #0003559,4211 CAMINO DE LAPLAZA  #150,CA,92173
New York & Company,TINTON FALLS,3560,#03560 #3560 #003560 3560 #0003560,ONE PREMIUM OUTLET BLVD #837,NJ,7753
New York & Company,JACKSON,3561,#03561 #3561 #003561 3561 #0003561,537 MONMOUTH ROAD,NJ,8527
New York & Company,LAS VEGAS,3562,#03562 #3562 #003562 3562 #0003562,7400 LAS VEGAS BLVD SO. #246,NV,89123
New York & Company,HANOVER,3563,#03563 #3563 #003563 3563 #0003563,7000 ARUNDEL MILLS CIR #472,MD,21076
New York & Company,WOODBRIDGE,3564,#03564 #3564 #003564 3564 #0003564,2700 POTOMAC MILLS SP#857,VA,22192
New York & Company,CHARLOTTE,3565,#03565 #3565 #003565 3565 #0003565,8111 CONCORD MILLS SP#625,NC,28027
New York & Company,GONZALES,3567,#03567 #3567 #003567 3567 #0003567,2400 TANGLER BLVD SP#153,LA,70707
New York & Company,BLUFFTON,3568,#03568 #3568 #003568 3568 #0003568,1414 FORDING ISLAND RD #C102,SC,29910
New York & Company,TEXAS CITY,3569,#03569 #3569 #003569 3569 #0003569,5885 GULF FREEWAY #720,TX,77591
New York & Company,REHOBOTH BEACH,3570,#03570 #3570 #003570 3570 #0003570,36470 SEASIDE OUTLET DR 1560,DE,19971
New York & Company,RIVERHEAD,3571,#03571 #3571 #003571 3571 #0003571,200 TANGER MALL DR SP#1013,NY,11901
New York & Company,WASHINGTON,3572,#03572 #3572 #003572 3572 #0003572,2200 TANGER BLVD SP#728,PA,15301
New York & Company,PHILADELPHIA,3573,#03573 #3573 #003573 3573 #0003573,1455 FRANKLIN MILLS  SP#221,PA,19154
New York & Company,NASHVILLE,3574,#03574 #3574 #003574 3574 #0003574,172 OPRY MILLS DR SP#526A,TN,37214
New York & Company,ALLEN,3575,#03575 #3575 #003575 3575 #0003575,820 WEST STACY RD SP#486,TX,75013
New York & Company,LANCASTER,3576,#03576 #3576 #003576 3576 #0003576,33 SOUTH WILLOWDALE DR #1713,PA,17602
New York & Company,NATIONAL HARBOR,3577,#03577 #3577 #003577 3577 #0003577,6800 OXON HILL RD #150,MD,20745
New York & Company,ATLANTIC CITY,3578,#03578 #3578 #003578 3578 #0003578,105 N. ARKANSAS AVE. #329,NJ,8401
New York & Company,ESTERO,3580,#03580 #3580 #003580 3580 #0003580,10801 CORKSCREW RD #412,FL,33928
New York & Company,FOLEY,3581,#03581 #3581 #003581 3581 #0003581,2601 S. MCKENZIE STREET #186,AL,36535
New York & Company,LOCUST GROVE,3582,#03582 #3582 #003582 3582 #0003582,1000 TANGER BLVD. 215,GA,30248
New York & Company,N. CHARLESTON,3583,#03583 #3583 #003583 3583 #0003583,4840 TANGER OUTLET BLVD #121,SC,33928
