keywords,city,Aggdata Store Number,store_number,address,state,zip_code
Office Max,Mayfield Heights,1,01 1,1545 Golden Gate Plaza,OH,44124
Office Max,Middleburg Heights,2,02 2,6925 Southland Drive,OH,44130
Office Max,North Olmsted,3,03 3,26035 Lorain Road,OH,44070
Office Max,Madison Heights,4,04 4,32251 John R Road,MI,48071
Office Max,Amherst,6,06 6,4224 Maple Road,NY,14226
Office Max,Kentwood,8,08 8,4160 28 Street SE,MI,49512
Office Max,Erie,9,09 9,905 Millcreek Mall,PA,16565
Office Max,Akron,11,011 11,37 N Cleveland-Massillon Road,OH,44333
Office Max,Holland,12,012 12,6520 Centers Drive,OH,43528
Office Max,Sterling Heights,13,013 13,37600 Van Dyke,MI,48312
Office Max,Colonie,14,014 14,1814 Central Avenue,NY,12205
Office Max,Rochester,15,015 15,3333 W Henrietta Road,NY,14623
Office Max,Brookfield,16,016 16,12575 West Capitol Drive,WI,53005
Office Max,Brown Deer,17,017 17,9088 North Green Bay Road,WI,53209
Office Max,Saginaw,18,018 18,2272 Tittabawassee,MI,48604
Office Max,Waterford,19,019 19,373 Summit Drive,MI,48328
Office Max,Lansing,20,020 20,446 East Edgewood Boulevard,MI,48911
Office Max,Flint,21,021 21,G3650 Miller Road,MI,48507
Office Max,Mentor,22,022 22,7850 Mentor Avenue,OH,44060
Office Max,Edina,23,023 23,7535 France Avenue South,MN,55435
Office Max,Roseville,24,024 24,2401 Fairview Avenue North,MN,55113
Office Max,St. Paul,25,025 25,1490 West University Avenue,MN,55104
Office Max,Vernon Hills,26,026 26,"555 East Townline Road, Ste 7",IL,60061
Office Max,Blasdell,27,027 27,4408 Milestrip Road,NY,14219
Office Max,Crestwood,28,028 28,4921 West Cal-Sag Road,IL,60445
Office Max,Ann Arbor,29,029 29,2777 Oak Valley Drive,MI,48103
Office Max,West Des Moines,30,030 30,2900 University Avenue,IA,50266
Office Max,Wichita,31,031 31,8147 East Kellogg,KS,67207
Office Max,Cicero,33,033 33,5671 East Circle Drive,NY,13039
Office Max,Harrisburg,34,034 34,5098 Jonestown Road,PA,17112
Office Max,Toledo,35,035 35,5221 Monroe Street,OH,43623
Office Max,Melrose Park,37,037 37,1060 Winston Plaza,IL,60160
Office Max,Mishawaka,38,038 38,5520 Grape Road,IN,46545
Office Max,Mechanicsburg,39,039 39,"6416 Carlisle Pike, Suite 2700",PA,17050
Office Max,Farmington Hills,40,040 40,31219 W Fourteen Mile Road,MI,48334
Office Max,Burnsville,41,041 41,14121 Aldrich Avenue South,MN,55337
Office Max,Rockford,42,042 42,6455 East State Street,IL,61108
Office Max,Peoria,43,043 43,4100 Willow Knolls Drive,IL,61615
Office Max,Pittsburgh,44,044 44,2201 Park Manor Boulevard,PA,15205
Office Max,Ashwaubenon,45,045 45,2817 South Oneida Street,WI,54304
Office Max,Monroeville,46,046 46,"4080 William Penn Hgwy, Unit 49",PA,15146
Office Max,Springfield,47,047 47,2951 West Iles Avenue,IL,62704
Office Max,Davenport,49,049 49,320 West Kimberly Road,IA,52806
Office Max,Portage,50,050 50,6212 South Westnedge,MI,49002
Office Max,Rochester,51,051 51,600 Elm Ridge Center Drive,NY,14626
Office Max,Niles,52,052 52,"5555 Youngstown Warren Road, Unit 014",OH,44446
Office Max,Southgate,53,053 53,15250 Dix-Toledo Road,MI,48195
Office Max,Joliet,54,054 54,1520 Larkin Avenue,IL,60435
Office Max,Pittsburgh,55,055 55,7900 McKnight Road,PA,15237
Office Max,Deerfield,57,057 57,94 S Waukegan Road,IL,60015
Office Max,Cuyahoga Falls,58,058 58,370 Howe Avenue,OH,44221
Office Max,Bloomingdale,59,059 59,368 West Army Trail Road,IL,60108
Office Max,Canton,60,060 60,4433 Whipple Avenue NW,OH,44718
Office Max,Hampton,62,062 62,2330-B West Mercury Boulevard,VA,23666
Office Max,Dewitt,63,063 63,3471 Erie Boulevard East,NY,13214
Office Max,Virginia Beach,66,066 66,"2701 North Mall Drive, Ste 103",VA,23452
Office Max,Norfolk,67,067 67,5900 East Virginia Beach Boulevard,VA,23502
Office Max,Duluth,69,069 69,"2300 Pleasant Hill Road, Ste B-4",GA,30096
Office Max,Atlanta,71,071 71,2963 Cobb Parkway NW,GA,30339
Office Max,Walker,73,073 73,675 Center Drive,MI,49544
Office Max,Riverdale,76,076 76,1080 West Riverdale Road,UT,84405
Office Max,Kalispell,78,078 78,1031 East Idaho,MT,59901
Office Max,Clinton Township,79,079 79,33840 Gratiot Avenue,MI,48035
Office Max,Williamsville,81,081 81,4101 Transit Road,NY,14221
Office Max,Des Moines,83,083 83,5020 South East 14th Street,IA,50320
Office Max,Woodridge,85,085 85,7250 Woodward Avenue,IL,60517
Office Max,Boardman,86,086 86,427 Boardman-Poland Road,OH,44512
Office Max,Deerfield Beach,87,087 87,4032 West Hillsboro Boulevard,FL,33442
Office Max,Hodgkins,88,088 88,9290 Joliet Road,IL,60525
Office Max,Salt Lake City,101,0101 101,1180 E Brickyard Road,UT,84106
Office Max,Wyoming,102,0102 102,962 28th Street SW,MI,49509
Office Max,Bloomington,104,0104 104,1500 East Empire Street,IL,61701
Office Max,Fargo,106,0106 106,4360 13th Avenue SW,ND,58103
Office Max,Victor,107,0107 107,80 Cobblestone Court,NY,14564
Office Max,Westland,108,0108 108,35150 Central City Parkway,MI,48185
Office Max,Rochester Hills,109,0109 109,145 East Auburn Road,MI,48307
Office Max,Madison,110,0110 110,7341 West Towne Way,WI,53719
Office Max,Elmont,111,0111 111,1730 Hempstead Turnpike,NY,11003
Office Max,Toledo,112,0112 112,845 West Alexis,OH,43612
Office Max,Bridgeville,113,0113 113,"Washington Pike, State Rt 50",PA,15017
Office Max,Pleasant Hills,115,0115 115,665 Clairton Boulevard (Route 51),PA,15236
Office Max,Utica,116,0116 116,45320 Utica Park Boulevard,MI,48315
Office Max,Racine,118,0118 118,2301 Green Bay Road,WI,53406
Office Max,Sioux Falls,120,0120 120,1505 West 41st Street,SD,57105
Office Max,North Dartmouth,124,0124 124,388 State Road,MA,2747
Office Max,Midvale,126,0126 126,1016 East Fort Union Boulevard,UT,84047
Office Max,Bohemia,129,0129 129,"5151 Sunrise Highway, Ste 1",NY,11716
Office Max,Levittown,130,0130 130,3350 Hempstead Plaza,NY,11756
Office Max,Lawrence,138,0138 138,294 Burnside Avenue,NY,11559
Office Max,Brookfield,140,0140 140,14 Candlewood Lake Road,CT,6804
Office Max,Palm Beach Gardens,143,0143 143,4242 Northlake Boulevard,FL,33410
Office Max,Tucson,144,0144 144,"555 East Wetmore Road, #105",AZ,85705
Office Max,Kennesaw,148,0148 148,"860 Cobb Place Boulevard, Ste 200",GA,30144
Office Max,Mountain View,151,0151 151,1030 North Rengstorff Avenue,CA,94043
Office Max,Phoenix,154,0154 154,12841 North Tatum,AZ,85032
Office Max,Sarasota,155,0155 155,3680 S Tuttle Avenue,FL,34239
Office Max,Naples,159,0159 159,5066 Airport Road,FL,34105
Office Max,Fairfield,162,0162 162,696 Post Road,CT,6824
Office Max,Boca Raton,165,0165 165,20455 State Route 7 (441),FL,33498
Office Max,Appleton,166,0166 166,4693 West College Avenue,WI,54915
Office Max,Harwood Heights,173,0173 173,4747 North Harlem Avenue,IL,60706
Office Max,Miami,174,0174 174,11815 South West 26th Street,FL,33175
Office Max,Dorchester,180,0180 180,8-C Allstate Road,MA,2125
Office Max,Rocky River,181,0181 181,21950 Center Ridge Road,OH,44116
Office Max,St. Cloud,182,0182 182,2530 Division Street West,MN,56301
Office Max,Exton,184,0184 184,101 Iron Lake Boulevard,PA,19341
Office Max,Coral Springs,185,0185 185,910 North University Drive,FL,33071
Office Max,Aurora,190,0190 190,4338 Fox Valley Center,IL,60504
Office Max,Hallandale,191,0191 191,1771 East Hallandale Beach Boulevard,FL,33009
Office Max,Hialeah,192,0192 192,5550 North West 167th Street,FL,33014
Office Max,Lansdale,193,0193 193,"751 Horsham Road, Unit C",PA,19446
Office Max,Hollywood,196,0196 196,3900 Oakwood Boulevard,FL,33020
Office Max,Federal Way,198,0198 198,31811 Pacific Hwy South,WA,98003
Office Max,Denver,199,0199 199,343 South Broadway,CO,80209
Office Max,Downers Grove,201,0201 201,1516-A Butterfield Road,IL,60515
Office Max,Naperville,204,0204 204,790 Royal Saint George Drive,IL,60563
Office Max,Burbank,205,0205 205,7760 South Cicero Avenue,IL,60459
Office Max,Skokie,206,0206 206,5507 West Touhy Avenue,IL,60077
Office Max,Gainesville,207,0207 207,826 Dawsonville Highway,GA,30501
Office Max,Broadview,208,0208 208,1000 Broadview Village Square,IL,60153
Office Max,Tacoma,209,0209 209,4044 Tacoma Mall Boulevard,WA,98409
Office Max,Town & Country,210,0210 210,13887 Manchester Road,MO,63011
Office Max,Cedar Rapids,211,0211 211,327 Collins Road NE,IA,52402
Office Max,Dearborn,212,0212 212,5801 Mercury Drive,MI,48126
Office Max,Anchorage,213,0213 213,8701 Old Seward Highway,AK,99515
Office Max,Mount Prospect,214,0214 214,201 West Rand Road,IL,60056
Office Max,Oakbrook,216,0216 216,"1500 16th Street, Ste C",IL,60523
Office Max,Albuquerque,217,0217 217,40 Hotel Circle NE,NM,87123
Office Max,Houston,219,0219 219,7640 FM 1960 West,TX,77070
Office Max,Maplewood,220,0220 220,1885 County Rd. D East,MN,55109
Office Max,Dallas,221,0221 221,2415 North Haskell,TX,75204
Office Max,Houston,223,0223 223,270 Meyerland Plaza,TX,77096
Office Max,North Miami,224,0224 224,12255 Biscayne Boulevard,FL,33181
Office Max,Sacramento,227,0227 227,3120 Arden Way,CA,95825
Office Max,Pleasanton,228,0228 228,5596 Springdale Avenue,CA,94588
Office Max,Roseville,230,0230 230,312 North Sunrise,CA,95661
Office Max,Glendale,231,0231 231,7974 West Bell Road,AZ,85308
Office Max,Johnson City,233,0233 233,3110 Browns Mill Road,TN,37604
Office Max,Reno,234,0234 234,6013 South Virginia Street,NV,89502
Office Max,Fairless Hills,236,0236 236,"130 Commerce Boulevard, Unit #3",PA,19030
Office Max,West Allis,237,0237 237,10707 West Cleveland Avenue,WI,53227
Office Max,Cincinnati,239,0239 239,4540 Eastgate Boulevard,OH,45245
Office Max,Union City,240,0240 240,30701 Dyer Street,CA,94587
Office Max,Vallejo,241,0241 241,117 Plaza Drive,CA,94591
Office Max,Plano,242,0242 242,"1201 North Central Expressway, Ste 19",TX,75075
Office Max,Matteson,245,0245 245,170 Town Center Road,IL,60443
Office Max,Blaine,248,0248 248,"648 County Rd 10, NE",MN,55434-2329
Office Max,Gurnee,249,0249 249,6523 Grand Avenue,IL,60031
Office Max,Bayamon,250,0250 250,"1500 Avenue Comerio, Suite #50",PR,961
Office Max,Carolina,251,0251 251,15600,PR,00987-2239
Office Max,Caguas,252,0252 252,Highway #30,PR,725
Office Max,Humble,253,0253 253,20412 US Highway 59 North,TX,77338
Office Max,Vancouver,255,0255 255,7601 B North East Vancouver Plaza,WA,98662
Office Max,Scottsdale,258,0258 258,10100 North 90th Street,AZ,85258
Office Max,Mesa,259,0259 259,6631 East Southern Avenue,AZ,85206
Office Max,St. Louis,260,0260 260,4106 Lemay Ferry Road,MO,63129
Office Max,Rochester,262,0262 262,"1201 South Broadway, Suite 4",MN,55904
Office Max,McAllen,264,0264 264,400 East Expressway 83,TX,78503
Office Max,Laredo,265,0265 265,5408 San Bernardo,TX,78041
Office Max,Okemos,266,0266 266,2020 East Grand River Avenue,MI,48864
Office Max,Moline,267,0267 267,4215 27th Street,IL,61265
Office Max,Lubbock,269,0269 269,6805 Slide Road,TX,79424
Office Max,Mayaguez,271,0271 271,975 Hostos Avenue ST 2150,PR,680
Office Max,East Walpole,272,0272 272,70 Providence Highway,MA,2032
Office Max,Colorado Springs,276,0276 276,7645 North Academy Boulevard,CO,80920
Office Max,Waipahu,277,0277 277,94-861 Lumiaina Street,HI,96797
Office Max,Westlake,278,0278 278,30215 Detroit Road,OH,44145
Office Max,Tigard,287,0287 287,7255 South West Dartmouth Street,OR,97223
Office Max,Honolulu,288,0288 288,770 Ala Moana Boulevard,HI,96814
Office Max,Chesapeake,289,0289 289,4210 Portsmouth Boulevard,VA,23321
Office Max,Cedar Park,291,0291 291,"11066 Pecan Park Boulevard, Bldg. #7",TX,78613
Office Max,San Jose,293,0293 293,1130 Blossom Hill Road,CA,95118
Office Max,Duluth,294,0294 294,1023 West Central Entrance,MN,55811
Office Max,Mansfield,296,0296 296,876 North Lexington - Springmill Road,OH,44906
Office Max,Evanston,297,0297 297,2255 Howard Street,IL,60202
Office Max,Gastonia,298,0298 298,2916 E Franklin Boulevard,NC,28056
Office Max,St. Augustine,300,0300 300,1935 US 1 South,FL,32086-5763
Office Max,Coon Rapids,305,0305 305,3400 124th Avenue,MN,55433-1022
Office Max,Richmond,310,0310 310,6301 West Broad Street,VA,23230
Office Max,Greenville,317,0317 317,"1125 Woodruff Rd, Suite 1000",SC,29607
Office Max,Cranston,318,0318 318,200 Hillside Road,RI,2920
Office Max,Elizabeth City,319,0319 319,834 Halstead Boulevard,NC,27909
Office Max,Cheektowaga,320,0320 320,3735 Union Road,NY,14225
Office Max,Willow Grove,325,0325 325,300 North York Rd,PA,19090
Office Max,Roanoke,327,0327 327,1372 Towne SquareBoulevard,VA,24012
Office Max,Niagara Falls,328,0328 328,8329 Niagara Falls Boulevard,NY,14304
Office Max,Feasterville,331,0331 331,1045 Bustleton Pike,PA,19053
Office Max,Arvada,332,0332 332,5275 Wadsworth By-Pass,CO,80002-3729
Office Max,Evans,333,0333 333,4221 Washington Road,GA,30809
Office Max,Wilkes-Barre,334,0334 334,107 Wyoming Valley Mall,PA,18702
Office Max,Willoughby Hills,338,0338 338,27845 Chardon Road,OH,44092
Office Max,Northwood,339,0339 339,2802 Curtice Road,OH,43619
Office Max,Fayetteville,340,0340 340,1800 Skibo Road,NC,28303
Office Max,Virginia Beach,341,0341 341,749 Hilltop North Shopping Center,VA,23451
Office Max,North Charleston,342,0342 342,7400 Rivers Avenue,SC,29406
Office Max,Memphis,346,0346 346,1460 Union Avenue,TN,38104
Office Max,Birmingham,348,0348 348,259 Lake Shore Parkway,AL,35209
Office Max,Bakersfield,353,0353 353,2635 Mount Vernon Avenue,CA,93306
Office Max,Lima,354,0354 354,2184 Elida Road,OH,45805
Office Max,Clifton Park,355,0355 355,54 The Crossing Boulevard,NY,12065
Office Max,Jackson,356,0356 356,1515 Boardman Road,MI,49202
Office Max,Knoxville,358,0358 358,2944 East Town Mall Circle,TN,37924
Office Max,Philadelphia,359,0359 359,7231 Roosevelt Boulevard,PA,19149
Office Max,Lewisville,360,0360 360,2325 South Stemmons Freeway,TX,75067
Office Max,Rotterdam,361,0361 361,70 Campbell Road,NY,12306
Office Max,Tupelo,363,0363 363,4398 Mall Drive,MS,38801
Office Max,Terre Haute,365,0365 365,3360 South US Highway 41,IN,47802
Office Max,Evergreen Park,366,0366 366,2660 West 95th Street,IL,60805
Office Max,Ashland,368,0368 368,475 Armco Road,KY,41101
Office Max,Cincinnati,369,0369 369,9151 Fields Ertel Road,OH,45249
Office Max,Henderson,372,0372 372,549 North Stephanie Street,NV,89014
Office Max,Amarillo,373,0373 373,2912 Soncy Road,TX,79121
Office Max,North Canton,374,0374 374,"6619 Strip Avenue, NW",OH,44720
Office Max,Longmont,375,0375 375,1120 Ken Pratt Boulevard,CO,80501
Office Max,Durham,376,0376 376,5458 New Hope Commons Drive,NC,27707
Office Max,Austin,377,0377 377,907 West Fifth Street,TX,78703
Office Max,Fairview Heights,379,0379 379,6585 N. Illinois St.,IL,62208
Office Max,Brooklyn,380,0380 380,"625 Atlantic Avenue, Suite 103",NY,11217
Office Max,Massillon,381,0381 381,4333 Lincoln Way,OH,44646
Office Max,Farmington Hills,382,0382 382,30180 Grand River,MI,48336
Office Max,Waterbury,384,0384 384,255 Union Street,CT,6706
Office Max,San Antonio,385,0385 385,12635 IH10W #525,TX,78230
Office Max,Salinas,386,0386 386,1241 North Davis Road,CA,93907
Office Max,Jackson,387,0387 387,157 Stonebrook Place,TN,38305
Office Max,St. Charles,388,0388 388,2845 Veterans Memorial Parkway,MO,63303
Office Max,Greensburg,389,0389 389,941 East Pittsburgh Street,PA,15601
Office Max,Layton,390,0390 390,1160 West Hill Field Road,UT,84041
Office Max,Kirkland,392,0392 392,"12006 120th Place, NE",WA,98034
Office Max,Yakima,393,0393 393,128 North Fair Avenue,WA,98901
Office Max,Emeryville,394,0394 394,3839 Emery Street,CA,94608
Office Max,Miami,395,0395 395,8515 North West 13th Terrace,FL,33126
Office Max,Windcrest,405,0405 405,4925 Windsor Hill Drive,TX,78239
Office Max,St. Louis,411,0411 411,"9901 Watson Road, Ste 111",MO,63126
Office Max,Olivette,413,0413 413,1010 Collingwood,MO,63132
Office Max,Irving,414,0414 414,8150 Walton Boulevard,TX,75063
Office Max,North Arlington,415,0415 415,"1303 North Collins, Ste. 501",TX,76011
Office Max,Denver,416,0416 416,2730 South Colorado Boulevard,CO,80222-6602
Office Max,Phoenix,418,0418 418,"9201 North 29th Avenue, Ste 15",AZ,85051
Office Max,Tempe,419,0419 419,917 East Broadway,AZ,85282
Office Max,Phoenix,421,0421 421,4519 East Thomas Road,AZ,85018
Office Max,Albuquerque,422,0422 422,"3301 Menaul Boulevard NE, Suite A",NM,87107
Office Max,Mesquite,423,0423 423,"1515 Town East Boulevard, Suite 112",TX,75150
Office Max,Tucson,424,0424 424,3838 North Oracle,AZ,85705
Office Max,Salt Lake City,425,0425 425,410 South 900 East,UT,84102
Office Max,Las Vegas,426,0426 426,2837 South Maryland Pkwy,NV,89109
Office Max,Scottsdale,427,0427 427,3340 North Hayden Road,AZ,85251
Office Max,Kansas City,429,0429 429,3732 Main Street,MO,64111
Office Max,Richardson,431,0431 431,"110 West Campbell Road, Ste 200",TX,75080
Office Max,South Arlington,437,0437 437,4619 South Cooper,TX,76017
Office Max,Phoenix,440,0440 440,928 West Camelback Road,AZ,85013
Office Max,Houston,441,0441 441,9429 Katy Freeway,TX,77024
Office Max,Houston,442,0442 442,1576 West Gray,TX,77019
Office Max,Tucson,443,0443 443,5550 East Broadway,AZ,85711
Office Max,Portland,445,0445 445,10319 South East 82nd Street,OR,97266
Office Max,Salem,446,0446 446,520 Lancaster Northeast,OR,97301
Office Max,Aurora,448,0448 448,14030 East Mississippi Avenue,CO,80012
Office Max,Portland,449,0449 449,10546 South East Washington,OR,97216
Office Max,Las Vegas,451,0451 451,2640 South Decatur,NV,89102
Office Max,Fresno,453,0453 453,2044 West Shaw,CA,93711
Office Max,Las Vegas,456,0456 456,4995 South Eastern Avenue,NV,89119
Office Max,Stockton,457,0457 457,4733 Quail Lakes Drive,CA,95207
Office Max,Bakersfield,458,0458 458,3761 Ming Avenue,CA,93309
Office Max,Topeka,459,0459 459,2109 South West Fairlawn Plaza,KS,66614
Office Max,Kansas City,460,0460 460,10111 State Line Road,MO,64114
Office Max,Inver Grove Heights,462,0462 462,1450 Mendota Road,MN,55077
Office Max,Minneapolis,466,0466 466,3001 Nicollet Avenue,MN,55408
Office Max,Seattle,470,0470 470,2401 Utah Avenue South,WA,98134
Office Max,Littleton,471,0471 471,5136 South Wadsworth Boulevard,CO,80123
Office Max,Kansas City,472,0472 472,317 North East Vivion Road,MO,64118
Office Max,Modesto,473,0473 473,"3900 Sisk Road, Suite B",CA,95356
Office Max,Virginia Beach,474,0474 474,4725 Virginia BeachBoulevard,VA,23462
Office Max,Westerville,475,0475 475,87 Huber Village Boulevard,OH,43081
Office Max,Redwood City,476,0476 476,1501 Broadway,CA,94063
Office Max,Austin,478,0478 478,"10001 Research Boulevard, Ste 300",TX,78759
Office Max,Eugene,482,0482 482,85 Division Boulevard,OR,97404
Office Max,Santa Clara,483,0483 483,2790 El Camino Real,CA,95051
Office Max,Orlando,484,0484 484,3001 East Colonial Drive,FL,32803
Office Max,Lincoln,487,0487 487,2301 O Street,NE,68510
Office Max,Reading,489,0489 489,3215 North 5th Street Highway,PA,19605
Office Max,Campbell,495,0495 495,1760 South Bascom,CA,95008
Office Max,Dayton,497,0497 497,2090 Miamisburg Centerville Rd.,OH,45459
Office Max,Phoenix,498,0498 498,16809 North 9th Street,AZ,85022
Office Max,Boulder,499,0499 499,1880 30th Street,CO,80301
Office Max,Boise,500,0500 500,8551 West Franklin Road,ID,83709
Office Max,Germantown,501,0501 501,7720 Poplar Avenue,TN,38138
Office Max,Indianapolis,504,0504 504,3810 East 82nd Street,IN,46240
Office Max,Rapid City,511,0511 511,1825 Haines Avenue,SD,57701
Office Max,Valdosta,513,0513 513,1530 Baytree Road,GA,31602
Office Max,Winston Salem,514,0514 514,140 Stratford Commons Court,NC,27103
Office Max,Billings,515,0515 515,2649 Kings Avenue West,MT,59102
Office Max,Brooklyn Park,516,0516 516,8085 Brooklyn Boulevard,MN,55445
Office Max,Anchorage,518,0518 518,"3101 Penland Parkway, Suite M-89",AK,99508-1955
Office Max,Onalaska,520,0520 520,9412 Highway 16,WI,54650
Office Max,Omaha,521,0521 521,2415 South 133rd Plaza,NE,68144
Office Max,Lexington,522,0522 522,125 East Reynolds Road #110,KY,40517
Office Max,Altamonte Springs,523,0523 523,875 West State Road 436,FL,32714
Office Max,Raleigh,524,0524 524,6234-108 Glenwood Avenue,NC,27612
Office Max,Fresno,525,0525 525,7530 North Blackstone Avenue,CA,93720
Office Max,Santa Barbara,526,0526 526,219 East Guiterrez,CA,93101
Office Max,Woodbury,527,0527 527,8222 Tamarack Village,MN,55125
Office Max,Overland Park,529,0529 529,12070 Metcalf Avenue,KS,66213
Office Max,Petoskey,530,0530 530,1820 Anderson Road,MI,49770-9256
Office Max,Oviedo,531,0531 531,1115 Vidina Place,FL,32765
Office Max,Kennewick,532,0532 532,908 North Colorado,WA,99336
Office Max,Novi,534,0534 534,21071 Haggerty Road,MI,48375
Office Max,Fayetteville,535,0535 535,4116 North College Avenue,AR,72703
Office Max,Gainesville,537,0537 537,3642 South West Archer,FL,32608
Office Max,Las Vegas,538,0538 538,2201 North Rainbow,NV,89108
Office Max,Austin,539,0539 539,"5400 Brodie Lane, #350",TX,78745
Office Max,Chesapeake,547,0547 547,1332 Greenbrier Parkway,VA,23320
Office Max,Eau Claire,549,0549 549,4040 Commonwealth Avenue,WI,54701
Office Max,Cranberry Township,550,0550 550,"1000 Cranberry Square Drive, Suite B",PA,16066
Office Max,Athens,551,0551 551,191 Alps Road,GA,30606
Office Max,Joplin,554,0554 554,440 Rangeline Road,MO,64801
Office Max,Jensen Beach,555,0555 555,3051 North West Federal Highway,FL,34957
Office Max,Marlborough,557,0557 557,199 Boston Post Road West,MA,1752
Office Max,Ballard,560,0560 560,1135 North West Leary Way,WA,98107
Office Max,Newport News,562,0562 562,12144 Jefferson Avenue,VA,23602
Office Max,Wichita,564,0564 564,6930 West Kellogg Drive,KS,67209
Office Max,Lakewood,566,0566 566,"318 East Fairmount Avenue, Room 300",NY,14750
Office Max,Kenosha,568,0568 568,6820 Green Bay Road,WI,53142
Office Max,Milwaukee,569,0569 569,3555 South 27th Street,WI,53221
Office Max,Spartanburg,570,0570 570,"150 East Blackstock Road, Suite B",SC,29301
Office Max,Stafford,571,0571 571,12710 Fountain Lake Circle,TX,77477
Office Max,Ponce,574,0574 574,2438 Ponce Bypass,PR,716
Office Max,Murfreesboro,575,0575 575,1960 Old Fort Parkway,TN,37129
Office Max,Asheville,577,0577 577,107-B River Hills Road,NC,28805
Office Max,Burlington,578,0578 578,125 Cascade Mall Drive,WA,98233
Office Max,Shoreline,580,0580 580,1345 North 205 Street,WA,98133
Office Max,Wausau,581,0581 581,3908 Rib Mountain Drive,WI,54401
Office Max,San Francisco,582,0582 582,1750 Harrison Street,CA,94103
Office Max,San Jose,583,0583 583,300 El Paseo de Saratoga,CA,95130
Office Max,Crystal Lake,584,0584 584,4429 US Route 14,IL,60014
Office Max,Birmingham,588,0588 588,"5275 Highway 280 South, Suite 101",AL,35242
Office Max,Boise,589,0589 589,2509 South Broadway,ID,83706
Office Max,Highland,590,0590 590,10225 Indianapolis Boulevard,IN,46322
Office Max,Olathe,591,0591 591,15315 West 119th Street,KS,66062
Office Max,Waco,592,0592 592,4328 West Waco Drive,TX,76710
Office Max,Memphis,594,0594 594,8055 Giacosa Place,TN,38133
Office Max,Las Vegas,595,0595 595,41 North Nellis Boulevard,NV,89110
Office Max,Kissimmee,596,0596 596,3107 West Vine Street,FL,34741
Office Max,Glen Allen,597,0597 597,10941 West Broad Street,VA,23060
Office Max,Midland,598,0598 598,1806 Airport Road,MI,48642
Office Max,Everett,600,0600 600,11 Mystic View Road,MA,2149
Office Max,Lansing,602,0602 602,5503 West Saginaw Highway,MI,48917
Office Max,Fairfield,603,0603 603,"1320 Gateway Plaza, Suite M-3",CA,94533
Office Max,Eagan,604,0604 604,1271 Promenade Place,MN,55121
Office Max,Miami,607,0607 607,8740 South West 40th Street,FL,33165
Office Max,Los Angeles,608,0608 608,8985 Venice Boulevard,CA,90034
Office Max,Lakewood,609,0609 609,4949 Lakewood Boulevard,CA,90712
Office Max,Irvine,610,0610 610,13728 Jamboree Road,CA,92602
Office Max,Riverside,613,0613 613,3350 Vine Street,CA,92507
Office Max,Rancho Cucamonga,614,0614 614,11070 Foothill Boulevard,CA,91730
Office Max,Santa Clarita,615,0615 615,26579 Bouquet Canyon Road,CA,91350
Office Max,Chillicothe,617,0617 617,"869 North Bridge Street, Suite #20",OH,45601
Office Max,Sheboygan,619,0619 619,3424 Kohler Memorial Drive,WI,53081
Office Max,Norman,620,0620 620,620 Ed Noble Parkway,OK,73072
Office Max,Hutchinson,621,0621 621,1403 East 11th Street,KS,67501
Office Max,Bend,623,0623 623,2550 North East Highway 20,OR,97701
Office Max,Torrance,625,0625 625,3665 Pacific Coast Highway,CA,90505
Office Max,Stow,626,0626 626,4220 Kent Road,OH,44224
Office Max,Fort Collins,629,0629 629,"2211 South College Avenue, Unit #500",CO,80525
Office Max,Kahului,630,0630 630,270 Dairy Road,HI,96732
Office Max,Ann Arbor,631,0631 631,3765 Washtenaw,MI,48104
Office Max,Salina,632,0632 632,2620 Planet Avenue,KS,67401
Office Max,Granada Hills,634,0634 634,18050 Chatsworth,CA,91344
Office Max,Myrtle Beach,636,0636 636,1105 Seabord Street,SC,29577
Office Max,Flagstaff,637,0637 637,4601 E Marketplace,AZ,86004
Office Max,Albuquerque,638,0638 638,3731-A Ellison Drive NW,NM,87114
Office Max,Miami,639,0639 639,13575 South Dixie Highway,FL,33156
Office Max,Golden,643,0643 643,14375 West Colfax Avenue,CO,80401
Office Max,American Fork,644,0644 644,641 South 500 East,UT,84003
Office Max,Des Moines,645,0645 645,2700 Ingersoll Avenue,IA,50312
Office Max,Mission Viejo,646,0646 646,26940 Crown Valley Parkway,CA,92691
Office Max,Baldwin Park,648,0648 648,3060 Baldwin Park Boulevard B100,CA,91706
Office Max,Sacramento,649,0649 649,2800 Power Inn Road,CA,95826
Office Max,Richmond,650,0650 650,"3801 National Road East, Suite 501",IN,47374
Office Max,Columbus,651,0651 651,3826 Morse Road,OH,43219
Office Max,Dublin,652,0652 652,5780 Britton Parkway,OH,43017
Office Max,Prescott,653,0653 653,1931 East Highway 69,AZ,86301
Office Max,Austell,655,0655 655,"1757 East West Connector, Suite 100",GA,30106-1245
Office Max,St. Louis Park,657,0657 657,5600 Cedar Lake Drive,MN,55416
Office Max,Twin Falls,661,0661 661,1519 Blue Lakes Boulevard North,ID,83301
Office Max,Pocatello,662,0662 662,1134 Yellowstone Avenue,ID,83201
Office Max,Brentwood,663,0663 663,"210 Franklin Road, Ste 200",TN,37027
Office Max,Idaho Falls,666,0666 666,1425 Northgate Mile,ID,83401
Office Max,Casper,667,0667 667,3540 East Second Street,WY,82609
Office Max,St. Joseph,668,0668 668,1417C North Belt Highway,MO,64506
Office Max,San Angelo,669,0669 669,4225 Sunset Drive,TX,76904
Office Max,Steubenville,673,0673 673,308 S Hollywood Boulevard,OH,43952
Office Max,Placerville,676,0676 676,3041 Forni Road,CA,95667
Office Max,Omaha,677,0677 677,6940 Dodge Street,NE,68132
Office Max,Panama City,678,0678 678,731 East 23rd Street,FL,32405
Office Max,Marquette,681,0681 681,1400 West Washington,MI,49855
Office Max,Madison,682,0682 682,2420 East Springs Drive,WI,53704
Office Max,Pueblo,683,0683 683,4250 North Freeway,CO,81008
Office Max,Cheyenne,684,0684 684,4621 Grandview Avenue,WY,82009
Office Max,Englewood,686,0686 686,9575 East County Line Road,CO,80112
Office Max,Provo,687,0687 687,898 South University Avenue,UT,84601
Office Max,Marietta,690,0690 690,1287 Johnson Ferry Road,GA,30068
Office Max,DeKalb,691,0691 691,"2350 Sycamore Road, Suite E",IL,60115
Office Max,Redding,692,0692 692,1270 Churn Creek Road,CA,96003
Office Max,Downey,696,0696 696,7075 Firestone Avenue,CA,90241
Office Max,Coral Gables,699,0699 699,1906 Ponce de Leon Boulevard,FL,33134
Office Max,Green Bay,721,0721 721,"2350 East Mason Street, Suite 1",WI,54302
Office Max,Minneapolis,723,0723 723,1610 New Brighton Boulevard,MN,55413
Office Max,Batavia,724,0724 724,321 North Randall Road,IL,60510
Office Max,Louisville,725,0725 725,3501 Springhurst Boulevard,KY,40241
Office Max,Kansas City,727,0727 727,8341 North West Roanridge,MO,64151
Office Max,Walnut Creek,728,0728 728,2520 North Main Street,CA,94596
Office Max,Auburn,729,0729 729,1716 Opelika Road,AL,36830
Office Max,Glen Carbon,735,0735 735,220 Junction Drive,IL,62034
Office Max,Santa Fe,736,0736 736,3003 A South St. Francis Drive,NM,87505
Office Max,Marana,741,0741 741,7081 North Thornydale Road,AZ,85741
Office Max,Phoenix,743,0743 743,4827 East Ray Road,AZ,85044
Office Max,Martinsville,744,0744 744,240 Commonwealth Boulevard,VA,24112
Office Max,Danville,745,0745 745,153 Crown Drive,VA,24540
Office Max,Carlisle,746,0746 746,"650 East High Street, Suite 600",PA,17013
Office Max,Charleston,748,0748 748,228 R.L.H. Boulevard,WV,25309
Office Max,Kearney,749,0749 749,4920 Third Avenue,NE,68847
Office Max,Lynchburg,750,0750 750,2535 Wards Road,VA,24502-2105
Office Max,Ogden,752,0752 752,1240 South Washington Boulevard,UT,84404-5743
Office Max,Savannah,754,0754 754,25 Janet Drive,GA,31405
Office Max,Orion Township,755,0755 755,"4920 Baldwin Road, Unit 12",MI,48359
Office Max,Naples,756,0756 756,3420 East Tamiami Trail,FL,34112
Office Max,Apple Valley,757,0757 757,7361 153rd Street,MN,55124
Office Max,San Antonio,758,0758 758,"17700 US Hwy 281 North, Ste 800",TX,78232
Office Max,Willoughby,760,0760 760,36415 Euclid Avenue,OH,44094-4448
Office Max,Fairbanks,761,0761 761,24 College Road,AK,99701
Office Max,Bradley,762,0762 762,1190 North Kinzie Road,IL,60915
Office Max,Garner,763,0763 763,2580 Timber Drive,NC,27529
Office Max,Newnan,764,0764 764,1064 Bullsboro Road,GA,30265-2127
Office Max,Gadsden,765,0765 765,530 George Wallace Drive,AL,35903
Office Max,Mankato,766,0766 766,2020 Adams Street,MN,56001
Office Max,Hilo,767,0767 767,311 Makaala Street,HI,96720
Office Max,Round Rock,772,0772 772,"2601 South Interstate Highway 35, Suite 200",TX,78664
Office Max,Roswell,774,0774 774,2755 North Main Street,NM,88201
Office Max,Massena,775,0775 775,6033 St Lawrence Center,NY,13662
Office Max,Aberdeen,777,0777 777,"3502 7th Avenue, SE",SD,57401
Office Max,Farmington,778,0778 778,"4901 East Main Street, Suite A",NM,87402
Office Max,Arroyo Grande,793,0793 793,1130 West Branch,CA,93420
Office Max,Stillwater,794,0794 794,1500 W. Frontage Rd.,MN,55082
Office Max,Kannapolis,795,0795 795,3363 Cloverleaf Parkway,NC,28083-6991
Office Max,North Las Vegas,799,0799 799,1711 West Craig Road,NV,89030
Office Max,Laguna Woods,801,0801 801,24334 El Toro Road,CA,92653
Office Max,Griffin,803,0803 803,1429 Highway 16,GA,30223
Office Max,The Woodlands,806,0806 806,1680 Lake Woodlands Drive,TX,77380
Office Max,Killeen,807,0807 807,1800 Lowes Boulevard,TX,76542
Office Max,Abilene,808,0808 808,3226 S. Clack St. Ste. B,TX,79606
Office Max,Dallas,809,0809 809,2728 West Wheatland Road,TX,75237
Office Max,Willmar,810,0810 810,1901 South First Street,MN,56201
Office Max,Jacksonville,811,0811 811,8801-7 Southside Boulevard,FL,32256
Office Max,Jacksonville,813,0813 813,9756 Atlantic Boulevard,FL,32225
Office Max,Denton,814,0814 814,1447 South Loop 288,TX,76205
Office Max,Harahan,817,0817 817,1000 South Clearview Pkwy #1020,LA,70123
Office Max,Springfield,822,0822 822,969 Bechtle Avenue,OH,45504
Office Max,Christiansburg,825,0825 825,2505 Market Street,VA,24073
Office Max,Shreveport,826,0826 826,6634 Youree Drive,LA,71105
Office Max,Matthews,827,0827 827,9920 Matthews Park Drive,NC,28105
Office Max,San Francisco,830,0830 830,3700 Geary Boulevard,CA,94118
Office Max,Parma,831,0831 831,1800 Snow Road,OH,44134
Office Max,Corvallis,832,0832 832,1900 North West 9th Street,OR,97330
Office Max,College Station,833,0833 833,1725 S Texas Avenue,TX,77840
Office Max,Buffalo,834,0834 834,2642 Delaware Avenue,NY,14207
Office Max,Hickory,836,0836 836,1718 Highway 70 SE,NC,28602
Office Max,Las Cruces,837,0837 837,"2561 East Lohman, Suite C",NM,88011
Office Max,Chicago,838,0838 838,1829 West Fullerton Avenue,IL,60614
Office Max,Burlington Township,839,0839 839,"2703 Route 541, Suite 5",NJ,8016
Office Max,Woods Cross,841,0841 841,562 West 750 South,UT,84087
Office Max,Grand Junction,843,0843 843,925 Independent Avenue,CO,81505-7130
Office Max,Great Falls,845,0845 845,"1601 Market Place Drive, Suite #55",MT,59404
Office Max,Clovis,847,0847 847,1465 Shaw Avenue,CA,93611
Office Max,Oshkosh,848,0848 848,1910 South Koeller,WI,54902
Office Max,De Land,849,0849 849,2657 South Woodland Boulevard,FL,32720
Office Max,Minot,850,0850 850,825 20th Avenue SW,ND,58701
Office Max,Indianapolis,851,0851 851,9815 East Washington Street,IN,46229
Office Max,Chandler,852,0852 852,2700 West Chandler Boulevard,AZ,85224
Office Max,Columbia,853,0853 853,805 Eagle Court,TN,38401
Office Max,Lancaster,854,0854 854,1700-B Fruitville Pike,PA,17601
Office Max,San Antonio,855,0855 855,"255 East Basse Road, Suite #1510",TX,78209
Office Max,Ashtabula,861,0861 861,"3315 North Ridge East Road, Suite #840",OH,44004
Office Max,Cookeville,866,0866 866,575B South Jefferson Avenue,TN,38501
Office Max,Victorville,867,0867 867,12628 Amargosa Road,CA,92392
Office Max,Pasadena,868,0868 868,721 East Colorado Boulevard,CA,91101
Office Max,Santa Cruz,871,0871 871,470 River Street,CA,95060
Office Max,Horn Lake,872,0872 872,7258 Interstate Boulevard,MS,38637
Office Max,Coeur dAlene,881,0881 881,261 West Canfield Avenue,ID,83815
Office Max,Vicksburg,882,0882 882,2170 Iowa Avenue,MS,39180
Office Max,Lake Zurich,883,0883 883,731 West Route 22,IL,60047
Office Max,Riverhead,884,0884 884,1600 Tanger Mall Drive,NY,11901
Office Max,Kalamazoo,885,0885 885,5294 West Main Street,MI,49009
Office Max,Milledgeville,886,0886 886,"2400 North Columbia Street, Suite #38",GA,31061
Office Max,Bellingham,887,0887 887,1055 East Sunset Drive,WA,98225
Office Max,Elgin,889,0889 889,202-A South Randall Road,IL,60123
Office Max,Wichita,890,0890 890,3535 North Rock Road,KS,67226-1320
Office Max,Strongsville,891,0891 891,17171 Southpark Center Drive,OH,44136
Office Max,Orangeburg,892,0892 892,2790 North Road (Highway 178),SC,29118-2801
Office Max,Delafield,893,0893 893,2840 Heritage Drive,WI,53018
Office Max,Key West,894,0894 894,1118 Key Plaza,FL,33040
Office Max,St Thomas,895,0895 895,26 Street Charlotte Amalie,VI,802
Office Max,Jonesboro,896,0896 896,2300 East Highland Drive,AR,72401
Office Max,Bullhead,897,0897 897,1568 Marina Boulevard,AZ,86442
Office Max,Batavia,898,0898 898,4160 Veterans Memorial Drive,NY,14020
Office Max,Casa Grande,899,0899 899,1346 East Florence Boulevard,AZ,85122
Office Max,Clovis,901,0901 901,900 East Manana Street,NM,88101
Office Max,Martinsburg,902,0902 902,745 Foxcraft Avenue,WV,25401
Office Max,Carmel,907,0907 907,14760 Greyhound Plaza,IN,46032
Office Max,Fort Dodge,910,0910 910,2950 5th Avenue South,IA,50501
Office Max,Albemarle,911,0911 911,619 NC Highway 24/27 Bypass East,NC,28001
Office Max,Defiance,912,0912 912,135 Stadium Drive,OH,43512
Office Max,Pasadena,913,0913 913,5726 Fairmont Parkway,TX,77505-3906
Office Max,Manitowoc,914,0914 914,4121 Calumet Avenue,WI,54220
Office Max,Janesville,915,0915 915,1319 Creston Park,WI,53545
Office Max,Colorado Springs,917,0917 917,1640 Cheyenne Mountain Boulevard,CO,80906
Office Max,Charlotte,918,0918 918,8110 University City Boulevard,NC,28213
Office Max,Canton,919,0919 919,43165 Ford Road,MI,48187
Office Max,Nashville,922,0922 922,3161 Lebanon Pike,TN,37214
Office Max,Danville,923,0923 923,3371 North Vermilion Streeet,IL,61832
Office Max,Merriam,924,0924 924,5830 Antioch Road,KS,66202
Office Max,Lake Jackson,925,0925 925,206 East Hwy #332,TX,77566
Office Max,Cumming,928,0928 928,1300 Market Place Boulevard,GA,30041
Office Max,Wilmington,929,0929 929,4715-D New Centre Drive,NC,28405
Office Max,Kelso,930,0930 930,201 South West 7th Streeet,WA,98626
Office Max,Homestead,931,0931 931,915 North Homestead Boulevard,FL,33030
Office Max,Destin,932,0932 932,14081 Emerald Coast Parkway,FL,32541
Office Max,Holland,934,0934 934,"12635 Felch St, Suite #40",MI,49424
Office Max,Porterville,936,0936 936,1260 West Henderson Avenue,CA,93257
Office Max,Sanford,939,0939 939,856 Spring Lane Galleria,NC,27330
Office Max,Tyler,940,0940 940,5361 South Broadway,TX,75703
Office Max,East Peoria,941,0941 941,200 Riverside Drive,IL,61611
Office Max,Sandy,942,0942 942,10957 South State Street,UT,84070
Office Max,Davis,944,0944 944,2107 Cowell Boulevard,CA,95618
Office Max,Stockton,945,0945 945,3939 East Hammer Lane,CA,95212
Office Max,West Seneca,946,0946 946,350 Orchard Park Road,NY,14224-2635
Office Max,Douglasville,947,0947 947,2900 Chapel Hill Road,GA,30135-1708
Office Max,Grand Forks,948,0948 948,3225 30th Avenue South,ND,58201
Office Max,Morristown,953,0953 953,2583 E Morris Boulevard,TN,37813
Office Max,Plano,960,0960 960,8700 Preston Rd - Suite 111,TX,75024
Office Max,Elko,967,0967 967,1780 Mountain City Highway,NV,89801
Office Max,Milwaukie,968,0968 968,15550 South East McLoughlin Boulevard,OR,97267
Office Max,Lancaster,970,0970 970,1541 River Valley Circle North,OH,43130
Office Max,Council Bluffs,971,0971 971,505 East 30th Avenue,IA,51501
Office Max,Washington,972,0972 972,343 Washington Road,PA,15301
Office Max,Las Vegas,973,0973 973,2100 East Serene Avenue,NV,89123
Office Max,Columbus,975,0975 975,3200 Columbus Center,IN,47203
Office Max,Grand Island,976,0976 976,2130 North Diers Avenue,NE,68803
Office Max,Norfolk,978,0978 978,2125 Krenzien Drive,NE,68701
Office Max,Columbus,979,0979 979,"3201 Macon Road, Suite #275",GA,31906
Office Max,Solon,981,0981 981,33605 Aurora Road,OH,44139
Office Max,Baxter,982,0982 982,7626 Clearwater Road,MN,56425
Office Max,Greenwood,983,0983 983,478 Highway 72 North West,SC,29649
Office Max,Menomonee Falls,985,0985 985,N93 W17700 Appleton Avenue,WI,53051
Office Max,Michigan City,986,0986 986,4421 South Franklin Street,IN,46360
Office Max,Mohegan Lake,987,0987 987,3131 East Main Street,NY,10547
Office Max,Statesboro,988,0988 988,715 Northside Drive East,GA,30458
Office Max,Oneonta,990,0990 990,State Highway #23,NY,13820
Office Max,West Bend,992,0992 992,1301 West Paradise Drive,WI,53095
Office Max,York,994,0994 994,2435 East Market Street,PA,17402
Office Max,Columbus,1002,01002 1002,1325 Polaris Parkway,OH,43240
Office Max,Cleveland Heights,1003,01003 1003,3462 Mayfield Road,OH,44118
Office Max,Alameda,1006,01006 1006,2160 Otis Drive,CA,94501
Office Max,Burlington,1007,01007 1007,3121-A Garden Rd,NC,27215
Office Max,Silverthorne,1016,01016 1016,297 Summit Place,CO,80498
Office Max,Glen Allen,1017,01017 1017,10091 Brook Road,VA,23059
Office Max,Vincennes,1019,01019 1019,619 Kimmel Road,IN,47591
Office Max,Sacramento,1023,01023 1023,1707 J Street,CA,95814
Office Max,Dothan,1024,01024 1024,3500 Ross Clark Circle,AL,36303
Office Max,Lincoln,1026,01026 1026,3120 Pine Lake Road,NE,68516
Office Max,Hagerstown,1030,01030 1030,17664 Garland Groh Boulevard,MD,21740
Office Max,Auburn,1031,01031 1031,88 Union Streeet,ME,4210
Office Max,Modesto,1037,01037 1037,"1800 Oakdale Rd, Building B",CA,95355
Office Max,Rockwall,1046,01046 1046,2663 Market Center Drive,TX,75032
Office Max,White Lake,1049,01049 1049,9054 Highland Road,MI,48386
Office Max,Aurora,1054,01054 1054,6492 South Parker Road,CO,80016
Office Max,Superior,1055,01055 1055,410 Center Drive,CO,80027
Office Max,Chester,1056,01056 1056,12256 Bermuda Crossroads Lane,VA,23831
Office Max,Dublin,1058,01058 1058,"2005 Veterans Boulevard, Suite A-4",GA,31021
Office Max,Mesa,1059,01059 1059,1727 South Stapley,AZ,85204
Office Max,Lees Summit,1061,01061 1061,800 North East 291 Highway,MO,64086
Office Max,Paris,1062,01062 1062,3530 Lamar,TX,75460
Office Max,Scottsdale,1063,01063 1063,16259 North Scottsdale Road,AZ,85254
Office Max,Buford,1069,01069 1069,"1705 Mall of GA Blvd, Suite 300",GA,30519
Office Max,Warren,1071,01071 1071,26475 Hoover,MI,48089
Office Max,Selma,1077,01077 1077,8266 Agora Parkway,TX,78154
Office Max,Farmington,1078,01078 1078,941 Valley Creek Drive,MO,63640
Office Max,OFallon,1079,01079 1079,1349 Highway K,MO,63366
Office Max,Washington,1080,01080 1080,93 Washington Hgts Drive,MO,63090
Office Max,Mobile,1082,01082 1082,7765 Airport Boulevard,AL,36608
Office Max,Tuscaloosa,1084,01084 1084,"2600 McFarland Boulevard, Suite B",AL,35405
Office Max,Bemidji,1086,01086 1086,2008 Paul Bunyan Drive NW,MN,56601
Office Max,Cullman,1087,01087 1087,1612 Town Square SW,AL,35055
Office Max,Houston,1088,01088 1088,6757 Highway 6 North,TX,77084
Office Max,Lake City,1089,01089 1089,2434 US Highway 90 West,FL,32055
Office Max,Loveland,1090,01090 1090,1453 East Eisenhower Blvd.,CO,80537
Office Max,Cottonwood,1092,01092 1092,1665 East Cottonwood Street,AZ,86326
Office Max,Marshfield,1094,01094 1094,1629 North Central Avenue,WI,54449
Office Max,Dilworth,1095,01095 1095,1411 Center Avenue West,MN,56529
Office Max,Midlothian,1100,01100 1100,4901 Commonwealth Centre Pkwy,VA,23112
Office Max,Cadillac,1101,01101 1101,3900 US Highway 131 South,MI,49601
Office Max,Chanhassen,1102,01102 1102,960 West 78th Street,MN,55317
Office Max,Las Vegas,1105,01105 1105,8720 West Charleston Boulevard,NV,89117
Office Max,Hopkinsville,1106,01106 1106,190 Clinic Drive,KY,42240
Office Max,Livermore,1108,01108 1108,2400 Las Positas Road,CA,94550
Office Max,Crystal River,1109,01109 1109,1501 North West Highway 19,FL,34428
Office Max,Kerrville,1111,01111 1111,307 Sidney Baker South,TX,78028
Office Max,Lebanon,1112,01112 1112,415 South Cumberland,TN,37087
Office Max,Carolina,1117,01117 1117,5893 65 Infanteria Avenue,PR,987
Office Max,Elk River,1119,01119 1119,19250 Freeport Streeet NW,MN,55330
Office Max,Forest Lake,1120,01120 1120,125 South West 12th Street,MN,55025
Office Max,Norcross,1122,01122 1122,"Highway 141, Suite 108",GA,30092
Office Max,Sebring,1123,01123 1123,420 Sebring Square,FL,33870
Office Max,Joliet,1125,01125 1125,2805 West Plainfield Road,IL,60436
Office Max,Goshen,1126,01126 1126,3818 Midway Road,IN,46526
Office Max,Jacksonville,1128,01128 1128,2085-F N Marine Boulevard,NC,28546
Office Max,Monroe,1130,01130 1130,1030 W Roosevelt Boulevard,NC,28110
Office Max,Oak Harbor,1131,01131 1131,775 North East Koetje Street,WA,98277
Office Max,Vancouver,1133,01133 1133,"13875 SE Mill Plain Boulevard, Suite 104",WA,98684
Office Max,Orlando,1134,01134 1134,721 North Alafaya Trail,FL,32828
Office Max,Selma,1137,01137 1137,2751 Highland Avenue,CA,93662
Office Max,Hanover,1138,01138 1138,1775 Washington Street,MA,2339
Office Max,Avondale,1139,01139 1139,1571 North Dysart Road,AZ,85323
Office Max,Roswell,1142,01142 1142,"645 Crossville Road, Suite 138",GA,30075
Office Max,Sanford,1143,01143 1143,4540 West State Route 46,FL,32771
Office Max,Woodinville,1144,01144 1144,14049 North East Woodinville Duvall Road,WA,98072
Office Max,San Juan,1146,01146 1146,525 Calle Juan Kalaf,PR,918
Office Max,Knoxville,1147,01147 1147,6719 Clinton Highway,TN,37912
Office Max,Alexandria,1152,01152 1152,4925 Highway 29 South,MN,56308
Office Max,Smithfield,1154,01154 1154,1248 North Bright Leaf Boulevard,NC,27577
Office Max,Mechanicsville,1155,01155 1155,7266 Mechanicsville Turnpike,VA,23111
Office Max,Albuquerque,1156,01156 1156,"8100 Wyoming North East, Suite B",NM,87113
Office Max,Brookfield,1157,01157 1157,18605 West Bluemound Road,WI,53045
Office Max,Chesterfield,1159,01159 1159,154 THF Boulevard,MO,63005
Office Max,Rice Lake,1160,01160 1160,2500 Pioneer Avenue,WI,54868
Office Max,Tullahoma,1166,01166 1166,1711 North Jackson,TN,37388
Office Max,Plano,1167,01167 1167,"6401 West Plano Parkway, Suite 120",TX,75093
Office Max,Apache Junction,1170,01170 1170,2950 West Apache Trail,AZ,85120
Office Max,Nashville,1171,01171 1171,90 White Bridge Road,TN,37205
Office Max,Rhinelander,1175,01175 1175,1903 Lincoln Avenue,WI,54501
Office Max,Shawnee,1179,01179 1179,15600 Shawnee Mission Parkway,KS,66217
Office Max,Shelby,1182,01182 1182,423 Earl Road,NC,28150
Office Max,Tucson,1183,01183 1183,860 East Broadway Avenue,AZ,85719
Office Max,Weatherford,1184,01184 1184,202 West Interstate 20,TX,76086
Office Max,Lakewood,1192,01192 1192,7980 West Alameda Avenue,CO,80226
Office Max,West Jordan,1198,01198 1198,7037 South Plaza Center,UT,84084
Office Max,Homewood,1199,01199 1199,17825 South Halsted Street,IL,60430
Office Max,Woodstock,1202,01202 1202,170 Woodstock Square,GA,30189-6500
Office Max,Surprise,1205,01205 1205,13722 West Bell Road,AZ,85374
Office Max,Glenview,1208,01208 1208,2211 Willow Road,IL,60025
Office Max,Fenton,1209,01209 1209,163 Gravois Bluff Plaza Drive,MO,63026
Office Max,Phoenix,1210,01210 1210,"21001 North Tatum Boulevard, #24",AZ,85050
Office Max,Tucson,1213,01213 1213,1163 Irvington Road,AZ,85714-1165
Office Max,Knoxville,1214,01214 1214,11012 Parkside Drive,TN,37922
Office Max,Cedar Hill,1215,01215 1215,"328 North Highway 67, Suite 328",TX,75104
Office Max,Round Lake Beach,1216,01216 1216,260 East Rollins Road,IL,60073
Office Max,Grafton,1217,01217 1217,1346 Port Washington Road,WI,53024
Office Max,Oro Valley,1218,01218 1218,10595 North Oracle Road,AZ,85737
Office Max,Shakopee,1220,01220 1220,1633 17th Avenue East,MN,55379
Office Max,Lemont,1221,01221 1221,13406 Archer Avenue,IL,60439
Office Max,Las Vegas,1225,01225 1225,7761 West Tropical Parkway,NV,89149
Office Max,Cottage Grove,1227,01227 1227,9010 Jamaica Avenue South,MN,55016
Office Max,Highlands Ranch,1228,01228 1228,"9579 S University Boulevard, Unit 200",CO,80126
Office Max,Hiram,1229,01229 1229,4484 Jimmy Lee Smith Parkway,GA,30141-2724
Office Max,Houston,1233,01233 1233,1250 Fry Road,TX,77084
Office Max,San Antonio,1234,01234 1234,11323 Bandera Road,TX,78250
Office Max,Thornton,1235,01235 1235,801 East 120th Avenue,CO,80233-5709
Office Max,Bolingbrook,1236,01236 1236,153 North Weber Road,IL,60490
Office Max,Oswego,1238,01238 1238,3070 Route 34,IL,60543
Office Max,Manati,1239,01239 1239,State Road #2 KM 45.8,PR,674
Office Max,Bayamon,1241,01241 1241,PR 167 Avenue Las Cumbres Highway 199,PR,956
Office Max,St. Louis,1242,01242 1242,4617 Chippewa Street,MO,63116
Office Max,Grandville,1243,01243 1243,4615 Canal Street,MI,49418
Office Max,Apex,1246,01246 1246,1021 Beaver Creek Commons Drive,NC,27502
Office Max,Arden,1247,01247 1247,1 McKenna Road,NC,28704
Office Max,Gilbert,1248,01248 1248,2711 South Market Street,AZ,85296
Office Max,Chandler,1249,01249 1249,2945 South Alma School Road,AZ,85248
Office Max,Garfield Hts.,1250,01250 1250,5660 Transporation Boulevard,OH,44125
Office Max,Philadelphia,1251,01251 1251,9755 Roosevelt Avenue,PA,19114
Office Max,Houston,1252,01252 1252,6135 Westheimer,TX,77057-4523
Office Max,Raleigh,1254,01254 1254,5900-151 Poyner Anchor Lane,NC,27616
Office Max,McKinney,1255,01255 1255,3190 South Central Expressway,TX,75070
Office Max,Estero,1257,01257 1257,8004 Mediterranean Drive,FL,33928
Office Max,Macedonia,1261,01261 1261,"500 East Aurora Road, Unit 30",OH,44056
Office Max,Thornton,1263,01263 1263,16557 North Washington Street,CO,80020
Office Max,Independence,1264,01264 1264,19020 East 39th Street South,MO,64057-2315
Office Max,Wentzville,1266,01266 1266,1927 Wentzville Parkway,MO,63385
Office Max,Oak Creek,1267,01267 1267,9001 South Howell Avenue,WI,53154
Office Max,Lockport,1268,01268 1268,5762 South Transit Road,NY,14094
Office Max,Atlanta,1269,01269 1269,4540 Olde Perimeter Way,GA,30346
Office Max,Greeley,1270,01270 1270,"4759 West 29th Street, Unit 1",CO,80634
Office Max,Tucson,1271,01271 1271,9580 East 22nd Street,AZ,85748
Office Max,Suwanee,1273,01273 1273,2615 Peachtree Parkway,GA,30024
Office Max,Omaha,1275,01275 1275,6424 North 73rd Plaza #1003,NE,68134
Office Max,Florissant,1276,01276 1276,13923 New Halls Ferry Road,MO,63033
Office Max,Jacksonville,1278,01278 1278,"13740 Beach Boulevard, Suite 300",FL,32224
Office Max,Colorado Springs,1280,01280 1280,3826 Bloomington Street,CO,80922
Office Max,Portland,1281,01281 1281,930 North West 14th Avenue,OR,97209
Office Max,Honolulu,1282,01282 1282,4561 Salt Lake Boulevard,HI,96818
Office Max,Algonquin,1283,01283 1283,1806 South Randall Road,IL,60102
Office Max,Reynoldsburg,1284,01284 1284,8200 East Broad Street,OH,43068
Office Max,Kendall,1285,01285 1285,16500 South West 88th Street,FL,33196
Office Max,Miami,1286,01286 1286,12115 South West 152nd Street,FL,33186
Office Max,Austin,1287,01287 1287,"9600 South IH35, Service Road SB",TX,78748
Office Max,Flower Mound,1288,01288 1288,"6060 Long Prairie Road, Suite 300",TX,75028
Office Max,New Berlin,1290,01290 1290,15480 West Beloit Road,WI,53151
Office Max,Pembroke Pines,1293,01293 1293,15891 Pines Boulevard,FL,33027
Office Max,Hoffman Estates,1294,01294 1294,2570 Sutton Road,IL,60195
Office Max,Bee Caves,1295,01295 1295,"12812 Shops Parkway, Suite 300",TX,78738
Office Max,Appleton,1296,01296 1296,2401 South Kensington Drive,WI,54915
Office Max,Hilliard,1297,01297 1297,1872 Hilliard Rome Road,OH,43026
Office Max,La Quinta,1298,01298 1298,79-190 Highway 111,CA,92253
Office Max,Raymore,1299,01299 1299,121 North Dean Avenue,MO,64083
Office Max,Milwaukee,1302,01302 1302,"275 West Wisconsin Avenue, Suite 1020",WI,53202
Office Max,Knightdale,1303,01303 1303,1012 Shoppes at Midway,NC,27545
Office Max,Columbus,1305,01305 1305,165 Graceland Boulevard,OH,43214
Office Max,Peoria,1308,01308 1308,25340 North Lake Pleasant Parkway,AZ,85383
Office Max,Buckeye,1309,01309 1309,850 South Watson Road,AZ,85326
Office Max,Jacksonville,1311,01311 1311,13275 City Square Drive,FL,32218
Office Max,Las Vegas,1313,01313 1313,6980 Arroyo Crossing Parkway,NV,89113
Office Max,Nashville,1315,01315 1315,5706 Nolensville Pike,TN,37211
Office Max,Highlands Ranch,1316,01316 1316,1051 Mayberry Drive,CO,80129
Office Max,Denver,1317,01317 1317,8564 East 49th Avenue,CO,80238
Office Max,Lakeville,1318,01318 1318,18325 Kenrick Avenue,MN,55044
Office Max,Watertown,1319,01319 1319,1300 9th Avenue SE,SD,57201
Office Max,Savage,1320,01320 1320,14375 Highway 13,MN,55378
Office Max,Owatonna,1322,01322 1322,1285 21st Avenue NW,MN,55060
Office Max,Canton,1324,01324 1324,"1810 Cumming Highway, Suite 1200",GA,30114
Office Max,Tarentum,1327,01327 1327,1040 Village Center Drive,PA,15084
Office Max,South Jordan,1328,01328 1328,11649 South Parkway Plaza Drive,UT,84095
Office Max,Hillsboro,1329,01329 1329,7350 North East Butler Road,OR,97124-9434
Office Max,Austin,1330,01330 1330,12625 North Interstate Highway 35,TX,78753
Office Max,Austin,1331,01331 1331,4615 North Lamar Boulevard,TX,78756
Office Max,Charlotte,1333,01333 1333,10239 Perimeter Parkway,NC,28216
Office Max,Cottleville,1334,01334 1334,6035 Mid Rivers Mall Drive,MO,63304
Office Max,Charlotte,1336,01336 1336,14129 Rivergate Parkway,NC,28273
Office Max,Gaylord,1337,01337 1337,2344 M32 West,MI,49735
Office Max,Lacey,1339,01339 1339,1200 Marvin Road NE,WA,98509
Office Max,Kailua-Kona,1341,01341 1341,74-5448 Makala Boulevard,HI,96740
Office Max,Beachwood,1342,01342 1342,4057 Richmond Road,OH,44122
Office Max,Katy,1343,01343 1343,23610 Westheimer Parkway,TX,77494
Office Max,Tinley Park,1344,01344 1344,7360 191st Street,IL,60477
Office Max,Brentwood,1345,01345 1345,8404 Eager Road,MO,63144
Office Max,San Antonio,1346,01346 1346,23022 Hwy 281 North,TX,78258
Office Max,Medina,1348,01348 1348,302 Clydesdale Trail,MN,55340
Office Max,Eden Prairie,1349,01349 1349,8595 Columbine Road,MN,55344
Office Max,Virginia Beach,1350,01350 1350,"2277 Upton Drive, Suite 706",VA,23454
Office Max,Kansas City,1351,01351 1351,8550 North Flintock Road,MO,64157
Office Max,Sacramento,1352,01352 1352,3684 North Freeway Boulevard,CA,95834
Office Max,Red Wing,1353,01353 1353,160 Tyler Road North,MN,55066
Office Max,Scottsdale,1354,01354 1354,32337 North Scottsdale Road,AZ,85262
Office Max,Carmel,1355,01355 1355,"10025 North Michigan Road, Suite 140",IN,46032
Office Max,Machesney Park,1357,01357 1357,1025 West Lane Road,IL,61115
Office Max,Houston,1359,01359 1359,5540 Weslayan Street,TX,77005
Office Max,Hermiston,1363,01363 1363,1810 Highway 395,OR,97838
Office Max,Cape Coral,1364,01364 1364,531 South West Pine Island Road,FL,33991
Office Max,Port St. Lucie,1365,01365 1365,10512 South West Village Parkway,FL,34987
Office Max,Christiansted,1368,01368 1368,RETAIL SPACE #B PARCEL #5,VI,820
Office Max,Fontana,1369,01369 1369,16655 Sierra Lakes Parkway,CA,92336
Office Max,Papillion,1371,01371 1371,7849 Towne Center Parkway,NE,68046
Office Max,Monticello,1372,01372 1372,1417 East 7th Street,MN,55362
Office Max,Cambridge,1376,01376 1376,205 Balsam Street North,MN,55008
Office Max,Wadsworth,1377,01377 1377,1153 Williams Reserve Boulevard,OH,44281
Office Max,Castle Rock,1378,01378 1378,"5650 Allan Way, Suite 110",CO,80108
Office Max,Inverness,1379,01379 1379,2675 East Gulf to Lake Hwy Suite A,FL,34453
Office Max,Lauderhill,1380,01380 1380,7902 Commercial Boulevard,FL,33351
Office Max,Moreno Valley,1381,01381 1381,27300 Eucalyptus Avenue,CA,92555
Office Max,Lake Geneva,1382,01382 1382,200 Edwards Boulevard,WI,53147
Office Max,Delaware,1386,01386 1386,1000 Sunbury Road,OH,43015
Office Max,Perrysburg,1387,01387 1387,10025 Freemont Pike,OH,43551
Office Max,Rosenberg,1388,01388 1388,24212 Commercial Drive,TX,77471
Office Max,Virginia Beach,1390,01390 1390,"3364 Princess Anne Rd, Suite 509",VA,23456
Office Max,Richmond,1391,01391 1391,"4531 S Laburnum Avenue, Suite 730",VA,23231
Office Max,Flowery Branch,1394,01394 1394,5871 Spout Springs Road,GA,30542
Office Max,San Antonio,1396,01396 1396,"5427 West Loop Road, 1604 North",TX,78253
Office Max,Eugene,1397,01397 1397,2860 Willamette Street,OR,97405
Office Max,Midlothian,1399,01399 1399,141 Perimeter Drive,VA,23114
Office Max,Ballwin,1407,01407 1407,15315 Manchester Road,MO,63011
Office Max,Magnolia,1409,01409 1409,"32954 FM 2978, Suite #500",TX,77354
Office Max,San Jose,1412,01412 1412,2171 Monterey Highway,CA,95125
Office Max,Cedar Park,1416,01416 1416,1105 C-Bar Ranch Trail #C,TX,78613
Office Max,Manteca,1419,01419 1419,2200 Daniels Street,CA,95337
Office Max,St. Louis,1420,01420 1420,1016 Loughborough Avenue,MO,63111
Office Max,Yorkville,1421,01421 1421,376 Veterans Parkway,IL,60560
Office Max,Jacksonville,1422,01422 1422,"9515 Crosshill Boulevard, Suite 105",FL,32222
Office Max,Glendale,1426,01426 1426,"9320 West Northern Avenue, Suite 140",AZ,85305
Office Max,Belleville,1428,01428 1428,5875 Belleville Crossing Street,IL,62226
Office Max,Poulsbo,1433,01433 1433,21800 Market Place NW,WA,98370
Office Max,Oxford,1434,01434 1434,900 Oxford Exchange,AL,36203
Office Max,Sarasota,1435,01435 1435,"5471 Palmer Crossing Circle, Unit #1",FL,34238
Office Max,Kapolei,1436,01436 1436,"4450 Kapolei Parkway, Ste. #120",HI,96707
Office Max,Northridge,1438,01438 1438,19350 Nordhoff St,CA,91324
Office Max,Wichita,1449,01449 1449,2414 North Maize,KS,67205
Office Max,Pewaukee,1450,01450 1450,"1275 West Capitol Drive, Suite A",WI,53072
Office Max,Wood River,1452,01452 1452,520 Wesley Drive,IL,62095
Office Max,Lahaina,1454,01454 1454,"335 Keawe Street, Suite 206",HI,96761
Office Max,Temple,1455,01455 1455,3550 South General Bruce Drive,TX,76504
Office Max,Battle Creek,1456,01456 1456,30 East Columbia Avenue,MI,49015
Office Max,Amherst,1457,01457 1457,"1701 Niagara Falls Boulevard, Space 700",NY,14228
Office Max,Maple Grove,1460,01460 1460,11160 Fountains Drive,MN,55369
Office Max,Wauwatosa,1461,01461 1461,12140 West Burleigh Road,WI,53213
Office Max,Omaha,1468,01468 1468,12420 K Plaza,NE,68137
Office Max,Suffolk,1470,01470 1470,"6253 College Drive, Suite 400",VA,23435-2768
Office Max,Richmond,1476,01476 1476,9041 Staples Mill Road,VA,23228
Office Max,Guaynabo,1478,01478 1478,#9 Calle D Los Frailes Industrial Park,PR,00969-2107
Office Max,West Des Moines,1480,01480 1480,6305 Mills Civic Parkway,IA,50266
Office Max,New Braunfels,1481,01481 1481,1671 IH 35 S,TX,78130
Office Max,Blaine,1489,01489 1489,10431 Baltimore Street NE,MN,55449
Office Max,Mesa,1492,01492 1492,1738 West 8th Street,AZ,85201
Office Max,Round Rock,1493,01493 1493,"201 University Oaks Blvd, Ste 200",TX,78665
Office Max,Loganville,1496,01496 1496,4052 Atlanta Highway,GA,30052
Office Max,West Milwaukee,1498,01498 1498,2100 South Miller Parkway,WI,53214
Office Max,San Antonio,1502,01502 1502,6212 WoodGlen Drive,TX,78244
Office Max,Humacao,1510,01510 1510,"Space R100, 350 PR-3 km 78.10, Rio Abajo Ward",PR,791
Office Max,Franklin,1511,01511 1511,7199 S 76th Street,WI,53132
Office Max,Hatillo,1530,01530 1530,"506 Calle Truncado, Suite R100",PR,659
Office Max,Juneau,1531,01531 1531,"8745 Glacier Highway, Suite 103",AK,99801
Office Max,Chicago,1817,01817 1817,550 N. St. Clair,IL,60611
Office Max,Evanston,1818,01818 1818,1612 Sherman Ave.,IL,60201
Office Max,Seattle,1819,01819 1819,212 Broadway Avenue East,WA,98102
