keywords,city,Aggdata Store Number,store_number,address,state,zip_code
Pac Sun,Torrance,3,3,21518 Hawthorne Blvd,CA,90503
Pac Sun,Brea,4,4,1050 Brea Mall,CA,92821
Pac Sun,Canoga Park,5,5,6600 Topanga Canyon Blvd.,CA,91303
Pac Sun,Westminster,6,6,1074 Westminster Mall,CA,92683
Pac Sun,Montclair,7,7,5032 Montclair Plaza Lane,CA,91763
Pac Sun,Thousand Oaks,9,9,432 W. Hillcrest,CA,91360
Pac Sun,Los Angeles,11,11,10800 West Pico Blvd.,CA,90064
Pac Sun,San Jose,13,13,925 Blossom Hill Road,CA,95123
Pac Sun,Concord,15,15,121 Sun Valley Mall,CA,94520
Pac Sun,Santa Clara,16,16,2855 Stevens Creek Blvd.,CA,95050
Pac Sun,San Rafael,20,20,5800 Northgate Dr.,CA,94903
Pac Sun,Santa Ana,21,21,2800 N. Main Street,CA,92705
Pac Sun,Lakewood,24,24,46 Lakewood Center Mall,CA,90714
Pac Sun,Bakersfield,26,26,2701 Ming Avenue,CA,93304
Pac Sun,Northridge,27,27,9301 Tampa Avenue,CA,91324
Pac Sun,Santa Rosa,28,28,1065 Santa Rosa Plaza,CA,95401
Pac Sun,Capitola,34,34,1855 41st Avenue,CA,95010
Pac Sun,Arcadia,37,37,400 S. Baldwin Avenue,CA,91006
Pac Sun,Paramus,39,39,1045 Garden State Plaza,NJ,7652
Pac Sun,Bellingham,41,41,1 Bellis Fair Parkway,WA,98226
Pac Sun,Palm Beach Gardens,44,44,3101 PGA Blvd.,FL,33410
Pac Sun,Modesto,47,47,3401 Dale Road,CA,95356
Pac Sun,Sacramento,49,49,1689 Arden Way,CA,95815
Pac Sun,Palm Desert,53,53,72-840 Hwy 111,CA,92260
Pac Sun,Phoenix,54,54,4550 E. Cactus Road,AZ,85032
Pac Sun,Las Vegas,55,55,4300 Meadows Lane,NV,89107
Pac Sun,Mesa,57,57,6555 E. Southern Avenue,AZ,85206
Pac Sun,San Mateo,58,58,460 Hillsdale Shopping Center,CA,94403
Pac Sun,Fresno,60,60,617 East Shaw Avenue,CA,93710
Pac Sun,Bellevue,61,61,238 Bellevue Square,WA,98004
Pac Sun,Danbury,64,64,7 Backus Avenue,CT,6810
Pac Sun,West Covina,65,65,376 Plaza Drive,CA,91790
Pac Sun,Moreno Valley,68,68,22500 Towngate Circle,CA,92553
Pac Sun,Cerritos,69,69,111 Los Cerritos Center,CA,90703
Pac Sun,Spokane,72,72,4750 N. Division,WA,99207
Pac Sun,Lawrenceville,73,73,246 Quaker Bridge Mall,NJ,8648
Pac Sun,Tacoma,75,75,4502 S. Steele,WA,98409
Pac Sun,Lynnwood,76,76,3000 184th Street SW,WA,98036
Pac Sun,Riverside,77,77,1277 Galleria at Tyler,CA,92503
Pac Sun,Rockaway,79,79,Rte 80 & Mt. Hope Ave.,NJ,7866
Pac Sun,Freehold,81,81,3710 Route 9,NJ,7728
Pac Sun,McLean,83,83,7924 L Tysons Corner Center,VA,22102
Pac Sun,Boca Raton,86,86,6000 W. Glades Road,FL,33431
Pac Sun,Glendale,87,87,7700-2058 Arrowhead Towne,AZ,85308
Pac Sun,Columbia,89,89,10300 Little Patuxent Parkway,MD,21044
Pac Sun,Wayne,90,90,1400 Willowbrook Mall,NJ,7470
Pac Sun,Garden City,92,92,630 Old Country Road,NY,11530
Pac Sun,Tucson,93,93,4500 N. Oracle Road,AZ,85705
Pac Sun,Buffalo,95,95,One Walden Galleria Drive,NY,14225
Pac Sun,Peabody,96,96,210 Andover Street,MA,1960
Pac Sun,Pittsburgh,99,99,301 South Hills Mall,PA,15241
Pac Sun,Kennesaw,101,101,400 Ernest W. Barrett Pkwy,GA,30144
Pac Sun,Burnsville,104,104,1093 Burnsville Center,MN,55306
Pac Sun,Sterling Heights,105,105,14600 Lakeside Circle,MI,48313
Pac Sun,Ann Arbor,106,106,338 Briarwood Circle,MI,48108
Pac Sun,Novi,107,107,27330 Novi Road,MI,48377
Pac Sun,Grand Rapids,108,108,3135 28th Street SE,MI,49512
Pac Sun,Bloomingdale,115,115,316 Stratford Square,IL,60108
Pac Sun,Syracuse,116,116,9508 Carousel Center,NY,13290
Pac Sun,Vernon Hills,117,117,626 Hawthorn Shopping Center,IL,60061
Pac Sun,Bridgewater,119,119,400 Commons Way,NJ,8807
Pac Sun,Deptford,121,121,1750 Deptford Center Road,NJ,8096
Pac Sun,Albany,123,123,#1 Crossgates Mall Road,NY,12203
Pac Sun,Alpharetta,124,124,2076 North Point Mall,GA,30022
Pac Sun,Aurora,125,125,2430 Fox Valley Center,IL,60504
Pac Sun,Natick,126,126,1245 Worcester Street,MA,1760
Pac Sun,Lake Grove,127,127,106 Smith Haven Mall,NY,11755
Pac Sun,White Plains,129,129,100 Main Street,NY,10601
Pac Sun,Okemos,131,131,1982 W. Grand River Avenue,MI,48864
Pac Sun,Willow Grove,132,132,2500 W. Moreland Road,PA,19090
Pac Sun,North Wales,133,133,203 Montgomery Mall,PA,19454
Pac Sun,Fairfax,134,134,11930-L Fair Oaks,VA,22033
Pac Sun,Rochester,135,135,720 Miracle Mile Drive,NY,14623
Pac Sun,Beavercreek,137,137,2727 Fairfield Commons,OH,45431
Pac Sun,Flint,138,138,3329 S. Linden Rd.,MI,48507
Pac Sun,Skokie,140,140,4999 Old Orchard Center,IL,60077
Pac Sun,Albuquerque,141,141,6600 Menaul Blvd NE,NM,87110
Pac Sun,Charleston,143,143,1031 Charleston Town Center,WV,25389
Pac Sun,Minnetonka,145,145,12315 Wayzata Blvd.,MN,55305
Pac Sun,Langhorne,148,148,129 Oxford Valley Mall,PA,19047
Pac Sun,Winston-Salem,149,149,3320 Silas Creek Parkway,NC,27103
Pac Sun,Bloomington,150,150,246 East Broadway,MN,55425
Pac Sun,Mentor,151,151,7850 Mentor Avenue,OH,44060
Pac Sun,Cincinnati,152,152,11700 Princeton Pike,OH,45246
Pac Sun,Ft. Wayne,153,153,4201 Coldwater Road,IN,46805
Pac Sun,Scottsdale,154,154,7014 E. Camelback Road,AZ,85251
Pac Sun,Schaumburg,155,155,Woodfield Mall,IL,60173
Pac Sun,Greenville,158,158,700 Haywood Road Box,SC,29607
Pac Sun,Virginia Beach City,160,160,701 Lynnhaven Parkway,VA,23452
Pac Sun,Nashua,163,163,310 Daniel Webster Hwy,NH,3060
Pac Sun,North Attleborough,164,164,999 S. Washington Street,MA,2760
Pac Sun,Salem,165,165,99 Rockingham Park Blvd.,NH,3079
Pac Sun,Erie,166,166,245 Millcreek Mall,PA,16565
Pac Sun,The Woodlands,170,170,1201 Lake Woodlands Drive,TX,77380
Pac Sun,Ft. Worth,171,171,4800 S. Hulen Street,TX,76132
Pac Sun,Appleton,172,172,4301 W. Wisconsin Avenue,WI,54913
Pac Sun,Annapolis,173,173,2002 Annapolis Mall,MD,21401
Pac Sun,Bethesda,174,174,7101 Democracy Blvd,MD,20817
Pac Sun,Houston,175,175,5135 Westheimer,TX,77056
Pac Sun,Dayton,178,178,2700 Miamisburg-Centerville Rd,OH,45459
Pac Sun,Raleigh,179,179,4325 Glenwood Avenue,NC,27612
Pac Sun,Arlington,180,180,3811 South Cooper Street,TX,76015
Pac Sun,Waterford,181,181,850 Hartford Turnpike,CT,6385
Pac Sun,Indianapolis,184,184,6020 E. 82nd Street,IN,46250
Pac Sun,Henderson,185,185,1300 W. Sunset Rd.,NV,89014
Pac Sun,Greendale,186,186,5300 South 76th Street,WI,53129
Pac Sun,Gainesville,187,187,6455 Newberry Road,FL,32605
Pac Sun,Knoxville,188,188,7600 Kingston Pike,TN,37919
Pac Sun,Eatontown,189,189,Route 35 & 36,NJ,7724
Pac Sun,Coral Springs,190,190,9161 W. Atlantic Blvd.,FL,33071
Pac Sun,Mishawaka,191,191,6501 N. Grape Road,IN,46545
Pac Sun,Oklahoma City,196,196,1901 N.W. Expressway,OK,73118
Pac Sun,Lafayette,197,197,5725 Johnston Street,LA,70503
Pac Sun,Austin,199,199,11200 Lakeline Mall Drive,TX,78613
Pac Sun,Sugar Land,201,201,16535 Southwest Fwy.,TX,77479
Pac Sun,Holyoke,202,202,50 Holyoke Street,MA,1040
Pac Sun,Scranton,203,203,Rt. 6 Scranton Carbondale Hwy,PA,18508
Pac Sun,Orland Park,204,204,824 Orland Square,IL,60462
Pac Sun,Dublin,208,208,5043 Tuttle Crossing Blvd.,OH,43016
Pac Sun,Toledo,209,209,5001 Monroe Street,OH,43623
Pac Sun,Newark,212,212,763 Christiana Mall,DE,19702
Pac Sun,Canton,213,213,4176 Belden Village Mall N.W.,OH,44718
Pac Sun,Lone Tree,214,214,8505 Park Meadows Center Drive,CO,80124
Pac Sun,Farmington,215,215,500 Westfarms Mall,CT,6032
Pac Sun,Providence,216,216,66 Providence Place,RI,2903
Pac Sun,Orlando,217,217,8001 S. Orange Blossom Trail,FL,32809
Pac Sun,Akron,218,218,3265 W. Market Street,OH,44333
Pac Sun,Youngstown,219,219,7401 Market Street,OH,44512
Pac Sun,King of Prussia,220,220,160 N. Gulph Road,PA,19406
Pac Sun,Waldorf,222,222,11110 Mall Circle,MD,20603
Pac Sun,Ft. Myers,223,223,4125 Cleveland Avenue,FL,33901
Pac Sun,Roseville,224,224,177 Rosedale Center,MN,55113
Pac Sun,Pineville,225,225,11025 Carolina Place Pkwy,NC,28134
Pac Sun,Middletown,227,227,1 Galleria Drive,NY,10941
Pac Sun,Cincinnati,228,228,7875 Montgomery Rd.,OH,45236
Pac Sun,Lancaster,229,229,735 Park City Center,PA,17601
Pac Sun,Mays Landing,230,230,4403 Black Horse Pike,NJ,8330
Pac Sun,Manchester,233,233,1500 S. Willow Street,NH,3103
Pac Sun,Cherry Hill,234,234,514 Cherry Hill Mall,NJ,8002
Pac Sun,Cambridge,237,237,100 Cambridgeside Place,MA,2141
Pac Sun,Baltimore,238,238,8200 Perry Hall Blvd.,MD,21236
Pac Sun,Springfield,240,240,1250 Baltimore Pike,PA,19064
Pac Sun,Sioux Falls,241,241,4001 W. 41st Street,SD,57106
Pac Sun,Strongsville,243,243,1132 SouthPark Center,OH,44136
Pac Sun,Evansville,244,244,800 North Green River Rd.,IN,47715
Pac Sun,Whitehall,246,246,165 Lehigh Valley Mall,PA,18052
Pac Sun,Omaha,249,249,3001 S. 144th Street,NE,68144
Pac Sun,Chattanooga,250,250,2100 Hamilton Place Blvd.,TN,37421
Pac Sun,St. Petersburg,253,253,6901 22nd Ave. North,FL,33710
Pac Sun,El Paso,254,254,8401 Gateway Blvd. West,TX,79925
Pac Sun,Traverse City,255,255,3200 S. Airport Rd. West,MI,49684
Pac Sun,Taylor,257,257,23000 Eureka Road,MI,48180
Pac Sun,Davenport,258,258,320 W. Kimberly Rd.,IA,52806
Pac Sun,Richmond,259,259,11500 Midlothian Turnpike,VA,23235
Pac Sun,Pensacola,262,262,5100 N. Ninth Avenue,FL,32504
Pac Sun,Austin,263,263,2901 Capital of Texas Hwy.,TX,78746
Pac Sun,Baton Rouge,264,264,6401 Bluebonnet,LA,70809
Pac Sun,York,268,268,2899 Whiteford Rd,PA,17402
Pac Sun,Wichita,270,270,7700 E. Kellogg,KS,67207
Pac Sun,San Antonio,272,272,6301 NW Loop 410,TX,78238
Pac Sun,Hobart,273,273,2241 Southlake Mall,IN,46342
Pac Sun,Wilkes-Barre,275,275,East End Boulevard,PA,18702
Pac Sun,Salisbury,276,276,2300 N. Salisbury,MD,21801
Pac Sun,Poughkeepsie,278,278,2001 South Road,NY,12601
Pac Sun,Omaha,279,279,10000 California Street,NE,68114
Pac Sun,South Portland,283,283,364 Maine Mall Road,ME,4106
Pac Sun,Massapequa,284,284,509 Sunrise Mall,NY,11758
Pac Sun,Saugus,286,286,Route 1 South,MA,1906
Pac Sun,Colorado Springs,287,287,1710 Briargate Blvd,CO,80920
Pac Sun,Lubbock,288,288,6002 Slide Road,TX,79414
Pac Sun,Columbia,289,289,2300 Bernadette Drive,MO,65203
Pac Sun,Columbus,290,290,3507 Manchester Expressway,GA,31909
Pac Sun,Greensburg,291,291,5256 Route 30,PA,15601
Pac Sun,Norfolk,293,293,300 Monticello Avenue,VA,23510
Pac Sun,Sarasota,294,294,8201 Tamiami Trail,FL,34238
Pac Sun,Edison,295,295,304 Menlo Park Dr,NJ,8837
Pac Sun,Sandy,296,296,10450 South State Center,UT,84070
Pac Sun,Wilmington,299,299,4737 Concord Pike,DE,19803
Pac Sun,Portland,312,312,12000 SE 82nd Ave.,OR,97266
Pac Sun,Independence,313,313,18813 E 39th Street S,MO,64057
Pac Sun,St. Peters,314,314,1280 Mid Rivers Mall,MO,63376
Pac Sun,Chesapeake,316,316,1401 Greenbrier Pkwy S.,VA,23320
Pac Sun,Clearwater,317,317,27001 US Hwy 19 North,FL,33761
Pac Sun,Wichita,319,319,4600 W. Kellogg,KS,67207
Pac Sun,Kingston,322,322,Independence Mall Way,MA,2364
Pac Sun,Bangor,323,323,663 Stillwater Avenue,ME,4401
Pac Sun,S. Burlington,324,324,155 Dorset Street,VT,5403
Pac Sun,Toms River,325,325,1201 Hooper Avenue,NJ,8753
Pac Sun,Amherst,326,326,712 Alberta Drive,NY,14226
Pac Sun,Boise,327,327,350 N. Milwaukee,ID,83788
Pac Sun,Midland,329,329,4511 N. Midkiff,TX,79705
Pac Sun,Tampa,330,330,8115 Citrus Town Ctr Mall,FL,33625
Pac Sun,Carlsbad,331,331,2525 El Camino Real,CA,92008
Pac Sun,Altoona,332,332,5580 Goods Lane,PA,16602
Pac Sun,St. Cloud,333,333,4201 W. Division Street,MN,56301
Pac Sun,Frederick,334,334,5500 Buckeyestown Pike,MD,21703
Pac Sun,Naples,337,337,2014 Tamiami Trail North,FL,34102
Pac Sun,Oklahoma City,338,338,2501 W. Memorial Road,OK,73134
Pac Sun,Springfield,339,339,2825 S. Glenstone,MO,65804
Pac Sun,Brookfield,340,340,95 N. Moorland Road,WI,53005
Pac Sun,Altamonte Springs,341,341,451 Altamonte Mall,FL,32701
Pac Sun,Melbourne,342,342,1700 West New Haven Avenue,FL,32904
Pac Sun,Orlando,343,343,3419 East Colonial Drive,FL,32803
Pac Sun,Brandon,344,344,551 Brandon Town Center Mall,FL,33511
Pac Sun,Jacksonville,347,347,10300 Southside Blvd.,FL,32256
Pac Sun,Sanford,348,348,267 Towne Center Circle,FL,32771
Pac Sun,Vero Beach,349,349,6200 20th St.,FL,32966
Pac Sun,Chesterfield,350,350,291 Chesterfield Mall,MO,63017
Pac Sun,Overland Park,351,351,11675 W. 95th Street,KS,66214
Pac Sun,Corpus Christi,352,352,5488 Padre Staples Mall,TX,78411
Pac Sun,South Miami,353,353,5701 Sunset Drive,FL,33143
Pac Sun,Biloxi,356,356,2600 Beach Blvd.,MS,39531
Pac Sun,Sterling,358,358,21100 Dulles Towne Circle,VA,20166
Pac Sun,Provo,360,360,1200 Towne Centre Blvd.,UT,84601
Pac Sun,Lombard,362,362,203 Yorktown,IL,60148
Pac Sun,Roseville,365,365,1151 Galleria Blvd.,CA,95678
Pac Sun,Amarillo,370,370,7701 W. I-40,TX,79121
Pac Sun,Columbus,371,371,115 Easton Town Center,OH,43219
Pac Sun,Johnson City,373,373,2011 N. Roan Street,TN,37601
Pac Sun,Hickory,374,374,1960 Hwy 70 SE,NC,28602
Pac Sun,Champaign,375,375,2000 N. Neil Street,IL,61820
Pac Sun,Albuquerque,377,377,1000 Coors Bypass N.W.,NM,87114
Pac Sun,Murfreesboro,378,378,1720 Old Fort Parkway,TN,37129
Pac Sun,Jensen Beach,380,380,3174 N. West Federal Hwy.,FL,34957
Pac Sun,Asheville,381,381,3 South Tunnel Road,NC,28805
Pac Sun,Fort Worth,383,383,2060 Green Oaks,TX,76116
Pac Sun,Wilton,385,385,3065 Route 50,NY,12866
Pac Sun,Merritt Island,387,387,"777 Merritt Island, Causeway",FL,32952
Pac Sun,College Station,389,389,1500 Harvey Road,TX,77840
Pac Sun,Hagerstown,390,390,17301 Valley Mall Road,MD,21740
Pac Sun,Peoria,392,392,4501 West War Memorial Drive,IL,61613
Pac Sun,Billings,393,393,300 S. 24th Street,MT,59102
Pac Sun,Sioux City,394,394,4400 Sergeant Road,IA,51106
Pac Sun,Anchorage,396,396,320 W. 5th Avenue,AK,99501
Pac Sun,Mary Esther,397,397,300 Mary Esther Blvd.,FL,32569
Pac Sun,Hyannis,398,398,Route 132,MA,2601
Pac Sun,Norman,399,399,3363 W. Main,OK,73072
Pac Sun,State College,400,400,2900 East College Avenue,PA,16801
Pac Sun,Salem,403,403,480 Center St. NE,OR,97301
Pac Sun,Mission Viejo,404,404,#704 The Shops @ Mission Viejo,CA,92691
Pac Sun,Medford,406,406,1600 N. Riverside,OR,97501
Pac Sun,Niles,407,407,5555 Youngtown Warren Rd.,OH,44446
Pac Sun,Grandville,408,408,3700 River Town Parkway,MI,49418
Pac Sun,Kahului,411,411,275 Kaahumanu Avenue,HI,96732
Pac Sun,Buford,413,413,3333 Buford Drive,GA,30519
Pac Sun,Pittsburgh,415,415,100 Robinson Center Drive,PA,15205
Pac Sun,Aiea,418,418,98-1005 Moana Lua Rd,HI,96701
Pac Sun,San Diego,419,419,1640 Camino Del Rio N.,CA,92108
Pac Sun,Ventura,420,420,3301 E. Main Street,CA,93003
Pac Sun,Gastonia,422,422,246 N. New Hope Road,NC,28054
Pac Sun,Wyomissing,423,423,1665 State Hill Road,PA,19610
Pac Sun,Greensboro,425,425,113 Four Seasons Town Center,NC,27407
Pac Sun,Greenwood,426,426,1251 US 31 North,IN,46142
Pac Sun,Fort Gratiot,428,428,4350 24th Avenue,MI,48059
Pac Sun,Fayetteville,430,430,429 Cross Creek Mall,NC,28303
Pac Sun,Portage,432,432,6650 South Westnedge Ave.,MI,49024
Pac Sun,Bloomington,433,433,1615 E. Empire,IL,61701
Pac Sun,Puyallup,434,434,3500 South Meridian,WA,98373
Pac Sun,Broomfield,435,435,1 West FlatIron Crossing Drive,CO,80021
Pac Sun,Layton,436,436,1064 Layton Hills Mall,UT,84041
Pac Sun,Roanoke,440,440,4802 Valley View Road,VA,24016
Pac Sun,Houma,441,441,5953 West Park Avenue,LA,70364
Pac Sun,Olympia,444,444,625 Black Lake Blvd,WA,98502
Pac Sun,Exton,445,445,294 Exton Square Pkwy,PA,19341
Pac Sun,Towson,447,447,825 Dulaney Valley Road,MD,21204
Pac Sun,Temecula,449,449,40820 Winchester Road,CA,92591
Pac Sun,Anchorage,452,452,800 E. Dimond Blvd,AK,99515
Pac Sun,Muncie,453,453,3501 N Granville Ave,IN,47303
Pac Sun,Pittsburgh,454,454,1000 Ross Park Mall Dr.,PA,15237
Pac Sun,Eau Claire,455,455,4800 Golf Road,WI,54701
Pac Sun,Terre Haute,456,456,3401 South U S HWY 41,IN,47802
Pac Sun,Wilmington,457,457,3500 Oleander Drive,NC,28403
Pac Sun,St. George,458,458,1770 East Red Cliffs Drive,UT,84790
Pac Sun,N. Charleston,459,459,2150 Northwood Blvd,SC,29406
Pac Sun,Monaca,460,460,244 Beaver Valley Mall,PA,15061
Pac Sun,Rochester,461,461,418 Greece Ridge Center Drive,NY,14626
Pac Sun,Jacksonville,462,462,386 Jacksonville Mall,NC,28546
Pac Sun,Idaho Falls,465,465,2300 E. 17th Street,ID,83404
Pac Sun,Rochester,466,466,333 Apache Mall,MN,55902
Pac Sun,Milford,468,468,1201 Boston Post Road,CT,6460
Pac Sun,Fredericksburg,469,469,240 Spotsylvania Mall,VA,22407
Pac Sun,Barboursville,470,470,Mall Road @ I 64,WV,25504
Pac Sun,Newington,471,471,50 Fox Run Road,NH,3801
Pac Sun,Springfield,475,475,2501 W. Wabash Ave,IL,62704
Pac Sun,Horseheads,476,476,3300 Chamber Rd. South,NY,14844
Pac Sun,Joplin,482,482,101 N. Range Line Road,MO,64801
Pac Sun,Bensalem,484,484,707 Neshaminy Mall,PA,19020
Pac Sun,Vineland,485,485,3849 S. Delsea Drive,NJ,8360
Pac Sun,Bismarck,487,487,717 Kirkwood Plaza,ND,58504
Pac Sun,Saginaw,490,490,4829 Fashion Square Mall,MI,48604
Pac Sun,Wausau,491,491,C-308 Wausau Center,WI,54403
Pac Sun,Orem,492,492,1229 S. State E-85,UT,84097
Pac Sun,Spokane,494,494,14700 East Indiana,WA,99216
Pac Sun,Clarksville,497,497,2801 Wilma Rudolph Blvd.,TN,37040
Pac Sun,Goodlettsville,498,498,1000 Rivergate Parkway,TN,37072
Pac Sun,Frisco,499,499,2601 Preston Road,TX,75034
Pac Sun,McAllen,501,501,2200 S. 10th Street,TX,78503
Pac Sun,Tulsa,502,502,7021 S. Memorial Drive,OK,74133
Pac Sun,Bend,504,504,425 Power House Road,OR,97702
Pac Sun,Bel Air,505,505,678D Bel Air Road,MD,21014
Pac Sun,Lexington,506,506,3401 Nicholasville Road,KY,40503
Pac Sun,Savannah,508,508,7804 Abercorn Extension,GA,31406
Pac Sun,Victorville,515,515,14400 Bear Valley Road,CA,92392
Pac Sun,Hilo,521,521,111 E. Puainako Street,HI,96720
Pac Sun,Carolina,522,522,Ave Fragoso & 65 Infantry Ave,PR,983
Pac Sun,Salt Lake City,523,523,66 South Rio Grande St,UT,84101
Pac Sun,Hatillo,524,524,Calle Truncados 506,PR,659
Pac Sun,Wauwatosa,529,529,2500 N. Mayfair Road,WI,53226
Pac Sun,Tukwila,530,530,650 Southcenter Mall,WA,98188
Pac Sun,Harrisburg,532,532,Route #22 & Colonial Road,PA,17109
Pac Sun,Morgantown,533,533,9500 Mall Road,WV,26505
Pac Sun,Chico,534,534,1950 East 20th Street,CA,95928
Pac Sun,Bayamon,535,535,"Ave Comerio, Exprwy De Diego",PR,961
Pac Sun,Redding,536,536,900 Dana Drive,CA,96003
Pac Sun,Dover,538,538,1365 N. Dupont Hwy,DE,19901
Pac Sun,Buffalo,540,540,3701 McKinley Parkway,NY,14219
Pac Sun,Salinas,541,541,560 Northridge Mall,CA,93906
Pac Sun,Visalia,544,544,2129 S. Mooney Blvd,CA,93277
Pac Sun,Port Richey,545,545,9409 US Hwy 19,FL,34668
Pac Sun,Orange Park,546,546,1910 Wells Road,FL,32073
Pac Sun,Silverdale,547,547,10315 Silverdale Way NW,WA,98383
Pac Sun,Muskegon,550,550,5600 Harvey Street,MI,49440
Pac Sun,Bayamon,555,555,501WMainAveSierraBayamon,PR,961
Pac Sun,Ogden,557,557,3651 Wall Avenue,UT,84405
Pac Sun,North Dartmouth,559,559,200 N. Dartmouth Mall,MA,2747
Pac Sun,San Antonio,560,560,849 E. Commerce St,TX,78205
Pac Sun,Watertown,561,561,21182 Salmon Run Mall,NY,13601
Pac Sun,Killeen,562,562,2100 SWS Young Drive,TX,76543
Pac Sun,Columbus,567,567,1500 Polaris Parkway,OH,43240
Pac Sun,Chandler,572,572,3111 W. Chandler Blvd,AZ,85226
Pac Sun,Beaumont,578,578,6155 Eastex Freeway,TX,77706
Pac Sun,Costa Mesa,579,579,901 South Coast Drive,CA,92626
Pac Sun,Christiansburg,580,580,834 New River Road,VA,24073
Pac Sun,Johnstown,584,584,500 Galleria Drive,PA,15904
Pac Sun,Humble,585,585,20131 Highway 59 North,TX,77338
Pac Sun,Pennsdale,588,588,300 Lycoming Mall Circle,PA,17756
Pac Sun,Ashland,589,589,501 Winchester Avenue,KY,41101
Pac Sun,Wellington,590,590,10300 W. Forest Hill Blvd,FL,33414
Pac Sun,Denver,592,592,3000 E. First Ave,CO,80206
Pac Sun,Tampa,593,593,2223 N. Westshore Blvd.,FL,33607
Pac Sun,Lynchburg,595,595,3405 Candlers Mountain Rd,VA,24502
Pac Sun,Leominster,597,597,100 Commercial Blvd,MA,1453
Pac Sun,Dubuque,599,599,555 John F. Kennedy Rd,IA,52002
Pac Sun,Phoenix,600,600,21001 North Tatum Blvd,AZ,85050
Pac Sun,Blaine,604,604,255 Northtown Dr,MN,55434
Pac Sun,St. Louis,605,605,85 South County Centerway,MO,63129
Pac Sun,Elmhurst,606,606,90-15 Queens Blvd.,NY,11373
Pac Sun,San Bernardino,612,612,130 Inland Center Drive,CA,92408
Pac Sun,Carbondale,616,616,1237 E. Main Street,IL,62901
Pac Sun,Augusta,618,618,3450 Wrightsboro Road,GA,30909
Pac Sun,Burlington,621,621,49 Church Street,VT,5401
Pac Sun,Moorestown,623,623,400 Route 38,NJ,80573
Pac Sun,San Antonio,625,625,2310 SW Military Drive,TX,78224
Pac Sun,Manhattan,628,628,100 Manhattan Town Center,KS,66502
Pac Sun,Mt. Hope,629,629,5475 Robert C. Byrd Drive,WV,25880
Pac Sun,Denver,630,630,500 16th Street,CO,80202
Pac Sun,Rio Piedras,633,633,9410 Los Romeros Ave,PR,926
Pac Sun,Lincoln,634,634,6100 O Street,NE,68505
Pac Sun,Downey,642,642,251 Stonewood Street,CA,90241
Pac Sun,Eugene,644,644,521 Valley River Center,OR,97401
Pac Sun,Kennewick,646,646,330 Columbia Center,WA,99336
Pac Sun,Winchester,651,651,1850 Apple Blossom Drive,VA,22601
Pac Sun,Aguadilla,652,652,StRd #2 Kilometro Los Corazon Ave,PR,603
Pac Sun,Richmond,655,655,11800 W. Broad Street,VA,23233
Pac Sun,Las Vegas,657,657,3200 Las Vegas Blvd. S,NV,89109
Pac Sun,Johnson City,658,658,601-635 Harry L Drive,NY,13790
Pac Sun,Merced,659,659,713 Merced Mall,CA,95348
Pac Sun,Green Bay,661,661,303 Bay Park Square,WI,54304
Pac Sun,San Juan,663,663,525 FD Roosevelt Ave.,PR,918
Pac Sun,Port Arthur,668,668,3100 Highway 365,TX,77642
Pac Sun,Greenville,669,669,714 S.E. Greenville Blvd.,NC,27858
Pac Sun,Raleigh,675,675,5959 Triangle Town Blvd.,NC,27616
Pac Sun,Lanesboro,677,677,Old State Road,MA,1237
Pac Sun,San Francisco,679,679,865 Market Street,CA,94103
Pac Sun,Houston,680,680,303 Memorial City Mall,TX,77024
Pac Sun,Myrtle Beach,681,681,2000 Coastal Grand Circle,SC,29577
Pac Sun,Plattsburgh,682,682,60 Smithfield Blvd,NY,12901
Pac Sun,Joliet,684,684,3340 Mall Loop Drive,IL,60435
Pac Sun,Yuba City,686,686,1215 Colusa Ave,CA,95991
Pac Sun,Ponce,687,687,2050 Ponce By Pass,PR,717
Pac Sun,Braintree,690,690,250 Granite Street,MA,2184
Pac Sun,Minot,692,692,2400 10th Street SW,ND,58701
Pac Sun,Westland,693,693,35000 W Warren Rd,MI,48185
Pac Sun,Cheyenne,696,696,1400 Dell Range Blvd,WY,82009
Pac Sun,Tallahassee,698,698,1500 Apalachee Pkwy,FL,32301
Pac Sun,Escondido,699,699,200 E. Via Rancho Parkway,CA,92025
Pac Sun,Union Gap,701,701,2529 Main Street,WA,98903
Pac Sun,Rancho Cucamonga,703,703,12534 N Mainstreet,CA,91739
Pac Sun,Mayaguez,710,710,975 Hostos Avenue,PR,680
Pac Sun,Odessa,711,711,4101 E. 42nd Street,TX,79762
Pac Sun,Vancouver,712,712,8700 Vancouver Mall Dr.,WA,98662
Pac Sun,Grand Junction,713,713,2424 U.S. 6,CO,81505
Pac Sun,Miami,715,715,8888 SW 136th Street,FL,33176
Pac Sun,San Antonio,716,716,6909 N. Loop 1604 East,TX,78247
Pac Sun,El Centro,719,719,3451 South Dogwood Avenue,CA,92243
Pac Sun,Westminster,720,720,400 North Center Street,MD,21157
Pac Sun,Montebello,724,724,1840 Montebello Towne Center,CA,90640
Pac Sun,Fayetteville,725,725,4201 North Shiloh Drive,AR,72703
Pac Sun,Las Cruces,726,726,700 S. Telshor Blvd.,NM,88011
Pac Sun,Denton,728,728,2201 I-35 E. South,TX,76205
Pac Sun,Kansas City,731,731,7221 North West 86 Terrace,MO,64153
Pac Sun,Logan,736,736,1300 North Main Street,UT,84341
Pac Sun,Maple Grove,738,738,12465 Elm Creek Blvd.,MN,55369
Pac Sun,Hillsboro,739,739,2270 N W Allie Avenue,OR,97124
Pac Sun,Beaverton,743,743,3195 SW Cedar Hills Blvd.,OR,97005
Pac Sun,Valdosta,747,747,1700 Norman Dr.,GA,31601
Pac Sun,Harrisonburg,749,749,1925 E. Market Street,VA,22801
Pac Sun,Virginia Beach,751,751,4554 Virginia Beach Blvd,VA,23462
Pac Sun,West Des Moines,752,752,101 Jordan Creek Parkway,IA,50266
Pac Sun,Fairview Heights,754,754,134 St. Clair Square,IL,62208
Pac Sun,Memphis,755,755,2760 N. Germantown Road,TN,38133
Pac Sun,San Antonio,768,768,15900 La Cantera Pkwy,TX,78256
Pac Sun,Honolulu,769,769,1450 Ala Moana Blvd,HI,96814
Pac Sun,Charlotte,775,775,6801 Northlake Mall Drive,NC,28216
Pac Sun,Caguas,778,778,"PR 52, Corner PR156",PR,725
Pac Sun,Manassas,779,779,8300 Sudley Road,VA,20109
Pac Sun,Algonquin,781,781,1916 S. Randall Road,IL,60102
Pac Sun,Tyler,782,782,4601 S. Broadway,TX,75703
Pac Sun,Yuma,784,784,1327 Yuma Palms Parkway,AZ,85364
Pac Sun,Hurst,785,785,1101 Melbourne Rd.,TX,76053
Pac Sun,Colorado Springs,788,788,750 Citadel Dr. East,CO,80909
Pac Sun,Metairie,789,789,3301 Veterans Memorial Blvd,LA,70002
Pac Sun,Daly City,791,791,26 Serramonte Center,CA,94015
Pac Sun,Ft. Lauderdale,799,799,2376 E. Sunrise Blvd.,FL,33304
Pac Sun,Isabella,800,800,3535 Military Avenue,PR,662
Pac Sun,Temple,801,801,3111 S. 31st Street,TX,76502
Pac Sun,Loveland,802,802,5897 Sky Pond Drive.,CO,80538
Pac Sun,San Angelo,804,804,4001 Sunset Drive,TX,76904
Pac Sun,Des-Peres,812,812,125 W County Center,MO,63131
Pac Sun,West Nyack,815,815,3340 Palisades Center Dr.,NY,10994
Pac Sun,Danville,817,817,325 Piedmont Drive,VA,24540
Pac Sun,Clovis,818,818,2809 North Prince Street,NM,88101
Pac Sun,Colonial Heights,819,819,56 Southpark Circle,VA,23834
Pac Sun,El Paso,820,820,750 Sunland Park Drive,TX,79912
Pac Sun,Stockton,822,822,5308 Pacific Avenue,CA,95207
Pac Sun,San Diego,824,824,321 Horton Plaza,CA,92101
Pac Sun,Monroe,825,825,2115 W. Roosevelt Blvd,NC,28110
Pac Sun,Hot Springs,829,829,4501 Central Avenue,AR,71913
Pac Sun,Federal Way,831,831,1927 S. Commons,WA,98003
Pac Sun,Viera,835,835,2251 Town Center Avenue,FL,32940
Pac Sun,Louisville,840,840,5000 Shelbyville Road,KY,40207
Pac Sun,Dallas,844,844,8687 North Central Expressway,TX,75225
Pac Sun,Gainesville,845,845,3964 SW Archer Road,FL,32608
Pac Sun,Garland,846,846,435 Cedar Sage Drive,TX,75040
Pac Sun,Plainfield,847,847,2798 Futura Park Way,IN,46168
Pac Sun,Fajardo,848,848,PR 3 Intersecting PR 940,PR,738
Pac Sun,Kansas City,849,849,1837 Village West Parkway,KS,66111
Pac Sun,Orange,850,850,20 City Boulevard West,CA,92868
Pac Sun,Reno,851,851,13985 South Virginia St,NV,89511
Pac Sun,Orange,852,852,1500 E. Village Way,CA,92865
Pac Sun,Norridge,853,853,4174-E North Harlem Avenue,IL,60706
Pac Sun,Chicago,854,854,410 Chicago Ridge Mall Drive,IL,60415
Pac Sun,Tempe,858,858,2000 E. Rio Salado Pkwy,AZ,85281
Pac Sun,Salem,861,861,831 Lancaster Drive NE,OR,97301
Pac Sun,San Jose,862,862,1600 Saratoga Avenue,CA,95129
Pac Sun,Dallas,864,864,13350 Dallas Parkway,TX,75240
Pac Sun,Auburn,868,868,550 Center Street,ME,4210
Pac Sun,Holmdel,871,871,2130 Route 35,NJ,7733
Pac Sun,National City,873,873,3030 Plaza Bonita Road,CA,91950
Pac Sun,Irvine,874,874,71 Fortune Drive,CA,92618
Pac Sun,Kaneohe,875,875,46-056 Kamehameha Hwy,HI,96744
Pac Sun,Branson,879,879,411 Branson Landing,MO,65616
Pac Sun,Kissimmee,880,880,3260 North John Young Pkwy,FL,34741
Pac Sun,Lawton,881,881,200 C Avenue,OK,73501
Pac Sun,Tarentum,882,882,590 Pittsburg Mills Circle,PA,15084
Pac Sun,Lakeland,885,885,1540 Town Center Drive,FL,33803
Pac Sun,Pueblo,888,888,3253 Dillion Drive,CO,81008
Pac Sun,Waterloo,890,890,2060 Crossroads Blvd,IA,50702
Pac Sun,Friendswood,891,891,1338 Baybrook Mall,TX,77546
Pac Sun,Monterey,895,895,1630 Del Monte Center,CA,93940
Pac Sun,Woodbury,901,901,9140 Hudson Road,MN,55125
Pac Sun,Murray,902,902,6191 S. State Street,UT,84107
Pac Sun,Kent,903,903,417 Ramsay Way,WA,98032
Pac Sun,Santa Barbara,909,909,319 Paseo Nuevo,CA,93101
Pac Sun,Fort Smith,910,910,5111 Rogers Ave.,AR,72903
Pac Sun,Santa Maria,913,913,166 Town Center East,CA,93454
Pac Sun,Beavercreek,918,918,4475 Glengarry Dr.,OH,45440
Pac Sun,Brighton,923,923,9640 Village Place Blvd,MI,48116
Pac Sun,Buena Park,926,926,8259 On the Mall,CA,90620
Pac Sun,Bolingbrook,927,927,623 E. Boughton Rd.,IL,60440
Pac Sun,Chino Hills,929,929,13920 City Center Drive,CA,91709
Pac Sun,Knoxville,932,932,11369 Parkside Dr.,TN,37934
Pac Sun,Snellville,972,972,1350 Scenic Highway,GA,30078
Pac Sun,Lehigh Valley,979,979,2880 Center Valley Pkwy,PA,18034
Pac Sun,Estero,981,981,23106 Fashion Drive,FL,33928
Pac Sun,Ridgeland,982,982,1200 E. County line Road,MS,39157
Pac Sun,Waikoloa,983,983,201 Waikoloa Beach Dr.,HI,96738
Pac Sun,Burleson,985,985,12910 South Freeway,TX,76028
Pac Sun,Glendale,987,987,2191 Glendale Galleria,CA,91210
Pac Sun,Grand Island,989,989,3404 W. 13th Street,NE,68803
Pac Sun,Santa Monica,994,994,1446 3rd Street Promenade,CA,90401
Pac Sun,Ontario,1000,1000,1 Mills Circle,CA,91764
Pac Sun,Sunrise,1001,1001,12801 W. Sunrise Blvd,FL,33323
Pac Sun,Grapevine,1003,1003,3000 Grapevine Mills Pkwy.,TX,76051
Pac Sun,Woodbridge,1004,1004,2700 Potomac Mills Circle,VA,22192
Pac Sun,Elizabeth,1005,1005,651 Kapkowski Road,NJ,7207
Pac Sun,Auburn Hills,1006,1006,4570 Baldwin Road,MI,48326
Pac Sun,Gurnee,1007,1007,6170 W. Grand Ave.,IL,60031
Pac Sun,Riverhead,1008,1008,1770 W. Main St.,NY,11901
Pac Sun,Concord,1009,1009,8111 Concord Mills Blvd.,NC,28027
Pac Sun,Central Valley,1010,1010,452 Evergreen Ct.,NY,10917
Pac Sun,Katy,1011,1011,5000 Katy Mills Circle,TX,77494
Pac Sun,Wrentham,1013,1013,1 Premium Outlets Blvd.,MA,2093
Pac Sun,Camarillo,1014,1014,690 Ventura Blvd.,CA,93010
Pac Sun,Myrtle Beach,1016,1016,4618 Factory Stores Blvd.,SC,29579
Pac Sun,Rehoboth Beach,1017,1017,36698 Bayside Outlet Dr.,DE,19971
Pac Sun,Foley,1018,1018,2601 S. Mc Kenzie St.,AL,36535
Pac Sun,Nashville,1019,1019,432 Opry Mills Drive,TN,37214
Pac Sun,Castle Rock,1022,1022,5050 Factory Shops Blvd,CO,80108
Pac Sun,Orlando,1023,1023,8200 Vineland Ave,FL,32821
Pac Sun,Dawsonville,1024,1024,800 Hwy 400 South,GA,30534
Pac Sun,Leesburg,1025,1025,241 Ft. Evans Road N.E.,VA,20176
Pac Sun,Folsom,1026,1026,13000 Folsom Blvd,CA,95630
Pac Sun,Orlando,1027,1027,4951 International Dr.,FL,32819
Pac Sun,St. Augustine,1028,1028,500 Prime Outlet Blvd.,FL,32095
Pac Sun,Woodburn,1029,1029,1001 Arney Road,OR,97071
Pac Sun,Las Vegas,1030,1030,7400 Las Vegas Blvd South,NV,89123
Pac Sun,Sevierville,1031,1031,1645 Parkway,TN,37862
Pac Sun,Carlsbad,1032,1032,5610 Paseo Del Norte,CA,92008
Pac Sun,Canovanas,1033,1033,KM 18.4 State Road,PR,729
Pac Sun,Kittery,1034,1034,375 US RTE 1,ME,3904
Pac Sun,Grove City,1035,1035,Intersection 79 & Route 208,PA,16127
Pac Sun,Howell,1036,1036,1475 N. Burkhart Road,MI,48855
Pac Sun,Milpitas,1037,1037,122 Great Mall Drive,CA,95035
Pac Sun,Tulare,1038,1038,1511 Retherford Street,CA,93274
Pac Sun,Alpine,1039,1039,5001 Willows Rd Exitalpine/Wil,CA,91901
Pac Sun,Gettysburg,1040,1040,1863 Gettysburg Village Dr,PA,17325
Pac Sun,Hanover,1041,1041,7000 Arundel Mills Circle,MD,21076
Pac Sun,Ellenton,1042,1042,5189 Factory Shops Blvd,FL,34222
Pac Sun,Bluffton,1045,1045,1414 Fording Island Rd,SC,29910
Pac Sun,Destin,1047,1047,10406 Emerald Coast Prkwy West,FL,32550
Pac Sun,North Conway,1048,1048,2 Common Court,NH,3860
Pac Sun,San Marcos,1049,1049,4015 I-35 South,TX,78666
Pac Sun,Lancaster,1050,1050,903 Stanley K Tanger Blvd,PA,17602
Pac Sun,San Diego,1052,1052,4321 Camino De La Plaza,CA,92173
Pac Sun,Osage Beach,1053,1053,4540 Highway 54,MO,65065
Pac Sun,Park City,1055,1055,6699 Landmark Drive,UT,84098
Pac Sun,Branson,1056,1056,300 Tanger Blvd,MO,65616
Pac Sun,Niagara Falls,1057,1057,1988 Military Road,NY,14304
Pac Sun,Lake George,1058,1058,Route 9,NY,12845
Pac Sun,Birch Run,1059,1059,8901 Marketplace Drive,MI,48415
Pac Sun,Lakewood,1061,1061,14500 West Colfax Ave,CO,80401
Pac Sun,Cabazon,1062,1062,48650 Seminole Drive,CA,92230
Pac Sun,Allen,1063,1063,820 W. Stacy Road,TX,75013
Pac Sun,Pismo Beach,1064,1064,333 Five Cities Drive,CA,93449
Pac Sun,Albertville,1065,1065,6415 LaBeaux Avenue NE,MN,55301
Pac Sun,Jeffersonville,1069,1069,8845 Factory Shops Blvd,OH,43128
Pac Sun,Atlantic City,1070,1070,10 N. Michigan Avenue,NJ,84016
Pac Sun,Waterloo,1075,1075,655 Route 318,NY,13165
Pac Sun,Gilroy,1076,1076,8155 Arroyo Circle,CA,95020
Pac Sun,Aurora,1077,1077,549 S. Chillicothe Rd.,OH,44202
Pac Sun,Jackson,1078,1078,537 Monmouth Road,NJ,8527
Pac Sun,Smithfield,1079,1079,1025 Industrial Park Dr.,NC,27577
Pac Sun,Auburn,1080,1080,1101 Outlet Collection Way,WA,98001
Pac Sun,Michigan City,1081,1081,213 Lighthouse Place,IN,46360
Pac Sun,Ocean City,1082,1082,12741 Ocean Gateway,MD,21842
Pac Sun,Aurora,1083,1083,1650 Premium Outlets Blvd.,IL,60502
Pac Sun,Silverthorne,1084,1084,145-D Stephens Way,CO,80498
Pac Sun,Tannersville,1085,1085,1000 Route 611,PA,18372
Pac Sun,City of Commerce,1089,1089,100 Citadel Dr,CA,90040
Pac Sun,Las Vegas,1090,1090,875 South Grand Central Pkwy,NV,89106
Pac Sun,Lake Elsinore,1091,1091,17600 Collier Avenue,CA,92530
Pac Sun,Barceloneta,1093,1093,One Prime Outlets Blvd.,PR,617
Pac Sun,Vacaville,1094,1094,238 Nut Tree Road,CA,95687
Pac Sun,Lee,1095,1095,180 Premium Blvd,MA,1238
Pac Sun,Tulalip,1097,1097,10600 Quil Ceda Blvd,WA,98271
Pac Sun,Primm,1098,1098,32100 Las Vegas Blvd. South,NV,89019
Pac Sun,Phoenix,1099,1099,4250 W. Anthem Way,AZ,85086
Pac Sun,Estero,1100,1100,10801 Corksew Road,FL,33928
Pac Sun,Petaluma,1101,1101,2200 Petaluma Blvd. North,CA,94952
Pac Sun,Tilton,1102,1102,120 Laconia Road,NH,3276
Pac Sun,Gaffney,1103,1103,140 Factory Shops Blvd,SC,29341
Pac Sun,Round Rock,1104,1104,4401 N. IH-35,TX,78664
Pac Sun,Medford,1105,1105,6750 W. Frontage,MN,55049
Pac Sun,Hershey,1106,1106,79 Outlet Square,PA,17033
Pac Sun,Miami,1108,1108,11401 NW 12th Street,FL,33172
Pac Sun,San Leanardo,1109,1109,1299 Marina Blvd.,CA,94577
Pac Sun,Deer Park,1110,1110,1542 The Arches Cirlce,NY,11729
Pac Sun,Baraboo,1111,1111,210 Gasser Rd.,WI,53913
Pac Sun,Hagerstown,1112,1112,660 Prime Outlets Blvd,MD,21740
Pac Sun,Clinton,1113,1113,20-A Killingworth Turnpike,CT,6413
Pac Sun,Pleasant Prairie,1114,1114,11601 108th st.,WI,53158
Pac Sun,Commerce,1117,1117,800 Steven B Tanger Blivd,GA,30529
Pac Sun,Mercedes,1119,1119,5001 E. Expressway 83,TX,78570
Pac Sun,Queenstown,1120,1120,125 Outlet Center Drive,MD,21658
Pac Sun,Gulfport,1121,1121,10330 Factory Shops Boulevard,MS,39501
Pac Sun,Lebanon,1122,1122,445 Outlet Village Blvd,TN,37090
Pac Sun,Hillsboro,1123,1123,104 NE 1-35,TX,76645
Pac Sun,Canutillo,1124,1124,7051 South Desert Blvd,TX,79835
Pac Sun,North Bend,1126,1126,461 South Fork Ave SW.,WA,98045
Pac Sun,Conroe,1127,1127,1111 League Line Rd.,TX,77303
Pac Sun,Locust Grove,1128,1128,1000 Tanger Drive,GA,30248
Pac Sun,Oshkosh,1129,1129,3001 S Washburn Street,WI,54904
Pac Sun,Washington,1131,1131,2200 Tanger Boulevard,PA,15301
Pac Sun,Limerick Township,1133,1133,18 Lightcap Rd,PA,19464
Pac Sun,Williamsburg,1140,1140,5555 Richmond Rd.,VA,23188
Pac Sun,Tinton Falls,1141,1141,One Premium Outlets Blvd.,NJ,7753
Pac Sun,Houston,1142,1142,29300 Hempstead Rd,TX,77433
Pac Sun,Monroe,1146,1146,123 Premium Outlet Drive,OH,45050
Pac Sun,Grand Prairie,1149,1149,2950 W. Interstate 20,TX,75052
Pac Sun,Freeport,1150,1150,1 Freeport Village Station,ME,4032
Pac Sun,Merrimack,1152,1152,80 Premium Outlets Blvd.,NH,3054
Pac Sun,Chesterfield,1153,1153,17033 N. Outer 40 Rd.,MO,63005
Pac Sun,Chesterfield,1154,1154,18521 Outlet Blvd,MO,63005
Pac Sun,Winter Garden,1202,1202,3047 Daniels Rd,FL,34787
Pac Sun,Westminster,1206,1206,14697 Delaware Street,CO,80020
Pac Sun,Tigard,1212,1212,9585 SW Washington Square Rd.,OR,97223
Pac Sun,San Antonio,1213,1213,7400 San Pedro,TX,78216
Pac Sun,Brentwood,1215,1215,2535 Sand Creek Rd,CA,94513
Pac Sun,Franklin,1218,1218,1800 Galleria Blvd,TN,37067
Pac Sun,Troy,1219,1219,2800 W. Big Beaver Rd.,MI,48084
Pac Sun,Wesley Chapel,1222,1222,28210 Paseo Dr.,FL,33543
