keywords,city,Aggdata Store Number,store_number,address,state,zip_code
Panda Express,Glendale,100,#100 100,3214 Glendale Galleria,CA,91210
Panda Express,Los Angeles,101,#101 101,10800 West Pico Blvd. #310,CA,90064
Panda Express,Redondo Beach,102,#102 102,1815 Hawthrone Bl. #312,CA,90278
Panda Express,Escondido,103,#103 103,200 E. Via Rancho Pkwy,CA,92025
Panda Express,Honolulu,106,#106 106,1450 Ala Moana Bl. #fc 1160-n,HI,96814
Panda Express,Santa Ana,108,#108 108,2800 N. Main St. #912,CA,92701
Panda Express,Victorville,109,#109 109,"14400 Bear Valley Road, #713",CA,92392
Panda Express,Jersey City,110,#110 110,30-303 Mall Drive W.,NJ,7310
Panda Express,San Francisco,112,#112 112,3251 20th Ave. #250h,CA,94132
Panda Express,Bakersfield,113,#113 113,2701 Ming Ave. Space # F-3,CA,93304
Panda Express,Arcadia,114,#114 114,745 W. Naomi Avenue,CA,91006
Panda Express,Westminster,117,#117 117,2105 Westminster Mall,CA,92683
Panda Express,Glendale,118,#118 118,1134 Glendale Galleria,CA,91210
Panda Express,Los Angeles,119,#119 119,3650 M.l.king Jr. Blvd #137,CA,90008
Panda Express,Brea,125,#125 125,2158 Brea Mall,CA,92821
Panda Express,Aiea,127,#127 127,98-1005 Moanalua Rd,HI,96701
Panda Express,Arlington,128,#128 128,1100 S. Hayes St. #m126,VA,22202
Panda Express,Culver City,129,#129 129,11030 W. Jefferson Blvd.,CA,90230
Panda Express,San Diego,131,#131 131,11986 Bernardo Plaza Drive,CA,92128
Panda Express,West Covina,132,#132 132,811 Plaza Drive,CA,91790
Panda Express,Rolling Hills,133,#133 133,#7 Peninsula Center,CA,90274
Panda Express,El Cajon,138,#138 138,705 Fletcher Parkway,CA,92020
Panda Express,Mesa,139,#139 139,6555-2506 East Southern Ave.,AZ,85206
Panda Express,Sherman Oaks,140,#140 140,14006 Riverside Dr. #254,CA,91423
Panda Express,Long Beach,143,#143 143,5945 E. Spring St.,CA,90808
Panda Express,Scottsdale,144,#144 144,7014 E. Camelback #569,AZ,85251
Panda Express,San Francisco,145,#145 145,865 Market Street,CA,94103
Panda Express,San Diego,147,#147 147,3850 Valley Ctr. Dr.,CA,92130
Panda Express,Baltimore,151,#151 151,825 Dulaney Valley R Rd. #362,MD,21204
Panda Express,Burbank,154,#154 154,1110 W. Alameda Ave.,CA,91506
Panda Express,Kihei,157,#157 157,1279 S. Kihei Road #102,HI,96753
Panda Express,Bloomington,158,#158 158,350 N. Garden,MN,55425
Panda Express,Bloomington,159,#159 159,374 South Ave.,MN,55425
Panda Express,West Hills,163,#163 163,6534 Platt Ave.,CA,91304
Panda Express,Albuquerque,170,#170 170,6600 Menaul Blvd. N.e. #40-1,NM,87110
Panda Express,Marina Del Rey,171,#171 171,4325 Glencoe Ave #c4,CA,90292
Panda Express,Los Angeles,175,#175 175,308 Westwood Plaza,CA,90024
Panda Express,Anaheim,178,#178 178,8010 Santa Ana Canyon Rd.,CA,92808
Panda Express,Rancho Mirage,179,#179 179,36101 Bob Hope,CA,92270
Panda Express,Santa Rosa,183,#183 183,2107 Santa Rosa Plaza,CA,95401
Panda Express,Honolulu,186,#186 186,333 Keahole St. #2c1,HI,96825
Panda Express,Santa Monica,187,#187 187,804 Montana Ave.,CA,90403
Panda Express,Mclean,190,#190 190,7941 L Tyson Comer Center,VA,22102
Panda Express,Tucson,191,#191 191,4500 N Oracle Box 454,AZ,85705
Panda Express,Pasadena,192,#192 192,218 S Lake Ave,CA,91101
Panda Express,South Pasadena,194,#194 194,1216 Fair Oaks Avenue,CA,91030
Panda Express,Sacramento,195,#195 195,545 Downtown Plaza Sp#2101,CA,95814
Panda Express,Denver,196,#196 196,8500 Pe√±a Boulevard,CO,80249
Panda Express,Barstow,197,#197 197,2801 Lenwood Rd,CA,92311
Panda Express,Encino,199,#199 199,17870 Ventura Blvd,CA,91316
Panda Express,Fairview Heights,204,#204 204,134 St Clair Square,IL,62208
Panda Express,Glendale,205,#205 205,7700 W Arrowhead Towne Ct,AZ,85308
Panda Express,Kapolei,206,#206 206,950 Farrington Highway,HI,96707
Panda Express,Lancaster,207,#207 207,44411 Valley Central Way,CA,93536
Panda Express,Boston,208,#208 208,800 Boylston Ave,MA,2199
Panda Express,Annapolis,214,#214 214,182 Annapolis Mall,MD,21401
Panda Express,Merced,216,#216 216,710 Merced Mall Suite D,CA,95340
Panda Express,Northridge,219,#219 219,18427-d Nordhoff St,CA,91325
Panda Express,Lombard,222,#222 222,203 Yorktown,IL,60148
Panda Express,Phoenix,225,#225 225,4550 E. Cactus Rd #cp-102,AZ,85032
Panda Express,La Mesa,226,#226 226,8011 University Ave,CA,91941
Panda Express,Denver,227,#227 227,8500 Pena Blvd,CO,80249
Panda Express,Santa Barbara,229,#229 229,605 Paseo Nuevo,CA,93101
Panda Express,Laguna Niguel,231,#231 231,32411 St Of The Golden Lantern,CA,92677
Panda Express,Niles,237,#237 237,288 Golf Mill Center,IL,60714
Panda Express,Pacific Palisades,240,#240 240,15207 Sunset Blvd,CA,90272
Panda Express,Henderson,243,#243 243,2667 E. Windmill Pkwy,NV,89014
Panda Express,Oxnard,246,#246 246,2121 N. Rose Ave. Suite 480,CA,93030
Panda Express,Santa Clarita,247,#247 247,25902 Mcbean Parkway #17,CA,91355
Panda Express,Los Angeles,248,#248 248,350 S. Grand Ave Suite R-1a,CA,90071
Panda Express,Fort Worth,254,#254 254,4800 South Hulen St #2110,TX,76132
Panda Express,Winchester,258,#258 258,1850 Apple Blossom Drive,VA,22601
Panda Express,Corvallis,259,#259 259,112 Memorial Union Commons,OR,97331
Panda Express,Santa Barbara,260,#260 260,University Center Bldg 558,CA,93106
Panda Express,Fresno,261,#261 261,8949 N. Cedar Av.,CA,93720
Panda Express,Kahului,268,#268 268,275 Kaahumanu Ave,HI,96732
Panda Express,Sherman Oaks,275,#275 275,14561 Ventura Bl.,CA,91403
Panda Express,Portland,277,#277 277,364 Maine Mall Rd,ME,4106
Panda Express,Long Beach,286,#286 286,6049 E. 7th Street,CA,90840
Panda Express,Wilmette,297,#297 297,3232 Lake Ave.,IL,60091
Panda Express,Chicago,299,#299 299,77 E. Adams,IL,60604
Panda Express,Los Angeles,304,#304 304,630 W. 5th Street,CA,90071
Panda Express,Long Beach,305,#305 305,4550 Atlantic Blvd.,CA,90807
Panda Express,Medford,316,#316 316,"3850 Mystic Valley Pkwy, #f-16",MA,2155
Panda Express,Tigard,317,#317 317,9641 S.w. Washington Sq. Rd.,OR,97223
Panda Express,Cedar Park,318,#318 318,11200 Lakestop Blvd. #vc-4,TX,78613
Panda Express,Portland,321,#321 321,7000 N. Airport Way #tf-3,OR,97218
Panda Express,Waipahu,322,#322 322,94-144 Farrington Hwy,HI,96797
Panda Express,San Diego,323,#323 323,3550 Murphy Canyon,CA,92123
Panda Express,Woodland Hills,325,#325 325,23381 Mulholland Dr.,CA,91364
Panda Express,High Point,326,#326 326,921 Eastchester Dr. Ste #2210,NC,27262
Panda Express,Lynnwood,329,#329 329,"3000 184th St., Sw #830",WA,98037
Panda Express,Coral Gables,331,#331 331,Chartwells - Univ Of Miami,FL,33124
Panda Express,Asheville,335,#335 335,3 South Tunnel Road #m-2,NC,28805
Panda Express,Montebello,351,#351 351,1632 Montebello Town Center,CA,90640
Panda Express,Henderson,352,#352 352,1300 Sunset Road Space #32833,NV,89014
Panda Express,Plantation,354,#354 354,8000 W. Broward Blvd,FL,33388
Panda Express,Studio City,355,#355 355,3728 Cahuenga Blvd,CA,91604
Panda Express,Manhattan Beach,356,#356 356,125 Sepulveda Blvd.,CA,90266
Panda Express,San Diego,358,#358 358,453 Horton Plaza,CA,92101
Panda Express,Littleton,363,#363 363,"8515 Park Meadows Dr Ste 3033,",CO,80124
Panda Express,Overland Park,364,#364 364,11515 W. 95th  H,KS,66214
Panda Express,Chicago,365,#365 365,110 W. Monroe,IL,60603
Panda Express,Granada Hills,366,#366 366,16830 San Fernando Mission Bl.,CA,91344
Panda Express,Riverside,368,#368 368,1299 Galleria @tyler,CA,92503
Panda Express,Torrance,378,#378 378,24325 Crenshaw Blvd,CA,90505
Panda Express,Ames,379,#379 379,2229 Lincoln Way,IA,50011
Panda Express,El Cajon,380,#380 380,13439 Camino Canada,CA,92021
Panda Express,Naples,382,#382 382,1852 N.tamiami Trail,FL,34102
Panda Express,Mishawaka,384,#384 384,6501 North Graperd.,IN,46544
Panda Express,Ontario,385,#385 385,1 Mill Circle Space F3,CA,91764
Panda Express,Hesperia,386,#386 386,14799 Bear Valley Rd,CA,92345
Panda Express,San Francisco,387,#387 387,500 Parnassus Ave J Level,CA,94143
Panda Express,San Mateo,388,#388 388,44 Hillsdale Mall Space 6090,CA,94403
Panda Express,Chicago,389,#389 389,100 W. Randolph C#17,IL,60601
Panda Express,Lewisville,390,#390 390,2401 S. Stemmons Fwy,TX,75067
Panda Express,Carlsbad,393,#393 393,2560 El Camino Real,CA,92008
Panda Express,Saginaw,397,#397 397,4787 Fashion Squaremall,MI,48604
Panda Express,Mesa,401,#401 401,2106 Fiesta Mall,AZ,85202
Panda Express,Appleton,402,#402 402,4301 W. Wisconsin Ave.,WI,54915
Panda Express,Grapevine,411,#411 411,3000 Grapevine Mills Parkway,TX,76051
Panda Express,Los Angeles,412,#412 412,2204 Sawtelle Blvd.,CA,90064
Panda Express,Seattle,413,#413 413,555 Northgate Way #424,WA,98125
Panda Express,San Diego,415,#415 415,"4545 La Jolla Village Dr.,",CA,92122
Panda Express,Daly City,417,#417 417,86 Serramonte Center #703,CA,94015
Panda Express,Las Vegas,421,#421 421,1940 Village Ctr Crl,NV,89134
Panda Express,Chicago Ridge,423,#423 423,482 Chicago Ridge Mall,IL,60415
Panda Express,Downers Grove,425,#425 425,Downers Grve Mkt 74 Ogden Ave.,IL,60515
Panda Express,Granada Hills,426,#426 426,18080 Chatsworth St. #b,CA,91344
Panda Express,Napa,427,#427 427,255 Soscol Ave.,CA,94559
Panda Express,Tucson,429,#429 429,7401 N La Cholla Blv Suite 139,AZ,85741
Panda Express,Chatsworth,433,#433 433,20515 Devonshire St.,CA,91311
Panda Express,Rancho Cucamonga,434,#434 434,12629 Foothill Blvd.,CA,91739
Panda Express,Los Angeles,435,#435 435,2828 S. Figueroa St.,CA,90007
Panda Express,Fort Wayne,436,#436 436,4201 Cold Water Rd.,IN,46805
Panda Express,Coralville,437,#437 437,1451 Coral Ridge Ave.,IA,52241
Panda Express,Anaheim,439,#439 439,3rd Base,CA,92803
Panda Express,Primm,440,#440 440,"Buffalo Bills Casnoi-15,",NV,89019
Panda Express,Rancho Santa Margarita,443,#443 443,22451 Antonio Pkwy,CA,92688
Panda Express,W Des Moines,445,#445 445,1551 Valley West Dr.,IA,50266
Panda Express,Phoenix,447,#447 447,7000 16th St. #100,AZ,85020
Panda Express,Las Vegas,448,#448 448,1980 S. Rainbow Blvd #102,NV,89146
Panda Express,Anaheim,449,#449 449,2000 Gene Autry Way,CA,92803
Panda Express,Las Vegas,450,#450 450,2288 S.nellis Blvd Suite 2,NV,89104
Panda Express,San Diego,451,#451 451,1702 Garnet Street,CA,92109
Panda Express,Provo,455,#455 455,1200 Towne Centre #2072,UT,84601
Panda Express,Long Beach,456,#456 456,7549 Carson Blvd. #fc8,CA,90822
Panda Express,Sacramento,457,#457 457,1735 Arden Way,CA,95815
Panda Express,Simi Valley,458,#458 458,660 Los Angeles Ave,CA,93065
Panda Express,Anaheim,459,#459 459,2055 East Katella Av,CA,92803
Panda Express,Warwick,461,#461 461,400 Bald Hill Road #f10,RI,2886
Panda Express,Elk Grove,464,#464 464,9154 East Stockton 140,CA,95624
Panda Express,East Lansing,465,#465 465,125 Intl Centercrossroads Food,MI,48823
Panda Express,Kaneohe,466,#466 466,46047 Kamehameha Highway,HI,96744
Panda Express,Henderson,467,#467 467,1301 West Sunset Rd. C107,NV,89014
Panda Express,North Las Vegas,468,#468 468,1735 W. Craig Rd,NV,89032
Panda Express,Las Vegas,469,#469 469,4590 W. Sahara Ave. Sp#101,NV,89102
Panda Express,Auburn Hills,471,#471 471,4420 Baldwin Rd.,MI,48326
Panda Express,Las Vegas,473,#473 473,3999 Las Vegas Blvd. South,NV,89119
Panda Express,Fairfield,474,#474 474,3334 N. Texas St. Suite D,CA,94533
Panda Express,Livermore,480,#480 480,2100-a Portola Ave,CA,94550
Panda Express,Honolulu,481,#481 481,4211 Waialae Ave. A1&a2,HI,96816
Panda Express,Glendale,482,#482 482,249 N Glendale Ave,CA,91206
Panda Express,Simi Valley,487,#487 487,2667 Tapo Canyon Rd Food Court,CA,93063
Panda Express,Peoria,488,#488 488,7369 W. Bell Rd. Suite 1,AZ,85382
Panda Express,Merrillville,490,#490 490,2282 Southlake Mall,IN,46410
Panda Express,Champaign,491,#491 491,2000 N. Neil St,IL,61820
Panda Express,Las Vegas,496,#496 496,3318 E. Flamingo Rd. Suite A,NV,89121
Panda Express,Las Vegas,498,#498 498,3355 Las Vegas Blvd. South,NV,89109
Panda Express,Torrance,499,#499 499,3737 Pch Suite A,CA,90505
Panda Express,Encinitas,500,#500 500,1084 N. El Camino Real #e,CA,92024
Panda Express,Mesa,501,#501 501,1649 S. Stapley Dr. #103,AZ,85204
Panda Express,University Park,502,#502 502,7 Hub/robeson Center,PA,16802
Panda Express,Thousand Oaks,505,#505 505,2048 Avenida De Los Arboles,CA,91360
Panda Express,Salt Lake City,506,#506 506,6927 S. Park Centre Drive,UT,84121
Panda Express,Kaneohe,508,#508 508,46-056 Kamehameha Hw F-8,HI,96744
Panda Express,Phoenix,509,#509 509,3923 E. Thunderbird Rd. #111,AZ,85032
Panda Express,Portland,510,#510 510,12000 S.e. 82nd Ave. # 2177,OR,97266
Panda Express,Temecula,511,#511 511,40820 Winchester Rd,CA,92591
Panda Express,Boise,512,#512 512,350 N. Milwaukee,ID,83704
Panda Express,Rolling Meadows,515,#515 515,1454 Golf Rd.,IL,60008
Panda Express,Gurnee,516,#516 516,7105  Grand Ave.,IL,60031
Panda Express,Danville,517,#517 517,495 San Ramon Valley Blvd,CA,94526
Panda Express,Walnut Creek,518,#518 518,2280 Oak Grove Rd.,CA,94598
Panda Express,Canoga Park,521,#521 521,8201 Topanga Canyon Blvd.,CA,91304
Panda Express,Salt Lake City,522,#522 522,1126 E. 2100 South Suite B,UT,84106
Panda Express,Sandy,523,#523 523,10450 S. State St.,UT,84070
Panda Express,Carolina,524,#524 524,Pr-3 Corner Pr-8,PR,987
Panda Express,Orem,527,#527 527,494 E. 1300 South,UT,84097
Panda Express,Phoenix,528,#528 528,3013 W. Agua Fria Freeway C1-a,AZ,85027
Panda Express,Tempe,529,#529 529,1714 E. Guadalupe Rd,AZ,85283
Panda Express,Universal City,530,#530 530,1000 Universal Terrace Pkwy,CA,91608
Panda Express,Garden Grove,531,#531 531,11861 Valley View Blvd.,CA,92845
Panda Express,San Jose,532,#532 532,5180 Stevens Creek Road #e,CA,95129
Panda Express,Monrovia,533,#533 533,682 W. Huntington Dr.,CA,91016
Panda Express,Palmdale,534,#534 534,39450 10th St. West Suite C,CA,93551
Panda Express,West Jordan,537,#537 537,6910 S. Redwood Rd. Space A,UT,84084
Panda Express,Lafayette,538,#538 538,3608 Mt. Diablo Blvd Bldg B,CA,94549
Panda Express,Saint George,539,#539 539,245 N. Red Cliffs Dr #15,UT,84790
Panda Express,Costa Mesa,540,#540 540,2701 B Harbor Blvd.,CA,92626
Panda Express,Phoenix,541,#541 541,3923 E. Thomas Rd. Phase 4,AZ,85018
Panda Express,San Diego,542,#542 542,120 Washington St.,CA,92103
Panda Express,Fullerton,543,#543 543,150 E. Orangethorpe Ave.,CA,92832
Panda Express,Westminster,544,#544 544,8461 Church Ranch Blvd,CO,80020
Panda Express,Highlands Ranch,545,#545 545,9563 South University Blvd.,CO,80126
Panda Express,San Diego,546,#546 546,12030 Scripps Summit Drive,CA,92131
Panda Express,Caguas,550,#550 550,Carr.30 Esq Rafaelcordero Ave,PR,725
Panda Express,Forsyth,554,#554 554,1085 Hickory Point Mall,IL,62535
Panda Express,Phoenix,555,#555 555,903 E. Bell Rd #101,AZ,85022
Panda Express,Las Vegas,556,#556 556,5516 Boulder Hghway,NV,89122
Panda Express,Costa Mesa,560,#560 560,2300 Harbor Blvd Suite N-8,CA,92626
Panda Express,Fresno,562,#562 562,7685 N. Blackstone Ave.,CA,93720
Panda Express,Las Vegas,564,#564 564,820 S. Rampart Blvd.,NV,89145
Panda Express,South Gate,565,#565 565,8616 Garfield Ave,CA,90280
Panda Express,Olympia,566,#566 566,4210 Martin Way Se #107,WA,98516
Panda Express,Fresno,567,#567 567,5638 E Kings Canyon,CA,93727
Panda Express,Henderson,568,#568 568,2654 W. Horizon Ridg E Parkway,NV,89052
Panda Express,Mission Viejo,569,#569 569,27000 Crown Valley Parkway,CA,92691
Panda Express,Albuquerque,571,#571 571,2760 Coors Blvd N.w.,NM,87120
Panda Express,Lynnwood,574,#574 574,1402 164th St. Sw #301,WA,98037
Panda Express,Canoga Park,575,#575 575,6859 Topanga Canyon Blvd.,CA,91303
Panda Express,Gresham,578,#578 578,1089 N.w. Civic Dr. #j1,OR,97030
Panda Express,Albuquerque,579,#579 579,1408 Mercantile Ave,NM,87107
Panda Express,Las Vegas,581,#581 581,5111 Boulder Highway,NV,89122
Panda Express,Las Vegas,582,#582 582,3840 E. Sunset Road,NV,89120
Panda Express,Saint Charles,583,#583 583,110 S. Kirk Rd.,IL,60175
Panda Express,Gaithersburg,585,#585 585,701 Russel Lane Fc-108,MD,20877
Panda Express,Mesa,586,#586 586,1959 South Power Rd. Space#107,AZ,85208
Panda Express,Pomona,587,#587 587,3801 W.temple Ave- Bldg.97,CA,91768
Panda Express,Tucson,590,#590 590,1303 E University Blvd,AZ,85719
Panda Express,Chicago,591,#591 591,302 S. Wells,IL,60610
Panda Express,Okemos,593,#593 593,1982 Grand Rivermall,MI,48864
Panda Express,Glendale,594,#594 594,20020 N. 59th Ave. Space# 101,AZ,85308
Panda Express,Burbank,595,#595 595,201 E. Magnolia Blvd,CA,91501
Panda Express,Las Vegas,596,#596 596,9795 W. Charleston Blvd.,NV,89117
Panda Express,Spokane,599,#599 599,808 W. Main St. Space Fc-4,WA,99201
Panda Express,Salinas,600,#600 600,1340 Northridge Mall,CA,93906
Panda Express,Frisco,602,#602 602,3511 Preston Road Suite #1,TX,75034
Panda Express,Selma,605,#605 605,8250 Agora Parkway #148,TX,78154
Panda Express,La Mesa,606,#606 606,"5500 Grossmont Cntr Drive,",CA,91942
Panda Express,Rocklin,609,#609 609,2210 Sunset Blvd. Space# 100,CA,95765
Panda Express,Murray,610,#610 610,5888 South State Street,UT,84107
Panda Express,Taylorsville,611,#611 611,5594 S Redwood Road,UT,84123
Panda Express,San Antonio,613,#613 613,11619 Bandera Road #101,TX,78250
Panda Express,Meridian,615,#615 615,1500 North Eagle Rd.,ID,83642
Panda Express,Santa Fe,616,#616 616,3522 Zafarano Dr. Suite F1,NM,87505
Panda Express,Culver City,618,#618 618,3812 Midway,CA,90232
Panda Express,Citrus Heights,619,#619 619,5871 Sunrise Blvd,CA,95610
Panda Express,Henderson,620,#620 620,2300 Paseo Verde #2006,NV,89012
Panda Express,Las Vegas,621,#621 621,4321 West Flamingo Road #1241,NV,89103
Panda Express,Folsom,625,#625 625,1840 Prairie City Rd #300,CA,95630
Panda Express,Chandler,626,#626 626,3111 West Chandler Blvd,AZ,85226
Panda Express,Surprise,627,#627 627,13732 W. Bell Rd. Space# 16,AZ,85374
Panda Express,Tucson,628,#628 628,2485 N. Swan Rd. Space# 101,AZ,85712
Panda Express,Dallas,629,#629 629,17602 Midway Road,TX,75287
Panda Express,Salt Lake City,630,#630 630,140 South Rio Grande St.,UT,84101
Panda Express,Mesa,631,#631 631,3440 East Baseline Road,AZ,85204
Panda Express,Southlake,632,#632 632,215 North Kimball Ave.,TX,76092
Panda Express,Santa Clara,633,#633 633,2855 Stevens Creek Blvd,CA,95050
Panda Express,Carlsbad,635,#635 635,6951 El Camino Real,CA,92009
Panda Express,Valencia,636,#636 636,26101 Magic Mountain Parkway,CA,91355
Panda Express,San Bernardino,638,#638 638,745 E. Hospitality Lane,CA,92408
Panda Express,Portland,639,#639 639,10090 S.e. Washington St. #120,OR,97216
Panda Express,Phoenix,640,#640 640,21001 Tatum Blvd,AZ,85050
Panda Express,Lafayette,641,#641 641,2415 Sagamore Pkwy.,IN,47905
Panda Express,Las Vegas,642,#642 642,4949 North Rancho Drive,NV,89130
Panda Express,Santa Clarita,643,#643 643,26447 Bouquet Canyon Road,CA,91350
Panda Express,Lakewood,644,#644 644,7660 W. Virginia Ave Unit D,CO,80226
Panda Express,Burbank,647,#647 647,1541 N. Victory Pl.,CA,91506
Panda Express,Petaluma,648,#648 648,301 S. Mcdowell Blvd Space #a,CA,94952
Panda Express,Fullerton,649,#649 649,1931 W. Malvern Ave.,CA,92833
Panda Express,La Habra,650,#650 650,1350 S Beach Blvd Suite A,CA,90631
Panda Express,Henderson,651,#651 651,591 College Drive Suite #d,NV,89015
Panda Express,Las Vegas,655,#655 655,3825 South Maryland Pky,NV,89119
Panda Express,Modesto,657,#657 657,801 Oakdale Road Space #b-1,CA,95354
Panda Express,Modesto,658,#658 658,3801 Pelandale Dr. Suite A-3,CA,95356
Panda Express,Chino Hills,659,#659 659,4200 Chino Hills Pkwy.,CA,91709
Panda Express,Los Angeles,660,#660 660,727 North Vine St.,CA,90038
Panda Express,Albuquerque,662,#662 662,2820 Central Ave S.e.,NM,87106
Panda Express,Lawrenceville,664,#664 664,5900 Sugarloaf Parkway #fc-5.,GA,30043
Panda Express,Elk Grove Village,669,#669 669,930 Busse Rd.,IL,60007
Panda Express,Littleton,674,#674 674,5350 South Santa Fe Drive,CO,80120
Panda Express,Cerritos,676,#676 676,11449 South Street,CA,90703
Panda Express,Lombard,677,#677 677,411 E. Roosevelt Rd.,IL,60148
Panda Express,Norcross,680,#680 680,3200 Holcomb Bridge Rd.,GA,30092
Panda Express,Mission Viejo,681,#681 681,26022 Margerite Pkwy,CA,92692
Panda Express,Falls Church,682,#682 682,3071 Gatehouse Plaza,VA,22042
Panda Express,Media,685,#685 685,1067 W. Baltimore Pike,PA,19063
Panda Express,Parker,686,#686 686,11153 South Parker Rd. Unite D,CO,80134
Panda Express,Colorado Springs,687,#687 687,3560 East Woodmen Rd Suite 140,CO,80920
Panda Express,Bakersfield,689,#689 689,9200 Rosedale Highway #300,CA,93312
Panda Express,Laughlin,690,#690 690,1900 S. Casino Dr.,NV,89029
Panda Express,Wheeling,691,#691 691,300 E. Dundee Rd.,IL,60090
Panda Express,Riverside,692,#692 692,9867 Magnolia Ave. Suite A,CA,92503
Panda Express,Beaverton,694,#694 694,11490 Sw Canyon Rd #100,OR,97005
Panda Express,Kennesaw,695,#695 695,741 Townpark Lane Suite 10,GA,30144
Panda Express,Santa Ana,696,#696 696,2130 S. Bristol St. Space #b,CA,92704
Panda Express,Rosemont,697,#697 697,7028 N. Mannheim Rd.,IL,60018
Panda Express,Ventura,698,#698 698,1722 Victoria Ave Space C,CA,93003
Panda Express,Colorado Springs,700,#700 700,1320 Garden Of The Gods Road,CO,80907
Panda Express,North Saint Paul,701,#701 701,3001 White Bear Ave,MN,55109
Panda Express,Park City,702,#702 702,1748 W. Redstone Ctr Drive,UT,84098
Panda Express,Henderson,703,#703 703,641 Marks Street Suite D,NV,89014
Panda Express,Columbus,704,#704 704,120 Easton Town Center,OH,43219
Panda Express,Fresno,705,#705 705,3698 West Shaw Ave,CA,93711
Panda Express,Austin,707,#707 707,500 W. Canyon Ridge Dr. #l100,TX,78753
Panda Express,Tumwater,708,#708 708,575 Trosper Road Sw Suite A,WA,98512
Panda Express,Rockford,709,#709 709,7200 Harrison Ave.space #fc-3,IL,61112
Panda Express,Caguas,710,#710 710,Highway Pr 52 Bocanabon,PR,725
Panda Express,Thornton,711,#711 711,901 East 120th Ave. Unit A,CO,80233
Panda Express,San Jose,713,#713 713,4898 San Felipe Rd Suite 140,CA,95135
Panda Express,Euless,714,#714 714,1301 West Glade Suite 136,TX,76039
Panda Express,El Cajon,715,#715 715,131 Broadway Ave. Suite 1,CA,92021
Panda Express,Hemet,717,#717 717,2350 West Florida Ave,CA,92545
Panda Express,San Jose,719,#719 719,171 Branham Lane Suite 7,CA,95136
Panda Express,Las Vegas,720,#720 720,4780 W. Tropicana Ave.,NV,89103
Panda Express,Denver,721,#721 721,9500 East Hampden Ave. #d,CO,80231
Panda Express,Glendale,723,#723 723,561 North Glendale Ave,CA,91206
Panda Express,Provo,724,#724 724,1240 N. University Ave,UT,84604
Panda Express,Palmdale,725,#725 725,37134 47th Street E.,CA,93552
Panda Express,La Canada,726,#726 726,700 Foothill Blvd.,CA,91011
Panda Express,Aliso Viejo,727,#727 727,26841 Aliso Creek Dr Space A,CA,92656
Panda Express,San Diego,728,#728 728,1570  Camino De La Reina #d,CA,92108
Panda Express,Carlsbad,729,#729 729,5630 Paseo Del Norte #141,CA,92008
Panda Express,Westlake Village,730,#730 730,5752 Lindero Canyon,CA,91361
Panda Express,Huntington Beach,731,#731 731,18575 Beach Blvd.,CA,92648
Panda Express,Clovis,733,#733 733,1805 Herndon Ave #c,CA,93611
Panda Express,San Jose,734,#734 734,2980 E. Capitol Expressway,CA,95148
Panda Express,Independence,735,#735 735,18813 E. 39th St. S,MO,64057
Panda Express,Bullhead City,737,#737 737,2840 Highway 95 #102,AZ,86442
Panda Express,Vista,738,#738 738,20 Main St.,CA,92084
Panda Express,Santee,739,#739 739,9862 Mission Gorge Rd. #g,CA,92071
Panda Express,Logan,740,#740 740,545 East 1400 North Suite 100,UT,84341
Panda Express,Frederick,741,#741 741,5281 Buckeystown Pike,MD,21703
Panda Express,Eugene,742,#742 742,293 Valley River Ctr,OR,97401
Panda Express,Oceanside,744,#744 744,4121 Oceanside Blvd Suite 200,CA,92056
Panda Express,Rancho Mirage,745,#745 745,34151 Monterey Ave. #105,CA,92270
Panda Express,Hayward,748,#748 748,783 A Street,CA,94541
Panda Express,Draper,749,#749 749,64 East 12300 South St.,UT,84020
Panda Express,Glendale,751,#751 751,9524 W. Camelback Rd Space 180,AZ,85308
Panda Express,San Jose,752,#752 752,1320 El Paseo De Saratoga,CA,95130
Panda Express,Las Vegas,753,#753 753,7560 West Lakemead Blvd,NV,89128
Panda Express,Fairfield,754,#754 754,1630 Gateway Blvd Suite A,CA,94533
Panda Express,Mesa,755,#755 755,2015 N. Power Road #106,AZ,85215
Panda Express,Matteson,757,#757 757,4700 W. Lincolnhwy.,IL,60443
Panda Express,San Diego,758,#758 758,4371 University Ave. Suite 100,CA,92105
Panda Express,Fontana,759,#759 759,7376 Cherry Ave,CA,92336
Panda Express,Denver,760,#760 760,7507 E 36th Avenue Suite 103,CO,80207
Panda Express,Truckee,761,#761 761,11262 Donner Pass Road Suite B,CA,96161
Panda Express,Camarillo,762,#762 762,2500 Las Posas Rd. #f,CA,93010
Panda Express,Phoenix,763,#763 763,7510 West Thomas Rd.,AZ,85033
Panda Express,Escondido,764,#764 764,1485 E. Valley Parkway,CA,92027
Panda Express,San Diego,765,#765 765,3146 Sports Arena Blvd. #2,CA,92110
Panda Express,Dublin,766,#766 766,6851 Amador Plaza Rd Space 101,CA,94568
Panda Express,Lakewood,767,#767 767,14500 West Colfax Avenue #fc-8,CO,80401
Panda Express,San Marcos,769,#769 769,670 W. San Marcos Blvd.,CA,92069
Panda Express,Peoria,770,#770 770,7521 W. Cactus Road Space 104,AZ,85381
Panda Express,San Leandro,771,#771 771,1271 Marina Blvd,CA,94577
Panda Express,Janesville,772,#772 772,2500 Milton Ave.,WI,53545
Panda Express,Plainfield,773,#773 773,2667 E. Main St.,IN,46168
Panda Express,Universal City,775,#775 775,Food Distribution Center,CA,91608
Panda Express,Reno,776,#776 776,5140 Kietzke Lane Suite E,NV,89509
Panda Express,Sparks,777,#777 777,745 Sparks Blvd #105,NV,89434
Panda Express,Avondale,778,#778 778,10110 Mcdowell #150,AZ,85323
Panda Express,West Jordan,780,#780 780,3758 West 7800 South #c,UT,84088
Panda Express,Pleasant Grove,781,#781 781,148 S. Pleasant Grove Blvd,UT,84062
Panda Express,Chandler,782,#782 782,1020 E. Pecos Road #9,AZ,85225
Panda Express,Long Beach,783,#783 783,501 Long Beach Blvd.,CA,90802
Panda Express,San Diego,784,#784 784,9211 Clairemont Mesa Blvd.,CA,92123
Panda Express,Turlock,785,#785 785,3180 Country Side Dr,CA,95380
Panda Express,La Jolla,786,#786 786,9500 Gilman Drive,CA,92093
Panda Express,Troy,787,#787 787,498-e West Fourteenmile Rd.,MI,48083
Panda Express,Phoenix,788,#788 788,10637 N Tatum Blvd #105,AZ,85028
Panda Express,Antelope,789,#789 789,4141 Elverta Rd. Space # 10,CA,95843
Panda Express,Rosedale,790,#790 790,6419 Petrie Way,MD,21237
Panda Express,Palm Desert,791,#791 791,74520 Hwy. 111 #1,CA,92260
Panda Express,Los Angeles,792,#792 792,2919 Los Feliz Blvd #4,CA,90039
Panda Express,Rohnert Park,795,#795 795,431 Rohnert Park,CA,94928
Panda Express,Alhambra,796,#796 796,5 E. Main St.,CA,91801
Panda Express,Aurora,797,#797 797,14302 E. Cedar Ave. Unit A,CO,80012
Panda Express,Palm Desert,798,#798 798,72-840 Highway 111 Space 347,CA,92260
Panda Express,Las Vegas,799,#799 799,1263 E. Silverado Ranch Blvd,NV,89123
Panda Express,Lebec,800,#800 800,5810 Dennis Mccarthy Blvd,CA,93243
Panda Express,Valencia,801,#801 801,24201 West Valencia Blvd. #122,CA,91355
Panda Express,College Park,802,#802 802,University Of Maryland,MD,20742
Panda Express,Peoria,803,#803 803,20959 N 83rd Ave #106,AZ,85382
Panda Express,Lynwood,804,#804 804,10923 Atlantic Blvd.,CA,90262
Panda Express,Hebron,805,#805 805,"3087-a Termial Drive Space, A-004",KY,41048
Panda Express,Valencia,806,#806 806,26826 The Old Rd.,CA,91355
Panda Express,Tracy,807,#807 807,2441 N. Naglee Rd. Space# 7f,CA,95304
Panda Express,Pinole,808,#808 808,1473 Fitzgerald Dr. Suite 101,CA,94564
Panda Express,Saint George,809,#809 809,1091 N. Bluff St. Space# 104,UT,84770
Panda Express,Boise,810,#810 810,1124 N. Milwaukee,ID,83709
Panda Express,Chula Vista,811,#811 811,2295 Otay Lakes Rd,CA,91915
Panda Express,Peoria,812,#812 812,9230w. Northern Ave. Suite 101,AZ,85345
Panda Express,Gilbert,813,#813 813,756 South Gilbert Rd,AZ,85296
Panda Express,Largo,814,#814 814,881-i Capital Center Dr.,MD,20774
Panda Express,Spokane,815,#815 815,2223 W. Wellesley Rd Space A,WA,99205
Panda Express,Camarillo,816,#816 816,199 West Ventura Blvd,CA,93010
Panda Express,Vancouver,817,#817 817,8700 Ne Vancouver Mall Dr.,WA,98662
Panda Express,Bountiful,818,#818 818,245 West 500 South Space B,UT,84010
Panda Express,Colorado Springs,819,#819 819,2850 New Center Point Drive,CO,80922
Panda Express,Ogden,820,#820 820,206 E 12th Street Suite D,UT,84404
Panda Express,Goodyear,821,#821 821,1550 N. Dysart Rd. Sp. #a11,AZ,85338
Panda Express,Inglewood,822,#822 822,3351 W. Century Blvd Space 101,CA,90303
Panda Express,Livermore,825,#825 825,4223 First Street,CA,94551
Panda Express,Roseville,826,#826 826,970 Sunrise Ave Space #170,CA,95661
Panda Express,Guaynabo,827,#827 827,"State Road #20, Km 3.4",PR,970
Panda Express,Los Banos,830,#830 830,2108 Pacheco Blvd,CA,93635
Panda Express,Merced,832,#832 832,1786 W. Olive Ave.,CA,95348
Panda Express,Las Vegas,833,#833 833,3475 S. Las Vegas Boulevard,NV,89109
Panda Express,Temecula,834,#834 834,32195 Highway 79 Suite C,CA,92592
Panda Express,Lincoln,835,#835 835,1200 Athens Ave,CA,95648
Panda Express,Morgan Hill,836,#836 836,250 Cochrane Plaza,CA,95037
Panda Express,Bakersfield,837,#837 837,5120 Stockdale Hwy Space A,CA,93309
Panda Express,San Jose,838,#838 838,925 Blossom Hill Rd.,CA,95123
Panda Express,Stockton,839,#839 839,616 W. Hammer Ln. Space A,CA,95207
Panda Express,Hanford,840,#840 840,1690 W Lacey Blvd Space A,CA,93230
Panda Express,San Diego,841,#841 841,8118 Mira Mesa Blvd. Space A,CA,92126
Panda Express,Rancho Cucamonga,842,#842 842,8880 Foothill Blvd Space C-1,CA,91730
Panda Express,Antioch,844,#844 844,5789 Lone Tree Way Space B,CA,94509
Panda Express,San Francisco,845,#845 845,1480 Fillmore St.,CA,94115
Panda Express,Tooele,846,#846 846,1181 North Main Street,UT,84074
Panda Express,South Jordan,848,#848 848,10555 S. Redwood Rd. Suite B,UT,84095
Panda Express,West Sacramento,849,#849 849,735 Harbor Point Place,CA,95605
Panda Express,Modesto,850,#850 850,2053 Evergreen Ave,CA,95350
Panda Express,Las Vegas,851,#851 851,7017 Spring Mountain Road,NV,89117
Panda Express,Watauga,852,#852 852,8440 Denton Hwy,TX,76148
Panda Express,Alpharetta,854,#854 854,5230 Windward Parkway,GA,30004
Panda Express,West Valley City,856,#856 856,4645 South 4000 West Space A1,UT,84120
Panda Express,Riverdale,857,#857 857,4115 Riverdale Road Space A,UT,84405
Panda Express,Richmond,858,#858 858,11800 W. Broad St. Space 2084,VA,23233
Panda Express,Fresno,859,#859 859,2045 E. Shields Ave.,CA,93726
Panda Express,Santa Ana,860,#860 860,2270-2272 17th St.,CA,92705
Panda Express,San Luis Obispo,861,#861 861,789 E. Foothill Blvd,CA,93405
Panda Express,Santa Fe,862,#862 862,500 N. Guadalupe,NM,87501
Panda Express,Chandler,863,#863 863,975 E. Riggs Rd Space 1,AZ,85249
Panda Express,Long Beach,864,#864 864,1994 Ximeno Ave,CA,90815
Panda Express,Glendale,865,#865 865,4309 W. Bethany Home Rd,AZ,85301
Panda Express,Visalia,866,#866 866,4134 S. Mooney Blvd.,CA,93277
Panda Express,Lees Summit,867,#867 867,1684 Nw Chipman Road,MO,64081
Panda Express,Barstow,868,#868 868,1611 E. Main St.,CA,92311
Panda Express,North Las Vegas,870,#870 870,5595 Simmons St.,NV,89031
Panda Express,Irvine,871,#871 871,15333 Culver Drive Space #400,CA,92604
Panda Express,Las Vegas,874,#874 874,2625 S Eastern Ave.,NV,89102
Panda Express,Milpitas,875,#875 875,70 N. Milpitas Blvd.,CA,95035
Panda Express,Casa Grande,876,#876 876,1747 E. Florence Blvd.,AZ,85222
Panda Express,Walnut,877,#877 877,558 Grand Ave.,CA,91789
Panda Express,Gilroy,878,#878 878,6975 Camino Arroyo,CA,95020
Panda Express,Colorado Springs,879,#879 879,5071 N. Academy Blvd.,CO,80918
Panda Express,Mesa,881,#881 881,9115 E. Baseline Rd,AZ,85208
Panda Express,Glendale,882,#882 882,9111 North 59th Ave,AZ,85302
Panda Express,Laughlin,883,#883 883,10000 Aha Macar Parkway,NV,89029
Panda Express,Olympia,884,#884 884,625 Black Lake Blvd. Space Fc3,WA,98502
Panda Express,San Diego,885,#885 885,5500 Campanile Dr.,CA,92182
Panda Express,Ladera Ranch,886,#886 886,27602 Antionio Parkway,CA,92694
Panda Express,Stockton,887,#887 887,5350 Pacific Ave. Space J1,CA,95207
Panda Express,Covina,888,#888 888,980 Badillo St.,CA,91724
Panda Express,Las Vegas,889,#889 889,5130 S. Fort Apache Road.,NV,89148
Panda Express,Prescott Valley,890,#890 890,3140 N Glassford Hill Road,AZ,86314
Panda Express,North Las Vegas,891,#891 891,2101 Texas Star Lane,NV,89032
Panda Express,Riverside,892,#892 892,8974 Trautwein Road Space B,CA,92508
Panda Express,La Verne,893,#893 893,2371 Foothill Blvd.,CA,91750
Panda Express,Hazelwood,894,#894 894,5555 St. Louis Mills Blvd.,MO,63042
Panda Express,Orem,896,#896 896,80 East Center St.,UT,84057
Panda Express,Santa Barbara,897,#897 897,3849 State St. Space I-58,CA,93101
Panda Express,Santa Clarita,898,#898 898,26913 Sierra Hwy,CA,91321
Panda Express,Bayamon,901,#901 901,Caribbean Cinemas Bldg. #90,PR,961
Panda Express,Santa Rosa,903,#903 903,2020 Santa Rosa Ave.,CA,95407
Panda Express,Las Vegas,906,#906 906,3785 S. Las Vegas Blvd.,NV,89109
Panda Express,Burlingame,907,#907 907,1453 Burlingame Ave.,CA,94010
Panda Express,Mesquite,908,#908 908,1715 N. Town East Blvd.,TX,75150
Panda Express,Palm Springs,909,#909 909,425 S. Sunrise Way,CA,92262
Panda Express,Suwanee,910,#910 910,3585 Peachtree Parkway,GA,30024
Panda Express,San Antonio,912,#912 912,1803 Vance Jackson Px,TX,78213
Panda Express,Bell Gardens,913,#913 913,7000 Eastern Ave.,CA,90201
Panda Express,Waco,914,#914 914,5401 Bosque Blvd. Suite #100,TX,76710
Panda Express,Henderson,915,#915 915,120 E. Lake Mead Parkway,NV,89015
Panda Express,Sacramento,916,#916 916,4701 Madison Ave.,CA,95841
Panda Express,East Point,918,#918 918,3360 Shelby Lane Suite #1060,GA,30344
Panda Express,San Antonio,921,#921 921,3207 Se Military Dr #104,TX,78223
Panda Express,Lawndale,923,#923 923,15207 Hawthorne Blvd,CA,90260
Panda Express,Tucson,924,#924 924,9565 E. 22nd Street,AZ,85748
Panda Express,Roseville,925,#925 925,1450 Lead Hill Blvd,CA,95678
Panda Express,Las Vegas,926,#926 926,4416 E. Bonanza Blvd,NV,89110
Panda Express,Arroyo Grande,932,#932 932,1401 E. Grand Ave.,CA,93420
Panda Express,Carson City,934,#934 934,921 Topsy Lane,NV,89705
Panda Express,Clovis,939,#939 939,3170 N. Fowler Ave.,CA,93611
Panda Express,Oceanside,941,#941 941,1068 Mission Ave.,CA,92054
Panda Express,Roy,942,#942 942,1908 West 5600,UT,84067
Panda Express,Salinas,943,#943 943,1570 Constitution Blvd.,CA,93906
Panda Express,Catonsville,944,#944 944,5860 Baltimore National Pike,MD,21228
Panda Express,Thousand Oaks,945,#945 945,1744 Moorpark Rd,CA,91360
Panda Express,San Marcos,946,#946 946,708 Center Dr.,CA,92069
Panda Express,Phoenix,947,#947 947,"7000 E. Mayo, Suite 1026",AZ,85054
Panda Express,Los Angeles,948,#948 948,4947 Eagle Rock Blvd,CA,90041
Panda Express,Mesa,949,#949 949,4425 E. Mckellips Rd,AZ,85215
Panda Express,Brentwood,950,#950 950,3140 Balfour Rd.,CA,94513
Panda Express,Queen Creek,951,#951 951,8495 S. Power Road,AZ,85242
Panda Express,San Antonio,952,#952 952,1446  Austin Hwy.,TX,78209
Panda Express,Cathedral City,953,#953 953,68900 Ramon Rd,CA,92234
Panda Express,Phoenix,954,#954 954,401 E. Jefferson,AZ,85004
Panda Express,Cupertino,955,#955 955,21000 Stevens Creek Blvd,CA,95014
Panda Express,Bakersfield,957,#957 957,2200 Panama Lane,CA,93307
Panda Express,Tulare,958,#958 958,1196 E Prosperity,CA,93274
Panda Express,Manati,959,#959 959,State Rd Pr-2 Km,PR,674
Panda Express,Chula Vista,960,#960 960,1120 Broadway,CA,91911
Panda Express,College Station,961,#961 961,1400 Texas Ave. South,TX,77840
Panda Express,Clinton,962,#962 962,"8871 Branch Ave., Suite #e",MD,20735
Panda Express,Moreno Valley,963,#963 963,25970 Iris Ave.,CA,92551
Panda Express,Belvidere,964,#964 964,2510-2518 Pearl St.,IL,61008
Panda Express,Schiller Park,965,#965 965,10201 Belle Plaine A,IL,60176
Panda Express,Layton,966,#966 966,1950 North 1000 West,UT,84041
Panda Express,Snellville,967,#967 967,1830 Scenic Highway 124,GA,30078
Panda Express,Sacramento,970,#970 970,1802 19th Street,CA,95814
Panda Express,Pahrump,971,#971 971,280 S. Nevada Hwy 160,NV,89048
Panda Express,Hayward,972,#972 972,24387 Southland Dr.,CA,94545
Panda Express,Goleta,973,#973 973,131 N. Fairview Ave.,CA,93117
Panda Express,Fredericksburg,974,#974 974,1680 Carl D Silver Pky,VA,22401
Panda Express,Murrieta,975,#975 975,25312 Madison Ave.,CA,92562
Panda Express,Las Vegas,976,#976 976,6630 N. Durango Dr,NV,89149
Panda Express,Gurnee,977,#977 977,542 North Route 21,IL,60031
Panda Express,Mitchellville,978,#978 978,13710 Central Ave.,MD,20721
Panda Express,Lewisville,979,#979 979,101 N. Stemmons Fwy.,TX,75067
Panda Express,Seaside,981,#981 981,1968 Del Monte Ave,CA,93955
Panda Express,Redondo Beach,982,#982 982,417 N. Pacific Coast Hwy,CA,90277
Panda Express,Lilburn,983,#983 983,4875 Stone Mountain Hwy,GA,30047
Panda Express,Lewisville,985,#985 985,2325 S. Stemmons Fwy,TX,75067
Panda Express,Highland,986,#986 986,10329 Indianapolis Blvd.,IN,46322
Panda Express,Rancho Cucamonga,987,#987 987,12434 N. Main St.,CA,91739
Panda Express,Lancaster,988,#988 988,44421 20th Street East,CA,93535
Panda Express,Tucson,989,#989 989,1209 W. Irvington Road,AZ,85706
Panda Express,Wheaton,990,#990 990,264 Danada Square West,IL,60187
Panda Express,Universal City,991,#991 991,100 Universal City Plaza,CA,91608
Panda Express,Dallas,992,#992 992,5500 Greenville Lane,TX,75206
Panda Express,Fresno,993,#993 993,9423 N. Fort Washington Rd.,CA,93720
Panda Express,Fresno,994,#994 994,5280 North Jackson Ave.,CA,93740
Panda Express,Buena Park,995,#995 995,8317 La Palma Ave.,CA,90620
Panda Express,West Hills,996,#996 996,22910 W. Vanowen St.,CA,91307
Panda Express,Cedar Hill,997,#997 997,455 E. F.m. 1382,TX,75104
Panda Express,Vallejo,998,#998 998,972 Admiral Callaghan Lane,CA,94591
Panda Express,Austin,999,#999 999,11521 N. Fm. 620 Rd.,TX,78726
Panda Express,Duluth,1000,#1000 1000,2060 Pleasant Hill Road,GA,30096
Panda Express,Marin City,1001,#1001 1001,100 Donahue Street,CA,94965
Panda Express,Phoenix,1002,#1002 1002,2434 E. Baseline Rd Suite #101,AZ,85042
Panda Express,El Cerrito,1003,#1003 1003,5020 El Cerrito Plaza #e-2,CA,94530
Panda Express,Albuquerque,1004,#1004 1004,3703 Ellison Drive Nw,NM,87114
Panda Express,Bedford,1005,#1005 1005,2252 Central Drive,TX,76021
Panda Express,Cabazon,1006,#1006 1006,49500 Seminole Dr,CA,92230
Panda Express,Portland,1007,#1007 1007,1933 W. Burnside Street,OR,97209
Panda Express,Woodstock,1008,#1008 1008,12162 Highway 92,GA,30188
Panda Express,Carrollton,1009,#1009 1009,4105 N. Josey Lane,TX,75007
Panda Express,Northridge,1010,#1010 1010,19500 Plummer St,CA,91324
Panda Express,West Valley City,1011,#1011 1011,3051 S. Colt Plaza Dr,UT,84128
Panda Express,Murrieta,1012,#1012 1012,39112 Winchester Rd,CA,92563
Panda Express,Bakersfield,1013,#1013 1013,5041 Gosford Rd.,CA,93313
Panda Express,Northridge,1014,#1014 1014,17056 Devonshire St,CA,91325
Panda Express,Aurora,1015,#1015 1015,848 North Route 59,IL,60504
Panda Express,Lakewood,1016,#1016 1016,10417 Gravelly Lake Drive Sw,WA,98499
Panda Express,Allen,1017,#1017 1017,501 W. Mcdermott Drive,TX,75013
Panda Express,Baldwin Park,1018,#1018 1018,14480 Merced Ave,CA,91706
Panda Express,Universal City,1019,#1019 1019,100 Universal City Plaza,CA,91608
Panda Express,Burien,1020,#1020 1020,15842 1st Avenue South,WA,98148
Panda Express,Santa Rosa,1021,#1021 1021,2240 Mendocino Ave. Suite106,CA,95403
Panda Express,Oakland,1022,#1022 1022,8333 Oakport Street,CA,94621
Panda Express,Manteca,1023,#1023 1023,1467 Hulsey Way,CA,95336
Panda Express,Redmond,1024,#1024 1024,8867 161st Ave Ne,WA,98052
Panda Express,Garland,1025,#1025 1025,5345 North Garland Road,TX,75040
Panda Express,Mesa,1026,#1026 1026,1950 E. University Drive,AZ,85206
Panda Express,Cedar City,1027,#1027 1027,1872 West Cross Hollow Rd.,UT,84720
Panda Express,Solana Beach,1029,#1029 1029,689 Lomas Santa Fe Dr,CA,92075
Panda Express,Flower Mound,1030,#1030 1030,2521 Flower Mound Road,TX,75028
Panda Express,Oxnard,1031,#1031 1031,1671 E. Channel Islands Blvd,CA,93033
Panda Express,Torrance,1032,#1032 1032,3825 Torrance Blvd.,CA,90503
Panda Express,Tucson,1033,#1033 1033,1990 W. River Road,AZ,85704
Panda Express,Phoenix,1034,#1034 1034,2501 W. Happy Valley Road,AZ,85085
Panda Express,Higley,1035,#1035 1035,4984 S. Power Road,AZ,85236
Panda Express,Sherwood,1036,#1036 1036,21155 Sw Baler Way,OR,97140
Panda Express,Hinsdale,1037,#1037 1037,5800 W. Tri-state Toll Road,IL,60523
Panda Express,Lake Forest,1038,#1038 1038,13783 W. Oasis Service Rd.,IL,60045
Panda Express,Dekalb,1039,#1039 1039,2700 Crego Rd.,IL,60115
Panda Express,Albuquerque,1040,#1040 1040,9500 Montgomery Blvd. Ne,NM,87111
Panda Express,San Antonio,1041,#1041 1041,2221 Sw Military,TX,78224
Panda Express,Palmdale,1042,#1042 1042,39922 10th St West,CA,93551
Panda Express,South Holland,1043,#1043 1043,700 E. Tri-state,IL,60473
Panda Express,Sacramento,1044,#1044 1044,2940 Del Paso Road,CA,95834
Panda Express,North Hills,1045,#1045 1045,9008 Sepulveda Blvd.,CA,91343
Panda Express,Elk Grove,1046,#1046 1046,9304 Elk Grove Blvd,CA,95624
Panda Express,Gilbert,1047,#1047 1047,3765 S. Gilbert Road,AZ,85296
Panda Express,North Highlands,1048,#1048 1048,4985 Watt Ave,CA,95660
Panda Express,San Antonio,1049,#1049 1049,11220 Huebner Road,TX,78230
Panda Express,Suisun City,1050,#1050 1050,402 Lawler Center Drive,CA,94585
Panda Express,Wilsonville,1051,#1051 1051,8755 Sw Robert Burns Drive,OR,97070
Panda Express,American Fork,1052,#1052 1052,959 West State Street,UT,84003
Panda Express,Santa Clarita,1053,#1053 1053,28162 Newhall Ranch Road,CA,91350
Panda Express,Countryside,1054,#1054 1054,185 Countryside Plaza,IL,60525
Panda Express,Sherman,1055,#1055 1055,4030 North Us Highway 75,TX,75090
Panda Express,City Of Commerce,1056,#1056 1056,150 Citadel  Dr.  Fc-b,CA,90040
Panda Express,Orland Park,1058,#1058 1058,31 Orland Square Dr,IL,60462
Panda Express,Bakersfield,1059,#1059 1059,2659 Mt. Vernon Ave.,CA,93306
Panda Express,Yuma,1060,#1060 1060,1900 East 16th St,AZ,85365
Panda Express,Lake Elsinore,1061,#1061 1061,29255 Central Ave.,CA,92532
Panda Express,Duarte,1062,#1062 1062,904 Hamilton Rd,CA,91010
Panda Express,Los Angeles,1064,#1064 1064,10250 Santa Monica Blvd.,CA,90067
Panda Express,Tempe,1065,#1065 1065,777 S. College Ave.,AZ,85281
Panda Express,Orland Park,1066,#1066 1066,340 Orland Square,IL,60462
Panda Express,Watsonville,1067,#1067 1067,20 Ohlone Pkwy Space #202,CA,95076
Panda Express,San Bruno,1068,#1068 1068,1150 El Camino Real,CA,94066
Panda Express,Paso Robles,1070,#1070 1070,90 Niblick Road,CA,93446
Panda Express,San Antonio,1072,#1072 1072,10670 Culebra Road,TX,78251
Panda Express,Bellingham,1073,#1073 1073,1000 East Sunset Drive,WA,98226
Panda Express,Tacoma,1074,#1074 1074,6101 6th Ave,WA,98406
Panda Express,Storrs Mansfield,1075,#1075 1075,Student Union Building,CT,6268
Panda Express,Burbank,1076,#1076 1076,2585 N. Hollywood Way,CA,91505
Panda Express,Mansfield,1077,#1077 1077,1171 N. Hwy 287,TX,76063
Panda Express,Tucson,1078,#1078 1078,8140 N. Cortaro Road,AZ,85743
Panda Express,Higley,1079,#1079 1079,31 S. Higley Rd.,AZ,85236
Panda Express,Veradale,1080,#1080 1080,15603 E. Broadway Ave,WA,99037
Panda Express,Orlando,1081,#1081 1081,4064 Millenia Blvd.,FL,32839
Panda Express,Austell,1083,#1083 1083,275 Riverside Pkwy,GA,30168
Panda Express,Meridian,1084,#1084 1084,750 South Progress Ave.,ID,83642
Panda Express,Aurora,1085,#1085 1085,16891 East Quincy Ave.#a,CO,80012
Panda Express,Fountain Valley,1086,#1086 1086,"18011 Newhope Street, Suite #a",CA,92708
Panda Express,Saint Joseph,1087,#1087 1087,5301 North Belt Highway,MO,64506
Panda Express,Lynnwood,1088,#1088 1088,4120 196th St. Sw100,WA,98036
Panda Express,Pinellas Park,1090,#1090 1090,7000 Us Highway 19 N,FL,33781
Panda Express,Calumet City,1091,#1091 1091,1300 Torrence Ave,IL,60409
Panda Express,Davis,1092,#1092 1092,1491 West Covell Blvd.,CA,95616
Panda Express,Fresno,1093,#1093 1093,5347 North Blackstone Ave,CA,93710
Panda Express,Vancouver,1094,#1094 1094,408 Ne 78th St.,WA,98665
Panda Express,Canton,1095,#1095 1095,1401 Riverstone Pkwy.,GA,30114
Panda Express,Elk Grove,1097,#1097 1097,5010 Elk Grove Blvd.,CA,95624
Panda Express,Chula Vista,1098,#1098 1098,1820 Main Court,CA,91911
Panda Express,Phoenix,1099,#1099 1099,5010 W. Baseline Rd.,AZ,85042
Panda Express,Superior,1100,#1100 1100,301 Center Drive,CO,80027
Panda Express,Burleson,1101,#1101 1101,12862 South Freeway,TX,76028
Panda Express,Chicago,1102,#1102 1102,29 East Madison,IL,60602
Panda Express,Poway,1103,#1103 1103,13624 Poway Road,CA,92064
Panda Express,Brandon,1104,#1104 1104,501 Brandon Town Center,FL,33511
Panda Express,Vancouver,1105,#1105 1105,526 Se 192 Ave.,WA,98683
Panda Express,Yorba Linda,1106,#1106 1106,18503 Yorba Linda Blvd.,CA,92885
Panda Express,Lakewood,1107,#1107 1107,1509 Wadsworth Blvd.,CO,80214
Panda Express,Houston,1108,#1108 1108,15951 Fm529,TX,77095
Panda Express,Houston,1109,#1109 1109,10315 North Freeway,TX,77037
Panda Express,Portland,1110,#1110 1110,1440 N. Lombard St.,OR,97217
Panda Express,Carolina,1111,#1111 1111,Route 3 & Route 26,PR,983
Panda Express,Hayward,1113,#1113 1113,30158 Industrial Parkway,CA,94544
Panda Express,Las Vegas,1114,#1114 1114,11011 W. Charleston Blvd,NV,89135
Panda Express,Hillsboro,1115,#1115 1115,2785 Nw Town Center Drive,OR,97006
Panda Express,Newnan,1117,#1117 1117,1015 Bullsboro Rd.,GA,30265
Panda Express,Stone Mountain,1121,#1121 1121,6006 Memorial Drive,GA,30083
Panda Express,Smyrna,1122,#1122 1122,2654 Spring Road,GA,30080
Panda Express,Eugene,1123,#1123 1123,Erb Memorial Union 1228,OR,97403
Panda Express,Ann Arbor,1124,#1124 1124,2101 Bonisteel,MI,48109
Panda Express,El Cajon,1125,#1125 1125,190 North Magnolia Ave.,CA,92020
Panda Express,Clearwater,1126,#1126 1126,2670 Gulf To Bay Blvd.,FL,33759
Panda Express,Colorado Springs,1127,#1127 1127,750 Citadel Drive East,CO,80909
Panda Express,Moorpark,1128,#1128 1128,840 Los Angeles Ave.,CA,93021
Panda Express,Las Vegas,1129,#1129 1129,7470 S. Las Vegas Blvd,NV,89123
Panda Express,Lovejoy,1130,#1130 1130,11481 Tara Blvd,GA,30250
Panda Express,Garden City,1132,#1132 1132,6675 N. Glenwood St.,ID,83714
Panda Express,Las Vegas,1134,#1134 1134,2400 North Rancho Drive,NV,89130
Panda Express,Marietta,1135,#1135 1135,4275 Ne Roswell Rd.,GA,30062
Panda Express,Camp Hill,1136,#1136 1136,3301 Trindle Rd.,PA,17011
Panda Express,Roseville,1137,#1137 1137,3981 Foothills Blvd,CA,95747
Panda Express,Pleasant Hill,1138,#1138 1138,2380 Monument Boulevard,CA,94523
Panda Express,Hillsboro,1139,#1139 1139,21895 Nw Imbrie,OR,97124
Panda Express,Winter Garden,1140,#1140 1140,3154 Daniels Road,FL,34787
Panda Express,Irvine,1141,#1141 1141,2190 Barranca Pkwy,CA,92606
Panda Express,Moreno Valley,1142,#1142 1142,12610 Day Street,CA,92553
Panda Express,Lincoln,1143,#1143 1143,105 Ferrari Ranch Road,CA,95648
Panda Express,Redlands,1145,#1145 1145,2005 W. Redlands Blvd.,CA,92373
Panda Express,Houston,1146,#1146 1146,1250 Gulfgate Center Mall,TX,77087
Panda Express,Palm Desert,1147,#1147 1147,42175 Washington St.,CA,92211
Panda Express,Newark,1148,#1148 1148,1295 North 21st Street,OH,43055
Panda Express,Chicago,1149,#1149 1149,130 East Randolph,IL,60601
Panda Express,Arlington,1151,#1151 1151,4661 Little Road,TX,76017
Panda Express,Baltimore,1152,#1152 1152,6514 Riesterstown Rd.,MD,21215
Panda Express,Arlington,1153,#1153 1153,2220 S. E. Green Oaks Blvd.,TX,76018
Panda Express,Gilbert,1154,#1154 1154,2491 South Market Street,AZ,85297
Panda Express,Tucson,1155,#1155 1155,6370 East Golf Links Road,AZ,85730
Panda Express,Houston,1156,#1156 1156,12895 Farmer Market Road,TX,77065
Panda Express,Westerville,1157,#1157 1157,85 Maxtown,OH,43082
Panda Express,Albuquerque,1158,#1158 1158,838 Eubank Blvd.,NM,87123
Panda Express,Mckinney,1159,#1159 1159,6970 Virginia Pky,TX,75071
Panda Express,Venice,1160,#1160 1160,4201 Tamiami Trail,FL,34293
Panda Express,Covington,1161,#1161 1161,17335 Se 270th Place,WA,98042
Panda Express,Columbus,1162,#1162 1162,5299 North Hamilton Road,OH,43230
Panda Express,Grove City,1163,#1163 1163,1760 Stringtown Rd.,OH,43123
Panda Express,Largo,1164,#1164 1164,2200 East Bay Drive,FL,33771
Panda Express,Reynoldsburg,1165,#1165 1165,8064 East Broad St.,OH,43068
Panda Express,Katy,1166,#1166 1166,1325 Fry Road,TX,77449
Panda Express,Rockwall,1167,#1167 1167,2400 Horizon Rd,TX,75032
Panda Express,Humble,1168,#1168 1168,6946 Fm 1960 East,TX,77346
Panda Express,Downey,1170,#1170 1170,8510 Firestone Blvd.,CA,90241
Panda Express,Fort Worth,1171,#1171 1171,7554 Mc Cart Ave.,TX,76123
Panda Express,Kissimmee,1172,#1172 1172,1190 West Osceola Parkway,FL,34741
Panda Express,North Miami Beach,1174,#1174 1174,1405 Ne 163rd Rd.,FL,33162
Panda Express,Waxahachie,1176,#1176 1176,1330 Hwy 77 North,TX,75165
Panda Express,Sanford,1177,#1177 1177,1460 Rinehart Road,FL,32771
Panda Express,Arlington,1180,#1180 1180,1000 N. Collins,TX,76011
Panda Express,Fort Worth,1181,#1181 1181,8601 Anderson Blvd,TX,76120
Panda Express,Spokane,1182,#1182 1182,9522 N Newport Hwy,WA,99218
Panda Express,Federal Way,1183,#1183 1183,31827 Pacific Highway South,WA,98003
Panda Express,Buena Park,1184,#1184 1184,5825 Lincoln Avenue,CA,90620
Panda Express,Scottsdale,1185,#1185 1185,14850 N Frank Lloyd Wright Blv,AZ,85260
Panda Express,Darien,1187,#1187 1187,2423 75th St.,IL,60561
Panda Express,Davie,1188,#1188 1188,5820 South University Drive,FL,33328
Panda Express,Atlantic City,1190,#1190 1190,One Bogata Way,NJ,8401
Panda Express,Bullhead City,1192,#1192 1192,600 Highway 95,AZ,86442
Panda Express,Santa Rosa,1193,#1193 1193,740 Stony Point Road,CA,95407
Panda Express,Carson,1195,#1195 1195,20700 Avalon Blvd,CA,90746
Panda Express,Dallas,1196,#1196 1196,8687 North Central Expressway,TX,75225
Panda Express,Yuma,1197,#1197 1197,2495  South Avenue B,AZ,85364
Panda Express,Newbury Park,1201,#1201 1201,2690 Teller Road,CA,91320
Panda Express,Saint Peters,1203,#1203 1203,1194 Mid Rivers Mall Drive,MO,63376
Panda Express,Saginaw,1204,#1204 1204,1149 N. Saginaw Blvd.,TX,76179
Panda Express,Apopka,1206,#1206 1206,1710 South Orange Blossom,FL,32703
Panda Express,Palmdale,1207,#1207 1207,5025 West Avenue N,CA,93552
Panda Express,Kahului,1208,#1208 1208,55 Pakaula St,HI,96732
Panda Express,Federal Way,1209,#1209 1209,34919 Enchanted Parkway South,WA,98003
Panda Express,Brandon,1210,#1210 1210,1251 East Brandon Blvd,FL,33511
Panda Express,Los Angeles,1212,#1212 1212,5543 West Sunset Blvd.,CA,90028
Panda Express,Manhattan,1213,#1213 1213,K-state Student Union,KS,66506
Panda Express,Lincoln,1214,#1214 1214,6100 O St.,NE,68505
Panda Express,Tomball,1215,#1215 1215,14040 Fm 2920,TX,77377
Panda Express,Bolingbrook,1216,#1216 1216,781 E. Boughton Rd,IL,60440
Panda Express,Kapaa,1217,#1217 1217,4-831 Kuhio Highway,HI,96746
Panda Express,Chandler,1218,#1218 1218,4040 S Arizona Ave,AZ,85248
Panda Express,Lacey,1219,#1219 1219,1320 Marvin Rd. Ne  Space #a,WA,98509
Panda Express,Coeur D Alene,1220,#1220 1220,400 W. Wilbur Ave.,ID,83815
Panda Express,Salem,1221,#1221 1221,1910 Turner Road,OR,97302
Panda Express,Lady Lake,1222,#1222 1222,869 North Hwy 27/441,FL,32159
Panda Express,Phoenix,1223,#1223 1223,7630 West Lower Buckeye,AZ,85043
Panda Express,Pico Rivera,1224,#1224 1224,8640 E. Whittier Blvd,CA,90660
Panda Express,Stockton,1226,#1226 1226,10370 Trinity Parkway,CA,95219
Panda Express,Corona,1227,#1227 1227,441 Magnolia Ave,CA,92879
Panda Express,Castaic,1228,#1228 1228,31880 Castaic Road,CA,91384
Panda Express,Laurel,1231,#1231 1231,15102 Baltimore Ave.,MD,20707
Panda Express,Seattle,1232,#1232 1232,9999 Holman Rd,WA,98117
Panda Express,Plainfield,1233,#1233 1233,12632 S Route 59,IL,60544
Panda Express,Van Nuys,1234,#1234 1234,15303 Roscoe Blvd.,CA,91402
Panda Express,Vancouver,1235,#1235 1235,6617 Ne 84th St.,WA,98665
Panda Express,Rockford,1236,#1236 1236,7046 Walton St.,IL,61108
Panda Express,Murphy,1237,#1237 1237,160 W. Fm 544,TX,75094
Panda Express,Peachtree City,1238,#1238 1238,2707 West Highway 54,GA,30269
Panda Express,Mesa,1239,#1239 1239,1752 S. Signal Butte Rd.,AZ,85208
Panda Express,Saint Louis,1240,#1240 1240,1155 St. Louis Galleria,MO,63117
Panda Express,Chicago,1241,#1241 1241,113 South Clinton,IL,60601
Panda Express,Chesterfield,1242,#1242 1242,291 Chesterfield Mall,MO,63017
Panda Express,Katy,1243,#1243 1243,22169 Westheimer Parkway,TX,77450
Panda Express,League City,1244,#1244 1244,2930 South Gulf Freeway,TX,77573
Panda Express,Bakersfield,1245,#1245 1245,1400 Brundage Lane,CA,93304
Panda Express,Morgan Hill,1246,#1246 1246,216 Tennant Ave,CA,95037
Panda Express,Beaverton,1247,#1247 1247,8400 Sw Nimbus Ave,OR,97008
Panda Express,Atlanta,1248,#1248 1248,12700 Spine Road Sw,GA,30354
Panda Express,Acworth,1249,#1249 1249,3360 Cobb Parkway Nw,GA,30101
Panda Express,Las Vegas,1251,#1251 1251,4505 Maryland Parkway,NV,89154
Panda Express,Charlotte,1252,#1252 1252,101 Seneca Place,NC,28210
Panda Express,Redding,1253,#1253 1253,966 Dana Drive,CA,96003
Panda Express,San Jose,1254,#1254 1254,1720 Story Road,CA,95122
Panda Express,Vallejo,1255,#1255 1255,1001 Fairgrounds Dr,CA,94589
Panda Express,Houston,1257,#1257 1257,9319 Hwy. 6 South,TX,77083
Panda Express,Eugene,1260,#1260 1260,716 Seneca Road,OR,97402
Panda Express,Maricopa,1261,#1261 1261,20850 North John Wayne Parkway,AZ,85139
Panda Express,Vista,1262,#1262 1262,316 Sycamore Avenue,CA,92083
Panda Express,Shakopee,1263,#1263 1263,One Valley Fair Drive,MN,55379
Panda Express,Schertz,1264,#1264 1264,6030 Fm 3009,TX,78154
Panda Express,Dekalb,1266,#1266 1266,1015 West Lincoln Hwy,IL,60115
Panda Express,Kansas City,1267,#1267 1267,9241 Ne Hwy 152,MO,64158
Panda Express,Vancouver,1270,#1270 1270,13307 Ne Highway 99,WA,98686
Panda Express,Los Angeles,1271,#1271 1271,4700 West Pico Blvd.,CA,90019
Panda Express,Puyallup,1272,#1272 1272,16428 Meridian E.,WA,98375
Panda Express,Greensboro,1273,#1273 1273,4505 West Wendover Ave,NC,27409
Panda Express,Rosenberg,1274,#1274 1274,24622 Southwest Freeway,TX,77471
Panda Express,Fresno,1275,#1275 1275,2980 E. Nees Ave,CA,93720
Panda Express,Greeley,1276,#1276 1276,4542 Centerplace Drive,CO,80634
Panda Express,Hiram,1278,#1278 1278,4795 Jimmy Lee Smith Parkway,GA,30141
Panda Express,Compton,1279,#1279 1279,2187 W. Rosecrans Ave,CA,90220
Panda Express,Whitehall,1280,#1280 1280,3769 East Broad Street,OH,43213
Panda Express,Las Vegas,1281,#1281 1281,5881 West Craig Road,NV,89130
Panda Express,Honolulu,1282,#1282 1282,4847 Warden Avenue,HI,96818
Panda Express,Altadena,1283,#1283 1283,2234 Lincoln Avenue,CA,91001
Panda Express,Batavia,1284,#1284 1284,125 North Randall Road,IL,60510
Panda Express,Georgetown,1285,#1285 1285,1009 W. University Ave.,TX,78626
Panda Express,San Antonio,1286,#1286 1286,8303 State Highway 151,TX,78245
Panda Express,Round Rock,1287,#1287 1287,120 Louis Henna Blvd,TX,78664
Panda Express,Arlington,1288,#1288 1288,4900 S. Cooper St.,TX,76017
Panda Express,Austin,1289,#1289 1289,2501 West Parmer Lane,TX,78727
Panda Express,Everett,1291,#1291 1291,11610 Evergreen Way,WA,98204
Panda Express,Irvine,1292,#1292 1292,73 Fortune Drive #103,CA,92618
Panda Express,Hilo,1293,#1293 1293,368 E. Makaala Street,HI,96720
Panda Express,Ontario,1294,#1294 1294,1160 E. Philadelphia St.,CA,91761
Panda Express,Washington,1295,#1295 1295,3100 14th Street Nw,DC,20010
Panda Express,Canoga Park,1296,#1296 1296,6600 Topanga Canyon Blvd,CA,91303
Panda Express,Cypress,1297,#1297 1297,5353 Katella Ave,CA,90630
Panda Express,Joliet,1298,#1298 1298,3340 Mall Loop Drive,IL,60431
Panda Express,Algonquin,1299,#1299 1299,420 South Randall Road,IL,60102
Panda Express,Pasco,1302,#1302 1302,5104 Road 68,WA,99301
Panda Express,Olathe,1303,#1303 1303,11996 South Strang Line Road,KS,66062
Panda Express,Orlando,1304,#1304 1304,688 North Alafaya Trail,FL,32828
Panda Express,Lake View Terrace,1305,#1305 1305,11990 Foothill Blvd,CA,91342
Panda Express,Indianapolis,1308,#1308 1308,5020 Southport Crossing,IN,46237
Panda Express,Las Vegas,1309,#1309 1309,6475 North Decatur Blvd.,NV,89130
Panda Express,Henderson,1311,#1311 1311,195 North Stephanie Street,NV,89012
Panda Express,Stockton,1313,#1313 1313,4339 Morada Lane,CA,95212
Panda Express,Plano,1314,#1314 1314,5901 Coit Road,TX,75093
Panda Express,Palatine,1315,#1315 1315,1171  E. Dundee Road,IL,60074
Panda Express,Chula Vista,1316,#1316 1316,2015 Birch Road,CA,91915
Panda Express,Federal Heights,1317,#1317 1317,2680 W. 104th Ave.,CO,80234
Panda Express,Austin,1319,#1319 1319,5764 Airport Blvd,TX,78701
Panda Express,Country Club Hi,1320,#1320 1320,4247 West 167th Street,IL,60478
Panda Express,Aurora,1321,#1321 1321,11688 East Colfax Avenue,CO,80010
Panda Express,Fort Collins,1322,#1322 1322,4600 South Mason St.,CO,80525
Panda Express,Loveland,1323,#1323 1323,1391 N. Denver Ave,CO,80537
Panda Express,Carpentersville,1324,#1324 1324,27 South Western Avenue,IL,60110
Panda Express,Lake Elsinore,1325,#1325 1325,29989 Canyon Hills Road,CA,92532
Panda Express,Tempe,1326,#1326 1326,1320 West Elliot Road,AZ,85284
Panda Express,Cedar Rapids,1328,#1328 1328,4444 First Ave. Ne,IA,52402
Panda Express,Oakland,1330,#1330 1330,500 12th Street  B132,CA,94607
Panda Express,Pembroke Pines,1333,#1333 1333,15703 Pines Blvd.,FL,33027
Panda Express,Albuquerque,1334,#1334 1334,3601 Bosque Plaza Lane Nw,NM,87120
Panda Express,Cedar Park,1335,#1335 1335,401 W. Whitestone Blvd.,TX,78613
Panda Express,Pearl City,1336,#1336 1336,1029 Makolu Street,HI,96782
Panda Express,Irvine,1337,#1337 1337,13266 Jamboree Rd.,CA,92602
Panda Express,San Luis Obispo,1339,#1339 1339,1508 Froom Ranch Way,CA,93405
Panda Express,Simi Valley,1342,#1342 1342,153 Cochran St. #320,CA,93065
Panda Express,Salem,1344,#1344 1344,505 Taggart Drive Nw,OR,97304
Panda Express,Chicago,1345,#1345 1345,6201 N. Lincoln Ave,IL,60659
Panda Express,Apple Valley,1347,#1347 1347,19201 G Bear Valley Road,CA,92308
Panda Express,Riverdale,1348,#1348 1348,7105 Highway 85,GA,30274
Panda Express,Sarasota,1349,#1349 1349,8201 S. Tamiami Tr.,FL,34238
Panda Express,Pittsburg,1351,#1351 1351,2120 Railroad Ave Suite 4,CA,94565
Panda Express,Apex,1352,#1352 1352,1000 Beaver Creek Commons Dr.,NC,27502
Panda Express,Santa Clarita,1356,#1356 1356,26529 Golden Valley Road,CA,91350
Panda Express,Webster,1359,#1359 1359,1505 W. Bay Area Blvd.,TX,77598
Panda Express,Englewood,1360,#1360 1360,2990 South Broadway,CO,80113
Panda Express,San Antonio,1362,#1362 1362,6355 Rittiman Road,TX,78244
Panda Express,League City,1363,#1363 1363,153 N. Fm 270,TX,77573
Panda Express,Orlando,1364,#1364 1364,7653 International Drive,FL,32819
Panda Express,Northlake,1365,#1365 1365,128 West North Ave,IL,60164
Panda Express,Washington,1366,#1366 1366,"Space 20b, Level 2,",DC,20001
Panda Express,Indianapolis,1367,#1367 1367,8760 North Michigan Road,IN,46268
Panda Express,Oak Lawn,1368,#1368 1368,6152 W. 95th Street,IL,60453
Panda Express,Santa Clarita,1369,#1369 1369,23746 New Hall Ave.,CA,91321
Panda Express,Chicago,1370,#1370 1370,500 West Madison Street,IL,60661
Panda Express,Lakewood,1371,#1371 1371,180 South Union #108,CO,80228
Panda Express,Whittier,1372,#1372 1372,13471 Telegraph Rd.,CA,90605
Panda Express,Dallas,1374,#1374 1374,4390 Dallas Fort Worth,TX,75211
Panda Express,Sugar Land,1375,#1375 1375,1401 State Hwy. 6,TX,77478
Panda Express,Springfield,1376,#1376 1376,2585 Wabash Avenue,IL,62704
Panda Express,Kissimmee,1377,#1377 1377,4789 W. Irlo Bronson Hwy,FL,34746
Panda Express,Boulder City,1378,#1378 1378,1617 Neveda Highway,NV,89005
Panda Express,Conyers,1379,#1379 1379,2239 Georgia Highway 20,GA,30013
Panda Express,Fontana,1380,#1380 1380,16645 Sierra Lakes Pkwy #130,CA,92336
Panda Express,Homewood,1381,#1381 1381,17932 Halsted Street,IL,60430
Panda Express,Douglasville,1382,#1382 1382,2716 Chapel Hill Road,GA,30135
Panda Express,American Canyon,1383,#1383 1383,5075 Main Street,CA,94503
Panda Express,Fremont,1386,#1386 1386,43384 Boscell Road,CA,94538
Panda Express,Mesa,1388,#1388 1388,921 North Dobson Road,AZ,85201
Panda Express,Boston,1398,#1398 1398,775 Commonwealth Ave,MA,2215
Panda Express,Scottsdale,1399,#1399 1399,6501 E Greenway Parkway,AZ,85254
Panda Express,Lenexa,1400,#1400 1400,12210 West 95th Street,KS,66215
Panda Express,Hoffman Estates,1401,#1401 1401,4585 W. Higgins Rd.,IL,60192
Panda Express,Marysville,1402,#1402 1402,908 E Street,CA,95901
Panda Express,Inglewood,1405,#1405 1405,4940 W. Century Blvd.,CA,90304
Panda Express,Miami,1406,#1406 1406,10821 S.w. 72nd Street,FL,33173
Panda Express,Soquel,1407,#1407 1407,2740 41st Ave,CA,95073
Panda Express,Centreville,1408,#1408 1408,14220 Centreville Square,VA,20122
Panda Express,Agoura Hills,1409,#1409 1409,29145 Canwood St,CA,91301
Panda Express,Bell,1410,#1410 1410,7129 Atlantic Ave,CA,90201
Panda Express,Lake Zurich,1411,#1411 1411,997 South Rand Road,IL,60047
Panda Express,Hayward,1412,#1412 1412,25800 Carlos Bee Blvd.,CA,94542
Panda Express,Capitol Heights,1413,#1413 1413,8800 N. Hampton Mall Drive,MD,20743
Panda Express,Austin,1415,#1415 1415,7718 Burnet Road,TX,78703
Panda Express,Colorado Springs,1416,#1416 1416,2960 South Academy Blvd.,CO,80916
Panda Express,Orland Park,1418,#1418 1418,7140 West 159th St.,IL,60467
Panda Express,Van Nuys,1419,#1419 1419,14445 Burbank Blvd.,CA,91401
Panda Express,Kansas City,1420,#1420 1420,4545 Worlds Of Fun Avenue,MO,64161
Panda Express,Chicago,1422,#1422 1422,1654 W. 119th Street,IL,60643
Panda Express,Spokane,1423,#1423 1423,2905 S. Southeast Blvd.,WA,99223
Panda Express,Midwest City,1425,#1425 1425,7171 S. E. 29th Street,OK,73110
Panda Express,N Las Vegas,1426,#1426 1426,2001 East Cheyenne Avenue,NV,89030
Panda Express,Boynton Beach,1427,#1427 1427,970 North Congress Avenue,FL,33426
Panda Express,Escondido,1428,#1428 1428,600 West Mission Ave.,CA,92025
Panda Express,Minneapolis,1429,#1429 1429,Coffman Memorial Union,MN,55455
Panda Express,Arlington,1430,#1430 1430,300 W. First Street,TX,76019
Panda Express,Wellington,1431,#1431 1431,1000 South State Road 7,FL,33414
Panda Express,Manteca,1434,#1434 1434,2130 Daniels Street,CA,95337
Panda Express,Oregon City,1435,#1435 1435,19526 Molalla Ave  #137,OR,97045
Panda Express,Jessup,1436,#1436 1436,7351 Assateague Drive,MD,20794
Panda Express,Colorado Springs,1437,#1437 1437,2020 Southgate Road,CO,80906
Panda Express,North Hollywood,1439,#1439 1439,5300 N. Lankershim Blvd. #140,CA,91601
Panda Express,Mcminnville,1440,#1440 1440,2420 Ne Highway 99w,OR,97128
Panda Express,Dekalb,1441,#1441 1441,2434 Sycamore Road,IL,60115
Panda Express,Spring,1442,#1442 1442,5901 Fm 2920,TX,77388
Panda Express,Morrow,1443,#1443 1443,2008 Mt. Zion Road,GA,30260
Panda Express,Oklahoma City,1445,#1445 1445,7700 Nw Expressway,OK,73132
Panda Express,Houston,1446,#1446 1446,431 Fm 1960 Rd. West,TX,77090
Panda Express,Houston,1447,#1447 1447,7420 S. Sam Houston West Pkwy,TX,77085
Panda Express,Magnolia,1448,#1448 1448,33010 Fm 2978 Road,TX,77354
Panda Express,Lewiston,1449,#1449 1449,2221 Thain Grade,ID,83501
Panda Express,Schaumburg,1450,#1450 1450,100 B. East Golf Road.,IL,60173
Panda Express,Escondido,1451,#1451 1451,415 West Felicita Ave.,CA,92025
Panda Express,Sacramento,1452,#1452 1452,8251 Brucesville Road,CA,95823
Panda Express,Keizer,1453,#1453 1453,2675 Jorie Lane Ne,OR,97303
Panda Express,Pasadena,1454,#1454 1454,1701 E. Colorado Blvd.,CA,91106
Panda Express,Katy,1455,#1455 1455,546 Mason Road,TX,77450
Panda Express,San Antonio,1456,#1456 1456,10618 Potranco Road,TX,78245
Panda Express,Agawam,1457,#1457 1457,1623 Main Street,MA,1001
Panda Express,Eureka,1458,#1458 1458,4900 Six Flags Road,MO,63025
Panda Express,Santa Clara,1459,#1459 1459,"2401 Agnew Rd, #741-a",CA,95054
Panda Express,Doswell,1460,#1460 1460,1600 Theme Park Way,VA,23047
Panda Express,Charlotte,1461,#1461 1461,14523 Carowinds Blvd.,NC,28273
Panda Express,Jackson,1462,#1462 1462,1 Six Flags Blvd.,NJ,8527
Panda Express,Arlington,1463,#1463 1463,2201 Road To Six Flags East,TX,76011
Panda Express,San Antonio,1464,#1464 1464,17000 Ih-10 West,TX,78257
Panda Express,Mason,1465,#1465 1465,6300 Kings Island Drive,OH,45040
Panda Express,Buena Park,1466,#1466 1466,8039 Beach Blvd.,CA,90620
Panda Express,Avon,1469,#1469 1469,9682 East Us 36,IN,46123
Panda Express,Montclair,1470,#1470 1470,4467 Mission Blvd.,CA,91763
Panda Express,Merrillville,1472,#1472 1472,31 West 81st Street,IN,46410
Panda Express,Northridge,1473,#1473 1473,18111 Nordhoff St,CA,91330
Panda Express,San Antonio,1475,#1475 1475,5707 South Stemmons,TX,78229
Panda Express,Las Vegas,1476,#1476 1476,5620 Centennial Center,NV,89109
Panda Express,San Jose,1478,#1478 1478,3029 Meridian Ave.,CA,95124
Panda Express,Los Lunas,1479,#1479 1479,2260 Main Street Nw,NM,87031
Panda Express,Fresno,1480,#1480 1480,3910 N. Cedar Avenue,CA,93726
Panda Express,Las Vegas,1481,#1481 1481,1121 South Decatur Blvd.,NV,89102
Panda Express,Tampa,1482,#1482 1482,7207 West Waters Avenue,FL,33634
Panda Express,Sunnyvale,1483,#1483 1483,798 East El Camino Real,CA,94087
Panda Express,Waipahu,1484,#1484 1484,94-1221 Ka Uka Blvd.,HI,96797
Panda Express,Indio,1486,#1486 1486,42550 Jackson Street,CA,92203
Panda Express,Stamford,1487,#1487 1487,100 Greylock Place  D 302,CT,6901
Panda Express,Inglewood,1488,#1488 1488,6802 S. La Cienega Blvd.,CA,90302
Panda Express,Overland Park,1489,#1489 1489,7352 West 135th Street,KS,66224
Panda Express,Sparks,1490,#1490 1490,287 Los Altos Parkway,NV,89436
Panda Express,Rio Rancho,1491,#1491 1491,801 Unser Blvd S.e.,NM,87124
Panda Express,Longmont,1493,#1493 1493,155 East Ken Pratt Blvd.,CO,80501
Panda Express,Tucson,1494,#1494 1494,1055 North Silverbell Road,AZ,85745
Panda Express,Spokane,1495,#1495 1495,9119 East Montgomery Ave,WA,99206
Panda Express,South Elgin,1496,#1496 1496,388 Randall Road,IL,60177
Panda Express,Portland,1497,#1497 1497,10213 Ne Cascades Parkway,OR,97220
Panda Express,Azusa,1498,#1498 1498,856 E. Alosta Ave,CA,91702
Panda Express,San Jacinto,1500,#1500 1500,1270 North State Street,CA,92583
Panda Express,District Heights,1501,#1501 1501,5410 Silver Hill Road,MD,20747
Panda Express,Palm Springs,1502,#1502 1502,5200 Ramon Road G-7,CA,92262
Panda Express,Orlando,1503,#1503 1503,2655 East Colonial Drive,FL,32803
Panda Express,Richland,1504,#1504 1504,2885 Duportail St.  Suite 1,WA,99352
Panda Express,Renton,1505,#1505 1505,960 Park Ave North,WA,98055
Panda Express,Round Lake Beach,1508,#1508 1508,380 East Rollins Road,IL,60073
Panda Express,Nampa,1509,#1509 1509,1811 12th Ave Road,ID,83686
Panda Express,Bellflower,1510,#1510 1510,15909 Bellflower Blvd.,CA,90706
Panda Express,Kansas City,1512,#1512 1512,5905 N.w. Barry Road,MO,64154
Panda Express,Freehold,1513,#1513 1513,3710 Us Highway 9,NJ,7728
Panda Express,Miami,1514,#1514 1514,13440 Sw 120th Street,FL,33186
Panda Express,Lone Tree,1515,#1515 1515,8331 A South Willow Street,CO,80124
Panda Express,Everett,1516,#1516 1516,1402 Se Everett Mall Way,WA,98208
Panda Express,Aurora,1517,#1517 1517,120 Fox Valley Center,IL,60504
Panda Express,San Diego,1518,#1518 1518,2850 National Ave,CA,92113
Panda Express,Lawrenceville,1519,#1519 1519,900 Duluth Hwy 120,GA,30042
Panda Express,Houston,1521,#1521 1521,8366 Westheimer Road,TX,77063
Panda Express,Anderson,1522,#1522 1522,"5030 Rhonda Road, Suite A",CA,96007
Panda Express,Columbus,1523,#1523 1523,2044 North High Street,OH,43201
Panda Express,Crestwood,1524,#1524 1524,13581 South Cicero Avenue,IL,60445
Panda Express,Danbury,1525,#1525 1525,7 Backus Ave.  Space C204,CT,6810
Panda Express,Modesto,1526,#1526 1526,"3020 Floyd Ave, Suite #201",CA,95355
Panda Express,Houston,1527,#1527 1527,1913 Taylor Street,TX,77007
Panda Express,Indio,1528,#1528 1528,82-451 Hwy 111 Building  B,CA,92201
Panda Express,Mt Prospect,1529,#1529 1529,1200 North Central Road,IL,60056
Panda Express,Woodbridge,1530,#1530 1530,2990 Prince William Parkway,VA,22192
Panda Express,Portland,1531,#1531 1531,11192 Sw Barnes Rd,OR,97225
Panda Express,Las Vegas,1532,#1532 1532,1300 Lamb Blvd.,NV,89104
Panda Express,Frisco,1533,#1533 1533,12244 Fm 423   Space 100,TX,75034
Panda Express,Goodyear,1534,#1534 1534,690 North Estrella Parkway,AZ,85338
Panda Express,Longview,1535,#1535 1535,500 Triangle Center,WA,98632
Panda Express,Lancaster,1536,#1536 1536,840 W. Avenue L,CA,93534
Panda Express,Delano,1537,#1537 1537,540 Woollomes Ave.,CA,93215
Panda Express,Palm Bay,1538,#1538 1538,1104 Se Malabar Road,FL,32909
Panda Express,Marietta,1542,#1542 1542,2580 Windy Hill Road Suite 600,GA,30067
Panda Express,Pico Rivera,1543,#1543 1543,8943 Washington Blvd.,CA,90660
Panda Express,Boise,1545,#1545 1545,7804 Overland Drive,ID,83709
Panda Express,Greenwood,1546,#1546 1546,331 South State Road 135,IN,46142
Panda Express,Arvada,1547,#1547 1547,5145 Kipling Street  Suite 100,CO,80033
Panda Express,Mesa,1549,#1549 1549,342 W. Baseline Road,AZ,85210
Panda Express,Inglewood,1550,#1550 1550,11222 South Crenshaw Blvd.,CA,90303
Panda Express,Peoria,1551,#1551 1551,9753 W. Happy Valley Road,AZ,85383
Panda Express,Walnut Park,1552,#1552 1552,2120 E. Florence Ave,CA,90255
Panda Express,Phoenix,1553,#1553 1553,4750 South 48th Street,AZ,85040
Panda Express,Houston,1554,#1554 1554,7670 Katy Freeway,TX,77024
Panda Express,Harbor City,1556,#1556 1556,1608 W. Pacific Coast Highway,CA,90710
Panda Express,Queen Creek,1557,#1557 1557,21184 East Ocotillo Road,AZ,85242
Panda Express,Bradley,1558,#1558 1558,850 North Kinzie Ave,IL,60915
Panda Express,Phoenix,1560,#1560 1560,5229 W. Indian School Rd.,AZ,85031
Panda Express,Carson,1562,#1562 1562,501 E. Albertoni Street,CA,90746
Panda Express,Tukwila,1564,#1564 1564,2600 South Center Mall,WA,98188
Panda Express,Houston,1567,#1567 1567,9758 Katy Fwy,TX,77055
Panda Express,Manassas,1568,#1568 1568,9685 Liberia Ave.,VA,20110
Panda Express,Lahaina,1569,#1569 1569,312 Keawe Street,HI,96761
Panda Express,Sandusky,1570,#1570 1570,1 Cedar Point Drive,OH,44870
Panda Express,Plano,1571,#1571 1571,1121 E. Spring Creek Pkwy,TX,75074
Panda Express,Port Hueneme,1572,#1572 1572,727 W. Channel Islands Blvd.,CA,93041
Panda Express,Riverside,1573,#1573 1573,900 University Ave.,CA,92521
Panda Express,Norridge,1574,#1574 1574,4140 North Harlem Ave,IL,60706
Panda Express,Buford,1577,#1577 1577,3410 Buford Drive,GA,30519
Panda Express,Flower Mound,1578,#1578 1578,5861 Long Prarie Road,TX,75022
Panda Express,Vernon Hills,1579,#1579 1579,1640 Milwaukee Ave,IL,60061
Panda Express,Canby,1580,#1580 1580,1020 Sw 1st Avenue,OR,97013
Panda Express,Moreno Valley,1581,#1581 1581,27680 Eucalyptus Ave.,CA,92555
Panda Express,Hurst,1583,#1583 1583,6260 Precinct Line Road,TX,76054
Panda Express,Lancaster,1584,#1584 1584,1861 W. Avenue I,CA,93534
Panda Express,Lake Forest,1586,#1586 1586,23572 El Toro Road,CA,92630
Panda Express,Bloomington,1587,#1587 1587,425 E Kirkwood Ave.,IN,47404
Panda Express,Riverton,1588,#1588 1588,3648 West 13400 South,UT,84065
Panda Express,Sandy,1589,#1589 1589,9166 South Village Shop Drive,UT,84070
Panda Express,Round Rock,1590,#1590 1590,1700 East Palm Valley Drive,TX,78664
Panda Express,Oswego,1591,#1591 1591,2630 Route 34 #5,IL,60543
Panda Express,Jacksonville,1592,#1592 1592,14022 Revell Drive,FL,32218
Panda Express,Carrollton,1593,#1593 1593,2604 Old Denton Road,TX,75007
Panda Express,Albany,1594,#1594 1594,1310 Geary Street,OR,97322
Panda Express,Pullman,1596,#1596 1596,1500 Ne Terrell Mall,WA,99163
Panda Express,Orlando,1597,#1597 1597,6651 South Semoran Blvd.,FL,32822
Panda Express,Windsor,1598,#1598 1598,6560 Hembree Lane,CA,95492
Panda Express,Houston,1599,#1599 1599,13415 Hwy I - 10 East 1,TX,77015
Panda Express,North Riverside,1600,#1600 1600,2300 South Harlem Avenue,IL,60546
Panda Express,Huntersville,1601,#1601 1601,9918 Knockando Lane,NC,28078
Panda Express,Moore,1602,#1602 1602,1401 South I-35 Service Road,OK,73160
Panda Express,Fresno,1603,#1603 1603,5192 E. Kings Canyon Road,CA,93727
Panda Express,Boston,1604,#1604 1604,100 Harborside Drive,MA,2128
Panda Express,Anaheim,1605,#1605 1605,2000 Gene Autry Way,CA,92806
Panda Express,Grass Valley,1606,#1606 1606,688 Sutton Way,CA,95945
Panda Express,Thousand Oaks,1607,#1607 1607,382 West Hillcrest Drive,CA,91360
Panda Express,San Clemente,1608,#1608 1608,806 Avenida Pico Suite A,CA,92672
Panda Express,Orlando,1609,#1609 1609,1718 Sand Lake Road,FL,32809
Panda Express,Riverside,1610,#1610 1610,11090 Magnolia Ave,CA,92505
Panda Express,Jacksonville,1611,#1611 1611,9580 Applecross Road #102,FL,32222
Panda Express,Newark,1612,#1612 1612,5829 Jarvis Ave.,CA,94560
Panda Express,San Jose,1613,#1613 1613,"2131 Monterey Road, Suite #60",CA,95112
Panda Express,Kingman,1615,#1615 1615,3370 Stockton Hill Road,AZ,86401
Panda Express,Las Vegas,1616,#1616 1616,6925 S. Rainbow Blvd.,NV,89145
Panda Express,Cicero,1617,#1617 1617,3076 S. Cicero Ave,IL,60804
Panda Express,Champaign,1618,#1618 1618,2521 N. Prospect Ave,IL,61822
Panda Express,Rosemead,1619,#1619 1619,1717 Walnut Grove Ave,CA,91770
Panda Express,La Quinta,1620,#1620 1620,79835 Hwy 111,CA,92253
Panda Express,Victorville,1622,#1622 1622,14361 Highway 395,CA,92392
Panda Express,Bolingbrook,1624,#1624 1624,207 North Weber Road,IL,60440
Panda Express,Front Royal,1625,#1625 1625,236 Crooked Run Plaza,VA,22630
Panda Express,Sacramento,1630,#1630 1630,1431 Howe Ave.   Suite #100,CA,95825
Panda Express,Chico,1631,#1631 1631,2443 Cohasset Rd.,CA,95926
Panda Express,Elk Grove,1632,#1632 1632,8848 Calvin Road,CA,95624
Panda Express,Oceanside,1633,#1633 1633,47 Douglas Drive,CA,92054
Panda Express,Honolulu,1634,#1634 1634,1060 Auahi St.  Bay 5,HI,96814
Panda Express,Boulder,1635,#1635 1635,2100 - 1a 28th Street,CO,80301
Panda Express,Overland Park,1636,#1636 1636,9090 Metcalf Avenue,KS,66212
Panda Express,Longmont,1637,#1637 1637,589 S. Hover Drive,CO,80503
Panda Express,Titusville,1638,#1638 1638,3045 Columbia Blvd.,FL,32780
Panda Express,Altamonte Springs,1639,#1639 1639,275 East Altamonte Drive,FL,32701
Panda Express,Sandy Springs,1642,#1642 1642,5620 Roswell Road,GA,30358
Panda Express,Austin,1644,#1644 1644,309 West Slaughter Lane,TX,78748
Panda Express,Houston,1645,#1645 1645,8705 West Loop South,TX,77096
Panda Express,Avondale,1646,#1646 1646,11555 W. Van Buren Street,AZ,85323
Panda Express,Nacogdoches,1647,#1647 1647,Student Center Building,TX,75962
Panda Express,Grambling,1648,#1648 1648,403 Main Street,LA,71245
Panda Express,Tukwila,1649,#1649 1649,17100 South Center Parkway,WA,98188
Panda Express,Seattle,1650,#1650 1650,12513 Lake City Way,WA,98125
Panda Express,Austin,1651,#1651 1651,4301 W. William Cannon,TX,78749
Panda Express,Compton,1652,#1652 1652,1641 South Alameda Street,CA,90220
Panda Express,Denver,1653,#1653 1653,3000 E. 1st Avenue,CO,80206
Panda Express,Honolulu,1654,#1654 1654,2233 Kalakaua Ave,HI,96815
Panda Express,Melbourne,1655,#1655 1655,1030 North Wickham Road,FL,32935
Panda Express,Fort Myers,1656,#1656 1656,9330 Six Mile Parkway,FL,33912
Panda Express,San Diego,1657,#1657 1657,5807 University Avenue,CA,92115
Panda Express,Kennewick,1658,#1658 1658,401 North Ely Street,WA,99336
Panda Express,Victorville,1661,#1661 1661,15270 Civic Drive,CA,92394
Panda Express,Fair Oaks,1662,#1662 1662,8929 Madison Avenue,CA,95628
Panda Express,Sacramento,1663,#1663 1663,4245 Marconi Ave,CA,95821
Panda Express,Beaumont,1664,#1664 1664,1668 E. 2nd St. Market Place,CA,92223
Panda Express,Porterville,1666,#1666 1666,460 W. Vandalia Ave.,CA,93257
Panda Express,North Las Vegas,1667,#1667 1667,2220 East Craig Road,NV,89081
Panda Express,Prairie Village,1669,#1669 1669,7920 Stateline Road,KS,66208
Panda Express,Coeur D Alene,1670,#1670 1670,405 E. Best Ave,ID,83814
Panda Express,Dinuba,1671,#1671 1671,640 W. El Monte Way,CA,93618
Panda Express,Vancouver,1672,#1672 1672,2510 Columbia House Boulevard,WA,98661
Panda Express,Tucson,1673,#1673 1673,3587 East Broadway Road,AZ,85716
Panda Express,Sandy,1674,#1674 1674,37101 Hwy 26,OR,97055
Panda Express,Romeoville,1675,#1675 1675,404 Weber Rd,IL,60446
Panda Express,Chandler,1677,#1677 1677,2905 West Ray Road,AZ,85224
Panda Express,Alpharetta,1678,#1678 1678,2622 Holcomb Bridge Road,GA,30022
Panda Express,Riverview,1679,#1679 1679,10250 Bloomingdale Avenue,FL,33578
Panda Express,Palm Coast,1680,#1680 1680,5234 East Highway 100,FL,32164
Panda Express,Skokie,1681,#1681 1681,5220 West Dempster,IL,60077
Panda Express,Houston,1682,#1682 1682,3651 Weslayan,TX,77046
Panda Express,Manassas,1683,#1683 1683,10689 Sudley Manor Drive,VA,20109
Panda Express,Waco,1687,#1687 1687,2448 West Loop 340,TX,76711
Panda Express,Visalia,1688,#1688 1688,1933 N. Dinuba Blvd.,CA,93291
Panda Express,Lake Oswego,1689,#1689 1689,17799 Sw 65th Ave.,OR,97035
Panda Express,Norwalk,1690,#1690 1690,12327 Norwalk Blvd.,CA,90650
Panda Express,Richmond,1692,#1692 1692,4250 Macdonald Avenue,CA,94805
Panda Express,Salinas,1693,#1693 1693,1906 North Davis Road,CA,93907
Panda Express,West Lafayette,1695,#1695 1695,138 Northwestern Ave,IN,47906
Panda Express,Oklahoma City,1696,#1696 1696,500 South Macarthur,OK,73128
Panda Express,West Sacramento,1697,#1697 1697,2220 Lake Washington Blvd.,CA,95691
Panda Express,Wildomar,1698,#1698 1698,23861 Clinton Keith Road,CA,92595
Panda Express,National City,1699,#1699 1699,3030 Plaza Bonita Fc-4,CA,91950
Panda Express,West Covina,1700,#1700 1700,"2260 South Azusa, Suite D",CA,91792
Panda Express,Honolulu,1701,#1701 1701,1505 S. King St.,HI,96826
Panda Express,Medford,1702,#1702 1702,1750 Delta Waters  Road,OR,97504
Panda Express,Sanger,1704,#1704 1704,2590 Jensen Avenue,CA,93657
Panda Express,Sunland,1706,#1706 1706,8231 Foothill Blvd,CA,91040
Panda Express,Hatillo,1707,#1707 1707,506 Truncado Street,PR,659
Panda Express,Airway Heights,1708,#1708 1708,11930 West Sunset Hwy,WA,99001
Panda Express,Gig Harbor,1709,#1709 1709,4904 Borgen Blvd.,WA,98335
Panda Express,Fayetteville,1710,#1710 1710,585 Cross Creek Mall,NC,28303
Panda Express,Edmond,1711,#1711 1711,309 South Bryant,OK,73034
Panda Express,Orlando,1713,#1713 1713,6000 Universal Blvd,FL,32819
Panda Express,Ceres,1714,#1714 1714,1507 Mitchell Road,CA,95307
Panda Express,Harker Heights,1715,#1715 1715,201 E. Central Texas,TX,76548
Panda Express,Kansas City,1716,#1716 1716,10950 Stadium Parkway,KS,66111
Panda Express,North Las Vegas,1717,#1717 1717,7300 Aliante Pkwy.,NV,89084
Panda Express,Joliet,1718,#1718 1718,2410 West Jefferson Street,IL,60436
Panda Express,Roseville,1719,#1719 1719,1151 Galleria Blvd.,CA,95678
Panda Express,Las Vegas,1720,#1720 1720,4720 Blue Diamond Road,NV,89139
Panda Express,Houston,1721,#1721 1721,2552 Eldridge Parkway,TX,77082
Panda Express,Hillside,1722,#1722 1722,100 S. Mannheim Rd.,IL,60162
Panda Express,Ann Arbor,1723,#1723 1723,530 S. State Street,MI,48109
Panda Express,Kapolei,1724,#1724 1724,480 Kamokila Blvd.,HI,96707
Panda Express,Yakima,1725,#1725 1725,1915 South First Street,WA,98902
Panda Express,Kailua Kona,1728,#1728 1728,74-5450 E110 Makala Blvd.,HI,96740
Panda Express,South El Monte,1729,#1729 1729,1818 S. Durfee Ave.,CA,91733
Panda Express,Reno,1730,#1730 1730,395 E. Plumb Lane,NV,89502
Panda Express,Jacksonville,1731,#1731 1731,13460 Beach Blvd,FL,32224
Panda Express,Redmond,1732,#1732 1732,455 Nw Oak Tree Lane,OR,97756
Panda Express,Florida City,1733,#1733 1733,33550 South Dixie Hwy,FL,33034
Panda Express,Orange Park,1734,#1734 1734,901 Blanding Blvd.,FL,32065
Panda Express,Port Saint Lucie,1736,#1736 1736,1782 Sw Saint Lucie West Blvd,FL,34986
Panda Express,Blue Springs,1737,#1737 1737,535 Ne Coronado Drive,MO,64014
Panda Express,Kennewick,1742,#1742 1742,1321 N. Columbia Center Blvd,WA,99336
Panda Express,Miramar,1745,#1745 1745,12332 Miramar Pkwy,FL,33025
Panda Express,Fort Worth,1748,#1748 1748,3140 S. Hulen Blvd.,TX,76109
Panda Express,Menifee,1749,#1749 1749,30024 Haun Road,CA,92584
Panda Express,Houston,1750,#1750 1750,7610 W Fm 1960,TX,77070
Panda Express,New Braunfels,1751,#1751 1751,1008 Ih 35 S.,TX,78130
Panda Express,Miami,1752,#1752 1752,8750  W. Flagler Street,FL,33174
Panda Express,Haltom City,1753,#1753 1753,5340 N. Beach St.,TX,76137
Panda Express,San Antonio,1754,#1754 1754,One Utsa Circle,TX,78249
Panda Express,Schaumburg,1755,#1755 1755,3 Woodfield Mall,IL,60173
Panda Express,Durham,1756,#1756 1756,120 Science Drive,NC,27708
Panda Express,Machesney Park,1758,#1758 1758,1640 West Lane Dr.,IL,61115
Panda Express,Montclair,1759,#1759 1759,5060 E. Montclair Plaza,CA,91763
Panda Express,Sacramento,1761,#1761 1761,1689 Arden Way,CA,95815
Panda Express,Las Vegas,1762,#1762 1762,4300 Meadows Lane,NV,89107
Panda Express,Modesto,1763,#1763 1763,3401 Dale Rd.,CA,95356
Panda Express,Arcadia,1764,#1764 1764,400 South Baldwin Ave,CA,91007
Panda Express,San Diego,1765,#1765 1765,7007 Friars Rd,CA,92108
Panda Express,Atwater,1768,#1768 1768,1531 Bell Dr.,CA,95301
Panda Express,Lake Havasu City,1769,#1769 1769,205 N. Lake Havasu Ave.,AZ,86403
Panda Express,Jacksonville,1770,#1770 1770,6752 Normandy Blvd.,FL,32205
Panda Express,Oklahoma City,1771,#1771 1771,2201 Nw 23rd St.,OK,73107
Panda Express,Jacksonville,1772,#1772 1772,4897 Town Center Parkway,FL,32246
Panda Express,Cullowhee,1773,#1773 1773,160 University Way #112,NC,28723
Panda Express,Sacramento,1774,#1774 1774,6013 Florin Rd,CA,95823
Panda Express,Carmel,1775,#1775 1775,1430 West Carmel Drive,IN,46032
Panda Express,San Marcos,1776,#1776 1776,2850 S Ih35,TX,78666
Panda Express,San Jose,1777,#1777 1777,1 Washington Square,CA,95192
Panda Express,Laramie,1778,#1778 1778,1000 E University Ave,WY,82071
Panda Express,Kansas City,1779,#1779 1779,"4901 North Oak Trafficway, Lot 4",MO,64118
Panda Express,Prescott,1780,#1780 1780,170 E. Sheldon Street,AZ,86301
Panda Express,Reno,1781,#1781 1781,"Joe Crowley Student Union, 1664 N. Virginia St",NV,89503
Panda Express,Pleasanton,1782,#1782 1782,4001 Santa Rita Rd.,CA,94588
Panda Express,Olathe,1783,#1783 1783,299 North K-7 Highway,KS,66061
Panda Express,Houston,1784,#1784 1784,8505 Main Street,TX,77025
Panda Express,San Antonio,1785,#1785 1785,834 Nw  Loop 410,TX,78216
Panda Express,Franklin,1786,#1786 1786,3058 Mallory Lane,TN,37067
Panda Express,San Leandro,1787,#1787 1787,15555 E 14th St,CA,94578
Panda Express,Fremont,1788,#1788 1788,39429 Fremont Boulevard,CA,94538
Panda Express,El Paso,1789,#1789 1789,2725 N. Mesa,TX,79902
Panda Express,Placerville,1790,#1790 1790,4280 Missouri Flat Road,CA,95667
Panda Express,Tigard,1792,#1792 1792,16230 Sw Pacific Hwy,OR,97224
Panda Express,Brandywine,1793,#1793 1793,15902 Crain Hwy,MD,20613
Panda Express,Orange Park,1794,#1794 1794,1907 Well Road,FL,32073
Panda Express,Peoria,1795,#1795 1795,2316 W. War Memorial Dr,IL,61613
Panda Express,Orlando,1796,#1796 1796,2972 S. Kirkman Road,FL,32811
Panda Express,Yuma,1797,#1797 1797,3275 S. Avenue 8e,AZ,85364
Panda Express,Phoenix,1798,#1798 1798,4025 E. Chandler Blvd.,AZ,85048
Panda Express,Fresno,1799,#1799 1799,1115 Fresno Street,CA,93706
Panda Express,Burleson,1800,#1800 1800,1621 Sw Wilshire Blvd,TX,76028
Panda Express,Cumming,1801,#1801 1801,905 Market Place Blvd.,GA,30041
Panda Express,Omaha,1802,#1802 1802,16920 Evans Plaza,NE,68116
Panda Express,Omaha,1803,#1803 1803,17627 Gold Plaza,NE,68130
Panda Express,Milwaukee,1804,#1804 1804,275 Wisconsin Ave.,WI,53203
Panda Express,Pleasant Prairie,1805,#1805 1805,9800 76 Th St.,WI,53158
Panda Express,Tulsa,1808,#1808 1808,9815 E. 71st St.,OK,74133
Panda Express,Jamaica,1810,#1810 1810,Jfk International Airport,NY,11430
Panda Express,Culver City,1811,#1811 1811,6000 Sepulveda Blvd,CA,90230
Panda Express,North Bergen,1813,#1813 1813,2100 88th Street,NJ,7047
Panda Express,Selma,1814,#1814 1814,2785 Floral Ave,CA,93662
Panda Express,Conroe,1815,#1815 1815,1312 West Davis St,TX,77304
Panda Express,Jacksonville,1816,#1816 1816,9971 Baymeadows Rd,FL,32256
Panda Express,Mansfield,1818,#1818 1818,1351 E. Debbie Lane,TX,76063
Panda Express,Dallas,1819,#1819 1819,13350 Dallas Parkway,TX,75240
Panda Express,San Antonio,1820,#1820 1820,4248 S New Braunfels Ave,TX,78223
Panda Express,Manchester,1821,#1821 1821,101 Highlands Blvd,MO,63011
Panda Express,Tulsa,1822,#1822 1822,4728 East 21st Street,OK,74114
Panda Express,Ammon,1824,#1824 1824,1151 S. 25th E.,ID,83406
Panda Express,Lompoc,1825,#1825 1825,1405 N. H Street,CA,93436
Panda Express,Hillsboro,1826,#1826 1826,2275 Se Tualatin Valley Hwy,OR,97123
Panda Express,Cottonwood,1827,#1827 1827,2160 East Highway 89a,AZ,86326
Panda Express,Sierra Vista,1828,#1828 1828,480 N. Highway 90 Bypass,AZ,85635
Panda Express,Irvine,1829,#1829 1829,A232 Student Center,CA,92697
Panda Express,Albuquerque,1830,#1830 1830,2200 Sunport Blvd. Se,NM,87106
Panda Express,New Orleans,1831,#1831 1831,29 Mcalister Drive,LA,70118
Panda Express,Las Vegas,1832,#1832 1832,3200 Las Vegas Blvd. South,NV,89109
Panda Express,Crystal Lake,1833,#1833 1833,5260 Route 14,IL,60014
Panda Express,Glendale,1834,#1834 1834,5800 N. Bayshore Dr.,WI,53217
Panda Express,Madera,1835,#1835 1835,1900 W. Cleveland Ave.,CA,93637
Panda Express,Eagan,1836,#1836 1836,"1270 Promenade Place, Suite 150",MN,55120
Panda Express,Tucson,1837,#1837 1837,3398 South 6th Avenue,AZ,85713
Panda Express,Cincinnati,1838,#1838 1838,6180 Glenway Avenue,OH,45211
Panda Express,Broken Arrow,1839,#1839 1839,1314 E. Hillside Dr,OK,74012
Panda Express,South Plainfield,1840,#1840 1840,5030 Hadley Center Drive,NJ,7080
Panda Express,Anaheim,1841,#1841 1841,"927 South Euclid St., A",CA,92802
Panda Express,Smyrna,1846,#1846 1846,150 Movie Row,TN,37167
Panda Express,Dallas,1849,#1849 1849,39718 Lbj Fwy,TX,75237
Panda Express,Noblesville,1850,#1850 1850,"17055 Mercantile, Unit 14",IN,46060
Panda Express,San Antonio,1851,#1851 1851,21025 U.s. Hwy 281 N,TX,78258
Panda Express,Orlando,1852,#1852 1852,9333 Airport Blvd,FL,32827
Panda Express,San Marcos,1853,#1853 1853,100 W. Woods Street,TX,78666
Panda Express,Dallas,1854,#1854 1854,15204 Montfort Dr,TX,75248
Panda Express,San Jose,1855,#1855 1855,567 Coleman Ave.,CA,95110
Panda Express,Brea,1856,#1856 1856,"101 W. Imperial Hwy, G",CA,92821
Panda Express,Council Bluffs,1857,#1857 1857,3805 Denmark Dr.,IA,51501
Panda Express,Happy Valley,1858,#1858 1858,9425 Se 82nd Ave.,OR,97086
Panda Express,Santa Cruz,1860,#1860 1860,2121 Mission Street,CA,95060
Panda Express,Vacaville,1861,#1861 1861,1450 E. Monte Vista Ave,CA,95688
Panda Express,Santa Maria,1862,#1862 1862,236 E. Betteravia Rd,CA,93454
Panda Express,Nashville,1864,#1864 1864,2534 Powell Ave,TN,37204
Panda Express,Redwood City,1865,#1865 1865,1023 El Camino Real.,CA,94063
Panda Express,Aiea,1866,#1866 1866,98-1005 Moanalua Rd,HI,96701
Panda Express,Papillion,1868,#1868 1868,8760 S. 71st Plaza,NE,68133
Panda Express,Fort Wayne,1869,#1869 1869,6205 Lima Rd.,IN,46818
Panda Express,Gainesville,1870,#1870 1870,101 Museum Road.,FL,32611
Panda Express,Allen,1871,#1871 1871,340 E Stacy Rd,TX,75002
Panda Express,Pflugerville,1872,#1872 1872,18600 Limestone Commercial Dr,TX,78660
Panda Express,Tallahassee,1873,#1873 1873,1410 West Tennessee St,FL,32304
Panda Express,Tampa,1874,#1874 1874,2214 E. Fowler St,FL,33612
Panda Express,Apple Valley,1875,#1875 1875,7735 150th St.,MN,55124
Panda Express,Thackerville,1876,#1876 1876,777 Casino Ave.,OK,73459
Panda Express,Norman,1877,#1877 1877,1544 W State Highway 9,OK,73072
Panda Express,Chicago,1878,#1878 1878,520 N. Michigan Avenue.,IL,60611
Panda Express,Round Rock,1879,#1879 1879,111 University Oaks Blvd,TX,78664
Panda Express,Spokane,1880,#1880 1880,502 E. Boone Ave.,WA,99258
Panda Express,Yakima,1881,#1881 1881,6560 West Nob Hill Boulevard,WA,98908
Panda Express,Apple Valley,1882,#1882 1882,20290 Us Highway 18.,CA,92307
Panda Express,El Paso,1883,#1883 1883,1820 Joe Battle Blvd,TX,79936
Panda Express,West Allis,1884,#1884 1884,2611 S 108th St,WI,53227
Panda Express,Normal,1885,#1885 1885,312-1 South Veterans Parkway,IL,61761
Panda Express,Oro Valley,1886,#1886 1886,7848 N. Oracle Road,AZ,85704
Panda Express,College Place,1887,#1887 1887,1721 Se Meadowbrook Blvd.,WA,99324
Panda Express,Indianapolis,1888,#1888 1888,8255 E. 96th Street,IN,46256
Panda Express,Baton Rouge,1890,#1890 1890,Louisana State University,LA,70803
Panda Express,Los Angeles,1891,#1891 1891,3607 Trousdale Pkwy,CA,90089
Panda Express,Los Angeles,1893,#1893 1893,University Of Southern California.,CA,90006
Panda Express,Sacramento,1894,#1894 1894,6000 J Street,CA,95819
Panda Express,San Bernardino,1896,#1896 1896,500 Inland Center Drive.,CA,92408
Panda Express,Indianapolis,1897,#1897 1897,"645 Oscar Robertson Blvd, Ste. A",IN,46202
Panda Express,Tucson,1898,#1898 1898,7111 E. Tanque Verde,AZ,85715
Panda Express,Houston,1900,#1900 1900,5767 Hollister St,TX,77040
Panda Express,Springfield,1901,#1901 1901,7040 Old Keene Mill Rd,VA,22150
Panda Express,Cerritos,1902,#1902 1902,129 Los Cerritos Center,CA,90703
Panda Express,Fullerton,1903,#1903 1903,800 N. State College Blvd,CA,92831
Panda Express,Sacramento,1904,#1904 1904,6000 J Street.,CA,95819
Panda Express,Van Nuys,1905,#1905 1905,17276 W. Saticoy St.,CA,91406
Panda Express,Walpole,1906,#1906 1906,106 Providence Highway.,MA,2081
Panda Express,Dalton,1907,#1907 1907,1521 W. Walnut Ave,GA,30720
Panda Express,Wichita,1908,#1908 1908,11787 E. Kellogg Drive.,KS,67207
Panda Express,West Saint Paul,1909,#1909 1909,1740 S Robert St #112,MN,55118
Panda Express,Bellevue,1911,#1911 1911,3938 Factoria Mall Se,WA,98006
Panda Express,Barceloneta,1912,#1912 1912,Walmart Super Center - Florida Afuera Ward-state Rd.,PR,617
Panda Express,Philadelphia,1913,#1913 1913,1701 Jfk Blvd.,PA,19103
Panda Express,Bloomington,1914,#1914 1914,7823 Southtown Ctr,MN,55431
Panda Express,Glenview,1915,#1915 1915,2145 Willow Road,IL,60025
Panda Express,Trumbull,1916,#1916 1916,5065 Main Street.,CT,6611
Panda Express,Fort Wayne,1918,#1918 1918,1414 Apple Glen Blvd.,IN,46804
Panda Express,Murfreesboro,1919,#1919 1919,510 North Thompson Lane,TN,37129
Panda Express,San Diego,1920,#1920 1920,3525 Del Mar Heights Rd.,CA,92130
Panda Express,Metairie,1922,#1922 1922,3850 Veterans Memorial Blvd.,LA,70002
Panda Express,Foster City,1923,#1923 1923,2011 Chess Dr.,CA,94404
Panda Express,Palo Alto,1924,#1924 1924,2310 El Camino Real,CA,94306
Panda Express,Forney,1925,#1925 1925,950 E. Us Highway 80,TX,75126
Panda Express,Fajardo,1926,#1926 1926,"Carretera #3, Kilometro 45.4,",PR,738
Panda Express,Gainesville,1927,#1927 1927,1600 Sw Archer Road,FL,32611
Panda Express,Phoenix,1928,#1928 1928,998 E Indian School Rd,AZ,85014
Panda Express,Altoona,1929,#1929 1929,3640 8th St Sw,IA,50009
Panda Express,Brownsville,1930,#1930 1930,4435 N. Expressway,TX,78520
Panda Express,West Milwaukee,1931,#1931 1931,1210 Miller Park Way,WI,53214
Panda Express,Milwaukie,1932,#1932 1932,15009 Se Mcloughlin Blvd.,OR,97267
Panda Express,Nampa,1933,#1933 1933,1435 N Happy Valley Rd,ID,83687
Panda Express,Norman,1934,#1934 1934,1540 24th Ave Nw,OK,73069
Panda Express,Pleasanton,1935,#1935 1935,One Stoneridge Mall Rd.,CA,94588
Panda Express,San Jose,1936,#1936 1936,1704 Oakland Rd,CA,95131
Panda Express,San Jose,1937,#1937 1937,4180 N. First St.,CA,95134
Panda Express,Tucson,1938,#1938 1938,5870 East Broadway Boulevard.,AZ,85711
Panda Express,Austin,1939,#1939 1939,2901 S Capitol Of Texas Hwy,TX,78746
Panda Express,Mesquite,1940,#1940 1940,3030 Town East Mall,TX,75150
Panda Express,Pacoima,1941,#1941 1941,13520 W. Paxton Street,CA,91331
Panda Express,Woodland,1942,#1942 1942,2041 Bronze Star Dr.,CA,95776
Panda Express,Bastrop,1943,#1943 1943,728 Hwy 71 West,TX,78602
Panda Express,Murray,1944,#1944 1944,6191 S. State St.,UT,84107
Panda Express,Kyle,1946,#1946 1946,5261 Kyle Center Dr.,TX,78640
Panda Express,Bayonne,1947,#1947 1947,207 Bayonne Crossing Way,NJ,7002
Panda Express,Fairfield,1948,#1948 1948,1350 Travis Blvd.,CA,94533
Panda Express,San Diego,1949,#1949 1949,12330 Carmel Mountain Road,CA,92128
Panda Express,Bonney Lake,1950,#1950 1950,19461 State Hwy 410 East,WA,98390
Panda Express,Frisco,1951,#1951 1951,2601 Preston Road,TX,75034
Panda Express,Tucker,1952,#1952 1952,4004 Lavista Road,GA,30084
Panda Express,San Juan,1953,#1953 1953,"Expreso Pr #52, Salida 4a, Space Fc103",PR,926
Panda Express,Dedham,1954,#1954 1954,166 Providence Hwy,MA,2026
Panda Express,Richardson,1955,#1955 1955,507 S. Plano Rd.,TX,75081
Panda Express,El Paso,1956,#1956 1956,1434 N Lee Trevino Dr,TX,79936
Panda Express,Carolina,1957,#1957 1957,Plaza Carolina 65,PR,983
Panda Express,Lexington,1958,#1958 1958,404 S. Limestone St.,KY,40508
Panda Express,Omaha,1959,#1959 1959,3001 S 144th St,NE,68144
Panda Express,Ventura,1960,#1960 1960,3301 E. Main St.,CA,93003
Panda Express,Renton,1961,#1961 1961,14000 Se Petrovitsky Rd.,WA,98058
Panda Express,Brooklyn Park,1962,#1962 1962,7645 Jolly Ln,MN,55444
Panda Express,Roseburg,1963,#1963 1963,1122 Nw Garden Valley Blvd.,OR,97471
Panda Express,Las Vegas,1964,#1964 1964,3663 Las Vegas Blvd S,NV,89109
Panda Express,Wichita,1965,#1965 1965,2760 N Maize Rd,KS,67205
Panda Express,Schaumburg,1966,#1966 1966,2519 W. Schaumburg Rd.,IL,60194
Panda Express,El Cajon,1967,#1967 1967,12098 Fury Lane,CA,92019
Panda Express,Hoffman Estates,1968,#1968 1968,3333 Beverly Rd.,IL,60192
Panda Express,Norfolk,1969,#1969 1969,300 Monticello Avenue,VA,23510
Panda Express,Benbrook,1970,#1970 1970,8656 Benbrook Blvd,TX,76126
Panda Express,Flagstaff,1971,#1971 1971,"1111 S. Plaza Wy, #2",AZ,86001
Panda Express,Slidell,1972,#1972 1972,1638 Gause Blvd,LA,70458
Panda Express,Mount Vernon,1973,#1973 1973,2293 Freeway Drive,WA,98273
Panda Express,Yucaipa,1974,#1974 1974,33475 Yucaipa Blvd,CA,92399
Panda Express,Chicago,1975,#1975 1975,1730 W. Fullerton Ave.,IL,60614
Panda Express,Des Moines,1976,#1976 1976,3850 Merle Hay Rd,IA,50310
Panda Express,Chesterfield,1977,#1977 1977,98 Thf Blvd,MO,63005
Panda Express,El Paso,1978,#1978 1978,700 N. Zaragoza Rd,TX,79907
Panda Express,Granbury,1979,#1979 1979,1031 E Hwy 377,TX,76048
Panda Express,Bentonville,1980,#1980 1980,319 S Walton Blvd,AR,72712
Panda Express,Owasso,1981,#1981 1981,12403 E 96th St. North,OK,74055
Panda Express,Cabazon,1982,#1982 1982,48400 Seminole Dr.,CA,92230
Panda Express,Skokie,1983,#1983 1983,7160 Carpenter Rd.,IL,60077
Panda Express,Addison,1984,#1984 1984,1070 N. Rohlwing Rd.,IL,60101
Panda Express,Mcallen,1985,#1985 1985,1401 E Jackson Ave,TX,78503
Panda Express,Bernalillo,1986,#1986 1986,540 Hwy 528,NM,87004
Panda Express,Farmington,1987,#1987 1987,350 N. Central Ave.,UT,84025
Panda Express,Bend,1988,#1988 1988,63447 N Hwy 97,OR,97701
Panda Express,Edina,1990,#1990 1990,2294 Southdale Center,MN,55435
Panda Express,Milford,1991,#1991 1991,2 Ct Turnpike West (southbound On Interstate 1-95,CT,6460
Panda Express,Harlingen,1992,#1992 1992,2005 Lincoln Ave,TX,78552
Panda Express,Chubbuck,1993,#1993 1993,4225 Yellowstone Ave.,ID,83202
Panda Express,West Chester,1994,#1994 1994,7939 Tylersville Road,OH,45069
Panda Express,Lakeland,1995,#1995 1995,4163 North Us Hwy 98,FL,33809
Panda Express,West Des Moines,1996,#1996 1996,6495 Mills Civic Parkway,IA,50266
Panda Express,Arnold,1997,#1997 1997,3880 State Route 141,MO,63010
Panda Express,Albuquerque,1998,#1998 1998,3506 Coors Blvd. Sw,NM,87105
Panda Express,Harvey,1999,#1999 1999,1523 Manhattan Blvd.,LA,70058
Panda Express,Madison,2000,#2000 2000,2155 Gallatin Pike N,TN,37115
Panda Express,Hyattsville,2001,#2001 2001,6600 Annapolis Rd,MD,20784
Panda Express,Fairfax,2004,#2004 2004,11941 Fair Oaks Mall,VA,22033
Panda Express,Huntsville,2005,#2005 2005,6125 University Drive #g,AL,35806
Panda Express,Pleasanton,2006,#2006 2006,6774 Bernal Ave.,CA,94588
Panda Express,San Diego,2007,#2007 2007,3238 Guadalcanal Rd.,CA,92155
Panda Express,Houston,2008,#2008 2008,3950 S. Terminal Rd.,TX,77032
Panda Express,Starkville,2009,#2009 2009,198 Lee Blvd,MS,39760
Panda Express,Auburn,2010,#2010 2010,1310 Wilmore Drive.,AL,36849
Panda Express,Cedar Falls,2011,#2011 2011,6301 University,IA,50613
Panda Express,Chicago,2012,#2012 2012,515 South State St,IL,60605
Panda Express,Buckeye,2013,#2013 2013,1100 S. Watson Rd.,AZ,85326
Panda Express,Arlington,2014,#2014 2014,4008 172nd St. Ne,WA,98223
Panda Express,Auburn,2015,#2015 2015,1116 Supermall Way,WA,98001
Panda Express,Denton,2016,#2016 2016,2700 West University,TX,76201
Panda Express,Shreveport,2017,#2017 2017,7013 Youree Dr,LA,71105
Panda Express,Whittier,2018,#2018 2018,15528-b Whittier Blvd.,CA,90603
Panda Express,Cheyenne,2019,#2019 2019,2044 Dell Range Boulevard,WY,82009
Panda Express,San Dimas,2020,#2020 2020,508 N. Lone Hill Ave.,CA,91773
Panda Express,Albuquerque,2021,#2021 2021,8126 San Pedro Dr. Ne,NM,87113
Panda Express,Saint Augustine,2022,#2022 2022,1934 Us Hwy 1 South,FL,32086
Panda Express,Effingham,2023,#2023 2023,1203 N Keller Drive,IL,62401
Panda Express,Fairfax,2024,#2024 2024,4400 University Dr,VA,22030
Panda Express,Fort Worth,2025,#2025 2025,623 Alta Mere Dr,TX,76114
Panda Express,Longview,2026,#2026 2026,3082 N. Eastman Road,TX,75605
Panda Express,Atlantic City,2027,#2027 2027,1000 Boardwalk At Virginia Ave.,NJ,8401
Panda Express,Newport Beach,2028,#2028 2028,401 Newport Center Dr.,CA,92660
Panda Express,Tallahassee,2029,#2029 2029,2247 Capital Circle Ne,FL,32311
Panda Express,Caldwell,2030,#2030 2030,5210 Cleveland Blvd.,ID,83607
Panda Express,Amarillo,2033,#2033 2033,2416 South Georgia Street,TX,79109
Panda Express,Puerto Nuevo,2034,#2034 2034,"P.r. #2, Km. 2.2",PR,921
Panda Express,Stanford,2035,#2035 2035,459 Lagunita Dr.,CA,94305
Panda Express,Saint Cloud,2036,#2036 2036,"4011 W. Division St, Suite 2",MN,56301
Panda Express,San Jose,2037,#2037 2037,525 W. Santa Clara St.,CA,95113
Panda Express,Camp Lejeune,2038,#2038 2038,"Bldg 1231, Mcx Complex",NC,28547
Panda Express,San Diego,2039,#2039 2039,Nas North Island,CA,92135
Panda Express,Lubbock,2041,#2041 2041,6311 82nd St,TX,79424
Panda Express,Woodbury,2042,#2042 2042,7455 Currell Blvd,MN,55125
Panda Express,Vernon Hills,2043,#2043 2043,122 Hawthorn Center Dr.,IL,60061
Panda Express,Kalispell,2044,#2044 2044,150 Hutton Ranch Rd.,MT,59901
Panda Express,Las Vegas,2045,#2045 2045,3717 Las Vegas Blvd. South,NV,89109
Panda Express,Chattanooga,2046,#2046 2046,2260 Gunbarrel Road,TN,37421
Panda Express,Spokane Valley,2047,#2047 2047,5016 East Sprague Avenue,WA,99212
Panda Express,Mchenry,2048,#2048 2048,2476 N. Richmond Road,IL,60050
Panda Express,Belmont,2049,#2049 2049,1050 El Camino Real,CA,94002
Panda Express,Germantown,2051,#2051 2051,N96w17698 County Line Rd.,WI,53022
Panda Express,Iowa City,2052,#2052 2052,1035 Highway 1 West,IA,52246
Panda Express,Concord,2053,#2053 2053,5458 Ygnacio Valley Road,CA,94521
Panda Express,Rancho Cordova,2054,#2054 2054,10831 Olson Drive,CA,95670
Panda Express,Nogales,2055,#2055 2055,402 W. Mariposa Rd.,AZ,85621
Panda Express,Twin Falls,2056,#2056 2056,1671 Washington St. North,ID,83301
Panda Express,Nashville,2057,#2057 2057,455 Opry Mills Dr,TN,37214
Panda Express,Naperville,2058,#2058 2058,1123 E. Ogden Ave,IL,60563
Panda Express,Rio Piedras,2059,#2059 2059,"Carretera 1, Km 16.3, Esquina Calle Francisco Sein",PR,926
Panda Express,Rialto,2060,#2060 2060,1605 S. Riverside Ave.,CA,92376
Panda Express,Bayamon,2061,#2061 2061,501 W Main Ave,PR,961
Panda Express,Cypress,2062,#2062 2062,26230 Nw Fwy,TX,77429
Panda Express,Humacao,2063,#2063 2063,"Pr #3, Km 77.6",PR,791
Panda Express,Isabela,2064,#2064 2064,3535 Military Ave,PR,662
Panda Express,Midlothian,2066,#2066 2066,13340 Rittenhouse Drive,VA,23112
Panda Express,Arlington,2067,#2067 2067,3811 South Cooper Street,TX,76015
Panda Express,Billings,2068,#2068 2068,1551 Grand Ave.,MT,59101
Panda Express,Mira Loma,2069,#2069 2069,12530 Limonite Ave.,CA,91752
Panda Express,Santa Paula,2071,#2071 2071,545 W. Harvard Blvd.,CA,93060
Panda Express,Pensacola,2074,#2074 2074,1270 Airport Blvd,FL,32504
Panda Express,Oklahoma City,2078,#2078 2078,1901 Nw Expressway,OK,73118
Panda Express,Mount Vernon,2079,#2079 2079,4201 Broadway St.,IL,62864
Panda Express,Baton Rouge,2080,#2080 2080,3131 College Dr.,LA,70808
Panda Express,Farmington,2081,#2081 2081,3544 East Main,NM,87402
Panda Express,San Rafael,2082,#2082 2082,5800 Northgate Mall,CA,94903
Panda Express,Canovanas,2083,#2083 2083,"Sr Pr #3, Km 17.8",PR,729
Panda Express,Germantown,2084,#2084 2084,19847 Century Blvd,MD,20874
Panda Express,Midland,2085,#2085 2085,4505 N Midland Dr,TX,79707
Panda Express,Brighton,2086,#2086 2086,Nwc Bromley & Kuner,CO,80601
Panda Express,Portage,2087,#2087 2087,6150 U.s. Highway 6,IN,46368
Panda Express,Decatur,2088,#2088 2088,700 S Us Hwy 81-287,TX,76234
Panda Express,Cordova,2089,#2089 2089,585 N Germantown Parkway,TN,38018
Panda Express,Spring Hill,2090,#2090 2090,2004 Crossings Circle,TN,37174
Panda Express,Balch Springs,2092,#2092 2092,12203 Lake June Rd,TX,75180
Panda Express,Rancho Cucamonga,2093,#2093 2093,9659 Milliken Ave.,CA,91730
Panda Express,Laredo,2094,#2094 2094,2603 North East Bob Bullock Loop,TX,78045
Panda Express,Washington,2095,#2095 2095,2024 Concessions Pentagon,DC,20310
Panda Express,SPRINGFIELD,2097,#2097 2097,Missouri State University,MO,65807
Panda Express,Gresham,2098,#2098 2098,2402 Se Burnside Road,OR,97080
Panda Express,Portland,2099,#2099 2099,1462 Ne 122nd Ave.,OR,97230
Panda Express,Amarillo,2100,#2100 2100,4710 South Coulter Street,TX,79119
Panda Express,Ann Arbor,2101,#2101 2101,620 Briarwood Circle,MI,48108
Panda Express,Ofallon,2102,#2102 2102,1504 West Us Highway 50,IL,62269
Panda Express,Murfreesboro,2103,#2103 2103,1500 Greenland Drive,TN,37132
Panda Express,Weatherford,2105,#2105 2105,1900 S Main St.,TX,76086
Panda Express,Salt Lake City,2106,#2106 2106,200 S. Central Campus Dr.,UT,84112
Panda Express,Columbus,2107,#2107 2107,1630 Hilliard Rome Rd,OH,43228
Panda Express,College Station,2108,#2108 2108,275 Joe Routt Blvd,TX,77843
Panda Express,Lakewood,2109,#2109 2109,500 Lakewood Center Mall,CA,90712
Panda Express,Union,2110,#2110 2110,2704 Rt 22,NJ,7083
Panda Express,Manitowoc,2111,#2111 2111,4510 Calumet Ave.,WI,54220
Panda Express,Saint Louis,2112,#2112 2112,18 South County Centerway,MO,63129
Panda Express,Lexington,2113,#2113 2113,2433 Nicholasville Rd,KY,40503
Panda Express,Scottsdale,2114,#2114 2114,2931 N. Scottsdale Road,AZ,85251
Panda Express,San Antonio,2115,#2115 2115,14072 Nacogdoches Rd,TX,78233
Panda Express,Noblesville,2116,#2116 2116,13305 Tegler Drive,IN,46060
Panda Express,Gainesville,2117,#2117 2117,3610 Sw Archer Road,FL,32608
Panda Express,Westminster,2118,#2118 2118,7165 Sheridan Blvd,CO,80003
Panda Express,Gallatin,2119,#2119 2119,707 Nashville Pike,TN,37066
Panda Express,Longmont,2120,#2120 2120,2524 Main St,CO,80504
Panda Express,Appleton,2121,#2121 2121,N112 Stoneybrook Rd,WI,54915
Panda Express,Corpus Christi,2122,#2122 2122,6153 Saratoga Blvd,TX,78414
Panda Express,Clarksville,2123,#2123 2123,1075 Veterans Parkway,IN,47129
Panda Express,Florissant,2125,#2125 2125,2399 N Us Hwy 67,MO,63031
Panda Express,Tucson,2126,#2126 2126,2800 N. Campbell Ave.,AZ,85719
Panda Express,Spokane,2128,#2128 2128,3901 N. Market Street,WA,99207
Panda Express,Spokane,2129,#2129 2129,4750 North Division,WA,99207
Panda Express,Bowling Green,2130,#2130 2130,806 Ridge St,OH,43403
Panda Express,Bowling Green,2131,#2131 2131,Western Kentucky University,KY,42101
Panda Express,Waco,2132,#2132 2132,1311 S 5th St,TX,76706
Panda Express,Brookings,2133,#2133 2133,South Dakota State University,SD,57007
Panda Express,Mishawaka,2134,#2134 2134,4906 Grape Rd.,IN,46544
Panda Express,Billings,2135,#2135 2135,1633 Main Street,MT,59105
Panda Express,Novato,2136,#2136 2136,975 Diablo Ave,CA,94947
Panda Express,Alexandria,2137,#2137 2137,"6307 Richmond Hwy, Suite G",VA,22306
Panda Express,North Charleston,2138,#2138 2138,4924 Centre Pointe Drive,SC,29418
Panda Express,Jackson,2139,#2139 2139,1121 Vann Drive,TN,38305
Panda Express,Sacramento,2140,#2140 2140,3571 N. Freeway Blvd.,CA,95834
Panda Express,Springfield,2141,#2141 2141,3264 Gateway Street,OR,97477
Panda Express,Orange,2142,#2142 2142,2318 N. Tustin St.,CA,92865
Panda Express,Gustine,2143,#2143 2143,13046 Hwy 33,CA,95322
Panda Express,Greendale,2145,#2145 2145,5230 S 76th St,WI,53129
Panda Express,Fountain,2146,#2146 2146,6316 S Us Hwy 85-87,CO,80817
Panda Express,Madison,2147,#2147 2147,8598 Hwy 72 West,AL,35758
Panda Express,Milwaukee,2148,#2148 2148,3606 South 27th Street,WI,53221
Panda Express,Fayetteville,2149,#2149 2149,2109 W. Martin Luther King Blvd,AR,72701
Panda Express,Honolulu,2150,#2150 2150,2560 Mccarthy Mall,HI,96822
Panda Express,Norfolk,2151,#2151 2151,1200 Webb University Center,VA,23508
Panda Express,Topeka,2152,#2152 2152,"1920 S. Wanamaker Road, Suite 160",KS,66604
Panda Express,Waterloo,2153,#2153 2153,1503 E San Marnan Drive,IA,50702
Panda Express,Issaquah,2154,#2154 2154,6150 E. Lake Sammamish Parkway Se,WA,98029
Panda Express,Dallas,2155,#2155 2155,9411 Webb Chapel Rd,TX,75220
Panda Express,Stillwater,2156,#2156 2156,2080 North Perkins Rd.,OK,74074
Panda Express,Hollister,2157,#2157 2157,1740 Airline Highway,CA,95023
Panda Express,Clinton,2158,#2158 2158,1649 North 2000 West,UT,84015
Panda Express,Wentzville,2159,#2159 2159,1985 Wentzville Pkwy,MO,63385
Panda Express,Racine,2161,#2161 2161,5417 Washington Ave,WI,53406
Panda Express,Ontario,2162,#2162 2162,1771 E. Idaho Ave.,OR,97914
Panda Express,Edwards,2165,#2165 2165,203 W. Popson Ave Building #2500,CA,93524
Panda Express,Bloomington,2166,#2166 2166,3 State Farm Plaza South,IL,61791
Panda Express,Bellingham,2167,#2167 2167,516 High Street,WA,98225
Panda Express,Virginia Beach,2168,#2168 2168,1449 Tomcat Blvd,VA,23460
Panda Express,Toa Baja,2169,#2169 2169,"Pr-2, Int. 165",PR,949
Panda Express,Des Peres,2170,#2170 2170,188 West County Center,MO,63131
Panda Express,Rogers,2171,#2171 2171,2004a South Promenade Blvd,AR,72758
Panda Express,Hollywood,2172,#2172 2172,1803 N. Cahuenga Blvd.,CA,90028
Panda Express,Appleton,2173,#2173 2173,3641 W. College Av,WI,54914
Panda Express,Corvallis,2174,#2174 2174,1822 Nw 9th St.,OR,97330
Panda Express,Upland,2175,#2175 2175,140 South Mountain Ave,CA,91786
Panda Express,Houston,2176,#2176 2176,19 E. Crosstimbers St,TX,77022
Panda Express,Honolulu,2177,#2177 2177,890 Kapahulu Avenue,HI,96816
Panda Express,Louisville,2178,#2178 2178,1232 S. Hurstbourne Pkwy,KY,40222
Panda Express,San Juan,2179,#2179 2179,Rh Todd Ave And Corchado St,PR,936
Panda Express,Memphis,2182,#2182 2182,7579 Winchester Road,TN,38125
Panda Express,Odessa,2183,#2183 2183,4306 John Ben Shepperd Pkwy,TX,79762
Panda Express,Ewa Beach,2184,#2184 2184,91-1061 Keaunui Drive,HI,96706
Panda Express,Bethesda,2185,#2185 2185,8901 Wisconsin Avenue,MD,20889
Panda Express,Tampa,2186,#2186 2186,University Of South Florida,FL,33620
Panda Express,Boise,2187,#2187 2187,1910 University Dr.,ID,83725
Panda Express,Farmers Branch,2189,#2189 2189,13110 Josey Lane,TX,75234
Panda Express,Lincoln,2190,#2190 2190,"1317 Q Street, Suite 140",NE,68508
Panda Express,Houston,2191,#2191 2191,12949 Tomball Pkwy,TX,77086
Panda Express,Patterson,2192,#2192 2192,1040 Sperry Ave.,CA,95363
Panda Express,Abilene,2194,#2194 2194,1749 Hwy 351,TX,79601
Panda Express,Tulsa,2195,#2195 2195,7784 South Olympia Ave.,OK,74132
Panda Express,Gainesville,2196,#2196 2196,710 Nw 60th Street,FL,32607
Panda Express,Anderson,2197,#2197 2197,4688 S. Scatterfield Rd.,IN,46013
Panda Express,Denver,2198,#2198 2198,2000 Elitch Circle,CO,80204
Panda Express,Oklahoma City,2199,#2199 2199,116 E. I-240 Service Rd.,OK,73149
Panda Express,Carolina,2200,#2200 2200,"Pr #3, Km 9.6",PR,979
Panda Express,Show Low,2203,#2203 2203,5301 S. White Mountain Road,AZ,85901
Panda Express,Lubbock,2204,#2204 2204,313 University Ave.,TX,79415
Panda Express,Pueblo,2205,#2205 2205,2001 S. Pueblo Blvd.,CO,81005
Panda Express,Las Cruces,2206,#2206 2206,1400 University Ave.,NM,88001
Panda Express,Columbia,2207,#2207 2207,The Mall Of Columbia,MD,21044
Panda Express,Weslaco,2208,#2208 2208,904 N. Texas Blvd.,TX,78596
Panda Express,Florence,2210,#2210 2210,6805 Houston Road,KY,41042
Panda Express,Daly City,2212,#2212 2212,701 Westlake Mall,CA,94015
Panda Express,Mililani,2213,#2213 2213,95-1249 Meheula Parkway,HI,96789
Panda Express,Terre Haute,2214,#2214 2214,3340 South Hwy 41,IN,47802
Panda Express,Muncie,2215,#2215 2215,4605 West Clara Lane,IN,47304
Panda Express,San Antonio,2216,#2216 2216,334 Valley Hi Drive,TX,78227
Panda Express,Mankato,2217,#2217 2217,1810 Madison Ave,MN,56001
Panda Express,Laveen,2221,#2221 2221,6443 Komatke Lane,AZ,85339
Panda Express,Lemoore,2222,#2222 2222,700 Avenger,CA,93246
Panda Express,Chandler,2223,#2223 2223,1077 S. Kyrene Road,AZ,85226
Panda Express,Pensacola,2225,#2225 2225,250 Saufley St,FL,32508
Panda Express,Bellingham,2226,#2226 2226,One Bellis Fair Parkway,WA,98226
Panda Express,Bethesda,2227,#2227 2227,7101 Democracy Blvd,MD,20817
Panda Express,Aurora,2228,#2228 2228,5670 S Chambers Rd,CO,80015
Panda Express,Tempe,2230,#2230 2230,908 E. Broadway Ave.,AZ,85282
Panda Express,Carson,2231,#2231 2231,1000 E. Victoria Avenue,CA,90747
Panda Express,Las Vegas,2232,#2232 2232,6587 Las Vegas Blvd South,NV,89119
Panda Express,Charleston,2233,#2233 2233,7379 Rivers Ave,SC,29406
Panda Express,Janesville,2234,#2234 2234,3377 Milton Ave.,WI,53545
Panda Express,Omaha,2235,#2235 2235,7052 Dodge St,NE,68132
Panda Express,Brooklyn Center,2236,#2236 2236,1520 Shingle Creek Crossing,MN,55430
Panda Express,Oklahoma City,2238,#2238 2238,14040 N. May Ave.,OK,73134
Panda Express,Houston,2239,#2239 2239,2800 N Terminal Road,TX,77032
Panda Express,Lawrence,2250,#2250 2250,3310 Iowa St,KS,66046
Panda Express,East Peoria,2251,#2251 2251,111 Spinder Drive,IL,61611
Panda Express,Los Angeles,2252,#2252 2252,Tom-bradley Terminal-west,CA,90044
Panda Express,Grand Island,2253,#2253 2253,960 Allen  Drive,NE,68803
Panda Express,Aurora,2254,#2254 2254,3425 Salida Street,CO,80011
Panda Express,Port Hueneme Cbc Base,2255,#2255 2255,Port Hueneme,CA,93043
Panda Express,Pasadena,2258,#2258 2258,5230 Fairmont Parkway,TX,77505
Panda Express,Hampton,2259,#2259 2259,2031 Coliseum Dr,VA,23666
Panda Express,Lawton,2260,#2260 2260,1936 Nw 82nd Street,OK,73505
Panda Express,Helena,2261,#2261 2261,3075 N. Sanders St.,MT,59601
Panda Express,Fargo,2264,#2264 2264,1340 Administration Ave.,ND,58102
Panda Express,Littleton,2265,#2265 2265,7850 W Quincy Avenue,CO,80123
Panda Express,Red Oak,2266,#2266 2266,102 E.ovilla Rd,TX,75154
Panda Express,San Ramon,2267,#2267 2267,3141 Crow Canyon Pl.,CA,94583
Panda Express,Idaho Falls,2268,#2268 2268,720 South Utah Ave.,ID,83402
Panda Express,Saratoga Springs,2270,#2270 2270,1413 N. Redwood Rd.,UT,84045
Panda Express,Tulsa,2271,#2271 2271,10535 S. Memorial Dr,OK,74133
Panda Express,Torrance,2274,#2274 2274,3525 Carson Street,CA,90503
Panda Express,Hesperia,2275,#2275 2275,13307 Main St.,CA,92345
Panda Express,El Centro,2276,#2276 2276,2380 S. 4th Street,CA,92243
Panda Express,San Jose,2277,#2277 2277,361 N. Capitol Ave,CA,95132
Panda Express,Omaha,2280,#2280 2280,6228 N 72nd St,NE,68134
Panda Express,El Paso,2281,#2281 2281,6900 N. Mesa St,TX,79912
Panda Express,Saint Louis,2285,#2285 2285,10722 Sunset Hills Plaza,MO,63127
Panda Express,Corpus Christi,2286,#2286 2286,4119 S. Staples,TX,78411
Panda Express,Mission Viejo,2287,#2287 2287,27670-b Santa Margarita Parkway,CA,92691
Panda Express,Mason,2288,#2288 2288,9345 Mason Montgomery Rd.,OH,45040
Panda Express,Warsaw,2289,#2289 2289,1170 Lake City Hwy,IN,46582
Panda Express,Copperas Cove,2290,#2290 2290,208 Robert Griffin Iii Dr,TX,76522
Panda Express,Hot Springs National Park,2291,#2291 2291,1384 Higdon Ferry,AR,71913
Panda Express,Lufkin,2292,#2292 2292,2134 S. First St.,TX,75904
Panda Express,Owatonna,2294,#2294 2294,1115 Frontage Road West,MN,55060
Panda Express,Columbus,2297,#2297 2297,5295 Whittlesey Blvd,GA,31909
Panda Express,Pomona,2299,#2299 2299,751 Rio Rancho Rd.,CA,91766
Panda Express,Greenville,2300,#2300 2300,1001 East 5th Street,NC,27858
Panda Express,Houston,2304,#2304 2304,University Of Houston,TX,77204
Panda Express,Boulder,2313,#2313 2313,University Of Colorado,CO,80309
Panda Express,Lawrence,2314,#2314 2314,1301 Jayhawk Blvd,KS,66045
Panda Express,Holland,2315,#2315 2315,3277 West Shore Drive,MI,49424
Panda Express,Springfield,2316,#2316 2316,1905 E. Independence,MO,65804
Panda Express,Yonkers,2318,#2318 2318,3080 Mall Walk,NY,10704
Panda Express,Tucson,2319,#2319 2319,9130 South Houghton Road,AZ,85747
Panda Express,Castro Valley,2321,#2321 2321,3893 E. Castro Valley Blvd.,CA,94552
Panda Express,Benicia,2322,#2322 2322,804 Southampton Road,CA,94510
Panda Express,Springfield,2323,#2323 2323,720 N. Glenstone Avenue,MO,65803
Panda Express,Bronx,2326,#2326 2326,441 East Fordham Road,NY,10458
Panda Express,Knoxville,2328,#2328 2328,11480 Parkside Drive,TN,37934
Panda Express,Paris,2329,#2329 2329,5280 S. E. Loop 286,TX,75460
Panda Express,Sioux Falls,2330,#2330 2330,4203 W 41st St,SD,57106
Panda Express,Warner Robins,2335,#2335 2335,2743 Watson Blvd,GA,31093
Panda Express,San Marcos,2337,#2337 2337,333 South Twin Oaks Valley Road,CA,92096
Panda Express,Boise,2338,#2338 2338,601 W. Front St.,ID,83702
Panda Express,Champaign,2341,#2341 2341,627 S Wright St.,IL,61820
Panda Express,Hendersonville,2343,#2343 2343,208 Anderson Lane North,TN,37075
Panda Express,Hammond,2345,#2345 2345,Southeastern Louisiana University,LA,70401
Panda Express,Prattville,2346,#2346 2346,1921 Cobbs Ford Road,AL,36066
Panda Express,Tuscaloosa,2347,#2347 2347,636 15th Street East,AL,35401
Panda Express,Los Angeles,2348,#2348 2348,5867 S. Central Avenue,CA,90001
Panda Express,Ocala,2351,#2351 2351,3435 Sw College Road,FL,34474
Panda Express,Sulphur Springs,2353,#2353 2353,150 E Shannon Rd,TX,75482
Panda Express,Oxford,2361,#2361 2361,University Of Mississippi,MS,38655
Panda Express,Detroit,2410,#2410 2410,5221 Gullen Mall,MI,48202
Panda Express,Nepean,60001,#60001 60001,324-1 West Hunt Club Rd,ON,K2E 1A5
