keywords,city,Aggdata Store Number,store_number,address,state,zip_code
Papa Murphy's Take N Bake,Wasilla,AK001,AK001,1561 East Parks Hwy,AK,99654
Papa Murphy's Take N Bake,Anchorage,AK002,AK002,5668 Debarr Road,AK,99504
Papa Murphy's Take N Bake,Juneau,AK003,AK003,9108 Mendenhall Mall Road,AK,99801
Papa Murphy's Take N Bake,Soldotna,AK004,AK004,131A Ware House Drive,AK,99669
Papa Murphy's Take N Bake,Anchorage,AK005,AK005,2286 Abbott Road,AK,99507
Papa Murphy's Take N Bake,Fairbanks,AK006,AK006,930 Old Steese Hwy,AK,99701
Papa Murphy's Take N Bake,Eagle River,AK007,AK007,13331 Old Glenn Highway,AK,99577
Papa Murphy's Take N Bake,Anchorage,AK008,AK008,2203 West Dimond Boulevard,AK,99515
Papa Murphy's Take N Bake,Fairbanks,AK009,AK009,3637 Airport Way,AK,99709
Papa Murphy's Take N Bake,Anchorage,AK010,AK010,1231 West Northern Lights Blvd,AK,99503
Papa Murphy's Take N Bake,Anchorage,AK011,AK011,1501 Huffman Road,AK,99515
Papa Murphy's Take N Bake,Hartselle,AL002,AL002,701 Highway 31 South West,AL,35640
Papa Murphy's Take N Bake,Decatur,AL003,AL003,1406 Beltline Road SouthWest,AL,35601
Papa Murphy's Take N Bake,Madison,AL004,AL004,7830 US Highway 72 West,AL,35758
Papa Murphy's Take N Bake,Muscle Shoals,AL005,AL005,233 Avalon Avenue,AL,35661
Papa Murphy's Take N Bake,Athens,AL006,AL006,934 US Highway 72 East,AL,35611
Papa Murphy's Take N Bake,Homewood,AL007,AL007,437 Green Springs Highway,AL,35209
Papa Murphy's Take N Bake,Hoover,AL008,AL008,1580 Montgomery Highway,AL,35216
Papa Murphy's Take N Bake,Foley,AL009,AL009,2062 South McKenzie Street,AL,36535
Papa Murphy's Take N Bake,Cullman,AL010,AL010,1850 Cherokee Avenue SW,AL,35055
Papa Murphy's Take N Bake,Huntsville,AL011,AL011,11437 Memorial Parkway Southwest,AL,35803
Papa Murphy's Take N Bake,Huntsville,AL013,AL013,5000 Whitesburg Drive S,AL,35802
Papa Murphy's Take N Bake,Mobile,AL014,AL014,2370 Hillcrest Road,AL,36695
Papa Murphy's Take N Bake,Bentonville,AR002,AR002,201 SW 14th Street,AR,72712
Papa Murphy's Take N Bake,Springdale,AR004,AR004,2111 South Old Missouri Rd,AR,72764
Papa Murphy's Take N Bake,Fayetteville,AR009,AR009,3049 West 6th Street,AR,72704
Papa Murphy's Take N Bake,Russellville,AR012,AR012,420 North Arkansas Ave,AR,72801
Papa Murphy's Take N Bake,Rogers,AR015,AR015,2006 West Walnut Street,AR,72756
Papa Murphy's Take N Bake,Jacksonville,AR017,AR017,2050 John Harden Drive,AR,72076
Papa Murphy's Take N Bake,North Little Rock,AR018,AR018,7412 North Hills Blvd,AR,72116
Papa Murphy's Take N Bake,Fort Smith,AR025,AR025,2307 Zero Street,AR,72901
Papa Murphy's Take N Bake,Van Buren,AR026,AR026,2254 Fayetteville Road,AR,72956
Papa Murphy's Take N Bake,Fort Smith,AR027,AR027,7613 Rogers Ave,AR,72903
Papa Murphy's Take N Bake,Mountain Home,AR029,AR029,1013 Highway 62 East,AR,72653
Papa Murphy's Take N Bake,Hot Springs,AR030,AR030,1412 Higdon Ferry Road,AR,71913
Papa Murphy's Take N Bake,Little Rock,AR033,AR033,9120 Rodney Parham Road,AR,72205
Papa Murphy's Take N Bake,Phoenix,AZ001,AZ001,4025 East Chandler Blvd,AZ,85048
Papa Murphy's Take N Bake,Surprise,AZ002,AZ002,15557 West Bell Road,AZ,85374
Papa Murphy's Take N Bake,Chandler,AZ003,AZ003,3900 West Ray Road,AZ,85226
Papa Murphy's Take N Bake,Gilbert,AZ004,AZ004,1385 East Warner Road,AZ,85296
Papa Murphy's Take N Bake,Prescott,AZ006,AZ006,1333 Iron Springs Road,AZ,86301
Papa Murphy's Take N Bake,Apache Junction,AZ007,AZ007,2114 West Apache Trail,AZ,85220
Papa Murphy's Take N Bake,Avondale,AZ008,AZ008,1809 North Dysart Road,AZ,85323
Papa Murphy's Take N Bake,Cave Creek,AZ010,AZ010,29455 North Cave Creek Road,AZ,85331
Papa Murphy's Take N Bake,Phoenix,AZ011,AZ011,3230 East Union Hills,AZ,85050
Papa Murphy's Take N Bake,Kingman,AZ014,AZ014,3900 Stockton Hill Road,AZ,86409
Papa Murphy's Take N Bake,Sierra Vista,AZ017,AZ017,2373 East Fry Boulevard,AZ,85635
Papa Murphy's Take N Bake,Cottonwood,AZ020,AZ020,976 South Main Street,AZ,86326
Papa Murphy's Take N Bake,Tucson,AZ022,AZ022,7250 North La Cholla Boulevard,AZ,85741
Papa Murphy's Take N Bake,Tucson,AZ023,AZ023,4811 East Grant Road,AZ,85712
Papa Murphy's Take N Bake,Casa Grande,AZ025,AZ025,1485 East Florence Boulevard,AZ,85222
Papa Murphy's Take N Bake,Mesa,AZ026,AZ026,3550 East Southern Avenue,AZ,85204
Papa Murphy's Take N Bake,Lake Havasu City,AZ027,AZ027,2231 McCulloch Blvd. N,AZ,86403
Papa Murphy's Take N Bake,Tucson,AZ031,AZ031,7850 North Silverbell Road,AZ,85743
Papa Murphy's Take N Bake,Green Valley,AZ032,AZ032,1295 West Duval Mine Road,AZ,85614
Papa Murphy's Take N Bake,Yuma,AZ033,AZ033,2951 South Pacific Avenue,AZ,85365
Papa Murphy's Take N Bake,Goodyear,AZ034,AZ034,15570 West Van Buren Street,AZ,85338
Papa Murphy's Take N Bake,Flagstaff,AZ035,AZ035,2700 South Woodlands Village Boulevard,AZ,86001
Papa Murphy's Take N Bake,Oro Valley,AZ038,AZ038,10378 North La Canada Drive,AZ,85737
Papa Murphy's Take N Bake,Chandler,AZ039,AZ039,1020 East Ray Road,AZ,85225
Papa Murphy's Take N Bake,Tucson,AZ041,AZ041,7245 E Tanque Verde Road,AZ,85715
Papa Murphy's Take N Bake,Mesa,AZ042,AZ042,1242 East McKellips Road,AZ,85213
Papa Murphy's Take N Bake,Glendale,AZ043,AZ043,3780 West Happy Valley Road,AZ,85310
Papa Murphy's Take N Bake,Chandler,AZ044,AZ044,2820 South Alma School Road,AZ,85286
Papa Murphy's Take N Bake,Mesa,AZ045,AZ045,1229 South Power Road,AZ,85206
Papa Murphy's Take N Bake,Peoria,AZ047,AZ047,9015 West Union Hills Drive,AZ,85382
Papa Murphy's Take N Bake,Mesa,AZ049,AZ049,1955 West Baseline Road,AZ,85202
Papa Murphy's Take N Bake,Scottsdale,AZ050,AZ050,6339 East Greenway Road,AZ,85254
Papa Murphy's Take N Bake,Peoria,AZ052,AZ052,7465 West Cactus Road,AZ,85381
Papa Murphy's Take N Bake,Prescott Valley,AZ053,AZ053,3298 N Glassford Hill Rd,AZ,86314
Papa Murphy's Take N Bake,Bullhead City,AZ054,AZ054,4723 South Highway 95,AZ,86426
Papa Murphy's Take N Bake,Glendale,AZ057,AZ057,20020 North 59th Avenue,AZ,85308
Papa Murphy's Take N Bake,Queen Creek,AZ058,AZ058,23706 South Power Road,AZ,85142
Papa Murphy's Take N Bake,Maricopa,AZ059,AZ059,20928 North John Wayne Parkway,AZ,85139
Papa Murphy's Take N Bake,Glendale,AZ062,AZ062,5830 West Thunderbird Road,AZ,85306
Papa Murphy's Take N Bake,Glendale,AZ063,AZ063,5150 West Olive Avenue,AZ,85302
Papa Murphy's Take N Bake,Anthem,AZ066,AZ066,3655 West Anthem Way,AZ,85086
Papa Murphy's Take N Bake,Scottsdale,AZ067,AZ067,8912 East Via Linda,AZ,85258
Papa Murphy's Take N Bake,Tucson,AZ068,AZ068,1710 West Valencia Road,AZ,85746
Papa Murphy's Take N Bake,Chandler,AZ071,AZ071,1075 East Riggs Road,AZ,85249
Papa Murphy's Take N Bake,Tucson,AZ073,AZ073,2118 West Grant Road,AZ,85745
Papa Murphy's Take N Bake,Mesa,AZ078,AZ078,67 North Dobson Road,AZ,85201
Papa Murphy's Take N Bake,Petaluma,CA001,CA001,965 Lakeville Street,CA,94952
Papa Murphy's Take N Bake,Greenbrae,CA003,CA003,318 Bon Air Center,CA,94904-2416
Papa Murphy's Take N Bake,San Jose,CA005,CA005,1375 Blossom Hill Road,CA,95118
Papa Murphy's Take N Bake,Alameda,CA010,CA010,1929 Broadway,CA,94501
Papa Murphy's Take N Bake,Belmont,CA013,CA013,1602 El Camino Real,CA,94002
Papa Murphy's Take N Bake,Fortuna,CA014,CA014,709 South Fortuna Blvd.,CA,95540
Papa Murphy's Take N Bake,Arcata,CA015,CA015,686 F Street,CA,95521
Papa Murphy's Take N Bake,Willits,CA016,CA016,875 South Main Street,CA,95490
Papa Murphy's Take N Bake,Yreka,CA018,CA018,1818 Fort Jones Road,CA,96097
Papa Murphy's Take N Bake,Chico,CA019,CA019,1305 Mangrove Avenue,CA,95926
Papa Murphy's Take N Bake,Mckinleyville,CA020,CA020,2015 Central Avenue,CA,95519
Papa Murphy's Take N Bake,Red Bluff,CA021,CA021,845 South Main Street,CA,96080
Papa Murphy's Take N Bake,Fairfield,CA023,CA023,2350 North Texas Street,CA,94533
Papa Murphy's Take N Bake,Crescent City,CA024,CA024,617 M Street,CA,95531
Papa Murphy's Take N Bake,Santa Rosa,CA025,CA025,140 Calistoga Road,CA,95409
Papa Murphy's Take N Bake,Santa Rosa,CA026,CA026,2101 West College Avenue,CA,95401
Papa Murphy's Take N Bake,Susanville,CA027,CA027,1245 Main Street,CA,96130
Papa Murphy's Take N Bake,Davis,CA029,CA029,640 West Covell Blvd,CA,95616
Papa Murphy's Take N Bake,Scotts Valley,CA032,CA032,245 Mt. Hermon Road,CA,95066
Papa Murphy's Take N Bake,Napa,CA033,CA033,1800 Soscol Avenue,CA,94559
Papa Murphy's Take N Bake,Fort Bragg,CA034,CA034,179 Boatyard Drive,CA,95437
Papa Murphy's Take N Bake,Anderson,CA035,CA035,2621 Balls Ferry Road,CA,96007
Papa Murphy's Take N Bake,Yuba City,CA036,CA036,962 Gray Avenue,CA,95991
Papa Murphy's Take N Bake,Vallejo,CA038,CA038,746 Admiral Callaghan Lane,CA,94591
Papa Murphy's Take N Bake,Clayton,CA039,CA039,5433 Clayton Road,CA,94517
Papa Murphy's Take N Bake,Vacaville,CA040,CA040,3071 Alamo Drive,CA,95687
Papa Murphy's Take N Bake,Quincy,CA044,CA044,1750 East Main Street,CA,95971
Papa Murphy's Take N Bake,Redding,CA046,CA046,239 Lake Blvd.,CA,96003
Papa Murphy's Take N Bake,Eureka,CA047,CA047,407 Henderson Street,CA,95501
Papa Murphy's Take N Bake,Cameron Park,CA048,CA048,3440 Palmer Drive,CA,95682
Papa Murphy's Take N Bake,Chico,CA049,CA049,2485 Notre Dame Blvd.,CA,95928
Papa Murphy's Take N Bake,San Ramon,CA050,CA050,21001 San Ramon Valley Blvd,CA,94583
Papa Murphy's Take N Bake,Ukiah,CA051,CA051,1198 North State Street,CA,95482
Papa Murphy's Take N Bake,Rocklin,CA053,CA053,4819 Granite Drive,CA,95677
Papa Murphy's Take N Bake,Mount Shasta,CA054,CA054,432 North Mt Shasta Blvd,CA,96067
Papa Murphy's Take N Bake,Corning,CA055,CA055,2011 Solano Street,CA,96021
Papa Murphy's Take N Bake,San Jose,CA056,CA056,2984 Union Avenue,CA,95124
Papa Murphy's Take N Bake,Hollister,CA057,CA057,1740 Airline Highway,CA,95023
Papa Murphy's Take N Bake,Elk Grove,CA058,CA058,8559 Elk Grove Blvd.,CA,95624
Papa Murphy's Take N Bake,Orland,CA059,CA059,123 East Walker Street,CA,95963
Papa Murphy's Take N Bake,Manteca,CA060,CA060,552 North Main Street,CA,95336
Papa Murphy's Take N Bake,Windsor,CA061,CA061,8794 Lakewood Drive,CA,95492
Papa Murphy's Take N Bake,Tracy,CA063,CA063,1894 West 11th Street,CA,95376
Papa Murphy's Take N Bake,Placerville,CA064,CA064,65 Fair Lane,CA,95667
Papa Murphy's Take N Bake,Cotati,CA066,CA066,8005 Old Redwood Hwy.,CA,94931
Papa Murphy's Take N Bake,Sunnyvale,CA067,CA067,939 West El Camino Real,CA,94087
Papa Murphy's Take N Bake,Stockton,CA068,CA068,4663 Pacific Avenue,CA,95207
Papa Murphy's Take N Bake,Martinez,CA069,CA069,1155 Arnold Drive,CA,94553
Papa Murphy's Take N Bake,Woodland,CA070,CA070,13 Purity Plaza,CA,95695
Papa Murphy's Take N Bake,Sebastopol,CA071,CA071,7231 Healdsburg Avenue,CA,95472
Papa Murphy's Take N Bake,Grass Valley,CA072,CA072,12048 Nevada City Highway,CA,95945
Papa Murphy's Take N Bake,Modesto,CA073,CA073,2601 Oakdale Road,CA,95355
Papa Murphy's Take N Bake,Stockton,CA074,CA074,7824 Thornton Road,CA,95207
Papa Murphy's Take N Bake,Brentwood,CA075,CA075,1145 2nd Street,CA,94513
Papa Murphy's Take N Bake,Citrus Heights,CA076,CA076,7528 Greenback Lane,CA,95610
Papa Murphy's Take N Bake,Turlock,CA077,CA077,2926 Geer Road,CA,95382
Papa Murphy's Take N Bake,Antioch,CA078,CA078,3345 Deer Valley Road,CA,94531
Papa Murphy's Take N Bake,Gilroy,CA079,CA079,767 First Street,CA,95020
Papa Murphy's Take N Bake,Pacifica,CA080,CA080,330 Palmetto Avenue,CA,94044
Papa Murphy's Take N Bake,Sacramento,CA081,CA081,3291 Truxel Road,CA,95833
Papa Murphy's Take N Bake,Pittsburg,CA083,CA083,1315 Buchanan Drive,CA,94565
Papa Murphy's Take N Bake,Merced,CA084,CA084,220 East Yosemite Avenue,CA,95340
Papa Murphy's Take N Bake,Novato,CA085,CA085,922 Diablo Avenue,CA,94947
Papa Murphy's Take N Bake,Roseville,CA086,CA086,5020 Foothills Blvd.,CA,95747
Papa Murphy's Take N Bake,Salinas,CA088,CA088,1225 South Main Street,CA,93901
Papa Murphy's Take N Bake,Modesto,CA089,CA089,3900 Pelandale Avenue,CA,95356
Papa Murphy's Take N Bake,Suisun City,CA091,CA091,131 Sunset Avenue Suite D,CA,94585
Papa Murphy's Take N Bake,Grass Valley,CA092,CA092,151 West McKnight Way,CA,95949
Papa Murphy's Take N Bake,Sacramento,CA093,CA093,5412 Madison Avenue,CA,95841
Papa Murphy's Take N Bake,Redding,CA094,CA094,3361 Placer Street,CA,96001
Papa Murphy's Take N Bake,Sacramento,CA095,CA095,2805 Marconi Avenue,CA,95821
Papa Murphy's Take N Bake,Sacramento,CA096,CA096,4700 Mack Road,CA,95823
Papa Murphy's Take N Bake,Walnut Creek,CA097,CA097,2991 Ygnacio Valley Road,CA,94598
Papa Murphy's Take N Bake,Stockton,CA098,CA098,678 North Wilson Way,CA,95205
Papa Murphy's Take N Bake,Modesto,CA100,CA100,3430 Tully Road,CA,95350
Papa Murphy's Take N Bake,Orangevale,CA101,CA101,8821 Greenback Lane,CA,95662
Papa Murphy's Take N Bake,Madera,CA102,CA102,324 North Gateway Drive,CA,93637
Papa Murphy's Take N Bake,Clovis,CA103,CA103,619 Shaw Avenue,CA,93612
Papa Murphy's Take N Bake,Fresno,CA104,CA104,3140 West Shaw Avenue,CA,93711
Papa Murphy's Take N Bake,Fresno,CA105,CA105,5171 East Kings Canyon Road,CA,93727
Papa Murphy's Take N Bake,Reedley,CA106,CA106,803 East 11th Street,CA,93654
Papa Murphy's Take N Bake,Selma,CA107,CA107,2772 Whitson Avenue,CA,93662
Papa Murphy's Take N Bake,Sacramento,CA108,CA108,4424 Freeport Blvd,CA,95822
Papa Murphy's Take N Bake,Folsom,CA110,CA110,703 East Bidwell Street,CA,95630
Papa Murphy's Take N Bake,Sacramento,CA112,CA112,3557 Bradshaw Road,CA,95827
Papa Murphy's Take N Bake,Oakdale,CA113,CA113,1190 East F Street,CA,95361
Papa Murphy's Take N Bake,Modesto,CA114,CA114,1633 East Hatch Road,CA,95351
Papa Murphy's Take N Bake,Pleasanton,CA116,CA116,1991 Santa Rita Road,CA,94566
Papa Murphy's Take N Bake,Sacramento,CA118,CA118,7485 Rush River Drive,CA,95831
Papa Murphy's Take N Bake,Pinole,CA119,CA119,1502A Fitzgerald Drive,CA,94564
Papa Murphy's Take N Bake,Oroville,CA121,CA121,1751 Oro Dam Boulevard East,CA,95966
Papa Murphy's Take N Bake,Citrus Heights,CA122,CA122,6456 Antelope Road,CA,95621
Papa Murphy's Take N Bake,Elk Grove,CA123,CA123,4720 Laguna Blvd.,CA,95758
Papa Murphy's Take N Bake,Antelope,CA124,CA124,4320 Elverta Road,CA,95843
Papa Murphy's Take N Bake,Monterey,CA126,CA126,2440 Fremont Street,CA,93940
Papa Murphy's Take N Bake,Vacaville,CA127,CA127,781 East Monte Vista Avenue,CA,95688
Papa Murphy's Take N Bake,Hanford,CA128,CA128,375 North 11th Avenue,CA,93230
Papa Murphy's Take N Bake,Santa Rosa,CA129,CA129,1985 Mendocino Avenue,CA,95401
Papa Murphy's Take N Bake,Bakersfield,CA131,CA131,3705 Columbus Street,CA,93306
Papa Murphy's Take N Bake,Carmichael,CA134,CA134,6470 Fair Oaks Blvd.,CA,95608
Papa Murphy's Take N Bake,Sacramento,CA135,CA135,8364 Elk Grove Florin Road,CA,95829
Papa Murphy's Take N Bake,Sonora,CA136,CA136,1281 Sanguinetti Road,CA,95370
Papa Murphy's Take N Bake,Los Banos,CA138,CA138,611 Pacheco Blvd.,CA,93635
Papa Murphy's Take N Bake,Bakersfield,CA139,CA139,3404 Stine Road,CA,93309
Papa Murphy's Take N Bake,Roseville,CA142,CA142,9260 Sierra College Blvd,CA,95661
Papa Murphy's Take N Bake,Sacramento,CA143,CA143,8118 Gerber Road,CA,95828
Papa Murphy's Take N Bake,Alamo,CA146,CA146,3000 Danville Blvd.,CA,94507
Papa Murphy's Take N Bake,West Sacramento,CA147,CA147,1288 West Capitol Avenue,CA,95691
Papa Murphy's Take N Bake,Auburn,CA152,CA152,2566 Grass Valley Highway,CA,95603
Papa Murphy's Take N Bake,Livermore,CA154,CA154,2002 Portola Avenue,CA,94551
Papa Murphy's Take N Bake,Salinas,CA156,CA156,616 East Boronda Road,CA,93906
Papa Murphy's Take N Bake,Milpitas,CA158,CA158,119 North Milpitas Blvd.,CA,95035
Papa Murphy's Take N Bake,Sacramento,CA160,CA160,4340 Arden Way,CA,95864
Papa Murphy's Take N Bake,Lodi,CA163,CA163,2309 West Kettleman Lane,CA,95242
Papa Murphy's Take N Bake,Sacramento,CA164,CA164,5734 Folsom Boulelvard,CA,95819
Papa Murphy's Take N Bake,Bakersfield,CA169,CA169,13075 Rosedale Hwy,CA,93314
Papa Murphy's Take N Bake,Tulare,CA170,CA170,1582 Hillman Street,CA,93274
Papa Murphy's Take N Bake,Paradise,CA171,CA171,6026 Clark Road,CA,95969
Papa Murphy's Take N Bake,Gold River,CA172,CA172,2095 Golden Centre Lane,CA,95670
Papa Murphy's Take N Bake,Atwater,CA173,CA173,1860 Bellevue Road,CA,95301
Papa Murphy's Take N Bake,Jackson,CA174,CA174,777 South State Highway 49,CA,95642
Papa Murphy's Take N Bake,Fremont,CA175,CA175,5176 Mowry Avenue,CA,94538
Papa Murphy's Take N Bake,Lincoln,CA176,CA176,415 South State Highway 65,CA,95648
Papa Murphy's Take N Bake,Concord,CA182,CA182,2705 Clayton Road,CA,94519
Papa Murphy's Take N Bake,North Highlands,CA184,CA184,5901 Watt Avenue,CA,95660
Papa Murphy's Take N Bake,American Canyon,CA195,CA195,101 W American Canyon Rd,CA,94503
Papa Murphy's Take N Bake,Bakersfield,CA207,CA207,6077 Coffee Road,CA,93308
Papa Murphy's Take N Bake,Walnut Creek,CA213,CA213,1577A Palos Verdes Mall,CA,94597
Papa Murphy's Take N Bake,Roseville,CA214,CA214,731 Pleasant Grove Boulevard,CA,95678
Papa Murphy's Take N Bake,Galt,CA216,CA216,10530 Twin Cities Road,CA,95632
Papa Murphy's Take N Bake,Patterson,CA217,CA217,1010 West Las Palmas Ave,CA,95363
Papa Murphy's Take N Bake,Riverbank,CA221,CA221,2542 Patterson Road,CA,95367
Papa Murphy's Take N Bake,Sonoma,CA224,CA224,678 West Napa Street,CA,95476
Papa Murphy's Take N Bake,Willows,CA225,CA225,1070 Wood Street,CA,95988
Papa Murphy's Take N Bake,El Dorado Hills,CA226,CA226,2209 Francisco Drive,CA,95762
Papa Murphy's Take N Bake,West Sacramento,CA227,CA227,2455 Jefferson Boulevard,CA,95691
Papa Murphy's Take N Bake,Fresno,CA228,CA228,5054 North Blackstone Avenue,CA,93710
Papa Murphy's Take N Bake,Dixon,CA229,CA229,105 East Dorset Drive,CA,95620
Papa Murphy's Take N Bake,Roseville,CA230,CA230,1927 Douglas Blvd.,CA,95661
Papa Murphy's Take N Bake,Visalia,CA232,CA232,3833 West Caldwell Avenue,CA,93277
Papa Murphy's Take N Bake,Castro Valley,CA234,CA234,20895 Redwood Road,CA,94546
Papa Murphy's Take N Bake,Redding,CA237,CA237,1090 East Cypress Avenue,CA,96002
Papa Murphy's Take N Bake,Chico,CA238,CA238,14 West Eaton Road,CA,95973
Papa Murphy's Take N Bake,Dinuba,CA239,CA239,870 West El Monte Way,CA,93618
Papa Murphy's Take N Bake,Dana Point,CA240,CA240,33621 Del Obispo St.,CA,92629
Papa Murphy's Take N Bake,San Clemente,CA241,CA241,638 Camino de los Mares,CA,92673
Papa Murphy's Take N Bake,Placentia,CA248,CA248,119 East Yorba Linda Blvd.,CA,92870
Papa Murphy's Take N Bake,Fullerton,CA249,CA249,1105 South Euclid Street,CA,92832
Papa Murphy's Take N Bake,Bakersfield,CA250,CA250,8200 Stockdale Highway,CA,93311
Papa Murphy's Take N Bake,San Leandro,CA251,CA251,"699 Lewelling Blvd., Suite 296",CA,94579
Papa Murphy's Take N Bake,Bakersfield,CA252,CA252,3900 Niles Street,CA,93306
Papa Murphy's Take N Bake,Porterville,CA253,CA253,460 West Vandalia Avenue,CA,93257
Papa Murphy's Take N Bake,Fullerton,CA254,CA254,1032 Bastanchury Road,CA,92835
Papa Murphy's Take N Bake,Bakersfield,CA255,CA255,2807 North Chester Ave,CA,93308
Papa Murphy's Take N Bake,Stockton,CA256,CA256,2828 Country Club Boulevard,CA,95204
Papa Murphy's Take N Bake,Sacramento,CA257,CA257,2701 Del Paso Road,CA,95835
Papa Murphy's Take N Bake,Murrieta,CA261,CA261,39028 Winchester Road,CA,92563
Papa Murphy's Take N Bake,Temecula,CA262,CA262,31805 Temecula Parkway,CA,92592
Papa Murphy's Take N Bake,Santa Maria,CA269,CA269,2316 South Broadway,CA,93454
Papa Murphy's Take N Bake,Fresno,CA271,CA271,2450 North Brawley Avenue,CA,93722
Papa Murphy's Take N Bake,Stockton,CA272,CA272,3550 Manthey Road,CA,95206
Papa Murphy's Take N Bake,Fresno,CA276,CA276,8881 North Chestnut Avenue,CA,93720
Papa Murphy's Take N Bake,Capitola,CA279,CA279,1200 41st Avenue,CA,95010
Papa Murphy's Take N Bake,Modesto,CA281,CA281,901 North Carpenter Road,CA,95351
Papa Murphy's Take N Bake,Whittier,CA284,CA284,14838 Whittier Blvd,CA,90605
Papa Murphy's Take N Bake,Grand Junction,CO001,CO001,569 32nd Road,CO,81504
Papa Murphy's Take N Bake,Greeley,CO002,CO002,2800 West 10th Street,CO,80634
Papa Murphy's Take N Bake,Fort Collins,CO003,CO003,737 South Lemay Avenue,CO,80524
Papa Murphy's Take N Bake,Longmont,CO004,CO004,2330 Main Street,CO,80501
Papa Murphy's Take N Bake,Colorado Springs,CO006,CO006,1708 Dublin Blvd,CO,80918
Papa Murphy's Take N Bake,Aurora,CO008,CO008,12158 East Mississippi Avenue,CO,80012
Papa Murphy's Take N Bake,Littleton,CO009,CO009,6696 West Coal Mine Avenue,CO,80123
Papa Murphy's Take N Bake,Aurora,CO010,CO010,15440 East Hampden Avenue,CO,80013
Papa Murphy's Take N Bake,Denver,CO011,CO011,1945 South Sheridan Blvd,CO,80227
Papa Murphy's Take N Bake,Durango,CO012,CO012,12 Town Plaza,CO,81301
Papa Murphy's Take N Bake,Parker,CO013,CO013,18741 Ponderosa Drive,CO,80134
Papa Murphy's Take N Bake,Colorado Springs,CO016,CO016,835 Cheyenne Meadows Road,CO,80906
Papa Murphy's Take N Bake,Arvada,CO017,CO017,6350 Sheridan Boulevard,CO,80003
Papa Murphy's Take N Bake,Grand Junction,CO018,CO018,2546 Rimrock Avenue,CO,81501
Papa Murphy's Take N Bake,Pueblo,CO019,CO019,840 South Prairie Avenue,CO,81005
Papa Murphy's Take N Bake,Highlands Ranch,CO021,CO021,9559 South University Blvd,CO,80126
Papa Murphy's Take N Bake,Colorado Springs,CO022,CO022,2888 North Powers Blvd.,CO,80922
Papa Murphy's Take N Bake,Colorado Springs,CO023,CO023,3624 Austin Bluffs Parkway,CO,80918
Papa Murphy's Take N Bake,Northglenn,CO024,CO024,680 East 120th Avenue,CO,80233
Papa Murphy's Take N Bake,Greenwood Village,CO025,CO025,8575 East Arapahoe Road,CO,80112
Papa Murphy's Take N Bake,Denver,CO027,CO027,1366 Leyden Street,CO,80220
Papa Murphy's Take N Bake,Broomfield,CO028,CO028,12161 Sheridan Blvd.,CO,80020
Papa Murphy's Take N Bake,Arvada,CO029,CO029,12650 West 64th Avenue,CO,80004
Papa Murphy's Take N Bake,Thornton,CO030,CO030,3782 East 104th Avenue,CO,80233
Papa Murphy's Take N Bake,Centennial,CO032,CO032,18525 East Smokey Hill Road,CO,80015
Papa Murphy's Take N Bake,Littleton,CO033,CO033,50 West Littleton Blvd.,CO,80120
Papa Murphy's Take N Bake,Littleton,CO034,CO034,12482 West Ken Caryl Avenue,CO,80127
Papa Murphy's Take N Bake,Fort Collins,CO036,CO036,238 East Harmony Road,CO,80525
Papa Murphy's Take N Bake,Westminster,CO037,CO037,8533 Church Ranch Blvd.,CO,80021
Papa Murphy's Take N Bake,Centennial,CO038,CO038,7408 South University Boulevard,CO,80122
Papa Murphy's Take N Bake,Erie,CO039,CO039,3331 Arapahoe Road,CO,80516
Papa Murphy's Take N Bake,Lakewood,CO040,CO040,1535 South Kipling Parkway,CO,80232
Papa Murphy's Take N Bake,Loveland,CO041,CO041,1131 Eagle Drive,CO,80537
Papa Murphy's Take N Bake,Brighton,CO042,CO042,450 E Bromley Lane,CO,80601
Papa Murphy's Take N Bake,Canon City,CO044,CO044,310 North 16th Street,CO,81212
Papa Murphy's Take N Bake,Colorado Springs,CO045,CO045,2460 South Academy Blvd,CO,80916
Papa Murphy's Take N Bake,Castle Rock,CO046,CO046,754 South Perry Street,CO,80104
Papa Murphy's Take N Bake,Colorado Springs,CO047,CO047,1203 North Circle Drive,CO,80909
Papa Murphy's Take N Bake,Colorado Springs,CO050,CO050,6888 Centennial Blvd,CO,80919
Papa Murphy's Take N Bake,Fountain,CO053,CO053,6965 Mesa Ridge Parkway,CO,80817
Papa Murphy's Take N Bake,Falcon,CO055,CO055,7669 McLaughlin Road,CO,80831
Papa Murphy's Take N Bake,Montrose,CO057,CO057,1421 Ogden Road,CO,81401
Papa Murphy's Take N Bake,Pueblo,CO058,CO058,1617 West US Hwy 50,CO,81008
Papa Murphy's Take N Bake,Aurora,CO059,CO059,3301 Tower Road,CO,80011
Papa Murphy's Take N Bake,Firestone,CO060,CO060,6050 Firestone Blvd,CO,80504
Papa Murphy's Take N Bake,Boulder,CO061,CO061,3325 28th Street,CO,80301
Papa Murphy's Take N Bake,Windsor,CO062,CO062,1550 Main Street,CO,80550
Papa Murphy's Take N Bake,Colorado Springs,CO063,CO063,1012 West Baptist Road,CO,80921
Papa Murphy's Take N Bake,Edgewater,CO064,CO064,1725 Sheridan Boulevard,CO,80214
Papa Murphy's Take N Bake,Golden,CO067,CO067,17121 South Golden Road,CO,80401
Papa Murphy's Take N Bake,Conifer,CO068,CO068,25797 Conifer Road,CO,80433
Papa Murphy's Take N Bake,Colorado Springs,CO069,CO069,9205 North Union Blvd,CO,80920
Papa Murphy's Take N Bake,Littleton,CO070,CO070,11614 West Belleview Avenue,CO,80127
Papa Murphy's Take N Bake,Sterling,CO071,CO071,712 West Main Street,CO,80751
Papa Murphy's Take N Bake,Woodland Park,CO073,CO073,300 East Highway 24,CO,80863
Papa Murphy's Take N Bake,Denver,CO074,CO074,2720 South Colorado Boulevard,CO,80222
Papa Murphy's Take N Bake,Boulder,CO075,CO075,659 South Broadway Street,CO,80305
Papa Murphy's Take N Bake,Loveland,CO076,CO076,986 East Eisenhower Boulevard,CO,80537
Papa Murphy's Take N Bake,Colorado Springs,CO077,CO077,3105 West Colorado Avenue,CO,80904
Papa Murphy's Take N Bake,Delta,CO080,CO080,25 Stafford Lane,CO,81416
Papa Murphy's Take N Bake,Lonetree,CO083,CO083,9231 E. Lincoln Avenue,CO,80124
Papa Murphy's Take N Bake,Denver,CO089,CO089,8960 East Hampden Avenue,CO,80231
Papa Murphy's Take N Bake,Broomfield,CO090,CO090,2205 West 136th Avenue,CO,80023
Papa Murphy's Take N Bake,Longmont,CO091,CO091,965 South Hover Street,CO,80501
Papa Murphy's Take N Bake,Castle Pines,CO093,CO093,558 Castle Pines Parkway,CO,80108
Papa Murphy's Take N Bake,Parker,CO095,CO095,12959 South Parker Road,CO,80134
Papa Murphy's Take N Bake,Arvada,CO097,CO097,7705 Wadsworth Boulevard,CO,80003
Papa Murphy's Take N Bake,Orange Park,FL001,FL001,528 Blanding Boulevard,FL,32073
Papa Murphy's Take N Bake,Jacksonville,FL002,FL002,10991 San Jose Blvd,FL,32223
Papa Murphy's Take N Bake,Orange Park,FL003,FL003,1581 County Road 220,FL,32003
Papa Murphy's Take N Bake,Apopka,FL007,FL007,450 South Hunt Club Blvd.,FL,32703
Papa Murphy's Take N Bake,Fort Walton Beach,FL008,FL008,98 Eglin Parkway NE,FL,32548
Papa Murphy's Take N Bake,Jacksonville,FL010,FL010,13170 Atlantic Blvd,FL,32225
Papa Murphy's Take N Bake,Lake Mary,FL011,FL011,3801 West Lake Mary Blvd,FL,32746
Papa Murphy's Take N Bake,Ocoee,FL012,FL012,2534 Maguire Road,FL,34761
Papa Murphy's Take N Bake,Naples,FL016,FL016,4990 Golden Gate Parkway,FL,34116
Papa Murphy's Take N Bake,Jacksonville,FL019,FL019,4765 Hodges Boulevard,FL,32224
Papa Murphy's Take N Bake,Niceville,FL020,FL020,1142 John Sims Parkway E,FL,32578
Papa Murphy's Take N Bake,Gulf Breeze,FL021,FL021,3329 Gulf Breeze Parkway,FL,32563
Papa Murphy's Take N Bake,New Port Richey,FL022,FL022,8402 Little Road,FL,34654
Papa Murphy's Take N Bake,Fort Myers,FL023,FL023,4600 Summerlin Road,FL,33919
Papa Murphy's Take N Bake,Tampa,FL024,FL024,5383 Ehrlich Road,FL,33625
Papa Murphy's Take N Bake,Panama City,FL029,FL029,724 West 23rd Street,FL,32405
Papa Murphy's Take N Bake,Brandon,FL034,FL034,859 Lithia Pinecrest Road,FL,33511
Papa Murphy's Take N Bake,Savannah,GA005,GA005,201 Johnny Mercer Blvd,GA,31410
Papa Murphy's Take N Bake,Hinesville,GA006,GA006,755 West Oglethorpe Hwy,GA,31313
Papa Murphy's Take N Bake,Richmond Hill,GA007,GA007,3488 US Highway 17,GA,31324
Papa Murphy's Take N Bake,Savannah,GA009,GA009,830 East DeRenne Ave,GA,31405
Papa Murphy's Take N Bake,Cedar Rapids,IA001,IA001,3219 Mt. Vernon Road South East,IA,52403
Papa Murphy's Take N Bake,Iowa City,IA002,IA002,2300 Muscatine Avenue,IA,52240
Papa Murphy's Take N Bake,Cedar Falls,IA003,IA003,5713 University Avenue,IA,50613
Papa Murphy's Take N Bake,Cedar Rapids,IA004,IA004,3335 Center Point Road NE,IA,52402
Papa Murphy's Take N Bake,Mason City,IA006,IA006,1419 4th Street South West,IA,50401
Papa Murphy's Take N Bake,Marion,IA007,IA007,2240 7th Avenue,IA,52302
Papa Murphy's Take N Bake,Bettendorf,IA008,IA008,2925 18th Street,IA,52722
Papa Murphy's Take N Bake,West Des Moines,IA009,IA009,1960 Grand Avenue,IA,50265
Papa Murphy's Take N Bake,Sioux City,IA010,IA010,3225 Gordon Drive,IA,51105
Papa Murphy's Take N Bake,Cedar Rapids,IA011,IA011,408 Edgewood Road North West,IA,52405
Papa Murphy's Take N Bake,Des Moines,IA012,IA012,6058 South East 14th Street,IA,50320
Papa Murphy's Take N Bake,Dubuque,IA013,IA013,1555 John F Kennedy Road,IA,52002
Papa Murphy's Take N Bake,Waterloo,IA015,IA015,3005 Kimball Avenue,IA,50702
Papa Murphy's Take N Bake,Davenport,IA016,IA016,2178 West Kimberly Road,IA,52806
Papa Murphy's Take N Bake,Council Bluffs,IA017,IA017,1702 West Broadway,IA,51501
Papa Murphy's Take N Bake,Ames,IA019,IA019,123 Lincoln Way,IA,50010
Papa Murphy's Take N Bake,Ankeny,IA022,IA022,502 North Ankeny Blvd,IA,50023
Papa Murphy's Take N Bake,Fort Dodge,IA023,IA023,2813 5th Avenue South,IA,50501
Papa Murphy's Take N Bake,Urbandale,IA024,IA024,4641 86th Street,IA,50322
Papa Murphy's Take N Bake,Muscatine,IA026,IA026,2604 2nd Avenue,IA,52761
Papa Murphy's Take N Bake,Clive,IA029,IA029,2180 NW 156th Street,IA,50325
Papa Murphy's Take N Bake,Des Moines,IA030,IA030,3701 East 14th Street,IA,50313
Papa Murphy's Take N Bake,Cedar Rapids,IA032,IA032,560 Boyson Road North East,IA,52402
Papa Murphy's Take N Bake,Oskaloosa,IA033,IA033,1402 A Avenue West,IA,52577
Papa Murphy's Take N Bake,Spencer,IA034,IA034,700 11th Avenue SW,IA,51301
Papa Murphy's Take N Bake,Altoona,IA035,IA035,3418 8th Street Southwest,IA,50009
Papa Murphy's Take N Bake,Council Bluffs,IA036,IA036,1751 Madison Avenue,IA,51503
Papa Murphy's Take N Bake,Sioux City,IA037,IA037,302 West 28th Street,IA,51104
Papa Murphy's Take N Bake,Indianola,IA038,IA038,1011 North Jefferson Way,IA,50125
Papa Murphy's Take N Bake,Pella,IA039,IA039,410 E. Oskaloosa Street,IA,50219
Papa Murphy's Take N Bake,Boone,IA040,IA040,528 Story Street,IA,50036
Papa Murphy's Take N Bake,Marshalltown,IA041,IA041,2500 South Center Street,IA,50158
Papa Murphy's Take N Bake,Coralville,IA042,IA042,1815 2nd Street,IA,52241
Papa Murphy's Take N Bake,Spirit Lake,IA043,IA043,3601 Highway 71,IA,51360
Papa Murphy's Take N Bake,Ottumwa,IA044,IA044,819 Albia Road,IA,52501
Papa Murphy's Take N Bake,Davenport,IA046,IA046,2406 East 53rd Street,IA,52807
Papa Murphy's Take N Bake,Windsor Heights,IA047,IA047,7160 University Ave,IA,50324
Papa Murphy's Take N Bake,Hayden,ID001,ID001,285 West Prairie Avenue,ID,83835
Papa Murphy's Take N Bake,Post Falls,ID002,ID002,3134 East Mullan Avenue,ID,83854
Papa Murphy's Take N Bake,Coeur D Alene,ID003,ID003,1800 North Government Way,ID,83814
Papa Murphy's Take N Bake,Idaho Falls,ID004,ID004,1600 East 17th Street,ID,83404
Papa Murphy's Take N Bake,Nampa,ID005,ID005,920 Caldwell Blvd.,ID,83651
Papa Murphy's Take N Bake,Pocatello,ID006,ID006,540 Yellowstone Avenue,ID,83201
Papa Murphy's Take N Bake,Boise,ID007,ID007,1736 West State Street,ID,83702
Papa Murphy's Take N Bake,Boise,ID008,ID008,6940 West State Street,ID,83714
Papa Murphy's Take N Bake,Lewiston,ID009,ID009,148 Thain Road,ID,83501
Papa Murphy's Take N Bake,Boise,ID010,ID010,10545 Overland Road,ID,83709
Papa Murphy's Take N Bake,Caldwell,ID011,ID011,2707 10th Avenue South,ID,83605
Papa Murphy's Take N Bake,Rexburg,ID012,ID012,64 North 2nd East,ID,83440
Papa Murphy's Take N Bake,Twin Falls,ID013,ID013,799 Cheney Drive,ID,83301
Papa Murphy's Take N Bake,Blackfoot,ID014,ID014,977 Market Street,ID,83221
Papa Murphy's Take N Bake,Moscow,ID015,ID015,524 West 3rd Street,ID,83843
Papa Murphy's Take N Bake,Boise,ID016,ID016,2412 South Apple Street,ID,83706
Papa Murphy's Take N Bake,Boise,ID017,ID017,1022 South Vista Avenue,ID,83705
Papa Murphy's Take N Bake,Ponderay,ID018,ID018,1010 Fontaine Drive,ID,83852
Papa Murphy's Take N Bake,Idaho Falls,ID019,ID019,1857 West Broadway Street,ID,83402
Papa Murphy's Take N Bake,Meridian,ID020,ID020,3317 West Cherry Lane,ID,83642
Papa Murphy's Take N Bake,Chubbuck,ID021,ID021,4837 Yellowstone Avenue,ID,83202
Papa Murphy's Take N Bake,Nampa,ID022,ID022,2418 12th Avenue Road,ID,83686
Papa Murphy's Take N Bake,Boise,ID023,ID023,7320 West Fairview Avenue,ID,83704
Papa Murphy's Take N Bake,Boise,ID024,ID024,4626 North Eagle Road,ID,83713
Papa Murphy's Take N Bake,Mountain Home,ID025,ID025,425 American Legion Blvd,ID,83647
Papa Murphy's Take N Bake,Emmett,ID026,ID026,1310 South Washington Avenue,ID,83617
Papa Murphy's Take N Bake,Kuna,ID027,ID027,1545 North Linder Road,ID,83634
Papa Murphy's Take N Bake,Meridian,ID028,ID028,1330 East Fairview Avenue,ID,83642
Papa Murphy's Take N Bake,Eagle,ID029,ID029,228 East Plaza Street,ID,83616
Papa Murphy's Take N Bake,Peoria,IL002,IL002,3125 North University Street,IL,61604
Papa Murphy's Take N Bake,Urbana,IL003,IL003,114 North Vine Street,IL,61802
Papa Murphy's Take N Bake,Normal,IL004,IL004,1531 East College Avenue,IL,61761
Papa Murphy's Take N Bake,Quincy,IL005,IL005,3020 Broadway Street,IL,62301
Papa Murphy's Take N Bake,Springfield,IL007,IL007,2641 Chatham Road,IL,62704
Papa Murphy's Take N Bake,Bloomington,IL008,IL008,2402 East Oakland Avenue,IL,61701
Papa Murphy's Take N Bake,Moline,IL009,IL009,3479 23rd Avenue,IL,61265
Papa Murphy's Take N Bake,Jacksonville,IL011,IL011,1119 West Morton Avenue,IL,62650
Papa Murphy's Take N Bake,Freeport,IL013,IL013,1713 South West Avenue,IL,61032
Papa Murphy's Take N Bake,Plainfield,IL023,IL023,13400 South Route 59,IL,60585
Papa Murphy's Take N Bake,Springfield,IL024,IL024,1712 East Sangamon Avenue,IL,62702
Papa Murphy's Take N Bake,O Fallon,IL031,IL031,1407 West US Highway 50,IL,62269
Papa Murphy's Take N Bake,Woodstock,IL032,IL032,119 South Eastwood Drive,IL,60098
Papa Murphy's Take N Bake,Sterling,IL037,IL037,415 Locust Street,IL,61081
Papa Murphy's Take N Bake,Rockford,IL041,IL041,1137 North Alpine Road,IL,61107
Papa Murphy's Take N Bake,Champaign,IL046,IL046,1753 West Kirby Avenue,IL,61821
Papa Murphy's Take N Bake,Decatur,IL050,IL050,255 West Mound Road,IL,62526
Papa Murphy's Take N Bake,Danville,IL051,IL051,3100 North Vermillion,IL,61832
Papa Murphy's Take N Bake,Morton,IL054,IL054,604 South Main Street,IL,61550
Papa Murphy's Take N Bake,Mattoon,IL056,IL056,1112 Charleston Avenue,IL,61938
Papa Murphy's Take N Bake,Pekin,IL058,IL058,1807 Broadway Street,IL,61554
Papa Murphy's Take N Bake,Edwardsville,IL062,IL062,207 Harvard Drive,IL,62025
Papa Murphy's Take N Bake,Marion,IL064,IL064,602 North Court Street,IL,62959
Papa Murphy's Take N Bake,East Peoria,IL065,IL065,234 West Camp Street,IL,61611
Papa Murphy's Take N Bake,Fort Wayne,IN001,IN001,6214 St. Joe Center Road,IN,46835
Papa Murphy's Take N Bake,Fort Wayne,IN002,IN002,533 East Dupont Road,IN,46825
Papa Murphy's Take N Bake,Lafayette,IN003,IN003,2324 Teal Road,IN,47905
Papa Murphy's Take N Bake,Noblesville,IN006,IN006,770 Westfield Road,IN,46062
Papa Murphy's Take N Bake,Greenfield,IN007,IN007,188 East New Road,IN,46140
Papa Murphy's Take N Bake,Indianapolis,IN008,IN008,5347 East Thompson Road,IN,46237
Papa Murphy's Take N Bake,Muncie,IN009,IN009,1428 West McGalliard Road,IN,47304
Papa Murphy's Take N Bake,Brownsburg,IN016,IN016,927 North Green Street,IN,46112
Papa Murphy's Take N Bake,Indianapolis,IN017,IN017,2130 East 62nd Street,IN,46220
Papa Murphy's Take N Bake,Indianapolis,IN020,IN020,5945 Crawfordsville Road,IN,46224
Papa Murphy's Take N Bake,Greenwood,IN021,IN021,1011 North State Road 135,IN,46142
Papa Murphy's Take N Bake,Indianapolis,IN025,IN025,4875 West 56th Street,IN,46254
Papa Murphy's Take N Bake,Indianapolis,IN026,IN026,6010 Madison Avenue,IN,46227
Papa Murphy's Take N Bake,Fishers,IN027,IN027,11815 Allisonville Road,IN,46038
Papa Murphy's Take N Bake,Indianapolis,IN028,IN028,3512 West 86th Street,IN,46268
Papa Murphy's Take N Bake,Anderson,IN030,IN030,4722 South Scatterfield Road,IN,46013
Papa Murphy's Take N Bake,Fort Wayne,IN032,IN032,4818 Illinois Road,IN,46804
Papa Murphy's Take N Bake,Avon,IN033,IN033,10728 East US Highway 36,IN,46123
Papa Murphy's Take N Bake,Greenwood,IN034,IN034,2150 Independence Drive,IN,46143
Papa Murphy's Take N Bake,Carmel,IN035,IN035,1950 East Greyhound Pass,IN,46032
Papa Murphy's Take N Bake,Clarksville,IN037,IN037,1305 Veterans Parkway,IN,47129
Papa Murphy's Take N Bake,Bloomington,IN038,IN038,4017 South Old State Road 37,IN,47401
Papa Murphy's Take N Bake,Mooresville,IN039,IN039,439 South Indiana Street,IN,46158
Papa Murphy's Take N Bake,Marion,IN041,IN041,3101 South Western Avenue,IN,46953
Papa Murphy's Take N Bake,Indianapolis,IN042,IN042,10635 Pendleton Pike,IN,46236
Papa Murphy's Take N Bake,Plainfield,IN044,IN044,1810 East Main Street,IN,46168
Papa Murphy's Take N Bake,Franklin,IN046,IN046,1172 North Main Street,IN,46131
Papa Murphy's Take N Bake,Columbus,IN049,IN049,1675 North National Road,IN,47201
Papa Murphy's Take N Bake,Corydon,IN050,IN050,1935 Old Highway 135 Northwest,IN,47112
Papa Murphy's Take N Bake,Indianapolis,IN052,IN052,1340 East 86th Street,IN,46240
Papa Murphy's Take N Bake,Muncie,IN053,IN053,3636 South Chandler Drive,IN,47302
Papa Murphy's Take N Bake,Crawfordsville,IN055,IN055,1730 South US Highway 231,IN,47933
Papa Murphy's Take N Bake,Kokomo,IN056,IN056,211 West Markland Avenue,IN,46901
Papa Murphy's Take N Bake,Fishers,IN058,IN058,11630 Olio Road,IN,46037
Papa Murphy's Take N Bake,West Lafayette,IN059,IN059,1199 Sagamore Parkway West,IN,47906
Papa Murphy's Take N Bake,Indianapolis,IN060,IN060,4401 East 10th Street,IN,46201
Papa Murphy's Take N Bake,Evansville,IN061,IN061,4827 Davis Lant Drive,IN,47715
Papa Murphy's Take N Bake,Newburgh,IN062,IN062,4222 Bell Road,IN,47630
Papa Murphy's Take N Bake,Evansville,IN065,IN065,4202B North 1st Avenue,IN,47710
Papa Murphy's Take N Bake,Evansville,IN066,IN066,779 South Green River Road,IN,47715
Papa Murphy's Take N Bake,New Albany,IN070,IN070,2221 State Street,IN,47150
Papa Murphy's Take N Bake,Jeffersonville,IN071,IN071,3015 East 10th Street,IN,47130
Papa Murphy's Take N Bake,Indianapolis,IN072,IN072,10121 East Washington Street,IN,46229
Papa Murphy's Take N Bake,Zionsville,IN074,IN074,51 Boone Village,IN,46077
Papa Murphy's Take N Bake,Richmond,IN075,IN075,3380 East Main Street,IN,47374
Papa Murphy's Take N Bake,Lawrence,KS002,KS002,2540 Iowa Street,KS,66046
Papa Murphy's Take N Bake,Junction City,KS003,KS003,934 West 6th Street,KS,66441
Papa Murphy's Take N Bake,Hutchinson,KS004,KS004,2420 North Main Street,KS,67502
Papa Murphy's Take N Bake,Salina,KS005,KS005,2000 South 9th Street,KS,67401
Papa Murphy's Take N Bake,Overland Park,KS006,KS006,10057 West 87th Street,KS,66212
Papa Murphy's Take N Bake,Topeka,KS007,KS007,1035 South West Gage Blvd.,KS,66604
Papa Murphy's Take N Bake,Overland Park,KS008,KS008,13473 Switzer Road,KS,66213
Papa Murphy's Take N Bake,Wichita,KS010,KS010,2110 North Maize Road,KS,67212
Papa Murphy's Take N Bake,Lenexa,KS011,KS011,14912 West 87th Street Parkway,KS,66215
Papa Murphy's Take N Bake,Manhattan,KS012,KS012,2745 Claflin Road,KS,66502
Papa Murphy's Take N Bake,Wichita,KS013,KS013,9747 East 21st Street North,KS,67206
Papa Murphy's Take N Bake,Derby,KS014,KS014,1636 North Rock Road,KS,67037
Papa Murphy's Take N Bake,Great Bend,KS018,KS018,3809 10th Street,KS,67530
Papa Murphy's Take N Bake,Topeka,KS019,KS019,517 SW 29th Street,KS,66611
Papa Murphy's Take N Bake,Olathe,KS020,KS020,16563 West 151st Street,KS,66062
Papa Murphy's Take N Bake,Leavenworth,KS021,KS021,3400 South 4th Street,KS,66048
Papa Murphy's Take N Bake,Leawood,KS023,KS023,12118 State Line Road,KS,66209
Papa Murphy's Take N Bake,Pittsburg,KS024,KS024,101 West 29th Street,KS,66762
Papa Murphy's Take N Bake,Hays,KS026,KS026,2700 Oak Street,KS,67601
Papa Murphy's Take N Bake,Kansas City,KS027,KS027,7652 State Avenue,KS,66112
Papa Murphy's Take N Bake,Wichita,KS028,KS028,13303 West Maple Street,KS,67235
Papa Murphy's Take N Bake,Andover,KS029,KS029,229 North Andover Road,KS,67002
Papa Murphy's Take N Bake,Olathe,KS030,KS030,1070 West Santa Fe,KS,66061
Papa Murphy's Take N Bake,Newton,KS031,KS031,1410 South Kansas Avenue,KS,67114
Papa Murphy's Take N Bake,Wichita,KS034,KS034,2712 South Seneca Street,KS,67217
Papa Murphy's Take N Bake,Wichita,KS036,KS036,4813 East Central Avenue,KS,67208
Papa Murphy's Take N Bake,El Dorado,KS039,KS039,2348 West Central Avenue,KS,67042
Papa Murphy's Take N Bake,Olathe,KS040,KS040,14971 West 119th Street,KS,66062
Papa Murphy's Take N Bake,Topeka,KS041,KS041,6021 SW 29th St,KS,66614
Papa Murphy's Take N Bake,Shawnee,KS043,KS043,6636 Monticello Road,KS,66226
Papa Murphy's Take N Bake,Gardner,KS044,KS044,800 East Main Street,KS,66030
Papa Murphy's Take N Bake,Bonner Springs,KS045,KS045,608 Tulip Drive,KS,66012
Papa Murphy's Take N Bake,Overland Park,KS047,KS047,9563 Nall Avenue,KS,66207
Papa Murphy's Take N Bake,Shawnee,KS048,KS048,12272 Shawnee Mission Parkway,KS,66205
Papa Murphy's Take N Bake,Roeland Park,KS049,KS049,4986 Roe Blvd,KS,66205
Papa Murphy's Take N Bake,Dodge City,KS050,KS050,2601 Central Avenue,KS,67801
Papa Murphy's Take N Bake,Lawrence,KS051,KS051,650 Congressional Drive,KS,66049
Papa Murphy's Take N Bake,Louisville,KY001,KY001,5016 Mud Lane,KY,40229
Papa Murphy's Take N Bake,Louisville,KY002,KY002,291 North Hubbards Lane,KY,40207
Papa Murphy's Take N Bake,Louisville,KY006,KY006,6756 Bardstown Road,KY,40291
Papa Murphy's Take N Bake,Louisville,KY009,KY009,12535 Shelbyville Road,KY,40243
Papa Murphy's Take N Bake,Louisville,KY010,KY010,161 Outer Loop,KY,40214
Papa Murphy's Take N Bake,Shelbyville,KY013,KY013,1613 Midland Trail,KY,40065
Papa Murphy's Take N Bake,Nicholasville,KY017,KY017,110 Blueberry Lane,KY,40356
Papa Murphy's Take N Bake,Elizabethtown,KY020,KY020,1811 North Dixie Highway,KY,42701
Papa Murphy's Take N Bake,Owensboro,KY025,KY025,3211 Frederica Street,KY,42301
Papa Murphy's Take N Bake,Louisville,KY026,KY026,2809 North Hurstbourne Parkway,KY,40223
Papa Murphy's Take N Bake,Hopkinsville,KY029,KY029,2715 Ft. Campbell Blvd,KY,42240
Papa Murphy's Take N Bake,La Grange,KY030,KY030,2028 South Highway 53,KY,40031
Papa Murphy's Take N Bake,Radcliff,KY031,KY031,177 East Lincoln Trail Blvd.,KY,40160
Papa Murphy's Take N Bake,Louisville,KY032,KY032,3614 Buechel Bypass,KY,40218
Papa Murphy's Take N Bake,Bowling Green,KY033,KY033,2945 Scottsville Road,KY,42104
Papa Murphy's Take N Bake,Henderson,KY035,KY035,138 South Green Street,KY,42420
Papa Murphy's Take N Bake,Lexington,KY038,KY038,1890 Star Shoot Parkway,KY,40509
Papa Murphy's Take N Bake,Louisville,KY039,KY039,6661 Dixie Highway,KY,40258
Papa Murphy's Take N Bake,Baton Rouge,LA001,LA001,17002 Jefferson Highway,LA,70817
Papa Murphy's Take N Bake,Baton Rouge,LA002,LA002,14241 Coursey Boulevard,LA,70817
Papa Murphy's Take N Bake,Baton Rouge,LA003,LA003,9655 Perkins Road,LA,70810
Papa Murphy's Take N Bake,Zachary,LA004,LA004,5875 Main Street,LA,70791
Papa Murphy's Take N Bake,Baton Rouge,LA005,LA005,7620 Corporate Boulevard,LA,70809
Papa Murphy's Take N Bake,Denham Springs,LA006,LA006,7755 Magnolia Beach Road,LA,70726
Papa Murphy's Take N Bake,Baton Rouge,LA007,LA007,14409 Wax Road,LA,70818
Papa Murphy's Take N Bake,Gonzales,LA008,LA008,114 Airline Highway,LA,70737
Papa Murphy's Take N Bake,Geismar,LA009,LA009,13375 Highway 73,LA,70734
Papa Murphy's Take N Bake,Walker,LA010,LA010,28811 Walker Road South,LA,70785
Papa Murphy's Take N Bake,Bossier City,LA011,LA011,2624 Beene Boulevard,LA,71111
Papa Murphy's Take N Bake,Shreveport,LA012,LA012,5886 Line Ave,LA,71106
Papa Murphy's Take N Bake,Lake Charles,LA015,LA015,4070 Nelson Road,LA,70605
Papa Murphy's Take N Bake,Frederick,MD001,MD001,911 West 7th Street,MD,21701
Papa Murphy's Take N Bake,Hagerstown,MD002,MD002,18726 North Village,MD,21742
Papa Murphy's Take N Bake,Hagerstown,MD003,MD003,1722 Dual Hwy,MD,21740
Papa Murphy's Take N Bake,Escanaba,MI002,MI002,123 North Lincoln Road,MI,49829
Papa Murphy's Take N Bake,Kalamazoo,MI004,MI004,3942 South Westnedge Avenue,MI,49008
Papa Murphy's Take N Bake,Kentwood,MI009,MI009,5311 Eastern Avenue South West,MI,49508
Papa Murphy's Take N Bake,Portage,MI010,MI010,7926 Oakland Drive,MI,49024
Papa Murphy's Take N Bake,Battle Creek,MI012,MI012,589 Columbia Avenue West,MI,49015
Papa Murphy's Take N Bake,Grand Haven,MI014,MI014,809 South Beacon Boulevard,MI,49417
Papa Murphy's Take N Bake,Iron Mountain,MI016,MI016,1836 South Stephenson Avenue,MI,49801
Papa Murphy's Take N Bake,Wyoming,MI018,MI018,5751 Byron Center Avenue SW,MI,49519
Papa Murphy's Take N Bake,Grand Rapids,MI026,MI026,5210 Northland Drive North East,MI,49525
Papa Murphy's Take N Bake,Muskegon,MI030,MI030,3355 Henry Street,MI,49441
Papa Murphy's Take N Bake,Grand Rapids,MI031,MI031,1239 Leonard Street North East,MI,49505
Papa Murphy's Take N Bake,Marquette,MI033,MI033,3121 US Highway 41 West,MI,49855
Papa Murphy's Take N Bake,Kalamazoo,MI038,MI038,4315 West Main Street,MI,49006
Papa Murphy's Take N Bake,Jenison,MI042,MI042,650 Baldwin Street,MI,49428
Papa Murphy's Take N Bake,Benton Harbor,MI043,MI043,1040 East Napier Avenue,MI,49022
Papa Murphy's Take N Bake,Mankato,MN001,MN001,510 South Riverfront Drive,MN,56001
Papa Murphy's Take N Bake,Austin,MN003,MN003,402 1st Avenue South West,MN,55912
Papa Murphy's Take N Bake,Faribault,MN004,MN004,615 North West 4th Street,MN,55021
Papa Murphy's Take N Bake,Rochester,MN005,MN005,3932 Highway 52 North,MN,55901
Papa Murphy's Take N Bake,Willmar,MN006,MN006,600 19th Ave SE,MN,56201
Papa Murphy's Take N Bake,Rochester,MN007,MN007,410 Crossroads Drive South West,MN,55902
Papa Murphy's Take N Bake,New Ulm,MN008,MN008,1612 South Broadway Street,MN,56073
Papa Murphy's Take N Bake,Savage,MN009,MN009,8200 West County Road 42,MN,55378
Papa Murphy's Take N Bake,Saint Cloud,MN010,MN010,30 15th Avenue South,MN,56301
Papa Murphy's Take N Bake,Duluth,MN011,MN011,4602 Grand Avenue,MN,55807
Papa Murphy's Take N Bake,Bloomington,MN012,MN012,10604 France Avenue South,MN,55431
Papa Murphy's Take N Bake,Moorhead,MN013,MN013,2509 8th Street South,MN,56560
Papa Murphy's Take N Bake,White Bear Lake,MN014,MN014,2699 County Road East E,MN,55110
Papa Murphy's Take N Bake,Detroit Lakes,MN015,MN015,317 Frazee Street E,MN,56501
Papa Murphy's Take N Bake,Elk River,MN016,MN016,19112 Freeport Street North West,MN,55330
Papa Murphy's Take N Bake,Shakopee,MN017,MN017,1106 Vierling Drive East,MN,55379
Papa Murphy's Take N Bake,Eden Prairie,MN018,MN018,10165 Hennepin Town Road,MN,55347
Papa Murphy's Take N Bake,Albert Lea,MN019,MN019,142 Bridge Avenue,MN,56007
Papa Murphy's Take N Bake,Champlin,MN020,MN020,11351 Aquila Drive North,MN,55316
Papa Murphy's Take N Bake,Cottage Grove,MN021,MN021,8471 East Point Douglas Road South,MN,55016
Papa Murphy's Take N Bake,Hutchinson,MN022,MN022,1380 Minnesota 15 South,MN,55350
Papa Murphy's Take N Bake,Apple Valley,MN023,MN023,15052 Gleason Path,MN,55124
Papa Murphy's Take N Bake,Mankato,MN024,MN024,1776 East Madison Avenue,MN,56001
Papa Murphy's Take N Bake,Blaine,MN025,MN025,12421 Ulysses Street NE,MN,55434
Papa Murphy's Take N Bake,St Louis Park,MN026,MN026,7924 Highway 7,MN,55426
Papa Murphy's Take N Bake,Saint Paul,MN027,MN027,2042 Ford Parkway,MN,55116
Papa Murphy's Take N Bake,Fridley,MN028,MN028,205 57th Avenue North East,MN,55432
Papa Murphy's Take N Bake,Bloomington,MN030,MN030,8507 Lyndale Avenue South,MN,55420
Papa Murphy's Take N Bake,Vadnais Heights,MN031,MN031,965 County Road E East,MN,55127
Papa Murphy's Take N Bake,Brooklyn Park,MN032,MN032,8584 Edinburgh Center Drive,MN,55443
Papa Murphy's Take N Bake,Owatonna,MN033,MN033,641 West Bridge Street,MN,55060
Papa Murphy's Take N Bake,Chanhassen,MN035,MN035,7878 Market Blvd.,MN,55317
Papa Murphy's Take N Bake,Eagan,MN036,MN036,1960 Cliff Lake Road,MN,55122
Papa Murphy's Take N Bake,Woodbury,MN037,MN037,7455 Currell Boulevard,MN,55125
Papa Murphy's Take N Bake,Rosemount,MN038,MN038,15043 Crestone Avenue,MN,55068
Papa Murphy's Take N Bake,Plymouth,MN039,MN039,16605 County Road 24,MN,55447
Papa Murphy's Take N Bake,Coon Rapids,MN040,MN040,3548 Main Street North West,MN,55448
Papa Murphy's Take N Bake,Maplewood,MN041,MN041,2303 White Bear Avenue North,MN,55109
Papa Murphy's Take N Bake,Roseville,MN042,MN042,1763 Lexington Avenue North,MN,55113
Papa Murphy's Take N Bake,Inver Grove Heights,MN043,MN043,9034 Cahill Ave,MN,55076
Papa Murphy's Take N Bake,West St Paul,MN044,MN044,2047 Robert Street South,MN,55118
Papa Murphy's Take N Bake,Long Lake,MN045,MN045,2073 West Wayzata Blvd,MN,55356
Papa Murphy's Take N Bake,Marshall,MN046,MN046,1113 East College Drive,MN,56258
Papa Murphy's Take N Bake,Red Wing,MN047,MN047,172 Tyler Road South,MN,55066
Papa Murphy's Take N Bake,Duluth,MN048,MN048,1332 West Arrowhead Road,MN,55811
Papa Murphy's Take N Bake,Alexandria,MN049,MN049,915 Broadway Street,MN,56308
Papa Murphy's Take N Bake,Forest Lake,MN050,MN050,2009 West Broadway Avenue,MN,55025
Papa Murphy's Take N Bake,Northfield,MN051,MN051,2014 Jefferson Road,MN,55057
Papa Murphy's Take N Bake,Bemidji,MN052,MN052,512 Paul Bunyan Drive North West,MN,56601
Papa Murphy's Take N Bake,Fergus Falls,MN053,MN053,1101 West Lincoln Avenue,MN,56537
Papa Murphy's Take N Bake,Baxter,MN054,MN054,7822 Fairview Road,MN,56425
Papa Murphy's Take N Bake,Albertville,MN055,MN055,5600 La Centre Avenue,MN,55301
Papa Murphy's Take N Bake,Hastings,MN056,MN056,1771 Market Blvd,MN,55033
Papa Murphy's Take N Bake,Spring Park,MN057,MN057,4677 Shoreline Drive,MN,55384
Papa Murphy's Take N Bake,Circle Pines,MN058,MN058,9310 Lexington Avenue North,MN,55014
Papa Murphy's Take N Bake,Robbinsdale,MN059,MN059,5101 36th Avenue North,MN,55422
Papa Murphy's Take N Bake,Stillwater,MN060,MN060,1754 Market Drive,MN,55082
Papa Murphy's Take N Bake,Cambridge,MN061,MN061,1870 2nd Avenue SE,MN,55008
Papa Murphy's Take N Bake,Buffalo,MN062,MN062,1225 Hwy 25 North,MN,55313
Papa Murphy's Take N Bake,Minneapolis,MN063,MN063,2700 39th Avenue NE,MN,55421
Papa Murphy's Take N Bake,Maple Grove,MN064,MN064,13541 Grove Drive,MN,55311
Papa Murphy's Take N Bake,Minneapolis,MN065,MN065,4644 East Lake Street,MN,55406
Papa Murphy's Take N Bake,Winona,MN066,MN066,945 Frontenac Drive,MN,55987
Papa Murphy's Take N Bake,Richfield,MN067,MN067,2922 West 66th Street,MN,55423
Papa Murphy's Take N Bake,Plymouth,MN068,MN068,4345 Nathan Lane North,MN,55442
Papa Murphy's Take N Bake,Waconia,MN069,MN069,1309 Oak Avenue,MN,55387
Papa Murphy's Take N Bake,Chaska,MN070,MN070,1006 Gateway Drive,MN,55318
Papa Murphy's Take N Bake,Arden Hills,MN071,MN071,3781 Lexington Avenue North,MN,55126
Papa Murphy's Take N Bake,Burnsville,MN072,MN072,1002 County Road 42 West,MN,55337
Papa Murphy's Take N Bake,Andover,MN073,MN073,15190 Bluebird Street North West,MN,55304
Papa Murphy's Take N Bake,Grand Rapids,MN074,MN074,2030 South Pokegama Avenue,MN,55744
Papa Murphy's Take N Bake,North Branch,MN075,MN075,5466 St. Croix Trail,MN,55056
Papa Murphy's Take N Bake,Hibbing,MN076,MN076,4112 9th Avenue West,MN,55746
Papa Murphy's Take N Bake,Ramsey,MN077,MN077,14050 Saint Francis Boulevard,MN,55303
Papa Murphy's Take N Bake,Minnetonka,MN078,MN078,4707 County Road 101,MN,55345
Papa Murphy's Take N Bake,Sauk Rapids,MN080,MN080,300 North Benton Drive,MN,56379
Papa Murphy's Take N Bake,Eagan,MN082,MN082,1380 Duckwood Drive,MN,55122
Papa Murphy's Take N Bake,Cloquet,MN084,MN084,1321 South Highway 33,MN,55720
Papa Murphy's Take N Bake,Monticello,MN085,MN085,508 Highway 25 South,MN,55362
Papa Murphy's Take N Bake,Excelsior (Shorewood),MN086,MN086,23770 Minnesota 7,MN,55331
Papa Murphy's Take N Bake,Lakeville,MN088,MN088,20190 Heritage Drive,MN,55044
Papa Murphy's Take N Bake,Oakdale,MN089,MN089,7017 10th Street North,MN,55128
Papa Murphy's Take N Bake,Little Canada,MN090,MN090,2526 Rice Street,MN,55113
Papa Murphy's Take N Bake,Hugo,MN093,MN093,14755 Victor Hugo Blvd N,MN,55038
Papa Murphy's Take N Bake,North Oaks,MN094,MN094,119 Village Center Drive,MN,55127
Papa Murphy's Take N Bake,Saint Paul,MN096,MN096,1157 Clarence Street,MN,55106
Papa Murphy's Take N Bake,Blaine,MN097,MN097,740 County Road 10 NE,MN,55434
Papa Murphy's Take N Bake,New Brighton,MN098,MN098,2051 Silver Lake Road NW,MN,55112
Papa Murphy's Take N Bake,St. Peter,MN099,MN099,1226 South Minnesota Avenue,MN,56082
Papa Murphy's Take N Bake,Richfield,MN102,MN102,1816 East 66th Street,MN,55423
Papa Murphy's Take N Bake,New Prague,MN104,MN104,217 Chalupsky Ave SE,MN,56071
Papa Murphy's Take N Bake,Springfield,MO001,MO001,2456 North Kansas Expressway,MO,65803
Papa Murphy's Take N Bake,Springfield,MO002,MO002,500 South Glenstone Avenue,MO,65802
Papa Murphy's Take N Bake,Springfield,MO003,MO003,4035 South Campbell Avenue,MO,65807
Papa Murphy's Take N Bake,Saint Joseph,MO004,MO004,2115 North Belt Hwy,MO,64506
Papa Murphy's Take N Bake,Columbia,MO005,MO005,3103 West Broadway,MO,65203
Papa Murphy's Take N Bake,Blue Springs,MO006,MO006,2406 South West State Route 7,MO,64014
Papa Murphy's Take N Bake,Kansas City,MO008,MO008,4319 North Chouteau Trafficway,MO,64117
Papa Murphy's Take N Bake,Lees Summit,MO009,MO009,443 South West Ward Road,MO,64081
Papa Murphy's Take N Bake,Kansas City,MO011,MO011,7713 State Line Road,MO,64114
Papa Murphy's Take N Bake,Jefferson City,MO012,MO012,1803 Missouri Blvd,MO,65109
Papa Murphy's Take N Bake,Independence,MO013,MO013,824 North Dakota Drive,MO,64056
Papa Murphy's Take N Bake,Belton,MO014,MO014,1320 E North Avenue,MO,64012
Papa Murphy's Take N Bake,Cape Girardeau,MO015,MO015,2510 William Street,MO,63703
Papa Murphy's Take N Bake,Saint Louis,MO016,MO016,5559 Telegraph Road,MO,63129
Papa Murphy's Take N Bake,O Fallon,MO017,MO017,3027 Highway K,MO,63368
Papa Murphy's Take N Bake,Joplin,MO018,MO018,2640 East 32nd Street,MO,64804
Papa Murphy's Take N Bake,Kansas City,MO019,MO019,6320 North Chatham Avenue,MO,64151
Papa Murphy's Take N Bake,Wildwood,MO021,MO021,2428 Taylor Road,MO,63040
Papa Murphy's Take N Bake,Neosho,MO024,MO024,1037 South Neosho Blvd,MO,64850
Papa Murphy's Take N Bake,Sikeston,MO025,MO025,331 North Main Street,MO,63801
Papa Murphy's Take N Bake,Ozark,MO029,MO029,1653 West State Highway J,MO,65721
Papa Murphy's Take N Bake,Republic,MO031,MO031,1212 Independence,MO,65738
Papa Murphy's Take N Bake,Springfield,MO032,MO032,3250 East Battlefield Road,MO,65804
Papa Murphy's Take N Bake,Webb City,MO033,MO033,1715 South Madison,MO,64870
Papa Murphy's Take N Bake,Warrensburg,MO034,MO034,218B East Culton Street,MO,64093
Papa Murphy's Take N Bake,Blue Springs,MO035,MO035,2118 North State Route 7,MO,64014
Papa Murphy's Take N Bake,Florissant,MO038,MO038,8192 North Lindbergh Boulevard,MO,63031
Papa Murphy's Take N Bake,Nixa,MO040,MO040,552 West Mt. Vernon,MO,65714
Papa Murphy's Take N Bake,Sedalia,MO041,MO041,3040 West Broadway Boulevard,MO,65301
Papa Murphy's Take N Bake,Saint Peters,MO042,MO042,571 Mid Rivers Mall Road,MO,63376
Papa Murphy's Take N Bake,Saint Robert,MO043,MO043,151 Saint Robert Blvd,MO,65584
Papa Murphy's Take N Bake,Rolla,MO044,MO044,201 South Bishop Avenue,MO,65401
Papa Murphy's Take N Bake,Independence,MO045,MO045,1531 E 23rd St S,MO,64055
Papa Murphy's Take N Bake,Lees Summit,MO046,MO046,1745 East Langsford Road,MO,64063
Papa Murphy's Take N Bake,Saint Charles,MO047,MO047,2013 Zumbehl Road,MO,63303
Papa Murphy's Take N Bake,Joplin,MO048,MO048,2313 West 7th Street,MO,64801
Papa Murphy's Take N Bake,Lebanon,MO050,MO050,535 South Jefferson Avenue,MO,65536
Papa Murphy's Take N Bake,Kansas City,MO051,MO051,3600 Broadway Street,MO,64111
Papa Murphy's Take N Bake,Harrisonville,MO053,MO053,662 South Commercial Street,MO,64701
Papa Murphy's Take N Bake,Liberty,MO055,MO055,820 South State Route 291,MO,64068
Papa Murphy's Take N Bake,West Plains,MO056,MO056,1629 Bruce Smith Parkway,MO,65775
Papa Murphy's Take N Bake,Washington,MO057,MO057,3004 Phoenix Center Drive,MO,63090
Papa Murphy's Take N Bake,St. Peters,MO063,MO063,20 Plaza 94,MO,63376
Papa Murphy's Take N Bake,St. Louis,MO064,MO064,3909 Gravois Avenue,MO,63116
Papa Murphy's Take N Bake,Gladstone,MO065,MO065,340 NE 72nd Street,MO,64118
Papa Murphy's Take N Bake,Hattiesburg,MS001,MS001,6169 US Highway 98,MS,39402
Papa Murphy's Take N Bake,Billings,MT001,MT001,1212 Grand Avenue,MT,59102
Papa Murphy's Take N Bake,Bozeman,MT003,MT003,1735 Oak Street,MT,59715
Papa Murphy's Take N Bake,Butte,MT004,MT004,2119 Amherst Avenue,MT,59701
Papa Murphy's Take N Bake,Kalispell,MT005,MT005,238 East Center Street,MT,59901
Papa Murphy's Take N Bake,Hamilton,MT007,MT007,701 North 1st Street,MT,59840
Papa Murphy's Take N Bake,Great Falls,MT008,MT008,2815 10th Avenue South,MT,59405
Papa Murphy's Take N Bake,Billings,MT009,MT009,603 Main Street,MT,59105
Papa Murphy's Take N Bake,Helena,MT010,MT010,511 North Sanders Street,MT,59601
Papa Murphy's Take N Bake,Missoula,MT011,MT011,3800 South Russell Street,MT,59803
Papa Murphy's Take N Bake,Missoula,MT013,MT013,1801 South 3rd Street West,MT,59801
Papa Murphy's Take N Bake,Belgrade,MT015,MT015,104 West Madison Avenue,MT,59714
Papa Murphy's Take N Bake,Cary,NC001,NC001,3639 Southwest Cary Parkway,NC,27513
Papa Murphy's Take N Bake,Cary,NC002,NC002,161 SE Cary Parkway,NC,27511
Papa Murphy's Take N Bake,Apex,NC004,NC004,756 West Williams Street,NC,27502
Papa Murphy's Take N Bake,Wilmington,NC005,NC005,2804 South College Avenue,NC,28412
Papa Murphy's Take N Bake,Wilmington,NC006,NC006,1319 Military Cutoff Road,NC,28405
Papa Murphy's Take N Bake,Greensboro,NC009,NC009,4016 Battleground Avenue,NC,27410
Papa Murphy's Take N Bake,Wilmington,NC018,NC018,5954 Carolina Beach Road,NC,28412
Papa Murphy's Take N Bake,Winston Salem,NC019,NC019,1981 North Peace Haven Road,NC,27106
Papa Murphy's Take N Bake,Asheville,NC030,NC030,1863 Hendersonville Road,NC,28803
Papa Murphy's Take N Bake,Wake Forest,NC033,NC033,11721 Retail Drive,NC,27587
Papa Murphy's Take N Bake,Hickory,NC034,NC034,1509 29th Avenue Drive NE,NC,28601
Papa Murphy's Take N Bake,Raleigh,NC035,NC035,1028 Oberlin Road,NC,27605
Papa Murphy's Take N Bake,Charlotte,NC037,NC037,16015 Lancaster Highway,NC,28277
Papa Murphy's Take N Bake,Mooresville,NC038,NC038,654 River Highway,NC,28117
Papa Murphy's Take N Bake,Charlotte,NC041,NC041,8548 University City Boulevard,NC,28213
Papa Murphy's Take N Bake,Fargo,ND001,ND001,1617 32nd Avenue South,ND,58103
Papa Murphy's Take N Bake,Minot,ND002,ND002,1605 South Broadway,ND,58701
Papa Murphy's Take N Bake,Grand Forks,ND003,ND003,2750 Gateway Drive,ND,58203
Papa Murphy's Take N Bake,Bismarck,ND004,ND004,625 South Washington Street,ND,58504
Papa Murphy's Take N Bake,Fargo,ND005,ND005,1461 Broadway North,ND,58102
Papa Murphy's Take N Bake,Dickinson,ND006,ND006,456 15th Street West,ND,58601
Papa Murphy's Take N Bake,Jamestown,ND007,ND007,725 1st Avenue South,ND,58401
Papa Murphy's Take N Bake,Mandan,ND008,ND008,209 West Main Street,ND,58554
Papa Murphy's Take N Bake,Fargo,ND009,ND009,4501 15th Avenue South,ND,58103
Papa Murphy's Take N Bake,Grand Forks,ND010,ND010,2475 32nd Avenue South,ND,58201
Papa Murphy's Take N Bake,Bismarck,ND011,ND011,1427 Mapleton Avenue,ND,58503
Papa Murphy's Take N Bake,Lincoln,NE003,NE003,4500 South 70th Street,NE,68516
Papa Murphy's Take N Bake,Omaha,NE004,NE004,5405 North 90th Street,NE,68134
Papa Murphy's Take N Bake,Grand Island,NE005,NE005,206 Wilmar Avenue,NE,68803
Papa Murphy's Take N Bake,Lincoln,NE006,NE006,3900 Old Cheney Road,NE,68516
Papa Murphy's Take N Bake,Bellevue,NE007,NE007,701 Galvin Road South,NE,68005
Papa Murphy's Take N Bake,Omaha,NE009,NE009,2071 North 156th Street,NE,68116
Papa Murphy's Take N Bake,Scottsbluff,NE010,NE010,2801 Avenue B,NE,69361
Papa Murphy's Take N Bake,La Vista,NE011,NE011,7885 South 83rd Street,NE,68128
Papa Murphy's Take N Bake,Omaha,NE012,NE012,15330 Weir Street,NE,68137
Papa Murphy's Take N Bake,Fremont,NE013,NE013,1740 North Bell Street,NE,68025
Papa Murphy's Take N Bake,Omaha,NE014,NE014,17714 West Center Road,NE,68130
Papa Murphy's Take N Bake,Omaha,NE016,NE016,5104 L Street,NE,68117
Papa Murphy's Take N Bake,Norfolk,NE018,NE018,701 South 25th Street,NE,68701
Papa Murphy's Take N Bake,North Platte,NE019,NE019,114 North Jeffers Street,NE,69101
Papa Murphy's Take N Bake,Kearney,NE020,NE020,230 West 42nd Street,NE,68845
Papa Murphy's Take N Bake,Bellevue,NE024,NE024,2903 Samson Way,NE,68123
Papa Murphy's Take N Bake,Omaha,NE025,NE025,12005 West Center Road,NE,68144
Papa Murphy's Take N Bake,Lincoln,NE026,NE026,2662 Cornhusker Highway,NE,68521
Papa Murphy's Take N Bake,Albuquerque,NM001,NM001,12611 Montgomery Blvd NE,NM,87111
Papa Murphy's Take N Bake,Albuquerque,NM003,NM003,2800 Coors Blvd NW,NM,87120
Papa Murphy's Take N Bake,Farmington,NM005,NM005,3554 East Main Street,NM,87402
Papa Murphy's Take N Bake,Santa Fe,NM006,NM006,3005 South St. Francis Drive,NM,87505
Papa Murphy's Take N Bake,Roswell,NM007,NM007,1100 South Main Street,NM,88203
Papa Murphy's Take N Bake,Carlsbad,NM008,NM008,1095 North Canal Street,NM,88220
Papa Murphy's Take N Bake,Las Cruces,NM009,NM009,540 Walton Blvd,NM,88001
Papa Murphy's Take N Bake,Los Alamos,NM010,NM010,3801 Arkansas Avenue,NM,87544
Papa Murphy's Take N Bake,Hobbs,NM013,NM013,2208 North Turner Street,NM,88240
Papa Murphy's Take N Bake,Albuquerque,NM014,NM014,200 Tramway Blvd SE,NM,87123
Papa Murphy's Take N Bake,Albuquerque,NM018,NM018,1000 Rio Rancho Drive SE,NM,87124
Papa Murphy's Take N Bake,Albuquerque,NM019,NM019,8400 Menual Blvd NE,NM,87112
Papa Murphy's Take N Bake,Albuquerque,NM022,NM022,8104 Wyoming Boulevard Northeast,NM,87113
Papa Murphy's Take N Bake,Portales,NM026,NM026,421 South Avenue C,NM,88130
Papa Murphy's Take N Bake,Albuquerque,NM027,NM027,8631 Golf Course Road NW,NM,87114
Papa Murphy's Take N Bake,Clovis,NM028,NM028,3900 North Prince Street,NM,88101
Papa Murphy's Take N Bake,Albuquerque,NM029,NM029,2839 Carlisle Blvd NE,NM,87110
Papa Murphy's Take N Bake,Rio Rancho,NM031,NM031,1121 Unser Blvd SE,NM,87124
Papa Murphy's Take N Bake,Santa Fe,NM032,NM032,3201 Zafarano Drive,NM,87507
Papa Murphy's Take N Bake,Carson City,NV001,NV001,1894 US Highway 50 East,NV,89701
Papa Murphy's Take N Bake,Reno,NV002,NV002,8175 South Virginia Street,NV,89511
Papa Murphy's Take N Bake,Reno,NV003,NV003,10490 N McCarran Blvd,NV,89503
Papa Murphy's Take N Bake,Elko,NV004,NV004,2560 Mountain City Highway,NV,89801
Papa Murphy's Take N Bake,Sparks,NV005,NV005,2955 North McCarran Blvd.,NV,89431
Papa Murphy's Take N Bake,Carson City,NV007,NV007,4314 South Carson Street,NV,89701
Papa Murphy's Take N Bake,Reno,NV009,NV009,940 West Moana Lane,NV,89509
Papa Murphy's Take N Bake,Henderson,NV011,NV011,565 College Drive,NV,89015
Papa Murphy's Take N Bake,Las Vegas,NV015,NV015,4900 West Craig Road,NV,89130
Papa Murphy's Take N Bake,Gardnerville,NV016,NV016,1363 US Hwy 395 N,NV,89410
Papa Murphy's Take N Bake,Sparks,NV017,NV017,2868 Vista Blvd,NV,89434
Papa Murphy's Take N Bake,Pahrump,NV018,NV018,141 South Frontage Road,NV,89048
Papa Murphy's Take N Bake,Reno,NV020,NV020,155 Lemmon Drive,NV,89506
Papa Murphy's Take N Bake,Fernley,NV029,NV029,1380 US Highway 95A North,NV,89408
Papa Murphy's Take N Bake,Spanish Springs,NV030,NV030,9744 Pyramid Highway,NV,89441
Papa Murphy's Take N Bake,Fallon,NV031,NV031,1525 Williams Street,NV,89406
Papa Murphy's Take N Bake,Las Vegas,NV033,NV033,10180 West Tropicana Avenue,NV,89147
Papa Murphy's Take N Bake,North Las Vegas,NV034,NV034,6462 Losee Road,NV,89086
Papa Murphy's Take N Bake,Winnemucca,NV035,NV035,750 Grass Valley Road,NV,89445
Papa Murphy's Take N Bake,Las Vegas,NV036,NV036,1035 South Rainbow Boulevard,NV,89145
Papa Murphy's Take N Bake,Las Vegas,NV047,NV047,8595 South Decatur Blvd,NV,89139
Papa Murphy's Take N Bake,Centerville,OH002,OH002,832 South Main Street,OH,45458
Papa Murphy's Take N Bake,Beavercreek,OH005,OH005,1195 North Fairfield Road,OH,45432
Papa Murphy's Take N Bake,Fremont,OH020,OH020,1228 West State Street,OH,43420
Papa Murphy's Take N Bake,Dublin,OH048,OH048,6704 Perimiter Loop,OH,43017
Papa Murphy's Take N Bake,Maineville,OH069,OH069,6647 South State Route 48,OH,45039
Papa Murphy's Take N Bake,Springfield,OH071,OH071,1930 North Bechtle Avenue,OH,45504
Papa Murphy's Take N Bake,Edmond,OK002,OK002,2000 West Danforth Road,OK,73003
Papa Murphy's Take N Bake,Oklahoma City,OK003,OK003,815 Southwest 119th Street,OK,73170
Papa Murphy's Take N Bake,Owasso,OK004,OK004,8509 North 129th East Avenue,OK,74055
Papa Murphy's Take N Bake,Broken Arrow,OK006,OK006,2000 West Houston Street,OK,74012
Papa Murphy's Take N Bake,Tulsa,OK007,OK007,8011 South Sheridan Road,OK,74133
Papa Murphy's Take N Bake,Norman,OK008,OK008,1354 North Interstate Drive,OK,73072
Papa Murphy's Take N Bake,Bethany,OK009,OK009,3030 North Rockwell Avenue,OK,73008
Papa Murphy's Take N Bake,Oklahoma City,OK010,OK010,7755 West Hefner Road,OK,73162
Papa Murphy's Take N Bake,Tulsa,OK011,OK011,6147 East 51st Street,OK,74135
Papa Murphy's Take N Bake,Bartlesville,OK012,OK012,3535 E Frank Phillips Blvd,OK,74006
Papa Murphy's Take N Bake,Midwest City,OK013,OK013,101 North Douglas Boulevard,OK,73130
Papa Murphy's Take N Bake,Muskogee,OK014,OK014,746 North York Street,OK,74403
Papa Murphy's Take N Bake,Yukon,OK015,OK015,618 West Vandament Avenue,OK,73099
Papa Murphy's Take N Bake,Enid,OK017,OK017,204 South Van Buren Street,OK,73703
Papa Murphy's Take N Bake,Oklahoma City,OK019,OK019,9501 North May Avenue,OK,73120
Papa Murphy's Take N Bake,Jenks,OK020,OK020,404 South Elm Street,OK,74037
Papa Murphy's Take N Bake,Oklahoma City,OK021,OK021,2220 NW 23rd Street,OK,73107
Papa Murphy's Take N Bake,Mustang,OK022,OK022,425 East State Highway 152,OK,73064
Papa Murphy's Take N Bake,Tulsa,OK023,OK023,10016 South Mingo Road,OK,74133
Papa Murphy's Take N Bake,Tulsa,OK024,OK024,1931 South Yale Avenue,OK,74112
Papa Murphy's Take N Bake,Edmond,OK025,OK025,3428 South Broadway,OK,73013
Papa Murphy's Take N Bake,Tualatin,OR003,OR003,19407 South West Boones Ferry Road,OR,97062
Papa Murphy's Take N Bake,Portland,OR004,OR004,5541 South West Beaverton Hillsdale Hwy,OR,97221
Papa Murphy's Take N Bake,Beaverton,OR005,OR005,6111 South West Murray Blvd,OR,97008
Papa Murphy's Take N Bake,Saint Helens,OR006,OR006,58731 Columbia River Highway,OR,97051
Papa Murphy's Take N Bake,Milwaukie,OR007,OR007,10604 South East 42nd,OR,97222
Papa Murphy's Take N Bake,Gresham,OR008,OR008,408 NW Burnside,OR,97030
Papa Murphy's Take N Bake,Canby,OR009,OR009,1401 South East 1st Avenue,OR,97013
Papa Murphy's Take N Bake,Tillamook,OR010,OR010,2140 Hadley Road North,OR,97141
Papa Murphy's Take N Bake,The Dalles,OR011,OR011,1323 West 6th Street,OR,97058
Papa Murphy's Take N Bake,Lincoln City,OR012,OR012,2401 North West Highway 101,OR,97367
Papa Murphy's Take N Bake,Portland,OR013,OR013,7123 North East Fremont Street,OR,97213
Papa Murphy's Take N Bake,Bend,OR014,OR014,211 North East Revere Avenue,OR,97701
Papa Murphy's Take N Bake,Redmond,OR015,OR015,955 South West Highland Avenue,OR,97756
Papa Murphy's Take N Bake,Coos Bay,OR016,OR016,88 East Ingersoll Street,OR,97420
Papa Murphy's Take N Bake,North Bend,OR017,OR017,1932 Newmark Street,OR,97459
Papa Murphy's Take N Bake,Florence,OR018,OR018,1737 12th Street,OR,97439
Papa Murphy's Take N Bake,Albany,OR019,OR019,1004 9th Ave SE,OR,97322
Papa Murphy's Take N Bake,Corvallis,OR020,OR020,960 North West Circle Blvd.,OR,97330
Papa Murphy's Take N Bake,Junction City,OR021,OR021,1710 Ivy Street,OR,97448
Papa Murphy's Take N Bake,Forest Grove,OR022,OR022,3330 Pacific Avenue,OR,97116
Papa Murphy's Take N Bake,Tigard,OR023,OR023,13295 South West Pacific Highway,OR,97223
Papa Murphy's Take N Bake,Seaside,OR024,OR024,507 South Roosevelt Drive,OR,97138
Papa Murphy's Take N Bake,Portland,OR025,OR025,4010 North East Fremont Street,OR,97212
Papa Murphy's Take N Bake,Grants Pass,OR026,OR026,1011 North East 7th Street,OR,97526
Papa Murphy's Take N Bake,Portland,OR027,OR027,2004 North Rosa Parks Way,OR,97217
Papa Murphy's Take N Bake,Hillsboro,OR028,OR028,2087 North West 185th Avenue,OR,97124
Papa Murphy's Take N Bake,Portland,OR029,OR029,5336 North Lombard Street,OR,97203
Papa Murphy's Take N Bake,Newberg,OR030,OR030,200 North Main Street,OR,97132
Papa Murphy's Take N Bake,Portland,OR031,OR031,3630 South East Concord Road,OR,97267
Papa Murphy's Take N Bake,Astoria,OR032,OR032,889 Marine Drive,OR,97103
Papa Murphy's Take N Bake,Portland,OR033,OR033,12595 North West Cornell Road,OR,97229
Papa Murphy's Take N Bake,Beaverton,OR034,OR034,14641 South West Teal Blvd.,OR,97007
Papa Murphy's Take N Bake,Lake Oswego,OR036,OR036,15630 SW Boones Ferry Road,OR,97035
Papa Murphy's Take N Bake,Portland,OR037,OR037,18012 South East Stark Street,OR,97233
Papa Murphy's Take N Bake,Portland,OR039,OR039,4115 South East Hawthorne Blvd,OR,97214
Papa Murphy's Take N Bake,Portland,OR040,OR040,11635 North East Halsey Street,OR,97220
Papa Murphy's Take N Bake,Woodburn,OR042,OR042,1503 North Pacific Highway,OR,97071
Papa Murphy's Take N Bake,Portland,OR045,OR045,4411 SE Woodstock Blvd.,OR,97206
Papa Murphy's Take N Bake,Hermiston,OR046,OR046,315 South East 2nd Street,OR,97838
Papa Murphy's Take N Bake,Oregon City,OR047,OR047,358 Warner Milne Road,OR,97045
Papa Murphy's Take N Bake,La Grande,OR048,OR048,1703 Adams Avenue,OR,97850
Papa Murphy's Take N Bake,Pendleton,OR049,OR049,613 South West Emigrant Avenue,OR,97801
Papa Murphy's Take N Bake,Medford,OR050,OR050,1120 Biddle Road,OR,97504
Papa Murphy's Take N Bake,Medford,OR051,OR051,709 West Stewart Avenue,OR,97501
Papa Murphy's Take N Bake,Hillsboro,OR052,OR052,2605 Southeast TV Highway,OR,97123
Papa Murphy's Take N Bake,Roseburg,OR053,OR053,250 North East Garden Valley Blvd.,OR,97470
Papa Murphy's Take N Bake,Sutherlin,OR054,OR054,1280 West Central Avenue,OR,97479
Papa Murphy's Take N Bake,Portland,OR055,OR055,4350 South West Multnomah Blvd,OR,97219
Papa Murphy's Take N Bake,Portland,OR056,OR056,2609 South East 122nd Avenue,OR,97236
Papa Murphy's Take N Bake,Mcminnville,OR057,OR057,460 NE Highway 99 West,OR,97128
Papa Murphy's Take N Bake,Portland,OR058,OR058,6545 South East Milwaukie Avenue,OR,97202
Papa Murphy's Take N Bake,Roseburg,OR059,OR059,4677 Carnes Road,OR,97470
Papa Murphy's Take N Bake,Klamath Falls,OR061,OR061,3140 South 6th Street,OR,97603
Papa Murphy's Take N Bake,Newport,OR066,OR066,514 North Coast Highway,OR,97365
Papa Murphy's Take N Bake,Wilsonville,OR069,OR069,8269 SW Wilsonville Road,OR,97070
Papa Murphy's Take N Bake,Salem,OR072,OR072,4985 Commercial Street SE,OR,97302
Papa Murphy's Take N Bake,Milton Freewater,OR073,OR073,137 South Columbia Street,OR,97862
Papa Murphy's Take N Bake,Salem,OR074,OR074,478 Lancaster Drive North East,OR,97301
Papa Murphy's Take N Bake,Clackamas,OR076,OR076,12290 South East Sunnyside Road,OR,97015
Papa Murphy's Take N Bake,Hood River,OR078,OR078,1765 12th Street,OR,97031
Papa Murphy's Take N Bake,Ontario,OR079,OR079,425 South West 4th Avenue,OR,97914
Papa Murphy's Take N Bake,Baker City,OR080,OR080,1850 Campbell Street,OR,97814
Papa Murphy's Take N Bake,Aloha,OR086,OR086,20443 South West Tualatin Valley Highway,OR,97006
Papa Murphy's Take N Bake,Cottage Grove,OR087,OR087,154 Gateway Blvd.,OR,97424
Papa Murphy's Take N Bake,Hillsboro,OR090,OR090,1591 NE Arrington Road,OR,97124
Papa Murphy's Take N Bake,Portland,OR091,OR091,3335 South East 82nd Avenue,OR,97266
Papa Murphy's Take N Bake,Springfield,OR092,OR092,5727 Main Street,OR,97478
Papa Murphy's Take N Bake,Central Point,OR093,OR093,129 East Pine Street,OR,97502
Papa Murphy's Take N Bake,Salem,OR094,OR094,3260 Lancaster Drive North East,OR,97305
Papa Murphy's Take N Bake,Bend,OR095,OR095,61160 South Highway 97,OR,97702
Papa Murphy's Take N Bake,Ashland,OR096,OR096,1401 Siskiyou Blvd.,OR,97520
Papa Murphy's Take N Bake,Wood Village,OR098,OR098,731 North East 242nd Avenue,OR,97060
Papa Murphy's Take N Bake,Eugene,OR099,OR099,2740 River Road,OR,97404
Papa Murphy's Take N Bake,West Linn,OR100,OR100,2000 8th Avenue,OR,97068
Papa Murphy's Take N Bake,Eugene,OR101,OR101,2911 West 11th Avenue,OR,97402
Papa Murphy's Take N Bake,Springfield,OR102,OR102,1810 Olympic Street,OR,97477
Papa Murphy's Take N Bake,Sherwood,OR103,OR103,16180 South West Langer Drive,OR,97140
Papa Murphy's Take N Bake,Klamath Falls,OR104,OR104,2621 Campus Drive,OR,97601
Papa Murphy's Take N Bake,White City,OR105,OR105,7413 Crater Lake Highway,OR,97503
Papa Murphy's Take N Bake,Lebanon,OR106,OR106,2500 South Santiam Highway,OR,97355
Papa Murphy's Take N Bake,Keizer,OR107,OR107,5093 River Road North,OR,97303
Papa Murphy's Take N Bake,Portland,OR108,OR108,3523 North East 15th Avenue,OR,97212
Papa Murphy's Take N Bake,Damascus,OR109,OR109,19960 South East Highway 212,OR,97015
Papa Murphy's Take N Bake,Grants Pass,OR110,OR110,263 Rogue River Highway,OR,97527
Papa Murphy's Take N Bake,Prineville,OR111,OR111,1300 North East 3rd Street,OR,97754
Papa Murphy's Take N Bake,Salem,OR113,OR113,1124 Wallace Road NW,OR,97304
Papa Murphy's Take N Bake,Dallas,OR114,OR114,244 East Ellendale Avenue,OR,97338
Papa Murphy's Take N Bake,Stayton,OR115,OR115,1754 North 1st Avenue,OR,97383
Papa Murphy's Take N Bake,Milwaukie,OR116,OR116,14862 South East Webster Road,OR,97267
Papa Murphy's Take N Bake,Sandy,OR117,OR117,16605 SE 362nd Drive,OR,97055
Papa Murphy's Take N Bake,Silverton,OR118,OR118,701 McLaine Street,OR,97381
Papa Murphy's Take N Bake,Molalla,OR119,OR119,1585 West Main Street,OR,97038
Papa Murphy's Take N Bake,Madras,OR120,OR120,1112 SW Highway 97,OR,97741
Papa Murphy's Take N Bake,Scappoose,OR121,OR121,51507 South Columbia River Highway,OR,97056
Papa Murphy's Take N Bake,Monmouth,OR122,OR122,609 Clay Street East,OR,97361
Papa Murphy's Take N Bake,Eugene,OR123,OR123,1580 Coburg Road,OR,97401
Papa Murphy's Take N Bake,Goose Creek,SC003,SC003,216 St. James Avenue,SC,29445
Papa Murphy's Take N Bake,Charleston,SC004,SC004,923 Folly Road,SC,29412
Papa Murphy's Take N Bake,Summerville,SC005,SC005,1203 Old Trolley Road,SC,29485
Papa Murphy's Take N Bake,Mt Pleasant,SC006,SC006,1107 Johnnie Dodds Boulevard,SC,29464
Papa Murphy's Take N Bake,Charleston,SC008,SC008,2 Avondale Avenue,SC,29407
Papa Murphy's Take N Bake,Fort Mill,SC011,SC011,729 Stockbridge Drive,SC,29708
Papa Murphy's Take N Bake,Rock Hill,SC012,SC012,2738 Celanese Road,SC,29732
Papa Murphy's Take N Bake,Greenville,SC013,SC013,3935 Pelham Road,SC,29615
Papa Murphy's Take N Bake,Taylors,SC014,SC014,6015 Wade Hampton Blvd.,SC,29687
Papa Murphy's Take N Bake,Greenville,SC015,SC015,1500 Poinsett Highway,SC,29609
Papa Murphy's Take N Bake,Simpsonville,SC016,SC016,2603 Woodruff Road,SC,29681
Papa Murphy's Take N Bake,Rapid City,SD001,SD001,606 East North Street,SD,57701
Papa Murphy's Take N Bake,Spearfish,SD002,SD002,310 West Jackson Blvd.,SD,57783
Papa Murphy's Take N Bake,Sioux Falls,SD003,SD003,1608 South Sycamore Avenue,SD,57110
Papa Murphy's Take N Bake,Watertown,SD004,SD004,917 9th Avenue South East,SD,57201
Papa Murphy's Take N Bake,Sioux Falls,SD005,SD005,6725 West 41st Street,SD,57106
Papa Murphy's Take N Bake,Rapid City,SD006,SD006,741 Mountain View Road,SD,57702
Papa Murphy's Take N Bake,Mitchell,SD007,SD007,1801 North Main Street,SD,57301
Papa Murphy's Take N Bake,Sioux Falls,SD008,SD008,2101 West 41st Street,SD,57105
Papa Murphy's Take N Bake,Brookings,SD009,SD009,1810 6th Street,SD,57006
Papa Murphy's Take N Bake,Aberdeen,SD011,SD011,1225 6th Avenue South East,SD,57401
Papa Murphy's Take N Bake,Sioux Falls,SD012,SD012,608 South Minnesota Avenue,SD,57104
Papa Murphy's Take N Bake,Pierre,SD013,SD013,319 West Sioux Avenue,SD,57501
Papa Murphy's Take N Bake,Knoxville,TN002,TN002,6631 Clinton Highway,TN,37912
Papa Murphy's Take N Bake,Knoxville,TN003,TN003,4409 Chapman Highway,TN,37920
Papa Murphy's Take N Bake,Murfreesboro,TN004,TN004,2445 Memorial Boulevard,TN,37129
Papa Murphy's Take N Bake,Clarksville,TN005,TN005,1960 Madison Road,TN,37043
Papa Murphy's Take N Bake,Clarksville,TN006,TN006,1571 Fort Campbell Boulevard,TN,37042
Papa Murphy's Take N Bake,Hendersonville,TN007,TN007,386 West Main Street,TN,37075
Papa Murphy's Take N Bake,Knoxville,TN008,TN008,5214 North Broadway Street,TN,37918
Papa Murphy's Take N Bake,Murfreesboro,TN009,TN009,2706 Old Fort Parkway,TN,37128
Papa Murphy's Take N Bake,Clarksville,TN010,TN010,2277 Wilma Rudolph Road,TN,37040
Papa Murphy's Take N Bake,Spring Hill,TN011,TN011,4826 Main Street,TN,37174
Papa Murphy's Take N Bake,Bellevue,TN012,TN012,8120 Highway 100,TN,37221
Papa Murphy's Take N Bake,Nashville,TN013,TN013,2510 Murfreesboro Pike,TN,37217
Papa Murphy's Take N Bake,Goodlettsville,TN015,TN015,117 Northcreek Boulevard,TN,37072
Papa Murphy's Take N Bake,Mcminnville,TN016,TN016,241 Northgate Drive,TN,37110
Papa Murphy's Take N Bake,Knoxville,TN017,TN017,133 Brooklawn St.,TN,37934
Papa Murphy's Take N Bake,Cookeville,TN018,TN018,770 South Jefferson Avenue,TN,38501
Papa Murphy's Take N Bake,Franklin,TN019,TN019,109 Del Rio Pike,TN,37064
Papa Murphy's Take N Bake,Lebanon,TN020,TN020,1416 West Main Street,TN,37087
Papa Murphy's Take N Bake,Germantown,TN021,TN021,7781 Farmington Boulevard,TN,38138
Papa Murphy's Take N Bake,Lakeland,TN023,TN023,8950 US Highway 64,TN,38002
Papa Murphy's Take N Bake,Murfreesboro,TN024,TN024,1722 South Rutherford Boulevard,TN,37130
Papa Murphy's Take N Bake,Knoxville,TN025,TN025,4801 Kingston Pike,TN,37919
Papa Murphy's Take N Bake,Johnson City,TN026,TN026,2244 North Roan Street,TN,37601
Papa Murphy's Take N Bake,Columbia,TN027,TN027,1300 Trotwood Avenue,TN,38401
Papa Murphy's Take N Bake,Knoxville,TN029,TN029,9205 Middlebrook Pike,TN,37931
Papa Murphy's Take N Bake,Oak Ridge,TN030,TN030,1133 Oak Ridge Turnpike,TN,37830
Papa Murphy's Take N Bake,Hixson,TN031,TN031,5721 Highway 153,TN,37343
Papa Murphy's Take N Bake,Maryville,TN032,TN032,2602 US Highway 411 South,TN,37801
Papa Murphy's Take N Bake,Brentwood,TN033,TN033,8113 Moores Lane,TN,37027
Papa Murphy's Take N Bake,Seymour,TN038,TN038,11516 Chapman Highway,TN,37865
Papa Murphy's Take N Bake,Cleveland,TN039,TN039,120 Stuart Road NE,TN,37312
Papa Murphy's Take N Bake,Chattanooga,TN040,TN040,8142 East Brainerd Road,TN,37421
Papa Murphy's Take N Bake,Smyrna,TN042,TN042,440 Sam Ridley Parkway West,TN,37167
Papa Murphy's Take N Bake,Nashville,TN043,TN043,4209 Nolensville Pike,TN,37211
Papa Murphy's Take N Bake,Tyler,TX001,TX001,6878 South Broadway Avenue,TX,75703
Papa Murphy's Take N Bake,Frisco,TX004,TX004,4150 Legacy Drive,TX,75034
Papa Murphy's Take N Bake,Watauga,TX006,TX006,8420 Denton Hwy,TX,76148
Papa Murphy's Take N Bake,Wichita Falls,TX007,TX007,3701 Fairway Blvd,TX,76310
Papa Murphy's Take N Bake,North Richland Hills,TX008,TX008,8536 Davis Boulevard,TX,76182
Papa Murphy's Take N Bake,Temple,TX009,TX009,2668 South 31st Street,TX,76504
Papa Murphy's Take N Bake,Austin,TX014,TX014,2110 Slaughter Lane West,TX,78748
Papa Murphy's Take N Bake,Austin,TX015,TX015,12407 N Mo Pac Expressway,TX,78758
Papa Murphy's Take N Bake,Texarkana,TX016,TX016,3421 Richmond Road,TX,75503
Papa Murphy's Take N Bake,Longview,TX017,TX017,1753 NW Loop 281,TX,75604
Papa Murphy's Take N Bake,Grapevine,TX018,TX018,2350 Hall Johnson Road,TX,76051
Papa Murphy's Take N Bake,Cedar Park,TX020,TX020,180 East Whitestone Boulevard,TX,78613
Papa Murphy's Take N Bake,Round Rock,TX021,TX021,1700 East Palm Valley Boulevard,TX,78664
Papa Murphy's Take N Bake,Killeen,TX023,TX023,1200 Lowes Boulevard,TX,76542
Papa Murphy's Take N Bake,Mansfield,TX025,TX025,1211 East Debbie Lane,TX,76063
Papa Murphy's Take N Bake,Cedar Hill,TX027,TX027,642 Uptown Boulevard,TX,75104
Papa Murphy's Take N Bake,Bryan,TX032,TX032,725 East Villa Maria Road,TX,77802
Papa Murphy's Take N Bake,Paris,TX033,TX033,2705 Lamar Avenue,TX,75460
Papa Murphy's Take N Bake,Tyler,TX039,TX039,1847 Troup Highway,TX,75701
Papa Murphy's Take N Bake,Leander,TX041,TX041,651 North US Highway 183,TX,78641
Papa Murphy's Take N Bake,Kyle,TX042,TX042,5401 South FM Road 1626,TX,78640
Papa Murphy's Take N Bake,Wylie,TX043,TX043,901 West FM 544,TX,75098
Papa Murphy's Take N Bake,Midland,TX044,TX044,4416 Briarwood Avenue,TX,79707
Papa Murphy's Take N Bake,San Antonio,TX047,TX047,10650 Culebra Road,TX,78251
Papa Murphy's Take N Bake,Fort Worth,TX048,TX048,12345 Alta Vista Road,TX,76244
Papa Murphy's Take N Bake,Amarillo,TX050,TX050,6032 Bell Street,TX,79109
Papa Murphy's Take N Bake,New Braunfels,TX051,TX051,606 South Walnut Avenue,TX,78130
Papa Murphy's Take N Bake,Frisco,TX052,TX052,12398 FM 423,TX,75034
Papa Murphy's Take N Bake,San Antonio,TX053,TX053,11600 Bandera Road,TX,78250
Papa Murphy's Take N Bake,Nacogdoches,TX055,TX055,4909 North Street,TX,75965
Papa Murphy's Take N Bake,Fort Worth,TX058,TX058,1201 Longhorn Road,TX,76179
Papa Murphy's Take N Bake,Greenville,TX060,TX060,8110 Wesley Street,TX,75402
Papa Murphy's Take N Bake,Lubbock,TX061,TX061,8205 Indiana Avenue,TX,79423
Papa Murphy's Take N Bake,Lubbock,TX062,TX062,6318 82nd Street,TX,79424
Papa Murphy's Take N Bake,Lubbock,TX063,TX063,421 Frankford Ave,TX,79416
Papa Murphy's Take N Bake,Denton,TX064,TX064,5017 Teasley Lane,TX,76210
Papa Murphy's Take N Bake,Plano,TX065,TX065,3909 West Parker Road,TX,75023
Papa Murphy's Take N Bake,Allen,TX067,TX067,1208 East Bethany Drive,TX,75002
Papa Murphy's Take N Bake,Austin,TX068,TX068,12129 Ranch Road 620 North,TX,78750
Papa Murphy's Take N Bake,Lakeway,TX069,TX069,2303 Ranch Road 620 South,TX,78734
Papa Murphy's Take N Bake,San Antonio,TX070,TX070,5238 De Zavala Road,TX,78249
Papa Murphy's Take N Bake,Seguin,TX072,TX072,1346 East Court Street,TX,78155
Papa Murphy's Take N Bake,Georgetown,TX074,TX074,3316 Williams Drive,TX,78628
Papa Murphy's Take N Bake,Coppell,TX075,TX075,612 East Sandy Lake Road,TX,75019
Papa Murphy's Take N Bake,Harker Heights,TX076,TX076,300 East FM 2410 Road,TX,76548
Papa Murphy's Take N Bake,Corpus Christi,TX078,TX078,5017 Saratoga Boulevard,TX,78413
Papa Murphy's Take N Bake,Mckinney,TX081,TX081,6710 Virginia Parkway,TX,75071
Papa Murphy's Take N Bake,Round Rock,TX082,TX082,7399 O'Conner Drive,TX,78681
Papa Murphy's Take N Bake,Carrollton,TX083,TX083,1000 West Rosemeade Parkway,TX,75007
Papa Murphy's Take N Bake,Richardson,TX085,TX085,900 North Coit Road,TX,75080
Papa Murphy's Take N Bake,Richardson,TX089,TX089,3501 Custer Parkway,TX,75080
Papa Murphy's Take N Bake,Harlingen,TX091,TX091,920 South 77 Sunshine Strip,TX,78550
Papa Murphy's Take N Bake,San Antonio,TX101,TX101,1115 SW Military Drive,TX,78221
Papa Murphy's Take N Bake,Amarillo,TX105,TX105,1740 South Western Street,TX,79106
Papa Murphy's Take N Bake,Garland,TX106,TX106,3015 Arapaho Rd.,TX,75044
Papa Murphy's Take N Bake,Corpus Christi,TX107,TX107,4020 Weber Rd.,TX,78411
Papa Murphy's Take N Bake,San Antonio,TX108,TX108,20821 US Highway 281,TX,78258
Papa Murphy's Take N Bake,Denton,TX111,TX111,1105 East University Drive,TX,76209
Papa Murphy's Take N Bake,Bastrop,TX112,TX112,696 Highway 71 West,TX,78602
Papa Murphy's Take N Bake,Dallas,TX116,TX116,18110 Midway Road,TX,75287
Papa Murphy's Take N Bake,Austin,TX117,TX117,12856 North Research Blvd,TX,78750
Papa Murphy's Take N Bake,Marble Falls,TX118,TX118,1008 US Highway 281,TX,78654
Papa Murphy's Take N Bake,Arlington,TX119,TX119,4130 South Bowen Road,TX,76016
Papa Murphy's Take N Bake,Mckinney,TX121,TX121,3201 South Hardin Blvd.,TX,75070
Papa Murphy's Take N Bake,Corpus Christi,TX122,TX122,10241 South Padre Island Drive,TX,78418
Papa Murphy's Take N Bake,Dallas,TX123,TX123,8550 Plano Rd,TX,75238
Papa Murphy's Take N Bake,Dallas,TX124,TX124,13350 Audelia Road,TX,75243
Papa Murphy's Take N Bake,Allen,TX125,TX125,1008 West McDermott Drive,TX,75013
Papa Murphy's Take N Bake,Austin,TX126,TX126,4404 West William Cannon Road,TX,78749
Papa Murphy's Take N Bake,Waco,TX129,TX129,208 Hewitt Drive,TX,76712
Papa Murphy's Take N Bake,Pflugerville,TX130,TX130,16123 Dessau Road,TX,78660
Papa Murphy's Take N Bake,Taylor,TX131,TX131,3605 North Main Street,TX,76574
Papa Murphy's Take N Bake,Mesquite,TX134,TX134,820 East Cartwright Road,TX,75149
Papa Murphy's Take N Bake,Rockwall,TX136,TX136,2435 Ridge Road,TX,75087
Papa Murphy's Take N Bake,Flower Mound,TX142,TX142,500 Flower Mound Road,TX,75028
Papa Murphy's Take N Bake,Garland,TX143,TX143,3035 Broadway Blvd,TX,75041
Papa Murphy's Take N Bake,Highland Village,TX145,TX145,2570 Justin Road,TX,75077
Papa Murphy's Take N Bake,Houston,TX150,TX150,8588 Westheimer Road,TX,77063
Papa Murphy's Take N Bake,Sugar Land,TX151,TX151,11609 South Highway 6,TX,77498
Papa Murphy's Take N Bake,Cypress,TX155,TX155,13125 Louetta Road,TX,77429
Papa Murphy's Take N Bake,Odessa,TX156,TX156,3920 East 42nd Street,TX,79762
Papa Murphy's Take N Bake,Katy,TX157,TX157,1560 South Mason Road,TX,77450
Papa Murphy's Take N Bake,Ft. Worth,TX159,TX159,3651 Sycamore School Road,TX,76133
Papa Murphy's Take N Bake,Burleson,TX160,TX160,815 SW Alsbury Blvd,TX,76028
Papa Murphy's Take N Bake,Rowlett,TX162,TX162,5000 Rowlett Road,TX,75088
Papa Murphy's Take N Bake,Humble,TX163,TX163,7072 FM 1960 East,TX,77346
Papa Murphy's Take N Bake,Plano,TX164,TX164,7965 Custer Road,TX,75025
Papa Murphy's Take N Bake,Ft. Worth,TX167,TX167,4614 Southwest Loop 820,TX,76109
Papa Murphy's Take N Bake,Spring,TX168,TX168,2150 FM 2920,TX,77388
Papa Murphy's Take N Bake,Kingwood,TX169,TX169,4566 Kingwood Drive,TX,77345
Papa Murphy's Take N Bake,Houston,TX171,TX171,8606 Highway 6 North,TX,77095
Papa Murphy's Take N Bake,Deer Park,TX172,TX172,3717 Center Street,TX,77536
Papa Murphy's Take N Bake,Dallas,TX174,TX174,4560 West Mockingbird Lane,TX,75209
Papa Murphy's Take N Bake,Frisco,TX175,TX175,8745 Gary Burns Drive,TX,75034
Papa Murphy's Take N Bake,Granbury,TX179,TX179,3906 East Highway 377,TX,76049
Papa Murphy's Take N Bake,Spring,TX181,TX181,598 Sawdust Road,TX,77380
Papa Murphy's Take N Bake,Pantego,TX184,TX184,1607 South Bowen Road,TX,76013
Papa Murphy's Take N Bake,Boerne,TX187,TX187,1369 South Main Street,TX,78006
Papa Murphy's Take N Bake,Pearland,TX189,TX189,9811 Broadway Street,TX,77584
Papa Murphy's Take N Bake,Pearland,TX190,TX190,3320 East Broadway Street,TX,77581
Papa Murphy's Take N Bake,Abilene,TX193,TX193,1441 Barrow Street,TX,79605
Papa Murphy's Take N Bake,Salt Lake City,UT001,UT001,2286 East 2100 South,UT,84109
Papa Murphy's Take N Bake,Roy,UT002,UT002,5697 South 1900 West,UT,84067
Papa Murphy's Take N Bake,Spanish Fork,UT003,UT003,790 North 800 East,UT,84660
Papa Murphy's Take N Bake,St George,UT004,UT004,720 South River Road,UT,84790
Papa Murphy's Take N Bake,Sandy,UT005,UT005,9413 Union Square,UT,84070
Papa Murphy's Take N Bake,Logan,UT006,UT006,618 North Main Street,UT,84321
Papa Murphy's Take N Bake,Salt Lake City,UT007,UT007,5692 South 900 East,UT,84121
Papa Murphy's Take N Bake,South Ogden,UT008,UT008,323 36th Street,UT,84405
Papa Murphy's Take N Bake,West Valley,UT009,UT009,4578 South 4000 West,UT,84120
Papa Murphy's Take N Bake,Holladay,UT010,UT010,3932 South 2300 East,UT,84124
Papa Murphy's Take N Bake,South Ogden,UT011,UT011,5695 Harrison Blvd.,UT,84403
Papa Murphy's Take N Bake,Brigham City,UT012,UT012,285 North Main Street,UT,84302
Papa Murphy's Take N Bake,West Jordan,UT013,UT013,2688 West 9000 South,UT,84088
Papa Murphy's Take N Bake,Murray,UT014,UT014,659 West 5300 South,UT,84123
Papa Murphy's Take N Bake,Layton,UT015,UT015,78 South Fairfield Road,UT,84041
Papa Murphy's Take N Bake,West Valley,UT016,UT016,3525 West 3500 South,UT,84119
Papa Murphy's Take N Bake,Cedar City,UT017,UT017,70 East 200 North,UT,84720
Papa Murphy's Take N Bake,Orem,UT019,UT019,190 West Center Street,UT,84057
Papa Murphy's Take N Bake,Lehi,UT020,UT020,770 East Main Street,UT,84043
Papa Murphy's Take N Bake,Tooele,UT021,UT021,1341 North Main Street,UT,84074
Papa Murphy's Take N Bake,Syracuse,UT023,UT023,2052 West 1700 South,UT,84075
Papa Murphy's Take N Bake,Heber City,UT024,UT024,509 North Main Street,UT,84032
Papa Murphy's Take N Bake,Centerville,UT025,UT025,388 North Main Street,UT,84014
Papa Murphy's Take N Bake,Cottonwood Heights,UT026,UT026,1933 East 7000 South,UT,84121
Papa Murphy's Take N Bake,Riverton,UT027,UT027,1821 West 12600 South,UT,84065
Papa Murphy's Take N Bake,Bountiful,UT029,UT029,85 East 2200 South,UT,84010
Papa Murphy's Take N Bake,Pleasant Grove,UT030,UT030,981 West State Road,UT,84062
Papa Murphy's Take N Bake,Salt Lake City,UT031,UT031,302 South 700 East,UT,84102
Papa Murphy's Take N Bake,West Jordan,UT032,UT032,6898 Redwood Road,UT,84084
Papa Murphy's Take N Bake,Richfield,UT033,UT033,1116 South Highway 118,UT,84701
Papa Murphy's Take N Bake,Draper,UT034,UT034,408 East 12300 South,UT,84020
Papa Murphy's Take N Bake,Hurricane,UT035,UT035,535 West State Street,UT,84737
Papa Murphy's Take N Bake,Provo,UT036,UT036,979 South University Avenue,UT,84601
Papa Murphy's Take N Bake,North Ogden,UT038,UT038,2641 North Washington Blvd,UT,84414
Papa Murphy's Take N Bake,Magna,UT039,UT039,8045 West 3500 South,UT,84044
Papa Murphy's Take N Bake,Ogden,UT040,UT040,1145 Washington Blvd.,UT,84404
Papa Murphy's Take N Bake,St George,UT042,UT042,1006 West Sunset Blvd.,UT,84770
Papa Murphy's Take N Bake,West Jordan,UT043,UT043,7759 South 4800 West,UT,84084
Papa Murphy's Take N Bake,Providence,UT044,UT044,2 North Highway 165,UT,84332
Papa Murphy's Take N Bake,Payson,UT045,UT045,1138 West 800 South,UT,84651
Papa Murphy's Take N Bake,Highland,UT047,UT047,5435 West 11000 North,UT,84003
Papa Murphy's Take N Bake,Herriman,UT048,UT048,5532 West 13400 South,UT,84096
Papa Murphy's Take N Bake,Vernal,UT049,UT049,1820 West Highway 40,UT,84078
Papa Murphy's Take N Bake,Salt Lake City,UT050,UT050,150 East 3300 South,UT,84115
Papa Murphy's Take N Bake,Clinton,UT051,UT051,1952 North 2000 West,UT,84015
Papa Murphy's Take N Bake,Layton,UT052,UT052,765 West Antelope Drive,UT,84041
Papa Murphy's Take N Bake,Salt Lake City,UT053,UT053,1645 West 700 North,UT,84116
Papa Murphy's Take N Bake,Springville,UT054,UT054,655 East 400 South,UT,84663
Papa Murphy's Take N Bake,Sandy,UT055,UT055,7828 South 1300 East,UT,84094
Papa Murphy's Take N Bake,Provo,UT057,UT057,3153 North Canyon Road,UT,84604
Papa Murphy's Take N Bake,Virginia Beach,VA001,VA001,3545 Buckner Blvd,VA,23453
Papa Murphy's Take N Bake,Herndon,VA009,VA009,13320 Franklin Farm Road,VA,20171
Papa Murphy's Take N Bake,Kennewick,WA003,WA003,2624 West Kennewick Avenue,WA,99336
Papa Murphy's Take N Bake,Longview,WA004,WA004,3187 Ocean Beach Highway,WA,98632
Papa Murphy's Take N Bake,Spokane,WA005,WA005,2018 North Ruby Street,WA,99207
Papa Murphy's Take N Bake,Spokane,WA007,WA007,1624 West Rowan Avenue,WA,99205
Papa Murphy's Take N Bake,Battle Ground,WA008,WA008,720 West Main Street,WA,98604
Papa Murphy's Take N Bake,Lynnwood,WA009,WA009,19410 60th Avenue West,WA,98036
Papa Murphy's Take N Bake,Monroe,WA010,WA010,19995 State Route 2,WA,98272
Papa Murphy's Take N Bake,Oak Harbor,WA011,WA011,1100 SW Bowmer Street,WA,98277
Papa Murphy's Take N Bake,Redmond,WA012,WA012,17181 Redmond Way,WA,98052
Papa Murphy's Take N Bake,Spokane,WA014,WA014,2522 East 29th Avenue,WA,99223
Papa Murphy's Take N Bake,Yakima,WA015,WA015,64 West Nob Hill Blvd,WA,98901
Papa Murphy's Take N Bake,Sammamish,WA016,WA016,709 228th Avenue North East,WA,98074
Papa Murphy's Take N Bake,Kent,WA019,WA019,10429 SE Kent Kangley Road,WA,98030
Papa Murphy's Take N Bake,Vancouver,WA020,WA020,2714 East Fourth Plain,WA,98661
Papa Murphy's Take N Bake,Vancouver,WA021,WA021,6605 East Mill Plain Blvd.,WA,98661
Papa Murphy's Take N Bake,Vancouver,WA022,WA022,10501 North East Highway 99,WA,98686
Papa Murphy's Take N Bake,Camas,WA023,WA023,2406 South East 8th Avenue,WA,98607
Papa Murphy's Take N Bake,Bellingham,WA024,WA024,2400 James Street,WA,98225
Papa Murphy's Take N Bake,Mill Creek,WA025,WA025,914 164th Street South East,WA,98012
Papa Murphy's Take N Bake,Vancouver,WA027,WA027,14201 South East Mill Plain Blvd,WA,98684
Papa Murphy's Take N Bake,Renton,WA028,WA028,17324 140th Avenue South East,WA,98058
Papa Murphy's Take N Bake,Bothell,WA029,WA029,22833 Bothell Everett Hwy.,WA,98021
Papa Murphy's Take N Bake,Bellingham,WA040,WA040,1312 Lakeway Drive,WA,98229
Papa Murphy's Take N Bake,Centralia,WA041,WA041,1105 Harrison Avenue,WA,98531
Papa Murphy's Take N Bake,Vancouver,WA042,WA042,10917 North East 4th Plain Road,WA,98662
Papa Murphy's Take N Bake,Auburn,WA047,WA047,721 M Street North East,WA,98002
Papa Murphy's Take N Bake,Issaquah,WA048,WA048,755 North West Gilman Blvd,WA,98027
Papa Murphy's Take N Bake,Bellevue,WA049,WA049,1500 145th Place SE,WA,98007
Papa Murphy's Take N Bake,Snohomish,WA050,WA050,1207 13th Street,WA,98290
Papa Murphy's Take N Bake,Federal Way,WA051,WA051,2154 South West 336th Street,WA,98023
Papa Murphy's Take N Bake,Kent,WA052,WA052,20528 108th Avenue South East,WA,98031
Papa Murphy's Take N Bake,Everett,WA070,WA070,4923 Evergreen Way,WA,98203
Papa Murphy's Take N Bake,Lynnwood,WA072,WA072,12721 Mukilteo Speedway,WA,98087
Papa Murphy's Take N Bake,Seattle,WA075,WA075,3000 North East 127th Street,WA,98125
Papa Murphy's Take N Bake,Maple Valley,WA080,WA080,23880 SE Kent Kangley Road,WA,98038
Papa Murphy's Take N Bake,Pasco,WA081,WA081,1804 West Court Street,WA,99301
Papa Murphy's Take N Bake,Bremerton,WA082,WA082,3404 Kitsap Way,WA,98312
Papa Murphy's Take N Bake,Tacoma,WA083,WA083,2315 North Pearl Street,WA,98407
Papa Murphy's Take N Bake,Puyallup,WA084,WA084,11012 Canyon Rd East,WA,98373
Papa Murphy's Take N Bake,Des Moines,WA085,WA085,27031 Pacific Highway South,WA,98198
Papa Murphy's Take N Bake,Mountlake Terrace,WA086,WA086,21005 44th Avenue West,WA,98043
Papa Murphy's Take N Bake,Port Orchard,WA087,WA087,1468 Olney Street South East,WA,98366
Papa Murphy's Take N Bake,Olympia,WA088,WA088,3726 Pacific Avenue South East,WA,98501
Papa Murphy's Take N Bake,Spokane Valley,WA089,WA089,13514 East Sprague Avenue,WA,99216
Papa Murphy's Take N Bake,Lakewood,WA090,WA090,5700 100th Street South West,WA,98499
Papa Murphy's Take N Bake,Sequim,WA091,WA091,680 West Washington Street,WA,98382
Papa Murphy's Take N Bake,Spokane,WA092,WA092,9502 North Newport Highway,WA,99218
Papa Murphy's Take N Bake,Clarkston,WA093,WA093,606 Maple Street,WA,99403
Papa Murphy's Take N Bake,Liberty Lake,WA094,WA094,1318 North Liberty Lake Road,WA,99019
Papa Murphy's Take N Bake,Marysville,WA095,WA095,1262 State Avenue,WA,98270
Papa Murphy's Take N Bake,Parkland,WA096,WA096,13720 Pacific Avenue South,WA,98444
Papa Murphy's Take N Bake,Arlington,WA097,WA097,3411 169th Place North East,WA,98223
Papa Murphy's Take N Bake,Lake Stevens,WA098,WA098,725 Highway 9,WA,98258
Papa Murphy's Take N Bake,Renton,WA099,WA099,4350 North East 4th Street,WA,98059
Papa Murphy's Take N Bake,Bremerton,WA100,WA100,4213 Wheaton Way,WA,98310
Papa Murphy's Take N Bake,Spokane Valley,WA101,WA101,9122 East Sprague Avenue,WA,99206
Papa Murphy's Take N Bake,Yakima,WA102,WA102,4900 Tieton Drive,WA,98902
Papa Murphy's Take N Bake,Woodinville,WA103,WA103,14182 NE Woodinville Duvall Road,WA,98072
Papa Murphy's Take N Bake,Walla Walla,WA104,WA104,1707 East Isaacs Avenue,WA,99362
Papa Murphy's Take N Bake,Wenatchee,WA105,WA105,212 5th Street,WA,98801
Papa Murphy's Take N Bake,Bonney Lake,WA106,WA106,9805 214th Avenue East,WA,98391
Papa Murphy's Take N Bake,Richland,WA107,WA107,1332 Jadwin Avenue,WA,99352
Papa Murphy's Take N Bake,Everett,WA108,WA108,11014 19th Avenue South East,WA,98208
Papa Murphy's Take N Bake,Spanaway,WA109,WA109,22225 Mountain Highway East,WA,98387
Papa Murphy's Take N Bake,Burien,WA110,WA110,15858 1st Avenue South,WA,98148
Papa Murphy's Take N Bake,Lake Forest Park,WA111,WA111,17171 Bothell Way North East,WA,98155
Papa Murphy's Take N Bake,Port Angeles,WA112,WA112,1405 East Front Street,WA,98362
Papa Murphy's Take N Bake,Selah,WA113,WA113,205 South 1st Street,WA,98942
Papa Murphy's Take N Bake,Spokane Valley,WA114,WA114,8901 East Trent,WA,99212
Papa Murphy's Take N Bake,Spokane,WA115,WA115,2418 West Northwest Blvd.,WA,99205
Papa Murphy's Take N Bake,Spokane,WA116,WA116,1308 South Grand Blvd.,WA,99202
Papa Murphy's Take N Bake,Mount Vernon,WA117,WA117,1320 East College Way,WA,98273
Papa Murphy's Take N Bake,Tacoma,WA118,WA118,8225 Pacific Avenue,WA,98408
Papa Murphy's Take N Bake,Seattle,WA119,WA119,306 23rd Avenue South,WA,98144
Papa Murphy's Take N Bake,Covington,WA120,WA120,16783 South East 272nd Street,WA,98042
Papa Murphy's Take N Bake,Lynden,WA121,WA121,8146 Guide Meridian Road,WA,98264
Papa Murphy's Take N Bake,Puyallup,WA122,WA122,17520 Meridian East,WA,98373
Papa Murphy's Take N Bake,Renton,WA123,WA123,365 Renton Center Way South West,WA,98055
Papa Murphy's Take N Bake,East Wenatchee,WA124,WA124,505 Grant Road #B,WA,98802
Papa Murphy's Take N Bake,Lacey,WA125,WA125,4760 Yelm Highway SE,WA,98503
Papa Murphy's Take N Bake,Pullman,WA126,WA126,1475 South Grand Avenue,WA,99163
Papa Murphy's Take N Bake,Ellensburg,WA127,WA127,205 West Tacoma Avenue,WA,98926
Papa Murphy's Take N Bake,Bellevue,WA128,WA128,1915 140th Avenue North East,WA,98005
Papa Murphy's Take N Bake,Bellingham,WA129,WA129,1233 West Bakerview Road,WA,98226
Papa Murphy's Take N Bake,Olympia,WA130,WA130,400 Cooper Point Road South West,WA,98502
Papa Murphy's Take N Bake,Milton,WA131,WA131,900 Meridian East,WA,98354
Papa Murphy's Take N Bake,Vancouver,WA132,WA132,6715 North East 63rd Street,WA,98661
Papa Murphy's Take N Bake,Seattle,WA133,WA133,4730 42nd Avenue South West,WA,98116
Papa Murphy's Take N Bake,Vancouver,WA134,WA134,800 North East Tenney Road,WA,98685
Papa Murphy's Take N Bake,Burlington,WA136,WA136,1034 South Burlington Blvd.,WA,98233
Papa Murphy's Take N Bake,Omak,WA137,WA137,705B Omache Drive,WA,98841
Papa Murphy's Take N Bake,Tacoma,WA138,WA138,1201 South Union Avenue,WA,98405
Papa Murphy's Take N Bake,Kirkland,WA139,WA139,11312 NE 124th Street,WA,98034
Papa Murphy's Take N Bake,Anacortes,WA140,WA140,1710 Commercial Avenue,WA,98221
Papa Murphy's Take N Bake,University Place,WA141,WA141,3828 Bridgeport Way,WA,98466
Papa Murphy's Take N Bake,Spokane,WA142,WA142,1530 East Francis Avenue,WA,99208
Papa Murphy's Take N Bake,Ferndale,WA143,WA143,1730 Labounty Road,WA,98248
Papa Murphy's Take N Bake,Edmonds,WA144,WA144,23632 Highway 99,WA,98026
Papa Murphy's Take N Bake,Seattle,WA145,WA145,11202 16th Avenue South West,WA,98146
Papa Murphy's Take N Bake,Puyallup,WA146,WA146,4423 South Meridian Street,WA,98373
Papa Murphy's Take N Bake,Silverdale,WA147,WA147,2220 North West Bucklin Hill Road,WA,98383
Papa Murphy's Take N Bake,Sunnyside,WA148,WA148,2695 East Lincoln Avenue,WA,98944
Papa Murphy's Take N Bake,Spokane,WA149,WA149,12126 North Division Street,WA,99218
Papa Murphy's Take N Bake,Tacoma,WA150,WA150,3833 Pacific Avenue,WA,98408
Papa Murphy's Take N Bake,Lacey,WA152,WA152,1401 Marvin Road North East,WA,98516
Papa Murphy's Take N Bake,Cheney,WA153,WA153,1808 2nd Street,WA,99004
Papa Murphy's Take N Bake,Longview,WA154,WA154,945 Washington Way,WA,98632
Papa Murphy's Take N Bake,Kingston,WA155,WA155,8202 NE State Highway 104,WA,98346
Papa Murphy's Take N Bake,Newcastle,WA156,WA156,6945 Coal Creek Parkway SE,WA,98059
Papa Murphy's Take N Bake,North Bend,WA157,WA157,456 South West Mt. Si Blvd.,WA,98045
Papa Murphy's Take N Bake,Seattle,WA158,WA158,9743 Holman Road North West,WA,98117
Papa Murphy's Take N Bake,Stanwood,WA159,WA159,26910 92nd Avenue NW,WA,98292
Papa Murphy's Take N Bake,Puyallup,WA160,WA160,711 River Road,WA,98371
Papa Murphy's Take N Bake,Yelm,WA162,WA162,1201 East Yelm Avenue,WA,98597
Papa Murphy's Take N Bake,Gig Harbor,WA163,WA163,5114 Point Fosdick Drive North West,WA,98335
Papa Murphy's Take N Bake,Poulsbo,WA165,WA165,19494 7th Avenue North East,WA,98370
Papa Murphy's Take N Bake,Moses Lake,WA166,WA166,210 East 3rd Avenue,WA,98837
Papa Murphy's Take N Bake,Tumwater,WA167,WA167,555 Trosper Road Southwest,WA,98501
Papa Murphy's Take N Bake,Auburn,WA168,WA168,4435 A Street South East,WA,98002
Papa Murphy's Take N Bake,Colville,WA169,WA169,128 Ponderosa Road,WA,99114
Papa Murphy's Take N Bake,Enumclaw,WA170,WA170,250 Roosevelt Avenue East,WA,98022
Papa Murphy's Take N Bake,Sedro Woolley,WA171,WA171,108 North Township Street,WA,98284
Papa Murphy's Take N Bake,Duvall,WA172,WA172,26304 NE Big Rock Road,WA,98019
Papa Murphy's Take N Bake,Shelton,WA173,WA173,301 East Wallace-Kneeland Blvd,WA,98584
Papa Murphy's Take N Bake,Aberdeen,WA174,WA174,1143 East Wishkah Street,WA,98520
Papa Murphy's Take N Bake,Belfair,WA175,WA175,23781 State Highway 3,WA,98528
Papa Murphy's Take N Bake,Vancouver,WA176,WA176,3415 SE 192nd Avenue,WA,98683
Papa Murphy's Take N Bake,Orting,WA177,WA177,215 Whitesell Street North West,WA,98360
Papa Murphy's Take N Bake,Arlington,WA178,WA178,7705 204th Street,WA,98223
Papa Murphy's Take N Bake,Port Townsend,WA179,WA179,1220 Sims Way,WA,98368
Papa Murphy's Take N Bake,Toppenish,WA180,WA180,211 South Chestnut Street,WA,98948
Papa Murphy's Take N Bake,Vancouver,WA181,WA181,8611 North East Ward Road,WA,98682
Papa Murphy's Take N Bake,Graham,WA182,WA182,22205 Meridian Ave East,WA,98338
Papa Murphy's Take N Bake,College Place,WA183,WA183,1605 Southeast Meadowbrook Blvd,WA,99324
Papa Murphy's Take N Bake,Sumner,WA184,WA184,1201 Valley Avenue,WA,98390
Papa Murphy's Take N Bake,Yakima,WA185,WA185,4040 Terrace Heights Drive,WA,98901
Papa Murphy's Take N Bake,Redmond,WA186,WA186,23515 NE Novelty Hill Road,WA,98053
Papa Murphy's Take N Bake,Woodland,WA187,WA187,1999 Pacific Avenue,WA,98674
Papa Murphy's Take N Bake,Everett,WA188,WA188,510 West Casino Road,WA,98204
Papa Murphy's Take N Bake,Yakima,WA189,WA189,1515 Summitview Avenue,WA,98902
Papa Murphy's Take N Bake,Everett,WA190,WA190,5714 134th Place SE,WA,98208
Papa Murphy's Take N Bake,Vancouver,WA191,WA191,3801 Main Street,WA,98663
Papa Murphy's Take N Bake,Onalaska,WI001,WI001,1220 Crossing Meadows Drive,WI,54650
Papa Murphy's Take N Bake,Stevens Point,WI002,WI002,3409 Main Street,WI,54481
Papa Murphy's Take N Bake,Eau Claire,WI003,WI003,2123 Brackett Avenue,WI,54701
Papa Murphy's Take N Bake,Appleton,WI004,WI004,420 East Northland Avenue,WI,54911
Papa Murphy's Take N Bake,Manitowoc,WI005,WI005,1100 South 30th Street,WI,54220
Papa Murphy's Take N Bake,Middleton,WI006,WI006,1005 North Gammon Road,WI,53562
Papa Murphy's Take N Bake,Madison,WI008,WI008,4664 Cottage Grove Road,WI,53716
Papa Murphy's Take N Bake,Wisconsin Rapids,WI009,WI009,4551 8th Street South,WI,54494
Papa Murphy's Take N Bake,Green Bay,WI010,WI010,1487 West Mason Street,WI,54303
Papa Murphy's Take N Bake,La Crosse,WI011,WI011,1820 Jackson Street,WI,54601
Papa Murphy's Take N Bake,Menomonie,WI012,WI012,2321 North Highway 25,WI,54751
Papa Murphy's Take N Bake,New Berlin,WI013,WI013,3830 South Moorland Avenue,WI,53151
Papa Murphy's Take N Bake,Racine,WI014,WI014,4700 Washington Avenue,WI,53406
Papa Murphy's Take N Bake,Appleton,WI015,WI015,2700 East Calumet Street,WI,54915
Papa Murphy's Take N Bake,Oshkosh,WI016,WI016,2314 Westowne Avenue,WI,54904
Papa Murphy's Take N Bake,Sun Prairie,WI018,WI018,2099 McCoy Road,WI,53590
Papa Murphy's Take N Bake,Rhinelander,WI019,WI019,2195 Lincoln Street,WI,54501
Papa Murphy's Take N Bake,Sheboygan,WI020,WI020,2229 Calumet Drive,WI,53083
Papa Murphy's Take N Bake,Menomonee Falls,WI021,WI021,N95W18407 County Line Road,WI,53051
Papa Murphy's Take N Bake,Watertown,WI022,WI022,632 South Church Street,WI,53094
Papa Murphy's Take N Bake,Hudson,WI024,WI024,109 Carmichael Road,WI,54016
Papa Murphy's Take N Bake,Saint Francis,WI025,WI025,4698 South Whitnall Avenue,WI,53235
Papa Murphy's Take N Bake,Waukesha,WI026,WI026,2110 East Moreland Blvd.,WI,53186
Papa Murphy's Take N Bake,Superior,WI028,WI028,2433 Tower Avenue,WI,54880
Papa Murphy's Take N Bake,Weston,WI029,WI029,2408 Schofield Avenue,WI,54476
Papa Murphy's Take N Bake,Fitchburg,WI031,WI031,2980 Cahill Main,WI,53711
Papa Murphy's Take N Bake,De Pere,WI032,WI032,1025 Main Avenue,WI,54115
Papa Murphy's Take N Bake,Neenah,WI033,WI033,808 Winneconne Avenue,WI,54956
Papa Murphy's Take N Bake,West Bend,WI034,WI034,815 South Main Street,WI,53095
Papa Murphy's Take N Bake,Green Bay,WI035,WI035,2235 Main Street,WI,54302
Papa Murphy's Take N Bake,Oconomowoc,WI036,WI036,528 East Wisconsin Avenue,WI,53066
Papa Murphy's Take N Bake,Beloit,WI037,WI037,2787 Milwaukee Rd,WI,53511
Papa Murphy's Take N Bake,Baraboo,WI038,WI038,906 US Highway 12,WI,53913
Papa Murphy's Take N Bake,Pewaukee,WI040,WI040,2177 Silvernail Road,WI,53072
Papa Murphy's Take N Bake,Sturgeon Bay,WI041,WI041,1009 Egg Harbor Road,WI,54235
Papa Murphy's Take N Bake,Grafton,WI042,WI042,1965 Wisconsin Avenue,WI,53024
Papa Murphy's Take N Bake,Franklin,WI045,WI045,6509 South 27th Street,WI,53132
Papa Murphy's Take N Bake,Hales Corners,WI046,WI046,5770 South 108th Street,WI,53130
Papa Murphy's Take N Bake,Sussex,WI047,WI047,N65W24838 Main Street,WI,53089
Papa Murphy's Take N Bake,Stoughton,WI048,WI048,2360A Jackson Street,WI,53589
Papa Murphy's Take N Bake,Janesville,WI050,WI050,2261 Humes Road,WI,53545
Papa Murphy's Take N Bake,Chippewa Falls,WI051,WI051,3042 Commercial Blvd,WI,54729
Papa Murphy's Take N Bake,Portage,WI052,WI052,2936 New Pinery Road,WI,53901
Papa Murphy's Take N Bake,Wauwatosa,WI054,WI054,7630 West Bluemound Road,WI,53213
Papa Murphy's Take N Bake,Appleton,WI055,WI055,955 Mutual Way,WI,54913
Papa Murphy's Take N Bake,Prairie Du Chien,WI057,WI057,936 South Marquette Road,WI,53821
Papa Murphy's Take N Bake,Beaver Dam,WI058,WI058,106 Frances Lane,WI,53916
Papa Murphy's Take N Bake,Fort Atkinson,WI059,WI059,1513 Madison Avenue,WI,53538
Papa Murphy's Take N Bake,De Pere,WI060,WI060,565 Swan Road,WI,54115
Papa Murphy's Take N Bake,Saukville,WI062,WI062,620 East Green Bay Avenue,WI,53080
Papa Murphy's Take N Bake,Saint Croix Falls,WI063,WI063,2212 Glacier Drive,WI,54024
Papa Murphy's Take N Bake,Monroe,WI064,WI064,122 8th Street,WI,53566
Papa Murphy's Take N Bake,Monona,WI065,WI065,115 East Broadway,WI,53716
Papa Murphy's Take N Bake,Racine,WI066,WI066,5121 Douglas Avenue,WI,53402
Papa Murphy's Take N Bake,Mukwonago,WI067,WI067,250 East Wolf Run,WI,53149
Papa Murphy's Take N Bake,Plymouth,WI068,WI068,58 North Highland Avenue,WI,53073
Papa Murphy's Take N Bake,Platteville,WI069,WI069,160 McGregor Plaza,WI,53818
Papa Murphy's Take N Bake,New Richmond,WI070,WI070,250 Richmond Way,WI,54017
Papa Murphy's Take N Bake,Rice Lake,WI071,WI071,2304 South Main Street,WI,54868
Papa Murphy's Take N Bake,Janesville,WI072,WI072,2200 West Court Street,WI,53548
Papa Murphy's Take N Bake,Verona,WI073,WI073,1021 North Edge Trail,WI,53593
Papa Murphy's Take N Bake,Delavan,WI074,WI074,1741 East Geneva Street,WI,53115
Papa Murphy's Take N Bake,Milwaukee,WI075,WI075,3027 South 60th Street,WI,53219
Papa Murphy's Take N Bake,Waunakee,WI076,WI076,219 South Century Avenue,WI,53597
Papa Murphy's Take N Bake,Howard,WI077,WI077,2300 Lineville Road,WI,54313
Papa Murphy's Take N Bake,Wausau,WI078,WI078,1800 Stewart Avenue,WI,54401
Papa Murphy's Take N Bake,Burlington,WI079,WI079,1448 South Teut Road,WI,53105
Papa Murphy's Take N Bake,Kenosha,WI080,WI080,2324 18th Street,WI,53140
Papa Murphy's Take N Bake,Hartford,WI081,WI081,1595 East Sumner Street,WI,53027
Papa Murphy's Take N Bake,Fond Du Lac,WI085,WI085,186 North Main Street,WI,54935
Papa Murphy's Take N Bake,Oshkosh,WI086,WI086,220 West Murdock Avenue,WI,54901
Papa Murphy's Take N Bake,Hartland,WI087,WI087,3138 Village Square Drive,WI,53029
Papa Murphy's Take N Bake,Two Rivers,WI088,WI088,1803 Washington Street,WI,54241
Papa Murphy's Take N Bake,Marinette,WI089,WI089,1607 Marinette Ave,WI,54143
Papa Murphy's Take N Bake,Mequon,WI090,WI090,1330 West Mequon Road,WI,53092
Papa Murphy's Take N Bake,Menomonee Falls,WI091,WI091,W156N5530 Pilgrim Road,WI,53051
Papa Murphy's Take N Bake,Brookfield,WI092,WI092,2205 North Calhoun Road,WI,53005
Papa Murphy's Take N Bake,Madison,WI094,WI094,6718 Raymond Road,WI,53719
Papa Murphy's Take N Bake,Minocqua,WI095,WI095,9832 Plaza Drive,WI,54548
Papa Murphy's Take N Bake,Oak Creek,WI096,WI096,8880 South Howell Ave,WI,53154
Papa Murphy's Take N Bake,Sparta,WI098,WI098,215 North Black River Street,WI,54656
Papa Murphy's Take N Bake,Kaukauna,WI101,WI101,223 East Ann Street,WI,54130
Papa Murphy's Take N Bake,Muskego,WI104,WI104,S74W17025 Janesville Road,WI,53150
Papa Murphy's Take N Bake,Casper,WY002,WY002,201 South Montana,WY,82601
Papa Murphy's Take N Bake,Gillette,WY003,WY003,2126 South Douglas Highway,WY,82718
Papa Murphy's Take N Bake,Sheridan,WY004,WY004,1115 Coffeen Avenue,WY,82801
Papa Murphy's Take N Bake,Evanston,WY005,WY005,132 Front Street,WY,82930
Papa Murphy's Take N Bake,Cheyenne,WY006,WY006,3201 East Pershing Blvd.,WY,82001
Papa Murphy's Take N Bake,Cody,WY007,WY007,1901 17th Street,WY,82414
Papa Murphy's Take N Bake,Laramie,WY008,WY008,2111 East Grand Avenue,WY,82070
Papa Murphy's Take N Bake,Riverton,WY009,WY009,1010 North Federal Boulevard,WY,82501
Papa Murphy's Take N Bake,Rock Springs,WY010,WY010,1571 Dewar Drive,WY,82901
