Keywords,city,Agg store_number,store_number,address,state,zip_code
Party City,Randolph,2,2 000002 02 #02 #2,477 Route 10 East,NJ,7869
Party City,East Hanover,3,3 000003 03 #03 #3,346 Route 10 W,NJ,7936
Party City,Wayne,4,4 000004 04 #04 #4,1625 Route 23,NJ,7470
Party City,Virginia Beach,10,10 0000010 010 #010 #10,4001 Virginia Beach Blvd,VA,23452
Party City,Niles,15,15 0000015 015 #015 #15,5651 W. Touhy Avenue,IL,60714
Party City,Memphis,16,16 0000016 016 #016 #16,3460 Poplar Ave,TN,38111
Party City,Falls Church,17,17 0000017 017 #017 #17,5522 Leesburg Pike,VA,22041
Party City,Rochester,18,18 0000018 018 #018 #18,2373 Ridge Rd West,NY,14626
Party City,Memphis,21,21 0000021 021 #021 #21,1250 North Germantown Pkwy,TN,38016
Party City,Houston,22,22 0000022 022 #022 #22,6452 FM 1960 West,TX,77069
Party City,Houston,23,23 0000023 023 #023 #23,9525 Westheimer St,TX,77063
Party City,San Antonio,24,24 0000024 024 #024 #24,13419 San Pedro Ave,TX,78216
Party City,Hazlet,34,34 0000034 034 #034 #34,3082 NJ-35,NJ,7730
Party City,Springfield,38,38 0000038 038 #038 #38,601 West Baltimore Pike,PA,19064
Party City,Cincinnati,42,42 0000042 042 #042 #42,11747 Princeton Pike,OH,45246
Party City,Birmingham,46,46 0000046 046 #046 #46,1608 Montclair Rd,AL,35210
Party City,Huntsville,47,47 0000047 047 #047 #47,6275 University Dr NW,AL,35806
Party City,Guaynabo,49,49 0000049 049 #049 #49,C-22 Gonzlez Giusti,PR,968
Party City,Fairfield,55,55 0000055 055 #055 #55,2009 Black Rock Turnpike,CT,6825
Party City,Owings Mills,58,58 0000058 058 #058 #58,10385 Reisterstown Rd,MD,21117
Party City,Richardson,59,59 0000059 059 #059 #59,501 West Beltline Rd,TX,75080
Party City,Mesquite,60,60 0000060 060 #060 #60,1515 Town East Blvd,TX,75150
Party City,Plano,61,61 0000061 061 #061 #61,1701 Preston Rd,TX,75093
Party City,Arlington,62,62 0000062 062 #062 #62,1520 West Interstate 20,TX,76017
Party City,Carrollton,63,63 0000063 063 #063 #63,2540 North Josey,TX,75006
Party City,Irving,64,64 0000064 064 #064 #64,3929 West Airport Frwy,TX,75062
Party City,Dallas,65,65 0000065 065 #065 #65,305 Medallion Center,TX,75214
Party City,Charlotte,69,69 0000069 069 #069 #69,1816 Galleria Blvd,NC,28270
Party City,Charlotte,70,70 0000070 070 #070 #70,7601 Pineville-Matthews Rd,NC,28226
Party City,Altamonte Springs,71,71 0000071 071 #071 #71,1140 East Altamonte Dr,FL,32701
Party City,Charlotte,72,72 0000072 072 #072 #72,5401 South Blvd,NC,28217
Party City,Wilmington,73,73 0000073 073 #073 #73,2101 Kirkwood Hwy,DE,19805
Party City,Charlotte,74,74 0000074 074 #074 #74,9320 Center Lake Drive,NC,28216
Party City,Santa Ana,76,76 0000076 076 #076 #76,3837 S Bristol Street,CA,92704
Party City,Raleigh,100,100 00000100 0100 #0100 #100,3604 Sumner Blvd,NC,27616
Party City,Snellville,102,102 00000102 0102 #0102 #102,1905 Scenic Highway,GA,30078
Party City,Richmond,103,103 00000103 0103 #0103 #103,9130 West Broad St,VA,23294
Party City,Santa Fe,104,104 00000104 0104 #0104 #104,528 Cordova Rd,NM,87501
Party City,Little Rock,105,105 00000105 0105 #0105 #105,11218 Rodney Parham Rd,AR,72212
Party City,Fairfax,107,107 00000107 0107 #0107 #107,10700 Fairfax Blvd,VA,22030
Party City,Kenner,110,110 00000110 0110 #0110 #110,3424 Williams Blvd,LA,70065
Party City,Wichita,113,113 00000113 0113 #0113 #113,3411 North Rock Rd,KS,67226
Party City,Sandy Springs,115,115 00000115 0115 #0115 #115,6247 Roswell Road,GA,30328
Party City,Staten Island,116,116 00000116 0116 #0116 #116,2189 Hylan Blvd,NY,10306
Party City,Denver,117,117 00000117 0117 #0117 #117,2530 S Colorado Road,CO,80222
Party City,Waipahu,118,118 00000118 0118 #0118 #118,94-799 Lumiaina St,HI,96797
Party City,Catonsville,122,122 00000122 0122 #0122 #122,6500 Baltimore National Pike,MD,21228
Party City,Savannah,124,124 00000124 0124 #0124 #124,8108 Abercorn Extension,GA,31406
Party City,Ridgeland,125,125 00000125 0125 #0125 #125,900 East County Line Rd,MS,39157
Party City,Tampa,127,127 00000127 0127 #0127 #127,418 North Dale Mabry Hwy,FL,33609
Party City,Tampa,130,130 00000130 0130 #0130 #130,1719 East Fowler Ave,FL,33612
Party City,Glendale,133,133 00000133 0133 #0133 #133,8026 West Bell Rd,AZ,85308
Party City,Amherst,134,134 00000134 0134 #0134 #134,1565 Niagara Falls Blvd,NY,14228
Party City,Miami,135,135 00000135 0135 #0135 #135,8651 SW 24 St,FL,33155
Party City,Chesapeake,137,137 00000137 0137 #0137 #137,109 Volvo Parkway Suite 16-19,VA,23320
Party City,Mayaguez,138,138 00000138 0138 #0138 #138,Carr # 2 Edif # 828,PR,680
Party City,Austell,139,139 00000139 0139 #0139 #139,4155 Austell Rd,GA,30106
Party City,Bayamon,141,141 00000141 0141 #0141 #141,Ave Comero,PR,961
Party City,Winston-Salem,142,142 00000142 0142 #0142 #142,566 S. Stratford Road,NC,27103
Party City,Duluth,143,143 00000143 0143 #0143 #143,3675 Satellite Blvd,GA,30096
Party City,Downers Grove,144,144 00000144 0144 #0144 #144,1140 75th St,IL,60516
Party City,Durham,147,147 00000147 0147 #0147 #147,5420 New Hope Commons,NC,27707
Party City,Harvey,150,150 00000150 0150 #0150 #150,1600 Westbank Expressway,LA,70058
Party City,Albuquerque,151,151 00000151 0151 #0151 #151,4410 Wyoming Blvd NE,NM,87111
Party City,Norwalk,152,152 00000152 0152 #0152 #152,500 Connecticut Ave,CT,6854
Party City,Springfield,154,154 00000154 0154 #0154 #154,2840 South Campbell,MO,65807
Party City,Henrietta,155,155 00000155 0155 #0155 #155,700 Jefferson Road,NY,14623
Party City,Metairie,156,156 00000156 0156 #0156 #156,3009 Veterans Memorial Blvd,LA,70002
Party City,Phoenix,157,157 00000157 0157 #0157 #157,2738 West Peoria Ave,AZ,85029
Party City,Morrow,158,158 00000158 0158 #0158 #158,1892 Mount Zion Road,GA,30260
Party City,Marietta,159,159 00000159 0159 #0159 #159,50 Barrett Pkwy,GA,30066
Party City,Philadelphia,160,160 00000160 0160 #0160 #160,2201 Cottman Ave,PA,19149
Party City,Clearwater,161,161 00000161 0161 #0161 #161,16064 US Hwy 19 N,FL,33764
Party City,Tucson,162,162 00000162 0162 #0162 #162,5566 E Broadway Blvd,AZ,85711
Party City,San Diego,163,163 00000163 0163 #0163 #163,8330 Rio San Diego Dr,CA,92108
Party City,Hawthorne,164,164 00000164 0164 #0164 #164,14519 Ocean Gate Ave,CA,90250
Party City,Cincinnati,165,165 00000165 0165 #0165 #165,8063 Montgomery Rd,OH,45236
Party City,Hialeah,166,166 00000166 0166 #0166 #166,775 West 49th St,FL,33012
Party City,Carolina,167,167 00000167 0167 #0167 #167,"Ave 65 de Infantera, Km 117",PR,985
Party City,Highland Park,168,168 00000168 0168 #0168 #168,227 Skokie Valley Rd,IL,60035
Party City,Sugar Land,169,169 00000169 0169 #0169 #169,2525 Town Center Blvd,TX,77479
Party City,Chicago,171,171 00000171 0171 #0171 #171,3417 North Western Ave,IL,60618
Party City,Jacksonville,172,172 00000172 0172 #0172 #172,11112-12 San Jose Blvd,FL,32223
Party City,Mobile,173,173 00000173 0173 #0173 #173,300 East Azalea Rd,AL,36609
Party City,Humble,175,175 00000175 0175 #0175 #175,19739 Hwy 59,TX,77338
Party City,Atlanta,178,178 00000178 0178 #0178 #178,2900 Peachtree Road NW,GA,30305
Party City,Baton Rouge,179,179 00000179 0179 #0179 #179,9681 Airline Hwy,LA,70815
Party City,Queens,180,180 00000180 0180 #0180 #180,213-02 Northern Blvd,NY,11361
Party City,Tucson,181,181 00000181 0181 #0181 #181,5367 South Calle Santa Cruz,AZ,85706
Party City,Charleston,182,182 00000182 0182 #0182 #182,946 Orleans Road,SC,29407
Party City,Atlanta,183,183 00000183 0183 #0183 #183,2100-A Henderson Mill Rd,GA,30345
Party City,Woodbridge,186,186 00000186 0186 #0186 #186,14026 Shoppers Best Way,VA,22192
Party City,Sherman Oaks,187,187 00000187 0187 #0187 #187,14735 Ventura Blvd,CA,91403
Party City,Dallas,189,189 00000189 0189 #0189 #189,39759 LBJ Freeway,TX,75237
Party City,Baltimore,190,190 00000190 0190 #0190 #190,7929 Eastern Ave,MD,21224
Party City,Madison,194,194 00000194 0194 #0194 #194,2009 Gallatin Pike N,TN,37115
Party City,Richmond,195,195 00000195 0195 #0195 #195,10340 Midlothian Turnpike,VA,23235
Party City,Arlington Heights,196,196 00000196 0196 #0196 #196,111 West Rand Road,IL,60004
Party City,Wheaton,197,197 00000197 0197 #0197 #197,116 Danada Square West,IL,60187
Party City,Spartanburg,198,198 00000198 0198 #0198 #198,150 East Blackstock Rd,SC,29301
Party City,San Antonio,199,199 00000199 0199 #0199 #199,5127 NW Loop 410,TX,78229
Party City,Greenville,200,200 00000200 0200 #0200 #200,1117 Woodruff Rd,SC,29607
Party City,Wichita,201,201 00000201 0201 #0201 #201,6866 West Kellogg,KS,67209
Party City,Cary,202,202 00000202 0202 #0202 #202,203 Crossroads Blvd,NC,27518
Party City,Lewisville,203,203 00000203 0203 #0203 #203,735 Hebron Pkwy,TX,75057
Party City,Birmingham,204,204 00000204 0204 #0204 #204,1615 Montgomery Hwy,AL,35216
Party City,Miami,207,207 00000207 0207 #0207 #207,11865 SW 26th St,FL,33175
Party City,Buffalo,208,208 00000208 0208 #0208 #208,145 Galleria Drive,NY,14225
Party City,San Diego,209,209 00000209 0209 #0209 #209,3315 Rosecrans St.,CA,92110
Party City,Miami,210,210 00000210 0210 #0210 #210,3727 NW 7th St,FL,33126
Party City,Gastonia,213,213 00000213 0213 #0213 #213,3686 East Franklin Blvd,NC,28054
Party City,Greensboro,214,214 00000214 0214 #0214 #214,5408 Sapp Rd,NC,27409
Party City,San Antonio,218,218 00000218 0218 #0218 #218,12651 Vance Jackson Rd,TX,78230
Party City,Plano,219,219 00000219 0219 #0219 #219,3308 North Central Expwy,TX,75074
Party City,Atlanta,220,220 00000220 0220 #0220 #220,2955 Cobb Parkway,GA,30339
Party City,Conyers,221,221 00000221 0221 #0221 #221,1390 Dogwood Dr SE,GA,30013
Party City,Fayetteville,222,222 00000222 0222 #0222 #222,126 Pavilion Pkwy,GA,30214
Party City,Gainesville,223,223 00000223 0223 #0223 #223,863 Dawsonville Hwy,GA,30501
Party City,Nashville,225,225 00000225 0225 #0225 #225,3177 Lebanon Pike,TN,37214
Party City,San Antonio,226,226 00000226 0226 #0226 #226,23026 US 281 North,TX,78258
Party City,Schertz,227,227 00000227 0227 #0227 #227,8226 Agora Pkwy,TX,78154
Party City,Garner,228,228 00000228 0228 #0228 #228,280 Shenstone Blvd,NC,27529
Party City,San Diego,229,229 00000229 0229 #0229 #229,11465 Carmel Mountain Rd,CA,92128
Party City,Albuquerque,230,230 00000230 0230 #0230 #230,10254 Coors Bypass NW,NM,87114
Party City,Goodyear,231,231 00000231 0231 #0231 #231,15389 West McDowell Rd,AZ,85338
Party City,Brandon,232,232 00000232 0232 #0232 #232,145 Brandon Town Center Blvd,FL,33511
Party City,Columbia,233,233 00000233 0233 #0233 #233,144 Harbison Blvd,SC,29212
Party City,Douglasville,234,234 00000234 0234 #0234 #234,2910 Chapel Hill Rd,GA,30135
Party City,Scottsdale,236,236 00000236 0236 #0236 #236,15740 North Pima Rd,AZ,85260
Party City,Miami,238,238 00000238 0238 #0238 #238,20831 South Dixie Hwy,FL,33189
Party City,Marietta,239,239 00000239 0239 #0239 #239,4281 Roswell Rd,GA,30062
Party City,Johns Creek,240,240 00000240 0240 #0240 #240,11720 Medlock Bridge Rd,GA,30097
Party City,New Orleans,241,241 00000241 0241 #0241 #241,1000 South Clearview Pkwy,LA,70123
Party City,Montgomery,242,242 00000242 0242 #0242 #242,2759 Eastern Blvd,AL,36117
Party City,Slidell,243,243 00000243 0243 #0243 #243,61119 Airport Rd,LA,70460
Party City,York,246,246 00000246 0246 #0246 #246,2801 East Market St,PA,17402
Party City,Hickory,247,247 00000247 0247 #0247 #247,1942 Catawba Valley Blvd SE,NC,28602
Party City,Newnan,248,248 00000248 0248 #0248 #248,553 Bullsboro Dr,GA,30265
Party City,Phoenix,249,249 00000249 0249 #0249 #249,4533 East Cactus Rd,AZ,85032
Party City,St. Petersburg,250,250 00000250 0250 #0250 #250,8051A Dr Martin Luther King Jr St North,FL,33702
Party City,San Diego,251,251 00000251 0251 #0251 #251,4283 Genesee Ave,CA,92117
Party City,Greensboro,252,252 00000252 0252 #0252 #252,2637 Lawndale Dr,NC,27408
Party City,Brentwood,254,254 00000254 0254 #0254 #254,1630 Galleria Blvd,TN,37027
Party City,Buffalo,255,255 00000255 0255 #0255 #255,5097 Transit Rd,NY,14221
Party City,East Harrisburg,256,256 00000256 0256 #0256 #256,5125 Jonestown Rd,PA,17112
Party City,Temecula,257,257 00000257 0257 #0257 #257,40486 Winchester Rd,CA,92591
Party City,Rockville,259,259 00000259 0259 #0259 #259,1500 Rockville Pike,MD,20852
Party City,Gulfport,260,260 00000260 0260 #0260 #260,15224 Crossroads Pkwy,MS,39503
Party City,Cumming,264,264 00000264 0264 #0264 #264,1150 Marketplace Blvd,GA,30041
Party City,Ft. Myers,266,266 00000266 0266 #0266 #266,5025 South Cleveland Ave,FL,33907
Party City,N. Little Rock,269,269 00000269 0269 #0269 #269,4822 North Hills Blvd,AR,72116
Party City,Sterling,270,270 00000270 0270 #0270 #270,47100 Community Plaza,VA,20164
Party City,Vancouver,272,272 00000272 0272 #0272 #272,305E NE Chkalov Dr,WA,98684
Party City,Reading,273,273 00000273 0273 #0273 #273,2785 Papermill Rd,PA,19610
Party City,Jacksonville,274,274 00000274 0274 #0274 #274,6001 Argyle Forest Blvd,FL,32244
Party City,Athens,275,275 00000275 0275 #0275 #275,3658 Atlanta Hwy,GA,30606
Party City,Porter Ranch,277,277 00000277 0277 #0277 #277,19927 Rinaldi St,CA,91326
Party City,White Marsh,279,279 00000279 0279 #0279 #279,5216 Camnpbell Blvd,MD,21236
Party City,Mesa,280,280 00000280 0280 #0280 #280,1236 East Baseline Rd,AZ,85204
Party City,Erie,282,282 00000282 0282 #0282 #282,1908 Keystone Dr,PA,16509
Party City,Frederick,283,283 00000283 0283 #0283 #283,5600 Urbana Pike,MD,21704
Party City,Phoenix,286,286 00000286 0286 #0286 #286,7515 West Encanto Blvd,AZ,85033
Party City,Laredo,287,287 00000287 0287 #0287 #287,7607 San Dario Ave,TX,78045
Party City,Mandeville,288,288 00000288 0288 #0288 #288,3371 Hwy 190,LA,70471
Party City,Macon,289,289 00000289 0289 #0289 #289,4666 Presidential Pkwy,GA,31206
Party City,Bakersfield,291,291 00000291 0291 #0291 #291,5544 Stockdale Hwy,CA,93309
Party City,Alpharetta,292,292 00000292 0292 #0292 #292,6110 North Point Pkwy,GA,30022
Party City,Anderson,294,294 00000294 0294 #0294 #294,150 Station Dr,SC,29621
Party City,Fort Walton Beach,295,295 00000295 0295 #0295 #295,99 Eglin Pkwy,FL,32548
Party City,Huntsville,297,297 00000297 0297 #0297 #297,2750 Carl T Jones Dr SE,AL,35802
Party City,Overland Park,298,298 00000298 0298 #0298 #298,8400 West 135th St,KS,66223
Party City,Gaithersburg,299,299 00000299 0299 #0299 #299,295 Kentlands Blvd,MD,20878
Party City,Albany,301,301 00000301 0301 #0301 #301,165 Washington Avenue Extension,NY,12203
Party City,Davie,302,302 00000302 0302 #0302 #302,2134 South University Dr,FL,33324
Party City,Oakland Park,304,304 00000304 0304 #0304 #304,843 East Commercial Blvd,FL,33334
Party City,Pembroke Pines,308,308 00000308 0308 #0308 #308,220 University Drive,FL,33024
Party City,Aventura,309,309 00000309 0309 #0309 #309,18861 Biscayne Blvd,FL,33180
Party City,Columbus,310,310 00000310 0310 #0310 #310,555 Whittlesey Blvd,GA,31909
Party City,Hollywood,315,315 00000315 0315 #0315 #315,3911 Oakwood Blvd,FL,33020
Party City,North Miami Beach,316,316 00000316 0316 #0316 #316,15947 Biscayne Blvd,FL,33160
Party City,Palmetto Bay,317,317 00000317 0317 #0317 #317,13615 South Dixie Hwy,FL,33176
Party City,Kendall,319,319 00000319 0319 #0319 #319,13865 SW 88th St,FL,33186
Party City,Conreo,320,320 00000320 0320 #0320 #320,19189 I-45 South,TX,77385
Party City,Fayetteville,321,321 00000321 0321 #0321 #321,50 West Joyce Blvd,AR,72703
Party City,S. Boca Raton,323,323 00000323 0323 #0323 #323,22191-23C Powerline Rd,FL,33433
Party City,Pembroke Pines,324,324 00000324 0324 #0324 #324,14804 Pines Blvd,FL,33027
Party City,Sunrise,326,326 00000326 0326 #0326 #326,12540 W Sunrise Blvd,FL,33323
Party City,Tallahassee,327,327 00000327 0327 #0327 #327,1739 Apalachee Pkwy,FL,32301
Party City,Mooresville,330,330 00000330 0330 #0330 #330,590 F River Hwy,NC,28117
Party City,Royal Palm Beach,331,331 00000331 0331 #0331 #331,520 North State Rd 7,FL,33411
Party City,Coral Springs,332,332 00000332 0332 #0332 #332,1270 University Dr,FL,33071
Party City,Miami,333,333 00000333 0333 #0333 #333,10650 NW 19th St,FL,33172
Party City,Jacksonville,334,334 00000334 0334 #0334 #334,9400 Atlantic Blvd,FL,32225
Party City,East Point,336,336 00000336 0336 #0336 #336,3628 Marketplace Blvd,GA,30344
Party City,Buford,337,337 00000337 0337 #0337 #337,3205 Woodward Crossing Blvd,GA,30519
Party City,Pensacola,338,338 00000338 0338 #0338 #338,6241-A North Davis Highway,FL,32504
Party City,Schenectady,339,339 00000339 0339 #0339 #339,424 Balltown Rd,NY,12304
Party City,Columbia,340,340 00000340 0340 #0340 #340,6181 Old Dobbin Ln,MD,21045
Party City,Birmingham,341,341 00000341 0341 #0341 #341,5025 Hwy 280,AL,35242
Party City,Raleigh,342,342 00000342 0342 #0342 #342,8081-115 Brier Creek Pkwy,NC,27617
Party City,Chantilly,344,344 00000344 0344 #0344 #344,14409 Chantilly Crossing Ln,VA,20151
Party City,Estero,348,348 00000348 0348 #0348 #348,8070 Mediterranean Dr,FL,33928
Party City,Flowood,349,349 00000349 0349 #0349 #349,370 Ridge Way,MS,39232
Party City,Jensen Beach,350,350 00000350 0350 #0350 #350,4189 NW Federal Hwy,FL,34957
Party City,Leesburg,351,351 00000351 0351 #0351 #351,510-A East Market St,VA,20176
Party City,Monroe,352,352 00000352 0352 #0352 #352,2885 West Hwy 74,NC,28110
Party City,Spanish Fort,353,353 00000353 0353 #0353 #353,10200 Eastern Shore Blvd,AL,36527
Party City,Melbourne,357,357 00000357 0357 #0357 #357,1557 West New Haven Ave,FL,32904
Party City,Phoenix,359,359 00000359 0359 #0359 #359,4715 East Ray Rd,AZ,85044
Party City,San Antonio,360,360 00000360 0360 #0360 #360,2920 SW Military Dr,TX,78224
Party City,Fontana,361,361 00000361 0361 #0361 #361,15242 Summit Ave,CA,92336
Party City,Austin,363,363 00000363 0363 #0363 #363,5601 Brodie Ln,TX,78745
Party City,Austin,364,364 00000364 0364 #0364 #364,11150 Research Blvd,TX,78759
Party City,Austin,365,365 00000365 0365 #0365 #365,12901 North I-H 35,TX,78753
Party City,Miami,367,367 00000367 0367 #0367 #367,10550 SW 88th St,FL,33176
Party City,Chandler,369,369 00000369 0369 #0369 #369,2770 East Germann Rd,AZ,85286
Party City,Mesa,370,370 00000370 0370 #0370 #370,821 North Dobson Rd,AZ,85201
Party City,Summerville,373,373 00000373 0373 #0373 #373,432 Azalea Square Blvd,SC,29483
Party City,Miami,374,374 00000374 0374 #0374 #374,13550 SW 120th St,FL,33186
Party City,Winter Garden,376,376 00000376 0376 #0376 #376,3089 Daniels Rd,FL,34787
Party City,Kissimmee,377,377 00000377 0377 #0377 #377,2003 West Osceola Pkwy,FL,34741
Party City,Concord,378,378 00000378 0378 #0378 #378,6110 Bayfield Pkwy,NC,28027
Party City,Fresno,379,379 00000379 0379 #0379 #379,7374 North Blackstone Ave,CA,93650
Party City,Fresno,381,381 00000381 0381 #0381 #381,3623 West Shaw Ave,CA,93711
Party City,Visalia,382,382 00000382 0382 #0382 #382,1917 West Caldwell Avenue,CA,93277
Party City,Hagerstown,384,384 00000384 0384 #0384 #384,18061 Garland Groh Blvd,MD,21740
Party City,Phoenix,385,385 00000385 0385 #0385 #385,2501 West Happy Valley Rd,AZ,85085
Party City,Bakersfield,386,386 00000386 0386 #0386 #386,2710 Company Dr,CA,93312
Party City,Troutdale,387,387 00000387 0387 #0387 #387,22844 NE Park Ln,OR,97060
Party City,Johnson City,390,390 00000390 0390 #0390 #390,420 Harry L Dr,NY,13790
Party City,Tucson,398,398 00000398 0398 #0398 #398,9620 East 22nd St,AZ,85748
Party City,Mechanicsburg,399,399 00000399 0399 #0399 #399,6499 Carlisle Pike,PA,17050
Party City,Garland,400,400 00000400 0400 #0400 #400,3065 President George Bush Turnpike,TX,75040
Party City,El Centro,401,401 00000401 0401 #0401 #401,3009 South Dogwood,CA,92243
Party City,Woodbridge,402,402 00000402 0402 #0402 #402,455 Green St,NJ,7095
Party City,Union,403,403 00000403 0403 #0403 #403,2706 Rte 22,NJ,7083
Party City,Brooklyn,404,404 00000404 0404 #0404 #404,2183 B Ralph Ave,NY,11234
Party City,Jersey City,406,406 00000406 0406 #0406 #406,733 State Highway 440,NJ,7304
Party City,Cuyahoga Falls,407,407 00000407 0407 #0407 #407,278 Howe Ave,OH,44221
Party City,Watchung,408,408 00000408 0408 #0408 #408,1684 Route 22 East,NJ,7069
Party City,Oceanside,409,409 00000409 0409 #0409 #409,3098 Long Beach Rd,NY,11572
Party City,Pasadena,410,410 00000410 0410 #0410 #410,5786 Fairmont Pkwy,TX,77505
Party City,New Hartford,411,411 00000411 0411 #0411 #411,4525 Commercial Dr,NY,13413
Party City,Ferguson,412,412 00000412 0412 #0412 #412,10861 Old Halls Ferry Rd,MO,63136
Party City,Katy,413,413 00000413 0413 #0413 #413,20260 - C1 Katy Freeway,TX,77449
Party City,Turlock,414,414 00000414 0414 #0414 #414,3015 North Tegner Rd,CA,95380
Party City,Denton,416,416 00000416 0416 #0416 #416,2315 Colorado Blvd,TX,76205
Party City,Fort Worth,418,418 00000418 0418 #0418 #418,435 Sherry Ln,TX,76114
Party City,Pittsburg,419,419 00000419 0419 #0419 #419,4211 Century Blvd,CA,94565
Party City,Novato,420,420 00000420 0420 #0420 #420,208 Vintage Way,CA,94945
Party City,McKinney,421,421 00000421 0421 #0421 #421,2097 North Central Expressway,TX,75070
Party City,Portchester,422,422 00000422 0422 #0422 #422,435 Boston Post Rd,NY,10573
Party City,New Rochelle,423,423 00000423 0423 #0423 #423,80 Nardozzi Pl,NY,10805
Party City,Orlando,424,424 00000424 0424 #0424 #424,4024 Eastgate Dr,FL,32839
Party City,West Babylon,425,425 00000425 0425 #0425 #425,737 West Montauk Hwy,NY,11704
Party City,Las Vegas,426,426 00000426 0426 #0426 #426,7751 West Tropical Pkwy,NV,89149
Party City,Chino,427,427 00000427 0427 #0427 #427,4037 Grand Ave,CA,91710
Party City,Henderson,429,429 00000429 0429 #0429 #429,520 Mark St,NV,89014
Party City,Westland,430,430 00000430 0430 #0430 #430,35745 Warren Rd,MI,48185
Party City,Grandville,431,431 00000431 0431 #0431 #431,4515 Canal Ave SW,MI,49418
Party City,Bolingbrook,432,432 00000432 0432 #0432 #432,139 South Weber Rd,IL,60490
Party City,Lake Zurich,433,433 00000433 0433 #0433 #433,795 West Main St,IL,60047
Party City,Pico Rivera,436,436 00000436 0436 #0436 #436,8620 Washington Blvd,CA,90660
Party City,Mission Viejo,437,437 00000437 0437 #0437 #437,27835 Santa Margarita Pkwy,CA,92691
Party City,Silverdale,438,438 00000438 0438 #0438 #438,3114 NW Randall Way,WA,98383
Party City,Los Angeles,439,439 00000439 0439 #0439 #439,2935 Los Feliz Blvd,CA,90039
Party City,McAllen,440,440 00000440 0440 #0440 #440,732 East Expressway 83,TX,78503
Party City,Santee,441,441 00000441 0441 #0441 #441,9850 Mission Gorge Rd,CA,92071
Party City,West Hills,442,442 00000442 0442 #0442 #442,6559 Fallbrook Ave,CA,91307
Party City,Rancho Cucamonga,443,443 00000443 0443 #0443 #443,"11098 Foothill Blvd, Suite 110",CA,91730
Party City,Brentwood,444,444 00000444 0444 #0444 #444,2470 Sand Creek Rd,CA,94513
Party City,Escondido,445,445 00000445 0445 #0445 #445,1270 Auto Park Way,CA,92029
Party City,Thousand Oaks,446,446 00000446 0446 #0446 #446,2715 Teller Rd,CA,91320
Party City,Sacramento,449,449 00000449 0449 #0449 #449,1692 Arden Way,CA,95815
Party City,Olympia,450,450 00000450 0450 #0450 #450,2315 4th Ave W.,WA,98502
Party City,Aurora,457,457 00000457 0457 #0457 #457,14160 East Ellsworth Ave,CO,80012
Party City,Monrovia,459,459 00000459 0459 #0459 #459,622 West Huntington Dr,CA,91016
Party City,Bellevue,463,463 00000463 0463 #0463 #463,15600 NE 8th St,WA,98008
Party City,Kent,464,464 00000464 0464 #0464 #464,"26225 104th Ave, SE",WA,98030
Party City,Marysville,465,465 00000465 0465 #0465 #465,3721 116th Str,WA,98270
Party City,Puyallup,466,466 00000466 0466 #0466 #466,10408 156TH St,WA,98374
Party City,Flower Mound,469,469 00000469 0469 #0469 #469,6101 Long Prairie Rd,TX,75028
Party City,Salinas,470,470 00000470 0470 #0470 #470,1684 North Main St,CA,93906
Party City,Woodinville,471,471 00000471 0471 #0471 #471,"18027 Garden Way, NE",WA,98072
Party City,Littleton,472,472 00000472 0472 #0472 #472,7735 West Long Dr,CO,80123
Party City,Burlington,474,474 00000474 0474 #0474 #474,147 Cascade Mall Dr,WA,98233
Party City,Farmington Hills,476,476 00000476 0476 #0476 #476,29305 Orchard Lake Rd,MI,48334
Party City,Oswego,477,477 00000477 0477 #0477 #477,3060 West Rte 34,IL,60543
Party City,Levittown,478,478 00000478 0478 #0478 #478,3541 Hempstead Tnpk,NY,11756
Party City,Watauga,479,479 00000479 0479 #0479 #479,7620 Denton Hwy,TX,76148
Party City,Mays Landing,480,480 00000480 0480 #0480 #480,530 Consumer Sq,NJ,8330
Party City,Cedar Hill,481,481 00000481 0481 #0481 #481,"715 N US Hwy 67, Suite 206",TX,75104
Party City,Orland Park,482,482 00000482 0482 #0482 #482,14906 South La Grange Rd,IL,60462
Party City,Opelika,485,485 00000485 0485 #0485 #485,2534 Enterprise Dr,AL,36801
Party City,Mira Loma,486,486 00000486 0486 #0486 #486,12339 Limonite Ave,CA,91752
Party City,Las Vegas,487,487 00000487 0487 #0487 #487,7285 Arroyo Crossing Pkwy,NV,89118
Party City,Euless,488,488 00000488 0488 #0488 #488,2800 State Highway 121,TX,76039
Party City,Arlington,489,489 00000489 0489 #0489 #489,2215 South Cooper St,TX,76013
Party City,Wilkes Barre,490,490 00000490 0490 #0490 #490,3460 Wilkes-Barre Twp Commons,PA,18702
Party City,Brownsville,491,491 00000491 0491 #0491 #491,3000 Pablo Kisel Blvd,TX,78526
Party City,Lansing,492,492 00000492 0492 #0492 #492,400 Frandor Ave,MI,48912
Party City,Lansing,493,493 00000493 0493 #0493 #493,5847 West Saginaw Hwy,MI,48917
Party City,Columbus,495,495 00000495 0495 #0495 #495,5364 West Point Plaza Dr,OH,43228
Party City,Stroudsburg,496,496 00000496 0496 #0496 #496,101 Pocono Commons Drive,PA,18360
Party City,Dearborn,497,497 00000497 0497 #0497 #497,22938 Micigan Ave,MI,48124
Party City,Fairfield,498,498 00000498 0498 #0498 #498,1335 Gateway Blvd,CA,94533
Party City,Orlando,500,500 00000500 0500 #0500 #500,3220 East Colonial Dr,FL,32803
Party City,Orlando,503,503 00000503 0503 #0503 #503,6391 West Colonial Dr,FL,32818
Party City,Middletown,504,504 00000504 0504 #0504 #504,470 Rte 211 East,NY,10940
Party City,Chicago,505,505 00000505 0505 #0505 #505,8141 South Cicero,IL,60652
Party City,Anaheim,506,506 00000506 0506 #0506 #506,418 North Euclid,CA,92801
Party City,Chula Vista,507,507 00000507 0507 #0507 #507,624 Palomar St,CA,91911
Party City,Miami,510,510 00000510 0510 #0510 #510,18452-18538 NW 67th Avenue,FL,33015
Party City,Roseville,511,511 00000511 0511 #0511 #511,32469 Gratiot Ave,MI,48066
Party City,Allen Pk,513,513 00000513 0513 #0513 #513,23195 Outer Dr,MI,48101
Party City,W. Los Angeles,514,514 00000514 0514 #0514 #514,2480 South Sepulveda,CA,90064
Party City,Greenbelt,515,515 00000515 0515 #0515 #515,6000 Greenbelt Rd,MD,20770
Party City,Royal Oak,516,516 00000516 0516 #0516 #516,30979 Woodward Ave,MI,48073
Party City,Madison,518,518 00000518 0518 #0518 #518,223 Junction Rd,WI,53717
Party City,Brooklyn,519,519 00000519 0519 #0519 #519,625 Atlantic Ave,NY,11217
Party City,La Habra,520,520 00000520 0520 #0520 #520,1601 West Imperial Hwy,CA,90631
Party City,National City,521,521 00000521 0521 #0521 #521,3410 Highland Ave,CA,91950
Party City,Bronx,522,522 00000522 0522 #0522 #522,310-320 Baychester Ave,NY,10475
Party City,Boca Raton,523,523 00000523 0523 #0523 #523,8095 West Glades Rd,FL,33434
Party City,El Cajon,524,524 00000524 0524 #0524 #524,160 North 2nd St,CA,92021
Party City,Centereach,525,525 00000525 0525 #0525 #525,253 Centereach Mall,NY,11720
Party City,Encinitas,526,526 00000526 0526 #0526 #526,1016 North El Camino Real,CA,92024
Party City,Lawrence,527,527 00000527 0527 #0527 #527,348 Rockaway Tnpk,NY,11559
Party City,Sterling Heights,529,529 00000529 0529 #0529 #529,12220 Hall Rd,MI,48313
Party City,Bronx,531,531 00000531 0531 #0531 #531,945 White Plains Rd,NY,10473
Party City,Calumet City,532,532 00000532 0532 #0532 #532,450 River Oaks West,IL,60409
Party City,Chicago Ridge,533,533 00000533 0533 #0533 #533,6440 West 95th St,IL,60415
Party City,West Paterson,534,534 00000534 0534 #0534 #534,1756 Route 46 West,NJ,7424
Party City,Baltimore,536,536 00000536 0536 #0536 #536,6311 York Rd,MD,21212
Party City,Las Vegas,538,538 00000538 0538 #0538 #538,3860 South Maryland Parkway,NV,89119
Party City,Livonia,539,539 00000539 0539 #0539 #539,29350 Plymouth Rd,MI,48150
Party City,Lauderhill,540,540 00000540 0540 #0540 #540,7344 West Commercial Blvd,FL,33319
Party City,Baldwin Park,541,541 00000541 0541 #0541 #541,3060 Baldwin Park Blvd,CA,91706
Party City,Alhambra,544,544 00000544 0544 #0544 #544,2500 W Commonwealth Ave,CA,91803
Party City,Stamford,545,545 00000545 0545 #0545 #545,2255 Summer St,CT,6905
Party City,San Jose,546,546 00000546 0546 #0546 #546,1600 Saratoga Ave,CA,95129
Party City,Irvine,548,548 00000548 0548 #0548 #548,2826 El Camino Real,CA,92782
Party City,Lighthouse Point,549,549 00000549 0549 #0549 #549,3501 North Federal Hwy,FL,33064
Party City,Las Vegas,550,550 00000550 0550 #0550 #550,2301 North Rainbow Blvd,NV,89108
Party City,Rochester Hills,551,551 00000551 0551 #0551 #551,1328 S Rochester Rd,MI,48307
Party City,Cincinnati,552,552 00000552 0552 #0552 #552,9863 Waterstone Blvd,OH,45249
Party City,Buffalo,553,553 00000553 0553 #0553 #553,2141 Elmwood Ave,NY,14207
Party City,Woodbury,555,555 00000555 0555 #0555 #555,8063 Jericho Tnpk,NY,11797
Party City,New Hyde Park,556,556 00000556 0556 #0556 #556,2317 New Hyde Park Rd,NY,11042
Party City,South Miami,558,558 00000558 0558 #0558 #558,6272 South Dixie Hwy,FL,33143
Party City,Valencia,559,559 00000559 0559 #0559 #559,25670 The Old Rd,CA,91381
Party City,West Covina,560,560 00000560 0560 #0560 #560,2620 East Workman Ave,CA,91791
Party City,Olivette,561,561 00000561 0561 #0561 #561,9612 Olive Blvd,MO,63132
Party City,Carle Place,562,562 00000562 0562 #0562 #562,192 Glen Cove Road,NY,11514
Party City,Roseville,563,563 00000563 0563 #0563 #563,1917 Douglas Blvd,CA,95661
Party City,St. Louis,564,564 00000564 0564 #0564 #564,10790 Sunset Hills Plaza,MO,63127
Party City,North Babylon,565,565 00000565 0565 #0565 #565,1239 Deer Park Ave (Rte 231),NY,11703
Party City,Brea,566,566 00000566 0566 #0566 #566,2485 Imperial Hwy,CA,92821
Party City,Elmont,567,567 00000567 0567 #0567 #567,1445 Hempstead Tnpk,NY,11003
Party City,Rockford,569,569 00000569 0569 #0569 #569,6370 East State St,IL,61108
Party City,Fort Collins,570,570 00000570 0570 #0570 #570,2924 Council Tree,CO,80525
Party City,Daly City,571,571 00000571 0571 #0571 #571,317 Gellert Blvd,CA,94015
Party City,Oceanside,572,572 00000572 0572 #0572 #572,2130 Vista Way,CA,92054
Party City,Pasadena,573,573 00000573 0573 #0573 #573,3353 East Foothill Blvd,CA,91107
Party City,Merrillville,574,574 00000574 0574 #0574 #574,2565 East 80th Ave,IN,46410
Party City,Newington,575,575 00000575 0575 #0575 #575,192 Kitts Ln,CT,6111
Party City,Naples,577,577 00000577 0577 #0577 #577,2334 Pine Ridge Rd,FL,34109
Party City,Houston,578,578 00000578 0578 #0578 #578,3225 Southwest Frwy,TX,77027
Party City,South Plainfield,579,579 00000579 0579 #0579 #579,7000 Hadley Rd,NJ,7080
Party City,San Dimas,580,580 00000580 0580 #0580 #580,852 West Arrow Hwy,CA,91773
Party City,Laurel,581,581 00000581 0581 #0581 #581,14802 Baltimore Avenue,MD,20707
Party City,Chino,582,582 00000582 0582 #0582 #582,5549 B Philadelphia St,CA,91710
Party City,Indianapolis,583,583 00000583 0583 #0583 #583,10537 East Washington St,IN,46229
Party City,Oakbrook,584,584 00000584 0584 #0584 #584,2155 West 22nd St,IL,60521
Party City,Pembroke Pines,586,586 00000586 0586 #0586 #586,11460 Pines Blvd,FL,33026
Party City,Evansville,587,587 00000587 0587 #0587 #587,311 North Burkhardt Rd,IN,47715
Party City,Houston,588,588 00000588 0588 #0588 #588,2525 South Hwy 6,TX,77082
Party City,Fishers,589,589 00000589 0589 #0589 #589,8600 East 96th St,IN,46038
Party City,Orange,591,591 00000591 0591 #0591 #591,292 Boston Post Rd,CT,6477
Party City,El Cajon,592,592 00000592 0592 #0592 #592,2883 Jamacha Rd,CA,92019
Party City,Lubbock,593,593 00000593 0593 #0593 #593,6002 Slide Rd,TX,79414
Party City,Willoughby,594,594 00000594 0594 #0594 #594,36315 Euclid Ave,OH,44094
Party City,Lakeland,595,595 00000595 0595 #0595 #595,3615 South Florida Ave,FL,33803
Party City,College Point,596,596 00000596 0596 #0596 #596,30-10 Whitestone Expressway,NY,11356
Party City,Phillipsburg,597,597 00000597 0597 #0597 #597,1240 Rte 22,NJ,8865
Party City,Pittsburgh,599,599 00000599 0599 #0599 #599,991 Freeport Rd,PA,15238
Party City,Forestville,600,600 00000600 0600 #0600 #600,3316 Donnell Dr,MD,20747
Party City,Bloomington,601,601 00000601 0601 #0601 #601,401 North Veterans Pkwy,IL,61704
Party City,Plainfield,602,602 00000602 0602 #0602 #602,2609 East Main St,IN,46168
Party City,Staten Island,603,603 00000603 0603 #0603 #603,1549 Forest Ave,NY,10302
Party City,Merriam,604,604 00000604 0604 #0604 #604,5808 Antioch Rd,KS,66202
Party City,Long Beach,605,605 00000605 0605 #0605 #605,7401 Carson St,CA,90808
Party City,Downey,607,607 00000607 0607 #0607 #607,7171 Firestone Blvd,CA,90241
Party City,Mansfield,608,608 00000608 0608 #0608 #608,1551 Highway 287 North,TX,76063
Party City,Toledo,609,609 00000609 0609 #0609 #609,4962 Monroe St,OH,43623
Party City,Littleton,610,610 00000610 0610 #0610 #610,8481 South Yosemite,CO,80124
Party City,Norfolk,611,611 00000611 0611 #0611 #611,1217 North Military Hwy,VA,23502
Party City,Commack,613,613 00000613 0613 #0613 #613,58 Veterans Memorial Hwy,NY,11725
Party City,San Jose,614,614 00000614 0614 #0614 #614,1986 Tully Rd,CA,95122
Party City,Massapequa,615,615 00000615 0615 #0615 #615,5500 Sunrise Hwy,NY,11758
Party City,Wilmington,616,616 00000616 0616 #0616 #616,4715F New Centre Dr,NC,28405
Party City,Lexington,618,618 00000618 0618 #0618 #618,2172 Sir Barton Way,KY,40509
Party City,Augusta,619,619 00000619 0619 #0619 #619,"249 Robert C Daniel, Jr Pkwy",GA,30909
Party City,Cedar Park,621,621 00000621 0621 #0621 #621,11066 Pecan Park Blvd,TX,78613
Party City,Compton,622,622 00000622 0622 #0622 #622,208 Towne Center Drive,CA,90220
Party City,Boynton Beach,623,623 00000623 0623 #0623 #623,339 North Congress Ave,FL,33426
Party City,Modesto,624,624 00000624 0624 #0624 #624,2401 McHenry Ave,CA,95350
Party City,Lafayette,625,625 00000625 0625 #0625 #625,5700 Johnston St,LA,70503
Party City,Richmond,626,626 00000626 0626 #0626 #626,3500A Kloseway,CA,94806
Party City,Cincinnati,627,627 00000627 0627 #0627 #627,4450 Eastgate Blvd.,OH,45245
Party City,Fredericksburg,628,628 00000628 0628 #0628 #628,1280 Carl D Silver Pkwy,VA,22401
Party City,Berwyn,629,629 00000629 0629 #0629 #629,7123 Cermak Rd,IL,60402
Party City,Houston,631,631 00000631 0631 #0631 #631,13760 Northwest Freeway,TX,77040
Party City,Lake Charles,633,633 00000633 0633 #0633 #633,3140 East Prien Lake,LA,70615
Party City,Whittier,634,634 00000634 0634 #0634 #634,14153 East Whittier Blvd,CA,90605
Party City,San Lorenzo,635,635 00000635 0635 #0635 #635,15584 Hesperian Blvd,CA,94580
Party City,Burlington,636,636 00000636 0636 #0636 #636,2200 Mount Holly Rd,NJ,8016
Party City,San Jose,638,638 00000638 0638 #0638 #638,863 Blossom Hill Rd,CA,95123
Party City,Van Nuys,639,639 00000639 0639 #0639 #639,7882 Van Nuys Blvd,CA,91402
Party City,Corpus Christi,641,641 00000641 0641 #0641 #641,5425 S. Padre Island Dr.,TX,78411
Party City,Colorado Springs,642,642 00000642 0642 #0642 #642,1730 East Woodmen Rd,CO,80920
Party City,Dublin,644,644 00000644 0644 #0644 #644,4922 Dublin Blvd,CA,94568
Party City,Cranberry Township,645,645 00000645 0645 #0645 #645,20215-20217 Rte 19,PA,16066
Party City,Reno,646,646 00000646 0646 #0646 #646,2825 Northtown Ln,NV,89512
Party City,Mt. Kisco,647,647 00000647 0647 #0647 #647,3 East Main St,NY,10549
Party City,Grand Prairie,648,648 00000648 0648 #0648 #648,5240 South Highway 360,TX,75052
Party City,Columbus,649,649 00000649 0649 #0649 #649,1297 Polaris Pkwy,OH,43240
Party City,Chicago,650,650 00000650 0650 #0650 #650,1755 West Fullerton Ave,IL,60614
Party City,West Palm Beach,651,651 00000651 0651 #0651 #651,4262 Okeechobee Blvd,FL,33409
Party City,Round Rock,652,652 00000652 0652 #0652 #652,2601 South IH 35,TX,78664
Party City,Fayetteville,653,653 00000653 0653 #0653 #653,2065-4 Skibo Rd,NC,28314
Party City,Orlando,655,655 00000655 0655 #0655 #655,7153 Narcoosse Road,FL,32822
Party City,Shreveport,656,656 00000656 0656 #0656 #656,6590 Youree Dr,LA,71105
Party City,Lancaster,658,658 00000658 0658 #0658 #658,1700 Fruitville Pike,PA,17601
Party City,North Syracuse,659,659 00000659 0659 #0659 #659,256 Rte 11,NY,13212
Party City,San Marcos,661,661 00000661 0661 #0661 #661,157 South Las Posas Road,CA,92078
Party City,Pleasant Hills,662,662 00000662 0662 #0662 #662,651 Clairton Blvd Suite #50,PA,15236
Party City,Chicago,664,664 00000664 0664 #0664 #664,1514 West 33rd St,IL,60608
Party City,Tukwila,665,665 00000665 0665 #0665 #665,17356 SouthCenter Pkwy,WA,98188
Party City,Melville,668,668 00000668 0668 #0668 #668,610 Broad Hollow Rd (Rte 110),NY,11747
Party City,Torrance,669,669 00000669 0669 #0669 #669,19670 Hawthorne Blvd,CA,90503
Party City,Homestead,671,671 00000671 0671 #0671 #671,911 North Homestead Blvd,FL,33030
Party City,Federal Way,672,672 00000672 0672 #0672 #672,32021 Pacific Hwy South,WA,98003
Party City,Carmel,673,673 00000673 0673 #0673 #673,14299 Clay Terrace Blvd,IN,46032
Party City,Staten Island,674,674 00000674 0674 #0674 #674,2795 Richmond Ave,NY,10314
Party City,Stony Brook,675,675 00000675 0675 #0675 #675,205 Hallock Rd,NY,11790
Party City,Blasdell,676,676 00000676 0676 #0676 #676,4408 Milestrip Rd,NY,14219
Party City,Orange,679,679 00000679 0679 #0679 #679,763 South Main St,CA,92868
Party City,New York,681,681 00000681 0681 #0681 #681,38 West 14th St,NY,10011
Party City,Humble,683,683 00000683 0683 #0683 #683,6705 FM 1960 East,TX,77346
Party City,Carbondale,685,685 00000685 0685 #0685 #685,1242 East Main St,IL,62901
Party City,Monroe,686,686 00000686 0686 #0686 #686,128 Bailey Farm Rd,NY,10950
Party City,Elmhurst,687,687 00000687 0687 #0687 #687,74-17 Grand Ave,NY,11373
Party City,Springfield,688,688 00000688 0688 #0688 #688,6721 Frontier Dr,VA,22150
Party City,Islip,689,689 00000689 0689 #0689 #689,2396 Sunrise Hwy,NY,11751
Party City,Yorktown Heights,690,690 00000690 0690 #0690 #690,3333 Crompond Rd,NY,10598
Party City,Murfreesboro,691,691 00000691 0691 #0691 #691,1979 Old Fort Pkwy,TN,37129
Party City,Patchogue,692,692 00000692 0692 #0692 #692,120 Sunrise Hwy,NY,11772
Party City,Deptford,695,695 00000695 0695 #0695 #695,1500 Almonesson Rd,NJ,8096
Party City,Orlando,697,697 00000697 0697 #0697 #697,331 North Alafaya Trl,FL,32828
Party City,Virginia Beach,698,698 00000698 0698 #0698 #698,2076-001 South Independence Blvd,VA,23453
Party City,Hurst,699,699 00000699 0699 #0699 #699,1323 West Pipeline Rd,TX,76053
Party City,Kingston,701,701 00000701 0701 #0701 #701,950 Miron Ln,NY,12401
Party City,San Francisco,703,703 00000703 0703 #0703 #703,1685 Bryant St,CA,94103
Party City,Syracuse,704,704 00000704 0704 #0704 #704,3565 West Genesee St,NY,13219
Party City,Miami,705,705 00000705 0705 #0705 #705,3401 N Miami Avenue,FL,33127
Party City,Winchester,706,706 00000706 0706 #0706 #706,143 Market Street,VA,22603
Party City,Chula Vista,707,707 00000707 0707 #0707 #707,2015 Birch Road,CA,91915
Party City,Port St Lucie,708,708 00000708 0708 #0708 #708,1745 NW St Lucie West Blvd,FL,34986
Party City,McHenry,709,709 00000709 0709 #0709 #709,3392 Shoppers Dr,IL,60050
Party City,Clifton,710,710 00000710 0710 #0710 #710,385 NJ-3,NJ,7014
Party City,North Bergen,711,711 00000711 0711 #0711 #711,3111 Kennedy Blvd,NJ,7047
Party City,Princenton,712,712 00000712 0712 #0712 #712,670 Nassau Park Blvd.,NJ,8540
Party City,Trenton,713,713 00000713 0713 #0713 #713,180 Marketplace Blvd,NJ,8691
Party City,Moorestown,714,714 00000714 0714 #0714 #714,1560 Nixon Dr,NJ,8057
Party City,Millville,715,715 00000715 0715 #0715 #715,2154 North 2nd St,NJ,8332
Party City,Turnersville,716,716 00000716 0716 #0716 #716,3501 NJ-42,NJ,8012
Party City,Voorhees,717,717 00000717 0717 #0717 #717,79 Rte 73,NJ,8043
Party City,Yonkers,718,718 00000718 0718 #0718 #718,2642 Central Park Ave,NY,10710
Party City,Tucson,720,720 00000720 0720 #0720 #720,7401 North La Cholla Blvd,AZ,85741
Party City,Exton,724,724 00000724 0724 #0724 #724,201 West Lincoln Hwy,PA,19341
Party City,Philadelphia,725,725 00000725 0725 #0725 #725,10500 Roosevelt Blvd,PA,19116
Party City,Honolulu,726,726 00000726 0726 #0726 #726,888 N Nimitz Hwy,HI,96817
Party City,Bethlehem,727,727 00000727 0727 #0727 #727,2404 Catasauqua Rd,PA,18018
Party City,Whitehall,728,728 00000728 0728 #0728 #728,2560 Macarthur Rd,PA,18052
Party City,Warminster,730,730 00000730 0730 #0730 #730,924 West Street Rd,PA,18974
Party City,Philadephia,731,731 00000731 0731 #0731 #731,330 W. Oregon Ave,PA,19148
Party City,Plymouth Meeting,732,732 00000732 0732 #0732 #732,2470 Chemical Rd,PA,19462
Party City,Fairless Hills,733,733 00000733 0733 #0733 #733,461 Oxford Valley Rd,PA,19030
Party City,Hackettstown,734,734 00000734 0734 #0734 #734,1885 Route 57,NJ,7840
Party City,Pittsburgh,735,735 00000735 0735 #0735 #735,120 Quinn Drive Plaza at the Pointe,PA,15275
Party City,Garden Grove,736,736 00000736 0736 #0736 #736,9661 Chapman Ave,CA,92841
Party City,Atlanta,737,737 00000737 0737 #0737 #737,4743-A Ashford Dunwoody Road,GA,30338
Party City,Lanham,738,738 00000738 0738 #0738 #738,9101 Woodmore Centre Drive,MD,20706
Party City,Burleson,739,739 00000739 0739 #0739 #739,12640 South Freeway,TX,76028
Party City,Palmdale,743,743 00000743 0743 #0743 #743,39451 10th St West,CA,93551
Party City,Wheaton,744,744 00000744 0744 #0744 #744,11006 Veirs Mill Road,MD,20902
Party City,Paramus,745,745 00000745 0745 #0745 #745,165 Rte-4 West,NJ,7652
Party City,Paramus,746,746 00000746 0746 #0746 #746,669 South Rt. 17,NJ,7652
Party City,Bridgewater,747,747 00000747 0747 #0747 #747,730 NJ-202,NJ,8807
Party City,Edgewater,748,748 00000748 0748 #0748 #748,509 River Rd,NJ,7020
Party City,Huntington Beach,749,749 00000749 0749 #0749 #749,16100 Beach Blvd,CA,92647
Party City,Riverside,750,750 00000750 0750 #0750 #750,2550 Canyon Springs Pkwy,CA,92507
Party City,Laguna Niguel,751,751 00000751 0751 #0751 #751,27110 Alicia Pkwy,CA,92677
Party City,Reseda,752,752 00000752 0752 #0752 #752,19389 Victory Blvd,CA,91335
Party City,Williamsport,753,753 00000753 0753 #0753 #753,1738 E. 3rd Street,PA,17701
Party City,League City,754,754 00000754 0754 #0754 #754,2560 Gulf Freeway South,TX,77573
Party City,Houston,755,755 00000755 0755 #0755 #755,10065 Almeda Genoa Road,TX,77075
Party City,Richmond,757,757 00000757 0757 #0757 #757,5466 West Grand Parkway South,TX,77406
Party City,Houston,758,758 00000758 0758 #0758 #758,6819 Hwy 6 North,TX,77084
Party City,Beaumont,759,759 00000759 0759 #0759 #759,5725 Eastex Freeway,TX,77706
Party City,Indio,760,760 00000760 0760 #0760 #760,42800 Jackson Ave,CA,92203
Party City,Webster,761,761 00000761 0761 #0761 #761,1261 West Bay Area Blvd,TX,77598
Party City,West Des Moines,763,763 00000763 0763 #0763 #763,6503 Mills Civic Pkwy,IA,50266
Party City,Mankato,765,765 00000765 0765 #0765 #765,1870 Adams St,MN,56001
Party City,Rochester,766,766 00000766 0766 #0766 #766,1300 Salem Rd SW,MN,55902
Party City,Minneapolis,767,767 00000767 0767 #0767 #767,640 County Hwy-10,MN,55434
Party City,Maplewood,768,768 00000768 0768 #0768 #768,3000 White Bear Ave North,MN,55109
Party City,West St. Paul,769,769 00000769 0769 #0769 #769,1671 Robert St South,MN,55118
Party City,Coon Rapids,770,770 00000770 0770 #0770 #770,3360 124th Ave,MN,55433
Party City,Minneapolis,771,771 00000771 0771 #0771 #771,1630 New Brighton Blvd,MN,55413
Party City,Apple Valley,772,772 00000772 0772 #0772 #772,7365 153rd St,MN,55124
Party City,Bloomington,773,773 00000773 0773 #0773 #773,7989 1\/2 Southtown Ctr,MN,55431
Party City,El Paso,774,774 00000774 0774 #0774 #774,1842 Joe Battle Blvd,TX,79936
Party City,El Paso,775,775 00000775 0775 #0775 #775,655 Sunland Park Dr,TX,79912
Party City,Fargo,776,776 00000776 0776 #0776 #776,4340 - 13th Avenue SW,ND,58103
Party City,Grand Forks,777,777 00000777 0777 #0777 #777,2861 32nd Avenue South,ND,58201
Party City,Minot,778,778 00000778 0778 #0778 #778,1425 24th Avenue SW,ND,58701
Party City,Houston,786,786 00000786 0786 #0786 #786,5946 East Sam Houston Pkwy North,TX,77049
Party City,Houston,808,808 00000808 0808 #0808 #808,516 Gulfgate Center Mall,TX,77087
Party City,Woodland,809,809 00000809 0809 #0809 #809,1386 E. Main St.,CA,95776
Party City,Cupertino,810,810 00000810 0810 #0810 #810,20740 Stevens Creek Blvd.,CA,95014
Party City,Edinburg,811,811 00000811 0811 #0811 #811,305 E. Trenton Road,TX,78539
Party City,Monaca,812,812 00000812 0812 #0812 #812,115 Wagner Road,PA,15061
Party City,Columbus,813,813 00000813 0813 #0813 #813,1171 N. National Ave.,IN,47201
Party City,Corpus Christi,814,814 00000814 0814 #0814 #814,4101 Hwy 77,TX,78410
Party City,Hanover,815,815 00000815 0815 #0815 #815,151 Wilson Avenue,PA,17331
Party City,Monroeville,816,816 00000816 0816 #0816 #816,275 Monroeville Mall,PA,15146
Party City,Mokena,817,817 00000817 0817 #0817 #817,11375 Lincoln Hwy,IL,60448
Party City,Crestwood,820,820 00000820 0820 #0820 #820,13220 S. Cicero Ave,IL,60445
Party City,New York,821,821 00000821 0821 #0821 #821,223 W 34th St,NY,10001
Party City,Valparaiso,822,822 00000822 0822 #0822 #822,610 Porter Vale Blvd.,IN,46383
Party City,Rome,823,823 00000823 0823 #0823 #823,2702 Martha Berry Highway,GA,30165
Party City,Hialeah Gardens,825,825 00000825 0825 #0825 #825,11860 Hialeah Gardens Blvd,FL,33018
Party City,Stafford,827,827 00000827 0827 #0827 #827,1240 Stafford Market Place,VA,22556
Party City,Delran,828,828 00000828 0828 #0828 #828,4004 U.S. 130,NJ,8075
Party City,McDonough,829,829 00000829 0829 #0829 #829,1554 HWY 20 West,GA,30253
Party City,Walker,831,831 00000831 0831 #0831 #831,3330 Alpine Ave NW,MI,49544
Party City,White Plains,836,836 00000836 0836 #0836 #836,431 Tarrytown Rd,NY,10607
Party City,Marina,837,837 00000837 0837 #0837 #837,125 Gen Stillwell Dr.,CA,93933
Party City,Fenton,838,838 00000838 0838 #0838 #838,790 Gravois Bluffs Plaza Dr,MO,63026
Party City,Ellisville,839,839 00000839 0839 #0839 #839,15894 Manchester Rd,MO,63011
Party City,Knoxville,840,840 00000840 0840 #0840 #840,8503 Kingston Pike,TN,37919
Party City,Knoxville,841,841 00000841 0841 #0841 #841,2901 Tazewell Pike,TN,37918
Party City,Knoxville,842,842 00000842 0842 #0842 #842,11334 Parkside Drive,TN,37922
Party City,Chesapeake,843,843 00000843 0843 #0843 #843,4107 Portsmouth Blvd,VA,23321
Party City,Pottstown,845,845 00000845 0845 #0845 #845,230 Upland Square Drive,PA,19464
Party City,Nanuet,846,846 00000846 0846 #0846 #846,123 Rockland Center,NY,10954
Party City,Ithaca,847,847 00000847 0847 #0847 #847,2309 N Triphammer Road,NY,14850
Party City,New York,848,848 00000848 0848 #0848 #848,301 W. 125th St.,NY,10027
Party City,Saginaw,849,849 00000849 0849 #0849 #849,2918 Titabawasee Rd.,MI,48604
Party City,Bridgeville,850,850 00000850 0850 #0850 #850,1155 Washington Pike #35,PA,15017
Party City,Dover,852,852 00000852 0852 #0852 #852,1047 N. DuPont Highway,US,19901
Party City,Everett,853,853 00000853 0853 #0853 #853,1402 SE Everett Mall Way,WA,98208
Party City,Fort Worth,854,854 00000854 0854 #0854 #854,4826 SW Loop 820,TX,76109
Party City,Brooklyn,855,855 00000855 0855 #0855 #855,2166 Nostrand Avenue,NY,11210
Party City,Chesterfield,856,856 00000856 0856 #0856 #856,50679 Waterside Dr.,US,48051
Party City,Tomball,857,857 00000857 0857 #0857 #857,28591 Tomball Parkway,TX,77375
Party City,Santa Maria,858,858 00000858 0858 #0858 #858,2410 S Broadway,CA,93454
Party City,Bronx,860,860 00000860 0860 #0860 #860,1 Fordham Plaza,NY,10458
Party City,Pickerington,861,861 00000861 0861 #0861 #861,10701 Blacklick-Eastern Road,OH,43147
Party City,Brunswick,862,862 00000862 0862 #0862 #862,40 Altama Village Drive,GA,31525
Party City,Albany,863,863 00000863 0863 #0863 #863,"2709 Dawson Road, Suite 2",GA,31707
Party City,Harrisonburg,865,865 00000865 0865 #0865 #865,1790-40 East Market Street,VA,22801
Party City,Winter Springs,866,866 00000866 0866 #0866 #866,5916 Red Bug Lake Road,FL,32708
Party City,Morgan Hill,867,867 00000867 0867 #0867 #867,1007 Cochrane Road,CA,95037
Party City,Costa Mesa,874,874 00000874 0874 #0874 #874,"2200 Harbor Blvd, Suite P-110",CA,92627
Party City,Aiken,877,877 00000877 0877 #0877 #877,1396 Whiskey Road,SC,29803
Party City,University Park,878,878 00000878 0878 #0878 #878,8111 Cooper Creek Blvd,FL,34201
Party City,Lake Worth,879,879 00000879 0879 #0879 #879,"6628 Lake Worth Blvd, Suite 400",TX,76135
Party City,Waterbury,887,887 00000887 0887 #0887 #887,910 Wolcott Street,CT,6705
Party City,North Haven,888,888 00000888 0888 #0888 #888,356 W Washington Ave,CT,6473
Party City,Hamden,889,889 00000889 0889 #0889 #889,2100 Dixwell Ave,CT,6514
Party City,Longmont,890,890 00000890 0890 #0890 #890,900 S Hover St,CO,80501
Party City,Lexington,891,891 00000891 0891 #0891 #891,"127 W Tiverton Way, Suite 120",KY,40503
Party City,Eden Prairie,1005,1005 000001005 01005 #01005 #1005,574 Prairie Center Dr,MN,55344
Party City,Roseville,1006,1006 000001006 01006 #01006 #1006,2487 Fairview Ave North,MN,55113
Party City,St. Cloud,1014,1014 000001014 01014 #01014 #1014,3959 2nd St South,MN,56301
Party City,Chanhassen,1017,1017 000001017 01017 #01017 #1017,830 West 78th St,MN,55317
Party City,Woodbury,1018,1018 000001018 01018 #01018 #1018,1505 Queens Dr,MN,55125
Party City,Maple Grove,1026,1026 000001026 01026 #01026 #1026,12810 Elm Creek Blvd,MN,55369
Party City,Eagan,1028,1028 000001028 01028 #01028 #1028,1279 Promenade Pl,MN,55121
Party City,Elk River,1029,1029 000001029 01029 #01029 #1029,19226 Freeport St NW,MN,55330
Party City,Plymouth,1031,1031 000001031 01031 #01031 #1031,4130 Berkshire Ln,MN,55446
Party City,Stillwater,1032,1032 000001032 01032 #01032 #1032,1851 Market Dr,MN,55082
Party City,Shakopee,1033,1033 000001033 01033 #01033 #1033,1607 - 17th Avenue E,MN,55379
Party City,Centennial,1065,1065 000001065 01065 #01065 #1065,6774 South University Blvd.,CO,80122
Party City,Northglenn,1072,1072 000001072 01072 #01072 #1072,450 East 120 Ave,CO,80233
Party City,Olathe,1103,1103 000001103 01103 #01103 #1103,14673 West 119th Street,KS,66062
Party City,Kansas City,1107,1107 000001107 01107 #01107 #1107,"305 NE Englewood Rd., B",MO,64118
Party City,Independence,1109,1109 000001109 01109 #01109 #1109,"20130 E. Jackson Drive, Ste. B",MO,64057
Party City,Lee's Summit,1115,1115 000001115 01115 #01115 #1115,967 NE Rice Rd,MO,64086
Party City,Kansas City,1119,1119 000001119 01119 #01119 #1119,8450 N. Church Road,MO,64158
Party City,Salina,1120,1120 000001120 01120 #01120 #1120,"2855 Marketplace, Ste. B",KS,67401
Party City,Kansas City,1121,1121 000001121 01121 #01121 #1121,13647 Washington Street,MO,64145
Party City,Tulsa,1161,1161 000001161 01161 #01161 #1161,10111 East 71st St.,OK,74133
Party City,Tulsa,1162,1162 000001162 01162 #01162 #1162,5301 East 41st Street,OK,74135
Party City,Pleasant Hill,1203,1203 000001203 01203 #01203 #1203,545 Contra Costa Blvd,CA,94523
Party City,Vallejo,1204,1204 000001204 01204 #01204 #1204,141 Plaza Dr,CA,94589
Party City,Redwood City,1211,1211 000001211 01211 #01211 #1211,1289 Veterans Blvd,CA,94063
Party City,Union City,1213,1213 000001213 01213 #01213 #1213,30761 Dyer St,CA,94587
Party City,San Jose,1218,1218 000001218 01218 #01218 #1218,1448 Kooser Rd,CA,95118
Party City,Fremont,1219,1219 000001219 01219 #01219 #1219,43732 Christy St,CA,94538
Party City,Roseville,1301,1301 000001301 01301 #01301 #1301,6736 Stanford Ranch Rd,CA,95678
Party City,Elk Grove,1304,1304 000001304 01304 #01304 #1304,7440 Laguna Blvd,CA,95758
Party City,Folsom,1305,1305 000001305 01305 #01305 #1305,2780 East Bidwell St,CA,95630
Party City,Lancaster,1401,1401 000001401 01401 #01401 #1401,44426 Valley Central Way,CA,93536
Party City,Burbank,1504,1504 000001504 01504 #01504 #1504,2011 Hollywood Way,CA,91505
Party City,West Los Angeles,1505,1505 000001505 01505 #01505 #1505,12121 West Pico Blvd,CA,90064
Party City,Torrance,1506,1506 000001506 01506 #01506 #1506,25361 Crenshaw Blvd,CA,90505
Party City,Corona,1508,1508 000001508 01508 #01508 #1508,2415 Tuscany St,CA,92881
Party City,Redlands,1510,1510 000001510 01510 #01510 #1510,27588 Lugonia Ave,CA,92374
Party City,Fullerton,1512,1512 000001512 01512 #01512 #1512,1521 South Harbor Blvd,CA,92832
Party City,Ontario,1513,1513 000001513 01513 #01513 #1513,4440 Ontario Mills Pkwy,CA,91764
Party City,Mission Viejo,1514,1514 000001514 01514 #01514 #1514,25410 Marguerite Pkwy,CA,92691
Party City,Simi Valley,1515,1515 000001515 01515 #01515 #1515,415 Cochran St,CA,93065
Party City,Oxnard,1516,1516 000001516 01516 #01516 #1516,211 West Esplanade Dr,CA,93030
Party City,Santa Clarita,1517,1517 000001517 01517 #01517 #1517,27029 McBean Pkwy,CA,91355
Party City,Victorville,1519,1519 000001519 01519 #01519 #1519,12410 Amargosa Rd,CA,92392
Party City,Orange,1520,1520 000001520 01520 #01520 #1520,1500 East Village,CA,92865
Party City,Downey,1521,1521 000001521 01521 #01521 #1521,12076 Lakewood Blvd,CA,90242
Party City,Westminster,3201,3201 000003201 03201 #03201 #3201,9420 Sheridan Blvd,CO,80030
Party City,Lakewood,3202,3202 000003202 03202 #03202 #3202,7000 West Alameda Ave,CO,80226
Party City,Denver,3203,3203 000003203 03203 #03203 #3203,7757 East 36th Ave,CO,80238
Party City,Aurora,3206,3206 000003206 03206 #03206 #3206,23901 East Orchard Rd,CO,80016
Party City,Colorado Springs,3301,3301 000003301 03301 #03301 #3301,3036 New Center Point,CO,80922
Party City,Muskegon,4000,4000 000004000 04000 #04000 #4000,5725 South Harvey St,MI,49444
Party City,Appleton,4002,4002 000004002 04002 #04002 #4002,4679 West College Ave,WI,54915
Party City,Flint,4102,4102 000004102 04102 #04102 #4102,G - 3549 Miller Rd,MI,48507
Party City,Walker,4104,4104 000004104 04104 #04104 #4104,3175 Alpine Ave NW,MI,49544
Party City,Grand Rapids,4107,4107 000004107 04107 #04107 #4107,5114 28th Street SE,MI,49512
Party City,Portage,4109,4109 000004109 04109 #04109 #4109,6749 South Westnedge Ave,MI,49002
Party City,Madison Heights,4110,4110 000004110 04110 #04110 #4110,32011 John R Rd,MI,48071
Party City,Ann Arbor,4111,4111 000004111 04111 #04111 #4111,2857 Oak Valley Dr,MI,48103
Party City,Flint,4112,4112 000004112 04112 #04112 #4112,3837 Lapeer Rd,MI,48503
Party City,Lansing,4113,4113 000004113 04113 #04113 #4113,462 East Edgewood Blvd,MI,48911
Party City,Taylor,4117,4117 000004117 04117 #04117 #4117,14528 Racho Rd,MI,48180
Party City,Novi,4124,4124 000004124 04124 #04124 #4124,43741 Oaks Dr,MI,48377
Party City,Livingston,4133,4133 000004133 04133 #04133 #4133,8057 Challis Rd,MI,48116
Party City,Orion Township,4134,4134 000004134 04134 #04134 #4134,4846 Baldwin Rd,MI,48359
Party City,Holland,4135,4135 000004135 04135 #04135 #4135,3050 Beeline Rd,MI,49424
Party City,Holland,4138,4138 000004138 04138 #04138 #4138,6460 Centers Dr,OH,43528
Party City,Huber Heights,4139,4139 000004139 04139 #04139 #4139,8160 Old Troy Pike,OH,45424
Party City,W. Carrollton,4140,4140 000004140 04140 #04140 #4140,137 Springboro Pike,OH,45449
Party City,Villa Park,5102,5102 000005102 05102 #05102 #5102,138 West Roosevelt Rd,IL,60181
Party City,Bloomingdale,5105,5105 000005105 05105 #05105 #5105,152 S. Gary Avenue,IL,60108
Party City,Joliet,5113,5113 000005113 05113 #05113 #5113,2661 Plainfield Rd,IL,60435
Party City,Chicago,5117,5117 000005117 05117 #05117 #5117,6560 West Fullerton Ave,IL,60707
Party City,Countryside,5119,5119 000005119 05119 #05119 #5119,102 Countryside Plz,IL,60525
Party City,Mishawaka,5135,5135 000005135 05135 #05135 #5135,5816 Grape Rd,IN,46545
Party City,Brown Deer,5136,5136 000005136 05136 #05136 #5136,9190 N Green Bay Rd,WI,53209
Party City,Naperville,5137,5137 000005137 05137 #05137 #5137,428 South Route 59,IL,60540
Party City,Moline,5139,5139 000005139 05139 #05139 #5139,4371 16th St,IL,61265
Party City,Brookfield,5140,5140 000005140 05140 #05140 #5140,16900 West Bluemound Rd,WI,53005
Party City,West Allis,5141,5141 000005141 05141 #05141 #5141,6718 W Greenfield Ave,WI,53214
Party City,Speedway,5147,5147 000005147 05147 #05147 #5147,5926B Crawfordsville Rd,IN,46224
Party City,Greenwood,5148,5148 000005148 05148 #05148 #5148,906 US Highway 31 North,IN,46142
Party City,Indianapolis,5149,5149 000005149 05149 #05149 #5149,3622 Bethany Rd,IN,46268
Party City,Fort Wayne,5150,5150 000005150 05150 #05150 #5150,283 East Coliseum Blvd,IN,46805
Party City,Marion,5151,5151 000005151 05151 #05151 #5151,1370 Twixt Town Rd,IA,52302
Party City,Racine,5154,5154 000005154 05154 #05154 #5154,5201 Washington Ave,WI,53406
Party City,Louisville,5155,5155 000005155 05155 #05155 #5155,4048 Taylorsville Rd,KY,40220
Party City,Des Moines,5156,5156 000005156 05156 #05156 #5156,6325 SE 14th St,IA,50320
Party City,Omaha,5157,5157 000005157 05157 #05157 #5157,13439 West Center Rd,NE,68144
Party City,Fairview Heights,5162,5162 000005162 05162 #05162 #5162,10845 Lincoln Trail,IL,62208
Party City,Saint Louis,5163,5163 000005163 05163 #05163 #5163,2560 Lemay Ferry Rd,MO,63125
Party City,Cincinnati,5168,5168 000005168 05168 #05168 #5168,10204 Colerain Ave,OH,45251
Party City,Schaumburg,5171,5171 000005171 05171 #05171 #5171,375 S. Barrington Road,IL,60193
Party City,Kenosha,5174,5174 000005174 05174 #05174 #5174,7150 Green Bay Rd,WI,53142
Party City,Mentor,5175,5175 000005175 05175 #05175 #5175,9597 Mentor Ave,OH,44060
Party City,North Olmsted,5177,5177 000005177 05177 #05177 #5177,24800 Brookpark Road,OH,44070
Party City,Clarksville,5178,5178 000005178 05178 #05178 #5178,305 Lewis and Clark Parkway,IN,47129
Party City,Florence,5179,5179 000005179 05179 #05179 #5179,7646 Mall Rd,KY,41042
Party City,Louisville,5180,5180 000005180 05180 #05180 #5180,4921-A Dixie Highway,KY,40216
Party City,Matteson,5181,5181 000005181 05181 #05181 #5181,134 Town Center Rd,IL,60443
Party City,Oshkosh,5182,5182 000005182 05182 #05182 #5182,1530 Koeller Road,WI,54902
Party City,Grand Island,5183,5183 000005183 05183 #05183 #5183,2235 North Webb Rd,NE,68803
Party City,Madison,5184,5184 000005184 05184 #05184 #5184,2031 Zeier Rd,WI,53704
Party City,Bloomington,5185,5185 000005185 05185 #05185 #5185,2817 East 3rd St,IN,47408
Party City,Lincoln,5189,5189 000005189 05189 #05189 #5189,4720 North 27th St,NE,68521
Party City,Champaign,5190,5190 000005190 05190 #05190 #5190,2019 North Prospect,IL,61822
Party City,Waterloo,5191,5191 000005191 05191 #05191 #5191,1415 Flammang Dr,IA,50702
Party City,Columbus,5193,5193 000005193 05193 #05193 #5193,2630 Bethel,OH,43220
Party City,Omaha,5194,5194 000005194 05194 #05194 #5194,6404 N 73rd Plz,NE,68134
Party City,Bourbonnais,5197,5197 000005197 05197 #05197 #5197,1595 N State Route 50,IL,60914
Party City,LaFayette,5198,5198 000005198 05198 #05198 #5198,3540 State Road 38 East,IN,47905
Party City,Highland,5199,5199 000005199 05199 #05199 #5199,10229 Indianapolis Blvd,IN,46322
Party City,Saint Peters,5202,5202 000005202 05202 #05202 #5202,293 Mid Rivers Mall Dr,MO,63376
Party City,Davenport,5203,5203 000005203 05203 #05203 #5203,5255 Elmore Ave,IA,52807
Party City,Owensboro,5204,5204 000005204 05204 #05204 #5204,5101 Frederica St,KY,42301
Party City,Cape Girardeau,5205,5205 000005205 05205 #05205 #5205,244 Siemers Dr,MO,63701
Party City,Melrose Park,5207,5207 000005207 05207 #05207 #5207,1222 Winston Dr,IL,60160
Party City,Hixson,5208,5208 000005208 05208 #05208 #5208,5756 Highway 153,TN,37343
Party City,Springfield,5209,5209 000005209 05209 #05209 #5209,3163 South Veterans Pkwy,IL,62704
Party City,Vernon Hills,5210,5210 000005210 05210 #05210 #5210,555 East Townline Road,IL,60061
Party City,Saint Clairsville,5213,5213 000005213 05213 #05213 #5213,50825 Valley Plaza Dr,OH,43950
Party City,Middleburg Heights,5217,5217 000005217 05217 #05217 #5217,6935 Southland Dr,OH,44130
Party City,State College,5218,5218 000005218 05218 #05218 #5218,303 Benner Pike,PA,16801
Party City,DeKalb,5219,5219 000005219 05219 #05219 #5219,2350 Sycamore Road,IL,60115
Party City,Colonial Heights,5220,5220 000005220 05220 #05220 #5220,1865 Southpark Blvd,VA,23834
Party City,Irondequoit,5224,5224 000005224 05224 #05224 #5224,2255 East Ridge Rd,NY,14622
Party City,Dubuque,5225,5225 000005225 05225 #05225 #5225,190 John F Kennedy Rd,IA,52002
Party City,Richmond,5226,5226 000005226 05226 #05226 #5226,4615 National Rd East,IN,47374
Party City,Wooster,5228,5228 000005228 05228 #05228 #5228,3793 Burbank Rd,OH,44691
Party City,Peoria,5229,5229 000005229 05229 #05229 #5229,801 West Lake Ave,IL,61614
Party City,Columbia,5231,5231 000005231 05231 #05231 #5231,21 Conley Rd,MO,65201
Party City,Benton Harbor,5234,5234 000005234 05234 #05234 #5234,1599 Mall Dr,MI,49022
Party City,Port Orange,5237,5237 000005237 05237 #05237 #5237,5503 S. Williamson Rd.,FL,32128
Party City,Latham,5242,5242 000005242 05242 #05242 #5242,579 Troy Schenectady Rd,NY,12110
Party City,Ormond Beach,5245,5245 000005245 05245 #05245 #5245,1474 West Grenada Blvd,FL,32174
Party City,Tampa,5249,5249 000005249 05249 #05249 #5249,15064 North Dale Mabry Hwy,FL,33618
Party City,Niagara Falls,5250,5250 000005250 05250 #05250 #5250,7220 Niagara Falls Blvd,NY,14304
Party City,Hoffman Estates,5256,5256 000005256 05256 #05256 #5256,19 Golf Center,IL,60169
Party City,Dewitt,5258,5258 000005258 05258 #05258 #5258,3179 Erie Blvd East,NY,13214
Party City,Green Bay,5259,5259 000005259 05259 #05259 #5259,831 South Military Ave,WI,54304
Party City,Joplin,5260,5260 000005260 05260 #05260 #5260,430 North Range Line Rd,MO,64801
Party City,Rochester,5261,5261 000005261 05261 #05261 #5261,1601 Penfield Rd,NY,14625
Party City,Niles,5266,5266 000005266 05266 #05266 #5266,9471 N Milwaukee Ave,IL,60714
Party City,Dickson City,5268,5268 000005268 05268 #05268 #5268,630 Commerce Blvd,PA,18519
Party City,Wilkes Barre,5270,5270 000005270 05270 #05270 #5270,150 East End Centre,PA,18702
Party City,North Canton,5273,5273 000005273 05273 #05273 #5273,5557 Dressler Rd NW,OH,44720
Party City,Clarksburg,5274,5274 000005274 05274 #05274 #5274,526 Emily Dr,WV,26301
Party City,Beavercreek,5275,5275 000005275 05275 #05275 #5275,2720 Towne Dr,OH,45431
Party City,Muncie,5276,5276 000005276 05276 #05276 #5276,800 E McGalliard Rd,IN,47303
Party City,Columbus,5279,5279 000005279 05279 #05279 #5279,3707 Easton Market,OH,43219
Party City,Newport News,5280,5280 000005280 05280 #05280 #5280,12134 Jefferson Ave,VA,23602
Party City,Louisville,5281,5281 000005281 05281 #05281 #5281,4631 Outer Loop,KY,40219
Party City,Gurnee,5283,5283 000005283 05283 #05283 #5283,6675 Grand Ave,IL,60031
Party City,Bradenton,5285,5285 000005285 05285 #05285 #5285,845 Cortez Rd West,FL,34207
Party City,Heath,5287,5287 000005287 05287 #05287 #5287,937 Hebron Rd,OH,43056
Party City,Lakeland,5289,5289 000005289 05289 #05289 #5289,4286 US Highway 98 North,FL,33809
Party City,Cape Coral,5290,5290 000005290 05290 #05290 #5290,1420 Del Prado Blvd South,FL,33990
Party City,Cookeville,5291,5291 000005291 05291 #05291 #5291,377 West Jackson St,TN,38501
Party City,Cincinnati,5293,5293 000005293 05293 #05293 #5293,5555 Glenway Ave,OH,45238
Party City,Geneva,5295,5295 000005295 05295 #05295 #5295,1548 South Randall Rd,IL,60134
Party City,Lancaster,5298,5298 000005298 05298 #05298 #5298,1320 River Valley Blvd,OH,43130
Party City,Westminster,5306,5306 000005306 05306 #05306 #5306,405 North Center St,MD,21157
Party City,Noblesville,5317,5317 000005317 05317 #05317 #5317,17160 Mercantile Blvd,IN,46060
Party City,Algonquin,5318,5318 000005318 05318 #05318 #5318,704 South Randall Rd,IL,60102
Party City,Plainfield,5320,5320 000005320 05320 #05320 #5320,11830 South Route 59,IL,60585
Party City,Avon,5321,5321 000005321 05321 #05321 #5321,10397 East US Highway 36,IN,46123
Party City,Chesterfield,5322,5322 000005322 05322 #05322 #5322,34 THF Blvd,MO,63005
Party City,Saint Charles,5323,5323 000005323 05323 #05323 #5323,3859 East Main St,IL,60174
Party City,Bowie,5324,5324 000005324 05324 #05324 #5324,3841 Evergreen Pkwy,MD,20716
Party City,Kokomo,5326,5326 000005326 05326 #05326 #5326,2132 East Blvd,IN,46902
Party City,Mundelein,5327,5327 000005327 05327 #05327 #5327,3050 W Il Rte 60,IL,60060
Party City,Ankeny,5329,5329 000005329 05329 #05329 #5329,2010 SE Delaware Ave,IA,50021
Party City,O'Fallon,5330,5330 000005330 05330 #05330 #5330,2935 Highway K,MO,63368
Party City,Crystal Lake,5331,5331 000005331 05331 #05331 #5331,5561 Northwest Hwy,IL,60014
Party City,Sanford,5332,5332 000005332 05332 #05332 #5332,2171 Wp Ball Blvd,FL,32771
Party City,Sioux City,5334,5334 000005334 05334 #05334 #5334,5001 Sergeant Rd,IA,51106
Party City,Skokie,5336,5336 000005336 05336 #05336 #5336,9705 Skokie Blvd,IL,60077
Party City,Greenfield,5337,5337 000005337 05337 #05337 #5337,5058 South 74th St,WI,53220
Party City,Solon,5338,5338 000005338 05338 #05338 #5338,6025 Kruse Dr,OH,44139
Party City,Fairfield,5340,5340 000005340 05340 #05340 #5340,3431 Princeton Rd,OH,45011
Party City,Homewood,5341,5341 000005341 05341 #05341 #5341,17810 South Halsted,IL,60430
Party City,Aurora,5342,5342 000005342 05342 #05342 #5342,2292 West Indian Trail,IL,60506
Party City,Shorewood,5343,5343 000005343 05343 #05343 #5343,988 Brookforest Ave,IL,60404
Party City,Louisville,5346,5346 000005346 05346 #05346 #5346,10230 Westport Rd,KY,40241
Party City,Cockeysville,5503,5503 000005503 05503 #05503 #5503,9958 York Rd,MD,21030
Party City,Waldorf,5513,5513 000005513 05513 #05513 #5513,2924 Festival Way,MD,20601
Party City,Annapolis,5520,5520 000005520 05520 #05520 #5520,2325 H Forest Dr,MD,21401
Party City,Lynchburg,5522,5522 000005522 05522 #05522 #5522,3700 Candlers Mountain Rd,VA,24502
Party City,North Charleston,5523,5523 000005523 05523 #05523 #5523,7800 North Rivers Ave,SC,29406
Party City,Salisbury,5524,5524 000005524 05524 #05524 #5524,2722 North Salisbury Blvd,MD,21801
Party City,West Roxbury,6001,6001 000006001 06001 #06001 #6001,1457 VFW Parkway,MA,2132
Party City,Saugus,6002,6002 000006002 06002 #06002 #6002,"880 Broadway, Route 1",MA,1906
Party City,Natick,6004,6004 000006004 06004 #06004 #6004,321 Worcester Rd,MA,1760
Party City,Quincy,6005,6005 000006005 06005 #06005 #6005,100 Granite Street,MA,2169
Party City,Shrewsbury,6006,6006 000006006 06006 #06006 #6006,100 Boston Tpke,MA,1545
Party City,East Longmeadow,6009,6009 000006009 06009 #06009 #6009,440 North Main Street,MA,1028
Party City,Southington,6010,6010 000006010 06010 #06010 #6010,750 Queen Street,CT,6489
Party City,W. Hartford,6011,6011 000006011 06011 #06011 #6011,6 Simms Road at Albany Ave,CT,6117
Party City,Cranston,6012,6012 000006012 06012 #06012 #6012,162 Hillside Rd,RI,2920
Party City,Burlington,6013,6013 000006013 06013 #06013 #6013,34 Cambridge Street,MA,1803
Party City,Enfield,6014,6014 000006014 06014 #06014 #6014,34 Hazard Ave,CT,6082
Party City,South Atteboro,6015,6015 000006015 06015 #06015 #6015,1190 Newport Ave,MA,2703
Party City,Medford,6017,6017 000006017 06017 #06017 #6017,3850 Mystic Valley Pkwy,MA,2155
Party City,Bellingham,6018,6018 000006018 06018 #06018 #6018,209 Hartford Ave,MA,2019
Party City,South Portand,6019,6019 000006019 06019 #06019 #6019,220 Maine Mall Road,ME,4106
Party City,Avon,6022,6022 000006022 06022 #06022 #6022,1 Harrison Blvd,MA,2322
Party City,St. Petersburg,6025,6025 000006025 06025 #06025 #6025,1960 Tyrone Blvd,FL,33710
Party City,Raynham,6026,6026 000006026 06026 #06026 #6026,270 New Highway,MA,2767
Party City,Clearwater,6027,6027 000006027 06027 #06027 #6027,2539 Countryside Blvd,FL,33761
Party City,Sarasota,6028,6028 000006028 06028 #06028 #6028,3670 Bee Ridge Road,FL,34233
Party City,North Dartmouth,6030,6030 000006030 06030 #06030 #6030,86 N. Dartmouth Mall,MA,2747
Party City,Chelmsford,6034,6034 000006034 06034 #06034 #6034,95 Drumhill Rd,MA,1824
Party City,Pembroke,6036,6036 000006036 06036 #06036 #6036,296 Old Oak Street,MA,2359
Party City,Brighton,6038,6038 000006038 06038 #06038 #6038,1660 Soldiers Fields Rd,MA,2135
Party City,St. Wallingford,6039,6039 000006039 06039 #06039 #6039,1238 South Broad,CT,6492
Party City,Manchester,6042,6042 000006042 06042 #06042 #6042,904 South Willow St,NH,3103
Party City,Nashua,6043,6043 000006043 06043 #06043 #6043,12 Northwest Blvd,NH,3063
Party City,Newington,6044,6044 000006044 06044 #06044 #6044,2064 Woodbury Ave,NH,3801
Party City,Walpole,6046,6046 000006046 06046 #06046 #6046,30 Providence Hwy,MA,2032
Party City,Nashua,6047,6047 000006047 06047 #06047 #6047,261 Daniel Webster Hwy,NH,3060
Party City,Millbury,6048,6048 000006048 06048 #06048 #6048,70 Worcester Providence Tpke,MA,1527
Party City,Waterford,6049,6049 000006049 06049 #06049 #6049,915 Hartford Tpke,CT,6385
Party City,Augusta,6050,6050 000006050 06050 #06050 #6050,33 Stephen King Dr.,ME,4330
Party City,Williston,6051,6051 000006051 06051 #06051 #6051,"41 Hawthorne St, Bldg. A",VT,5495
Party City,Leominster,6052,6052 000006052 06052 #06052 #6052,516 N Main Street,MA,1453
Party City,West Lebanon,6053,6053 000006053 06053 #06053 #6053,250 Plainsfield Road Route 12A,NH,3784
Party City,Lincoln,6054,6054 000006054 06054 #06054 #6054,622 George Washington Hwy,RI,2865
Party City,Sturbridge,6055,6055 000006055 06055 #06055 #6055,110 Charlton Road,MA,1566
Party City,Warwick,6056,6056 000006056 06056 #06056 #6056,300 Quaker Lane,RI,2886
Party City,Plymouth,6057,6057 000006057 06057 #06057 #6057,"62 Camelot Road, #70",MA,2360
Party City,Tampa,6058,6058 000006058 06058 #06058 #6058,12799 Citrus Plaza Dr,FL,33625
Party City,Keene,6059,6059 000006059 06059 #06059 #6059,14 Ash Brook Road,NH,3431
Party City,Chicopee,6060,6060 000006060 06060 #06060 #6060,591 W Memorial Dr,MA,1020
Party City,East Hartford,6062,6062 000006062 06062 #06062 #6062,17 Main Street,CT,6118
Party City,Port Richey,6064,6064 000006064 06064 #06064 #6064,9442 US Highway 19 N,FL,34668
Party City,Seekonk,6065,6065 000006065 06065 #06065 #6065,231A Highland Ave,MA,2771
Party City,Bangor,6066,6066 000006066 06066 #06066 #6066,480 Stillwater Ave,ME,4401
Party City,Peabody,6068,6068 000006068 06068 #06068 #6068,300 Andover St,MA,1960
Party City,Dorchester,6069,6069 000006069 06069 #06069 #6069,8 Allstate Road,MA,2125
Party City,Boston,6070,6070 000006070 06070 #06070 #6070,356 Boylston Street,MA,2116
Party City,Manachester,6071,6071 000006071 06071 #06071 #6071,1444 Pleasant Valley Road,CT,6040
Party City,Plaistow,6072,6072 000006072 06072 #06072 #6072,4 Plaistow Road,NH,3865
Party City,Waltham,6073,6073 000006073 06073 #06073 #6073,1030 Main Street,MA,2451
