keywords,city,Aggdata Store Number,store_number,address,state,zip_code
Petco,Kirkland,201,201,12040 NE 85th Street,WA,98033
Petco,Mount Vernon,202,202,201 East College Way Suite B,WA,98273
Petco,Corvallis,203,203,2365 NW Kings Boulevard,OR,97330
Petco,Bellevue,204,204,15600 NE 8th Street Suite 01,WA,98008
Petco,Bend,205,205,3197 #5 North Highway 97,OR,97701
Petco,Great Falls,206,206,1601 Market Place Drive,MT,59404
Petco,Idaho Falls,207,207,2375 East 17th Street,ID,83404
Petco,Seattle,208,208,809 NE 45th Street,WA,98105
Petco,Tualatin,209,209,8775 Tualatin Sherwood Road,OR,97062
Petco,Midvale,211,211,1090 East Fort Union Boulevard,UT,84047
Petco,Tigard,212,212,11705 SW Pacific Highway,OR,97223
Petco,Lake Oswego,214,214,333 South State Street Suite A,OR,97034
Petco,Portland,217,217,14410 SE Division Street,OR,97236
Petco,Spokane,241,241,6302 North Division,WA,99208
Petco,Everett,244,244,1203 SE Everett Mall Way #F,WA,98208
Petco,Issaquah,250,250,975 NW Gilman Boulevard,WA,98027
Petco,Beaverton,251,251,4037 SW 117th Avenue Suite C,OR,97005
Petco,Seattle,252,252,8728 Holman Road NW,WA,98117
Petco,Beaverton,254,254,18200 NW Evergreen Parkway,OR,97006
Petco,Olympia,255,255,1530 Black Lake Boulevard,WA,98502
Petco,Gresham,256,256,2000 NE Burnside Street,OR,97030
Petco,Veradale,257,257,North 10 - Sullivan Road,WA,99037
Petco,Federal Way,258,258,31419 Pacific Highway South,WA,98003
Petco,Bremerton,259,259,4209 Wheaton Way,WA,98310
Petco,Lakewood,260,260,5700 100th Street SW,WA,98499
Petco,Salem,261,261,628 Lancaster Drive NE,OR,97301
Petco,Boise,263,263,179 North Milwaukee Street,ID,83704
Petco,West Jordan,264,264,6842 South Redwood Road,UT,84084
Petco,Seattle,265,265,1241 North 205th,WA,98133
Petco,East Wenatchee,266,266,516 Valley Mall Parkway,WA,98802
Petco,San Jose,267,267,4698 Meridian Avenue,CA,95118
Petco,Citrus Heights,268,268,6067 Greenback Lane,CA,95621
Petco,Fresno,269,269,4144 North Blackstone Avenue,CA,93726
Petco,Sunnyvale,270,270,160 East El Camino Real,CA,94087
Petco,San Jose,271,271,500 El Paseo De Saratoga,CA,95130
Petco,Fair Oaks,272,272,8840 Madison Avenue,CA,95628
Petco,Gilroy,273,273,8767 San Ysidro Avenue,CA,95020
Petco,Lynnwood,276,276,"2617 196th Street SW, Suite 141",WA,98036
Petco,Hillsboro,278,278,"2151 SE Tualatin Valley Highway, Building B",OR,97123
Petco,Glen Cove,280,280,227 Forest Avenue,NY,11542
Petco,Salem,281,281,92 Cluff Crossing Road,NH,3079
Petco,Irondequoit,282,282,2255 East Ridge Road,NY,14622
Petco,Edison,283,283,1029 US Route 1 South,NJ,8837
Petco,Needham,284,284,163 Highland Avenue,MA,2494
Petco,Indianapolis,285,285,7565 US 31 South Suite A-01,IN,46227
Petco,York,286,286,905 Loucks Road,PA,17404
Petco,Omaha,287,287,13660 West Maple Road,NE,68164
Petco,Brighton,288,288,304 Western Avenue,MA,2135
Petco,Hermitage,289,289,5570 Old Hickory Boulevard,TN,37076
Petco,Philadelphia,290,290,3300 Aramingo Avenue,PA,19134
Petco,Cleveland,291,291,325 Paul Huff Parkway,TN,37312
Petco,Dewitt,292,292,3150 Erie Boulevard East Suite #500,NY,13214
Petco,Fishers,293,293,8644 East 96th Street,IN,46038
Petco,Bay Shore,294,294,1851 Sunrise Highway,NY,11706
Petco,Carle Place,295,295,189 Old Country Road,NY,11514
Petco,South Portland,296,296,220 Maine Mall Road,ME,4106
Petco,Ann Arbor,298,298,3537 Washtenaw Avenue,MI,48104
Petco,Elk Grove,301,301,7715 Laguna Boulevard,CA,95758
Petco,Napa,302,302,3284 Jefferson Street,CA,94558
Petco,Vacaville,303,303,210 Nut Tree Parkway,CA,95687
Petco,Reno,304,304,5565 South Virginia Street,NV,89502
Petco,Folsom,305,305,855 East Bidwell Street,CA,95630
Petco,Santa Rosa,306,306,2765 Santa Rosa Avenue,CA,95407
Petco,Modesto,307,307,2021 Evergreen Avenue,CA,95350
Petco,San Francisco,308,308,1591 Sloat Boulevard,CA,94132
Petco,Union City,309,309,31090 Dyer Street,CA,94587
Petco,Reno,310,310,2970 Northtowne Lane,NV,89512
Petco,Mountain View,313,313,1919 El Camino Real,CA,94040
Petco,Martinez,334,334,1170 Arnold Drive #115,CA,94553
Petco,Dublin,348,348,11976 Dublin Boulevard,CA,94568
Petco,Castro Valley,349,349,3735 East Castro Valley Boulevard,CA,94552
Petco,Chico,362,362,2005 Dr. Martin Luther King Jr. Parkway,CA,95928
Petco,Davis,364,364,1341-B West Covell Boulevard,CA,95616
Petco,Vallejo,365,365,161 Plaza Drive,CA,94591
Petco,Redding,366,366,1603 East Hilltop Drive,CA,96002
Petco,San Rafael,368,368,375 Third Street,CA,94901
Petco,Fremont,369,369,3780 Mowry Avenue,CA,94538
Petco,Redwood City,370,370,520 Woodside Road,CA,94061
Petco,Sacramento,371,371,1878 Arden Way,CA,95815
Petco,Alameda,372,372,2310 South Shore Center,CA,94501
Petco,Roseville,373,373,1917 Douglas Boulevard,CA,95661
Petco,Novato,375,375,208 Vintage Way,CA,94945
Petco,Raritan,390,390,300 US Highway 202,NJ,8869
Petco,El Cerrito,399,399,420 El Cerrito Plaza,CA,94530
Petco,Dallas,426,426,4325 Lovers Lane,TX,75225
Petco,Mesquite,429,429,1500 North Town East Boulevard,TX,75150
Petco,Carrollton,430,430,2722 North Josey Lane #107,TX,75007
Petco,Bedford,431,431,2121 Harwood Road,TX,76021
Petco,Denton,432,432,2307 South I-35E,TX,76207
Petco,Richardson,439,439,1401 East Spring Valley Road,TX,75081
Petco,Dallas,440,440,1152 North Buckner,TX,75218
Petco,Lewisville,441,441,201 North Summit,TX,75067
Petco,Conroe,442,442,1410 North Loop 336 West,TX,77304
Petco,Wichita Falls,443,443,4319 A Kemp Boulevard,TX,76308
Petco,Austin,444,444,9828 Great Hills Trail #400,TX,78759
Petco,Plano,445,445,8700 Preston Road,TX,75024
Petco,Longview,446,446,405 West Loop 281,TX,75605
Petco,Pearland,447,447,3265 East Broadway,TX,77581
Petco,Sunset Valley,448,448,5601 Brodie Lane,TX,78745
Petco,Houston,449,449,2410 Bay Area Boulevard,TX,77058
Petco,Sugar Land,462,462,3326 Highway 6 Suite D,TX,77478
Petco,Spring,463,463,522 Sawdust Road Suite C1,TX,77380
Petco,Katy,464,464,513 South Mason Road,TX,77450
Petco,Houston,467,467,4431 FM 1960,TX,77068
Petco,Houston,468,468,7510 Westheimer,TX,77063
Petco,Houston,469,469,12015 Northwest Freeway,TX,77092
Petco,Lake Jackson,470,470,117 West Highway 332,TX,77566
Petco,Houston,473,473,6883 Highway 6 North,TX,77084
Petco,Grapevine,474,474,1250 William D. Tate Avenue,TX,76051
Petco,Plano,475,475,1601 Preston Road Suite E,TX,75093
Petco,San Antonio,476,476,125 NW Loop 410 Suite 350,TX,78216
Petco,Houston,477,477,2110 South Shepherd,TX,77019
Petco,Humble,479,479,210 FM 1960 East Bypass,TX,77338
Petco,Houston,480,480,5450 Weslayan Suite 12,TX,77005
Petco,Shreveport,481,481,6596 Youree Drive,LA,71105
Petco,Austin,482,482,1000 East 41st Street Suite 820,TX,78751
Petco,Albuquerque,485,485,6300 San Mateo Boulevard,NM,87109
Petco,Carmel,486,486,2208 East 116th Street,IN,46032
Petco,Rockwall,487,487,2689 Market Center Drive,TX,75032
Petco,Lakewood,488,488,475 South Wadsworth,CO,80226
Petco,Fort Collins,489,489,2211 South College Avenue #200,CO,80525
Petco,Round Rock,490,490,2701-A Parker Drive Suite 100,TX,78681
Petco,Orem,491,491,85 South State Street,UT,84058
Petco,Pasadena,492,492,3680 Spencer Highway,TX,77504
Petco,Allen,493,493,816 West McDermott Drive Suite 308,TX,75013
Petco,Salt Lake City,494,494,1165 East Wilmington,UT,84106
Petco,Watauga,495,495,8004 Denton Highway Suite 132,TX,76148
Petco,Golden,496,496,17132 West Colfax Avenue,CO,80401
Petco,Fort Worth,497,497,5600 Overton Ridge Boulevard Suite F,TX,76132
Petco,Ogden,498,498,4153 Riverdale Road,UT,84405
Petco,Encino,519,519,17919 Ventura Boulevard,CA,91316
Petco,Lake Forest,520,520,24332 Rockfield Boulevard,CA,92630
Petco,Glendale,522,522,231 North Glendale Avenue,CA,91206
Petco,Newport Beach,523,523,"1280 Bison Avenue Suite, B14, B15",CA,92660
Petco,Huntington Beach,525,525,8909 Adams Avenue,CA,92646
Petco,Brea,527,527,2500 Imperial Highway Suite 114,CA,92821
Petco,Torrance,530,530,"24413 Crenshaw Boulevard, Suite 8",CA,90505
Petco,Las Vegas,531,531,2340 East Serene Avenue,NV,89123
Petco,Temecula,532,532,40474 Winchester Road,CA,92591
Petco,Las Vegas,533,533,1631 West Craig Road,NV,89030
Petco,Buena Park,534,534,6020 Ball Road,CA,90620
Petco,Los Angeles,537,537,1873 Westwood Boulevard,CA,90025
Petco,Santa Monica,539,539,2910 Wilshire Boulevard,CA,90403
Petco,Tucson,540,540,4625 North Oracle Road,AZ,85705
Petco,Westminster,541,541,6761 Westminster Boulevard,CA,92683
Petco,Long Beach,547,547,6500 Pacific Coast Highway,CA,90803
Petco,Porter Ranch,548,548,19869 Rinaldi Street,CA,91326
Petco,Woodland Hills,552,552,21943 Ventura Boulevard,CA,91364
Petco,Redondo Beach,554,554,3901 Inglewood Avenue Suite G,CA,90278
Petco,Tustin,557,557,13942 Newport Avenue,CA,92780
Petco,Redondo Beach,558,558,537 North Pacific Coast Highway,CA,90277
Petco,San Diego,559,559,10410 Friars Road,CA,92120
Petco,El Cajon,561,561,2510 Jamacha Road,CA,92019
Petco,Palm Desert,562,562,72453 Highway 111,CA,92260
Petco,Vista,563,563,520 Hacienda Drive,CA,92083
Petco,La Habra,564,564,1201 West Whittier Boulevard,CA,90631
Petco,Mesa,570,570,2027 East University,AZ,85213
Petco,Tucson,571,571,7810 East Wrightstown Road,AZ,85715
Petco,Las Vegas,573,573,3577 South Rainbow Boulevard,NV,89103
Petco,Tucson,574,574,5405 Broadway Boulevard,AZ,85711
Petco,Phoenix,575,575,4535 East Thomas Road,AZ,85018
Petco,Mission Viejo,576,576,25592 El Paseo,CA,92691
Petco,La Canada,577,577,475 Foothill Boulevard,CA,91011
Petco,Anaheim,579,579,430 North Euclid Street,CA,92801
Petco,Lakewood,580,580,5215 Lakewood Boulevard,CA,90712
Petco,San Diego,581,581,11160 Rancho Carmel Drive,CA,92128
Petco,Saugus,582,582,26501 Bouquet Canyon Road,CA,91350
Petco,San Diego,583,583,3994-A Clairemont Mesa Boulevard,CA,92117
Petco,Pasadena,585,585,845 South Arroyo Parkway,CA,91105
Petco,Riverside,586,586,3384 Tyler Street,CA,92503
Petco,Montebello,587,587,1425 North Montebello Boulevard,CA,90640
Petco,Burbank,588,588,3525 West Victory Boulevard,CA,91505
Petco,Phoenix,591,591,2784 West Peoria Avenue,AZ,85029
Petco,West Covina,592,592,1050 West Covina Parkway,CA,91790
Petco,Whittier,594,594,13420 Whittier Boulevard,CA,90605
Petco,Escondido,596,596,1000 West Valley Parkway,CA,92025
Petco,Phoenix,597,597,5011 East Ray Road,AZ,85044
Petco,Camarillo,598,598,177 West Ventura Boulevard,CA,93010
Petco,San Dimas,599,599,822 West Arrow Highway,CA,91773
Petco,Roseville,602,602,2575 Fairview Avenue North,MN,55113
Petco,Maplewood,603,603,"3000 White Bear Avenue North, Suite 1",MN,55109
Petco,Waite Park,604,604,35 Waite Avenue North,MN,56387
Petco,Minnetonka,605,605,13691 Ridgedale Drive,MN,55305
Petco,Eden Prairie,606,606,8020 Glen Lane,MN,55344
Petco,Brooklyn Park,607,607,7625 Jolly Lane,MN,55428
Petco,Richfield,608,608,710 West 66th Street,MN,55423
Petco,Duluth,609,609,903 West Central Entrance,MN,55811
Petco,Green Bay,610,610,2515 West Mason Street,WI,54303
Petco,Apple Valley,612,612,7590 150th Street West,MN,55124
Petco,Fargo,613,613,1126 43rd Street SW,ND,58103
Petco,Sioux City,614,614,1742 Hamilton Boulevard,IA,51103
Petco,Wausau,615,615,4440 Rib Mountain Drive,WI,54401
Petco,Eau Claire,616,616,3731 Gateway,WI,54701
Petco,Des Moines,617,617,7333 Buffalo Road,IA,50311
Petco,Kenosha,618,618,6910 Green Bay Road,WI,53142
Petco,Sioux Falls,619,619,3110 South Louise Avenue,SD,57106
Petco,Davenport,620,620,3860 Elmore Avenue,IA,52807
Petco,Oshkosh,621,621,1935 South Koeller Street,WI,54902
Petco,Onalaska,622,622,1231 Crossing Meadows,WI,54650
Petco,Stillwater,624,624,2080 Market Drive,MN,55082
Petco,Maple Grove,625,625,8010 Wedgewood Lane,MN,55369
Petco,Saint  Paul,626,626,2277 Ford Parkway,MN,55116
Petco,Des Moines,631,631,1311 East Army Post Road,IA,50315
Petco,Grand Forks,632,632,2901 32nd Avenue South,ND,58201
Petco,Waterloo,633,633,1237 Flammang Drive,IA,50702
Petco,Marion,643,643,1450 Twixt Town Road,IA,52302
Petco,Lincoln,644,644,4701 O Street,NE,68510
Petco,Lake Zurich,645,645,787 West Main Street,IL,60047
Petco,Omaha,646,646,7110 Dodge Street,NE,68132
Petco,West Dundee,647,647,403 North 8th Street,IL,60118
Petco,North Riverside,648,648,2204 Harlem Avenue,IL,60546
Petco,Wheaton,649,649,23 Danada Square East,IL,60187
Petco,Naperville,656,656,348 South State Route 59,IL,60540
Petco,Wood Dale,672,672,391 West Irving Park Road,IL,60191
Petco,Crystal Lake,673,673,230 South Virginia Street #880,IL,60014
Petco,River Forest,675,675,7265 West Lake Street,IL,60305
Petco,Hodgkins,677,677,9270 Joliet Road #400,IL,60525
Petco,Round Lake Beach,678,678,436 East Rollins Road,IL,60073
Petco,Springfield,679,679,2721 Veterans Parkway,IL,62704
Petco,Moline,683,683,4411 16th Street,IL,61265
Petco,Chicago,688,688,3118 North Ashland Avenue,IL,60657
Petco,Palatine,692,692,629 East Dundee Road,IL,60074
Petco,Chicago,696,696,3046 North Halsted,IL,60657
Petco,Geneva,697,697,1885 South Randall Road,IL,60134
Petco,Schaumburg,698,698,60 East Golf Road,IL,60173
Petco,Bensalem,708,708,2353-2355 Street Road,PA,19020
Petco,Howard Beach,717,717,15720 Cross Bay Boulevard,NY,11414
Petco,Warminster,720,720,624 York Road,PA,18974
Petco,Middletown,725,725,600 North Galleria Drive,NY,10941
Petco,Stratford,728,728,955 Ferry Boulevard,CT,6614
Petco,Allentown,729,729,3300 Lehigh Street,PA,18103
Petco,Parlin,730,730,1060 US Hwy 9,NJ,8859
Petco,Vienna,731,731,1929 Old Gallows Road,VA,22182
Petco,Cambridge,733,733,119 First Street,MA,2141
Petco,Freehold,734,734,4345 US Route 9,NJ,7728
Petco,Ellicott City,735,735,10060 US Highway 40,MD,21042
Petco,Waterbury,737,737,983 Wolcott Road,CT,6705
Petco,Selden,738,738,1100 Middle Country Road,NY,11784
Petco,Topsfield,739,739,239 Newburyport Turnpike,MA,1983
Petco,Peabody,740,740,10 Sylvan Street,MA,1960
Petco,Manchester,742,742,1049 South Willow Street,NH,3103
Petco,Nashua,743,743,7 East Desilvio Drive,NH,3060
Petco,Norwood,745,745,1210 Providence Highway,MA,2062
Petco,Saugus,748,748,682 Broadway #1,MA,1906
Petco,Shrewsbury,750,750,87 Boston Turnpike #9,MA,1545
Petco,Norwalk,752,752,431 Westport Avenue #1,CT,6851
Petco,South Attleboro,754,754,287 Washington Street,MA,2703
Petco,Waltham,755,755,75 Linden Street,MA,2452
Petco,Seekonk,758,758,75 Highland Avenue #6,MA,2771
Petco,Farmington,760,760,1600 SE Road,CT,6032
Petco,Southington,762,762,760 Queen Street,CT,6489
Petco,West Babylon,763,763,655 West Montauk Highway,NY,11704
Petco,Massapequa,764,764,5500 Sunrise Highway,NY,11758
Petco,Beltsville,766,766,10464 Baltimore Avenue,MD,20705
Petco,Alexandria,767,767,6612 Richmond Highway,VA,22306
Petco,Fairfax,769,769,10708 Lee Highway,VA,22030
Petco,Annapolis,770,770,2319-D Forest Drive,MD,21401
Petco,West Orange,776,776,495 Prospect Ave #201,NJ,7052
Petco,Holyoke,777,777,45 Holyoke Street,MA,1040
Petco,New York,778,778,860 Broadway,NY,10003
Petco,Washington,782,782,3505 Connecticut Avenue,DC,20008
Petco,Brookfield,784,784,169 Federal Road,CT,6804
Petco,Garden City Park,786,786,2300 Jericho Turnpike,NY,11040
Petco,Hartsdale,787,787,324 North Central Avenue South,NY,10530
Petco,Paramus,789,789,450 Route 17 North,NJ,7652
Petco,Ramsey,790,790,9 Interstate Shopping Center,NJ,7446
Petco,Springfield,792,792,1694 Boston Road,MA,1129
Petco,Natick,793,793,1324-1334 Worcester Road,MA,1760
Petco,Manassas,794,794,10800 Promenade Lane,VA,20109
Petco,Newington,795,795,188 Kitts Lane,CT,6111
Petco,Wallingford,796,796,848 North Colony Road Suite C,CT,6492
Petco,Torrington,797,797,980 Torringford Street,CT,6790
Petco,Eastpointe,834,834,22631 Gratiot Road,MI,48021
Petco,Overland Park,838,838,6801 West 75th Street,KS,66204
Petco,Wichita,847,847,3050 North Rock Road,KS,67226
Petco,Bowling Green,848,848,1680 Campbell Lane,KY,42104
Petco,Columbia,855,855,2101 West Broadway Suite W,MO,65203
Petco,Huntsville,856,856,6140 University Drive,AL,35806
Petco,Topeka,858,858,1930 SW Wanamaker Road,KS,66604
Petco,Fayetteville,859,859,4132 North College Avenue,AR,72703
Petco,Highland,860,860,10235 Indianapolis Boulevard,IN,46322
Petco,Memphis,861,861,3468 Poplar Avenue,TN,38111
Petco,Lawrence,863,863,3115 Iowa Street,KS,66046
Petco,Columbus,864,864,1647 Olentangy River Road,OH,43212
Petco,Concord,865,865,35 Fort Eddy Road,NH,3301
Petco,Oak Lawn,868,868,6220 West 95th Street,IL,60453
Petco,Chicago,869,869,2000 North Clybourn,IL,60614
Petco,Janesville,881,881,2900 Deerfield Drive,WI,53546
Petco,Pittsfield,883,883,690 Merrill Road,MA,1201
Petco,Coon Rapids,884,884,3380 124th Avenue,MN,55433
Petco,Sturtevant,885,885,3059 South Oakes Road,WI,53177
Petco,Feasterville Trevose,886,886,97 E Street Road,PA,19053
Petco,Easton,887,887,2429 Nazareth Road,PA,18045
Petco,Christiana,888,888,200 Center Boulevard,DE,19702
Petco,Culver City,904,904,5347 South Sepulveda Boulevard,CA,90230
Petco,Los Angeles,908,908,200 South La Brea Ave Suite C,CA,90036
Petco,Oceanside,909,909,2445 West Vista Way,CA,92054
Petco,Los Angeles,910,910,8801 South Sepulveda Blvd,CA,90045
Petco,Englewood,912,912,9425 East County Line Road,CO,80112
Petco,Aurora,913,913,16960 Quincy Avenue,CO,80015
Petco,Los Angeles,914,914,1475 South Robertson Boulevard,CA,90035
Petco,Tempe,915,915,1835 East Guadalupe #112,AZ,85283
Petco,Colorado Springs,917,917,1820A West Uintah Street,CO,80904
Petco,Northglenn,920,920,450 East 120th Avenue Unit A2,CO,80233
Petco,Prescott,921,921,1931 East Highway 69,AZ,86301
Petco,Costa Mesa,922,922,1815 Newport Boulevard,CA,92627
Petco,El Cajon,924,924,540 North 2nd Street,CA,92021
Petco,Poway,925,925,13375 Poway Road,CA,92064
Petco,San Diego,926,926,1210 West Morena Boulevard,CA,92110
Petco,Oceanside,927,927,3875 Mission Avenue,CA,92054
Petco,Del Mar,928,928,2749 Via De La Valle,CA,92014
Petco,Encinitas,930,930,154 Encinitas Boulevard,CA,92024
Petco,Westminster,933,933,6735 West 88th Avenue,CO,80031
Petco,Huntington Beach,934,934,5961 Warner Avenue,CA,92649
Petco,Orange,935,935,1824 East Katella Avenue,CA,92867
Petco,Irvine,936,936,15333 Culver Drive,CA,92604
Petco,Denver,938,938,8100 West Crestline,CO,80123
Petco,Fairfax,939,939,13053 Lee Jackson Memorial Highway,VA,22033
Petco,Lutherville,940,940,1719 York Road,MD,21093
Petco,Colorado Springs,941,941,1650 East Cheyenne Mountain Boulevard,CO,80906
Petco,Rochester,943,943,3200 Monroe Avenue,NY,14618
Petco,Lincoln,944,944,5450 South 56th Street,NE,68516
Petco,Manhattan,948,948,560 Second Avenue,NY,10016
Petco,Waterford,949,949,825 Hartford Road,CT,6385
Petco,Auburn,950,950,438 Southbridge Street,MA,1501
Petco,Santa Fe,1103,1103,2006 Cerrillos Road,NM,87505
Petco,Gilbert,1104,1104,1415 East Warner Road,AZ,85296
Petco,Las Vegas,1105,1105,7731 West Tropical Parkway,NV,89149
Petco,Las Cruces,1106,1106,3050 East Lohman Avenue,NM,88011
Petco,Chandler,1107,1107,1860 West Chandler Boulevard,AZ,85224
Petco,Glendale,1108,1108,6090 West Behrend Drive,AZ,85308
Petco,Scottsdale,1109,1109,8910 East Indian Bend Road,AZ,85250
Petco,La Mesa,1110,1110,8501 Fletcher Parkway,CA,91942
Petco,Albuquerque,1111,1111,10700 Lomas NE,NM,87112
Petco,Washington,1112,1112,765 West Telegraph Street,UT,84780
Petco,Phoenix,1113,1113,4727 East Bell Road #37,AZ,85032
Petco,Santee,1114,1114,9745 Mission Gorge Road,CA,92071
Petco,Henderson,1115,1115,631 Marks Street,NV,89014
Petco,San Diego,1116,1116,8290 Mira Mesa Boulevard,CA,92126
Petco,Port Hueneme,1117,1117,545 West Channel Islands Boulevard,CA,93041
Petco,Glendale,1118,1118,9480 West Northern Avenue,AZ,85305
Petco,Mesa,1119,1119,2090 South Power Road,AZ,85208
Petco,Santa Ana,1120,1120,3327 South Bristol Street,CA,92704
Petco,Carson City,1121,1121,911 Topsy Lane #108,NV,89705
Petco,Phoenix,1122,1122,7000 Mayo Boulevard,AZ,85054
Petco,Redlands,1123,1123,27580 West Lugonia Avenue,CA,92374
Petco,Riverside,1125,1125,8974 Trautwein Road,CA,92508
Petco,Corona,1127,1127,3485 Grand Oaks,CA,92881
Petco,Cerritos,1128,1128,12601 Towne Center Drive,CA,90703
Petco,Fountain Hills,1129,1129,16835 East Shea Boulevard Suite 105,AZ,85268
Petco,Park City,1130,1130,6030 Market Street Suite 130,UT,84098
Petco,Avondale,1132,1132,10190 West McDowell Road,AZ,85323
Petco,Northridge,1135,1135,8800 Tampa Avenue,CA,91324
Petco,Chula Vista,1136,1136,1142 Broadway,CA,91911
Petco,Phoenix,1138,1138,2501 West Happy Valley Road Suite 6,AZ,85027
Petco,Carlsbad,1139,1139,3239 Camino De Los Coches,CA,92009
Petco,Hemet,1140,1140,2545 West Florida Avenue,CA,92545
Petco,Lake Elsinore,1142,1142,18290 Collier Avenue,CA,92530
Petco,Tucson,1144,1144,9640 East 22nd Street,AZ,85748
Petco,Murrieta,1145,1145,24480 Village Walk Place,CA,92562
Petco,Moorpark,1146,1146,742 New Los Angeles Avenue,CA,93021
Petco,Fairbanks,1147,1147,417 Merhar Avenue,AK,99701
Petco,Gilbert,1148,1148,1015 Baseline Road,AZ,85233
Petco,Chula Vista,1149,1149,878 Eastlake Parkway,CA,91914
Petco,Chandler,1151,1151,4220 South Arizona Avenue,AZ,85248
Petco,La Quinta,1152,1152,78720 Highway 111,CA,92253
Petco,Las Vegas,1153,1153,3890 Blue Diamond Road,NV,89139
Petco,San Marcos,1154,1154,141 South Las Posas Road,CA,92078
Petco,Kingman,1155,1155,3320 Stockton Hill Road,AZ,86409
Petco,Laveen,1156,1156,5260 West Baseline Road,AZ,85339
Petco,Mesa,1157,1157,845 North Dobson Road,AZ,85201
Petco,Palm Springs,1158,1158,2465 East Palm Canyon Drive,CA,92264
Petco,Walnut Park,1159,1159,7308 South Alameda Street,CA,90255
Petco,Montclair,1160,1160,9137 Central Avenue,CA,91763
Petco,Mira Loma,1161,1161,6301 Pat's Ranch Road,CA,91752
Petco,San Diego,1162,1162,3495 Sports Arena Boulevard,CA,92110
Petco,El Centro,1163,1163,532 Danenberg Drive,CA,92243
Petco,Riverside,1164,1164,2630 Canyon Springs Parkway,CA,92507
Petco,Flagstaff,1165,1165,5047 East Marketplace Drive,AZ,86004
Petco,Fontana,1168,1168,16639 Sierra Lakes Parkway,CA,92336
Petco,Queen Creek,1169,1169,21178 East Ocotillo Road,AZ,85142
Petco,Menifee,1170,1170,30464 Haun Road,CA,92584
Petco,Beaumont,1171,1171,1634 East 2nd Street,CA,92223
Petco,Indio,1172,1172,42700 Jackson Street,CA,92203
Petco,Goodyear,1173,1173,1985 N Pebble Creek Parkway,AZ,85395
Petco,Oro Valley,1175,1175,11985 North Oracle Road,AZ,85755
Petco,Kailua Kona,1176,1176,74-5446 Makala Boulevard,HI,96740
Petco,Las Vegas,1177,1177,8495 West Warm Springs Road,NV,89113
Petco,Kapolei,1178,1178,4450 Kapolei Parkway,HI,96707
Petco,Pearl City,1179,1179,1134 Kuala Street,HI,96782
Petco,Westlake Village,1180,1180,3835 East Thousand Oaks Boulevard,CA,91362
Petco,Signal Hill,1181,1181,3065 California Ave,CA,90755
Petco,Kaneohe,1182,1182,46-023 Kamehameha Highway,HI,96744
Petco,Kahului,1183,1183,270 Dairy Road,HI,96732
Petco,Arroyo Grande,1184,1184,905 Rancho Parkway,CA,93420
Petco,Honolulu,1185,1185,1121 South Beretania St,HI,96814
Petco,Claremont,1186,1186,905 West Foothill Boulevard,CA,91711
Petco,Los Angeles,1187,1187,5325 West Centinela Avenue,CA,90045
Petco,Granada Hills,1189,1189,10819 Zelzah Avenue,CA,91344
Petco,San Diego,1190,1190,308 Washington Street,CA,92103
Petco,Simi Valley,1191,1191,2643 Tapo Canyon Road,CA,93063
Petco,Chula Vista,1192,1192,304 East H Street,CA,91910
Petco,Juneau,1194,1194,8745 Glacier Highway,AK,99801
Petco,Henderson,1195,1195,645 South Green Valley Parkway,NV,89052
Petco,National City,1196,1196,3430 Highland Avenue Suite B,CA,91950
Petco,Ewa,1197,1197,91-1065 Keaunui Drive,HI,96706
Petco,Honolulu,1198,1198,7192 Kalanianaole Highway,HI,96825
Petco,Lemon Grove,1199,1199,7128 Broadway,CA,91945
Petco,Eugene,1201,1201,1169 Valley River Drive,OR,97401
Petco,Bellevue,1202,1202,4080 Factoria  Boulevard SE,WA,98006
Petco,San Ramon,1203,1203,2005 Crow Canyon Place,CA,94583
Petco,Santa Clara,1204,1204,2775 El Camino Real,CA,95051
Petco,Boise,1205,1205,3548 South Findley Avenue,ID,83705
Petco,Bellingham,1206,1206,189 East Bakerview Road,WA,98226
Petco,Gig Harbor,1207,1207,5190 Borgen Boulevard Suite 201,WA,98332
Petco,Coeur D'Alene,1208,1208,420 Wilbur Avenue,ID,83815
Petco,Covington,1209,1209,27111 167th Place SE Suite 113,WA,98042
Petco,McMinnville,1210,1210,2370 NE Highway 99W,OR,97128
Petco,Kalispell,1211,1211,2435 US Highway 93 North,MT,59901
Petco,Lewiston,1212,1212,2362 Nez Perce Drive,ID,83501
Petco,Longview,1213,1213,200 Triangle Center Suite 230,WA,98632
Petco,Puyallup,1214,1214,3717 South Meridian Street,WA,98373
Petco,Anchorage,1215,1215,8621 Old Seward Highway,AK,99515
Petco,Spokane,1217,1217,2805 East 29th Avenue,WA,99223
Petco,Redmond,1218,1218,7215 170th Avenue NE,WA,98052
Petco,Vancouver,1220,1220,8820 NE 5th Avenue,WA,98665
Petco,Chubbuck,1221,1221,4335 Yellowstone Avenue,ID,83202
Petco,Vancouver,1222,1222,11505 NE Fourth Plain Road,WA,98662
Petco,Union Gap,1223,1223,1201 East Washington Avenue,WA,98903
Petco,Portland,1224,1224,6655 NE Glisan Street,OR,97213
Petco,Sequim,1225,1225,1205 West Washington Street,WA,98382
Petco,Keizer,1226,1226,6425 Keizer Station Boulevard NE,OR,97303
Petco,Clackamas,1227,1227,9078 SE Sunnyside Road,OR,97015
Petco,The Dalles,1228,1228,440 Mount Hood Street,OR,97058
Petco,Nampa,1229,1229,16434 North Market Place Boulevard,ID,83651
Petco,Anchorage,1230,1230,3090 Mountain View Drive,AK,99501
Petco,Kennewick,1231,1231,4012 West 27th Avenue,WA,99337
Petco,Klamath Falls,1232,1232,2840 South 6th Street,OR,97603
Petco,Vancouver,1233,1233,305 South East Chkalov Drive #102,WA,98683
Petco,Marysville,1234,1234,16508 Twin Lakes Avenue 1234,WA,98271
Petco,Richland,1235,1235,2927 Queensgate Drive,WA,99352
Petco,Tukwila,1236,1236,17200 Southcenter Parkway,WA,98188
Petco,Bonney Lake,1238,1238,9311 192nd Avenue East,WA,98391
Petco,Walla Walla,1239,1239,1725 Twin Creek Lane,WA,99362
Petco,Roseburg,1240,1240,780 North West Garden Valley Boulevard,OR,97470
Petco,Poulsbo,1242,1242,21700 Market Place NW,WA,98370
Petco,Albany,1243,1243,717 Geary Street SE,OR,97321
Petco,Grants Pass,1244,1244,891 NE D Street,OR,97526
Petco,Tacoma,1245,1245,4028 Tacoma Mall Boulevard,WA,98409
Petco,West Valley City,1246,1246,3637 South 2700 West,UT,84119
Petco,Kent,1248,1248,26209 104th Avenue SE,WA,98030
Petco,Portland,1249,1249,1736-B Jantzen Beach Center,OR,97217
Petco,Auburn,1251,1251,2635 Bell Road,CA,95603
Petco,Seattle,1253,1253,318 NE Northgate Way,WA,98125
Petco,Medford,1254,1254,75 Rossanley Drive,OR,97501
Petco,Seattle,1256,1256,4100 SW Alaska Street,WA,98116
Petco,Warrenton,1257,1257,1619 SE Ensign Lane,OR,97146
Petco,Farmington,1258,1258,120 North Station Parkway,UT,84025
Petco,Tigard,1259,1259,15660 SW Pacific Highway,OR,97224
Petco,Heber City,1260,1260,1268 South US Highway 189,UT,84032
Petco,Salem,1261,1261,4450 Commercial Street SE,OR,97301
Petco,Meridian,1262,1262,2210 North Eagle Road,ID,83642
Petco,Seattle,1263,1263,2001 15th Avenue West,WA,98119
Petco,Redmond,1264,1264,1826 North Highway 97,OR,97756
Petco,Sammamish,1265,1265,474 228th Avenue NE,WA,98047
Petco,Moses Lake,1266,1266,911 North Stratford Road,WA,98837
Petco,Tacoma,1267,1267,5951 Sixth Avenue,WA,98406
Petco,Bozeman,1268,1268,2911 West  Main Street,MT,59718
Petco,Vernal,1269,1269,1997 West Highway 40,UT,84078
Petco,Ponderay,1277,1277,300 Bonner Mall Way,ID,83852
Petco,Walnut Creek,1301,1301,1301 South California Boulevard,CA,94596
Petco,Tracy,1302,1302,2888 West Grant Line Road,CA,95304
Petco,Bakersfield,1306,1306,5151 Gosford Road,CA,93313
Petco,Eureka,1307,1307,3300 Broadway Street,CA,95501
Petco,Monterey,1308,1308,960 Del Monte Center,CA,93940
Petco,Los Gatos,1310,1310,444 North Santa Cruz Avenue,CA,95030
Petco,Brentwood,1311,1311,5481 Lone Tree Way,CA,94513
Petco,Paso Robles,1312,1312,2051 Theater Drive,CA,93446
Petco,San Mateo,1313,1313,3012 Bridgepointe Parkway,CA,94404
Petco,Yuba City,1314,1314,1110 Harter Road,CA,95993
Petco,Fairfield,1315,1315,1370 Holiday Lane Suite A,CA,94533
Petco,Lompoc,1317,1317,717 North H Street,CA,93436
Petco,Visalia,1318,1318,3444 South Mooney Boulevard,CA,93277
Petco,Stockton,1319,1319,5406 Pacific Avenue,CA,95207
Petco,San Bruno,1320,1320,1150 El Camino Real #167,CA,94066
Petco,Riverbank,1323,1323,2341 Claribel Road,CA,95367-9474
Petco,Rocklin,1324,1324,6672 Lonetree Boulevard,CA,95765
Petco,San Jose,1325,1325,886 Blossom Hill Rd,CA,95123
Petco,San Jose,1327,1327,1960 Tully Road,CA,95122
Petco,Jackson,1328,1328,12050 Industry Boulevard,CA,95642
Petco,Morgan Hill,1329,1329,1019 Cochrane Rd,CA,95037
Petco,Atwater,1330,1330,1230 Commerce Avenue,CA,95301
Petco,Los Banos,1331,1331,1429 West Pachecho Boulevard,CA,93635
Petco,Madera,1332,1332,2140 West Cleveland Avenue,CA,93637
Petco,Emeryville,1333,1333,5791 Christie Avenue,CA,94608
Petco,San Francisco,1334,1334,2300 16th Street,CA,94103
Petco,Concord,1335,1335,1150 Concord Avenue,CA,94520
Petco,Grass Valley,1336,1336,672 Freeman Lane,CA,95945
Petco,Livermore,1337,1337,4500 Las Positas Road,CA,94551
Petco,Fresno,1338,1338,6557 Riverside Drive,CA,93772
Petco,Clovis,1339,1339,1045 Herndon Avenue,CA,93611
Petco,Oroville,1340,1340,2353 Meyers Street,CA,95966
Petco,Cameron Park,1341,1341,3454 Palmer Drive,CA,95682
Petco,Sacramento,1343,1343,5610 Folsom Boulevard,CA,95819
Petco,West Sacramento,1344,1344,795 Ikea Court,CA,95605
Petco,Cedar Hill,1401,1401,433 East FM 1382 Building H,TX,75104
Petco,Austin,1402,1402,14010 North US Highway 183 Suite 430,TX,78717
Petco,Temple,1403,1403,2112 SW H K Dodgen Loop Suite 130,TX,76504
Petco,Harvey,1404,1404,1629 Westbank Expressway Suite E,LA,70058
Petco,College Station,1405,1405,1901 Texas Avenue Suite C,TX,77840
Petco,Englewood,1406,1406,551 West Hampden Avenue,CO,80110
Petco,Houston,1407,1407,12310 FM 1960 West,TX,77065
Petco,Colorado Springs,1408,1408,3050 North Powers Boulevard,CO,80922
Petco,Littleton,1410,1410,7460 South University Boulevard,CO,80122
Petco,Broomfield,1411,1411,12163 North Sheridan Boulevard,CO,80020
Petco,Grand Junction,1412,1412,2464 US Highway 6,CO,81505
Petco,Monroe,1413,1413,4209 Pecanland Mall Drive,LA,71203
Petco,Baton Rouge,1414,1414,6857 Siegen Lane,LA,70809
Petco,Beaumont,1415,1415,4175 Dowlen Road,TX,77706
Petco,Florence,1416,1416,394 Cox Creek Parkway,AL,35630
Petco,Kenner,1417,1417,3500 Williams Boulevard,LA,70065
Petco,Plano,1418,1418,801f West 15th Street,TX,75075
Petco,Boulder,1419,1419,2480 Arapahoe Avenue,CO,80302
Petco,Cheyenne,1420,1420,1782 Dell Range Boulevard,WY,82009
Petco,Waco,1422,1422,2404 West Loop 340,TX,76711
Petco,Corpus Christi,1425,1425,6418-B South Staples Street,TX,78413
Petco,Sherman,1426,1426,4184 Town Center,TX,75092
Petco,Houston,1427,1427,22511 State Highway 249,TX,77070
Petco,Farmington,1428,1428,3530 East Main Street Suite A,NM,87402
Petco,Tulsa,1429,1429,4915-C 41st Street,OK,74135
Petco,Tulsa,1430,1430,9645 South Riverside Drive,OK,74137
Petco,New Orleans,1431,1431,5300 Tchoupitoulas Street,LA,70115
Petco,Spring,1432,1432,19507 I-45 North Suite 700,TX,77388
Petco,Houma,1433,1433,1651 Martin Luther King Jr.,LA,70360
Petco,Aurora,1434,1434,24101 East Orchard Road Suite C,CO,80016
Petco,Draper,1435,1435,195 East 12300 South,UT,84020
Petco,Metairie,1436,1436,3520 Veterans Memorial Boulevard,LA,70002
Petco,Greeley,1437,1437,4751 West 29th Street,CO,80634
Petco,Tulsa,1438,1438,8802-B East 71st Street,OK,74133
Petco,Edmond,1439,1439,324 South Bryant Avenue,OK,73034
Petco,San Angelo,1440,1440,4157 Sunset Drive,TX,76904
Petco,Pueblo,1441,1441,5843 N. Elizabeth Street,CO,81008
Petco,San Antonio,1442,1442,12651 Vance Jackson Road,TX,78230
Petco,Oklahoma City,1443,1443,7001A NW Expressway,OK,73132
Petco,San Antonio,1444,1444,3143 SE Military Drive #115,TX,78223
Petco,San Antonio,1445,1445,11398 Bandera Road #403,TX,78250
Petco,Glenwood Springs,1446,1446,105 East Meadows Road,CO,81601
Petco,Helena,1448,1448,3215 Dredge Drive,MT,59602
Petco,Houston,1449,1449,10911 Westheimer Road,TX,77042
Petco,Longmont,1452,1452,205 Ken Pratt Boulevard #280,CO,80501
Petco,Harrisville,1454,1454,390 East 525 North,UT,84404
Petco,Laredo,1455,1455,5410 San Bernardo Avenue #103,TX,78041
Petco,Casper,1456,1456,4140 East 2nd Street,WY,82609
Petco,Hurst,1457,1457,1315 West Pipeline Road,TX,76053
Petco,Mansfield,1458,1458,2041 Highway 287 North #601,TX,76063
Petco,West Bountiful,1459,1459,181 North 545 West,UT,84087
Petco,Olathe,1460,1460,13620 South Blackbob Road,KS,66062
Petco,League City,1461,1461,2895 Gulf Freeway South,TX,77573
Petco,South Jordan,1462,1462,11639 South Parkway Plaza Drive,UT,84095
Petco,Layton,1463,1463,2095 Harris Boulevard,UT,84041
Petco,Dallas,1464,1464,5301 Belt Line Road #106,TX,75254
Petco,Stillwater,1465,1465,2170 North Perkins Road,OK,74075
Petco,Humble,1466,1466,7067 FM 1960 Road East,TX,77346
Petco,Rosenberg,1467,1467,23710 Commercial Drive,TX,77471
Petco,Roswell,1468,1468,4301 North Main Street Suite A,NM,88201
Petco,Albuquerque,1469,1469,3601 Old Airport Road Suite C,NM,87114
Petco,Highland Village,1470,1470,3194 FM 407,TX,75077
Petco,Aurora,1471,1471,3511 North Salida Court #40,CO,80011
Petco,Colorado Springs,1472,1472,9690 Prominent Point,CO,80920
Petco,Muskogee,1473,1473,938 West Shawnee Street,OK,74401
Petco,Grand Prairie,1474,1474,5236 South State Highway 360,TX,75052
Petco,Denham Springs,1475,1475,2358 South Range Avenue,LA,70726
Petco,Garland,1476,1476,3055 North President George Bush Highway,TX,75040
Petco,Mission,1477,1477,2519 East Expressway 83,TX,78572
Petco,Amarillo,1479,1479,2203 South Western Street,TX,79109
Petco,Lafayette,1480,1480,3215 Louisiana Avenue,LA,70501
Petco,The Woodlands,1481,1481,10864 Kuykendahl Road,TX,77381
Petco,Port Arthur,1482,1482,8735 Memorial Boulevard,TX,77640
Petco,San Antonio,1483,1483,6001 NW Loop 410 Suite 103,TX,78238
Petco,Norman,1484,1484,1670 24th Avenue North West,OK,73069
Petco,Harker Heights,1485,1485,201 East Central Texas Expressway,TX,76548
Petco,Frisco,1486,1486,5177 Eldorado Parkway,TX,75034
Petco,Baytown,1487,1487,4665 Garth Road,TX,77521
Petco,Paris,1488,1488,3900 Lamar Avenue,TX,75426
Petco,Montrose,1489,1489,3421 Rio Grande,CO,81401
Petco,Ardmore,1490,1490,2401 12th Avenue NW,OK,73401
Petco,Fort Worth,1491,1491,465 Sherry Lane,TX,76114
Petco,Austin,1492,1492,500 Canyon Ridge Drive,TX,78753
Petco,Rapid City,1493,1493,1713 Eglin Street,SD,57703
Petco,Lake Charles,1494,1494,545 West Prien Lake Road,LA,70601
Petco,San Antonio,1495,1495,6206 Woodglen Drive,TX,78244
Petco,Bastrop,1496,1496,739 Highway 71 West,TX,78602
Petco,Denver,1497,1497,4100 East Mexico Avenue,CO,80222
Petco,Pflugerville,1498,1498,19000 Limestone Commercial Drive,TX,78660
Petco,Fort Smith,1499,1499,3835 Phoenix Avenue,AR,72903
Petco,Downey,1501,1501,8580 Firestone Boulevard,CA,90241
Petco,Thousand Oaks,1502,1502,140 West Hillcrest Drive Suite 101,CA,91360
Petco,Van Nuys,1503,1503,5850 Sepulveda Boulevard,CA,91411
Petco,Palmdale,1504,1504,39522 10th Street West Suite A,CA,93551
Petco,West Hollywood,1505,1505,508 North Doheny Drive,CA,90048
Petco,Bakersfield,1506,1506,8220 Rosedale Highway,CA,93312
Petco,Santa Barbara,1507,1507,3985 State Street,CA,93105
Petco,Santa Barbara,1508,1508,19 South Milpas Street,CA,93103
Petco,Chino,1509,1509,3820 Grand Avenue,CA,91710
Petco,Victorville,1510,1510,17150 Bear Valley Road,CA,92395
Petco,San Luis Obispo,1511,1511,271 Madonna Road,CA,93405
Petco,Canoga Park,1512,1512,6615 Fallbrook Avenue,CA,91307
Petco,Anaheim,1513,1513,8092 East Santa Ana Canyon Road,CA,92808
Petco,Petaluma,1514,1514,165 North McDowell Boulevard,CA,94954
Petco,West Melbourne,1515,1515,205 Palm Bay Road NE,FL,32904
Petco,Homestead,1516,1516,2565 NE 10th Court,FL,33035
Petco,Jupiter,1517,1517,901 West Indiantown Road,FL,33458-6811
Petco,Hoover,1519,1519,5631 Grove Boulevard,AL,35226
Petco,Mountain Home,1520,1520,1080 Hometown Commons,AR,72653
Petco,Miami Beach,1521,1521,1121 5th Street,FL,33139
Petco,Farragut,1523,1523,169 Brooklawn Street,TN,37934
Petco,Palm Harbor,1525,1525,30697 US Highway 19 North,FL,34684
Petco,Charlotte,1526,1526,3401 Pineville Matthews Road,NC,28226
Petco,Port Orange,1527,1527,5513 South Williamson Boulevard,FL,32128
Petco,Charleston,1528,1528,975 Savannah Highway,SC,29407
Petco,Palm Beach Gardens,1529,1529,11262 Legacy Avenue,FL,33410
Petco,Charlottesville,1530,1530,1621 Emmet Street North,VA,22901
Petco,Frankfort,1532,1532,340 Leonardwood Road,KY,40601
Petco,Asheville,1533,1533,825 Brevard Road,NC,28806
Petco,North Charleston,1534,1534,5900 Rivers Avenue Suite E-2,SC,29406
Petco,Cary,1535,1535,416 Crossroads Boulevard,NC,27518
Petco,Sarasota,1536,1536,131 North Cattlemen Road,FL,34243
Petco,Boynton Beach,1537,1537,368-A North Congress Avenue,FL,33426
Petco,Hallandale Beach,1538,1538,1470 East Hallandale Beach Boulevard,FL,33009
Petco,Doral,1539,1539,10610 NW 19th Street,FL,33172
Petco,Brentwood,1541,1541,210 Franklin Road,TN,37027
Petco,Olive Branch,1542,1542,7509 Goodman Road,MS,38654
Petco,Pensacola,1543,1543,1670 Airport Boulevard Suite 700,FL,32504
Petco,Charlotte,1545,1545,6416 Rea Road,NC,28277
Petco,Charlotte,1546,1546,1824 East Arbors Drive,NC,28262
Petco,Greenville,1547,1547,1140 Woodruff Road,SC,29607
Petco,Apopka,1548,1548,2227 East Semoran Boulevard,FL,32703
Petco,Madison,1549,1549,8213 Highway 72 West,AL,35758
Petco,Antioch,1550,1550,3536 Murfreesboro Pike,TN,37013
Petco,Hendersonville,1551,1551,118 Highlands Square Drive,NC,28792
Petco,Holly Springs,1552,1552,172 Grand Hills Place,NC,27540
Petco,Madison,1553,1553,175 Grandview Boulevard,MS,39110
Petco,Atlanta,1554,1554,2955 Cobb Parkway  SE,GA,30339
Petco,Dalton,1555,1555,841 Shugart Road,GA,30720
Petco,Decatur,1557,1557,2115 North Decatur Road,GA,30033
Petco,Marietta,1558,1558,1100 Johnson Ferry Road,GA,30068
Petco,Fleming Island,1559,1559,1514 Country Road 220,FL,32003-7923
Petco,Lighthouse Point,1560,1560,3774 North Federal Highway,FL,33064
Petco,Rio Piedras,1561,1561,65 Infanteria Shopping Center,PR,923
Petco,Greenwood,1563,1563,526 Bypass 72 NW,SC,29649
Petco,Myrtle Beach,1564,1564,160 Sayebrook Parkway,SC,29588
Petco,North Myrtle Beach,1565,1565,596 Hwy 17 North,SC,29582-2904
Petco,Knoxville,1566,1566,4908 Kingston Pike,TN,37919-5111
Petco,Atlanta,1567,1567,3756b Roswell Road NE,GA,30342
Petco,Bradenton,1568,1568,6757 Manatee Avenue West,FL,34209
Petco,New Orleans,1569,1569,3018 Holiday Drive,LA,70131
Petco,Venice,1570,1570,1651 U.S. 41 Bypass South,FL,34293
Petco,Lafayette,1571,1571,"609 Settlers Trace Boulevard, Suite 200",LA,70508
Petco,Hattiesburg,1572,1572,4600 Hardy Street,MS,39401
Petco,Chattanooga,1573,1573,2288 Gunbarrel Road,TN,37421
Petco,Lebanon,1574,1574,1418 West Main Street,TN,37087
Petco,Covington,1576,1576,7303 Pinnacle Parkway,LA,70433
Petco,Tarpon Springs,1577,1577,140964 Us Hwy 19 N,FL,34689
Petco,Clarksville,1578,1578,2807 Wilma Rudolph Boulevard,TN,37040
Petco,Baton Rouge,1580,1580,3535 Perkins Road,LA,70808
Petco,Slidell,1582,1582,280 Kensington Boulevard,LA,70458
Petco,Alexandria,1583,1583,1438 Macarthur Drive,LA,71301
Petco,Southaven,1601,1601,205 Goodman Road West,MS,38671
Petco,Fenton,1602,1602,149 Gravois Bluffs Plaza Drive,MO,63026
Petco,Lees Summit,1603,1603,1860 NW Chipman Road Building C,MO,64081
Petco,Jackson,1604,1604,187 Stonebrook Place,TN,38305-3636
Petco,Saint Charles,1605,1605,6137 Mid Rivers Mall Drive,MO,63304
Petco,Cape Girardeau,1606,1606,266 Siemers Drive,MO,63701
Petco,North Little Rock,1607,1607,4221 East McCain Boulevard,AR,72117
Petco,Chattanooga,1608,1608,5756 Highway 153,TN,37343
Petco,Nashville,1609,1609,7657 Highway 70 South #116,TN,37221
Petco,Little Rock,1610,1610,12801 Chenal Parkway,AR,72211
Petco,Dubuque,1611,1611,2541 Northwest Arterial,IA,52002
Petco,Hot Springs,1612,1612,315 Cornerstone Boulevard,AR,71913
Petco,Burnsville,1613,1613,14051 Aldrich Avenue South,MN,55337
Petco,Jonesboro,1614,1614,1207 South Caraway Road,AR,72401
Petco,Germantown,1617,1617,7680 Poplar Avenue,TN,38138
Petco,Montgomery,1622,1622,1540 Eastern Boulevard,AL,36117
Petco,West Des Moines,1623,1623,6805 Mills Civic Parkway Suite 140,IA,50266
Petco,Arnold,1624,1624,1221 Water Tower Place,MO,63010
Petco,Bartlett,1626,1626,6015 Stage Road,TN,38134
Petco,Decatur,1627,1627,1605 Beltline Road,AL,35601
Petco,Cordova,1628,1628,1250 North Germantown Parkway #112,TN,38016
Petco,Overland Park,1629,1629,11620 West 95th Street,KS,66214
Petco,Opelika,1630,1630,2285 Tiger Town Parkway,AL,36801
Petco,Hendersonville,1632,1632,1014 Glenbrook Way,TN,37075
Petco,Gadsden,1633,1633,308 East Meighan Boulevard,AL,35903
Petco,Kansas City,1634,1634,1210 West 136th Street,MO,64145
Petco,Saint Joseph,1635,1635,5201 North Belt Highway Suite 105,MO,64506
Petco,Chesterfield,1636,1636,1791 Clarkson Road,MO,63017
Petco,Cookeville,1637,1637,377 West Jackson Street Suite 11,TN,38501
Petco,Kirkwood,1639,1639,1125 South Kirkwood Road,MO,63122
Petco,Indianapolis,1641,1641,7235 North Keystone Avenue,IN,46240
Petco,Mason City,1642,1642,568 Indian Head Drive,IA,50401
Petco,Carbondale,1643,1643,1310-1312 East Main Street,IL,62901
Petco,Rogers,1644,1644,4013 West Walnut Street,AR,72756
Petco,Manchester,1645,1645,439 Lafayette Center,MO,63011
Petco,Fridley,1646,1646,753 53rd Avenue NE,MN,55421
Petco,Bloomington,1647,1647,2520 East 3rd Street,IN,47401
Petco,Carmel,1648,1648,10025 North Michigan Road #160,IN,46032
Petco,Osage Beach,1649,1649,3936 Jr Prewitt Parkway,MO,65065
Petco,Woodbury,1650,1650,7040 Valley Creek Plaza,MN,55125
Petco,Saint Charles,1651,1651,2109 Zumbehl Road,MO,63303
Petco,West St. Paul,1652,1652,1970 South Robert Street,MN,55118
Petco,Manitowoc,1653,1653,4144 Harbor Town Lane #500,WI,54220
Petco,Plover,1654,1654,1220 Commons Circle,WI,54467
Petco,Mankato,1655,1655,1901 Madison Ave #610,MN,56001
Petco,Appleton,1656,1656,3829 East Calumet Street #100,WI,54915
Petco,Edwardsville,1657,1657,6631 Edwardsville Crossing Drive,IL,62025
Petco,North Aurora,1658,1658,1660 Orchard Gateway Boulevard,IL,60542
Petco,Lake Geneva,1659,1659,200 Edwards Boulevard Suite B,WI,53147
Petco,Bourbonnais,1660,1660,2046 North State Route 50,IL,60914
Petco,Appleton,1661,1661,711 North Casaloma Drive,WI,54913
Petco,Benton,1662,1662,20825 I-30,AR,72015
Petco,Bellevue,1663,1663,10511 South 15th Street,NE,68123
Petco,West Bend,1664,1664,806 West Paradise Drive,WI,53095
Petco,Salina,1665,1665,2450 South 9th Street #2001A,KS,67401
Petco,Cleveland,1666,1666,3387 Steelyard Drive,OH,44109
Petco,Murfreesboro,1667,1667,2615 Medical Center Parkway,TN,37129
Petco,Meridian,1668,1668,131 South Frontage Road,MS,39301
Petco,Branson,1669,1669,993 Branson Hills Parkway,MO,65616
Petco,Collierville,1670,1670,10315 East Shelby Drive,TN,38017
Petco,Coralville,1671,1671,2515 Corridor Way,IA,52241
Petco,Wichita,1672,1672,2441 North Maize Road,KS,67205
Petco,Manhattan,1673,1673,517 North 3rd Place,KS,66502
Petco,Goshen,1674,1674,2823 County Home Road,IN,46526
Petco,Council Bluffs,1675,1675,3271 Marketplace Drive,IA,51501
Petco,Derby,1676,1676,1912 North Rock Road,KS,67037
Petco,Dardenne Prairie,1677,1677,7907 Highway N,MO,63368
Petco,Hutchinson,1678,1678,1912 East 17th Street,KS,67501
Petco,Rochester,1679,1679,3430 55th Street NW,MN,55901
Petco,Omaha,1680,1680,12410 K Plaza,NE,68137-2249
Petco,Chaska,1681,1681,244 Pioneer Trail,MN,55318
Petco,Washington,1682,1682,1080 Washington Square,MO,63090
Petco,Ames,1683,1683,205 SE 5th Street,IA,50010
Petco,Blue Springs,1684,1684,1020 NE Coronado Drive,MO,64014
Petco,Creve Coeur,1685,1685,12519 Olive Boulevard,MO,63141
Petco,Waukesha,1686,1686,1240 West Sunset Drive,WI,53189
Petco,Oak Creek,1687,1687,8551 South Howell Avenue,WI,53154
Petco,Brentwood,1688,1688,8404-B Eager Road,MO,63144
Petco,St Louis,1689,1689,7279 Watson Road,MO,63119
Petco,Florissant,1690,1690,2435 North Hwy 67,MO,63033
Petco,Independence,1693,1693,4201 South Noland Road,MO,64055
Petco,Kansas City,1694,1694,600 NE Vivion Road,MO,64118
Petco,Farmington,1695,1695,738 Market Street,MO,63640
Petco,St Louis,1696,1696,3158 Telegraph Road,MO,63125
Petco,Wauwatosa,1697,1697,3870 North 124th Street,WI,53222
Petco,St. Francis,1698,1698,4698South Whitnall Avenue,WI,53235
Petco,Bismarck,1699,1699,525 South 5th Street,ND,58504
Petco,Leesburg,1701,1701,200-250 Fort Evans Road NE,VA,20176
Petco,Commack,1702,1702,30 Veterans Memorial Highway,NY,11725
Petco,Patchogue,1703,1703,401 Sunrise Highway,NY,11772
Petco,Rockville,1704,1704,1507 Rockville Pike,MD,20852
Petco,Milltown,1706,1706,300 Ryders Lane,NJ,8850
Petco,Roswell,1709,1709,2340 Holcomb Bridge Road,GA,30076
Petco,Snellville,1710,1710,1630 Scenic Highway SW 124,GA,30078
Petco,Hanover,1712,1712,416 Eisenhower Drive,PA,17331
Petco,Buford,1713,1713,3264 Buford Drive #110,GA,30519
Petco,Yonkers,1714,1714,2350 Central Park Avenue,NY,10710
Petco,Owings Mills,1715,1715,10383 Reisterstown Road,MD,21117
Petco,Bailey's Crossroads,1716,1716,5825 Leesburg Pike,VA,22041
Petco,Dale City,1717,1717,4167 Cheshire Station Plaza,VA,22193
Petco,Alpharetta,1718,1718,10980 State Bridge Road,GA,30022
Petco,Baldwin,1719,1719,806 Sunrise Highway,NY,11510
Petco,Stafford,1721,1721,309 Worth Avenue Suite 123,VA,22556
Petco,Duluth,1722,1722,2131 Pleasant Hill Road,GA,30096
Petco,Burke,1723,1723,9230-B Old Keene Mill Road,VA,22015
Petco,Clifton Heights,1724,1724,520 West Baltimore Pike,PA,19018
Petco,Watchung,1726,1726,1701 US Route 22 West,NJ,7069
Petco,Orlando,1728,1728,7649 West Colonial Drive Suite 130,FL,32818
Petco,Sandy Springs,1729,1729,5938 Roswell Road NE,GA,30328
Petco,Lithonia,1730,1730,8164 Mall Parkway,GA,30038
Petco,Wesley Chapel,1733,1733,1231 Bruce B. Downs Boulevard,FL,33543
Petco,Reading,1734,1734,2765 Papermill Road Unit G-1,PA,19610
Petco,Tampa,1737,1737,13127 North Dale Mabry Highway,FL,33618
Petco,Tampa,1738,1738,136 SW Shore Boulevard,FL,33609
Petco,Harrisonburg,1740,1740,253 Burgess Road,VA,22801
Petco,Saint Augustine,1742,1742,430 Cbl Drive,FL,32086
Petco,Melbourne,1743,1743,7201 Shoppes Drive #109,FL,32940
Petco,Gainesville,1744,1744,6869 West Newberry Road,FL,32605
Petco,Tallahassee,1745,1745,1624 Governors Square Boulevard,FL,32301
Petco,Riverhead,1746,1746,1524 Old Country Road,NY,11901
Petco,Marietta,1747,1747,50 Ernest Barrett Parkway Suite 500,GA,30066
Petco,Orlando,1748,1748,4616 Millenia Plaza Way,FL,32839
Petco,New York,1750,1750,2475 Broadway,NY,10025
Petco,Nanuet,1751,1751,164 Rockland Plaza,NY,10954
Petco,Orlando,1752,1752,2410 East Colonial Drive,FL,32803
Petco,Tamarac,1753,1753,5837 North University Drive,FL,33321
Petco,Baltimore,1754,1754,8640 Pulaski Highway Suite 104,MD,21237
Petco,West Palm Beach,1755,1755,1951-C North Military Trail,FL,33409
Petco,Miami,1756,1756,12014 SW 88th Street,FL,33186
Petco,Naples,1758,1758,6424 Naples Boulevard Suite 401,FL,34109
Petco,Wilkes-Barre,1759,1759,3480 Wilkes-Barre Township Commons,PA,18702
Petco,Syosset,1760,1760,565 Jericho Turnpike,NY,11791
Petco,Toms River,1761,1761,1331 Hooper Avenue,NJ,8753
Petco,Columbia,1762,1762,6181 Old Dobbin Lane Suite 800,MD,21045
Petco,Altoona,1765,1765,209 Falon Lane,PA,16602
Petco,Jacksonville,1766,1766,11900 Atlantic Boulevard,FL,32225
Petco,Orlando,1767,1767,1778 West Sandlake Road,FL,32809
Petco,Philadelphia,1768,1768,9717 Roosevelt Boulevard,PA,19114
Petco,Jacksonville,1769,1769,950 Marsh Landing Parkway #145,FL,32250
Petco,Howell,1770,1770,4755 US Highway 9,NJ,7731
Petco,Forestville,1771,1771,3034 Donnell Drive,MD,20747
Petco,Fort Myers,1773,1773,13741 South Tamiami Trail Unit 2,FL,33912
Petco,Greensboro,1776,1776,"4217 West Wendover Avenue, Suite G",NC,27407
Petco,Germantown,1779,1779,12960 Middlebrook Road #520A,MD,20874
Petco,Oakland Park,1780,1780,1009 East Commercial Boulevard,FL,33334
Petco,Mount Vernon,1781,1781,500 East Sandford Boulevard,NY,10550
Petco,Woburn,1784,1784,103 Commerce Way Suite A,MA,1801
Petco,Waldorf,1785,1785,3077 Waldorf Market Place,MD,20603
Petco,Wynnewood,1787,1787,270 East Lancaster Avenue,PA,19096
Petco,Boca Raton,1789,1789,9960 Glades Road,FL,33434
Petco,Pembroke Pines,1792,1792,12251 Pines Boulevard,FL,33026
Petco,Plantation,1793,1793,8111 West Broward Boulevard,FL,33324
Petco,South Miami,1794,1794,6200 South Dixie Highway,FL,33143
Petco,Morgantown,1799,1799,4101 University Town Center Drive,WV,26501
Petco,Colonie,1801,1801,1440 Central Avenue,NY,12205
Petco,Avon,1802,1802,20 Stockwell Drive,MA,2322
Petco,Amherst,1803,1803,1459 Niagara Falls Boulevard,NY,14228
Petco,North Syracuse,1804,1804,310 Northern Lights (Route 11),NY,13212
Petco,Leominster,1805,1805,48 Water Tower Plaza,MA,1453
Petco,Pittsburgh,1807,1807,4801 Mcknight Road,PA,15237
Petco,Henrietta,1808,1808,300 Hylan Drive,NY,14623
Petco,Elmira,1809,1809,831 County Road 64,NY,14903
Petco,Erie,1810,1810,1960 Edinboro Road,PA,16509
Petco,Homestead,1811,1811,590 East Waterfront Drive,PA,15120
Petco,Pittsburgh,1812,1812,251 Clairton Boulevard,PA,15236
Petco,Avon,1813,1813,9 West Avon Road,CT,6001
Petco,Quincy,1814,1814,169 Parkingway,MA,2169
Petco,West Seneca,1815,1815,330 Orchard Park Road,NY,14224
Petco,Taunton,1816,1816,65A Taunton Depot Drive,MA,2780
Petco,Greece,1817,1817,2373 Ridge Road West,NY,14626
Petco,Enfield,1818,1818,25 Hazard Avenue,CT,6082
Petco,Bethel Park,1819,1819,59 Fort Couch Road,PA,15241
Petco,Pittsburgh,1820,1820,976 Freeport Road Room A2,PA,15238
Petco,Augusta,1821,1821,20 Whitten Road Suite 6,ME,4330
Petco,Monroeville,1822,1822,2723 Stroschein Road,PA,15146
Petco,Burlington,1823,1823,51 Middlesex Turnpike,MA,1803
Petco,Keene,1824,1824,55-63 Key Road,NH,3431
Petco,Providence,1825,1825,585 North Main Street,RI,2904
Petco,State College,1827,1827,40 Colonnade Way,PA,16803
Petco,Bangor,1828,1828,777 Stillwater Avenue,ME,4401
Petco,Burlington,1829,1829,861 Williston Road,VT,5403
Petco,Middletown,1830,1830,1309 West Main Road,RI,2842
Petco,Cranberry Township,1832,1832,20111 Route 19 Unit 201C,PA,16066
Petco,Clifton Park,1833,1833,6 Halfmoon Crossing,NY,12065
Petco,Birmingham,1835,1835,5269 Highway 280 South Suite B6,AL,35242
Petco,Washington,1838,1838,70 Trinity Point Drive,PA,15301
Petco,Rutland,1839,1839,312 US Route 7 South,VT,5701
Petco,Pittsburgh,1841,1841,6512 Steubenville Pike,PA,15205
Petco,Johnstown,1842,1842,410 Town Centre Drive,PA,15904
Petco,Piscataway,1843,1843,1333 Centennial Avenue,NJ,8854
Petco,Greensburg,1844,1844,1810 Greengate Centre Circle,PA,15601
Petco,Whitehall,1845,1845,2621 Macarthur Road,PA,18052
Petco,Plymouth,1849,1849,216 Colony Place,MA,2360
Petco,Cherry Hill,1851,1851,2230 Marlton Pike West Suite 3,NJ,8002
Petco,Royersford,1852,1852,1844 East Ridge Pike,PA,19468
Petco,Exton,1853,1853,125 West Lincoln Highway,PA,19341
Petco,Parsippany,1854,1854,1111 Route 46 East,NJ,7054
Petco,Phillipsburg,1855,1855,1209 New Brunswick Avenue,NJ,8865
Petco,Falmouth,1856,1856,35 Davis Straits,MA,2540
Petco,Eatontown,1857,1857,303 Route 35 North,NJ,7724
Petco,Watertown,1858,1858,21851 Towne Center Drive,NY,13601
Petco,Milford,1859,1859,1401 Boston Post Road,CT,6460
Petco,Mansfield,1860,1860,280 School Street,MA,2048
Petco,Brooklyn,1862,1862,1610 Avenue Y,NY,11235
Petco,Williamsville,1863,1863,4401 Transit Road #600,NY,14221
Petco,Verona,1864,1864,339 Pompton Avenue,NJ,7044
Petco,Clifton,1865,1865,780 Route 3 West,NJ,7012
Petco,East Hanover,1866,1866,150 State Route 10,NJ,7936
Petco,Succasunna,1867,1867,275 State Route 10 East,NJ,7876
Petco,Topsham,1868,1868,131 Topsham Fair Mall Road #1,ME,4086
Petco,Windsor,1869,1869,1065 Kennedy Rd,CT,6095
Petco,North Dartmouth,1870,1870,473 State Road,MA,2747
Petco,Milford,1871,1871,210 Fortune Boulevard,MA,1757
Petco,Sewell,1872,1872,141 Tuckahoe Road,NJ,8080
Petco,Triadelphia,1873,1873,525 Cabela Dr,WV,26059
Petco,Walterboro,1874,1874,2098 Bell Highway,SC,29488
Petco,Brick,1876,1876,509 Route 70,NJ,8723
Petco,Danville,1877,1877,145 Holt Garrison Parkway,VA,24540
Petco,Clinton,1878,1878,7 Glenwood Road,CT,6413
Petco,Milton,1879,1879,13089 Highway 9 North,GA,30004
Petco,Halethorpe,1880,1880,3591 Washington Boulevard,MD,21227
Petco,Midlothian,1882,1882,349 Perimeter Drive,VA,23113
Petco,Chester,1883,1883,12633 Jefferson Davis Highway,VA,23831
Petco,Norfolk,1884,1884,5900 East Virginia Beach Boulevard,VA,23502
Petco,Willow Grove,1885,1885,2522 West Moreland Road,PA,19090
Petco,Bloomsburg,1886,1886,80 Plaza Drive,PA,17815
Petco,Harrisburg,1887,1887,5125 Jonestown Road,PA,17112
Petco,Butler,1888,1888,760 Butler Crossings,PA,16001
Petco,Ocean City,1889,1889,12641-310 Ocean Gateway,MD,21842
Petco,Mt. Pleasant,1890,1890,1501 Highway 17 North,SC,29464-3342
Petco,Mechanicsburg,1891,1891,6416 Carlisle Pike,PA,17050
Petco,Sterling,1892,1892,22000 Dulles Retail Plaza,VA,20166
Petco,Sumter,1893,1893,1265 Broad Street,SC,29150
Petco,Statesboro,1894,1894,359 Henry Boulevard,GA,30458
Petco,Reading,1895,1895,4607 Perkiomen Avenue,PA,19606
Petco,Stowe,1896,1896,240 Upland Square Drive,PA,19464
Petco,Hampton,1897,1897,26 Coliseum Crossing,VA,23666
Petco,Richmond,1898,1898,9051 Staples Mill Road,VA,23228
Petco,Normal,1901,1901,1700 East College Avenue,IL,61761
Petco,Lake Orion,1902,1902,4820 South Baldwin Road Suite 3B,MI,48359
Petco,Green Bay,1903,1903,2390 East Mason Street,WI,54302
Petco,Elmhurst,1904,1904,199 South Route 83,IL,60126
Petco,Westland,1905,1905,35725 Warren Road,MI,48185
Petco,Battle Creek,1906,1906,12765 Harper Village Drive #140,MI,49014
Petco,Rockford,1907,1907,6305 East State Street,IL,61108
Petco,Troy,1910,1910,1217 Coolidge Highway,MI,48084
Petco,Norton Shores,1911,1911,5239 Harvey Street,MI,49444
Petco,Mount Prospect,1913,1913,1018 Mount Prospect Plaza,IL,60056
Petco,Orland Park,1915,1915,15790 South La Grange Road,IL,60462
Petco,Peoria,1916,1916,801 West Lake Avenue,IL,61614
Petco,Alton,1918,1918,313 Homer M. Adams Parkway,IL,62002
Petco,Walker,1920,1920,3165 Alpine Avenue Suite G,MI,49544
Petco,Fairview Heights,1921,1921,6595 North Illinois,IL,62208
Petco,Granger,1922,1922,415 East University Drive,IN,46530
Petco,Germantown,1923,1923,N96 W18794 County Line Road,WI,53022
Petco,Delafield,1925,1925,2780 Heritage Drive,WI,53018
Petco,South Elgin,1926,1926,364 Randall Road,IL,60177
Petco,Oswego,1927,1927,3066 US Hwy 34,IL,60543
Petco,Brookfield,1928,1928,16095 West Bluemound Road,WI,53005
Petco,Greenfield,1929,1929,4950 South 76th Street,WI,53220
Petco,Lansing,1930,1930,510 Frandor Avenue,MI,48912
Petco,Holland,1931,1931,3424 West Shore Drive,MI,49424
Petco,Downers Grove,1932,1932,1400F 75th Street,IL,60516
Petco,Dekalb,1933,1933,2072 Sycamore Road,IL,60115
Petco,Kokomo,1935,1935,2140 East Boulevard,IN,46902
Petco,Algonquin,1936,1936,702 South Randall Road,IL,60102
Petco,Speedway,1937,1937,6020 Crawfordsville Road,IN,46224
Petco,Merrillville,1938,1938,2300 East 80th Avenue,IN,46410
Petco,Skokie,1940,1940,9645 Skokie Boulevard,IL,60077
Petco,Highland Park,1941,1941,1616 Deerfield Road,IL,60035
Petco,Vernon Hills,1942,1942,555 B East Townline Road,IL,60061
Petco,Sterling Heights,1944,1944,13701 Lakeside Circle,MI,48313
Petco,Boardman,1946,1946,317 Boardman Poland Road,OH,44512
Petco,Mentor,1948,1948,7721 Mentor Avenue,OH,44060
Petco,Toledo,1949,1949,5027 Monroe Street,OH,43623
Petco,Fort Wayne,1950,1950,315 East Coliseum Boulevard,IN,46805
Petco,Columbus,1951,1951,1337 North National Road,IN,47201
Petco,Calumet City,1952,1952,460 River Oaks West,IL,60409
Petco,Wooster,1953,1953,3790 Burbank Road,OH,44691
Petco,Shorewood,1954,1954,990 Brookforest Avenue,IL,60431
Petco,Chesterfield,1955,1955,50870 Gratiot Avenue,MI,48051
Petco,Beachwood,1957,1957,24001 Chagrin Boulevard,OH,44122
Petco,Macedonia,1958,1958,500 East Aurora Road Unit 20,OH,44056
Petco,Roseville,1959,1959,32074 Gratiot Avenue,MI,48066
Petco,Bloomingdale,1960,1960,412 West Army Trail Road,IL,60108
Petco,Middleburg Heights,1962,1962,6859 Pearl Road,OH,44130
Petco,Allen Park,1964,1964,23155 Outer Drive,MI,48101
Petco,Chicago,1965,1965,440 North Orleans Street,IL,60610
Petco,Sandusky,1966,1966,788 Crossings Road,OH,44870
Petco,Homewood,1967,1967,17930 Halsted Street,IL,60430
Petco,Bowling Green,1968,1968,1111 South Main Street #100,OH,43402
Petco,St Charles,1969,1969,3853 East Main Street,IL,60174
Petco,Flint,1971,1971,3559 Miller Road,MI,48507
Petco,Marion,1972,1972,200 McMahan Boulevard,OH,43302
Petco,Portage,1975,1975,6280 South Westnedge Avenue,MI,49002
Petco,Fairview Park,1976,1976,20980 Westgate Mall,OH,44126
Petco,Wadsworth,1977,1977,1052 Williams Reserve Boulevard,OH,44281
Petco,Canton,1978,1978,43465 Ford Road,MI,48187
Petco,Romeoville,1979,1979,369 South Weber Rd,IL,60446
Petco,Norridge,1980,1980,4161 North Harlem Avenue,IL,60706
Petco,Hillside,1981,1981,160 South Mannheim Road,IL,60162
Petco,Quincy,1982,1982,405 North 32nd Street,IL,62301
Petco,Chicago,1983,1983,11720 South Marshfield,IL,60643
Petco,Mchenry,1984,1984,2242 North Richmond Road,IL,60051
Petco,Arlington Heights,1986,1986,49 West Rand Road,IL,60004
Petco,Chicago,1987,1987,4840 North Pulaski Road,IL,60630
Petco,Chicago,1988,1988,6236 North Western Avenue,IL,60659
Petco,Soldotna,2120,2120,392 East Redoubt Street,AK,99669
Petco,Mission Viejo,2124,2124,27815 Santa Margarita Parkway,CA,92691
Petco,Sahuarita,2125,2125,18785 South I-19 Frontage Road,AZ,85614
Petco,Tucson,2146,2146,5625 East River Road,AZ,85750
Petco,San Diego,2150,2150,5667 Balboa Avenue,CA,92111
Petco,San Marcos,2151,2151,314 South Twin Oaks Valley Road,CA,92078
Petco,San Diego,2152,2152,1780 Garnet Avenue,CA,92109
Petco,San Diego,2153,2153,3625 Midway Drive,CA,92110
Petco,La Jolla,2155,2155,8843 Villa La Jolla Drive,CA,92037
Petco,San Diego,2156,2156,5664 Mission Center Road,CA,92108
Petco,Encinitas,2157,2157,260 North El Camino Real,CA,92024
Petco,San Diego,2158,2158,10537 4S Commons Drive,CA,92127
Petco,San Diego,2159,2159,12845 El Camino Real,CA,92130
Petco,La Mesa,2160,2160,8011 University Avenue,CA,91942
Petco,Highlands Ranch,2401,2401,1265 Sgt Jon Stiles Drive,CO,80129
Petco,Kyle,2402,2402,5100 Kyle Center Drive,TX,78640
Petco,Aurora,2403,2403,1350 South Ironton Street,CO,80012
Petco,Austin,2404,2404,3201 Bee Caves Road,TX,78746
Petco,Laredo,2405,2405,2450 Monarch Drive,TX,78045
Petco,Irving,2406,2406,4030 North MacArthur Boulevard,TX,75038
Petco,Frisco,2407,2407,15942 El Dorado Parkway,TX,75035
Petco,Coppell,2408,2408,106 North Denton Tap Road,TX,75019
Petco,Missouri City,2410,2410,10330 Highway 6 Suite H,TX,77459
Petco,Edinburg,2411,2411,317 East Trenton Road,TX,78539
Petco,Humble,2412,2412,9603 North Sam Houston Parkway East,TX,77396
Petco,Weslaco,2413,2413,821 East Expressway 83,TX,78596
Petco,Denver,2414,2414,7400 East Hampden Avenue,CO,80231
Petco,Arlington,2416,2416,2733 North Collins St. #117,TX,76006-7109
Petco,Houston,2417,2417,9151 Highway 6 South,TX,77083
Petco,Arlington,2418,2418,4001 West Green Oaks Blvd,TX,76016-4486
Petco,Gillette,2419,2419,2610 South Douglas Hwy #250,WY,82718-6469
Petco,Spring,2420,2420,21348 Kuykendahl Road,TX,77379
Petco,San Antonio,2421,2421,1211 Austin Hwy,TX,78209-4868
Petco,Colorado Springs,2422,2422,5020 North Nevada Avenue,CO,80918-8609
Petco,Corpus Christi,2423,2423,4101 U.S. Highway 77,TX,78410-4542
Petco,Denton,2424,2424,2640 West University Drive,TX,76201
Petco,Kingwood,2427,2427,810 Kingwood Drive,TX,77339
Petco,Oklahoma City,2430,2430,14120 North Pennsylvania Avenue,OK,73134
Petco,Houston,2431,2431,901 North Shepherd Drive,TX,77008
Petco,Pekin,2602,2602,3434 Court Street,IL,61554
Petco,Minot,2605,2605,3212 16th Street SW,ND,58702
Petco,California,2701,2701,45205 Worth Lane,MD,20619
Petco,Port Chester,2702,2702,10 Waterfront Place,NY,10573
Petco,Sanford,2703,2703,2201 WP Ball Boulevard,FL,32771
Petco,Lakeland,2704,2704,4139 US Highway 98 N,FL,33809
Petco,Warrenton,2705,2705,251 West Lee Highway Suite 617,VA,20186
Petco,Dedham,2706,2706,550 Providence Highway,MA,2026
Petco,Hanover,2707,2707,1775 Washington Street,MA,2339
Petco,Wilmington,2708,2708,4491 Kirkwood Highway,DE,19808
Petco,Lawrenceville,2709,2709,3371 US Highway 1,NJ,8648
Petco,Sarasota,2710,2710,3800 South Tamiami Trail Suite 20,FL,34239
Petco,Stuart,2711,2711,2353 South Federal Highway,FL,34994
Petco,Miami,2712,2712,18579 South Dixie Highway,FL,33157
Petco,Levittown,2713,2713,2965 Hempstead Turnpike,NY,11756
Petco,Brooklyn,2714,2714,2343 Utica Avenue,NY,11234
Petco,Kissimmee,2715,2715,3246 North John Young Parkway,FL,34741
Petco,Spartanburg,2716,2716,1931 East Main Street Suite D,SC,29307
Petco,Raleigh,2717,2717,7811 Alexander Promenade Place,NC,27617
Petco,Atlanta,2718,2718,1267 Caroline Street NE,GA,30307
Petco,Durham,2719,2719,8200 Renaissance Parkway Suite 1012,NC,27713
Petco,Durham,2720,2720,4011 Durham Chapel Hill Boulevard,NC,27707
Petco,Fort Myers,2721,2721,10020 Gulf Center Drive,FL,33913
Petco,Brandon,2722,2722,2434 West Brandon Boulevard,FL,33511
Petco,Port Charlotte,2723,2723,1808 Tamiami Trail #A,FL,33948
Petco,Glen Burnie,2724,2724,6631 Ritchie Highway,MD,21061
Petco,Wilmington,2726,2726,324 South College Road,NC,28403
Petco,Acworth,2727,2727,3372 Cobb Parkway NW #300,GA,30101
Petco,Poughkeepsie,2728,2728,1933 South Road,NY,12601
Petco,Peachtree City,2729,2729,1243 North Peachtree Parkway,GA,30269
Petco,Newport News,2730,2730,12551 Jefferson Avenue,VA,23602
Petco,Hagerstown,2731,2731,17235 Cole Road,MD,21740
Petco,Knightdale,2732,2732,1014 Shoppes At Midway Drive,NC,27545
Petco,The Villages,2733,2733,600 US Highway 441,FL,32159
Petco,Evans,2734,2734,4209 Washington Road,GA,30809
Petco,Naples,2735,2735,13585 Tamiami Trail North,FL,34110
Petco,Prince Frederick,2736,2736,940 Costley Way,MD,20678
Petco,Concord,2737,2737,8070 Concord Mills Boulevard,NC,28027
Petco,York County,2738,2738,6610-H Mooretown Road,VA,23188
Petco,La Plata,2739,2739,19 Shining Willow Way,MD,20646
Petco,Midlothian,2741,2741,13329 Rittenhouse Drive,VA,23112
Petco,Greenville,2742,2742,3270 N Pleasantburg Dr,SC,29609
Petco,Altamonte Springs,2743,2743,375 East Altamonte Drive Suite 1500,FL,32701
Petco,North Miami Beach,2744,2744,14601 Biscayne Boulevard,FL,33181
Petco,Orange City,2745,2745,921 Harley Strickland Boulevard,FL,32763
Petco,Winchester,2746,2746,370 Gateway Drive #5,VA,22603
Petco,Ranson,2748,2748,217 Oak Lee Drive,WV,25438
Petco,Kernersville,2750,2750,1080 South Main Street,NC,27284
Petco,Raleigh,2754,2754,6231 Triangle Plantation Drive,NC,27616
Petco,Bluffton,2756,2756,1007 Fording Island Road,SC,29910
Petco,Fredericksburg,2757,2757,5717 Plank Road,VA,22407
Petco,Front Royal,2758,2758,135 Crooked Run Plaza #10,VA,22630
Petco,Columbus,2759,2759,5550 Whittlesey Boulevard Suite 100,GA,31909
Petco,Mooresville,2760,2760,611 River Highway,NC,28117
Petco,Port St. Lucie,2761,2761,1753 North West Saint Lucie West Boulevard,FL,34986
Petco,Glen Allen,2763,2763,11331 West Broad Street,VA,23060
Petco,Cumming,2764,2764,2345 Market Place Boulevard,GA,30041
Petco,Wellington,2765,2765,920 S State Road 7,FL,33414
Petco,Sebring,2766,2766,1704 US 27 North,FL,33870
Petco,Titusville,2767,2767,3055 Columbia Boulevard #117,FL,32780
Petco,Brooksville,2768,2768,7223 Coastal Boulevard,FL,34613
Petco,Huntersville,2769,2769,10017 Biddick Lane,NC,28078
Petco,Clinton,2770,2770,8909 Branch Avenue Unit D,MD,20735
Petco,Staten Island,2771,2771,2750 Veterans Road West,NY,10309
Petco,Yulee,2772,2772,463713 State Road 200,FL,32097
Petco,Rocky Mount,2773,2773,1100 North Wesleyan Boulevard,NC,27804
Petco,Odessa,2774,2774,16248 State Road 54,FL,33556
Petco,North Andover,2775,2775,790 Waverly Road,MA,1845
Petco,Wareham,2776,2776,2421 Cranberry Highway,MA,2571
Petco,Vero Beach,2777,2777,5975 20th Street,FL,32966
Petco,Hickory,2778,2778,2239 US Highway 70 SE,NC,28602
Petco,College Point,2779,2779,13311 20th Avenue,NY,11356
Petco,Ocala,2780,2780,4475 SW 40th Avenue,FL,34474
Petco,Johnson City,2781,2781,420 Harry L. Drive,NY,13790
Petco,Muncy,2782,2782,320 South Lycoming Mall Road,PA,17756
Petco,Fort Myers,2783,2783,9380 Dynasty Drive,FL,33905
Petco,Auburn,2784,2784,1622 Clark Street Road,NY,13021
Petco,Hampton Bays,2785,2785,180 West Montauk Highway,NY,11946
Petco,Auburn,2786,2786,101 Mount Auburn Avenue,ME,4210
Petco,Batavia,2787,2787,4226 Veterans Memorial Drive,NY,14020
Petco,Pinellas Park,2788,2788,7050 US Highway 19 North,FL,33781
Petco,Jacksonville,2789,2789,11111 San Jose Boulevard,FL,32223
Petco,Canandaigua,2790,2790,324 Eastern Boulevard,NY,14424
Petco,Lisbon,2791,2791,160 River Road,CT,6351
Petco,North Haven,2793,2793,390 Universal Drive North,CT,6473
Petco,Totowa,2794,2794,1 US Highway 46,NJ,7512
Petco,Hudson,2795,2795,205 Washington Street,MA,1749
Petco,Dubois,2797,2797,220 Commons Drive,PA,15801
Petco,Clermont,2799,2799,2561 East Highway 50,FL,34711
Petco,Kinnelon,2801,2801,1483 Route 23 #14B,NJ,7405
Petco,Warren,2802,2802,28400 Dequindre Road,MI,48092
Petco,Strongsville,2803,2803,16710 Royalton Road,OH,44136
Petco,Union,2804,2804,2698 Route 22 East,NJ,7083
Petco,Lanham,2805,2805,2250 Petrie Lane,MD,20706
Petco,King Of Prussia,2806,2806,197 East Dekalb Pike #350,PA,19406
Petco,Avon,2807,2807,35860 Chester Road,OH,44011
Petco,Gambrills,2808,2808,1412 South Main Chapel Way,MD,21054
Petco,Roanoke,2809,2809,630 Brandon Avenue SW,VA,24015
Petco,Virginia Beach,2810,2810,4540 Princess Anne Road,VA,23462
Petco,Annandale,2811,2811,7434 Little River Turnpike,VA,22003
Petco,Richmond,2813,2813,9700 Midlothian Turnpike,VA,23235
Petco,York,2814,2814,2420 Eastern Boulevard,PA,17402
Petco,Frederick,2815,2815,1275 West Patrick Street,MD,21702
Petco,Middletown,2816,2816,1391 Route 35,NJ,7748
Petco,Lancaster,2817,2817,2350 Lincoln Highway East,PA,17602
Petco,Vienna,2818,2818,225A Maple Avenue East,VA,22180
Petco,Baltimore,2819,2819,6325 York Road,MD,21212
Petco,North East,2820,2820,97 North East Plaza,MD,21901
Petco,Centerville,2821,2821,231 East Alex Bell Road,OH,45459
Petco,Columbus,2822,2822,2705 Federated Boulevard,OH,43235
Petco,Westerville,2823,2823,565 South State Street,OH,43081
Petco,Upper Arlington,2824,2824,3096 Kingsdale Center,OH,43221
Petco,Blue Ash,2825,2825,9687 Kenwood Road,OH,45242
Petco,Oakwood,2826,2826,2322 Far Hills Avenue,OH,45419
Petco,Cincinnati,2827,2827,7769 Five Mile Road,OH,45230
Petco,Crescent Springs,2829,2829,2315 Buttermilk Crossing,KY,41017
Petco,Cincinnati,2830,2830,3880 South Paxton Road,OH,45209
Petco,Milford,2831,2831,1087 A & B State Route 28,OH,45150
Petco,Cincinnati,2832,2832,5453 North Bend Road,OH,45247
Petco,West Chester,2833,2833,8215 Highland Point Drive,OH,45069
Petco,Grove City,2834,2834,2132 Stringtown Road,OH,43123
Petco,Heath,2835,2835,597-2 Hebron Road,OH,43056
Petco,Cincinnati,2836,2836,12156 Montgomery Road,OH,45249
Petco,Cincinnati,2837,2837,8525 Winton Road,OH,45231
Petco,Reynoldsburg,2838,2838,2849 Taylor Road SW,OH,43068
Petco,Beavercreek,2839,2839,3251 Seajay Drive,OH,45430
Petco,Lewis Center,2840,2840,1317 Cameron Avenue,OH,43035
Petco,Fort Wright,2843,2843,3459 Valley Plaza Pkwy,KY,41017
Petco,Troy,2844,2844,1731 West Main Street,OH,45373
Petco,Clayton,2845,2845,7716 Hoke Road,OH,45315
Petco,Franklin,2846,2846,3464 Towne Boulevard,OH,45005
Petco,Virginia Beach,2849,2849,2133 Upton Drive Suite 114,VA,23454
Petco,Altoona,2851,2851,223 Park Hills Plaza,PA,16602
Petco,Allentown,2852,2852,4632 Broadway,PA,18104
Petco,Bethlehem,2853,2853,2920 Easton Avenue,PA,18017
Petco,Edwardsville,2854,2854,41 West Side Mall,PA,18704
Petco,Wytheville,2857,2857,235 Commonwealth Drive,VA,24382
Petco,Columbus,2859,2859,5030 North High Street,OH,43214
Petco,Philadelphia,2860,2860,8500 Henry Ave,PA,19128
Petco,Hermitage,2861,2861,1145 North Hermitage Road,PA,16148
Petco,Staunton,2862,2862,850 Statler Boulevard,VA,24401
Petco,West Chester,2863,2863,680 Downingtown Pike,PA,19380
Petco,Easton,2864,2864,3895 Dryland Way,PA,18045
Petco,Richmond,2866,2866,10 North Nansemond St #c,VA,23221-2725
Petco,Westminster,2867,2867,400 Englar Road,MD,21157-6185
Petco,Hackensack,2868,2868,450 Hackensack Avenue,NJ,7601
Petco,Gibsonia,2869,2869,5600 William Flynn Hwy,PA,15044
Petco,Livonia,2870,2870,29560 7 Mile Road,MI,48152
Petco,Burtonsville,2871,2871,15622 Old Columbia Pike,MD,20866
Petco,Kent,2872,2872,3975 Cascades Boulevard,OH,44240
Petco,Hamilton,2873,2873,1215-1309 Route 33,NJ,8690
Petco,Manassas,2874,2874,10055 Wellington Road,VA,20110
Petco,Washington,2875,2875,3100 14th Street,DC,20010
Petco,Williamsburg,2877,2877,4600 Casey Boulevard,VA,23188
Petco,Lynchburg,2879,2879,3901 Old Forest Road,VA,24501
Petco,Charleston,2880,2880,2714 Mountaineer Boulevard,WV,25309
Petco,Indiana,2881,2881,3100 Oakland Avenue,PA,15701
Petco,Barboursville,2882,2882,2080 Thundering Herd Drive,WV,25504
Petco,Troy,2883,2883,1893 West Main Street,OH,45373
Petco,Solon,2884,2884,6025 Kruse Drive,OH,44139
Petco,Detroit,2885,2885,2005 West 8 Mile Road,MI,48203
Petco,Paoli,2886,2886,82 East Lancaster Avenue,PA,19301
Petco,Fairfield,2888,2888,675 Deis Drive,OH,45014
Petco,Port Richey,3701,3701,9638 US Highway 19 North,FL,34668
Petco,Dayville,3703,3703,1086 Killingly Commons,CT,6241
Petco,Cranston,3705,3705,10 Chapel View Boulevard B-3A,RI,2920
Petco,Portsmouth,3706,3706,1465 Woodbury Avenue,NH,3801
Petco,Rocky Point,3707,3707,346 Route 25a,NY,11778-8427
Petco,Franklin Sq,3708,3708,710 Franklin Avenue,NY,11010
Petco,Amherst,3709,3709,123 Route 101A #B,NH,3031
Petco,Brooklyn,3711,3711,2601 86th Street,NY,11223
Petco,Plaistow,3712,3712,4 Plaistow Road,NH,3865
Petco,New York,3713,3713,1280 Lexington Avenue,NY,10028
Petco,Lake Grove,3714,3714,140 New Moriches Road,NY,11755
Petco,Swampscott,3715,3715,419 Paradise Road,MA,1907
Petco,Dover,3716,3716,877 Central Avenue,NH,3820
Petco,Warwick,3717,3717,300 Quaker Lane,RI,2886
Petco,Hamden,3718,3718,2335 Dixwell Ave #H2,CT,6514
Petco,Larchmont,3719,3719,1275 Boston Post Road,NY,10538
Petco,Mount Kisco,3720,3720,360 North Bedford Road,NY,10549
Petco,New York,3721,3721,805 Columbus Avenue,NY,10025
Petco,Gloucester,3722,3722,341 Gloucester Crossing,MA,1930
Petco,Staten Island,3726,3726,2795 Richmond Avenue,NY,10314
Petco,Fairfield,3727,3727,340 Grasmere Avenue,CT,6824
Petco,Mansfield,3728,3728,86 Storrs Road,CT,6250
Petco,Queensbury,3729,3729,756 Upper Glen Street,NY,12804
Petco,Glastonbury,3730,3730,13 Welles Street,CT,06033-2047
Petco,Seaford,3731,3731,22966 Sussex Highway,DE,19973
Petco,Hadley,3732,3732,458 Russell Street #2,MA,1035
Petco,Barre,3733,3733,168 Ames Drive,VT,05641-2373
Petco,Manchester,3735,3735,101 Hale Road,CT,6042
Petco,Wantagh,3738,3738,1141 Wantagh Ave,NY,11793-2135
Petco,Bennington,3740,3740,214 Northside Drive,VT,5201
Petco,Huntington,3742,3742,765 New York Avenue,NY,11743
Petco,Danbury,3743,3743,5-B Sugar Hollow Road,CT,6810
Petco,Oneonta,3744,3744,5006 State Highway 23,NY,13820
Petco,Westford,3745,3745,82 Boston Road,MA,1886
Petco,Oceanside,3747,3747,2824 Long Beach Road,NY,11572
Petco,Latham,3749,3749,664 New Loudon Road,NY,12110
Petco,Bronx,3751,3751,193 West 237th Street,NY,10463
Petco,Pembroke,3753,3753,125 Church Street,MA,2359
Petco,Norwalk,3755,3755,650 Main Avenue,CT,6851
