Keywords,city,store_number,Agg store_number,address,state,zip_code
PetSmart,Rohnert Park,47,47 #47 047,575 Rohnert Park Expwy,CA,94928
PetSmart,Roseville,48,48 #48 048,318 N Sunrise Blvd,CA,95661
PetSmart,Rancho Cordova,49,49 #49 049,10830 Olson Dr,CA,95670
PetSmart,Sacramento,50,50 #50 050,1738 Watt Ave,CA,95825
PetSmart,Citrus Heights,52,52 #52 052,6434 Sunrise Blvd,CA,95610
PetSmart,Sacramento,53,53 #53 053,3641 Truxel Rd,CA,95834
PetSmart,Folsom,54,54 #54 054,2705 E Bidwell St,CA,95630
PetSmart,San Leandro,55,55 #55 055,15555 E 14th St,CA,94578
PetSmart,Pittsburg,56,56 #56 056,4655 Century Blvd,CA,94565
PetSmart,Dublin,59,59 #59 059,6960 Amador Plaza Rd,CA,94568
PetSmart,Antioch,60,60 #60 060,5879 Lone Tree Way,CA,94531
PetSmart,Concord,61,61 #61 061,1700 Willow Pass Rd,CA,94520
PetSmart,Daly City,63,63 #63 063,315 Gellert Blvd,CA,94015
PetSmart,Milpitas,70,70 #70 070,175 Ranch Dr,CA,95035
PetSmart,Campbell,71,71 #71 071,850 W Hamilton Ave,CA,95008
PetSmart,Gilroy,72,72 #72 072,6755 Camino Arroyo Bldg 5,CA,95020
PetSmart,Santa Cruz,73,73 #73 073,490 River St,CA,95060
PetSmart,Salinas,74,74 #74 074,1265 N Davis Rd,CA,93907
PetSmart,Sand City,75,75 #75 075,2020 California Ave,CA,93955
PetSmart,Santa Maria,76,76 #76 076,2306 S Bradley Rd,CA,93455
PetSmart,Modesto,81,81 #81 081,2100 Mc Henry Ave,CA,95350
PetSmart,Fresno,82,82 #82 082,3220 W Shaw Ave,CA,93711
PetSmart,Clovis,83,83 #83 083,470 Shaw Ave,CA,93612
PetSmart,Bakersfield,84,84 #84 084,2661 Oswell St,CA,93306
PetSmart,Bakersfield,86,86 #86 086,4100 Ming Ave,CA,93309
PetSmart,Victorville,87,87 #87 087,12624 Amargosa Rd,CA,92392
PetSmart,Fountain Valley,90,90 #90 090,17940 Newhope St,CA,92708
PetSmart,Lancaster,94,94 #94 094,44551 Valley Central Way,CA,93536
PetSmart,Signal Hill,96,96 #96 096,2550 Cherry Ave,CA,90755
PetSmart,Santa Ana,97,97 #97 097,2140 E 17th St,CA,92705
PetSmart,Yorba Linda,98,98 #98 098,5521 Mirage St,CA,92887
PetSmart,San Juan Capistrano,99,99 #99 099,33963 Doheny Park Rd,CA,92675
PetSmart,Stevenson Ranch,100,100 #100 0100,24965 Pico Canyon Rd,CA,91381
PetSmart,Torrance,101,101 #101 0101,3855-59 Sepulveda Blvd,CA,90505
PetSmart,Aliso Viejo,102,102 #102 0102,26761 Aliso Creek Rd,CA,92656
PetSmart,Westlake Village,103,103 #103 0103,5766 Lindero Canyon Rd,CA,91362
PetSmart,Alhambra,105,105 #105 0105,2568 W Commonwealth Ave,CA,91803
PetSmart,Pasadena,109,109 #109 0109,3347 E Foothill Blvd,CA,91107
PetSmart,Simi Valley,110,110 #110 0110,455 E Cochran St,CA,93065
PetSmart,Long Beach,112,112 #112 0112,7631 Carson Blvd.,CA,90808
PetSmart,Glendora,116,116 #116 0116,1301 E. Gladstone,CA,91740
PetSmart,Chino,123,123 #123 0123,11945 Central Ave,CA,91710
PetSmart,Corona,126,126 #126 0126,573 North Mckinley St,CA,92879
PetSmart,San Bernardino,127,127 #127 0127,595 E Hospitality Lane,CA,92408
PetSmart,Riverside,128,128 #128 0128,2828 Campus Pkwy,CA,92507
PetSmart,Murrieta,129,129 #129 0129,25290 Madison Ave,CA,92562
PetSmart,Scottsdale,130,130 #130 0130,16257 N Scottsdale Rd,AZ,85254
PetSmart,Phoenix,131,131 #131 0131,10825 N Tatum Blvd,AZ,85028
PetSmart,Phoenix,132,132 #132 0132,17035 N 7th Ave,AZ,85023
PetSmart,Phoenix,133,133 #133 0133,2901 W Agua Fria Fwy,AZ,85027
PetSmart,Mesa,135,135 #135 0135,1733 S Stapley Drive,AZ,85204
PetSmart,Oxnard,136,136 #136 0136,2021 N Oxnard Blvd,CA,93036
PetSmart,Tucson,137,137 #137 0137,7727 E Broadway Blvd,AZ,85710
PetSmart,Santa Fe,138,138 #138 0138,3561 Zafarano Dr,NM,87507
PetSmart,Chula Vista,139,139 #139 0139,820 Paseo Del Rey,CA,91910
PetSmart,San Diego,140,140 #140 0140,3396 Murphy Canyon Rd,CA,92123
PetSmart,Vista,141,141 #141 0141,1740 University Dr,CA,92083
PetSmart,El Cajon,142,142 #142 0142,865 Jackman St,CA,92020
PetSmart,San Diego,143,143 #143 0143,3610 Rosecrans St,CA,92110
PetSmart,Encinitas,144,144 #144 0144,1034 N El Camino Real,CA,92024
PetSmart,Prescott,145,145 #145 0145,277 N Walker Rd,AZ,86303
PetSmart,Las Vegas,146,146 #146 0146,2140 N Rainbow Blvd,NV,89108
PetSmart,Scottsdale,147,147 #147 0147,10030 N 90th St,AZ,85258
PetSmart,Henderson,148,148 #148 0148,531 N Stephanie St,NV,89014
PetSmart,Las Vegas,150,150 #150 0150,171 N Nellis Blvd,NV,89110
PetSmart,Las Vegas,152,152 #152 0152,1261 S Decatur Blvd,NV,89102
PetSmart,Mesa,154,154 #154 0154,6932 E Hampton Avenue,AZ,85209
PetSmart,Glendale,157,157 #157 0157,7290 W Bell Rd,AZ,85308
PetSmart,Tucson,164,164 #164 0164,4740 E Grant Ave,AZ,85712
PetSmart,Riverdale,166,166 #166 0166,1145 W Riverdale Rd,UT,84405
PetSmart,Salt Lake City,169,169 #169 0169,3191 E 3300 S,UT,84109
PetSmart,Orem,171,171 #171 0171,20 W University Pkwy,UT,84058
PetSmart,Salt Lake City,172,172 #172 0172,389 West 1830 S,UT,84115
PetSmart,Albuquerque,173,173 #173 0173,10248 Coors Bypass NW,NM,87114
PetSmart,Albuquerque,174,174 #174 0174,350 Eubank Blvd NE,NM,87123
PetSmart,Fort Worth,178,178 #178 0178,1300 Green Oaks,TX,76116
PetSmart,Plano,179,179 #179 0179,3300 N Central Expwy,TX,75074
PetSmart,Irving,181,181 #181 0181,4005 W Airport Fwy,TX,75062
PetSmart,Tyler,186,186 #186 0186,5610 S Broadway,TX,75703
PetSmart,Fort Worth,187,187 #187 0187,4800 SW Loop 820,TX,76109
PetSmart,Lubbock,188,188 #188 0188,6801 Slide Rd,TX,79424
PetSmart,Amarillo,189,189 #189 0189,2800 Soncy Rd,TX,79124
PetSmart,Hurst,190,190 #190 0190,860 N East Mall Dr,TX,76053
PetSmart,Midland,191,191 #191 0191,4206 West Loop 250,TX,79707
PetSmart,Cedar Park,192,192 #192 0192,11066 Pecan Park Blvd Ste 315,TX,78613
PetSmart,Austin,193,193 #193 0193,1628 Ohlen Rd,TX,78758
PetSmart,Round Rock,195,195 #195 0195,2601 S IH35,TX,78664
PetSmart,Corpus Christi,196,196 #196 0196,5214 Blanch Moore,TX,78411
PetSmart,Mcallen,197,197 #197 0197,420 E Expressway 83,TX,78503
PetSmart,Houston,198,198 #198 0198,5415 West Loop S,TX,77081
PetSmart,Houston,201,201 #201 0201,140 Fm 1960 E,TX,77073
PetSmart,Webster,203,203 #203 0203,1549 West Bay Area Blvd,TX,77598
PetSmart,Houston,204,204 #204 0204,19945 Katy Fwy,TX,77094
PetSmart,Waco,208,208 #208 0208,4600 Franklin Ave,TX,76710
PetSmart,San Antonio,209,209 #209 0209,6055 Lacima,TX,78229
PetSmart,San Antonio,210,210 #210 0210,12960 Park Central,TX,78216
PetSmart,San Antonio,211,211 #211 0211,8520 Four Winds Dr,TX,78239
PetSmart,El Paso,212,212 #212 0212,655 Sunland Park Dr,TX,79912
PetSmart,Norman,214,214 #214 0214,660 Ed Noble Pkwy,OK,73072
PetSmart,Oklahoma City,215,215 #215 0215,2932 Northwest 63rd St,OK,73116
PetSmart,Edmond,217,217 #217 0217,1921 S Broadway St,OK,73013
PetSmart,Tulsa,218,218 #218 0218,10117 E 71st St,OK,74133
PetSmart,Tulsa,219,219 #219 0219,5418 E 41st St,OK,74135
PetSmart,Littleton,220,220 #220 0220,8695 South Park Meadows Center Drive,CO,80124
PetSmart,Savannah,221,221 #221 0221,11132 Abercorn St,GA,31419
PetSmart,Wheat Ridge,228,228 #228 0228,3540 Youngfield St,CO,80033
PetSmart,Littleton,229,229 #229 0229,8222 S University Blvd.,CO,80122
PetSmart,Lakewood,230,230 #230 0230,160 Wadsworth Blvd,CO,80226
PetSmart,Denver,231,231 #231 0231,2780 South Colorado Blvd,CO,80222
PetSmart,Colorado Springs,232,232 #232 0232,571 N Academy,CO,80909
PetSmart,Colorado Springs,233,233 #233 0233,7680 N Academy Blvd,CO,80920
PetSmart,Pueblo,236,236 #236 0236,4230 N Freeway,CO,81008
PetSmart,Overland Park,237,237 #237 0237,11501 Metcalf Ave,KS,66210
PetSmart,Independence,238,238 #238 0238,4010 S Bolger Dr,MO,64055
PetSmart,Merriam,240,240 #240 0240,5810 Antioch,KS,66202
PetSmart,Olathe,241,241 #241 0241,15255 W 119th St,KS,66062
PetSmart,Shawnee Mission,242,242 #242 0242,15200 Shawnee Mission Pkwy,KS,66217
PetSmart,Kansas City,243,243 #243 0243,8500 N Evanston Rd,MO,64157
PetSmart,Topeka,244,244 #244 0244,2020 SW Westport Dr,KS,66604
PetSmart,Wichita,245,245 #245 0245,3615 N Rock Rd,KS,67226
PetSmart,Wichita,246,246 #246 0246,533 S Tracy St,KS,67209
PetSmart,Omaha,247,247 #247 0247,715 S 72nd St,NE,68114
PetSmart,Omaha,248,248 #248 0248,3103 Oak View Dr,NE,68144
PetSmart,Grand Junction,249,249 #249 0249,2428 F Rd,CO,81505
PetSmart,Lincoln,250,250 #250 0250,5200 N 27th St,NE,68521
PetSmart,Fort Collins,251,251 #251 0251,4432 S College Ave,CO,80525
PetSmart,Arvada,252,252 #252 0252,5285 Wadsworth Bypass,CO,80002
PetSmart,Northglenn,253,253 #253 0253,10600 Melody Dr,CO,80234
PetSmart,Saint Louis,255,255 #255 0255,62 Brentwood Promenade Center,MO,63144
PetSmart,O Fallon,256,256 #256 0256,1570 W US Highway 50,IL,62269
PetSmart,Saint Charles,257,257 #257 0257,2861 I-70 S Service Rd,MO,63303
PetSmart,Saint Louis,260,260 #260 0260,10900 Sunset Hills Plaza,MO,63127
PetSmart,Springfield,267,267 #267 0267,3500-S S Glenstone Ave,MO,65804
PetSmart,Chesterfield,268,268 #268 0268,262 THF Blvd,MO,63005
PetSmart,Joplin,269,269 #269 0269,520 Range Line Rd,MO,64801
PetSmart,O'Fallon,270,270 #270 0270,2242 Hwy K,MO,63368
PetSmart,Davenport,271,271 #271 0271,5235 Elmore Ave,IA,52807
PetSmart,Buford,273,273 #273 0273,1705 Mall of Georgia Blvd,GA,30519
PetSmart,Atlanta,275,275 #275 0275,650 Ponce De Leon Ave,GA,30308
PetSmart,Douglasville,276,276 #276 0276,2940 Chapel Hill Rd,GA,30135
PetSmart,Newnan,278,278 #278 0278,1072 Bullsboro Dr,GA,30265
PetSmart,Conyers,279,279 #279 0279,1370 Dogwood Dr SE,GA,30013
PetSmart,Lawrenceville,280,280 #280 0280,875 Lawrenceville-Suwanee Rd,GA,30043
PetSmart,Fayetteville,281,281 #281 0281,101 Pavilion Pkwy,GA,30214
PetSmart,Kennesaw,282,282 #282 0282,860 Cobb Place Blvd,GA,30144
PetSmart,Duluth,283,283 #283 0283,3803 Venture Dr,GA,30096
PetSmart,Lilburn,284,284 #284 0284,2150 Paxton Dr,GA,30047
PetSmart,Tucker,285,285 #285 0285,4023 Lavista Rd,GA,30084
PetSmart,Marietta,286,286 #286 0286,1285 Johnsons Ferry Rd,GA,30068
PetSmart,Atlanta,287,287 #287 0287,3221 Peachtree Rd,GA,30305
PetSmart,Morrow,288,288 #288 0288,1986 Mt Zion Rd,GA,30260
PetSmart,Alpharetta,289,289 #289 0289,6370 North Point Pkwy,GA,30022
PetSmart,Atlanta,290,290 #290 0290,128 Perimeter Center W,GA,30346
PetSmart,Smyrna,291,291 #291 0291,2540 Cumberland Blvd,GA,30080
PetSmart,Gainesville,292,292 #292 0292,842 Dawsonville Hwy,GA,30501
PetSmart,Augusta,293,293 #293 0293,225 Robert C Daniel Jr Pkwy,GA,30909
PetSmart,Columbus,294,294 #294 0294,1591 Bradley Park Dr,GA,31904
PetSmart,Bradenton,295,295 #295 0295,4425 14th St West,FL,34207
PetSmart,Sarasota,296,296 #296 0296,4942 S Tamiami Trail,FL,34231
PetSmart,Jacksonville,297,297 #297 0297,10261 River Marsh Dr Suite 143,FL,32246
PetSmart,Jacksonville,299,299 #299 0299,356 Monument Rd,FL,32225
PetSmart,Jacksonville,300,300 #300 0300,8801 Southside Blvd Ste 3,FL,32256
PetSmart,Gainesville,303,303 #303 0303,3736 SW Archer Rd,FL,32608
PetSmart,Ocala,304,304 #304 0304,3500 SW College Rd,FL,34474
PetSmart,Altamonte Springs,305,305 #305 0305,380 S State Rd 434,FL,32714
PetSmart,Casselberry,306,306 #306 0306,4510 S US Highway 17-92,FL,32707
PetSmart,Orlando,307,307 #307 0307,6134 E Colonial Dr,FL,32807
PetSmart,Lake Mary,308,308 #308 0308,4550 W Lake Mary Blvd,FL,32746
PetSmart,Orlando,309,309 #309 0309,8219 S John Young Pkwy,FL,32819
PetSmart,Orlando,310,310 #310 0310,731 N Alafaya Trail,FL,32828
PetSmart,Daytona Beach,311,311 #311 0311,1900 W International Speedway Blvd,FL,32114
PetSmart,Melbourne,313,313 #313 0313,1800 Evans Rd,FL,32904
PetSmart,Clearwater,315,315 #315 0315,26277 US Hwy 19 N,FL,33761
PetSmart,St Petersburg,317,317 #317 0317,3993 Tyrone Blvd,FL,33709
PetSmart,Brandon,318,318 #318 0318,1051 Brandon Blvd West,FL,33511
PetSmart,Tampa,319,319 #319 0319,12835 Citrus Plaza Dr,FL,33625
PetSmart,Brandon,320,320 #320 0320,11331 Causeway Blvd,FL,33511
PetSmart,Tampa,321,321 #321 0321,1540 N Dale Mabry Hwy,FL,33607
PetSmart,Trinity,322,322 #322 0322,2920 Little Rd,FL,34655
PetSmart,Naples,324,324 #324 0324,2255 Pine Ridge Rd,FL,34109
PetSmart,Tallahassee,326,326 #326 0326,3220 Capital Circle NE,FL,32308
PetSmart,Fort Myers,332,332 #332 0332,5013 S Cleveland Ave,FL,33907
PetSmart,Ocoee,334,334 #334 0334,9585 W Colonial Dr,FL,34761
PetSmart,Boca Raton,335,335 #335 0335,20861 State Rd 7,FL,33428
PetSmart,Boynton Beach,336,336 #336 0336,335 N Congress Ave,FL,33426
PetSmart,West Palm Beach,338,338 #338 0338,2505 Okeechobee Blvd,FL,33409
PetSmart,Stuart,339,339 #339 0339,2435 NW Federal Hwy,FL,34994
PetSmart,Pembroke Pines,343,343 #343 0343,11950 Pines Blvd,FL,33026
PetSmart,Hollywood,345,345 #345 0345,4101 Oakwood Blvd,FL,33020
PetSmart,Plantation,347,347 #347 0347,12051 W Sunrise Blvd,FL,33323
PetSmart,Miami,348,348 #348 0348,8241 W Flagler St Ste 101,FL,33144
PetSmart,Coral Springs,349,349 #349 0349,4151 Turtle Creek Dr,FL,33067
PetSmart,Miami,352,352 #352 0352,13621 S Dixie Hwy,FL,33176
PetSmart,Aventura,354,354 #354 0354,21095 Biscayne Blvd,FL,33180
PetSmart,Winchester,355,355 #355 0355,2310 Legge Blvd,VA,22601
PetSmart,Miami,356,356 #356 0356,14025 SW 88th St,FL,33186
PetSmart,Towson,357,357 #357 0357,1238 Putty Hill Ave,MD,21286
PetSmart,Bowie,358,358 #358 0358,4500 Mitchellville Rd,MD,20716
PetSmart,Annapolis,359,359 #359 0359,2601 Housley Rd,MD,21401
PetSmart,Glen Burnie,360,360 #360 0360,597-C E Ordnance Rd,MD,21060
PetSmart,Columbia,361,361 #361 0361,9041 Snowden Square Drive,MD,21045
PetSmart,Baltimore,362,362 #362 0362,9921 Pulaski Hwy,MD,21220
PetSmart,Germantown,363,363 #363 0363,20924 Frederick Rd,MD,20876
PetSmart,Bel Air,364,364 #364 0364,602 Boulton St,MD,21014
PetSmart,Glen Burnie,365,365 #365 0365,24 Mountain Rd,MD,21060
PetSmart,Catonsville,367,367 #367 0367,6501 C Baltimore National Pike,MD,21228
PetSmart,Dundalk,369,369 #369 0369,1559 Merritt Blvd,MD,21222
PetSmart,Lacey,371,371 #371 0371,719 Sleater-Kinney Rd SE,WA,98503
PetSmart,Lynnwood,372,372 #372 0372,18820 Hwy 99,WA,98036
PetSmart,Silverdale,373,373 #373 0373,9588 Ridgetop Blvd NW,WA,98383
PetSmart,Issaquah,374,374 #374 0374,1505 11th Ave NW,WA,98027
PetSmart,Seattle,375,375 #375 0375,13000 Aurora Ave N,WA,98133
PetSmart,Puyallup,376,376 #376 0376,120 31st Ave,WA,98374
PetSmart,Tukwila,377,377 #377 0377,17585 Southcenter Pkwy,WA,98188
PetSmart,Woodinville,378,378 #378 0378,17845 Garden Way NE,WA,98072
PetSmart,Tacoma,379,379 #379 0379,3326 S 23rd St,WA,98405
PetSmart,Spokane,381,381 #381 0381,9950 N Newport Hwy,WA,99218
PetSmart,Meridian,383,383 #383 0383,1220 Eagle Rd N,ID,83642
PetSmart,Beaverton,384,384 #384 0384,12375 SW Walker Rd,OR,97005
PetSmart,Portland,385,385 #385 0385,9450 SE 82nd Ave,OR,97086
PetSmart,Vancouver,386,386 #386 0386,7603 NE Vancouver Plaza Dr,WA,98662
PetSmart,Tigard,387,387 #387 0387,7501 Southwest Dartmouth St,OR,97223
PetSmart,Wilsonville,389,389 #389 0389,8315 SW Jack Burns Blvd.,OR,97070
PetSmart,Eugene,390,390 #390 0390,2847 Chad Dr,OR,97408
PetSmart,Missoula,391,391 #391 0391,2850 N Reserve,MT,59808
PetSmart,Salem,392,392 #392 0392,2925 Lancaster Dr NE,OR,97305
PetSmart,Billings,393,393 #393 0393,2510 King Ave West,MT,59102
PetSmart,Medford,394,394 #394 0394,3279 Crater Lake Hwy,OR,97504
PetSmart,Bellingham,395,395 #395 0395,4379 Meridian St,WA,98226
PetSmart,Union Gap,396,396 #396 0396,1403 E Washington Ave,WA,98903
PetSmart,Kennewick,398,398 #398 0398,6807 W Canal Dr,WA,99336
PetSmart,Columbia,399,399 #399 0399,246 Harbison Blvd,SC,29212
PetSmart,Greenville,400,400 #400 0400,2449 Laurens Rd,SC,29607
PetSmart,Spartanburg,401,401 #401 0401,150 E Blackstock Rd Ste A,SC,29301
PetSmart,Rock Hill,405,405 #405 0405,1110 Hospitality Dr,SC,29730
PetSmart,Charlotte,408,408 #408 0408,5401 S Blvd Ste 14,NC,28217
PetSmart,Gastonia,409,409 #409 0409,3698 E Franklin,NC,28056
PetSmart,Winston-Salem,411,411 #411 0411,950 Hanes Mall Blvd,NC,27103
PetSmart,Greensboro,412,412 #412 0412,1206 Bridford Pkwy,NC,27407
PetSmart,Greensboro,413,413 #413 0413,2641 Lawndale Dr,NC,27408
PetSmart,Winston-Salem,414,414 #414 0414,438 E Hanes Mill Rd,NC,27105
PetSmart,Fayetteville,415,415 #415 0415,2061 Skibo Rd,NC,28314
PetSmart,Jacksonville,416,416 #416 0416,1335 Western Blvd,NC,28546
PetSmart,Wilmington,417,417 #417 0417,4715 New Centre Dr,NC,28405
PetSmart,Hickory,418,418 #418 0418,1610 8th Street Dr SE,NC,28602
PetSmart,Broadview,420,420 #420 0420,500 Broadview Village Square,IL,60155
PetSmart,Bloomingdale,421,421 #421 0421,162 S Gary Ave,IL,60108
PetSmart,Darien,422,422 #422 0422,2153 75th St,IL,60561
PetSmart,Burbank,423,423 #423 0423,7730 S Cicero Ave,IL,60459
PetSmart,Orland Hills,425,425 #425 0425,9277 W 159th St,IL,60477
PetSmart,Aurora,426,426 #426 0426,976 N Route 59,IL,60504
PetSmart,Evanston,427,427 #427 0427,2221 Oakton Ave,IL,60202
PetSmart,Chicago,428,428 #428 0428,2665 N Elston Ave.,IL,60647
PetSmart,Geneva,429,429 #429 0429,1512 S Randall Rd,IL,60134
PetSmart,Northbrook,431,431 #431 0431,291 Skokie Blvd,IL,60062
PetSmart,Crestwood,432,432 #432 0432,4975 Cal Sag Rd,IL,60445
PetSmart,Joliet,434,434 #434 0434,2775 Plainfield Rd,IL,60435
PetSmart,Schaumburg,435,435 #435 0435,140 N Barrington Rd,IL,60194
PetSmart,Gurnee,436,436 #436 0436,6405 Grand Ave,IL,60031
PetSmart,Merrillville,437,437 #437 0437,2885 E 81st Ave,IN,46410
PetSmart,Fairfax,441,441 #441 0441,12971 Fair Lakes Cntr,VA,22033
PetSmart,Falls Church,442,442 #442 0442,6100 Arlington Blvd,VA,22044
PetSmart,Waldorf,443,443 #443 0443,3045 Festival Way,MD,20601
PetSmart,Fredericksburg,444,444 #444 0444,1421 Carl D Silver Pky,VA,22401
PetSmart,Springfield,446,446 #446 0446,6535 Frontier Dr,VA,22150
PetSmart,Alexandria,447,447 #447 0447,3351 Jefferson Davis Hwy,VA,22305
PetSmart,Kensington,449,449 #449 0449,5154 Nicholson Lane,MD,20895
PetSmart,Manassas,450,450 #450 0450,10834 Sudley Manor Dr,VA,20109
PetSmart,Woodbridge,451,451 #451 0451,13337 Worth Ave,VA,22192
PetSmart,Sterling,453,453 #453 0453,46220 Potomac Run Plaza,VA,20164
PetSmart,Oxon Hill,454,454 #454 0454,6005 Oxon Hill Road,MD,20745
PetSmart,Roswell,1048,1048 #1048 01048,625 Crossville Rd,GA,30075
PetSmart,Salisbury,456,456 #456 0456,105 E North Pointe Blvd,MD,21804
PetSmart,Hagerstown,457,457 #457 0457,17740 Garland Groh Blvd,MD,21740
PetSmart,Eden Prairie,458,458 #458 0458,11200 Prairie Lakes Dr,MN,55344
PetSmart,Richfield,459,459 #459 0459,1100 West 78th St,MN,55423
PetSmart,Minneapolis,460,460 #460 0460,1640 New Brighton Blvd,MN,55413
PetSmart,Maplewood,461,461 #461 0461,2370 White Bear Ave,MN,55109
PetSmart,Burnsville,462,462 #462 0462,14290 Plymouth Ave,MN,55337
PetSmart,Minneapolis,463,463 #463 0463,5640 Cedar Lake Rd,MN,55416
PetSmart,Plymouth,465,465 #465 0465,4190 Vinewood Lane,MN,55442
PetSmart,Woodbury,467,467 #467 0467,8460 Tamarack Village,MN,55125
PetSmart,Eagan,469,469 #469 0469,1297 Promenade Place,MN,55121
PetSmart,Waite Park,471,471 #471 0471,320 2nd St S,MN,56387
PetSmart,Coon Rapids,472,472 #472 0472,3589 River Rapids Dr,MN,55448
PetSmart,Chicago,476,476 #476 0476,6655 W Grand Ave,IL,60707
PetSmart,Crystal Lake,477,477 #477 0477,4465 US Highway 14,IL,60014
PetSmart,Glen Carbon,479,479 #479 0479,130 Junction Dr,IL,62034
PetSmart,Surrey,483,483 #483 0483,12101 72nd Ave,BC,V3W 2M1
PetSmart,Abbotsford,484,484 #484 0484,1305 Sumas Way,BC,V2S 7P5
PetSmart,Langley,485,485 #485 0485,20015 Langley Bypass,BC,V3A 8R6
PetSmart,Edmonton,486,486 #486 0486,3289 Calgary Trail NW,AB,T6J 5X8
PetSmart,Edmonton,487,487 #487 0487,9934 170th St NW,AB,T5T 6G7
PetSmart,Edmonton,488,488 #488 0488,13680 50th St NW,AB,T5A 4Y3
PetSmart,Calgary,490,490 #490 0490,321 61 Ave SW 7,AB,T2H 2W7
PetSmart,Champaign,491,491 #491 0491,2017 N Prospect Ave,IL,61822
PetSmart,Rockford,493,493 #493 0493,6320 E State St,IL,61108
PetSmart,Peoria,494,494 #494 0494,5001 Big Hollow Rd,IL,61615
PetSmart,Springfield,495,495 #495 0495,3183 S Veterans Pkwy,IL,62704
PetSmart,Evansville,502,502 #502 0502,215 N Burkhardt Rd,IN,47715
PetSmart,Bloomington,503,503 #503 0503,240 N Gates Dr,IN,47404
PetSmart,Carmel,504,504 #504 0504,14720 US 31 N,IN,46032
PetSmart,Anderson,505,505 #505 0505,4216 S Scatterfield Rd,IN,46013
PetSmart,Muncie,506,506 #506 0506,3450 N Morrison Rd,IN,47304
PetSmart,Mishawaka,507,507 #507 0507,4540 Grape Rd,IN,46545
PetSmart,Lafayette,508,508 #508 0508,3500 State Rd 38E,IN,47905
PetSmart,Plainfield,509,509 #509 0509,2677 E Main St,IN,46168
PetSmart,Castleton,510,510 #510 0510,5151 E 82nd St,IN,46250
PetSmart,Indianapolis,514,514 #514 0514,9749 E Washington St,IN,46229
PetSmart,Little Rock,516,516 #516 0516,11400 Financial Centre Pkwy,AR,72211
PetSmart,North Little Rock,517,517 #517 0517,3480 Landers Rd,AR,72117
PetSmart,Cuyahoga Falls,519,519 #519 0519,355 Howe Ave,OH,44221
PetSmart,Jackson,520,520 #520 0520,6333 N I-55,MS,39213
PetSmart,Fairlawn,521,521 #521 0521,3750 W Market St,OH,44333
PetSmart,North Canton,523,523 #523 0523,5465 Dressler Rd NW,OH,44720
PetSmart,Willoughby,526,526 #526 0526,36395 Euclid Ave,OH,44094
PetSmart,North Olmsted,529,529 #529 0529,26063 Great Northern Plaza,OH,44070
PetSmart,Mentor,531,531 #531 0531,9122 Mentor Ave,OH,44060
PetSmart,Parma,532,532 #532 0532,6870 Ridge Rd,OH,44129
PetSmart,Elyria,534,534 #534 0534,263 Midway Blvd,OH,44035
PetSmart,Springdale,535,535 #535 0535,11741 Princeton Pike,OH,45246
PetSmart,Cincinnati,536,536 #536 0536,2310 Ferguson Rd,OH,45238
PetSmart,Cincinnati,538,538 #538 0538,650 Eastgate South Blvd.,OH,45245
PetSmart,Cincinnati,539,539 #539 0539,10164 Colerain Ave,OH,45251
PetSmart,Columbus,547,547 #547 0547,5336 Westpointe Plaza Dr,OH,43228
PetSmart,Dublin,548,548 #548 0548,6010 Sawmill Rd,OH,43017
PetSmart,Columbus,550,550 #550 0550,3713 Easton Market,OH,43219
PetSmart,Huber Heights,553,553 #553 0553,8281 Old Troy Pike,OH,45424
PetSmart,Dayton,554,554 #554 0554,2500 N Fairfield Rd C,OH,45431
PetSmart,Erie,556,556 #556 0556,7451 Peach St,PA,16509
PetSmart,Niles,557,557 #557 0557,5812 Youngstown Warren Rd,OH,44446
PetSmart,Poland,558,558 #558 0558,1101 Doral Dr,OH,44514
PetSmart,North Wales,560,560 #560 0560,145 Witchwood Dr,PA,19454
PetSmart,Plymouth Meeting,562,562 #562 0562,2100 Chemical Rd,PA,19462
PetSmart,Downingtown,564,564 #564 0564,1010 E Lancaster Ave,PA,19335
PetSmart,West Berlin,567,567 #567 0567,215 Route 73 N,NJ,8091
PetSmart,Fairless Hills,568,568 #568 0568,220 Commerce Blvd,PA,19030
PetSmart,Broomall,570,570 #570 0570,2940 Springfield Rd,PA,19008
PetSmart,Warminster,572,572 #572 0572,934 W Street Rd,PA,18974
PetSmart,Philadelphia,573,573 #573 0573,4640-60 E Roosevelt Blvd,PA,19124
PetSmart,Moorestown,574,574 #574 0574,1331 Nixon Dr,NJ,8057
PetSmart,Cherry Hill,575,575 #575 0575,2135 Route 38 Ste B,NJ,8002
PetSmart,Mays Landing,576,576 #576 0576,420 Consumer Square,NJ,8330
PetSmart,Princeton,577,577 #577 0577,111 Nassau Park Blvd,NJ,8540
PetSmart,Dickson City,580,580 #580 0580,650 Commerce Blvd,PA,18519
PetSmart,Harrisburg,582,582 #582 0582,4200 Derry St,PA,17111
PetSmart,Mechanicsburg,583,583 #583 0583,5900 Carlisle Pike,PA,17050
PetSmart,Lancaster,584,584 #584 0584,1700 Fruitville Pike,PA,17601
PetSmart,Pittsburgh,586,586 #586 0586,420 Home Dr,PA,15275
PetSmart,Pittsburgh,588,588 #588 0588,1134 Northway Mall,PA,15237
PetSmart,Washington,589,589 #589 0589,327 Washington Rd,PA,15301
PetSmart,Greensburg,590,590 #590 0590,RD 6 Box 214,PA,15601
PetSmart,Cranberry TWP,591,591 #591 0591,1717 Route 228 Ste D,PA,16066
PetSmart,Monaca,593,593 #593 0593,115 Wagner Rd,PA,15061
PetSmart,Raleigh,594,594 #594 0594,2800 Millbrook Rd,NC,27604
PetSmart,Cary,595,595 #595 0595,2430 Walnut St,NC,27518
PetSmart,Raleigh,596,596 #596 0596,8111 Brier Creek Pkwy,NC,27617
PetSmart,Garner,597,597 #597 0597,2550 Timber Dr,NC,27529
PetSmart,Durham,598,598 #598 0598,1720 N Pointe Dr,NC,27705
PetSmart,Durham,600,600 #600 0600,3615 Witherspoon Blvd Suite #101,NC,27707
PetSmart,Grand Chute,601,601 #601 0601,923 N Westhill Blvd,WI,54914
PetSmart,Apex,602,602 #602 0602,1031 Beaver Creek Commons,NC,27502
PetSmart,Madison,604,604 #604 0604,2216 E Springs Dr,WI,53704
PetSmart,Madison,605,605 #605 0605,8210 Plaza Dr,WI,53719
PetSmart,Rocky Mount,609,609 #609 0609,1462 Jeffreys Rd,NC,27804
PetSmart,Greenville,610,610 #610 0610,600 Greenville Blvd SE,NC,27858
PetSmart,Plano,619,619 #619 0619,6204 W Park Blvd,TX,75093
PetSmart,Southlake,620,620 #620 0620,200 Village Center Dr,TX,76092
PetSmart,Dallas,622,622 #622 0622,12100 Inwood Rd,TX,75244
PetSmart,Mckinney,624,624 #624 0624,1751 N Central Expy,TX,75070
PetSmart,Hattiesburg,625,625 #625 0625,6143 Highway 98 Ste 50,MS,39402
PetSmart,Killeen,628,628 #628 0628,2500 E Central Texas Expy,TX,76543
PetSmart,Saltillo,629,629 #629 0629,1040 Cross Creek Dr,MS,38866
PetSmart,Sugar Land,631,631 #631 0631,16758 Southwest Fwy,TX,77479
PetSmart,Pasadena,632,632 #632 0632,5722 Fairmont Pkwy,TX,77505
PetSmart,Gulfport,633,633 #633 0633,15134 Crossroads Pkwy,MS,39503
PetSmart,Mobile,634,634 #634 0634,3980-J Airport Rd,AL,36608
PetSmart,Covington,635,635 #635 0635,45 Park Place Dr,LA,70433
PetSmart,Baton Rouge,637,637 #637 0637,8660 Airline Rd,LA,70815
PetSmart,Lafayette,638,638 #638 0638,5700 Johnston St Ste 100,LA,70503
PetSmart,Chattanooga,639,639 #639 0639,2130 Gunbarrel Rd,TN,37421
PetSmart,Knoxville,642,642 #642 0642,214 Morrell Rd,TN,37919
PetSmart,Jackson,643,643 #643 0643,635 Vann Dr,TN,38305
PetSmart,Hermitage,646,646 #646 0646,4642 Lebanon Pike,TN,37076
PetSmart,Clarksville,647,647 #647 0647,2784 Wilma Rudolph Blvd,TN,37040
PetSmart,Murfreesboro,648,648 #648 0648,1734 Old Fort Pkwy,TN,37129
PetSmart,Madison,649,649 #649 0649,2201 Gallatin Pike N,TN,37115
PetSmart,Nashville,650,650 #650 0650,719 Thompson Lane,TN,37204
PetSmart,Brentwood,651,651 #651 0651,8105 Moores Lane Ste 1300,TN,37027
PetSmart,Paducah,653,653 #653 0653,2929 James Sanders Blvd Ste F,KY,42001
PetSmart,Kingsport,654,654 #654 0654,2003 N Eastman Rd,TN,37660
PetSmart,Johnson City,655,655 #655 0655,3211 Peoples St,TN,37604
PetSmart,Lexington,656,656 #656 0656,1945 Pavillon Way,KY,40509
PetSmart,Newport News,667,667 #667 0667,12142 Jefferson Ave,VA,23602
PetSmart,Chesapeake,668,668 #668 0668,1236 Greenbrier Pkwy,VA,23320
PetSmart,Virginia Beach,670,670 #670 0670,3413 Virginia Beach Blvd,VA,23452
PetSmart,Charleston,671,671 #671 0671,73 RHL Blvd,WV,25309
PetSmart,Florence,672,672 #672 0672,1060 Hansel Ave,KY,41042
PetSmart,Colonial Heights,673,673 #673 0673,42 Southgate Square,VA,23834
PetSmart,Richmond,675,675 #675 0675,1276 Car Mia Way,VA,23235
PetSmart,Roanoke,677,677 #677 0677,4749 Valley View Blvd NW,VA,24012
PetSmart,Roseville,685,685 #685 0685,20530 Thirteen Mile Rd,MI,48066
PetSmart,Commerce Township,686,686 #686 0686,385 Haggerty Highway,MI,48390
PetSmart,Utica,687,687 #687 0687,45050 Northpointe Blvd,MI,48315
PetSmart,Northville,688,688 #688 0688,17677 Haggerty Rd,MI,48168
PetSmart,Taylor,689,689 #689 0689,23271 Eureka Rd,MI,48180
PetSmart,Dearborn,691,691 #691 0691,5650 Mercury Dr,MI,48126
PetSmart,Rochester Hills,694,694 #694 0694,1116 S Rochester Rd,MI,48307
PetSmart,Ann Arbor,695,695 #695 0695,2865 Oak Valley Dr,MI,48103
PetSmart,Chesterfield,700,700 #700 0700,51347 Gratiot Ave,MI,48051
PetSmart,Brighton,701,701 #701 0701,8537 W Grand River Ave,MI,48116
PetSmart,Flint,715,715 #715 0715,4061 Miller Rd,MI,48507
PetSmart,Grand Blanc,716,716 #716 0716,6260 Saginaw Rd,MI,48439
PetSmart,Kentwood,717,717 #717 0717,3950 28th St,MI,49512
PetSmart,Muskegon,718,718 #718 0718,1720 E Sherman Blvd,MI,49444
PetSmart,Saginaw,723,723 #723 0723,3431 Tittabawassee Rd,MI,48604
PetSmart,Okemos,724,724 #724 0724,5135 Times Square Place,MI,48864
PetSmart,Lansing,725,725 #725 0725,305 N Marketplace Blvd,MI,48917
PetSmart,Traverse City,727,727 #727 0727,2544 Crossing Circle,MI,49684
PetSmart,Plainville,729,729 #729 0729,278 New Britain Ave,CT,6062
PetSmart,Waterbury,733,733 #733 0733,475 Bank St,CT,6708
PetSmart,Albany,737,737 #737 0737,161 Washington Ave Extension,NY,12205
PetSmart,Latham,739,739 #739 0739,609 Troy Schenectady Rd,NY,12110
PetSmart,Rockaway,744,744 #744 0744,367 Mount Hope Ave,NJ,7866
PetSmart,Mohegan Lake,747,747 #747 0747,3131 E Main St,NY,10547
PetSmart,Bridgewater,748,748 #748 0748,145 Promenade Blvd,NJ,8807
PetSmart,Staten Island,753,753 #753 0753,1520 Forest Ave,NY,10302
PetSmart,Union,758,758 #758 0758,2438 Route 22 E,NJ,7083
PetSmart,West Long Branch,760,760 #760 0760,310 State Route 36,NJ,7764
PetSmart,Woodbridge,762,762 #762 0762,863 St George Ave,NJ,7095
PetSmart,Paramus,765,765 #765 0765,60 Route 17 North,NJ,7652
PetSmart,Watchung,766,766 #766 0766,1515 US Highway 22,NJ,7069
PetSmart,Buffalo,771,771 #771 0771,5061 Transit Rd,NY,14221
PetSmart,Amherst,772,772 #772 0772,1579 Niagara Falls Blvd,NY,14228
PetSmart,Greece,774,774 #774 0774,3042 West Ridge Rd,NY,14626
PetSmart,Henrietta,775,775 #775 0775,790 Jefferson Road Suite 200,NY,14623
PetSmart,Cheektowaga,776,776 #776 0776,1734 Walden Ave,NY,14225
PetSmart,Syracuse,779,779 #779 0779,3401 Erie Blvd E,NY,13214
PetSmart,Hyannis,781,781 #781 0781,1070 Iyannough Rd,MA,2601
PetSmart,Warwick,785,785 #785 0785,1276 Bald Hill Rd,RI,2886
PetSmart,Williston,787,787 #787 0787,21 Trader Lane,VT,5495
PetSmart,Garland,1109,1109 #1109 01109,5401 N Garland Ave,TX,75040
PetSmart,North Attleboro,789,789 #789 0789,1385 S Washington St,MA,2760
PetSmart,Braintree,790,790 #790 0790,250 Grossman Dr,MA,2184
PetSmart,Everett,791,791 #791 0791,5 Mystic View Rd,MA,2149
PetSmart,Danvers,792,792 #792 0792,104 Andover St,MA,1923
PetSmart,Bellingham,797,797 #797 0797,213 Hartford Ave,MA,2019
PetSmart,St Catharines,913,913 #913 0913,40 YMCA Dr,ON,L2N 7R6
PetSmart,Gloucester,914,914 #914 0914,1750 Innes Rd,ON,K1B 3K5
PetSmart,Nepean,915,915 #915 0915,1851 Merivale Rd,ON,K2G1000
PetSmart,Kingston,916,916 #916 0916,690 Gardiners Rd,ON,K7M 3X9
PetSmart,Barrie,917,917 #917 0917,33 Mapleview Drive West,ON,L4N 9H5
PetSmart,Ancaster,919,919 #919 0919,14 Martindale Crescent,ON,L9K 1J9
PetSmart,Windsor,923,923 #923 0923,4001 Legacy Park Drive,ON,N8W 5S6
PetSmart,London,924,924 #924 0924,86 Fanshawe Park Rd,ON,N5X 4C5
PetSmart,Whitby,934,934 #934 0934,1650 Victoria St E,ON,L1N 9L4
PetSmart,East York,935,935 #935 0935,835 Eglinton Ave E,ON,M4G 4G9
PetSmart,Colorado Springs,1002,1002 #1002 01002,2160 Southgate Rd,CO,80906
PetSmart,Oro Valley,1003,1003 #1003 01003,10625 N Oracle,AZ,85737
PetSmart,Tucson,1004,1004 #1004 01004,1175 W Irvington Rd,AZ,85714
PetSmart,Dothan,1005,1005 #1005 01005,3500 Ross Clark Circle,AL,36303
PetSmart,Silver Spring,1006,1006 #1006 01006,12020 Cherry Hill Rd,MD,20904
PetSmart,Sandy,1007,1007 #1007 01007,10329 S State St,UT,84070
PetSmart,Fort Wayne,1009,1009 #1009 01009,1760 Apple Glen Blvd,IN,46804
PetSmart,Midlothian,1010,1010 #1010 01010,12264 Chattanooga Plaza,VA,23112
PetSmart,Richmond,1011,1011 #1011 01011,5515 W Broad St,VA,23230
PetSmart,Phoenix,1013,1013 #1013 01013,3855 E Thomas Rd,AZ,85018
PetSmart,Greeley,1014,1014 #1014 01014,2833 35th Ave,CO,80634
PetSmart,Superior,1015,1015 #1015 01015,402 Center Dr,CO,80027
PetSmart,Chandler,1017,1017 #1017 01017,2840 W Chandler Blvd,AZ,85224
PetSmart,Lake Charles,1018,1018 #1018 01018,3130 E Prien Lake Rd,LA,70615
PetSmart,Alexandria,1019,1019 #1019 01019,2685 S MacArthur Dr,LA,71301
PetSmart,New Orleans,1023,1023 #1023 01023,1000 S Clearview Pkwy Ste 105,LA,70123
PetSmart,Las Vegas,1025,1025 #1025 01025,9775 W Charleston,NV,89117
PetSmart,Las Vegas,1026,1026 #1026 01026,9869 S Eastern Ave,NV,89123
PetSmart,N Las Vegas,1027,1027 #1027 01027,1321 W Craig Rd,NV,89032
PetSmart,San Antonio,1028,1028 #1028 01028,5219 De Zavala Rd,TX,78249
PetSmart,Woodstock,1029,1029 #1029 01029,142 Woodstock Square Ave,GA,30189
PetSmart,Lynchburg,1030,1030 #1030 01030,4026-B Wards Rd Ste C,VA,24502
PetSmart,Selma,1031,1031 #1031 01031,8278 Agora Pkwy,TX,78154
PetSmart,Aurora,1032,1032 #1032 01032,5520 S Parker Rd,CO,80015
PetSmart,Bozeman,1033,1033 #1033 01033,2997 Max Ave,MT,59718
PetSmart,Harvey,1034,1034 #1034 01034,1321 Manhattan Blvd,LA,70058
PetSmart,Gaithersburg,1035,1035 #1035 01035,218 Kentlands Blvd,MD,20878
PetSmart,Phoenix,1036,1036 #1036 01036,1949 E Camelback Rd,AZ,85016
PetSmart,Pensacola,1037,1037 #1037 01037,6251 N Davis Hwy,FL,32504
PetSmart,Warner Robins,1038,1038 #1038 01038,2730 Watson Rd,GA,31093
PetSmart,Phoenix,1039,1039 #1039 01039,21001 N Tatum Blvd,AZ,85050
PetSmart,Surprise,1040,1040 #1040 01040,13764 W Bell Rd,AZ,85374
PetSmart,Peoria,1041,1041 #1041 01041,9960 N 91st Ave,AZ,85345
PetSmart,Twin Falls,1042,1042 #1042 01042,1505 Blue Lakes Blvd N,ID,83301
PetSmart,Frisco,1043,1043 #1043 01043,3333 Preston Rd,TX,75034
PetSmart,Dallas,1044,1044 #1044 01044,16821 N Coit Rd,TX,75248
PetSmart,Houston,1045,1045 #1045 01045,13830 NW Fwy,TX,77040
PetSmart,Conroe,1046,1046 #1046 01046,19075 IH 45 South Ste 114,TX,77385
PetSmart,Greenfield,1631,1631 #1631 01631,5005 S 74th Street,WI,53220
PetSmart,Cumming,1049,1049 #1049 01049,1020 Market Place Blvd,GA,30041
PetSmart,Livonia,1050,1050 #1050 01050,13150 Middlebelt Rd,MI,48150
PetSmart,Glen Allen,1051,1051 #1051 01051,9870 Brook Rd,VA,23059
PetSmart,Huntsville,1053,1053 #1053 01053,6275 University Dr NW 35,AL,35806
PetSmart,Oviedo,1054,1054 #1054 01054,1115 Vidina Place,FL,32765
PetSmart,Logan,1056,1056 #1056 01056,1050 N Main St,UT,84341
PetSmart,Oklahoma City,1057,1057 #1057 01057,6327 SW 3rd St,OK,73127
PetSmart,Denton,1058,1058 #1058 01058,1441 S Loop 288,TX,76205
PetSmart,Saratoga Springs,1062,1062 #1062 01062,3033 Route 50,NY,12866
PetSmart,Aurora,1063,1063 #1063 01063,7355 Market Place Dr,OH,44202
PetSmart,Grandville,1064,1064 #1064 01064,4645 Canal Ave SW,MI,49418
PetSmart,Indianapolis,1065,1065 #1065 01065,7801 S US Hwy 31,IN,46227
PetSmart,Mesa,1066,1066 #1066 01066,6632 E McKellips Rd,AZ,85215
PetSmart,Oklahoma City,1067,1067 #1067 01067,2140 W Memorial Rd,OK,73134
PetSmart,Grand Prairie,1070,1070 #1070 01070,2309 West Interstate 20,TX,75052
PetSmart,Parker,1071,1071 #1071 01071,11183A S Parker Rd,CO,80134
PetSmart,Aurora,1072,1072 #1072 01072,40 S Abilene St,CO,80012
PetSmart,Williamsburg,1073,1073 #1073 01073,4900 Monticello Ave,VA,23188
PetSmart,McDonough,1074,1074 #1074 01074,1950 Jonesboro Rd,GA,30253
PetSmart,Hiram,1075,1075 #1075 01075,4794 Jimmy Lee Smith Pkwy Ste 108,GA,30141
PetSmart,Hanover,1076,1076 #1076 01076,7663 Arundel Mills Blvd.,MD,21076
PetSmart,Baton Rouge,1078,1078 #1078 01078,10527 S Mall Dr,LA,70809
PetSmart,College Station,1079,1079 #1079 01079,1505 University Dr East Suite 600,TX,77840
PetSmart,Visalia,1081,1081 #1081 01081,4240 S Mooney Blvd,CA,93277
PetSmart,Avondale,1082,1082 #1082 01082,1561 N Dysart Rd,AZ,85323
PetSmart,Littleton,1084,1084 #1084 01084,8440 S Kipling Pkwy,CO,80127
PetSmart,Largo,1085,1085 #1085 01085,10500 Ulmerton Rd,FL,33771
PetSmart,Royal Palm Beach,1086,1086 #1086 01086,531 N State Rd 7,FL,33411
PetSmart,Knoxville,1087,1087 #1087 01087,11134 Parkside Dr,TN,37934
PetSmart,Anderson,1089,1089 #1089 01089,3523 Clemson Blvd,SC,29621
PetSmart,Chino Hills,1092,1092 #1092 01092,13001 Peyton Dr,CA,91709
PetSmart,Mooresville,1095,1095 #1095 01095,590-G River Hwy,NC,28117
PetSmart,Huntsville,1096,1096 #1096 01096,2750 Carl T Jones Dr SE,AL,35802
PetSmart,Dover,1097,1097 #1097 01097,1390 N DuPont Hwy,DE,19901
PetSmart,Kingston,1098,1098 #1098 01098,501 N Frank Sottile Blvd,NY,12401
PetSmart,Phoenix,1099,1099 #1099 01099,10405 N 31st Ave.,AZ,85051
PetSmart,Houston,1100,1100 #1100 01100,7050 Hwy 6 N,TX,77095
PetSmart,Houston,1101,1101 #1101 01101,5941 E Sam Houston Pkwy N,TX,77049
PetSmart,Bolingbrook,1102,1102 #1102 01102,159 N Weber Rd,IL,60490
PetSmart,Wilmington,1103,1103 #1103 01103,3010 Brandywine Pkwy,DE,19803
PetSmart,Irving,1104,1104 #1104 01104,8100 Walton Blvd,TX,75063
PetSmart,Federal Way,1106,1106 #1106 01106,31705 Pacific Hwy S,WA,98003
PetSmart,Houston,1107,1107 #1107 01107,2902 S Shepherd Dr,TX,77098
PetSmart,Humble,1108,1108 #1108 01108,20518 Hwy 59,TX,77338
PetSmart,Frederick,455,455 #455 0455,5401 Urbana Pike,MD,21704
PetSmart,Burleson,1110,1110 #1110 01110,12930 South Freeway,TX,76028
PetSmart,Slidell,1111,1111 #1111 01111,61109 Airport Rd,LA,70460
PetSmart,Carson City,1113,1113 #1113 01113,250 Fairview Dr,NV,89701
PetSmart,Lakewood,1114,1114 #1114 01114,10210 59th Ave SW,WA,98499
PetSmart,Montgomery,1115,1115 #1115 01115,2510 Berryhill Rd,AL,36117
PetSmart,Louisville,1117,1117 #1117 01117,3580 S Hurstbourne Pkwy,KY,40299
PetSmart,Fayetteville,1119,1119 #1119 01119,3585 N Shiloh Dr,AR,72703
PetSmart,Phoenix,1120,1120 #1120 01120,1745 W Bethany Home Rd,AZ,85015
PetSmart,Pearland,1121,1121 #1121 01121,3119 Silverlake Village Dr,TX,77584
PetSmart,Watauga,1122,1122 #1122 01122,7616 Denton Hwy Ste 532,TX,76148
PetSmart,Florissant,1123,1123 #1123 01123,13927 New Halls Ferry Rd,MO,63033
PetSmart,Colorado Springs,1124,1124 #1124 01124,2965 New Center Point,CO,80922
PetSmart,Hillsboro,1125,1125 #1125 01125,889 NE 25th Ave,OR,97124
PetSmart,East Gwillimbury,1126,1126 #1126 01126,18126 Yonge St RR1,ON,L9N 0J3
PetSmart,Hoover,1127,1127 #1127 01127,3780 Riverchase Village Ste 300,AL,35244
PetSmart,Hoover,1128,1128 #1128 01128,5025 Hwy 280 Ste 105,AL,35242
PetSmart,East Point,1129,1129 #1129 01129,3665 Market Place Blvd,GA,30344
PetSmart,Longmont,1130,1130 #1130 01130,1125 S Hover Rd,CO,80501
PetSmart,Ankeny,1132,1132 #1132 01132,1715 SE Delaware Ave,IA,50021
PetSmart,Clive,1133,1133 #1133 01133,11101 University Ave Ste B,IA,50325
PetSmart,Saint Louis,1134,1134 #1134 01134,4451 Lemay Ferry Rd,MO,63129
PetSmart,Algonquin,1135,1135 #1135 01135,1808 S Randall Rd,IL,60102
PetSmart,Downers Grove,1136,1136 #1136 01136,1550 Butterfield Rd,IL,60515
PetSmart,Skokie,1139,1139 #1139 01139,5485 Touhy Ave,IL,60077
PetSmart,High Point,1140,1140 #1140 01140,265 Eastchester Dr 130,NC,27262
PetSmart,Clearwater,1141,1141 #1141 01141,2625 Gulf To Bay,FL,33759
PetSmart,Upland,1142,1142 #1142 01142,1935 N Campus Ave,CA,91784
PetSmart,Palmdale,1143,1143 #1143 01143,39523 S 10th St West,CA,93551
PetSmart,Ventura,1144,1144 #1144 01144,4840 Telephone Rd,CA,93003
PetSmart,Glendale,1145,1145 #1145 01145,5707 W Northern Ave,AZ,85301
PetSmart,Manalapan,1146,1146 #1146 01146,7 Route 9,NJ,7726
PetSmart,Toms River,1147,1147 #1147 01147,1232 Hooper Ave,NJ,8753
PetSmart,Hamilton,1148,1148 #1148 01148,170 Marketplace Blvd,NJ,8691
PetSmart,Valley Stream,1152,1152 #1152 01152,4 West Circle,NY,11581
PetSmart,Las Vegas,1153,1153 #1153 01153,5160 S Fort Apache Rd,NV,89148
PetSmart,Santee,1157,1157 #1157 01157,9896 Mission Gorge Rd,CA,92071
PetSmart,La Jolla,1158,1158 #1158 01158,8657 Villa La Jolla Dr,CA,92037
PetSmart,Costa Mesa,1161,1161 #1161 01161,620 West 17th St,CA,92627
PetSmart,Fontana,1162,1162 #1162 01162,15042 Summit Ave,CA,92336
PetSmart,Rancho Cucamonga,1163,1163 #1163 01163,10940 Foothill Blvd,CA,91730
PetSmart,Tracy,1164,1164 #1164 01164,2477 Naglee Rd,CA,95304
PetSmart,Salem,1166,1166 #1166 01166,290 S Broadway,NH,3079
PetSmart,Millbury,1167,1167 #1167 01167,70 Worcester Providence Turnpike Ste 240,MA,1527
PetSmart,Louisville,1168,1168 #1168 01168,10308 Westport Rd,KY,40241
PetSmart,St Petersburg,1169,1169 #1169 01169,7777 Dr Martin Luther King St N,FL,33702
PetSmart,Garner,1170,1170 #1170 01170,265 Shenstone Blvd,NC,27529
PetSmart,"Virginia Beach,",1171,1171 #1171 01171,4421 Virginia Beach Blvd,VA,23462
PetSmart,Norwalk,1173,1173 #1173 01173,525 Connecticut Ave,CT,6854
PetSmart,Stafford,1174,1174 #1174 01174,1160 Stafford Market Place,VA,22556
PetSmart,Metairie,1175,1175 #1175 01175,6851 Veterans Memorial Blvd,LA,70003
PetSmart,Manchester,1176,1176 #1176 01176,1520 Pleasant Valley Rd,CT,6042
PetSmart,Louisville,1177,1177 #1177 01177,4601 Outer Loop Rd,KY,40219
PetSmart,Wayne,1178,1178 #1178 01178,57 Route 23,NJ,7470
PetSmart,Middletown,1179,1179 #1179 01179,88-25 Dunning Rd,NY,10940
PetSmart,Chesapeake,1180,1180 #1180 01180,4300 Portsmouth Blvd Ste 270-A,VA,23321
PetSmart,Schaumburg,1181,1181 #1181 01181,1440 E Golf Rd,IL,60173
PetSmart,Largo,1182,1182 #1182 01182,10464 Campus Way South,MD,20774
PetSmart,Castle Rock,1183,1183 #1183 01183,4654 Milestone Ln,CO,80104
PetSmart,Roseville,1184,1184 #1184 01184,10363 Fairway Dr,CA,95678
PetSmart,Austin,1185,1185 #1185 01185,12901 N I-35 Bldg 7 Ste 700,TX,78753
PetSmart,Bluffton,1186,1186 #1186 01186,30 Malphrus Rd,SC,29910
PetSmart,Buena Park,1187,1187 #1187 01187,8331 La Palma Ave,CA,90620
PetSmart,Stockton,1188,1188 #1188 01188,10520 Trinity Pkwy,CA,95219
PetSmart,Machesney Park,1189,1189 #1189 01189,1526 West Lane Rd,IL,61115
PetSmart,Mesa,1190,1190 #1190 01190,4920 S Power Rd,AZ,85212
PetSmart,Chandler,1191,1191 #1191 01191,2860 E Germann Road,AZ,85286
PetSmart,Schenectady,1192,1192 #1192 01192,406 Balltown Rd,NY,12304
PetSmart,Ithaca,1193,1193 #1193 01193,742 S Meadow St,NY,14850
PetSmart,New Hartford,1194,1194 #1194 01194,4731 Commercial Dr,NY,13413
PetSmart,Tucson,1196,1196 #1196 01196,4374 N Oracle Rd,AZ,85705
PetSmart,Salem,1197,1197 #1197 01197,10 Traders Way,MA,1970
PetSmart,Temecula,1198,1198 #1198 01198,32413 Temecula Parkway,CA,92592
PetSmart,Denver,1199,1199 #1199 01199,7505 E 35th Ave,CO,80238
PetSmart,Calgary,1200,1200 #1200 01200,11694. Sarcee Trail NW,AB,T3R 0A1
PetSmart,Calgary,1201,1201 #1201 01201,3221 Sunridge Way NE 600,AB,T1Y 7M4
PetSmart,Edmonton,1202,1202 #1202 01202,13916 - 137 Ave,AB,T5L 5H1
PetSmart,Pickering,1205,1205 #1205 01205,"1899 Brock Rd, Unit 4",ON,L1V 4H7
PetSmart,Arden,1207,1207 #1207 01207,3 McKenna Rd,NC,28704
PetSmart,Asheville,1208,1208 #1208 01208,150 Bleachery Blvd.,NC,28805
PetSmart,Grove City,1209,1209 #1209 01209,1743 Stringtown Rd,OH,43123
PetSmart,York,1211,1211 #1211 01211,351 Loucks Rd,PA,17404
PetSmart,Wilkes Barre,1212,1212 #1212 01212,427 Arena Hub Plaza,PA,18702
PetSmart,Devon,1214,1214 #1214 01214,176 Swedesford Rd,PA,19333
PetSmart,Philadelphia,1215,1215 #1215 01215,11000 Roosevelt Blvd,PA,19116
PetSmart,Philadelphia,1216,1216 #1216 01216,2360 W Oregon Ave,PA,19145
PetSmart,Oceanside,1217,1217 #1217 01217,3420 Marron,CA,92056
PetSmart,Marlton,1218,1218 #1218 01218,315 West Route 70,NJ,8053
PetSmart,Mount Laurel,1219,1219 #1219 01219,62 Centerton Rd,NJ,8054
PetSmart,Newark,1220,1220 #1220 01220,1291 Churchmans Rd,DE,19713
PetSmart,Wyomissing,1221,1221 #1221 01221,1183 Berkshire Blvd,PA,19610
PetSmart,Whitehall,1222,1222 #1222 01222,2180 MacArthur Rd,PA,18052
PetSmart,Jenkintown,1223,1223 #1223 01223,901 Old York Rd,PA,19046
PetSmart,Turnersville,1224,1224 #1224 01224,5857 Route 42,NJ,8012
PetSmart,Woodbury,1225,1225 #1225 01225,2000 Clements Bridge Road,NJ,8096
PetSmart,Houston,1226,1226 #1226 01226,8230 Kirby Dr,TX,77054
PetSmart,Rancho Santa Margarita,1227,1227 #1227 01227,30515 Avenida De Las Flores,CA,92688
PetSmart,Fullerton,1228,1228 #1228 01228,1411 S Harbor Blvd,CA,92832
PetSmart,Downey,1229,1229 #1229 01229,12126 Lakewood Blvd,CA,90242
PetSmart,La Quinta,1230,1230 #1230 01230,79375 Hwy 111,CA,92253
PetSmart,Yuma,1231,1231 #1231 01231,1460 S Yuma Palms Pkwy,AZ,85365
PetSmart,Dallas,1232,1232 #1232 01232,5500 Greenville Ave,TX,75206
PetSmart,Austin,1233,1233 #1233 01233,9300 South IH-35,TX,78748
PetSmart,Saint Louis,1234,1234 #1234 01234,4621 Chippewa St,MO,63116
PetSmart,Flowood,1235,1235 #1235 01235,198 Promenade Blvd,MS,39232
PetSmart,Aiken,1236,1236 #1236 01236,2527 Whiskey Rd,SC,29803
PetSmart,Cincinnati,1237,1237 #1237 01237,3401 Alamo Ave,OH,45209
PetSmart,Columbus,1238,1238 #1238 01238,1184 Polaris Pkwy,OH,43240
PetSmart,Liverpool,1239,1239 #1239 01239,3865 State Route 31,NY,13090
PetSmart,Nanuet,1240,1240 #1240 01240,155 E Route 59,NY,10954
PetSmart,Addison,1242,1242 #1242 01242,3800 Belt Line Rd,TX,75001
PetSmart,Georgetown,1243,1243 #1243 01243,1013 W University Ave,TX,78628
PetSmart,Austin,1244,1244 #1244 01244,11150 Research Blvd Ste 100,TX,78759
PetSmart,Austin,1245,1245 #1245 01245,12812 Shops Parkway Ste 400,TX,78738
PetSmart,Gresham,1247,1247 #1247 01247,430 NW Eastman Pkwy,OR,97030
PetSmart,Vancouver,1248,1248 #1248 01248,130 SE 192nd Ave,WA,98683
PetSmart,Wake Forest,1249,1249 #1249 01249,11835 Retail Dr,NC,27587
PetSmart,Mt Pleasant,1250,1250 #1250 01250,676 Long Point Rd,SC,29464
PetSmart,Summerville,1251,1251 #1251 01251,470 Azalea Square Blvd,SC,29483
PetSmart,Charleston,1252,1252 #1252 01252,2076 Sam Rittenberg Boulevard,SC,29407
PetSmart,Estero,1255,1255 #1255 01255,"8006 Mediterranean Dr, Bldg 13",FL,33928
PetSmart,Canton,1258,1258 #1258 01258,1810 Cumming Highway,GA,30114
PetSmart,Acworth,1259,1259 #1259 01259,3335 Cobb Parkway NW Ste 400,GA,30101
PetSmart,Niles,1262,1262 #1262 01262,8287 W Golf Rd,IL,60714
PetSmart,Flagstaff,1263,1263 #1263 01263,1121 S Plaza Way,AZ,86001
PetSmart,Chandler,1264,1264 #1264 01264,855 N 54th St,AZ,85226
PetSmart,Tempe,1265,1265 #1265 01265,1900 E Rio Salado Pkwy,AZ,85281
PetSmart,Mesa,1266,1266 #1266 01266,1858 S Signal Butte Rd,AZ,85209
PetSmart,Peoria,1267,1267 #1267 01267,25372 N Lake Pleasant,AZ,85383
PetSmart,Buckeye,1268,1268 #1268 01268,466 S Watson Road,AZ,85326
PetSmart,Phoenix,1269,1269 #1269 01269,2475 E Baseline Road,AZ,85042
PetSmart,Scottsdale,1270,1270 #1270 01270,7077 E Mayo Blvd Ste 140,AZ,85054
PetSmart,Burlington,1273,1273 #1273 01273,1969 Market Place Dr,WA,98233
PetSmart,Everett,1274,1274 #1274 01274,1130 SE Everett Mall Way,WA,98208
PetSmart,Renton,1276,1276 #1276 01276,1203 N Landing Way,WA,98055
PetSmart,Marysville,1277,1277 #1277 01277,3723 116th St. NE,WA,98270
PetSmart,Rockwall,1278,1278 #1278 01278,931 E Interstate 30,TX,75087
PetSmart,Weatherford,1279,1279 #1279 01279,138 East Interstate Hwy 20,TX,76087
PetSmart,Fort Worth,1280,1280 #1280 01280,6572 Lake Worth Blvd,TX,76135
PetSmart,Fort Worth,1281,1281 #1281 01281,415 Carroll St,TX,76107
PetSmart,Flower Mound,1282,1282 #1282 01282,6060 Long Prairie,TX,75028
PetSmart,Columbia,1286,1286 #1286 01286,10136 Two Notch Rd Ste 109C,SC,29229
PetSmart,Plattsburgh,1290,1290 #1290 01290,67 Consumer Square,NY,12901
PetSmart,Lake Forest,1291,1291 #1291 01291,23602 El Toro Rd,CA,92630
PetSmart,Conway,1293,1293 #1293 01293,650 Elsinger,AR,72032
PetSmart,Texarkana,1294,1294 #1294 01294,117 Richmond Ranch Rd,TX,75503
PetSmart,Brockton,1295,1295 #1295 01295,607 Belmont St,MA,2301
PetSmart,Webster,1296,1296 #1296 01296,917 Holt Rd,NY,14580
PetSmart,Mansfield,1298,1298 #1298 01298,2275 Walker Lake Rd,OH,44903
PetSmart,Springfield,1299,1299 #1299 01299,1705 N Bechtle Ave,OH,45504
PetSmart,Greenville,1300,1300 #1300 01300,1125 Woodruff Rd Ste 900,SC,29607
PetSmart,Taylors,1301,1301 #1301 01301,6019 Wade Hampton Blvd.,SC,29687
PetSmart,Memphis,1302,1302 #1302 01302,7941 Winchester Rd,TN,38125
PetSmart,Memphis,1303,1303 #1303 01303,2805 Wolfcreek Parkway,TN,38133
PetSmart,Bend,1307,1307 #1307 01307,63455 N Hwy 97,OR,97701
PetSmart,Reno,1308,1308 #1308 01308,5110 Mae Anne Avenue,NV,89523
PetSmart,Loveland,1309,1309 #1309 01309,1715 Rocky Mountain Ave,CO,80538
PetSmart,Santa Clarita,1310,1310 #1310 01310,19059 Golden Valley Road,CA,91387
PetSmart,Thousand Oaks,1311,1311 #1311 01311,2685 W. Hillcrest Drive,CA,91320
PetSmart,Tustin,1314,1314 #1314 01314,2237 Park Avenue,CA,92782
PetSmart,El Segundo,1316,1316 #1316 01316,730 South Sepulveda Blvd,CA,90245
PetSmart,Brea,1319,1319 #1319 01319,2465 E Imperial Hwy,CA,92821
PetSmart,West Covina,1320,1320 #1320 01320,2350 S AZUSA AVE,CA,91792
PetSmart,Owasso,1322,1322 #1322 01322,9002 N 121 E Ave Ste 20,OK,74055
PetSmart,London,1324,1324 #1324 01324,1270 Wellington Rd,ON,N6E 1M3
PetSmart,Orlando,1325,1325 #1325 01325,3232 E. Colonial Drive,FL,32803
PetSmart,Mechanicsville,1328,1328 #1328 01328,7225 Bell Creek Rd Ste 228,VA,23111
PetSmart,Gainesville,1329,1329 #1329 01329,13241 Gateway Center Dr,VA,20155
PetSmart,Greenbelt,1330,1330 #1330 01330,7475 Greenbelt Rd,MD,20770
PetSmart,Monroeville,1331,1331 #1331 01331,3739 William Penn Hwy,PA,15146
PetSmart,Huntington Station,1332,1332 #1332 01332,350 Walt Whitman Rd,NY,11746
PetSmart,West Chester,1333,1333 #1333 01333,7574 Voice of America Dr,OH,45069
PetSmart,Birmingham,1334,1334 #1334 01334,5890 Trussville Crossings Blvd,AL,35235
PetSmart,Oxford,1335,1335 #1335 01335,70 Oxford Exchange Blvd,AL,36203
PetSmart,Destin,1336,1336 #1336 01336,34940 Emerald Coast Pkwy,FL,32541
PetSmart,Spanish Fort,1338,1338 #1338 01338,10200 Eastern Shore Blvd,AL,36527
PetSmart,Panama City,1339,1339 #1339 01339,849 E 23rd St,FL,32405
PetSmart,Fremont,1340,1340 #1340 01340,39410 Argonaut Way,CA,94538
PetSmart,Mira Loma,1341,1341 #1341 01341,12483 Limonite Ave,CA,91752
PetSmart,Reno,1342,1342 #1342 01342,6675 S Virginia St,NV,89511
PetSmart,Broomfield,1343,1343 #1343 01343,16575 Washington St,CO,80020
PetSmart,McAllen,1344,1344 #1344 01344,7600 N 10th St,TX,78504
PetSmart,Waterloo,1345,1345 #1345 01345,1506 Flammang Dr,IA,50702
PetSmart,Cedar Rapids,1346,1346 #1346 01346,4810 First Avenue NE,IA,52402
PetSmart,Burlington,1347,1347 #1347 01347,1200 Brant St,ON,L7P 5C6
PetSmart,Bethesda,1348,1348 #1348 01348,6800 Wisconsin Ave,MD,20815
PetSmart,Houma,1350,1350 #1350 01350,1743 Martin Luther King Jr Blvd,LA,70360
PetSmart,Abilene,1352,1352 #1352 01352,3501 Catclaw Dr,TX,79606
PetSmart,Alexandria,1353,1353 #1353 01353,7690 Richmond Hwy,VA,22306
PetSmart,Richmond,1354,1354 #1354 01354,11740 W Broad St Ste A,VA,23233
PetSmart,Plymouth,1355,1355 #1355 01355,88 Shops at 5 Way,MA,2360
PetSmart,Suwanee,1356,1356 #1356 01356,3630 Peachtree Pkwy,GA,30024
PetSmart,Midwest City,1357,1357 #1357 01357,7177 SE 29th Street,OK,73110
PetSmart,Houston,1358,1358 #1358 01358,17723 Tomball Pkwy,TX,77064
PetSmart,Elk Grove,1361,1361 #1361 01361,8215 Laguna Blvd,CA,95758
PetSmart,Lake Elsinore,1362,1362 #1362 01362,29227 Central Ave,CA,92532
PetSmart,Idaho Falls,1363,1363 #1363 01363,2410 S 25th E,ID,83404
PetSmart,Laurel,1364,1364 #1364 01364,13600 Baltimore Ave.,MD,20707
PetSmart,Augusta,1365,1365 #1365 01365,"14 Crossing Way, Suite 2",ME,4330
PetSmart,Biddeford,1366,1366 #1366 01366,208 Mariner Way,ME,4005
PetSmart,South Elgin,1371,1371 #1371 01371,428 Randall Rd,IL,60177
PetSmart,Hoffman Estates,1372,1372 #1372 01372,2590 N. Sutton Rd,IL,60192
PetSmart,Kildeer,1373,1373 #1373 01373,20771 N Rand Rd Bldg G,IL,60047
PetSmart,Schererville,1374,1374 #1374 01374,711 US Hwy 41,IN,46375
PetSmart,Countryside,1375,1375 #1375 01375,24 Countryside Plaza,IL,60525
PetSmart,Wheaton,1376,1376 #1376 01376,63 Rice Lake Square,IL,60187
PetSmart,McHenry,1377,1377 #1377 01377,3370 Shoppers Drive,IL,60050
PetSmart,Palm Springs,1380,1380 #1380 01380,5601 Ramon Rd E,CA,92264
PetSmart,Las Vegas,1381,1381 #1381 01381,6650 N Durango Dr,NV,89149
PetSmart,Spokane Valley,1382,1382 #1382 01382,15615 E Broadway Ave,WA,99037
PetSmart,W Valley City,1385,1385 #1385 01385,3061-A S 5600 W,UT,84120
PetSmart,Sheboygan Falls,1386,1386 #1386 01386,4013 State Hwy 28,WI,53085
PetSmart,Sudbury,1388,1388 #1388 01388,1399 Marcus Dr,ON,P3B 4K5
PetSmart,Westminster,1390,1390 #1390 01390,625 Baltimore Blvd,MD,21157
PetSmart,Canton,1391,1391 #1391 01391,41856 Ford Rd,MI,48187
PetSmart,Aberdeen,1392,1392 #1392 01392,11088 N US Hwy 15 501 Ste 600,NC,28315
PetSmart,American Fork,1393,1393 #1393 01393,990 W State Road,UT,84003
PetSmart,Las Vegas,1394,1394 #1394 01394,5915 S. Eastern Avenue,NV,89119
PetSmart,San Antonio,1395,1395 #1395 01395,119 Southwest Loop 410 Bldg 3,TX,78245
PetSmart,San Antonio,1396,1396 #1396 01396,5435 W TX-1604 Loop N,TX,78253
PetSmart,Yuba City,1398,1398 #1398 01398,865 Colusa Ave,CA,95991
PetSmart,Hemet,1399,1399 #1399 01399,2771 Florida Ave W,CA,92545
PetSmart,Kansas City,1401,1401 #1401 01401,8600 Ward Pkwy,MO,64114
PetSmart,Green Bay,1402,1402 #1402 01402,825 Pilgrim Way,WI,54304
PetSmart,Richmond Hill,1403,1403 #1403 01403,225 High Tech Road,ON,L4B 0A6
PetSmart,Red Deer,1404,1404 #1404 01404,5001 19th St,AB,T4R 3R1
PetSmart,Millville,1406,1406 #1406 01406,2100 North 2nd Street,NJ,8332
PetSmart,Coral Gables,1411,1411 #1411 01411,3301 Southwest 22nd Street,FL,33145
PetSmart,Miami,1412,1412 #1412 01412,"3101 N Miami Ave, Suite 110",FL,33127
PetSmart,Burlington,1413,1413 #1413 01413,1459 University Dr,NC,27215
PetSmart,Shreveport,1414,1414 #1414 01414,7061 Youree Dr,LA,71105
PetSmart,Wausau,1415,1415 #1415 01415,3601 Rib Mountain Dr,WI,54401
PetSmart,San Mateo,1416,1416 #1416 01416,3520 S El Camino Real,CA,94403
PetSmart,Howell,1417,1417 #1417 01417,4586 US Highway 9,NJ,7731
PetSmart,San Jose,1418,1418 #1418 01418,607 Coleman Ave,CA,95110
PetSmart,Vacaville,1419,1419 #1419 01419,1621 E Monte Vista Ave Ste B,CA,95688
PetSmart,Aurora,1421,1421 #1421 01421,7350 S Gartrell Rd,CO,80016
PetSmart,Cypress,1422,1422 #1422 01422,25829 NW Freeway,TX,77433
PetSmart,San Marcos,1423,1423 #1423 01423,"1050 McKinley Place Dr, Suite 30",TX,78666
PetSmart,Newburgh,1427,1427 #1427 01427,156 Old Ltl Britain Rd,NY,12550
PetSmart,Glen Mills,1428,1428 #1428 01428,800 Hatton Drive,PA,19342
PetSmart,South Bend,1430,1430 #1430 01430,"1290 E Ireland Rd, Bldg E",IN,46614
PetSmart,Kalamazoo,1431,1431 #1431 01431,5200 W Main St,MI,49009
PetSmart,Rossford,1433,1433 #1433 01433,27161 Crossroads Parkway,OH,43460
PetSmart,Holland,1434,1434 #1434 01434,1450 Spring Meadows Dr,OH,43528
PetSmart,Monroe,1436,1436 #1436 01436,2875 West Highway 74,NC,28110
PetSmart,Jacksonville,1438,1438 #1438 01438,13141 City Station Dr,FL,32218
PetSmart,Charlottesville,1439,1439 #1439 01439,101 Community St,VA,22911
PetSmart,Port St Lucie,1441,1441 #1441 01441,10540 SW Village Parkway,FL,34953
PetSmart,Valdosta,1442,1442 #1442 01442,1700 Norman Dr Ste 200,GA,31601
PetSmart,Medina,1443,1443 #1443 01443,5011 Grande Blvd,OH,44256
PetSmart,Levittown,1446,1446 #1446 01446,3545 Hempstead Tpke,NY,11756
PetSmart,Saskatoon,1447,1447 #1447 01447,1719 Preston Ave N,SK,S7N 4V2
PetSmart,Lancaster,1448,1448 #1448 01448,2395 Lincoln Highway,PA,17602
PetSmart,Victoria,1449,1449 #1449 01449,7812 NE Zac Lentz,TX,77904
PetSmart,Sioux City,1451,1451 #1451 01451,5001 Sergeant Rd,IA,51106
PetSmart,Huntington Beach,1452,1452 #1452 01452,7600 Edinger Ave,CA,92647
PetSmart,Culver City,1453,1453 #1453 01453,10900 W Jefferson Blvd,CA,90230
PetSmart,Hanford,1454,1454 #1454 01454,288 N 12th Ave,CA,93230
PetSmart,Clovis,1455,1455 #1455 01455,615 W Herndon,CA,93612
PetSmart,Sunnyvale,1456,1456 #1456 01456,770 E El Camino Real,CA,94087
PetSmart,Littleton,1457,1457 #1457 01457,8500 W Crestline Ave,CO,80123
PetSmart,Westminster,1458,1458 #1458 01458,10460 Town Center Dr,CO,80021
PetSmart,Lufkin,1460,1460 #1460 01460,1905 Tulane Dr Ste 101,TX,75901
PetSmart,Delran,1461,1461 #1461 01461,4004 Route 130,NJ,8075
PetSmart,Massillon,1464,1464 #1464 01464,2026 Lincoln Way East,OH,44646
PetSmart,Mayfield Heights,1465,1465 #1465 01465,1521 Golden Gate Plaza,OH,44124
PetSmart,Hamilton,1468,1468 #1468 01468,3439 Princeton Rd,OH,45011
PetSmart,Mason,1469,1469 #1469 01469,8175 Arbor Square Drive,OH,45040
PetSmart,Milford,1470,1470 #1470 01470,245 Rivers Edge,OH,45150
PetSmart,Noblesville,1473,1473 #1473 01473,17180 Mercantile Blvd,IN,46060
PetSmart,Indianapolis,1475,1475 #1475 01475,5750 West 86th Street,IN,46278
PetSmart,Terre Haute,1476,1476 #1476 01476,3680 S US Hwy 41,IN,47802
PetSmart,Burnbay,1477,1477 #1477 01477,5771 Marine Way,BC,V5J 0A6
PetSmart,Regina,1478,1478 #1478 01478,2810 E Quance St,SK,S4V 3B9
PetSmart,Newtown,1479,1479 #1479 01479,2600 South Eagle Road,PA,18940
PetSmart,Pottstown,1481,1481 #1481 01481,1112 Town Square Rd,PA,19465
PetSmart,Lutherville,1482,1482 #1482 01482,57 W Aylesbury Rd,MD,21093
PetSmart,Leesburg,1483,1483 #1483 01483,510 D East Market St,VA,20176
PetSmart,Chantilly,1484,1484 #1484 01484,13866 Metrotech Drive,VA,20151
PetSmart,Monmouth Junction,1485,1485 #1485 01485,4180 US Hwy 1,NJ,8852
PetSmart,Ocean,1486,1486 #1486 01486,2391 Route 66,NJ,7712
PetSmart,Secaucus,1487,1487 #1487 01487,400 Mill Creek Dr,NJ,7094
PetSmart,East Hanover,1488,1488 #1488 01488,190 Rt 10 West,NJ,7935
PetSmart,Albuquerque,1489,1489 #1489 01489,1424 Mercantile Ave NE,NM,87107
PetSmart,Nashua,1494,1494 #1494 01494,4 Cellu Dr,NH,3063
PetSmart,Las Cruces,1497,1497 #1497 01497,2200 E Lohman Ave,NM,88001
PetSmart,Chula Vista,1498,1498 #1498 01498,1840 Main Ct,CA,91911
PetSmart,Bismarck,1501,1501 #1501 01501,1211 W Century Ave,ND,58503
PetSmart,West Fargo,1502,1502 #1502 01502,1630 13th Avenue East,ND,58078
PetSmart,Sioux Falls,1503,1503 #1503 01503,2818 S. Louise Avenue,SD,57106
PetSmart,Rapid City,1504,1504 #1504 01504,925 Disk Drive,SD,57701
PetSmart,Fredericksburg,1505,1505 #1505 01505,9751 Jefferson Davis Hwy,VA,22407
PetSmart,Onalaska,1506,1506 #1506 01506,9342 State Highway 16,WI,54650
PetSmart,Concord,1508,1508 #1508 01508,6070 Bayfield Parkway,NC,28027
PetSmart,Charlotte,1509,1509 #1509 01509,14137 Rivergate Parkway,NC,28273
PetSmart,Charlotte,1510,1510 #1510 01510,10245 Perimeter Parkway,NC,28216
PetSmart,Charlotte,1511,1511 #1511 01511,9911 Rea Road,NC,28277
PetSmart,Omaha,1513,1513 #1513 01513,6220 N 73rd Plaza,NE,68134
PetSmart,Papillion,1514,1514 #1514 01514,7903 Towne Center Parkway,NE,68046
PetSmart,Lincoln,1515,1515 #1515 01515,2801 Pine Lake Road,NE,68516
PetSmart,Oklahoma City,1516,1516 #1516 01516,8357 N Rockwell Ave,OK,73132
PetSmart,Oklahoma City,1517,1517 #1517 01517,1417 W I-240 Service Rd,OK,73159
PetSmart,Nanaimo,1518,1518 #1518 01518,6950 Island Highway N,BC,V9V 1W3
PetSmart,Lawnside,1519,1519 #1519 01519,310 White Horse Pike North,NJ,8045
PetSmart,Carlisle,1521,1521 #1521 01521,248 Westminster Dr,PA,17013
PetSmart,Spanish Springs,1522,1522 #1522 01522,255 Los Altos Parkway,NV,89436
PetSmart,Flanders,1524,1524 #1524 01524,50 International Dr South,NJ,7836
PetSmart,Tarentum,1525,1525 #1525 01525,1015 Village Center Drive,PA,15084
PetSmart,Kendall,1526,1526 #1526 01526,16514 Southwest 88th Street,FL,33196
PetSmart,Myrtle Beach,1528,1528 #1528 01528,1301 Oak Forest Lane,SC,29577
PetSmart,Hixson,1529,1529 #1529 01529,5591 Hwy 153,TN,37343
PetSmart,Nashville,1530,1530 #1530 01530,6622 Charlotte Pike Suite 108,TN,37209
PetSmart,Beaverton,1532,1532 #1532 01532,8825 SW Cascade Avenue,OR,97008
PetSmart,Missouri City,1533,1533 #1533 01533,5740 Hwy 6,TX,77459
PetSmart,Conroe,1534,1534 #1534 01534,2900 I-45,TX,77303
PetSmart,Sherman,1536,1536 #1536 01536,3913 US Hwy 75 N,TX,75091
PetSmart,Norfolk,1541,1541 #1541 01541,1275 N Military Hwy,VA,23502
PetSmart,Nicholasville,1545,1545 #1545 01545,310 East Brannon Road,KY,40356
PetSmart,Victoria,1549,1549 #1549 01549,"2401 Millstream Rd, Unit 3",BC,V9B 3R5
PetSmart,Arlington,1550,1550 #1550 01550,150 Lincoln Square,TX,76011
PetSmart,Arlington,1551,1551 #1551 01551,203 E Interstate 20 East,TX,76018
PetSmart,Forsyth,1553,1553 #1553 01553,1460 Koester Dr,IL,62535
PetSmart,Harrisonburg,1554,1554 #1554 01554,1671 E Market St,VA,22801
PetSmart,Chambersburg,1556,1556 #1556 01556,971 Norland Avenue,PA,17201
PetSmart,Yonkers,1558,1558 #1558 01558,2458 Central Park Road,NY,10710
PetSmart,Zanesville,1559,1559 #1559 01559,3909 Gorsky Dr,OH,43701
PetSmart,Macon,1560,1560 #1560 01560,4551 Billy Williamson Drive,GA,31206
PetSmart,Mount Juliet,1561,1561 #1561 01561,401 South Mt Juliet Rd Suite 645,TN,37122
PetSmart,Rogers,1562,1562 #1562 01562,2203 Promenade Blvd,AR,72758
PetSmart,Hot Springs,1563,1563 #1563 01563,1430 Higdon Ferry Rd,AR,71913
PetSmart,Wichita Falls,1565,1565 #1565 01565,3201 W Lawrence Rd Ste D,TX,76308
PetSmart,Whittier,1566,1566 #1566 01566,15618 Whittwood Ln,CA,90603
PetSmart,Houston,1568,1568 #1568 01568,10075 Almeda Genoa Rd.,TX,77075
PetSmart,City of Industry,1569,1569 #1569 01569,21848 Valley Blvd,CA,91789
PetSmart,Rio Grande,1570,1570 #1570 01570,1500 Route 47,NJ,8242
PetSmart,Atlanta,1571,1571 #1571 01571,1801 Howell Mill Rd NW,GA,30318
PetSmart,East Hartford,1572,1572 #1572 01572,5 Main Street,CT,6118
PetSmart,Johnston,1574,1574 #1574 01574,1386 Atwood Ave,RI,2919
PetSmart,Mountain View,1575,1575 #1575 01575,2440 E Charleston Rd,CA,94043
PetSmart,Las Vegas,1576,1576 #1576 01576,7050 Arroyo Crossing Parkway,NV,89113
PetSmart,Brownsville,1577,1577 #1577 01577,585 Morrison Rd,TX,78520
PetSmart,Harlingen,1578,1578 #1578 01578,2317 W Lincoln,TX,78552
PetSmart,Stroudsburg,1579,1579 #1579 01579,400 Shoppes at Stroud,PA,18360
PetSmart,Syracuse,1580,1580 #1580 01580,3553 West Genesee,NY,13219
PetSmart,Glenmont,1581,1581 #1581 01581,241 Route 9W,NY,12077
PetSmart,Framingham,1582,1582 #1582 01582,1 Worcester Rd,MA,1701
PetSmart,Maple Grove,1585,1585 #1585 01585,11200 Fountains Dr North,MN,55369
PetSmart,Rensselaer,1589,1589 #1589 01589,279 Troy Road Ste 11,NY,12144
PetSmart,Decatur,1590,1590 #1590 01590,1241 Point Malard Parkway,AL,35601
PetSmart,Wilson,1591,1591 #1591 01591,3401 Raleigh Road Parkway West,NC,27896
PetSmart,Concord,1593,1593 #1593 01593,299 Loudon Rd,NH,3301
PetSmart,Danville,1594,1594 #1594 01594,"135 Collins Drive, Ste C",VA,24540
PetSmart,Temple,1596,1596 #1596 01596,3550 S General Bruce Drive,TX,76504
PetSmart,Rochester,1597,1597 #1597 01597,3845 Marketplace Dr NW,MN,55901
PetSmart,Albuquerque,1599,1599 #1599 01599,8070 Academy Road NE,NM,87111
PetSmart,Lincoln,1600,1600 #1600 01600,920 Groveland Lane,CA,95648
PetSmart,Manteca,1601,1601 #1601 01601,261 Spreckels Ave,CA,95336
PetSmart,Owings Mills,1606,1606 #1606 01606,9616 Reisterstown Rd Ste 325,MD,21117
PetSmart,Wesley Chapel,1609,1609 #1609 01609,6001 Wesley Grove Blvd.,FL,33544
PetSmart,Houston,1611,1611 #1611 01611,8380 Westheimer Rd,TX,77063
PetSmart,San Luis Obispo,1614,1614 #1614 01614,1530 Froom Ranch way,CA,93405
PetSmart,Uniontown,1616,1616 #1616 01616,116 Matthew Drive,PA,15401
PetSmart,Sicklerville,1617,1617 #1617 01617,467 Cross Keys Road,NJ,8081
PetSmart,Dayton,1618,1618 #1618 01618,4333 Feedwire Road,OH,45440
PetSmart,Dayton,1619,1619 #1619 01619,2028 Miamisburg Centerville Rd,OH,45459
PetSmart,Vancouver,1621,1621 #1621 01621,2860 Bentall Street,BC,V5M 4H4
PetSmart,Palm Desert,1624,1624 #1624 01624,34900 Monterey Ave,CA,92211
PetSmart,Clifton Park,1626,1626 #1626 01626,19 Clifton Country Rd,NY,12065
PetSmart,Sewell,1627,1627 #1627 01627,637 Woodbury Glassboro Road,NJ,8080
PetSmart,Brookfield,1630,1630 #1630 01630,585 Main Street,WI,53005
PetSmart,Nashua,788,788 #788 0788,213 Daniel Webster Hwy,NH,3060
PetSmart,Grafton,1632,1632 #1632 01632,1030 N Port Washington Road,WI,53024
PetSmart,Eau Claire,1633,1633 #1633 01633,4142 Commonwealth Avenue,WI,54701
PetSmart,Pleasant Prairie,1636,1636 #1636 01636,9887 76th st,WI,53158
PetSmart,Troy,1637,1637 #1637 01637,734 E Big Beaver Rd,MI,48083
PetSmart,Woodhaven,1638,1638 #1638 01638,23470 Allen Rd,MI,48183
PetSmart,Southfield,1639,1639 #1639 01639,28556 Telegraph Rd,MI,48034
PetSmart,Oswego,1640,1640 #1640 01640,350 5th Street,IL,60543
PetSmart,Tinley Park,1641,1641 #1641 01641,7340 West 191st Street,IL,60487
PetSmart,Tomball,1642,1642 #1642 01642,14420 FM 2920,TX,77377
PetSmart,Lebanon,1643,1643 #1643 01643,1125 Quentin Rd,PA,17042
PetSmart,Temple,1644,1644 #1644 01644,4210 5th Street Highway,PA,19560
PetSmart,Moore,1647,1647 #1647 01647,2100 S Service Road,OK,73160
PetSmart,Culpeper,1648,1648 #1648 01648,15331 Montanus Drive,VA,22701
PetSmart,Philadelphia,1649,1649 #1649 01649,7422 Bustleton Ave,PA,19152
PetSmart,Reston,1650,1650 #1650 01650,11860 Spectrum Center,VA,20190
PetSmart,Vestal,1651,1651 #1651 01651,3132 Vestal Parkway East,NY,13850
PetSmart,Prattville,1652,1652 #1652 01652,2718 Legends Parkway,AL,36066
PetSmart,Lauderhill,1654,1654 #1654 01654,7850 West Commercial Blvd,FL,33351
PetSmart,Mokena,1656,1656 #1656 01656,21430 Wolf Rd.,IL,60448
PetSmart,Chicago,1658,1658 #1658 01658,1101 South Canal Street,IL,60607
PetSmart,Yorkville,1659,1659 #1659 01659,985 Erica Lane,IL,60560
PetSmart,Tulsa,1661,1661 #1661 01661,7322 S Olympia Ave W,OK,74132
PetSmart,Lake Jackson,1662,1662 #1662 01662,104 E HWY 332 E,TX,77566
PetSmart,Quakertown,1669,1669 #1669 01669,620 North West End Boulevard,PA,18951
PetSmart,Selinsgrove,1670,1670 #1670 01670,270 Marketplace Blvd,PA,17870
PetSmart,Monroe,1672,1672 #1672 01672,128 Bailey Farm Road,NY,10950
PetSmart,Richmond Hill,1676,1676 #1676 01676,"1700 Elgin Mills Road East, Unit 1",ON,L4S 0B2
PetSmart,W Bloomfield,1677,1677 #1677 01677,7260 Orchard Lake Rd,MI,48322
PetSmart,Des Moines,1678,1678 #1678 01678,5050 SE 14th St,IA,50320
PetSmart,Winter Garden,1680,1680 #1680 01680,3077 Daniels Road,FL,34787
PetSmart,Palm Coast,1682,1682 #1682 01682,5270 East Highway 100,FL,32164
PetSmart,Lady Lake,1683,1683 #1683 01683,534 North US Highway 441,FL,32159
PetSmart,North Vancouver,1684,1684 #1684 01684,1325 Main Street,BC,V7J 3J7
PetSmart,Wentzville,1685,1685 #1685 01685,1846 Wentzville Parkway,MO,63385
PetSmart,Bridgeton,1686,1686 #1686 01686,12046 Paul Mayer Ave,MO,63044
PetSmart,Manchester,1687,1687 #1687 01687,131 Highland Boulevard Drive,MO,63011
PetSmart,Belton,1689,1689 #1689 01689,1157 E North Ave,MO,64012
PetSmart,San Carlos,1691,1691 #1691 01691,1225 Industrial Road,CA,94070
PetSmart,San Jose,1695,1695 #1695 01695,185 Curtner Avenue,CA,95125
PetSmart,Tualatin,1696,1696 #1696 01696,7029 SW Nyberg Street,OR,97062
PetSmart,Redding,1700,1700 #1700 01700,1336 Hilltop Dr,CA,96003
PetSmart,Merced,1701,1701 #1701 01701,1196 W Olive Ave,CA,95348
PetSmart,Dubuque,1702,1702 #1702 01702,1300 John F Kennedy Rd,IA,52002
PetSmart,Fond du Lac,1703,1703 #1703 01703,443 N Rolling Meadows Dr,WI,54937
PetSmart,Midland,1704,1704 #1704 01704,6910 Eastman Ave,MI,48642
PetSmart,Commack,1705,1705 #1705 01705,2160 Jericho Turnpike,NY,11725
PetSmart,Cambridge,1706,1706 #1706 01706,160 Alewife Brook Parkway,MA,2138
PetSmart,Vero Beach,1707,1707 #1707 01707,6590 20th Street,FL,32966
PetSmart,Tustin,1708,1708 #1708 01708,2741 El Camino Real,CA,92782
PetSmart,Goodyear,1712,1712 #1712 01712,555 S. Cotton Lane,AZ,85338
PetSmart,Casa Grande,1714,1714 #1714 01714,986 N. Mission Parkway,AZ,85194
PetSmart,Christiansburg,1716,1716 #1716 01716,165 Shoppers Way,VA,24073
PetSmart,Clarksville,1718,1718 #1718 01718,"1020 Veterans Pkwy, Ste 900",IN,47129
PetSmart,Monticello,1719,1719 #1719 01719,1425 7th St. E,MN,55362
PetSmart,Benton Harbor,1720,1720 #1720 01720,1042 Fairplan Drive,MI,49022
PetSmart,Monroe,1721,1721 #1721 01721,2347 N Telegraph Road,MI,48162
PetSmart,Alabaster,1725,1725 #1725 01725,100 South Colonial Drive,AL,35007
PetSmart,Alcoa,1726,1726 #1726 01726,219 Hamilton Crossing Drive,TN,37701
PetSmart,Euless,1728,1728 #1728 01728,2800 Highway 121,TX,76039
PetSmart,Dickinson,1729,1729 #1729 01729,1921 Gulf Freeway South,TX,77539
PetSmart,Brunswick,1731,1731 #1731 01731,150 Glynn Isle,GA,31525
PetSmart,McKinney,1732,1732 #1732 01732,8676 State Highway 121,TX,75070
PetSmart,Apple Valley,1733,1733 #1733 01733,19011 Bear Valley Road,CA,92308
PetSmart,Austin,1736,1736 #1736 01736,1201 Barbara Jordan Blvd,TX,78723
PetSmart,Sunset Valley,1737,1737 #1737 01737,5207 Brodie Lane,TX,78745
PetSmart,Ontario,1738,1738 #1738 01738,4120-B E 4th Street,CA,91764
PetSmart,Tampa,1740,1740 #1740 01740,6248 Commerce Palms Drive,FL,33647
PetSmart,Tampa,1741,1741 #1741 01741,11665 W Hillsborough Ave,FL,33635
PetSmart,Davenport,1742,1742 #1742 01742,2500 Posner Blvd,FL,33837
PetSmart,Leominster,1747,1747 #1747 01747,89 Commercial Road,MA,1453
PetSmart,Brampton,1748,1748 #1748 01748,9065 Airport Road,ON,L6S 0B8
PetSmart,El Paso,1750,1750 #1750 01750,1836 Joe Battle Blvd,TX,79936
PetSmart,Lexington,1751,1751 #1751 01751,5135U Sunset Boulevard,SC,29072
PetSmart,Easley,1752,1752 #1752 01752,139 Rolling Hills Cir.,SC,29640
PetSmart,Flowery Branch,1756,1756 #1756 01756,5873 Spout Springs Road,GA,30542
PetSmart,Peachtree City,1757,1757 #1757 01757,2701 W HWY 54,GA,30269
PetSmart,Bethlehem,1759,1759 #1759 01759,916 Loganville Hwy,GA,30620
PetSmart,Loganville,1760,1760 #1760 01760,4056 Atlanta Highway,GA,30052
PetSmart,Palmdale,1762,1762 #1762 01762,38147 47th St. E,CA,93552
PetSmart,Port Chester,1764,1764 #1764 01764,421 Boston Post Road,NY,10573
PetSmart,Magnolia,1765,1765 #1765 01765,32962 FM 2978 rd,TX,77354
PetSmart,Houston,1766,1766 #1766 01766,9718 Katy Freeway,TX,77055
PetSmart,Round Rock,1772,1772 #1772 01772,201 University Oaks Blvd,TX,78665
PetSmart,Richmond,1773,1773 #1773 01773,4531 South Laburnum Ave,VA,23231
PetSmart,Bristol,1774,1774 #1774 01774,16760 Highlands Center Blvd,VA,24202
PetSmart,Mesquite,1775,1775 #1775 01775,19175 Lyndon B Johnson Fwy,TX,75150
PetSmart,Allen,1779,1779 #1779 01779,170 E Stacy Road,TX,75002
PetSmart,Houston,1780,1780 #1780 01780,1907 Taylor St.,TX,77007
PetSmart,Taylorsville,1782,1782 #1782 01782,5748 S. Redwood Road,UT,84123
PetSmart,West Jordan,1784,1784 #1784 01784,7654 Campus View Drive,UT,84084
PetSmart,Glendale,1787,1787 #1787 01787,4300 E Alameda,CO,80246
PetSmart,Delavan,1788,1788 #1788 01788,2113 East Geneva Street,WI,53115
PetSmart,Pace,1793,1793 #1793 01793,4735 Highway 90,FL,32571
PetSmart,Tujunga,1796,1796 #1796 01796,6348 Foothill Blvd,CA,91042
PetSmart,Rochester Hills,1799,1799 #1799 01799,2724 South Adams Road,MI,48309
PetSmart,New London,1800,1800 #1800 01800,351 N. Frontage Road,CT,6320
PetSmart,Holmdel,1802,1802 #1802 01802,2101 State Route 35,NJ,7733
PetSmart,Springfield,1803,1803 #1803 01803,400 S. State Road,PA,19064
PetSmart,Springfield,1804,1804 #1804 01804,641 Baltimore Pike,PA,19064
PetSmart,DeKalb,1805,1805 #1805 01805,2512 Sycamore Road,IL,60115
PetSmart,Bossier City,1806,1806 #1806 01806,2631 Beene Blvd,LA,71111
PetSmart,Horseheads,1807,1807 #1807 01807,1450 County Route 64,NY,14845
PetSmart,Waynesboro,1808,1808 #1808 01808,821G Town Center Drive,VA,22980
PetSmart,Queen Creek,1809,1809 #1809 01809,21032 S. Ellsworth Loop Rd.,AZ,85142
PetSmart,Folsom,1812,1812 #1812 01812,2375 Iron Point Road,CA,95630
PetSmart,Buffalo,1813,1813 #1813 01813,2101 Elmwood,NY,14207
PetSmart,Orchard Park,1814,1814 #1814 01814,3425 Amelia Drive,NY,14127
PetSmart,Abingdon,1817,1817 #1817 01817,412 Constant Friendship Boulevard,MD,21009
PetSmart,New Braunfels,1819,1819 #1819 01819,315 Creekside Way,TX,78130
PetSmart,Lubbock,1822,1822 #1822 01822,6046 Marsha Sharp Fwy,TX,79407
PetSmart,Rowlett,1826,1826 #1826 01826,5709 Liberty Grove Rd,TX,75089
PetSmart,North Bergen,1828,1828 #1828 01828,2100 88th Street,NJ,7047
PetSmart,North Brunswick,1829,1829 #1829 01829,901 US Highway 1,NJ,8902
PetSmart,Easton,1830,1830 #1830 01830,28533 Marlboro Ave.,MD,21601
PetSmart,Spring Hill,1832,1832 #1832 01832,1038 Crossings Blvd,TN,37174
PetSmart,Cape Coral,1834,1834 #1834 01834,1819 NE Pine Island Road,FL,33909
PetSmart,Cedar Park,1835,1835 #1835 01835,1335 E. Whitestone Blvd,TX,78613
PetSmart,Virginia Beach,1838,1838 #1838 01838,3364 Princess Anne Drive,VA,23456
PetSmart,Ft Wayne,1840,1840 #1840 01840,10260 Maysville Road,IN,46835
PetSmart,Ft Wayne,1841,1841 #1841 01841,10035 Lima Road,IN,46818
PetSmart,D'Iberville,1843,1843 #1843 01843,3948 Promenade Parkway,MS,39540
PetSmart,Willow Grove,1845,1845 #1845 01845,3995 Welsh Road,PA,19090
PetSmart,Morehead City,1846,1846 #1846 01846,5160 Highway 70,NC,28557
PetSmart,Jacksonville,1848,1848 #1848 01848,"9515 Crosshill Blvd, Ste 113",FL,32222
PetSmart,Port Charlotte,1850,1850 #1850 01850,19530 Cochran Boulevard,FL,33948
PetSmart,Macedonia,1851,1851 #1851 01851,"8210 Macedonia Commons Blvd, Unit 10",OH,44056
PetSmart,Belleville,1853,1853 #1853 01853,5801 Belleville Crossing Street,IL,62226
PetSmart,Canoga Park,1854,1854 #1854 01854,21311 Victory Blvd.,CA,91303
PetSmart,Brighton,1855,1855 #1855 01855,2435 Prairie Center Parkway,CO,80601
PetSmart,Enfield,1856,1856 #1856 01856,10 Hazard Avenue,CT,6082
PetSmart,San Angelo,1857,1857 #1857 01857,4439 Sunset Drive,TX,76901
PetSmart,Longview,1862,1862 #1862 01862,3096 N Eastman Rd,TX,75605
PetSmart,Edmonton,1863,1863 #1863 01863,2066 38th Avenue,AB,T6T 0B9
PetSmart,Scottsdale,1864,1864 #1864 01864,4380 N. Miller Road,AZ,85251
PetSmart,Fort Gratiot,1865,1865 #1865 01865,4485 24th Avenue,MI,48059
PetSmart,Smyrna,1866,1866 #1866 01866,807 Industrial Boulevard,TN,37167
PetSmart,Stamford,1867,1867 #1867 01867,288 West Ave,CT,6902
PetSmart,Manchester,1869,1869 #1869 01869,777 South Willow Street,NH,3103
PetSmart,Rochester,1870,1870 #1870 01870,4603 Maine Ave SE,MN,55904
PetSmart,Columbia,1872,1872 #1872 01872,229 N Stadium Blvd,MO,65203
PetSmart,Baton Rouge,1878,1878 #1878 01878,1653 Millerville Rd,LA,70816
PetSmart,Monroe,1879,1879 #1879 01879,4429 Pecanland Mall Dr,LA,71203
PetSmart,Bourbonnais,1881,1881 #1881 01881,1511 State Route 50 N,IL,60914
PetSmart,East Peoria,1882,1882 #1882 01882,208 River road,IL,61611
PetSmart,Naperville,1884,1884 #1884 01884,3111 111th St,IL,60564
PetSmart,Peru,1888,1888 #1888 01888,5243 Route 251,IL,61354
PetSmart,Bullhead City,1891,1891 #1891 01891,"3699 Highway 95, #540",AZ,86442
PetSmart,Monument,1893,1893 #1893 01893,16086 Jackson Creek Pky,CO,80132
PetSmart,Kansas City,1894,1894 #1894 01894,8970 NW Skyview Ave.,MO,64154
PetSmart,Henderson,1895,1895 #1895 01895,286 W Lake Mead Pkwy,NV,89015
PetSmart,North Las Vegas,1896,1896 #1896 01896,6980 N 5th St.,NV,89084
PetSmart,Gilbert,1900,1900 #1900 01900,"857 N. Val Vista Dr., Suite 106",AZ,85234
PetSmart,Lake Havasu City,1902,1902 #1902 01902,5601 Highway 95 N,AZ,86404
PetSmart,Tucson,1908,1908 #1908 01908,3850 W River Rd,AZ,85741
PetSmart,Foothill Ranch,1912,1912 #1912 01912,26532 Towne Center Dr,CA,92610
PetSmart,Boulder,1915,1915 #1915 01915,1850 30th street,CO,80301
PetSmart,Fort Myers,1921,1921 #1921 01921,9371 Ben C. Pratt Parkway,FL,33966
PetSmart,Spring Hill,1922,1922 #1922 01922,1345 Wendy Ct,FL,34607
PetSmart,Fredericksburg,1928,1928 #1928 01928,27 South Gateway Drive,VA,22406
PetSmart,Knightdale,1929,1929 #1929 01929,220 Hinton Oaks Blvd,NC,27545
PetSmart,Yukon,1930,1930 #1930 01930,1648 Garth Brooks Blvd,OK,73099
PetSmart,Vancouver,1932,1932 #1932 01932,316 NE 78th Street,WA,98665
PetSmart,Boise,1933,1933 #1933 01933,130 N Milwaukee St,ID,83704
PetSmart,Collegeville,1934,1934 #1934 01934,300 Water Loop Drive,PA,19426
PetSmart,North Haven,1938,1938 #1938 01938,400 Universal Drive North,CT,6473
PetSmart,Martinsburg,1941,1941 #1941 01941,144 Retail Commons Parkway,WV,25403
PetSmart,Manassas,1942,1942 #1942 01942,9970 Sowder Village Square,VA,20109
PetSmart,Council Bluffs,1943,1943 #1943 01943,815 McDermott Street,IA,51501
PetSmart,Avon,1944,1944 #1944 01944,10697 East US Highway 36,IN,46123
PetSmart,Manahawkin,1945,1945 #1945 01945,219 Stafford Park Blvd,NJ,8050
PetSmart,Richmond,1946,1946 #1946 01946,5574 West Grand Parkway S.,TX,77406
PetSmart,Canton,1951,1951 #1951 01951,47142 Michigan Avenue,MI,48188
PetSmart,San Antonio,1953,1953 #1953 01953,21019 US HWY 281,TX,78258
PetSmart,Lewisville,1954,1954 #1954 01954,2325 S Stemmons Freeway,TX,75067
PetSmart,Puyallup,1959,1959 #1959 01959,10309 156th Street East,WA,98373
PetSmart,Woburn,1961,1961 #1961 01961,114A Commerce Way,MA,1801
PetSmart,Saugus,1962,1962 #1962 01962,358 Broadway,MA,1906
PetSmart,Brick,1963,1963 #1963 01963,2 Brick Plaza,NJ,8723
PetSmart,Hanover,1964,1964 #1964 01964,1207 Washington St.,MA,2339
PetSmart,Stoney Creek,1965,1965 #1965 01965,1779 Stone Church Road East,ON,L8J 0B4
PetSmart,SW Fort Worth,1966,1966 #1966 01966,4465 Bryant Irvin Rd,TX,76132
PetSmart,Houston,1967,1967 #1967 01967,2610 Eldridge Pkwy,TX,77082
PetSmart,Owensboro,1968,1968 #1968 01968,5241 Frederica St,KY,42301
PetSmart,Escondido,1970,1970 #1970 01970,415 N. Escondido Blvd,CA,92025
PetSmart,Roseville,1971,1971 #1971 01971,2480 Fairview Ave N,MN,55113
PetSmart,Farmingdale,1972,1972 #1972 01972,241 Airport Plaza Blvd.,NY,11735
PetSmart,Modesto,1975,1975 #1975 01975,3900 Sisk Road,CA,95356
PetSmart,Virginia Beach,1987,1987 #1987 01987,501 Hilltop Plaza,VA,23454
PetSmart,Hanover,1994,1994 #1994 01994,181 Wilson Ave,PA,17331
PetSmart,Nepean,2001,2001 #2001 02001,1547 Merivale Road,ON,K2G 4V3
PetSmart,Oakville,2002,2002 #2002 02002,2501 Hyde Park Gate,ON,L6H 6G6
PetSmart,Cambridge,2005,2005 #2005 02005,"600 Hespeler Road, Unit 68B",ON,N1R 8H2
PetSmart,Belleville,2006,2006 #2006 02006,"264 Millennium Parkway, Unit 3",ON,K8N 4Z5
PetSmart,Thunder Bay,2008,2008 #2008 02008,787 Memorial Ave.,ON,P7B 3Z7
PetSmart,Scarborough,2009,2009 #2009 02009,12 William Kitchen Drive,ON,M1P 5B7
PetSmart,Nepean,2013,2013 #2013 02013,3161 Greenbank Road,ON,K2J 4H9
PetSmart,Kitchener,2015,2015 #2015 02015,655 Fairway Road South,ON,N2C 1X4
PetSmart,Mississauga,2016,2016 #2016 02016,3105 Argentia Rd.,ON,L5N 8P7
PetSmart,Windsor,2017,2017 #2017 02017,3164 Dougall Ave.,ON,N9E 1S6
PetSmart,Orleans,2018,2018 #2018 02018,2002 Mer Bleue Road Unit 6,ON,K4A 0G2
PetSmart,Brampton South,2019,2019 #2019 02019,547 Steeles Ave. East,ON,L6W 4S2
PetSmart,Edmonton,2020,2020 #2020 02020,18423 Stony Plain Road N.W.,AB,T5S 2V9
PetSmart,Kanata,2021,2021 #2021 02021,255 Kanata Ave.,ON,K2T 1K5
PetSmart,Sarnia,2023,2023 #2023 02023,1444 Quinn Drive,ON,N7S 6M8
PetSmart,Vaughan,2024,2024 #2024 02024,7575 Weston Road,ON,L4L 9K5
PetSmart,Lethbridge,2025,2025 #2025 02025,3721 Mayor Magrath Dr South,AB,T1K 8A8
PetSmart,Medicine Hat,2026,2026 #2026 02026,110-1921 Strachan Road SE,AB,T1B 0G4
PetSmart,Grande Prairie,2027,2027 #2027 02027,9809 116th Street,AB,T8W 0C7
PetSmart,Kelowna,2029,2029 #2029 02029,2024 Harvey Ave,BC,V1Y 8J8
PetSmart,Guelph,2032,2032 #2032 02032,183 Silvercreek Pkwy. N.,ON,N1H 7P7
PetSmart,Chatham,2033,2033 #2033 02033,823 St. Clair St.,ON,N7M 5J7
PetSmart,Scarborough,2034,2034 #2034 02034,2050 Eglinton Ave E,ON,M1L 2M6
PetSmart,Broken Arrow,2037,2037 #2037 02037,1410 East Hillside Dr,OK,74011
PetSmart,Omaha,2038,2038 #2038 02038,17035 Evans Plaza,NE,68116
PetSmart,Arnold,2041,2041 #2041 02041,828 Arnold Commons Drive,MO,63010
PetSmart,Mt Prospect,2044,2044 #2044 02044,101 E Euclid Ave.,IL,60056
PetSmart,Lake Park,2046,2046 #2046 02046,300 N. Congress Ave.,FL,33403
PetSmart,Millburn,2048,2048 #2048 02048,187 Millburn Ave,NJ,7041
PetSmart,Hillsboro,2051,2051 #2051 02051,1295 NW 185th Ave.,OR,97006
PetSmart,Portland,2052,2052 #2052 02052,9721 NE Cascades Parkway,OR,97220
PetSmart,Bellevue,2055,2055 #2055 02055,100 108th Ave NE,WA,98004
PetSmart,El Paso,2063,2063 #2063 02063,8889 Gateway Blvd W C400 Suite,TX,79925
PetSmart,Mansfield,2064,2064 #2064 02064,1551 N. US Highway 287 Ste 501,TX,76063
PetSmart,Fort Worth,2065,2065 #2065 02065,2901 Texas Sage Trail,TX,76177
PetSmart,Wylie,2066,2066 #2066 02066,3340 FM 544 Ste 800,TX,75098
PetSmart,Odessa,2069,2069 #2069 02069,2022 E 42nd,TX,79762
PetSmart,St George,2084,2084 #2084 02084,15 S. River Road,UT,84790
PetSmart,Memphis,2087,2087 #2087 02087,5883 Poplar Ave,TN,38119
PetSmart,Beaufort,2088,2088 #2088 02088,322 Robert Smalls Parkway,SC,29906
PetSmart,Florence,2089,2089 #2089 02089,2887 David H McLeod Blvd,SC,29501
PetSmart,Anchorage,2093,2093 #2093 02093,1200 North Muldoon Road,AK,99506
PetSmart,Nesconset,2104,2104 #2104 02104,3050 Middle Country Road,NY,11767
PetSmart,West Babylon,2105,2105 #2105 02105,535 W. Montauk Highway,NY,11704
PetSmart,Myrtle Beach,2109,2109 #2109 02109,1391 S Commons Dr.,SC,29588
PetSmart,Wesley Chapel,2110,2110 #2110 02110,6420 Weddington Monroe Rd,NC,28104
PetSmart,Norcross,2111,2111 #2111 02111,6050 Peachtree Pkwy,GA,30092
PetSmart,Delray Beach,2113,2113 #2113 02113,510 Linton Boulevard,FL,33444
PetSmart,New York,2117,2117 #2117 02117,517 E 117th St.,NY,10035
PetSmart,Athens,2123,2123 #2123 02123,1791 Oconee Connector Suite 13,GA,30606
PetSmart,Charlotte,2124,2124 #2124 02124,206 S Sharon Amity Rd,NC,28211
PetSmart,New Bern,2125,2125 #2125 02125,3007 Dr Martin Luther King Jr Blvd,NC,28562
PetSmart,Duncan,2126,2126 #2126 02126,184 Trunk Road,BC,V9L 2P2
PetSmart,Salisbury,2127,2127 #2127 02127,345 Faith Rd.,NC,28146
PetSmart,Lewisville,2128,2128 #2128 02128,4854 Highway 121,TX,75056
PetSmart,New York,2129,2129 #2129 02129,632 Broadway,NY,10012
PetSmart,Anchorage,2130,2130 #2130 02130,601 E Dimond Blvd,AK,99515
PetSmart,Mount Hope,2131,2131 #2131 02131,115 Crossroads Mall,WV,25880
PetSmart,Fredericton,2132,2132 #2132 02132,9 Riocan Ave,NB,E3C 0B9
PetSmart,Duncanville,2133,2133 #2133 02133,2525 W. Wheatland Rd.,TX,75237
PetSmart,Sierra Vista,2135,2135 #2135 02135,4267 E Highway 90,AZ,85635
PetSmart,Kingman,2136,2136 #2136 02136,3260 Stockton Hill Rd,AZ,86409
PetSmart,Calgary,2137,2137 #2137 02137,81-4307-130 Ave,AB,T2Z 3V8
PetSmart,Winnipeg,2138,2138 #2138 02138,1615 Regent Ave West,MB,R2C 5C6
PetSmart,Flemington,2143,2143 #2143 02143,132 Route 31,NJ,8822
PetSmart,East Brunswick,2144,2144 #2144 02144,300 State Route 18,NJ,8816
PetSmart,Vernon Hills,2147,2147 #2147 02147,700 N Milwaukee Ave,IL,60061
PetSmart,Oxford,2148,2148 #2148 02148,2303 Jackson Ave W,MS,38655
PetSmart,Waxahachie,2149,2149 #2149 02149,1451 N. Highway 77,TX,75165
PetSmart,St Johns,2159,2159 #2159 02159,5 Stavanger Dr.,NB,A1A 5E8
PetSmart,Guaynabo,2160,2160 #2160 02160,A2 Calle Ebano,PR,968
PetSmart,Bayamon,2161,2161 #2161 02161,Expo. De Diego and Ave. Comerio,PR,961
PetSmart,South San Juan,2162,2162 #2162 02162,Senorial Plaza Mall,PR,926
PetSmart,Mississauga,2163,2163 #2163 02163,5800 McLaughlin Road,ON,L5R 4B7
PetSmart,Northborough,2164,2164 #2164 02164,6106 Shops Way,MA,1532
PetSmart,Chelmsford,2165,2165 #2165 02165,265 Chelmsford St,MA,1824
PetSmart,Austell,2169,2169 #2169 02169,4155 Austell Rd,GA,30106
PetSmart,Charlottetown,2173,2173 #2173 02173,51 Babineau Ave Unit 4,PE,C1A 0C9
PetSmart,Pelham,2177,2177 #2177 02177,830 Pelham Parkway,NY,10803
PetSmart,West Covina,2179,2179 #2179 02179,2851 Eastland Center Dr Ste FSU9,CA,91791
PetSmart,Mililani,2180,2180 #2180 02180,95-660 Lanikuhana Ave,HI,96789
PetSmart,Fort Lauderdale,2183,2183 #2183 02183,1700 N. Federal Highway,FL,33305
PetSmart,Richmond,2184,2184 #2184 02184,2175 Lantern Ridge Drive,KY,40475
PetSmart,Sterling,2186,2186 #2186 02186,3210 E Lynn Blvd,IL,61081
PetSmart,Suffolk,2187,2187 #2187 02187,6243 College Dr.,VA,23435
PetSmart,Caguas,2188,2188 #2188 02188,200 Rafael Cordero Ave.,PR,725
PetSmart,Waterloo,2189,2189 #2189 02189,663-E Erb St. West,ON,N2J 3Z4
PetSmart,Etobicoke,2190,2190 #2190 02190,158 N Queen St,ON,M9C 1A8
PetSmart,Dunkirk,2191,2191 #2191 02191,10400 Southern Maryland Blvd,MD,20754
PetSmart,Bessemer,2193,2193 #2193 02193,4925 Promenade Parkway,AL,35022
PetSmart,Los Angeles,2195,2195 #2195 02195,330 S. La Cienega Blvd,CA,90048
PetSmart,Camarillo,2196,2196 #2196 02196,2530 Las Posas Rd,CA,93010
PetSmart,Russellville,2198,2198 #2198 02198,3093 E. Main Street,AR,72802
PetSmart,Galveston,2199,2199 #2199 02199,6102 Ave J,TX,77551
PetSmart,Lawton,2201,2201 #2201 02201,1806 NW 82nd Street,OK,73505
PetSmart,Jefferson City,2202,2202 #2202 02202,731 Stoneridge Pkwy,MO,65109
PetSmart,Columbus,2203,2203 #2203 02203,1486 Old Aberdeen Rd,MS,39705
PetSmart,Lake City,2204,2204 #2204 02204,225 NW Commons Loop,FL,32055
PetSmart,Leesburg,2205,2205 #2205 02205,10401 US 441,FL,34788
PetSmart,Ogden,2207,2207 #2207 02207,175 W 12th Street,UT,84404
PetSmart,Epping,2208,2208 #2208 02208,11 Brickyard Square Ste 11,NH,3042
PetSmart,Cornwall,2210,2210 #2210 02210,501 Tollgate Rd Unit 5,ON,K6H 5R6
PetSmart,Marion,2211,2211 #2211 02211,4014 S Western Ave,IN,46953
PetSmart,Nags Head,2212,2212 #2212 02212,"2210 S Croatan Hwy, Mile Post 10",NC,27959
PetSmart,Fayetteville,2213,2213 #2213 02213,4721 Ramsey St,NC,28311
PetSmart,Vienna,2214,2214 #2214 02214,8204 Leesburg Pike,VA,22182
PetSmart,Sedona,2215,2215 #2215 02215,2356 W State Rt 89A,AZ,86336
PetSmart,Layton,2216,2216 #2216 02216,750 N. Main St.,UT,84041
PetSmart,Centerville,2217,2217 #2217 02217,100 N Market Place Dr.,UT,84014
PetSmart,Sonora,2218,2218 #2218 02218,1131 Sanguinetti Rd,CA,95370
PetSmart,Mattoon,2219,2219 #2219 02219,104 Dettro Dr,IL,61938
PetSmart,Porterville,2222,2222 #2222 02222,1265 W. Henderson Ave.,CA,93257
PetSmart,Pinole,2223,2223 #2223 02223,1380 Fitzgerald Drive,CA,94564
PetSmart,Beaumont,2226,2226 #2226 02226,4045 Dowlen Road,TX,77706
PetSmart,Wilkesboro,2228,2228 #2228 02228,1514 Winkler Mill Rd,NC,28697
PetSmart,Morrisville,2229,2229 #2229 02229,3101 Market Center Drive,NC,27560
PetSmart,Morganton,2230,2230 #2230 02230,E142 Morganton Heights Blvd,NC,28655
PetSmart,Lockport,2231,2231 #2231 02231,5722 S Transit Rd,NY,14094
PetSmart,Victor,2232,2232 #2232 02232,421 Commerce Dr,NY,14564
PetSmart,Amsterdam,2233,2233 #2233 02233,4930 St. Hwy. 30,NY,12010
PetSmart,Niagara Falls,2234,2234 #2234 02234,7481 Oakwood Dr,ON,L2E 6S5
PetSmart,Port Jefferson Station,2235,2235 #2235 02235,1110 Route 112,NY,11776
PetSmart,Sacramento,2237,2237 #2237 02237,6081 Florin Rd.,CA,95823
PetSmart,Hudson,2238,2238 #2238 02238,450 Fairview Ave,NY,12534
PetSmart,Richmond,2239,2239 #2239 02239,120-9751 Bridgeport Rd,BC,V6X 1S3
PetSmart,Coquitlam,2240,2240 #2240 02240,1090 Lougheed Hwy,BC,V3K 6G9
PetSmart,Markham,2241,2241 #2241 02241,1210 Castlemore Ave,ON,L6E 0H7
PetSmart,San Jose,2242,2242 #2242 02242,5353 Almaden Expressway,CA,95125
PetSmart,Findlay,2246,2246 #2246 02246,2330 Tiffin Ave,OH,45840
PetSmart,Sanford,2247,2247 #2247 02247,868 Spring Lane,NC,27330
PetSmart,Brooklyn,2248,2248 #2248 02248,8725 Avenue D,NY,11236
PetSmart,Brooklyn,2249,2249 #2249 02249,238 Atlantic Ave,NY,11201
PetSmart,Monrovia,2252,2252 #2252 02252,745 W Huntington Dr,CA,91016
PetSmart,Lakewood,2254,2254 #2254 02254,279 East Fairmount Ave,NY,14750
PetSmart,Levittown,2255,2255 #2255 02255,157 Levittown Parkway Ste B,PA,19055
PetSmart,Tempe,2256,2256 #2256 02256,1140 W. Elliot Rd.,AZ,85284
PetSmart,Garden Grove,2258,2258 #2258 02258,9835 Chapman Ave.,CA,92841
PetSmart,Los Angeles,2259,2259 #2259 02259,11250 W Olympic Blvd,CA,90064
PetSmart,Alvin,2260,2260 #2260 02260,1241 FM 1462,TX,77511
PetSmart,Chicago,2262,2262 #2262 02262,1415 N. Kingsbury St.,IL,60642
PetSmart,Moncton,2263,2263 #2263 02263,"79 Wyse St., #400",NB,E1G 5R1
PetSmart,West Hazelton,2264,2264 #2264 02264,90 Weis Lane,PA,18202
PetSmart,Williamsport,2265,2265 #2265 02265,1742 E 3rd St,PA,17701
PetSmart,Seal Beach,2267,2267 #2267 02267,12341 Seal Beach Blvd,CA,90740
PetSmart,Sherwood Park,2268,2268 #2268 02268,5000 Emerald Drive,AB,T8H 0P5
PetSmart,Spruce Grove,2269,2269 #2269 02269,151 Century Crossing,AB,T7X 0C8
PetSmart,Carolina,2271,2271 #2271 02271,65 Infanteria,PR,987
PetSmart,Hatillo,2272,2272 #2272 02272,506 Truncado St.,PR,659
PetSmart,Waynesville,2275,2275 #2275 02275,321 Town Center Loop,NC,28786
PetSmart,Seneca,2276,2276 #2276 02276,253 Applewood Center Place,SC,29678
PetSmart,Easton,2277,2277 #2277 02277,3794 Easton Nazareth Highway,PA,18045
PetSmart,Chico,2278,2278 #2278 02278,2019 Forest Ave,CA,95928
PetSmart,Cerritos,2279,2279 #2279 02279,12741 Towne Center Dr,CA,90703
PetSmart,Pico Rivera,2280,2280 #2280 02280,8852 Washington Blvd,CA,90660
PetSmart,Orange Park,2283,2283 #2283 02283,1919 Wells Road,FL,32073
PetSmart,Oshawa,2285,2285 #2285 02285,891 Taunton Rd E,ON,L1H 7K5
PetSmart,Orange,2286,2286 #2286 02286,53 Boston Post Road,CT,6477
PetSmart,Statesville,2288,2288 #2288 02288,214 Turnersburg Hwy,NC,28625
PetSmart,Greenwood,2289,2289 #2289 02289,201 Hospitality Blvd,SC,29649
PetSmart,Eugene,2291,2291 #2291 02291,2858 Willamette St,OR,97405
PetSmart,Northridge,2293,2293 #2293 02293,19320 Nordhoff Way,CA,91324
PetSmart,Santa Rosa,2294,2294 #2294 02294,1954 Santa Rosa Ave,CA,95407
PetSmart,Gonzales,2296,2296 #2296 02296,40451 Lowes Ave.,LA,70737
PetSmart,Jackson,2297,2297 #2297 02297,1511 Boardman Rd.,MI,49202
PetSmart,Mount Pleasant,2298,2298 #2298 02298,4218 E Blue Grass Rd,MI,48858
PetSmart,Walpole,2299,2299 #2299 02299,98 Providence Highway,MA,2032
PetSmart,Bangor,2300,2300 #2300 02300,482 Stillwater Ave. Ste 2A,ME,4401
PetSmart,Poughkeepsie,2301,2301 #2301 02301,2534 South Road,NY,12601
PetSmart,Pittsburgh,2302,2302 #2302 02302,5986 Penn Cir S,PA,15206
PetSmart,Pleasant Hills,2306,2306 #2306 02306,523 Clairton Blvd,PA,15236
PetSmart,PONCE,2308,2308 #2308 02308,"2643 Ponce Bypass, Ste. 148",PR,728
PetSmart,St Joseph,2309,2309 #2309 02309,4226 N Belt Hwy,MO,64506
PetSmart,Warsaw,2311,2311 #2311 02311,640 W 300N,IN,46582
PetSmart,Marquette,2312,2312 #2312 02312,3550 US 41 W,MI,49855
PetSmart,South Euclid,2313,2313 #2313 02313,13923 Cedar Rd,OH,44118
PetSmart,Reynoldsburg,2314,2314 #2314 02314,2389 Taylor Park Dr,OH,43068
PetSmart,Newton,2316,2316 #2316 02316,5 Hampton House Rd.,NJ,7860
PetSmart,Frederick,2317,2317 #2317 02317,2450 Osprey Way,MD,21701
PetSmart,Port Coquitlam,2319,2319 #2319 02319,2180 Hawkins St. Unit 110,BC,V3B 0G6
PetSmart,Matthews,2322,2322 #2322 02322,9905 E. Independence Blvd,NC,28105
PetSmart,Charlotte,2323,2323 #2323 02323,9515 South Blvd,NC,28273
PetSmart,Los Angeles,2324,2324 #2324 02324,4550 W Pico Blvd.,CA,90019
PetSmart,New Castle,2327,2327 #2327 02327,2573 West State St,PA,16101
PetSmart,Bethlehem,2328,2328 #2328 02328,2102 W. Union Blvd. #22A,PA,18018
PetSmart,Millsboro,2329,2329 #2329 02329,26680 Centerview Drive,DE,19966
PetSmart,Fort Smith,2331,2331 #2331 02331,4900 Rogers Ave. Ste 102A,AR,72903
PetSmart,Matteson,2332,2332 #2332 02332,4824 Lincoln Hwy.,IL,60443
PetSmart,Rochester,2333,2333 #2333 02333,"160 Washington St., Suite 701",NH,3839
PetSmart,Fajardo,2334,2334 #2334 02334,"150 Carretera 940, Ste 365",PR,738
PetSmart,Whitby,2336,2336 #2336 02336,5-340 Taunton Rd E,ON,L1R 0H4
PetSmart,Brantford,2338,2338 #2338 02338,221 Henry St Unit 2,ON,N3S 7R4
PetSmart,Bedford,2341,2341 #2341 02341,"181 Damascus Rd, #5",NS,B4A 0C2
PetSmart,Newport,2344,2344 #2344 02344,156 Pavilion Parkway,KY,41071
PetSmart,Charlotte,2347,2347 #2347 02347,"8150 Ikea Blvd.,Suite 25",NC,28262
PetSmart,Snellville,2348,2348 #2348 02348,1929 Scenic Highway N,GA,30078
PetSmart,Moline,2349,2349 #2349 02349,4160 10th Street Drive,IL,61265
PetSmart,Savannah,2351,2351 #2351 02351,1821 E. Victory Dr. Bldg B,GA,31404
PetSmart,Plant City,2352,2352 #2352 02352,"211 West Alexander Street, Suite A",FL,33563
PetSmart,Mayaguez,2354,2354 #2354 02354,252 Calle Dr Raymon E Betances,PR,680
PetSmart,Peterborough,2355,2355 #2355 02355,898 Monaghan Rd. Unit 2,ON,K9J 5K4
PetSmart,Oceanside,2357,2357 #2357 02357,471-2 College Blvd,CA,92057
PetSmart,Lake Wales,2361,2361 #2361 02361,24005 US Highway 27,FL,33859
PetSmart,Tucson,2363,2363 #2363 02363,3695 E. Broadway Blvd,AZ,85716
PetSmart,Winnipeg,2368,2368 #2368 02368,1731 KENASTON BLVD,MB,R3Y 1V5
PetSmart,Wichita,2370,2370 #2370 02370,11739 East Kellogg Dr.,KS,67207
PetSmart,Pewaukee,2371,2371 #2371 02371,1275 Capitol Dr,WI,53072
PetSmart,City of Industry,2373,2373 #2373 02373,17651 Colima Rd,CA,91748
PetSmart,Raleigh,2374,2374 #2374 02374,8825 Six Forks Rd,NC,27615
PetSmart,Bayamon,2378,2378 #2378 02378,3023 Ave Ramon Luis Rivera STE,PR,956
PetSmart,Winnipeg,2381,2381 #2381 02381,1050 Leila Ave Unit 1,MB,R2P 1W6
PetSmart,Manhattan,2383,2383 #2383 02383,805 S SETH CHILD RD,KS,66502
PetSmart,Ashland,2384,2384 #2384 02384,479 River Hill Drive,KY,41101
PetSmart,Fairfax,2385,2385 #2385 02385,9528 Main Street,VA,22031
PetSmart,Bowling Green,2389,2389 #2389 02389,2300 GARY FARMS BLVD STE 600,KY,42104
PetSmart,New Hyde Park,2391,2391 #2391 02391,1600 Marcus Ave.,NY,11040
PetSmart,Meriden,2392,2392 #2392 02392,533 South Broad Street,CT,6450
PetSmart,Albany,2395,2395 #2395 02395,2709-11 Dawson Rd.,GA,31707
PetSmart,Pooler,2396,2396 #2396 02396,262 Pooler PKWY,GA,31322
PetSmart,Charleston,2407,2407 #2407 02407,7620 RIVERS AVE STE 120B,SC,29406
PetSmart,Enid,2427,2427 #2427 02427,3828 W Owen K Garriott Rd,OK,73703
PetSmart,Asheboro,2500,2500 #2500 02500,1222 East Dixie Drive Ste B,NC,27203
PetSmart,Smithfield,2501,2501 #2501 02501,1285 N Brightleaf Blvd Ste 15,NC,27577
PetSmart,Shelby,2502,2502 #2502 02502,733 E Dixon Blvd,NC,28152
PetSmart,New Iberia,2503,2503 #2503 02503,1102 East Admiral Doyle Dr,LA,70560
PetSmart,Crystal City,2504,2504 #2504 02504,207 S Truman Blvd,MO,63019
PetSmart,Nogales,2505,2505 #2505 02505,204 W Mariposa Rd STE 16,AZ,85621
PetSmart,Payson,2506,2506 #2506 02506,"400 E Highway 260, Ste C",AZ,85541
PetSmart,Faribault,2507,2507 #2507 02507,200 Western Ave. B-3,MN,55021
PetSmart,Paragould,2509,2509 #2509 02509,2708 W Kings HWY,AR,72450
PetSmart,Martinsville,2511,2511 #2511 02511,399 Grand Valley Blvd.,IN,46151
PetSmart,Athens,2512,2512 #2512 02512,743 E State St,OH,45701
PetSmart,Indiana,2513,2513 #2513 02513,475 Ben Franklin Rd S,PA,15701
