keywords,city,Aggdata Store Number,store_number,address,state,zip_code
Pick n Save,Fond du Lac,5372,05372 0005372,55 W Pioneer Rd,WI,54935
Pick n Save,Oshkosh,5375,05375 0005375,1900 Jackson Street,WI,54901
Pick n Save,Oshkosh,5378,05378 0005378,1940 S. Koeller Street,WI,54901
Pick n Save,Waukesha,6308,06308 0006308,220 E. Sunset Dr.,WI,53186
Pick n Save,Waukesha/Pewaukee,6315,06315 0006315,2160 Silvernail Rd.,WI,53072
Pick n Save,Sturgeon Bay,6329,06329 0006329,1847 Egg Harbor Rd.,WI,54235
Pick n Save,Plymouth,6343,06343 0006343,2643 Eastern Ave.,WI,53073
Pick n Save,Oak Creek,6348,06348 0006348,6462 S. 27th St.,WI,53154
Pick n Save,Eagle River,6351,06351 0006351,711 Hwy 45 N,WI,54521
Pick n Save,Waupaca,6352,06352 0006352,955 W Fulton St,WI,54981
Pick n Save,Monroe,6353,06353 0006353,246 8th St,WI,53566
Pick n Save,Germantown,6357,06357 0006357,N112 W16200 Mequon Rd,WI,53022
Pick n Save,Pewaukee,6358,06358 0006358,601 Ryan St.,WI,53072
Pick n Save,Franklin,6360,06360 0006360,7201 S 76th St,WI,53132
Pick n Save,Milwaukee,6364,06364 0006364,10202 W Silver Spring Dr,WI,53225
Pick n Save,Milwaukee,6365,06365 0006365,5700 W Capitol Dr,WI,53216
Pick n Save,Hales Corners,6366,06366 0006366,5800 S 108th St,WI,53130
Pick n Save,Saukville,6367,06367 0006367,810 E. Green Bay Ave,WI,53080
Pick n Save,Brookfield,6368,06368 0006368,17295 W Capitol Dr,WI,53045
Pick n Save,Waukesha,6369,06369 0006369,1535 E. Moreland Blvd.,WI,53186
Pick n Save,Shorewood,6370,06370 0006370,4145 North Oakland Avenue,WI,53211
Pick n Save,Milwaukee,6372,06372 0006372,8151 W Bluemound Rd,WI,53213
Pick n Save,Brookfield,6373,06373 0006373,2205 N Calhoun Rd,WI,53005
Pick n Save,Pewaukee,6374,06374 0006374,1405 Capitol Dr.,WI,53072
Pick n Save,Caledonia,6378,06378 0006378,5111 Douglas Ave,WI,53402
Pick n Save,Marshfield,6379,06379 0006379,641 S Central Ave,WI,54449
Pick n Save,Sussex,6380,06380 0006380,N65 W24838 Main Street,WI,53089
Pick n Save,Muskego,6381,06381 0006381,S74 W17005 Janesville Rd,WI,53546
Pick n Save,New Berlin,6382,06382 0006382,15445 W. National Ave,WI,53151
Pick n Save,Mukwonago,6384,06384 0006384,1010 Rochester St,WI,53149
Pick n Save,Wales,6386,06386 0006386,405 N. Wales Road,WI,53183
Pick n Save,Oak Creek,6387,06387 0006387,2320 W. Ryan Road,,53154
Pick n Save,Oconomowoc,6388,06388 0006388,1300 Pabst Farms Circle,WI,53066
Pick n Save,Fond du Lac,6389,06389 0006389,760 W Johnson St,WI,54935
Pick n Save,Stoughton,6390,06390 0006390,1750 Hwy. 51 West,WI,53589
Pick n Save,Columbus,6392,06392 0006392,210 Dix St,WI,53925
Pick n Save,DeForest,6393,06393 0006393,621 S Main St,WI,53532
Pick n Save,McFarland,6394,06394 0006394,5709 Hwy 51,WI,53558
Pick n Save,Fort Atkinson,6396,06396 0006396,1505 Madison Ave,WI,53538
Pick n Save,Brookfield,6397,06397 0006397,15170 W Greenfield Ave,WI,53005
Pick n Save,Delafield,6398,06398 0006398,3161 Village Square Dr,WI,53018
Pick n Save,Shawano,6401,06401 0006401,190 Woodlawn Drive,WI,54166
Pick n Save,Kimberly,6402,06402 0006402,850 E Maes Ave,WI,54136
Pick n Save,Appleton,6403,06403 0006403,N135 Stoneybrook Rd,WI,54915
Pick n Save,Rothschild,6404,06404 0006404,10101 Market St,WI,54474
Pick n Save,Wausau,6405,06405 0006405,205 Central Bridge Street,WI,54401
Pick n Save,Schofield,6406,06406 0006406,2806 Schofield Ave,WI,54476
Pick n Save,West Milwaukee,6407,06407 0006407,2201 Miller Park Way,WI,53214
Pick n Save,Two Rivers,6408,06408 0006408,1010 22nd Street,WI,54241
Pick n Save,Waterford,6410,06410 0006410,515 N. Milwaukee Street,WI,53185
Pick n Save,Neenah,6412,06412 0006412,828 Fox Point Plaza,WI,54956
Pick n Save,Oconomowoc,6413,06413 0006413,36903 E. Wisconsin Ave,WI,53066
Pick n Save,Burlington,6414,06414 0006414,1008 Milwaukee Ave,WI,53105
Pick n Save,Waukesha,6415,06415 0006415,1220 W. Sunset Drive,WI,53189
Pick n Save,Wauwatosa,6416,06416 0006416,1717 N. Mayfair Road,WI,53226
Pick n Save,West Bend,6417,06417 0006417,2518 W. Washington Street,WI,53095
Pick n Save,Milwaukee,6418,06418 0006418,7401 W Good Hope Rd,WI,53223
Pick n Save,West Bend,6430,06430 0006430,1629 S. Main Street,WI,53095
Pick n Save,Franklin,6431,06431 0006431,7780 S Lovers Lane Rd,WI,53132
Pick n Save,Sheboygan,6432,06432 0006432,1317 N 25th St,WI,53081
Pick n Save,Sheboygan,6433,06433 0006433,2625 S Business Dr,WI,53081
Pick n Save,Milwaukee,6845,06845 0006845,3701 S 27th St,WI,53221
Pick n Save,West Allis,6846,06846 0006846,2625 S. 108th St.,WI,53227
Pick n Save,West Allis,6847,06847 0006847,6760 W. National Ave.,WI,53214
Pick n Save,Kenosha,6850,06850 0006850,1901 63rd St,WI,53143
Pick n Save,Brookfield,6853,06853 0006853,12735 W Capitol Dr,WI,53005
Pick n Save,Racine,6856,06856 0006856,1202 N. Green Bay Rd,WI,53406
Pick n Save,St. Francis,6857,06857 0006857,4698 S. Whitnall,WI,53235
Pick n Save,Oak Creek,6862,06862 0006862,8770 S. Howell Ave.,WI,53154
Pick n Save,Racine,6863,06863 0006863,2210 Rapids Dr.,WI,53403
Pick n Save,Milwaukee,6864,06864 0006864,1818 W National Ave,WI,53204
Pick n Save,Janesville,6865,06865 0006865,1717 Center Ave,WI,53546
Pick n Save,Brown Deer,6867,06867 0006867,9200 N Green Bay Rd,WI,53209
Pick n Save,Milwaukee,6868,06868 0006868,605 E Lyon St,WI,53202
Pick n Save,Kenosha,6871,06871 0006871,2811 18th St,WI,53140
Pick n Save,Cudahy,6873,06873 0006873,5851 S Packard Ave,WI,53110
Pick n Save,Kenosha,6874,06874 0006874,5710 75th St,WI,53142
Pick n Save,Milwaukee,6875,06875 0006875,8120 W Brown Deer Rd,WI,53223
Pick n Save,Glendale,6876,06876 0006876,6969 N Port Washington Rd,WI,53217
Pick n Save,South Milwaukee,6877,06877 0006877,2931 S. Chicago Avenue,WI,53172
Pick n Save,Milwaukee,6878,06878 0006878,250 W Holt Ave,WI,53207
Pick n Save,Milwaukee,6879,06879 0006879,2355 N 35th St,WI,53210
Pick n Save,Glendale,6880,06880 0006880,1735 W Silver Spring Dr,WI,53209
Pick n Save,New Berlin,6881,06881 0006881,13995 W. National Ave,WI,53151
Pick n Save,Milwaukee,6882,06882 0006882,1100 E Garfield Ave,WI,53212
Pick n Save,West Allis,6883,06883 0006883,11111 W. Greenfield Ave,WI,53214
Pick n Save,Wauwatosa,6885,06885 0006885,6950 West State Street,WI,53213
Pick n Save,Grafton,6886,06886 0006886,301 Falls Rd,WI,53024
Pick n Save,Greenfield,6887,06887 0006887,4279 S 76th St,WI,53220
Pick n Save,Watertown,6888,06888 0006888,624 South Church Street,WI,53094
Pick n Save,Menomonee Falls,6889,06889 0006889,N77 W14435 Appleton Ave,WI,53051
Pick n Save,Mount Pleasant,6891,06891 0006891,2820 S Green Bay Rd,WI,53406
Pick n Save,Menomonee Falls\t,6892,06892 0006892,N95 W18351 County Line Rd,WI,53051
Pick n Save,Ripon,7176,07176 0007176,1188 W Fond Du Lac Street,WI,54971
