keywords,city,Aggdata Store Number,store_number,address,state,zip_code
Popeyes,Chicago,64,#064 #0064 64 #64 0064,1959 W Howard St,IL,60626
Popeyes,Metairie,124,#0124 #00124 124 #124 00124,8901 Airline Hwy,LA,70003
Popeyes,Jacksonville,140,#0140 #00140 140 #140 00140,5581 Soutel Dr,FL,32219
Popeyes,Orlando,166,#0166 #00166 166 #166 00166,3981 Columbia St,FL,32805
Popeyes,Atlanta,192,#0192 #00192 192 #192 00192,2767 Clairmont Rd,GA,30329
Popeyes,Jacksonville,285,#0285 #00285 285 #285 00285,7606 Lem Turner Rd,FL,32208
Popeyes,Jacksonville,405,#0405 #00405 405 #405 00405,8007 Normandy Blvd,FL,32221
Popeyes,Jacksonville,426,#0426 #00426 426 #426 00426,656 N. Edgewood Ave.,FL,32205
Popeyes,Jacksonville,438,#0438 #00438 438 #438 00438,1902 N Main St,FL,32206
Popeyes,Philadelphia,534,#0534 #00534 534 #534 00534,314 W. Lehigh Ave.,PA,19133
Popeyes,Dallas,586,#0586 #00586 586 #586 00586,212 Continental,TX,75207
Popeyes,Lake City,716,#0716 #00716 716 #716 00716,205 W Duval St,FL,32055
Popeyes,Tallahassee,918,#0918 #00918 918 #918 00918,813 Lake Bradford Rd,FL,32304
Popeyes,Brunswick,927,#0927 #00927 927 #927 00927,3319 Altama Ave,GA,31520
Popeyes,Denver,1011,#01011 #001011 1011 #1011 001011,15199 E. Colfax Ave.,CO,80011
Popeyes,Dallas,1037,#01037 #001037 1037 #1037 001037,12435 Plano Road,TX,75243
Popeyes,Denver,1082,#01082 #001082 1082 #1082 001082,4400 N. Federal Blvd,CO,80211
Popeyes,Jacksonville,1097,#01097 #001097 1097 #1097 001097,7507 Atlantic Blvd,FL,32211
Popeyes,Jacksonville,1194,#01194 #001194 1194 #1194 001194,649 S McDuff Ave.,FL,32205
Popeyes,Houston,1318,#01318 #001318 1318 #1318 001318,12436 Bissonnet,TX,77099
Popeyes,Vista,1325,#01325 #001325 1325 #1325 001325,1817 W Vista Way #F,CA,92084
Popeyes,Jacksonville,1369,#01369 #001369 1369 #1369 001369,6310 103rd St,FL,32210
Popeyes,Dallas,1409,#01409 #001409 1409 #1409 001409,3308 W. Davis,TX,75211
Popeyes,Franklin,1411,#01411 #001411 1411 #1411 001411,1501 Joe Hoy Drive,LA,70538
Popeyes,Houston,1424,#01424 #001424 1424 #1424 001424,9287 Richmond Avenue,TX,77063
Popeyes,Garland,1449,#01449 #001449 1449 #1449 001449,1436 Beltline Road,TX,75044
Popeyes,Lake Jackson,1472,#01472 #001472 1472 #1472 001472,112 Highway 332 West,TX,77566
Popeyes,Houston,1488,#01488 #001488 1488 #1488 001488,8331 Broadway,TX,77083
Popeyes,Conroe,1507,#01507 #001507 1507 #1507 001507,905 1/2 W Davis,TX,77301
Popeyes,Dallas,1515,#01515 #001515 1515 #1515 001515,6502 Lemon Avenue,TX,75209
Popeyes,Plano,1517,#01517 #001517 1517 #1517 001517,2528 14th St.,TX,75074
Popeyes,Tomball,1532,#01532 #001532 1532 #1532 001532,1414 Graham Dr,TX,77375
Popeyes,Washington,1649,#01649 #001649 1649 #1649 001649,"601 Malcolm X Avenue, SE",DC,22032
Popeyes,Euless,1693,#01693 #001693 1693 #1693 001693,306 N. Main St.,TX,76039
Popeyes,Milwaukee,1920,#01920 #001920 1920 #1920 001920,1567 W National Ave.,WI,53204
Popeyes,Metairie,2003,#02003 #002003 2003 #2003 002003,1301 Veterans Blvd,LA,70005
Popeyes,Alvin,2008,#02008 #002008 2008 #2008 002008,2601 S. Bypass 35,TX,77511
Popeyes,Marrero,2009,#02009 #002009 2009 #2009 002009,4905 Westbank Expy,LA,70072
Popeyes,Spring,2010,#02010 #002010 2010 #2010 002010,18562 Kuykendahl,TX,77388
Popeyes,Marrero,2013,#02013 #002013 2013 #2013 002013,7100 Westbank Expressway,LA,70072
Popeyes,Humble,2016,#02016 #002016 2016 #2016 002016,3103 FM 1960 W,TX,77338
Popeyes,Metairie,2017,#02017 #002017 2017 #2017 002017,4701 Veterans Blvd,LA,70005
Popeyes,New Orleans,2020,#02020 #002020 2020 #2020 002020,1243 St. Charles Avenue,LA,70115
Popeyes,Kenner,2023,#02023 #002023 2023 #2023 002023,3444 Williams Blvd,LA,70065
Popeyes,New Orleans,2030,#02030 #002030 2030 #2030 002030,621 Canal Street,LA,70130
Popeyes,Houston,2032,#02032 #002032 2032 #2032 002032,5817 Lockwood,TX,77026
Popeyes,Houston,2033,#02033 #002033 2033 #2033 002033,9222 Cullen Blvd,TX,77051
Popeyes,Houston,2036,#02036 #002036 2036 #2036 002036,1101 N Shepherd,TX,77008
Popeyes,Houston,2037,#02037 #002037 2037 #2037 002037,9830 Homestead,TX,77016
Popeyes,Baton Rouge,2039,#02039 #002039 2039 #2039 002039,10706 Florida Blvd,LA,70815
Popeyes,Mobile,2044,#02044 #002044 2044 #2044 002044,750 Government St,AL,36602
Popeyes,Jackson,2045,#02045 #002045 2045 #2045 002045,5351 I-55 North Frontage Rd,MS,39206
Popeyes,Mobile,2047,#02047 #002047 2047 #2047 002047,4009 Airport Blvd,AL,36608
Popeyes,Savannah,2048,#02048 #002048 2048 #2048 002048,605 Martin Luther King Drive,GA,31401
Popeyes,Pensacola,2049,#02049 #002049 2049 #2049 002049,3411 N Pace Blvd,FL,32505
Popeyes,Slidell,2054,#02054 #002054 2054 #2054 002054,184 Hwy 190,LA,70458
Popeyes,Monroe,2055,#02055 #002055 2055 #2055 002055,1950 Louisville Ave,LA,71202
Popeyes,Houston,2056,#02056 #002056 2056 #2056 002056,14467 Memorial Drive,TX,77079
Popeyes,Houston,2058,#02058 #002058 2058 #2058 002058,505 W Little York,TX,77091
Popeyes,Laurel,2062,#02062 #002062 2062 #2062 002062,336 Beacon St,MS,39440
Popeyes,Calumet City,2063,#02063 #002063 2063 #2063 002063,1999 Sibley Blvd,IL,60409
Popeyes,Chicago,2065,#02065 #002065 2065 #2065 002065,500 W Madison,IL,60606
Popeyes,Duncanville,2067,#02067 #002067 2067 #2067 002067,338 E Camp Wisdom Rd,TX,75137
Popeyes,Gretna,2068,#02068 #002068 2068 #2068 002068,2148 Belle Chasse Hwy,LA,70053
Popeyes,Atlanta,2070,#02070 #002070 2070 #2070 002070,683 Boulevard,GA,30308
Popeyes,Mobile,2073,#02073 #002073 2073 #2073 002073,5413 Hwy 90 West Suite A,AL,36619
Popeyes,Monroe,2074,#02074 #002074 2074 #2074 002074,700 Hwy 165 North,LA,71202
Popeyes,Pascagoula,2075,#02075 #002075 2075 #2075 002075,2249 Denny Avenue,MS,39567
Popeyes,Austin,2077,#02077 #002077 2077 #2077 002077,1823 Airport BLvd,TX,78702
Popeyes,Jacksonville,2078,#02078 #002078 2078 #2078 002078,1509 University Blvd,FL,32211
Popeyes,New Orleans,2079,#02079 #002079 2079 #2079 002079,3825 Gen Degaullle Drive,LA,70114
Popeyes,Houston,2080,#02080 #002080 2080 #2080 002080,1110 Edgebrook Drive,TX,77034
Popeyes,Sulphur,2083,#02083 #002083 2083 #2083 002083,1613 Ruth St,LA,70663
Popeyes,San Antonio,2084,#02084 #002084 2084 #2084 002084,2107 Culebra,TX,78228
Popeyes,Pensacola,2086,#02086 #002086 2086 #2086 002086,814 E Cervantes,FL,32502
Popeyes,Winter Park,2088,#02088 #002088 2088 #2088 002088,600 S Orlando Ave,FL,32789
Popeyes,Lake Charles,2089,#02089 #002089 2089 #2089 002089,2710 Hwy 14,LA,70601
Popeyes,Bay Saint Louis,2090,#02090 #002090 2090 #2090 002090,533 Hwy 90,MS,39520
Popeyes,Laredo,2092,#02092 #002092 2092 #2092 002092,1602 Guadalupe,TX,78043
Popeyes,Metairie,2094,#02094 #002094 2094 #2094 002094,4605 Airline Hwy,LA,70001
Popeyes,New Iberia,2096,#02096 #002096 2096 #2096 002096,1108 E St Peter St,LA,70560
Popeyes,Hammond,2098,#02098 #002098 2098 #2098 002098,275 S Morrison,LA,70401
Popeyes,Houma,2099,#02099 #002099 2099 #2099 002099,6509 W. Park Ave.,LA,70360
Popeyes,Metairie,2100,#02100 #002100 2100 #2100 002100,7212 Veterans Blvd,LA,70003
Popeyes,Gainesville,2102,#02102 #002102 2102 #2102 002102,821 Jesse Jewel Parkway,GA,30501
Popeyes,Wichita,2103,#02103 #002103 2103 #2103 002103,1350 N Hillside,KS,67214
Popeyes,Athens,2105,#02105 #002105 2105 #2105 002105,1125 Prince Ave,GA,30606
Popeyes,Riverdale,2107,#02107 #002107 2107 #2107 002107,6717 Hwy 85,GA,30274
Popeyes,Atlanta,2108,#02108 #002108 2108 #2108 002108,515 Lee Street SW (West End),GA,30310
Popeyes,Miami,2110,#02110 #002110 2110 #2110 002110,5534 NW 7th Ave,FL,33127
Popeyes,Shreveport,2111,#02111 #002111 2111 #2111 002111,525 E 70th St,LA,71106
Popeyes,Shreveport,2112,#02112 #002112 2112 #2112 002112,3565 Greenwood Rd,LA,71109
Popeyes,Atlanta,2113,#02113 #002113 2113 #2113 002113,610 Cascade Avenue SW,GA,30310
Popeyes,Bastrop,2116,#02116 #002116 2116 #2116 002116,111 Hall Street,LA,71220
Popeyes,Houston,2117,#02117 #002117 2117 #2117 002117,3705 Little York,TX,77093
Popeyes,San Francisco,2118,#02118 #002118 2118 #2118 002118,1426T Fillmore St,CA,94115
Popeyes,Arlington Heights,2119,#02119 #002119 2119 #2119 002119,7 W Dundee Rd,IL,60004
Popeyes,Mobile,2122,#02122 #002122 2122 #2122 002122,1966 Government St Loop,AL,36606
Popeyes,Gadsden,2124,#02124 #002124 2124 #2124 002124,406 E Meighan St,AL,35903
Popeyes,Longview,2127,#02127 #002127 2127 #2127 002127,409 E. Marshall,TX,75601
Popeyes,Baytown,2128,#02128 #002128 2128 #2128 002128,2120 N Alexander Drive,TX,77520
Popeyes,Galveston,2129,#02129 #002129 2129 #2129 002129,3027 Broadway Street,TX,77550
Popeyes,Miami,2130,#02130 #002130 2130 #2130 002130,11205 SW 152nd St,FL,33157
Popeyes,Birmingham,2131,#02131 #002131 2131 #2131 002131,4020 Airport Hwy,AL,35222
Popeyes,Alice,2134,#02134 #002134 2134 #2134 002134,1180 E Main St,TX,78332
Popeyes,Chicago,2135,#02135 #002135 2135 #2135 002135,17 S Wabash Ave,IL,60603
Popeyes,Miami,2137,#02137 #002137 2137 #2137 002137,2490 NW 79th St,FL,33147
Popeyes,McComb,2138,#02138 #002138 2138 #2138 002138,1320 Delaware Ave,MS,39648
Popeyes,Houston,2140,#02140 #002140 2140 #2140 002140,3019 Ella Blvd,TX,77018
Popeyes,Columbia,2141,#02141 #002141 2141 #2141 002141,848 Hwy 98 Bypass,MS,39429
Popeyes,Jackson,2143,#02143 #002143 2143 #2143 002143,200 S Royal & Baltimore,TN,38301
Popeyes,Houston,2146,#02146 #002146 2146 #2146 002146,5026 Antoine,TX,77092
Popeyes,Picayune,2152,#02152 #002152 2152 #2152 002152,"706 Memorial Blvd, Pine Trail Plaza Shop Ctr",MS,39466
Popeyes,Brandon,2153,#02153 #002153 2153 #2153 002153,108 S Kings Ave,FL,33511
Popeyes,Ft Walton Beach,2154,#02154 #002154 2154 #2154 002154,52 Northwest Eglin Parkway,FL,32548
Popeyes,W Monroe,2156,#02156 #002156 2156 #2156 002156,210 Thomas Rd,LA,71201
Popeyes,Hollywood,2157,#02157 #002157 2157 #2157 002157,6384 Hollywood Blvd,CA,90028
Popeyes,Lancaster,2158,#02158 #002158 2158 #2158 002158,939 W Ave J,CA,93534
Popeyes,Lincoln,2159,#02159 #002159 2159 #2159 002159,722 West O Street,NE,68528
Popeyes,Houston,2164,#02164 #002164 2164 #2164 002164,7159 Scott,TX,77021
Popeyes,Houston,2166,#02166 #002166 2166 #2166 002166,6819 Lyons,TX,77020
Popeyes,Houston,2167,#02167 #002167 2167 #2167 002167,3432 Scott,TX,77004
Popeyes,Jacinto City,2168,#02168 #002168 2168 #2168 002168,995 Federal Road,TX,77029
Popeyes,San Diego,2169,#02169 #002169 2169 #2169 002169,3489 Santo Road,CA,92124
Popeyes,Channelview,2171,#02171 #002171 2171 #2171 002171,506 Sheldon Road,TX,77530
Popeyes,Pearl,2173,#02173 #002173 2173 #2173 002173,405 Riverwind Drive,MS,39208
Popeyes,Pensacola,2175,#02175 #002175 2175 #2175 002175,711 N Navy Blvd,FL,32507
Popeyes,Ft Lauderdale,2176,#02176 #002176 2176 #2176 002176,3291 W Broward Blvd,FL,33312
Popeyes,Alexandria,2178,#02178 #002178 2178 #2178 002178,3701 MacArthur Dr,LA,71302
Popeyes,Mandeville,2181,#02181 #002181 2181 #2181 002181,701 N Causeway,LA,70448
Popeyes,Houston,2182,#02182 #002182 2182 #2182 002182,103 FM 1960 Rd E,TX,77073
Popeyes,Brookhaven,2185,#02185 #002185 2185 #2185 002185,991 Brookway Blvd,MS,39601
Popeyes,Orlando,2186,#02186 #002186 2186 #2186 002186,5245 W Colonial Dr,FL,32807
Popeyes,Orlando,2187,#02187 #002187 2187 #2187 002187,6725 Sand Lake Rd,FL,32819
Popeyes,Bossier City,2188,#02188 #002188 2188 #2188 002188,2104 Airline Drive,LA,71111
Popeyes,Milwaukee,2189,#02189 #002189 2189 #2189 002189,2910 W Capitol Dr.,WI,53216
Popeyes,Clarksdale,2190,#02190 #002190 2190 #2190 002190,717 S State St,MS,38614
Popeyes,Gambrills,2196,#02196 #002196 2196 #2196 002196,1086 Maryland Rt 3 North,MD,21054
Popeyes,La Place,2197,#02197 #002197 2197 #2197 002197,1603 W Airline,LA,70068
Popeyes,Carol City,2198,#02198 #002198 2198 #2198 002198,3285 NW 183rd St,FL,33056
Popeyes,Baltimore,2200,#02200 #002200 2200 #2200 002200,300 N Broadway,MD,21231
Popeyes,Houston,2202,#02202 #002202 2202 #2202 002202,4946 Hwy 6 North,TX,77084
Popeyes,Corpus Christi,2203,#02203 #002203 2203 #2203 002203,4501 Weber Rd,TX,78411
Popeyes,Morgan City,2204,#02204 #002204 2204 #2204 002204,6414 Highway 90 East,LA,70380
Popeyes,Jennings,2205,#02205 #002205 2205 #2205 002205,1205 Elton Road,LA,70546
Popeyes,Portland,2207,#02207 #002207 2207 #2207 002207,3120 NE MLK Blvd.,OR,97211
Popeyes,Jacinto City,2211,#02211 #002211 2211 #2211 002211,10903 Market St,TX,77029
Popeyes,Jacksonville,2213,#02213 #002213 2213 #2213 002213,1833 Kings Rd,FL,32209
Popeyes,Lafayette,2220,#02220 #002220 2220 #2220 002220,1300 W Pinhook Rd,LA,70503
Popeyes,Lake Charles,2223,#02223 #002223 2223 #2223 002223,125 W Prien Lake Rd,LA,70601
Popeyes,Ft Pierce,2224,#02224 #002224 2224 #2224 002224,1601 S US Hwy 1,FL,34950
Popeyes,Natchez,2227,#02227 #002227 2227 #2227 002227,263 Devereaux Drive,MS,39120
Popeyes,Anniston,2229,#02229 #002229 2229 #2229 002229,1925 Quintard Ave,AL,36207
Popeyes,Washington,2232,#02232 #002232 2232 #2232 002232,1226 H Street NE,DC,20002
Popeyes,New Orleans,2239,#02239 #002239 2239 #2239 002239,3100 S. Carrollton Ave,LA,70118
Popeyes,Colorado Springs,2243,#02243 #002243 2243 #2243 002243,312 S 8th Street,CO,80905
Popeyes,"New Orleans,",2245,#02245 #002245 2245 #2245 002245,4480 Chef Menteur Hwy,LA,70126
Popeyes,"Gretna,",2249,#02249 #002249 2249 #2249 002249,1401 Lafayette Street Suite D,LA,70053
Popeyes,Orlando,2250,#02250 #002250 2250 #2250 002250,45 N Orange Blossom Trail,FL,32805
Popeyes,San Antonio,2251,#02251 #002251 2251 #2251 002251,10131 Wurzback Rd,TX,78230
Popeyes,Ocala,2252,#02252 #002252 2252 #2252 002252,1713 S. Pine St,FL,34471
Popeyes,Tampa,2255,#02255 #002255 2255 #2255 002255,2619 W. Waters Ave.,FL,33614
Popeyes,Savannah,2256,#02256 #002256 2256 #2256 002256,2514 Bull Street,GA,31401
Popeyes,Lake Charles,2258,#02258 #002258 2258 #2258 002258,301 N Enterprise Blvd,LA,70601
Popeyes,Jacksonville,2259,#02259 #002259 2259 #2259 002259,5715 Normandy Blvd,FL,32205
Popeyes,West Lake Hills,2261,#02261 #002261 2261 #2261 002261,3652 Bee Caves Rd,TX,78746
Popeyes,Corpus Christi,2262,#02262 #002262 2262 #2262 002262,1115 S Port Avenue,TX,78405
Popeyes,San Antonio,2264,#02264 #002264 2264 #2264 002264,506 S WW White Rd,TX,78219
Popeyes,Tampa,2265,#02265 #002265 2265 #2265 002265,2337 Green St,FL,33607
Popeyes,Laredo,2268,#02268 #002268 2268 #2268 002268,2801 E Saunders,TX,78041
Popeyes,Gulfport,2269,#02269 #002269 2269 #2269 002269,2420 25th St,MS,39501
Popeyes,Beaumont,2271,#02271 #002271 2271 #2271 002271,1430 Washington Blvd,TX,77705
Popeyes,Tallahassee,2272,#02272 #002272 2272 #2272 002272,491 W Tennessee St,FL,32301
Popeyes,Bessemer,2273,#02273 #002273 2273 #2273 002273,932 9th Ave,AL,35020
Popeyes,Washington,2275,#02275 #002275 2275 #2275 002275,5200 N W Georgia Ave,DC,20011
Popeyes,S Bend,2278,#02278 #002278 2278 #2278 002278,2605 Lincoln Way W,IN,46628
Popeyes,Crowley,2279,#02279 #002279 2279 #2279 002279,2610 N. Parkerson Avenue,LA,70526
Popeyes,Detroit,2280,#02280 #002280 2280 #2280 002280,8997 Greenfield Rd,MI,48228
Popeyes,Oxon HIll,2282,#02282 #002282 2282 #2282 002282,5151 Indian Head Hwy,MD,20745
Popeyes,Las Vegas,2295,#02295 #002295 2295 #2295 002295,2421 Bonanza,NV,89106
Popeyes,Saraland,2298,#02298 #002298 2298 #2298 002298,1030 Hwy 43,AL,36571
Popeyes,Orlando,2299,#02299 #002299 2299 #2299 002299,5700 Lake Underhill Rd,FL,32807
Popeyes,Daytona Beach,2300,#02300 #002300 2300 #2300 002300,101 N Ridgewood Ave,FL,32114
Popeyes,Detroit,2305,#02305 #002305 2305 #2305 002305,6500 Woodward Ave,MI,48202
Popeyes,Port Arthur,2307,#02307 #002307 2307 #2307 002307,4049 Gulfway Dr,TX,77642
Popeyes,Portland,2308,#02308 #002308 2308 #2308 002308,5949 NE MLK Blvd.,OR,97211
Popeyes,Pontiac,2311,#02311 #002311 2311 #2311 002311,630 MLK Jr Blvd. North,MI,48342
Popeyes,Jackson,2315,#02315 #002315 2315 #2315 002315,1921 N Highland,TN,38303
Popeyes,Sarasota,2317,#02317 #002317 2317 #2317 002317,820 N Washington Blvd,FL,34236
Popeyes,Miami,2323,#02323 #002323 2323 #2323 002323,1695 NW 103rd St,FL,33147
Popeyes,Gary,2326,#02326 #002326 2326 #2326 002326,1080 Broadway,IN,34741
Popeyes,Laredo,2337,#02337 #002337 2337 #2337 002337,4905 San Bernardo St,TX,78041
Popeyes,Ft Lauderdale,2339,#02339 #002339 2339 #2339 002339,1355 W Sunrise Blvd,FL,33311
Popeyes,Covington,2340,#02340 #002340 2340 #2340 002340,2801 N Hwy 190,LA,70433
Popeyes,Arlington,2341,#02341 #002341 2341 #2341 002341,4675 King St.,VA,22206
Popeyes,Brooklyn,2342,#02342 #002342 2342 #2342 002342,850 Pennsylvania Ave,NY,11207
Popeyes,Lincoln,2344,#02344 #002344 2344 #2344 002344,741 N 48th St,NE,68504
Popeyes,Altamonte Springs,2347,#02347 #002347 2347 #2347 002347,460 West State Rd 436,FL,32714
Popeyes,Kissimmee,2348,#02348 #002348 2348 #2348 002348,324 W Vine Street,FL,34741
Popeyes,Jacksonville,2350,#02350 #002350 2350 #2350 002350,4108 University Blvd. S.,FL,20019
Popeyes,Opelousas,2354,#02354 #002354 2354 #2354 002354,921 S Union St,LA,70570
Popeyes,LaRose,2355,#02355 #002355 2355 #2355 002355,13952 W. Main Street,LA,70343
Popeyes,Gonzales,2356,#02356 #002356 2356 #2356 002356,151 Airline Hwy,LA,70737
Popeyes,Grand Rapids,2357,#02357 #002357 2357 #2357 002357,1954 South Division Street,MI,49507
Popeyes,Boise,2362,#02362 #002362 2362 #2362 002362,8840 Fairview Ave,ID,83704
Popeyes,Houston,2364,#02364 #002364 2364 #2364 002364,7100 Lawndale Street,TX,77023
Popeyes,Savannah,2366,#02366 #002366 2366 #2366 002366,2060 E Victory Dr,GA,31404
Popeyes,Chicago,2367,#02367 #002367 2367 #2367 002367,2556 S California Ave,IL,60608
Popeyes,Chicago,2368,#02368 #002368 2368 #2368 002368,11350 S Halsted St,IL,60628
Popeyes,Takoma Park,2370,#02370 #002370 2370 #2370 002370,6350 New Hampshire Ave,MD,20912
Popeyes,Detroit,2375,#02375 #002375 2375 #2375 002375,16900 Meyers Road,MI,48235
Popeyes,Suitland,2381,#02381 #002381 2381 #2381 002381,4621 Silver Hill Rd,MD,20746
Popeyes,Rainbow City,2382,#02382 #002382 2382 #2382 002382,3339 Rainbow Dr,AL,35901
Popeyes,"New Orleans,",2383,#02383 #002383 2383 #2383 002383,2000 Gentilly/Pairs,LA,70119
Popeyes,Chicago,2384,#02384 #002384 2384 #2384 002384,9516 S Vincennes St,IL,60643
Popeyes,Washington,2385,#02385 #002385 2385 #2385 002385,409 8th St. SE,DC,20003
Popeyes,Bridgeview,2387,#02387 #002387 2387 #2387 002387,9001 S Harlem Ave.,IL,60455
Popeyes,Los Angeles,2388,#02388 #002388 2388 #2388 002388,2532 S Figueroa,CA,90007
Popeyes,Maywood,2393,#02393 #002393 2393 #2393 002393,1019 W Roosevelt,IL,60153
Popeyes,Lanham,2396,#02396 #002396 2396 #2396 002396,7711 Annapolis Rd,MD,20784
Popeyes,Honolulu,2398,#02398 #002398 2398 #2398 002398,1515 Dillingham Blvd,HI,96817
Popeyes,Jackson,2409,#02409 #002409 2409 #2409 002409,4337 Robinson Rd,MS,39209
Popeyes,Alexandria,2412,#02412 #002412 2412 #2412 002412,"7832 Richmond Hwy, Hybla Valley Shop Center",VA,22306
Popeyes,Chicago,2414,#02414 #002414 2414 #2414 002414,6340 N Broadway,IL,60660
Popeyes,Queens Village,2415,#02415 #002415 2415 #2415 002415,21820 Jamaica Ave.,NY,11428
Popeyes,Merrillville,2419,#02419 #002419 2419 #2419 002419,1555 E 82nd Ave,IN,46410
Popeyes,St. Louis,2420,#02420 #002420 2420 #2420 002420,6301 W Florissant Avenue,MO,63136
Popeyes,Midlothian,2422,#02422 #002422 2422 #2422 002422,14536 S Pulaski Ave,IL,60445
Popeyes,Chicago,2423,#02423 #002423 2423 #2423 002423,10331 S Kedzie Ave,IL,60655
Popeyes,Colorado Springs,2425,#02425 #002425 2425 #2425 002425,3815 E Pikes Peak,CO,80909
Popeyes,Houston,2427,#02427 #002427 2427 #2427 002427,1760 W Mount Houston Rd,TX,77038
Popeyes,St. Louis,2437,#02437 #002437 2437 #2437 002437,909 N Kings Hwy,MO,63108
Popeyes,Chicago,2438,#02438 #002438 2438 #2438 002438,5050 S Cicero Ave,IL,60638
Popeyes,Clewiston,2441,#02441 #002441 2441 #2441 002441,504 E Sugarland Hwy,FL,33440
Popeyes,Harvey,2442,#02442 #002442 2442 #2442 002442,15345 S Wood St,IL,60426
Popeyes,Immokalee,2444,#02444 #002444 2444 #2444 002444,302 N 15th St.,FL,34142
Popeyes,Annandale,2447,#02447 #002447 2447 #2447 002447,7043 Little River Turnpike,VA,22003
Popeyes,Chicago,2449,#02449 #002449 2449 #2449 002449,6321 N Lincoln Ave,IL,60659
Popeyes,N Miami,2450,#02450 #002450 2450 #2450 002450,12100 NW 7th Ave,FL,33168
Popeyes,Ridgeland,2451,#02451 #002451 2451 #2451 002451,1074 E County Line Rd,MS,39211
Popeyes,Oak Park,2453,#02453 #002453 2453 #2453 002453,610 W Madison St,IL,60302
Popeyes,Birmingham,2456,#02456 #002456 2456 #2456 002456,725 11th Court West,AL,35204
Popeyes,Westlake,2457,#02457 #002457 2457 #2457 002457,1601 Sampson St,LA,70669
Popeyes,Los Angeles,2458,#02458 #002458 2458 #2458 002458,8530 S Figueroa,CA,90003
Popeyes,Jacksonville,2459,#02459 #002459 2459 #2459 002459,2143 Edgewood W Ave E,FL,32208
Popeyes,"Metairie,",2464,#02464 #002464 2464 #2464 002464,4305 Transcontinental,LA,70002
Popeyes,Neptune Beach,2465,#02465 #002465 2465 #2465 002465,524 Atlantic Blvd,FL,32266
Popeyes,Belridge,2467,#02467 #002467 2467 #2467 002467,8654 Natural Bridge Rd,MO,63121
Popeyes,Cleveland,2469,#02469 #002469 2469 #2469 002469,18126 Euclid Ave,OH,44112
Popeyes,Teaneck,2470,#02470 #002470 2470 #2470 002470,1307 Teaneck Road,NJ,7666
Popeyes,Palatine,2473,#02473 #002473 2473 #2473 002473,45 N Northwest Hwy,IL,60067
Popeyes,"Kenner,",2474,#02474 #002474 2474 #2474 002474,3016 Loyola Drive,LA,70065
Popeyes,Waldorf,2475,#02475 #002475 2475 #2475 002475,2485 Crain Hwy,MD,20601
Popeyes,Clinton,2476,#02476 #002476 2476 #2476 002476,8817 Woodyard Rd,MD,20735
Popeyes,Belle Chasse,2477,#02477 #002477 2477 #2477 002477,8144 Hwy 23,LA,70037
Popeyes,Colorado Springs,2479,#02479 #002479 2479 #2479 002479,3450 Austin Bluff Pkwy,CO,80918
Popeyes,Greenville,2480,#02480 #002480 2480 #2480 002480,1983 Hwy 82 East,MS,38701
Popeyes,Statesboro,2482,#02482 #002482 2482 #2482 002482,536 Fair Road,GA,30458
Popeyes,"New Orleans,",2485,#02485 #002485 2485 #2485 002485,5757 Read Rd,LA,70127
Popeyes,Belle Glade,2489,#02489 #002489 2489 #2489 002489,932 S Main St,FL,33430
Popeyes,Annapolis,2491,#02491 #002491 2491 #2491 002491,22 Defense St,MD,21401
Popeyes,Portland,2492,#02492 #002492 2492 #2492 002492,1670 Wildcat Drive,TX,78374
Popeyes,Los Angeles,2495,#02495 #002495 2495 #2495 002495,3050 S. La Brea Avenue,CA,90016
Popeyes,Lafayette,2498,#02498 #002498 2498 #2498 002498,2805 Verot School Road,LA,70508
Popeyes,Merritt Island,2500,#02500 #002500 2500 #2500 002500,116 W Merrit Island,FL,32952
Popeyes,DeRidder,2501,#02501 #002501 2501 #2501 002501,421 N Pine St,LA,70634
Popeyes,Birmingham,2502,#02502 #002502 2502 #2502 002502,2239 Bessemer Rd,AL,35208
Popeyes,Deland,2503,#02503 #002503 2503 #2503 002503,928 N Woodlawn Blvd,FL,32720
Popeyes,St. Louis,2506,#02506 #002506 2506 #2506 002506,3515 Natural Bridge Avenue,MO,63107
Popeyes,Pagedale,2508,#02508 #002508 2508 #2508 002508,7115 Page Ave.,MO,63133
Popeyes,Ft Myers,2509,#02509 #002509 2509 #2509 002509,3238 Fowler St,FL,33901
Popeyes,Leesville,2512,#02512 #002512 2512 #2512 002512,"2410 S 5th St, Hwy 171",LA,71446
Popeyes,East Orange,2513,#02513 #002513 2513 #2513 002513,372 Central Ave,NJ,7018
Popeyes,Bogalusa,2515,#02515 #002515 2515 #2515 002515,206 Superior Avenue,LA,70427
Popeyes,New Iberia,2517,#02517 #002517 2517 #2517 002517,1133 W Main St,LA,70560
Popeyes,Lake Charles,2518,#02518 #002518 2518 #2518 002518,901 Country Club Drive,LA,70605
Popeyes,Jacksonville,2519,#02519 #002519 2519 #2519 002519,1324 Dunn Ave,FL,32218
Popeyes,Woodbridge,2520,#02520 #002520 2520 #2520 002520,14420 Jefferson Davis Hwy,VA,22192
Popeyes,Bensalem,2523,#02523 #002523 2523 #2523 002523,2160 Street Rd,PA,19020
Popeyes,Randallstown,2528,#02528 #002528 2528 #2528 002528,8505 Liberty Road,MD,21133
Popeyes,National City,2529,#02529 #002529 2529 #2529 002529,2333 Highland Ave,CA,91950
Popeyes,Bradenton,2532,#02532 #002532 2532 #2532 002532,3390 First St W,FL,34205
Popeyes,Brunswick,2537,#02537 #002537 2537 #2537 002537,1817 Glynn Ave,GA,31520
Popeyes,Washington,2538,#02538 #002538 2538 #2538 002538,1315 14th St NW,DC,20005
Popeyes,Blythe,2543,#02543 #002543 2543 #2543 002543,700 W Rice Ave,CA,92225
Popeyes,Brooklyn Park,2544,#02544 #002544 2544 #2544 002544,5317 Governor Ritchie Hwy,MD,21225
Popeyes,Washington,2545,#02545 #002545 2545 #2545 002545,4309 Wisconsin Ave NW,DC,20016
Popeyes,Springfield,2546,#02546 #002546 2546 #2546 002546,2801 S. Grand,IL,62703
Popeyes,Washington,2548,#02548 #002548 2548 #2548 002548,4525 Benning Rd SE,DC,20019
Popeyes,Los Angeles,2549,#02549 #002549 2549 #2549 002549,3995 S Western,CA,90062
Popeyes,St. Louis,2553,#02553 #002553 2553 #2553 002553,#20 Airport Road,MO,63135
Popeyes,Hamden,2554,#02554 #002554 2554 #2554 002554,2390 Dixwell Ave,CT,6514
Popeyes,Panama City,2555,#02555 #002555 2555 #2555 002555,1302 W Hwy 98,FL,32401
Popeyes,Burbank,2556,#02556 #002556 2556 #2556 002556,4809 S 77th Ave,IL,60459
Popeyes,Brooklyn,2558,#02558 #002558 2558 #2558 002558,1126 Eastern Pkwy,NY,11213
Popeyes,Jackson,2560,#02560 #002560 2560 #2560 002560,324 W Northside Dr,MS,39206
Popeyes,Miami,2563,#02563 #002563 2563 #2563 002563,20690 NW 2nd Ave,FL,33169
Popeyes,Griffith,2566,#02566 #002566 2566 #2566 002566,452 W Ridge Ave,IN,46319
Popeyes,Greenbelt,2568,#02568 #002568 2568 #2568 002568,6224 Greenbelt Rd,MD,20770
Popeyes,Temple Hills,2569,#02569 #002569 2569 #2569 002569,2310 Iverson St,MD,20748
Popeyes,Salisbury,2572,#02572 #002572 2572 #2572 002572,945 S Salisbury Blvd,MD,21801
Popeyes,Chicago,2574,#02574 #002574 2574 #2574 002574,616 E 103rd St,IL,60628
Popeyes,Morton Grove,2575,#02575 #002575 2575 #2575 002575,6939 W Golf Rd,IL,60053
Popeyes,Hillside,2576,#02576 #002576 2576 #2576 002576,1318 Liberty Ave,NJ,7205
Popeyes,Huntsville,2577,#02577 #002577 2577 #2577 002577,3820 University Dr,AL,35805
Popeyes,Evergreen Park,2579,#02579 #002579 2579 #2579 002579,2701 W 95th St,IL,60805
Popeyes,Newark,2582,#02582 #002582 2582 #2582 002582,1700 Kirkwood Hwy,DE,19711
Popeyes,Blue Island,2584,#02584 #002584 2584 #2584 002584,12100 S Western Ave,IL,60406
Popeyes,Austin,2585,#02585 #002585 2585 #2585 002585,516 W. Oltorf,TX,78704
Popeyes,Atlanta,2587,#02587 #002587 2587 #2587 002587,3506 Memorial Drive,GA,30032
Popeyes,Seat Pleasant,2591,#02591 #002591 2591 #2591 002591,6214 Central Ave,MD,20743
Popeyes,Orange Park,2594,#02594 #002594 2594 #2594 002594,430 Blanding Blvd,FL,32073
Popeyes,Trenton,2599,#02599 #002599 2599 #2599 002599,2595 Nottingham Way,NJ,8619
Popeyes,Haines City,2600,#02600 #002600 2600 #2600 002600,35988 Hwy 27 North - Wal Mart Shop Center,FL,33844
Popeyes,Marrero,2601,#02601 #002601 2601 #2601 002601,5950 Lapalco Blvd.,LA,70072
Popeyes,Colorado Springs,2604,#02604 #002604 2604 #2604 002604,2839 E Fountain Blvd,CO,80910
Popeyes,Orlando,2606,#02606 #002606 2606 #2606 002606,1035 Lee Road,FL,32810
Popeyes,National City,2614,#02614 #002614 2614 #2614 002614,2210 E. Plaza Blvd,CA,91950
Popeyes,Kingsville,2619,#02619 #002619 2619 #2619 002619,622 S 14th St,TX,78363
Popeyes,Abbeville,2621,#02621 #002621 2621 #2621 002621,501 Veterans Memorial Drive,LA,70510
Popeyes,Lynn Haven,2624,#02624 #002624 2624 #2624 002624,1501 Ohio Ave.,FL,32444
Popeyes,Lexington Park,2626,#02626 #002626 2626 #2626 002626,21729A Great Mills Rd,MD,20653
Popeyes,Berwyn,2631,#02631 #002631 2631 #2631 002631,6935 W Cermack Rd,IL,60402
Popeyes,Eunice,2634,#02634 #002634 2634 #2634 002634,2311 W Laurel St,LA,70535
Popeyes,Raceland,2635,#02635 #002635 2635 #2635 002635,4556 Hwy 1 - Sugarland Shopping Ctr,LA,70395
Popeyes,Landover,2636,#02636 #002636 2636 #2636 002636,7706 Landover Rd,MD,20785
Popeyes,New Haven,2637,#02637 #002637 2637 #2637 002637,35 Whalley Ave,CT,6511
Popeyes,Killeen,2642,#02642 #002642 2642 #2642 002642,1001 W Central Texas Expressway,TX,76541
Popeyes,Plaquemine,2643,#02643 #002643 2643 #2643 002643,24615 Hwy 1,LA,70764
Popeyes,Chicago,2645,#02645 #002645 2645 #2645 002645,1160 N Clark St,IL,60610
Popeyes,Gainesville,2646,#02646 #002646 2646 #2646 002646,1412 N Main St,FL,32601
Popeyes,Miami,2647,#02647 #002647 2647 #2647 002647,1501 NW 20th St,FL,33142
Popeyes,Deerfield Beach,2648,#02648 #002648 2648 #2648 002648,233 W HIllsboro Blvd,FL,33441
Popeyes,San Antonio,2654,#02654 #002654 2654 #2654 002654,14107 Nacogdoches St,TX,78247
Popeyes,Pasadena,2656,#02656 #002656 2656 #2656 002656,899 N. Lake Avenue,CA,91104
Popeyes,Denver,2658,#02658 #002658 2658 #2658 002658,5454 E Colfax,CO,80220
Popeyes,Houston,2659,#02659 #002659 2659 #2659 002659,11240 Veterans Memorial,TX,77067
Popeyes,Jackson,2661,#02661 #002661 2661 #2661 002661,986 High St,MS,39202
Popeyes,Laredo,2670,#02670 #002670 2670 #2670 002670,801 Park St,TX,78043
Popeyes,Houma,2672,#02672 #002672 2672 #2672 002672,1151 Grand Caillou Rd,LA,70361
Popeyes,Arlington,2673,#02673 #002673 2673 #2673 002673,5007 Columbia Pike,VA,22204
Popeyes,Tucker,2676,#02676 #002676 2676 #2676 002676,3189 Norcross-Tucker Rd,GA,30084
Popeyes,Huntsville,2685,#02685 #002685 2685 #2685 002685,3000 Memorial Parkway Northwest,AL,35810
Popeyes,Baton Rouge,2688,#02688 #002688 2688 #2688 002688,2137 Staring Ln,LA,70810
Popeyes,Leesburg,2689,#02689 #002689 2689 #2689 002689,613 N 14th St,FL,34748
Popeyes,Gladstone,2691,#02691 #002691 2691 #2691 002691,6060 N Antioch Rd,MO,64118
Popeyes,Fairview Heights,2693,#02693 #002693 2693 #2693 002693,6011 N Illinois,IL,62208
Popeyes,Cleveland,2697,#02697 #002697 2697 #2697 002697,13337 Euclid Ave,OH,44112
Popeyes,Donaldsonville,2700,#02700 #002700 2700 #2700 002700,1345 Highway 1 S,LA,70346
Popeyes,New Braunfels,2701,#02701 #002701 2701 #2701 002701,1145 Interstate Hwy 35,TX,78130
Popeyes,Chicago,2703,#02703 #002703 2703 #2703 002703,5500 W North Ave,IL,60639
Popeyes,Oxnard,2710,#02710 #002710 2710 #2710 002710,1900 N Ventura Rd,CA,93030
Popeyes,Adelphi,2711,#02711 #002711 2711 #2711 002711,9147 Riggs Rd,MD,20783
Popeyes,District Heights,2712,#02712 #002712 2712 #2712 002712,5320 Marlboro Pike,MD,20747
Popeyes,Texas City,2714,#02714 #002714 2714 #2714 002714,3315 Palmer,TX,77590
Popeyes,Denver,2715,#02715 #002715 2715 #2715 002715,2122 E Colfax,CO,80206
Popeyes,Mission,2721,#02721 #002721 2721 #2721 002721,6821 Johnson Drive,KS,66202
Popeyes,Alexandria,2735,#02735 #002735 2735 #2735 002735,25 S. Pickett St.,VA,22304
Popeyes,Lafayette,2736,#02736 #002736 2736 #2736 002736,2404 W Congress St,LA,70506
Popeyes,Columbus,2747,#02747 #002747 2747 #2747 002747,2340 Wynnton Rd,GA,31917
Popeyes,Vidalia,2749,#02749 #002749 2749 #2749 002749,1515 Carter St,LA,71373
Popeyes,Dale City,2750,#02750 #002750 2750 #2750 002750,2954 Dale Blvd,VA,22193
Popeyes,Houston,2754,#02754 #002754 2754 #2754 002754,8519 W Bellfort,TX,77071
Popeyes,Chicago,2756,#02756 #002756 2756 #2756 002756,5248 W Belmont Ave,IL,60641
Popeyes,Pensacola,2762,#02762 #002762 2762 #2762 002762,350 E Nine Mile Rd,FL,32514
Popeyes,Rehoboth Beach,2765,#02765 #002765 2765 #2765 002765,4493 Highway One - Box 4F,DE,19971
Popeyes,Manassas,2768,#02768 #002768 2768 #2768 002768,8416 Sudley Rd,VA,20109
Popeyes,Detroit,2772,#02772 #002772 2772 #2772 002772,12218 E Warren Avenue,MI,48215
Popeyes,Rockville,2774,#02774 #002774 2774 #2774 002774,11720 Rockville Pike,MD,20852
Popeyes,Baltimore,2778,#02778 #002778 2778 #2778 002778,2016 E. Joppa Rd,MD,21234
Popeyes,Hyattsville,2779,#02779 #002779 2779 #2779 002779,2451 Chillum Rd,MD,20782
Popeyes,St. Louis,2780,#02780 #002780 2780 #2780 002780,9854 Halls Ferry Road,MO,63136
Popeyes,Ruston,2781,#02781 #002781 2781 #2781 002781,501 W California Avenue,LA,71270
Popeyes,Columbus,2786,#02786 #002786 2786 #2786 002786,1535 Hwy 45 North,MS,39703
Popeyes,Houston,2787,#02787 #002787 2787 #2787 002787,4862 Willowbend Blvd,TX,77035
Popeyes,Fredericksburg,2793,#02793 #002793 2793 #2793 002793,1903 Plank Rd,VA,22401
Popeyes,San Francisco,2794,#02794 #002794 2794 #2794 002794,599 Divisadero,CA,94117
Popeyes,Wichita,2800,#02800 #002800 2800 #2800 002800,1211 N Broadway Ave,KS,67214
Popeyes,Sanford,2804,#02804 #002804 2804 #2804 002804,2660 S. Hwy 17-92,FL,32771
Popeyes,Jacksonville,2808,#02808 #002808 2808 #2808 002808,10132 San Jose Blvd,FL,32257
Popeyes,Chicago,2812,#02812 #002812 2812 #2812 002812,346 E. 95th St.,IL,60628
Popeyes,Sherman,2813,#02813 #002813 2813 #2813 002813,3109 Hwy 75 N,TX,75090
Popeyes,Austin,2815,#02815 #002815 2815 #2815 002815,9815 N Lamar,TX,78753
Popeyes,Austin,2816,#02816 #002816 2816 #2816 002816,5630 Cameron Rd,TX,78723
Popeyes,Baton Rouge,2820,#02820 #002820 2820 #2820 002820,11413 Reulet Ave,LA,70816
Popeyes,Aurora,2826,#02826 #002826 2826 #2826 002826,3122 S Parker Rd,CO,80014
Popeyes,Severn,2829,#02829 #002829 2829 #2829 002829,"2612 Annapolis Rd, Severn Square Shopping Center",MD,21144
Popeyes,Paramus,2830,#02830 #002830 2830 #2830 002830,786 Rt 17,NJ,7652
Popeyes,Chicago,2836,#02836 #002836 2836 #2836 002836,1949 W Fullerton Ave,IL,60614
Popeyes,Owings Mills,2838,#02838 #002838 2838 #2838 002838,10101 Reisterstown Rd,MD,21117
Popeyes,Silver Spring,2839,#02839 #002839 2839 #2839 002839,8641 16th St,MD,20910
Popeyes,Gaithersburg,2841,#02841 #002841 2841 #2841 002841,417 N Frederick Ave,MD,20877
Popeyes,Kansas City,2843,#02843 #002843 2843 #2843 002843,3102 Prospect Ave,MO,64128
Popeyes,Ponchatoula,2844,#02844 #002844 2844 #2844 002844,1006 W Pine St,LA,70454
Popeyes,Lubbock,2845,#02845 #002845 2845 #2845 002845,5102 Slide Rd,TX,79414
Popeyes,Jackson,2846,#02846 #002846 2846 #2846 002846,3085 Terry Rd,MS,39212
Popeyes,San Bernardino,2847,#02847 #002847 2847 #2847 002847,198 E Redlands Blvd,CA,92408
Popeyes,Laurel,2849,#02849 #002849 2849 #2849 002849,2247 16th Avenue,MS,39440
Popeyes,Easton,2853,#02853 #002853 2853 #2853 002853,8199 Ocean Gateway,MD,21601
Popeyes,Baton Rouge,2855,#02855 #002855 2855 #2855 002855,5275 Government St,LA,70806
Popeyes,Aurora,2856,#02856 #002856 2856 #2856 002856,4427 Fox Valley Center Dr,IL,60504
Popeyes,Chicago,2857,#02857 #002857 2857 #2857 002857,1600 W Irving Park Rd,IL,60613
Popeyes,Chicago,2858,#02858 #002858 2858 #2858 002858,2800 W Diversey,IL,60647
Popeyes,Chicago,2859,#02859 #002859 2859 #2859 002859,50 N Western Ave,IL,60612
Popeyes,Vicksburg,2862,#02862 #002862 2862 #2862 002862,3309 Pemberton Square Blvd,MS,39180
Popeyes,Chicago,2865,#02865 #002865 2865 #2865 002865,3204 S Ashland,IL,60608
Popeyes,Baltimore,2869,#02869 #002869 2869 #2869 002869,2301 Liberty Heights Ave,MD,21215
Popeyes,Baltimore,2872,#02872 #002872 2872 #2872 002872,1311 Merritt Blvd,MD,21222
Popeyes,Orange,2873,#02873 #002873 2873 #2873 002873,1604 W Link Ave,TX,77630
Popeyes,Destrehan,2874,#02874 #002874 2874 #2874 002874,13510 Longview Rd,LA,70047
Popeyes,Inglewood,2877,#02877 #002877 2877 #2877 002877,957 N La Brea Avenue,CA,90302
Popeyes,Washington,2879,#02879 #002879 2879 #2879 002879,634 Rhode Island Ave. NE,DC,20002
Popeyes,Melbourne,2885,#02885 #002885 2885 #2885 002885,2225 W New Haven Avenue,FL,32901
Popeyes,Alexandria,2888,#02888 #002888 2888 #2888 002888,1001 McArthur Drive,LA,71301
Popeyes,St. Martinville,2893,#02893 #002893 2893 #2893 002893,2312 N Main St,LA,70582
Popeyes,Oviedo,2894,#02894 #002894 2894 #2894 002894,81 Geneva Dr,FL,32765
Popeyes,Tallahassee,2895,#02895 #002895 2895 #2895 002895,3511 Thomasville Rd,FL,32308
Popeyes,Apopka,2896,#02896 #002896 2896 #2896 002896,402 E Main St,FL,32703
Popeyes,Huntsville,2899,#02899 #002899 2899 #2899 002899,9030-J Memorial Parkway South,AL,35802
Popeyes,Tinley Park,2900,#02900 #002900 2900 #2900 002900,7001 W 159th St,IL,60477
Popeyes,Sacramento,2902,#02902 #002902 2902 #2902 002902,7229 Stockton Blvd,CA,95823
Popeyes,Richland,2904,#02904 #002904 2904 #2904 002904,1176 US Hwy 49 South,MS,39218
Popeyes,Harvey,2905,#02905 #002905 2905 #2905 002905,257 E Sibley,IL,60426
Popeyes,Melrose Park,2906,#02906 #002906 2906 #2906 002906,2035 N Mannheim Rd,IL,60164
Popeyes,Crest Hill,2907,#02907 #002907 2907 #2907 002907,1620 N Larkin Ave,IL,60435
Popeyes,Brooklyn,2910,#02910 #002910 2910 #2910 002910,40 Empire Blvd,NY,11225
Popeyes,Cedar Park,2915,#02915 #002915 2915 #2915 002915,251 W Bell,TX,78613
Popeyes,Calumet City,2928,#02928 #002928 2928 #2928 002928,799 River Oaks Drive,IL,60409
Popeyes,Leesburg,2929,#02929 #002929 2929 #2929 002929,515 E Market St,VA,20175
Popeyes,Marksville,2937,#02937 #002937 2937 #2937 002937,774 Tunica Drive East,LA,71351
Popeyes,Plant City,2939,#02939 #002939 2939 #2939 002939,2005 S Frontage Rd,FL,33566
Popeyes,Pearland,2945,#02945 #002945 2945 #2945 002945,3416 E Broadway,TX,77581
Popeyes,Houston,2946,#02946 #002946 2946 #2946 002946,4502 W. Fuqua,TX,77045
Popeyes,Houston,2947,#02947 #002947 2947 #2947 002947,9120 S. Main,TX,77025
Popeyes,Houston,2948,#02948 #002948 2948 #2948 002948,5625 Richmond,TX,77057
Popeyes,Minneapolis,2950,#02950 #002950 2950 #2950 002950,310 W Lake St,MN,55408
Popeyes,N. Chicago,2952,#02952 #002952 2952 #2952 002952,2141 Green Bay Rd,IL,60064
Popeyes,Jackson,2955,#02955 #002955 2955 #2955 002955,4725 Clinton Blvd,MS,39209
Popeyes,Nacogdoches,2956,#02956 #002956 2956 #2956 002956,1519 N University Drive,TX,75963
Popeyes,Nederlands,2958,#02958 #002958 2958 #2958 002958,1804 Hwy 365,TX,77627
Popeyes,Hot Springs,2959,#02959 #002959 2959 #2959 002959,130 E Grand 1,AR,71901
Popeyes,Corpus Christi,2961,#02961 #002961 2961 #2961 002961,5701 Everhart,TX,78413
Popeyes,Universal City,2962,#02962 #002962 2962 #2962 002962,2980 Pat Booker Rd,TX,78148
Popeyes,Cicero,2963,#02963 #002963 2963 #2963 002963,4773 W Cermak Ave,IL,60804
Popeyes,Natchitoches,2966,#02966 #002966 2966 #2966 002966,218 South Drive,LA,71457
Popeyes,Hammond,2969,#02969 #002969 2969 #2969 002969,6740 Indianapolis Blvd.,IN,46324
Popeyes,Bloomingdale,3002,#03002 #003002 3002 #3002 003002,405 W Army Trail Rd,IL,60108
Popeyes,Pineville,3006,#03006 #003006 3006 #3006 003006,2721 Hwy 28 E,LA,71360
Popeyes,North Little Rock,3007,#03007 #003007 3007 #3007 003007,716 East Broadway,AR,72114
Popeyes,Chicago,3026,#03026 #003026 3026 #3026 003026,3202 W Chicago Ave,IL,60651
Popeyes,Baker,3027,#03027 #003027 3027 #3027 003027,1940 Main St,LA,70714
Popeyes,Irvington,3032,#03032 #003032 3032 #3032 003032,834 Springfield Ave,NJ,7111
Popeyes,Chicago,3044,#03044 #003044 3044 #3044 003044,1251 S. Halsted Street,IL,60607
Popeyes,El Paso,3048,#03048 #003048 3048 #3048 003048,8800 Montana,TX,79925
Popeyes,Troy,3051,#03051 #003051 3051 #3051 003051,220 Hoosick St,NY,12180
Popeyes,Pearl Harbor,3056,#03056 #003056 3056 #3056 003056,Schofield Barracks Bldg 677,HI,96857
Popeyes,New Orleans,3059,#03059 #003059 3059 #3059 003059,6232 Elysian Fields,LA,70122
Popeyes,Kennebunk,3064,#03064 #003064 3064 #3064 003064,Mile Marker 24 North,ME,4043
Popeyes,Hastings on Hudson,3065,#03065 #003065 3065 #3065 003065,86 Main St,NY,10706
Popeyes,Ft Hood,3067,#03067 #003067 3067 #3067 003067,73rd & Battalion,TX,76544
Popeyes,Houma,3068,#03068 #003068 3068 #3068 003068,709 Tunnel Blvd,LA,70360
Popeyes,Milwaukee,3074,#03074 #003074 3074 #3074 003074,2399 N North Avenue,WI,53205
Popeyes,El Paso,3075,#03075 #003075 3075 #3075 003075,10430 Montwood Dr,TX,79935
Popeyes,El Paso,3078,#03078 #003078 3078 #3078 003078,1436 N. Lee Trevino Drive,TX,79936
Popeyes,Bolingbrook,3081,#03081 #003081 3081 #3081 003081,257 S Bolingbrook Dr,IL,60440
Popeyes,Tupelo,3087,#03087 #003087 3087 #3087 003087,1701 S Gloster,MS,38802
Popeyes,Compton,3088,#03088 #003088 3088 #3088 003088,300 W Compton Blvd,CA,90220
Popeyes,Bowie,3090,#03090 #003090 3090 #3090 003090,15480 Annapolis Rd,MD,20715
Popeyes,Hyattsville,3091,#03091 #003091 3091 #3091 003091,3500 E West Hwy,MD,20782
Popeyes,Oxon Hill,3092,#03092 #003092 3092 #3092 003092,6247 Livingston Rd,MD,20745
Popeyes,Rayne,3094,#03094 #003094 3094 #3094 003094,1423 The Boulevard,LA,70508
Popeyes,DeQuincy,3098,#03098 #003098 3098 #3098 003098,920 E 4th St,LA,70633
Popeyes,Baton Rouge,3099,#03099 #003099 3099 #3099 003099,9376 Greenwell Springs Rd,LA,70814
Popeyes,Federal Way,3107,#03107 #003107 3107 #3107 003107,34960 Enchanted Pkwy South,WA,98003
Popeyes,Kansas City,3114,#03114 #003114 3114 #3114 003114,6330 Troost Ave,MO,64131
Popeyes,Baltimore,3117,#03117 #003117 3117 #3117 003117,5002 York Rd,MD,21212
Popeyes,Marietta,3121,#03121 #003121 3121 #3121 003121,2691 Windy Hill Rd SE,GA,30067
Popeyes,Canton,3124,#03124 #003124 3124 #3124 003124,1418 W. Peace Street,MS,39046
Popeyes,Baton Rouge,3125,#03125 #003125 3125 #3125 003125,5120 Jones Creek Rd,LA,70817
Popeyes,Lufkin,3128,#03128 #003128 3128 #3128 003128,1106 S Timberline,TX,75901
Popeyes,Benton Harbor,3147,#03147 #003147 3147 #3147 003147,1323 E Napier,MI,49022
Popeyes,Racine,3153,#03153 #003153 3153 #3153 003153,920 Washington Ave,WI,53406
Popeyes,Cleveland,3155,#03155 #003155 3155 #3155 003155,513 N Davis St,MS,38732
Popeyes,Pasadena,3158,#03158 #003158 3158 #3158 003158,3430 Spencer Hwy,TX,77504
Popeyes,Baton Rouge,3159,#03159 #003159 3159 #3159 003159,2265 O'Neal Lane,LA,70816
Popeyes,Spring,3160,#03160 #003160 3160 #3160 003160,"25192 I-45, Suite 1A",TX,77386
Popeyes,Laredo,3161,#03161 #003161 3161 #3161 003161,2307 S Zapata Hwy 83,TX,78040
Popeyes,Sulphur,3164,#03164 #003164 3164 #3164 003164,102 N City Service Drive,LA,70663
Popeyes,Baltimore,3165,#03165 #003165 3165 #3165 003165,6512 A Reisterstown Rd,MD,21215
Popeyes,Hattiesburg,3168,#03168 #003168 3168 #3168 003168,5034 Hwy 98,MS,39402
Popeyes,Martinsburg,3171,#03171 #003171 3171 #3171 003171,23 Elwood Street,WV,25404
Popeyes,Brooklyn,3173,#03173 #003173 3173 #3173 003173,2137 Nostrand Ave,NY,11210
Popeyes,Waukegan,3176,#03176 #003176 3176 #3176 003176,1300 N Lewis Ave,IL,60085
Popeyes,Houston,3178,#03178 #003178 3178 #3178 003178,11820 Jones Rd,TX,77070
Popeyes,Monroe,3179,#03179 #003179 3179 #3179 003179,"1713 MLKing, Jr",LA,71202
Popeyes,Round Rock,3185,#03185 #003185 3185 #3185 003185,1008 N Interstate Hwy 35,TX,78681
Popeyes,Alexandria,3190,#03190 #003190 3190 #3190 003190,3402 Mt. Vernon Ave.,VA,22305
Popeyes,Harvey,3194,#03194 #003194 3194 #3194 003194,1545 Lapalco,LA,70058
Popeyes,Laurel,3196,#03196 #003196 3196 #3196 003196,3388 Fort Meade Rd,MD,20724
Popeyes,Laredo,3199,#03199 #003199 3199 #3199 003199,1200 Farragut St,TX,78040
Popeyes,Eagle Pass,3200,#03200 #003200 3200 #3200 003200,2190 E Main,TX,78852
Popeyes,Omaha,3205,#03205 #003205 3205 #3205 003205,5223 N 30th St,NE,68111
Popeyes,New York,3207,#03207 #003207 3207 #3207 003207,321 W 125th Street,NY,10027
Popeyes,Houston,3209,#03209 #003209 3209 #3209 003209,1615 Gessner Rd,TX,77080
Popeyes,Denham Springs,3215,#03215 #003215 3215 #3215 003215,2200 S Range Avenue,LA,70726
Popeyes,Austin,3229,#03229 #003229 3229 #3229 003229,111 W Wm Cannon,TX,78745
Popeyes,Washington,3230,#03230 #003230 3230 #3230 003230,3200 Bladensburg Road NE,DC,20018
Popeyes,Darien,3231,#03231 #003231 3231 #3231 003231,7516 S Cass Ave,IL,60561
Popeyes,Schererville,3233,#03233 #003233 3233 #3233 003233,750 W. US Hwy 30,IN,46375
Popeyes,Meridian,3235,#03235 #003235 3235 #3235 003235,700 Bonita Lakes Dr,MS,39301
Popeyes,Baltimore,3236,#03236 #003236 3236 #3236 003236,4408 Edmondson Ave,MD,21229
Popeyes,Baton Rouge,3239,#03239 #003239 3239 #3239 003239,3777 Choctaw Drive,LA,70805
Popeyes,New Castle,3241,#03241 #003241 3241 #3241 003241,1505 N Dupont Hwy,DE,19720
Popeyes,Beaumont,3252,#03252 #003252 3252 #3252 003252,5902B Eastex Fwy,TX,77708
Popeyes,Galveston,3256,#03256 #003256 3256 #3256 003256,2904 61st St.,TX,77551
Popeyes,Catonsville,3262,#03262 #003262 3262 #3262 003262,6400 Baltimore Nat'l Pike,MD,21228
Popeyes,Ville Platte,3264,#03264 #003264 3264 #3264 003264,401 Tate Cove Road,LA,70586
Popeyes,Deer Park,3266,#03266 #003266 3266 #3266 003266,1421 Center St,TX,77536
Popeyes,Liberty,3270,#03270 #003270 3270 #3270 003270,1710 Hwy 90,TX,77575
Popeyes,Cincinnati,3271,#03271 #003271 3271 #3271 003271,7131 Reading Road,OH,45237
Popeyes,Baton Rouge,3279,#03279 #003279 3279 #3279 003279,5946 Airline Hwy,LA,70805
Popeyes,Elgin,3281,#03281 #003281 3281 #3281 003281,1616 Big Timber Rd,IL,60123
Popeyes,Houston,3282,#03282 #003282 3282 #3282 003282,12550 Bellaire Blvd,TX,77072
Popeyes,Byram,3283,#03283 #003283 3283 #3283 003283,5583 I-55 South Frontage Rd,MS,39212
Popeyes,Austin,3284,#03284 #003284 3284 #3284 003284,9718 Menchaca,TX,78748
Popeyes,New York,3285,#03285 #003285 3285 #3285 003285,47 W 14th St,NY,10011
Popeyes,San Marcos,3286,#03286 #003286 3286 #3286 003286,1642 Aquarena Springs Rd,TX,78667
Popeyes,Duluth,3287,#03287 #003287 3287 #3287 003287,1635 Pleasant Hill Road,GA,30096
Popeyes,Jersey City,3288,#03288 #003288 3288 #3288 003288,30 Mall Drive W./Newport Mall,NJ,7310
Popeyes,Oakdale,3289,#03289 #003289 3289 #3289 003289,217 Highway 165 South,LA,71463
Popeyes,Burbank,3300,#03300 #003300 3300 #3300 003300,1200 N San Fernando Road,CA,91504
Popeyes,Pomona,3303,#03303 #003303 3303 #3303 003303,705 E Holt Ave,CA,91767
Popeyes,Ontario,3304,#03304 #003304 3304 #3304 003304,1903 E 4th Street,CA,91764
Popeyes,Sepulveda,3305,#03305 #003305 3305 #3305 003305,16159 Parthenia St,CA,91343
Popeyes,Westminster,3306,#03306 #003306 3306 #3306 003306,6948 Westminster Ave,CA,92683
Popeyes,San Jose,3307,#03307 #003307 3307 #3307 003307,1671 N Capitol Ave,CA,95132
Popeyes,Alhambra,3313,#03313 #003313 3313 #3313 003313,1013 W Valley Blvd,CA,91803
Popeyes,Burbank,3314,#03314 #003314 3314 #3314 003314,509 N Hollywood Way,CA,91505
Popeyes,N Hollywood,3315,#03315 #003315 3315 #3315 003315,5138 Laurel Canyon Blvd,CA,91607
Popeyes,Anaheim,3316,#03316 #003316 3316 #3316 003316,1061D N State College Blvd,CA,92806
Popeyes,Van Nuys,3318,#03318 #003318 3318 #3318 003318,7608 Sepulveda Blvd,CA,91406
Popeyes,Santa Ana,3320,#03320 #003320 3320 #3320 003320,1244 E 17th St,CA,92701
Popeyes,San Gabriel,3321,#03321 #003321 3321 #3321 003321,725 E Valley Blvd,CA,91776
Popeyes,Los Angeles,3322,#03322 #003322 3322 #3322 003322,1653 E 103rd St,CA,90002
Popeyes,Torrance,3325,#03325 #003325 3325 #3325 003325,961 W Sepulveda Blvd,CA,90502
Popeyes,Anaheim,3329,#03329 #003329 3329 #3329 003329,9906 Katella Ave,CA,92804
Popeyes,Carson,3336,#03336 #003336 3336 #3336 003336,154 W Carson St,CA,90745
Popeyes,Simi Valley,3343,#03343 #003343 3343 #3343 003343,1883 Erringer Rd,CA,93065
Popeyes,Hawthorne,3344,#03344 #003344 3344 #3344 003344,14312 Prairie Ave,CA,90250
Popeyes,Fresno,3351,#03351 #003351 3351 #3351 003351,3110 E McKinley Ave,CA,93703
Popeyes,Long Beach,3352,#03352 #003352 3352 #3352 003352,1008 N Long Beach Blvd,CA,90813
Popeyes,Pacoima,3354,#03354 #003354 3354 #3354 003354,13746 Van Nuys Blvd,CA,91331
Popeyes,Monrovia,3356,#03356 #003356 3356 #3356 003356,300 W Huntington Dr,CA,91016
Popeyes,Modesto,3358,#03358 #003358 3358 #3358 003358,409 Paradise Rd,CA,95351
Popeyes,Westlake Village,3359,#03359 #003359 3359 #3359 003359,2801 Agoura Rd,CA,91361
Popeyes,Canoga Park,3361,#03361 #003361 3361 #3361 003361,20915 Roscoe Blvd,CA,91304
Popeyes,Sylmar,3362,#03362 #003362 3362 #3362 003362,12659 Glenoaks Blvd,CA,91342
Popeyes,Reseda,3363,#03363 #003363 3363 #3363 003363,18300-1 Vanowen Street,CA,91335
Popeyes,Long Beach,3367,#03367 #003367 3367 #3367 003367,5401 Atlantic,CA,90805
Popeyes,Newhall,3368,#03368 #003368 3368 #3368 003368,23434 Lyons Ave,CA,91321
Popeyes,N Hollywood,3369,#03369 #003369 3369 #3369 003369,11011 Victory Blvd,CA,91606
Popeyes,San Fernando,3370,#03370 #003370 3370 #3370 003370,14723 Rinaldi St,CA,91340
Popeyes,Los Angeles,3371,#03371 #003371 3371 #3371 003371,2900B Colorado Blvd,CA,90041
Popeyes,Los Angeles,3375,#03375 #003375 3375 #3375 003375,2000 E Marengo St,CA,90033
Popeyes,Los Angeles,3376,#03376 #003376 3376 #3376 003376,451 E El Segundo Blvd,CA,90061
Popeyes,Hawaiian Gardens,3377,#03377 #003377 3377 #3377 003377,21700 Norwalk Blvd,CA,90716
Popeyes,Bakersfield,3380,#03380 #003380 3380 #3380 003380,100 Chester Ave.,CA,93301
Popeyes,Baltimore,3415,#03415 #003415 3415 #3415 003415,5002 Sinclair Ln,MD,21206
Popeyes,"Horn Lake,",3430,#03430 #003430 3430 #3430 003430,992 Goodman Road,MS,38637
Popeyes,Madison,3431,#03431 #003431 3431 #3431 003431,1061 Hwy 51 North,MS,39110
Popeyes,Tallulah,3434,#03434 #003434 3434 #3434 003434,410 E. Green St.,LA,71282
Popeyes,Houston,3439,#03439 #003439 3439 #3439 003439,8002 S Hwy 6,TX,77083
Popeyes,Corpus Christi,3442,#03442 #003442 3442 #3442 003442,13613 FM 624,TX,78410
Popeyes,Corpus Christi,3494,#03494 #003494 3494 #3494 003494,5009 Greenwood,TX,78416
Popeyes,Lafayette,3495,#03495 #003495 3495 #3495 003495,3500 W. Pinhook Road,LA,70508
Popeyes,Winnsboro,3497,#03497 #003497 3497 #3497 003497,3610 Front St.,LA,71295
Popeyes,Texas City,3499,#03499 #003499 3499 #3499 003499,9802 FM 1764,TX,77591
Popeyes,Philadelphia,3508,#03508 #003508 3508 #3508 003508,1001 Market Street - Gallery Mall Food Court,PA,19107
Popeyes,Snellville,3535,#03535 #003535 3535 #3535 003535,2330 Ronald Reagan Pkwy,GA,30078
Popeyes,Fredericksburg,3540,#03540 #003540 3540 #3540 003540,10717 Courthouse Rd,VA,22407
Popeyes,Arlington,3552,#03552 #003552 3552 #3552 003552,4241 N. Pershing Drive,VA,22203
Popeyes,Laurel,3553,#03553 #003553 3553 #3553 003553,15006 Baltimore Ave,MD,20707
Popeyes,Clinton,3559,#03559 #003559 3559 #3559 003559,485 Springridge Rd,MS,39056
Popeyes,San Lorenzo,3561,#03561 #003561 3561 #3561 003561,17555 Hesperian,CA,94580
Popeyes,El Paso,3570,#03570 #003570 3570 #3570 003570,7272 N Mesa,TX,79912
Popeyes,Houston,3580,#03580 #003580 3580 #3580 003580,5721 Bellaire Blvd,TX,77081
Popeyes,Milwaukee,3582,#03582 #003582 3582 #3582 003582,207 E. Capital Dr.,WI,53212
Popeyes,Arlington,3584,#03584 #003584 3584 #3584 003584,1200 S.W. Green Oaks,TX,76001
Popeyes,Baytown,3586,#03586 #003586 3586 #3586 003586,6804 Garth Road,TX,77521
Popeyes,Stafford,3587,#03587 #003587 3587 #3587 003587,253 Garrisonville Rd,VA,22554
Popeyes,Hinesville,3593,#03593 #003593 3593 #3593 003593,615 E Oglethorpe Ave (State Rd 84),GA,31313
Popeyes,Los Angeles,3599,#03599 #003599 3599 #3599 003599,3268 W Slauson Ave,CA,90043
Popeyes,Vallejo,3611,#03611 #003611 3611 #3611 003611,1601 Marine World Pkwy,CA,94589
Popeyes,Meridian,3617,#03617 #003617 3617 #3617 003617,828 Hwy 19 North,MS,39307
Popeyes,League City,3624,#03624 #003624 3624 #3624 003624,1153 W. Main,TX,77573
Popeyes,Kansas City,3628,#03628 #003628 3628 #3628 003628,10125 State Line Rd,MO,64114
Popeyes,Rutherford,3646,#03646 #003646 3646 #3646 003646,104 Meadow Road,NJ,7070
Popeyes,Shreveport,3650,#03650 #003650 3650 #3650 003650,9094 Mansfield Rd,LA,71118
Popeyes,El Dorado,3652,#03652 #003652 3652 #3652 003652,1745 Northwest Ave.,AR,71730
Popeyes,Frederick,3656,#03656 #003656 3656 #3656 003656,5721- A Buckeystown Pike,MD,21701
Popeyes,Perris,3658,#03658 #003658 3658 #3658 003658,498 E. 4th St.,CA,92570
Popeyes,Omaha,3681,#03681 #003681 3681 #3681 003681,6102 Ames St,NE,68104
Popeyes,Rayville,3684,#03684 #003684 3684 #3684 003684,#4 McGowan St.,LA,71269
Popeyes,Westminster,3694,#03694 #003694 3694 #3694 003694,624 Baltimore Blvd,MD,21157
Popeyes,Chicago,3696,#03696 #003696 3696 #3696 003696,3451 W Roosevelt,IL,60623
Popeyes,Cleveland,3703,#03703 #003703 3703 #3703 003703,3855 Lee Road,OH,44128
Popeyes,Missouri City,3728,#03728 #003728 3728 #3728 003728,4850 Hwy 6 South,TX,77459
Popeyes,North Randall,3748,#03748 #003748 3748 #3748 003748,4645 Northfield Rd,OH,44128
Popeyes,Edgewater,3754,#03754 #003754 3754 #3754 003754,98 E Central Ave,MD,21037
Popeyes,Port Allen,3787,#03787 #003787 3787 #3787 003787,290 Lobdell Hwy,LA,70767
Popeyes,Seabrook,3788,#03788 #003788 3788 #3788 003788,2200 Bayport Blvd,TX,77586
Popeyes,Batesville,3790,#03790 #003790 3790 #3790 003790,671 Hwy 6 East,MS,38606
Popeyes,Prairieville,3792,#03792 #003792 3792 #3792 003792,17224 Airline Hwy,LA,70769
Popeyes,Aurora,3798,#03798 #003798 3798 #3798 003798,11097 E Colfax Ave,CO,80014
Popeyes,Orange City,3799,#03799 #003799 3799 #3799 003799,2561 Enterprise Rd,FL,32763
Popeyes,Alton,3801,#03801 #003801 3801 #3801 003801,2390 Homer Adams Pkwy,IL,62002
Popeyes,Huntsville,3802,#03802 #003802 3802 #3802 003802,2032 11th Street,TX,77340
Popeyes,Mt. Prospect,3821,#03821 #003821 3821 #3821 003821,1790 W Algonquin Rd,IL,60056
Popeyes,Springfield,3822,#03822 #003822 3822 #3822 003822,6418 B Springfield Plaza,VA,22150
Popeyes,Herndon,3823,#03823 #003823 3823 #3823 003823,358 Elden St,VA,20170
Popeyes,San Francisco,3834,#03834 #003834 3834 #3834 003834,890 Geneva Ave,CA,94112
Popeyes,LaBelle,3844,#03844 #003844 3844 #3844 003844,576 W Hickpoohe,FL,33935
Popeyes,Indianola,3852,#03852 #003852 3852 #3852 003852,524 Hwy 82 West,MS,38751
Popeyes,Monticello,3857,#03857 #003857 3857 #3857 003857,431 Hwy 425,AR,71655
Popeyes,New York,3875,#03875 #003875 3875 #3875 003875,2730 Frederick Douglass Blvd,NY,10039
Popeyes,Falls Church,3892,#03892 #003892 3892 #3892 003892,6134 H Arlington Blvd.,VA,22044
Popeyes,Glen Burnie,3894,#03894 #003894 3894 #3894 003894,7009 Governor Ritchie Hwy,MD,21061
Popeyes,Germantown,3897,#03897 #003897 3897 #3897 003897,18074 Mateny Rd,MD,20874
Popeyes,Lehigh Acres,3919,#03919 #003919 3919 #3919 003919,2710 Lee Blvd,FL,33971
Popeyes,Cleveland,3930,#03930 #003930 3930 #3930 003930,12910 Buckeye Road,OH,44120
Popeyes,Porter,3946,#03946 #003946 3946 #3946 003946,24895 FM 1314,TX,77365
Popeyes,Sherwood,3949,#03949 #003949 3949 #3949 003949,200 E. Kiehl Ave,AR,72120
Popeyes,Jasper,3954,#03954 #003954 3954 #3954 003954,898 N. Wheeler/Hwy 96 N.,TX,75951
Popeyes,Philadelphia,3995,#03995 #003995 3995 #3995 003995,2934 Island Avenue,PA,19153
Popeyes,Bossier City,3996,#03996 #003996 3996 #3996 003996,3820 Industrial,LA,71111
Popeyes,Warner Robins,4000,#04000 #004000 4000 #4000 004000,744 Richard Russell Pkwy,GA,31088
Popeyes,St. Petersburg,4003,#04003 #004003 4003 #4003 004003,3210 Central Avenue,FL,33712
Popeyes,Mableton,4005,#04005 #004005 4005 #4005 004005,6077 Mableton Pkwy SE,GA,30126
Popeyes,San Francisco,4006,#04006 #004006 4006 #4006 004006,2598 Mission St,CA,94110
Popeyes,Gonzales,4013,#04013 #004013 4013 #4013 004013,2702 W Hwy 30,LA,70737
Popeyes,Little Rock,4015,#04015 #004015 4015 #4015 004015,11501 W Markham,AR,72211
Popeyes,Milwaukee,4017,#04017 #004017 4017 #4017 004017,6120 Silverspring Drive,WI,53218
Popeyes,Kenosha,4022,#04022 #004022 4022 #4022 004022,3905 75th St.,WI,53142
Popeyes,Jackson,4034,#04034 #004034 4034 #4034 004034,2505 Hwy 80 West,MS,39204
Popeyes,Rosenberg,4046,#04046 #004046 4046 #4046 004046,1300 First St.,TX,77471
Popeyes,Eglin AFB,4048,#04048 #004048 4048 #4048 004048,Bldg. 1757,FL,32542
Popeyes,Baytown,4062,#04062 #004062 4062 #4062 004062,10330 I-10 E.,TX,77520
Popeyes,Franklinton,4065,#04065 #004065 4065 #4065 004065,1420 Washington St,LA,70438
Popeyes,Farmerville,4067,#04067 #004067 4067 #4067 004067,412 S. Main Street,LA,71241
Popeyes,Lewisville,4091,#04091 #004091 4091 #4091 004091,1394 W. Main St.,TX,75067
Popeyes,Columbus,4092,#04092 #004092 4092 #4092 004092,3461 Cleveland Ave,OH,43224
Popeyes,Edgewood,4102,#04102 #004102 4102 #4102 004102,1011 Woodbridge Ctr Way,MD,21040
Popeyes,Bryan,4103,#04103 #004103 4103 #4103 004103,2501 S. Hwy 6,TX,77803
Popeyes,Wheaton,4107,#04107 #004107 4107 #4107 004107,12102 Georgia Ave.,MD,20910
Popeyes,N. Highlands,4111,#04111 #004111 4111 #4111 004111,6631 Watt Ave.,CA,95660
Popeyes,Rancho Cucamonga,4145,#04145 #004145 4145 #4145 004145,11815 Foothill Blvd. Suite A,CA,91730
Popeyes,Philadelphia,4148,#04148 #004148 4148 #4148 004148,1019 W. Beacon St.,MS,39350
Popeyes,Florence,4150,#04150 #004150 4150 #4150 004150,1703 Florence Blvd.,AL,35630
Popeyes,Ft Irwin,4151,#04151 #004151 4151 #4151 004151,Bldg 98 - Inner Loop Road,CA,92310
Popeyes,Brandon,4152,#04152 #004152 4152 #4152 004152,1410 W. Government St.,MS,39042
Popeyes,Morgan City,4153,#04153 #004153 4153 #4153 004153,1300 Southeast Blvd.,LA,70380
Popeyes,La Porte,4159,#04159 #004159 4159 #4159 004159,1509 W Fairmont Parkway,TX,77571
Popeyes,Kansas City,4182,#04182 #004182 4182 #4182 004182,23 E. Linwood Blvd.,MO,64111
Popeyes,Chicago,4186,#04186 #004186 4186 #4186 004186,159 N. Wabash Ave.,IL,60601
Popeyes,Crosby,4189,#04189 #004189 4189 #4189 004189,13815 FM 2100 Rd.,TX,77532
Popeyes,Vienna,4204,#04204 #004204 4204 #4204 004204,325 E. Maple Ave.,VA,22180
Popeyes,Hesperia,4206,#04206 #004206 4206 #4206 004206,13100 Main St.,CA,92345
Popeyes,Murrieta,4207,#04207 #004207 4207 #4207 004207,25336 Madison Ave.,CA,92563
Popeyes,Houston,4208,#04208 #004208 4208 #4208 004208,16425 Imperial Valley Drive,TX,77060
Popeyes,Tucson,4209,#04209 #004209 4209 #4209 004209,7111 E. 22nd Street,AZ,85710
Popeyes,W. Palm Beach,4212,#04212 #004212 4212 #4212 004212,1416 South Military Trail,FL,33415
Popeyes,Carencro,4213,#04213 #004213 4213 #4213 004213,930 Veterans Drive,LA,70520
Popeyes,Starke,4214,#04214 #004214 4214 #4214 004214,1050 S. Walnut St.,FL,32091
Popeyes,Breaux Bridge,4222,#04222 #004222 4222 #4222 004222,2021 Reese Street,LA,70517
Popeyes,Whitsett,4223,#04223 #004223 4223 #4223 004223,1101 Hwy 61,NC,27377
Popeyes,Victoria,4224,#04224 #004224 4224 #4224 004224,8702 N. Navarro,TX,77904
Popeyes,Waldorf,4231,#04231 #004231 4231 #4231 004231,"1110 Mall Circle, St. Charles Town Center",MD,20603
Popeyes,Pflugerville,4236,#04236 #004236 4236 #4236 004236,1702 W. Pecan,TX,78660
Popeyes,Homestead,4240,#04240 #004240 4240 #4240 004240,130 NE 8th St.,FL,33030
Popeyes,Landover,4241,#04241 #004241 4241 #4241 004241,7101 Martin Luther King,MD,20785
Popeyes,Suitland,4242,#04242 #004242 4242 #4242 004242,4913 Allentown Rd,MD,20746
Popeyes,Mountain Home AFB,4244,#04244 #004244 4244 #4244 004244,625 Gunfighter Ave-Bldg.2700,ID,83648
Popeyes,Fairfax,4256,#04256 #004256 4256 #4256 004256,13051 Lee Jackson Hwy,VA,22033
Popeyes,Houston,4259,#04259 #004259 4259 #4259 004259,10765 Kingspoint Rd,TX,77075
Popeyes,Orlando,4261,#04261 #004261 4261 #4261 004261,12131 S. Orange Blossom Trail,FL,32837
Popeyes,Palatka,4262,#04262 #004262 4262 #4262 004262,710 Hwy 19 South,FL,32177
Popeyes,Salisbury,4268,#04268 #004268 4268 #4268 004268,2416 N. Salisbury Blvd.,MD,21801
Popeyes,Bellmeade,4269,#04269 #004269 4269 #4269 004269,1523 IH 35 North,TX,76705
Popeyes,"Oxford,",4273,#04273 #004273 4273 #4273 004273,1700 Belk Boulevard,MS,38655
Popeyes,St. Louis,4277,#04277 #004277 4277 #4277 004277,2877 Target Drive,MO,63136
Popeyes,Upland,4308,#04308 #004308 4308 #4308 004308,1620 W. Foothill Blvd.,CA,91786
Popeyes,Grand Coteau,4309,#04309 #004309 4309 #4309 004309,412 W. Martin Luther King Dr.,LA,70541
Popeyes,Camden,4322,#04322 #004322 4322 #4322 004322,1390 Hwy 4 Bypass,AR,71701
Popeyes,Madison,4324,#04324 #004324 4324 #4324 004324,2021 Eatonton Hwy,GA,30650
Popeyes,London,4327,#04327 #004327 4327 #4327 004327,940 US Hwy 42 NE,OH,43140
Popeyes,Oak Grove,4329,#04329 #004329 4329 #4329 004329,100 N. Broadway,MO,64075
Popeyes,Philadelphia,4340,#04340 #004340 4340 #4340 004340,2027 S Broad St,PA,19148
Popeyes,Humble,4345,#04345 #004345 4345 #4345 004345,7501 FM 1960 Rd East,TX,77346
Popeyes,Tarboro,4394,#04394 #004394 4394 #4394 004394,1507 N Main Street,NC,27886
Popeyes,Aiken,4420,#04420 #004420 4420 #4420 004420,954 York St NE,SC,29801
Popeyes,Augusta,4423,#04423 #004423 4423 #4423 004423,450 Walton Way,GA,30901
Popeyes,Augusta,4424,#04424 #004424 4424 #4424 004424,3209 Deans Bridge Rd,GA,30906
Popeyes,Hephzibah,4425,#04425 #004425 4425 #4425 004425,4102 Windsor Springs Rd,GA,30815
Popeyes,Augusta,4426,#04426 #004426 4426 #4426 004426,2802 Wrightsboro Rd,GA,30909
Popeyes,Martinez,4427,#04427 #004427 4427 #4427 004427,431 Belair Rd,GA,30907
Popeyes,Louisville,4429,#04429 #004429 4429 #4429 004429,"102 Hwy 1, Bypass S.",GA,30434
Popeyes,Thomson,4430,#04430 #004430 4430 #4430 004430,651 Main St,GA,30824
Popeyes,Waynesboro,4431,#04431 #004431 4431 #4431 004431,534 Liberty St,GA,30830
Popeyes,New Ellenton,4432,#04432 #004432 4432 #4432 004432,201 Main St. South,SC,29809
Popeyes,Vienna,4437,#04437 #004437 4437 #4437 004437,1515 E Union Street,GA,31092
Popeyes,Albany,4443,#04443 #004443 4443 #4443 004443,1401 S Slappey Blvd,GA,31701
Popeyes,Eatonton,4448,#04448 #004448 4448 #4448 004448,100 E Walnut St,GA,31024
Popeyes,Millen,4449,#04449 #004449 4449 #4449 004449,400 W. Winthrope,GA,30442
Popeyes,Camilla,4450,#04450 #004450 4450 #4450 004450,71 US Hwy 19,GA,31730
Popeyes,Dublin,4455,#04455 #004455 4455 #4455 004455,214 Central Drive E,GA,31027
Popeyes,Pineville,4466,#04466 #004466 4466 #4466 004466,3508 Monroe Hwy,LA,71360
Popeyes,LaVista,4484,#04484 #004484 4484 #4484 004484,7222 S. 84th St.,NE,68128
Popeyes,West Point,4497,#04497 #004497 4497 #4497 004497,222 Hwy 45 North Alt.,MS,39773
Popeyes,Brooklyn,4499,#04499 #004499 4499 #4499 004499,1560 Broadway,NY,11221
Popeyes,Richmond,4502,#04502 #004502 4502 #4502 004502,2709 Chamberlayne Avenue,VA,23222
Popeyes,DeSoto,4506,#04506 #004506 4506 #4506 004506,1011 E. Pleasant Run Rd,TX,75115
Popeyes,Dallas,4507,#04507 #004507 4507 #4507 004507,4700 Ross Ave.,TX,75204
Popeyes,N. Richland Hills,4508,#04508 #004508 4508 #4508 004508,8393 Grapevine Hwy,TX,76180
Popeyes,Arlington,4520,#04520 #004520 4520 #4520 004520,2125 E. Pioneer Pkwy,TX,76010
Popeyes,Atlanta,4522,#04522 #004522 4522 #4522 004522,"Stewart Square Shopping Center, 1959 Metropolitan Pkwy",GA,30315
Popeyes,White Settlement,4528,#04528 #004528 4528 #4528 004528,1747 Cherry Lane,TX,76108
Popeyes,Dallas,4531,#04531 #004531 4531 #4531 004531,8035 Forest Lane,TX,75243
Popeyes,Flowood,4535,#04535 #004535 4535 #4535 004535,1000 Topps Street,MS,39208
Popeyes,Reston,4542,#04542 #004542 4542 #4542 004542,11850 Sunrise Valley,VA,20191
Popeyes,Jamaica,4550,#04550 #004550 4550 #4550 004550,166-24 Hillside Ave.,NY,11432
Popeyes,Grand Prairie,4552,#04552 #004552 4552 #4552 004552,3748 S. Carrier Pkwy,TX,75052
Popeyes,Houston,4553,#04553 #004553 4553 #4553 004553,6503 Harrisburg Rd,TX,77011
Popeyes,Baltimore,4566,#04566 #004566 4566 #4566 004566,3400 Pulaski Highway,MD,21224
Popeyes,Baltimore,4567,#04567 #004567 4567 #4567 004567,6642 Belair Rd,MD,21206
Popeyes,San Pablo,4569,#04569 #004569 4569 #4569 004569,10 Town Center,CA,94806
Popeyes,Macon,4573,#04573 #004573 4573 #4573 004573,742 Shurling Drive,GA,31211
Popeyes,Valdosta,4574,#04574 #004574 4574 #4574 004574,2119 Bemiss Rd,GA,31602
Popeyes,Pennsauken,4578,#04578 #004578 4578 #4578 004578,5720 S. Crescent Blvd.,NJ,8109
Popeyes,Sacramento,4579,#04579 #004579 4579 #4579 004579,901 El Camino Ave,CA,95815
Popeyes,"Memphis,",4581,#04581 #004581 4581 #4581 004581,4720 Showcase Blvd,TN,38118
Popeyes,Philadelphia,4583,#04583 #004583 4583 #4583 004583,501 Adams Ave. Unit 11A,PA,19120
Popeyes,Dallas,4586,#04586 #004586 4586 #4586 004586,9540 Lake June Rd,TX,75217
Popeyes,Ft Gordon,4589,#04589 #004589 4589 #4589 004589,Bldg 38200,GA,30905
Popeyes,Ft Huachuca,4590,#04590 #004590 4590 #4590 004590,Bldg 82301,AZ,85613
Popeyes,Travis AFB,4591,#04591 #004591 4591 #4591 004591,"Bldg 648, Mather Ave",CA,94535
Popeyes,Dixon,4610,#04610 #004610 4610 #4610 004610,170 Dorset Drive,CA,95620
Popeyes,Philadelphia,4614,#04614 #004614 4614 #4614 004614,122 West Chelten Avenue,PA,19144
Popeyes,Silver Spring,4616,#04616 #004616 4616 #4616 004616,11311 Lockwood Drive,MD,20904
Popeyes,Thomasville,4624,#04624 #004624 4624 #4624 004624,2525 E. Pinetree Blvd,GA,31792
Popeyes,Atlanta,4625,#04625 #004625 4625 #4625 004625,"Hartsfield Airport, Concourse B",GA,30320
Popeyes,Cockeysville,4630,#04630 #004630 4630 #4630 004630,1 Cranbrook Road,MD,21030
Popeyes,Gardena,4631,#04631 #004631 4631 #4631 004631,1150 Rosecrans Blvd.,CA,90247
Popeyes,Atlanta,4638,#04638 #004638 4638 #4638 004638,"12 Broad Street, Suite A (Five Points)",GA,30303
Popeyes,Little Rock,4643,#04643 #004643 4643 #4643 004643,11402 Cantrell Road,AR,72212
Popeyes,Bronx,4648,#04648 #004648 4648 #4648 004648,1380 Jerome Ave.,NY,10452
Popeyes,Wildwood,4659,#04659 #004659 4659 #4659 004659,I-75 & Route 44,FL,34785
Popeyes,Columbia,4670,#04670 #004670 4670 #4670 004670,7213 Hwy 165,LA,71418
Popeyes,Akron,4676,#04676 #004676 4676 #4676 004676,1200 S. Arlington St,OH,44306
Popeyes,Philadelphia,4678,#04678 #004678 4678 #4678 004678,4211 N. Broad Street,PA,19140
Popeyes,Haslet,4687,#04687 #004687 4687 #4687 004687,"13200 Hwy 287, Suite 81",TX,76052
Popeyes,"Memphis,",4690,#04690 #004690 4690 #4690 004690,4624 Elvis Presley Blvd,TN,38116
Popeyes,"Holly Springs,",4692,#04692 #004692 4692 #4692 004692,619 Hwy 7 South,MS,38635
Popeyes,N. Miami Beach,4696,#04696 #004696 4696 #4696 004696,1000 NE 163rd. St.,FL,33162
Popeyes,Princess Anne,4699,#04699 #004699 4699 #4699 004699,30293 Mt Vernon Rd,MD,21853
Popeyes,Quinlan,4700,#04700 #004700 4700 #4700 004700,517 Hwy. 34 South,TX,75474
Popeyes,Starkville,4706,#04706 #004706 4706 #4706 004706,814-A Highway 12 West,MS,39759
Popeyes,Macon,4710,#04710 #004710 4710 #4710 004710,3246 Mercer University Drive,GA,31210
Popeyes,Columbus,4722,#04722 #004722 4722 #4722 004722,3559 E. Broad St,OH,43213
Popeyes,Tampa,4723,#04723 #004723 4723 #4723 004723,2201 E. Hillsborough Ave,FL,33610
Popeyes,Chino Hills,4725,#04725 #004725 4725 #4725 004725,4107 Edison Ave.,CA,91710
Popeyes,Manassas,4726,#04726 #004726 4726 #4726 004726,8362 Centerville Rd.,VA,20111
Popeyes,Fontana,4727,#04727 #004727 4727 #4727 004727,16989-H Valley Blvd.,CA,92335
Popeyes,Pasadena,4728,#04728 #004728 4728 #4728 004728,8700 Ft. Smallwood Rd,MD,21122
Popeyes,Hempstead,4736,#04736 #004736 4736 #4736 004736,780 Fulton Avenue,NY,11550
Popeyes,Effingham,4737,#04737 #004737 4737 #4737 004737,1701 W Evergreen Avenue,IL,62401
Popeyes,Hebron,4738,#04738 #004738 4738 #4738 004738,10679 Lancaster Rd.,OH,43025
Popeyes,Oklahoma City,4739,#04739 #004739 4739 #4739 004739,501 S. Morgan Rd,OK,73128
Popeyes,Luke AFB,4742,#04742 #004742 4742 #4742 004742,7071 N 138th Dr./Bldg. 1540,AZ,85307
Popeyes,Tucson,4743,#04743 #004743 4743 #4743 004743,"5404 E Granite St - Bldg 2527, Davis-Monthan AFB",AZ,85707
Popeyes,Ontario,4745,#04745 #004745 4745 #4745 004745,2460 S. Vineyard Ave.,CA,91761
Popeyes,Fayetteville,4749,#04749 #004749 4749 #4749 004749,3308 Bragg Blvd,NC,27886
Popeyes,Lauderdale Lakes,4754,#04754 #004754 4754 #4754 004754,3499 W Oakland Park Blvd.,FL,33311
Popeyes,Fayetteville,4756,#04756 #004756 4756 #4756 004756,2313 Gillespie Street,NC,28306
Popeyes,Vidor,4763,#04763 #004763 4763 #4763 004763,950 N Main,TX,77662
Popeyes,McKinney,4765,#04765 #004765 4765 #4765 004765,5000 W. Eldorado Pkwy,TX,75070
Popeyes,Herndon,4770,#04770 #004770 4770 #4770 004770,3075 Centreville Rd,VA,20171
Popeyes,Katy,4774,#04774 #004774 4774 #4774 004774,22101 Katy Freeway,TX,77450
Popeyes,Redding,4781,#04781 #004781 4781 #4781 004781,"19483 Knighton Rd, Travel Ctr Truckstop",CA,96002
Popeyes,Sawyer,4782,#04782 #004782 4782 #4782 004782,6100 Sawyer Rd,MI,49125
Popeyes,Ft Riley,4788,#04788 #004788 4788 #4788 004788,2210 Trooper Dr,KS,66442
Popeyes,Edwards AFB,4796,#04796 #004796 4796 #4796 004796,"240 W. Fitzgerald Blvd., Bldg 6001",CA,93524
Popeyes,Willis,4799,#04799 #004799 4799 #4799 004799,1000 West Montgomery St,TX,77378
Popeyes,Jonesboro,4804,#04804 #004804 4804 #4804 004804,6553 Tara Blvd.,GA,30236
Popeyes,Winter Haven,4806,#04806 #004806 4806 #4806 004806,25 SW 6th Street,FL,33880
Popeyes,Little Rock,4808,#04808 #004808 4808 #4808 004808,10105 I-30,AR,72209
Popeyes,Kingman,4809,#04809 #004809 4809 #4809 004809,946 W. Beale St.,AZ,86401
Popeyes,Euclid,4810,#04810 #004810 4810 #4810 004810,26030 Euclid Avenue,OH,44132
Popeyes,Antioch,4811,#04811 #004811 4811 #4811 004811,13011 Old Hickory Blvd.,TN,37013
Popeyes,Jeffersonville,4814,#04814 #004814 4814 #4814 004814,12403 US Hwy 35E,OH,43128
Popeyes,Birmingham,4815,#04815 #004815 4815 #4815 004815,1717 Finley Blvd.,AL,35204
Popeyes,Grandview,4821,#04821 #004821 4821 #4821 004821,13049 S. 71 Hwy,MO,64030
Popeyes,Ft Pierce,4822,#04822 #004822 4822 #4822 004822,107 South 25th St.,FL,34947
Popeyes,Mitchellville,4839,#04839 #004839 4839 #4839 004839,12120 Central Ave.,MD,20721
Popeyes,Commerce City,4841,#04841 #004841 4841 #4841 004841,5101 Quebec St.,CO,80022
Popeyes,Longview,4844,#04844 #004844 4844 #4844 004844,2110 Gilmer Rd,TX,75604
Popeyes,New York,4851,#04851 #004851 4851 #4851 004851,75 Lexington Ave.,NY,10010
Popeyes,"Memphis,",4856,#04856 #004856 4856 #4856 004856,2235 Lamar Avenue,TN,38114
Popeyes,Lafayette,4858,#04858 #004858 4858 #4858 004858,2216 Ambassador Caffery Pkwy,LA,70506
Popeyes,Hickham AFB,4859,#04859 #004859 4859 #4859 004859,1232 Hanger Ave,HI,96853
Popeyes,Sorrento,4860,#04860 #004860 4860 #4860 004860,733 John Leblanc Blvd,LA,70778
Popeyes,Hot Springs,4861,#04861 #004861 4861 #4861 004861,4375 Central Ave.,AR,71913
Popeyes,Birmingham,4865,#04865 #004865 4865 #4865 004865,361 Palisades Blvd,AL,35209
Popeyes,South Gate,4866,#04866 #004866 4866 #4866 004866,13745 Paramount Blvd,CA,90280
Popeyes,Mt Vernon,4870,#04870 #004870 4870 #4870 004870,4510 Broadway,IL,62864
Popeyes,Brooklyn,4877,#04877 #004877 4877 #4877 004877,1465 Myrtle Ave.,NY,11237
Popeyes,Hampshire,4886,#04886 #004886 4886 #4886 004886,19 N. 430 US Hwy 20,IL,60140
Popeyes,Gulfport,4890,#04890 #004890 4890 #4890 004890,12152 Hwy 49 North,MS,39503
Popeyes,Orangeburg,4900,#04900 #004900 4900 #4900 004900,1108 Chestnut St,SC,29115
Popeyes,Pinellas Park,4901,#04901 #004901 4901 #4901 004901,5950 Park Blvd,FL,33781
Popeyes,Parker,4902,#04902 #004902 4902 #4902 004902,16550 Keystone Blvd,CO,80134
Popeyes,Westminster,4903,#04903 #004903 4903 #4903 004903,12051 N Huron St,CO,80234
Popeyes,Lakeland,4904,#04904 #004904 4904 #4904 004904,2550 N US Hwy 98,FL,33809
Popeyes,Omaha,4906,#04906 #004906 4906 #4906 004906,3029 N. 90th,NE,68134
Popeyes,Ocean Springs,4918,#04918 #004918 4918 #4918 004918,2408 Bienville Blvd,MS,39564
Popeyes,Milwaukee,4925,#04925 #004925 4925 #4925 004925,7525 W. Good Hope Rd,WI,53223
Popeyes,South Holland,4941,#04941 #004941 4941 #4941 004941,702 E. 162nd St.,IL,60473
Popeyes,Jena,4950,#04950 #004950 4950 #4950 004950,2529 E. Oak St.,LA,71342
Popeyes,Cartersville,4954,#04954 #004954 4954 #4954 004954,981 Cassville White Rd,GA,30120
Popeyes,Olney,4957,#04957 #004957 4957 #4957 004957,3410 Olney-Laytonville Rd,MD,20830
Popeyes,Albany,4958,#04958 #004958 4958 #4958 004958,900 Central Avenue,NY,12206
Popeyes,West New York,4960,#04960 #004960 4960 #4960 004960,5401 Bergenline Avenue,NJ,7093
Popeyes,Tampa,4962,#04962 #004962 4962 #4962 004962,5156 S. Dale Mabry,FL,33611
Popeyes,Norfolk,4970,#04970 #004970 4970 #4970 004970,7700 Hampton Blvd.,VA,23505
Popeyes,Bryan,4972,#04972 #004972 4972 #4972 004972,509 North Harvey Mitchell Pkwy,TX,77803
Popeyes,Abilene,4980,#04980 #004980 4980 #4980 004980,4425 Ridgemont,TX,79606
Popeyes,Wayne,4983,#04983 #004983 4983 #4983 004983,3102 Willowbrook Mall,NJ,7470
Popeyes,Thornton,4986,#04986 #004986 4986 #4986 004986,550 W. 84th St.,CO,80221
Popeyes,Maple Heights,4987,#04987 #004987 4987 #4987 004987,5581 Warrensville Center Road,OH,44137
Popeyes,"Memphis,",4989,#04989 #004989 4989 #4989 004989,6546 Winchester Road,TN,38115
Popeyes,Battle Creek,4993,#04993 #004993 4993 #4993 004993,91 E. Columbia Ave,MI,49015
Popeyes,Irving,4995,#04995 #004995 4995 #4995 004995,1711 N. Beltline Rd,TX,75061
Popeyes,Hampton,5246,#05246 #005246 5246 #5246 005246,67 W Mercury Blvd,VA,23669
Popeyes,Bronx,5249,#05249 #005249 5249 #5249 005249,60 Metropolitan Oval,NY,10462
Popeyes,Columbus,5256,#05256 #005256 5256 #5256 005256,2135 E Livingston Ave,OH,43209
Popeyes,Olathe,5257,#05257 #005257 5257 #5257 005257,15204 W 119th St,KS,66062
Popeyes,Florence,5260,#05260 #005260 5260 #5260 005260,7777 Burlington Rd,KY,41042
Popeyes,Amarillo,5261,#05261 #005261 5261 #5261 005261,7000 I-40 East,TX,79118
Popeyes,Loves Park,5262,#05262 #005262 5262 #5262 005262,5207 N Second St,IL,61111
Popeyes,Senatobia,5265,#05265 #005265 5265 #5265 005265,100 Norfleet Dr,MS,38668
Popeyes,Council Bluffs,5273,#05273 #005273 5273 #5273 005273,3440 W Broadway,IA,51501
Popeyes,Lodi,5277,#05277 #005277 5277 #5277 005277,11 Route #46,NJ,7644
Popeyes,Rockaway Beach,5283,#05283 #005283 5283 #5283 005283,8601 Rockaway Beach Blvd,NY,11693
Popeyes,Sylacauga,5302,#05302 #005302 5302 #5302 005302,41260 US Hwy 280,AL,35150
Popeyes,Norfolk,5303,#05303 #005303 5303 #5303 005303,5850 E. Virginia Beach Blvd,VA,23502
Popeyes,Denver,5314,#05314 #005314 5314 #5314 005314,4570 Chambers Road,CO,80239
Popeyes,Las Vegas,5315,#05315 #005315 5315 #5315 005315,4505 E. Bonanza Rd,NV,89109
Popeyes,Lafayette,5319,#05319 #005319 5319 #5319 005319,200 E. Willow St,LA,70501
Popeyes,Tampa,5321,#05321 #005321 5321 #5321 005321,2216 E. Fletcher Avenue,FL,33612
Popeyes,Brooklyn,5322,#05322 #005322 5322 #5322 005322,1132 Myrtle Ave.,NY,11206
Popeyes,Fort Bragg,5325,#05325 #005325 5325 #5325 005325,Bldg E - 1017 Canopy Lane,NC,28307
Popeyes,Monroe,5327,#05327 #005327 5327 #5327 005327,1255 N Dixie Hwy,MI,48162
Popeyes,Oakland,5328,#05328 #005328 5328 #5328 005328,7007 Int'l Blvd,CA,94621
Popeyes,Lake City,5336,#05336 #005336 5336 #5336 005336,5660 Jonesboro Road,GA,30260
Popeyes,Dublin,5351,#05351 #005351 5351 #5351 005351,7122 Regional St,CA,94568
Popeyes,Walker,5352,#05352 #005352 5352 #5352 005352,28710 Walker Road South,LA,70785
Popeyes,Colorado Springs,5354,#05354 #005354 5354 #5354 005354,1190 W. Baptist Rd,CO,80921
Popeyes,Houston,5360,#05360 #005360 5360 #5360 005360,3500 N Terminal Rd,TX,77032
Popeyes,Cleveland,5362,#05362 #005362 5362 #5362 005362,6140 Broadway Ave,OH,44105
Popeyes,Norfolk,5364,#05364 #005364 5364 #5364 005364,300 St. Paul's Blvd,VA,23510
Popeyes,Countryside,5381,#05381 #005381 5381 #5381 005381,5711 S La Grange Rd,IL,60525
Popeyes,Navasota,5390,#05390 #005390 5390 #5390 005390,9319 Hwy 90 South,TX,77868
Popeyes,Pine Bluff,5391,#05391 #005391 5391 #5391 005391,2700 Olive St,AR,71601
Popeyes,San Antonio,5392,#05392 #005392 5392 #5392 005392,6170 I-H 10 East,TX,78219
Popeyes,Detroit,5394,#05394 #005394 5394 #5394 005394,20919 W 8 Mile Rd,MI,48219
Popeyes,Brooklyn,5407,#05407 #005407 5407 #5407 005407,702 Rockaway Ave,NY,11212
Popeyes,Sugarland,5414,#05414 #005414 5414 #5414 005414,1134 Eldridge Rd,TX,77478
Popeyes,Round Lake Beach,5424,#05424 #005424 5424 #5424 005424,221 E. Rollins Rd,IL,60073
Popeyes,Oklahoma City,5428,#05428 #005428 5428 #5428 005428,12401 N Pennsylvania Ave,OK,73120
Popeyes,Reynoldsburg,5434,#05434 #005434 5434 #5434 005434,1928 Brice Road,OH,43068
Popeyes,Jersey City,5435,#05435 #005435 5435 #5435 005435,"Hudson Mall, 701 State Route 440",NJ,7304
Popeyes,Hampton,5445,#05445 #005445 5445 #5445 005445,5201 W. Mercury Blvd.,VA,23666
Popeyes,Harrisburg,5448,#05448 #005448 5448 #5448 005448,1900 N. Cameron St.,PA,17103
Popeyes,Oceanside,5454,#05454 #005454 5454 #5454 005454,511-A Vandegrift Blvd,CA,92056
Popeyes,Biloxi,5471,#05471 #005471 5471 #5471 005471,2431 Pass Rd,MS,39531
Popeyes,Brooklyn,5472,#05472 #005472 5472 #5472 005472,80 Court Street,NY,11201
Popeyes,Memphis,5478,#05478 #005478 5478 #5478 005478,1430 E. Brooks Rd,TN,38116
Popeyes,Broussard,5487,#05487 #005487 5487 #5487 005487,1040 Baker Hughes Rd,LA,70518
Popeyes,Colorado Springs,5490,#05490 #005490 5490 #5490 005490,7480 Austin Bluffs Pkwy.,CO,80918
Popeyes,Jamaica,5497,#05497 #005497 5497 #5497 005497,87-60 Sutphin Blvd.,NY,11435
Popeyes,Omaha,5514,#05514 #005514 5514 #5514 005514,4524 Dodge Street,NE,68132
Popeyes,Aurora,5515,#05515 #005515 5515 #5515 005515,22996 E Smokey Hill Road,CO,80016
Popeyes,San Antonio,5521,#05521 #005521 5521 #5521 005521,4535 Rittiman Rd,TX,78218
Popeyes,Detroit,5522,#05522 #005522 5522 #5522 005522,14300 Livernois Ave,MI,48238
Popeyes,Pueblo,5526,#05526 #005526 5526 #5526 005526,1301 W US Hwy #50,CO,81008
Popeyes,Newport News,5527,#05527 #005527 5527 #5527 005527,13795 Warwick Blvd,VA,23602
Popeyes,Plano,5534,#05534 #005534 5534 #5534 005534,1917 W 15th St,TX,75075
Popeyes,Millington,5535,#05535 #005535 5535 #5535 005535,8449 US Hwy 51 North,TN,38053
Popeyes,Naranja,5536,#05536 #005536 5536 #5536 005536,27101 South Dixie Hwy,FL,33032
Popeyes,Hanover,5537,#05537 #005537 5537 #5537 005537,7000 Arundel Mills Circle,MD,21076
Popeyes,Virginia Beach,5544,#05544 #005544 5544 #5544 005544,812 Lynnhaven Pkwy,VA,23452
Popeyes,Portsmouth,5545,#05545 #005545 5545 #5545 005545,3718 George Washington Hwy,VA,23704
Popeyes,Abilene,5547,#05547 #005547 5547 #5547 005547,841 Ambler,TX,79601
Popeyes,Louisville,5551,#05551 #005551 5551 #5551 005551,5003 Preston Hwy,KY,40213
Popeyes,Brooklyn,5553,#05553 #005553 5553 #5553 005553,8514 5th Ave,NY,11209
Popeyes,Cleveland,5554,#05554 #005554 5554 #5554 005554,10509 St. Clair Avenue,OH,44108
Popeyes,"West Memphis,",5561,#05561 #005561 5561 #5561 005561,1344 Missouri Street,AR,72301
Popeyes,Bronx,5575,#05575 #005575 5575 #5575 005575,2751 Boston Rd,NY,10469
Popeyes,Liberty Township,5580,#05580 #005580 5580 #5580 005580,7088 Liberty Centre Drive,OH,45069
Popeyes,Dallas,5589,#05589 #005589 5589 #5589 005589,3561 Forest Lane,TX,75234
Popeyes,Austin,5590,#05590 #005590 5590 #5590 005590,2320 E Riverside Drive,TX,78741
Popeyes,Newark,5592,#05592 #005592 5592 #5592 005592,35193 Newark Blvd,CA,94560
Popeyes,San Antonio,5593,#05593 #005593 5593 #5593 005593,830 SE Military Drive,TX,78214
Popeyes,Rockford,5606,#05606 #005606 5606 #5606 005606,3509 E. State St.,IL,61107
Popeyes,Boutte,5613,#05613 #005613 5613 #5613 005613,13210 Hwy 90,LA,70039
Popeyes,Chattanooga,5614,#05614 #005614 5614 #5614 005614,3352 Broad St,TN,37409
Popeyes,Houston,5615,#05615 #005615 5615 #5615 005615,2406 Bay Area Blvd,TX,77058
Popeyes,Jackson,5627,#05627 #005627 5627 #5627 005627,1691 S. Highland Avenue,TN,38301
Popeyes,Gramercy,5628,#05628 #005628 5628 #5628 005628,982 Hwy 3125,LA,70052
Popeyes,Waller,5629,#05629 #005629 5629 #5629 005629,"31100 FM 2920, Suite A",TX,77484
Popeyes,Midland,5635,#05635 #005635 5635 #5635 005635,3002 N. Big Spring,TX,79705
Popeyes,Mesa,5636,#05636 #005636 5636 #5636 005636,2005 West Broadway,AZ,85202
Popeyes,Las Vegas,5637,#05637 #005637 5637 #5637 005637,6111 West Saraha Avenue,NV,89146
Popeyes,Charleston,5655,#05655 #005655 5655 #5655 005655,5988 North Rivers Avenue,SC,29406
Popeyes,Austell,5656,#05656 #005656 5656 #5656 005656,1830 EW Connector,GA,30106
Popeyes,Chattanooga,5657,#05657 #005657 5657 #5657 005657,5749 Brainerd Rd,TN,37411
Popeyes,Lackland AFB,5659,#05659 #005659 5659 #5659 005659,2250 Kelly Drive,TX,78236
Popeyes,Lithonia,5660,#05660 #005660 5660 #5660 005660,3001 Panola Road,GA,30058
Popeyes,Hattiesburg,5663,#05663 #005663 5663 #5663 005663,5900 Hwy 49 South,MS,39401
Popeyes,Dallas,5670,#05670 #005670 5670 #5670 005670,2439 W. Ledbetter Drive,TX,75233
Popeyes,Louisville,5671,#05671 #005671 5671 #5671 005671,3317 Bardstown Rd,KY,40218
Popeyes,Puerto Rico,5673,#05673 #005673 5673 #5673 005673,Fort Buchanan,PR,934
Popeyes,Crestwood,5686,#05686 #005686 5686 #5686 005686,13300 S. Cicero,IL,60445
Popeyes,Springfield,5687,#05687 #005687 5687 #5687 005687,8326 Old Keene Rd,VA,22152
Popeyes,Montgomery,5701,#05701 #005701 5701 #5701 005701,14631 Hwy 105 West,TX,77356
Popeyes,Jacksonville,5705,#05705 #005705 5705 #5705 005705,"Bldg #1034, Little Rock AFB",AR,72099
Popeyes,Monroe,5706,#05706 #005706 5706 #5706 005706,1280 Hamilton-Lebanon Rd,OH,45050
Popeyes,Norwood,5707,#05707 #005707 5707 #5707 005707,2700 Madison Road,OH,45208
Popeyes,Mason,5709,#05709 #005709 5709 #5709 005709,2430 Kings Mill Road,OH,45040
Popeyes,Tulsa,5716,#05716 #005716 5716 #5716 005716,1117 E. Pine Street,OK,74106
Popeyes,Las Vegas,5719,#05719 #005719 5719 #5719 005719,8132 S. Las Vegas Blvd.,NV,89123
Popeyes,Guadalupe,5720,#05720 #005720 5720 #5720 005720,1619 W. Baseline Road,AZ,85283
Popeyes,Baltimore,5721,#05721 #005721 5721 #5721 005721,1811 N. Rolling Road,MD,21244
Popeyes,Alamogordo,5725,#05725 #005725 5725 #5725 005725,"744 First St, Bldg. 33-Holloman AFB",NM,88330
Popeyes,Richton Park,5727,#05727 #005727 5727 #5727 005727,22198 Governors Hwy,IL,60471
Popeyes,Dover,5729,#05729 #005729 5729 #5729 005729,677 N. Dupont Hwy,DE,19901
Popeyes,Crystal Springs,5730,#05730 #005730 5730 #5730 005730,26174 Hwy 27,MS,39059
Popeyes,San Antonio,5732,#05732 #005732 5732 #5732 005732,7606 Guilbeau Road,TX,78250
Popeyes,Conway,5733,#05733 #005733 5733 #5733 005733,1720 Old Morrilton Hwy,AR,72032
Popeyes,Chesapeake,5738,#05738 #005738 5738 #5738 005738,333 Dominion Blvd.,VA,23322
Popeyes,Pelham,5742,#05742 #005742 5742 #5742 005742,3300 Pelham Pkwy,AL,35124
Popeyes,Brooklyn,5744,#05744 #005744 5744 #5744 005744,1422 Fulton St,NY,11216
Popeyes,Louisville,5745,#05745 #005745 5745 #5745 005745,7528 Dixie Hwy,KY,40258
Popeyes,Seville,5752,#05752 #005752 5752 #5752 005752,8834 Lake Road,OH,44273
Popeyes,Chicago,5754,#05754 #005754 5754 #5754 005754,6622 W. Fullerton Ave.,IL,60639
Popeyes,Newark,5759,#05759 #005759 5759 #5759 005759,867 Frelinghuysen Ave,NJ,7114
Popeyes,Oklahoma City,5761,#05761 #005761 5761 #5761 005761,7801 S. Sooner Rd.,OK,73135
Popeyes,Glenwood,5788,#05788 #005788 5788 #5788 005788,18241 S. Halsted St.,IL,60430
Popeyes,Calumet City,5789,#05789 #005789 5789 #5789 005789,4 W. Sibley Blvd.,IL,60409
Popeyes,Hazel Crest,5797,#05797 #005797 5797 #5797 005797,18240 S Kedzie Ave.,IL,60429
Popeyes,Chicago,5798,#05798 #005798 5798 #5798 005798,4431 S. Archer Ave.,IL,60632
Popeyes,Woodlands,5803,#05803 #005803 5803 #5803 005803,16826 I-45 South,TX,77384
Popeyes,Springfield,5809,#05809 #005809 5809 #5809 005809,2496 S Wabash Avenue,IL,62704
Popeyes,San Diego,5810,#05810 #005810 5810 #5810 005810,6095 El Cajon Blvd.,CA,92115
Popeyes,Suisun City,5813,#05813 #005813 5813 #5813 005813,1210 Anderson Drive,CA,94585
Popeyes,New Brunswick,5814,#05814 #005814 5814 #5814 005814,571 Milltown Rd,NJ,8902
Popeyes,New York,5827,#05827 #005827 5827 #5827 005827,103 E. 125th St.,NY,10035
Popeyes,Arvado,5828,#05828 #005828 5828 #5828 005828,6450 N Sheridan Blvd,CO,80003
Popeyes,Providence,5843,#05843 #005843 5843 #5843 005843,37 Providence Place Mall,RI,2903
Popeyes,Houston,5863,#05863 #005863 5863 #5863 005863,18550 NW Freeway,TX,77065
Popeyes,Far Rockaway,5864,#05864 #005864 5864 #5864 005864,1426 Cornaga Ave,NY,11691
Popeyes,San Antonio,5868,#05868 #005868 5868 #5868 005868,1744 Horal Drive,TX,78227
Popeyes,Amarillo,5869,#05869 #005869 5869 #5869 005869,2201 Paramount Blvd.,TX,79109
Popeyes,Hawthorne,5875,#05875 #005875 5875 #5875 005875,12620 Hawthorne Blvd. #A,CA,90250
Popeyes,Houston,5876,#05876 #005876 5876 #5876 005876,4919 Airline Drive,TX,77022
Popeyes,Dayton,5881,#05881 #005881 5881 #5881 005881,3796 Salem Ave.,OH,45406
Popeyes,Rockaway,5888,#05888 #005888 5888 #5888 005888,Rockaway Townsquare Mall-301 Mt Hope Road - Suite 2109,NJ,7866
Popeyes,Elizabethtown,5890,#05890 #005890 5890 #5890 005890,1875 Dixie Avenue,KY,42701
Popeyes,Arlington,5921,#05921 #005921 5921 #5921 005921,"1100 S. Hayes St., The Fashion Center @ Pentagon City Mall, Space M108",VA,22202
Popeyes,Hayward,5928,#05928 #005928 5928 #5928 005928,24901 Santa Clara St,CA,94544
Popeyes,Friendswood,5932,#05932 #005932 5932 #5932 005932,404 W Parkwood Ave,TX,77546
Popeyes,Waco,5939,#05939 #005939 5939 #5939 005939,1401 South Park Ave,TX,76706
Popeyes,Aransas Pass,5944,#05944 #005944 5944 #5944 005944,515 E. Goodnight Ave.,TX,78336
Popeyes,New York,5945,#05945 #005945 5945 #5945 005945,53 W 116th St,NY,10026
Popeyes,Woodstock,5953,#05953 #005953 5953 #5953 005953,1425 S Eastwood Drive,IL,60098
Popeyes,Jeffersonville,5954,#05954 #005954 5954 #5954 005954,1718 E 10th St,IN,47130
Popeyes,Tacoma,5955,#05955 #005955 5955 #5955 005955,1917 B-29 72nd St.,WA,98408
Popeyes,Paramus,5958,#05958 #005958 5958 #5958 005958,282 Route 4 East,NJ,7652
Popeyes,N Aurora,5959,#05959 #005959 5959 #5959 005959,414 S. Lincolnway,IL,60542
Popeyes,Dallas,5961,#05961 #005961 5961 #5961 005961,19304 Preston Rd,TX,75252
Popeyes,Brentwood,5967,#05967 #005967 5967 #5967 005967,8100 Manchester Rd,MO,63143
Popeyes,Flushing,5968,#05968 #005968 5968 #5968 005968,164-17 Union Turnpike,NY,11366
Popeyes,Atlanta,5973,#05973 #005973 5973 #5973 005973,4555 Roswell Road,GA,30342
Popeyes,Philadelphia,5986,#05986 #005986 5986 #5986 005986,800 S Broad St,PA,19145
Popeyes,Newport News,5989,#05989 #005989 5989 #5989 005989,11706 Jefferson Avenue,VA,23606
Popeyes,Linden,5994,#05994 #005994 5994 #5994 005994,1190 E St. Georges Ave,NJ,7036
Popeyes,Lubbock,5999,#05999 #005999 5999 #5999 005999,2505 82nd St,TX,79423
Popeyes,Miami,6089,#06089 #006089 6089 #6089 006089,18401 S Dixie Hwy,FL,33157
Popeyes,Brooklyn,6091,#06091 #006091 6091 #6091 006091,1630 Bushwick Avenue,NY,11207
Popeyes,Portsmouth,6093,#06093 #006093 6093 #6093 006093,5720 Churchland Blvd,VA,23703
Popeyes,Arlington,6094,#06094 #006094 6094 #6094 006094,1204 N Collins St,TX,76011
Popeyes,Detroit,6095,#06095 #006095 6095 #6095 006095,17700 Grandriver,MI,48227
Popeyes,Detroit,6096,#06096 #006096 6096 #6096 006096,14180 Gratoit Avenue,MI,48205
Popeyes,Okeechobee,7007,#07007 #007007 7007 #7007 007007,822 E N Park St,FL,34972
Popeyes,Harrison,7021,#07021 #007021 7021 #7021 007021,7 Passaic Avenue,NJ,7029
Popeyes,Cumming,7036,#07036 #007036 7036 #7036 007036,985 Market Place Blvd,GA,30041
Popeyes,Alpharetta,7037,#07037 #007037 7037 #7037 007037,3343 Old Milton Pkwy,GA,30005
Popeyes,Spring,7058,#07058 #007058 7058 #7058 007058,20035 I-45 North,TX,77388
Popeyes,Rockford,7066,#07066 #007066 7066 #7066 007066,3622 Auburn St,IL,61101
Popeyes,Oklahoma City,7069,#07069 #007069 7069 #7069 007069,3360 N Avenue - Bldg 685,OK,73145
Popeyes,Lakewood,7074,#07074 #007074 7074 #7074 007074,Colorado Mills Mall-14500 W Colfax Avenue,CO,80401
Popeyes,Centreville,7078,#07078 #007078 7078 #7078 007078,5131 Westfields Blvd,VA,20120
Popeyes,San Jose,7081,#07081 #007081 7081 #7081 007081,311 N Capitol Ave - Suite A,CA,95133
Popeyes,Milwaukee,7087,#07087 #007087 7087 #7087 007087,7458 W Appleton,WI,53218
Popeyes,N Charleston,7088,#07088 #007088 7088 #7088 007088,8427 Dorchester Road,SC,29420
Popeyes,Dallas,7094,#07094 #007094 7094 #7094 007094,11360 E Northwest Hwy,TX,75218
Popeyes,Bartett,7096,#07096 #007096 7096 #7096 007096,6085 Stage Road,TN,38134
Popeyes,Peoria,7106,#07106 #007106 7106 #7106 007106,8327 Thunderbird Blvd,AZ,85381
Popeyes,Hagerstown,7108,#07108 #007108 7108 #7108 007108,17524 Valley Mall Rd,MD,21740
Popeyes,Lilburn,7109,#07109 #007109 7109 #7109 007109,4865 Stone Mountain Hwy,GA,30047
Popeyes,Houston,7112,#07112 #007112 7112 #7112 007112,15107 FM 529 Road,TX,77095
Popeyes,Searcy,7117,#07117 #007117 7117 #7117 007117,1805 E Beebe-Capps Expressway,AR,72143
Popeyes,Bronx,7133,#07133 #007133 7133 #7133 007133,360 Baychester Avenue,NY,10475
Popeyes,Seffner,7134,#07134 #007134 7134 #7134 007134,11706 Tampa Gateway Blvd,FL,33584
Popeyes,Aurora,7135,#07135 #007135 7135 #7135 007135,"21856 Bents Rd, NE I-5",OR,97002
Popeyes,San Antonio,7140,#07140 #007140 7140 #7140 007140,529 Fair Avenue,TX,78223
Popeyes,Lincoln,7141,#07141 #007141 7141 #7141 007141,4400 S 70th St,NE,68506
Popeyes,Chambersburg,7142,#07142 #007142 7142 #7142 007142,1332 Lincolnway East,PA,17201
Popeyes,Troutdale,7144,#07144 #007144 7144 #7144 007144,"790 NW Frontage Rd - I-84, Exit 17",OR,97060
Popeyes,Fountain,7145,#07145 #007145 7145 #7145 007145,6666 Camden Blvd,CO,80907
Popeyes,Houston,7147,#07147 #007147 7147 #7147 007147,14266 Gulf Freeway,TX,77034
Popeyes,Lewisville,7149,#07149 #007149 7149 #7149 007149,290 East FM 3040,TX,75067
Popeyes,Lilburn,7152,#07152 #007152 7152 #7152 007152,4123 US Hwy 29,GA,30047
Popeyes,Amherst,7157,#07157 #007157 7157 #7157 007157,46402 Middleridge Rd #5 Plaza North,OH,44001
Popeyes,Amherst,7158,#07158 #007158 7158 #7158 007158,"7998 Leavitt Rd - #5 Plaza South, (Vermillion Valley)",OH,44001
Popeyes,Broomall,7191,#07191 #007191 7191 #7191 007191,1991 S. Sproul Rd,PA,19008
Popeyes,Cape Coral,7200,#07200 #007200 7200 #7200 007200,3111 NE Pine Island Rd,FL,33909
Popeyes,Rockwall,7201,#07201 #007201 7201 #7201 007201,2535 Ridge Rd,TX,75087
Popeyes,Ashburn,7204,#07204 #007204 7204 #7204 007204,44061 Ashburn Shopping Plaza,VA,20147
Popeyes,Chesapeake,7206,#07206 #007206 7206 #7206 007206,4307 Indian River Rd,VA,23325
Popeyes,Sunrise,7216,#07216 #007216 7216 #7216 007216,12801 W Sunrise Blvd #F-849,FL,33323
Popeyes,S Richmond Hills,7225,#07225 #007225 7225 #7225 007225,104-13 Lefferts Blvd,NY,11419
Popeyes,Barstow,7229,#07229 #007229 7229 #7229 007229,1601 E Main St,CA,92311
Popeyes,Bronx,7236,#07236 #007236 7236 #7236 007236,205-209 W 231st St,NY,10463
Popeyes,Watson,7245,#07245 #007245 7245 #7245 007245,34579 Hwy 16 North,LA,70706
Popeyes,New Orleans,7255,#07255 #007255 7255 #7255 007255,8700 Chef Mentuer,LA,70127
Popeyes,Wiggins,7256,#07256 #007256 7256 #7256 007256,1113 Frontage Drive East,MS,39577
Popeyes,Houston,7257,#07257 #007257 7257 #7257 007257,22534 Tomball Parkway,TX,77070
Popeyes,Fort Sam,7258,#07258 #007258 7258 #7258 007258,"Bldg 380, 2410 Scott Road",TX,78234
Popeyes,San Antonio,7261,#07261 #007261 7261 #7261 007261,6127 Callaghan Road,TX,78223
Popeyes,Honolulu,7264,#07264 #007264 7264 #7264 007264,NEX - Pearl Harbor Mall - 4275 Radford Dr #2,HI,96818
Popeyes,New Orleans,7277,#07277 #007277 7277 #7277 007277,4238 S. Claiborne Ave,LA,70125
Popeyes,Collierville,7283,#07283 #007283 7283 #7283 007283,1105 W Poplar Ave,TN,38017
Popeyes,Laredo,7287,#07287 #007287 7287 #7287 007287,1609 Del Mar Blvd,TX,78041
Popeyes,Eddystone,7308,#07308 #007308 7308 #7308 007308,1530 Chester Pike,PA,19022
Popeyes,Wallisville,7310,#07310 #007310 7310 #7310 007310,15125 Wallisville Rd,TX,77049
Popeyes,Benton,7313,#07313 #007313 7313 #7313 007313,2012 Old Congo Rd,AR,72015
Popeyes,Ft Myers,7318,#07318 #007318 7318 #7318 007318,4400 Palm Beach Blvd,FL,33905
Popeyes,Bronx,7320,#07320 #007320 7320 #7320 007320,2195 Grand Concourse,NY,10458
Popeyes,Rochester,7323,#07323 #007323 7323 #7323 007323,541 Lake Avenue,NY,14613
Popeyes,Germantown,7327,#07327 #007327 7327 #7327 007327,19911-A Frederick Rd,MD,20876
Popeyes,Markham,7336,#07336 #007336 7336 #7336 007336,3040 W 159th St,IL,60428
Popeyes,Bakersfield,7356,#07356 #007356 7356 #7356 007356,4360 Gosford Rd,CA,93313
Popeyes,Plainfield,7362,#07362 #007362 7362 #7362 007362,325 Terrill Rd,NJ,7062
Popeyes,Fredericksburg,7366,#07366 #007366 7366 #7366 007366,735 Warrenton Rd,VA,22407
Popeyes,Prattville,7370,#07370 #007370 7370 #7370 007370,1723 E Main Street,AL,36067
Popeyes,Mountain Home,7373,#07373 #007373 7373 #7373 007373,2887 Hwy 62 East,AR,72653
Popeyes,Palmdale,7375,#07375 #007375 7375 #7375 007375,39462 Trade Center Drive,CA,93551
Popeyes,Dallas,7391,#07391 #007391 7391 #7391 007391,2972 Wheatland Rd,TX,75232
Popeyes,San Antonio,7409,#07409 #007409 7409 #7409 007409,7031 San Pedro Avenue,TX,78216
Popeyes,Brooklyn,7410,#07410 #007410 7410 #7410 007410,624 S Conduit Avenue,NY,11208
Popeyes,Rockport,7411,#07411 #007411 7411 #7411 007411,2751 Hwy 35 North,TX,78382
Popeyes,Lincoln,7413,#07413 #007413 7413 #7413 007413,5955 N 27th Street,NE,68521
Popeyes,Bronx,7416,#07416 #007416 7416 #7416 007416,1905 A Story Avenue,NY,10473
Popeyes,Chalmette,7431,#07431 #007431 7431 #7431 007431,8350 W. Judge Perez Dr.,LA,70043
Popeyes,Harahan,7433,#07433 #007433 7433 #7433 007433,1216 Elmwood Park,LA,70123
Popeyes,Springdale,7439,#07439 #007439 7439 #7439 007439,538 E Robinson Avenue,AR,72764
Popeyes,Cleveland,7455,#07455 #007455 7455 #7455 007455,710 Hwy 59 South Frontage Rd,TX,77327
Popeyes,Bloomington,8214,#08214 #008214 8214 #8214 008214,1803 W Market St,IL,61701
Popeyes,Madison,8215,#08215 #008215 8215 #8215 008215,735 Myatt Drive,TN,37115
Popeyes,Richmond Hill,8216,#08216 #008216 8216 #8216 008216,4401 US Hwy 17,GA,31324
Popeyes,Bloomville,8217,#08217 #008217 8217 #8217 008217,3014 Paxville Hwy,SC,29102
Popeyes,Lake Station,8218,#08218 #008218 8218 #8218 008218,1201 Ripley St,IN,46405
Popeyes,Livermore,8220,#08220 #008220 8220 #8220 008220,2301 Las Positas Rd,CA,94551
Popeyes,Schenectady,8484,#08484 #008484 8484 #8484 008484,1112 State Street,NY,12304
Popeyes,Spring Hill,8495,#08495 #008495 8495 #8495 008495,4493 Commercial Way,FL,34606
Popeyes,Cedar Hill,8505,#08505 #008505 8505 #8505 008505,226 E FM 1382,TX,75104
Popeyes,Brooklyn,8527,#08527 #008527 8527 #8527 008527,722 Flatbush Avenue,NY,11226
Popeyes,Tampa,8534,#08534 #008534 8534 #8534 008534,14901 N Florida Avenue,FL,33613
Popeyes,Lisle,8539,#08539 #008539 8539 #8539 008539,2350 Ogden Avenue,IL,60532
Popeyes,Raytown,8562,#08562 #008562 8562 #8562 008562,7601 Raytown Rd,MO,64138
Popeyes,Garland,8564,#08564 #008564 8564 #8564 008564,3040 Broadway Blvd,TX,75043
Popeyes,Highland,8577,#08577 #008577 8577 #8577 008577,27617 Baseline St,CA,92346
Popeyes,Mishawaka,8582,#08582 #008582 8582 #8582 008582,2420 Hickory Rd,IN,46545
Popeyes,Cincinnati,8584,#08584 #008584 8584 #8584 008584,1165 Kemper Meadow Drive,OH,45240
Popeyes,Berkeley,8593,#08593 #008593 8593 #8593 008593,1775 San Pablo Avenue,CA,94702
Popeyes,Forrest City,8594,#08594 #008594 8594 #8594 008594,120 Holiday Drive,AR,72335
Popeyes,Highland Park,8596,#08596 #008596 8596 #8596 008596,13959 Woodward Avenue,MI,48203
Popeyes,Providence,8604,#08604 #008604 8604 #8604 008604,77 Reservoir Avenue,RI,2907
Popeyes,Peoria,8605,#08605 #008605 8605 #8605 008605,1800 N Knoxville Avenue,IL,61603
Popeyes,Lawton,8622,#08622 #008622 8622 #8622 008622,6119 NW Cache Rd,OK,73505
Popeyes,Romeoville,8627,#08627 #008627 8627 #8627 008627,1245 Normantown Rd,IL,60446
Popeyes,Brooklyn,8629,#08629 #008629 8629 #8629 008629,1134 Fulton Street,NY,11216
Popeyes,Waipahu,8635,#08635 #008635 8635 #8635 008635,#95-059 Farrington Hwy - Space E3-1,HI,96797
Popeyes,Shreveport,8638,#08638 #008638 8638 #8638 008638,4419 Pines Rd,LA,71119
Popeyes,Nashville,8645,#08645 #008645 8645 #8645 008645,1188 Murfreesboro Pike,TN,37217
Popeyes,Elizabeth,8646,#08646 #008646 8646 #8646 008646,117 Broad Street,NJ,7201
Popeyes,Lombard,8677,#08677 #008677 8677 #8677 008677,844 E Roosevelt Rd,IL,60148
Popeyes,Naperville,8678,#08678 #008678 8678 #8678 008678,5108 Clarence Drive,IL,60564
Popeyes,The Woodlands,8684,#08684 #008684 8684 #8684 008684,4510 Panthers Creek Pine,TX,77381
Popeyes,Jersey City,8685,#08685 #008685 8685 #8685 008685,924 Bergen Avenue,NJ,7305
Popeyes,Broken Arrow,8688,#08688 #008688 8688 #8688 008688,1450 E Kenosha St,OK,74012
Popeyes,Santa Clara,8691,#08691 #008691 8691 #8691 008691,2786 Homestead Rd,CA,95051
Popeyes,Tempe,8703,#08703 #008703 8703 #8703 008703,457 W Broadway Rd,AZ,85282
Popeyes,Austintown,8719,#08719 #008719 8719 #8719 008719,6073 Mahoning Avenue,OH,44515
Popeyes,Niagara Falls,8727,#08727 #008727 8727 #8727 008727,#6734 Lundy's Lane,ON,L2G 1V5
Popeyes,Pittsburg,8732,#08732 #008732 8732 #8732 008732,1283 E Leland Rd,CA,94565
Popeyes,W. Palm Beach,8733,#08733 #008733 8733 #8733 008733,2825 N Military Trail,FL,33409
Popeyes,W Columbia,8734,#08734 #008734 8734 #8734 008734,2832 Augusta Hwy,SC,29170
Popeyes,Fitchburg,8737,#08737 #008737 8737 #8737 008737,2844 Fish Hatchery Rd,WI,53713
Popeyes,San Jose,8742,#08742 #008742 8742 #8742 008742,705 W Capitol Expressway,CA,95136
Popeyes,Lansing,8747,#08747 #008747 8747 #8747 008747,3010 S Martin Luther King Jr Blvd,MI,48910
Popeyes,Montgomery,8759,#08759 #008759 8759 #8759 008759,955 W South Blvd,AL,36105
Popeyes,Balch Springs,8760,#08760 #008760 8760 #8760 008760,11850 Elam Rd,TX,75180
Popeyes,Hazelwood,8762,#08762 #008762 8762 #8762 008762,5555 St. Louis Mills Blvd FC5-St. Louis Mills Mall,MO,63042
Popeyes,Denton,8771,#08771 #008771 8771 #8771 008771,1716 S Loop 288,TX,76205
Popeyes,Tampa,8782,#08782 #008782 8782 #8782 008782,2701 E Busch Blvd,FL,33610
Popeyes,Dallas,8784,#08784 #008784 8784 #8784 008784,18311 Marsh Lane,TX,75287
Popeyes,Canal Winchester,8785,#08785 #008785 8785 #8785 008785,6335 Prentiss School Drive,OH,43110
Popeyes,Decatur,8805,#08805 #008805 8805 #8805 008805,2665 Wesley Chapel Rd,GA,30034
Popeyes,Stone Mountain,8806,#08806 #008806 8806 #8806 008806,4815 Redan Rd,GA,30088
Popeyes,Bronx,8808,#08808 #008808 8808 #8808 008808,845 E 149th St,NY,10455
Popeyes,Renton,8841,#08841 #008841 8841 #8841 008841,105 SW 7th St,WA,98055
Popeyes,White Hall,8844,#08844 #008844 8844 #8844 008844,8101 Sheridan Rd,AR,71602
Popeyes,Roswell,8849,#08849 #008849 8849 #8849 008849,10777 Alpharetta Hwy,GA,30076
Popeyes,Ft Wayne,8858,#08858 #008858 8858 #8858 008858,2615 S Clinton Street,IN,46803
Popeyes,Winchester,8862,#08862 #008862 8862 #8862 008862,2659 Valley Avenue,VA,22601
Popeyes,Frederick,8952,#08952 #008952 8952 #8952 008952,1403 W Patrick Street,MD,21702
Popeyes,Brooklyn,8955,#08955 #008955 8955 #8955 008955,9216 Church Avenue,NY,11236
Popeyes,Brooklyn,8956,#08956 #008956 8956 #8956 008956,1375 Rockaway Pkwy,NY,11236
Popeyes,Mt Laurel,8964,#08964 #008964 8964 #8964 008964,5 Hartford Rd (James Cooper),NJ,8054
Popeyes,Woodbridge,8965,#08965 #008965 8965 #8965 008965,"Thomas Edison Travel Plaza, 92.9 Mile Marker - South Turnpike",NJ,7095
Popeyes,San Jose,8971,#08971 #008971 8971 #8971 008971,1783 E Capitol Expressway,CA,95121
Popeyes,Vacaville,8972,#08972 #008972 8972 #8972 008972,293 Orange Drive,CA,95687
Popeyes,Texarkana,8980,#08980 #008980 8980 #8980 008980,4302 N Stateline Avenue,AR,71854
Popeyes,Orlando,8981,#08981 #008981 8981 #8981 008981,5760 S Orange Blossom Trail,FL,32809
Popeyes,Pittsburgh,8982,#08982 #008982 8982 #8982 008982,501 Penn Avenue (sometimes referred to as 1000 Pitt Street),PA,15221
Popeyes,Toledo,9044,#09044 #009044 9044 #9044 009044,3214 Secor Rd,OH,43606
Popeyes,Amarillo,9045,#09045 #009045 9045 #9045 009045,7200 Bell Street,TX,79109
Popeyes,Warren,9088,#09088 #009088 9088 #9088 009088,2209 E 8 Mile Rd,MI,48091
Popeyes,Taylor,9089,#09089 #009089 9089 #9089 009089,7615 Telegraph Rd,MI,48180
Popeyes,Oakland,9091,#09091 #009091 9091 #9091 009091,"1200 Clay Avenue, #104",CA,94612
Popeyes,Omaha,9093,#09093 #009093 9093 #9093 009093,13225 Millard Avenue,NE,68137
Popeyes,Chicago,9104,#09104 #009104 9104 #9104 009104,2355 W Addison Street,IL,60618
Popeyes,Memphis,9111,#09111 #009111 9111 #9111 009111,3660 Austin Peay  Hwy,TN,38128
Popeyes,Thibodaux,9112,#09112 #009112 9112 #9112 009112,700 North Canal Blvd,LA,70301
Popeyes,Amite,9114,#09114 #009114 9114 #9114 009114,1209 W Oak Street,LA,70422
Popeyes,Hagerstown,9116,#09116 #009116 9116 #9116 009116,1382 Dual Highway,MD,21740
Popeyes,Rogers,9122,#09122 #009122 9122 #9122 009122,2325 W Walnut St,AR,72756
Popeyes,San Jose,9153,#09153 #009153 9153 #9153 009153,1551 Saratoga Avenue,CA,95129
Popeyes,Little Rock,9157,#09157 #009157 9157 #9157 009157,3208 S University Avenue,AR,72204
Popeyes,Anchorage,9237,#09237 #009237 9237 #9237 009237,2960 C Street,AK,99503
Popeyes,Montgomery,9925,#09925 #009925 9925 #9925 009925,2797 Eastern Blvd,AL,36117
Popeyes,Nashville,9926,#09926 #009926 9926 #9926 009926,914 Jefferson Street,TN,37208
Popeyes,Whitestown,9928,#09928 #009928 9928 #9928 009928,5930 E State Rd 334,IN,46075
Popeyes,Oakland,9929,#09929 #009929 9929 #9929 009929,3080 E 9th St,CA,94601
Popeyes,Bronx,9933,#09933 #009933 9933 #9933 009933,949 E 174th St,NY,10460
Popeyes,Paducah,9934,#09934 #009934 9934 #9934 009934,2090 Lone Oak Road,KY,42003
Popeyes,San Diego,9938,#09938 #009938 9938 #9938 009938,9045 Mira Mesa Blvd,CA,92126
Popeyes,Selma,9945,#09945 #009945 9945 #9945 009945,1221 Highland Avenue,AL,36701
Popeyes,Charlotte Hall,10103,#010103 #0010103 10103 #10103 0010103,30263 Triangle Drive,MD,20622
Popeyes,Wallingford,10109,#010109 #0010109 10109 #10109 0010109,860 North Colony Road,CT,6492
Popeyes,Lauderhill,10110,#010110 #0010110 10110 #10110 0010110,7050 W Commercial Blvd,FL,33319
Popeyes,Sunnyvale,10114,#010114 #0010114 10114 #10114 0010114,808 W El Camino Real,CA,94087
Popeyes,Woodbridge,10118,#010118 #0010118 10118 #10118 0010118,13860 Smoketown Road,VA,22192
Popeyes,Jackson,10122,#010122 #0010122 10122 #10122 0010122,714 Vann Drive,TN,38305
Popeyes,Brockton,10123,#010123 #0010123 10123 #10123 0010123,Unit E-119 - 200 Westgate Drive,MA,2301
Popeyes,San Bruno,10125,#010125 #0010125 10125 #10125 0010125,1310 A El Camino Real,CA,94066
Popeyes,Ft Smith,10126,#010126 #0010126 10126 #10126 0010126,2301 S Zero St,AR,72901
Popeyes,Panorama,10128,#010128 #0010128 10128 #10128 0010128,775 Panorama Trail South,NY,14625
Popeyes,Beltsville,10134,#010134 #0010134 10134 #10134 0010134,11428 Cherry Hill Road,MD,20705
Popeyes,Florence,10136,#010136 #0010136 10136 #10136 0010136,2301 W Lucas St,SC,29501
Popeyes,Riverside,10137,#010137 #0010137 10137 #10137 0010137,9825-D Magnolia Avenue,CA,92503
Popeyes,Montclair,10138,#010138 #0010138 10138 #10138 0010138,1 Lackawanna Plaza Bloomfield Avenue,NJ,7042
Popeyes,Columbia,10139,#010139 #0010139 10139 #10139 0010139,7540 Garners Ferry Rd,SC,29209
Popeyes,Bloomington,10142,#010142 #0010142 10142 #10142 0010142,2003 E Empire St,IL,61704
Popeyes,Queens Village,10143,#010143 #0010143 10143 #10143 0010143,217-10 Hillside Avenue,NY,11427
Popeyes,El Cajon,10144,#010144 #0010144 10144 #10144 0010144,110 Jamacha Rd,CA,92020
Popeyes,Akron,10146,#010146 #0010146 10146 #10146 0010146,620 N Howard St,OH,44310
Popeyes,Wichita,10147,#010147 #0010147 10147 #10147 0010147,1623 S Seneca St,KS,67213
Popeyes,Flint,10301,#010301 #0010301 10301 #10301 0010301,4815 Clio Road,MI,48505
Popeyes,Lawnside,10304,#010304 #0010304 10304 #10304 0010304,16 White Horse Pike,NJ,8045
Popeyes,Lackland AFB,10305,#010305 #0010305 10305 #10305 0010305,"BMT Food Court, 1451 Stewart Street - Bldg 7025",TX,78236
Popeyes,Dallas,10307,#010307 #0010307 10307 #10307 0010307,DFW Airport - D22,TX,75261
Popeyes,Cabot,10308,#010308 #0010308 10308 #10308 0010308,3131 S Second St,AR,72023
Popeyes,Savannah,10311,#010311 #0010311 10311 #10311 0010311,"Hunter AAF Popeyes, 530 Leonard Neal Street",GA,31409
Popeyes,Chicago,10312,#010312 #0010312 10312 #10312 0010312,5353 N Harlem Avenue,IL,60656
Popeyes,Fremont,10320,#010320 #0010320 10320 #10320 0010320,39234 Argonaut Way,CA,94538
Popeyes,Lantana,10323,#010323 #0010323 10323 #10323 0010323,7049 Seacrest Blvd,FL,33462
Popeyes,Ashland,10324,#010324 #0010324 10324 #10324 0010324,715 US Highway 250 East P O Box 710,OH,44805
Popeyes,Big Spring,10325,#010325 #0010325 10325 #10325 0010325,I-20 & Hwy 87,TX,78720
Popeyes,New Braunfels,10326,#010326 #0010326 10326 #10326 0010326,4817 N I-35,TX,78130
Popeyes,Independence,10328,#010328 #0010328 10328 #10328 0010328,19510 US Hwy 40,MO,64055
Popeyes,Albuquerque,10332,#010332 #0010332 10332 #10332 0010332,10074 Coors Blvd NW,NM,87114
Popeyes,Youngstown,10337,#010337 #0010337 10337 #10337 0010337,40 West Midlothian Blvd,OH,44507
Popeyes,Henderson,10338,#010338 #0010338 10338 #10338 0010338,3017 Grand Point Hwy,LA,70517
Popeyes,Des Moines,10342,#010342 #0010342 10342 #10342 0010342,4140 Merle Hay Road,IA,50310
Popeyes,Chicago,10343,#010343 #0010343 10343 #10343 0010343,3352 W Lawrence Avenue,IL,60625
Popeyes,Las Vegas,10347,#010347 #0010347 10347 #10347 0010347,4910 S. Maryland Parkway,NV,89119
Popeyes,Cincinnati,10353,#010353 #0010353 10353 #10353 0010353,6225 Glenway Avenue,OH,45211
Popeyes,Decatur,10354,#010354 #0010354 10354 #10354 0010354,2578 Candler Rd,GA,30032
Popeyes,Van Buren,10356,#010356 #0010356 10356 #10356 0010356,2034 Fayetteville Rd,AR,72956
Popeyes,Montgomery,10357,#010357 #0010357 10357 #10357 0010357,832 Ann Street,AL,36107
Popeyes,Cypress,10359,#010359 #0010359 10359 #10359 0010359,17318 Spring Cypress Rd,TX,77429
Popeyes,Glendale,10360,#010360 #0010360 10360 #10360 0010360,6904 Dysart North,AZ,85307
Popeyes,Neptune,10363,#010363 #0010363 10363 #10363 0010363,323 State Highway 35,NJ,7753
Popeyes,Moss Bluff,10368,#010368 #0010368 10368 #10368 0010368,400 Sam Houston Jones Parkway,LA,70611
Popeyes,Pueblo,10370,#010370 #0010370 10370 #10370 0010370,1930 South Pueblo Blvd,CO,81005
Popeyes,New York,10372,#010372 #0010372 10372 #10372 0010372,601 W 191st St,NY,10040
Popeyes,Richmond,10373,#010373 #0010373 10373 #10373 0010373,2318 E Laburnum Ave,VA,23223
Popeyes,Lexington,10375,#010375 #0010375 10375 #10375 0010375,1860 South Lake Drive,SC,29073
Popeyes,Crossett,10377,#010377 #0010377 10377 #10377 0010377,912-A Unity Street,AR,71635
Popeyes,Jonesboro,10378,#010378 #0010378 10378 #10378 0010378,1323 Stadium Blvd,AR,72401
Popeyes,Cypress,10379,#010379 #0010379 10379 #10379 0010379,7120 N Fry Road,TX,77433
Popeyes,Bayamon,10381,#010381 #0010381 10381 #10381 0010381,Rexville towne Ctr. Carr. 167 Km 0.6,PR,957
Popeyes,Sauk Village,10383,#010383 #0010383 10383 #10383 0010383,20 Surrey Brook Plaza,IL,60411
Popeyes,Hartford,10384,#010384 #0010384 10384 #10384 0010384,523 Flatbush Avenue,CT,6106
Popeyes,Moreno Valley,10385,#010385 #0010385 10385 #10385 0010385,26150 Iris Avenue - Suite 2,CA,92555
Popeyes,Petal,10386,#010386 #0010386 10386 #10386 0010386,31 Byrd Pkwy,MS,39465
Popeyes,Wilcox,10388,#010388 #0010388 10388 #10388 0010388,1501 N Fort Grant Road,AZ,85643
Popeyes,Norcross,10493,#010493 #0010493 10493 #10493 0010493,7050 Jimmy Carter Blvd,GA,30092
Popeyes,Laredo,10494,#010494 #0010494 10494 #10494 0010494,9312 FM 1472,TX,78045
Popeyes,Rohnert Park,10496,#010496 #0010496 10496 #10496 0010496,3 Padre Parkway,CA,94928
Popeyes,Mesquite,10497,#010497 #0010497 10497 #10497 0010497,2000 Town Centre Drive,TX,75150
Popeyes,Irving,10498,#010498 #0010498 10498 #10498 0010498,1000 Marketplace Blvd,TX,75063
Popeyes,Tacoma,10500,#010500 #0010500 10500 #10500 0010500,6402 6th Avenue,WA,98406
Popeyes,Rialto,10501,#010501 #0010501 10501 #10501 0010501,1320 W Baseline Rd,CA,92376
Popeyes,Baton Rouge,10502,#010502 #0010502 10502 #10502 0010502,18281 Highland Road,LA,70810
Popeyes,Nellis AFB,10505,#010505 #0010505 10505 #10505 0010505,4200 N Washington Blvd - Bldg 429,NV,89191
Popeyes,Lubbock,10509,#010509 #0010509 10509 #10509 0010509,224 University,TX,79415
Popeyes,Caguas,10510,#010510 #0010510 10510 #10510 0010510,Carretera 156 Betances St - Casabon Ward,PR,725
Popeyes,Decatur,10517,#010517 #0010517 10517 #10517 0010517,775 E Pershing Rd,IL,62526
Popeyes,San Leandro,10519,#010519 #0010519 10519 #10519 0010519,13808 E 14th St - Ste D,CA,94578
Popeyes,Victorville,10520,#010520 #0010520 10520 #10520 0010520,12951-1 Hesperia Rd,CA,92395
Popeyes,Grand Prairie,10521,#010521 #0010521 10521 #10521 0010521,905 N Beltine Road,TX,75050
Popeyes,Dallas,10522,#010522 #0010522 10522 #10522 0010522,8120 East R.L. Thorton Freeway,TX,75228
Popeyes,Fayetteville,10524,#010524 #0010524 10524 #10524 0010524,242 Banks Crossing,GA,30214
Popeyes,Wichita Falls,10526,#010526 #0010526 10526 #10526 0010526,Sheppard AFB,TX,76311
Popeyes,Culpepper,10528,#010528 #0010528 10528 #10528 0010528,563 James Madison Hwy,VA,22701
Popeyes,Wichita,10530,#010530 #0010530 10530 #10530 0010530,4232 W Central Avenue,KS,67212
Popeyes,Carolina,10533,#010533 #0010533 10533 #10533 0010533,Carretera #3 - Km 8.6 Paseo del Prado,PR,985
Popeyes,Baton Rouge,10537,#010537 #0010537 10537 #10537 0010537,7930 Jefferson Hwy,LA,70809
Popeyes,East Gate,10538,#010538 #0010538 10538 #10538 0010538,4402 Glen Este,OH,45245
Popeyes,Katy,10539,#010539 #0010539 10539 #10539 0010539,20040 Morton Rd,TX,77449
Popeyes,Patterson,10540,#010540 #0010540 10540 #10540 0010540,237 Market Street,NJ,7505
Popeyes,Ft Worth,10541,#010541 #0010541 10541 #10541 0010541,3525 Alta Mesa,TX,76101
Popeyes,Oklahoma City,10542,#010542 #0010542 10542 #10542 0010542,5200 N May,OK,73122
Popeyes,Mansfield,10543,#010543 #0010543 10543 #10543 0010543,801 Hwy 287 North,TX,76063
Popeyes,Waterford,10544,#010544 #0010544 10544 #10544 0010544,501 N Telegraph Rd,MI,48328
Popeyes,Citrus Heights,10545,#010545 #0010545 10545 #10545 0010545,6502 Antelope Rd,CA,95621
Popeyes,Jamaica,10552,#010552 #0010552 10552 #10552 0010552,16525 Liberty Avenue,NY,11433
Popeyes,Travis AFB,10553,#010553 #0010553 10553 #10553 0010553,Travis AFB - Bldg 172,CA,94535
Popeyes,Hanover Park,10554,#010554 #0010554 10554 #10554 0010554,1380 W Irving Park Rd,IL,60133
Popeyes,Las Vegas,10557,#010557 #0010557 10557 #10557 0010557,7110 S Durango Drive,NV,89113
Popeyes,Las Vegas,10558,#010558 #0010558 10558 #10558 0010558,6121 Vegas Drive,NV,89108
Popeyes,Troy,10561,#010561 #0010561 10561 #10561 0010561,1203 Hwy 231 South,AL,36081
Popeyes,Marietta,10562,#010562 #0010562 10562 #10562 0010562,159 South Cobb Parkway,GA,30060
Popeyes,Woodlawn,10563,#010563 #0010563 10563 #10563 0010563,10601 Springfield Pike,OH,45215
Popeyes,Branford,10564,#010564 #0010564 10564 #10564 0010564,3 East Industrial Road,CT,6405
Popeyes,Redford Township,10566,#010566 #0010566 10566 #10566 0010566,11307 Telegraph Rd,MI,48239
Popeyes,Fresno,10567,#010567 #0010567 10567 #10567 0010567,4416 W. Shaw Avenue,CA,93722
Popeyes,Dallas,10569,#010569 #0010569 10569 #10569 0010569,630 So. R.L. Thornton Pkwy,TX,75203
Popeyes,Ft Campbell,10570,#010570 #0010570 10570 #10570 0010570,"Ft Campbell Army Airfield, Bldg 2840, 2610 Indiana Avenue",KY,42223
Popeyes,Houston,10571,#010571 #0010571 10571 #10571 0010571,9510 Beechnut Street,TX,77036
Popeyes,Dexter,10575,#010575 #0010575 10575 #10575 0010575,200 Baker Road,MI,48130
Popeyes,Northport,10576,#010576 #0010576 10576 #10576 0010576,2450 McFarland Blvd,AL,35476
Popeyes,Lansing,10577,#010577 #0010577 10577 #10577 0010577,329 N. Main Street,KS,66043
Popeyes,Wichita Falls,10579,#010579 #0010579 10579 #10579 0010579,4449 Southwest Parkway,TX,76308
Popeyes,Burlington,10580,#010580 #0010580 10580 #10580 0010580,120 Cascade Mall Drive,WA,98233
Popeyes,Bronx,10582,#010582 #0010582 10582 #10582 0010582,119 W Kings Bridge Road,NY,10468
Popeyes,Modesto,10584,#010584 #0010584 10584 #10584 0010584,2708 Coffee Road,CA,95335
Popeyes,Wytheville,10585,#010585 #0010585 10585 #10585 0010585,1025 Peppers Ferry Road,VA,24382
Popeyes,Mundelein,10586,#010586 #0010586 10586 #10586 0010586,224 Oak Creek Plaza,IL,60060
Popeyes,Beaverton,10587,#010587 #0010587 10587 #10587 0010587,15915 SW Regatta Lane,OR,97006
Popeyes,Baton Rouge,10588,#010588 #0010588 10588 #10588 0010588,10613 Burbank Avenue,LA,70810
Popeyes,Forest,10589,#010589 #0010589 10589 #10589 0010589,1270 Hwy 35 South,MS,39074
Popeyes,Albuquerque,10590,#010590 #0010590 10590 #10590 0010590,"4240 San Mateo, NE",NM,87110
Popeyes,Cape Girardeau,10596,#010596 #0010596 10596 #10596 0010596,3237 William St,MO,63703
Popeyes,Russellville,10597,#010597 #0010597 10597 #10597 0010597,2411 East Parkway,AR,72801
Popeyes,Chicopee,10600,#010600 #0010600 10600 #10600 0010600,753 Memorial Drive,MA,1020
Popeyes,Conroe,10601,#010601 #0010601 10601 #10601 0010601,2940 I-45 North,TX,77303
Popeyes,Philadelphia,10603,#010603 #0010603 10603 #10603 0010603,"Roosevelt Mall Annex, 2311 Cottman Avenue",PA,19149
Popeyes,Tulsa,10604,#010604 #0010604 10604 #10604 0010604,10207 E 41st Street,OK,74146
Popeyes,Foristell,10605,#010605 #0010605 10605 #10605 0010605,3265 N. Service Rd E,MO,63348
Popeyes,Sweetwater,10606,#010606 #0010606 10606 #10606 0010606,100 South Hopkins Road,TX,79556
Popeyes,Fairfield,10607,#010607 #0010607 10607 #10607 0010607,5102 Dixie Hwy,OH,45014
Popeyes,Natchitoches,10608,#010608 #0010608 10608 #10608 0010608,5101 University Pkwy,LA,71457
Popeyes,Atlantic City,10609,#010609 #0010609 10609 #10609 0010609,1740 Atlantic Avenue,NJ,8401
Popeyes,St Peters,10612,#010612 #0010612 10612 #10612 0010612,1640 Jungermann Rd,MO,63304
Popeyes,Cleveland,10613,#010613 #0010613 10613 #10613 0010613,14747 Lorain Avenue,OH,44111
Popeyes,Cleveland,10614,#010614 #0010614 10614 #10614 0010614,2903 Clark Avenue,OH,44109
Popeyes,Carpentersville,10616,#010616 #0010616 10616 #10616 0010616,2180 Randall Road,IL,60110
Popeyes,Chicago,10618,#010618 #0010618 10618 #10618 0010618,7250 South Western Avenue,IL,60636
Popeyes,Las Vegas,10620,#010620 #0010620 10620 #10620 0010620,4830 W Sunset Road,NV,89118
Popeyes,Des Moines,10628,#010628 #0010628 10628 #10628 0010628,6230 SE 14th St,IA,50320
Popeyes,Phoenix,10632,#010632 #0010632 10632 #10632 0010632,6540 W Thomas Rd,AZ,85033
Popeyes,Keller,10634,#010634 #0010634 10634 #10634 0010634,751 Keller Parkway,TX,76248
Popeyes,Prairieville,10636,#010636 #0010636 10636 #10636 0010636,13401 Hwy 73,LA,70769
Popeyes,Houston,10637,#010637 #0010637 10637 #10637 0010637,9707 Antoine Drive,TX,77086
Popeyes,Philadelphia,10638,#010638 #0010638 10638 #10638 0010638,5601 Lancaster Avenue,PA,19131
Popeyes,Phoenix,10642,#010642 #0010642 10642 #10642 0010642,3426 W. Greenway Rd,AZ,85053
Popeyes,Humble,10643,#010643 #0010643 10643 #10643 0010643,11527 N Sam Houston Parkway East,TX,77396
Popeyes,Santa Nella,10644,#010644 #0010644 10644 #10644 0010644,12310 S Highway 33,CA,95322
Popeyes,New York,10646,#010646 #0010646 10646 #10646 0010646,2300 7th Avenue,NY,10030
Popeyes,Woodhaven,10647,#010647 #0010647 10647 #10647 0010647,92-20 Jamaica Avenue,NY,11421
Popeyes,Elmont,10648,#010648 #0010648 10648 #10648 0010648,239-25 Linden Blvd,NY,11003
Popeyes,Edmond,10649,#010649 #0010649 10649 #10649 0010649,2330 South Broadway,OK,73013
Popeyes,New York,10651,#010651 #0010651 10651 #10651 0010651,240 W 40th St,NY,10018
Popeyes,Half Moon Bay,10652,#010652 #0010652 10652 #10652 0010652,118 San Mateo Rd,CA,94019
Popeyes,Livingston,10653,#010653 #0010653 10653 #10653 0010653,435 Winton Parkway,CA,95334
Popeyes,Jacksonville,10654,#010654 #0010654 10654 #10654 0010654,1502 W Main St,AR,72076
Popeyes,Jonesboro,10655,#010655 #0010655 10655 #10655 0010655,135 Richard Zuber Thruway,LA,71251
Popeyes,Conyers,10658,#010658 #0010658 10658 #10658 0010658,1638 GA Hwy 138 SE,GA,30013
Popeyes,Cardova,10660,#010660 #0010660 10660 #10660 0010660,1296 N Germantown Pkwy,TN,38016
Popeyes,Baton Rouge,10665,#010665 #0010665 10665 #10665 0010665,14575 Wax Road,LA,70818
Popeyes,Vallejo,10666,#010666 #0010666 10666 #10666 0010666,2631 Springs Rd,CA,94591
Popeyes,Staten Island,10668,#010668 #0010668 10668 #10668 0010668,1351 Forest Avenue,NY,10302
Popeyes,Memphis,10669,#010669 #0010669 10669 #10669 0010669,6175 Macon Road,TN,38134
Popeyes,New York,10672,#010672 #0010672 10672 #10672 0010672,601 W 172nd Street,NY,10032
Popeyes,Bronx,10673,#010673 #0010673 10673 #10673 0010673,499 East 163rd Street,NY,10451
Popeyes,Tulsa,10675,#010675 #0010675 10675 #10675 0010675,10419 S Memorial Drive,OK,74133
Popeyes,Puyallup,10677,#010677 #0010677 10677 #10677 0010677,16420 Meridian St - Suite 101,WA,98375
Popeyes,Las Vegas,10679,#010679 #0010679 10679 #10679 0010679,7181 W Craig Road,NV,89129
Popeyes,Bremerton,10680,#010680 #0010680 10680 #10680 0010680,3560 Wheaton Way,WA,98310
Popeyes,Las Vegas,10682,#010682 #0010682 10682 #10682 0010682,605 W Craig Road,NV,89032
Popeyes,Stockbridge,10683,#010683 #0010683 10683 #10683 0010683,5557 N Henry Blvd,GA,30281
Popeyes,FT Drum,10686,#010686 #0010686 10686 #10686 0010686,Bldg P4230 - P O Valley Rd,NY,13602
Popeyes,Tuscaloosa,10689,#010689 #0010689 10689 #10689 0010689,3712 McFarland Blvd E,AL,35405
Popeyes,Waterloo,10694,#010694 #0010694 10694 #10694 0010694,4015 Lowes Blvd,IA,50701
Popeyes,Dallas,10695,#010695 #0010695 10695 #10695 0010695,8181 S. Lancaster Road,TX,75241
Popeyes,Fayetteville,10700,#010700 #0010700 10700 #10700 0010700,2100 W. Martin Luther King Blvd.,AR,72701
Popeyes,Antioch,10705,#010705 #0010705 10705 #10705 0010705,483 E Route 173,IL,60002
Popeyes,Redwood City,10707,#010707 #0010707 10707 #10707 0010707,740 Woodside Rd,CA,94061
Popeyes,Las Vegas,10708,#010708 #0010708 10708 #10708 0010708,6500 Boulder Hwy - Suite 100,NV,89122
Popeyes,Grenada,10709,#010709 #0010709 10709 #10709 0010709,747 Sunset Drive,MS,38901
Popeyes,Kentwood,10713,#010713 #0010713 10713 #10713 0010713,506 Avenue 6,LA,70444
Popeyes,Beaumont,10714,#010714 #0010714 10714 #10714 0010714,501 E 5th Street,CA,92223
Popeyes,Dyersburg,10715,#010715 #0010715 10715 #10715 0010715,1000 Hwy 51 Bypass West,TN,38024
Popeyes,Hollis,10718,#010718 #0010718 10718 #10718 0010718,205-20 Jamaica Avenue,NY,11423
Popeyes,Shreveport,10719,#010719 #0010719 10719 #10719 0010719,1910 N. Market Street,LA,71107
Popeyes,Richmond,10721,#010721 #0010721 10721 #10721 0010721,7302 Midlothian Turnpike,VA,23225
Popeyes,Mayaguez,10724,#010724 #0010724 10724 #10724 0010724,Rd 2km 159-.7 Bo Guanajibo,PR,680
Popeyes,Dorado,10727,#010727 #0010727 10727 #10727 0010727,Ra. 693 - Corner Jose Efron Ave -,PR,646
Popeyes,Mansfield,10730,#010730 #0010730 10730 #10730 0010730,412 Washington Street,LA,71052
Popeyes,Fort Worth,10731,#010731 #0010731 10731 #10731 0010731,6601 Lake Worth Blvd - #100,TX,76136
Popeyes,Las Vegas,10732,#010732 #0010732 10732 #10732 0010732,6985 S Rainbow Blvd - Suite 105,NV,89118
Popeyes,Memphis,10735,#010735 #0010735 10735 #10735 0010735,"2491 Winchester Rd, Memphis Int'l Airport - A19",TN,38116
Popeyes,Houston,10738,#010738 #0010738 10738 #10738 0010738,10112 Bissonet,TX,77072
Popeyes,Batesville,10739,#010739 #0010739 10739 #10739 0010739,1325 S St Louis Street,AR,72501
Popeyes,Fort Worth,10740,#010740 #0010740 10740 #10740 0010740,3021 Western Center Blvd,TX,76131
Popeyes,Wheaton,10743,#010743 #0010743 10743 #10743 0010743,11160 Veirs Mill Rd (Mall location),MD,20902
Popeyes,Livingston,10747,#010747 #0010747 10747 #10747 0010747,112 Eisenhower Pkwy - Livingston Mall,NJ,7039
Popeyes,Stockton,10752,#010752 #0010752 10752 #10752 0010752,4966 West Lane,CA,95210
Popeyes,Willingboro,10754,#010754 #0010754 10754 #10754 0010754,4328 Route 130,NJ,8046
Popeyes,Port Vincent,10755,#010755 #0010755 10755 #10755 0010755,18320 Cooper Street,LA,70726
Popeyes,Portland,10756,#010756 #0010756 10756 #10756 0010756,3511 NE 82nd Avenue,OR,97220
Popeyes,Southgate,10757,#010757 #0010757 10757 #10757 0010757,14791 Eureka Rd,MI,48195
Popeyes,West Chicago,10761,#010761 #0010761 10761 #10761 0010761,1730 N. Neltnor Blvd,IL,60185
Popeyes,New York,10765,#010765 #0010765 10765 #10765 0010765,125 Canal Street,NY,10002
Popeyes,Ridgefield,10768,#010768 #0010768 10768 #10768 0010768,"Vince Lombardi Travel Center, NJ Turnpike, Mile Marker 116",NJ,7657
Popeyes,Shawnee,10769,#010769 #0010769 10769 #10769 0010769,4721 N Kickapoo Street,OK,74804
Popeyes,Pittsburgh,10771,#010771 #0010771 10771 #10771 0010771,3420 William Penn Hwy,PA,15235
Popeyes,Rosedale,10772,#010772 #0010772 10772 #10772 0010772,245-01 Francis Lewis Blvd,NY,11422
Popeyes,Avondale,10774,#010774 #0010774 10774 #10774 0010774,2912 Hwy 90 West,LA,70094
Popeyes,Fresno,10775,#010775 #0010775 10775 #10775 0010775,5135 N Cedar Avenue,CA,93710
Popeyes,Bronx,10777,#010777 #0010777 10777 #10777 0010777,400 E Tremont Street,NY,10457
Popeyes,St Albans,10781,#010781 #0010781 10781 #10781 0010781,117-13 Farmers Blvd,NY,11412
Popeyes,El Paso,10789,#010789 #0010789 10789 #10789 0010789,1670 N. Zaragoza Rd,TX,79936
Popeyes,Atlanta,10790,#010790 #0010790 10790 #10790 0010790,3519 Camp Creek Parkway,GA,30344
Popeyes,Ashland,10792,#010792 #0010792 10792 #10792 0010792,10134 Lewistown Rd,VA,23005
Popeyes,Porter,10793,#010793 #0010793 10793 #10793 0010793,1600 W Hwy 20 - Exit 22,IN,46403
Popeyes,Offutt AFB,10800,#010800 #0010800 10800 #10800 0010800,Offutt AFB - 106 Meyer Ave - Bldg 166,NE,68113
Popeyes,Mesquite,10801,#010801 #0010801 10801 #10801 0010801,70 Falcon Ridge Parkway,NV,89027
Popeyes,LaPlata,10802,#010802 #0010802 10802 #10802 0010802,6591 Crain Hwy,MD,20646
Popeyes,Waterfall,10806,#010806 #0010806 10806 #10806 0010806,"Exits 161 & 180 East & Westbound, Mile Post 172.3 - Pa. Turnpike",PA,16689
Popeyes,Little Elm,10807,#010807 #0010807 10807 #10807 0010807,2776 E. Eldorado Parkway,TX,75034
Popeyes,Mechanicsville,10808,#010808 #0010808 10808 #10808 0010808,9177 Atlee Road,VA,23116
Popeyes,Firestone,10809,#010809 #0010809 10809 #10809 0010809,11055 E 125 Frontage Road,CO,80504
Popeyes,Vero Beach,10810,#010810 #0010810 10810 #10810 0010810,8909 20th Street,FL,32966
Popeyes,Milldale,10811,#010811 #0010811 10811 #10811 0010811,1875 Meriden Waterbury Turnpike,CT,6479
Popeyes,Marianna,10812,#010812 #0010812 10812 #10812 0010812,2112 Hwy 71 South,FL,32448
Popeyes,Livingston,10821,#010821 #0010821 10821 #10821 0010821,1603 W. Church Street,TX,77351
Popeyes,Hill AFB,10822,#010822 #0010822 10822 #10822 0010822,7955 Wardleigh Rd - Bldg 1210,UT,84056
Popeyes,Paris,10823,#010823 #0010823 10823 #10823 0010823,2455 N Main Street,TX,75460
Popeyes,Santa Isabel,10824,#010824 #0010824 10824 #10824 0010824,PR #52 - #143 #542,PR,757
Popeyes,Ponce,10825,#010825 #0010825 10825 #10825 0010825,Ponce Mall #2 Perla del Sur - Bo Casas,PR,716
Popeyes,Castaic,10827,#010827 #0010827 10827 #10827 0010827,31743 Castaic Rd,CA,91384
Popeyes,Pompano Beach,10828,#010828 #0010828 10828 #10828 0010828,3051 W. Atlantic Blvd,FL,33069
Popeyes,Dallas,10829,#010829 #0010829 10829 #10829 0010829,DFW Airport-Terminal E Gate 13,TX,75261
Popeyes,Philadelphia,10830,#010830 #0010830 10830 #10830 0010830,7500 City Avenue,PA,19151
Popeyes,Beaumont,10831,#010831 #0010831 10831 #10831 0010831,6432 Phelan Blvd,TX,77703
Popeyes,Knoxville,10832,#010832 #0010832 10832 #10832 0010832,615 N Watt Road,TN,37934
Popeyes,Oak Park,10833,#010833 #0010833 10833 #10833 0010833,25910 Greenfield Road,MI,48237
Popeyes,Detroit,10834,#010834 #0010834 10834 #10834 0010834,16701 Harper Rd,MI,48224
Popeyes,Ewing,10840,#010840 #0010840 10840 #10840 0010840,1605 N. Olden Avenue,NJ,8638
Popeyes,McChord AFB,10841,#010841 #0010841 10841 #10841 0010841,"McChord BX Food Court, Bldg 504 Barnes Blvd",WA,98438
Popeyes,Ft Rucker,10842,#010842 #0010842 10842 #10842 0010842,"Fort Rucker Food Court, Building 9214 - Hutton Plaza",AL,36362
Popeyes,Winder,10843,#010843 #0010843 10843 #10843 0010843,126 E. May Street,GA,30680
Popeyes,Brooklyn,10847,#010847 #0010847 10847 #10847 0010847,6013 7th Avenue,NY,11220
Popeyes,Bowling Green,10849,#010849 #0010849 10849 #10849 0010849,Western Kentucky University Pearce Ford Tower College Heights Boulevard,KY,42101
Popeyes,Tampa,10850,#010850 #0010850 10850 #10850 0010850,Tampa Int'l Airport - Main Terminal Level 3 - 5503 W. Spruce Street,FL,33607
Popeyes,Las Vegas,10857,#010857 #0010857 10857 #10857 0010857,McCarran Airport - Concourse C 5757 Wayne Newton Blvd,NV,89119
Popeyes,Lafayette,10858,#010858 #0010858 10858 #10858 0010858,6808 Johnston Street,LA,70503
Popeyes,Hammond,10864,#010864 #0010864 10864 #10864 0010864,Southeastern La. University 500 W. Texas Avenue,LA,70402
Popeyes,Brooklyn,10865,#010865 #0010865 10865 #10865 0010865,2010 86th Street,NY,11214
Popeyes,El Paso,10868,#010868 #0010868 10868 #10868 0010868,5505 Alameda Avenue,TX,79905
Popeyes,El Paso,10869,#010869 #0010869 10869 #10869 0010869,9496 Dyer,TX,79924
Popeyes,Tracy,10870,#010870 #0010870 10870 #10870 0010870,2271 W Grant Line Rd,CA,95377
Popeyes,Bronx,10874,#010874 #0010874 10874 #10874 0010874,557 Grand Concourse,NY,10451
Popeyes,Monroe,10878,#010878 #0010878 10878 #10878 0010878,955 E. Spring Street,GA,30655
Popeyes,Frasier,10882,#010882 #0010882 10882 #10882 0010882,31401 Groesbeck Hwy,MI,48026
Popeyes,Richmond,10883,#010883 #0010883 10883 #10883 0010883,9961 Hull Street,VA,23236
Popeyes,Seaford,10884,#010884 #0010884 10884 #10884 0010884,9085 Middleford Rd,DE,19973
Popeyes,Bealeton,10885,#010885 #0010885 10885 #10885 0010885,10997 Marsh Road,VA,22712
Popeyes,Salem,10886,#010886 #0010886 10886 #10886 0010886,"1238 23rd Street, SE",OR,97302
Popeyes,Gresham,10887,#010887 #0010887 10887 #10887 0010887,1570 NE Division Street,OR,97030
Popeyes,Cleveland,10890,#010890 #0010890 10890 #10890 0010890,7020 Carnegie Avenue,OH,44103
Popeyes,Zachary,10892,#010892 #0010892 10892 #10892 0010892,20401 Old Scenic Highway,LA,70791
Popeyes,Wayne,10895,#010895 #0010895 10895 #10895 0010895,1046 Hamburg Turnpike,NJ,7470
Popeyes,Palm Desert,10896,#010896 #0010896 10896 #10896 0010896,78395 Varner Road,CA,92211
Popeyes,Allentown,10897,#010897 #0010897 10897 #10897 0010897,1302 Hanover Avenue,PA,18109
Popeyes,Hammond,10900,#010900 #0010900 10900 #10900 0010900,14274 W. University Avenue,LA,70401
Popeyes,Fort Wainright,10901,#010901 #0010901 10901 #10901 0010901,Fort Wainright Bldg #3703 B,AK,99703
Popeyes,Camden,10907,#010907 #0010907 10907 #10907 0010907,2600 Mt Ephraim Avenue,NJ,8103
Popeyes,Baldwin,10915,#010915 #0010915 10915 #10915 0010915,1636 Grand Avenue,NY,11510
Popeyes,Detroit,10917,#010917 #0010917 10917 #10917 0010917,Detroit Metropolitan Wayne County Airport McNamara Terminal - Concourse A - Space 8-1,MI,48242
Popeyes,Ft Bliss,10919,#010919 #0010919 10919 #10919 0010919,196 Cassidy,TX,79906
Popeyes,Antioch,10921,#010921 #0010921 10921 #10921 0010921,"5019 Lone Tree Way, #E",CA,94531
Popeyes,Chicago,10923,#010923 #0010923 10923 #10923 0010923,7430 S. Stony Island Avenue,IL,60617
Popeyes,Chicago,10926,#010926 #0010926 10926 #10926 0010926,818 E. 47th St.,IL,60653
Popeyes,Chicago,10927,#010927 #0010927 10927 #10927 0010927,300 E. 35th St.,IL,60616
Popeyes,Chicago,10928,#010928 #0010928 10928 #10928 0010928,8732 S Stony Island Ave,IL,60617
Popeyes,Chicago,10929,#010929 #0010929 10929 #10929 0010929,111 W. 75th Street,IL,60620
Popeyes,Baton Rouge,10936,#010936 #0010936 10936 #10936 0010936,Southern University,LA,70813
Popeyes,Roslindale,10945,#010945 #0010945 10945 #10945 0010945,710 American Legion Hwy,MA,2131
Popeyes,Sevierville,10946,#010946 #0010946 10946 #10946 0010946,601 Parkway,TN,37862
Popeyes,Philadelphia,10953,#010953 #0010953 10953 #10953 0010953,3541 Aramingo Avenue,PA,19134
Popeyes,Arlington,10961,#010961 #0010961 10961 #10961 0010961,2024 Concession - Pentagon,VA,20350
Popeyes,Eden,10962,#010962 #0010962 10962 #10962 0010962,700 S. Van Buren Rd,NC,27288
Popeyes,Brooklyn,10963,#010963 #0010963 10963 #10963 0010963,1588 Utica Avenue,NY,11234
Popeyes,Groves,10964,#010964 #0010964 10964 #10964 0010964,4850 Twin City Highway,TX,77619
Popeyes,Allentown,10967,#010967 #0010967 10967 #10967 0010967,1756 S. 4th Street,PA,18103
Popeyes,Rowlett,10969,#010969 #0010969 10969 #10969 0010969,5251 Rowlett Road,TX,75088
Popeyes,Arvin,10970,#010970 #0010970 10970 #10970 0010970,5552 Wheeler Ridge Road,CA,93203
Popeyes,Covington,10971,#010971 #0010971 10971 #10971 0010971,809 Highway 51 North,TN,38019
Popeyes,Bronx,10973,#010973 #0010973 10973 #10973 0010973,215 E. Fordham Rd,NY,10458
Popeyes,Fall River,10980,#010980 #0010980 10980 #10980 0010980,933 Pleasant Street,MA,2723
Popeyes,Philadelphia,10983,#010983 #0010983 10983 #10983 0010983,5200 Woodland Avenue,PA,19143
Popeyes,Carldstadt,10986,#010986 #0010986 10986 #10986 0010986,300 Washington Avenue,NJ,7072
Popeyes,Dulles,10987,#010987 #0010987 10987 #10987 0010987,"21100 Dulles Town Cir, Ste 236",VA,20166
Popeyes,Hanford,10988,#010988 #0010988 10988 #10988 0010988,1660 W. Hanford-Armona Rd - Unit A,CA,93230
Popeyes,Sacramento,10989,#010989 #0010989 10989 #10989 0010989,7501 W. Stockton Blvd,CA,95823
Popeyes,Fort Lee,10999,#010999 #0010999 10999 #10999 0010999,1431 Mahone Avenue - Bldg 9025,VA,23801
Popeyes,Fort Bragg,11000,#011000 #0011000 11000 #11000 0011000,Bldg 8 - NP Mallonee Shopping Plaza,NC,28307
Popeyes,Brooklyn,11001,#011001 #0011001 11001 #11001 0011001,82-21 Flatlands Avenue,NY,11236
Popeyes,Bronx,11002,#011002 #0011002 11002 #11002 0011002,1201 E. 233rd St,NY,10466
Popeyes,New London,11003,#011003 #0011003 11003 #11003 0011003,455 Coleman Road,CT,6320
Popeyes,Randolph AFB,11004,#011004 #0011004 11004 #11004 0011004,630 3rd Street - Bldg 1068,TX,78150
Popeyes,Levittown,11006,#011006 #0011006 11006 #11006 0011006,169 A Levittown Parkway,PA,19055
Popeyes,Oxnard,11012,#011012 #0011012 11012 #11012 0011012,2805 Saviers Rd,CA,93033
Popeyes,Sparks,11014,#011014 #0011014 11014 #11014 0011014,1385 Big Fish Drive,NV,89434
Popeyes,Jersey City,11020,#011020 #0011020 11020 #11020 0011020,125 18th Street - A-03B,NJ,7310
Popeyes,Newark,11023,#011023 #0011023 11023 #11023 0011023,530 JFK Memorial Hwy,DE,19702
Popeyes,Raleigh,11025,#011025 #0011025 11025 #11025 0011025,3699 New Bern Avenue,NC,27610
Popeyes,Chicago,11027,#011027 #0011027 11027 #11027 0011027,4866 N. Milwaukee Avenue,IL,60630
Popeyes,New Windsor,11030,#011030 #0011030 11030 #11030 0011030,330 Windsor Highway,NY,12553
Popeyes,Vineland,11031,#011031 #0011031 11031 #11031 0011031,275 N. Delsea Drive,NJ,8360
Popeyes,Ozone Park,11035,#011035 #0011035 11035 #11035 0011035,142-02 Rockaway Blvd,NY,11436
Popeyes,Rock Hill,11037,#011037 #0011037 11037 #11037 0011037,Winthrop University - 112 Thomson Hall,SC,29733
Popeyes,Flushing,11038,#011038 #0011038 11038 #11038 0011038,4006 Main Street,NY,11354
Popeyes,Nashville,11040,#011040 #0011040 11040 #11040 0011040,4023 Nolensville Pike,TN,37211
Popeyes,Elmhurst,11041,#011041 #0011041 11041 #11041 0011041,40-10 82nd Street,NY,11372
Popeyes,Boston,11043,#011043 #0011043 11043 #11043 0011043,21 Brookline Avenue,MA,2215
Popeyes,Oxford,11044,#011044 #0011044 11044 #11044 0011044,904 Linden Avenue,NC,27565
Popeyes,Kingston,11045,#011045 #0011045 11045 #11045 0011045,20 Massa Drive,NY,12401
Popeyes,Philadelphia,11047,#011047 #0011047 11047 #11047 0011047,3110 W. Cheltenham Avenue,PA,19150
Popeyes,Pearland,11048,#011048 #0011048 11048 #11048 0011048,11308 Broadway Street,TX,77584
Popeyes,Brooklyn,11051,#011051 #0011051 11051 #11051 0011051,736 Linden Blvd,NY,11203
Popeyes,Keesler AFB,11053,#011053 #0011053 11053 #11053 0011053,405 Meadows - Bldg 1510,MS,39534
Popeyes,Minot AFB,11063,#011063 #0011063 11063 #11063 0011063,362 Missile Street,ND,58705
Popeyes,Montgomery,11064,#011064 #0011064 11064 #11064 0011064,Bldg 1090 - 355 South Kelly Street; Maxwell AFB,AL,36113
Popeyes,Elmendorf,11065,#011065 #0011065 11065 #11065 0011065,"Elmendorf Air Force Base, 5800 Westover Ave.",AK,99506
Popeyes,Rosenberg,11066,#011066 #0011066 11066 #11066 0011066,23901 SW Freeway,TX,77471
Popeyes,Decatur,11069,#011069 #0011069 11069 #11069 0011069,1827 Beltline Rd SW,AL,35601
Popeyes,Fairfax,11070,#011070 #0011070 11070 #11070 0011070,9661 Fairfax Blvd,VA,22031
Popeyes,Glen Burnie,11071,#011071 #0011071 11071 #11071 0011071,1810 S. Crain Hwy,MD,21061
Popeyes,Vancouver,11072,#011072 #0011072 11072 #11072 0011072,8722 NE Highway 99,WA,98665
Popeyes,Shreveport,11074,#011074 #0011074 11074 #11074 0011074,8640 Youree Drive,LA,71115
Popeyes,Murfreesboro,11076,#011076 #0011076 11076 #11076 0011076,724 Memorial Blvd,TN,37219
Popeyes,Nashville,11077,#011077 #0011077 11077 #11077 0011077,3012 Gallatin Pike,TN,37216
Popeyes,Sugarland,11078,#011078 #0011078 11078 #11078 0011078,16722 West Grand Parkway,TX,77479
Popeyes,Perth Amboy,11083,#011083 #0011083 11083 #11083 0011083,553 Sayre Avenue,NJ,8861
Popeyes,Providence,11085,#011085 #0011085 11085 #11085 0011085,539 Smith Street,RI,2908
Popeyes,Philadelphia,11086,#011086 #0011086 11086 #11086 0011086,1100 West Girard Avenue,PA,19123
Popeyes,Valley Stream,11087,#011087 #0011087 11087 #11087 0011087,2034 Green Acres Mall,NY,11581
Popeyes,Greensboro,11088,#011088 #0011088 11088 #11088 0011088,106 Pisgah Church Road,NC,27455
Popeyes,Colma,11089,#011089 #0011089 11089 #11089 0011089,990 Serramonte Blvd - #C,CA,94014
Popeyes,Smyrna,11090,#011090 #0011090 11090 #11090 0011090,3350 South Cobb Drive,GA,30080
Popeyes,Brooklyn,11091,#011091 #0011091 11091 #11091 0011091,2082 Rockaway Parkway,NY,11236
Popeyes,Hollis,11096,#011096 #0011096 11096 #11096 0011096,197-02 Hillside Avenue,NY,11363
Popeyes,Philadelphia,11099,#011099 #0011099 11099 #11099 0011099,6000 N. Broad Street,PA,19141
Popeyes,Clementon,11100,#011100 #0011100 11100 #11100 0011100,1223 Blackwood Clementon Rd,NJ,8021
Popeyes,East Elmhurst,11102,#011102 #0011102 11102 #11102 0011102,83-10 Astoria Blvd,NY,11370
Popeyes,Houston,11105,#011105 #0011105 11105 #11105 0011105,202 Airtex Drive,TX,77090
Popeyes,Bethesda,11116,#011116 #0011116 11116 #11116 0011116,Montgomery Mall Food Court; 7101 Democracy Blvd,MD,20817
Popeyes,Kingsland,11122,#011122 #0011122 11122 #11122 0011122,1105 East King Avenue,GA,31548
Popeyes,Wilmington,11123,#011123 #0011123 11123 #11123 0011123,2511 Northeast blvd,DE,19802
Popeyes,Columbus,11132,#011132 #0011132 11132 #11132 0011132,4501 River Road,GA,31904
Popeyes,San Diego,11137,#011137 #0011137 11137 #11137 0011137,1561 Euclid Avenue,CA,92105
Popeyes,Center Point,11138,#011138 #0011138 11138 #11138 0011138,1845 Center Point Pkwy,AL,35215
Popeyes,Maple Shade,11139,#011139 #0011139 11139 #11139 0011139,2788 Route 73 North,NJ,8052
Popeyes,Milford,11140,#011140 #0011140 11140 #11140 0011140,697 N. Dupont Blvd,DE,19963
Popeyes,Corona,11141,#011141 #0011141 11141 #11141 0011141,96-23 57th Avenue,NY,11368
Popeyes,Jamaica,11144,#011144 #0011144 11144 #11144 0011144,11000 Rockaway Blvd,NY,11420
Popeyes,Marysville,11147,#011147 #0011147 11147 #11147 0011147,619 10th Street,CA,95901
Popeyes,Moorpark,11148,#011148 #0011148 11148 #11148 0011148,520 New Los Angeles Avenue,CA,93021
Popeyes,Roxbury,11150,#011150 #0011150 11150 #11150 0011150,330 Martin L. King Blvd,MA,2119
Popeyes,Lemoore,11151,#011151 #0011151 11151 #11151 0011151,310 N. Lemoore Ave.,CA,93245
Popeyes,Memphis,11152,#011152 #0011152 11152 #11152 0011152,4201 Hacks Cross,TN,38125
Popeyes,Stroudsburg,11154,#011154 #0011154 11154 #11154 0011154,1137 N. 9th Street,PA,19360
Popeyes,Darby,11155,#011155 #0011155 11155 #11155 0011155,101 S. Macdade Blvd,PA,19023
Popeyes,Nashville,11156,#011156 #0011156 11156 #11156 0011156,One Terminal Drive,TN,37213
Popeyes,Maryville,11158,#011158 #0011158 11158 #11158 0011158,835 Foothills Mall Dr.,TN,37801
Popeyes,Greenville,11162,#011162 #0011162 11162 #11162 0011162,649 S. Memorial Drive,NC,27834
Popeyes,Ft. Bliss,11165,#011165 #0011165 11165 #11165 0011165,20752 Gulf Victory Way,TX,79906
Popeyes,Woodbury,11166,#011166 #0011166 11166 #11166 0011166,719 Mantua Pike,NJ,8096
Popeyes,Missouri City,11167,#011167 #0011167 11167 #11167 0011167,10220 S. Highway 6,TX,77459
Popeyes,Sugarland,11168,#011168 #0011168 11168 #11168 0011168,16540 SW Freeway,TX,77479
Popeyes,Richmond,11169,#011169 #0011169 11169 #11169 0011169,5745 W. Grand Parkway,TX,77407
Popeyes,Milford,11171,#011171 #0011171 11171 #11171 0011171,329 Old Gate Lane,CT,6460
Popeyes,Nyack,11172,#011172 #0011172 11172 #11172 0011172,3564 Palisades Ctr Drive West,NY,10994
Popeyes,Roanoke,11175,#011175 #0011175 11175 #11175 0011175,3938 Melrose Ave,VA,24017
Popeyes,Lawrence,11176,#011176 #0011176 11176 #11176 0011176,679 Rockaway Turnpike,NY,11559
Popeyes,Lawrenceville,11179,#011179 #0011179 11179 #11179 0011179,290 Grayson Hwy,GA,30046
Popeyes,Jacksonville,11181,#011181 #0011181 11181 #11181 0011181,408 Western Blvd,NC,28546
Popeyes,Tyler,11182,#011182 #0011182 11182 #11182 0011182,3820 W. Elm Street,TX,75709
Popeyes,Hartford,11185,#011185 #0011185 11185 #11185 0011185,964 Albany Ave.,CT,6106
Popeyes,Chicago,11186,#011186 #0011186 11186 #11186 0011186,7617 S. Racine Avenue,IL,60620
Popeyes,Ocean City,11191,#011191 #0011191 11191 #11191 0011191,12533 Ocean Gateway,MD,21842
Popeyes,"Springfield,",11195,#011195 #0011195 11195 #11195 0011195,665 Boston Road,MA,1119
Popeyes,New Orleans,11198,#011198 #0011198 11198 #11198 0011198,University of New Orleans 2000 Lakeshore Drive,LA,70148
Popeyes,Lindenhurst,11199,#011199 #0011199 11199 #11199 0011199,155 W.Sunrise Highway,NY,11757
Popeyes,Corpus Christi,11201,#011201 #0011201 11201 #11201 0011201,6203 Saratoga Road,TX,78414
Popeyes,Philadelphia,11202,#011202 #0011202 11202 #11202 0011202,2440 Grant Ave.,PA,19114
Popeyes,Jamaica,11203,#011203 #0011203 11203 #11203 0011203,92-15 Parsons Blvd,NY,11433
Popeyes,Springfield,11209,#011209 #0011209 11209 #11209 0011209,2134 S. Limestone St.,OH,45505
Popeyes,Indianapolis,11210,#011210 #0011210 11210 #11210 0011210,3021 W 16th Street,IN,46222
Popeyes,Boynton Beach,11211,#011211 #0011211 11211 #11211 0011211,801 N. Congress Ave.,FL,33426
Popeyes,Clute,11212,#011212 #0011212 11212 #11212 0011212,1401 B Highway 332,TX,77531
Popeyes,San Antonio,11213,#011213 #0011213 11213 #11213 0011213,12826 I H 10 West,TX,78249
Popeyes,San Antonio,11214,#011214 #0011214 11214 #11214 0011214,8842 Potranco Road,TX,78254
Popeyes,Houston,11215,#011215 #0011215 11215 #11215 0011215,11855 Wilcrest Drive,TX,77031
Popeyes,Pottstown,11216,#011216 #0011216 11216 #11216 0011216,1415 E. High Street,PA,19464
Popeyes,New York,11217,#011217 #0011217 11217 #11217 0011217,96 Walker Street,NY,10013
Popeyes,Sacramento,11218,#011218 #0011218 11218 #11218 0011218,5301 Auburn Blvd,CA,95841
Popeyes,Union City,11219,#011219 #0011219 11219 #11219 0011219,31816 Alvarado Blvd,CA,94587
Popeyes,Rockville,11222,#011222 #0011222 11222 #11222 0011222,587 Hungerford Drive,MD,20850
Popeyes,Smyrna,11223,#011223 #0011223 11223 #11223 0011223,550 Enon Springs RD E.,TN,37167
Popeyes,Magee,11229,#011229 #0011229 11229 #11229 0011229,1599 Simpson Hwy 49,MS,39111
Popeyes,Everett,11230,#011230 #0011230 11230 #11230 0011230,1886 Revere Beach,MA,2149
Popeyes,Valley Stream,11231,#011231 #0011231 11231 #11231 0011231,221 W. Merrick Road,NY,11580
Popeyes,Waterbury,11232,#011232 #0011232 11232 #11232 0011232,650 Wolcott Street,CT,6705
Popeyes,Vidalia,11233,#011233 #0011233 11233 #11233 0011233,3101 East 1st Street,GA,30474
Popeyes,Memphis,11235,#011235 #0011235 11235 #11235 0011235,2629 North Hollywood St,TN,38127
Popeyes,Houston,11242,#011242 #0011242 11242 #11242 0011242,"212 W. Southmore Ave.,",TX,77502
Popeyes,El Monte,11243,#011243 #0011243 11243 #11243 0011243,9744 Lower Azusa Road,CA,91731
Popeyes,West Berlin,11244,#011244 #0011244 11244 #11244 0011244,188 N Route 73,NJ,8091
Popeyes,East Orange,11245,#011245 #0011245 11245 #11245 0011245,929 South Orange Ave.,NJ,8812
Popeyes,Long Beach,11246,#011246 #0011246 11246 #11246 0011246,1700 West Willow Drive,CA,90810
Popeyes,Pleasantville,11247,#011247 #0011247 11247 #11247 0011247,555 W. Black Horse Pike,NJ,8232
Popeyes,Wichita,11254,#011254 #0011254 11254 #11254 0011254,3131 N. Rock Road,KS,67226
Popeyes,Ft. Jackson,11257,#011257 #0011257 11257 #11257 0011257,5650 Lee Road,SC,29207
Popeyes,Brooklyn,11258,#011258 #0011258 11258 #11258 0011258,520 Clarkson Ave.,NY,11203
Popeyes,Garden Grove,11259,#011259 #0011259 11259 #11259 0011259,12881 Haster Street,CA,92840
Popeyes,Covington,11260,#011260 #0011260 11260 #11260 0011260,502 Main Street,KY,41011
Popeyes,Douglasville,11262,#011262 #0011262 11262 #11262 0011262,9541 Bill Arp Road (Hwy 5),GA,30135
Popeyes,Murfreesboro,11263,#011263 #0011263 11263 #11263 0011263,Middle Tennessee State University 1500 Greenland Drive,TN,37132
Popeyes,Oklahoma City,11267,#011267 #0011267 11267 #11267 0011267,4529 NW 23rd Street,OK,73127
Popeyes,Rahway,11268,#011268 #0011268 11268 #11268 0011268,1857 State Hwy 1,NJ,7065
Popeyes,Brooklyn,11269,#011269 #0011269 11269 #11269 0011269,1994 Atlantic Avenue,NY,11233
Popeyes,Angleton,11270,#011270 #0011270 11270 #11270 0011270,1801 B. Velasco Street,TX,77515
Popeyes,Houston,11271,#011271 #0011271 11271 #11271 0011271,7416 S Sam Houston Pkwy,TX,77085
Popeyes,San Antonio,11272,#011272 #0011272 11272 #11272 0011272,21210 US Highway 281 N,TX,78250
Popeyes,San Antonio,11273,#011273 #0011273 11273 #11273 0011273,2225 SW Military Drive,TX,78224
Popeyes,Brooklyn,11278,#011278 #0011278 11278 #11278 0011278,1220 Surf Ave.,NY,11224
Popeyes,Southfield,11280,#011280 #0011280 11280 #11280 0011280,29177 Telegraph Road,MI,48034
Popeyes,Hiram,11281,#011281 #0011281 11281 #11281 0011281,5329 Wendy Bagwell Pkwy,GA,30141
Popeyes,Brooklyn,11282,#011282 #0011282 11282 #11282 0011282,3442 Nostrand Ave.,NY,11229
Popeyes,Indianapolis,11284,#011284 #0011284 11284 #11284 0011284,3128 E. Washington Street,IN,46222
Popeyes,Malmstrom AFB,11288,#011288 #0011288 11288 #11288 0011288,"7200 Perimeter Rd., Bldg 1340",MT,59402
Popeyes,Philadelphia,11292,#011292 #0011292 11292 #11292 0011292,2743 S. Front St,PA,19148
Popeyes,Somerset,11293,#011293 #0011293 11293 #11293 0011293,Exit 110 PA Turnpike,PA,15501
Popeyes,Las Vegas,11294,#011294 #0011294 11294 #11294 0011294,Kings Court - Excalibur Hotel & Casino 3850 Las Vegas Boulevard,NV,89109
Popeyes,Springfield,11295,#011295 #0011295 11295 #11295 0011295,1710 S. Glenstone,MO,65804
Popeyes,Indianapolis,11298,#011298 #0011298 11298 #11298 0011298,3685 W. 86th Street,IN,46222
Popeyes,Kerrville,11301,#011301 #0011301 11301 #11301 0011301,936 Junction Highway,TX,78028
Popeyes,Las Vegas,11302,#011302 #0011302 11302 #11302 0011302,2856 S. Nellis Blvd,NV,89121
Popeyes,Valley,11303,#011303 #0011303 11303 #11303 0011303,3550 20th Avenue,AL,36854
Popeyes,Auburn,11304,#011304 #0011304 11304 #11304 0011304,1999 Opelika Road,AL,36830
Popeyes,San Antonio,11305,#011305 #0011305 11305 #11305 0011305,1472 Austin Highway,TX,78209
Popeyes,Goldsboro,11311,#011311 #0011311 11311 #11311 0011311,2601 E Ash Street,NC,27534
Popeyes,Syracuse,11312,#011312 #0011312 11312 #11312 0011312,9090 Carousel Center Dr.,NY,13290
Popeyes,New Haven,11313,#011313 #0011313 11313 #11313 0011313,317 Kimberly Avenue,CT,6519
Popeyes,Windsor,11314,#011314 #0011314 11314 #11314 0011314,494 Windsor Avenue,CT,6095
Popeyes,Mt. Holly,11315,#011315 #0011315 11315 #11315 0011315,1851 Burlington Mt. Holly Rd.,NJ,8060
Popeyes,Brooklyn,11316,#011316 #0011316 11316 #11316 0011316,970 Flatbush Ave.,NY,11226
Popeyes,Lithia Springs,11317,#011317 #0011317 11317 #11317 0011317,608 Thornton Road,GA,30122
Popeyes,Quakertown,11320,#011320 #0011320 11320 #11320 0011320,105 South West End Boulevard,PA,18951
Popeyes,St. Catharines,11321,#011321 #0011321 11321 #11321 0011321,286 Bunting Rd.,ON,L2M 7S5
Popeyes,Concord,11327,#011327 #0011327 11327 #11327 0011327,8111 Concord Mills Blvd.,NC,28027
Popeyes,Boston,11332,#011332 #0011332 11332 #11332 0011332,Northeastern University 360 Huntington Avenue,MA,2115
Popeyes,Mooresville,11335,#011335 #0011335 11335 #11335 0011335,379 W. Plaza Drive,NC,28117
Popeyes,Concord,11336,#011336 #0011336 11336 #11336 0011336,1489 Concord Parkway N,NC,28025
Popeyes,Altoona,11337,#011337 #0011337 11337 #11337 0011337,3831 8th Street SW,IA,50009
Popeyes,Macedonia,11338,#011338 #0011338 11338 #11338 0011338,6876 Macedonia Commons Blvd,OH,44056
Popeyes,Indianapolis,11339,#011339 #0011339 11339 #11339 0011339,2902 Madison Avenue,IN,46225
Popeyes,Reno,11340,#011340 #0011340 11340 #11340 0011340,10180 N. McCarran Blvd,NV,89503
Popeyes,Salt Lake City,11348,#011348 #0011348 11348 #11348 0011348,Salt Lake City International Airport 776 North Terminal Drive - Terminal B,UT,84116
Popeyes,Toledo,11349,#011349 #0011349 11349 #11349 0011349,1615 Cherry Street,OH,43608
Popeyes,Flint,11350,#011350 #0011350 11350 #11350 0011350,3066 Miller Road,MI,48507
Popeyes,North Little Rock,11351,#011351 #0011351 11351 #11351 0011351,4415 East McCain Blvd,AR,72117
Popeyes,Oakland,11352,#011352 #0011352 11352 #11352 0011352,3616 5th Avenue,PA,15213
Popeyes,Robins AFB,11353,#011353 #0011353 11353 #11353 0011353,982 Macon Street,GA,31098
Popeyes,Lansdale,11354,#011354 #0011354 11354 #11354 0011354,1719 N. Broad Street,PA,19446
Popeyes,Oak Ridge,11355,#011355 #0011355 11355 #11355 0011355,118 South Illinois Avenue,TN,37830
Popeyes,Bradley,11356,#011356 #0011356 11356 #11356 0011356,545 South Kennedy Drive,IL,60915
Popeyes,Mandeville,11357,#011357 #0011357 11357 #11357 0011357,68182 Hwy 59,LA,70471
Popeyes,Buena Vista,11358,#011358 #0011358 11358 #11358 0011358,3355 Holland Avenue,MI,48601
Popeyes,Rock Hill,11359,#011359 #0011359 11359 #11359 0011359,2445 Cherry Road,SC,29732
Popeyes,Vancouver,11362,#011362 #0011362 11362 #11362 0011362,120 S.E. 192nd Avenue,WA,98683
Popeyes,Lacey,11363,#011363 #0011363 11363 #11363 0011363,1370 Galaxy Drive,WA,98516
Popeyes,Norco,11365,#011365 #0011365 11365 #11365 0011365,1325 Hamner Lane,CA,92860
Popeyes,Columbus,11366,#011366 #0011366 11366 #11366 0011366,1275 E. Dublin Granville Road,OH,43229
Popeyes,Glassboro,11367,#011367 #0011367 11367 #11367 0011367,322 N. Delsea Drive North,NJ,8028
Popeyes,Mays Landing,11368,#011368 #0011368 11368 #11368 0011368,4620 Black Horse Pike,NJ,8330
Popeyes,Little Ferry,11369,#011369 #0011369 11369 #11369 0011369,146 US 46,NJ,7643
Popeyes,Passaic,11370,#011370 #0011370 11370 #11370 0011370,831 Main Ave.,NJ,7055
Popeyes,Galatin,11372,#011372 #0011372 11372 #11372 0011372,684 Nashville Pike,TN,37066
Popeyes,Elizabeth,11373,#011373 #0011373 11373 #11373 0011373,Jersey Gardens Mall Food Court 651 Kapkowski Rd,NJ,7201
Popeyes,Lucedale,11374,#011374 #0011374 11374 #11374 0011374,11287 Old Highway 62 South,MS,39452
Popeyes,East Brunswick,11376,#011376 #0011376 11376 #11376 0011376,273 Route 18,NJ,8816
Popeyes,Odessa,11377,#011377 #0011377 11377 #11377 0011377,4350 Tanglewood Lane,TX,79762
Popeyes,Garner,11378,#011378 #0011378 11378 #11378 0011378,1701 Pinewinds Drive,NC,27603
Popeyes,Jefferson,11381,#011381 #0011381 11381 #11381 0011381,1715 Jefferson Hwy,LA,70121
Popeyes,Brookshire,11382,#011382 #0011382 11382 #11382 0011382,340 FM 359 #A,TX,77423
Popeyes,Katy,11383,#011383 #0011383 11383 #11383 0011383,25554 Kingsland Blvd,TX,77492
Popeyes,San Antonio,11384,#011384 #0011384 11384 #11384 0011384,18415 Rim Drive,TX,78257
Popeyes,Bastrop,11385,#011385 #0011385 11385 #11385 0011385,1650 US Highway 71,TX,78602
Popeyes,San Antonio,11386,#011386 #0011386 11386 #11386 0011386,9102 N Loop 1604 W,TX,78249
Popeyes,Bridgeport,11391,#011391 #0011391 11391 #11391 0011391,287 North Avenue,CT,6606
Popeyes,Westbury,11392,#011392 #0011392 11392 #11392 0011392,23 Old Country Road,NY,11590
Popeyes,Weatherford,11393,#011393 #0011393 11393 #11393 0011393,2011 Santa Fe Drive,TX,76086
Popeyes,North Bend,11394,#011394 #0011394 11394 #11394 0011394,46630 SE N. Bend Way,WA,98045
Popeyes,Richmond,11396,#011396 #0011396 11396 #11396 0011396,8044 West Broad Street,VA,23904
Popeyes,Lehi,11400,#011400 #0011400 11400 #11400 0011400,3699 Thanksgiving Way,UT,84043
Popeyes,Minden,11401,#011401 #0011401 11401 #11401 0011401,1050 Homer Rd.,LA,71055
Popeyes,Fairfax,11402,#011402 #0011402 11402 #11402 0011402,11938L Fair Oaks Mall,VA,22033
Popeyes,Joplin,11403,#011403 #0011403 11403 #11403 0011403,2130 S Rangeline Rd,MO,64804
Popeyes,Douglasville,11404,#011404 #0011404 11404 #11404 0011404,5753 Fairburn Road,GA,30134
Popeyes,Atlanta,11405,#011405 #0011405 11405 #11405 0011405,1211 Moreland Avenue,GA,30316
Popeyes,Elmhurst,11412,#011412 #0011412 11412 #11412 0011412,89-30 Queens Blvd.,NY,11373
Popeyes,Evansville,11413,#011413 #0011413 11413 #11413 0011413,3300 North First Avenue,IN,47710
Popeyes,Oklahoma City,11414,#011414 #0011414 11414 #11414 0011414,6233 NW Expressway,OK,73139
Popeyes,Oklahoma City,11415,#011415 #0011415 11415 #11415 0011415,7612 South Western Avenue,OK,73139
Popeyes,College Park,11417,#011417 #0011417 11417 #11417 0011417,6149 Old National Hwy,GA,30349
Popeyes,Turnersville,11418,#011418 #0011418 11418 #11418 0011418,5381 Blackhorse Pike,NJ,8012
Popeyes,Cypress,11419,#011419 #0011419 11419 #11419 0011419,9120 Barker Cypress Rd,TX,77433
Popeyes,Redding,11420,#011420 #0011420 11420 #11420 0011420,"86 Lake Blvd.,",CA,96003
Popeyes,Anderson,11421,#011421 #0011421 11421 #11421 0011421,3088 McMurray Drive,CA,96007
Popeyes,Yuba City,11422,#011422 #0011422 11422 #11422 0011422,808 Colusa Ave,CA,95991
Popeyes,Marysville,11423,#011423 #0011423 11423 #11423 0011423,1135 N. Beale Rd.,CA,95901
Popeyes,Chico,11424,#011424 #0011424 11424 #11424 0011424,1161 Mangrove Avenue,CA,95926
Popeyes,Oroville,11425,#011425 #0011425 11425 #11425 0011425,1796 Oro Dam Blvd,CA,95966
Popeyes,Bakersfield,11426,#011426 #0011426 11426 #11426 0011426,1221 Mount Vernon Ave.,CA,93306
Popeyes,Bakersfield,11427,#011427 #0011427 11427 #11427 0011427,1449 White Lane,CA,96607
Popeyes,Bakersfield,11428,#011428 #0011428 11428 #11428 0011428,2700 Panama Lane,CA,93313
Popeyes,St. Paul,11429,#011429 #0011429 11429 #11429 0011429,1624 Rice Street,MN,55117
Popeyes,Minneapolis,11430,#011430 #0011430 11430 #11430 0011430,"1301 West Broadway Ave.,",MN,55411
Popeyes,Bloomington,11431,#011431 #0011431 11431 #11431 0011431,9255 Lyndale Ave.,MN,55420
Popeyes,Minneapolis,11432,#011432 #0011432 11432 #11432 0011432,2918 Chicago Avenue,MN,55407
Popeyes,St. Paul,11433,#011433 #0011433 11433 #11433 0011433,"1089 University Ave., W",MN,55104
Popeyes,Richfield,11434,#011434 #0011434 11434 #11434 0011434,220 W. 66th Street,MN,55423
Popeyes,St. Paul,11435,#011435 #0011435 11435 #11435 0011435,1938 Beam Avenue,MN,55109
Popeyes,Brooklyn Park,11436,#011436 #0011436 11436 #11436 0011436,8025 Brooklyn Blvd.,MN,55428
Popeyes,St. Paul,11437,#011437 #0011437 11437 #11437 0011437,1722 Suburban Ave.,MN,55106
Popeyes,Redding,11438,#011438 #0011438 11438 #11438 0011438,847 Cypress Avenue,CA,96002
Popeyes,Taft,11439,#011439 #0011439 11439 #11439 0011439,1117 Kern Street,CA,93268
Popeyes,Bakersfield,11440,#011440 #0011440 11440 #11440 0011440,705 Airport Drive,CA,93308
Popeyes,Bakersfield,11441,#011441 #0011441 11441 #11441 0011441,9606 Rosedale Hwy,CA,93312
Popeyes,Eden Prairie,11442,#011442 #0011442 11442 #11442 0011442,7995 Glenn LN,MN,55344
Popeyes,Crystal,11443,#011443 #0011443 11443 #11443 0011443,6817 Bass Lake Rd.,MN,55428
Popeyes,Brooklyn Center,11444,#011444 #0011444 11444 #11444 0011444,5430 Brooklyn Blvd.,MN,55429
Popeyes,Coon Rapids,11445,#011445 #0011445 11445 #11445 0011445,"3220 124th Avenue, NW ,",MN,55433
Popeyes,Ft. Eustis,11447,#011447 #0011447 11447 #11447 0011447,1386 Lee Blvd.,VA,23604
Popeyes,Salem,11450,#011450 #0011450 11450 #11450 0011450,481 South Broadway,NH,3079
Popeyes,Brooklyn,11456,#011456 #0011456 11456 #11456 0011456,5100 Kings Plaza,NY,11234
Popeyes,San Juan,11457,#011457 #0011457 11457 #11457 0011457,1607 E. Expressway 83,TX,78589
Popeyes,McAllen,11459,#011459 #0011459 11459 #11459 0011459,400 E. Nolana Avenue,TX,78504
Popeyes,Philadelphia,11465,#011465 #0011465 11465 #11465 0011465,"Philadelphia Intl Airport Terminal C, Space C12A - 8800 Essington Avenue",PA,19153
Popeyes,Norton Shores,11469,#011469 #0011469 11469 #11469 0011469,715 W. Norton Ave.,MI,49441
Popeyes,Santa Ana,11470,#011470 #0011470 11470 #11470 0011470,3825 West First Street,CA,92703
Popeyes,Albaquerque,11471,#011471 #0011471 11471 #11471 0011471,"7901 Gibson Blvd. Bldg 20176 Kirtland AFB,",NE,87117
Popeyes,Honolulu,11474,#011474 #0011474 11474 #11474 0011474,647 Kapalulu Avenue,HI,96815
Popeyes,Houston,11475,#011475 #0011475 11475 #11475 0011475,3190 FM 1960,TX,77068
Popeyes,Cambridge,11476,#011476 #0011476 11476 #11476 0011476,209 Sunburst Highway,MD,21613
Popeyes,Dallas,11477,#011477 #0011477 11477 #11477 0011477,"DFW International Airport Terminal A, Gate 15 - 3200 East Airfield Drive",TX,75261
Popeyes,Indianapolis,11491,#011491 #0011491 11491 #11491 0011491,7615 Pendleton Pike,IN,46226
Popeyes,Hollywood,11492,#011492 #0011492 11492 #11492 0011492,2581 N. 60th Avenue,FL,33021
Popeyes,Ft. Belvoir,11493,#011493 #0011493 11493 #11493 0011493,8651 John J. Kingman Bldg. 2321,VA,22060
Popeyes,Aloha,11494,#011494 #0011494 11494 #11494 0011494,20295 SW Tualatin Valley Hwy,OR,97006
Popeyes,Daphne,11496,#011496 #0011496 11496 #11496 0011496,1511 US Highway 98,AL,36526
Popeyes,Houston,11499,#011499 #0011499 11499 #11499 0011499,1420 Barker Cypress Rd,TX,77084
Popeyes,Winchester,11500,#011500 #0011500 11500 #11500 0011500,"117 Sunnyside Plaza Dr.,",VA,22603
Popeyes,Kosciusko,11501,#011501 #0011501 11501 #11501 0011501,354 East Highway 12,MS,39090
Popeyes,Zephyrhills,11502,#011502 #0011502 11502 #11502 0011502,7441 Gall Boulevard,FL,33541
Popeyes,Charlottesville,11503,#011503 #0011503 11503 #11503 0011503,1709 Emmet Street N.,VA,22901
Popeyes,Pfulgerville,11504,#011504 #0011504 11504 #11504 0011504,1547 FM 685,TX,78660
Popeyes,Roanoke Rapids,11505,#011505 #0011505 11505 #11505 0011505,1811 Julian R. Allsbrook Hwy,NC,27870
Popeyes,The Colony,11506,#011506 #0011506 11506 #11506 0011506,4705 Highway 121,TX,75056
Popeyes,Edinburg,11507,#011507 #0011507 11507 #11507 0011507,451 E. Trenton Road,TX,78539
Popeyes,Dothan,11508,#011508 #0011508 11508 #11508 0011508,3354 Montgomery Hwy,AL,36303
Popeyes,Philadelphia,11509,#011509 #0011509 11509 #11509 0011509,4501 Castor Avenue,PA,19124
Popeyes,Belleville,11510,#011510 #0011510 11510 #11510 0011510,"48 Washington Ave., #2",NJ,7109
Popeyes,Charlotte,11520,#011520 #0011520 11520 #11520 0011520,3318 Wilkinson Blvd,NC,28208
Popeyes,Corinth,11521,#011521 #0011521 11521 #11521 0011521,1202 S. Cass Street,MS,38834
Popeyes,Carmel,11523,#011523 #0011523 11523 #11523 0011523,625 East Carmel Drive,IN,46032
Popeyes,Indianapolis,11524,#011524 #0011524 11524 #11524 0011524,5020 East County Line Rd.,IN,46226
Popeyes,Largo,11525,#011525 #0011525 11525 #11525 0011525,8700 Ulmerton Road,FL,33771
Popeyes,Tampa,11526,#011526 #0011526 11526 #11526 0011526,8315 W. Hillsborough,FL,33165
Popeyes,Auburndale,11527,#011527 #0011527 11527 #11527 0011527,602 Havendale Blvd.,FL,33823
Popeyes,Waxahachie,11529,#011529 #0011529 11529 #11529 0011529,1605 N. Highway 77,TX,75167
Popeyes,McAllen,11533,#011533 #0011533 11533 #11533 0011533,221 S. 10th Street,TX,78501
Popeyes,Brownsville,11534,#011534 #0011534 11534 #11534 0011534,"2335 Boca Chica Blvd.,",TX,78521
Popeyes,Edinburg,11535,#011535 #0011535 11535 #11535 0011535,2805 W University Drive,TX,78539
Popeyes,North Haven,11537,#011537 #0011537 11537 #11537 0011537,173 Washington Avenue,CT,6473
Popeyes,Jersey City,11538,#011538 #0011538 11538 #11538 0011538,237 Monmouth Street,NJ,7302
Popeyes,Howard Beach,11539,#011539 #0011539 11539 #11539 0011539,"161-50 Cross Bay Blvd.,",NY,11414
Popeyes,Roseville,11540,#011540 #0011540 11540 #11540 0011540,1100 Douglas Blvd,CA,95678
Popeyes,Johnson City,11542,#011542 #0011542 11542 #11542 0011542,2602 North Roan Drive,TN,37601
Popeyes,Round Rock,11543,#011543 #0011543 11543 #11543 0011543,1801 A.W. Grimes Blvd,TX,78664
Popeyes,Winston Salem,11547,#011547 #0011547 11547 #11547 0011547,601 ML King Jr. Drive,NC,27110
Popeyes,Champaign,11548,#011548 #0011548 11548 #11548 0011548,912 W. Bloomington Rd,IL,61821
Popeyes,Houston,11554,#011554 #0011554 11554 #11554 0011554,11318 Westheimer Road,TX,77077
Popeyes,N Versailles,11555,#011555 #0011555 11555 #11555 0011555,1900 Lincoln Hwy,PA,15137
Popeyes,Reno,11556,#011556 #0011556 11556 #11556 0011556,3600 S. Virginia Street,NV,89502
Popeyes,Memphis,11557,#011557 #0011557 11557 #11557 0011557,1370 Union Avenue,TN,38103
Popeyes,Yonkers,11558,#011558 #0011558 11558 #11558 0011558,53 South Broadway,NY,10701
Popeyes,McCalla,11559,#011559 #0011559 11559 #11559 0011559,22526 Hwy 216,AL,35111
Popeyes,Mocksville,11560,#011560 #0011560 11560 #11560 0011560,1670 US Highway,NC,27028
Popeyes,Holbrook,11561,#011561 #0011561 11561 #11561 0011561,3747 Express Drive,AZ,86025
Popeyes,Coatesville,11562,#011562 #0011562 11562 #11562 0011562,1839 East Lincoln Hwy Coatesville,PA,19320
Popeyes,Newark,11564,#011564 #0011564 11564 #11564 0011564,467 Lyons Avenue,NJ,7112
Popeyes,Springfield Gardens,11565,#011565 #0011565 11565 #11565 0011565,219-03 N. Conduit Avenue,NY,11434
Popeyes,Houston,11566,#011566 #0011566 11566 #11566 0011566,25764 Loop 494,TX,77339
Popeyes,Ontario,11567,#011567 #0011567 11567 #11567 0011567,4325 E. Guasti Road,CA,91761
Popeyes,Lake Park,11568,#011568 #0011568 11568 #11568 0011568,6901 Lake Park Bellville Road,GA,31636
Popeyes,Whitehall,11571,#011571 #0011571 11571 #11571 0011571,1141 Macarthur Rd,PA,18052
Popeyes,Hammond,11572,#011572 #0011572 11572 #11572 0011572,43103 Airport Road,LA,70403
Popeyes,Dawsonville,11573,#011573 #0011573 11573 #11573 0011573,429 Powder Center Drive,GA,30534
Popeyes,Hot Springs,11574,#011574 #0011574 11574 #11574 0011574,1520 Albert Pike,AR,71913
Popeyes,Weslaco,11575,#011575 #0011575 11575 #11575 0011575,1917 W Expressway 83,TX,78596
Popeyes,Lakelane,11576,#011576 #0011576 11576 #11576 0011576,3815 N. Florida Avenue,FL,33805
Popeyes,Plant City,11577,#011577 #0011577 11577 #11577 0011577,201 W. Alexander Street,FL,33567
Popeyes,Brooksville,11579,#011579 #0011579 11579 #11579 0011579,843 South Broad Street,FL,34601
Popeyes,Manteca,11580,#011580 #0011580 11580 #11580 0011580,1401 W. Yosemite Avenue,CA,95336
Popeyes,Atlanta,11583,#011583 #0011583 11583 #11583 0011583,Atlanta Hartsfield/ Jackson Intl Airport Atrium,GA,30320
Popeyes,Fontana,11584,#011584 #0011584 11584 #11584 0011584,16205 Sierra Lakes Pkwy,CA,92336
Popeyes,Scott,11585,#011585 #0011585 11585 #11585 0011585,704 I-10 S Frontage Rd,LA,70583
Popeyes,Essex,11591,#011591 #0011591 11591 #11591 0011591,1211 Eastern Boulevard,MD,21221
Popeyes,Fort Smith,11592,#011592 #0011592 11592 #11592 0011592,8100 Rogers Ave,AR,72903
Popeyes,San Antonio,11594,#011594 #0011594 11594 #11594 0011594,11115 Culebra Road,TX,78253
Popeyes,Trujillo Alto,11596,#011596 #0011596 11596 #11596 0011596,Carr. 181 y Carr. 848,PR,976
Popeyes,Rome,11597,#011597 #0011597 11597 #11597 0011597,2207 Shorter Avenue NW,GA,30165
Popeyes,Poinciana,11612,#011612 #0011612 11612 #11612 0011612,1046 Cypress Parkway,FL,34759
Popeyes,Monroe,11619,#011619 #0011619 11619 #11619 0011619,1302 W. Roosevelt Blvd,NC,28110
Popeyes,Lincolnton,11620,#011620 #0011620 11620 #11620 0011620,1436 E. Main Street,NC,28092
Popeyes,Plainfield,11621,#011621 #0011621 11621 #11621 0011621,2304 E. Main Street,IN,46168
Popeyes,Clarksville,11622,#011622 #0011622 11622 #11622 0011622,1640 Fort Campbell Blvd,TN,37042
Popeyes,San Benito,11631,#011631 #0011631 11631 #11631 0011631,800 S. Sam Houston Blvd,TX,78586
Popeyes,Middletown,11636,#011636 #0011636 11636 #11636 0011636,264 Route 211E,NY,10940
Popeyes,Modesto,11637,#011637 #0011637 11637 #11637 0011637,1400 E. Hatch Rd,CA,95358
Popeyes,Poplar Bluff,11639,#011639 #0011639 11639 #11639 0011639,1205 N. Westwood Blvd,MO,63901
Popeyes,Buffalo,11640,#011640 #0011640 11640 #11640 0011640,2090 Elmwood Avenue,NY,14207
Popeyes,Orange,11647,#011647 #0011647 11647 #11647 0011647,121 Boston Post Road,CT,6477
Popeyes,Griffin,11650,#011650 #0011650 11650 #11650 0011650,1411 Hwy 16,GA,30223
Popeyes,Milwaukee,11652,#011652 #0011652 11652 #11652 0011652,4209 Greenfield Avenue,WI,53215
Popeyes,Kingsport,11655,#011655 #0011655 11655 #11655 0011655,1645 E. Stone Drive,TN,37665
Popeyes,Pittsburgh,11656,#011656 #0011656 11656 #11656 0011656,2010 Wharton Street,PA,15203
Popeyes,Conway,11657,#011657 #0011657 11657 #11657 0011657,1345 E. Oak Street,AR,72032
Popeyes,Medford,11662,#011662 #0011662 11662 #11662 0011662,128 Route 70,NJ,8055
Popeyes,Tyler,11672,#011672 #0011672 11672 #11672 0011672,2316 E. 5th Street,TX,75701
Popeyes,Chelmsford,11682,#011682 #0011682 11682 #11682 0011682,85 Parkhurst Rd,MA,1824
Popeyes,Tucker,11687,#011687 #0011687 11687 #11687 0011687,3896 LaVista Road,GA,30084
Popeyes,Enterprise,11693,#011693 #0011693 11693 #11693 0011693,707 Boll Weevil Circle,AL,36330
Popeyes,Mt. Vernon,11738,#011738 #0011738 11738 #11738 0011738,65 E. Prospect Avenue,NY,10550
