Keywords,city,store_number,store_number,address,state,zip_code
Publix,Clermont,3403,3403 #03403 #3403,4311 S Highway 27,FL,34711
Publix,The Villages,4,4 #04 #4,8780 SE 165th Mulberry Ln,FL,32162-5861
Publix,Wesley Chapel,6,6 #06 #6,1920 County Road 581,FL,33544-9262
Publix,Miami,10,10 #010 #10,8341 W Flagler St,FL,33144-2029
Publix,Lakeland,11,11 #011 #11,1617 US Highway 98 S,FL,33801-6585
Publix,Pembroke Pines,12,12 #012 #12,600 N University Dr,FL,33024-6731
Publix,Clermont,15,15 #015 #15,250 Citrus Tower Blvd,FL,34711-2790
Publix,Irmo,17,17 #017 #17,7320 Broad River Rd,SC,29063-9656
Publix,Jacksonville,19,19 #019 #19,731 Duval Station Rd Ste 4,FL,32218-0804
Publix,Weston,21,21 #021 #21,2465 Glades Cir,FL,33327-2204
Publix,Sarasota,22,22 #022 #22,5100 Clark Rd,FL,34233-3226
Publix,Greenacres,23,23 #023 #23,6790 Forest Hill Blvd,FL,33413-3351
Publix,Miami,24,24 #024 #24,10201 Hammocks Blvd Ste 111,FL,33196-3780
Publix,Cumming,26,26 #026 #26,1735 Buford Hwy,GA,30041-1266
Publix,Clermont,27,27 #027 #27,13900 County Road 455,FL,34711-9052
Publix,Saint Petersburg,28,28 #028 #28,250 3rd St S,FL,33701-4235
Publix,Aventura,30,30 #030 #30,2952 Aventura Blvd,FL,33180-3103
Publix,Doral,31,31 #031 #31,9755 NW 41st St,FL,33178-2381
Publix,Naples,32,32 #032 #32,4370 Thomasson Dr,FL,34112-6725
Publix,Marietta,33,33 #033 #33,3605 Sandy Plains Rd Ste 200,GA,30066-3066
Publix,Simpsonville,35,35 #035 #35,2700 Woodruff Rd,SC,29681-4804
Publix,Madeira Beach,37,37 #037 #37,662 150th Ave,FL,33708-2812
Publix,Canton,42,42 #042 #42,12424 Cumming Hwy,GA,30115-7778
Publix,Miami,44,44 #044 #44,7805 SW 40th St,FL,33155-3547
Publix,Decatur,45,45 #045 #45,1605 Beltline Rd SW,AL,35601-5591
Publix,North Miami,46,46 #046 #46,12850 Biscayne Blvd,FL,33181-2007
Publix,Cumming,49,49 #049 #49,3480 Keith Bridge Rd,GA,30041-5568
Publix,West Palm Beach,50,50 #050 #50,828 Southern Blvd,FL,33405-2530
Publix,Coral Gables,51,51 #051 #51,1500 S Douglas Rd,FL,33134-4108
Publix,Hollywood,53,53 #053 #53,5211 Sheridan St,FL,33021-3344
Publix,Miami,54,54 #054 #54,311 SW 7th St,FL,33130-2917
Publix,Palm Springs,55,55 #055 #55,1700 S Congress Ave,FL,33461-2140
Publix,Lighthouse Point,56,56 #056 #56,3700 N Federal Hwy,FL,33064-6610
Publix,Fort Myers,59,59 #059 #59,6900 Daniels Pkwy Ste 19,FL,33912-1586
Publix,Ocala,61,61 #061 #61,3450 E Silver Springs Blvd,FL,34470-6406
Publix,Winter Springs,62,62 #062 #62,1160 E State Road 434,FL,32708-2715
Publix,Sarasota,63,63 #063 #63,935 N Beneva Rd Ste 101,FL,34232-1399
Publix,Sunny Isles Beach,66,66 #066 #66,18330 Collins Ave,FL,33160-2429
Publix,Columbia,67,67 #067 #67,2800 Rosewood Dr,SC,29205-3412
Publix,Miami,69,69 #069 #69,13820 SW 88th St,FL,33186-1304
Publix,Fort Lauderdale,70,70 #070 #70,3400 N Federal Hwy,FL,33306-1036
Publix,Saint Petersburg,71,71 #071 #71,3501 49th St N,FL,33710-2149
Publix,Boca Raton,72,72 #072 #72,1968 NE 5th Ave,FL,33431-7702
Publix,Surfside,73,73 #073 #73,9400 Harding Ave,FL,33154-2804
Publix,Lilburn,74,74 #074 #74,375 Rockbridge Rd NW,GA,30047-8225
Publix,Tuscaloosa,75,75 #075 #75,4851 Rice Mine Rd NE Ste 200,AL,35406-3571
Publix,Palm Coast,77,77 #077 #77,298 Palm Coast Pkwy NE,FL,32137-8217
Publix,Sebring,78,78 #078 #78,2824 US Highway 27 S,FL,33870-5050
Publix,North Miami Beach,80,80 #080 #80,850 N Miami Beach Blvd,FL,33162-3701
Publix,Coral Gables,84,84 #084 #84,2551 S Le Jeune Rd,FL,33134-5805
Publix,Roswell,86,86 #086 #86,4401 Shallowford Rd,GA,30075-3193
Publix,Hollywood,88,88 #088 #88,1735 E Young Cir,FL,33020-6824
Publix,Miami Beach,91,91 #091 #91,1045 Dade Blvd,FL,33139-1509
Publix,Stockbridge,92,92 #092 #92,250 E Atlanta Rd,GA,30281-3414
Publix,Coral Gables,94,94 #094 #94,1401 Monza Ave,FL,33146-3117
Publix,Seminole,95,95 #095 #95,10801 Starkey Rd Ste 200,FL,33777-1161
Publix,Lake Wales,97,97 #097 #97,23965 Hwy 27,FL,33859-7812
Publix,Largo,98,98 #098 #98,12022 Indian Rocks Rd,FL,33774-3215
Publix,Saint Augustine,99,99 #099 #99,125 Jenkins St,FL,32086-5167
Publix,New Port Richey,102,102 #0102 #102,9850 Little Rd,FL,34654-3470
Publix,Seffner,103,103 #0103 #103,11782 E Dr Martin Luther King Jr Blvd,FL,33584-4923
Publix,Clearwater,104,104 #0104 #104,200 Island Way,FL,33767-2228
Publix,Cocoa Beach,107,107 #0107 #107,2067 N Atlantic Ave,FL,32931-3312
Publix,Braselton,108,108 #0108 #108,2095 Highway 211 NW,GA,30517-3402
Publix,Pinellas Park,111,111 #0111 #111,7333 Park Blvd N,FL,33781-2922
Publix,Miami,112,112 #0112 #112,9420 SW 56th St,FL,33165-6422
Publix,Wilton Manors,114,114 #0114 #114,100 W Oakland Park Blvd,FL,33311-2522
Publix,Okeechobee,118,118 #0118 #118,3551 US Highway 441 S,FL,34974-6247
Publix,Hendersonville,119,119 #0119 #119,110 Indian Lake Blvd,TN,37075-6206
Publix,Marietta,122,122 #0122 #122,1750 Powder Springs Rd SW,GA,30064-4850
Publix,Nashville,123,123 #0123 #123,7604 Highway 70 S,TN,37221-1852
Publix,Gainesville,125,125 #0125 #125,125 SW 34th St,FL,32607-2850
Publix,Boca Raton,126,126 #0126 #126,9720 Clint Moore Rd,FL,33496-1011
Publix,Miami,127,127 #0127 #127,2270 SW 27th Ave,FL,33145-3434
Publix,Jacksonville,128,128 #0128 #128,9518 Argyle Forest Blvd,FL,32222-2800
Publix,Brandon,129,129 #0129 #129,1220 Kingsway Rd,FL,33510-2514
Publix,Orlando,133,133 #0133 #133,4870 S Apopka Vineland Rd,FL,32819-3127
Publix,St Pete Beach,139,139 #0139 #139,4655 Gulf Blvd,FL,33706-2405
Publix,Saint Petersburg,140,140 #0140 #140,120 Carillon Pkwy,FL,33716-1201
Publix,Brentwood,142,142 #0142 #142,8105 Moores Ln,TN,37027-8020
Publix,Lake Worth,143,143 #0143 #143,1910 Lake Worth Rd,FL,33461-4228
Publix,Tarpon Springs,144,144 #0144 #144,40932 US Highway 19 N,FL,34689-5446
Publix,Villa Rica,145,145 #0145 #145,2000 Mirror Lake Blvd,GA,30180-2124
Publix,Kennesaw,146,146 #0146 #146,4430 Wade Green Rd NW Ste 100,GA,30144-1267
Publix,Sarasota,148,148 #0148 #148,5391 Fruitville Rd,FL,34232-6402
Publix,Santa Rosa Beach,153,153 #0153 #153,110 Watercolor Way,FL,32459-7354
Publix,Marietta,155,155 #0155 #155,1100 Johnson Ferry Rd,GA,30068-2794
Publix,Fort Myers,157,157 #0157 #157,19100 S Tamiami Trl,FL,33908-1011
Publix,Franklin,160,160 #0160 #160,2020 Fieldstone Pkwy,TN,37069-4337
Publix,Lehigh Acres,162,162 #0162 #162,5781 Lee Blvd,FL,33971-6337
Publix,Homewood,165,165 #0165 #165,411 Green Springs Hwy,AL,35209-4909
Publix,Miramar,167,167 #0167 #167,6890 Miramar Pkwy,FL,33023-6000
Publix,Naples,172,172 #0172 #172,4601 9th St N,FL,34103-3004
Publix,Franklin,176,176 #0176 #176,1021 Riverside Dr,TN,37064-6500
Publix,Jacksonville,177,177 #0177 #177,9964 Old Baymeadows Rd,FL,32256-8103
Publix,Jacksonville,178,178 #0178 #178,13170 Atlantic Blvd Ste 29,FL,32225-4150
Publix,Palm Beach Gardens,179,179 #0179 #179,11566 US Highway 1,FL,33408-3019
Publix,Lake Worth,180,180 #0180 #180,7745 Lake Worth Rd,FL,33467-2536
Publix,Delray Beach,181,181 #0181 #181,1538 S Federal Hwy,FL,33483-5032
Publix,Hermitage,182,182 #0182 #182,4670 Lebanon Pike,TN,37076-1314
Publix,Lake Worth,184,184 #0184 #184,8899 Hypoluxo Rd,FL,33467-5203
Publix,Hialeah,188,188 #0188 #188,8601 NW 186th St,FL,33015-2553
Publix,Delray Beach,195,195 #0195 #195,4771 W Atlantic Ave,FL,33445-3838
Publix,Boynton Beach,196,196 #0196 #196,133 N Congress Ave,FL,33426-4209
Publix,Melbourne,202,202 #0202 #202,3200 Lake Washington Rd,FL,32934-7620
Publix,Ormond Beach,203,203 #0203 #203,220 N Nova Rd,FL,32174-5124
Publix,Miami,204,204 #0204 #204,11495 Bird Rd,FL,33165-3311
Publix,Easley,205,205 #0205 #205,6525 Calhoun Memorial Hwy,SC,29640-3669
Publix,Huntsville,209,209 #0209 #209,12796 Bailey Cove Rd SE,AL,35803-2659
Publix,Davie,210,210 #0210 #210,4701 S University Dr,FL,33328-3819
Publix,Palm Beach Gardens,212,212 #0212 #212,10913 N Military Trl,FL,33410-6501
Publix,Pembroke Pines,213,213 #0213 #213,1657 N Hiatus Rd,FL,33026-2129
Publix,Margate,214,214 #0214 #214,7230 W Atlantic Blvd,FL,33063-4236
Publix,Palm Bay,215,215 #0215 #215,4711 Babcock St NE,FL,32905-2805
Publix,Lake Placid,219,219 #0219 #219,350 US 27 N,FL,33852-9541
Publix,Spring Hill,220,220 #0220 #220,1400 Pinehurst Dr,FL,34606-4553
Publix,Miami,222,222 #0222 #222,13890 SW 56th St,FL,33175-6021
Publix,Miami,223,223 #0223 #223,14601 S Dixie Hwy,FL,33176-7926
Publix,Johns Creek,226,226 #0226 #226,5805 State Bridge Rd,GA,30097-8220
Publix,Apopka,227,227 #0227 #227,540 S Hunt Club Blvd,FL,32703-4960
Publix,Jupiter,228,228 #0228 #228,6330 W Indiantown Rd,FL,33458-7981
Publix,New Smyrna Beach,229,229 #0229 #229,709 E 3rd Ave,FL,32169-3101
Publix,Live Oak,231,231 #0231 #231,1528 Ohio Ave S,FL,32064-4514
Publix,Saint Cloud,235,235 #0235 #235,4401 13th St,FL,34769-6724
Publix,Miami,237,237 #0237 #237,13001 SW 112th St,FL,33186-4601
Publix,Miami,238,238 #0238 #238,14630 SW 26th St,FL,33175-8065
Publix,Sunrise,239,239 #0239 #239,10155 W Oakland Park Blvd,FL,33351-6918
Publix,Vero Beach,240,240 #0240 #240,1255 US Highway 1,FL,32960-5729
Publix,Stuart,241,241 #0241 #241,5893 SE Federal Hwy,FL,34997-7869
Publix,Tamarac,242,242 #0242 #242,8245 NW 88th Ave,FL,33321-1541
Publix,Deerfield Beach,246,246 #0246 #246,1337 S Military Trl,FL,33442-7634
Publix,Daytona Beach,248,248 #0248 #248,3044 S Atlantic Ave,FL,32118-6102
Publix,Boynton Beach,250,250 #0250 #250,3775 W Woolbright Rd,FL,33436-7207
Publix,Davie,252,252 #0252 #252,8842 W State Road 84,FL,33324-4415
Publix,Inverness,255,255 #0255 #255,1420 Highway 41 N,FL,34450-2405
Publix,Ocala,257,257 #0257 #257,3101 SW 34th Ave,FL,34474-7447
Publix,Saint Petersburg,259,259 #0259 #259,5295 34th St S,FL,33711-4517
Publix,Cutler Bay,260,260 #0260 #260,18485 S Dixie Hwy,FL,33157-6817
Publix,Miami,261,261 #0261 #261,8250 Mills Dr,FL,33183-4805
Publix,Hialeah,262,262 #0262 #262,18496 NW 67th Ave,FL,33015-3440
Publix,Jacksonville,263,263 #0263 #263,7628 103rd St Ste 24,FL,32210-8719
Publix,Rockledge,264,264 #0264 #264,1880 S US Highway 1,FL,32955-2822
Publix,Punta Gorda,266,266 #0266 #266,2310 Tamiami Trl Unit 1129,FL,33950-5933
Publix,Dania Beach,267,267 #0267 #267,401 E Sheridan St,FL,33004-4603
Publix,Decatur,269,269 #0269 #269,3649 Flakes Mill Rd,GA,30034-5218
Publix,Tallahassee,273,273 #0273 #273,5810 N Monroe St Ste 200,FL,32303-7954
Publix,Orlando,274,274 #0274 #274,5350 Central Florida Pkwy,FL,32821-8772
Publix,Marco Island,275,275 #0275 #275,175 S Barfield Dr,FL,34145-5143
Publix,Orlando,276,276 #0276 #276,2435 S Hiawassee Rd,FL,32835-6346
Publix,West Delray Beach,279,279 #0279 #279,13860 Jog Rd,FL,33446-5902
Publix,Marietta,280,280 #0280 #280,1050 E Piedmont Rd Ste 130,GA,30062-4744
Publix,Atlanta,282,282 #0282 #282,2900 Peachtree Rd NW,GA,30305-4915
Publix,Vero Beach,284,284 #0284 #284,2040 58th Ave,FL,32966-4646
Publix,Sebastian,287,287 #0287 #287,13435 US Highway 1,FL,32958-3757
Publix,Cooper City,290,290 #0290 #290,5630 S Flamingo Rd,FL,33330-3236
Publix,Weston,291,291 #0291 #291,1170 Weston Rd,FL,33326-1915
Publix,Miami,293,293 #0293 #293,13735 SW 152nd St,FL,33177-1106
Publix,North Lauderdale,294,294 #0294 #294,1297 S State Road 7,FL,33068-4021
Publix,Titusville,298,298 #0298 #298,1923 Knox McRae Dr,FL,32780-5360
Publix,Tampa,300,300 #0300 #300,12026 Anderson Rd,FL,33625-5682
Publix,Altamonte Springs,301,301 #0301 #301,951 N State Road 434,FL,32714-7026
Publix,Tamarac,302,302 #0302 #302,5881 N University Dr,FL,33321-4618
Publix,Pembroke Pines,303,303 #0303 #303,170 S Flamingo Rd,FL,33027-1720
Publix,Daytona Beach,304,304 #0304 #304,1500 Beville Rd Ste 300,FL,32114-5644
Publix,Saint Petersburg,305,305 #0305 #305,5577 Park St N,FL,33709-6309
Publix,Gainesville,306,306 #0306 #306,1200 NW 76th Blvd,FL,32606-6750
Publix,Tampa,310,310 #0310 #310,3615 W Gandy Blvd,FL,33611-2607
Publix,Temple Terrace,311,311 #0311 #311,11502 N 53rd St,FL,33617-2245
Publix,Jupiter,313,313 #0313 #313,4060 S US Highway 1,FL,33477-1121
Publix,Lehigh Acres,314,314 #0314 #314,1324 Homestead Rd N,FL,33936-6016
Publix,Brandon,315,315 #0315 #315,855 E Bloomingdale Ave,FL,33511-8113
Publix,Coral Springs,317,317 #0317 #317,8160 Wiles Rd,FL,33067-2041
Publix,West Palm Beach,319,319 #0319 #319,831 Village Blvd,FL,33409-1901
Publix,Jacksonville,320,320 #0320 #320,2771 Monument Rd,FL,32225-5549
Publix,Fernandina Beach,322,322 #0322 #322,1421 Sadler Rd,FL,32034-4466
Publix,Boca Raton,324,324 #0324 #324,22973 State Road 7,FL,33428-5400
Publix,Miami,327,327 #0327 #327,13850 SW 8th St,FL,33184-3033
Publix,Cutler Bay,328,328 #0328 #328,20425 Old Cutler Rd,FL,33189-1833
Publix,Oviedo,329,329 #0329 #329,81 Alafaya Woods Blvd,FL,32765-6235
Publix,Naples,330,330 #0330 #330,4860 Davis Blvd,FL,34104-5337
Publix,Orlando,331,331 #0331 #331,4606 S Kirkman Rd,FL,32811-2891
Publix,Orlando,332,332 #0332 #332,10115 University Blvd,FL,32817-1904
Publix,Sarasota,333,333 #0333 #333,3428 Clark Rd,FL,34231-8406
Publix,New Smyrna Beach,335,335 #0335 #335,1930 State Road 44,FL,32168-8345
Publix,Saint Augustine,336,336 #0336 #336,1033 A1A Beach Blvd,FL,32080-6731
Publix,Stuart,337,337 #0337 #337,3304 SE Federal Hwy,FL,34997-4964
Publix,Boca Raton,339,339 #0339 #339,5050 Champion Blvd,FL,33496-4438
Publix,Port Saint Lucie,340,340 #0340 #340,9100 S US Highway 1,FL,34952-3406
Publix,Plantation,342,342 #0342 #342,10065 Cleary Blvd,FL,33324-1063
Publix,Hialeah,343,343 #0343 #343,2414 W 60th St,FL,33016-4418
Publix,Orlando,347,347 #0347 #347,7653 S Orange Blossom Trl,FL,32809-6903
Publix,Deerfield Beach,348,348 #0348 #348,3740 W Hillsboro Blvd,FL,33442-9411
Publix,Leesburg,349,349 #0349 #349,10601 US Highway 441 Ste D,FL,34788-7241
Publix,Orlando,350,350 #0350 #350,4048 S Semoran Blvd,FL,32822-4062
Publix,Kissimmee,351,351 #0351 #351,2915 Vineland Rd,FL,34746-5505
Publix,Lakeland,352,352 #0352 #352,3636 Harden Blvd,FL,33803-5938
Publix,Dunedin,353,353 #0353 #353,1491 Main St,FL,34698-4612
Publix,Lakeland,356,356 #0356 #356,4730 S Florida Ave,FL,33813-2181
Publix,Anderson,360,360 #0360 #360,1611 E Greenville St,SC,29621-2006
Publix,Sarasota,361,361 #0361 #361,5804 Bee Ridge Rd,FL,34233-5051
Publix,Royal Palm Beach,362,362 #0362 #362,1180 Royal Palm Beach Blvd,FL,33411-1671
Publix,Bonita Springs,365,365 #0365 #365,3306 Bonita Beach Rd,FL,34134-4174
Publix,Palm Beach Gardens,367,367 #0367 #367,9900 Alternate A1A,FL,33410-4903
Publix,Miramar,368,368 #0368 #368,9951 Miramar Pkwy,FL,33025-2397
Publix,Boca Raton,369,369 #0369 #369,7431 N Federal Hwy,FL,33487-1601
Publix,Orlando,370,370 #0370 #370,11955 E Colonial Dr,FL,32826-4725
Publix,West Palm Beach,371,371 #0371 #371,2895 N Military Trl,FL,33409-2900
Publix,Davie,372,372 #0372 #372,13700 W State Road 84,FL,33325-5302
Publix,Coral Springs,373,373 #0373 #373,1305 N University Dr,FL,33071-6622
Publix,Clearwater,374,374 #0374 #374,5000 E Bay Dr,FL,33764-5719
Publix,Miami,375,375 #0375 #375,1525 SW 107th Ave,FL,33174-2510
Publix,Key Largo,376,376 #0376 #376,101437 Overseas Hwy,FL,33037-4505
Publix,Saint Augustine,377,377 #0377 #377,4255 US Highway 1 S Ste 1,FL,32086-7000
Publix,Casselberry,379,379 #0379 #379,3385 S US Highway 17/92 Suite 181,FL,32707-2915
Publix,Fort Walton Beach,383,383 #0383 #383,421 Mary Esther Cut Off NW,FL,32548-4084
Publix,Venice,384,384 #0384 #384,4173 Tamiami Trl S,FL,34293-5111
Publix,Vero Beach,385,385 #0385 #385,810 S US Highway 1,FL,32962-4703
Publix,Clearwater,386,386 #0386 #386,1520 N McMullen Booth Rd,FL,33759-2594
Publix,Delray Beach,388,388 #0388 #388,7375 W Atlantic Ave,FL,33446-1304
Publix,Punta Gorda,391,391 #0391 #391,3941 Tamiami Trl Unit 3145,FL,33950-7927
Publix,Lakeland,392,392 #0392 #392,5375 N Socrum Loop Rd,FL,33809-4272
Publix,Jacksonville,393,393 #0393 #393,11250 St Augustine Rd Ste 4,FL,32257-1147
Publix,Wellington,394,394 #0394 #394,13880 Wellington Trce,FL,33414-8553
Publix,Saint Petersburg,395,395 #0395 #395,10496 Roosevelt Blvd N,FL,33716-3820
Publix,Southwest Ranches,396,396 #0396 #396,4901 Volunteer Rd,FL,33330-2400
Publix,Boynton Beach,397,397 #0397 #397,4966 Le Chalet Blvd,FL,33436-1406
Publix,Tampa,398,398 #0398 #398,15151 N Dale Mabry Hwy,FL,33618-1818
Publix,Tampa,399,399 #0399 #399,7018 W Waters Ave,FL,33634-2292
Publix,Englewood,400,400 #0400 #400,1500 Placida Rd Ste C,FL,34223-4951
Publix,Jupiter,401,401 #0401 #401,95 S US Highway 1,FL,33477-5117
Publix,Hallandale Beach,402,402 #0402 #402,1400 E Hallandale Beach Blvd,FL,33009-4617
Publix,Ocala,404,404 #0404 #404,2655 NE 35th St,FL,34479-3005
Publix,Ocoee,405,405 #0405 #405,8863 W Colonial Dr,FL,34761-6951
Publix,Coconut Creek,406,406 #0406 #406,6570 N State Road 7,FL,33073-3625
Publix,Sarasota,409,409 #0409 #409,8409 S Tamiami Trl,FL,34238-2937
Publix,Naples,410,410 #0410 #410,7101 Radio Rd,FL,34104-6706
Publix,Spring Hill,411,411 #0411 #411,160 Mariner Blvd,FL,34609-5689
Publix,Lake Worth,413,413 #0413 #413,9855 Lake Worth Rd,FL,33467-2305
Publix,Naples,414,414 #0414 #414,11200 Tamiami Trl N # 2200,FL,34110-1640
Publix,Palm Harbor,415,415 #0415 #415,33343 US Highway 19 N,FL,34684-3128
Publix,Bradenton,417,417 #0417 #417,6030 14th St W,FL,34207-4104
Publix,Cape Coral,418,418 #0418 #418,1616 Cape Coral Pkwy W # 5,FL,33914-6979
Publix,Ocala,419,419 #0419 #419,303 SE 17th St,FL,34471-4421
Publix,New Port Richey,420,420 #0420 #420,1346 Seven Springs Blvd,FL,34655-5636
Publix,Boca Raton,421,421 #0421 #421,9846 Glades Rd,FL,33434-3917
Publix,Orange City,422,422 #0422 #422,2556 Enterprise Rd Ste 100,FL,32763-7939
Publix,Port Saint Lucie,423,423 #0423 #423,1333 NW Saint Lucie West Blvd,FL,34986-2140
Publix,Palm Bay,424,424 #0424 #424,1150 Malabar Rd SE Ste 120,FL,32907-3239
Publix,Winter Haven,425,425 #0425 #425,1090 Spirit Lake Rd,FL,33880-1226
Publix,Fort Myers,426,426 #0426 #426,4600 Summerlin Rd,FL,33919-3005
Publix,Orlando,427,427 #0427 #427,3972 Town Center Blvd,FL,32837-6103
Publix,Boca Raton,428,428 #0428 #428,3003 Yamato Rd Ste C9,FL,33434-5355
Publix,Edgewater,429,429 #0429 #429,2970 S Ridgewood Ave,FL,32141-7527
Publix,Valdosta,430,430 #0430 #430,1741 Gornto Rd,GA,31601-8408
Publix,Brunswick,431,431 #0431 #431,171 Village At Glynn Pl Ste 100,GA,31525-1988
Publix,Hollywood,432,432 #0432 #432,3251 Hollywood Blvd,FL,33021
Publix,Jacksonville,433,433 #0433 #433,14444 Beach Blvd Ste 6,FL,32250-2010
Publix,Palm Beach Gardens,434,434 #0434 #434,4200 Northlake Blvd,FL,33410-6252
Publix,Gainesville,435,435 #0435 #435,5200 NW 43rd St Ste 401,FL,32606-4483
Publix,Orlando,436,436 #0436 #436,2873 S Orange Ave,FL,32806-5403
Publix,Deland,437,437 #0437 #437,2410 S Woodland Blvd,FL,32720-8636
Publix,Belleview,438,438 #0438 #438,10135 SE US Highway 441,FL,34420-2850
Publix,Altamonte Springs,442,442 #0442 #442,851 S State Road 434,FL,32714-4811
Publix,Ormond Beach,446,446 #0446 #446,1478 W Granada Blvd,FL,32174-9165
Publix,The Villages,447,447 #0447 #447,1120 Bichara Blvd,FL,32159-7716
Publix,Winter Haven,448,448 #0448 #448,6031 Cypress Gardens Blvd,FL,33884-4115
Publix,Mount Pleasant,449,449 #0449 #449,1000 Johnnie Dodds Blvd Ste 106,SC,29464-3187
Publix,Albany,450,450 #0450 #450,2715 Dawson Rd,GA,31707-1673
Publix,Athens,451,451 #0451 #451,3620 Atlanta Hwy,GA,30606-7219
Publix,Cape Coral,452,452 #0452 #452,100 Hancock Bridge Pkwy W,FL,33991-2088
Publix,Naples,453,453 #0453 #453,5991 Pine Ridge Rd,FL,34119-3956
Publix,Aventura,454,454 #0454 #454,18995 Biscayne Blvd,FL,33180-2818
Publix,Kingsland,455,455 #0455 #455,1601 Ga Highway 40 E,GA,31548-6500
Publix,Savannah,456,456 #0456 #456,155 Johnny Mercer Blvd,GA,31410-2118
Publix,Spring Hill,457,457 #0457 #457,4365 Commercial Way,FL,34606-1917
Publix,Oviedo,458,458 #0458 #458,4250 Alafaya Trl Ste 148,FL,32765-9430
Publix,Goose Creek,459,459 #0459 #459,208 Saint James Ave Ste C,SC,29445-2994
Publix,Morrow,461,461 #0461 #461,2035 Mount Zion Rd,GA,30260-3313
Publix,Woodstock,463,463 #0463 #463,4403 Towne Lake Pkwy,GA,30189-8132
Publix,Mableton,464,464 #0464 #464,5015 Floyd Rd SW,GA,30126-1673
Publix,Orlando,465,465 #0465 #465,2300 S Chickasaw Trl,FL,32825-8416
Publix,Melbourne,467,467 #0467 #467,7777 N Wickham Rd,FL,32940-7976
Publix,Sandy Springs,468,468 #0468 #468,6615 Roswell Rd NE,GA,30328-3103
Publix,Johns Creek,469,469 #0469 #469,9925 Haynes Bridge Rd,GA,30022-8532
Publix,Newnan,470,470 #0470 #470,370 Bullsboro Dr,GA,30263-1069
Publix,Macon,471,471 #0471 #471,195 Tom Hill Sr Blvd,GA,31210-1816
Publix,Charleston,472,472 #0472 #472,1401 Sam Rittenberg Blvd,SC,29407-5031
Publix,Hilton Head Island,473,473 #0473 #473,45 Pembroke Dr,SC,29926-2262
Publix,Columbus,474,474 #0474 #474,1639 Bradley Park Dr Ste 600,GA,31904-3625
Publix,Hernando,475,475 #0475 #475,2685 N Forest Ridge Blvd,FL,34442-5123
Publix,Thomasville,476,476 #0476 #476,2551 E Pinetree Blvd Ste 11,GA,31792-4823
Publix,Miami,478,478 #0478 #478,20711 S Dixie Hwy,FL,33189-2215
Publix,Winder,480,480 #0480 #480,17 Monroe Hwy Ste A,GA,30680-2494
Publix,Panama City,481,481 #0481 #481,650 W 23rd St,FL,32405-3921
Publix,Summerville,483,483 #0483 #483,1575 Old Trolley Rd,SC,29485-8208
Publix,Boynton Beach,484,484 #0484 #484,6627 W Boynton Beach Blvd,FL,33437-3526
Publix,Douglasville,485,485 #0485 #485,3316 Highway 5,GA,30135-2308
Publix,North Augusta,486,486 #0486 #486,334 E Martintown Rd,SC,29841-4261
Publix,Hudson,487,487 #0487 #487,13752 Little Rd,FL,34667-8024
Publix,Naples,488,488 #0488 #488,2310 Pine Ridge Rd,FL,34109-2006
Publix,Bradenton,491,491 #0491 #491,7290 55th Ave E,FL,34203-8002
Publix,Oviedo,493,493 #0493 #493,2100 Winter Springs Blvd,FL,32765-9342
Publix,Stone Mountain,494,494 #0494 #494,380 N Deshon Rd,GA,30087-4797
Publix,Lawrenceville,495,495 #0495 #495,911 Duluth Hwy,GA,30043-5320
Publix,Powder Springs,496,496 #0496 #496,5100 Dallas Hwy,GA,30127-4491
Publix,Palm Harbor,497,497 #0497 #497,36301 E Lake Rd,FL,34685-3200
Publix,Melbourne Beach,499,499 #0499 #499,3830 S Highway A1A,FL,32951-3143
Publix,Key West,500,500 #0500 #500,3316 N Roosevelt Blvd,FL,33040-4115
Publix,Apopka,501,501 #0501 #501,1545 Rock Springs Rd,FL,32712-2231
Publix,Fleming Island,502,502 #0502 #502,5000 US Highway 17 Ste 11,FL,32003-8223
Publix,Atlanta,503,503 #0503 #503,3695 Cascade Rd SW,GA,30331-2173
Publix,Holiday,504,504 #0504 #504,4701 Sunray Dr,FL,34690-3808
Publix,Duluth,505,505 #0505 #505,1625 Pleasant Hill Rd Ste 200,GA,30096-5863
Publix,Aiken,506,506 #0506 #506,250 Eastgate Dr,SC,29803-7698
Publix,Eustis,507,507 #0507 #507,1950 N Highway 19,FL,32726-6729
Publix,Snellville,508,508 #0508 #508,1905 Scenic Hwy N Ste 4000,GA,30078-5635
Publix,Sunrise,509,509 #0509 #509,12500 W Sunrise Blvd,FL,33323-2987
Publix,Homestead,510,510 #0510 #510,891 N Homestead Blvd,FL,33030-5024
Publix,Tampa,511,511 #0511 #511,6001 N Nebraska Ave,FL,33604-6855
Publix,Lexington,512,512 #0512 #512,100 Old Cherokee Rd,SC,29072-9316
Publix,Sandy Springs,514,514 #0514 #514,8725 Roswell Rd Ste G,GA,30350-7500
Publix,Johns Creek,515,515 #0515 #515,11585 Jones Bridge Rd Ste 500,GA,30022-8173
Publix,Naples,516,516 #0516 #516,12663 Tamiami Trl E,FL,34113-8423
Publix,Homosassa,518,518 #0518 #518,3942 S Suncoast Blvd,FL,34448-2601
Publix,Cumming,519,519 #0519 #519,580 Atlanta Rd,GA,30040-2744
Publix,Savannah,521,521 #0521 #521,4717 Hwy 80 E Ste B,GA,31410-2944
Publix,Savannah,522,522 #0522 #522,5500 Abercorn St Ste 2,GA,31405-6913
Publix,Cocoa,523,523 #0523 #523,7325 N US Highway 1,FL,32927-5006
Publix,Lutz,524,524 #0524 #524,3939 Van Dyke Rd,FL,33558-8001
Publix,Augusta,525,525 #0525 #525,2816 Washington Rd,GA,30909-2199
Publix,Evans,526,526 #0526 #526,4274 Washington Rd,GA,30809-3070
Publix,Gainesville,527,527 #0527 #527,5801 SW 75th St,FL,32608-8513
Publix,Pembroke Pines,528,528 #0528 #528,18341 Pines Blvd,FL,33029-1413
Publix,Miami,529,529 #0529 #529,15750 SW 72nd St,FL,33193-5060
Publix,Greenville,530,530 #0530 #530,1750 Woodruff Rd,SC,29607-5933
Publix,Greer,531,531 #0531 #531,411 The Pkwy,SC,29650-4522
Publix,Brandon,532,532 #0532 #532,939 W Brandon Blvd,FL,33511-4905
Publix,Tallahassee,533,533 #0533 #533,6753 Thomasville Rd,FL,32312-3966
Publix,Martinez,534,534 #0534 #534,403 Furys Ferry Rd,GA,30907-9038
Publix,Atlanta,536,536 #0536 #536,2451 Cumberland Pkwy SE,GA,30339-6136
Publix,Gainesville,537,537 #0537 #537,3720 NW 13th St Ste 9,FL,32609-5910
Publix,Lawrenceville,538,538 #0538 #538,2380 Buford Dr Ste 201,GA,30043-7638
Publix,Snellville,539,539 #0539 #539,3550 Centerville Hwy Ste 201,GA,30039-4133
Publix,Lagrange,540,540 #0540 #540,139 Commerce Ave,GA,30241-2337
Publix,Sandy Springs,541,541 #0541 #541,6300 Powers Ferry Rd NW,GA,30339-2919
Publix,Ocoee,542,542 #0542 #542,2600 Maguire Rd,FL,34761-4752
Publix,Duncan,543,543 #0543 #543,2153 E Main St Ste B9,SC,29334-8863
Publix,Tucker,544,544 #0544 #544,4422 Hugh Howell Rd,GA,30084-4915
Publix,Hampton,545,545 #0545 #545,11155 Tara Blvd,GA,30228-1672
Publix,Peachtree City,546,546 #0546 #546,130 Peachtree East Shopping Ctr # 4,GA,30269-4045
Publix,Stockbridge,547,547 #0547 #547,909 Eagles Landing Pkwy Ste 300,GA,30281-6398
Publix,Marietta,548,548 #0548 #548,50 Barrett Pkwy Ste 1000,GA,30066-3344
Publix,Coral Springs,549,549 #0549 #549,1400 Coral Ridge Dr,FL,33071-5433
Publix,Miami,550,550 #0550 #550,9041 SW 107th Ave,FL,33176-1414
Publix,Kissimmee,551,551 #0551 #551,14928 E Orange Lake Blvd,FL,34747-8210
Publix,Jacksonville Beach,552,552 #0552 #552,670 Marsh Landing Pkwy,FL,32250-5850
Publix,Boca Raton,553,553 #0553 #553,1339 W Palmetto Park Rd,FL,33486-3303
Publix,Cartersville,554,554 #0554 #554,300 Cherokee Pl,GA,30121-2964
Publix,Sarasota,555,555 #0555 #555,3825 S Osprey Ave,FL,34239-6803
Publix,Alpharetta,556,556 #0556 #556,11800 Haynes Bridge Rd Ste B,GA,30009-7994
Publix,Lake Wales,557,557 #0557 #557,102 State Road 60 E,FL,33853-4116
Publix,Kennesaw,559,559 #0559 #559,2774 N Cobb Pkwy Ste 201,GA,30152-3469
Publix,Peachtree Corners,560,560 #0560 #560,3200 Holcomb Bridge Rd,GA,30092-3361
Publix,Marietta,561,561 #0561 #561,2500 Dallas Hwy SW Ste 300,GA,30064-2571
Publix,Columbus,562,562 #0562 #562,5435 Woodruff Farm Rd,GA,31907-1395
Publix,Anderson,563,563 #0563 #563,3801-E Clemson Blvd,SC,29621-1318
Publix,Lilburn,564,564 #0564 #564,4045 Five Forks Trickum Rd SW,GA,30047-2351
Publix,Suwanee,565,565 #0565 #565,3245 Peachtree Pkwy Ste A,GA,30024-1097
Publix,Acworth,566,566 #0566 #566,1727 Mars Hill Rd NW,GA,30101-8090
Publix,Fort Pierce,567,567 #0567 #567,2517 S Federal Hwy,FL,34982-5922
Publix,Coral Springs,568,568 #0568 #568,10701 Wiles Rd,FL,33076-2014
Publix,Dacula,569,569 #0569 #569,2463 Hamilton Mill Pkwy,GA,30019-4648
Publix,Hobe Sound,571,571 #0571 #571,11750 SE Federal Hwy,FL,33455-5303
Publix,Owens Cross Roads,573,573 #0573 #573,6707 Highway 431 S,AL,35763-9223
Publix,Huntsville,574,574 #0574 #574,4851 Whitesburg Dr SE Ste B,AL,35802-1626
Publix,Marathon,575,575 #0575 #575,5407 Overseas Hwy,FL,33050-2710
Publix,Greenville,576,576 #0576 #576,5000 Old Buncombe Rd,SC,29617-8208
Publix,Palm City,577,577 #0577 #577,2750 SW Martin Downs Blvd,FL,34990-6019
Publix,Fort Myers,578,578 #0578 #578,11600 Gladiolus Dr,FL,33908-4567
Publix,Fayetteville,579,579 #0579 #579,108 Pavilion Pkwy,GA,30214-4056
Publix,Smyrna,580,580 #0580 #580,2148 S Cobb Dr SE,GA,30080-1348
Publix,Miami,581,581 #0581 #581,134 SW 13th St,FL,33130-4211
Publix,Tampa,582,582 #0582 #582,2724 W Hillsborough Ave,FL,33614-6053
Publix,Weston,583,583 #0583 #583,294 Indian Trace,FL,33326-4509
Publix,Tampa,584,584 #0584 #584,19034 Bruce B Downs Blvd,FL,33647-2434
Publix,Duluth,585,585 #0585 #585,2750 Buford Hwy,GA,30096-2867
Publix,Hialeah,586,586 #0586 #586,3339 W 80th St,FL,33018-5065
Publix,Columbia,587,587 #0587 #587,10128 Two Notch Rd,SC,29223-4384
Publix,Miami,588,588 #0588 #588,4260 SW 152nd Ave,FL,33185-5252
Publix,Jacksonville,589,589 #0589 #589,9100 Merrill Rd,FL,32225-4358
Publix,Miami,590,590 #0590 #590,9510 SW 160th St,FL,33157-3300
Publix,Lauderdale By the Sea,591,591 #0591 #591,4703 N Ocean Dr,FL,33308-2914
Publix,Acworth,593,593 #0593 #593,3507 Baker Rd NW Ste 300,GA,30101-3706
Publix,Miami,595,595 #0595 #595,13005 SW 89th Pl,FL,33176-5812
Publix,Sugar Hill,596,596 #0596 #596,5885 Cumming Hwy,GA,30518-5765
Publix,Columbia,597,597 #0597 #597,4840 Forest Dr Ste 10,SC,29206-4810
Publix,Madison,598,598 #0598 #598,8000 Madison Blvd Ste A,AL,35758-2035
Publix,Atlanta,599,599 #0599 #599,1544 Piedmont Ave NE,GA,30324-5018
Publix,Boca Raton,600,600 #0600 #600,1001 S Federal Hwy,FL,33432-7333
Publix,Brookhaven,601,601 #0601 #601,3435 Ashford Dunwoody Rd NE,GA,30319-2546
Publix,Greenville,602,602 #0602 #602,235 S Pleasantburg Dr,SC,29607-2521
Publix,Loganville,603,603 #0603 #603,4325 Atlanta Hwy,GA,30052-2341
Publix,Bonita Springs,604,604 #0604 #604,24600 S Tamiami Trl Ste 300,FL,34134-7023
Publix,Orlando,605,605 #0605 #605,5265 S John Young Pkwy,FL,32839-5025
Publix,Boca Raton,606,606 #0606 #606,11650 W Palmetto Park Rd,FL,33428-2501
Publix,Orlando,607,607 #0607 #607,1921 S Alafaya Trl,FL,32828-8732
Publix,Carrollton,608,608 #0608 #608,1109 S Park St Ste 600,GA,30117-4449
Publix,Tallahassee,610,610 #0610 #610,5032 Capital Cir SW Ste 1,FL,32305-7886
Publix,Tampa,611,611 #0611 #611,1313 S Dale Mabry Hwy,FL,33629-5010
Publix,Lawrenceville,612,612 #0612 #612,4850 Sugarloaf Pkwy,GA,30044-2859
Publix,Simpsonville,613,613 #0613 #613,655 Fairview Rd Ste C,SC,29680-6777
Publix,Estero,614,614 #0614 #614,21301 S Tamiami Trl Ste 200,FL,33928-2943
Publix,Suwanee,615,615 #0615 #615,1000 Peachtree Industrial Blvd,GA,30024-6737
Publix,Alpharetta,616,616 #0616 #616,4900 Atlanta Hwy,GA,30004-2921
Publix,Watkinsville,617,617 #0617 #617,2061 Experiment Station Rd,GA,30677-5328
Publix,Wesley Chapel,618,618 #0618 #618,5400 Bruce B Downs Blvd,FL,33544-8616
Publix,Fort Lauderdale,619,619 #0619 #619,15801 Sheridan St,FL,33331-3487
Publix,Royal Palm Beach,620,620 #0620 #620,11977 Southern Blvd,FL,33411-7619
Publix,Miami Beach,621,621 #0621 #621,1920 West Ave,FL,33139-1434
Publix,Marco Island,622,622 #0622 #622,1089 N Collier Blvd Ste 401,FL,34145-2555
Publix,Beaufort,623,623 #0623 #623,163 Sea Island Pkwy,SC,29907-1504
Publix,Canton,624,624 #0624 #624,1451 Riverstone Pkwy,GA,30114-5624
Publix,Kissimmee,625,625 #0625 #625,2340 Fortune Rd,FL,34744-3993
Publix,Roswell,626,626 #0626 #626,885 Woodstock Rd Ste 100,GA,30075-2276
Publix,Tampa,627,627 #0627 #627,12139 W Linebaugh Ave,FL,33626-1732
Publix,Tampa,628,628 #0628 #628,243 Bayshore Blvd,FL,33606-2328
Publix,North Miami Beach,629,629 #0629 #629,19955 NW 2nd Ave,FL,33169-2909
Publix,Spring Hill,630,630 #0630 #630,14371 Spring Hill Dr,FL,34609-8199
Publix,Jacksonville,631,631 #0631 #631,4495 Roosevelt Blvd Ste E-1,FL,32210-3375
Publix,Taylors,632,632 #0632 #632,2801 Wade Hampton Blvd Ste 120,SC,29687-2758
Publix,Charleston,633,633 #0633 #633,520 Folly Rd,SC,29412-3019
Publix,Flowery Branch,634,634 #0634 #634,3446 Winder Hwy,GA,30542-3007
Publix,Naples,635,635 #0635 #635,5624 Strand Blvd,FL,34110-1325
Publix,Woodstock,636,636 #0636 #636,12165 Highway 92,GA,30188-4298
Publix,Coconut Creek,637,637 #0637 #637,5365 Lyons Rd,FL,33073-2810
Publix,Jupiter,638,638 #0638 #638,10142 W Indiantown Rd,FL,33478-4707
Publix,Stuart,639,639 #0639 #639,900 NE Ocean Blvd,FL,34996-1519
Publix,Saint Petersburg,640,640 #0640 #640,200 37th Ave N,FL,33704-1416
Publix,Sanford,641,641 #0641 #641,5240 W State Road 46,FL,32771-9230
Publix,New Port Richey,643,643 #0643 #643,5324 Little Rd,FL,34655-1294
Publix,Jacksonville,644,644 #0644 #644,12620 Beach Blvd Ste 12,FL,32246-7130
Publix,Plantation,645,645 #0645 #645,8101 W Sunrise Blvd,FL,33322-5401
Publix,Sandy Springs,646,646 #0646 #646,7525 Roswell Rd,GA,30350-8500
Publix,Sandy Springs,647,647 #0647 #647,1100 Hammond Dr NE Ste 300,GA,30328-8153
Publix,Fort Myers,648,648 #0648 #648,20321 Summerlin Rd,FL,33908-3706
Publix,Jacksonville,649,649 #0649 #649,6001 Argyle Forest Blvd Ste 45,FL,32244-6127
Publix,Columbus,650,650 #0650 #650,7600 Schomburg Rd,GA,31909-1833
Publix,West Palm Beach,651,651 #0651 #651,10130 Northlake Blvd,FL,33412-1101
Publix,Miramar,652,652 #0652 #652,11000 Pembroke Rd,FL,33025-1704
Publix,West Palm Beach,653,653 #0653 #653,8989 Okeechobee Blvd,FL,33411-1826
Publix,Orlando,654,654 #0654 #654,12195 S Orange Blossom Trl,FL,32837-6502
Publix,Doral,655,655 #0655 #655,10755 NW 58th St,FL,33178-2801
Publix,Columbia,656,656 #0656 #656,150 Harbison Blvd,SC,29212-2204
Publix,Miami,657,657 #0657 #657,16800 SW 88th St,FL,33196-5935
Publix,Miami,658,658 #0658 #658,9105 S Dadeland Blvd,FL,33156-7813
Publix,Orlando,659,659 #0659 #659,2015 Edgewater Dr,FL,32804-5311
Publix,Ormond Beach,660,660 #0660 #660,3750 Roscommon Dr,FL,32174-2849
Publix,Orlando,662,662 #0662 #662,1400 E Colonial Dr,FL,32803-4704
Publix,Brandon,663,663 #0663 #663,11255 Causeway Blvd,FL,33511-2903
Publix,Atlanta,664,664 #0664 #664,3535 Peachtree Rd NE,GA,30326-3287
Publix,Decatur,665,665 #0665 #665,3870 N Druid Hills Rd,GA,30033-3002
Publix,Deltona,667,667 #0667 #667,915 Doyle Rd,FL,32725-8254
Publix,Orange Park,668,668 #0668 #668,410 Blanding Blvd,FL,32073-5051
Publix,North Miami Beach,669,669 #0669 #669,1700 NE Miami Gardens Dr,FL,33179-5301
Publix,Powder Springs,670,670 #0670 #670,"3721 New Macland Rd, Ste 300",GA,30127-1966
Publix,Lakeland,671,671 #0671 #671,2125 E County Road 540a,FL,33813-3794
Publix,Marietta,672,672 #0672 #672,1860 Sandy Plains Rd,GA,30066-7833
Publix,Miramar,673,673 #0673 #673,14375 Miramar Pkwy,FL,33027-4134
Publix,Miramar,674,674 #0674 #674,18409 Miramar Pkwy,FL,33029-5802
Publix,Oviedo,675,675 #0675 #675,1801 E Broadway St,FL,32765-8597
Publix,Naples,676,676 #0676 #676,2450 Vanderbilt Beach Rd,FL,34109-0620
Publix,Destin,677,677 #0677 #677,4425 Commons Dr E,FL,32541-3414
Publix,Coral Springs,678,678 #0678 #678,5950 Coral Ridge Dr,FL,33076-3300
Publix,Hollywood,679,679 #0679 #679,6901 Taft St,FL,33024-3801
Publix,Gainesville,680,680 #0680 #680,3100 SW 35th Blvd,FL,32608-2415
Publix,Holmes Beach,681,681 #0681 #681,3900 E Bay Dr,FL,34217-1983
Publix,Jensen Beach,682,682 #0682 #682,4231 NW Federal Hwy,FL,34957-3600
Publix,Fort Myers,683,683 #0683 #683,5997 S Pointe Blvd Ste 106,FL,33919-3272
Publix,Clermont,684,684 #0684 #684,17445 US Highway 192 Ste 11,FL,34714-7016
Publix,Temple Terrace,685,685 #0685 #685,5450 E Busch Blvd,FL,33617-5418
Publix,Jacksonville,686,686 #0686 #686,1100 Dunn Ave Bldg 100,FL,32218-4832
Publix,Spartanburg,687,687 #0687 #687,1905 E Main St,SC,29307-2308
Publix,Saint Petersburg,688,688 #0688 #688,7999 Dr Martin Luther King Jr St N,FL,33702-4107
Publix,Tallahassee,689,689 #0689 #689,2111 Capital Cir NE,FL,32308-4303
Publix,Newberry,690,690 #0690 #690,14130 W Newberry Rd,FL,32669-2759
Publix,Atlanta,691,691 #0691 #691,2162 Henderson Mill Rd NE,GA,30345-3762
Publix,Orlando,692,692 #0692 #692,4402 Curry Ford Rd,FL,32812-2709
Publix,Pompano Beach,693,693 #0693 #693,411 S Cypress Rd,FL,33060-7135
Publix,Canton,694,694 #0694 #694,3760 Sixes Rd Ste 110,GA,30114-8194
Publix,West Melbourne,695,695 #0695 #695,145 Palm Bay Rd NE Ste 117,FL,32904-8601
Publix,Sarasota,696,696 #0696 #696,6543 S Tamiami Trl,FL,34231-4827
Publix,Placida,697,697 #0697 #697,8725 Placida Rd,FL,33946-2429
Publix,Lake Mary,698,698 #0698 #698,601 Weldon Blvd,FL,32746-3866
Publix,North Palm Beach,699,699 #0699 #699,374 Northlake Blvd,FL,33408-5421
Publix,Hilton Head Island,700,700 #0700 #700,11 Palmetto Bay Rd,SC,29928-3293
Publix,North Fort Myers,701,701 #0701 #701,4065 Hancock Bridge Pkwy,FL,33903-4294
Publix,Lakeland,702,702 #0702 #702,2300 Griffin Rd,FL,33810-6760
Publix,Plantation,703,703 #0703 #703,6921 W Broward Blvd,FL,33317-2902
Publix,Melbourne,704,704 #0704 #704,1411 S Babcock St,FL,32901-3024
Publix,Largo,705,705 #0705 #705,857 W Bay Dr,FL,33770-3221
Publix,Buford,706,706 #0706 #706,4840 Golden Pkwy,GA,30518-5843
Publix,Kissimmee,707,707 #0707 #707,1910 N John Young Pkwy,FL,34741-3221
Publix,Jacksonville,708,708 #0708 #708,10920 Baymeadows Rd,FL,32256-4570
Publix,Lakewood Ranch,709,709 #0709 #709,8330 Market St,FL,34202-5137
Publix,Leesburg,710,710 #0710 #710,27615 US Highway 27 # U,FL,34748-9396
Publix,Canton,711,711 #0711 #711,6175 Hickory Flat Hwy Ste 140,GA,30115-7210
Publix,Riverview,712,712 #0712 #712,11667 Boyette Rd,FL,33569-5531
Publix,Jacksonville,713,713 #0713 #713,4765 Hodges Blvd,FL,32224-5280
Publix,Miami,714,714 #0714 #714,4870 Biscayne Blvd,FL,33137-3215
Publix,Fort Lauderdale,715,715 #0715 #715,3102 Griffin Rd,FL,33312-6286
Publix,Saint Johns,716,716 #0716 #716,450 State Road 13 Ste 109,FL,32259-3861
Publix,Gainesville,717,717 #0717 #717,1236 Thompson Bridge Rd,GA,30501-1708
Publix,Atlanta,718,718 #0718 #718,4279 Roswell Rd Ste 300,GA,30342-3769
Publix,Atlanta,719,719 #0719 #719,2365 Peachtree Rd NE,GA,30305-4147
Publix,Atlanta,720,720 #0720 #720,1250 W Paces Ferry Rd NW,GA,30327-2306
Publix,Alpharetta,721,721 #0721 #721,4305 State Bridge Rd,GA,30022-4471
Publix,Norcross,722,722 #0722 #722,7736 Spalding Dr,GA,30092-4207
Publix,Decatur,723,723 #0723 #723,2155 N Decatur Rd,GA,30033-5307
Publix,Atlanta,724,724 #0724 #724,1001 Ponce De Leon Ave NE,GA,30306-4215
Publix,Marietta,725,725 #0725 #725,2900 Delk Rd SE Ste 1150,GA,30067-5320
Publix,Duluth,726,726 #0726 #726,3870 Peachtree Industrial Blvd,GA,30096-1422
Publix,Palatka,727,727 #0727 #727,171 Town and Country Dr,FL,32177-3962
Publix,Lighthouse Point,728,728 #0728 #728,2450 N Federal Hwy,FL,33064-6854
Publix,Lithia Springs,730,730 #0730 #730,2675 Lee Rd,GA,30122-3356
Publix,Jacksonville,731,731 #0731 #731,5210 Norwood Ave,FL,32208-5036
Publix,Sun City Center,732,732 #0732 #732,4854 Sun City Center Blvd,FL,33573-6281
Publix,Ocala,733,733 #0733 #733,7578 SE Maricamp Rd Ste 100,FL,34472-4279
Publix,Venice,734,734 #0734 #734,1445 E Venice Ave,FL,34292-3064
Publix,Gainesville,735,735 #0735 #735,9200 NW 39th Ave,FL,32606-7331
Publix,Middleburg,736,736 #0736 #736,2640 Blanding Blvd,FL,32068-9107
Publix,Englewood,737,737 #0737 #737,55 N Indiana Ave,FL,34223-2944
Publix,Melbourne,738,738 #0738 #738,4100 N Wickham Rd Ste 109,FL,32935-2487
Publix,Delray Beach,739,739 #0739 #739,555 NE 5th Ave,FL,33483-5634
Publix,Fort Myers Beach,740,740 #0740 #740,4791 Estero Blvd,FL,33931-3923
Publix,Orlando,741,741 #0741 #741,7640 W Sand Lake Rd,FL,32819-5112
Publix,Altamonte Springs,742,742 #0742 #742,482 E Altamonte Dr Ste 1005,FL,32701-4604
Publix,Fort Lauderdale,743,743 #0743 #743,19441 Sheridan St,FL,33332-1653
Publix,Covington,744,744 #0744 #744,13015 Brown Bridge Rd,GA,30016-9111
Publix,Madison,745,745 #0745 #745,7830 Highway 72 W,AL,35758-9500
Publix,Bradenton,746,746 #0746 #746,5001 E State Road 64,FL,34208-5531
Publix,Plantation,747,747 #0747 #747,225 S Flamingo Rd,FL,33325-2817
Publix,Pompano Beach,748,748 #0748 #748,1140 SW 36th Ave,FL,33069-4835
Publix,Stuart,749,749 #0749 #749,746 SW Federal Hwy,FL,34994-2937
Publix,Oakland Park,750,750 #0750 #750,1003 E Commercial Blvd,FL,33334-3957
Publix,Seminole,751,751 #0751 #751,9201 Oakhurst Rd,FL,33776-2158
Publix,Lithonia,752,752 #0752 #752,3045 Panola Rd,GA,30038-2317
Publix,Smyrna,753,753 #0753 #753,4480 S Cobb Dr SE,GA,30080-6990
Publix,Tampa,754,754 #0754 #754,7835 Gunn Hwy,FL,33626-1611
Publix,Port Charlotte,755,755 #0755 #755,4265 Tamiami Trl,FL,33980-2152
Publix,Jupiter,756,756 #0756 #756,5500 Military Trl Ste 25,FL,33458-2865
Publix,Merritt Island,757,757 #0757 #757,125 E Merritt Island Cswy,FL,32952-3699
Publix,Poinciana,758,758 #0758 #758,841 Cypress Pkwy,FL,34759-3408
Publix,Weston,759,759 #0759 #759,1601 Promenade Blvd,FL,33326-3652
Publix,Cocoa,760,760 #0760 #760,2301 State Road 524 Ste 150,FL,32926-5822
Publix,Ocoee,761,761 #0761 #761,1720 E Silver Star Rd,FL,34761-7014
Publix,Alpharetta,762,762 #0762 #762,13800 Highway 9 N Ste E,GA,30004-4590
Publix,Clermont,763,763 #0763 #763,4351 S Highway 27,FL,34711-5349
Publix,Kennesaw,764,764 #0764 #764,4290 Bells Ferry Rd NW,GA,30144-7140
Publix,Dunwoody,765,765 #0765 #765,5550 Chamblee Dunwoody Rd,GA,30338-4111
Publix,Fort Walton Beach,766,766 #0766 #766,251 Miracle Strip Pkwy SE,FL,32548-5853
Publix,Port Richey,767,767 #0767 #767,7037 Ridge Rd,FL,34668-6849
Publix,South Daytona,768,768 #0768 #768,2400 S Ridgewood Ave,FL,32119-3097
Publix,Kennesaw,769,769 #0769 #769,1635 Old Highway 41 NW,GA,30152-4480
Publix,Champions Gate,770,770 #0770 #770,8301 Champions Gate Blvd,FL,33896-8389
Publix,Sebastian,772,772 #0772 #772,9621 N US Highway 1,FL,32958-6363
Publix,Atlanta,773,773 #0773 #773,2969 N Druid Hills Rd NE,GA,30329-3909
Publix,Wilton Manors,774,774 #0774 #774,2633 N Dixie Hwy,FL,33334-3724
Publix,Fort Myers,775,775 #0775 #775,15880 Summerlin Rd,FL,33908-9612
Publix,Atlanta,776,776 #0776 #776,595 Piedmont Ave NE,GA,30308-2478
Publix,Sunrise,777,777 #0777 #777,9300 W Commercial Blvd,FL,33351-4302
Publix,Port Charlotte,778,778 #0778 #778,13435 S McCall Rd,FL,33981-6422
Publix,Palm Bay,779,779 #0779 #779,3450 Bayside Lakes Blvd SE,FL,32909-6815
Publix,Bradenton,780,780 #0780 #780,3913 Manatee Ave W,FL,34205-1715
Publix,Naples,781,781 #0781 #781,15265 Collier Blvd,FL,34119-7715
Publix,Tallahassee,782,782 #0782 #782,800 Ocala Rd,FL,32304-1669
Publix,Atlanta,783,783 #0783 #783,2235 Glenwood Ave SE,GA,30316-2307
Publix,Rockledge,784,784 #0784 #784,3820 Murrell Rd,FL,32955-4741
Publix,Boca Raton,785,785 #0785 #785,4141 N Federal Hwy,FL,33431-4528
Publix,Newnan,786,786 #0786 #786,100 Glenda Trce,GA,30265-3863
Publix,Tamarac,787,787 #0787 #787,4121 W Commercial Blvd,FL,33319-3303
Publix,Dania Beach,788,788 #0788 #788,402 E Dania Beach Blvd,FL,33004-3040
Publix,Loganville,789,789 #0789 #789,2715 Loganville Hwy SW,GA,30052-6660
Publix,Mulberry,791,791 #0791 #791,2040 Shepherd Rd,FL,33860-8699
Publix,North Port,792,792 #0792 #792,1291 S Sumter Blvd,FL,34287-2337
Publix,Plant City,793,793 #0793 #793,2515 Thonotosassa Rd,FL,33563-1464
Publix,Miami Shores,794,794 #0794 #794,9050 Biscayne Blvd,FL,33138-3222
Publix,Gainesville,795,795 #0795 #795,1302 N Main St,FL,32601-2346
Publix,Winter Springs,796,796 #0796 #796,5655 Red Bug Lake Rd,FL,32708-5013
Publix,Crystal River,797,797 #0797 #797,6760 W Gulf To Lake Hwy,FL,34429-9348
Publix,Bradenton,798,798 #0798 #798,1755 Lakewood Ranch Blvd,FL,34211-4906
Publix,Peachtree City,799,799 #0799 #799,1200 Highway 74 S Ste 20,GA,30269-3071
Publix,Atlanta,800,800 #0800 #800,2562 Shallowford Rd NE,GA,30345-1202
Publix,Crestview,801,801 #0801 #801,2250 S Ferdon Blvd,FL,32536-8457
Publix,Venice,802,802 #0802 #802,535 Tamiami Trl S,FL,34285-2927
Publix,Dacula,803,803 #0803 #803,720 Dacula Rd,GA,30019-7055
Publix,Decatur,804,804 #0804 #804,2075 S Hairston Rd,GA,30035-2504
Publix,Coconut Creek,805,805 #0805 #805,4849 Coconut Creek Pkwy,FL,33063-3944
Publix,Lakeland,806,806 #0806 #806,2175 E County Road 540a,FL,33813-3794
Publix,Winter Haven,807,807 #0807 #807,1108 Spirit Lake Rd,FL,33880-1257
Publix,Poinciana,808,808 #0808 #808,801 Cypress Pkwy,FL,34759-3408
Publix,Deltona,809,809 #0809 #809,2196 Howland Blvd,FL,32738-3457
Publix,New Port Richey,810,810 #0810 #810,11400 Ridge Rd,FL,34654-5310
Publix,Naples,811,811 #0811 #811,8585 Collier Blvd,FL,34114-3548
Publix,Orlando,812,812 #0812 #812,8145 Vineland Ave,FL,32821-6847
Publix,Spring Hill,813,813 #0813 #813,4158 Mariner Blvd,FL,34609-2468
Publix,Daytona Beach,814,814 #0814 #814,2595 N Atlantic Ave,FL,32118-3203
Publix,Leesburg,815,815 #0815 #815,717 N 14th St,FL,34748-4205
Publix,McDonough,816,816 #0816 #816,920 Highway 81 E,GA,30252-2978
Publix,Lantana,817,817 #0817 #817,1589 Lantana Rd,FL,33462-1537
Publix,Boynton Beach,818,818 #0818 #818,8340 S Jog Rd,FL,33472-6904
Publix,Port Saint Lucie,819,819 #0819 #819,5473 NW Saint James Dr,FL,34983-3444
Publix,Hollywood,820,820 #0820 #820,9359 Sheridan St,FL,33024-8560
Publix,West Palm Beach,821,821 #0821 #821,4075 Haverhill Rd N,FL,33417-8115
Publix,North Lauderdale,822,822 #0822 #822,8140 W McNab Rd,FL,33068-4138
Publix,Lynn Haven,823,823 #0823 #823,2310 S Highway 77,FL,32444-4616
Publix,North Charleston,824,824 #0824 #824,8409 Dorchester Rd Ste 104,SC,29420-7324
Publix,Roswell,825,825 #0825 #825,4750 Alabama Rd NE Ste 107,GA,30075-1680
Publix,Cape Coral,826,826 #0826 #826,1631 Del Prado Blvd S,FL,33990-6739
Publix,Holly Hill,827,827 #0827 #827,1850 Ridgewood Ave,FL,32117-1738
Publix,Sarasota,828,828 #0828 #828,2875 University Pkwy,FL,34243-4201
Publix,Columbia,829,829 #0829 #829,4611 Hard Scrabble Rd,SC,29229-8584
Publix,Orlando,830,830 #0830 #830,4501 Hoffner Ave,FL,32812-2305
Publix,Lutz,831,831 #0831 #831,19221 N Dale Mabry Hwy,FL,33548-5067
Publix,Hialeah,832,832 #0832 #832,1585 W 49th St,FL,33012-2924
Publix,Lake Mary,833,833 #0833 #833,825 Rinehart Rd,FL,32746-4867
Publix,Lutz,834,834 #0834 #834,16560 N Nebraska Ave,FL,33549-6172
Publix,Miami,835,835 #0835 #835,12100 SW 127th Ave,FL,33186-4663
Publix,Winter Haven,836,836 #0836 #836,1395 6th St NW,FL,33881-2364
Publix,Davie,837,837 #0837 #837,6525 Nova Dr,FL,33317-7401
Publix,Birmingham,838,838 #0838 #838,5188 Caldwell Mill Rd,AL,35244-1915
Publix,Hoover,839,839 #0839 #839,2543 John Hawkins Pkwy,AL,35244-3533
Publix,Tampa,840,840 #0840 #840,10015 N Dale Mabry Hwy,FL,33618-4409
Publix,Birmingham,841,841 #0841 #841,1944 Montgomery Hwy S,AL,35244-1141
Publix,Vestavia Hills,842,842 #0842 #842,784 Montgomery Hwy,AL,35216-1800
Publix,Bonita Springs,843,843 #0843 #843,12900 Trade Way Four,FL,34135-6983
Publix,Flowery Branch,844,844 #0844 #844,5900 Spout Springs Rd,GA,30542-6448
Publix,Bluffton,845,845 #0845 #845,80 Baylor Dr,SC,29910-8902
Publix,Daniel Island,846,846 #0846 #846,162 Seven Farms Dr Ste 100,SC,29492-8024
Publix,Estero,847,847 #0847 #847,20311 Grande Oak Shoppes Blvd,FL,33928-7662
Publix,West Palm Beach,848,848 #0848 #848,375 S Rosemary Ave,FL,33401-5747
Publix,Jacksonville,849,849 #0849 #849,2033 Riverside Ave,FL,32204-4442
Publix,Fort Lauderdale,850,850 #0850 #850,601 S Andrews Ave,FL,33301-2833
Publix,Loxahatchee,851,851 #0851 #851,7050 Seminole Pratt Whitney Rd,FL,33470-3474
Publix,Tallahassee,852,852 #0852 #852,1700 N Monroe St,FL,32303-5535
Publix,Greensboro,853,853 #0853 #853,6350 Lake Oconee Pkwy Ste 106,GA,30642-6434
Publix,Cape Coral,854,854 #0854 #854,2420 Santa Barbara Blvd,FL,33914-4485
Publix,Port Saint Lucie,855,855 #0855 #855,7576 S US Highway 1,FL,34952-1450
Publix,Ocala,856,856 #0856 #856,5400 SW College Rd Ste 200,FL,34474-5757
Publix,Tallahassee,857,857 #0857 #857,6615 Mahan Dr,FL,32308-1400
Publix,Lawrenceville,859,859 #0859 #859,3370 Sugarloaf Pkwy,GA,30044-5478
Publix,Deerfield Beach,861,861 #0861 #861,150 S Federal Hwy,FL,33441-4128
Publix,Eustis,862,862 #0862 #862,2840 David Walker Dr,FL,32726-6172
Publix,Lawrenceville,863,863 #0863 #863,1030 Old Peachtree Rd NW,GA,30043-3308
Publix,Fort Myers,864,864 #0864 #864,13650 Fiddlesticks Blvd,FL,33912-0312
Publix,Longwood,865,865 #0865 #865,3883 Wekiva Springs Rd,FL,32779-3362
Publix,Clearwater,866,866 #0866 #866,1555 S Highland Ave,FL,33756-2374
Publix,Clearwater,867,867 #0867 #867,619 S Fort Harrison Ave,FL,33756-5301
Publix,Davie,871,871 #0871 #871,5997 Stirling Rd,FL,33314-7225
Publix,Coconut Creek,872,872 #0872 #872,4760 W Hillsboro Blvd,FL,33073-4339
Publix,Trinity,873,873 #0873 #873,3100 Little Rd,FL,34655-1864
Publix,Greenville,874,874 #0874 #874,215 Pelham Rd,SC,29615-2546
Publix,Tampa,876,876 #0876 #876,10928 Cross Creek Blvd,FL,33647-4034
Publix,Land O Lakes,877,877 #0877 #877,2121 Collier Pkwy,FL,34639-5286
Publix,Valrico,878,878 #0878 #878,3461 Lithia Pinecrest Rd,FL,33596-6302
Publix,Davenport,879,879 #0879 #879,2424 Sand Mine Rd,FL,33897-3400
Publix,Woodstock,880,880 #0880 #880,6236 Holly Springs Pkwy,GA,30188
Publix,Winter Garden,881,881 #0881 #881,13750 W Colonial Dr,FL,34787-4204
Publix,Birmingham,882,882 #0882 #882,410 Doug Baker Blvd,AL,35242-2682
Publix,Columbia,883,883 #0883 #883,2732 N Lake Dr,SC,29212-8733
Publix,Jacksonville,884,884 #0884 #884,4320 Deerwood Lake Pkwy,FL,32216-1177
Publix,Sandestin,885,885 #0885 #885,725 Grand Blvd,FL,32550-7873
Publix,Orlando,886,886 #0886 #886,10615 Narcoossee Rd,FL,32832-6904
Publix,Tallahassee,887,887 #0887 #887,3551 Blairstone Rd,FL,32301-8826
Publix,Miami,889,889 #0889 #889,15755 SW 56th St,FL,33185-3879
Publix,Riverview,890,890 #0890 #890,11109 Winthrop Market St,FL,33578-4252
Publix,Palm Harbor,891,891 #0891 #891,30535 US Highway 19 N,FL,34684-4415
Publix,Tyrone,892,892 #0892 #892,1512 Highway 74 N,GA,30290-1663
Publix,Merritt Island,893,893 #0893 #893,1850 N Courtenay Pkwy,FL,32953-2629
Publix,West Palm Beach,894,894 #0894 #894,6820 Okeechobee Blvd,FL,33411-2510
Publix,Greenacres,895,895 #0895 #895,4849 S Military Trl,FL,33463-5310
Publix,Navarre,896,896 #0896 #896,8244 Navarre Pkwy,FL,32566-6943
Publix,Orlando,897,897 #0897 #897,16825 E Colonial Dr,FL,32820-1910
Publix,Vero Beach,898,898 #0898 #898,4145 9th St SW,FL,32968-4804
Publix,North Miami,1003,1003 #01003 #1003,12855 NE 6th Ave,FL,33161-4714
Publix,Bradenton,1004,1004 #01004 #1004,7310 Manatee Ave W,FL,34209-3441
Publix,Panama City Beach,1005,1005 #01005 #1005,23026 Panama City Beach Pkwy,FL,32413-1107
Publix,Palm Beach Gardens,1006,1006 #01006 #1006,6251 P G A Blvd,FL,33418-4000
Publix,Cape Coral,1007,1007 #01007 #1007,3015 SW Pine Island Rd,FL,33991-1703
Publix,Kathleen,1008,1008 #01008 #1008,1114 Ga Highway 96,GA,31047-2111
Publix,Miami,1009,1009 #01009 #1009,911 SW 1st Ave,FL,33130
Publix,Atlanta,1010,1010 #01010 #1010,1380 Atlantic Dr NW Ste 14135,GA,30363-1144
Publix,Palm Harbor,1011,1011 #01011 #1011,2886 Alternate US 19,FL,34683
Publix,Mauldin,1012,1012 #01012 #1012,111 W Butler Rd,SC,29662-2534
Publix,Port Charlotte,1013,1013 #01013 #1013,19451 Cochran Blvd Unit 2000,FL,33948-2008
Publix,Palm City,1014,1014 #01014 #1014,1395 SW Martin Hwy,FL,34990-3373
Publix,Orlando,1015,1015 #01015 #1015,6485 S Chickasaw Trl,FL,32829-8366
Publix,Smyrna,1016,1016 #01016 #1016,661 President Pl,TN,37167-5671
Publix,North Miami,1017,1017 #01017 #1017,14641 Biscayne Blvd,FL,33181-1211
Publix,Delray Beach,1018,1018 #01018 #1018,16130 Jog Rd,FL,33446-2319
Publix,Alpharetta,1019,1019 #01019 #1019,270 Rucker Rd,GA,30004-4045
Publix,New Port Richey,1020,1020 #01020 #1020,5127 US Highway 19,FL,34652-3966
Publix,Brentwood,1021,1021 #01021 #1021,101 Creekside Xing,TN,37027-1062
Publix,Jacksonville,1022,1022 #01022 #1022,11406 San Jose Blvd,FL,32223-7963
Publix,Sarasota,1023,1023 #01023 #1023,1044 N Tamiami Trl,FL,34236-2428
Publix,Montgomery,1024,1024 #01024 #1024,7076 Atlanta Hwy,AL,36117-4242
Publix,Montgomery,1025,1025 #01025 #1025,4045 Atlanta Hwy,AL,36109-2920
Publix,Montgomery,1026,1026 #01026 #1026,7700 Vaughn Rd,AL,36116-1337
Publix,Montgomery,1027,1027 #01027 #1027,3026 Zelda Rd,AL,36106-2700
Publix,Ponte Vedra,1028,1028 #01028 #1028,3777 Palm Valley Rd,FL,32082-4115
Publix,Homestead,1029,1029 #01029 #1029,3060 NE 41st Ter,FL,33033-6619
Publix,Port Saint Lucie,1030,1030 #01030 #1030,10400 SW Village Center Dr,FL,34987-2186
Publix,Franklin,1031,1031 #01031 #1031,1400 Liberty Pike Ste 200,TN,37067-8628
Publix,Riverview,1032,1032 #01032 #1032,13154 US Highway 301 S,FL,33579
Publix,Gallatin,1033,1033 #01033 #1033,1483 Nashville Pike,TN,37066-7144
Publix,Largo,1034,1034 #01034 #1034,10411 Ulmerton Rd,FL,33771-3530
Publix,Sebastian,1035,1035 #01035 #1035,1451 Sebastian Blvd Ste 200,FL,32958-8200
Publix,Pompano Beach,1036,1036 #01036 #1036,1405 S Federal Hwy,FL,33062-7240
Publix,Jacksonville,1037,1037 #01037 #1037,7749 Normandy Blvd,FL,32221-7657
Publix,Gainesville,1038,1038 #01038 #1038,5200 SW 34th St,FL,32608-5010
Publix,Fort Myers,1039,1039 #01039 #1039,11851 Palm Beach Blvd,FL,33905-5912
Publix,Plantation,1040,1040 #01040 #1040,550 N Pine Island Rd,FL,33324-1308
Publix,Boynton Beach,1041,1041 #01041 #1041,1005 Gateway Blvd,FL,33426-8312
Publix,Palm Coast,1042,1042 #01042 #1042,5415 N Oceanshore Blvd,FL,32137-3217
Publix,Roswell,1043,1043 #01043 #1043,1425 Market Blvd Ste 600,GA,30076-6711
Publix,Atlanta,1044,1044 #01044 #1044,2325 Cheshire Bridge Rd NE,GA,30324-3733
Publix,Saint Cloud,1045,1045 #01045 #1045,1951 S Narcoossee Rd,FL,34771-7211
Publix,Royal Palm Beach,1046,1046 #01046 #1046,127 S State Road 7,FL,33414-4338
Publix,Spring Hill,1047,1047 #01047 #1047,4935 Main St,TN,37174-2735
Publix,Orlando,1048,1048 #01048 #1048,1501 Meeting Pl,FL,32814-6602
Publix,Tequesta,1049,1049 #01049 #1049,500 N US Highway 1,FL,33469-2372
Publix,Jupiter,1050,1050 #01050 #1050,123 Honeybell Way,FL,33458-7837
Publix,Tallahassee,1051,1051 #01051 #1051,101 N Blairstone Rd,FL,32301-2877
Publix,Locust Grove,1052,1052 #01052 #1052,2730 Highway 155,GA,30248-2401
Publix,Kissimmee,1053,1053 #01053 #1053,1980 E Osceola Pkwy,FL,34743-8600
Publix,McDonough,1054,1054 #01054 #1054,2158 Highway 20 W,GA,30253-7205
Publix,Mount Pleasant,1055,1055 #01055 #1055,1435 Ben Sawyer Blvd,SC,29464-4574
Publix,Atlanta,1056,1056 #01056 #1056,3730 Carmia Dr SW Ste 200,GA,30331-6259
Publix,Brentwood,1057,1057 #01057 #1057,10638 Concord Rd,TN,37027-8811
Publix,Indian Harbour Beach,1058,1058 #01058 #1058,270 E Eau Gallie Blvd,FL,32937-4874
Publix,Birmingham,1059,1059 #01059 #1059,1325 Montclair Rd,AL,35210-2205
Publix,Alpharetta,1060,1060 #01060 #1060,980 Birmingham Rd Ste 100,GA,30004-4418
Publix,Atlanta,1061,1061 #01061 #1061,950 W Peachtree St NW,GA,30309-3846
Publix,Miami,1062,1062 #01062 #1062,15771 SW 152nd St,FL,33187-5417
Publix,Dallas,1063,1063 #01063 #1063,51 E Paulding Dr,GA,30157-7190
Publix,Canton,1064,1064 #01064 #1064,120 Prominence Point Pkwy,GA,30114-9008
Publix,Hueytown,1065,1065 #01065 #1065,3014 Allison Bonnett Memorial Dr Ste 130,AL,35023-2395
Publix,Jacksonville,1066,1066 #01066 #1066,10500 San Jose Blvd Ste 36,FL,32257-6209
Publix,Boynton Beach,1067,1067 #01067 #1067,12425 Hagen Ranch Rd,FL,33437-4107
Publix,Pembroke Pines,1068,1068 #01068 #1068,15729 Pines Blvd,FL,33027-1206
Publix,Pinson,1069,1069 #01069 #1069,5150 Old Springville Rd,AL,35126-3635
Publix,Maitland,1070,1070 #01070 #1070,242 N Orlando Ave,FL,32751-5506
Publix,Conyers,1071,1071 #01071 #1071,2880 Georgia Highway 212 SW,GA,30094-3349
Publix,Hialeah,1072,1072 #01072 #1072,155 E 2nd Ave,FL,33010-4924
Publix,Alabaster,1073,1073 #01073 #1073,9200 Highway 119 Ste 1400,AL,35007-5344
Publix,Helena,1074,1074 #01074 #1074,4730 Highway 17,AL,35080-3503
Publix,Northport,1075,1075 #01075 #1075,2300 McFarland Blvd,AL,35476-2927
Publix,Haines City,1076,1076 #01076 #1076,617 US Highway 17 92 W,FL,33844-5047
Publix,Kennesaw,1077,1077 #01077 #1077,2090 Baker Rd NW,GA,30144-4600
Publix,Lawrenceville,1078,1078 #01078 #1078,930 New Hope Rd,GA,30045-6407
Publix,Weston,1079,1079 #01079 #1079,4567 Weston Rd,FL,33331-3141
Publix,The Villages,1080,1080 #01080 #1080,3475 Wedgewood Ln,FL,32162-7183
Publix,Mount Pleasant,1081,1081 #01081 #1081,1125 Park West Blvd,SC,29466-6974
Publix,Trussville,1082,1082 #01082 #1082,7272 Gadsden Hwy,AL,35173-1687
Publix,Tuscaloosa,1083,1083 #01083 #1083,1190 University Blvd,AL,35401-1601
Publix,Saint Johns,1084,1084 #01084 #1084,2750 Race Track Rd,FL,32259-3227
Publix,Mountain Brk,1085,1085 #01085 #1085,3141 Overton Rd,AL,35223-2846
Publix,Phenix City,1086,1086 #01086 #1086,5408 Summerville Rd Ste 200,AL,36867-7481
Publix,Fayetteville,1087,1087 #01087 #1087,840 Glynn St S,GA,30214-2031
Publix,Tampa,1088,1088 #01088 #1088,8975 Race Track Rd,FL,33635-9724
Publix,Alpharetta,1089,1089 #01089 #1089,5180 McGinnis Ferry Rd,GA,30005-1792
Publix,Miami,1090,1090 #01090 #1090,5715 NW 7th St,FL,33126-3105
Publix,Suwanee,1091,1091 #01091 #1091,7780 McGinnis Ferry Rd,GA,30024-1622
Publix,Orlando,1092,1092 #01092 #1092,3400 Avalon Park East Blvd,FL,32828-7362
Publix,Stuart,1093,1093 #01093 #1093,6550 S Kanner Hwy,FL,34997-6396
Publix,Fort Lauderdale,1094,1094 #01094 #1094,1415 E Sunrise Blvd,FL,33304-2324
Publix,Columbia,1095,1095 #01095 #1095,501 Gervais St,SC,29201-3045
Publix,Acworth,1096,1096 #01096 #1096,6110 Cedarcrest Rd NW,GA,30101-9539
Publix,Fort Lauderdale,1097,1097 #01097 #1097,1940 Cordova Rd,FL,33316-2156
Publix,Cocoa Beach,1098,1098 #01098 #1098,5645 N Atlantic Ave,FL,32931-3919
Publix,Saint Johns,1099,1099 #01099 #1099,2845 County Road 210 W,FL,32259-2016
Publix,Orlando,1101,1101 #01101 #1101,13850 Landstar Blvd,FL,32824-5526
Publix,Fort Pierce,1102,1102 #01102 #1102,1851 N US Highway 1,FL,34946-1406
Publix,Auburndale,1103,1103 #01103 #1103,606 Havendale Blvd,FL,33823-4687
Publix,West Palm Beach,1104,1104 #01104 #1104,926 S Military Trl,FL,33415-3910
Publix,Jacksonville,1105,1105 #01105 #1105,13820 Old Saint Augustine Rd,FL,32258-2448
Publix,Windermere,1106,1106 #01106 #1106,13450 Summerport Village Pkwy,FL,34786-7366
Publix,Wellington,1107,1107 #01107 #1107,11950 W Forest Hill Blvd,FL,33414-6248
Publix,Miami,1108,1108 #01108 #1108,20201 SW 127th Ave,FL,33177-5119
Publix,Lauderhill,1109,1109 #01109 #1109,5855 W Oakland Park Blvd Ste 203,FL,33313-1321
Publix,Gainesville,1110,1110 #01110 #1110,879 Dawsonville Hwy,GA,30501-2616
Publix,Gainesville,1111,1111 #01111 #1111,2755 SW 91st St,FL,32608-2749
Publix,Mableton,1112,1112 #01112 #1112,1025 Veterans Memorial Hwy SE Ste 400,GA,30126-7709
Publix,Apollo Beach,1113,1113 #01113 #1113,6434 US Highway 41 N,FL,33572-1804
Publix,Coral Springs,1114,1114 #01114 #1114,11600 W Sample Rd,FL,33065-2650
Publix,Orange Park,1115,1115 #01115 #1115,950 Blanding Blvd,FL,32065-5910
Publix,Nashville,1116,1116 #01116 #1116,15544 Old Hickory Blvd,TN,37211-7329
Publix,Clearwater,1117,1117 #01117 #1117,2514 N McMullen Booth Rd,FL,33761-4150
Publix,Conyers,1118,1118 #01118 #1118,1591 Georgia Highway 20 NE,GA,30012-3834
Publix,Atlanta,1119,1119 #01119 #1119,2020 Howell Mill Rd NW Ste A,GA,30318-1732
Publix,Summerville,1120,1120 #01120 #1120,1585 Central Ave Unit A,SC,29483-5587
Publix,Coral Springs,1121,1121 #01121 #1121,6270 W Sample Rd,FL,33067-3176
Publix,Orlando,1122,1122 #01122 #1122,409 S Chickasaw Trl,FL,32825-7803
Publix,Deltona,1123,1123 #01123 #1123,605 Courtland Blvd,FL,32738-8913
Publix,Fort Lauderdale,1124,1124 #01124 #1124,3500 Davie Blvd,FL,33312-3438
Publix,Jacksonville,1125,1125 #01125 #1125,4413 Town Center Pkwy Ste 100,FL,32246-8570
Publix,Huntsville,1126,1126 #01126 #1126,2246 Winchester Rd NE,AL,35811-6800
Publix,Lake Mary,1127,1127 #01127 #1127,4195 W Lake Mary Blvd,FL,32746-2410
Publix,Port Saint Lucie,1128,1128 #01128 #1128,788 SE Becker Rd,FL,34984-6621
Publix,Miami Lakes,1129,1129 #01129 #1129,15000 Miami Lakes Dr E,FL,33014-2700
Publix,Cumming,1130,1130 #01130 #1130,5475 Bethelview Rd,GA,30040-9731
Publix,Orlando,1131,1131 #01131 #1131,400 E Central Blvd,FL,32801-1923
Publix,Brooksville,1132,1132 #01132 #1132,19390 Cortez Blvd,FL,34601-3041
Publix,Nashville,1133,1133 #01133 #1133,8028 Highway 100,TN,37221-4212
Publix,Lithia,1135,1135 #01135 #1135,5642 FishHawk Crossing Blvd,FL,33547-5900
Publix,Homestead,1136,1136 #01136 #1136,2950 NE 8th St,FL,33033-5694
Publix,Parkland,1137,1137 #01137 #1137,8095 N University Dr,FL,33067-2602
Publix,Palm Coast,1138,1138 #01138 #1138,800 Belle Terre Pkwy,FL,32164-2314
Publix,Douglasville,1139,1139 #01139 #1139,4300 Chapel Hill Rd,GA,30135-4200
Publix,Jacksonville Beach,1140,1140 #01140 #1140,408 Beach Blvd Ste 100,FL,32250-5482
Publix,Goodlettsville,1141,1141 #01141 #1141,460 Long Hollow Pike,TN,37072-3480
Publix,Land O Lakes,1142,1142 #01142 #1142,7830 Land O Lakes Blvd,FL,34638-5701
Publix,Newnan,1143,1143 #01143 #1143,1111 Lower Fayetteville Rd,GA,30265-6501
Publix,Lake Worth,1144,1144 #01144 #1144,5970 S Jog Rd,FL,33467-6590
Publix,Johns Island,1145,1145 #01145 #1145,3642 Savannah Hwy Ste 132,SC,29455-7948
Publix,Athens,1146,1146 #01146 #1146,1860 Barnett Shoals Rd,GA,30605-6811
Publix,Cape Coral,1147,1147 #01147 #1147,2481 Del Prado Blvd N,FL,33909-4002
Publix,Greenville,1148,1148 #01148 #1148,400 E McBee Ave Ste 100,SC,29601-2940
Publix,Treasure Island,1149,1149 #01149 #1149,111 104th Ave,FL,33706-4804
Publix,Vero Beach,1150,1150 #01150 #1150,415 21st St,FL,32960-5455
Publix,Miami,1151,1151 #01151 #1151,8680 SW 24th St,FL,33155-2338
Publix,Parrish,1152,1152 #01152 #1152,11245 US Highway 301 N,FL,34219-8675
Publix,Bradenton,1153,1153 #01153 #1153,11205 E State Road 70,FL,34202-9404
Publix,Richmond Hill,1154,1154 #01154 #1154,12800 Highway 144,GA,31324-7343
Publix,The Villages,1155,1155 #01155 #1155,327 Colony Blvd,FL,32162-6084
Publix,Fort Myers,1156,1156 #01156 #1156,2160 McGregor Blvd,FL,33901-3417
Publix,Palm Beach Gardens,1157,1157 #01157 #1157,11231 Legacy Ave,FL,33410-3642
Publix,Winter Garden,1158,1158 #01158 #1158,15502 Stoneybrook West Pkwy Ste 100,FL,34787-4767
Publix,Boca Raton,1159,1159 #01159 #1159,21230 Saint Andrews Blvd,FL,33433-2435
Publix,Clearwater,1160,1160 #01160 #1160,525 S Belcher Rd,FL,33764-6321
Publix,Murfreesboro,1163,1163 #01163 #1163,1731 S Rutherford Blvd Ste S,TN,37130-5957
Publix,Murfreesboro,1164,1164 #01164 #1164,3415 Memorial Blvd,TN,37129-3640
Publix,Chattanooga,1165,1165 #01165 #1165,8644 E Brainerd Rd,TN,37421-8325
Publix,Hixson,1166,1166 #01166 #1166,5928 Hixson Pike Ste 112,TN,37343-4839
Publix,Davenport,1167,1167 #01167 #1167,39883 Highway 27,FL,33837-7802
Publix,Groveland,1168,1168 #01168 #1168,7975 State Road 50,FL,34736-9381
Publix,Orange Park,1169,1169 #01169 #1169,1075 Oakleaf Plantation Pkwy Ste 200,FL,32065-3627
Publix,Tampa,1170,1170 #01170 #1170,5371 Ehrlich Rd,FL,33625-5508
Publix,Lakeland,1171,1171 #01171 #1171,5185 US Highway 98 S,FL,33812
Publix,Murfreesboro,1172,1172 #01172 #1172,4175 Franklin Rd,TN,37128-4119
Publix,Panama City,1173,1173 #01173 #1173,2419 Thomas Dr,FL,32408-5808
Publix,Ocoee,1174,1174 #01174 #1174,301 West Rd,FL,34761-5300
Publix,Lebanon,1175,1175 #01175 #1175,1703 W Main St,TN,37087-3193
Publix,Jacksonville,1176,1176 #01176 #1176,2875 University Blvd W,FL,32217-2116
Publix,Jacksonville,1177,1177 #01177 #1177,7117 Merrill Rd,FL,32277-2620
Publix,Dacula,1178,1178 #01178 #1178,831 Auburn Rd,GA,30019-5434
Publix,Kissimmee,1179,1179 #01179 #1179,3343 S Orange Blossom Trl,FL,34746-6565
Publix,North Port,1180,1180 #01180 #1180,1251 S Toledo Blade Blvd,FL,34288-2410
Publix,Kissimmee,1181,1181 #01181 #1181,3839 Pleasant Hill Rd,FL,34746-2952
Publix,Tampa,1182,1182 #01182 #1182,2401 W Azeele St,FL,33609
Publix,Fairburn,1183,1183 #01183 #1183,5370 Campbellton Fairburn Rd,GA,30213-2296
Publix,Dallas,1184,1184 #01184 #1184,80 Seven Hills Blvd,GA,30132-0574
Publix,Madison,1185,1185 #01185 #1185,12070 County Line Rd Ste C,AL,35756-2000
Publix,Savannah,1186,1186 #01186 #1186,11701 Abercorn St,GA,31419-1905
Publix,Deltona,1187,1187 #01187 #1187,2783 Elkcam Blvd,FL,32738-3427
Publix,Hoschton,1188,1188 #01188 #1188,6055 Highway 124 W,GA,30548-5534
Publix,Gulf Breeze,1189,1189 #01189 #1189,852 Gulf Breeze Pkwy,FL,32561-4723
Publix,Meridianville,1190,1190 #01190 #1190,12290 Highway 231/431 North,AL,35759
Publix,Orlando,1191,1191 #01191 #1191,9930 Universal Blvd,FL,32819-8702
Publix,Lake City,1192,1192 #01192 #1192,255 NW Commons Loop,FL,32055-7700
Publix,Homosassa,1193,1193 #01193 #1193,9525 S Suncoast Blvd,FL,34446-5034
Publix,Kissimmee,1194,1194 #01194 #1194,3040 Dyer Blvd,FL,34741-7839
Publix,Davenport,1195,1195 #01195 #1195,7800 Lake Wilson Rd,FL,33896-9605
Publix,Zephyrhills,1196,1196 #01196 #1196,32765 Eiland Blvd,FL,33545-5268
Publix,Weeki Wachee,1198,1198 #01198 #1198,9595 Commercial Way,FL,34613-3930
Publix,Saint Petersburg,1199,1199 #01199 #1199,1600 66th St N,FL,33710-5535
Publix,Bessemer,1200,1200 #01200 #1200,4965 Promenade Pkwy,AL,35022-7304
Publix,Ocala,1201,1201 #01201 #1201,8075 SW Highway 200 Unit 111,FL,34481-7823
Publix,Pelham,1202,1202 #01202 #1202,365 Huntley Pkwy,AL,35124-6164
Publix,Athens,1203,1203 #01203 #1203,22031 US Highway 72,AL,35613-2614
Publix,Winter Haven,1204,1204 #01204 #1204,884 Cypress Gardens Blvd,FL,33880-4726
Publix,Bluffton,1205,1205 #01205 #1205,101 Buckwalter Place Blvd,SC,29910-5155
Publix,Hoover,1207,1207 #01207 #1207,1584 Montgomery Hwy,AL,35216-4524
Publix,Naples,1208,1208 #01208 #1208,12975 Collier Blvd Ste 200,FL,34116-4004
Publix,Miami Beach,1209,1209 #01209 #1209,1100 6th St,FL,33139-6312
Publix,Fleming Island,1210,1210 #01210 #1210,865 Hibernia Rd Ste 200,FL,32003-8707
Publix,Nashville,1211,1211 #01211 #1211,4324 Harding Pike,TN,37205-2202
Publix,Plant City,1212,1212 #01212 #1212,2202 Jim Redman Pkwy,FL,33563-7107
Publix,Orange Beach,1213,1213 #01213 #1213,25771 Perdido Beach Blvd,AL,36561-6107
Publix,Satellite Beach,1214,1214 #01214 #1214,1024 Highway A1A Ste 120,FL,32937-2300
Publix,Venice,1215,1215 #01215 #1215,345 Jacaranda Blvd,FL,34292-2450
Publix,Saint Cloud,1216,1216 #01216 #1216,3372 Canoe Creek Rd,FL,34772-6536
Publix,Dallas,1217,1217 #01217 #1217,7953 Villa Rica Hwy,GA,30157-8619
Publix,Harvest,1218,1218 #01218 #1218,5850 Highway 53,AL,35749-4301
Publix,Lutz,1219,1219 #01219 #1219,18901 State Road 54,FL,33558-5268
Publix,Mount Juliet,1220,1220 #01220 #1220,11207 Lebanon Rd,TN,37122-5545
Publix,Boynton Beach,1221,1221 #01221 #1221,8780 Boynton Beach Blvd,FL,33472-4423
Publix,Pace,1225,1225 #01225 #1225,4739 Highway 90,FL,32571-1403
Publix,Suwanee,1227,1227 #01227 #1227,3120 Mathis Airport Pkwy,GA,30024-9128
Publix,Prattville,1228,1228 #01228 #1228,2451 Cobbs Ford Rd,AL,36066-7763
Publix,Saint Augustine,1231,1231 #01231 #1231,55 Ava Way,FL,32084-2904
Publix,Perry,1233,1233 #01233 #1233,275 Perry Pkwy,GA,31069-9275
Publix,Murfreesboro,1234,1234 #01234 #1234,2650 New Salem Hwy,TN,37128-5265
Publix,Antioch,1235,1235 #01235 #1235,3532 Murfreesboro Pike,TN,37013-2210
Publix,Stuart,1237,1237 #01237 #1237,1501 NW Federal Hwy,FL,34994-1039
Publix,Smyrna,1238,1238 #01238 #1238,1640 Lee Victory Pkwy,TN,37167-6529
Publix,Saint Augustine,1239,1239 #01239 #1239,84 Tuscan Way,FL,32092-1831
Publix,Panama City Beach,1241,1241 #01241 #1241,11240 Panama City Beach Pkwy,FL,32407-2449
Publix,Ponte Vedra,1243,1243 #01243 #1243,120 Marketside Ave,FL,32081-0574
Publix,Ooltewah,1244,1244 #01244 #1244,5958 Snow Hill Rd Ste 168,TN,37363-7834
Publix,Zephyrhills,1245,1245 #01245 #1245,7838 Gall Blvd,FL,33541-4302
Publix,Boynton Beach,1246,1246 #01246 #1246,10935 S Jog Rd,FL,33437-3921
Publix,Homestead,1247,1247 #01247 #1247,23300 SW 112th Ave,FL,33032-7173
Publix,Canton,1248,1248 #01248 #1248,15 Laurel Canyon Village Circle Suite 118,GA,30114
Publix,Sandy Springs,1249,1249 #01249 #1249,5630 Roswell Rd,GA,30342-1102
Publix,Bethlehem,1251,1251 #01251 #1251,916 Loganville Hwy Ste 200,GA,30620-2145
Publix,Ave Maria,1252,1252 #01252 #1252,4975 Avila Ave,FL,34142-9562
Publix,Tuscaloosa,1253,1253 #01253 #1253,1101 Southview Ln,AL,35405-6389
Publix,Flagler Beach,1257,1257 #01257 #1257,414 Beach Village Dr,FL,32136-3063
Publix,Santa Rosa Beach,1258,1258 #01258 #1258,2038 US Highway 98 W,FL,32459-5322
Publix,Port Orange,1259,1259 #01259 #1259,3821 S Nova Rd,FL,32127-4950
Publix,Fort Myers,1262,1262 #01262 #1262,16980 Alico Mission Way Ste 403,FL,33908-4851
Publix,Macon,1263,1263 #01263 #1263,5451 Bowman Rd,GA,31210-5783
Publix,Hialeah,1264,1264 #01264 #1264,3251 E 2nd Ave,FL,33013-3285
Publix,Fairhope,1265,1265 #01265 #1265,22530 US Highway 98 Ste 100,AL,36532-6398
Publix,Summerville,1266,1266 #01266 #1266,1724 State Rd,SC,29483-2842
Publix,Sarasota,1267,1267 #01267 #1267,8300 Bee Ridge Rd,FL,34241-6312
Publix,Mount Juliet,1268,1268 #01268 #1268,665 S Mount Juliet Rd,TN,37122-6483
Publix,Mount Dora,1269,1269 #01269 #1269,18955 US Highway 441,FL,32757-6735
Publix,Lakeland,1270,1270 #01270 #1270,2515 S Florida Ave,FL,33803-3858
Publix,Hudson,1271,1271 #01271 #1271,14851 State Road 52,FL,34669-4061
Publix,Miami,1273,1273 #01273 #1273,18280 SW 147th Ave,FL,33187-1813
Publix,Delray Beach,1274,1274 #01274 #1274,9239 W Atlantic Ave,FL,33446-9002
Publix,Mount Dora,1275,1275 #01275 #1275,6551 N Orange Blossom Trl Ste 155,FL,32757-7009
Publix,Valrico,1277,1277 #01277 #1277,1971 E State Road 60,FL,33594-3603
Publix,Saint Augustine,1278,1278 #01278 #1278,955 State Road 16,FL,32084-1857
Publix,Flowery Branch,1279,1279 #01279 #1279,7334 Spout Springs Rd,GA,30542-5543
Publix,Fort Myers,1280,1280 #01280 #1280,7950 Dani Dr Ste 200,FL,33966-8012
Publix,Calera,1281,1281 #01281 #1281,90 Marketplace Cir,AL,35040-8200
Publix,Spring Hill,1282,1282 #01282 #1282,13455 County Line Rd,FL,34609-6600
Publix,Jacksonville,1283,1283 #01283 #1283,5858 Atlantic Blvd,FL,32207-2223
Publix,Port Saint Lucie,1284,1284 #01284 #1284,3253 SW Port St Lucie Blvd,FL,34953-3489
Publix,Casselberry,1285,1285 #01285 #1285,1455 State Road 436 Ste 221,FL,32707-6514
Publix,Evans,1286,1286 #01286 #1286,5119 Washington Rd,GA,30809-6445
Publix,North Port,1287,1287 #01287 #1287,17179 Tamiami Trl,FL,34287-7291
Publix,Coral Gables,1288,1288 #01288 #1288,106 Ponce De Leon Blvd,FL,33135-1034
Publix,Ocala,1289,1289 #01289 #1289,3035 SE Maricamp Rd,FL,34471-6201
Publix,Ormond Beach,1290,1290 #01290 #1290,1258 Ocean Shore Blvd,FL,32176-3620
Publix,Byron,1291,1291 #01291 #1291,6015 Watson Blvd,GA,31008-6650
Publix,Gulf Shores,1292,1292 #01292 #1292,160 Cotton Creek Dr Ste 100,AL,36542-2850
Publix,Auburn,1294,1294 #01294 #1294,2415 Moores Mill Rd,AL,36830-8480
Publix,Oviedo,1295,1295 #01295 #1295,2871 Clayton Crossing Way Ste 1001,FL,32765-3426
Publix,Pensacola,1296,1296 #01296 #1296,13390 Perdido Key Dr,FL,32507-4631
Publix,Fort Lauderdale,1297,1297 #01297 #1297,2501 E Sunrise Blvd,FL,33304-3203
Publix,Nashville,1298,1298 #01298 #1298,6614 Charlotte Pike,TN,37209-4202
Publix,Clearwater,1300,1300 #01300 #1300,1921 N Belcher Rd,FL,33763-4548
Publix,Cooper City,1301,1301 #01301 #1301,10018 Griffin Rd,FL,33328-3301
Publix,Fort Myers,1302,1302 #01302 #1302,13401 Summerlin Rd,FL,33919-6592
Publix,Fort Walton Beach,1303,1303 #01303 #1303,610 Eglin Pkwy NE,FL,32547-2832
Publix,Lake Mary,1304,1304 #01304 #1304,870 Village Oak Ln,FL,32746-4766
Publix,Parrish,1305,1305 #01305 #1305,9005 US Highway 301 N,FL,34219-8673
Publix,Tallahassee,1306,1306 #01306 #1306,3521 Thomasville Rd,FL,32309-7134
Publix,Tampa,1307,1307 #01307 #1307,3838 Britton Plz,FL,33611-1406
Publix,Winter Park,1308,1308 #01308 #1308,440 N Orlando Ave,FL,32789-2914
Publix,Belleair Bluffs,1309,1309 #01309 #1309,2770 W Bay Dr,FL,33770-2618
Publix,Coral Springs,1311,1311 #01311 #1311,2201 N University Dr,FL,33071-6185
Publix,Gainesville,1312,1312 #01312 #1312,3930 SW Archer Rd,FL,32608-2342
Publix,Longwood,1313,1313 #01313 #1313,105 Wekiva Springs Rd,FL,32779
Publix,Naples,1314,1314 #01314 #1314,3350 Tamiami Trl E,FL,34112-4912
Publix,Orlando,1315,1315 #01315 #1315,7522 Dr Phillips Blvd,FL,32819
Publix,Pensacola,1316,1316 #01316 #1316,5055 N 9th Ave,FL,32504-8719
Publix,Pensacola,1317,1317 #01317 #1317,9251 University Pkwy,FL,32514-5531
Publix,Pensacola,1318,1318 #01318 #1318,5998 Mobile Hwy,FL,32526-1873
Publix,Saint Petersburg,1319,1319 #01319 #1319,3700 4th St N,FL,33704-1314
Publix,Seminole,1320,1320 #01320 #1320,7880 113th St,FL,33772-4616
Publix,Saint Petersburg,1321,1321 #01321 #1321,3030 54th Ave S,FL,33712-4614
Publix,Saint Petersburg,1322,1322 #01322 #1322,3900 66th St N,FL,33709-4912
Publix,Tampa,1324,1324 #01324 #1324,8701 W Hillsborough Ave,FL,33615-3704
Publix,Bonita Springs,1325,1325 #01325 #1325,26841 S Tamiami Trl,FL,34134-7817
Publix,Bradenton,1326,1326 #01326 #1326,4651 Cortez Rd W,FL,34210-3146
Publix,Cape Coral,1327,1327 #01327 #1327,127 Cape Coral Pkwy W,FL,33914-8353
Publix,Cape Coral,1328,1328 #01328 #1328,1735 NE Pine Island Rd,FL,33909-1731
Publix,Clearwater,1329,1329 #01329 #1329,1295 S Missouri Ave,FL,33756-4174
Publix,Deltona,1330,1330 #01330 #1330,2100 Saxon Blvd,FL,32725-3251
Publix,Fort Myers,1331,1331 #01331 #1331,16950 San Carlos Blvd,FL,33908-1224
Publix,Hudson,1332,1332 #01332 #1332,12101 Little Rd,FL,34667-2924
Publix,Jupiter,1333,1333 #01333 #1333,17400 N Alternate A1A,FL,33477-5896
Publix,Lady Lake,1334,1334 #01334 #1334,1566 Bella Cruz Dr,FL,32159-8969
Publix,Largo,1335,1335 #01335 #1335,3825 E Bay Dr,FL,33771-1936
Publix,Largo,1336,1336 #01336 #1336,13031 Walsingham Rd,FL,33774-3514
Publix,Naples,1337,1337 #01337 #1337,8833 Tamiami Trl N,FL,34108-2565
Publix,Orlando,1338,1338 #01338 #1338,10250 Curry Ford Rd,FL,32825-8735
Publix,Palm Coast,1339,1339 #01339 #1339,4950 Belle Terre Pkwy,FL,32137-8692
Publix,Palm Harbor,1340,1340 #01340 #1340,35439 US 19 N,FL,34684-1737
Publix,Palm Harbor,1341,1341 #01341 #1341,500 E Lake Rd,FL,34685-2428
Publix,Palmetto,1342,1342 #01342 #1342,1101 8th Ave W,FL,34221-3809
Publix,Pensacola,1343,1343 #01343 #1343,2180 W Nine Mile Rd,FL,32534-9472
Publix,Pinellas Park,1344,1344 #01344 #1344,4701 Park Blvd N,FL,33781-3533
Publix,Plantation,1345,1345 #01345 #1345,1181 S University Dr,FL,33324-3322
Publix,Sarasota,1346,1346 #01346 #1346,4840 S Tamiami Trl,FL,34231-4352
Publix,Sebring,1347,1347 #01347 #1347,3610 US Highway 27 N,FL,33870-1691
Publix,South Pasadena,1348,1348 #01348 #1348,1075 Pasadena Ave S,FL,33707-2037
Publix,Leesburg,1349,1349 #01349 #1349,1212 US Highway 19 S,GA,31763-4877
Publix,Jensen Beach,1350,1350 #01350 #1350,1780 NE Jensen Beach Blvd,FL,34957-7292
Publix,North Fort Myers,1352,1352 #01352 #1352,6700 Bayshore Rd,FL,33917-3305
Publix,West Melbourne,1353,1353 #01353 #1353,2261 W New Haven Ave,FL,32904-3805
Publix,Hardeeville,1354,1354 #01354 #1354,112 Nickle Plate Rd,SC,29927-4414
Publix,Auburn,1355,1355 #01355 #1355,2900 E University Dr,AL,36830-7720
Publix,Clermont,1357,1357 #01357 #1357,2430 US Highway 27,FL,34714
Publix,Titusville,1358,1358 #01358 #1358,3275 Garden St,FL,32796-3004
Publix,Riviera Beach,1359,1359 #01359 #1359,228 E Blue Heron Blvd,FL,33404-4545
Publix,Fairview,1360,1360 #01360 #1360,7014 City Center Way,TN,37062-6004
Publix,Boca Raton,1361,1361 #01361 #1361,7060 W Palmetto Park Rd,FL,33433-3411
Publix,Daphne,1362,1362 #01362 #1362,27955 US Highway 98 Ste 1,AL,36526-4700
Publix,Brookhaven,1363,1363 #01363 #1363,104 Town Blvd Ste A100,GA,30319-3146
Publix,Pooler,1364,1364 #01364 #1364,467 Pooler Pkwy,GA,31322-5102
Publix,Ocala,1365,1365 #01365 #1365,2765 NW 49th Ave Ste 301,FL,34482-6215
Publix,Neptune Beach,1367,1367 #01367 #1367,630 Atlantic Blvd,FL,32266-4000
Publix,Palm Beach Gardens,1368,1368 #01368 #1368,4101 Hood Rd,FL,33410-2171
Publix,Dothan,1369,1369 #01369 #1369,3525 Ross Clark Cir Ste 100,AL,36303-5935
Publix,Chelsea,1370,1370 #01370 #1370,501 Chelsea Xrds,AL,35043-3900
Publix,Riverview,1371,1371 #01371 #1371,3863 US Highway 301 S,FL,33578-3572
Publix,Sarasota,1372,1372 #01372 #1372,2031 Bay St,FL,34237-7914
Publix,Tampa,1373,1373 #01373 #1373,16041 Tampa Palms Blvd W,FL,33647-2001
Publix,Dothan,1375,1375 #01375 #1375,1620 Ross Clark Cir,AL,36301-5439
Publix,Gainesville,1376,1376 #01376 #1376,4115 NW 16th Blvd,FL,32605-3505
Publix,Dothan,1377,1377 #01377 #1377,4650 W Main St Ste 700,AL,36305-9421
Publix,Port Saint Lucie,1378,1378 #01378 #1378,1125 SE Port St Lucie Blvd,FL,34952-5332
Publix,Winter Park,1381,1381 #01381 #1381,2295 Aloma Ave,FL,32792-3303
Publix,Miami Beach,1382,1382 #01382 #1382,6876 Collins Ave,FL,33141-3244
Publix,Lexington,1383,1383 #01383 #1383,847 Highway 378 W,SC,29072-8347
Publix,Lake Worth,1384,1384 #01384 #1384,214 N Dixie Hwy,FL,33460-3362
Publix,Sarasota,1385,1385 #01385 #1385,3690 Bee Ridge Rd,FL,34233-1001
Publix,Hialeah,1386,1386 #01386 #1386,1290 W 68th St,FL,33014-4524
Publix,Winter Park,1387,1387 #01387 #1387,4000 N Goldenrod Rd,FL,32792-8999
Publix,Winter Park,1388,1388 #01388 #1388,741 S Orlando Ave,FL,32789-4844
Publix,Miami,1389,1389 #01389 #1389,11750 SW 104th St,FL,33176
Publix,Columbus,1390,1390 #01390 #1390,3201 Macon Rd Ste 201,GA,31906-1725
Publix,Pell City,1391,1391 #01391 #1391,2040 Martin St S,AL,35128-2326
Publix,Clarksville,1392,1392 #01392 #1392,1771 Madison St,TN,37043-4990
Publix,Pompano Beach,1393,1393 #01393 #1393,2511 E Atlantic Blvd,FL,33062-5217
Publix,Saint Petersburg,1394,1394 #01394 #1394,1700 34th St N,FL,33713-3602
Publix,Palm Beach,1395,1395 #01395 #1395,135 Bradley Pl,FL,33480-3819
Publix,Windermere,1396,1396 #01396 #1396,7880 Winter Garden Vineland Rd,FL,34786-5689
Publix,Miami,1397,1397 #01397 #1397,1776 Biscayne Blvd,FL,33132-1129
Publix,Rockledge,1398,1398 #01398 #1398,5380 Stadium Pkwy Ste 100,FL,32955-6001
Publix,Bartow,1399,1399 #01399 #1399,255 E Van Fleet Dr,FL,33830-3831
Publix,Spanish Fort,1400,1400 #01400 #1400,10179 Eastern Shore Dr,AL,36527-5801
Publix,Tallahassee,1401,1401 #01401 #1401,3122 Mahan Dr,FL,32308-2500
Publix,Enterprise,1402,1402 #01402 #1402,847 Boll Weevil Cir Ste 112,AL,36330-2476
Publix,Boynton Beach,1405,1405 #01405 #1405,501 SE 18th Ave,FL,33435-6949
Publix,Yulee,1406,1406 #01406 #1406,463855 State Road 200,FL,32097-3639
Publix,North Fort Myers,1407,1407 #01407 #1407,17960 N Tamiami Trl,FL,33903-1412
Publix,Kissimmee,1408,1408 #01408 #1408,2338 E Irlo Bronson Memorial Hwy,FL,34744-5401
Publix,Florence,1409,1409 #01409 #1409,322 Cox Creek Pkwy,AL,35630-1540
Publix,Lakeland,1410,1410 #01410 #1410,6767 US Highway 98 N,FL,33809-6226
Publix,Conyers,1411,1411 #01411 #1411,2159 Highway 20 SE,GA,30094
Publix,Indian Land,1412,1412 #01412 #1412,8360 Charlotte Hwy,SC,29707-6532
Publix,Dunedin,1413,1413 #01413 #1413,902 Curlew Rd,FL,34698-1901
Publix,Knoxville,1415,1415 #01415 #1415,11656 Parkside Dr,TN,37934-2659
Publix,Knoxville,1416,1416 #01416 #1416,2010 Town Center Blvd,TN,37922-6677
Publix,Fort Mill,1419,1419 #01419 #1419,928 Gold Hill Rd,SC,29708-7947
Publix,Oxford,1420,1420 #01420 #1420,115 Commons Way,AL,36203-3483
Publix,Tifton,1422,1422 #01422 #1422,620 Virginia Ave. North,GA,31794-4227
Publix,Pinecrest,1423,1423 #01423 #1423,13401 S Dixie Hwy,FL,33156-6512
Publix,Boynton Beach,1424,1424 #01424 #1424,4770 N Congress Ave,FL,33426-7952
Publix,Clarksville,1425,1425 #01425 #1425,1490 Tiny Town Rd,TN,37042-7201
Publix,Nashville,1426,1426 #01426 #1426,2324 Lebanon Pike,TN,37214-2411
Publix,Orlando,1430,1430 #01430 #1430,13900 Narcoossee Rd,FL,32832-6960
Publix,Celebration,1431,1431 #01431 #1431,29 Blake Blvd,FL,34747-5482
Publix,Longboat Key,1432,1432 #01432 #1432,525 Bay Isles Pkwy,FL,34228-3133
Publix,Naples,1434,1434 #01434 #1434,1981 Tamiami Trl N,FL,34102-4804
Publix,Valdosta,1435,1435 #01435 #1435,3330 Inner Perimeter Rd,GA,31602
Publix,Mobile,1436,1436 #01436 #1436,"2370 Hillcrest Rd, Unit J",AL,36695-3838
Publix,Port Charlotte,1438,1438 #01438 #1438,24051 Peachland Blvd,FL,33954
Publix,Deland,1444,1444 #01444 #1444,299 E International Speedway Blvd,FL,32724-2339
Publix,Key West,1445,1445 #01445 #1445,1112 Key Plaza,FL,33040-4076
Publix,Franklin,3400,3400 #03400 #3400,1017 Riverside Dr,TN,37064-6500
Publix,Rockledge,3401,3401 #03401 #3401,3800 Murrell Rd,FL,32955-4741
Publix,Davenport,3402,3402 #03402 #3402,2444 Sand Mine Rd,FL,33897-3400
Publix,Perry,3405,3405 #03405 #3405,285 Perry Pkwy,GA,31069-9275
Publix,Alpharetta,3407,3407 #03407 #3407,280 Rucker Rd,GA,30004-4045
Publix,Lakeland,3408,3408 #03408 #3408,3025 Kathleen Rd,FL,33810-2798
