keywords,city,Aggdata Store Number,store_number,address,state,zip_code
Qdoba Mexican Grill,Denver,1,1 #1 #01,550 Grant Street,CO,80203
Qdoba Mexican Grill,Denver,2,2 #2 #02,1533 Market Street,CO,80202
Qdoba Mexican Grill,Englewood,3,3 #3 #03,5188 S. Broadway,CO,80110
Qdoba Mexican Grill,Littleton,4,4 #4 #04,8246 W. Bowles Ave.,CO,80123
Qdoba Mexican Grill,Glendale,5,5 #5 #05,1156 S. Colorado Blvd.,CO,80246
Qdoba Mexican Grill,Centennial,6,6 #6 #06,8719 E. Dry Creek Road,CO,80112
Qdoba Mexican Grill,Dallas,7,7 #7 #07,5600 W. Lovers Lane,TX,75209
Qdoba Mexican Grill,Coeur D Alene,8,8 #8 #08,204 West Ironwood Drive,ID,83814
Qdoba Mexican Grill,Phoenix,9,9 #9 #09,3110 N. Central Avenue,AZ,85013
Qdoba Mexican Grill,Milwaukee,10,10 #10 #010,3101 N. Oakland Avenue,WI,53211
Qdoba Mexican Grill,Ft. Worth,11,11 #11 #011,6002 Camp Bowie Blvd.,TX,76116
Qdoba Mexican Grill,Lakewood,12,12 #12 #012,14231 West Colfax Avenue,CO,80401
Qdoba Mexican Grill,Louisville,13,13 #13 #013,970 Breckenridge Lane,KY,40207
Qdoba Mexican Grill,Richardson,14,14 #14 #014,1930 N. Coit Road,TX,75080
Qdoba Mexican Grill,Carmel,15,15 #15 #015,2328 E. 116th Street,IN,46032
Qdoba Mexican Grill,Louisville,16,16 #16 #016,1500 Bardstown Road,KY,40205
Qdoba Mexican Grill,Boulder,17,17 #17 #017,1625 28th Street,CO,80301
Qdoba Mexican Grill,Indianapolis,18,18 #18 #018,9 North Meridian Street,IN,46204
Qdoba Mexican Grill,Madison,19,19 #19 #019,548 State Street,WI,53703
Qdoba Mexican Grill,Spokane,20,20 #20 #020,901 South Grand Boulevard,WA,99202
Qdoba Mexican Grill,Indianapolis,21,21 #21 #021,5025 E. 82nd Street,IN,45250
Qdoba Mexican Grill,Indianapolis,22,22 #22 #022,3528 W. 86th Street,IN,46268
Qdoba Mexican Grill,Loveland,23,23 #23 #023,233 E. 29th Street,CO,80538
Qdoba Mexican Grill,West Alis,24,24 #24 #024,2831 S. 108th Street,WI,53227
Qdoba Mexican Grill,Fort Collins,25,25 #25 #025,250 E Harmony Road,CO,80525
Qdoba Mexican Grill,Portage,26,26 #26 #026,6800 S. Westnedge Ave.,MI,49002
Qdoba Mexican Grill,Sioux Falls,27,27 #27 #027,1900 W. 41st Street,SD,57101
Qdoba Mexican Grill,Charlotte,28,28 #28 #028,7800 Rea Road,NC,28277
Qdoba Mexican Grill,Rapid City,29,29 #29 #029,741 Mountain View Road,SD,57702
Qdoba Mexican Grill,Wauwatosa,30,30 #30 #030,12345 W. Capitol Drive,WI,53222
Qdoba Mexican Grill,Bloomington,31,31 #31 #031,1505 N. Veterans Parkway,IL,61704
Qdoba Mexican Grill,Fort Collins,32,32 #32 #032,1104 W. Elizabeth Street,CO,80521
Qdoba Mexican Grill,Grand Blanc,34,34 #34 #034,12488 S. Saginaw,MI,48439
Qdoba Mexican Grill,Grand Rapids,35,35 #35 #035,"2887 28th Street, S.E.",MI,49512
Qdoba Mexican Grill,Winston-Salem,36,36 #36 #036,57 Miller Street,NC,27104
Qdoba Mexican Grill,Raleigh,37,37 #37 #037,424 East Six Fork Road,NC,27609
Qdoba Mexican Grill,Madison,38,38 #38 #038,2741 University Avenue,WI,53705
Qdoba Mexican Grill,Indianapolis,39,39 #39 #039,907 Indiana Avenue,IN,46204
Qdoba Mexican Grill,Westminster,40,40 #40 #040,1005 W. 120th Avenue,CO,80234
Qdoba Mexican Grill,Aurora,41,41 #41 #041,2295 S. Peoria,CO,80014
Qdoba Mexican Grill,Flint,42,42 #42 #042,2415 E. Austin Avenue,MI,48507
Qdoba Mexican Grill,Arvada,43,43 #43 #043,8031 Wadsworth Blvd.,CO,80003
Qdoba Mexican Grill,Seattle,44,44 #44 #044,10002 Aurora Ave. North,WA,98133
Qdoba Mexican Grill,Kalamazoo,45,45 #45 #045,4403 W. Main Street,MI,49007
Qdoba Mexican Grill,Hoboken,46,46 #46 #046,400 Washington Street,NJ,7030
Qdoba Mexican Grill,Denver,47,47 #47 #047,1400 East 17th Avenue,CO,80218
Qdoba Mexican Grill,Charlotte,48,48 #48 #048,"230 East WT Harris Blvd.,",NC,28262
Qdoba Mexican Grill,Denver,49,49 #49 #049,15470 Andrews Drive,CO,80239
Qdoba Mexican Grill,Indianapolis,50,50 #50 #050,6334 N. Guilford Ave.,IN,46220
Qdoba Mexican Grill,Fox Point,51,51 #51 #051,8789 N. Port Washington Road,WI,53217
Qdoba Mexican Grill,Suwanee,52,52 #52 #052,3630 Peachtree Parkway,GA,30024
Qdoba Mexican Grill,Issaquah,53,53 #53 #053,6140 East Lake Sammamish Pkwy. SE,WA,98029
Qdoba Mexican Grill,Woodinville,54,54 #54 #054,17744 Garden Way NE,WA,98072
Qdoba Mexican Grill,Federal Way,55,55 #55 #055,1301 South 320th Street,WA,98003
Qdoba Mexican Grill,Lexington,56,56 #56 #056,2630 Richmond Road,KY,40509
Qdoba Mexican Grill,East Lansing,57,57 #57 #057,1127 E. Grand River,MI,48823
Qdoba Mexican Grill,Denver,58,58 #58 #058,4955 S. Ulster Street,CO,80237
Qdoba Mexican Grill,Broomfield,59,59 #59 #059,635-b Flatiron Marketplace Drive,CO,80021
Qdoba Mexican Grill,Matthews,60,60 #60 #060,2233 Matthews Township Parkway,NC,28105
Qdoba Mexican Grill,Englewood,61,61 #61 #061,800 Englewood Pkwy,CO,80110
Qdoba Mexican Grill,Lexington,62,62 #62 #062,265 E. Euclid Avenue,KY,40508
Qdoba Mexican Grill,Littleton,64,64 #64 #064,7301 S. Santa Fe Drive,CO,80120
Qdoba Mexican Grill,Bothell,65,65 #65 #065,22612-C Bothell Everett Highway,WA,98021
Qdoba Mexican Grill,Littleton,66,66 #66 #066,9956 W. Remington Place,CO,80128
Qdoba Mexican Grill,Madison,67,67 #67 #067,6650 Mineral Point Road,WI,53705
Qdoba Mexican Grill,Huntersville,68,68 #68 #068,16926 Birkdale Commons Parkway,NC,28078
Qdoba Mexican Grill,Birmingham,69,69 #69 #069,795 East Maple Road,MI,48009
Qdoba Mexican Grill,Highlands Ranch,70,70 #70 #070,9364 S. Colorado Blvd.,CO,80126
Qdoba Mexican Grill,Denver,71,71 #71 #071,200 Quebec Street,CO,80230
Qdoba Mexican Grill,Greensboro,72,72 #72 #072,700 Pembroke Road,NC,27408
Qdoba Mexican Grill,Louisville,74,74 #74 #074,4059 Summit Plaza Drive,KY,40241
Qdoba Mexican Grill,Charlotte,75,75 #75 #075,8200 Providence Road,NC,28277
Qdoba Mexican Grill,Royal Oak,76,76 #76 #076,301 S. Main Street,MI,48067
Qdoba Mexican Grill,Charlotte,78,78 #78 #078,1600 E. Woodlawn Road,NC,28209
Qdoba Mexican Grill,Colorado Springs,80,80 #80 #080,1605 Briargate Parkway,CO,80920
Qdoba Mexican Grill,Fishers,81,81 #81 #081,8260 E. 96th Street,IN,46038
Qdoba Mexican Grill,Winston-Salem,82,82 #82 #082,945 Hanes Mall Blvd.,NC,27103
Qdoba Mexican Grill,Pittsburgh,83,83 #83 #083,3712 Forbes Avenue,PA,15213
Qdoba Mexican Grill,Wauwatosa,85,85 #85 #085,418 N. Mayfair Road,WI,53226
Qdoba Mexican Grill,Indianapolis,86,86 #86 #086,6905 S. Emerson Avenue,IN,46237
Qdoba Mexican Grill,Short Hills,87,87 #87 #087,1200 Morris Turnpike,NJ,7078
Qdoba Mexican Grill,Milwaukee,88,88 #88 #088,275 W. Wisconsin Avenue,WI,53203
Qdoba Mexican Grill,Frankfort,89,89 #89 #089,1303 US Highway 127 South,KY,40601
Qdoba Mexican Grill,Louisville,90,90 #90 #090,100 Daventry Lane,KY,40223
Qdoba Mexican Grill,Lynnwood,91,91 #91 #091,18700 33rd Avenue West,WA,98037
Qdoba Mexican Grill,Richmond,92,92 #92 #092,11500 Midlothian Turnpike,VA,23235
Qdoba Mexican Grill,Glenwood Springs,94,94 #94 #094,510 Laurel Street,CO,81601
Qdoba Mexican Grill,Parker,95,95 #95 #095,11215 S. Parker Road,CO,80134
Qdoba Mexican Grill,Timonium,96,96 #96 #096,2157 York Road,MD,21093
Qdoba Mexican Grill,Noblesville,97,97 #97 #097,17047 Mercantile Blvd.,IN,46060
Qdoba Mexican Grill,Milwaukee,98,98 #98 #098,2228 N. Prospect Avenue,WI,53202
Qdoba Mexican Grill,New Berlin,99,99 #99 #099,15620 W. National Avenue,WI,53151
Qdoba Mexican Grill,Spokane,100,100 #100 #0100,7115 North Division Street,WA,99208
Qdoba Mexican Grill,Denville,101,101 #101 #0101,3056 New Jersey 10,NJ,7834
Qdoba Mexican Grill,Grandville,102,102 #102 #0102,3871 Rivertown Parkway,MI,49418
Qdoba Mexican Grill,Nashville,103,103 #103 #0103,2019 West End Avenue,TN,37203
Qdoba Mexican Grill,New Albany,105,105 #105 #0105,4302 Charlestown Road,IN,47150
Qdoba Mexican Grill,Aurora,108,108 #108 #0108,1180 S. Buckley Road,CO,80017
Qdoba Mexican Grill,Colorado Springs,109,109 #109 #0109,7140 N. Academy Blvd.,CO,80920
Qdoba Mexican Grill,Eden Prairie,112,112 #112 #0112,11611 Leona Road,MN,55344
Qdoba Mexican Grill,Fenton,115,115 #115 #0115,180 Gravois Bluffs Circle,MO,63026
Qdoba Mexican Grill,Manchester,116,116 #116 #0116,14169 Manchester Road,MO,63011
Qdoba Mexican Grill,Brookfield,117,117 #117 #0117,16005 W. Bluemound Road,WI,53005
Qdoba Mexican Grill,Harrisonburg,118,118 #118 #0118,223 Burgess Road,VA,22801
Qdoba Mexican Grill,Upper Marlboro,119,119 #119 #0119,861C Capital Center Blvd.,MD,20774
Qdoba Mexican Grill,Charlottesville,120,120 #120 #0120,1415 University Avenue,VA,22903
Qdoba Mexican Grill,Redmond,121,121 #121 #0121,15116 N.E. 24th Street,WA,98052
Qdoba Mexican Grill,Plano,122,122 #122 #0122,6505 W. Park Blvd.,TX,75093
Qdoba Mexican Grill,Philadelphia,123,123 #123 #0123,1528 Walnut Street,PA,19102
Qdoba Mexican Grill,Chicago,125,125 #125 #0125,175 W. Jackson Street,IL,60604
Qdoba Mexican Grill,Schaumburg,126,126 #126 #0126,1408 E. Golf Road,IL,60173
Qdoba Mexican Grill,Ann Arbor,128,128 #128 #0128,2252 S. Main Street,MI,48103
Qdoba Mexican Grill,Grand Rapids,129,129 #129 #0129,5150 Northland Drive NE,MI,49525
Qdoba Mexican Grill,Rochester Hills,130,130 #130 #0130,224 E. Auburn Road,MI,48309
Qdoba Mexican Grill,Southfield,132,132 #132 #0132,25243 Evergreen Road,MI,48037
Qdoba Mexican Grill,Charlotte,133,133 #133 #0133,8152 South Tryon Street,NC,28273
Qdoba Mexican Grill,St. Louis,134,134 #134 #0134,3100 S. Grand Blvd.,MO,63118
Qdoba Mexican Grill,Pittsburgh,136,136 #136 #0136,1740 Settlers Ridge Center Drive,PA,15205
Qdoba Mexican Grill,Pittsburgh,137,137 #137 #0137,2777 E. Carson Street,PA,15203
Qdoba Mexican Grill,Farmington Hills,138,138 #138 #0138,33224 W. 12 Mile Road,MI,48334
Qdoba Mexican Grill,Philadelphia,139,139 #139 #0139,230 S. 40th Street,PA,19104
Qdoba Mexican Grill,Seattle,140,140 #140 #0140,17801 International Blvd.,WA,98158
Qdoba Mexican Grill,Chesterfield,142,142 #142 #0142,16890 Chesterfield Airport Road,MO,63005
Qdoba Mexican Grill,Boston,146,146 #146 #0146,800 Boylston Street,MA,2199
Qdoba Mexican Grill,Hasbrouck Heights,149,149 #149 #0149,125 Route 17 N.,NJ,7604
Qdoba Mexican Grill,Colorado Springs,151,151 #151 #0151,1916 Southgate Road,CO,80921
Qdoba Mexican Grill,Longmont,153,153 #153 #0153,2301 Clover Basin Drive,CO,80503
Qdoba Mexican Grill,Delafield,154,154 #154 #0154,3250 Golf Road,WI,53018
Qdoba Mexican Grill,Mentor,157,157 #157 #0157,9552 Mentor Avenue,OH,44107
Qdoba Mexican Grill,Las Vegas,159,159 #159 #0159,5045 W. Tropicana Avenue,NV,89103
Qdoba Mexican Grill,MASON,160,160 #160 #0160,5030 Deerfield Blvd.,OH,45040
Qdoba Mexican Grill,Blue Ash,161,161 #161 #0161,9749 Kenwood Road,OH,45242
Qdoba Mexican Grill,Springfield,162,162 #162 #0162,900 E. Battlefield Road,MO,65807
Qdoba Mexican Grill,Conifer,163,163 #163 #0163,25597 Conifer Rd.,CO,80433
Qdoba Mexican Grill,Fargo,164,164 #164 #0164,1801 45th Street SW,ND,58104
Qdoba Mexican Grill,Greeley,165,165 #165 #0165,4626 Centerplace Drive,CO,80634
Qdoba Mexican Grill,Loveland,166,166 #166 #0166,1743 Rocky Mountain Avenue,CO,80538
Qdoba Mexican Grill,Herndon,167,167 #167 #0167,13031 Worldgate Drive,VA,20170
Qdoba Mexican Grill,Greenfield,168,168 #168 #0168,5075 S. 76th Street,WI,53220
Qdoba Mexican Grill,Fitchburg,169,169 #169 #0169,5401 Caddis Bend Road,WI,53711
Qdoba Mexican Grill,Raleigh,170,170 #170 #0170,3101 Edwards Mill Road,NC,27612
Qdoba Mexican Grill,University City,171,171 #171 #0171,6625 Delmar Blvd.,MO,63130
Qdoba Mexican Grill,Florissant,172,172 #172 #0172,14039 New Halls Ferry Road,MO,63033
Qdoba Mexican Grill,Dekalb,173,173 #173 #0173,2383 Sycamore Road,IL,60115
Qdoba Mexican Grill,Boston,174,174 #174 #0174,393 Huntington Avenue,MA,2115
Qdoba Mexican Grill,Springfield,175,175 #175 #0175,4127 S. Kansas Expressway,MO,65809
Qdoba Mexican Grill,Boulder,176,176 #176 #0176,1119 13th Street,CO,80302
Qdoba Mexican Grill,Beavercreek,177,177 #177 #0177,2781 Centre Drive,OH,45324
Qdoba Mexican Grill,State College,178,178 #178 #0178,208 West College Avenue,PA,16801
Qdoba Mexican Grill,Omaha,179,179 #179 #0179,2101 N. 120th Street,NE,68164
Qdoba Mexican Grill,Apex,180,180 #180 #0180,1005 Beaver Creek Commons Drive,NC,27502
Qdoba Mexican Grill,Kalispell,181,181 #181 #0181,15 Commons Way,MT,59901
Qdoba Mexican Grill,Grand Forks,182,182 #182 #0182,3551 32nd Avenue South,ND,58201
Qdoba Mexican Grill,Denver,187,187 #187 #0187,7155 E. Hampden Avenue,CO,80224
Qdoba Mexican Grill,Corvallis,189,189 #189 #0189,2001 NW Monroe Avenue,OR,97330
Qdoba Mexican Grill,Westfield,190,190 #190 #0190,70 Elm Street,NJ,7090
Qdoba Mexican Grill,Grand Junction,192,192 #192 #0192,2536 Rimrock Drive,CO,81505
Qdoba Mexican Grill,Audubon,193,193 #193 #0193,717 S. Trooper Road,PA,19403
Qdoba Mexican Grill,Carmel,195,195 #195 #0195,14490 Clay Terrace Blvd.,IN,46032
Qdoba Mexican Grill,Pittsburgh,196,196 #196 #0196,4860 McKnight Road,PA,15237
Qdoba Mexican Grill,Indianapolis,197,197 #197 #0197,7411 N. Keystone Avenue,IN,46240
Qdoba Mexican Grill,Springfield,198,198 #198 #0198,2631 E. Sunshine Street,MO,65804
Qdoba Mexican Grill,Columbus,200,200 #200 #0200,1055 Polaris Parkway,OH,43240
Qdoba Mexican Grill,Lancaster,201,201 #201 #0201,142 Park City Center,PA,17601
Qdoba Mexican Grill,Chapel Hill,202,202 #202 #0202,100 W. Franklin Street,NC,27516
Qdoba Mexican Grill,Highlands Ranch,203,203 #203 #0203,9338 S Dorchester St.,CO,80129
Qdoba Mexican Grill,Greenwood,204,204 #204 #0204,795 N U.S. 31,IN,46142
Qdoba Mexican Grill,Denver,207,207 #207 #0207,6110 E. Colfax Avenue,CO,80220
Qdoba Mexican Grill,Hillsboro,208,208 #208 #0208,2288 NW Allie Ave.,OR,97124
Qdoba Mexican Grill,Brighton,209,209 #209 #0209,275 Pavillions Place,CO,80601
Qdoba Mexican Grill,Kalamazoo,212,212 #212 #0212,5901 Gull Road,MI,49048
Qdoba Mexican Grill,Ann Arbor,213,213 #213 #0213,3279 Washtenaw Avenue,MI,48104
Qdoba Mexican Grill,Westminster,214,214 #214 #0214,10431 Town Center Drive,CO,80021
Qdoba Mexican Grill,Centennial,215,215 #215 #0215,7465 E. Arapahoe Road,CO,80012
Qdoba Mexican Grill,Maplewood,216,216 #216 #0216,2001 Maplewood Commons Drive,MO,63143
Qdoba Mexican Grill,Parma,217,217 #217 #0217,7402 Broadview Rd.,OH,44134
Qdoba Mexican Grill,Hawthorne,218,218 #218 #0218,5221 W. Rosecrans Avenue,CA,90250
Qdoba Mexican Grill,Los Angeles,220,220 #220 #0220,655 S. Hope Street,CA,90017
Qdoba Mexican Grill,Stillwater,221,221 #221 #0221,139 S. Knoblock Street,OK,74074
Qdoba Mexican Grill,Lansing,222,222 #222 #0222,301 N. Clippert Street,MI,48912
Qdoba Mexican Grill,Anchorage,223,223 #223 #0223,702 E. Benson Blvd.,AK,99503
Qdoba Mexican Grill,Pewaukee,225,225 #225 #0225,1890 Meadow Lane,WI,53072
Qdoba Mexican Grill,St. Louis,226,226 #226 #0226,90 South County Center Way,MO,63129
Qdoba Mexican Grill,Omaha,227,227 #227 #0227,1110 S. 71st Street,NE,68106
Qdoba Mexican Grill,Fayetteville,228,228 #228 #0228,603 W. Dickson,AR,72701
Qdoba Mexican Grill,St. Joseph,229,229 #229 #0229,2909 Niles Avenue,MI,49085
Qdoba Mexican Grill,Aurora,232,232 #232 #0232,23923 E. Prospect Avenue,CO,80016
Qdoba Mexican Grill,O Fallon,233,233 #233 #0233,2285 Highway K,MO,63366
Qdoba Mexican Grill,Centennial,234,234 #234 #0234,10909 E. Arapahoe Place,CO,80112
Qdoba Mexican Grill,Brentwood,235,235 #235 #0235,782 Old Hickory Blvd.,TN,37027
Qdoba Mexican Grill,Louisville,236,236 #236 #0236,2730 S. Hurstbourne Parkway,KY,40220
Qdoba Mexican Grill,Big Rapids,237,237 #237 #0237,836 S. State Street,MI,49307
Qdoba Mexican Grill,Reno,238,238 #238 #0238,197 Damonte Ranch Pkwy,NV,89521
Qdoba Mexican Grill,Shiloh,239,239 #239 #0239,3210 Green Mount Crossing Drive,IL,62269
Qdoba Mexican Grill,Gainesville,240,240 #240 #0240,7376 Atlas Walk Way,VA,20155
Qdoba Mexican Grill,Lincoln,241,241 #241 #0241,6100 O Street,NE,68505
Qdoba Mexican Grill,Baltimore,242,242 #242 #0242,5282 Campbell Blvd.,MD,21236
Qdoba Mexican Grill,Towson,243,243 #243 #0243,1255 E. Joppa Road,MD,21286
Qdoba Mexican Grill,Mount Pleasant,244,244 #244 #0244,6035 Durand Avenue,WI,53406
Qdoba Mexican Grill,Baton Rouge,245,245 #245 #0245,7415 Corporate Blvd.,LA,70809
Qdoba Mexican Grill,Rocky River,248,248 #248 #0248,21605 Center Ridge Road,OH,44116
Qdoba Mexican Grill,Tulsa,249,249 #249 #0249,7153 S. Lewis Avenue,OK,74136
Qdoba Mexican Grill,Richmond,250,250 #250 #0250,933 W. Broad Street,VA,23220
Qdoba Mexican Grill,Moscow,251,251 #251 #0251,1970 West Pullman Road,ID,83843
Qdoba Mexican Grill,Ft. Collins,252,252 #252 #0252,1281 E. Magnolia Street,CO,80524
Qdoba Mexican Grill,Bala Cynwyd,253,253 #253 #0253,33 E. City Avenue,PA,19004
Qdoba Mexican Grill,Greenwood,254,254 #254 #0254,704 Indiana 135,IN,46142
Qdoba Mexican Grill,Lexington,255,255 #255 #0255,2337 Sir Barton Drive,KY,40509
Qdoba Mexican Grill,Rockaway,256,256 #256 #0256,395 Mount Hope Avenue,NJ,7866
Qdoba Mexican Grill,Lakewood,257,257 #257 #0257,7611 W. Colfax Avenue,CO,80214
Qdoba Mexican Grill,Millbury,258,258 #258 #0258,70 Worcester-Providence Turnpike,MA,1527
Qdoba Mexican Grill,Tulsa,259,259 #259 #0259,1520 E. 15th Street,OK,74120
Qdoba Mexican Grill,Tulsa,260,260 #260 #0260,5220 S. Yale Avenue,OK,74135
Qdoba Mexican Grill,Chaska,263,263 #263 #0263,194 Pioneer Trail,MN,55318
Qdoba Mexican Grill,Pittsburgh,264,264 #264 #0264,4815 Centre Avenue,PA,15213
Qdoba Mexican Grill,Bowling Green,265,265 #265 #0265,129 S. Main Street,OH,43402
Qdoba Mexican Grill,Reno,266,266 #266 #0266,10310 N. McCarran Blvd.,NV,89503
Qdoba Mexican Grill,Fort Collins,267,267 #267 #0267,2513 S. Shields Street,CO,80526
Qdoba Mexican Grill,Evergreen,268,268 #268 #0268,29057 Hotel Way,CO,80439
Qdoba Mexican Grill,Plainfield,269,269 #269 #0269,2663 E. Main Street,IN,46168
Qdoba Mexican Grill,Edwardsville,270,270 #270 #0270,2100 Troy Road,IL,62025
Qdoba Mexican Grill,Sanford,273,273 #273 #0273,202 West Lake Mary Blvd.,FL,32773
Qdoba Mexican Grill,Beaverton,275,275 #275 #0275,4655 SW Griffith Drive,OR,97005
Qdoba Mexican Grill,Philadelphia,276,276 #276 #0276,1600 N. Broad Street,PA,19121
Qdoba Mexican Grill,Clive,279,279 #279 #0279,10201 West University,IA,50325
Qdoba Mexican Grill,Morgantown,280,280 #280 #0280,386 Patteson Drive,WV,26505
Qdoba Mexican Grill,Oak Creek,281,281 #281 #0281,8750 Howell Avenue,WI,53154
Qdoba Mexican Grill,Steamboat Springs,282,282 #282 #0282,1755 Central Park Drive,CO,80488
Qdoba Mexican Grill,Anchorage,284,284 #284 #0284,1900 E. 85th Court,AK,99507
Qdoba Mexican Grill,Colorado Springs,285,285 #285 #0285,3709 Bloomington Street,CO,80922
Qdoba Mexican Grill,Arvada,286,286 #286 #0286,5095 Kipling Street,CO,80002
Qdoba Mexican Grill,Dallas,287,287 #287 #0287,3519 McKinney Avenue,TX,75204
Qdoba Mexican Grill,Castle Rock,288,288 #288 #0288,78 East Allen Street,CO,80104
Qdoba Mexican Grill,Denver,289,289 #289 #0289,8286 E. Northfield Boulevard,CO,80238
Qdoba Mexican Grill,Fresh Meadows,290,290 #290 #0290,61-40 188th Street,NY,11365
Qdoba Mexican Grill,Clarkston,291,291 #291 #0291,6461 Dixie Highway,MI,48346
Qdoba Mexican Grill,Medford,292,292 #292 #0292,523 Fellsway,MA,2155
Qdoba Mexican Grill,Omaha,293,293 #293 #0293,14410 W. Center Road,NE,68144
Qdoba Mexican Grill,Portland,294,294 #294 #0294,505 SW Taylor Street,OR,97205
Qdoba Mexican Grill,Troy,296,296 #296 #0296,3059 Rochester Road,MI,48083
Qdoba Mexican Grill,Henderson,297,297 #297 #0297,175 N. Stephanie Street,NV,89074
Qdoba Mexican Grill,Bel Air,300,300 #300 #0300,696 Belair Road,MD,21014
Qdoba Mexican Grill,West Bend,301,301 #301 #0301,920 West Paradise Drive,WI,53095
Qdoba Mexican Grill,Menomonee Falls,302,302 #302 #0302,N95 W18181 Appleton Ave.,WI,53051
Qdoba Mexican Grill,Bloomington,303,303 #303 #0303,116 S. Indiana Avenue,IN,47401
Qdoba Mexican Grill,Loveland,304,304 #304 #0304,6100 E. Crossroads Blvd.,CO,80538
Qdoba Mexican Grill,Hyattsville,305,305 #305 #0305,6450 America Blvd.,MD,20782
Qdoba Mexican Grill,Cheyenne,306,306 #306 #0306,1958 Dell Range Blvd.,WY,82009
Qdoba Mexican Grill,Florence,307,307 #307 #0307,7683 Mall Road,KY,41042
Qdoba Mexican Grill,Washington,308,308 #308 #0308,555 11th Street NW,DC,20004
Qdoba Mexican Grill,Walker,309,309 #309 #0309,3225 Alpine Avenue NW,MI,49544
Qdoba Mexican Grill,Pittsburgh,310,310 #310 #0310,1028 Freeport Road,PA,15238
Qdoba Mexican Grill,Waukesha,311,311 #311 #0311,325 East North Street,WI,53188
Qdoba Mexican Grill,Atlanta,312,312 #312 #0312,6000 N. Terminal Parkway,GA,30320
Qdoba Mexican Grill,Sparks,313,313 #313 #0313,151 Disc Drive,NV,89436
Qdoba Mexican Grill,Fort Worth,315,315 #315 #0315,500 Throckmorton,TX,76102
Qdoba Mexican Grill,Glen Burnie,316,316 #316 #0316,6653 Ritchie Highway,MD,21060
Qdoba Mexican Grill,Moorhead,317,317 #317 #0317,910 Holiday Drive,MN,56560
Qdoba Mexican Grill,Greeley,320,320 #320 #0320,2527 11th Avenue,CO,80631
Qdoba Mexican Grill,Rockville,321,321 #321 #0321,128 Rollins Avenue,MD,20852
Qdoba Mexican Grill,Mansfield,323,323 #323 #0323,280 School Street,MA,2048
Qdoba Mexican Grill,Carson City,324,324 #324 #0324,933 Topsy Lane,NV,89705
Qdoba Mexican Grill,Lake Buena Vista,325,325 #325 #0325,12376 S Apopka Vineland Road,FL,32836
Qdoba Mexican Grill,Reno,326,326 #326 #0326,135 Lemmon Drive,NV,89506
Qdoba Mexican Grill,Springfield,328,328 #328 #0328,1054 Baltimore Pike,PA,19064
Qdoba Mexican Grill,Philadelphia,329,329 #329 #0329,1900 Chestnut Street,PA,19103
Qdoba Mexican Grill,Indianapolis,332,332 #332 #0332,9702 E. Washington Street,IN,46229
Qdoba Mexican Grill,Oklahoma City,333,333 #333 #0333,13720 N. Pennsylvania Ave.,OK,73134
Qdoba Mexican Grill,Everett,334,334 #334 #0334,909 SE Everett Mall Way,WA,98208
Qdoba Mexican Grill,Fredericksburg,335,335 #335 #0335,1865 Carl D. Silver Parkway,VA,22401
Qdoba Mexican Grill,Columbia,336,336 #336 #0336,6476 Dobbin Center Way,MD,21045
Qdoba Mexican Grill,Tigard,337,337 #337 #0337,7132 SW Hazel Fern Road,OR,97224
Qdoba Mexican Grill,Appleton,338,338 #338 #0338,4343 W Wisconsin Avenue,WI,54913
Qdoba Mexican Grill,Fond Du Lac,339,339 #339 #0339,187 N. Pioneer Road,WI,54935
Qdoba Mexican Grill,Cary,340,340 #340 #0340,2222 Walnut Street,NC,27511
Qdoba Mexican Grill,Peabody,341,341 #341 #0341,229 Andover Street,MA,1960
Qdoba Mexican Grill,Wareham,342,342 #342 #0342,2421 Cranberry Highway,MA,2571
Qdoba Mexican Grill,Green Bay,343,343 #343 #0343,2476 S. Oneida St.,WI,54304
Qdoba Mexican Grill,Shaker Heights,344,344 #344 #0344,20090 Van Aken Blvd.,OH,44122
Qdoba Mexican Grill,Orlando,345,345 #345 #0345,4000 Central Florida Blvd.,FL,32816
Qdoba Mexican Grill,Orlando,346,346 #346 #0346,423 N. Alafaya Trail,FL,32828
Qdoba Mexican Grill,Mercer Island,347,347 #347 #0347,7650 SE 27th Street,WA,98040
Qdoba Mexican Grill,Dardenne Prairie,348,348 #348 #0348,7863 Highway N,MO,63366
Qdoba Mexican Grill,St. Louis,349,349 #349 #0349,4049 Lindell Blvd.,MO,63108
Qdoba Mexican Grill,Kenosha,350,350 #350 #0350,6430 Green Bay Road,WI,53142
Qdoba Mexican Grill,Tukwila,351,351 #351 #0351,100 Andover Park West,WA,98188
Qdoba Mexican Grill,Westland,353,353 #353 #0353,36575 Warren Road,MI,48185
Qdoba Mexican Grill,Virginia Beach,354,354 #354 #0354,1833 Republic Road,VA,23454
Qdoba Mexican Grill,Papillion,356,356 #356 #0356,8540 South 71st Plaza,NE,68046
Qdoba Mexican Grill,Loveland,358,358 #358 #0358,1420 10th Street SW,CO,80537
Qdoba Mexican Grill,West Lafayette,359,359 #359 #0359,139 Northwestern Avenue,IN,47906
Qdoba Mexican Grill,Minneapolis,360,360 #360 #0360,324 14th Avenue SE,MN,55414
Qdoba Mexican Grill,North Charleston,361,361 #361 #0361,4930 Centre Pointe Drive,SC,29418
Qdoba Mexican Grill,Philadelphia,362,362 #362 #0362,1105 Walnut Street,PA,19103
Qdoba Mexican Grill,Firestone,364,364 #364 #0364,11169 E. I-25 Frontage Road,CO,80504
Qdoba Mexican Grill,Phoenix,365,365 #365 #0365,12005 N. Tatum Blvd.,AZ,85028
Qdoba Mexican Grill,Wellesley,366,366 #366 #0366,185 Linden Street,MA,2482
Qdoba Mexican Grill,Cleveland,367,367 #367 #0367,11324 Euclid Avenue,OH,44106
Qdoba Mexican Grill,Glendale,368,368 #368 #0368,510 W. Silver Spring Drive,WI,53217
Qdoba Mexican Grill,Bismarck,369,369 #369 #0369,312 S. 3rd Street,ND,58504
Qdoba Mexican Grill,Pittsburgh,370,370 #370 #0370,601 Grant Street,PA,15219
Qdoba Mexican Grill,Dayton,371,371 #371 #0371,2008 Miamisburg Centerville Road,OH,45459
Qdoba Mexican Grill,Sioux Falls,373,373 #373 #0373,4901 S. Louise Avenue,SD,57106
Qdoba Mexican Grill,Thornton,374,374 #374 #0374,10018 Grant Street,CO,80229
Qdoba Mexican Grill,Columbus,377,377 #377 #0377,1689 West 5th Avenue,OH,43212
Qdoba Mexican Grill,Mt. Pleasant,379,379 #379 #0379,1529 S. Mission Street,MI,48858
Qdoba Mexican Grill,Anchorage,380,380 #380 #0380,1102 N. Muldoon Rd.,AK,99504
Qdoba Mexican Grill,Evansville,381,381 #381 #0381,922 N. Burkhardt Road,IN,47715
Qdoba Mexican Grill,Laramie,382,382 #382 #0382,252 N. 3rd Street,WY,82072
Qdoba Mexican Grill,Phoenix,383,383 #383 #0383,742 E. Glendale Ave.,AZ,85014
Qdoba Mexican Grill,Cambridge,384,384 #384 #0384,1280 Massachusetts Avenue,MA,2138
Qdoba Mexican Grill,Norfolk,385,385 #385 #0385,1140 N. Military Highway,VA,23502
Qdoba Mexican Grill,Louisville,386,386 #386 #0386,3021 Poplar Level Road,KY,40213
Qdoba Mexican Grill,Ellicott City,387,387 #387 #0387,9050 Baltimore National Parkway,MD,21042
Qdoba Mexican Grill,Ann Arbor,388,388 #388 #0388,1771 Plymouth Road,MI,48105
Qdoba Mexican Grill,Owings Mills,389,389 #389 #0389,10450 Owings Mills Blvd.,MD,21117
Qdoba Mexican Grill,Collinsville,392,392 #392 #0392,1100 Collinsville Crossing Blvd.,IL,62234
Qdoba Mexican Grill,Upland,394,394 #394 #0394,1902 N. Campus Avenue,CA,91784
Qdoba Mexican Grill,Dedham,396,396 #396 #0396,756 Legacy Place,MA,2026
Qdoba Mexican Grill,Richmond,397,397 #397 #0397,429 Leighway Drive,KY,40475
Qdoba Mexican Grill,Burlington,398,398 #398 #0398,3128 Waltham Blvd.,NC,27215
Qdoba Mexican Grill,Tampa,399,399 #399 #0399,5001 E. Fowler Avenue,FL,33616
Qdoba Mexican Grill,Chicago,400,400 #400 #0400,58 E. Randolph St.,IL,60601
Qdoba Mexican Grill,Plymouth,401,401 #401 #0401,4345 Nathan Lane N,MN,55442
Qdoba Mexican Grill,Knoxville,403,403 #403 #0403,7339 Kingston Pike,TN,37919
Qdoba Mexican Grill,Bloomington,404,404 #404 #0404,60 E. Broadway,MN,55425
Qdoba Mexican Grill,Tempe,407,407 #407 #0407,5150 S. Rural Road,AZ,85282
Qdoba Mexican Grill,Chandler,408,408 #408 #0408,2855 W. Ray Road,AZ,85224
Qdoba Mexican Grill,Clifton,409,409 #409 #0409,592 32nd Road,CO,81520
Qdoba Mexican Grill,Fort Collins,410,410 #410 #0410,2720 Council Tree Avenue,CO,80525
Qdoba Mexican Grill,Fishers,411,411 #411 #0411,8971 E. 116th Street,IN,46038
Qdoba Mexican Grill,Creve Coeur,412,412 #412 #0412,766 N. New Ballas Road,MO,63141
Qdoba Mexican Grill,Wheaton,414,414 #414 #0414,2202 N. Main Street,IL,60187
Qdoba Mexican Grill,Muncie,418,418 #418 #0418,720 E. McGalliard Road,IN,47303
Qdoba Mexican Grill,Saginaw,419,419 #419 #0419,5165 Bay Road,MI,48604
Qdoba Mexican Grill,St. Louis,420,420 #420 #0420,1042 Loughborough Avenue,MO,63111
Qdoba Mexican Grill,Nampa,421,421 #421 #0421,16383 W. Marketplace Blvd.,ID,83687
Qdoba Mexican Grill,Meridian,422,422 #422 #0422,3068 E. Overland Road,ID,83642
Qdoba Mexican Grill,Meridian,423,423 #423 #0423,3319 N. Eagle Road,ID,83646
Qdoba Mexican Grill,Reno,424,424 #424 #0424,6135 S. Virginia Street,NV,89502
Qdoba Mexican Grill,Richmond,425,425 #425 #0425,9460 W. Broad Street,VA,23294
Qdoba Mexican Grill,Tulsa,426,426 #426 #0426,8310 East 71st Street,OK,74133
Qdoba Mexican Grill,Foxfield,427,427 #427 #0427,16270 E. Arapahoe Road,CO,80016
Qdoba Mexican Grill,Seattle,428,428 #428 #0428,1200 NE 45th Street,WA,98105
Qdoba Mexican Grill,Grafton,431,431 #431 #0431,2506 Washington Street,WI,53024
Qdoba Mexican Grill,Warren,432,432 #432 #0432,5779 E. 12 Mile Road,MI,48092
Qdoba Mexican Grill,Pittsburgh,434,434 #434 #0434,808 Liberty Avenue,PA,15222
Qdoba Mexican Grill,Washington,435,435 #435 #0435,3303 M Street NW,DC,20007
Qdoba Mexican Grill,Louisville,439,439 #439 #0439,1321 Herr Lane,KY,40222
Qdoba Mexican Grill,Traverse City,443,443 #443 #0443,3500 Marketplace Circle,MI,49684
Qdoba Mexican Grill,Midwest City,444,444 #444 #0444,7191 SE 29th Street,OK,73110
Qdoba Mexican Grill,Chesterfield,445,445 #445 #0445,15829 Fountain Plaza Drive,MO,63017
Qdoba Mexican Grill,Richmond,446,446 #446 #0446,4925 W. Broad Street,VA,23230
Qdoba Mexican Grill,Livonia,448,448 #448 #0448,29515 Plymouth Road,MI,48150
Qdoba Mexican Grill,Livonia,449,449 #449 #0449,16971 Newburgh Road,MI,48152
Qdoba Mexican Grill,Grand Rapids,451,451 #451 #0451,2211 East Beltline Avenue NE,MI,49525
Qdoba Mexican Grill,Topeka,453,453 #453 #0453,1025 SW Wanamaker Road,KS,66604
Qdoba Mexican Grill,Orlando,455,455 #455 #0455,Orlando International Airport (MCO),FL,32827
Qdoba Mexican Grill,Broomfield,456,456 #456 #0456,4550 West 121st Avenue,CO,80020
Qdoba Mexican Grill,Norman,457,457 #457 #0457,1800 24th Avenue NW,OK,73069
Qdoba Mexican Grill,Bethesda,458,458 #458 #0458,7101 Democracy Boulevard,MD,20817
Qdoba Mexican Grill,Aberdeen,459,459 #459 #0459,3828 6th Avenue SE,SD,57401
Qdoba Mexican Grill,Lexington,464,464 #464 #0464,101 E. Tiverton Way,KY,40517
Qdoba Mexican Grill,Colorado Springs,465,465 #465 #0465,3670 Austin Bluffs Parkway,CO,80918
Qdoba Mexican Grill,Town And Country,466,466 #466 #0466,1082 Town and Country Crossing Drive,MO,63017
Qdoba Mexican Grill,Lexington,467,467 #467 #0467,3735 Palomar Centre Drive,KY,40513
Qdoba Mexican Grill,Louisville,469,469 #469 #0469,459 S. McCaslin Blvd.,CO,80027
Qdoba Mexican Grill,Edmond,470,470 #470 #0470,301 S. Bryant Avenue,OK,73034
Qdoba Mexican Grill,Dillon,471,471 #471 #0471,265 Dillon Ridge Road,CO,80435
Qdoba Mexican Grill,Broken Arrow,472,472 #472 #0472,2401 W. Kenosha Street,OK,74012
Qdoba Mexican Grill,Las Vegas,473,473 #473 #0473,6985 S. Rainbow Blvd.,NV,89113
Qdoba Mexican Grill,Caledonia,475,475 #475 #0475,1673 Marketplace Drive SE,MI,49316
Qdoba Mexican Grill,Holland,476,476 #476 #0476,3155 West Shore Drive,MI,49424
Qdoba Mexican Grill,Noblesville,478,478 #478 #0478,13230 Harrell Parkway,IN,46060
Qdoba Mexican Grill,Aurora,479,479 #479 #0479,10550 E. Garden Drive,CO,80012
Qdoba Mexican Grill,Centennial,480,480 #480 #0480,6703 South University Boulevard,CO,80122
Qdoba Mexican Grill,Eugene,481,481 #481 #0481,840 E. 13th Avenue,OR,97401
Qdoba Mexican Grill,Kirkwood,482,482 #482 #0482,481 South Kirkwood Road,MO,63122
Qdoba Mexican Grill,Gig Harbor,483,483 #483 #0483,4726 Borgen Blvd.,WA,98332
Qdoba Mexican Grill,Belleville,484,484 #484 #0484,5880 Belleville Crossing Street,IL,62226
Qdoba Mexican Grill,Louisville,485,485 #485 #0485,11910 Standiford Plaza Drive,KY,40229
Qdoba Mexican Grill,Wheat Ridge,486,486 #486 #0486,3500 Youngfield Street,CO,80033
Qdoba Mexican Grill,St. Louis,487,487 #487 #0487,6417 Chippewa Street,MO,63109
Qdoba Mexican Grill,Wilmington,490,490 #490 #0490,837 N. Market Street,DE,19801
Qdoba Mexican Grill,St. Cloud,491,491 #491 #0491,3219 W Division Street,MN,56303
Qdoba Mexican Grill,Boston,493,493 #493 #0493,540 Commonwealth Ave.,MA,2215
Qdoba Mexican Grill,Milwaukee,494,494 #494 #0494,1150 N. Water Street,WI,53202
Qdoba Mexican Grill,Indianapolis,495,495 #495 #0495,7800 Col. H Weir Cook Memorial Drive,IN,46241
Qdoba Mexican Grill,Riverview,496,496 #496 #0496,13165 U.S. 301,FL,33578
Qdoba Mexican Grill,Hattiesburg,497,497 #497 #0497,3705 Hardy Street,MS,39402
Qdoba Mexican Grill,Milwaukee,498,498 #498 #0498,803 N. 16th Street,WI,53233
Qdoba Mexican Grill,Avon,499,499 #499 #0499,10934 E. U.S. 36,IN,46123
Qdoba Mexican Grill,Puyallup,500,500 #500 #0500,10306 156th Street E,WA,98374
Qdoba Mexican Grill,Silver Spring,502,502 #502 #0502,8515 Colesville Rd.,MD,20910
Qdoba Mexican Grill,Madison,503,503 #503 #0503,4718 E. Towne Blvd.,WI,53704
Qdoba Mexican Grill,Midland,504,504 #504 #0504,6910 Eastman Avenue,MI,48642
Qdoba Mexican Grill,Cherry Hill,505,505 #505 #0505,1630 Kings Highway,NJ,8034
Qdoba Mexican Grill,Matthews,508,508 #508 #0508,3321 Siskey Pkwy,NC,28105
Qdoba Mexican Grill,Kearney,509,509 #509 #0509,2414 2nd Avenue,NE,68847
Qdoba Mexican Grill,Woburn,510,510 #510 #0510,300 Mishawum Road,MA,1801
Qdoba Mexican Grill,Bemidji,511,511 #511 #0511,1000 Paul Bunyan Drive S.,MN,56601
Qdoba Mexican Grill,Ft. Wayne,512,512 #512 #0512,4716 Illinois Road,IN,46804
Qdoba Mexican Grill,Richmond,513,513 #513 #0513,4501 S. Laburnum Ave.,VA,23231
Qdoba Mexican Grill,Columbus,514,514 #514 #0514,5063 N. High Street,OH,43214
Qdoba Mexican Grill,Altamonte Springs,516,516 #516 #0516,380 S. State Road 434,FL,32714
Qdoba Mexican Grill,West Goshen,518,518 #518 #0518,1107 West Chester Pike,PA,19382
Qdoba Mexican Grill,Wausau,519,519 #519 #0519,2205 Stewart Ave.,WI,54401
Qdoba Mexican Grill,East Peoria,520,520 #520 #0520,1040 W. Camp St.,IL,61611
Qdoba Mexican Grill,Peoria,521,521 #521 #0521,1216 W. Glen Avenue,IL,61614
Qdoba Mexican Grill,Des Peres,522,522 #522 #0522,12350 Manchester Road,MO,63131
Qdoba Mexican Grill,Seattle,523,523 #523 #0523,217 Pike Street,WA,98101
Qdoba Mexican Grill,Gastonia,524,524 #524 #0524,401 Cox Road,NC,28054
Qdoba Mexican Grill,Boston,527,527 #527 #0527,101 Causeway Street,MA,2114
Qdoba Mexican Grill,Arnold,528,528 #528 #0528,905 Arnold Commons Drive,MO,63010
Qdoba Mexican Grill,Westminster,529,529 #529 #0529,9379 Sheridan Blvd,CO,80031
Qdoba Mexican Grill,Lone Tree,530,530 #530 #0530,8441 S. Yosemite Street,CO,80124
Qdoba Mexican Grill,Brookings,535,535 #535 #0535,2320 6th Street,SD,57006
Qdoba Mexican Grill,West Chester,536,536 #536 #0536,7687 Doc Drive,OH,45069
Qdoba Mexican Grill,Lone Tree,537,537 #537 #0537,9994 Commons Street,CO,80124
Qdoba Mexican Grill,Alpharetta,538,538 #538 #0538,5530 Windward Parkway,GA,30004
Qdoba Mexican Grill,Jenkintown,539,539 #539 #0539,261 Old York Road,PA,19046
Qdoba Mexican Grill,Horsham,540,540 #540 #0540,100 Welsh Road,PA,19044
Qdoba Mexican Grill,Highland Heights,541,541 #541 #0541,6319 Wilson Mills Rd.,OH,44143
Qdoba Mexican Grill,Cape Girardeau,542,542 #542 #0542,3019 William Street,MO,63703
Qdoba Mexican Grill,Chesapeake,543,543 #543 #0543,1220 Greenbrier Pkwy,VA,23320
Qdoba Mexican Grill,Knightdale,544,544 #544 #0544,210 Hinton Oaks Blvd.,NC,27545
Qdoba Mexican Grill,Lansing,545,545 #545 #0545,5415 W. Saginaw Highway,MI,48917
Qdoba Mexican Grill,Paramus,548,548 #548 #0548,2701 Bergen Town Center,NJ,7652
Qdoba Mexican Grill,Redmond,549,549 #549 #0549,15946 Redmond Way,WA,98052
Qdoba Mexican Grill,Oklahoma City,550,550 #550 #0550,7002 Northwest Expressway,OK,73132
Qdoba Mexican Grill,Falls Church,551,551 #551 #0551,5872 Crossroads Center Way,VA,22041
Qdoba Mexican Grill,Chicago,552,552 #552 #0552,100 N. LaSalle Street,IL,60602
Qdoba Mexican Grill,Grand Island,553,553 #553 #0553,1010 N. Diers Avenue,NE,68803
Qdoba Mexican Grill,Cincinnati,554,554 #554 #0554,9825 Colerain Avenue,OH,45251
Qdoba Mexican Grill,Tampa,555,555 #555 #0555,3801 W. Gandy Blvd.,FL,33611
Qdoba Mexican Grill,Omaha,556,556 #556 #0556,12414 L Street,NE,68137
Qdoba Mexican Grill,Charlotte,558,558 #558 #0558,127 N. Tryon Street,NC,28202
Qdoba Mexican Grill,Chicago,559,559 #559 #0559,957 W. Diversey Pkwy.,IL,60614
Qdoba Mexican Grill,Duarte,560,560 #560 #0560,1430 Mountain Avenue,CA,91010
Qdoba Mexican Grill,Louisville,563,563 #563 #0563,312 South 4th Street,KY,40202
Qdoba Mexican Grill,Edison,564,564 #564 #0564,561 Route 1 South,NJ,8817
Qdoba Mexican Grill,Madison,566,566 #566 #0566,2 N. Park Street,WI,53715
Qdoba Mexican Grill,Farmington,567,567 #567 #0567,4903 E. Main St.,NM,87401
Qdoba Mexican Grill,Portland,569,569 #569 #0569,825 NE Weidler St.,OR,97232
Qdoba Mexican Grill,Manassas,570,570 #570 #0570,9674 Liberia Ave.,VA,20110
Qdoba Mexican Grill,Louisville,571,571 #571 #0571,6814 Dixie Highway,KY,40258
Qdoba Mexican Grill,Barboursville,573,573 #573 #0573,500 Mall Rd.,WV,25504
Qdoba Mexican Grill,Vernon Hills,574,574 #574 #0574,700 E. Townline Rd.,IL,60061
Qdoba Mexican Grill,Moline,575,575 #575 #0575,4402 16th Street,IL,61265
Qdoba Mexican Grill,Lincoln,577,577 #577 #0577,211 N. 12th Street,NE,68508
Qdoba Mexican Grill,Eldersburg,578,578 #578 #0578,1325A Liberty Road,MD,21784
Qdoba Mexican Grill,Columbia,579,579 #579 #0579,2006 Devine St.,SC,29205
Qdoba Mexican Grill,Newark,580,580 #580 #0580,10 Toler Place,NJ,7114
Qdoba Mexican Grill,Whitewater,581,581 #581 #0581,1114 W. Main Street,WI,53190
Qdoba Mexican Grill,Valparaiso,582,582 #582 #0582,2710 LaPorte Avenue,IN,46383
Qdoba Mexican Grill,Brandon,583,583 #583 #0583,1013 W. Brandon Blvd.,FL,33511
Qdoba Mexican Grill,Austin,585,585 #585 #0585,9828 Great Hills Trail,TX,78759
Qdoba Mexican Grill,Woodbridge,586,586 #586 #0586,2824 Prince William Pkwy.,VA,22192
Qdoba Mexican Grill,Quincy,588,588 #588 #0588,415 N. 32nd Street,IL,62301
Qdoba Mexican Grill,Baltimore,589,589 #589 #0589,3500 Boston St.,MD,21224
Qdoba Mexican Grill,Austin,590,590 #590 #0590,2402 Guadalupe St.,TX,78705
Qdoba Mexican Grill,Wichita Falls,591,591 #591 #0591,3201 Lawrence Road,TX,76308
Qdoba Mexican Grill,Hermitage,592,592 #592 #0592,5225 Old Hickory Blvd.,TN,37076
Qdoba Mexican Grill,Billings,594,594 #594 #0594,2350 King Avenue,MT,59102
Qdoba Mexican Grill,Culver City,597,597 #597 #0597,6000 Sepulveda Blvd.,CA,90230
Qdoba Mexican Grill,Princeton,598,598 #598 #0598,140 Nassau Street,NJ,8542
Qdoba Mexican Grill,Mount Pleasant,601,601 #601 #0601,1333 Theater Dr.,SC,29464
Qdoba Mexican Grill,Washington,602,602 #602 #0602,1850 M Street NW,DC,20036
Qdoba Mexican Grill,Spokane,604,604 #604 #0604,1527 North Pines Road,WA,99206
Qdoba Mexican Grill,Rogers,605,605 #605 #0605,2005 Promenade Blvd.,AR,72758
Qdoba Mexican Grill,Greenfield,606,606 #606 #0606,2037 N. State Street,IN,46140
Qdoba Mexican Grill,Rapid City,607,607 #607 #0607,1745 Eglin Street,SD,57701
Qdoba Mexican Grill,Camas,611,611 #611 #0611,155 NE 192nd Ave.,WA,98607
Qdoba Mexican Grill,Wayne,613,613 #613 #0613,1220 Willowbrook Mall,NJ,7470
Qdoba Mexican Grill,Okemos,614,614 #614 #0614,1941 West Grand River Avenue,MI,48864
Qdoba Mexican Grill,Muskegon Heights,615,615 #615 #0615,5350 S. Harvey Street,MI,49444
Qdoba Mexican Grill,Allen Park,616,616 #616 #0616,3452 Fairlane Dr.,MI,48101
Qdoba Mexican Grill,Saint Charles,617,617 #617 #0617,1315 Bass Pro Drive,MO,63301
Qdoba Mexican Grill,Burleson,618,618 #618 #0618,1505 SW Wilshire Blvd.,TX,76028
Qdoba Mexican Grill,Silver Spring,619,619 #619 #0619,12265 Tech Road,MD,20902
Qdoba Mexican Grill,Collegeville,621,621 #621 #0621,500 Broad Street,PA,19426
Qdoba Mexican Grill,Williamsburg,622,622 #622 #0622,1220 Richmond Road,VA,23185
Qdoba Mexican Grill,Milwaukee,623,623 #623 #0623,639 W. Layton Avenue,WI,53221
Qdoba Mexican Grill,Florham Park,624,624 #624 #0624,176 Columbia Turnpike,NJ,7932
Qdoba Mexican Grill,Erie,625,625 #625 #0625,7165 Peach Street,PA,16509
Qdoba Mexican Grill,Wilsonville,627,627 #627 #0627,30040 SW Boones Ferry Road,OR,97070
Qdoba Mexican Grill,Vail,628,628 #628 #0628,2161 N Frontage Road W,CO,81657
Qdoba Mexican Grill,Morristown,629,629 #629 #0629,40 W. Park Place,NJ,7960
Qdoba Mexican Grill,Cincinnati,630,630 #630 #0630,2721 Edmondson Rd.,OH,45209
Qdoba Mexican Grill,Arlington,632,632 #632 #0632,1 Avaiation Circle,VA,22202
Qdoba Mexican Grill,Shakopee,635,635 #635 #0635,4057 Dean Lakes Blvd.,MN,55379
Qdoba Mexican Grill,Baltimore,637,637 #637 #0637,6304 1/2 York Road,MD,21212
Qdoba Mexican Grill,Minot,638,638 #638 #0638,1700 S. Broadway,ND,58701
Qdoba Mexican Grill,Kalamazoo,640,640 #640 #0640,3150 S. Westnedge Ave.,MI,49008
Qdoba Mexican Grill,Louisville,641,641 #641 #0641,1832 South 3rd Street,KY,40208
Qdoba Mexican Grill,Cypress,642,642 #642 #0642,17400 Spring Cypress Road,TX,77429
Qdoba Mexican Grill,Bayonne,644,644 #644 #0644,905 Bayonne Crossing Way,NJ,7002
Qdoba Mexican Grill,Fairfax,645,645 #645 #0645,10338 Main Street,VA,22030
Qdoba Mexican Grill,Moore,646,646 #646 #0646,660 SW 19th Street,OK,73160
Qdoba Mexican Grill,South Charleston,647,647 #647 #0647,98 R H L Boulevard,WV,25309
Qdoba Mexican Grill,Jackson,649,649 #649 #0649,1101 Boardman Rd.,MI,49202
Qdoba Mexican Grill,Terre Haute,651,651 #651 #0651,3510 U.S. 41,IN,47802
Qdoba Mexican Grill,Traverse City,652,652 #652 #0652,1280 W. South Airport Road,MI,49686
Qdoba Mexican Grill,Merrillville,653,653 #653 #0653,333 E. 81st Avenue,IN,46410
Qdoba Mexican Grill,Montrose,654,654 #654 #0654,2620 Woodgate Rd.,CO,81401
Qdoba Mexican Grill,Grand Rapids,655,655 #655 #0655,25 Michigan St. NE,MI,49503
Qdoba Mexican Grill,Eagan,656,656 #656 #0656,1298 Promenade Place,MN,55121
Qdoba Mexican Grill,Voorhees,657,657 #657 #0657,1510 Voorhees Town Center,NJ,8043
Qdoba Mexican Grill,Clarksville,658,658 #658 #0658,1305 Veterans Pkwy.,IN,47129
Qdoba Mexican Grill,Fort Wayne,659,659 #659 #0659,700 E. Coliseum Blvd.,IN,46805
Qdoba Mexican Grill,Rochester Hills,660,660 #660 #0660,1198 Walton Blvd,MI,48307
Qdoba Mexican Grill,Oklahoma City,661,661 #661 #0661,2145 SW 104th Street,OK,73170
Qdoba Mexican Grill,Willmar,662,662 #662 #0662,600 19th Avenue SE,MN,56201
Qdoba Mexican Grill,Highland,663,663 #663 #0663,10439 S. Indianapolis Blvd.,IN,46322
Qdoba Mexican Grill,Joplin,666,666 #666 #0666,3102 E. 7th Street,MO,64801
Qdoba Mexican Grill,Roseville,668,668 #668 #0668,31982 Gratiot Avenue,MI,48066
Qdoba Mexican Grill,Fargo,669,669 #669 #0669,3902 13th Avenue South,ND,58103
Qdoba Mexican Grill,Charleston,670,670 #670 #0670,3000 Charleston Town Center,WV,25389
Qdoba Mexican Grill,Cedar Park,672,672 #672 #0672,1335 E. Whitestone Blvd.,TX,78613
Qdoba Mexican Grill,Phoenix,673,673 #673 #0673,4923 E. Chandler Blvd.,AZ,85048
Qdoba Mexican Grill,Blacksburg,674,674 #674 #0674,117A Lavery Hall,VA,24061
Qdoba Mexican Grill,Sandy Springs,679,679 #679 #0679,5610 Glenridge Drive NE,GA,30342
Qdoba Mexican Grill,Staten Island,681,681 #681 #0681,2335 Richmond Ave,NY,10314
Qdoba Mexican Grill,Jeffersontown,682,682 #682 #0682,1831 Blankenbaker Parkway,KY,40299
Qdoba Mexican Grill,Gaylord,683,683 #683 #0683,826 W Main St,MI,49735
Qdoba Mexican Grill,Gillette,687,687 #687 #0687,2711 S. Douglas Highway,WY,82718
Qdoba Mexican Grill,Scottsdale,688,688 #688 #0688,4032 N. Scottsdale Rd,AZ,85251
Qdoba Mexican Grill,Houston,689,689 #689 #0689,1000 Bay Area Blvd.,TX,77058
Qdoba Mexican Grill,Bloomfield Township,691,691 #691 #0691,42967 Woodward Avenue,MI,48304
Qdoba Mexican Grill,Lexington,692,692 #692 #0692,46 Bedford Street,MA,2420
Qdoba Mexican Grill,Tempe,693,693 #693 #0693,1290 S. Normal Avenue,AZ,85287
Qdoba Mexican Grill,Chicago,694,694 #694 #0694,5706 South University Avenue,IL,60637
Qdoba Mexican Grill,Northville,695,695 #695 #0695,20561 Haggerty Rd.,MI,48167
Qdoba Mexican Grill,Auburn Hills,696,696 #696 #0696,3945 Baldwin Rd.,MI,48326
Qdoba Mexican Grill,Oshkosh,697,697 #697 #0697,1990 Menard Drive,WI,54902
Qdoba Mexican Grill,Boise,698,698 #698 #0698,590 South Broadway Avenue,ID,83702
Qdoba Mexican Grill,Grand Rapids,699,699 #699 #0699,5595 28th Street SE,MI,49512
Qdoba Mexican Grill,Council Bluffs,700,700 #700 #0700,3825 Denmark Drive,IA,51501
Qdoba Mexican Grill,Union,702,702 #702 #0702,2268 US 22,NJ,7083
Qdoba Mexican Grill,Farmington Hills,703,703 #703 #0703,31367 Orchard Lake Road,MI,48334
Qdoba Mexican Grill,Fort Collins,704,704 #704 #0704,2638 S. Timberline Road,CO,80525
Qdoba Mexican Grill,Appleton,705,705 #705 #0705,3813 E. Calumet St.,WI,54915
Qdoba Mexican Grill,Casper,706,706 #706 #0706,5030 East 2nd Street,WY,82609
Qdoba Mexican Grill,Oklahoma City,708,708 #708 #0708,6432 SW 3rd Street,OK,73128
Qdoba Mexican Grill,Whitehall,710,710 #710 #0710,2669 MacArthur Road,PA,18052
Qdoba Mexican Grill,Braintree,711,711 #711 #0711,30 Forbes Road,MA,2184
Qdoba Mexican Grill,Piscataway,713,713 #713 #0713,55 Rockafeller Road,NJ,8854
Qdoba Mexican Grill,Des Moines,714,714 #714 #0714,2105 Ingersoll Avenue,IA,50312
Qdoba Mexican Grill,Arvada,715,715 #715 #0715,14575 West 64th Avenue,CO,80004
Qdoba Mexican Grill,Mansfield,716,716 #716 #0716,1401 E Debbie Lane,TX,76063
Qdoba Mexican Grill,Wasilla,717,717 #717 #0717,1515 E Parks Highway,AK,99654
Qdoba Mexican Grill,Brandon,718,718 #718 #0718,2 - 1830 Park Avenue,MB,R7B0
Qdoba Mexican Grill,Pomona,719,719 #719 #0719,3801 West Temple Avenue,CA,91768
Qdoba Mexican Grill,Cedar Falls,720,720 #720 #0720,6406 University Avenue,IA,50613
Qdoba Mexican Grill,Sheridan,722,722 #722 #0722,2112 Coffeen Avenue,WY,82801
Qdoba Mexican Grill,Merrimack,723,723 #723 #0723,17C Premium Outlets Boulevard,NH,3054
Qdoba Mexican Grill,Columbus,724,724 #724 #0724,1956 N High Street,OH,43201
Qdoba Mexican Grill,Princeton,725,725 #725 #0725,3535 US Route 1,NJ,8540
Qdoba Mexican Grill,Springfield,726,726 #726 #0726,2320 Wabash Avenue,IL,62704
Qdoba Mexican Grill,Salt Lake City,727,727 #727 #0727,Salt Lake City International Airport,UT,84116
Qdoba Mexican Grill,Mill Creek,729,729 #729 #0729,16314 Bothell-Everett Highway,WA,98012
Qdoba Mexican Grill,Edina,730,730 #730 #0730,2292 Southdale Center,MN,55435
Qdoba Mexican Grill,Springfield,731,731 #731 #0731,401 S Kimbrough Ave,MO,65806
Qdoba Mexican Grill,Green Bay,732,732 #732 #0732,2450 E Mason Street,WI,54311
Qdoba Mexican Grill,Taylor,734,734 #734 #0734,22040 Eureka Road,MI,48180
Qdoba Mexican Grill,Arlington Heights,735,735 #735 #0735,1025 West Dundee Road,IL,60004
Qdoba Mexican Grill,Anderson,736,736 #736 #0736,4682 S Scatterfield Road,IN,46013
Qdoba Mexican Grill,Watertown,737,737 #737 #0737,951 19th Street South East,SD,57201
Qdoba Mexican Grill,London,738,738 #738 #0738,841 Wellington Road South,ON,N6E3
Qdoba Mexican Grill,Primm,739,739 #739 #0739,100 West Primm Boulevard,NV,89019
Qdoba Mexican Grill,Milwaukee,740,740 #740 #0740,1240 Miller Park Way,WI,53214
Qdoba Mexican Grill,Louisville,741,741 #741 #0741,13006 Shelbyville Road,KY,40243
Qdoba Mexican Grill,Bingham Farms,742,742 #742 #0742,30758 Telegraph Road,MI,48025
Qdoba Mexican Grill,Wilkesboro,745,745 #745 #0745,1510 Winkler Mill Road Extension,NC,28697
Qdoba Mexican Grill,Bozeman,746,746 #746 #0746,855 South 29th Avenue,MT,59718
Qdoba Mexican Grill,Freehold,747,747 #747 #0747,3710 US Highway 9,NJ,7728
Qdoba Mexican Grill,Sioux City,748,748 #748 #0748,5110 Sergeant Road,IA,51106
Qdoba Mexican Grill,Novi,750,750 #750 #0750,26401 Novi Road,MI,48375
Qdoba Mexican Grill,Indianapolis,751,751 #751 #0751,233 South Delaware Street,IN,46204
Qdoba Mexican Grill,Northborough,752,752 #752 #0752,4104 Shops Way,MA,1532
Qdoba Mexican Grill,Columbus,753,753 #753 #0753,1665 North National Road,IN,47201
Qdoba Mexican Grill,Jersey City,754,754 #754 #0754,30 Mall Drive West,NJ,7310
Qdoba Mexican Grill,Colby,755,755 #755 #0755,700 W Horton Avenue,KS,67701
Qdoba Mexican Grill,York,756,756 #756 #0756,303 Arsenal Road,PA,17402
Qdoba Mexican Grill,Indianapolis,757,757 #757 #0757,4200 South East Street,IN,46227
Qdoba Mexican Grill,Annapolis,758,758 #758 #0758,1901 Towne Centre Boulevard,MD,21401
Qdoba Mexican Grill,Sheboygan,760,760 #760 #0760,3551 Washington Avenue,WI,53081
Qdoba Mexican Grill,Louisville,761,761 #761 #0761,6403 Bardstown Road,KY,40291
Qdoba Mexican Grill,Norwalk,762,762 #762 #0762,652 Main Avenue,CT,6851
Qdoba Mexican Grill,Swampscott,763,763 #763 #0763,1016 Paradise Road,MA,1907
Qdoba Mexican Grill,Schaumburg,764,764 #764 #0764,2602 West Schaumburg Road,IL,60194
Qdoba Mexican Grill,Georgetown,765,765 #765 #0765,106 Magnolia Crossing,KY,40324
Qdoba Mexican Grill,Harrisburg,766,766 #766 #0766,3462 Paxton Street,PA,17111
Qdoba Mexican Grill,Junction City,767,767 #767 #0767,820 East Chestnut Street,KS,66441
Qdoba Mexican Grill,Hutchinson,768,768 #768 #0768,1518 E. 17th Avenue,KS,67501
Qdoba Mexican Grill,Lancaster,787,787 #787 #0787,35 South Willowdale Drive,PA,17602
Qdoba Mexican Grill,Gambrills,788,788 #788 #0788,1404 South Main Chapel Way,MD,21054
Qdoba Mexican Grill,San Diego,789,789 #789 #0789,3225 North Harbor Drive,CA,92101
Qdoba Mexican Grill,Fort Gratiot,793,793 #793 #0793,4214 24th Avenue,MI,48059
Qdoba Mexican Grill,Denver,794,794 #794 #0794,2100 South University Boulevard,CO,80210
Qdoba Mexican Grill,Farmington,799,799 #799 #0799,708 West Karsch Boulevard,MO,63640
Qdoba Mexican Grill,Milwaukee,800,800 #800 #0800,1417 North Wauwatosa Avenue,WI,53213
Qdoba Mexican Grill,Lawton,801,801 #801 #0801,1772 NW 82nd Street,OK,73505
Qdoba Mexican Grill,Broomall,804,804 #804 #0804,1991 Sproul Road,PA,19008
Qdoba Mexican Grill,South Portland,806,806 #806 #0806,364 Maine Mall Road,ME,4106
Qdoba Mexican Grill,North Chesterfield,808,808 #808 #0808,123 Stonebridge Plaza Avenue,VA,23236
Qdoba Mexican Grill,West Hartford,809,809 #809 #0809,345 North Main Street,CT,6117
Qdoba Mexican Grill,Jonesboro,810,810 #810 #0810,2935 Parkwood Road,AR,72401
Qdoba Mexican Grill,La Crosse,812,812 #812 #0812,127 3rd Street South,WI,54601
Qdoba Mexican Grill,Elon,814,814 #814 #0814,100 Dalton McMichael Drive,NC,27244
Qdoba Mexican Grill,Shelby Township,816,816 #816 #0816,15099 Hall Road,MI,48315
Qdoba Mexican Grill,New Albany,821,821 #821 #0821,2216 State Street,IN,47150
Qdoba Mexican Grill,Hayden,822,822 #822 #0822,245 West Prairie Shopping Center,ID,83835
Qdoba Mexican Grill,Watchung,823,823 #823 #0823,1595 US 22,NJ,7069
Qdoba Mexican Grill,Murray,830,830 #830 #0830,618 North 12th Street,KY,42071
