Keywords,city, Agg store_number,store_number,address,state,zip_code
RaceTrac,Watkinsville,51,000051 000000000051 051 51 RACETRAC051 RACETRAC51 ,7921 Macon Hwy.,GA,30677
RaceTrac,Kennesaw,52,000052 000000000052 052 52 RACETRAC052 RACETRAC52 ,1625 Old Highway 41,GA,30152
RaceTrac,Mableton,53,000053 000000000053 053 53 RACETRAC053 RACETRAC53 ,5350 Floyd Road,GA,30126-2216
RaceTrac,Snellville,55,000055 000000000055 055 55 RACETRAC055 RACETRAC55 ,3840 Stone Mountain Hwy.,GA,30039
RaceTrac,N. Lauderdale,57,000057 000000000057 057 57 RACETRAC057 RACETRAC57 ,7350 West McNab Road,FL,33068
RaceTrac,Crystal River,59,000059 000000000059 059 59 RACETRAC059 RACETRAC59 ,1030 S.E. US Hwy. 19,FL,34428
RaceTrac,Kissimmee,62,000062 000000000062 062 62 RACETRAC062 RACETRAC62 ,901 E. Vine Street,FL,34744
RaceTrac,Stuart,63,000063 000000000063 063 63 RACETRAC063 RACETRAC63 ,1755 NW Federal Hwy.,FL,34994
RaceTrac,Addison,64,000064 000000000064 064 64 RACETRAC064 RACETRAC64 ,15196 Marsh Lane,TX,75001
RaceTrac,Burleson,68,000068 000000000068 068 68 RACETRAC068 RACETRAC68 ,775 NE Alsbury Blvd.,TX,76028
RaceTrac,Baton Rouge,69,000069 000000000069 069 69 RACETRAC069 RACETRAC69 ,2330 O'Neal Lane,LA,70816
RaceTrac,McDonough,72,000072 000000000072 072 72 RACETRAC072 RACETRAC72 ,1320 Hwy. 20 W,GA,30253
RaceTrac,Grand Prairie,73,000073 000000000073 073 73 RACETRAC073 RACETRAC73 ,1525 N. Belt Line Rd.,TX,75050
RaceTrac,Jefferson,74,000074 000000000074 074 74 RACETRAC074 RACETRAC74 ,4752 Highway 129 North,GA,30549
RaceTrac,Canton,75,000075 000000000075 075 75 RACETRAC075 RACETRAC75 ,9665 Knox Bridge Hwy.,GA,30114
RaceTrac,Hiram,76,000076 000000000076 076 76 RACETRAC076 RACETRAC76 ,5882 Wendy Bagwell Parkway,GA,30141
RaceTrac,Carrollton,77,000077 000000000077 077 77 RACETRAC077 RACETRAC77 ,4788 N. Josey Lane,TX,75010
RaceTrac,Marietta,78,000078 000000000078 078 78 RACETRAC078 RACETRAC78 ,2491 Macland Rd. SW,GA,30064
RaceTrac,Murphy,79,000079 000000000079 079 79 RACETRAC079 RACETRAC79 ,401 E. FM 544,TX,75094
RaceTrac,Woodstock,80,000080 000000000080 080 80 RACETRAC080 RACETRAC80 ,7499 Hwy. 92,GA,30189
RaceTrac,Jacksonville,81,000081 000000000081 081 81 RACETRAC081 RACETRAC81 ,8240 Merrill Rd.,FL,32277
RaceTrac,Lake Wales,82,000082 000000000082 082 82 RACETRAC082 RACETRAC82 ,24224 U.S. Hwy. 27,FL,33859
RaceTrac,Hammond,84,000084 000000000084 084 84 RACETRAC084 RACETRAC84 ,3090 Hwy. 190 W,LA,70401
RaceTrac,Cape Coral,85,000085 000000000085 085 85 RACETRAC085 RACETRAC85 ,314 Del Prado Blvd.,FL,33909
RaceTrac,Tampa,87,000087 000000000087 087 87 RACETRAC087 RACETRAC87 ,7621 W. Linebaugh Ave,FL,33625
RaceTrac,Deland,88,000088 000000000088 088 88 RACETRAC088 RACETRAC88 ,1286 E. Internatlional Speedway,FL,32724
RaceTrac,Brooksville,89,000089 000000000089 089 89 RACETRAC089 RACETRAC89 ,16129 Cortez Blvd.,FL,34613
RaceTrac,Orlando,90,000090 000000000090 090 90 RACETRAC090 RACETRAC90 ,14751 E. Colonial Dr.,FL,32828
RaceTrac,Kenner,92,000092 000000000092 092 92 RACETRAC092 RACETRAC92 ,2101 Airline Drive,LA,70062
RaceTrac,Allen,93,000093 000000000093 093 93 RACETRAC093 RACETRAC93 ,379 E. Bethany Dr.,TX,75002
RaceTrac,Lawrenceville,94,000094 000000000094 094 94 RACETRAC094 RACETRAC94 ,1385 Grayson Highway,GA,30045
RaceTrac,Port Charlotte,95,000095 000000000095 095 95 RACETRAC095 RACETRAC95 ,1520 El Jobean Road,FL,33948
RaceTrac,Inverness,97,000097 000000000097 097 97 RACETRAC097 RACETRAC97 ,2120 W. Highway 44,FL,34453
RaceTrac,Jacksonville,98,000098 000000000098 098 98 RACETRAC098 RACETRAC98 ,1202 Dunn Avenue,FL,32218
RaceTrac,Plano,99,000099 000000000099 099 99 RACETRAC099 RACETRAC99 ,110 W. Park Blvd,TX,75075
RaceTrac,Bradenton,100,0000100 0000000000100 0100 100 RACETRAC0100 RACETRAC100 ,111 12th Avenue E.,FL,34208
RaceTrac,The Colony,101,0000101 0000000000101 0101 101 RACETRAC0101 RACETRAC101 ,4350 Main Street,TX,75056
RaceTrac,Pembroke Park,102,0000102 0000000000102 0102 102 RACETRAC0102 RACETRAC102 ,3996 Pembroke Road,FL,33021
RaceTrac,Palm Coast,104,0000104 0000000000104 0104 104 RACETRAC0104 RACETRAC104 ,301 Palm Coast Pkwy.,FL,32137
RaceTrac,Lakeland,106,0000106 0000000000106 0106 106 RACETRAC0106 RACETRAC106 ,2750 US Highway 98 N.,FL,33805
RaceTrac,Largo,107,0000107 0000000000107 0107 107 RACETRAC0107 RACETRAC107 ,8650 Ulmerton Road,FL,33771-3872
RaceTrac,Haltom City,108,0000108 0000000000108 0108 108 RACETRAC0108 RACETRAC108 ,5310 N. Beach Street,TX,76137
RaceTrac,Brooksville,109,0000109 0000000000109 0109 109 RACETRAC0109 RACETRAC109 ,9410 Cortez Blvd.,FL,34613
RaceTrac,Union City,110,0000110 0000000000110 0110 110 RACETRAC0110 RACETRAC110 ,4255 Jonesboro Road,GA,30291
RaceTrac,Port Charlotte,111,0000111 0000000000111 0111 111 RACETRAC0111 RACETRAC111 ,24401 Sandhill Blvd.,FL,33983
RaceTrac,Miami,112,0000112 0000000000112 0112 112 RACETRAC0112 RACETRAC112 ,20696 NW 27th Avenue,FL,33169
RaceTrac,Tampa,113,0000113 0000000000113 0113 113 RACETRAC0113 RACETRAC113 ,1251 East Fletcher Avenue,FL,33612
RaceTrac,Alpharetta,114,0000114 0000000000114 0114 114 RACETRAC0114 RACETRAC114 ,915 McFarland Road,GA,30004
RaceTrac,Denton,116,0000116 0000000000116 0116 116 RACETRAC0116 RACETRAC116 ,1450 Dallas Drive,TX,76205
RaceTrac,Baton Rouge,117,0000117 0000000000117 0117 117 RACETRAC0117 RACETRAC117 ,3730 Harding Boulevard,LA,70807
RaceTrac,Jasper,118,0000118 0000000000118 0118 118 RACETRAC0118 RACETRAC118 ,303 Interstate South Drive,GA,30143
RaceTrac,Denton,119,0000119 0000000000119 0119 119 RACETRAC0119 RACETRAC119 ,601 Fort Worth Drive,TX,76201
RaceTrac,Marietta,120,0000120 0000000000120 0120 120 RACETRAC0120 RACETRAC120 ,749 South Marietta Parkway,GA,30060
RaceTrac,Oakland Park,121,0000121 0000000000121 0121 121 RACETRAC0121 RACETRAC121 ,2351 W. Oakland Park Blvd.,FL,33309
RaceTrac,Marietta,122,0000122 0000000000122 0122 122 RACETRAC0122 RACETRAC122 ,2732 Powder Springs Rd. SW,GA,30064
RaceTrac,Fort Worth,123,0000123 0000000000123 0123 123 RACETRAC0123 RACETRAC123 ,1840 Eastchase Pkwy.,TX,76120
RaceTrac,Lithonia,124,0000124 0000000000124 0124 124 RACETRAC0124 RACETRAC124 ,2294 Rock Chapel Road,GA,30058
RaceTrac,Sarasota,126,0000126 0000000000126 0126 126 RACETRAC0126 RACETRAC126 ,5600 Fruitville Road,FL,34232
RaceTrac,Arlington,127,0000127 0000000000127 0127 127 RACETRAC0127 RACETRAC127 ,4201 S. Bowen Road,TX,76016
RaceTrac,McKinney,130,0000130 0000000000130 0130 130 RACETRAC0130 RACETRAC130 ,1608 S. McDonald Street,TX,75069
RaceTrac,LaPlace,131,0000131 0000000000131 0131 131 RACETRAC0131 RACETRAC131 ,200 W. Airline Hwy.,LA,70068
RaceTrac,Denton,132,0000132 0000000000132 0132 132 RACETRAC0132 RACETRAC132 ,3600 E. University Drive,TX,76208
RaceTrac,Frisco,133,0000133 0000000000133 0133 133 RACETRAC0133 RACETRAC133 ,4740 Main St,TX,75034
RaceTrac,Haltom City,134,0000134 0000000000134 0134 134 RACETRAC0134 RACETRAC134 ,5524 Denton Highway,TX,76148
RaceTrac,Plano,135,0000135 0000000000135 0135 135 RACETRAC0135 RACETRAC135 ,2865 W. Plano Parkway,TX,75075
RaceTrac,Kissimmee,137,0000137 0000000000137 0137 137 RACETRAC0137 RACETRAC137 ,4554 W. Irlo Bronson Mem. Hwy.,FL,34746
RaceTrac,Gretna,139,0000139 0000000000139 0139 139 RACETRAC0139 RACETRAC139 ,1625 Lafayette Street,LA,70053
RaceTrac,Mableton,140,0000140 0000000000140 0140 140 RACETRAC0140 RACETRAC140 ,1461 Veterans Memorial Hwy. SE,GA,30126
RaceTrac,Middleburg,141,0000141 0000000000141 0141 141 RACETRAC0141 RACETRAC141 ,2501 Blanding Blvd.,FL,32068
RaceTrac,Belleview,142,0000142 0000000000142 0142 142 RACETRAC0142 RACETRAC142 ,5305 SE Abshier Blvd.,FL,34420
RaceTrac,Carrollton,143,0000143 0000000000143 0143 143 RACETRAC0143 RACETRAC143 ,2460 Luna Road,TX,75006
RaceTrac,Rowlett,144,0000144 0000000000144 0144 144 RACETRAC0144 RACETRAC144 ,7401 Lakeview Pkwy.,TX,75089
RaceTrac,Leesburg,145,0000145 0000000000145 0145 145 RACETRAC0145 RACETRAC145 ,2115 U.S. Hwy 441,FL,34748
RaceTrac,Opelousas,146,0000146 0000000000146 0146 146 RACETRAC0146 RACETRAC146 ,1018 East Landry Street,LA,70570
RaceTrac,Woodstock,147,0000147 0000000000147 0147 147 RACETRAC0147 RACETRAC147 ,155 Hames Rd.,GA,30188
RaceTrac,Groveland,148,0000148 0000000000148 0148 148 RACETRAC0148 RACETRAC148 ,622 E. Broad Street,FL,34736
RaceTrac,Frisco,153,0000153 0000000000153 0153 153 RACETRAC0153 RACETRAC153 ,7215 Custer Road,TX,75035
RaceTrac,McKinney,155,0000155 0000000000155 0155 155 RACETRAC0155 RACETRAC155 ,1004 E. University Blvd.,TX,75069
RaceTrac,St. Augustine,156,0000156 0000000000156 0156 156 RACETRAC0156 RACETRAC156 ,2711 State Road 16,FL,32092
RaceTrac,McKinney,157,0000157 0000000000157 0157 157 RACETRAC0157 RACETRAC157 ,2152 Virginia Pkwy.,TX,75070
RaceTrac,Lawrenceville,158,0000158 0000000000158 0158 158 RACETRAC0158 RACETRAC158 ,3405 Sugarloaf Pkwy.,GA,30044
RaceTrac,Avon Park,159,0000159 0000000000159 0159 159 RACETRAC0159 RACETRAC159 ,1625 U S Hwy.  27 S,FL,33825
RaceTrac,Kissimmee,160,0000160 0000000000160 0160 160 RACETRAC0160 RACETRAC160 ,4510 S. Orange Blossom Trail,FL,34746
RaceTrac,Millenia,162,0000162 0000000000162 0162 162 RACETRAC0162 RACETRAC162 ,6001 S. John Young Parkway,FL,32839
RaceTrac,Tampa,165,0000165 0000000000165 0165 165 RACETRAC0165 RACETRAC165 ,6056 W. Waters Avenue,FL,33604
RaceTrac,Mansfield,166,0000166 0000000000166 0166 166 RACETRAC0166 RACETRAC166 ,3241 E. Broad Street,TX,76063
RaceTrac,Sanford,167,0000167 0000000000167 0167 167 RACETRAC0167 RACETRAC167 ,4115 E. State Rd. 46,FL,32771
RaceTrac,Denham Springs,168,0000168 0000000000168 0168 168 RACETRAC0168 RACETRAC168 ,2216 Florida Blvd.,LA,70726
RaceTrac,Eagle Lake,170,0000170 0000000000170 0170 170 RACETRAC0170 RACETRAC170 ,US Hwy. 17 & SR 540,FL,33839
RaceTrac,Garland,173,0000173 0000000000173 0173 173 RACETRAC0173 RACETRAC173 ,6421 Broadway Blvd.,TX,75043
RaceTrac,Irving,174,0000174 0000000000174 0174 174 RACETRAC0174 RACETRAC174 ,8400 N. Beltline,TX,75063
RaceTrac,Grand Prairie,176,0000176 0000000000176 0176 176 RACETRAC0176 RACETRAC176 ,4055 S. Great Southwest,TX,75052
RaceTrac,Azle,177,0000177 0000000000177 0177 177 RACETRAC0177 RACETRAC177 ,901 Boyd Road,TX,76020
RaceTrac,Mt. Dora,181,0000181 0000000000181 0181 181 RACETRAC0181 RACETRAC181 ,20005 US Hwy 441,FL,32757
RaceTrac,Hampton,182,0000182 0000000000182 0182 182 RACETRAC0182 RACETRAC182 ,4200 N. Expressway,GA,30228
RaceTrac,Garland,183,0000183 0000000000183 0183 183 RACETRAC0183 RACETRAC183 ,1355 Hwy. 66,TX,75040
RaceTrac,Orange City,184,0000184 0000000000184 0184 184 RACETRAC0184 RACETRAC184 ,1900 N. Volusia Ave.,FL,32763
RaceTrac,Picayune,185,0000185 0000000000185 0185 185 RACETRAC0185 RACETRAC185 ,2000 Hwy 43 South,MS,39466
RaceTrac,Lady Lake,186,0000186 0000000000186 0186 186 RACETRAC0186 RACETRAC186 ,324 N. US Hwy. 27/441,FL,32159
RaceTrac,Arlington,187,0000187 0000000000187 0187 187 RACETRAC0187 RACETRAC187 ,1350 Debbie Lane,TX,76002
RaceTrac,Orlando,189,0000189 0000000000189 0189 189 RACETRAC0189 RACETRAC189 ,13891 Landstar Blvd.,FL,32824
RaceTrac,Baton Rouge,191,0000191 0000000000191 0191 191 RACETRAC0191 RACETRAC191 ,8940 Greenwell Springs Road,LA,70814
RaceTrac,Fayetteville,192,0000192 0000000000192 0192 192 RACETRAC0192 RACETRAC192 ,897 Hwy 85 South,GA,30214
RaceTrac,Florida City,194,0000194 0000000000194 0194 194 RACETRAC0194 RACETRAC194 ,35426 S. Dixie Hwy.,FL,33034
RaceTrac,Homosassa Springs,195,0000195 0000000000195 0195 195 RACETRAC0195 RACETRAC195 ,3861 S. Suncoast Blvd.,FL,34448
RaceTrac,Orange Park,196,0000196 0000000000196 0196 196 RACETRAC0196 RACETRAC196 ,947 Park Avenue,FL,32073
RaceTrac,Dallas,198,0000198 0000000000198 0198 198 RACETRAC0198 RACETRAC198 ,18599 Marsh Lane,TX,75287
RaceTrac,Lehigh Acres,199,0000199 0000000000199 0199 199 RACETRAC0199 RACETRAC199 ,5570 Lee Blvd,FL,33971
RaceTrac,Bradenton,200,0000200 0000000000200 0200 200 RACETRAC0200 RACETRAC200 ,5410 W. 14th Street,FL,34207
RaceTrac,Kissimmee,201,0000201 0000000000201 0201 201 RACETRAC0201 RACETRAC201 ,8890 W. Irlo Bronson Mem. Hwy.,FL,34747
RaceTrac,Fort Myers,202,0000202 0000000000202 0202 202 RACETRAC0202 RACETRAC202 ,13631 Goldenwood Dr.,FL,33913
RaceTrac,Dawsonville,204,0000204 0000000000204 0204 204 RACETRAC0204 RACETRAC204 ,1554 Hwy. 400 S,GA,30534
RaceTrac,Jacksonville,205,0000205 0000000000205 0205 205 RACETRAC0205 RACETRAC205 ,11760 Phillips Highway,FL,32256-1642
RaceTrac,Lawrenceville,206,0000206 0000000000206 0206 206 RACETRAC0206 RACETRAC206 ,2682 Buford Drive,GA,30043
RaceTrac,Nokomis,208,0000208 0000000000208 0208 208 RACETRAC0208 RACETRAC208 ,410 South Tamiami Trail,FL,34275
RaceTrac,Dalton,213,0000213 0000000000213 0213 213 RACETRAC0213 RACETRAC213 ,1907 Chattanooga Road,GA,30720-3046
RaceTrac,Benbrook,218,0000218 0000000000218 0218 218 RACETRAC0218 RACETRAC218 ,8900 U.S. Hwy. 377,TX,76126
RaceTrac,McKinney,219,0000219 0000000000219 0219 219 RACETRAC0219 RACETRAC219 ,2032 W. University Drive,TX,75070
RaceTrac,Eustis,223,0000223 0000000000223 0223 223 RACETRAC0223 RACETRAC223 ,2850 S. Bay Street,FL,32727
RaceTrac,St. Augustine,225,0000225 0000000000225 0225 225 RACETRAC0225 RACETRAC225 ,2511 SR 207,FL,32084
RaceTrac,Stuart,229,0000229 0000000000229 0229 229 RACETRAC0229 RACETRAC229 ,4201 SE Federal Hwy,FL,34997
RaceTrac,Irving,231,0000231 0000000000231 0231 231 RACETRAC0231 RACETRAC231 ,801 W. Royal Lane,TX,75039
RaceTrac,Gainesville,232,0000232 0000000000232 0232 232 RACETRAC0232 RACETRAC232 ,1450 McEver Road,GA,30504
RaceTrac,Loganville,234,0000234 0000000000234 0234 234 RACETRAC0234 RACETRAC234 ,3940 Atlanta Hwy,GA,30052
RaceTrac,Gonzales,237,0000237 0000000000237 0237 237 RACETRAC0237 RACETRAC237 ,2838 W. Highway 30,LA,70737
RaceTrac,Palm Bay,239,0000239 0000000000239 0239 239 RACETRAC0239 RACETRAC239 ,5995 Babcock St. NE,FL,32907
RaceTrac,Fort Worth,240,0000240 0000000000240 0240 240 RACETRAC0240 RACETRAC240 ,7801 Crowley Road,TX,76134
RaceTrac,Hammond,243,0000243 0000000000243 0243 243 RACETRAC0243 RACETRAC243 ,1975 SW Railroad Avenue,LA,70403
RaceTrac,Kissimmee,246,0000246 0000000000246 0246 246 RACETRAC0246 RACETRAC246 ,5985 W. Irlo Bronson Pkwy.,FL,34746
RaceTrac,Marietta,247,0000247 0000000000247 0247 247 RACETRAC0247 RACETRAC247 ,3350 Dallas Hwy.,GA,30064
RaceTrac,Baton Rouge,248,0000248 0000000000248 0248 248 RACETRAC0248 RACETRAC248 ,10738 Old Hammond Hwy.,LA,70816
RaceTrac,Geismar,249,0000249 0000000000249 0249 249 RACETRAC0249 RACETRAC249 ,13474 LA Hwy. 73,LA,70734
RaceTrac,Plano,253,0000253 0000000000253 0253 253 RACETRAC0253 RACETRAC253 ,598 Coit Rd,TX,75075
RaceTrac,Smyrna,256,0000256 0000000000256 0256 256 RACETRAC0256 RACETRAC256 ,5191 South Cobb Drive,GA,30080
RaceTrac,Lawrenceville,260,0000260 0000000000260 0260 260 RACETRAC0260 RACETRAC260 ,624 Buford Dr.,GA,30046
RaceTrac,Homestead,261,0000261 0000000000261 0261 261 RACETRAC0261 RACETRAC261 ,1955 NE 8th Street,FL,33033
RaceTrac,Oviedo,265,0000265 0000000000265 0265 265 RACETRAC0265 RACETRAC265 ,"10 Alafaya Woods Blvd.,",FL,32765
RaceTrac,Orlando,269,0000269 0000000000269 0269 269 RACETRAC0269 RACETRAC269 ,6793 E. Colonial Dr.,FL,32807
RaceTrac,Jacksonville,279,0000279 0000000000279 0279 279 RACETRAC0279 RACETRAC279 ,4544 Atlantic Blvd.,FL,32207
RaceTrac,Granbury,280,0000280 0000000000280 0280 280 RACETRAC0280 RACETRAC280 ,3711 E. US Hwy. 377,TX,76049
RaceTrac,Commerce,284,0000284 0000000000284 0284 284 RACETRAC0284 RACETRAC284 ,30580 Hwy. 441 South,GA,30529
RaceTrac,Bogart,285,0000285 0000000000285 0285 285 RACETRAC0285 RACETRAC285 ,3790 Atlanta Highway,GA,30622
RaceTrac,Crystal River,286,0000286 0000000000286 0286 286 RACETRAC0286 RACETRAC286 ,1001 NE 5th Street,FL,34429
RaceTrac,Port Richey,287,0000287 0000000000287 0287 287 RACETRAC0287 RACETRAC287 ,6839 Ridge Road,FL,34668
RaceTrac,Dalton,289,0000289 0000000000289 0289 289 RACETRAC0289 RACETRAC289 ,1511 West Walnut Avenue,GA,30720
RaceTrac,Covington,292,0000292 0000000000292 0292 292 RACETRAC0292 RACETRAC292 ,601 North Highway 190,LA,70433
RaceTrac,Denham Springs,296,0000296 0000000000296 0296 296 RACETRAC0296 RACETRAC296 ,2331 South Range Avenue,LA,70726
RaceTrac,Shenandoah,298,0000298 0000000000298 0298 298 RACETRAC0298 RACETRAC298 ,#1 Amlajack Blvd.,GA,30265
RaceTrac,Lake Worth,299,0000299 0000000000299 0299 299 RACETRAC0299 RACETRAC299 ,6300 Jacksboro Hwy.,TX,76135
RaceTrac,Lawrenceville,301,0000301 0000000000301 0301 301 RACETRAC0301 RACETRAC301 ,444 West Pike St.,GA,30045
RaceTrac,Jacksonville,309,0000309 0000000000309 0309 309 RACETRAC0309 RACETRAC309 ,7801 Normandy Blvd.,FL,32221
RaceTrac,Jacksonville,310,0000310 0000000000310 0310 310 RACETRAC0310 RACETRAC310 ,5109 University Blvd.,FL,32216
RaceTrac,Arlington,320,0000320 0000000000320 0320 320 RACETRAC0320 RACETRAC320 ,2333 E. Pioneer Pkwy.,TX,76010
RaceTrac,Venice,327,0000327 0000000000327 0327 327 RACETRAC0327 RACETRAC327 ,110 Pointe Loop Drive,FL,34293
RaceTrac,Marietta,328,0000328 0000000000328 0328 328 RACETRAC0328 RACETRAC328 ,2337 Canton Road,GA,30066
RaceTrac,Ormond Beach,332,0000332 0000000000332 0332 332 RACETRAC0332 RACETRAC332 ,1670 W. Granada Blvd.,FL,32174
RaceTrac,Land O Lakes,336,0000336 0000000000336 0336 336 RACETRAC0336 RACETRAC336 ,3817 Land O Lakes Blvd.,FL,34639
RaceTrac,McKinney,340,0000340 0000000000340 0340 340 RACETRAC0340 RACETRAC340 ,5588 S. Lake Forest Dr.,TX,75070
RaceTrac,Jacksonville,342,0000342 0000000000342 0342 342 RACETRAC0342 RACETRAC342 ,9980 New Kings Hwy.,FL,32219
RaceTrac,Orlando,346,0000346 0000000000346 0346 346 RACETRAC0346 RACETRAC346 ,300 N. Kirkman Road,FL,32811
RaceTrac,Canton,350,0000350 0000000000350 0350 350 RACETRAC0350 RACETRAC350 ,4125 Marietta Hwy.,GA,30114
RaceTrac,Ringgold,354,0000354 0000000000354 0354 354 RACETRAC0354 RACETRAC354 ,6622 Battlefield Pkwy.,GA,30736
RaceTrac,Baton Rouge,360,0000360 0000000000360 0360 360 RACETRAC0360 RACETRAC360 ,3425 S. Sherwood Forest Blvd.,LA,70816
RaceTrac,Port Allen,365,0000365 0000000000365 0365 365 RACETRAC0365 RACETRAC365 ,214 LA Hwy 415,LA,70767
RaceTrac,Carrollton,370,0000370 0000000000370 0370 370 RACETRAC0370 RACETRAC370 ,4241 Hebron International Pkwy,TX,75010
RaceTrac,Euless,374,0000374 0000000000374 0374 374 RACETRAC0374 RACETRAC374 ,220 W. Euless Blvd.,TX,76040
RaceTrac,Flower Mound,375,0000375 0000000000375 0375 375 RACETRAC0375 RACETRAC375 ,1809 Justin Road,TX,75028
RaceTrac,St. Petersburg,377,0000377 0000000000377 0377 377 RACETRAC0377 RACETRAC377 ,2551 54th Avenue N.,FL,33714
RaceTrac,Slidell,380,0000380 0000000000380 0380 380 RACETRAC0380 RACETRAC380 ,1720 Gause Blvd.,LA,70461
RaceTrac,Scott,381,0000381 0000000000381 0381 381 RACETRAC0381 RACETRAC381 ,201 Ambassador Caffery Pkwy.,LA,70583
RaceTrac,Lake Worth,388,0000388 0000000000388 0388 388 RACETRAC0388 RACETRAC388 ,6005 Lake Worth Blvd.,TX,76135
RaceTrac,Dallas,393,0000393 0000000000393 0393 393 RACETRAC0393 RACETRAC393 ,1930 Northwest Hwy.,TX,75220
RaceTrac,Cumming,396,0000396 0000000000396 0396 396 RACETRAC0396 RACETRAC396 ,888 Buford Road,GA,30041
RaceTrac,Orlando,412,0000412 0000000000412 0412 412 RACETRAC0412 RACETRAC412 ,4751 W. Sandlake Road,FL,32819
RaceTrac,Arlington,414,0000414 0000000000414 0414 414 RACETRAC0414 RACETRAC414 ,2905 South Cooper Street,TX,76015
RaceTrac,Douglasville,417,0000417 0000000000417 0417 417 RACETRAC0417 RACETRAC417 ,9294 Highway 5,GA,30134-1543
RaceTrac,Garland,423,0000423 0000000000423 0423 423 RACETRAC0423 RACETRAC423 ,4214 Forest Lane,TX,75042
RaceTrac,Ocala,431,0000431 0000000000431 0431 431 RACETRAC0431 RACETRAC431 ,3535 W. Silver Springs Blvd.,FL,34475
RaceTrac,Kennesaw,434,0000434 0000000000434 0434 434 RACETRAC0434 RACETRAC434 ,4350 Wade Green Road,GA,30144
RaceTrac,Baton Rouge,436,0000436 0000000000436 0436 436 RACETRAC0436 RACETRAC436 ,7102 Siegen Lane,LA,70809
RaceTrac,Garland,437,0000437 0000000000437 0437 437 RACETRAC0437 RACETRAC437 ,2018 Northwest Hwy.,TX,75041
RaceTrac,Douglasville,439,0000439 0000000000439 0439 439 RACETRAC0439 RACETRAC439 ,5897 Fairburn Road,GA,30134
RaceTrac,Melbourne,440,0000440 0000000000440 0440 440 RACETRAC0440 RACETRAC440 ,4641 Eau Gallie Blvd.,FL,32934
RaceTrac,St. Petersburg,441,0000441 0000000000441 0441 441 RACETRAC0441 RACETRAC441 ,12025 Gandy Blvd. N.,FL,33702
RaceTrac,Land O' Lakes,442,0000442 0000000000442 0442 442 RACETRAC0442 RACETRAC442 ,15474 SR 52,FL,34638
RaceTrac,Tampa,443,0000443 0000000000443 0443 443 RACETRAC0443 RACETRAC443 ,4222 Gunn Hwy.,FL,33618-8728
RaceTrac,Tampa,447,0000447 0000000000447 0447 447 RACETRAC0447 RACETRAC447 ,6501 W. Hillsborough Avenue,FL,33614
RaceTrac,Brooksville,451,0000451 0000000000451 0451 451 RACETRAC0451 RACETRAC451 ,30480 Cortez Blvd.,FL,34602
RaceTrac,Atlanta,453,0000453 0000000000453 0453 453 RACETRAC0453 RACETRAC453 ,2325 Marietta Blvd. NW,GA,30318
RaceTrac,Port Allen,454,0000454 0000000000454 0454 454 RACETRAC0454 RACETRAC454 ,3111 Highway 1 South,LA,70767
RaceTrac,Clayton,455,0000455 0000000000455 0455 455 RACETRAC0455 RACETRAC455 ,401 Highway 441 S.E.,GA,30525
RaceTrac,West Melbourne,456,0000456 0000000000456 0456 456 RACETRAC0456 RACETRAC456 ,4535 W. New Haven Ave.,FL,32904
RaceTrac,Boynton Beach,459,0000459 0000000000459 0459 459 RACETRAC0459 RACETRAC459 ,905 W. Woolbright Road,FL,33424
RaceTrac,Alpharetta,461,0000461 0000000000461 0461 461 RACETRAC0461 RACETRAC461 ,1545 Mansell Road,GA,30004
RaceTrac,Hudson Oaks,462,0000462 0000000000462 0462 462 RACETRAC0462 RACETRAC462 ,3105 Fort Worth Hwy.,TX,76087
RaceTrac,Clermont,465,0000465 0000000000465 0465 465 RACETRAC0465 RACETRAC465 ,999 East Hwy. 50,FL,34711
RaceTrac,Lawrenceville,467,0000467 0000000000467 0467 467 RACETRAC0467 RACETRAC467 ,906 Pleasant Hill Road,GA,30044
RaceTrac,Pompano Beach,469,0000469 0000000000469 0469 469 RACETRAC0469 RACETRAC469 ,599 W. Atlantic Blvd.,FL,33060
RaceTrac,Carrollton,472,0000472 0000000000472 0472 472 RACETRAC0472 RACETRAC472 ,1100 W. Beltline Road,TX,75006
RaceTrac,Fort Worth,473,0000473 0000000000473 0473 473 RACETRAC0473 RACETRAC473 ,3204 Altamere Drive,TX,76116
RaceTrac,Plano,474,0000474 0000000000474 0474 474 RACETRAC0474 RACETRAC474 ,609 E. Plano Pkwy.,TX,75074
RaceTrac,Bradenton,475,0000475 0000000000475 0475 475 RACETRAC0475 RACETRAC475 ,6319 State Road 64,FL,34208
RaceTrac,Dallas,476,0000476 0000000000476 0476 476 RACETRAC0476 RACETRAC476 ,6675 Cedar Ridge Drive,TX,75236
RaceTrac,Dallas,478,0000478 0000000000478 0478 478 RACETRAC0478 RACETRAC478 ,8124 Forest Lane,TX,75243
RaceTrac,Kissimmee,480,0000480 0000000000480 0480 480 RACETRAC0480 RACETRAC480 ,1205 N. Bermuda Avenue,FL,34741
RaceTrac,St. Rose,482,0000482 0000000000482 0482 482 RACETRAC0482 RACETRAC482 ,521 Almedia Road,LA,70087
RaceTrac,Lewisville,484,0000484 0000000000484 0484 484 RACETRAC0484 RACETRAC484 ,375 E. F.M. 3040,TX,75057
RaceTrac,Dallas,485,0000485 0000000000485 0485 485 RACETRAC0485 RACETRAC485 ,3516 Buckner Blvd.,TX,75228
RaceTrac,Dallas,486,0000486 0000000000486 0486 486 RACETRAC0486 RACETRAC486 ,7057 Greenville Ave.,TX,75231
RaceTrac,Lafayette,487,0000487 0000000000487 0487 487 RACETRAC0487 RACETRAC487 ,1001 N.E. Evangeline Thruway,LA,70501
RaceTrac,Boutte,488,0000488 0000000000488 0488 488 RACETRAC0488 RACETRAC488 ,14178 U.S. Hwy. 90,LA,70039
RaceTrac,Norcross,490,0000490 0000000000490 0490 490 RACETRAC0490 RACETRAC490 ,5700 Peachtree Ind. Blvd.,GA,30071-1414
RaceTrac,Pembroke Park,491,0000491 0000000000491 0491 491 RACETRAC0491 RACETRAC491 ,3031 S.W. 31st Avenue,FL,33021
RaceTrac,Baton Rouge,492,0000492 0000000000492 0492 492 RACETRAC0492 RACETRAC492 ,4665 Essen Lane,LA,70809
RaceTrac,Grand Prairie,493,0000493 0000000000493 0493 493 RACETRAC0493 RACETRAC493 ,4010 South Belt Line Road,TX,75052
RaceTrac,Fort Worth,494,0000494 0000000000494 0494 494 RACETRAC0494 RACETRAC494 ,620 East Berry Street,TX,76110
RaceTrac,Villa Rica,495,0000495 0000000000495 0495 495 RACETRAC0495 RACETRAC495 ,Hwy. 61 & Commerce St.,GA,30180
RaceTrac,Hurst,496,0000496 0000000000496 0496 496 RACETRAC0496 RACETRAC496 ,1635 Precinct Line Road,TX,76054
RaceTrac,Dallas,498,0000498 0000000000498 0498 498 RACETRAC0498 RACETRAC498 ,2506 Inwood Road,TX,75235
RaceTrac,LaGrange,500,0000500 0000000000500 0500 500 RACETRAC0500 RACETRAC500 ,1519 Lafayette Pkwy.,GA,30240
RaceTrac,Dallas,504,0000504 0000000000504 0504 504 RACETRAC0504 RACETRAC504 ,9620 Harry Hines Blvd.,TX,75220
RaceTrac,Riviera Beach,506,0000506 0000000000506 0506 506 RACETRAC0506 RACETRAC506 ,4156 W. Blue Heron Blvd.,FL,33404
RaceTrac,Clearwater,508,0000508 0000000000508 0508 508 RACETRAC0508 RACETRAC508 ,2854 Gulf to Bay Blvd.,FL,33759
RaceTrac,Riverdale,511,0000511 0000000000511 0511 511 RACETRAC0511 RACETRAC511 ,5905 Garden Walk Blvd.,GA,30274
RaceTrac,Arlington,513,0000513 0000000000513 0513 513 RACETRAC0513 RACETRAC513 ,3900 S. Collins Street,TX,76014
RaceTrac,Dallas,514,0000514 0000000000514 0514 514 RACETRAC0514 RACETRAC514 ,12250 Greenville Avenue,TX,75243
RaceTrac,Grand Prairie,516,0000516 0000000000516 0516 516 RACETRAC0516 RACETRAC516 ,702 North Belt Line Road,TX,75050
RaceTrac,Belle Isle,522,0000522 0000000000522 0522 522 RACETRAC0522 RACETRAC522 ,1875 McCoy Road,FL,32809
RaceTrac,Plano,526,0000526 0000000000526 0526 526 RACETRAC0526 RACETRAC526 ,309 W. Spring Creek Pkwy.,TX,75023
RaceTrac,Denton,528,0000528 0000000000528 0528 528 RACETRAC0528 RACETRAC528 ,2834 W. University Drive,TX,76201
RaceTrac,Deland,535,0000535 0000000000535 0535 535 RACETRAC0535 RACETRAC535 ,2080 S. Woodland Blvd.,FL,32720
RaceTrac,N. Richland Hills,536,0000536 0000000000536 0536 536 RACETRAC0536 RACETRAC536 ,8601 Grapevine Hwy.,TX,76180
RaceTrac,Acworth,538,0000538 0000000000538 0538 538 RACETRAC0538 RACETRAC538 ,1135 Hwy. 92,GA,30102
RaceTrac,Brandon,542,0000542 0000000000542 0542 542 RACETRAC0542 RACETRAC542 ,810 E. Brandon Blvd.,FL,33511
RaceTrac,Canton,543,0000543 0000000000543 0543 543 RACETRAC0543 RACETRAC543 ,1465 Riverstone Parkway,GA,30114
RaceTrac,Largo,546,0000546 0000000000546 0546 546 RACETRAC0546 RACETRAC546 ,12574 Sixty-Sixth Street N.,FL,33773
RaceTrac,Marietta,548,0000548 0000000000548 0548 548 RACETRAC0548 RACETRAC548 ,2466 Delk Road,GA,30067
RaceTrac,Palmetto,549,0000549 0000000000549 0549 549 RACETRAC0549 RACETRAC549 ,1730 U.S. 41 North,FL,34221
RaceTrac,Apopka,550,0000550 0000000000550 0550 550 RACETRAC0550 RACETRAC550 ,2685 E. Semoran Blvd.,FL,32703
RaceTrac,Tampa,552,0000552 0000000000552 0552 552 RACETRAC0552 RACETRAC552 ,10324 Causeway Blvd.,FL,33619
RaceTrac,Ft. Lauderdale,553,0000553 0000000000553 0553 553 RACETRAC0553 RACETRAC553 ,1410 W. SR 84,FL,33315-2328
RaceTrac,Carol City,555,0000555 0000000000555 0555 555 RACETRAC0555 RACETRAC555 ,17021 NW 27th Avenue,FL,33056
RaceTrac,Orlando,558,0000558 0000000000558 0558 558 RACETRAC0558 RACETRAC558 ,4098 S. Orange Avenue,FL,32806
RaceTrac,Orlando,559,0000559 0000000000559 0559 559 RACETRAC0559 RACETRAC559 ,1819 N. Alafaya Trail,FL,32826
RaceTrac,Garland,560,0000560 0000000000560 0560 560 RACETRAC0560 RACETRAC560 ,2646 S. Jupiter Road,TX,75041
RaceTrac,West Palm Beach,562,0000562 0000000000562 0562 562 RACETRAC0562 RACETRAC562 ,2995 45th Street,FL,33407
RaceTrac,N. Richland Hills,563,0000563 0000000000563 0563 563 RACETRAC0563 RACETRAC563 ,5640 Rufe Snow Drive,TX,76180
RaceTrac,Waxahachie,564,0000564 0000000000564 0564 564 RACETRAC0564 RACETRAC564 ,1110 Hwy. 77 North,TX,75165
RaceTrac,Davie,566,0000566 0000000000566 0566 566 RACETRAC0566 RACETRAC566 ,2855 Davie Rd.,FL,33314-1600
RaceTrac,Miami,567,0000567 0000000000567 0567 567 RACETRAC0567 RACETRAC567 ,11180F SW 184th Street,FL,33157
RaceTrac,Dallas,569,0000569 0000000000569 0569 569 RACETRAC0569 RACETRAC569 ,5151 Lemmon Avenue,TX,75209
RaceTrac,Orlando,570,0000570 0000000000570 0570 570 RACETRAC0570 RACETRAC570 ,3600 S. John Young Pkwy.,FL,32839
RaceTrac,Tampa,571,0000571 0000000000571 0571 571 RACETRAC0571 RACETRAC571 ,4102 West Waters Avenue,FL,33614
RaceTrac,Fort Worth,572,0000572 0000000000572 0572 572 RACETRAC0572 RACETRAC572 ,5151 N. Tarrant Pkwy,TX,76244
RaceTrac,Slidell,573,0000573 0000000000573 0573 573 RACETRAC0573 RACETRAC573 ,1542 Gause Blvd.,LA,70458
RaceTrac,Rockwall,574,0000574 0000000000574 0574 574 RACETRAC0574 RACETRAC574 ,2301 Goliad Street South,TX,75032
RaceTrac,Frisco,576,0000576 0000000000576 0576 576 RACETRAC0576 RACETRAC576 ,5145 Independence Pkwy.,TX,75035
RaceTrac,Apopka,577,0000577 0000000000577 0577 577 RACETRAC0577 RACETRAC577 ,1305 W. Orange Blossom Trail,FL,32712
RaceTrac,LaFayette,578,0000578 0000000000578 0578 578 RACETRAC0578 RACETRAC578 ,5100 Ambassador Caffrey Pkwy,LA,70508
RaceTrac,Smyrna,579,0000579 0000000000579 0579 579 RACETRAC0579 RACETRAC579 ,4290 East West Connector,GA,30082
RaceTrac,Orlando,580,0000580 0000000000580 0580 580 RACETRAC0580 RACETRAC580 ,3508 S. Orange Blossom Trail,FL,32839
RaceTrac,Plano,581,0000581 0000000000581 0581 581 RACETRAC0581 RACETRAC581 ,9110 Coit Rd.,TX,75025
RaceTrac,Garland,582,0000582 0000000000582 0582 582 RACETRAC0582 RACETRAC582 ,2602 Lavon Drive/Hwy. 78,TX,75040
RaceTrac,Arlington,583,0000583 0000000000583 0583 583 RACETRAC0583 RACETRAC583 ,2908 E. Pioneer Pkwy.,TX,76010
RaceTrac,Green Cove Springs,585,0000585 0000000000585 0585 585 RACETRAC0585 RACETRAC585 ,3106 Hwy. 17,FL,32043
RaceTrac,Orlando,586,0000586 0000000000586 0586 586 RACETRAC0586 RACETRAC586 ,4375 Central Florida Pkwy,FL,32817
RaceTrac,East Point,587,0000587 0000000000587 0587 587 RACETRAC0587 RACETRAC587 ,3503 Camp Creek Pkwy.,GA,30344
RaceTrac,Ocala,590,0000590 0000000000590 0590 590 RACETRAC0590 RACETRAC590 ,3750 NW Blitchton Road,FL,34475
RaceTrac,Cape Canaveral,591,0000591 0000000000591 0591 591 RACETRAC0591 RACETRAC591 ,8899 Astronaut Blvd.,FL,32920
RaceTrac,Port Richey,592,0000592 0000000000592 0592 592 RACETRAC0592 RACETRAC592 ,9932 U.S. Hwy. 19,FL,34668
RaceTrac,Arlington,594,0000594 0000000000594 0594 594 RACETRAC0594 RACETRAC594 ,3317 East Division Street,TX,76011
RaceTrac,Carrollton,596,0000596 0000000000596 0596 596 RACETRAC0596 RACETRAC596 ,2509 Midway Road,TX,75006
RaceTrac,Gainesville,597,0000597 0000000000597 0597 597 RACETRAC0597 RACETRAC597 ,2410 Cornelia Highway,GA,30501
RaceTrac,Wylie,598,0000598 0000000000598 0598 598 RACETRAC0598 RACETRAC598 ,801 S.H. 78 North,TX,75098
RaceTrac,Pinellas Park,599,0000599 0000000000599 0599 599 RACETRAC0599 RACETRAC599 ,6951 49th Street N.,FL,33781
RaceTrac,Carrollton,600,0000600 0000000000600 0600 600 RACETRAC0600 RACETRAC600 ,1716 W. Frankford Road,TX,75007
RaceTrac,Naples,602,0000602 0000000000602 0602 602 RACETRAC0602 RACETRAC602 ,3725 Pine Ridge Road,FL,34109
RaceTrac,Plant City,603,0000603 0000000000603 0603 603 RACETRAC0603 RACETRAC603 ,1202 Townsgate Court,FL,33566
RaceTrac,Kissimmee,604,0000604 0000000000604 0604 604 RACETRAC0604 RACETRAC604 ,4541 Pleasant Hill Road,FL,34759
RaceTrac,Decatur,606,0000606 0000000000606 0606 606 RACETRAC0606 RACETRAC606 ,3858 Covington Hwy.,GA,30032
RaceTrac,Kissimmee,607,0000607 0000000000607 0607 607 RACETRAC0607 RACETRAC607 ,1470 E. Osceola Pkwy.,FL,34744
RaceTrac,Lavonia,608,0000608 0000000000608 0608 608 RACETRAC0608 RACETRAC608 ,13722 Jones Street,GA,30553
RaceTrac,Dallas,609,0000609 0000000000609 0609 609 RACETRAC0609 RACETRAC609 ,4510 Trinity Mills,TX,75287
RaceTrac,Hiram,610,0000610 0000000000610 0610 610 RACETRAC0610 RACETRAC610 ,4597 Jimmy Lee Smith Pkwy.,GA,30141
RaceTrac,Merritt Island,611,0000611 0000000000611 0611 611 RACETRAC0611 RACETRAC611 ,2570 N. Courtney Pkwy.,FL,32953
RaceTrac,Frisco,612,0000612 0000000000612 0612 612 RACETRAC0612 RACETRAC612 ,"2676 Eldorado Pkwy.,",TX,75034
RaceTrac,Dallas,613,0000613 0000000000613 0613 613 RACETRAC0613 RACETRAC613 ,10707 Miller Road,TX,75238
RaceTrac,Plano,614,0000614 0000000000614 0614 614 RACETRAC0614 RACETRAC614 ,125 Legacy Drive,TX,75025
RaceTrac,Plano,616,0000616 0000000000616 0616 616 RACETRAC0616 RACETRAC616 ,520 Jupiter Road,TX,75074
RaceTrac,Acworth,618,0000618 0000000000618 0618 618 RACETRAC0618 RACETRAC618 ,5001 Cherokee Street,GA,30101
RaceTrac,Oakwood,621,0000621 0000000000621 0621 621 RACETRAC0621 RACETRAC621 ,3980 Mundy Mill Road,GA,30566
RaceTrac,Lutz,622,0000622 0000000000622 0622 622 RACETRAC0622 RACETRAC622 ,23390 SR 54,FL,33559
RaceTrac,Red Oak,624,0000624 0000000000624 0624 624 RACETRAC0624 RACETRAC624 ,101 E. Ovilla Road,TX,75154
RaceTrac,Cornelia,625,0000625 0000000000625 0625 625 RACETRAC0625 RACETRAC625 ,505 Historic Hwy. 441,GA,30531
RaceTrac,Dallas,626,0000626 0000000000626 0626 626 RACETRAC0626 RACETRAC626 ,2111 W. Mockingbird Lane,TX,75235
RaceTrac,Gainesville,627,0000627 0000000000627 0627 627 RACETRAC0627 RACETRAC627 ,1294 West Ridge Road,GA,30501
RaceTrac,Tampa,628,0000628 0000000000628 0628 628 RACETRAC0628 RACETRAC628 ,410 South 50th Street,FL,33619
RaceTrac,Altamonte Springs,629,0000629 0000000000629 0629 629 RACETRAC0629 RACETRAC629 ,484 South & SR 434,FL,32714
RaceTrac,Ruskin,631,0000631 0000000000631 0631 631 RACETRAC0631 RACETRAC631 ,3007 College Ave. West,FL,33570
RaceTrac,Arlington,632,0000632 0000000000632 0632 632 RACETRAC0632 RACETRAC632 ,4911 South Cooper St.,TX,76004
RaceTrac,Smyrna,633,0000633 0000000000633 0633 633 RACETRAC0633 RACETRAC633 ,2550 Spring Road,GA,30080
RaceTrac,Duncanville,634,0000634 0000000000634 0634 634 RACETRAC0634 RACETRAC634 ,519 S. Cockrell Hill Rd,TX,75098
RaceTrac,Jonesboro,635,0000635 0000000000635 0635 635 RACETRAC0635 RACETRAC635 ,7721 Tara Blvd.,GA,30236
RaceTrac,Douglasville,636,0000636 0000000000636 0636 636 RACETRAC0636 RACETRAC636 ,656 Thornton Road,GA,30135
RaceTrac,Orlando,637,0000637 0000000000637 0637 637 RACETRAC0637 RACETRAC637 ,5405 S. Semoran Blvd.,FL,32822
RaceTrac,Riverview,638,0000638 0000000000638 0638 638 RACETRAC0638 RACETRAC638 ,10311 Bloomingdale Ave.,FL,33569
RaceTrac,Orange City,641,0000641 0000000000641 0641 641 RACETRAC0641 RACETRAC641 ,1298 Saxon Blvd.,FL,32763
RaceTrac,Lafayette,642,0000642 0000000000642 0642 642 RACETRAC0642 RACETRAC642 ,1525 N. University Drive,LA,70506
RaceTrac,Roswell,644,0000644 0000000000644 0644 644 RACETRAC0644 RACETRAC644 ,420 E. Crossville Rd.,GA,30075
RaceTrac,Avondale,645,0000645 0000000000645 0645 645 RACETRAC0645 RACETRAC645 ,4003 U.S. Hwy 90,LA,70094
RaceTrac,Venice,646,0000646 0000000000646 0646 646 RACETRAC0646 RACETRAC646 ,2995 East Point Executive Dr.,FL,34292
RaceTrac,Plano,649,0000649 0000000000649 0649 649 RACETRAC0649 RACETRAC649 ,2224 West Parker Road,TX,75075
RaceTrac,Denton,650,0000650 0000000000650 0650 650 RACETRAC0650 RACETRAC650 ,1703 S. Loop 288,TX,76205
RaceTrac,Orlando,651,0000651 0000000000651 0651 651 RACETRAC0651 RACETRAC651 ,701 S. Golden Rod Road,FL,32822
RaceTrac,Cartersville,652,0000652 0000000000652 0652 652 RACETRAC0652 RACETRAC652 ,11 Baker Road,GA,30120
RaceTrac,Lafayette,653,0000653 0000000000653 0653 653 RACETRAC0653 RACETRAC653 ,1600 Ambassador Caffrey Pkwy.,LA,70506
RaceTrac,Amite,654,0000654 0000000000654 0654 654 RACETRAC0654 RACETRAC654 ,1205 W. Oak Street,LA,70422
RaceTrac,Keller,656,0000656 0000000000656 0656 656 RACETRAC0656 RACETRAC656 ,700 Keller Pkwy,TX,76248
RaceTrac,Hudson,657,0000657 0000000000657 0657 657 RACETRAC0657 RACETRAC657 ,7329 State Road 52,FL,34667
RaceTrac,Orlando,658,0000658 0000000000658 0658 658 RACETRAC0658 RACETRAC658 ,5051 Edgewater Drive,FL,32810
RaceTrac,Duluth,659,0000659 0000000000659 0659 659 RACETRAC0659 RACETRAC659 ,2592 Pleasant Hill Road,GA,30098
RaceTrac,Austell,660,0000660 0000000000660 0660 660 RACETRAC0660 RACETRAC660 ,4414 Austell Road,GA,30106
RaceTrac,Ormond Beach,661,0000661 0000000000661 0661 661 RACETRAC0661 RACETRAC661 ,1521 U.S. Hwy. 1,FL,32174
RaceTrac,Ft. Lauderdale,665,0000665 0000000000665 0665 665 RACETRAC0665 RACETRAC665 ,2300 W. Broward Blvd.,FL,33312
RaceTrac,Winter Park,666,0000666 0000000000666 0666 666 RACETRAC0666 RACETRAC666 ,7090 Aloma Avenue,FL,32792
RaceTrac,Ft. Pierce,667,0000667 0000000000667 0667 667 RACETRAC0667 RACETRAC667 ,5870 Okeechobee Road,FL,34947
RaceTrac,Lake Wales,668,0000668 0000000000668 0668 668 RACETRAC0668 RACETRAC668 ,1740 State Road 60 @ Hamlin Rd.,FL,33853
RaceTrac,Lakeland,671,0000671 0000000000671 0671 671 RACETRAC0671 RACETRAC671 ,3600 Hardin Blvd.,FL,33803
RaceTrac,Convington,673,0000673 0000000000673 0673 673 RACETRAC0673 RACETRAC673 ,1900 U.S. Hwy 190,LA,70433
RaceTrac,Brunswick,675,0000675 0000000000675 0675 675 RACETRAC0675 RACETRAC675 ,450 Canal Road,GA,31525
RaceTrac,New Port Richey,676,0000676 0000000000676 0676 676 RACETRAC0676 RACETRAC676 ,4431 US Hwy. 19 N.,FL,34652
RaceTrac,Ft. Myers,677,0000677 0000000000677 0677 677 RACETRAC0677 RACETRAC677 ,"2335 Cleveland Ave.,",FL,33901
RaceTrac,Hammond,679,0000679 0000000000679 0679 679 RACETRAC0679 RACETRAC679 ,42386 S. Morrison Blvd.,LA,70403
RaceTrac,Okeechobee,680,0000680 0000000000680 0680 680 RACETRAC0680 RACETRAC680 ,1596 State Road 70 East,FL,34972-3271
RaceTrac,Bartow,681,0000681 0000000000681 0681 681 RACETRAC0681 RACETRAC681 ,1690 N. Broadway Ave.,FL,33830
RaceTrac,Northport,682,0000682 0000000000682 0682 682 RACETRAC0682 RACETRAC682 ,18999 Tamiami Trail,FL,34287
RaceTrac,Seffner,683,0000683 0000000000683 0683 683 RACETRAC0683 RACETRAC683 ,11703 E. Martin Luther King Blvd.,FL,33584
RaceTrac,Tampa,684,0000684 0000000000684 0684 684 RACETRAC0684 RACETRAC684 ,205 E. Bearss Avenue,FL,33613
RaceTrac,Sanford,686,0000686 0000000000686 0686 686 RACETRAC0686 RACETRAC686 ,4530 West State Road 46,FL,32771
RaceTrac,Decatur,687,0000687 0000000000687 0687 687 RACETRAC0687 RACETRAC687 ,4847 Covington Hwy.,GA,30035
RaceTrac,Fort Worth,690,0000690 0000000000690 0690 690 RACETRAC0690 RACETRAC690 ,951 Alta Mesa Blvd.,TX,76134
RaceTrac,Punta Gorda,691,0000691 0000000000691 0691 691 RACETRAC0691 RACETRAC691 ,4968 Tamiami Trail,FL,33980
RaceTrac,Fort Myers,693,0000693 0000000000693 0693 693 RACETRAC0693 RACETRAC693 ,5991 Southpointe Blvd.,FL,33919
RaceTrac,Sanford,695,0000695 0000000000695 0695 695 RACETRAC0695 RACETRAC695 ,3760 S. Orlando Drive,FL,32773
RaceTrac,St. Petersburg,696,0000696 0000000000696 0696 696 RACETRAC0696 RACETRAC696 ,2227 28th Street North,FL,33713-4226
RaceTrac,Garland,697,0000697 0000000000697 0697 697 RACETRAC0697 RACETRAC697 ,2434 W. Buckingham Road,TX,75042-4968
RaceTrac,Plant City,698,0000698 0000000000698 0698 698 RACETRAC0698 RACETRAC698 ,6050 E. State Road 60,FL,33567
RaceTrac,Auburndale,2300,00002300 00000000002300 02300 2300 RACETRAC02300 RACETRAC2300 ,2227 Hwy 92 W,FL,33823
RaceTrac,Ft. Myers,2301,00002301 00000000002301 02301 2301 RACETRAC02301 RACETRAC2301 ,5150 Dr. Martin Luther King Blvd.,FL,33905
RaceTrac,Cape Coral,2302,00002302 00000000002302 02302 2302 RACETRAC02302 RACETRAC2302 ,2607 Del Prado Blvd. S.,FL,33904
RaceTrac,Apopka,2303,00002303 00000000002303 02303 2303 RACETRAC02303 RACETRAC2303 ,700 S. Orange Blossom Trail,FL,32703
RaceTrac,Melissa,2304,00002304 00000000002304 02304 2304 RACETRAC02304 RACETRAC2304 ,1100 Sam Rayburn Hwy.,TX,75454
RaceTrac,Orlando,2305,00002305 00000000002305 02305 2305 RACETRAC02305 RACETRAC2305 ,15570 SR 535,FL,32821
RaceTrac,Apopka,2309,00002309 00000000002309 02309 2309 RACETRAC02309 RACETRAC2309 ,1652 E. Semoran Blvd,FL,32704
RaceTrac,Kissimmee,2310,00002310 00000000002310 02310 2310 RACETRAC02310 RACETRAC2310 ,2001 W Vine St,FL,34741
RaceTrac,Ocoee,2320,00002320 00000000002320 02320 2320 RACETRAC02320 RACETRAC2320 ,10751 W. Colonial Dr.,FL,34761
RaceTrac,Kissimmee,2325,00002325 00000000002325 02325 2325 RACETRAC02325 RACETRAC2325 ,1720 E. Irlo Bronson Hwy.,FL,34744
RaceTrac,Davenport,2338,00002338 00000000002338 02338 2338 RACETRAC02338 RACETRAC2338 ,43250 U.S. Hwy 27,FL,33837
