Keywords,city,Agg store_number,store_number,address,state,zip_code
Sam's Club,Fort Worth,4036,4036 #4036,2440 Se Loop 820 Tba 8210,TX,76140
Sam's Club,Friendswood,4702,4702 #4702,155 W El Dorado Blvd,TX,77546
Sam's Club,Albuquerque,4703,4703 #4703,10600 Coors Blvd Bypass Nw,NM,87114
Sam's Club,Fresno,4704,4704 #4704,7663 N Blackstone Ave,CA,93720
Sam's Club,Overland Park,4707,4707 #4707,8300 W 135Th St,KS,66223
Sam's Club,Corona,4709,4709 #4709,1375 E Ontario Ave,CA,92881
Sam's Club,Chesapeake,4710,4710 #4710,2444 Chesapeake Square Ring Rd,VA,23321
Sam's Club,Virginia Beach,4711,4711 #4711,3345 Virginia Beach Blvd,VA,23452
Sam's Club,Houston,4712,4712 #4712,10488 Katy Fwy,TX,77043
Sam's Club,Shenandoah,4713,4713 #4713,19091 Interstate 45 S,TX,77385
Sam's Club,South Jordan,4718,4718 #4718,11278 S Jordan Gtwy,UT,84095
Sam's Club,Austin,4720,4720 #4720,4970 W Highway 290,TX,78735
Sam's Club,Houston Willowbrook,4721,4721 #4721,7950 Fm 1960 W,TX,77070
Sam's Club,Williamstown,4722,4722 #4722,2080 No. Blackhorse Pike,NJ,8094
Sam's Club,Hoover,4724,4724 #4724,3053 John Hawkins Pkwy,AL,35244
Sam's Club,Nicholasville,4728,4728 #4728,103 Bryant Drive,KY,40356
Sam's Club,Sterling,4729,4729 #4729,45425 Dulles Crossing Plz,VA,20166
Sam's Club,West Jordan,4730,4730 #4730,7571 S 3800 W,UT,84084
Sam's Club,Oklahoma City,4731,4731 #4731,9000 Nw Passage,OK,73132
Sam's Club,Glendale,4732,4732 #4732,18501 N 83Rd Ave,AZ,85308
Sam's Club,La Habra,4735,4735 #4735,1390 S Beach Blvd,CA,90631
Sam's Club,Apple Valley,4736,4736 #4736,14940 Florence Trl,MN,55124
Sam's Club,Eagan,4738,4738 #4738,3035 Denmark Ave,MN,55121
Sam's Club,Snellville,4739,4739 #4739,1520 Scenic Hwy N,GA,30078
Sam's Club,Southaven,4740,4740 #4740,465 Goodman Rd E,MS,38671
Sam's Club,Saint Louis,4741,4741 #4741,10248 Big Bend Rd,MO,63122
Sam's Club,Fort Worth,4742,4742 #4742,4400 Bryant Irvin Rd,TX,76132
Sam's Club,Plano,4743,4743 #4743,1200 E Spring Creek Pkwy,TX,75074
Sam's Club,Budd Lake,4744,4744 #4744,81 International Dr S,NJ,7828
Sam's Club,Thornton,4745,4745 #4745,9601 Grant St,CO,80229
Sam's Club,Cuyahoga Falls,4750,4750 #4750,1189 Buchholzer Blvd,OH,44221
Sam's Club,Honolulu,4755,4755 #4755,750 Keeaumoku St,HI,96814
Sam's Club,Norman,4761,4761 #4761,3400 W Main St,OK,73072
Sam's Club,Sugar Land,4763,4763 #4763,351 Highway # 6,TX,77478
Sam's Club,Katy,4764,4764 #4764,20424 Katy Fwy,TX,77449
Sam's Club,Owings Mills,4766,4766 #4766,9750 Reistertown Road,MD,21117
Sam's Club,Palmdale,4767,4767 #4767,39940 10Th St W,CA,93551
Sam's Club,Reno,4768,4768 #4768,4835 Kietzke Ln,NV,89509
Sam's Club,Houston,4769,4769 #4769,5310 S Rice Ave,TX,77081
Sam's Club,Evans,4770,4770 #4770,3247 23Rd Ave,CO,80620
Sam's Club,Severn,4771,4771 #4771,424 George Claus Blvd,MD,21144
Sam's Club,Sarasota,4772,4772 #4772,300 N Cattlemen Rd,FL,34232
Sam's Club,Secaucus,4774,4774 #4774,300 Park Pl,NJ,7094
Sam's Club,Metairie,4775,4775 #4775,3900 Airline Dr,LA,70001
Sam's Club,Huntsville,4776,4776 #4776,5651 Holmes Ave Nw,AL,35816
Sam's Club,Denver,4777,4777 #4777,7805 E 35Th Ave,CO,80238
Sam's Club,Auburn Hills,4778,4778 #4778,4350 Joslyn Rd,MI,48326
Sam's Club,Buford,4780,4780 #4780,3383 Buford Dr,GA,30519
Sam's Club,Lansing,4781,4781 #4781,2925 Towne Centre Blvd,MI,48912
Sam's Club,Kissimmee,4782,4782 #4782,4763 West Irlo Bronson Mem Hwy,FL,34746
Sam's Club,Garland,4783,4783 #4783,5150 N Garland Ave,TX,75040
Sam's Club,Las Cruces,4784,4784 #4784,2711 N Telshor Blvd,NM,88011
Sam's Club,Sanford,4785,4785 #4785,1101 Rinehart Rd,FL,32771
Sam's Club,Logan,4786,4786 #4786,145 W Cache Valley Blvd,UT,84341
Sam's Club,Bloomington,4787,4787 #4787,200 West American Blvd,MN,55420
Sam's Club,Richmond,4788,4788 #4788,4571 S Laburnum Ave,VA,23231
Sam's Club,Sharpsburg,4789,4789 #4789,310 Fischer Rd,GA,30277
Sam's Club,Pearl,4790,4790 #4790,90 Bass Pro Dr,MS,39208
Sam's Club,Garden City,4791,4791 #4791,3010 Larue St,KS,67846
Sam's Club,Lakeland,4794,4794 #4794,3530 Lakeland Highlands Rd,FL,33803
Sam's Club,Grapevine,4795,4795 #4795,1701 W State Highway 114,TX,76051
Sam's Club,Kannapolis,4797,4797 #4797,2421 Supercenter Dr Ne,NC,28083
Sam's Club,Winston Salem,4798,4798 #4798,284 Summit Square Blvd,NC,27105
Sam's Club,Citrus Heights,4799,4799 #4799,7147 Greenback Ln,CA,95621
Sam's Club,Riverview,4801,4801 #4801,10385 Big Bend Rd,FL,33578
Sam's Club,Hiram,4802,4802 #4802,4798 Jimmy Lee Smith Pkwy,GA,30141
Sam's Club,Mcdonough,4804,4804 #4804,1765 Jonesboro Rd,GA,30253
Sam's Club,Billings,4805,4805 #4805,4420 King Ave E,MT,59101
Sam's Club,Houston,4807,4807 #4807,8711 North Fwy,TX,77037
Sam's Club,Lithonia,4810,4810 #4810,2994 Turner Hill Rd,GA,30038
Sam's Club,Farmington Hills,4812,4812 #4812,32625 Northwestern Hwy,MI,48334
Sam's Club,Normal,4815,4815 #4815,2151 Shepard Rd,IL,61761
Sam's Club,Aurora,4816,4816 #4816,6201 S Aurora Pkwy,CO,80016
Sam's Club,Birmingham,4817,4817 #4817,5940 Trussville Crossings Blvd,AL,35235
Sam's Club,Brooksville,4818,4818 #4818,13360 Cortez Blvd,FL,34613
Sam's Club,Bakersfield,4819,4819 #4819,5625 Gosford Rd,CA,93313
Sam's Club,Pooler,4820,4820 #4820,15 Mill Creek Cir,GA,31322
Sam's Club,Murrieta,4822,4822 #4822,40500 Murrieta Hot Springs Rd,CA,92563
Sam's Club,Santa Clarita,4824,4824 #4824,26468 Carl Boyer Dr,CA,91350
Sam's Club,Hot Springs,4825,4825 #4825,1368 Higdon Ferry Rd,AR,71913
Sam's Club,Gilbert,4829,4829 #4829,2621 S Market St,AZ,85295
Sam's Club,Avondale,4830,4830 #4830,1459 N Dysart Rd,AZ,85323
Sam's Club,Durham,4831,4831 #4831,4005 Durham Chapel Hill Blvd,NC,27707
Sam's Club,Renton,4835,4835 #4835,901 S Grady Way,WA,98057
Sam's Club,Denham Springs,4837,4837 #4837,201 Bass Pro Blvd,LA,70726
Sam's Club,Tulsa,4839,4839 #4839,7757 S Olympia Avenue W,OK,74132
Sam's Club,Janesville,4840,4840 #4840,3900 Deerfield Dr,WI,53546
Sam's Club,Pearland,4843,4843 #4843,15800 S Freeway,TX,77584
Sam's Club,Mentor,4846,4846 #4846,5600 Emerald Ct,OH,44060
Sam's Club,Greensburg,4847,4847 #4847,6211 State Route 30,PA,15601
Sam's Club,Mcallen,4850,4850 #4850,7601 N 10Th St,TX,78504
Sam's Club,Clarksville,4851,4851 #4851,1301 Veterans Pkwy,IN,47129
Sam's Club,Wesley Chapel,4852,4852 #4852,27727 State Road 56,FL,33544
Sam's Club,Butler,4859,4859 #4859,200 Moraine Pointe Plz,PA,16001
Sam's Club,Beckley,4860,4860 #4860,1220 N Eisenhower Dr,WV,25801
Sam's Club,St Petersburg,4861,4861 #4861,1725 34Th St N,FL,33713
Sam's Club,Kansas City,4870,4870 #4870,10510 Parallel Pkwy,KS,66109
Sam's Club,Meridian,4871,4871 #4871,715 Bonita Dr,MS,39301
Sam's Club,Lincoln,4873,4873 #4873,8480 Andermatt Dr,NE,68526
Sam's Club,Covington,4874,4874 #4874,69630 Stirling Blvd,LA,70433
Sam's Club,Wentzville,4875,4875 #4875,3055 Bear Creek Dr,MO,63385
Sam's Club,Bowling Green,4876,4876 #4876,3200 Ken Bale Blvd,KY,42103
Sam's Club,Glen Carbon,4878,4878 #4878,5 Illini Dr,IL,62034
Sam's Club,Aiken,4879,4879 #4879,220 Jefferson Davis Hwy,SC,29801
Sam's Club,Easley,4901,4901 #4901,309 Rolling Hills Cir,SC,29640
Sam's Club,Fall River,4903,4903 #4903,941 Grennell St,MA,2720
Sam's Club,Denton,4905,4905 #4905,2850 W University Dr,TX,76201
Sam's Club,Mckinney,4906,4906 #4906,1670 W University Dr,TX,75069
Sam's Club,Owensboro,4908,4908 #4908,5240 Frederica St,KY,42301
Sam's Club,Mansfield,4911,4911 #4911,1740 North Fm 157,TX,76063
Sam's Club,Bullhead City,4915,4915 #4915,600 Highway 95 Ste 200,AZ,86429
Sam's Club,Mooresville,4917,4917 #4917,646 River Hwy,NC,28117
Sam's Club,Saint Joseph,4920,4920 #4920,5201 N Belt Hwy Ste A,MO,64506
Sam's Club,Columbus,4926,4926 #4926,2715 Merchant Mile,IN,47201
Sam's Club,Chandler,4927,4927 #4927,1375 S Arizona Ave,AZ,85286
Sam's Club,Cookeville,4930,4930 #4930,1177 Sams St,TN,38506
Sam's Club,Bismarck,4933,4933 #4933,2821 Rock Island Pl,ND,58504
Sam's Club,Granville,4936,4936 #4936,6001 University Town Centre Dr,WV,26534
Sam's Club,Albuquerque,4938,4938 #4938,1421 N Renaissance Blvd Ne,NM,87107
Sam's Club,Elgin,4942,4942 #4942,1000 S Randall Rd,IL,60123
Sam's Club,Grand Blanc,4944,4944 #4944,6160 S Saginaw Rd,MI,48439
Sam's Club,Lumberton,4945,4945 #4945,5085 Dawn Dr,NC,28360
Sam's Club,Rocky Mount,4946,4946 #4946,300 Tarrytown Ctr,NC,27804
Sam's Club,Zanesville,4947,4947 #4947,3724 Northpointe Dr,OH,43701
Sam's Club,San Angelo,4948,4948 #4948,5749 Sherwood Way,TX,76901
Sam's Club,Hendersonville,4950,4950 #4950,300 Highlands Square Dr,NC,28792
Sam's Club,Tarentum,4952,4952 #4952,2000 Village Center Dr,PA,15084
Sam's Club,Surprise,4955,4955 #4955,16573 W Bell Rd,AZ,85374
Sam's Club,San Marcos,4958,4958 #4958,1350 Leah Ave,TX,78666
Sam's Club,Roswell,4961,4961 #4961,4400 N Main St,NM,88201
Sam's Club,Sandusky,4962,4962 #4962,614 Crossings Rd,OH,44870
Sam's Club,Chillicothe,4963,4963 #4963,1270 N Bridge St,OH,45601
Sam's Club,Linden,4967,4967 #4967,1900 E Linden Ave,NJ,7036
Sam's Club,Bentonville,4969,4969 #4969,3500 Se Club Blvd,AR,72712
Sam's Club,Port St Lucie,4972,4972 #4972,1750 Sw Gatlin Blvd,FL,34953
Sam's Club,Dubuque,4973,4973 #4973,4400 Asbury Rd,IA,52002
Sam's Club,North Las Vegas,4974,4974 #4974,2650 E Craig Rd,NV,89030
Sam's Club,Prescott Valley,4977,4977 #4977,5757 E State Route 69,AZ,86314
Sam's Club,Mt Pleasant,4982,4982 #4982,4850 Encore Blvd,MI,48858
Sam's Club,Las Vegas,4983,4983 #4983,7100 Arroyo Crossing Pkwy,NV,89113
Sam's Club,Springfield,4985,4985 #4985,745 W El Camino Alto St,MO,65810
Sam's Club,Auburn,4989,4989 #4989,2335 Bent Creek Rd,AL,36830
Sam's Club,Daphne,4990,4990 #4990,29683 Frederick Blvd,AL,36526
Sam's Club,Cocoa,4991,4991 #4991,450 Townsend Rd,FL,32926
Sam's Club,Elizabethtown,4992,4992 #4992,1500 Ring Rd,KY,42701
Sam's Club,Danville,4996,4996 #4996,215 Piedmont Pl,VA,24541
Sam's Club,Lady Lake,4998,4998 #4998,755 N. Hwy 27/441,FL,32159
Sam's Club,Quincy,4999,4999 #4999,700 N 54Th St,IL,62305
Sam's Club,Kingston,6201,6201 #6201,801 Frank Sottile Blvd,NY,12401
Sam's Club,Lufkin,6202,6202 #6202,407 N Brentwood,TX,75904
Sam's Club,Columbia,6203,6203 #6203,350 Harbison Blvd,SC,29212
Sam's Club,Valdosta,6204,6204 #6204,450 Norman Dr,GA,31601
Sam's Club,Yuma,6205,6205 #6205,1462 S Pacific Ave,AZ,85365
Sam's Club,Orlando,6212,6212 #6212,7701 E Colonial Dr,FL,32807
Sam's Club,Chandler,6213,6213 #6213,700 N 54Th St,AZ,85226
Sam's Club,Winterville,6216,6216 #6216,4240 Winterville Pkwy,NC,28590
Sam's Club,Miami,6217,6217 #6217,8425 Nw 13Th Terrace,FL,33126
Sam's Club,Orlando,6218,6218 #6218,7810 W Colonial Dr,FL,32818
Sam's Club,Colorado Springs,6219,6219 #6219,1850 E Woodmen Rd,CO,80920
Sam's Club,Slidell,6220,6220 #6220,181 Northshore Blvd,LA,70460
Sam's Club,Batavia,6227,6227 #6227,501 N Randall Rd,IL,60510
Sam's Club,Vernon Hills,6228,6228 #6228,335 N Milwaukee Ave,IL,60061
Sam's Club,San Diego,6235,6235 #6235,6336 College Grove Way,CA,92115
Sam's Club,Rock Hill,6236,6236 #6236,2474 Cross Pointe Drive,SC,29730
Sam's Club,Romeoville,6237,6237 #6237,460 S Weber Rd,IL,60446
Sam's Club,Owasso,6238,6238 #6238,12905 East 96Th Street North,OK,74055
Sam's Club,Timonium,6239,6239 #6239,15 Texas Station Ct,MD,21093
Sam's Club,Glendora,6240,6240 #6240,1301 S Lone Hill Ave,CA,91740
Sam's Club,Scottsdale,6241,6241 #6241,15255 N Northsight Blvd,AZ,85260
Sam's Club,Dublin,6242,6242 #6242,5870 Sawmill Rd,OH,43017
Sam's Club,Fort Worth,6244,6244 #6244,8351 Anderson Blvd,TX,76120
Sam's Club,Harker Heights,6245,6245 #6245,600 W Central Texas Expressway,TX,76548
Sam's Club,Franklin,6249,6249 #6249,3070 Mallory Ln,TN,37067
Sam's Club,Washington,6251,6251 #6251,80 Trinity Point Dr,PA,15301
Sam's Club,Chesterfield,6252,6252 #6252,196 Thf Blvd,MO,63005
Sam's Club,Maple Grove,6254,6254 #6254,16701 94Th Ave N,MN,55311
Sam's Club,Plano,6255,6255 #6255,8621 Ohio Dr,TX,75024
Sam's Club,Memphis,6256,6256 #6256,7475 Winchester Rd,TN,38125
Sam's Club,Las Vegas,6257,6257 #6257,8080 W Tropical Pkwy,NV,89149
Sam's Club,Round Rock,6259,6259 #6259,130 Sundance Pkwy Ste 300,TX,78681
Sam's Club,Bartlett,6260,6260 #6260,8480 Hwy 64,TN,38133
Sam's Club,Las Vegas,6261,6261 #6261,1910 E Serene Ave,NV,89123
Sam's Club,San Antonio,6262,6262 #6262,5565 Dezavala Rd,TX,78249
Sam's Club,Irving,6265,6265 #6265,1213 Market Place Blvd,TX,75063
Sam's Club,Edmond,6267,6267 #6267,1117 West I-35 Frontage Road,OK,73034
Sam's Club,Indianapolis,6301,6301 #6301,10859 E Washington St,IN,46229
Sam's Club,Oakwood Village,6302,6302 #6302,23300 Broadway Ave,OH,44146
Sam's Club,West Allis,6303,6303 #6303,1540 S 108Th St,WI,53214
Sam's Club,Indianapolis,6304,6304 #6304,5805 Rockville Rd,IN,46224
Sam's Club,Cleveland,6305,6305 #6305,10250 Brookpark Rd,OH,44130
Sam's Club,Columbus,6307,6307 #6307,3950 Morse Rd,OH,43219
Sam's Club,Hilliard,6308,6308 #6308,1755 Hilliard Rome Rd,OH,43026
Sam's Club,White Bear Lake,6309,6309 #6309,1850 Buerkle Rd,MN,55110
Sam's Club,Fridley,6310,6310 #6310,8150 University Ave Ne,MN,55432
Sam's Club,Shakopee,6311,6311 #6311,8201 Old Carriage Ct,MN,55379
Sam's Club,Woodbury,6312,6312 #6312,9925 Hudson Road,MN,55125
Sam's Club,Fort Wayne,6313,6313 #6313,6736 Lima Rd,IN,46818
Sam's Club,Sheffield Village,6314,6314 #6314,5225 Cobblestone Rd,OH,44035
Sam's Club,Mishawaka,6315,6315 #6315,120 Indian Ridge Blvd,IN,46545
Sam's Club,Indianapolis,6316,6316 #6316,3015 W 86Th St,IN,46268
Sam's Club,Canton,6317,6317 #6317,4790 Portage St Nw,OH,44720
Sam's Club,Minneapolis,6318,6318 #6318,3745 Louisiana Ave S,MN,55426
Sam's Club,Kentwood,6319,6319 #6319,4326 28Th St Se,MI,49512
Sam's Club,Hermantown,6320,6320 #6320,4743 Maple Grove Rd,MN,55811
Sam's Club,Appleton,6321,6321 #6321,1000 N Westhill Blvd,WI,54914
Sam's Club,Boardman,6322,6322 #6322,6361 South Ave,OH,44512
Sam's Club,Milwaukee,6324,6324 #6324,7701 W Calumet Rd,WI,53223
Sam's Club,Greenwood,6325,6325 #6325,1101 Windhorst Way,IN,46143
Sam's Club,Reynoldsburg,6326,6326 #6326,2675 Taylor Road Ext,OH,43068
Sam's Club,Warren,6327,6327 #6327,1040 Niles Cortland Rd Se,OH,44484
Sam's Club,Cicero,6328,6328 #6328,2601 S Cicero Ave,IL,60804
Sam's Club,Tupelo,6329,6329 #6329,3833 N Gloster St,MS,38804
Sam's Club,Dover,6330,6330 #6330,1572 N Dupont Hwy,DE,19901
Sam's Club,Kenosha,6331,6331 #6331,3300 Brumback Blvd,WI,53144
Sam's Club,Philadelphia,6332,6332 #6332,1000 Franklin Mills Cir,PA,19154
Sam's Club,Bangor,6333,6333 #6333,47 Haskell Rd,ME,4401
Sam's Club,Decatur,6334,6334 #6334,4334 N Prospect St,IL,62526
Sam's Club,Ocala,6335,6335 #6335,3921 Sw College Rd,FL,34474
Sam's Club,Temple,6336,6336 #6336,1414 Marlandwood Rd,TX,76502
Sam's Club,Seabrook,6337,6337 #6337,11 Batchelder Rd,NH,3874
Sam's Club,College Station,6338,6338 #6338,1405 Earl Rudder Fwy S,TX,77845
Sam's Club,Crystal Lake,6339,6339 #6339,5670 Northwest Hwy,IL,60014
Sam's Club,Sunrise,6341,6341 #6341,13550 W Sunrise Blvd,FL,33323
Sam's Club,Tulsa,6342,6342 #6342,6922 S Mingo Rd,OK,74133
Sam's Club,Richmond,6343,6343 #6343,9440 W Broad St,VA,23294
Sam's Club,Des Moines,6344,6344 #6344,1101 73Rd St,IA,50311
Sam's Club,Idaho Falls,6345,6345 #6345,700 E 17Th St,ID,83404
Sam's Club,Houston,6346,6346 #6346,13331 Westheimer Rd,TX,77082
Sam's Club,Farmington,6347,6347 #6347,4500 E Main St,NM,87402
Sam's Club,Pineville,6348,6348 #6348,11425 Carolina Place Pkwy,NC,28134
Sam's Club,Evergreen Park,6349,6349 #6349,9400 Southwestern Ave,IL,60805
Sam's Club,Sherman,6350,6350 #6350,3333 N Us Highway 75,TX,75090
Sam's Club,Newport News,6351,6351 #6351,12407 Jefferson Ave,VA,23602
Sam's Club,Hudson,6352,6352 #6352,7 Walmart Blvd,NH,3051
Sam's Club,Myrtle Beach,6353,6353 #6353,1946 10Th Ave N,SC,29577
Sam's Club,Midlothian,6354,6354 #6354,901 Walmart Way,VA,23113
Sam's Club,Hickory,6355,6355 #6355,2435 Us Highway 70 Se,NC,28602
Sam's Club,Fishkill,6356,6356 #6356,56 W Merritt Blvd,NY,12524
Sam's Club,Annapolis,6357,6357 #6357,2100 Generals Hwy,MD,21401
Sam's Club,Northlake,6358,6358 #6358,141 W North Ave,IL,60164
Sam's Club,Comstock Park,6359,6359 #6359,3901 Alpine Ave Nw,MI,49321
Sam's Club,Grand Junction,6360,6360 #6360,1040 Independent Ave,CO,81505
Sam's Club,Fort Walton Beach,6361,6361 #6361,740 Beal Pkwy Nw,FL,32547
Sam's Club,Jacksonville,6363,6363 #6363,6373 Youngerman Cir,FL,32244
Sam's Club,Naples,6364,6364 #6364,2550 Immokalee Rd,FL,34110
Sam's Club,Charlottesville,6365,6365 #6365,970 Hilton Heights Rd,VA,22901
Sam's Club,Vestal,6366,6366 #6366,2441 Vestal Pkwy E,NY,13850
Sam's Club,Humble,6367,6367 #6367,9665 Fm 1960 Bypass,TX,77338
Sam's Club,Chesapeake,6368,6368 #6368,1501 Sams Cir,VA,23320
Sam's Club,Edison,6369,6369 #6369,883 Us Route 1,NJ,8817
Sam's Club,Woodbridge,6371,6371 #6371,14050 Worth Ave,VA,22192
Sam's Club,Dallas,6372,6372 #6372,6185 Retail Rd Ste 100,TX,75231
Sam's Club,Vienna,6373,6373 #6373,1100 Grand Central Ave,WV,26105
Sam's Club,Lima,6375,6375 #6375,1150 Greely Chapel Rd,OH,45804
Sam's Club,Addison,6376,6376 #6376,4150 Belt Line Rd,TX,75001
Sam's Club,Jonesboro,6377,6377 #6377,2405 S Caraway Rd,AR,72401
Sam's Club,Riverside,6378,6378 #6378,6363 Valley Springs Pkwy,CA,92507
Sam's Club,Great Falls,6379,6379 #6379,401 Northwest Byp,MT,59404
Sam's Club,Dayton,6380,6380 #6380,6955 Miller Ln,OH,45414
Sam's Club,Lewisville,6381,6381 #6381,751 W Main St,TX,75067
Sam's Club,Las Vegas,6382,6382 #6382,7175 Spring Mountain Rd,NV,89117
Sam's Club,Salisbury,6383,6383 #6383,2700 N Salisbury Blvd,MD,21801
Sam's Club,Hodgkins,6384,6384 #6384,9500 Joliet Rd,IL,60525
Sam's Club,Grand Forks,6385,6385 #6385,2501- 32Nd Ave. South,ND,58201
Sam's Club,Concord,6386,6386 #6386,304 Sheep Davis Rd,NH,3301
Sam's Club,Pinellas Park,6387,6387 #6387,7001 Park Blvd,FL,33781
Sam's Club,Tampa,6401,6401 #6401,15835 North Dale Mabry,FL,33618
Sam's Club,Greensboro,6402,6402 #6402,4418 W Wendover Ave,NC,27407
Sam's Club,Brandon,6403,6403 #6403,2021 W Brandon Blvd,FL,33511
Sam's Club,Fairlawn,6404,6404 #6404,3750 W Market St Unit J,OH,44333
Sam's Club,Yuba City,6405,6405 #6405,900 N Walton Ave,CA,95993
Sam's Club,Niagara Falls,6406,6406 #6406,5535 Porter Rd,NY,14304
Sam's Club,Ontario,6407,6407 #6407,1070 N Lexington Springmill Rd,OH,44906
Sam's Club,Santa Fe,6408,6408 #6408,4201 Rodeo Rd,NM,87507
Sam's Club,Tucker,6409,6409 #6409,1940 Mountain Industrial Blvd,GA,30084
Sam's Club,Pearl City,6410,6410 #6410,1000 Kamehameha Hwy Ste 100,HI,96782
Sam's Club,Southgate,6412,6412 #6412,15700 Northline Rd,MI,48195
Sam's Club,Lincoln,6413,6413 #6413,4900 N 27Th St,NE,68521
Sam's Club,Gastonia,6414,6414 #6414,3540 E Franklin Blvd,NC,28056
Sam's Club,Joplin,6415,6415 #6415,3536 Hammons Blvd,MO,64804
Sam's Club,San Antonio,6416,6416 #6416,12919 San Pedro Ave,TX,78216
Sam's Club,Holland,6417,6417 #6417,2190 N Park Dr,MI,49424
Sam's Club,Wichita,6418,6418 #6418,3415 N Rock Rd,KS,67226
Sam's Club,Traverse City,6419,6419 #6419,2401 N Us Highway 31 S,MI,49684
Sam's Club,Clearwater,6420,6420 #6420,2575 Gulf To Bay Blvd,FL,33765
Sam's Club,Conroe,6421,6421 #6421,2000 Westview Blvd,TX,77304
Sam's Club,Longview,6422,6422 #6422,3310 N 4Th St,TX,75605
Sam's Club,Middletown,6423,6423 #6423,300 N Galleria Dr,NY,10941
Sam's Club,Kokomo,6424,6424 #6424,1917 E Markland Ave,IN,46901
Sam's Club,Casper,6425,6425 #6425,4600 E 2Nd St,WY,82609
Sam's Club,Salina,6426,6426 #6426,2919 Market Pl,KS,67401
Sam's Club,Rochester,6427,6427 #6427,3410 55Th St Nw,MN,55901
Sam's Club,Medford,6428,6428 #6428,2950 Horseblock Rd,NY,11763
Sam's Club,Battle Creek,6429,6429 #6429,12737 6 Mile Rd,MI,49014
Sam's Club,Cheyenne,6430,6430 #6430,1948 Dell Range Blvd,WY,82009
Sam's Club,Elmira,6431,6431 #6431,830 County Road 64 Ste 2,NY,14903
Sam's Club,Sioux City,6432,6432 #6432,4201 S York St,IA,51106
Sam's Club,Vacaville,6433,6433 #6433,1500 Helen Power Dr,CA,95687
Sam's Club,Laurel,6434,6434 #6434,3535 Russett Grn,MD,20724
Sam's Club,Tuscaloosa,6435,6435 #6435,1401 Skyland Blvd E,AL,35405
Sam's Club,Onalaska,6436,6436 #6436,1211 Crossing Meadows Dr,WI,54650
Sam's Club,Bloomington,6437,6437 #6437,3205 W State Road 45,IN,47403
Sam's Club,Odessa,6439,6439 #6439,4230 John Ben Shepperd Pkwy,TX,79762
Sam's Club,Latham,6440,6440 #6440,"579 Troy Schenectady Rd, Sam's Club",NY,12110
Sam's Club,Lakeland,6441,6441 #6441,4600 Us Highway 98 N,FL,33809
Sam's Club,Orange,6442,6442 #6442,2 Boston Post Rd,CT,6477
Sam's Club,Goldsboro,6443,6443 #6443,2811 N Park Dr,NC,27534
Sam's Club,Evanston,6444,6444 #6444,2450 Main St,IL,60202
Sam's Club,Port Charlotte,6445,6445 #6445,17700 Murdock Cir,FL,33948
Sam's Club,Nashville,6447,6447 #6447,615 Old Hickory Blvd,TN,37209
Sam's Club,New Port Richey,6448,6448 #6448,4330 Us 19,FL,34652
Sam's Club,Paducah,6449,6449 #6449,3550 James Sanders Blvd,KY,42001
Sam's Club,Cincinnati,6450,6450 #6450,5375 N Bend Rd,OH,45247
Sam's Club,Asheville,6452,6452 #6452,645 Patton Ave,NC,28806
Sam's Club,Austin,6453,6453 #6453,9700 N Capital Of Tx Hwy,TX,78759
Sam's Club,Southfield,6454,6454 #6454,22500 W 8 Mile Rd,MI,48033
Sam's Club,Oxnard,6455,6455 #6455,2401 N Rose Ave,CA,93036
Sam's Club,Plattsburgh,6456,6456 #6456,#7 Consumer Square,NY,12901
Sam's Club,South Charleston,6457,6457 #6457,2500 Mountaineer Blvd,WV,25309
Sam's Club,Lynchburg,6458,6458 #6458,3912 Wards Rd,VA,24502
Sam's Club,Altoona,6460,6460 #6460,2500 Plank Road Commons,PA,16602
Sam's Club,Grand Island,6461,6461 #6461,1510 N Diers Ave,NE,68803
Sam's Club,Augusta,6462,6462 #6462,45 Market Place Dr,ME,4330
Sam's Club,Anderson,6463,6463 #6463,3812 Liberty Hwy Ste 6,SC,29621
Sam's Club,Des Plaines,6464,6464 #6464,101 W Oakton St,IL,60018
Sam's Club,Victoria,6471,6471 #6471,9202 N Navarro St,TX,77904
Sam's Club,Council Bluffs,6472,6472 #6472,3221 Manawa Sentre Drive,IA,51501
Sam's Club,Maplewood,6474,6474 #6474,2100 Maplewood Commons Dr,MO,63143
Sam's Club,Cape Girardeau,6479,6479 #6479,232 Shirley Dr,MO,63701
Sam's Club,Baytown,6481,6481 #6481,4554 Oscar Nelson Jr Dr,TX,77523
Sam's Club,Dallas,6482,6482 #6482,5555 S Buckner Blvd,TX,75228
Sam's Club,Tinley Park,6485,6485 #6485,16100 Harlem Ave,IL,60477
Sam's Club,Addison,6487,6487 #6487,1006 Rohlwing Rd,IL,60101
Sam's Club,Woodridge,6488,6488 #6488,7300 Woodward Ave,IL,60517
Sam's Club,Calumet City,6489,6489 #6489,603 River Oaks W,IL,60409
Sam's Club,Murfreesboro,6501,6501 #6501,125 John R Rice Blvd,TN,37129
Sam's Club,El Paso,6502,6502 #6502,7001 Gateway Blvd W,TX,79925
Sam's Club,Hattiesburg,6503,6503 #6503,6080 U S Highway 98,MS,39402
Sam's Club,Albany,6506,6506 #6506,1201 N Westover Blvd,GA,31707
Sam's Club,Jackson,6507,6507 #6507,2120 Emporium Dr,TN,38305
Sam's Club,Rome,6509,6509 #6509,2550 Redmond Cir Nw,GA,30165
Sam's Club,Mankato,6510,6510 #6510,1831 E Madison Ave,MN,56001
Sam's Club,Clarksville,6512,6512 #6512,3315 Guthrie Hwy,TN,37040
Sam's Club,Waterloo,6514,6514 #6514,210 E Tower Park Dr,IA,50701
Sam's Club,Beavercreek,6517,6517 #6517,3446 Pentagon Blvd,OH,45431
Sam's Club,Bristol,6518,6518 #6518,13249 Lee Hwy,VA,24202
Sam's Club,Vero Beach,6520,6520 #6520,5565 20Th St,FL,32966
Sam's Club,Houma,6521,6521 #6521,2174 Martin Luther King Jr Blv,LA,70360
Sam's Club,Colonial Heights,6524,6524 #6524,735 Southpark Blvd,VA,23834
Sam's Club,Jamestown,6526,6526 #6526,720 Fairmount Ave,NY,14701
Sam's Club,Baton Rouge,6527,6527 #6527,10444 N Mall Dr,LA,70809
Sam's Club,Cincinnati,6528,6528 #6528,815 Clepper Ln,OH,45245
Sam's Club,State College,6533,6533 #6533,381 Benner Pike,PA,16801
Sam's Club,Wausau,6535,6535 #6535,4000 Rib Mountain Dr,WI,54401
Sam's Club,Allentown,6536,6536 #6536,901 Airport Center Dr,PA,18109
Sam's Club,Watertown,6539,6539 #6539,21341 Sam'S Dr,NY,13601
Sam's Club,Charlotte,6540,6540 #6540,8909 Jw Clay Blvd,NC,28262
Sam's Club,Princeton,6541,6541 #6541,301 Nassau Park Blvd,NJ,8540
Sam's Club,Loveland,6544,6544 #6544,9570 Fields Ertel Rd,OH,45140
Sam's Club,Muncy,6547,6547 #6547,611 Lycoming Mall Cir,PA,17756
Sam's Club,Pueblo,6549,6549 #6549,412 Eagleridge Blvd,CO,81008
Sam's Club,Saint Clairsville,6556,6556 #6556,50555 Valley Plaza Dr,OH,43950
Sam's Club,Exton,6558,6558 #6558,280 Indian Run St,PA,19341
Sam's Club,Muskegon,6562,6562 #6562,1707 E Sherman Blvd,MI,49444
Sam's Club,Rapid City,6565,6565 #6565,925 Eglin St,SD,57701
Sam's Club,Easton,6567,6567 #6567,3796 Easton Nazareth Hwy,PA,18045
Sam's Club,Ames,6568,6568 #6568,305 Airport Rd,IA,50010
Sam's Club,Bluefield,6569,6569 #6569,601 Commerce Dr,VA,24605
Sam's Club,Raleigh,6570,6570 #6570,3001 Calvary Dr,NC,27604
Sam's Club,Florence,6571,6571 #6571,200 N Beltline Dr,SC,29501
Sam's Club,Knoxville,6572,6572 #6572,2920 Knoxville Center Dr,TN,37924
Sam's Club,Jacksonville,6573,6573 #6573,1170 Western Blvd,NC,28546
Sam's Club,Pittsburgh,6575,6575 #6575,249 Summit Park Dr,PA,15275
Sam's Club,Scranton Dickson Ci,6581,6581 #6581,921 Viewmont Dr,PA,18519
Sam's Club,Hilton Head,6582,6582 #6582,95 Mathews Dr,SC,29926
Sam's Club,Anchorage,6601,6601 #6601,8801 Old Seward Hwy,AK,99515
Sam's Club,Anchorage,6602,6602 #6602,1074 N. Muldoon Road,AK,99504
Sam's Club,Fairbanks,6603,6603 #6603,48 College Rd,AK,99701
Sam's Club,Flagstaff,6604,6604 #6604,1851 E Butler Ave,AZ,86001
Sam's Club,Gilbert,6605,6605 #6605,1225 N Gilbert Rd,AZ,85234
Sam's Club,Phoenix,6606,6606 #6606,8340 W Mcdowell Rd,AZ,85037
Sam's Club,Phoenix,6608,6608 #6608,1525 W Bell Rd,AZ,85023
Sam's Club,Palm Desert,6609,6609 #6609,34220 Monterey Ave,CA,92211
Sam's Club,Chino,6610,6610 #6610,3951 Grand Ave,CA,91710
Sam's Club,City Of Industry,6611,6611 #6611,17835 Gale Ave,CA,91748
Sam's Club,Concord,6612,6612 #6612,1225 Concord Ave,CA,94520
Sam's Club,Long Beach,6613,6613 #6613,7480 Carson Blvd,CA,90808
Sam's Club,El Monte,6614,6614 #6614,4901 Santa Anita Ave,CA,91731
Sam's Club,Fountain Valley,6615,6615 #6615,17099 Brookhurst St,CA,92708
Sam's Club,Fullerton,6616,6616 #6616,629 S Placentia Avenue,CA,92831
Sam's Club,Gardena,6617,6617 #6617,1399 W Artesia Blvd,CA,90248
Sam's Club,Ontario,6619,6619 #6619,951 N Milliken Ave,CA,91764
Sam's Club,Folsom,6620,6620 #6620,2495 Iron Point Rd #11,CA,95630
Sam's Club,Roseville,6621,6621 #6621,904 Pleasant Grove Blvd,CA,95678
Sam's Club,Sacramento,6622,6622 #6622,8250 Power Inn Rd,CA,95828
Sam's Club,Sacramento,6623,6623 #6623,3360 El Camino Ave,CA,95821
Sam's Club,San Bernardino,6624,6624 #6624,1055 Harriman Pl,CA,92408
Sam's Club,San Fernando,6625,6625 #6625,12920 Foothill Blvd,CA,91340
Sam's Club,Southgate,6626,6626 #6626,5871 Firestone Blvd,CA,90280
Sam's Club,Stanton,6627,6627 #6627,12540 Beach Blvd,CA,90680
Sam's Club,Torrance,6628,6628 #6628,2601 Skypark Dr,CA,90505
Sam's Club,Arvada,6630,6630 #6630,7370 W 52Nd Ave,CO,80002
Sam's Club,Aurora,6631,6631 #6631,880 S Abilene St,CO,80012
Sam's Club,Denver,6632,6632 #6632,505 S Broadway,CO,80209
Sam's Club,Fort Collins,6633,6633 #6633,4700 Boardwalk Dr,CO,80525
Sam's Club,Lone Tree,6634,6634 #6634,7817 Park Meadows Dr,CO,80124
Sam's Club,Littleton,6635,6635 #6635,4827 S Wadsworth Way,CO,80123
Sam's Club,Newington,6636,6636 #6636,3465 Berlin Turn Pike,CT,6111
Sam's Club,Coral Springs,6637,6637 #6637,950 N University Dr,FL,33071
Sam's Club,Tampa,6642,6642 #6642,5135 S Dale Mabry Hwy,FL,33611
Sam's Club,Atlanta,6643,6643 #6643,2901 Clairmont Rd Ne,GA,30329
Sam's Club,Oakwood,6644,6644 #6644,3839 Mundy Mill Rd,GA,30566
Sam's Club,Alpharetta,6646,6646 #6646,10600 Davis Dr,GA,30009
Sam's Club,Seekonk,6648,6648 #6648,1110 Fall River Ave,MA,2771
Sam's Club,Worcester,6649,6649 #6649,1 Tobias Boland Way,MA,1606
Sam's Club,Baltimore Rosedale,6650,6650 #6650,6410 Petrie Way Rd,MD,21237
Sam's Club,Catonsville Baltimo,6651,6651 #6651,5702 Balt Natnl Pike,MD,21228
Sam's Club,Frederick,6652,6652 #6652,5604 Buckeystown Pike,MD,21704
Sam's Club,Gaithersburg,6653,6653 #6653,610 N Frederick Ave,MD,20877
Sam's Club,Waldorf,6655,6655 #6655,2365 Crain Hwy,MD,20601
Sam's Club,Novi Farmington Hil,6657,6657 #6657,27300 Wixom Rd,MI,48374
Sam's Club,Jackson,6658,6658 #6658,3600 Oneil Dr,MI,49202
Sam's Club,Madison Heights,6659,6659 #6659,31020 John R Rd,MI,48071
Sam's Club,Port Huron,6660,6660 #6660,1237 32Nd St,MI,48060
Sam's Club,Portage,6661,6661 #6661,7021 S Westnedge Ave,MI,49002
Sam's Club,Roseville,6662,6662 #6662,31720 Gratiot Ave,MI,48066
Sam's Club,Saginaw,6663,6663 #6663,5656 Bay Rd,MI,48604
Sam's Club,Utica,6664,6664 #6664,45600 Utica Park Blvd,MI,48315
Sam's Club,Waterford,6665,6665 #6665,495 Summit Dr,MI,48328
Sam's Club,Canton,6666,6666 #6666,39800 Ford Rd,MI,48187
Sam's Club,Ypsilanti,6667,6667 #6667,5450 Carpenter Rd,MI,48197
Sam's Club,Morrisville,6668,6668 #6668,1101 Shiloh Glenn Dr,NC,27560
Sam's Club,Manchester,6669,6669 #6669,200 John E Devine Dr,NH,3103
Sam's Club,Deptford,6670,6670 #6670,"2000 Clements Bridge Rd,Ste116",NJ,8096
Sam's Club,Freehold,6671,6671 #6671,320 W Main St,NJ,7728
Sam's Club,Albuquerque,6672,6672 #6672,300 Eubank Blvd Ne,NM,87123
Sam's Club,Cheektowaga,6673,6673 #6673,3735 Union Rd,NY,14225
Sam's Club,Elmsford,6674,6674 #6674,333 Saw Mill River Rd,NY,10523
Sam's Club,Erie,6675,6675 #6675,7200 Peach St,PA,16509
Sam's Club,Willow Grove,6676,6676 #6676,3925 Welsh Rd,PA,19090
Sam's Club,Monroeville,6677,6677 #6677,3621 William Penn Hwy,PA,15146
Sam's Club,Pittsburgh,6678,6678 #6678,289 Mt. Nebo Point Drive,PA,15237
Sam's Club,West Mifflin,6679,6679 #6679,2251 Century Dr,PA,15122
Sam's Club,Warwick,6681,6681 #6681,25 Pace Blvd,RI,2886
Sam's Club,Layton,6682,6682 #6682,1055 W Hill Field Rd,UT,84041
Sam's Club,Murray,6683,6683 #6683,6525 S State St,UT,84107
Sam's Club,Riverdale,6684,6684 #6684,4949 S 900 W,UT,84405
Sam's Club,Provo,6685,6685 #6685,1313 S University Ave,UT,84601
Sam's Club,Salt Lake City,6686,6686 #6686,1905 South 300 West,UT,84115
Sam's Club,Seattle,6687,6687 #6687,13550 Aurora Ave N,WA,98133
Sam's Club,Auburn,6688,6688 #6688,1101 Supermall Way Sw#1275,WA,98002
Sam's Club,Tucson,6692,6692 #6692,4701 N Stone Ave,AZ,85704
Sam's Club,Langhorne,6693,6693 #6693,1717 E Lincoln Hwy,PA,19047
Sam's Club,Jurupa Valley,6914,6914 #6914,4155 Wineville Rd,CA,91752
Sam's Club,Mobile,8102,8102 #8102,601 E I65 Service Rd S,AL,36606
Sam's Club,Little Rock,8104,8104 #8104,900 S Bowman Rd,AR,72211
Sam's Club,Montgomery,8106,8106 #8106,1080 Eastern Blvd,AL,36117
Sam's Club,Huntsville,8107,8107 #8107,2235 National Blvd Sw,AL,35803
Sam's Club,Jeffersontown,8111,8111 #8111,1401 Alliant Ave,KY,40299
Sam's Club,Chattanooga,8112,8112 #8112,6101 Lee Hwy,TN,37421
Sam's Club,Lafayette,8114,8114 #8114,3222 Ambassador Caffery Pkwy,LA,70506
Sam's Club,Augusta,8115,8115 #8115,596 Bobby Jones Expy,GA,30907
Sam's Club,Jacksonville,8116,8116 #8116,10690 Beach Blvd,FL,32246
Sam's Club,Ok. City Edmond,8117,8117 #8117,1900 W Memorial Rd,OK,73134
Sam's Club,Pensacola,8119,8119 #8119,1250 Airport Blvd,FL,32504
Sam's Club,Tallahassee,8120,8120 #8120,3122 Dick Wilson Blvd,FL,32301
Sam's Club,Evansville,8123,8123 #8123,6700 E Virginia St,IN,47715
Sam's Club,Ferguson St. Louis,8125,8125 #8125,10735 W Florissant Ave,MO,63136
Sam's Club,Brownsville,8126,8126 #8126,3570 W Alton Gloor Blvd,TX,78520
Sam's Club,Peoria,8128,8128 #8128,4100 W Willow Knolls Dr,IL,61615
Sam's Club,Wilmington,8129,8129 #8129,412 S College Rd,NC,28403
Sam's Club,Fort Myers,8130,8130 #8130,5170 S Cleveland Ave,FL,33907
Sam's Club,Cincinnati,8131,8131 #8131,4825 Marburg Ave,OH,45209
Sam's Club,Springdale,8132,8132 #8132,800 Kemper Commons Cir,OH,45246
Sam's Club,Florence,8133,8133 #8133,4949 Houston Rd,KY,41042
Sam's Club,Fort Smith,8134,8134 #8134,7700 Rogers Ave,AR,72903
Sam's Club,Terre Haute,8135,8135 #8135,4350 S Us Highway 41,IN,47802
Sam's Club,Washington Township,8136,8136 #8136,1111 Miamisburg Centerville Rd,OH,45459
Sam's Club,Lansing,8137,8137 #8137,340 E Edgewood Blvd,MI,48911
Sam's Club,Daytona Beach,8138,8138 #8138,1175 Beville Rd,FL,32119
Sam's Club,Holland,8139,8139 #8139,1300 E Mall Dr,OH,43528
Sam's Club,Lantana,8140,8140 #8140,7233 Seacrest Blvd,FL,33462
Sam's Club,Melbourne,8141,8141 #8141,4255 W New Haven Ave,FL,32904
Sam's Club,Spartanburg,8142,8142 #8142,200 Peachwood Centre Dr,SC,29301
Sam's Club,Naperville,8143,8143 #8143,808 S Route 59,IL,60540
Sam's Club,Pleasantville,8144,8144 #8144,1025 Black Horse Pike,NJ,8232
Sam's Club,Cinnaminson,8145,8145 #8145,2521 Route 130 S,NJ,8077
Sam's Club,Omaha,8146,8146 #8146,13130 L St,NE,68137
Sam's Club,Loveland,8147,8147 #8147,1200 E Eisenhower Blvd,CO,80537
Sam's Club,Streamwood,8148,8148 #8148,900 S Barrington Rd,IL,60107
Sam's Club,Green Bay,8149,8149 #8149,2470 W Mason St,WI,54303
Sam's Club,Port Saint Lucie,8150,8150 #8150,10900 S Us Highway 1,FL,34952
Sam's Club,Panama City,8151,8151 #8151,1707 W 23Rd St,FL,32405
Sam's Club,South Point,8152,8152 #8152,432 Private Drive 288,OH,45680
Sam's Club,El Paso,8153,8153 #8153,7970 N Mesa St,TX,79932
Sam's Club,Matteson,8154,8154 #8154,21430 S Cicero Ave,IL,60443
Sam's Club,Gainesville,8155,8155 #8155,2801 Nw 13Th St,FL,32609
Sam's Club,Laredo,8156,8156 #8156,4810 San Bernardo Ave,TX,78041
Sam's Club,West Palm Beach,8157,8157 #8157,4295 45Th St,FL,33407
Sam's Club,Temple,8160,8160 #8160,5314 Allentown Pike,PA,19560
Sam's Club,York,8161,8161 #8161,2801 E Market St,PA,17402
Sam's Club,Cedar Rapids,8162,8162 #8162,2605 Blairs Ferry Rd Ne,IA,52402
Sam's Club,Columbia,8163,8163 #8163,101 Conley Rd,MO,65201
Sam's Club,Waukesha,8164,8164 #8164,600 N Springdale Rd,WI,53186
Sam's Club,Sioux Falls,8165,8165 #8165,3201 S Louise Ave,SD,57106
Sam's Club,Duluth,8166,8166 #8166,3450 Steve Reynolds Blvd,GA,30096
Sam's Club,Franklin,8167,8167 #8167,6705 S 27Th St,WI,53132
Sam's Club,Indianapolis,8168,8168 #8168,7235 E 96Th St,IN,46250
Sam's Club,Lafayette,8169,8169 #8169,3819 South Street,IN,47905
Sam's Club,Goshen,8170,8170 #8170,4024 Elkhart Rd Ste 1,IN,46526
Sam's Club,Syracuse,8171,8171 #8171,2649 Erie Blvd E,NY,13224
Sam's Club,Fargo,8172,8172 #8172,4831 13Th Ave S,ND,58103
Sam's Club,Miramar,8173,8173 #8173,1900 S University Dr,FL,33025
Sam's Club,Merrillville,8174,8174 #8174,3134 E 79Th Ave,IN,46410
Sam's Club,Harrisburg,8175,8175 #8175,6781 Grayson Rd,PA,17111
Sam's Club,Topeka,8176,8176 #8176,1401 Sw Wanamaker Rd,KS,66604
Sam's Club,Las Vegas,8177,8177 #8177,5101 S Pecos Rd,NV,89120
Sam's Club,Rochester,8178,8178 #8178,700 Elm Ridge Center Dr,NY,14626
Sam's Club,Henrietta,8179,8179 #8179,1600 Marketplace Dr,NY,14467
Sam's Club,Marion,8180,8180 #8180,2709 Walton Way,IL,62959
Sam's Club,Alexandria,8181,8181 #8181,3805 North Blvd,LA,71301
Sam's Club,Saint Louis,8182,8182 #8182,13455 Manchester Rd,MO,63131
Sam's Club,Saint Cloud,8183,8183 #8183,207 County Road 120,MN,56303
Sam's Club,Gurnee,8184,8184 #8184,6570 Grand Ave,IL,60031
Sam's Club,Eau Claire,8185,8185 #8185,4001 Gateway Dr,WI,54701
Sam's Club,Scarborough,8186,8186 #8186,440 Payne Rd,ME,4074
Sam's Club,Lexington,8188,8188 #8188,1063 E New Circle Rd,KY,40505
Sam's Club,Clarksburg,8189,8189 #8189,200 Emily Dr,WV,26301
Sam's Club,La Marque,8190,8190 #8190,6614 Gulf Freeway,TX,77568
Sam's Club,Wilkes Barre,8191,8191 #8191,441 Wilkes Barre Township Blvd,PA,18702
Sam's Club,Dothan,8192,8192 #8192,3440 Ross Clark Cir,AL,36303
Sam's Club,Hagerstown,8193,8193 #8193,1700 Wesel Blvd,MD,21740
Sam's Club,Bogart,8194,8194 #8194,4365 Atlanta Hwy,GA,30622
Sam's Club,Manchester,8195,8195 #8195,69 Pavilion Dr,CT,6042
Sam's Club,Florence,8196,8196 #8196,364 Cox Creek Pkwy,AL,35630
Sam's Club,Champaign,8197,8197 #8197,915 W Marketview Dr,IL,61822
Sam's Club,Wheeling,8198,8198 #8198,1055 Mchenry Rd,IL,60090
Sam's Club,Bradenton,8201,8201 #8201,5300 30Th St E,FL,34203
Sam's Club,Savannah,8202,8202 #8202,1975 E Montgomery Xrd,GA,31406
Sam's Club,Marietta,8203,8203 #8203,150 Cobb Pkwy S,GA,30060
Sam's Club,Baton Rouge,8204,8204 #8204,9598 Cortana Place,LA,70815
Sam's Club,Saint Louis,8205,8205 #8205,4512 Lemay Ferry Rd,MO,63129
Sam's Club,Kansas City,8207,8207 #8207,5110 N Oak Trfy,MO,64118
Sam's Club,Lenexa,8208,8208 #8208,12200 W 95Th St,KS,66215
Sam's Club,Fayetteville,8209,8209 #8209,3081 N Highway 112,AR,72704
Sam's Club,Fort Worth,8210,8210 #8210,2440 Se Loop 820,TX,76140
Sam's Club,Douglasville,8211,8211 #8211,6995 Concourse Pkwy,GA,30134
Sam's Club,Irondale,8212,8212 #8212,3900 Grants Mill Rd,AL,35210
Sam's Club,Columbus,8213,8213 #8213,5448 A Whittlesey Blvd.,GA,31909
Sam's Club,Fern Park,8214,8214 #8214,355 Semoran Blvd,FL,32730
Sam's Club,Springfield,8215,8215 #8215,2300 W White Oaks Dr,IL,62704
Sam's Club,Houston,8217,8217 #8217,1615 S Loop W,TX,77054
Sam's Club,Fayetteville,8218,8218 #8218,1450 Skibo Rd,NC,28303
Sam's Club,Matthews,8219,8219 #8219,1801 Windsor Square Dr,NC,28105
Sam's Club,Roanoke,8220,8220 #8220,1455 Town Square Blvd.,VA,24012
Sam's Club,Harvey Gretna,8221,8221 #8221,1527 Manhattan Blvd,LA,70058
Sam's Club,Johnson City,8222,8222 #8222,3060 Franklin Terrace Dr,TN,37604
Sam's Club,Raleigh,8223,8223 #8223,2537 S Saunders St,NC,27603
Sam's Club,Wichita Falls,8224,8224 #8224,3801 Kell Blvd,TX,76308
Sam's Club,Macon,8225,8225 #8225,4701 Log Cabin Dr,GA,31204
Sam's Club,Abilene,8226,8226 #8226,5550 S. Clack St,TX,79606
Sam's Club,San Antonio,8227,8227 #8227,5055 Nw Loop 410,TX,78229
Sam's Club,Winston Salem,8228,8228 #8228,930 Hanes Mall Blvd,NC,27103
Sam's Club,Gulfport,8236,8236 #8236,10431 Old Highway 49,MS,39503
Sam's Club,Monroe,8237,8237 #8237,5400 I20 Frontage Rd,LA,71202
Sam's Club,Davenport,8238,8238 #8238,3887 Elmore Ave,IA,52807
Sam's Club,Lawton,8239,8239 #8239,802 Nw Sheridan Rd,OK,73505
Sam's Club,Midwest City,8241,8241 #8241,6521 Se 29Th St,OK,73110
Sam's Club,Dallas,8242,8242 #8242,12000 Mccree Rd,TX,75238
Sam's Club,Raymore,8243,8243 #8243,141 N. Dean Ave,MO,64083
Sam's Club,Houston,8244,8244 #8244,11101 Fuqua St,TX,77089
Sam's Club,Houston N,8245,8245 #8245,325 E Richey Rd,TX,77073
Sam's Club,Stafford Meadows,8246,8246 #8246,12300 S W Fwy,TX,77477
Sam's Club,Homewood,8247,8247 #8247,201 Lakeshore Pkwy,AL,35209
Sam's Club,Dallas W,8248,8248 #8248,9461 Webb Chapel Rd,TX,75220
Sam's Club,Mcallen,8250,8250 #8250,1400 E Jackson Ave,TX,78503
Sam's Club,Saint Charles,8251,8251 #8251,2855 S Service Rd,MO,63303
Sam's Club,North Charleston,8252,8252 #8252,4900 Centre Pointe Dr,SC,29418
Sam's Club,Jacksonville,8253,8253 #8253,300 Busch Dr,FL,32218
Sam's Club,Wichita,8254,8254 #8254,6200 W Kellogg Dr,KS,67209
Sam's Club,Madison,8255,8255 #8255,7050 Watts Rd,WI,53719
Sam's Club,Knoxville,8256,8256 #8256,8435 Walbrook Dr,TN,37923
Sam's Club,Hendersonville,8257,8257 #8257,301 Indian Lake Blvd,TN,37075
Sam's Club,Memphis,8258,8258 #8258,1805 Getwell Rd,TN,38111
Sam's Club,Austin,8259,8259 #8259,9900 S I H 35,TX,78748
Sam's Club,Kenner New Orleans,8261,8261 #8261,455 31St St,LA,70065
Sam's Club,San Antonio,8262,8262 #8262,12349 N Ih 35,TX,78233
Sam's Club,Tulsa,8263,8263 #8263,4420 S Sheridan Rd,OK,74145
Sam's Club,San Antonio,8264,8264 #8264,3150 Sw Military Dr,TX,78224
Sam's Club,Lake Charles,8265,8265 #8265,2025 Sams Way,LA,70601
Sam's Club,North Little Rock,8266,8266 #8266,5600 Landers Rd,AR,72117
Sam's Club,Corpus Christi,8267,8267 #8267,4833 South Padre Island Drive,TX,78411
Sam's Club,North Richland Hill,8268,8268 #8268,6375 Ne Loop 820,TX,76180
Sam's Club,Grand Prairie,8269,8269 #8269,2325 W Hwy I 20,TX,75052
Sam's Club,Lubbock,8270,8270 #8270,6016 Marsha Sharp Fwy,TX,79407
Sam's Club,Jackson,8271,8271 #8271,6360 Ridgewood Court Dr,MS,39211
Sam's Club,Colorado Springs,8272,8272 #8272,715 S Academy Blvd,CO,80910
Sam's Club,Shreveport,8273,8273 #8273,7400 Youree Dr,LA,71105
Sam's Club,Houston,8274,8274 #8274,12205 West Rd,TX,77065
Sam's Club,Beaumont,8275,8275 #8275,1615 Interstate 10 S,TX,77701
Sam's Club,Louisville,8276,8276 #8276,6622 Preston Hwy,KY,40219
Sam's Club,Westworth Village,8277,8277 #8277,6760 Westworth Blvd,TX,76114
Sam's Club,Greenville,8278,8278 #8278,1211 Woodruff Rd,SC,29607
Sam's Club,Amarillo,8279,8279 #8279,2201 Ross Osage St,TX,79103
Sam's Club,El Paso,8280,8280 #8280,11360 Pellicano Drive,TX,79936
Sam's Club,Houston,8281,8281 #8281,13600 East Fwy,TX,77015
Sam's Club,Dallas,8282,8282 #8282,2900 W Wheatland Rd,TX,75237
Sam's Club,Columbia,8283,8283 #8283,5426 Forest Dr,SC,29206
Sam's Club,Tyler,8284,8284 #8284,2025 S Southwest Loop 323,TX,75701
Sam's Club,O Fallon,8285,8285 #8285,1350 W Us Highway 50,IL,62269
Sam's Club,Waco,8286,8286 #8286,2301 E Waco Dr,TX,76705
Sam's Club,Morrow,8287,8287 #8287,7325 Jonesboro Rd,GA,30260
Sam's Club,Midland,8288,8288 #8288,1500 Tradewinds Blvd,TX,79706
Sam's Club,Oklahoma City,8289,8289 #8289,5510 Sw 5Th St,OK,73128
Sam's Club,Orlando,8290,8290 #8290,9498 S Orange Blossom Trl,FL,32837
Sam's Club,Flint,8291,8291 #8291,4373 Corunna Rd,MI,48532
Sam's Club,Memphis,8292,8292 #8292,2150 Covington Pike,TN,38128
Sam's Club,Independence,8293,8293 #8293,4100 S Bolger Rd,MO,64055
Sam's Club,Nashville,8294,8294 #8294,1300 Antioch Pike,TN,37211
Sam's Club,Texarkana,8295,8295 #8295,3610 Saint Michael Dr,TX,75503
Sam's Club,Springfield,8296,8296 #8296,3660 E Sunshine St,MO,65809
Sam's Club,Rockford,8297,8297 #8297,7151 Walton St,IL,61108
Sam's Club,Joliet,8298,8298 #8298,321 S Larkin Ave,IL,60436
Sam's Club,Plano,8299,8299 #8299,301 Coit Rd,TX,75075
