keywords,city,Aggdata Store Number,store_number,address,state,zip_code
Save-A-Lot,Edwardsville,1,#1 1,29 W Gateway Commerce Center Drive,IL,62025
Save-A-Lot,Humboldt,2,#2 2,235 Highway 45 West,TN,38343
Save-A-Lot,Fort Worth,3,#3 3,1201 John Burgess Drive,TX,76140
Save-A-Lot,Austinburg,4,#4 4,2692 Sidley Court,OH,44010
Save-A-Lot,Winchester,5,#5 5,4000 Corporate Drive,KY,40391
Save-A-Lot,Plant City,6,#6 6,4003 Amberjack Blvd.,FL,33566
Save-A-Lot,Williamsport,7,#7 7,9822 Prosperity Lane,MD,21795
Save-A-Lot,St. Johns,8,#8 8,1701 Technical Drive,MI,48879
Save-A-Lot,Rancho Cucamonga,9,#9 9,10670 Acacia Street,CA,91730
Save-A-Lot,Macon,10,#10 10,7595 Industrial Highway,GA,31216
Save-A-Lot,West Coxsackie,11,#11 11,1 Van Bergen Street,NY,12192
Save-A-Lot,Yorktown,12,#12 12,2301 North Priority Way,IN,47396
Save-A-Lot,Hammond,13,#13 13,11077 Highway 190 West,LA,70404
Save-A-Lot,Edgerton,14,#14 14,200 Interstate Blvd,WI,53534
Save-A-Lot,New Port Richey,101,#101 101,6536 Massachusetts Avenue,FL,34653
Save-A-Lot,St. Petersburg,102,#102 102,809 49th St N,FL,33710
Save-A-Lot,Clearwater,103,#103 103,11141 Hwy 19 N #400,FL,33764
Save-A-Lot,Longwood,104,#104 104,262 N Highway 17-92,FL,32750
Save-A-Lot,Daytona Beach,105,#105 105,288 N Nova Rd,FL,32114
Save-A-Lot,Bartow,106,#106 106,330 E Van Fleet Dr,FL,33830
Save-A-Lot,Jacksonville,107,#107 107,3556 Beach Blvd,FL,32207
Save-A-Lot,Tampa,108,#108 108,7430 Palm River Rd,FL,33619
Save-A-Lot,Tampa,109,#109 109,305 West Hillsborough Ave,FL,33604
Save-A-Lot,Tallahassee,110,#110 110,2525 South Monroe St,FL,32301
Save-A-Lot,Sun City Center,111,#111 111,1625 Sun City Center Blvd,FL,33573
Save-A-Lot,Deland,112,#112 112,221 South Woodland Dr,FL,32720
Save-A-Lot,Spring Hill,113,#113 113,13017 Cortez Blvd,FL,34613
Save-A-Lot,Gainesville,114,#114 114,2605 Nw 13Th St,FL,32601
Save-A-Lot,Dunedin,115,#115 115,950 Patricia Ave,FL,34698
Save-A-Lot,Orlando,117,#117 117,6135 Silver Star Rd,FL,32808
Save-A-Lot,St. Petersburg,118,#118 118,4350 6th Street South,FL,33705
Save-A-Lot,Albany,120,#120 120,301 South Slappey Blvd,GA,31701
Save-A-Lot,Brunswick,122,#122 122,72 Altama Village Drive,GA,31520
Save-A-Lot,Valdosta,123,#123 123,808 Madison Hwy,GA,31601
Save-A-Lot,Orlando,124,#124 124,4075B S Goldenrod,FL,32822
Save-A-Lot,Orlando,125,#125 125,4624 S Orange Blossom Trl,FL,32839
Save-A-Lot,Holiday,126,#126 126,1824 Us Hwy 19 N,FL,34691
Save-A-Lot,Casselberry,127,#127 127,942 Semoran Blvd,FL,32707
Save-A-Lot,Kissimmee,128,#128 128,1702 N. Main St,FL,34744
Save-A-Lot,Winter Garden,129,#129 129,13375 West Colonial Dr,FL,34787
Save-A-Lot,Riviera Beach,130,#130 130,3000 Broadway,FL,33404
Save-A-Lot,Chipley,131,#131 131,1377 Brickyard Rd,FL,32428
Save-A-Lot,Titusville,134,#134 134,120 S Hopkins Ave,FL,32796
Save-A-Lot,Plant City,135,#135 135,1401 South Collins St.,FL,33563
Save-A-Lot,Jacksonville,136,#136 136,762 Edgewood Ave N,FL,32254
Save-A-Lot,Crescent,137,#137 137,925 North Summit St,FL,32112
Save-A-Lot,Umatilla,138,#138 138,933 North Central Ave,FL,32784
Save-A-Lot,Palatka,139,#139 139,3210 Crill Ave,FL,32177
Save-A-Lot,Hollywood,140,#140 140,820 S 60Th Ave,FL,33023
Save-A-Lot,St. Petersburg,141,#141 141,701 Dr. Martin Luther King Jr. St N,FL,33701
Save-A-Lot,Lauderdale Lakes,142,#142 142,3202 North S.R. 7,FL,33319
Save-A-Lot,Plantation,144,#144 144,3865 West Broward Blvd,FL,33312
Save-A-Lot,Apopka,149,#149 149,823 Semoran Blvd,FL,32703
Save-A-Lot,Eustis,152,#152 152,332 Ardice Ave,FL,32726
Save-A-Lot,Tampa,153,#153 153,7537 W Waters Ave,FL,33615
Save-A-Lot,Orlando,157,#157 157,5639 S Orange Ave,FL,32809
Save-A-Lot,Winter Haven,158,#158 158,1534 3rd St Sw,FL,33880
Save-A-Lot,Auburndale,159,#159 159,436 Havendale Blvd,FL,33823
Save-A-Lot,Pompano Beach,160,#160 160,1040 East Sample Rd,FL,33064
Save-A-Lot,Inverness,163,#163 163,222 Hwy 41 South,FL,34450
Save-A-Lot,Orange City,164,#164 164,858 Saxon Blvd,FL,32763
Save-A-Lot,Ft. Pierce,168,#168 168,605 Delaware Ave,FL,34950
Save-A-Lot,Sanford,170,#170 170,2440 S French Ave,FL,32771
Save-A-Lot,Haines City,173,#173 173,1687 E. Hinson Plaza,FL,33844
Save-A-Lot,Wildwood,174,#174 174,360 Shopping Center Dr,FL,34785
Save-A-Lot,Jacksonville,176,#176 176,6014 Merrill Rd,FL,32277
Save-A-Lot,Ocala,177,#177 177,1926 East Silver Springs Blvd,FL,34470
Save-A-Lot,Dade City,179,#179 179,12860 Us Hwy 301,FL,33525
Save-A-Lot,Seminole,182,#182 182,8815 Park Blvd,FL,33777
Save-A-Lot,Dunnellon,186,#186 186,11582 North Williams St Suite 400,FL,34432
Save-A-Lot,Belleview,188,#188 188,10751 SE US Highway 441,FL,34420
Save-A-Lot,Lake Wales,189,#189 189,630 State Road 60 West,FL,33853
Save-A-Lot,St. Cloud,191,#191 191,916 13th St,FL,34769
Save-A-Lot,Bayonet Point,193,#193 193,12060 Us Highway 19,FL,34667
Save-A-Lot,Orlando,195,#195 195,902 Lee Rd #38,FL,32810
Save-A-Lot,Largo,197,#197 197,2156 East Bay Drive,FL,33771
Save-A-Lot,Tampa,198,#198 198,2271 East Bearss Ave,FL,33613
Save-A-Lot,Lakeland,199,#199 199,917 East Memorial Blvd,FL,33801
Save-A-Lot,Lancaster,209,#209 209,222 S. Queen Street,PA,17603
Save-A-Lot,Philadelphia,213,#213 213,5610 Lancaster Ave,PA,19125
Save-A-Lot,Philadelphia,215,#215 215,6422 Castor Ave,PA,19149
Save-A-Lot,Philadelphia,216,#216 216,2132 East Lehigh Ave.,PA,19125
Save-A-Lot,Philadelphia,218,#218 218,5800 Woodland Ave,PA,19143
Save-A-Lot,Wilmington,219,#219 219,714 S Maryland,DE,19805
Save-A-Lot,Atlantic City,221,#221 221,1501 Atlantic Avenue,NJ,8401
Save-A-Lot,Egg Harbor,224,#224 224,6701 Blackhorse Pike,NJ,8234
Save-A-Lot,Burlington,225,#225 225,811 N Route 130,NJ,8016
Save-A-Lot,Hamilton,228,#228 228,1601 Greenwood Ave,NJ,8609
Save-A-Lot,Pennsauken,229,#229 229,3949 Federal St,NJ,8110
Save-A-Lot,Pennsville,230,#230 230,235 S Broadway,NJ,8070
Save-A-Lot,Rio Grande,231,#231 231,3801 Rt. 9 South,NJ,8242
Save-A-Lot,Philadelphia,235,#235 235,6801 Frankford,PA,19135
Save-A-Lot,Claymont,239,#239 239,401 Naamans Dr. #3,DE,19703
Save-A-Lot,Folcroft,245,#245 245,1850 Delmar Dr,PA,19032
Save-A-Lot,Brookhaven,248,#248 248,3520 Edgemont Avenue,PA,19015
Save-A-Lot,Cheltenham,249,#249 249,101 West Cheltenham Ave,PA,19012
Save-A-Lot,Philadelphia,253,#253 253,3901-29 M Street,PA,19124
Save-A-Lot,Camden,262,#262 262,2780 Mt Ephraim Ave,NJ,8104
Save-A-Lot,Brooklyn Park,266,#266 266,5007 Ritchie Hwy,MD,21225
Save-A-Lot,Glassboro,268,#268 268,557 Delsea Dr North,NJ,8028
Save-A-Lot,Wilmington,270,#270 270,1422 Lancaster Ave.,DE,19805
Save-A-Lot,Philadelphia,271,#271 271,5201 Rising Sun Ave,PA,19120
Save-A-Lot,Philadelphia,274,#274 274,1300 Washington Ave.,PA,19145
Save-A-Lot,Philadelphia,276,#276 276,3801-03 Aramingo Ave,PA,19137
Save-A-Lot,Baltimore,277,#277 277,2008 Maryland Ave,MD,21218
Save-A-Lot,Landsdowne,280,#280 280,63 N Union Ave,PA,19050
Save-A-Lot,Lindenwold,282,#282 282,803 Blackwood Rd,NJ,8021
Save-A-Lot,York,283,#283 283,1045 Mt Rose Ave,PA,17403
Save-A-Lot,Philadelphia,284,#284 284,2801 W Dauphin St,PA,19132
Save-A-Lot,Ewing,285,#285 285,1560 North Olden Avenue,NJ,8638
Save-A-Lot,Philadelphia,287,#287 287,2201 Oregon Ave,PA,19145
Save-A-Lot,Hampton,291,#291 291,1933 E Pembroke Ave,VA,23663
Save-A-Lot,Vineland,293,#293 293,48 West Landis Avenue,NJ,8360
Save-A-Lot,New Castle,294,#294 294,196 Penn Mart Center,DE,19720
Save-A-Lot,Reading,295,#295 295,Oley St and N 8th Street,PA,19604
Save-A-Lot,Harrisburg,297,#297 297,2963 North 7th,PA,17110
Save-A-Lot,Tampa,301,#301 301,8320 North Florida Ave,FL,33604
Save-A-Lot,Clermont,302,#302 302,1203 West Hwy 50,FL,34711
Save-A-Lot,Lakeland,303,#303 303,2021 George Jenkins Blvd,FL,33815
Save-A-Lot,Spring Hill,304,#304 304,7351 Spring Hill Dr,FL,34606
Save-A-Lot,Tampa,305,#305 305,5002 East Broadway,FL,33619
Save-A-Lot,Orlando,306,#306 306,6341 W Colonial Dr,FL,32818
Save-A-Lot,Riverview,307,#307 307,9624 Us Hwy 301 S,FL,33578
Save-A-Lot,Ocala,308,#308 308,9264 SE Maricamp Rd,FL,34472
Save-A-Lot,New Port Richey,309,#309 309,Florida 52 & Little Rd,FL,34669
Save-A-Lot,Ft Pierce,310,#310 310,2960 South US Hwy 1,FL,34982
Save-A-Lot,Deland,311,#311 311,939 North Woodland Blvd,FL,32720
Save-A-Lot,Largo,312,#312 312,100 Clearwater-Largo Road,FL,33770
Save-A-Lot,New Port Richey,313,#313 313,4132 Little Road,FL,34655
Save-A-Lot,Temple Terrace,314,#314 314,5014 Busch Blvd,FL,33617
Save-A-Lot,Ocala,315,#315 315,8585 SW Highway 200,FL,34481
Save-A-Lot,Orlando,316,#316 316,702 South Goldenrod,FL,32822
Save-A-Lot,Gulfport,317,#317 317,5015 Gulfport Blvd.,FL,33707
Save-A-Lot,Jacksonville,318,#318 318,5432 Blanding Blvd,FL,32210
Save-A-Lot,Jacksonville,319,#319 319,8000 Lem Turner Road,FL,32208
Save-A-Lot,Orlando,320,#320 320,5800 North Orange Blossom Trail,FL,32810
Save-A-Lot,St. Petersburg,321,#321 321,2804 34th Street North,FL,33713
Save-A-Lot,Tampa,322,#322 322,3916 W Hillsborough Avenue,FL,33614
Save-A-Lot,Crystal River,323,#323 323,204 Se Highway 19,FL,34428
Save-A-Lot,Ft. Lauderdale,324,#324 324,510 N. W. 7th Avenue,FL,33311
Save-A-Lot,Orlando,325,#325 325,2200 Bruton Blvd.,FL,32805
Save-A-Lot,Brooksville,326,#326 326,20040 Cortez,FL,34601
Save-A-Lot,Stuart,329,#329 329,41 SW Monterey Road,FL,34994
Save-A-Lot,Jacksonville,333,#333 333,10696 Lem Turner,FL,32218
Save-A-Lot,Tampa,334,#334 334,150 West Fletcher Ave.,FL,33612
Save-A-Lot,Holly Hill,335,#335 335,1603 N Nova Road,FL,32117
Save-A-Lot,Zephyrhills,336,#336 336,7320 Gall Blvd.,FL,33541
Save-A-Lot,Sebring,337,#337 337,1544 Lakeview De,FL,33870
Save-A-Lot,Oakland,338,#338 338,3400 N Andrews Ave.,FL,33309
Save-A-Lot,Englewood,339,#339 339,431 South Indiana Avenue,FL,34223
Save-A-Lot,Kenneth Street,340,#340 340,4380 66th Street,FL,33709
Save-A-Lot,Hollywood,342,#342 342,2420 N Dixie Highway,FL,33020
Save-A-Lot,Port St. Lucie,343,#343 343,10105 US Hwy 1,FL,34952
Save-A-Lot,Titusville,344,#344 344,700 Cheney Hwy,FL,32780
Save-A-Lot,Port Orange,346,#346 346,3818 S Nova Road,FL,32127
Save-A-Lot,Clearwater,348,#348 348,1209 Cleveland St.,FL,33755
Save-A-Lot,Deltona,349,#349 349,1382 Howland,FL,32738
Save-A-Lot,Pensacola,352,#352 352,3300 N Pace Blvd,FL,32505
Save-A-Lot,Chalmette,355,#355 355,8700 West Judge Perez Dr,LA,70043
Save-A-Lot,Franklinton,357,#357 357,716 Washington St,LA,70438
Save-A-Lot,Hammond,358,#358 358,113 S Morrison Blvd,LA,70401
Save-A-Lot,Baton Rouge,360,#360 360,5186 Evangeline St,LA,70805
Save-A-Lot,Baton Rouge,361,#361 361,5907 Florida Boulevard,LA,70806
Save-A-Lot,Slidell,363,#363 363,191 Gause Blvd West,LA,70460
Save-A-Lot,Metairie,366,#366 366,6525 Airline Highway,LA,70003
Save-A-Lot,Marrero,367,#367 367,5003 Lapalco Blvd,LA,70072
Save-A-Lot,Gretna,369,#369 369,601 Terry Pkwy,LA,70056
Save-A-Lot,New Orleans,377,#377 377,2841 S Claiborne Ave,LA,70125
Save-A-Lot,New Orleans,378,#378 378,3640 Macarthur,LA,70114
Save-A-Lot,New Orleans,379,#379 379,1841 Almonaster,LA,70117
Save-A-Lot,Mobile,380,#380 380,851 Government St,AL,36602
Save-A-Lot,Opelousas,381,#381 381,619 Creswell,LA,70570
Save-A-Lot,Selma,385,#385 385,1320 E Highland Avenue,AL,36701
Save-A-Lot,Sylacauga,386,#386 386,204 W Fort Williams,AL,35150
Save-A-Lot,Houma,388,#388 388,836 Grand Caillou Rd,LA,70363
Save-A-Lot,Kenner,390,#390 390,3406 Williams Blvd.,LA,70065
Save-A-Lot,St. Louis,404,#404 404,3427 South Jefferson,MO,63118
Save-A-Lot,St. Louis,405,#405 405,3160 Telegraph Road,MO,63125
Save-A-Lot,Alton,407,#407 407,2980 Homer M Adams Parkway,IL,62002
Save-A-Lot,St. Charles,408,#408 408,3102 West Clay St,MO,63301
Save-A-Lot,Florissant,409,#409 409,12950 New Halls Ferry Rd,MO,63033
Save-A-Lot,St. Louis,411,#411 411,8960 Riverview Blvd,MO,63147
Save-A-Lot,East St. Louis,412,#412 412,2600 State St,IL,62205
Save-A-Lot,St. Louis,413,#413 413,91 North Oaks Plaza,MO,63121
Save-A-Lot,Wentzville,414,#414 414,715 W Pearce Blvd,MO,63385
Save-A-Lot,St. Louis,416,#416 416,3645 Page Boulevard,MO,63113
Save-A-Lot,Belleville,417,#417 417,4515 West Main St,IL,62226
Save-A-Lot,St. Louis,419,#419 419,468 North Highway 67,MO,63031
Save-A-Lot,Granite City,420,#420 420,3254 Nameoki Road,IL,62040
Save-A-Lot,St. Louis,421,#421 421,6840 Page Ave.,MO,63133
Save-A-Lot,St. Louis,422,#422 422,4447 Natural Bridge,MO,63115
Save-A-Lot,Bridgeton,423,#423 423,11977 St. Charles Rock Road,MO,63044
Save-A-Lot,St. Louis,424,#424 424,1601 Jefferson Avenue,MO,63104
Save-A-Lot,Overland,427,#427 427,9430 Midland Blvd,MO,63114
Save-A-Lot,Nashville,431,#431 431,2622 Gallatin Rd,TN,37216
Save-A-Lot,Nashville,432,#432 432,5404 Charlotte Ave,TN,37209
Save-A-Lot,Memphis,434,#434 434,3240 Jackson Ave,TN,38122
Save-A-Lot,Memphis,435,#435 435,1776 Frayser Boulevard,TN,38127
Save-A-Lot,Memphis,436,#436 436,4679 Knight Arnold Road,TN,38118
Save-A-Lot,Memphis,437,#437 437,3465 Austin Peay Hwy,TN,38128
Save-A-Lot,Memphis,438,#438 438,4696 US Hwy 61,TN,38109
Save-A-Lot,Independence,439,#439 439,11200 E Truman Rd,MO,64050
Save-A-Lot,Kansas City,440,#440 440,2751 Burlington Street,MO,64116
Save-A-Lot,Independence,442,#442 442,3500 Blue Ridge Cut Off,MO,64133
Save-A-Lot,Kansas City,443,#443 443,2815 State Ave,KS,66102
Save-A-Lot,Kansas City,444,#444 444,3410 Troost Ave,MO,64109
Save-A-Lot,Kansas City,445,#445 445,8744 Blue Ridge,MO,64138
Save-A-Lot,Kansas City,451,#451 451,3821 E Truman Rd,MO,64127
Save-A-Lot,Memphis,452,#452 452,2256 Lamar Ave,TN,38114
Save-A-Lot,Nashville,454,#454 454,2400 Clarksville Pike,TN,37208
Save-A-Lot,Madison,455,#455 455,1134 Gallatin Pike South,TN,37115
Save-A-Lot,Kansas City,456,#456 456,8115 State Avenue,KS,66112
Save-A-Lot,Gladstone,458,#458 458,6599 N Oak Trafficway,MO,64118
Save-A-Lot,Kansas City,461,#461 461,8501 Holmes Road,MO,64131
Save-A-Lot,New Orleans,463,#463 463,4726 Paris Ave.,LA,70122
Save-A-Lot,New Orleans,464,#464 464,9999 Lake Forest Blvd.,LA,70127
Save-A-Lot,Nashville,465,#465 465,1113 Murfreesboro Pike,TN,00037-2045
Save-A-Lot,New Orlenas,466,#466 466,3033 South Carrollton,LA,70118
Save-A-Lot,Waveland,467,#467 467,318 US Hwy 90,MS,39576
Save-A-Lot,Kansas City,468,#468 468,Metropolitan Ave & 18th Expressway,KS,66103
Save-A-Lot,Orangeburg,469,#469 469,1050 Chestnut St.,SC,29115
Save-A-Lot,Savannah,470,#470 470,1100 Eisenhower Dr,GA,31406
Save-A-Lot,Lumberton,471,#471 471,4301 Fayetteville Rd.,NC,28358
Save-A-Lot,Columbus,472,#472 472,3360 Buena Vista,GA,31906
Save-A-Lot,Savannah,473,#473 473,2400 Bull St,GA,31401
Save-A-Lot,Durham,474,#474 474,812 Liberty Street,NC,27701
Save-A-Lot,Atlanta,475,#475 475,1901 Metropolitan Parkway,GA,30315
Save-A-Lot,Gastonia,476,#476 476,814 Franklin,NC,28052
Save-A-Lot,Dillon,477,#477 477,214 Radford St,SC,29536
Save-A-Lot,Birmingham,478,#478 478,1127 Huffman Rd.,AL,35215
Save-A-Lot,Muscle Shoals,480,#480 480,1306 Woodward Ave,AL,35661
Save-A-Lot,Douglas,481,#481 481,802 S Peterson Avenue,GA,31533
Save-A-Lot,Alexander City,489,#489 489,1612 Mill Square,AL,35010
Save-A-Lot,West Columbia,490,#490 490,1618 Airport Blvd,SC,29169
Save-A-Lot,Laurinburg,491,#491 491,1681 South Main St.,NC,28352
Save-A-Lot,High Point,493,#493 493,2826 South Main Street,NC,27263
Save-A-Lot,Cullman,494,#494 494,1734 Second Avenue SW,AL,35055
Save-A-Lot,Cordele,495,#495 495,1101 East 16th Avenue,GA,31015
Save-A-Lot,Henderson,497,#497 497,967 S Beckford Dr.,NC,27536
Save-A-Lot,Tifton,499,#499 499,121 Virginia Avenue South,GA,31794
Save-A-Lot,Ardmore,501,#501 501,320 North Commerce St.,OK,73401
Save-A-Lot,El Reno,510,#510 510,400 Sunset Drive,OK,73036
Save-A-Lot,Hopewell,511,#511 511,206 Cavalier Square,VA,23860
Save-A-Lot,Richmond,513,#513 513,5174 Nine Mile Rd,VA,23223
Save-A-Lot,Norfolk,515,#515 515,2314 E Little Creek Rd,VA,23518
Save-A-Lot,Portsmouth,518,#518 518,3815 George Washington Hwy,VA,23702
Save-A-Lot,Hampton,519,#519 519,4902 W Mercury Blvd,VA,23666
Save-A-Lot,Newport News,520,#520 520,14339 Warwick Blvd,VA,23602
Save-A-Lot,Richmond,521,#521 521,441 E Belt Ave,VA,23224
Save-A-Lot,Petersburg,522,#522 522,2001-2003 So. Crater Rd,VA,23805
Save-A-Lot,Richmond,523,#523 523,3808 Mechanicsville Turnpike,VA,23222
Save-A-Lot,Baltimore,524,#524 524,929 North Caroline St.,MD,21205
Save-A-Lot,Arbutus,526,#526 526,5101 East Drive,MD,21227
Save-A-Lot,New Carrollton,528,#528 528,8401 Annapolis Road,MD,20784
Save-A-Lot,Milford,532,#532 532,696 North Dupont Blvd,DE,19963
Save-A-Lot,Baltimore,537,#537 537,250 Mcmechen Street,MD,21217
Save-A-Lot,Dundalk,538,#538 538,1401 Merritt Boulevard,MD,21222
Save-A-Lot,Parkville,539,#539 539,7100 Darlington Dr,MD,21234
Save-A-Lot,Baltimore,540,#540 540,6836 Reisterstown Rd,MD,21215
Save-A-Lot,Balimore City,542,#542 542,1500-1516 Havenwood Rd,MD,21218
Save-A-Lot,Baltimore,543,#543 543,4001 Erdman Ave,MD,21213
Save-A-Lot,District Heights,544,#544 544,5600 Silver Hill Rd,MD,20747
Save-A-Lot,Hyattsville,545,#545 545,5615 Sargent Rd,MD,20782
Save-A-Lot,Oxon Hill,547,#547 547,6309 Livingston Road,MD,20745
Save-A-Lot,Essex,548,#548 548,116 Stemmers Run,MD,21221
Save-A-Lot,Edgewood,549,#549 549,1901 Pulaski Highway,MD,21040
Save-A-Lot,Atlanta,567,#567 567,854 Oak St,GA,30310
Save-A-Lot,Macon,571,#571 571,1538 Eisenhower Pkwy,GA,31206
Save-A-Lot,Kannapolis,573,#573 573,950 S Cannon Blvd.,NC,28083
Save-A-Lot,Charlotte,574,#574 574,3033 Freedom Drive,NC,28208
Save-A-Lot,Lexington,575,#575 575,292 N Talbert Blvd,NC,27292
Save-A-Lot,Shelby,576,#576 576,310 W. Dixon Blvd.,NC,28152
Save-A-Lot,Hinesville,578,#578 578,519A Oglethorpe Highway,GA,31313
Save-A-Lot,Columbus,580,#580 580,4217 Hamilton,GA,31904
Save-A-Lot,Birmingham,584,#584 584,873 Dennison Avenue,AL,35211
Save-A-Lot,Americus,585,#585 585,204 Manhattan Street,GA,31709
Save-A-Lot,Bessemer,586,#586 586,528 West Towne Plaza,AL,35020
Save-A-Lot,Rockingham,588,#588 588,1305 East Broad Avenue,NC,28379
Save-A-Lot,Albemarle,589,#589 589,720 NC Hwy 24 - 27 Bypass East,NC,28001
Save-A-Lot,Dunn,591,#591 591,1915 W Cumberland,NC,28334
Save-A-Lot,Chester,593,#593 593,599 Lancaster Highway,SC,29706
Save-A-Lot,Rock Hill,594,#594 594,1102 Cherry Road,SC,29732
Save-A-Lot,Athens,595,#595 595,625 US Highway 72,AL,35611
Save-A-Lot,Eden,597,#597 597,640 S Van Buren Rd,NC,27288
Save-A-Lot,Anderson,598,#598 598,302 Pearman Dairy Road,SC,29621
Save-A-Lot,Akron,607,#607 607,1400 S Arlington St,OH,44306
Save-A-Lot,Galion,608,#608 608,845 Portland Way North,OH,44833
Save-A-Lot,Barberton,610,#610 610,205 Wooster Road North,OH,44203
Save-A-Lot,Canton,612,#612 612,906 Tuscarawas Street West,OH,44702
Save-A-Lot,Cleveland,613,#613 613,12432 Saint Clair Avenue,OH,44108
Save-A-Lot,Amherst,614,#614 614,1965 Cooper Foster Park Rd,OH,44001
Save-A-Lot,Cleveland,615,#615 615,4215 Fulton Road,OH,44144
Save-A-Lot,Streetsboro,616,#616 616,1519 State Rt. 303,OH,44241
Save-A-Lot,Tallmadge,617,#617 617,65 Brittain Rd,OH,44278
Save-A-Lot,Cleveland Heights,618,#618 618,2227 Noble Rd,OH,44112
Save-A-Lot,Cleveland,619,#619 619,14041 Puritas Ave,OH,44135
Save-A-Lot,Canton,620,#620 620,1436 Whipple Avenue Northwest,OH,44708
Save-A-Lot,Cleveland,621,#621 621,2210 Brookpark Road,OH,44134
Save-A-Lot,Cleveland,622,#622 622,5901 Detroit Avenue,OH,44102
Save-A-Lot,Cleveland,623,#623 623,14301 Kinsman Rd,OH,44120
Save-A-Lot,Lorain,624,#624 624,2222 Fairless Dr,OH,44055
Save-A-Lot,Canton,627,#627 627,2905 Mahoning Rd Ne,OH,44705
Save-A-Lot,Akron,628,#628 628,1375 Copley Rd,OH,44320
Save-A-Lot,Parma Heights,629,#629 629,6339 Olde York Rd,OH,44130
Save-A-Lot,Euclid,631,#631 631,27591 Euclid Ave,OH,44132
Save-A-Lot,Canton,632,#632 632,2928 Cleveland Ave Sw,OH,44709
Save-A-Lot,Akron,633,#633 633,544 Canton Rd,OH,44312
Save-A-Lot,Akron,634,#634 634,3333 Manchester Rd Unit 1,OH,44319
Save-A-Lot,Mansfield,636,#636 636,1229 Ashland Rd,OH,44905
Save-A-Lot,North Randall,637,#637 637,21900 Emery Road,OH,44128
Save-A-Lot,Cleveland,638,#638 638,6501 Harvard Ave,OH,44105
Save-A-Lot,Painesville,640,#640 640,1475 Mentor Ave,OH,44077
Save-A-Lot,Mansfield,641,#641 641,1270 Lexington Ave,OH,44907
Save-A-Lot,Cleveland,642,#642 642,3024 Clark Avenue,OH,44109
Save-A-Lot,Elyria,643,#643 643,125 Cleveland St,OH,44035
Save-A-Lot,Garfield Hgts,644,#644 644,12782 Rockside Road,OH,44125
Save-A-Lot,Kent,645,#645 645,1430 South Water St,OH,44240
Save-A-Lot,Cleveland,646,#646 646,18501 Neff Road,OH,44119
Save-A-Lot,North Olmsted,647,#647 647,23100 Lorain Rd,OH,44070
Save-A-Lot,Cleveland,648,#648 648,5841 Broadway Ave,OH,44127
Save-A-Lot,Akron,649,#649 649,530 East Tallmadge Ave,OH,44310
Save-A-Lot,Wadsworth,650,#650 650,204 High St.,OH,44281
Save-A-Lot,Stow,652,#652 652,911 Graham Rd.,OH,44221
Save-A-Lot,Cleveland,653,#653 653,11905 Superior Avenue,OH,44106
Save-A-Lot,Cleveland,655,#655 655,18235 Euclid Avenue,OH,44122
Save-A-Lot,Cleveland,658,#658 658,10950 Lorain Ave.,OH,44111
Save-A-Lot,Parma,660,#660 660,6801 Ridge Road,OH,44129
Save-A-Lot,Ridgeland,690,#690 690,6520 Old Canton Road,MS,39211
Save-A-Lot,Jackson,691,#691 691,516 Nakoma Dr,MS,39206
Save-A-Lot,Jackson,692,#692 692,835 Cooper Rd,MS,39212
Save-A-Lot,Jackson,693,#693 693,5465 I-55 North,MS,39206
Save-A-Lot,Dallas,725,#725 725,3021 Martin Luther King Jr. Blvd.,TX,75215
Save-A-Lot,Dallas,738,#738 738,1150 W Kiest Blvd Suite 210,TX,75224
Save-A-Lot,Dallas,752,#752 752,2611 S Lancaster Rd,TX,75216
Save-A-Lot,Dallas,753,#753 753,2627 West Jefferson Blvd.,TX,75211
Save-A-Lot,Grand Prairie,754,#754 754,2506 Belt Line Road,TX,75052
Save-A-Lot,Lancaster,755,#755 755,1055 West Pleasant Run,TX,75146
Save-A-Lot,Irving,756,#756 756,1426-B North Belt Line Road,TX,75061
Save-A-Lot,Dallas,757,#757 757,2233 N Prairie Creek Rd,TX,75227
Save-A-Lot,Dallas,758,#758 758,3322 N Buckner Blvd.,TX,75228
Save-A-Lot,Oklahoma City,760,#760 760,1645 SW 47TH ST,OK,73119
Save-A-Lot,Shawnee,764,#764 764,749 East Independence,OK,74802
Save-A-Lot,Jacksonville,785,#785 785,5751 North Main St.,FL,32208
Save-A-Lot,Jacksonville,786,#786 786,7200 Normandy Blvd.,FL,32205
Save-A-Lot,St. Augustine,787,#787 787,2469 US #1 South,FL,32086
Save-A-Lot,Lakeland,788,#788 788,4985 US Highway 98N,FL,33809
Save-A-Lot,Leesburg,789,#789 789,1415 South 14th Street,FL,34748
Save-A-Lot,Jacksonville,790,#790 790,3118 W Edgewood Avenue,FL,32209
Save-A-Lot,Orange Park,791,#791 791,311-4 Blanding Blvd.,FL,32073
Save-A-Lot,Avon Park,792,#792 792,1020 US Hwy 27 South,FL,33825
Save-A-Lot,Pompano Beach,794,#794 794,150 Powerline Rd,FL,33069
Save-A-Lot,Gainesville,798,#798 798,2302 E Hawthorne,FL,32641
Save-A-Lot,New Bedford,801,#801 801,452 Mount Pleasant St,MA,2746
Save-A-Lot,Pawtucket,803,#803 803,479 Mineral Spring Ave,RI,2860
Save-A-Lot,Fall River,804,#804 804,100 Griffin S,MA,2722
Save-A-Lot,Indian Orchard,806,#806 806,459 Main St,MA,1151
Save-A-Lot,Holyoke,810,#810 810,235 South St,MA,1040
Save-A-Lot,Springfield,811,#811 811,665 Liberty St,MA,1104
Save-A-Lot,Meriden,812,#812 812,311 W Main St,CT,6451
Save-A-Lot,Pawtucket,813,#813 813,295 Armistice Blvd,RI,2861
Save-A-Lot,East Providence,814,#814 814,2830 Pawtucket Ave,RI,2914
Save-A-Lot,Chelsea,817,#817 817,1100 Revere Beach Pkwy,MA,2150
Save-A-Lot,Hamden,821,#821 821,1125 Dixwell Ave,CT,6514
Save-A-Lot,Waterbury,822,#822 822,1805 N Main St,CT,6704
Save-A-Lot,Providence,823,#823 823,699 Hartford Ave,RI,2909
Save-A-Lot,Hartford,824,#824 824,1888 Main St,CT,6120
Save-A-Lot,Taunton,825,#825 825,1 Washington St,MA,2780
Save-A-Lot,East Hartford,826,#826 826,954 Main St,CT,6108
Save-A-Lot,Providence,827,#827 827,700 Branch Ave,RI,2904
Save-A-Lot,New Britain,829,#829 829,60 E Main St,CT,6051
Save-A-Lot,New Bedford,832,#832 832,1339 Cove Rd.,MA,2744
Save-A-Lot,Auburn,834,#834 834,23-27 Seminary St.,NY,13021
Save-A-Lot,Rotterdam,835,#835 835,1520 Altamont Ave,NY,12303
Save-A-Lot,Amsterdam,836,#836 836,4908 State Highway 30,NY,12010
Save-A-Lot,Troy,841,#841 841,120-156 Hoosick St,NY,12180
Save-A-Lot,Gloversville,842,#842 842,51 Arterial Plaza,NY,12078
Save-A-Lot,Albany,843,#843 843,493 Delaware Avenue,NY,12209
Save-A-Lot,Hartford,844,#844 844,1250 Park Street,CT,6106
Save-A-Lot,Waterbury,845,#845 845,205 union St.,CT,6701
Save-A-Lot,Manchester,846,#846 846,425 Broad Street,CT,6040
Save-A-Lot,New Hartford,848,#848 848,48 New Hartford Shopping Center,NY,13413
Save-A-Lot,Chicago,852,#852 852,7240 S Stony Island Ave,IL,60649
Save-A-Lot,Chicago,854,#854 854,7908 S. Halsted Avenue Unit A,IL,60620
Save-A-Lot,Chicago,856,#856 856,5555 W North Ave,IL,60639
Save-A-Lot,Chicago,858,#858 858,2858 E 83Rd St,IL,60617
Save-A-Lot,Chicago,859,#859 859,420 S Pulaski,IL,60624
Save-A-Lot,Chicago,860,#860 860,4439 W 63Rd St,IL,60629
Save-A-Lot,Chicago,862,#862 862,4701 S Cottage Grove,IL,60615
Save-A-Lot,Richton Park,867,#867 867,3736 Sauk Trail,IL,60471
Save-A-Lot,Bridgeport,869,#869 869,540 Pequonnock St.,CT,6604
Save-A-Lot,Indianapolis,875,#875 875,8101 Pendleton Pike,IN,46226
Save-A-Lot,Indianapolis,876,#876 876,5940 East 10Th St,IN,46219
Save-A-Lot,Indianapolis,877,#877 877,3898 Lafayette Road,IN,46254
Save-A-Lot,Martinsville,878,#878 878,1209 South Main St,IN,46151
Save-A-Lot,Indianapolis,879,#879 879,3819 S East St,IN,46227
Save-A-Lot,Chicago,882,#882 882,344 East 63rd Street,IL,60637
Save-A-Lot,Chicago,883,#883 883,6701 S Western,IL,60636
Save-A-Lot,Chicago,884,#884 884,8240 S Stony Island,IL,60617
Save-A-Lot,Forrest City,888,#888 888,2300 Washington Street,AR,72335
Save-A-Lot,Hemet,914,#914 914,2255 E Florida Ave,CA,92543
Save-A-Lot,Twenty-Nine Palms,926,#926 926,73544 29 Palms Highway,CA,92277
Save-A-Lot,Yucaipa,929,#929 929,34078 County Line Rd,CA,92399
Save-A-Lot,Bloomington,933,#933 933,10884 Cedar Ave,CA,92316
Save-A-Lot,Taft,936,#936 936,521 Finley Dr,CA,93268
Save-A-Lot,Desert Hot Springs,937,#937 937,66550 Pierson Blvd. Suite B,CA,92240
Save-A-Lot,Chula Vista,943,#943 943,1315 3Rd Ave,CA,91911
Save-A-Lot,National City,949,#949 949,1035 S Harbison Ave,CA,91950
Save-A-Lot,Wyandotte,970,#970 970,3901 Fort Street,MI,48192
Save-A-Lot,DeSoto,22392,#22392 22392,2050 Rock Road,MO,63020
Save-A-Lot,Dickson,22480,#22480 22480,540 Highway 46 South,TN,37055
Save-A-Lot,Tompkinsville,22540,#22540 22540,311 S Main,KY,42167
Save-A-Lot,Crossville,22604,#22604 22604,229 Interstate Drive,TN,38555
Save-A-Lot,Hermann,22606,#22606 22606,225 E First St,MO,65041
Save-A-Lot,Fairfield,22620,#22620 22620,105 Airport Road,IL,62837
Save-A-Lot,Millinton,22662,#22662 22662,7775 Hwy 51 N,TN,38053
Save-A-Lot,Russell Springs,22675,#22675 22675,238 E Steve Wariner Dr,KY,42642
Save-A-Lot,Vincennes,22680,#22680 22680,1015 S 15Th St,IN,47591
Save-A-Lot,Benton,22738,#22738 22738,309 E Main St,IL,62812
Save-A-Lot,McKee,22754,#22754 22754,Highway 421 South,KY,40447
Save-A-Lot,Carthage,22758,#22758 22758,203 Industrial Dr,TN,37030
Save-A-Lot,Pittsfield,22789,#22789 22789,1312 W Washington,IL,62363
Save-A-Lot,Mt. Sterling,22809,#22809 22809,605 Doe Run Dr,KY,40353
Save-A-Lot,Bonne Terre,22817,#22817 22817,3 North Wood St,MO,63628
Save-A-Lot,Forsyth,22821,#22821 22821,142 Main Street,MO,65653
Save-A-Lot,Lafayette,22837,#22837 22837,415 Hwy 52 Bypass East,TN,37083
Save-A-Lot,Athens,22884,#22884 22884,424 South White St,TN,37303
Save-A-Lot,Ripley,22891,#22891 22891,106 Miller Dr,WV,25271
Save-A-Lot,Madisonville,22922,#22922 22922,108 Wayman Rd,TN,37354
Save-A-Lot,Arnold,22924,#22924 22924,2 Meramec Heights Shopping Ctr,MO,63010
Save-A-Lot,Jackson,22958,#22958 22958,71 East Huron St,OH,45640
Save-A-Lot,Ste. Genevieve,22961,#22961 22961,30 Triangle Dr,MO,63670
Save-A-Lot,Sweetwater,22975,#22975 22975,406 Main St S,TN,37874
Save-A-Lot,Hodgenville,23114,#23114 23114,Lincoln Blvd & Lincoln Dr,KY,42748
Save-A-Lot,Circleville,23116,#23116 23116,24799 US Highway 23 South,OH,43113
Save-A-Lot,Logan,23123,#23123 23123,Hwy 10 & Hwy 119,WV,25614
Save-A-Lot,Monroe,23126,#23126 23126,1309 Winnsboro Road,LA,71201
Save-A-Lot,Elizabethtown,23127,#23127 23127,611 W Poplar,KY,42701
Save-A-Lot,Alexandria,23128,#23128 23128,234 Bolton Ave,LA,71301
Save-A-Lot,Dyersburg,23140,#23140 23140,1480 Highway 51 Bypass,TN,38024
Save-A-Lot,Poplar Bluff,23174,#23174 23174,451 S State Route 53,MO,63901
Save-A-Lot,Camdenton,23178,#23178 23178,709 N MO-5,MO,65020
Save-A-Lot,Brookville,23181,#23181 23181,11143 US Hwy 52,IN,47012
Save-A-Lot,Middlefield,23217,#23217 23217,15561 W High St,OH,44062
Save-A-Lot,Otto,23233,#23233 23233,5651 Hwy 21,MO,63052
Save-A-Lot,Effingham,23236,#23236 23236,101 N Keller,IL,62401
Save-A-Lot,Salem,23246,#23246 23246,406 W Main,IL,62881
Save-A-Lot,Shreveport,23248,#23248 23248,3723 Lakeshore Dr,LA,71101
Save-A-Lot,Lexington,23253,#23253 23253,1301 Winchester Road,KY,40505
Save-A-Lot,Bardstown,23254,#23254 23254,1500 E John Rowan Blvd,KY,40004
Save-A-Lot,Van Wert,23255,#23255 23255,1022 S Shannon St,OH,45891
Save-A-Lot,Austintown,23263,#23263 23263,1715 S Raccoon Rd,OH,44515
Save-A-Lot,Texarkana,23264,#23264 23264,6 College Hill Center,AR,71854
Save-A-Lot,Red Bank,23267,#23267 23267,2101 Dayton Blvd,TN,37415
Save-A-Lot,Youngstown,23274,#23274 23274,2998 Mccartney Rd,OH,44505
Save-A-Lot,Milton,23278,#23278 23278,292 E Main,WV,25541
Save-A-Lot,Magnolia,23282,#23282 23282,429 E Main St,AR,71753
Save-A-Lot,Benton Harbor,23286,#23286 23286,1630 M 139 Hwy,MI,49022
Save-A-Lot,Ironton,23288,#23288 23288,1370 N Highway 21,MO,63650
Save-A-Lot,Arnold,23291,#23291 23291,3610 Richardson Square Way,MO,63010
Save-A-Lot,Louisville,23292,#23292 23292,5747 Preston Hwy,KY,40213
Save-A-Lot,Marshall,23293,#23293 23293,622 East End Blvd. South,TX,75670
Save-A-Lot,Ellwood City,23295,#23295 23295,1661 Hwy 65,PA,16117
Save-A-Lot,Charleston,23299,#23299 23299,748 Virginia St W,WV,25302
Save-A-Lot,Minden,23302,#23302 23302,507 E Union St,LA,71055
Save-A-Lot,Cleveland,23306,#23306 23306,122 Keith St Sw,TN,37311
Save-A-Lot,Parks Hills,23307,#23307 23307,110 Strauss Dr,MO,63601
Save-A-Lot,Toledo,23308,#23308 23308,702 Woodville Rd,OH,43605
Save-A-Lot,Cedar Grove,23311,#23311 23311,Us Route 60,WV,25039
Save-A-Lot,Grafton,23312,#23312 23312,Rt. 50 & Rt. 119,WV,26354
Save-A-Lot,Springfield,23314,#23314 23314,2005 Memorial Blvd,TN,37172
Save-A-Lot,Lebanon,23315,#23315 23315,Lebanon Trade Center,KY,40033
Save-A-Lot,Columbia,23318,#23318 23318,112 E James Campbell,TN,38401
Save-A-Lot,Leitchfield,23319,#23319 23319,612 S English St,KY,42754
Save-A-Lot,Owensboro,23321,#23321 23321,1814 Triplett St,KY,42303
Save-A-Lot,Jeffersonville,23322,#23322 23322,Youngstown Center,IN,47130
Save-A-Lot,Columbia,23323,#23323 23323,105 Guardian St,KY,42728
Save-A-Lot,Glasgow,23324,#23324 23324,400 S Green St,KY,42141
Save-A-Lot,Morgantown,23325,#23325 23325,723 W. G. L Smith St.,KY,42261
Save-A-Lot,Bradenburg,23326,#23326 23326,2320 Bypass Road,KY,40108
Save-A-Lot,Fairdale,23327,#23327 23327,8704 National Turnpike,KY,40118
Save-A-Lot,Shepherdsville,23328,#23328 23328,I- 65 And Highway 44 E,KY,40165
Save-A-Lot,Louisville,23329,#23329 23329,8521 Terry Rd,KY,40258
Save-A-Lot,Manchester,23331,#23331 23331,Highway 421 N. Richmond Rd.,KY,40962
Save-A-Lot,Elkton,23332,#23332 23332,208 Main St,KY,42220
Save-A-Lot,Clinton,23335,#23335 23335,512 Clinch Ave,TN,37716
Save-A-Lot,Morristown,23336,#23336 23336,3004 W Andrew Johnson Hwy,TN,37814
Save-A-Lot,Newport,23338,#23338 23338,1043 Cosby Rd,TN,37821
Save-A-Lot,Radcliff,23339,#23339 23339,262 Millcreek Rd,KY,40160
Save-A-Lot,Hardinsburg,23341,#23341 23341,Old Hwy 60 E,KY,40143
Save-A-Lot,Providence,23342,#23342 23342,111 Montgomery Ave,KY,42450
Save-A-Lot,Welch,23343,#23343 23343,Virginia Ave At Highway 52,WV,24801
Save-A-Lot,Hinton,23344,#23344 23344,206 Main St,WV,25951
Save-A-Lot,Munfordville,23347,#23347 23347,300 Interstate Drive,KY,42765
Save-A-Lot,Elizabethton,23348,#23348 23348,135 W Elk Ave,TN,37643
Save-A-Lot,Lawton,23351,#23351 23351,106 Sw 11Th St,OK,73501
Save-A-Lot,Pontotoc,23357,#23357 23357,168 Highway 15 N,MS,38863
Save-A-Lot,South Haven,23363,#23363 23363,237 Broadway St,MI,49090
Save-A-Lot,New Haven,23365,#23365 23365,515 Harold Meyer Dr,MO,63068
Save-A-Lot,New Lexington,23369,#23369 23369,512 N Main St,OH,43764
Save-A-Lot,Quincy,23372,#23372 23372,1501 N 12Th St,IL,62301
Save-A-Lot,Princeton,23373,#23373 23373,1410 W Broadway St,IN,47670
Save-A-Lot,Springfield,23376,#23376 23376,805 Bardstown Rd,KY,40069
Save-A-Lot,Parchment,23379,#23379 23379,806 Shoppers Ln,MI,49004
Save-A-Lot,Detroit,23387,#23387 23387,15001 Houston Whittier St,MI,48205
Save-A-Lot,Dunlap,23391,#23391 23391,407 New Hwy 8,TN,37327
Save-A-Lot,Sullivan,23394,#23394 23394,230 W Wall St,IN,47882
Save-A-Lot,Milan,23398,#23398 23398,109 3Rd St W,IL,61264
Save-A-Lot,Hartford City,23405,#23405 23405,1817 N Walnut St,IN,47348
Save-A-Lot,Waverly,23406,#23406 23406,705 W Emmitt Ave,OH,45690
Save-A-Lot,Peebles,23407,#23407 23407,25805 State Rt. 41 South,OH,45660
Save-A-Lot,Clarksdale,23409,#23409 23409,535 E 2Nd St,MS,38614
Save-A-Lot,Lansing,23413,#23413 23413,3222 South Logan St,MI,48910
Save-A-Lot,Nicholasville,23424,#23424 23424,701 Edgewood Dr,KY,40356
Save-A-Lot,Ottawa,23431,#23431 23431,1002 1St Ave,IL,61350
Save-A-Lot,Pontiac,23434,#23434 23434,1249 Baldwin Ave,MI,48340
Save-A-Lot,Lafollette,23437,#23437 23437,2010 Jacksonboro Pike,TN,37766
Save-A-Lot,Bridgeport,23450,#23450 23450,Highway 72 North,AL,35740
Save-A-Lot,Cookeville,23451,#23451 23451,116 S Willow Ave,TN,38501
Save-A-Lot,Decherd,23452,#23452 23452,2327 Decherd Blvd,TN,37324
Save-A-Lot,Fayetteville,23453,#23453 23453,301 College St W,TN,37334
Save-A-Lot,Gadsden,23454,#23454 23454,301 N 12Th St,AL,35901
Save-A-Lot,Gallatin,23455,#23455 23455,351 E Main St,TN,37066
Save-A-Lot,Lebanon,23456,#23456 23456,325 N Cumberland St,TN,37087
Save-A-Lot,Old Hickory,23457,#23457 23457,15261 Lebanon Rd,TN,37138
Save-A-Lot,Scottboro,23458,#23458 23458,3509 N Broad Hwy 74,AL,35769
Save-A-Lot,Scottsville,23459,#23459 23459,1407 Gallatin Rd,KY,42164
Save-A-Lot,Whitwell,23461,#23461 23461,1320 S Hwy 28,TN,37397
Save-A-Lot,Gainesboro,23462,#23462 23462,705 S Grundy - Quarles Hwy,TN,38562
Save-A-Lot,Smithville,23463,#23463 23463,509 S Congress Blvd,TN,37166
Save-A-Lot,Mc Minnville,23464,#23464 23464,231 Northgate,TN,37110
Save-A-Lot,Murfreesboro,23466,#23466 23466,750 S Tennessee Blvd,TN,37130
Save-A-Lot,Jamestown,23467,#23467 23467,406 North Main Street,TN,38556
Save-A-Lot,Monticello,23468,#23468 23468,1500 N. Main St,KY,42633
Save-A-Lot,Albany,23469,#23469 23469,415 Burkesville Rd,KY,42602
Save-A-Lot,Celina,23470,#23470 23470,5920 Burkesville Highway,TN,38551
Save-A-Lot,Barbourville,23471,#23471 23471,Hwy 25E Box 449,KY,40906
Save-A-Lot,Corbin,23472,#23472 23472,1520 Cumberland Falls - Forest Hills,KY,40701
Save-A-Lot,London,23473,#23473 23473,825 S Laurel Rd,KY,40741
Save-A-Lot,Livingston,23474,#23474 23474,1032 E Main St,TN,38570
Save-A-Lot,Oneida,23475,#23475 23475,20475 Alberta St,TN,37841
Save-A-Lot,Williamsburg,23476,#23476 23476,1645 South Hwy 25 West,KY,40769
Save-A-Lot,Tennessee Ridge,23483,#23483 23483,11225 S Main St,TN,37178
Save-A-Lot,Oakwood,23484,#23484 23484,13413 Riverside Drive,VA,24631
Save-A-Lot,Rogersville,23487,#23487 23487,420 Park Blvd.,TN,37857
Save-A-Lot,Paintsville,23488,#23488 23488,229 N Mayo Trail,KY,41240
Save-A-Lot,Detroit,23490,#23490 23490,13750 Fenkell St,MI,48227
Save-A-Lot,Warren,23492,#23492 23492,1020 North Park Ave,OH,44482
Save-A-Lot,Millersville,23493,#23493 23493,1129 Louisville Hwy,TN,37072
Save-A-Lot,Frankfort,23494,#23494 23494,113 Eastwood Shopping Center,KY,40601
Save-A-Lot,Davenport,23498,#23498 23498,1309 W 4Th St,IA,52802
Save-A-Lot,Lewiston,23499,#23499 23499,10 East Ave,ME,4240
Save-A-Lot,Belding,23503,#23503 23503,7434 Storey Rd,MI,48809
Save-A-Lot,Georgetown,23504,#23504 23504,217 N Broadway St,KY,40324
Save-A-Lot,Martin,23505,#23505 23505,39 Stephens Branch Rd,KY,41649
Save-A-Lot,South Williamson,23506,#23506 23506,28640 Highway 119,KY,41514
Save-A-Lot,Spencer,23509,#23509 23509,College St,TN,38585
Save-A-Lot,Brownsville,23511,#23511 23511,Hwy 259 North Riverhill Sc,KY,42210
Save-A-Lot,Charleston,23512,#23512 23512,1400 Lincoln Ave,IL,61920
Save-A-Lot,Buckhannon,23518,#23518 23518,203 S Kanawha St,WV,26201
Save-A-Lot,Monterey,23519,#23519 23519,201 Elmore St,TN,38574
Save-A-Lot,Mt. Vernon,23520,#23520 23520,910 Main St,KY,40456
Save-A-Lot,Shreveport,23523,#23523 23523,300 W 84Th St,LA,71106
Save-A-Lot,Covington,23527,#23527 23527,843 Us Highway 51 N,TN,38019
Save-A-Lot,Warren,23531,#23531 23531,4329 Mahoning Ave NW,OH,44483
Save-A-Lot,Midlothian,23538,#23538 23538,14404 Pulaski Rd,IL,60445
Save-A-Lot,Kenova,23543,#23543 23543,1400 Chestnut St,WV,25530
Save-A-Lot,Battle Creek,23546,#23546 23546,250 Roosevelt Ave E,MI,49017
Save-A-Lot,Redford,23547,#23547 23547,25451Grand River Ave,MI,48240
Save-A-Lot,Chillicothe,23555,#23555 23555,1700 Western Ave,OH,45601
Save-A-Lot,Jackson,23558,#23558 23558,903-4 Hollywood,TN,38301
Save-A-Lot,Chaffee,23561,#23561 23561,12189 Route 16,NY,14030
Save-A-Lot,Albertville,23562,#23562 23562,5850 Us Hwy 431,AL,35950
Save-A-Lot,Lawrenceburg,23563,#23563 23563,1608 North Locust Ave,TN,38464
Save-A-Lot,Portsmouth,23567,#23567 23567,2507 Gallia St,OH,45662
Save-A-Lot,Huntington,23568,#23568 23568,920 14Th St,WV,25704
Save-A-Lot,Hancock,23569,#23569 23569,204-216 W Main St,MD,21750
Save-A-Lot,Muskegon,23571,#23571 23571,870 W Sherman Blvd,MI,49441
Save-A-Lot,Jefferson City,23573,#23573 23573,272 East Broadway Blvd.,TN,37760
Save-A-Lot,Jackson,23574,#23574 23574,1654 South Highland,TN,38301
Save-A-Lot,Ashtabula,23577,#23577 23577,822 Lake Ave,OH,44004
Save-A-Lot,Harriman,23580,#23580 23580,1225 S. Roane St,TN,37748
Save-A-Lot,Whitesburg,23582,#23582 23582,136 Parkway Plaza Loop,KY,41858
Save-A-Lot,Idabel,23583,#23583 23583,300 Se Washington St,OK,74745
Save-A-Lot,Lasalle,23589,#23589 23589,802 Joliet St,IL,61301
Save-A-Lot,Pinckneyville,23592,#23592 23592,215 S Walnut,IL,62274
Save-A-Lot,Hope,23594,#23594 23594,Hwy 67 & Hwy 4,AR,71801
Save-A-Lot,Clarksville,23596,#23596 23596,1637 S Riverside Dr,TN,37040
Save-A-Lot,Belpre,23601,#23601 23601,1820 Washington Blvd,OH,45714
Save-A-Lot,Brockton,23605,#23605 23605,240 E Ashland St,MA,2302
Save-A-Lot,Versailles,23607,#23607 23607,14795 Highway 52,MO,65084
Save-A-Lot,Stanton,23614,#23614 23614,576 E College Ave,KY,40380
Save-A-Lot,Bedford,23615,#23615 23615,8772 Lincoln Hwy,PA,15522
Save-A-Lot,Tulsa,23618,#23618 23618,1526 N Lewis Ave,OK,74110
Save-A-Lot,Rock Falls,23619,#23619 23619,1000 1St Ave,IL,61071
Save-A-Lot,Batesville,23621,#23621 23621,220 Hwy 6 W,MS,38606
Save-A-Lot,Sparta,23626,#23626 23626,179 Mose Dr,TN,38583
Save-A-Lot,Camden,23628,#23628 23628,785 California Ave Sw,AR,71701
Save-A-Lot,Lynn Haven,23630,#23630 23630,902 Ohio Ave,FL,32444
Save-A-Lot,Chesapeake,23632,#23632 23632,3rd Ave # 2,OH,45619
Save-A-Lot,Greenwood,23635,#23635 23635,719 W Park Ave,MS,38930
Save-A-Lot,Wartburg,23639,#23639 23639,3910 Morgan County Highway,TN,37887
Save-A-Lot,Knox,23641,#23641 23641,2580 U.S. 35,IN,46534
Save-A-Lot,Charles Town,23642,#23642 23642,130 Augustine Ave,WV,25414
Save-A-Lot,Greenville,23644,#23644 23644,249 W Summer St,TN,37743
Save-A-Lot,Owensboro,23645,#23645 23645,2875 W Parrish,KY,42301
Save-A-Lot,Wellsville,23647,#23647 23647,325 Wells Ave,OH,43968
Save-A-Lot,Hugo,23648,#23648 23648,Jackson & 17Th - Choctaw S/C,OK,74743
Save-A-Lot,Conneaut,23652,#23652 23652,350 W Main Rd,OH,44030
Save-A-Lot,Big Rapids,23656,#23656 23656,14219 Northland Dr,MI,49307
Save-A-Lot,Ft. Wayne,23662,#23662 23662,1840 Bluffton Rd,IN,46809
Save-A-Lot,S. Chicago Heights,23663,#23663 23663,3310 Chicago Rd,IL,60411
Save-A-Lot,Athens,23668,#23668 23668,910 E State St,OH,45701
Save-A-Lot,Mt. Gilead,23669,#23669 23669,133 Iberia St,OH,43338
Save-A-Lot,Uniontown,23671,#23671 23671,1249 W Penn Blvd,PA,15401
Save-A-Lot,Cedar Rapids,23672,#23672 23672,1625 J St Sw,IA,52404
Save-A-Lot,Youngstown,23674,#23674 23674,2725 South Ave,OH,44502
Save-A-Lot,E. Huntington,23676,#23676 23676,4341 Route 60 East,WV,25705
Save-A-Lot,Kewanee,23689,#23689 23689,110 N Burr Blvd,IL,61443
Save-A-Lot,Massillon,23694,#23694 23694,266 Federal Ave,OH,44646
Save-A-Lot,Garrand,23697,#23697 23697,Hwy 421,KY,40962
Save-A-Lot,East Ridge,23701,#23701 23701,3936 Ringgold Rd,TN,37412
Save-A-Lot,Cedartown,23706,#23706 23706,554 N Main St,GA,30125
Save-A-Lot,Summerville,23707,#23707 23707,11610 Us 27,GA,30747
Save-A-Lot,Natchitoches,23713,#23713 23713,250 Keyser Ave,LA,71458
Save-A-Lot,Elkins,23714,#23714 23714,Rt. 219/250,WV,26241
Save-A-Lot,Kingsport,23719,#23719 23719,1401 E Stone Dr,TN,37660
Save-A-Lot,South Bend,23720,#23720 23720,310 Chapin St,IN,46601
Save-A-Lot,Danville,23722,#23722 23722,1403 N Bowman Ave,IL,61832
Save-A-Lot,Clinton,23723,#23723 23723,Hwy 163 & Hwy 63,IN,47842
Save-A-Lot,Terre Haute,23724,#23724 23724,1800 E Fort Harrison Ave,IN,47805
Save-A-Lot,Beckley,23725,#23725 23725,150 Value City Center,WV,25801
Save-A-Lot,Alcoa,23727,#23727 23727,227 S Hall Rd,TN,37701
Save-A-Lot,Dansville,23730,#23730 23730,9503 Airport Plaza,NY,14437
Save-A-Lot,Toccoa,23733,#23733 23733,575 Collins Street,GA,30577
Save-A-Lot,Rock Island,23734,#23734 23734,2627 7Th Ave,IL,61201
Save-A-Lot,Waynesboro,23736,#23736 23736,907 Herbert Mart Shpg Ctr - Highway 45,MS,39367
Save-A-Lot,Tulsa,23741,#23741 23741,2140 S Sheridan Rd,OK,74129
Save-A-Lot,Aiken,23744,#23744 23744,522 York St Ne,SC,29801
Save-A-Lot,Mt. Airy,23752,#23752 23752,1468 S Hwy 52,NC,27030
Save-A-Lot,Syracruse,23754,#23754 23754,220 S Geddes St,NY,13204
Save-A-Lot,Fenton,23758,#23758 23758,1001 Majestic Dr,MO,63026
Save-A-Lot,Muskogee,23763,#23763 23763,2105 Okay Rd,OK,74403
Save-A-Lot,Ft. Ogelthorpe,23767,#23767 23767,2911 Lafayette Rd,GA,30742
Save-A-Lot,Marion,23768,#23768 23768,Marion Crossing S/C,IL,62959
Save-A-Lot,Kokomo,23775,#23775 23775,1303 E Morgan St,IN,46901
Save-A-Lot,Grand Rapids,23776,#23776 23776,730 28Th St Se,MI,49548
Save-A-Lot,Greenville,23779,#23779 23779,7912 White Horse Rd,SC,29611
Save-A-Lot,Elberton,23780,#23780 23780,890 Elbert St,GA,30635
Save-A-Lot,Winder,23788,#23788 23788,189 W Athens St,GA,30680
Save-A-Lot,Perryopolis,23797,#23797 23797,Hwy 51 & W Independence St,PA,15473
Save-A-Lot,Hannibal,23798,#23798 23798,1222 Broadway,MO,63401
Save-A-Lot,Ft. Wayne,23799,#23799 23799,1551 Goshen Ave,IN,46808
Save-A-Lot,Odessa,23800,#23800 23800,1613 N County Rd W,TX,79763
Save-A-Lot,Panama City,23815,#23815 23815,2800 E 5Th St,FL,32401
Save-A-Lot,Buffalo,23816,#23816 23816,999 Broadway St,NY,14212
Save-A-Lot,Morehead,23817,#23817 23817,Hwy 519 & Lee Clay Ave,KY,40351
Save-A-Lot,Louisa,23818,#23818 23818,Rt. 7,KY,41230
Save-A-Lot,Maysville,23819,#23819 23819,930 Tucker Drive,KY,41056
Save-A-Lot,Grayson,23820,#23820 23820,1947 State Hwy 1947,KY,41143
Save-A-Lot,Ashland,23823,#23823 23823,5800 Us Hwy 60,KY,41102
Save-A-Lot,Fairmont,23826,#23826 23826,609 Bellview Blvd,WV,26554
Save-A-Lot,Cave City,23828,#23828 23828,509 Happy Valley Rd,KY,42127
Save-A-Lot,Bowling Green,23829,#23829 23829,600 31W Bypass,KY,42101
Save-A-Lot,Bowling Green,23830,#23830 23830,2706 Russellville Rd,KY,42101
Save-A-Lot,Norton,23833,#23833 23833,1420 Park Ave Nw,VA,24273
Save-A-Lot,Lewisburg,23834,#23834 23834,7495 W. Branch Highway,PA,17837
Save-A-Lot,Rochester,23835,#23835 23835,836 Goodman St N,NY,14609
Save-A-Lot,Cortland,23842,#23842 23842,1111 State Route 222,NY,13045
Save-A-Lot,Pueblo,23844,#23844 23844,1110 Bonforte Blvd,CO,81001
Save-A-Lot,Kalamazoo,23845,#23845 23845,4400 Stadium Dr,MI,49008
Save-A-Lot,Georgetown,23847,#23847 23847,4908 E State St (Hwy 68 & Hwy 125),OH,45121
Save-A-Lot,Buffalo,23850,#23850 23850,South Highway 65,MO,65622
Save-A-Lot,Huntsville,23851,#23851 23851,3505 Pulaski Pike Nw,AL,35810
Save-A-Lot,Farmington,23852,#23852 23852,140 Vierse Dr,MO,63640
Save-A-Lot,N. Wilkesboro,23853,#23853 23853,202 North View Blvd,NC,28659
Save-A-Lot,St. Louis,23854,#23854 23854,4324 Loughborough Ave,MO,63116
Save-A-Lot,Mc Kenzie,23859,#23859 23859,15730 Highland Dr,TN,38201
Save-A-Lot,McKeesport,23863,#23863 23863,4313 Walnut St,PA,15132
Save-A-Lot,Dayton,23869,#23869 23869,4285 Rhea County Highway,TN,37321
Save-A-Lot,Mt. Morris,23876,#23876 23876,11972 N Saginaw St,MI,48458
Save-A-Lot,Clinton,23877,#23877 23877,302 N Center St,IL,61727
Save-A-Lot,Rochester,23880,#23880 23880,2318 E State Road 14,IN,46975
Save-A-Lot,Buffalo,23881,#23881 23881,284 Ontario St,NY,14207
Save-A-Lot,Hammond,23882,#23882 23882,3450 169Th St,IN,46323
Save-A-Lot,Denver,23885,#23885 23885,4255 W Florida Ave,CO,80219
Save-A-Lot,Whitehall,23887,#23887 23887,573 S Yearling Rd,OH,43213
Save-A-Lot,Richmond,23888,#23888 23888,3775 National Rd E,IN,47374
Save-A-Lot,Wellsville,23894,#23894 23894,420 Bolivar Rd,NY,14895
Save-A-Lot,Lebanon,23901,#23901 23901,832 E Main St,VA,24266
Save-A-Lot,Dover-Foxcroft,23902,#23902 23902,1090 W Main St,ME,4426
Save-A-Lot,Ada,23903,#23903 23903,314 W 12Th,OK,74820
Save-A-Lot,New Albany,23905,#23905 23905,624 State St,IN,47150
Save-A-Lot,Salem,23906,#23906 23906,1110 W Mulberry St,IN,47167
Save-A-Lot,Jasper,23907,#23907 23907,3605 N Newton St,IN,47546
Save-A-Lot,Paoli,23908,#23908 23908,401 Sw 1St St,IN,47454
Save-A-Lot,North Vernon,23909,#23909 23909,1357 N State St,IN,47265
Save-A-Lot,Lawrenceburg,23910,#23910 23910,506 Humston Dr,KY,40342
Save-A-Lot,North Collins,23911,#23911 23911,10833 Gowanda State Rd,NY,14111
Save-A-Lot,Cadillac,23912,#23912 23912,802 N Mitchell St,MI,49601
Save-A-Lot,East Tawas,23913,#23913 23913,1700 E Huron Rd,MI,48730
Save-A-Lot,Alpena,23914,#23914 23914,245 E Chisholm St,MI,49707
Save-A-Lot,Sandusky,23915,#23915 23915,709 W Perkins Ave,OH,44870
Save-A-Lot,Wayne,23919,#23919 23919,7123 Route 152,WV,25570
Save-A-Lot,Elkhart,23927,#23927 23927,1708 S Nappanee St,IN,46516
Save-A-Lot,La Belle,23937,#23937 23937,37 Lee St,FL,33935
Save-A-Lot,Columbus,23941,#23941 23941,677 Harrisburg Pike,OH,43223
Save-A-Lot,Paris,23943,#23943 23943,302 W Jasper St,IL,61944
Save-A-Lot,Union City,23945,#23945 23945,1314 Nailling Dr,TN,38261
Save-A-Lot,Lexington,23948,#23948 23948,2189 Versailles Rd,KY,40504
Save-A-Lot,Lexington,23949,#23949 23949,1235 N Broadway,KY,40505
Save-A-Lot,Flint,23957,#23957 23957,5125 Fenton Rd,MI,48507
Save-A-Lot,Columbus,23960,#23960 23960,3434 Cleveland Ave,OH,43224
Save-A-Lot,Moundsville,23964,#23964 23964,Lafayette Ave At State Route 2,WV,26041
Save-A-Lot,Rogers,23971,#23971 23971,7786 Depot St,OH,44455
Save-A-Lot,Waynesboro,23972,#23972 23972,712 S Potomac St,PA,17268
Save-A-Lot,Saginaw,23974,#23974 23974,3355 E Holland Rd,MI,48601
Save-A-Lot,Gaylord,23975,#23975 23975,1310 W M 32,MI,49735
Save-A-Lot,Cross Lanes,23977,#23977 23977,901 Cross Lanes Dr,WV,25313
Save-A-Lot,Potsdam,23981,#23981 23981,200 Market St,NY,13676
Save-A-Lot,Central City,23982,#23982 23982,1512 W Everly Brothers Blvd,KY,42330
Save-A-Lot,Dalton,23984,#23984 23984,2604 E Walnut Ave,GA,30720
Save-A-Lot,Tazewell,23985,#23985 23985,Tazewell Mall,VA,24651
Save-A-Lot,Canton,23987,#23987 23987,1000 E Peace St,MS,39046
Save-A-Lot,Saginaw,23988,#23988 23988,3805 N Michigan Ave,MI,48604
Save-A-Lot,Naples,23989,#23989 23989,3725 Tamiami Trl E,FL,34112
Save-A-Lot,N. Fort Myers,23990,#23990 23990,4150 Hancock Bridge Pkwy,FL,33917
Save-A-Lot,Memphis,23994,#23994 23994,4614 Millbranch Rd,TN,38116
Save-A-Lot,Ironton,23996,#23996 23996,400 N 2Nd St,OH,45638
Save-A-Lot,Tellico Plains,24004,#24004 24004,9170 Hwy 68,TN,37385
Save-A-Lot,New Castle,24009,#24009 24009,1134 Butler Ave,PA,16101
Save-A-Lot,Princeton,24012,#24012 24012,1055 Stafford Dr,WV,24740
Save-A-Lot,Brookfield,24014,#24014 24014,542 S Main St,MO,64628
Save-A-Lot,Bluefield,24019,#24019 24019,Sr 20 At Us 52,WV,24701
Save-A-Lot,Portland,24022,#24022 24022,268 Saint John St,ME,4102
Save-A-Lot,Joplin,24025,#24025 24025,811 W 7Th St,MO,64804
Save-A-Lot,Murphy,24026,#24026 24026,1240 Andrews Rd,NC,28906
Save-A-Lot,Jonesboro,24029,#24029 24029,603 E Broad St,IL,62952
Save-A-Lot,Keyser,24035,#24035 24035,Highway 220,WV,26726
Save-A-Lot,Pekin,24037,#24037 24037,1105 Derby St,IL,61554
Save-A-Lot,Benton,24040,#24040 24040,1316 Edison Avenue,AR,72015
Save-A-Lot,Zanesville,24041,#24041 24041,2770 Maysville Pike,OH,43701
Save-A-Lot,Pineville,24042,#24042 24042,State Route 10 North,WV,24874
Save-A-Lot,Caribou,24043,#24043 24043,42 Skyway Dr,ME,4736
Save-A-Lot,Northport,24046,#24046 24046,3067 Mcfarland Blvd,AL,35476
Save-A-Lot,Jasper,24048,#24048 24048,680 Highway 78 W,AL,35501
Save-A-Lot,Bremen,24050,#24050 24050,511 Alabama Ave S,GA,30110
Save-A-Lot,Anniston,24052,#24052 24052,3108 Mcclellan Blvd,AL,36204
Save-A-Lot,Holly Springs,24057,#24057 24057,Hwy 7 South,MS,38635
Save-A-Lot,Flint,24059,#24059 24059,2918 Flushing Rd,MI,48504
Save-A-Lot,Paris,24060,#24060 24060,630 Bonham St,TX,75460
Save-A-Lot,Roxbury,24079,#24079 24079,330 Martin Luther King Blvd,MA,2119
Save-A-Lot,Cynthiana,24084,#24084 24084,Highway 27 S,KY,41031
Save-A-Lot,Columbus,24085,#24085 24085,154 North Wilson Rd,OH,43204
Save-A-Lot,Cheektowaga,24086,#24086 24086,77 S Rossler Ave,NY,14206
Save-A-Lot,Milwaukee,24087,#24087 24087,3716 S 27Th St,WI,53221
Save-A-Lot,Decatur,24088,#24088 24088,2280 E William St,IL,62521
Save-A-Lot,Ripley,24090,#24090 24090,435 S Washington,TN,38063
Save-A-Lot,Detroit,24091,#24091 24091,5181 Grand River Ave,MI,48208
Save-A-Lot,Cedar Springs,24094,#24094 24094,14301 White Creek Ave Ne,MI,49319
Save-A-Lot,Urbana,24097,#24097 24097,741 Scioto St,OH,43078
Save-A-Lot,Buffalo,24099,#24099 24099,4444 Genesee St,NY,14211
Save-A-Lot,Lower Burrell,24100,#24100 24100,125 Logans Ferry Rd,PA,15068
Save-A-Lot,Milwaukee,24104,#24104 24104,6410 N 76Th St,WI,53223
Save-A-Lot,Montgomery City,24107,#24107 24107,1325 Gerken Dr,MO,63361
Save-A-Lot,Monett,24108,#24108 24108,817 E Us Highway 60,MO,65708
Save-A-Lot,Green Bay,24109,#24109 24109,505 Dousman St,WI,54303
Save-A-Lot,Hillsboro,24111,#24111 24111,1290 N High St,OH,45133
Save-A-Lot,Weston,24114,#24114 24114,Smith Run Rd At Highway 33,WV,26452
Save-A-Lot,Summerville,24115,#24115 24115,840 Broad St,WV,26651
Save-A-Lot,Clendenin,24116,#24116 24116,State Route 4,WV,25045
Save-A-Lot,Spencer,24118,#24118 24118,209 E Main St,WV,25276
Save-A-Lot,Oak Hill,24120,#24120 24120,2017 Main St E,WV,25901
Save-A-Lot,Columbus,24121,#24121 24121,2054 Lockbourne Rd,OH,43207
Save-A-Lot,Pomeroy,24122,#24122 24122,700 W Main St,OH,45769
Save-A-Lot,Niagara Falls,24123,#24123 24123,2316 Pine Ave,NY,14301
Save-A-Lot,Danville,24124,#24124 24124,124 Mall Road,WV,25053
Save-A-Lot,Milwaukee,24126,#24126 24126,4821 N 76Th St,WI,53218
Save-A-Lot,Peoria Heights,24127,#24127 24127,4425 N Prospect Rd,IL,61614
Save-A-Lot,Lake City,24132,#24132 24132,1036 E Duval St,FL,32025
Save-A-Lot,Union City,24135,#24135 24135,380 W Deerfield Rd,IN,47390
Save-A-Lot,Freeport,24137,#24137 24137,1801 S West Ave,IL,61032
Save-A-Lot,Stanton,24139,#24139 24139,215 N State St,MI,48888
Save-A-Lot,Beaver Dam,24142,#24142 24142,1848 N Main St,KY,42320
Save-A-Lot,Newark,24143,#24143 24143,100 Mason St,NY,14513
Save-A-Lot,Mt. Jackson,24144,#24144 24144,5836 Main St,VA,22842
Save-A-Lot,Louisville,24145,#24145 24145,2626 Portland Ave,KY,40212
Save-A-Lot,Flemingsburg,24147,#24147 24147,201S Main Cross St,KY,41041
Save-A-Lot,Milwaukee,24148,#24148 24148,6201 N Teutonia Ave,WI,53209
Save-A-Lot,Dayton,24150,#24150 24150,2152 N Gettysburg Ave,OH,45406
Save-A-Lot,Bolivar,24159,#24159 24159,1359 W Market St,TN,38008
Save-A-Lot,Camden,24160,#24160 24160,147 Us Highway 641 N,TN,38320
Save-A-Lot,Centerville,24163,#24163 24163,105 Progress Center Plaza,TN,37033
Save-A-Lot,Evansville,24167,#24167 24167,2125 S Weinbach Ave,IN,47714
Save-A-Lot,Evansville,24168,#24168 24168,500 E Diamond Ave,IN,47711
Save-A-Lot,Fulton,24169,#24169 24169,1203 Middle Road,KY,42041
Save-A-Lot,Henderson,24170,#24170 24170,229 S Green St,KY,42420
Save-A-Lot,Hopkinsville,24171,#24171 24171,2735 Fort Campbell Blvd,KY,42240
Save-A-Lot,Hohenward,24172,#24172 24172,539 E Main,TN,38462
Save-A-Lot,Humboldt,24173,#24173 24173,2419 N Central Ave,TN,38343
Save-A-Lot,Huntington,24174,#24174 24174,380 E Main St,TN,38344
Save-A-Lot,Lewisburg,24176,#24176 24176,1770 Mooresville Rd,TN,37091
Save-A-Lot,Manchester,24179,#24179 24179,1224 Hillsboro Blvd,TN,37355
Save-A-Lot,Martin,24180,#24180 24180,4200 Skyhawk Pkwy.,TN,38237
Save-A-Lot,Mayfield,24181,#24181 24181,1210 St Rte 45 N,KY,42066
Save-A-Lot,Metropolis,24182,#24182 24182,701 Pearl St,IL,62960
Save-A-Lot,Milan,24183,#24183 24183,6042 South 1St,TN,38358
Save-A-Lot,Murray,24184,#24184 24184,12Th St & Story Ave,KY,42071
Save-A-Lot,Paducah,24186,#24186 24186,1428 Broadway St,KY,42001
Save-A-Lot,Paris,24188,#24188 24188,1027 Mineral Wells St,TN,38242
Save-A-Lot,Pulaski,24189,#24189 24189,223 Village Sq,TN,38478
Save-A-Lot,Shelbyville,24190,#24190 24190,126 S Cannon Blvd,TN,37160
Save-A-Lot,Somerville,24191,#24191 24191,Highway 64 East,TN,38068
Save-A-Lot,Tullahoma,24192,#24192 24192,373 West Lincoln St,TN,37388
Save-A-Lot,Waynesboro,24194,#24194 24194,527 Highway 64 W,TN,38485
Save-A-Lot,Henderson,24195,#24195 24195,402 W Main St,TN,38340
Save-A-Lot,Grayling,24199,#24199 24199,2333 S I 75 Business Loop,MI,49738
Save-A-Lot,Parkersburg,24200,#24200 24200,2107 Pike St,WV,26101
Save-A-Lot,Seymour,24203,#24203 24203,1107 W Towne Plz,IN,47274
Save-A-Lot,Dubuque,24204,#24204 24204,2600 Dodge St,IA,52003
Save-A-Lot,Olney,24205,#24205 24205,118 E York Ave,IL,62450
Save-A-Lot,Taylor,24208,#24208 24208,27254 Eureka Rd,MI,48180
Save-A-Lot,Dayton,24213,#24213 24213,4233 N Main St,OH,45405
Save-A-Lot,Traverse City,24215,#24215 24215,701 Us Highway 31 S,MI,49684
Save-A-Lot,Denver,24223,#24223 24223,2630 W 38Th Ave,CO,80211
Save-A-Lot,Alliance,24224,#24224 24224,1110 E State St,OH,44601
Save-A-Lot,Amery,24225,#24225 24225,210 Keller Ave S,WI,54001
Save-A-Lot,Kendallville,24226,#24226 24226,811 E North St,IN,46755
Save-A-Lot,Galesburg,24228,#24228 24228,900 E Main St,IL,61401
Save-A-Lot,Cumberland,24229,#24229 24229,1050 W Industrial Blvd,MD,21502
Save-A-Lot,South Bend,24230,#24230 24230,3601 E Edison Rd,IN,46615
Save-A-Lot,Spencer,24232,#24232 24232,459 W Morgan St,IN,47460
Save-A-Lot,Farmington,24233,#24233 24233,654 Wilton Road,ME,4938
Save-A-Lot,Ithaca,24234,#24234 24234,210 Dilts Road,MI,48847
Save-A-Lot,Baldwin,24235,#24235 24235,M-37 & Us 10,MI,49304
Save-A-Lot,Abilene,24236,#24236 24236,155 Sayles Blvd.,TX,79605
Save-A-Lot,Columbus,24241,#24241 24241,2540 Eastbrook Plaza,IN,47201
Save-A-Lot,Flora,24242,#24242 24242,7 Southern Gardens,IL,62839
Save-A-Lot,Fulton,24249,#24249 24249,356 West First St,NY,13069
Save-A-Lot,Dubois,24251,#24251 24251,1000 S Brady St,PA,15801
Save-A-Lot,Monticello,24253,#24253 24253,313 N Hyatt,AR,71655
Save-A-Lot,Albion,24254,#24254 24254,320 West Ave,NY,14411
Save-A-Lot,Trenton,24256,#24256 24256,1824 East 9th St,MO,64683
Save-A-Lot,Cheboygan,24266,#24266 24266,10203 N STRAITS HWY,MI,49721
Save-A-Lot,Syracuse,24268,#24268 24268,500 BUTTERNUT RD,NY,13208
Save-A-Lot,Jeffersonville,24269,#24269 24269,1704 ALLISON LN,IN,47130
Save-A-Lot,Statesboro,24271,#24271 24271,120 NORTHSIDE DR EAST,GA,30458
Save-A-Lot,Washington,24273,#24273 24273,NORTHGATE PLAZA (460 WASHINGTON RD),PA,15301
Save-A-Lot,Mount Pleasent,24274,#24274 24274,819 CROSS ROADS PLAZA,PA,15666
Save-A-Lot,Delphi,24278,#24278 24278,523 W Monroe St,IN,46923
Save-A-Lot,Flint,24287,#24287 24287,1918 North Dort Hwy,MI,48506
Save-A-Lot,MILLSBORO,24290,#24290 24290,22 FRONT ST (RT 88),PA,15322
Save-A-Lot,Salyersville,24291,#24291 24291,735 East Mountain Pkwy,KY,41465
Save-A-Lot,Greensburg,24292,#24292 24292,404 East Pittsburgh Street,PA,15601
Save-A-Lot,Manistique,24293,#24293 24293,200 Deer St,MI,49854
Save-A-Lot,ROME,24294,#24294 24294,2527 REDMOND DR,GA,30165
Save-A-Lot,ROCHESTER,24297,#24297 24297,569 LYELL AVE,NY,14606
Save-A-Lot,LANCASTER,24298,#24298 24298,10 AURORA,NY,14086
Save-A-Lot,HIGHLAND PARK,24301,#24301 24301,11825 WOODWARD AVE,MI,48203
Save-A-Lot,BERLIN,24303,#24303 24303,10452 OLD OCEAN CITY BLVD,MD,21811
Save-A-Lot,SALAMANCA,24304,#24304 24304,35 CHURCH ST,NY,14779
Save-A-Lot,GRAND RAPIDS,24309,#24309 24309,1625 LEONARD ST NE,MI,49505
Save-A-Lot,MUSKEGON,24310,#24310 24310,2550 E APPLE AVE,MI,49442
Save-A-Lot,NEWAYGO,24312,#24312 24312,257 EAST 82ND ST,MI,49337
Save-A-Lot,FAIRBORN,24314,#24314 24314,21 E DAYTON YELLOW SPRINGS RD,OH,45324
Save-A-Lot,BLAIRSVILLE,24317,#24317 24317,OLD BLUE RIDGE HWY,GA,30512
Save-A-Lot,BLUE RIDGE,24318,#24318 24318,2672 E FIRST ST,GA,30513
Save-A-Lot,Saginaw,24319,#24319 24319,321 N Michigan Ave,MI,48602
Save-A-Lot,Knoxville,24321,#24321 24321,2003 N Broadway,TN,37917
Save-A-Lot,CHILTON,24323,#24323 24323,511 N MADISON ST,WI,53014
Save-A-Lot,TOLEDO,24326,#24326 24326,1703 AIRPORT HWY,OH,43609
Save-A-Lot,Corbin,24328,#24328 24328,14659 N Hwy 25,KY,40701
Save-A-Lot,MADISON HEIGHTS,24330,#24330 24330,27117 JOHN R ROAD,MI,48071
Save-A-Lot,Laurie,24332,#24332 24332,185 S Main,MO,65037
Save-A-Lot,LEECHBURG,24333,#24333 24333,500 HYDE PARK RD,PA,15656
Save-A-Lot,TOLEDO,24335,#24335 24335,657 E MANHATTAN BLVD,OH,43608
Save-A-Lot,EDMONTON,24336,#24336 24336,1708 W STOCKTON,KY,42129
Save-A-Lot,MERIDIAN,24340,#24340 24340,832 HWY 19 NORTH,MS,39307
Save-A-Lot,YPSILANTI,24346,#24346 24346,2830 WASHTENAW AVE,MI,48197
Save-A-Lot,RENSSELAER,24348,#24348 24348,396 S COLLEGE AVE,IN,47978
Save-A-Lot,WILSON,24350,#24350 24350,4000 TOISNOT VILLAGE S/C,NC,27893
Save-A-Lot,PINE BLUFF,24354,#24354 24354,622 ASH ST,AR,71603
Save-A-Lot,LAKEWOOD,24358,#24358 24358,6601 WEST COLFAX AVE,CO,80214
Save-A-Lot,Miami,24362,#24362 24362,8890 North West 7Th Ave,FL,33150
Save-A-Lot,Beloit,24366,#24366 24366,1223 Park Ave,WI,53511
Save-A-Lot,Sheboygan,24369,#24369 24369,1817 N 8Th St,WI,53081
Save-A-Lot,ROCKFORD,24370,#24370 24370,868 W RIVERSIDE BLVD,IL,61103
Save-A-Lot,CRAFTON,24373,#24373 24373,#1 FOSTER AVE,PA,15205
Save-A-Lot,Danville,24376,#24376 24376,1085 East Lexington Rd,KY,40422
Save-A-Lot,Westland,24378,#24378 24378,8244 Merriman Rd,MI,48185
Save-A-Lot,Gouveneur,24380,#24380 24380,210 W Main St,NY,13642
Save-A-Lot,Louisville,24382,#24382 24382,1804 Dixie Hwy,KY,40210
Save-A-Lot,Tell City,24383,#24383 24383,213 East Highway 66,IN,47586
Save-A-Lot,Brewer,24384,#24384 24384,95 S Main St,ME,4412
Save-A-Lot,Louisville,24386,#24386 24386,4431 Cane Run Rd,KY,40216
Save-A-Lot,Thornton,24387,#24387 24387,630 W 84Th Ave,CO,80260
Save-A-Lot,Hagerstown,24392,#24392 24392,1111 Maryland Ave,MD,21741
Save-A-Lot,South Paris,24397,#24397 24397,179 Main St,ME,4281
Save-A-Lot,Warsaw,24399,#24399 24399,461 N Main St,NY,14569
Save-A-Lot,Uhrichsville,24400,#24400 24400,426 Trenton Ave,OH,44683
Save-A-Lot,Venice,24402,#24402 24402,555 Us Highway 41 Byp N,FL,34292
Save-A-Lot,Arcadia,24403,#24403 24403,1325 E Oak St,FL,34266
Save-A-Lot,Bradenton,24404,#24404 24404,5631 14Th St W,FL,34207
Save-A-Lot,Palmetto,24405,#24405 24405,605 10Th St E,FL,34221
Save-A-Lot,Port Charlotte,24406,#24406 24406,1825 Tamiami Trl (Hwy 41),FL,33948
Save-A-Lot,Sarasota,24407,#24407 24407,4404 Bee Ridge Rd,FL,34233
Save-A-Lot,Sarasota,24408,#24408 24408,200 N Lime Ave,FL,34237
Save-A-Lot,Quincy,24421,#24421 24421,837 S Jefferson,IL,62301
Save-A-Lot,Walker,24424,#24424 24424,555 Center Dr,MI,49544
Save-A-Lot,Horn Lake,24425,#24425 24425,1415 Goodman Rd,MS,38637
Save-A-Lot,Roslindale,24433,#24433 24433,670 - 690 American Legion Hwy,MA,2131
Save-A-Lot,Lucasville,24435,#24435 24435,50 Center St,OH,45648
Save-A-Lot,Texarkana,24436,#24436 24436,2806 New Boston Rd,TX,75501
Save-A-Lot,Caldwell,24438,#24438 24438,120 Olive St,OH,43724
Save-A-Lot,Urbana,24439,#24439 24439,220 N Broadway,IL,61801
Save-A-Lot,Mineral Wells,24441,#24441 24441,101 Se 17Th Ave,TX,76067
Save-A-Lot,Holdenville,24443,#24443 24443,900 N Hincklet St,OK,74848
Save-A-Lot,Lackawanna,24444,#24444 24444,1234 Abbott Rd,NY,14218
Save-A-Lot,Bradford,24446,#24446 24446,75 Forman St,PA,16701
Save-A-Lot,Carbondale,24447,#24447 24447,301 E Walnut St,IL,62901
Save-A-Lot,Corry,24449,#24449 24449,324 W Columbus Ave,PA,16407
Save-A-Lot,Davenport,24451,#24451 24451,405 E Locust St,IA,52803
Save-A-Lot,Memphis,24452,#24452 24452,999 Jackson Ave,TN,38107
Save-A-Lot,Rocky Mount,24453,#24453 24453,145 S Wesleyan,NC,27804
Save-A-Lot,Tracy City,24454,#24454 24454,Highway 41 S,TN,37387
Save-A-Lot,Knoxville,24457,#24457 24457,3850 Holston Dr,TN,37914
Save-A-Lot,Beattyville,24458,#24458 24458,2093 Hwy 11 S,KY,41311
Save-A-Lot,Mountain City,24459,#24459 24459,220 Pioneer Village Drive,TN,37683
Save-A-Lot,Brownsville,24461,#24461 24461,81 Bank Drive,TN,38012
Save-A-Lot,Cedar Hill,24462,#24462 24462,7030 Hwy BB,MO,63016
Save-A-Lot,Sumter,24464,#24464 24464,674 W Liberty,SC,29150
Save-A-Lot,Columbia,24466,#24466 24466,6646 Garners Ferry Rd,SC,29210
Save-A-Lot,Pineville,24467,#24467 24467,Us Hwy 119 & Harlan Road,KY,40977
Save-A-Lot,Pikeville,24468,#24468 24468,240 S Mayo Trl,KY,41501
Save-A-Lot,Pikeville,24469,#24469 24469,Weddington Plaza (Hwy 23 N),KY,41501
Save-A-Lot,Pennington Gap,24470,#24470 24470,Highway 58,VA,24277
Save-A-Lot,Middleboro,24471,#24471 24471,415 Dansbury Ave,KY,40965
Save-A-Lot,Inez,24472,#24472 24472,5220 Bypass Route 645,KY,41224
Save-A-Lot,Hindman,24473,#24473 24473,430 Highway 899,KY,41822
Save-A-Lot,Hazard,24474,#24474 24474,Grand Vue Plaza,KY,41701
Save-A-Lot,Hazard,24475,#24475 24475,163 Citizens Lane,KY,41701
Save-A-Lot,Harlan,24476,#24476 24476,93 Industrial Park Rd,KY,40831
Save-A-Lot,Evarts,24477,#24477 24477,Hwy 38,KY,40828
Save-A-Lot,Houghton Lake,24478,#24478 24478,725 S Loxley Rd,MI,48629
Save-A-Lot,Sault Ste. Marie,24479,#24479 24479,3356 I-75 Business Spur,MI,49783
Save-A-Lot,Gladwin,24480,#24480 24480,160 Robertson Drive,MI,48624
Save-A-Lot,Midland,24483,#24483 24483,1826 S. Saginaw Rd,MI,48640
Save-A-Lot,Chatsworth,24485,#24485 24485,500 S 3Rd Ave,GA,30705
Save-A-Lot,St. Louis,24487,#24487 24487,5437 Southwest Ave,MO,63139
Save-A-Lot,Barnesville,24488,#24488 24488,801 E Main St,OH,43713
Save-A-Lot,Louisville,24489,#24489 24489,4148 Taylor Blvd,KY,40215
Save-A-Lot,Hixson,24492,#24492 24492,6925 Middle Valley Rd,TN,37343
Save-A-Lot,Kenmore,24493,#24493 24493,3640 Delaware Ave,NY,14217
Save-A-Lot,Berea,24495,#24495 24495,403 Richmond Rd N,KY,40403
Save-A-Lot,Uniontown,24496,#24496 24496,132 Walnut Hill Rd,PA,15401
Save-A-Lot,Little Chute,24497,#24497 24497,133 W Main St,WI,54140
Save-A-Lot,Jacksonville,24500,#24500 24500,901 W Morton,IL,62650
Save-A-Lot,Perry,24503,#24503 24503,2020 S Jefferson St,FL,32347
Save-A-Lot,Sabraton,24504,#24504 24504,1470 Earl Core Rd,WV,26505
Save-A-Lot,Seaford,24507,#24507 24507,401 W Stein Hwy,DE,19973
Save-A-Lot,Greensboro,24512,#24512 24512,13263 Greensboro Rd,MD,21639
Save-A-Lot,Columbus,24513,#24513 24513,1254 Morse Rd,OH,43229
Save-A-Lot,Memphis,24514,#24514 24514,1170 Bellevue Blvd,TN,38106
Save-A-Lot,Goldsboro,24515,#24515 24515,211 North Berkeley Blvd,NC,27534
Save-A-Lot,Wichita,24516,#24516 24516,2402 E 13Th St,KS,67214
Save-A-Lot,Pikeville,24517,#24517 24517,Grove St & Rockfort Road,TN,37367
Save-A-Lot,Grabill,24519,#24519 24519,13325 State St,IN,46741
Save-A-Lot,Wooster,24520,#24520 24520,1945B Cleveland Rd.,OH,44691
Save-A-Lot,Jackson,24523,#24523 24523,1411 Ellis Avenue,MS,39204
Save-A-Lot,Yazoo City,24524,#24524 24524,100 Jerry Clower Blvd,MS,39194
Save-A-Lot,Pahokee,24526,#24526 24526,600 E Main St,FL,33476
Save-A-Lot,New Martinsville,24527,#24527 24527,223 North State Route 2,WV,26155
Save-A-Lot,Lima,24530,#24530 24530,830 South Elizabeth St,OH,45804
Save-A-Lot,Lima,24531,#24531 24531,1330 Bellefontaine Avenue,OH,45804
Save-A-Lot,Sidney,24532,#24532 24532,1686 Michigan St,OH,45365
Save-A-Lot,Toledo,24533,#24533 24533,3030 Monroe St,OH,43606
Save-A-Lot,Tupper Lake,24535,#24535 24535,97 Demars Blvd,NY,12986
Save-A-Lot,Jasper,24539,#24539 24539,934 E Church St,GA,30143
Save-A-Lot,St. Louis,24540,#24540 24540,3661 Reavis Barracks Rd,MO,63125
Save-A-Lot,Neosho,24541,#24541 24541,1160 South Neosho Blvd,MO,64850
Save-A-Lot,Owenton,24542,#24542 24542,805 Hwy 22 E,KY,40359
Save-A-Lot,Grand Rapids,24543,#24543 24543,4180 Plainfield Ne,MI,49525
Save-A-Lot,Pittsburgh,24545,#24545 24545,450 56Th St,PA,15201
Save-A-Lot,Pittsburgh,24547,#24547 24547,725 Ross Ave,PA,15221
Save-A-Lot,Greenfield,24548,#24548 24548,110 Jefferson St,OH,45123
Save-A-Lot,Lucedale,24550,#24550 24550,4278 Main St,MS,39452
Save-A-Lot,Logan,24553,#24553 24553,35107 Hocking Dr,OH,43138
Save-A-Lot,Titusville,24555,#24555 24555,111 Diamond Street,PA,16354
Save-A-Lot,North Versailles,24558,#24558 24558,355 Lincoln Hwy,PA,15137
Save-A-Lot,Niles,24560,#24560 24560,912 Great East Plaza,OH,44446
Save-A-Lot,Jefferson City,24563,#24563 24563,1228 East Mc Carty,MO,65101
Save-A-Lot,Greeley,24564,#24564 24564,816 25Th St,CO,80631
Save-A-Lot,Port Huron,24565,#24565 24565,657 24Th Street,MI,48060
Save-A-Lot,Roseville,24567,#24567 24567,26150 Gratiot Ave,MI,48066
Save-A-Lot,Southfield,24568,#24568 24568,27155 Greenfield Rd,MI,48076
Save-A-Lot,Live Oak,24569,#24569 24569,1535 Ohio Avenue South,FL,32060
Save-A-Lot,Sharon,24570,#24570 24570,110 South Water St,PA,16146
Save-A-Lot,Warren,24571,#24571 24571,11825 East 8 Mile Rd,MI,48089
Save-A-Lot,Salisbury,24574,#24574 24574,220 Cypress St,MD,21801
Save-A-Lot,Des Moines,24576,#24576 24576,3200 Sw 9Th St,IA,50315
Save-A-Lot,St. Louis,24577,#24577 24577,10030 West Florissant,MO,63136
Save-A-Lot,Sikeston,24578,#24578 24578,601 S Main,MO,63801
Save-A-Lot,Ft. Plain,24581,#24581 24581,19 River St,NY,13339
Save-A-Lot,Traverse City,24583,#24583 24583,1115 S Garfield Ave,MI,49684
Save-A-Lot,Cutlerville,24585,#24585 24585,6718 S Division Ave,MI,49548
Save-A-Lot,Hastings,24586,#24586 24586,1670 West M 43 Hwy,MI,49058
Save-A-Lot,Holland,24588,#24588 24588,661 E 24Th St,MI,49423
Save-A-Lot,Peru,24589,#24589 24589,25 Broadway Plaza,IN,46970
Save-A-Lot,Michigan City,24590,#24590 24590,3830 S Franklin St,IN,46360
Save-A-Lot,Marshall,24594,#24594 24594,106 Redfield Plaza,MI,49068
Save-A-Lot,Detroit,24598,#24598 24598,3681 Gratiot Ave.,MI,48207
Save-A-Lot,Memphis,24600,#24600 24600,5110 Summer Ave,TN,38122
Save-A-Lot,Spartanburg,24601,#24601 24601,550 South Church St,SC,29302
Save-A-Lot,Blytheville,24602,#24602 24602,1905 W Main St,AR,72315
Save-A-Lot,Dover,24603,#24603 24603,1320 Donelson Parkway,TN,37058
Save-A-Lot,Wheatfield,24605,#24605 24605,3929 Williams Rd,NY,14304
Save-A-Lot,Goshen,24606,#24606 24606,1401 College Avenue,IN,46526
Save-A-Lot,Roanoke,24607,#24607 24607,4142 Melrose Ave Nw,VA,24017
Save-A-Lot,Wyoming,24608,#24608 24608,1258 28Th St Sw,MI,49509
Save-A-Lot,Caruthersville,24610,#24610 24610,910 Truman Blvd,MO,63830
Save-A-Lot,Prestonsburg,24611,#24611 24611,525 Village Dr,KY,41653
Save-A-Lot,Lexington,24613,#24613 24613,421 South Broad,TN,38351
Save-A-Lot,Brookhaven,24614,#24614 24614,834 Brookway Boulevard,MS,39601
Save-A-Lot,Fort Wayne,24615,#24615 24615,3310 East Paulding Rd,IN,46816
Save-A-Lot,Lockport,24618,#24618 24618,5770 S Transit Rd,NY,14094
Save-A-Lot,Dover,24620,#24620 24620,650 S Bay Rd,DE,19901
Save-A-Lot,Bellevue,24623,#24623 24623,15 Donnermeyer Drive,KY,41073
Save-A-Lot,Covington,24624,#24624 24624,1717 Madison Avenue,KY,41011
Save-A-Lot,Dry Ridge,24625,#24625 24625,16 Taft Highway,KY,41035
Save-A-Lot,Hamilton,24629,#24629 24629,2320 Dixie Highway,OH,45015
Save-A-Lot,Tupelo,24630,#24630 24630,1218 E Main St,MS,38804
Save-A-Lot,Houston,24631,#24631 24631,945 East Madison St,MS,38851
Save-A-Lot,Augusta,24632,#24632 24632,2726 Peach Orchard Road,GA,30906
Save-A-Lot,Columbus,24636,#24636 24636,1179 East Main St,OH,43205
Save-A-Lot,Parsons,24638,#24638 24638,324 East Main,KS,67357
Save-A-Lot,Jackson,24640,#24640 24640,3525 Oneil Dr,MI,49202
Save-A-Lot,Roanoke Rapids,24641,#24641 24641,1150 Julian R Allsbrook Hwy,NC,27870
Save-A-Lot,Melbourne,24642,#24642 24642,1958 North Wickham Rd,FL,32934
Save-A-Lot,Cocoa,24643,#24643 24643,1208 Dixon Blvd,FL,32922
Save-A-Lot,Crossett,24646,#24646 24646,308 C Pine St.,AR,71635
Save-A-Lot,Coffeyville,24647,#24647 24647,903 E 8Th,KS,67337
Save-A-Lot,Versailles,24648,#24648 24648,480 Lexington Road,KY,40383
Save-A-Lot,Irvine,24650,#24650 24650,1290 Richmond Road,KY,40336
Save-A-Lot,Winchester,24651,#24651 24651,755 Ecton Rd,KY,40391
Save-A-Lot,Richmond,24654,#24654 24654,5042 Atwood Dr,KY,40475
Save-A-Lot,Niles,24656,#24656 24656,410 N 2Nd St,MI,49120
Save-A-Lot,Orrville,24664,#24664 24664,401 Hostetler Rd.,OH,44667
Save-A-Lot,Cape Girardeau,24665,#24665 24665,121 S Sprigg St,MO,63701
Save-A-Lot,Jackson,24666,#24666 24666,1905 E Jackson Blvd,MO,63755
Save-A-Lot,Blanchester,24668,#24668 24668,127 South Broadway,OH,45107
Save-A-Lot,Hamlin,24669,#24669 24669,7293 Lynn Ave,WV,25523
Save-A-Lot,Williamsburg,24671,#24671 24671,12075 South Hwy 25 W,KY,40769
Save-A-Lot,Owensville,24672,#24672 24672,502 Highway 19,MO,65066
Save-A-Lot,London,24674,#24674 24674,251 Lafayette Street,OH,43140
Save-A-Lot,Springfield,24675,#24675 24675,1205 E. Main Street,OH,45503
Save-A-Lot,Springfield,24676,#24676 24676,2125 Park Road,OH,45504
Save-A-Lot,Savannah,24677,#24677 24677,1016 Pickwick Road,TN,38372
Save-A-Lot,Liberty,24678,#24678 24678,675 North Wallace Wilkerson Blvd.,KY,42539
Save-A-Lot,Highland,24679,#24679 24679,722 W Highland Road,MI,48357
Save-A-Lot,Monmouth,24680,#24680 24680,200 North Main St.,IL,61462
Save-A-Lot,McAlester,24682,#24682 24682,1732 E Carl Albert Pkwy,OK,74501
Save-A-Lot,Charlotte,24683,#24683 24683,6321 Albemarle Road,NC,28212
Save-A-Lot,Charlotte,24684,#24684 24684,4537 The Plaza,NC,28215
Save-A-Lot,Collinsville,24685,#24685 24685,2698 Virginia Ave.,VA,24078
Save-A-Lot,Greensboro,24686,#24686 24686,429 W. Meadowview,NC,27407
Save-A-Lot,Greensboro,24687,#24687 24687,3111 Yanceyville Street,NC,27405
Save-A-Lot,High Point,24688,#24688 24688,131 Greensboro Road,NC,27260
Save-A-Lot,Winston-Salem,24690,#24690 24690,"550 N. Martin Luther King, Jr. Drive",NC,27101
Save-A-Lot,St. Mary'S,24691,#24691 24691,391 Brussell'S St.,PA,15857
Save-A-Lot,Gorham,24692,#24692 24692,491 Main Street,NH,3581
Save-A-Lot,Aurora,24694,#24694 24694,15220 E. 6Th Avenue,CO,80011
Save-A-Lot,New Castle,24695,#24695 24695,3332 D Wilmington Road,PA,16105
Save-A-Lot,Walled Lake,24696,#24696 24696,1192 East West Maple Road,MI,48390
Save-A-Lot,Mcconnellsburg,24697,#24697 24697,182 Buchanan Trail,PA,17233
Save-A-Lot,Warwood,24699,#24699 24699,141 Warwood Avenue,WV,26003
Save-A-Lot,Dunkirk,24700,#24700 24700,166 East 4Th Street,NY,14048
Save-A-Lot,Meadville,24701,#24701 24701,18967 Park Avenue Plaza,PA,16335
Save-A-Lot,Beaver Falls,24702,#24702 24702,9th Avenue and 5th St,PA,15010
Save-A-Lot,Chiefland,24703,#24703 24703,110 E Rodgers Blvd,FL,32626
Save-A-Lot,Whitehall,24704,#24704 24704,3001 Colby Road,MI,49461
Save-A-Lot,Lisbon,24705,#24705 24705,201 East Lincoln Way,OH,44432
Save-A-Lot,Benzonia,24706,#24706 24706,1579 Michigan Ave.,MI,49616
Save-A-Lot,Chanute,24708,#24708 24708,1406 West Main,KS,66720
Save-A-Lot,Sanford,24709,#24709 24709,1247 Main Street,ME,4073
Save-A-Lot,Piedmont,24710,#24710 24710,980 Anderson St.,SC,29673
Save-A-Lot,Lima,24711,#24711 24711,1420 North Cole Street,OH,45801
Save-A-Lot,Philadelphia,24712,#24712 24712,5601 Vine Street,PA,19139
Save-A-Lot,Dexter,24713,#24713 24713,912 West Business US Hwy 60,MO,63841
Save-A-Lot,Harrison,24715,#24715 24715,156 N First,MI,48625
Save-A-Lot,ALLENDALE,24716,#24716 24716,4965 LAKE MICHIGAN DR,MI,49401
Save-A-Lot,Youngstown,24717,#24717 24717,223 Boardman-Canfield Rd,OH,44512
Save-A-Lot,Utica,24718,#24718 24718,1651 Oneida Street,NY,13501
Save-A-Lot,Orwell,24721,#24721 24721,23 South Maple St.,OH,44076
Save-A-Lot,Kalkaska,24723,#24723 24723,6133 US 131 NE,MI,49646
Save-A-Lot,Mt. Morris,24724,#24724 24724,15 E. State Street,NY,14510
Save-A-Lot,Philadelphia,24725,#24725 24725,5740 Baltimore Ave,PA,19143
Save-A-Lot,Toledo,24732,#24732 24732,5229 Dorr Street,OH,43615
Save-A-Lot,Moultrie,24733,#24733 24733,205 6the Street SE,GA,31768
Save-A-Lot,West Union,24734,#24734 24734,134 Foothills Dr,SC,29696
Save-A-Lot,Whitley City,24735,#24735 24735,65 Crit King Road,KY,42653
Save-A-Lot,Somerset,24736,#24736 24736,5194 South Highway 27,KY,42501
Save-A-Lot,Somerset,24737,#24737 24737,444 N. Highway 2227,KY,42503
Save-A-Lot,Stanford,24738,#24738 24738,100 Lacey Street,KY,40484
Save-A-Lot,Hyden,24739,#24739 24739,92 Highway 80,KY,41749
Save-A-Lot,Jackson,24740,#24740 24740,1471 Kentucky Highway 15 North,KY,41339
Save-A-Lot,West Liberty,24741,#24741 24741,191 & U.S. 460,KY,41472
Save-A-Lot,Auburn,24742,#24742 24742,700 East Jackson Street,IL,62615
Save-A-Lot,Ogdensburg,24743,#24743 24743,701 Canton St,NY,13669
Save-A-Lot,Lexington,24744,#24744 24744,809 South Highway 13,MO,64067
Save-A-Lot,Connersville,24745,#24745 24745,3100 Virginia Ave,IN,47331
Save-A-Lot,Kane,24746,#24746 24746,608 N. Fraley St.,PA,16735
Save-A-Lot,Danville,24747,#24747 24747,703 Piney Forest Road,VA,24540
Save-A-Lot,Franklin,24748,#24748 24748,110 East Sixth Street,OH,45005
Save-A-Lot,New Albany,24749,#24749 24749,300 W. Bankhead St.,MS,38652
Save-A-Lot,Erie,24751,#24751 24751,2026 Broad Street,PA,16503
Save-A-Lot,Laurens,24752,#24752 24752,917 East Main Street,SC,29630
Save-A-Lot,Lexington,24753,#24753 24753,398 Southland Drive,KY,40503
Save-A-Lot,Chickasha,24754,#24754 24754,1850 4th Avenue,OK,73018
Save-A-Lot,Greenville,24755,#24755 24755,1400 Woodruff Rd.,SC,29607
Save-A-Lot,Greenville,24756,#24756 24756,1 E Stone Avenue,SC,29609
Save-A-Lot,Greenville,24757,#24757 24757,3050 White Horse Road,SC,29611
Save-A-Lot,Greenville,24758,#24758 24758,6700 White Horse Road,SC,29611
Save-A-Lot,Greenville,24759,#24759 24759,2422 Wade Hampton Blvd,SC,29615
Save-A-Lot,Easley,24760,#24760 24760,5591 Calhoun Memorial Hwy,SC,29640
Save-A-Lot,Greer,24761,#24761 24761,1100 W. Wade Hampton Blvd.,SC,29650
Save-A-Lot,Simponsville,24762,#24762 24762,930 NE Main Street,SC,29681
Save-A-Lot,Simpsonville,24763,#24763 24763,202 Scuffleton Road,SC,29681
Save-A-Lot,Travelers Rest,24764,#24764 24764,6414 State Park Road,SC,29690
Save-A-Lot,Pleasant Hill,24765,#24765 24765,309 North 7 Highway,MO,64080
Save-A-Lot,Duquesne,24766,#24766 24766,9 Duquesne Plaza,PA,15110
Save-A-Lot,Alden,24768,#24768 24768,13107 Broadway,NY,14004
Save-A-Lot,Frankfort,24769,#24769 24769,833 Louisville Road,KY,40601
Save-A-Lot,Port Jervis,24770,#24770 24770,107 Jersey Ave,NY,12771
Save-A-Lot,Darby,24775,#24775 24775,150 South MacDade Blvd,PA,19023
Save-A-Lot,Silver Creek,24778,#24778 24778,1364 Route 20,NY,14136
Save-A-Lot,St. Clair,24779,#24779 24779,1100 North Commercial,MO,63077
Save-A-Lot,Kenosha,24780,#24780 24780,4216 52nd Street,WI,53144
Save-A-Lot,Ft. Myers,24781,#24781 24781,3257 Cleveland,FL,33901
Save-A-Lot,Ft. Myers,24782,#24782 24782,4901 Palm Beach Blvd.,FL,33905
Save-A-Lot,Marianna,24784,#24784 24784,4743 Hwy 90 East,FL,32446
Save-A-Lot,Archer,24785,#24785 24785,12859 Southwest State Road 45,FL,32618
Save-A-Lot,Linton,24786,#24786 24786,209 S. Main Street,IN,47441
Save-A-Lot,Fairlea,24787,#24787 24787,51 Seneca Trail,WV,24901
Save-A-Lot,Lehigh Acres,24789,#24789 24789,1215 Homestead Road,FL,33936
Save-A-Lot,Parsons,24790,#24790 24790,1182 East Main Street,TN,38363
Save-A-Lot,Louisville,24792,#24792 24792,1311 S. Shelby Street,KY,40217
Save-A-Lot,Lavergne,24793,#24793 24793,5154 Murfreesboro Road,TN,37086
Save-A-Lot,Lock Haven,24794,#24794 24794,120 East Walnut Street,PA,17745
Save-A-Lot,East Canton,24795,#24795 24795,406 W. Noble St,OH,44730
Save-A-Lot,Cross City,24796,#24796 24796,16702 SE Highway 19,FL,32628
Save-A-Lot,Hubbard,24798,#24798 24798,880 West Liberty Street,OH,44425
Save-A-Lot,Cincinnati,24799,#24799 24799,1864 Seymour Avenue,OH,45237
Save-A-Lot,Pascagoula,24801,#24801 24801,3501 Denny Avenue,MS,39581
Save-A-Lot,Bidwell,24804,#24804 24804,9039 State Route 160,OH,45614
Save-A-Lot,Burlington,24805,#24805 24805,2139 N Church St.,NC,27217
Save-A-Lot,Statesville,24807,#24807 24807,805 N. Center Street,NC,28677
Save-A-Lot,East Moline,24808,#24808 24808,667 Avenues of the Cities,IL,61244
Save-A-Lot,Cincinnati,24809,#24809 24809,6700 Hamilton Ave.,OH,45224
Save-A-Lot,Grove City,24811,#24811 24811,111 Mill Street,PA,16127
Save-A-Lot,ENID,24812,#24812 24812,917 E BROADWAY,OK,73701
Save-A-Lot,Campton,24813,#24813 24813,719 KY 15 S,KY,41301
Save-A-Lot,Harrodsburg,24814,#24814 24814,900 S. College Street,KY,40330
Save-A-Lot,Topeka,24815,#24815 24815,126 North Main Street,IN,46571
Save-A-Lot,Stevens Point,24816,#24816 24816,3264 Church Street,WI,54481
Save-A-Lot,Pickens,24817,#24817 24817,529 Hampton Ave.,SC,29671
Save-A-Lot,Hazleton,24818,#24818 24818,530 West Broad Street,PA,18201
Save-A-Lot,Ripon,24819,#24819 24819,111 E. Fond Du Lac St.,WI,54971
Save-A-Lot,Struthers,24820,#24820 24820,982 5th Street,OH,44471
Save-A-Lot,Youngstown,24821,#24821 24821,653 Gypsy Lane,OH,44505
Save-A-Lot,Mason,24822,#24822 24822,132 South Cedar,MI,48854
Save-A-Lot,Seat Pleasant,24824,#24824 24824,5933 Martin Luther King Hwy,MD,20743
Save-A-Lot,Bladensburg,24825,#24825 24825,5416 Annapolis Rd.,MD,20710
Save-A-Lot,Aurora,24826,#24826 24826,698 Peoria Street,CO,80011
Save-A-Lot,Colorado Springs,24827,#24827 24827,405 South Circle,CO,80910
Save-A-Lot,Millersburg,24829,#24829 24829,1667 South Washington Street,OH,44654
Save-A-Lot,McDonald,24830,#24830 24830,413 Ohio Ave,OH,44437
Save-A-Lot,Gulfport,24831,#24831 24831,1225 Pass Road,MS,39501
Save-A-Lot,Jackson,24833,#24833 24833,2441 Bailey Ave,MS,39213
Save-A-Lot,Wichita,24834,#24834 24834,2404 S George Washington Blvd,KS,67210
Save-A-Lot,Scottsburg,24835,#24835 24835,130 W Mcclain Ave,IN,47170
Save-A-Lot,Potosi,24838,#24838 24838,840 East High St.,MO,63664
Save-A-Lot,Jamestown,24839,#24839 24839,194 Fluvanna Ave,NY,14701
Save-A-Lot,Fond du Lac,24840,#24840 24840,794 S Main St,WI,53935
Save-A-Lot,Clearfield,24841,#24841 24841,200 Plaza Drive,PA,16830
Save-A-Lot,Fayetteville,24842,#24842 24842,5701 Yadkin Road,NC,28303
Save-A-Lot,Hickory,24843,#24843 24843,573 Hwy 70 SW,NC,28602
Save-A-Lot,Marion,24844,#24844 24844,1113 East Godbold St,SC,29571
Save-A-Lot,West Seneca,24845,#24845 24845,2305 Union Rd,NY,14224
Save-A-Lot,Detroit,24846,#24846 24846,4703 Conner Ave.,MI,48215
Save-A-Lot,Chicago,24847,#24847 24847,3939 W Ogden,IL,60623
Save-A-Lot,Beardstown,24848,#24848 24848,412 East 4th Street,IL,62618
Save-A-Lot,Springfield,24849,#24849 24849,2520 Clearlake Avenue,IL,62702
Save-A-Lot,Sedalia,24850,#24850 24850,3040-200A West Broadway,MO,65301
Save-A-Lot,Union,24851,#24851 24851,410 E North Duncan Bypass,SC,29379
Save-A-Lot,Sanford,24852,#24852 24852,1946 S Horner St,NC,27330
Save-A-Lot,Batavia,24853,#24853 24853,45 Ellicott Street,NY,14020
Save-A-Lot,Upper Darby,24854,#24854 24854,1500 Garrett Road,PA,19082
Save-A-Lot,Keshena,24855,#24855 24855,W2818 Warrington Road,WI,54135
Save-A-Lot,Columbus,24856,#24856 24856,2200 Mock Road,OH,43219
Save-A-Lot,Willard,24857,#24857 24857,20 Woodland Avenue,OH,44890
Save-A-Lot,Philadelphia,24858,#24858 24858,5834 Pulaski St,PA,19144
Save-A-Lot,Middletown,24859,#24859 24859,1741 South University,OH,45044
Save-A-Lot,Middletown,24860,#24860 24860,4525 Roosevelt Blvd,OH,45044
Save-A-Lot,Tyrone,24861,#24861 24861,111 West 13th St,PA,16686
Save-A-Lot,Chatanooga,24862,#24862 24862,6901 Lee Highway,TN,37421
Save-A-Lot,Olive Hill,24863,#24863 24863,131 Jessica Lane,KY,41164
Save-A-Lot,Havre De Grace,24864,#24864 24864,1000 Pulaski Highway,MD,21078
Save-A-Lot,Longmont,24865,#24865 24865,1750 N Main St,CO,80501
Save-A-Lot,Commerce City,24866,#24866 24866,7290 Monaco Street,CO,80022
Save-A-Lot,Frostburg,24867,#24867 24867,10601 New Georges Creek Road,MD,21532
Save-A-Lot,Franklin,24868,#24868 24868,317 Grant Street,PA,16323
Save-A-Lot,Kouts,24869,#24869 24869,175 N. Main Street,IN,46347
Save-A-Lot,Wheatfield,24870,#24870 24870,3944 W. State Road 10,IN,46392
Save-A-Lot,Racine,24871,#24871 24871,1500 State Street,WI,53404
Save-A-Lot,Woodbury,24872,#24872 24872,950 South McCrary,TN,37190
Save-A-Lot,Erie,24873,#24873 24873,934 Erie West Plaza,PA,16505
Save-A-Lot,Holley,24874,#24874 24874,1 Geddes St.,NY,14470
Save-A-Lot,North Little Rock,24875,#24875 24875,2630 Pike Ave.,AR,72114
Save-A-Lot,Millsboro,24876,#24876 24876,28632 Dupont Blvd.,DE,19966
Save-A-Lot,Denver,24877,#24877 24877,1951 S. Federal,CO,80219
Save-A-Lot,Kingwood,24878,#24878 24878,402 E. Main Street,WV,26537
Save-A-Lot,Shelbyville,24879,#24879 24879,22 Village Plaza,KY,40065
Save-A-Lot,Hamburg,24880,#24880 24880,6000 South Park Ave,NY,14075
Save-A-Lot,MacClenny,24881,#24881 24881,816 6th Street,FL,32063
Save-A-Lot,Ludington,24882,#24882 24882,5560 W. US 10,MI,49431
Save-A-Lot,Cincinnati,24883,#24883 24883,2435 Harrison Ave.,OH,45211
Save-A-Lot,Waterville,24884,#24884 24884,20 West Concourse,ME,4901
Save-A-Lot,Saltillo,24885,#24885 24885,119 City Market,MS,38866
Save-A-Lot,Washington,24886,#24886 24886,514 Rhode Island Ave,DC,20002
Save-A-Lot,Marion,24887,#24887 24887,1306 Mt. Vernon Avenue,OH,43302
Save-A-Lot,Carlisle,24889,#24889 24889,210 East Market,KY,40311
Save-A-Lot,Bath,24890,#24890 24890,400 Morris Street,NY,14810
Save-A-Lot,Cleveland,24891,#24891 24891,403 South Street,MS,38732
Save-A-Lot,Clyde,24893,#24893 24893,112 Columbia Street,NY,14433
Save-A-Lot,Tahlequah,24894,#24894 24894,614 East Downing,OK,74464
Save-A-Lot,Indianola,24896,#24896 24896,612 North Sunflower Ave.,MS,38751
Save-A-Lot,Lima,24898,#24898 24898,7277 West Main Street,NY,14485
Save-A-Lot,St. Albans,24899,#24899 24899,822 6th Ave.,WV,25177
Save-A-Lot,Pana,24901,#24901 24901,1 West Fourth Street,IL,62557
Save-A-Lot,Paris,24902,#24902 24902,2236 Martin Lither King Jr. Blvd.,KY,40361
Save-A-Lot,St. Cloud,24903,#24903 24903,3316 West Division Street,MN,56301
Save-A-Lot,Bayou Vista,24904,#24904 24904,849 Highway 90 E,LA,70380
Save-A-Lot,Millville,24906,#24906 24906,700 North Second Street,NJ,8332
Save-A-Lot,Whitesville,24907,#24907 24907,158 Lewis St.,WV,25209
Save-A-Lot,Buffalo,24909,#24909 24909,142 Grant Street,NY,14213
Save-A-Lot,Coalinga,24910,#24910 24910,203 W Polk St.,CA,93210
Save-A-Lot,Spindale,24912,#24912 24912,1639 US Highway 74A Bypass,NC,28160
Save-A-Lot,Johnson City,24913,#24913 24913,200 Main Street,NY,13790
Save-A-Lot,Sissonville,24914,#24914 24914,7703 Sissonville Dr.,WV,25320
Save-A-Lot,Fostoria,24915,#24915 24915,895 N. County Line St.,OH,44830
Save-A-Lot,Kenton,24916,#24916 24916,307 East Decatur Street,OH,43326
Save-A-Lot,Wabash,24917,#24917 24917,950 N. Cass Street,IN,46992
Save-A-Lot,Clewiston,24918,#24918 24918,900 West Sugarland Highway,FL,33440
Save-A-Lot,West Union,24919,#24919 24919,11132 State Rt. 41,OH,45693
Save-A-Lot,Hazel Crest,24920,#24920 24920,17531 Kedzie Avenue,IL,60429
Save-A-Lot,Roselawn,24921,#24921 24921,5916 East State Road 10,IN,46372
Save-A-Lot,Rushville,24922,#24922 24922,1542 North Main Street,IN,46173
Save-A-Lot,Caro,24924,#24924 24924,1253 East Caro Road,MI,48723
Save-A-Lot,Enid,24925,#24925 24925,1716 S Van Buren,OK,73703
Save-A-Lot,Chambersburg,24926,#24926 24926,1025 Wayne Ave.,PA,17201
Save-A-Lot,Pearl,24927,#24927 24927,3111 Hwy 80 East Suite D,MS,39208
Save-A-Lot,Garrettsville,24928,#24928 24928,8005 State Street,OH,44231
Save-A-Lot,Clarksburg,24930,#24930 24930,1720 Adam Avenue,WV,26301
Save-A-Lot,Chicago,24931,#24931 24931,10700 S. Halsted St.,IL,60628
Save-A-Lot,La Mesa,24932,#24932 24932,8745 Broadway,CA,91941
Save-A-Lot,Prospect Heights,24933,#24933 24933,610 N. Milwaukee Ave.,IL,60070
Save-A-Lot,Brawley,24934,#24934 24934,395 W. E Street,CA,92227
Save-A-Lot,Chicago,24935,#24935 24935,3418 S Halsted,IL,60608
Save-A-Lot,Springfield,24936,#24936 24936,1117 East Commercial St.,MO,65803
Save-A-Lot,Newark,24937,#24937 24937,349 East Main Street,OH,43055
Save-A-Lot,Clinton,24938,#24938 24938,19100 E. 15 Mile Road,MI,48035
Save-A-Lot,San Diego,24939,#24939 24939,1860 Coronado Ave.,CA,92154
Save-A-Lot,Peekskill,24940,#24940 24940,1099 N Division St,NY,10566
Save-A-Lot,Haltom City,24941,#24941 24941,3500 Denton Highway,TX,76117
Save-A-Lot,Fort Worth,24942,#24942 24942,3101 East Seminary,TX,76119
Save-A-Lot,Fort Worth,24943,#24943 24943,4621 East Lancaster,TX,76103
Save-A-Lot,Fort Worth,24944,#24944 24944,5519 James Ave,TX,76115
Save-A-Lot,Whiting,24945,#24945 24945,108 Lacey Road,NJ,8759
Save-A-Lot,Dundee,24946,#24946 24946,11 Water Street,NY,14837
Save-A-Lot,Scott Depot,24947,#24947 24947,4335 Tears Valley Rd.,WV,25560
Save-A-Lot,Hiawassee,24948,#24948 24948,236 North Main Street,GA,30546
Save-A-Lot,Westminster,24949,#24949 24949,3045 W 7th Ave.,CO,80030
Save-A-Lot,Palm Bay,24953,#24953 24953,4700 Babcock Street,FL,32905
Save-A-Lot,Cuba,24954,#24954 24954,511 West Washington,MO,65453
Save-A-Lot,East Jordan,24955,#24955 24955,530 S. Maple St.,MI,49727
Save-A-Lot,White Hall,24956,#24956 24956,9793 Mall Loop,WV,26554
Save-A-Lot,Ashland,24958,#24958 24958,161 Center Street,OH,44805
Save-A-Lot,Lebanon,24959,#24959 24959,726 East Main Street,OH,45036
Save-A-Lot,Hornell,24960,#24960 24960,16 Park Dr.,NY,14843
Save-A-Lot,Garfield Heights,24965,#24965 24965,4790 Turney Road,OH,44125
Save-A-Lot,Sioux City,24967,#24967 24967,1730 Pierce Street,IA,51105
Save-A-Lot,Durant,24968,#24968 24968,917 West Main St.,OK,74701
Save-A-Lot,Bronson,24971,#24971 24971,661 East Hathaway,FL,32621
Save-A-Lot,Columbia,24974,#24974 24974,2006 East Broadway,MO,65201
Save-A-Lot,Kansas City,24975,#24975 24975,6859 Longview Rd,MO,64134
Save-A-Lot,Hot Springs,24976,#24976 24976,1540 Malvern Ave,AR,71901
Save-A-Lot,Johnstown,24977,#24977 24977,346 Sheridan Street,PA,15906
Save-A-Lot,Booneville,24980,#24980 24980,212 Wal-Mart Circle,MS,38829
Save-A-Lot,Denver,24983,#24983 24983,4860 Pecos St,CO,80221
Save-A-Lot,Grenada,24984,#24984 24984,1234 Sunset Drive,MS,38901
Save-A-Lot,Louisville,24985,#24985 24985,5624 Bardstown Road,KY,40291
Save-A-Lot,San Diego,24986,#24986 24986,1731 Euclid Ave,CA,92105
Save-A-Lot,Ontario,24987,#24987 24987,1250 SR 104,NY,14519
Save-A-Lot,El Cajon,24989,#24989 24989,678 Jamacha Rd,CA,92019
Save-A-Lot,Corunna,24990,#24990 24990,115 West McArthur,MI,48817
Save-A-Lot,Columbiana,24991,#24991 24991,787 Fairfield Ave,OH,44408
Save-A-Lot,Starke,24993,#24993 24993,1371 South Walnut Street,FL,32091
Save-A-Lot,Allegan,24995,#24995 24995,1236 Lincoln Rd,MI,49010
Save-A-Lot,Dowagiac,24996,#24996 24996,609 N Front St,MI,49047
Save-A-Lot,Paw Paw,24997,#24997 24997,307 E Michigan Ave,MI,49070
Save-A-Lot,Peckville,24998,#24998 24998,1500 Main Street,PA,18452
Save-A-Lot,Wilkes Barre,24999,#24999 24999,400 South Main Street,PA,18701
Save-A-Lot,Rapid City,25001,#25001 25001,911 East Patrick Street,SD,57701
Save-A-Lot,Greenville,25003,#25003 25003,4103 Wesley Street,TX,75401
Save-A-Lot,Le Roy,25005,#25005 25005,15 West Main St.,NY,14482
Save-A-Lot,Carrollton,25006,#25006 25006,1905 Hwy 227,KY,41008
Save-A-Lot,Altoona,27979,#27979 27979,3415 Pleasant Valley Blvd,PA,16602
Save-A-Lot,Washington,45012,#45012 45012,307 E National Hwy,IN,47501
