keywords,city,Aggdata Store Number,store_number,address,state,zip_code
Sears,SALEM,1003,1003,77 ROCKINGHAM PARK BLVD,NH,03079-2964
Sears,GARDEN CITY,1004,1004,1111 FRANKLIN AVE,NY,11530-1617
Sears,LAKE WALES,1005,1005,301 EAGLE RIDGE DR,FL,33859-4751
Sears,OCALA,1006,1006,3100 SW COLLEGE RD STE 300,FL,34474-8449
Sears,BRANDON,1007,1007,686 BRANDON TOWN CENTER MALL,FL,33511-4726
Sears,LOS ANGELES,1008,1008,2650 E OLYMPIC BLVD,CA,90023-2608
Sears,SEATTLE,1009,1009,76 S LANDER ST,WA,98134-1832
Sears,CHICAGO,1010,1010,1900 W LAWRENCE AVE,IL,60640-4003
Sears,GRANDVILLE,1011,1011,3622 RIVERTOWN PKWY SW,MI,49418-3007
Sears,DES MOINES,1012,1012,4000 MERLE HAY RD,IA,50310-1333
Sears,GLEN BURNIE,1013,1013,7900 RITCHIE HWY,MD,21061
Sears,ENFIELD,1014,1014,90 ELM ST,CT,06082-3770
Sears,VERO BEACH,1015,1015,6200 20TH ST STE 300,FL,32966-1079
Sears,LITTLE ROCK,1016,1016,600 S UNIVERSITY AVE,AR,72205-5206
Sears,HOUSTON,1017,1017,4201 MAIN ST,TX,77002-9620
Sears,LOS ANGELES,1018,1018,3755 SANTA ROSALIA DR,CA,90008-3603
Sears,PLEASANTON,1019,1019,1700 STONERIDGE MALL RD,CA,94588
Sears,OMAHA,1022,1022,3420 OAK VIEW DR,NE,68144-5631
Sears,DULLES,1023,1023,21000 DULLES TOWN CIRCLE,VA,20166-2416
Sears,FALLS CHURCH,1024,1024,6211 LEESBURG PIKE,VA,22044-2107
Sears,DANVILLE,1025,1025,325 PIEDMONT DR,VA,24540-1028
Sears,EL PASO,1027,1027,750 SUNLAND PARK DR,TX,79912-6709
Sears,SPOKANE,1029,1029,4700 N DIVISION ST,WA,99207-1402
Sears,DENVER,1031,1031,2375 E 1ST AVE,CO,80206-5653
Sears,BROOKLYN CENTER,1032,1032,1297 SHINGLE CREEK CROSSING,MN,55430-2893
Sears,NORTH ATTLEBORO,1033,1033,1009 S WASHINGTON ST,MA,02760-3619
Sears,PITTSBURGH,1034,1034,1008 ROSS PARK MALL DR,PA,15237-3803
Sears,AUGUSTA,1035,1035,3450B WRIGHTSBORO RD,GA,30909-2511
Sears,SPOKANE,1038,1038,14720 E INDIANA AVE,WA,99216-1814
Sears,OAKLAND,1039,1039,1955 BROADWAY,CA,94612-2250
Sears,EAU CLAIRE,1040,1040,4720 GOLF RD,WI,54701-8022
Sears,OMAHA,1041,1041,7424 DODGE ST,NE,68114-3616
Sears,JOPLIN,1042,1042,101 N RANGELINE RD,MO,64801-4118
Sears,MERIDEN,1043,1043,470 LEWIS AVE,CT,06451-2103
Sears,JERSEY CITY,1044,1044,50 MALL DR WEST,NJ,07310-1601
Sears,DURHAM,1045,1045,1620 GUESS RD,NC,27701-1130
Sears,PASADENA,1048,1048,3801 E FOOTHILL BLVD,CA,91107-2225
Sears,PORTLAND,1049,1049,1260 LLOYD CTR,OR,97232-1301
Sears,STRONGSVILLE,1051,1051,17271 SOUTHPARK CTR,OH,44136-9311
Sears,SAINT PAUL,1052,1052,425 RICE ST,MN,55103-2123
Sears,SAUGUS,1053,1053,1325 BROADWAY,MA,01906-4178
Sears,CORAL SPRINGS,1055,1055,9565 W ATLANTIC BLVD,FL,33071-6943
Sears,MOBILE,1056,1056,3201 BELL AIR MALL,AL,36606-3202
Sears,DALLAS,1057,1057,13131 PRESTON RD,TX,75240-5203
Sears,SHORELINE,1059,1059,15711 AURORA AVE N,WA,98133-5921
Sears,CHUBBUCK,1060,1060,4145 YELLOWSTONE HWY,ID,83202-2421
Sears,BROOKFIELD,1062,1062,115 S MOORLAND RD,WI,53005-4230
Sears,WEST HARTFORD,1063,1063,1445 NEW BRITAIN AVE,CT,06110-1659
Sears,LANGHORNE,1064,1064,2300 E LINCOLN HWY,PA,19047-1824
Sears,GLEN ALLEN,1065,1065,10101 BROOK RD,VA,23059-4225
Sears,JACKSONVILLE,1066,1066,10302 SOUTHSIDE BLVD,FL,32256-0706
Sears,HOUSTON,1067,1067,303 MEMORIAL CITY MALL,TX,77024
Sears,PALMDALE,1068,1068,1345 W AVENUE P,CA,93551-3182
Sears,REDMOND,1069,1069,2200 148TH AVE NE,WA,98052
Sears,MANKATO,1070,1070,1850 ADAMS ST STE 5,MN,56001-4848
Sears,LAKEWOOD,1071,1071,10785 W COLFAX AVE,CO,80215-3807
Sears,WATERLOO,1072,1072,2060 CROSSROADS BLVD,IA,50702-4423
Sears,EXTON,1073,1073,222 EXTON SQUARE MALL,PA,19341-2442
Sears,WALDORF,1074,1074,11170 MALL CIRCLE,MD,20603
Sears,DAYTONA BEACH,1075,1075,1700 W INTL SPEEDWAY BLVD,FL,32114
Sears,LEWISVILLE,1076,1076,2401 S STEMMONS FWY STE 5000,TX,75067-8797
Sears,SHREVEPORT,1077,1077,3601 SOUTHERN AVE,LA,71104-4123
Sears,MESA,1078,1078,6515 E SOUTHERN AVE,AZ,85206-3711
Sears,PORTLAND,1079,1079,9800 SW WASHINGTON SQUARE RD,OR,97223-4455
Sears,FRISCO,1080,1080,2605 PRESTON RD,TX,75034-9434
Sears,HEATH,1081,1081,771 S 30TH ST,OH,43056-4204
Sears,GREENDALE,1082,1082,5200 S 76TH ST,WI,53129-1116
Sears,WARWICK,1083,1083,650 BALD HILL RD,RI,02886-1863
Sears,PHILADELPHIA,1084,1084,7300 BUSTLETON AVE,PA,19152-4300
Sears,CAGUAS,1085,1085,INTSCTN ST RD PR 1 & PR 156,PR,725
Sears,BATON ROUGE,1086,1086,9001 CORTANA PL,LA,70815-8704
Sears,HOUSTON,1087,1087,1000 HWY 6 STE 1200,TX,77082
Sears,GLENDALE,1088,1088,236 N CENTRAL AVE,CA,91203-2532
Sears,ANCHORAGE,1089,1089,700 E NORTHERN LIGHTS BLVD,AK,99503-4133
Sears,CHICAGO,1090,1090,1601 N HARLEM AVE,IL,60707-4310
Sears,OKLAHOMA CITY,1091,1091,4400 S WESTERN AVE,OK,73109-3414
Sears,WESTLAND,1092,1092,35000 WARREN RD,MI,48185-6223
Sears,SPRINGFIELD,1093,1093,1585 BOSTON RD,MA,01129-1748
Sears,HACKENSACK,1094,1094,436 MAIN ST,NJ,07601-5911
Sears,DOUGLASVILLE,1095,1095,6580 DOUGLAS BLVD,GA,30135-1507
Sears,PENSACOLA,1096,1096,7171 N DAVIS HWY,FL,32504-6254
Sears,SAN ANTONIO,1097,1097,2310 SW MILITARY DR,TX,78224-1407
Sears,CLOVIS,1098,1098,1140 SHAW AVE,CA,93612-3944
Sears,FEDERAL WAY,1099,1099,1701 S COMMONS,WA,98003-6081
Sears,FLINT,1100,1100,3191 S LINDEN RD,MI,48507-3003
Sears,OVERLAND PARK,1101,1101,9701 METCALF AVE,KS,66212-2219
Sears,ALBANY,1103,1103,1425 CENTRAL AVE,NY,12205-2702
Sears,MARLBOROUGH,1104,1104,521 LYNCH BLVD,MA,01752-4725
Sears,TEMECULA,1108,1108,40710 WINCHESTER RD,CA,92591-5524
Sears,LYNNWOOD,1109,1109,18600 ALDERWOOD MALL PKWY,WA,98037-8003
Sears,PORTAGE,1110,1110,6780 S WESTNEDGE AVE,MI,49024-3589
Sears,COLORADO SPRINGS,1111,1111,2050 SOUTHGATE RD,CO,80906
Sears,MINNETONKA,1112,1112,12431 WAYZATA BLVD,MN,55305-1925
Sears,BROOKLYN,1114,1114,2307 BEVERLEY RD,NY,11226-5407
Sears,CHATTANOOGA,1115,1115,2100 HAMILTON PLACE BLVD,TN,37421-6006
Sears,MONROE,1116,1116,4800 MILLHAVEN RD,LA,71203-9054
Sears,SALT LAKE CITY,1118,1118,754 S STATE ST,UT,84111-3822
Sears,HAPPY VALLEY,1119,1119,11800 SE 82ND AVE,OR,97086
Sears,DUBLIN,1120,1120,5053 TUTTLE CROSSING BLVD,OH,43016
Sears,INDEPENDENCE,1121,1121,18777 E 39TH ST S,MO,64057-1708
Sears,MAPLEWOOD,1122,1122,3001 WHITE BEAR AVE N,MN,55109-1215
Sears,DEDHAM,1123,1123,290 PROVIDENCE HWY,MA,02026-1876
Sears,BAY SHORE,1124,1124,1701 SUNRISE HWY,NY,11706-6091
Sears,MIAMI,1125,1125,3655 SW 22ND ST,FL,33145-3014
Sears,MONTGOMERY,1126,1126,1500 EASTDALE MALL,AL,36117-2120
Sears,HOUSTON,1127,1127,4000 N SHEPHERD DR,TX,77018-5511
Sears,TACOMA,1129,1129,4502 S STEELE ST STE 100,WA,98409-7263
Sears,JANESVILLE,1130,1130,2500 MILTON AVE,WI,53545-0452
Sears,CENTENNIAL,1131,1131,7001 S UNIVERSITY BLVD,CO,80122-1599
Sears,BURNSVILLE,1132,1132,14250 BUCK HILL RD,MN,55306-4925
Sears,LEOMINSTER,1133,1133,100 COMMERCIAL RD,MA,01453-3333
Sears,MILFORD,1134,1134,1201 BOSTON POST RD SP 2095,CT,6460
Sears,BIRMINGHAM,1136,1136,2500 RIVERCHASE GALLERIA,AL,35244-2312
Sears,AUSTIN,1137,1137,1000 E 41ST,TX,78751-4859
Sears,TUKWILA,1139,1139,301 SOUTHCENTER MALL,WA,98188-2811
Sears,GRAND RAPIDS,1140,1140,3099 28TH ST SE,MI,49512-1667
Sears,AURORA,1141,1141,14200 E ALAMEDA AVE,CO,80012-2511
Sears,EDEN PRAIRIE,1142,1142,8301 FLYING CLOUD DR,MN,55344-5381
Sears,BROOKLYN,1143,1143,5200 KINGS PLZ,NY,11234-5215
Sears,MEMPHIS,1146,1146,2800 N GERMANTOWN PRKWAY,TN,38133
Sears,BATON ROUGE,1147,1147,6501 BLUEBONNET BLVD,LA,70836-6500
Sears,VENTURA,1148,1148,3295 E MAIN ST,CA,93003-4821
Sears,WHITTIER,1149,1149,15600 WHITTWOOD LN,CA,90603-2300
Sears,COLUMBUS,1150,1150,4411 W BROAD ST,OH,43228-1620
Sears,TULSA,1151,1151,6929 S MEMORIAL DR,OK,74133-2035
Sears,STEUBENVILLE,1152,1152,100 MALL DR,OH,43952-3092
Sears,WHITEHALL,1154,1154,1259 WHITEHALL MALL,PA,18052-5124
Sears,KENNESAW,1155,1155,400 ERNEST W BARRETT PKWY NW,GA,30144-4917
Sears,ROSEVILLE,1156,1156,1191 GALLERIA BLVD,CA,95678-1935
Sears,FAIRFIELD,1159,1159,1420 TRAVIS BLVD,CA,94533-3425
Sears,WICHITA,1161,1161,7700 E KELLOGG DR,KS,67207-1772
Sears,AMHERST,1162,1162,1261 NIAGARA FALLS BLVD,NY,14226-1104
Sears,BURLINGTON,1163,1163,1100 MIDDLESEX TURNPIKE,MA,1803
Sears,CONCORD,1165,1165,1480 CONCORD PKWY N,NC,28025-2815
Sears,MERIDIAN,1166,1166,1740 BONITA LAKES CIRCLE,MS,39301-6955
Sears,SAN ANTONIO,1167,1167,622 NW LOOP 410,TX,78216
Sears,NORTH HOLLYWOOD,1168,1168,12121 VICTORY BLVD,CA,91606-3204
Sears,CHANDLER,1169,1169,3177 CHANDLER VILLAGE BLVD,AZ,85226
Sears,LANSING,1170,1170,3131 E MICHIGAN AVE,MI,48912-4618
Sears,SPRINGFIELD,1171,1171,2825 S GLENSTONE AVE STE 500,MO,65804-3732
Sears,BLOOMINGDALE,1172,1172,5 STRATFORD SQ(GARY & SCHICK),IL,60108
Sears,MERRITT ISLAND,1175,1175,777 E MERRITT ISLAND CSWY,FL,32952-3571
Sears,PASADENA,1176,1176,999 PASEDENA BLVD,TX,77506-4748
Sears,SANTA MONICA,1178,1178,302 COLORADO AVE,CA,90401
Sears,CANOGA PARK,1179,1179,21851 VICTORY BLVD,CA,91303-2668
Sears,WATERFORD,1180,1180,435 N TELEGRAPH RD,MI,48328-3332
Sears,SAINT PETERS,1182,1182,3 MID RIVERS MALL DR,MO,63376
Sears,ASHEVILLE,1185,1185,1 S TUNNEL RD,NC,28805-2218
Sears,MEMPHIS,1186,1186,4570 POPLAR AVE,TN,38117-7502
Sears,MESQUITE,1187,1187,3000 TOWN EAST MALL,TX,75150-4120
Sears,PHOENIX,1188,1188,4531 E THOMAS RD,AZ,85018-7614
Sears,WEST COVINA,1189,1189,1209 PLZ DR,CA,91790
Sears,MUSKEGON,1192,1192,5500 HARVEY ST,MI,49444-8765
Sears,WATERFORD,1193,1193,850 HARTFORD TNPK,CT,6385
Sears,FORT LAUDERDALE,1195,1195,901 N FEDERAL HWY,FL,33304-2706
Sears,HOUSTON,1197,1197,9570 SOUTHWEST FRWY,TX,77074-1499
Sears,SAN MATEO,1199,1199,40 HILLSDALE MALL,CA,94403-3407
Sears,CHICAGO,1200,1200,2 N STATE ST,IL,60602-3203
Sears,BEAVERCREEK,1202,1202,2727 FAIRFIELD COMMONS BLVD,OH,45431-3778
Sears,FREEHOLD,1204,1204,3710 US HIGHWAY 9 STE 1100,NJ,07728-4801
Sears,POMPANO BEACH,1205,1205,2251 N FEDERAL HWY,FL,33062-1009
Sears,NORTH LITTLE ROCK,1206,1206,3930 MCCAIN BLVD,AR,72116-8055
Sears,RICHARDSON,1207,1207,201 S PLANO RD,TX,75081-4504
Sears,FRESNO,1208,1208,3636 N BLACKSTONE AVE,CA,93726-5304
Sears,LONG BEACH,1209,1209,2100 N BELLFLOWER BLVD,CA,90815-3126
Sears,COLUMBUS,1210,1210,1400 POLARIS PKWY,OH,43240-2040
Sears,NORTH RIVERSIDE,1212,1212,7503 W CERMAK RD,IL,60546-1405
Sears,AUBURN,1213,1213,385 SOUTHBRIDGE ST,MA,01501-2487
Sears,MEMPHIS,1216,1216,1200 SOUTHLAND MALL,TN,38116-7808
Sears,CORPUS CHRISTI,1217,1217,1305 AIRLINE RD,TX,78412-3909
Sears,TOLEDO,1220,1220,3408 W CENTRAL AVE,OH,43606-1413
Sears,COLORADO SPRINGS,1221,1221,1650 BRIARGATE BLVD,CO,80920-3442
Sears,SAINT LOUIS,1222,1222,250 S COUNTY CENTER WAY,MO,63129-1088
Sears,BROCKTON,1223,1223,200 WESTGATE DR,MA,02301-1810
Sears,HARRISBURG,1224,1224,4600 JONESTOWN RD,PA,17109-6214
Sears,ORLANDO,1225,1225,3111 E COLONIAL DR,FL,32803-5107
Sears,METAIRIE,1226,1226,4400 VETERANS MEM BLVD,LA,70006
Sears,DALLAS,1227,1227,3450 W CAMP WISDOM RD,TX,75237-2504
Sears,SACRAMENTO,1228,1228,1601 ARDEN WAY,CA,95815-4004
Sears,BOISE,1229,1229,460 N MILWAUKEE ST,ID,83704-9122
Sears,COON RAPIDS,1232,1232,12737 RIVERDALE BLVD NW,MN,55448-1253
Sears,NORTHBROOK,1234,1234,840 WILLOW ROAD SUITE A,IL,60062-6820
Sears,TULSA,1236,1236,1901 S YALE AVE,OK,74112-6218
Sears,HANOVER,1243,1243,1775 WASHINGTON ST,MA,02339-1701
Sears,YORK,1244,1244,2899 WHITEFORD RD STE 288,PA,17402-8947
Sears,LUBBOCK,1247,1247,6002 SLIDE RD,TX,79414-4301
Sears,HAYWARD,1248,1248,660 W WINTON AVE,CA,94545-2135
Sears,LINCOLN PARK,1250,1250,2100 SOUTHFIELD RD,MI,48146-2250
Sears,LITHONIA,1251,1251,8020 MALL PKWY,GA,30038-2542
Sears,PEABODY,1253,1253,HWYS 114 & 128,MA,1960
Sears,WILMINGTON,1254,1254,3240 KIRKWOOD HWY,DE,19808-6130
Sears,TAMPA,1255,1255,7902 CITRUS PARK TOWN CTR ML,FL,33625
Sears,FRIENDSWOOD,1257,1257,300 BAYBROOK MALL,TX,77546-2740
Sears,MIDWEST CITY,1261,1261,6909 E RENO AVE,OK,73110-2151
Sears,WATERBURY,1263,1263,425 UNION ST,CT,06706-1245
Sears,HICKSVILLE,1264,1264,195 N BROADWAY,NY,11801-2912
Sears,VIRGINIA BEACH,1265,1265,4588 VIRGINIA BEACH BLVD,VA,23462-3004
Sears,FORT WORTH,1267,1267,1800 GREEN OAKS RD,TX,76116-1702
Sears,BUENA PARK,1268,1268,8150 LA PALMA AVE,CA,90620-3204
Sears,LITTLETON,1271,1271,8501 W BOWLES AVE,CO,80123-9502
Sears,HOLYOKE,1273,1273,50 HOLYOKE ST,MA,01040-2709
Sears,RICHMOND,1274,1274,11500 MIDLOTHIAN TPKE,VA,23235-4761
Sears,ATLANTA,1275,1275,2201 HENDERSON MILL RD NE,GA,30345-2711
Sears,NASHVILLE,1276,1276,7606 U S 70 SOUTH,TN,37221
Sears,SAN ANTONIO,1277,1277,6301 NW LOOP 410,TX,78238-3824
Sears,TORRANCE,1278,1278,22100 HAWTHORN BLVD,CA,90503-7008
Sears,SPRINGDALE,1280,1280,300 E KEMPER RD,OH,45246-3232
Sears,PUEBLO,1281,1281,3201 DILLON DR,CO,81008-1005
Sears,BRAINTREE,1283,1283,250 GRANITE ST,MA,02184-2807
Sears,ALEXANDRIA,1284,1284,5901 DUKE ST,VA,22304-3211
Sears,ORLANDO,1285,1285,8001 S ORANGE BLOSSOM TRL,FL,32809-7654
Sears,GRETNA,1286,1286,197-5 WESTBANK EXPWY,LA,70053
Sears,ALBUQUERQUE,1287,1287,6600 MENAUL BLVD NE STE 700,NM,87110-3447
Sears,STOCKTON,1288,1288,5110 PACIFIC AVE,CA,95207-6305
Sears,NILES,1290,1290,400 GOLF MILL CTR,IL,60714-1222
Sears,PITTSBURGH,1293,1293,1000 ROBINSON CENTER DR,PA,15205-4828
Sears,WATCHUNG,1294,1294,1640 ROUTE 22,NJ,07069-6503
Sears,SAINT PETERSBURG,1295,1295,2300 TYRONE BLVD N,FL,33710-3924
Sears,HURST,1297,1297,1101 MELBOURNE RD STE 7000,TX,76053-6282
Sears,RIVERSIDE,1298,1298,5261 ARLINGTON AVE,CA,92504-2604
Sears,OAK BROOK,1300,1300,2 OAKBROOK CTR,IL,60523-1810
Sears,PROVO,1301,1301,1200 TOWNE CENTRE BLVD SPC C,UT,84601-2997
Sears,DANBURY,1303,1303,7 BACKUS AVE (EX 3 RT 84),CT,6810
Sears,SILVER SPRING,1304,1304,11255 NEW HAMPSHIRE AVE,MD,20904-2628
Sears,SAVANNAH,1305,1305,7810 ABERCORN ST,GA,31406-2440
Sears,HATTIESBURG,1306,1306,1000 TURTLE CREEK DR,MS,39402-1145
Sears,ABILENE,1307,1307,4310 BUFFALO GAP RD,TX,79606-2724
Sears,DOWNEY,1309,1309,500 STONEWOOD ST,CA,90241-3920
Sears,ELYRIA,1310,1310,4900 MIDWAY MALL,OH,44035-2470
Sears,NASHUA,1313,1313,310 DANIEL WEBSTER HWY STE 279,NH,03060-5707
Sears,NEW BRUNSWICK,1314,1314,51 US HWY 1,NJ,8901
Sears,CHATTANOOGA,1315,1315,401 NORTHGATE MALL,TN,37415-6943
Sears,EL PASO,1317,1317,8401 GATEWAY BLVD W,TX,79925-5600
Sears,BAKERSFIELD,1318,1318,3001 MING AVE,CA,93304-4145
Sears,PEORIA,1321,1321,2200 W WAR MEMORIAL DR STE998,IL,61613-1080
Sears,MIDDLETOWN,1323,1323,1 N GALLERIA DR STE 144,NY,10941-3030
Sears,CHARLESTON,1325,1325,7801 RIVERS AVE,SC,29406-4015
Sears,BAYTOWN,1327,1327,1000 SAN JACINTO MALL,TX,77521-8355
Sears,LAS VEGAS,1328,1328,3450 S MARYLAND PKWY,NV,89169-3012
Sears,EVANSVILLE,1330,1330,1100 S GREEN RIVER RD,IN,47715-6804
Sears,POUGHKEEPSIE,1333,1333,2001 SOUTH RD,NY,12601-5978
Sears,PITTSBURGH,1334,1334,300 S HILLS VLG,PA,15241-1416
Sears,GREENSBORO,1335,1335,3200 W FRIENDLY AVE,NC,27408-7604
Sears,LAKE CHARLES,1336,1336,640 W PRIEN LAKE RD,LA,70601-8316
Sears,PLANO,1337,1337,851 N CENTRAL EXPWY,TX,75075
Sears,TUCSON,1338,1338,5950 E BROADWAY BLVD,AZ,85711-3904
Sears,CAMBRIDGE,1343,1343,100 CAMBRIDGESIDE PL,MA,02141-2215
Sears,HIALEAH,1345,1345,1625 W 49TH ST,FL,33012-2935
Sears,LAFAYETTE,1347,1347,5715 JOHNSTON ST,LA,70503-5302
Sears,MENTOR,1350,1350,7875 JOHNNYCAKE RIDGE RD,OH,44060-5529
Sears,DE WITT,1353,1353,3649 ERIE BLVD E,NY,13214-1718
Sears,WILLOW GROVE,1354,1354,2500 W MORELAND RD,PA,19090-4096
Sears,ALTAMONTE SPRINGS,1355,1355,451 E ALTAMONTE DR STE 401,FL,32701
Sears,AUSTIN,1357,1357,2901 S CAPITOL OF TEXAS HWY,TX,78746-8101
Sears,CHULA VISTA,1358,1358,565 BROADWAY,CA,91910-5307
Sears,LAKE GROVE,1364,1364,4 SMITH HAVEN MALL,NY,11755
Sears,MIAMI,1365,1365,20701 SW 112TH AVE,FL,33189-2223
Sears,WACO,1367,1367,6001 W WACO DR,TX,76710-6306
Sears,CONCORD,1368,1368,1001 SUNVALLEY BLVD,CA,94520-5802
Sears,COLUMBUS,1370,1370,2765 EASTLAND MALL,OH,43232-4902
Sears,BEL AIR,1374,1374,658 BALTIMORE PIKE,MD,21014-4223
Sears,WINSTON SALEM,1375,1375,3320 SILAS CREEK PKWY,NC,27103-3031
Sears,HOUSTON,1377,1377,7925 FM 1960 RD W,TX,77070-5700
Sears,ORANGE,1378,1378,2100 N TUSTIN ST,CA,92865-3702
Sears,CHICAGO,1380,1380,4730 W IRVING PARK RD,IL,60641-2782
Sears,ATLANTA,1385,1385,1500 CUMBERLAND MALL SE,GA,30339-3141
Sears,GOODLETTSVILLE,1386,1386,1000 RIVERGATE PKWY STE 5,TN,37072-2405
Sears,AMARILLO,1387,1387,WESTGATE MALL,TX,79121-0999
Sears,COSTA MESA,1388,1388,3333 BRISTOL ST,CA,92626-1811
Sears,ANN ARBOR,1390,1390,900 BRIARWOOD CIRCLE,MI,48108-1618
Sears,KNOXVILLE,1395,1395,7600H KINGSTON PIKE,TN,37919-5604
Sears,ODESSA,1397,1397,4101 E 42ND ST,TX,79762-7239
Sears,SAN BERNARDINO,1398,1398,100 INLAND CTR,CA,92408-1917
Sears,WICHITA,1401,1401,4600 W KELLOGG DR,KS,67209-2568
Sears,NATICK,1403,1403,1235 WORCESTER RD SPLEEN ST,MA,1760
Sears,MASSAPEQUA,1404,1404,800 SUNRISE MALL,NY,11758-4334
Sears,FAYETTEVILLE,1405,1405,400 CROSS CREEK MALL,NC,28303-7244
Sears,BEAUMONT,1407,1407,6461 EASTEX FWY,TX,77706-6706
Sears,SACRAMENTO,1408,1408,5901 FLORIN RD,CA,95823-2302
Sears,CANTON,1410,1410,4100 BELDEN VILLAGE MALL,OH,44718-2502
Sears,NANUET,1414,1414,75 W ROUTE 59 STE 100,NY,10954-2701
Sears,CLEARWATER,1415,1415,27001 US 19 N SUITE 8520,FL,33761
Sears,HUMBLE,1417,1417,20131 HIGHWAY 59 N,TX,77338-2305
Sears,BETHESDA,1424,1424,7103 DEMOCRACY BLVD,MD,20817-1007
Sears,SAN ANTONIO,1427,1427,6909 N LOOP 1604 E,TX,78247-5317
Sears,CLEVELAND,1430,1430,6950 W 130TH ST,OH,44130-7809
Sears,WAYNE,1434,1434,50 ROUTE 46,NJ,07470-6834
Sears,ARLINGTON,1437,1437,3871 S COOPER ST,TX,76015-4122
Sears,EL CAJON,1438,1438,575 FLETCHER PKWY,CA,92020-2522
Sears,MANCHESTER,1443,1443,190 BUCKLAND HILLS DR,CT,06040-8700
Sears,RICHMOND,1445,1445,1400 N PARHAM RD,VA,23229-5513
Sears,FORT WORTH,1447,1447,4900 S HULEN ST,TX,76132-1408
Sears,ROSEVILLE,1450,1450,32123 GRATIOT AVE,MI,48066-1147
Sears,BENSALEM,1454,1454,100 NESHAMINY MALL,PA,19020-1607
Sears,WILMINGTON,1455,1455,3500 OLEANDER DR,NC,28403-0811
Sears,OVIEDO,1456,1456,1360 OVIEDO MARKETPLACE BLVD,FL,32765
Sears,LIVONIA,1460,1460,29500 7 MILE RD,MI,48152-1910
Sears,SOUTH BURLINGTON,1463,1463,155 DORSET STREET,VT,05403-6346
Sears,DEPTFORD,1464,1464,1750 DEPTFORD CENTER ROAD,NJ,08096-5282
Sears,TAMPA,1465,1465,2266 E. FOWLER AVE.,FL,33612-5518
Sears,CUPERTINO,1468,1468,10101N WOLFE RD,CA,95014-2507
Sears,GREENWOOD,1470,1470,1251 US HIGHWAY 31 N,IN,46142-4503
Sears,SELINSGROVE,1473,1473,1 SUSQUEHANNA VLY ML STE DS4,PA,17870
Sears,BOARDMAN,1474,1474,7401 MARKET ST,OH,44512-5695
Sears,DURHAM,1475,1475,THE STREETS OF SOUTHPOINT,NC,27713-8722
Sears,SAN BRUNO,1478,1478,1178 EL CAMINO REAL,CA,94066-2406
Sears,MT KISCO,1483,1483,360 N BEDFORD RD,NY,10549
Sears,READING,1484,1484,1665 STATE HILL RD,PA,19610
Sears,ORANGE PARK,1485,1485,1910 WELLS RD,FL,32073-2396
Sears,CEDAR PARK,1487,1487,11200 LAKELINE MALL DR,TX,78613-1501
Sears,SAN JOSE,1488,1488,2180 TULLY RD,CA,95122-1345
Sears,TROY,1490,1490,300 W 14 MILE RD,MI,48083-4218
Sears,MOORESTOWN,1494,1494,RT 38 AND LENOLA RD,NJ,8057
Sears,FORT MYERS,1495,1495,4125 CLEVELAND AVE,FL,33901-9003
Sears,WILLIAMSVILLE,1504,1504,4545 TRANSIT RD,NY,14221-6012
Sears,NORTHRIDGE,1508,1508,9301 TAMPA AVE,CA,91324
Sears,NIAGARA FALLS,1514,1514,6929 WILLIAMS RD,NY,14304-3086
Sears,CERRITOS,1518,1518,100 LOS CERRITOS,CA,90703-5421
Sears,AKRON,1520,1520,2000 BRITTAIN RD,OH,44310-1804
Sears,ROCHESTER,1524,1524,317 GREECE RIDGE CENTER DR,NY,14626-2820
Sears,COLUMBIA,1525,1525,7201 TWO NOTCH RD,SC,29223-7527
Sears,SAN RAFAEL,1528,1528,9000 NORTHGATE MALL,CA,94903-3654
Sears,CLEVELAND,1530,1530,621 RICHMOND RD,OH,44143-2915
Sears,SCRANTON,1534,1534,RT 6 & INTERSTATE 81,PA,18508
Sears,PLANTATION,1535,1535,8000 W BROWARD BLVD STE 100,FL,33388-0002
Sears,CITRUS HEIGHTS,1538,1538,5900 SUNRISE MALL,CA,95610-6901
Sears,REGO PARK,1544,1544,9605 QUEENS BLVD,NY,11374-1139
Sears,SPARTANBURG,1545,1545,205 W BLACKSTOCK RD STE C,SC,29301-1383
Sears,LAGUNA HILLS,1548,1548,24300 LAGUNA HILLS MALL,CA,92653-7601
Sears,MAYS LANDING,1554,1554,4409 BLACK HORSE PIKE,NJ,08330-3102
Sears,SANFORD,1555,1555,320 TOWNE CENTER CIR,FL,32771-7410
Sears,DAYTON,1560,1560,2700 MIAMISBURG CENTERVILLE RD,OH,45459-3738
Sears,NILES,1564,1564,5320 YOUNGSTOWN RD,OH,44446
Sears,MORROW,1565,1565,1300 SOUTHLAKE MALL,GA,30260-2326
Sears,CARSON,1568,1568,20700 S AVALON BLVD STE 100,CA,90746-3734
Sears,SCHAUMBURG,1570,1570,2 WOODFIELD MALL,IL,60173-5086
Sears,MIDDLETOWN,1574,1574,1500 HIGHWAY 35,NJ,07748-1831
Sears,NEWPORT NEWS,1575,1575,100 NEWMARKET FAIR MALL,VA,23605-1406
Sears,AIEA,1578,1578,PEARLRIDGE S/C STE 60-S-1,HI,96701-4799
Sears,LEXINGTON,1580,1580,3555 NICHOLASVILLE RD,KY,40503-3613
Sears,VICTOR,1584,1584,200 EASTVIEW MALL,NY,14564-1006
Sears,TALLAHASSEE,1585,1585,1500 APALACHEE PKWY,FL,32301-3088
Sears,PHOENIX,1588,1588,10001 N METRO PKWY W,AZ,85051-1405
Sears,SAGINAW,1590,1590,4900 FASHION SQUARE MALL,MI,48604-2706
Sears,MONACA,1594,1594,300 BEAVER VALLEY MALL,PA,15061
Sears,GREENVILLE,1595,1595,700 HAYWOOD RD,SC,29607-2781
Sears,CITY OF INDUSTRY,1598,1598,100 S PUENTE HILLS MALL,CA,91748
Sears,INDIANAPOLIS,1600,1600,6020 E 82ND ST STE 200,IN,46250-1572
Sears,LANDOVER,1604,1604,2101 BRIGHTSEAT RD,MD,20785-3602
Sears,RALEIGH,1605,1605,7330 OLD WAKE FOREST RD,NC,27616-3047
Sears,WESTMINSTER,1608,1608,100 WESTMINSTER MALL,CA,92683-4936
Sears,CINCINNATI,1610,1610,9505 COLERAIN AVE,OH,45251-2003
Sears,LIVINGSTON,1614,1614,S ORANGE AVE & WALNUT ST,NJ,7039
Sears,CHESAPEAKE,1615,1615,1401 GREENBRIER PKWY,VA,23320-2830
Sears,MODESTO,1618,1618,100 VINTAGE FAIRE MALL,CA,95356-0559
Sears,VERNON HILLS,1620,1620,2 HAWTHORN CENTER,IL,60061
Sears,CLAY,1623,1623,4155 STATE ROUTE 31,NY,13041
Sears,STATEN ISLAND,1624,1624,283 PLATINUM AVE,NY,10314-5805
Sears,SARASOTA,1625,1625,8201 S TAMIAMI TRAIL,FL,34238-2966
Sears,MESA,1628,1628,1425 W SOUTHERN AVE,AZ,85202-4814
Sears,BALTIMORE,1634,1634,6901 SECURITY SQ BLVD,MD,21244-2412
Sears,JACKSONVILLE,1635,1635,9501 ARLINGTON EXPY,FL,32225-8200
Sears,BREA,1638,1638,100 BREA MALL,CA,92821-5717
Sears,FAIRVIEW HEIGHTS,1640,1640,235 SAINT CLAIR SQ,IL,62208-2134
Sears,TOPEKA,1642,1642,1781 SW WANAMAKER RD,KS,66604-3812
Sears,LANCASTER,1644,1644,200 PARK CITY CTR,PA,17601-2708
Sears,BOCA RATON,1645,1645,5900 GLADES RD,FL,33431-7203
Sears,PINEVILLE,1646,1646,11033 CAROLINA PLACE PKWY,NC,28134-8370
Sears,SAN DIEGO,1648,1648,4575 LA JOLLA VILLAGE DR,CA,92122-1203
Sears,MERRILLVILLE,1650,1650,2300 SOUTHLAKE MALL,IN,46410-6443
Sears,MEDIA,1654,1654,1067 W BALTIMORE PIKE,PA,19063-5185
Sears,MIAMI,1655,1655,19505 BISCAYNE BLVD,FL,33180-2314
Sears,SANTA ROSA,1658,1658,100 SANTA ROSA PLAZA,CA,95401-6381
Sears,AURORA,1660,1660,2 FOX VALLEY CENTER,IL,60504
Sears,PARAMUS,1664,1664,585 FROM RD,NJ,07652-3521
Sears,GAINESVILLE,1665,1665,6201 W NEWBERRY RD,FL,32605-4334
Sears,LAS VEGAS,1668,1668,4000 MEADOWS LANE,NV,89107-3108
Sears,WHITE PLAINS,1674,1674,100 MAIN ST,NY,10601
Sears,KNOXVILLE,1675,1675,2931 KNOXVILLE CENTER DR,TN,37924-5002
Sears,CARLSBAD,1678,1678,2561 EL CAMINO REAL,CA,92008-1202
Sears,INDIANAPOLIS,1680,1680,10202 E WASHINGTON ST,IN,46229-2670
Sears,WOODBRIDGE,1684,1684,150 WOODBRIDGE CTR CT,NJ,07095-1124
Sears,DULUTH,1685,1685,2100 PLEASANT HILL RD,GA,30096-4701
Sears,SALINAS,1688,1688,1700 N MAIN ST,CA,93906-5103
Sears,CHESTERFIELD,1690,1690,1 CHESTERFIELD MALL,MO,63017
Sears,ERIE,1694,1694,800 MILLCREEK MALL,PA,16565-0801
Sears,ALPHARETTA,1695,1695,6000 N POINT CIRCLE,GA,30022-4862
Sears,NEWARK,1698,1698,6000 MOWRY AVE,CA,94560-4900
Sears,DEARBORN,1700,1700,18900 MICHIGAN AVE STE 1001,MI,48126-3936
Sears,PHOENIX,1708,1708,7611 W THOMAS RD STE ANC 03,AZ,85033
Sears,HENDERSON,1709,1709,1245 W WARM SPRINGS RD,NV,89014-8740
Sears,NORTH OLMSTED,1710,1710,5000 GREAT NORTHERN MALL,OH,44070-3303
Sears,GRAND FORKS,1712,1712,2800 S COLUMBIA RD,ND,58201-6030
Sears,GREENSBURG,1714,1714,5256 ROUTE 30,PA,15601-3519
Sears,DORAL,1715,1715,1625 NW 107TH AVE,FL,33172
Sears,ALBUQUERQUE,1717,1717,10000 COORS BYPASS NW,NM,87114
Sears,OGDEN,1718,1718,1000 NEWGATE MALL,UT,84405-1598
Sears,STERLING HEIGHTS,1720,1720,14100 LAKESIDE CIRCLE,MI,48313-1322
Sears,BLOOMINGTON,1722,1722,2000 N E COURT,MN,55425
Sears,ANNAPOLIS,1725,1725,1040 ANNAPOLIS MALL,MD,21401-3061
Sears,TUCSON,1728,1728,4570 N ORACLE RD,AZ,85705-1638
Sears,FLORENCE,1730,1730,3000 MALL RD,KY,41042-1494
Sears,YONKERS,1733,1733,RTE 87(NY ST) & CROSS CT PKWY,NY,10704
Sears,LAWRENCEVILLE,1734,1734,300 QUAKER BRIDGE MALL,NJ,08648-1902
Sears,KANEOHE,1738,1738,46-056 KAMEHAMEHA HWY,HI,96744-3755
Sears,JOLIET,1740,1740,3340 MALL LOOP DR,IL,60431-1057
Sears,ROCK HILL,1741,1741,9544 MANCHESTER RD,MO,63119
Sears,OCEAN,1744,1744,2341 RT 66,NJ,7712
Sears,TAMPA,1745,1745,347 WESTSHORE PLZ,FL,33609-1812
Sears,MONTCLAIR,1748,1748,5080 MONTCLAIR PLZ LN,CA,91763
Sears,ORLAND PARK,1750,1750,2 ORLAND SQUARE DR,IL,60462
Sears,GAITHERSBURG,1754,1754,701 RUSSELL AVE,MD,20877-2690
Sears,BOYNTON BEACH,1755,1755,801 N CONGRESS AVE,FL,33426-3315
Sears,ESCONDIDO,1758,1758,210 E VIA RANCHO PKWY,CA,92025-8005
Sears,NOVI,1760,1760,27600 NOVI RD,MI,48377-3420
Sears,ROCKAWAY,1764,1764,RT 80 & MT HOPE AVE,NJ,7866
Sears,PALM BEACH GARDENS,1765,1765,3101 PGA BLVD,FL,33410-2820
Sears,PHOENIX,1768,1768,4604 E CACTUS RD,AZ,85032-7704
Sears,SALISBURY,1773,1773,2306 N SALISBURY BLVD,MD,21801-7380
Sears,PEMBROKE PINES,1775,1775,12055 PINES BLVD,FL,33026-4112
Sears,MCCOMB,1778,1778,1211 D DELAWARE AVE,MS,39648
Sears,SPRINGFIELD,1780,1780,104 WHITE OAKS MALL,IL,62704-6946
Sears,JOHNSON CITY,1784,1784,601-635 HARRY L DRIVE,NY,13790
Sears,COLUMBUS,1785,1785,5555 WHITTLESEY BLVD STE 3000,GA,31909
Sears,RICHMOND,1788,1788,2300 HILLTOP MALL RD,CA,94806-1926
Sears,LOUISVILLE,1790,1790,4807 OUTER LOOP,KY,40219-3200
Sears,EAST NORTHPORT,1794,1794,4000 JERICHO TPKE,NY,11731-6285
Sears,MYRTLE BEACH,1795,1795,1200 COASTAL GRAND CIRCLE,SC,29577
Sears,GLENDALE,1798,1798,7780 W ARROWHEAD TOWNE CTR,AZ,85308-8612
Sears,MISHAWAKA,1800,1800,6501 GRAPE RD US 23,IN,46545
Sears,GURNEE,1802,1802,6136 W GRAND AVE,IL,60031
Sears,MANCHESTER,1803,1803,14173 MANCHESTER RD STE I,MO,63011
Sears,BARBOURSVILLE,1804,1804,100 HUNTINGTON MALL RD,WV,25504
Sears,RALEIGH,1805,1805,4601 GLENWOOD AVE UNIT 1,NC,27612-3809
Sears,ST CHARLES,1806,1806,3871 MEXICO RD,MO,63303
Sears,HOUSTON,1808,1808,1150 FRY RD,TX,77084
Sears,TOMBALL,1809,1809,14215 FM 2920,TX,77377
Sears,CINCINNATI,1810,1810,4595 EASTGATE BLVD,OH,45245-1201
Sears,EULESS,1811,1811,2720 STATE HWY 121 STE 100,TX,76039
Sears,CLARINDA,1812,1812,1000 SOUTH 8TH STREET,IA,51632-2813
Sears,TARENTUM,1813,1813,289 PITTSBURGH MILLS CIRCLE,PA,15084
Sears,FAIRFAX,1814,1814,12000 FAIR OAKS MALL,VA,22033
Sears,FARMVILLE,1817,1817,1506 S MAIN STREET,VA,23901
Sears,RANCHO CUCAMONGA,1818,1818,8250 DAY CREEK BLVD,CA,91739
Sears,WEST DUNDEE,1820,1820,5000 SPRING HILL MALL,IL,60118-1267
Sears,EAGAN,1821,1821,1294 TOWN CENTRE DR,MN,55123
Sears,CAPE GIRARDEAU,1822,1822,330 SIEMERS DR,MO,63703
Sears,CORRY,1823,1823,380 WEST COLUMBUS AVE,PA,16407
Sears,WEST MIFFLIN,1824,1824,3075 CLAIRTON RD,PA,15123-0033
Sears,CLAYTON,1825,1825,8878 US 70 HWY WEST STE 300,NC,27520
Sears,RIDGELAND,1826,1826,381 HWY 51,MS,39157
Sears,WAYNESBORO,1827,1827,1108 A MISSISSIPPI DRIVE,MS,39367
Sears,LAS VEGAS,1828,1828,4355 GRAND CANYON DR,NV,89147
Sears,GOODYEAR,1829,1829,13277 W MCDOWELL RD STE 101,AZ,85338
Sears,FORT WAYNE,1830,1830,4201 COLDWATER RD,IN,46805-1199
Sears,THORNTON,1831,1831,16395 WASHINGTON ST,CO,80023
Sears,COLUMBIA CITY,1832,1832,486 W PLAZA DR,IN,46725
Sears,BROWNFIELD,1833,1833,103 S 6TH STREET,TX,79316
Sears,NORTH WALES,1834,1834,600 MONTGOMERY MALL,PA,19454-3912
Sears,BURBANK,1838,1838,111 E MAGNOLIA BLVD,CA,91502-1716
Sears,CHICAGO RIDGE,1840,1840,6501 95TH ST,IL,60415-2632
Sears,FOUNTAIN HILLS,1841,1841,13212 N SAGUARO BLVD,AZ,85268
Sears,NORTH VERNON,1842,1842,247 E WALNUT STREET,IN,47265
Sears,LINCOLN,1843,1843,213 WEST BROADWAY,ME,4457
Sears,COLUMBIA,1844,1844,10300 LITTLE PATUXENT PKWY,MD,21044-3341
Sears,FORT PIERCE,1845,1845,3207 S US HWY 1,FL,34982
Sears,AUSTIN,1847,1847,12625 N I-H 35,TX,78753
Sears,TUCSON,1848,1848,3951 COSTCO DRIVE,AZ,85741
Sears,CORNELIUS,1849,1849,3150 BASELINE HWY,OR,97113
Sears,LOUISVILLE,1850,1850,7900 SHELBYVILLE RD,KY,40222-5451
Sears,HAYWARD,1851,1851,15734 HWY 63,WI,54843
Sears,GREENCASTLE,1852,1852,27A PUTNAM PLAZA,IN,46135
Sears,WILMINGTON,1853,1853,4737 CONCORD PIKE,DE,19803-1447
Sears,BALTIMORE,1854,1854,8200 PERRY HALL BLVD,MD,21236-4901
Sears,WAUCHULA,1855,1855,131 W MAIN STREET,FL,33873
Sears,FT WORTH,1856,1856,5864 N TARRANT PKWY,TX,76137
Sears,LEAGUE CITY,1857,1857,2805 GULF FREEWAY SOUTH STE H,TX,77573
Sears,BURLESON,1858,1858,12770 SOUTH FREEWAY STE 176,TX,76028
Sears,HOUSTON,1859,1859,15242 WALLISVILLE RD STE A,TX,77049
Sears,OSWEGO,1860,1860,1758 DOUGLAS RD,IL,60543
Sears,NORTH AURORA,1861,1861,106 HANSEN BLVD,IL,60542
Sears,ROCKFORD,1862,1862,7955 HWY 55,MN,55373
Sears,JOHNSTOWN,1863,1863,540 GALLERIA DR,PA,15904-8900
Sears,COCKEYSVILLE,1864,1864,126 SHAWAN RD,MD,21030-1325
Sears,CROCKETT,1866,1866,1010 E LOOP 304,TX,75835
Sears,LARAMIE,1867,1867,411 SOUTH 2ND STREET,WY,82070-3613
Sears,MORENO VALLEY,1868,1868,22550 TOWN CIRCLE,CA,92553-7502
Sears,NEWPORT,1869,1869,2105 MALCOM AVE,AR,72112
Sears,COLDWATER,1870,1870,352 S WILLOWBROOK ROAD STE F,MI,49036
Sears,BURLINGTON,1874,1874,RR 541 BOX I-295,NJ,8016
Sears,KING OF PRUSSIA,1884,1884,160 N GULPH RD STE 4000,PA,19406-2937
Sears,WEST JORDAN,1888,1888,7453 S PLAZA CENTER DR,UT,84088
Sears,ROCHESTER,1894,1894,10 MIRACLE MILE DR,NY,14623-5851
Sears,LONE TREE,1900,1900,8585 S YOSEMITE ST,CO,80124-2864
Sears,SCOTTSDALE,1901,1901,16275 N SCOTTSDALE RD,AZ,85254
Sears,FARMERS BRNCH,1902,1902,5000 ALPHA RD,TX,75244-4611
Sears,BROOMFIELD,1904,1904,231 E FLATIRON CR,CO,80021
Sears,SAN JUAN,1905,1905,AVE F D ROOSEVELT,PR,00918-8001
Sears,LOMBARD,1907,1907,2860 S HIGHLAND AVE,IL,60148-7130
Sears,IRVINE,1909,1909,71 TECHNOLOGY DR,CA,92618-2346
Sears,NOVI,1910,1910,44075 W 12 MILE RD,MI,48377-2613
Sears,COLUMBUS,1911,1911,1510 POLARIS PKWY,OH,43240-2042
Sears,CAPE CORAL,1912,1912,110 NE SECOND PLACE SUITE 201,FL,33909
Sears,CHANDLER,1913,1913,3460 W CHANDLER BLVD,AZ,85226-5065
Sears,HOUSTON,1914,1914,10496 OLD KATY RD,TX,77043-5106
Sears,BAYAMON,1915,1915,AVE AGAUS BUENAS,PR,959
Sears,MCALLEN,1916,1916,700 E EXPY 83 SUITE 200,TX,78503
Sears,GAITHERSBURG,1917,1917,16331 SHADY GROVE RD,MD,20877-4038
Sears,POLSON,1920,1920,214 1ST ST E,MT,59860
Sears,BURBANK,1922,1922,1301 N VICTORY PL,CA,91502-1649
Sears,MONETA,1923,1923,RT 122 AND WHITE HOUSE ROAD,VA,24121
Sears,VALLEY STREAM,1924,1924,1150 SUNRISE HWY,NY,11581
Sears,CAROLINA,1925,1925,PLZ CAROLINA STATION,PR,988
Sears,MATTHEWS,1926,1926,9721 E INDEPENDENCE BVD STE A,NC,28105
Sears,MANSFIELD,1928,1928,1405 HWY 287 NORTH STE 107,TX,76063-4860
Sears,LIVINGSTON,1929,1929,124 SOUTH MAIN ST,MT,59047
Sears,WOODBURY,1931,1931,8300 TAMARACK VILLAGE,MN,55125
Sears,SEALY,1932,1932,2320 HWY 36 SOUTH,TX,77474
Sears,BELOIT,1933,1933,1970 SUTLER AVE,WI,53511
Sears,BERRYVILLE,1934,1934,322 EUREKA STREET,AR,72616
Sears,MAYAGUEZ,1935,1935,975 HOSTOS AVE STE 110,PR,00680-1259
Sears,FLOWER MOUND,1936,1936,5810 LONG PRAIRIE RD,TX,75028
Sears,MCKINNEY,1937,1937,1925 CENTRAL EXPY - BLD G,TX,75070
Sears,PEARLAND,1938,1938,10904 MEMORIAL HERMANN DR,TX,77584
Sears,MAPLE GROVE,1940,1940,11669 FOUNTAIN DR,MN,55369
Sears,YORKTOWN HEIGHTS,1944,1944,600 LEE BLVD,NY,10598-1142
Sears,PONCE,1945,1945,PONCE BY PASS STE 135,PR,731
Sears,CHARLESTON,1954,1954,200 QUARRIER ST,WV,25301-2006
Sears,LAKELAND,1955,1955,3800 US HIGHWAY 98 N STE 500,FL,33809-3824
Sears,SAN JOSE,1958,1958,5540 WINFIELD BLVD,CA,95123
Sears,PASADENA,1965,1965,5932 FAIRMONT PKWY,TX,77505
Sears,PALM DESERT,1968,1968,72-880 HWY 111,CA,92260
Sears,ROANOKE,1974,1974,4812 VALLEY VIEW BLVD NE,VA,24012
Sears,JACKSONVILLE,1975,1975,1627 SOUTH JACKSON ST,TX,75766
Sears,RENO,1978,1978,5400 MEADOWOOD MALL CIR,NV,89502-6508
Sears,LAFAYETTE,1980,1980,2415 SAGAMORE PKWY S,IN,47905
Sears,BUFFALO,1984,1984,S 3701 MCKINLEY PKWY,NY,14219-2618
Sears,EL CENTRO,1988,1988,3751 S DOGWOOD AVE,CA,92243
Sears,MONTEBELLO,1998,1998,1401 N MONTEBELLO BLVD,CA,90640-2584
Sears,SANTA CLARITA,1999,1999,24137 VALENCIA BLVD,CA,91355-1814
Sears,PIQUA,2001,2001,987 E ASH ST STE 170,OH,45356-4198
Sears,ROCHESTER,2003,2003,200 MEDLEY CENTRE PARKWAY,NY,14622
Sears,KNIGHTDALE,2004,2004,2001 WIDEWATERS PKWY STE A,NC,27545
Sears,AUBURN,2007,2007,1579 CLARK ST,NY,13022
Sears,MONROE,2008,2008,MONROE CROSSING MALL,NC,28110-2737
Sears,HANFORD,2009,2009,1679 W LACEY BLVD,CA,93230-5928
Sears,MANSFIELD,2010,2010,600 RICHLAND MALL,OH,44906-1246
Sears,NEW CASTLE,2013,2013,2500 W STATE ST,PA,16101-1007
Sears,HAMMOND,2016,2016,1914 HAMMOND SQUARE DRIVE,LA,70403-6137
Sears,GASTONIA,2017,2017,250 N NEW HOPE RD,NC,28054-4714
Sears,NORTHWOOD,2020,2020,3725 WILLISTON RD,OH,43619-2097
Sears,CONCORD,2023,2023,270 LOUDON RD,NH,03301-8005
Sears,DENHAM SPRGS,2024,2024,2370 SOUTH RANGE AVE,LA,70726
Sears,DOTHAN,2025,2025,662 W MAIN ST,AL,36301-1558
Sears,SLIDELL,2026,2026,150 NORTH SHORE BLVD STE 1000,LA,70460-6822
Sears,WASILLA,2027,2027,1000 S SEWARD MERIDIAN RD,AK,99654-7506
Sears,HEMET,2028,2028,2200 W FLORIDA AVE,CA,92545-3666
Sears,UNION GAP,2029,2029,9 E VALLEY MALL BLVD,WA,98903-1612
Sears,ELIZABETHTOWN,2030,2030,1704 N TOWNE MALL,KY,42701
Sears,FOND DU LAC,2031,2031,757 W JOHNSON ST,WI,54935-2015
Sears,MASSENA,2033,2033,6129 SAINT LAWRENCE CTR,NY,13662-3214
Sears,BOWIE,2034,2034,15700 EMERALD WAY,MD,20716-2200
Sears,COLUMBIA,2035,2035,100 COLUMBIANA CIR STE 101,SC,29212-2240
Sears,JACKSON,2036,2036,2021 N HIGHLAND AVE,TN,38305-4903
Sears,BATTLE CREEK,2040,2040,5575 B DRIVE N,MI,49015
Sears,KINGSTON,2043,2043,RT 3 AND SMITH LN,MA,2364
Sears,MUSKOGEE,2045,2045,501 N MAIN ST - STE 2,OK,74401
Sears,JONESBORO,2046,2046,1901 S CARAWAY RD STE 1,AR,72401-5218
Sears,SIERRA VISTA,2047,2047,2250 EL MERCADO LOOP,AZ,85635-5204
Sears,CHICO,2048,2048,1982 E 20TH ST,CA,95928-6342
Sears,EVERETT,2049,2049,1302 SE EVERETT MALL WAY,WA,98208-2831
Sears,JACKSON,2050,2050,1250 JACKSON XING I-94,MI,49202-2042
Sears,FORT DODGE,2052,2052,307 S 25TH ST,IA,50501-4315
Sears,MARY ESTHER,2056,2056,300 MARY ESTHER BLVD,FL,32569-1693
Sears,SHAWNEE,2057,2057,4901 N KICKAPOO AVE,OK,74804-1322
Sears,TRACY,2059,2059,3350 NAGLEE RD,CA,95304-7322
Sears,DAYTON,2060,2060,5200 SALEM AVE,OH,45426-1757
Sears,DEFIANCE,2061,2061,1500 N CLINTON ST,OH,43512-8886
Sears,FORSYTH,2062,2062,HICKORY POINT MALL,IL,62535-2000
Sears,COLONIAL HEIGHTS,2064,2064,114 SOUTHPARK CIR,VA,23834-2963
Sears,BRUNSWICK,2065,2065,100 MALL BLVD STE 300,GA,31525-1857
Sears,VISALIA,2068,2068,3501 S MOONEY BLVD,CA,93277-7775
Sears,COLUMBUS,2070,2070,222 COMMONS MALL,IN,47201-6762
Sears,CINCINNATI,2071,2071,6000 GLENWAY AVE,OH,45211-6318
Sears,WOONSOCKET,2073,2073,1500 DIAMOND HILL RD,RI,02895-1537
Sears,STROUDSBURG,2074,2074,344 STROUD MALL STE 600,PA,18360
Sears,TYLER,2077,2077,4701 S BROADWAY AVE,TX,75703-1309
Sears,YUMA,2078,2078,3150 S 4TH AVE,AZ,85364-8104
Sears,NEW PHILADELPHIA,2080,2080,400 MILL AVE SE,OH,44663-3875
Sears,FARGO,2082,2082,3902 13TH AVE SOUTH STE 600,ND,58103
Sears,FAJARDO,2085,2085,STATE RD 3,PR,738
Sears,ALEXANDRIA,2087,2087,3401 MASONIC DR,LA,71301-3616
Sears,SANTA MARIA,2088,2088,200 TOWN CTR E,CA,93454-5131
Sears,CHEHALIS,2089,2089,121 NE HAMPE WAY,WA,98532-2401
Sears,APPLETON,2092,2092,4301 W WISCONSIN AVE,WI,54913-6505
Sears,AIKEN,2095,2095,2441 WHISKEY RD STE 109,SC,29803-7695
Sears,PARIS,2097,2097,3060 CLARKSVILLE ST,TX,75460-7914
Sears,SAINT CLAIRSVILLE,2104,2104,BANFIELD RD & I-70,OH,43950
Sears,BURLINGTON,2105,2105,350 HOLLY HILL MALL,NC,27215
Sears,TUPELO,2106,2106,1001 BARNES CROSSING RD,MS,38804-0996
Sears,TWIN FALLS,2109,2109,1543 POLELINE RD E,ID,83301-3590
Sears,GREEN BAY,2112,2112,1555 GREEN BAY PLZ,WI,54304-2143
Sears,ROTTERDAM,2113,2113,93 W CAMPBELL RD,NY,12306-6890
Sears,WASHINGTON,2114,2114,1500 W CHESTNUT ST,PA,15301-5864
Sears,SALEM,2119,2119,827 LANCASTER DR NE,OR,97301-2929
Sears,PERU,2121,2121,1607 36TH ST,IL,61354-1232
Sears,DUBUQUE,2122,2122,555 JOHN F KENNEDY RD,IA,52002-5202
Sears,DU BOIS,2124,2124,5522 SHAFFER RD STE 129,PA,15801-3304
Sears,VALDOSTA,2125,2125,1709 BAYTREE RD,GA,31602-3507
Sears,HOT SPRINGS,2126,2126,4501 CENTRAL AVE STE 101,AR,71913-7412
Sears,ELKHART,2130,2130,154 28B W HIVELY AVE,IN,46517-2160
Sears,SALINA,2131,2131,2259 S 9TH ST,KS,67401-7313
Sears,CHEEKTOWAGA,2134,2134,2000 WALDEN AVE,NY,14225-5454
Sears,SEBRING,2135,2135,901 US 27 N STE 130,FL,33870-2131
Sears,SANTA BARBARA,2138,2138,3845 STATE ST,CA,93105-3111
Sears,PRESQUE ISLE,2143,2143,830 MAIN ST UNIT 4,ME,04769-2277
Sears,PORT CHARLOTTE,2145,2145,1441 TAMIAMI TRL UNIT 801,FL,33948-1098
Sears,IRVING,2147,2147,2501 IRVING MALL,TX,75062-5161
Sears,KAHULUI,2148,2148,275 KAAHUMANU AVE STE 1000,HI,96732
Sears,MINOT,2152,2152,2400 10TH ST SW,ND,58701-6997
Sears,MANTUA,2154,2154,222 BRIDGETON PIKE,NJ,8051
Sears,MARYVILLE,2156,2156,198 FOOTHILLS MALL,TN,37801-2310
Sears,EATONVILLE,2159,2159,101 MASHELL AVE N,WA,98328
Sears,CLARKSVILLE,2160,2160,757 LEWIS AND CLARK PK STE 702,IN,47129-7414
Sears,Hoffman Estates,2162,2162,3333 Beverly Road,IL,60179-0000
Sears,SIDNEY,2163,2163,171 DELAWARE AVE,NY,13838
Sears,HUNTSVILLE,2166,2166,5901 UNIVERSITY DR NW,AL,35806-2523
Sears,TRUCKEE,2169,2169,12047 DONNER PASS ROAD STE A3,CA,96161
Sears,LOGAN,2172,2172,150 HOCKING MALL,OH,43138
Sears,SARATOGA SPRINGS,2173,2173,3065 ROUTE 50,NY,12866-2960
Sears,GREENVILLE,2175,2175,3600 SOUTH MEMORIAL DRIVE,NC,27834-6756
Sears,PADUCAH,2176,2176,5101 HINKLEVILLE RD,KY,42001-9049
Sears,WICHITA FALLS,2177,2177,3111 MIDWESTERN PKWY STE 200,TX,76308-2816
Sears,MESQUITE,2178,2178,1085 W PIONEER BLVD STE 100,NV,89027-1500
Sears,MEDFORD,2179,2179,501 MEDFORD CTR,OR,97504-6004
Sears,TRAVERSE CITY,2180,2180,1212 S AIRPORT RD W,MI,49686-4759
Sears,SOUTH PORTLAND,2183,2183,400 MAINE MALL RD,ME,04106-3206
Sears,OXFORD,2186,2186,700 QUINTARD DR,AL,36203-1845
Sears,AUSTIN,2187,2187,9900 S I H 35 STE A300,TX,78748
Sears,LINCOLN,2191,2191,6400 O ST,NE,68510-2351
Sears,LINO LAKES,2192,2192,701 APOLLO DRIVE STE 130,MN,55014
Sears,COLUMBUS,2193,2193,4028 MORSE CROSSING,OH,43219
Sears,LAUREL,2194,2194,13600 BALTIMORE AVE STE 200,MD,20707
Sears,TITUSVILLE,2195,2195,3550 S WASHINGTON AVE,FL,32780-5627
Sears,TEXAS CITY,2197,2197,10000 EMMETT F LOWRY EXPY,TX,77591-2127
Sears,RACINE,2200,2200,5600 DURAND AVE,WI,53406-5053
Sears,WASHINGTON,2202,2202,4530-A 40TH STREET NW,DC,20016
Sears,BRUNSWICK,2203,2203,8 GURNET RD,ME,04011-2766
Sears,COOKEVILLE,2205,2205,377 W JACKSON ST STE 8,TN,38501-5922
Sears,ROSWELL,2207,2207,1000 S MAIN ST,NM,88203-5634
Sears,SANTA FE,2208,2208,4250 CERRILLOS RD,NM,87507-4697
Sears,GARDEN CITY,2210,2210,2310 E KANSAS AVE,KS,67846-6959
Sears,CEDAR RAPIDS,2212,2212,4600 1ST AVE NE,IA,52402-3210
Sears,KEY WEST,2215,2215,3200 N ROOSEVELT BLVD,FL,33040-4114
Sears,PINE BLUFF,2216,2216,2901 PINES MALL DR,AR,71601-7644
Sears,PRESCOTT,2218,2218,3400 GATEWAY BLVD,AZ,86303-5898
Sears,LACEY,2219,2219,651 SLEATER KINNEY RD SE 1300,WA,98503-1071
Sears,SAINT GEORGE,2220,2220,1770 E RED CLIFF DR,UT,84790
Sears,BARTLESVILLE,2221,2221,2350 SE WASHINGTON BLVD,OK,74006-7298
Sears,CHAMBERSBURG,2224,2224,400 CHAMBERSBURG MALL,PA,17201-8101
Sears,GOLDSBORO,2225,2225,703 N BERKELEY BLVD,NC,27534-3444
Sears,MURFREESBORO,2226,2226,1720 OLD FORT PKWY,TN,37129-3352
Sears,LAKE JACKSON,2227,2227,100 HWY 332 WEST STE 1096,TX,77566-4016
Sears,FORT SMITH,2231,2231,5111 ROGERS AVE,AR,72903-2047
Sears,MADISON,2232,2232,43 EAST TOWNE MALL C,WI,53704-3711
Sears,LAKE WORTH,2235,2235,6169 S JOG RD STE 8A -10A,FL,33467
Sears,DECATUR,2236,2236,1801 BELTLINE RD SW,AL,35601-5501
Sears,YUBA CITY,2238,2238,1235 COLUSA AVE,CA,95991-3600
Sears,VANCOUVER,2239,2239,8800 NE VANCOUVER MALL DR,WA,98662-6745
Sears,FAYETTEVILLE,2241,2241,4201 N SHILOH DR STE 98,AR,72703-5190
Sears,BILLINGS,2242,2242,1515 GRAND AVE,MT,59102-3027
Sears,HANOVER,2244,2244,1155 CARLISLE ST STE 5,PA,17331-1200
Sears,MELBOURNE,2245,2245,1050 S BABCOCK ST,FL,32901-3022
Sears,LAREDO,2247,2247,5300 SAN DARIO AVE,TX,78041-3098
Sears,CRYSTAL LAKE,2250,2250,105 NORTHWEST HIGHWAY,IL,60014-7951
Sears,MASON CITY,2252,2252,1720 S FEDERAL AVE,IA,50401-5753
Sears,LEBANON,2254,2254,1301 QUENTIN RD,PA,17042-7427
Sears,BILOXI,2256,2256,2600 BEACH BLVD STE 67,MS,39531-4601
Sears,SAN LUIS OBISPO,2258,2258,273 MADONNA RD,CA,93405-5430
Sears,MISSOULA,2259,2259,US HWY 93 AT GRANT ST,MT,59801
Sears,JOHNSON CITY,2265,2265,2011 N ROAN ST,TN,37601-3130
Sears,FORT COLLINS,2271,2271,205 E FOOTHILLS PKWY,CO,80525-2612
Sears,MILWAUKEE,2272,2272,5900 N PORT WASHINGTON RD A1,WI,53217-4521
Sears,IDAHO FALLS,2278,2278,2300 E 17TH ST,ID,83404-6504
Sears,CHEBOYGAN,2281,2281,982 SOUTH MAIN STREET,MI,49721
Sears,SWANSEA,2283,2283,262 SWANSEA MALL DR,MA,2777
Sears,BLOOMSBURG,2284,2284,225 COLUMBIA MALL DR,PA,17815
Sears,ANTIOCH,2288,2288,2600 SOMERSVILLE RD,CA,94509
Sears,MICHIGAN CITY,2290,2290,MARQUETTE S/C,IN,46360-7314
Sears,ENID,2291,2291,OAKWOOD MALL,OK,73703-4820
Sears,AUGUSTA,2293,2293,10 WHITTEN RD,ME,04330-6019
Sears,MERCED,2298,2298,1011 W OLIVE AVE,CA,95348-2422
Sears,ABERDEEN,2299,2299,1219 S BOONE ST,WA,98520-6738
Sears,KANSAS CITY,2301,2301,5415 NE ANTIOCH RD,MO,64119-2522
Sears,WESTOVER,2304,2304,9520 MALL RD,WV,26501-8524
Sears,ANDERSON,2305,2305,3101 N MAIN ST,SC,29621-2767
Sears,GADSDEN,2306,2306,1001 RAINBOW DR,AL,35901-5376
Sears,SANTA CRUZ,2308,2308,4015 CAPITOLA RD,CA,95062-2049
Sears,SILVERDALE,2309,2309,10315 SILVERDALE WAY NW,WA,98383-7670
Sears,NORMAN,2311,2311,3201 W MAIN ST,OK,73072-4847
Sears,JENSEN BEACH,2315,2315,3342 NW FEDERAL HWY US 1,FL,34957
Sears,FLORENCE,2316,2316,301 COX CREEK PKWY,AL,35630-1574
Sears,THOUSAND OAKS,2318,2318,145 W HILLCREST DR,CA,91360-4206
Sears,HYANNIS,2323,2323,793 IYANNOUGH ROAD RTE 132,MA,02601-5092
Sears,KENNEWICK,2329,2329,1321 N COLUMBIA CTR BL STE 455,WA,99336
Sears,PUYALLUP,2330,2330,3500 S MERIDIAN STE 900,WA,98373-3722
Sears,JEFFERSON CITY,2331,2331,3600 COUNTRY CLUB DR,MO,65109-1060
Sears,CLARKSVILLE,2335,2335,2801 WILMA RUDOLPH BLVD,TN,37040-5011
Sears,REDDING,2338,2338,1403 HILLTOP DR,CA,96003-4001
Sears,SPRINGFIELD,2339,2339,3030 GATEWAY ST,OR,97477-1027
Sears,CASPER,2341,2341,701 SE WYOMING BLVD,WY,82609-4213
Sears,KENOSHA,2342,2342,7630 PERSHING BLVD,WI,53142-4318
Sears,LANESBORO,2343,2343,RT8 655 CHESHIRE RD,MA,1237
Sears,STATE COLLEGE,2344,2344,2999 E COLLEGE AVE,PA,16801-7519
Sears,COEUR D ALENE,2349,2349,200 W HANLEY AVE,ID,83815-6703
Sears,SAINT CLOUD,2352,2352,4101 W DIVISION ST,MN,56301-6600
Sears,KINGSTON,2353,2353,1300 ULSTER AVE,NY,12401
Sears,VIENNA,2354,2354,500 GRAND CENTRAL AVE,WV,26105-2169
Sears,HATILLO,2355,2355,506 CALLE TRUNCADO,PR,00659-2701
Sears,FLAGSTAFF,2358,2358,4800 N US HIGHWAY 89,AZ,86004-2411
Sears,QUINCY,2360,2360,3400 QUINCY MALL,IL,62301-4640
Sears,GRAND JUNCTION,2361,2361,2424 HIGHWAY 6 AND 50,CO,81505-1109
Sears,DANVILLE,2362,2362,2917 N VERMILION ST,IL,61832-1366
Sears,CHEYENNE,2371,2371,1400 DEL RANGE BLVD,WY,82009-4801
Sears,SHEBOYGAN,2372,2372,3347 KOHLER MEMORIAL DR,WI,53081-3683
Sears,NORTH DARTMOUTH,2373,2373,100 N DARTMOUTH MALL,MA,02747-4204
Sears,VINELAND,2374,2374,8 W LANDIS AVE,NJ,08360-8100
Sears,BAY CITY,2380,2380,4125 WILDER RD,MI,48706-2240
Sears,LAWTON,2381,2381,428 SW C AVE,OK,73501
Sears,MADISON,2382,2382,53 W TOWNE MALL C,WI,53719-1019
Sears,SEAFORD,2383,2383,22954 SUSSEX HWY,DE,19973-1756
Sears,HILO,2388,2388,111 E PUAINAKO ST,HI,96720-5288
Sears,BURLINGTON,2389,2389,600 CASCADE MALL DR,WA,98233-3260
Sears,SPRINGFIELD,2390,2390,1475 UPPER VALLEY PIKE,OH,45504-4047
Sears,DES MOINES,2392,2392,1111 SE ARMY POST RD,IA,50315-5970
Sears,MANASSAS,2395,2395,8200 SUDLEY RD,VA,20109-3459
Sears,BISMARCK,2402,2402,2700 STATE ST,ND,58503-0669
Sears,RAPID CITY,2412,2412,2200 N MAPLE AVE,SD,57701-7856
Sears,CENTERVILLE,2415,2415,2930 WATSON BLVD,GA,31028-1245
Sears,ALBANY,2419,2419,2095 14TH AVE SE,OR,97322-8509
Sears,MARION,2420,2420,1377 MARION WALDO RD,OH,43302-7435
Sears,GRAND ISLAND,2421,2421,3404 W 13TH ST,NE,68803-2389
Sears,SIOUX CITY,2422,2422,4480 SERGEANT RD,IA,51106-4703
Sears,BRISTOL,2425,2425,500 GATE CITY HWY,VA,24201
Sears,WOODBRIDGE,2426,2426,2980 PRINCE WILLIAM PARKWAY,VA,22192
Sears,MANHATTAN,2430,2430,103 MANHATTAN TOWN CTR,KS,66502-6000
Sears,LA CROSSE,2432,2432,4200 US HWY 16,WI,54601
Sears,CHARLOTTESVILLE,2435,2435,1531 RIO RD E,VA,22901-1402
Sears,MANCHESTER,2443,2443,1500 S WILLOW ST,NH,03103-3220
Sears,LIMA,2450,2450,2400 ELIDA RD,OH,45805-1299
Sears,GREELEY,2451,2451,2800 GREELEY MALL,CO,80631-8517
Sears,GLENS FALLS,2453,2453,578 AVIATION RD,NY,12804-1814
Sears,CHESAPEAKE,2454,2454,4200 PORTSMOUTH BLVD,VA,23321-2100
Sears,LOGANSPORT,2460,2460,3902 E MARKET ST,IN,46947
Sears,WAUSAU,2470,2470,411 WASHINGTON ST,WI,54403-5548
Sears,COLUMBIA,2480,2480,2201 W WORLEY ST,MO,65203-1055
Sears,FORT GRATIOT,2482,2482,4460 24TH AVE,MI,48059-3809
Sears,BROOKSVILLE,2485,2485,13085 CORTEZ BLVD,FL,34613-7800
Sears,KILLEEN,2487,2487,2100 S W S YOUNG DR,TX,76543-5352
Sears,ALTOONA,2494,2494,5580 GOODS LANE STE 1005,PA,16602
Sears,BROWNSVILLE,2497,2497,2320 N EXPRESSWAY,TX,78526-1537
Sears,DULUTH,2500,2500,1600 MILLER TRUNK HWY,MN,55811-5640
Sears,GAINESVILLE,2505,2505,150 PEARL NIX PKWY,GA,30501-3548
Sears,MCALLEN,2507,2507,2200 S 10TH ST,TX,78503
Sears,SANDUSKY,2510,2510,4314 MILAN RD,OH,44870-5885
Sears,WARRENTON,2514,2514,141 WEST LEE HIGHWAY,VA,20186-2107
Sears,HICKORY,2515,2515,1940 US HIGHWAY 70 SE,NC,28602-5158
Sears,SAN ANGELO,2517,2517,4000 SUNSET MALL,TX,76904
Sears,TOMS RIVER,2524,2524,1201 HOOPER AVE,NJ,08753-3330
Sears,LAS CRUCES,2527,2527,700 S TELSHOR BLVD,NM,88011-4669
Sears,AUSTIN,2531,2531,10225 RESEARCH BLVD STE 200,TX,78759
Sears,PLATTSBURGH,2533,2533,60 SMITHFIELD BLVD,NY,12901-2110
Sears,HARLINGEN,2537,2537,2002 S EXPY 83,TX,78552
Sears,AURORA,2542,2542,6290 S MAIN STREET STE M-108,CO,80016
Sears,HERMITAGE,2544,2544,3245 E STATE ST,PA,16148-3324
Sears,BOWLING GREEN,2546,2546,2625 SCOTTSVILLE RD,KY,42104-4477
Sears,COLLEGE STATION,2547,2547,1502 HARVEY RD,TX,77840-3751
Sears,LONGVIEW,2557,2557,3510 MCCANN RD,TX,75605-4420
Sears,SANDY,2559,2559,9269 S VILLAGE SHOP DRIVE,UT,84094
Sears,ITHACA,2564,2564,40 CATHERWOOD RD,NY,14850-1056
Sears,BRADENTON,2565,2565,303 US HWY 301 BLVD W,FL,34205-7991
Sears,TEXARKANA,2567,2567,1 CENTRAL MALL,TX,75503
Sears,WILLISTON,2569,2569,2308 11TH AVE WEST,ND,58801
Sears,MUNCIE,2570,2570,3501 N GRANVILLE AVE,IN,47303-1263
Sears,JERSEYVILLE,2572,2572,1679 S STATE STREET,IL,62052
Sears,PHILLIPSBURG,2574,2574,1200 US RT 22 - STE 100,NJ,8865
Sears,LUFKIN,2577,2577,4600 S MEDFORD DR,TX,75901-5613
Sears,LEBANON,2579,2579,2582 S SANTIAM HWY,OR,97355
Sears,BANGOR,2583,2583,693 STILLWATER AVE,ME,04401-3606
Sears,LAKEWOOD,2584,2584,RT 394 & HUNT BLVD,NY,14750
Sears,DENTON,2587,2587,2201 INTERSTATE 35E S,TX,76205
Sears,HUTCHINSON,2590,2590,1500 E 11TH AVE STE 4000,KS,67501-3783
Sears,NEWBURGH,2593,2593,1401 ROUTE 300,NY,12550
Sears,FARMINGTON,2597,2597,4601 E MAIN ST,NM,87402-8667
Sears,TERRE HAUTE,2600,2600,3401 S US HIGHWAY 41,IN,47802-4154
Sears,CONCORD,2601,2601,1480 HIGHWAY 29 N,NC,28025-2815
Sears,ROCHESTER,2602,2602,1001 APACHE MALL,MN,55902-2178
Sears,NEW HARTFORD,2603,2603,RT 5 & 5A,NY,13413
Sears,WILKES BARRE,2604,2604,88 WYOMING VALLEY MALL RR115,PA,18711
Sears,STATE COLLEGE,2605,2605,183 SHILOH RD,PA,16801-7519
Sears,SIERRA VISTA,2607,2607,2250 EL MERCADO LOOP,AZ,85635-5204
Sears,MILFORD,2608,2608,1201 BOSTON POST/CONN PT 2095,CT,6460
Sears,HEMET,2609,2609,2200 W FLORIDA AVE,CA,92545-3666
Sears,WEST PALM BEACH,2610,2610,4340 OKEECHOBEE BLVD,FL,33409
Sears,ISELIN,2611,2611,835 RTE 1 SOUTH,NJ,08830-2607
Sears,FRISCO,2612,2612,2605B PRESTON RD-STONEBRIAR ML,TX,75034-9434
Sears,SOUTH BURLINGTON,2613,2613,225 DORSET ST-UNIVERSITY MALL,VT,5403
Sears,UNIONTOWN,2614,2614,1500 MALL RUN RD,PA,15401-2638
Sears,DALTON,2615,2615,816 WALNUT SQUARE BLVD STE A,GA,30721-4500
Sears,FALLS CHURCH,2616,2616,6211 LEESBURG PIKE,VA,22044-2107
Sears,VICTORIA,2617,2617,7508 N NAVARRO ST,TX,77904-2654
Sears,STEUBENVILLE,2618,2618,FT STEUBEN ML -100 MALL DR,OH,43952
Sears,WEST COVINA,2619,2619,610 S SUNSET AVE,CA,91790-2806
Sears,CROFTON,2620,2620,1647 CROFTON CENTRE,MD,21114
Sears,AMHERST,2621,2621,1435 NIAGARA FALLS BLVD,NY,14228-2701
Sears,ELMHURST,2622,2622,9020 QUEENS BLVD,NY,11373-4941
Sears,RUTLAND,2623,2623,82 DIAMOND RUN PLACE,VT,5701
Sears,CAMP HILL,2624,2624,3595 CAPITAL CITY MALL,PA,17011-7011
Sears,COLLEGE POINT,2626,2626,131-08 20TH AVE,NY,11356-2437
Sears,SHERMAN,2627,2627,4800 TEXOMA PKWY STE 800,TX,75090-2089
Sears,EUREKA,2628,2628,3300 BROADWAY,CA,95501-3809
Sears,ROSEVILLE,2629,2629,1161 GALLERIA BLVD,CA,95678-1935
Sears,LAKE CHARLES,2630,2630,688 W PRIEN LAKE RD,LA,70601-8316
Sears,PROVO,2631,2631,1200 TOWNE CENTRE BLVD STE T,UT,84601-5947
Sears,FAIRVIEW HEIGHTS,2632,2632,317 LINCOLN HWY,IL,62208
Sears,EXTON,2633,2633,435 EXTON SQUARE PKWY,PA,19341-2448
Sears,CHARLOTTE,2634,2634,9821 NORTHLAKE CTR PKWY STE L,NC,28216
Sears,PORT ARTHUR,2637,2637,3100 HIGHWAY 365,TX,77642-7724
Sears,MUSKEGON,2638,2638,5500 HARVEY ST,MI,49444-8765
Sears,CLOVIS,2639,2639,1140 SHAW AVE,CA,93612-3944
Sears,PIQUA,2640,2640,987 E ASH ST-STE 170-MIAMI VLY,OH,45356
Sears,GARDEN CITY,2641,2641,2310 E KANSAS AVE,KS,67846-6959
Sears,MIDLAND,2642,2642,6810 EASTMAN AVE,MI,48642-7805
Sears,DULLES,2643,2643,20990 DULLES TOWN CIRCLE,VA,20166
Sears,PENNSDALE,2644,2644,300 LYCOMING MALL CIR STE 100,PA,17756-8072
Sears,ASHEBORO,2645,2645,1437 EAST DIXIE DR,NC,27203-0611
Sears,BOWIE,2647,2647,15700 EMERALD WAY,MD,20716-2200
Sears,PHOENIX,2648,2648,4469 E THOMAS RD,AZ,85018-7612
Sears,VENTURA,2649,2649,BUENAVENTURA ML-3310 TELEGRAPH,CA,93003
Sears,GRAND FORKS,2652,2652,2800 S COLUMBIA RD-COLUMBIA ML,ND,58201
Sears,SAINT GEORGE,2653,2653,528 N MALL DR,UT,84790-8129
Sears,DOVER,2654,2654,1000 DOVER MALL,DE,19901
Sears,GASTONIA,2655,2655,160 N NEW HOPE RD,NC,28054-4755
Sears,HANFORD,2656,2656,HANFORD MALL - 1545 MALL DRIVE,CA,93230
Sears,MIDLAND,2657,2657,4511 N MIDKIFF RD SP C,TX,79705-3256
Sears,TEMECULA,2658,2658,40680 WINCHESTER RD(PROMENADE),CA,92591
Sears,BROCKTON,2659,2659,200 WESTGATE DR,MA,02301-1810
Sears,COLUMBUS,2661,2661,1400 POLARIS PKWY,OH,43240-2040
Sears,DURHAM,2662,2662,8060 RENAISSANCE PKWY,NC,27713
Sears,NEWINGTON,2663,2663,50 FOX RUN RD STE 74,NH,03801-2858
Sears,FREDERICK,2664,2664,5500 BUCKEYSTOWN PIKE,MD,21703-8331
Sears,SEBRING,2665,2665,LAKE SHORE/901 US 27 N-STE 130,FL,33870
Sears,AUBURN,2666,2666,1579 CLARK ST-FINGERLAKES MALL,NY,13022
Sears,LITHONIA,2667,2667,8020 MALL PKWY,GA,30038-2542
Sears,GLENDALE,2668,2668,7785 ARROWHEAD CENTER,AZ,85308-8612
Sears,PERU,2669,2669,1607 36TH ST,IL,61354-1232
Sears,PEORIA,2670,2670,2200 W WAR MEMORIAL DR,IL,61613-0001
Sears,GRANDVILLE,2671,2671,3980 RIVERTOWN PKWY SW,MI,49418-3072
Sears,RALEIGH,2672,2672,7320 OLD WAKE FOREST RD,NC,27616-3047
Sears,TAMPA,2673,2673,7902 CITRUS PARK TOWN CTR ML,FL,33625
Sears,INDIANA,2674,2674,2334 OAKLAND AVE STE 1,PA,15701-3348
Sears,GUAYAMA,2675,2675,ROAD 3 KM.L34.7,PR,784
Sears,BOSSIER CITY,2677,2677,2950 E TEXAS ST,LA,71111-3288
Sears,CHANDLER,2678,2678,3175 W CHANDLER VLG DR,AZ,85226
Sears,TOMS RIVER,2679,2679,213 STATE HWY 37E,NJ,8753
Sears,PUEBLO,2681,2681,3201 DILLON DR,CO,81008-1005
Sears,PITTSBURGH,2682,2682,1500 ROBINSON CENTER DR,PA,15205-4840
Sears,WATERTOWN,2683,2683,21182 SALMON RUN MALL LOOP W,NY,13601
Sears,FRACKVILLE,2684,2684,ROUTE 61 AND 81,PA,17931
Sears,NASHVILLE,2685,2685,7602 HWY 70 S - BELLEVUE MALL,TN,37221
Sears,DOUGLASVILLE,2686,2686,ARBOR PL ML- 6550 DOUGLAS BLVD,GA,30135-1507
Sears,ALBUQUERQUE,2687,2687,10129 COORS BLVD,NM,87114
Sears,HAGERSTOWN,2688,2688,17316 VALLEY MALL RD,MD,21740-6935
Sears,MANASSAS,2689,2689,8200 SUDLEY RD,VA,20109-3459
Sears,FORSYTH,2690,2690,1205 HICKORY POINT MALL,IL,62535
Sears,OVIEDO,2691,2691,1370 OVIEDO MARKETPLACE BLVD,FL,32765-7473
Sears,ANNAPOLIS,2692,2692,1040 ANNAPOLIS MALL,MD,21401-3061
Sears,FREDERICKSBURG,2694,2694,100 SPOTSYLVANIA MALL,VA,22407-1126
Sears,NAPLES,2695,2695,2000 9TH ST N,FL,34102-4816
Sears,HOUMA,2696,2696,5953 W PARK AVE STE 2000,LA,70364
Sears,CINCINNATI,2697,2697,4459 EASTGATE BLVD,OH,45245-1529
Sears,CHICAGO,2698,2698,7412 S CICERO AVE,IL,60629-5819
Sears,FORT WORTH,2699,2699,4950 S HULEN ST,TX,76132-1408
Sears,LINCOLN,2701,2701,2790 WOODLAWN ROAD,IL,62656
Sears,MIDDLEBURY,2702,2702,383 EXCHANGE STREET,VT,5753
Sears,MOUNT HOPE,2704,2704,100 CROSSROADS MALL,WV,25880-9668
Sears,FLORENCE,2705,2705,2701 DAVID H MCLEOD BLVD,SC,29501-4028
Sears,DACULA,2706,2706,832 DACULA RD,GA,30019
Sears,TOA BAJA,2707,2707,BARRIO CANDELARIA KM 18.3,PR,949
Sears,ALVIN,2709,2709,2625 SOUTH LOOP 35 STE 120,TX,77511
Sears,KOKOMO,2710,2710,1235 S REED RD,IN,46902
Sears,SAINT JOSEPH,2712,2712,3702 FREDERICK AVE,MO,64506-3083
Sears,BLUEFIELD,2714,2714,261 MERCER MALL RD STE 2,WV,24701
Sears,SALEM,2715,2715,955 LANCASTER DR NE,OR,97301
Sears,COLUMBUS,2717,2717,5555 WHITTLESEY BLVD STE 3000,GA,31909
Sears,PRESCOTT,2718,2718,3400 GATEWAY BLVD,AZ,86303-2848
Sears,SAVANNAH,2723,2723,1094 WAYNE ROAD,TN,38372
Sears,BUTLER,2724,2724,101 CLEARVIEW CIR UNIT 6,PA,16001-1584
Sears,HENDERSON,2726,2726,1640 SECOND STREET,KY,42420
Sears,MYRTLE BEACH,2727,2727,1100 COASTAL GRAND CIRCLE,SC,29577
Sears,DOWNEY,2728,2728,600 STONEWOOD,CA,90241
Sears,SAN JOSE,2729,2729,877 BLOSSOM HILL RD,CA,95123
Sears,COLUMBIA,2730,2730,813 US HWY 98,MS,39429
Sears,NORTH RIVERSIDE,2732,2732,7503 W CERMAK RD,IL,60546-1405
Sears,COVINGTON,2733,2733,1921 APPLEBEE WAY,VA,24426
Sears,CRANBERRY,2734,2734,6945 US 322,PA,16319
Sears,MOUNTAIN VIEW,2736,2736,107 MEADOW VIEW DRIVE,AR,72560
Sears,LEESVILLE,2738,2738,900 NORTH 5TH STREET SUITE 12,LA,71446
Sears,AZLE,2739,2739,601 NORTHWEST PKWY STE 3,TX,76020
Sears,MASSAPEQUA,2741,2741,34 CARMANS RD,NY,11758-4701
Sears,COON RAPIDS,2742,2742,12737 RIVERDALE BLVD NW,MN,55448-1253
Sears,DENVER,2743,2743,2500 E 2ND AVE,CO,80206
Sears,HORSEHEADS,2744,2744,3300 CHAMBERS RD,NY,14845-1404
Sears,LEESBURG,2745,2745,10401 US HIGHWAY 441 STE 2002,FL,34788-7252
Sears,LAKE PARK,2747,2747,1220 NORTHLAKE BLVD,FL,33403
Sears,ST CROIX,2748,2748,SUNNY ISLE SHOPPING CENTER,VI,820
Sears,EL CENTRO,2749,2749,603 E DANENBERG DR,CA,92243
Sears,LANCASTER,2750,2750,1701 RIVER VALEY CIRCLE S,OH,43130-1470
Sears,SALEM,2751,2751,2350 E STATE STREET STE 525,OH,44460
Sears,GURNEE,2752,2752,6136 W GRAND AVE,IL,60031
Sears,HUNTINGDON,2753,2753,7495 HUNTINGDON PLAZA,PA,16652
Sears,HENDERSON,2754,2754,1511 W SUNSET RD,NV,89014-6636
Sears,JACKSONVILLE,2755,2755,344 JACKSONVILLE MALL,NC,28546-7350
Sears,AUSTIN,2757,2757,12625 N I-H 35,TX,78753
Sears,LAS VEGAS,2758,2758,4355 GRAND CANYON DR,NV,89147
Sears,DAVENPORT,2760,2760,320 W KIMBERLY RD,IA,52806-4055
Sears,WELLINGTON,2761,2761,1108 E 16TH STREET,KS,67152
Sears,CAPE GIRARDEAU,2762,2762,330 SIEMERS DR,MO,63703
Sears,DAVENPORT,2763,2763,323 RESEARCH PARKWAY,IA,52804-7343
Sears,BRONX,2764,2764,404 E FORDHAM ROAD,NY,10458
Sears,TAMPA,2765,2765,599 WESTSHORE PLZ MALL,FL,33609-1812
Sears,RANCHO CUCAMONGA,2768,2768,FOOTHILL CROSSING,CA,91739
Sears,MANAHAWKIN,2769,2769,733 STATE RTE 72E,NJ,8050
Sears,WHITE PLAINS,2771,2771,100 MAIN ST,NY,10601
Sears,CUMBERLAND,2774,2774,1262 VOCKE RD,MD,21502-7799
Sears,MOSS POINT,2776,2776,7827 HWY 613,MS,39563
Sears,WEST JORDAN,2778,2778,7453 S PLAZA CTR DR,UT,84088
Sears,GOSHEN,2780,2780,2014 LINCOLNWAY EAST SUITE 2,IN,46526
Sears,THORNTON,2781,2781,16395 WASHINGTON ST,CO,80020
Sears,WINCHESTER,2784,2784,1850 APPLE BLOSSOM DR,VA,22601-5187
Sears,MIAMI,2785,2785,13550 SW 120TH ST - BAY 418,FL,33186
Sears,MAYAGUEZ,2787,2787,975 HOSTOS AVE STE 110 MALL,PR,00680-1259
Sears,PONCE,2788,2788,PONCE BY PASS STE 135,PR,731
Sears,SAN JUAN,2789,2789,PLAZA LAS AMERICAS,PR,00918-8001
Sears,FINDLAY,2790,2790,1800 TIFFIN AVE,OH,45840-6789
Sears,MIDDLETOWN,2791,2791,545 WASHINGTON STREET,CT,06457-2512
Sears,SPRINGFIELD,2792,2792,6364 SPRINGFIELD PLAZA,VA,22150
Sears,TARENTUM,2793,2793,289 PITTSBURGH MILLS CIRCLE,PA,15084
Sears,TUSCALOOSA,2796,2796,1701 MCFARLAND BLVD E STE 207,AL,35404-5825
Sears,PALM DESERT,2798,2798,44430 TOWN CENTER WAY,CA,92260
Sears,BOURBONNAIS,2802,2802,1602 STATE RD 50,IL,60914
Sears,PANAMA CITY,2805,2805,733 N HIGHWAY 231,FL,32405-5302
Sears,ROCK HILL,2807,2807,2197 DAVE LYLE BLVD,SC,29730
Sears,GREAT FALLS,2808,2808,1200 10TH AVE S,MT,59405-4471
Sears,ALBANY,2815,2815,2601 DAWSON RD BLDG G,GA,31707-1674
Sears,FAIRBANKS,2819,2819,3115 AIRPORT WAY,AK,99709-4755
Sears,BLOOMINGTON,2820,2820,2812 E 3RD ST,IN,47401-5423
Sears,BALTIMORE,2823,2823,7885 EASTERN BLVD,MD,21224
Sears,CARY,2824,2824,1105 WALNUT ST STE 600,NC,27511-4769
Sears,KINGSPORT,2825,2825,2101 FORT HENRY DR,TN,37664-3658
Sears,BRIDGEPORT,2826,2826,225 MEADOWBROOK RD,WV,26330
Sears,VICTORVILLE,2829,2829,14420 BEAR VALLEY RD,CA,92392-5404
Sears,BLOOMINGTON,2840,2840,1631 E EMPIRE ST,IL,61701-3531
Sears,SHELBY,2844,2844,2001 E DIXON BLVD,NC,28152-6939
Sears,ATHENS,2845,2845,3700 ATLANTA HWY STE 270,GA,30606-7428
Sears,CHILLICOTHE,2850,2850,1075 N BRIDGE ST,OH,45601-1763
Sears,ASHLAND,2854,2854,10699 US ROUTE 60,KY,41102-8650
Sears,CHARLESTON,2855,2855,2068 SAM RITTENBERG BLVD,SC,29407-4616
Sears,SIOUX FALLS,2872,2872,3400 EMPIRE MALL,SD,57106-6504
Sears,FRANKLIN,2875,2875,1800 GALLERIA BLVD STE 4000,TN,37067-6281
Sears,PORT RICHEY,2885,2885,9409 US HIGHWAY 19 N STE 101,FL,34668-4626
Sears,CLOVIS,2888,2888,2811 N PRINCE ST,NM,88101-4481
Sears,ROME,2895,2895,2770 MARTHA BERRY HWY NE,GA,30165-7751
Sears,WALNUTPORT,2902,2902,400 NORTH BEST AVENUE,PA,18088
Sears,CORONA,2908,2908,705 N MAIN ST,CA,92880-1440
Sears,GALESBURG,2910,2910,1150 W CARL SANDBURG DR,IL,61401-1387
Sears,BAYAMON,2911,2911,AVE AGUAS BUENAS SANTA ROSA ML,PR,959
Sears,LAYTON,2914,2914,756 N MAIN STREET,UT,84041
Sears,CHAMPAIGN,2920,2920,2000 N NEIL ST,IL,61820-7808
Sears,MARION,2922,2922,3000 W DEYOUNG STE 500,IL,62959-5551
Sears,HOPEWELL,2923,2923,5301 OAKLAWN BLVD,VA,23860-7348
Sears,RICHMOND,2928,2928,4920 W BROAD STREET,VA,23230-3115
Sears,WENTZVILLE,2930,2930,1890 WENTZVILLE PKWY,MO,63385
Sears,MATTOON,2931,2931,700 BROADWAY AVE E STE 16,IL,61938-4617
Sears,NEW HYDE PARK,2933,2933,1400 UNION TPKE,NY,11040-1761
Sears,TAUNTON,2934,2934,8 GALLERIA MALL DR,MA,02780-3758
Sears,GOLDSBORO,2937,2937,201 N BERKELEY BLVD,NC,27534
Sears,BILOXI,2939,2939,2600 BEACH ROAD,MS,39531
Sears,FRANKLIN,2940,2940,3457 TOWNE BLVD,OH,45005-5512
Sears,DECORAH,2941,2941,1001 SHORT STREET,IA,52101
Sears,ASHTABULA,2942,2942,3315 N RIDGE UNIT 100,OH,44004
Sears,HAGERSTOWN,2945,2945,17318 VALLEY MALL RD,MD,21740-6935
Sears,OWENSBORO,2950,2950,5000 FREDERICA ST STE 35,KY,42301-7424
Sears,WESTMINSTER,2963,2963,400 N CENTER ST,MD,21157-5140
Sears,ANDERSON,2971,2971,2015 UNIVERSITY BLVD,IN,46012
Sears,CLIFTON PARK,2972,2972,54 CROSSING BLVD,NY,12065
Sears,LOUISVILLE,2982,2982,4915 DIXIE HIGHWAY,KY,40216-2501
Sears,ROCKFORD,2990,2990,7200 HARRISON AVE,IL,61112-1017
Sears,OZARK,2991,2991,1759 JAMES RIVER ROAD,MO,65721
Sears,DELTA,3000,3000,208 UTE ST,CO,81416-1900
Sears,NEVADA,3001,3001,1909 E AUSTIN BLVD,MO,64772-4208
Sears,FREEPORT,3002,3002,1844 S WEST AVE,IL,61032-6712
Sears,WINDHAM,3003,3003,771 ROOSEVELT TRAIL STE 4,ME,04062-5373
Sears,CUMMING,3004,3004,1674 MARKETPLACE BLVD,GA,30041
Sears,SNELLVILLE,3005,3005,1905 SCENIC HWY STE C,GA,30078
Sears,HARPERS FERRY,3006,3006,ROUTE 340 AND HALLTOWN ROAD,WV,25425
Sears,MONTICELLO,3007,3007,749 WALMART ACCESS RD,AR,71655-4063
Sears,CHANDLER,3008,3008,2100 S GILBERT RD STE 7,AZ,85286
Sears,BRANSON WEST,3010,3010,19014 BUSINESS 13,MO,65737
Sears,COLUMBUS,3011,3011,4300 23RD ST,NE,68601-8508
Sears,MALDEN,3012,3012,1206 N DOUGLASS ST,MO,63863-1352
Sears,CUMMING,3015,3015,2569 PEACHTREE PARKWAY STE 270,GA,30041
Sears,DECHERD,3016,3016,2130 DECHERD BLVD,TN,37324-3820
Sears,PAYSON,3017,3017,113 E HWY 260,AZ,85541
Sears,RIVERTON,3018,3018,801 N FEDERAL BLVD,WY,82501-2912
Sears,COLVILLE,3019,3019,702 HWY 395 NORTH,WA,99114
Sears,WOOSTER,3020,3020,2995 CLEVELAND RD,OH,44691-1654
Sears,JASPER,3021,3021,220 BADEN STRASSE,IN,47546-9567
Sears,EFFINGHAM,3022,3022,1306 THELMA KELLER AVE,IL,62401-4582
Sears,RONCEVERTE,3023,3023,RR 1 BOX 17A,WV,24970-9704
Sears,HORNELL,3024,3024,7451 SENECA RD,NY,14843
Sears,LIBERTY,3026,3026,2323 N MAIN ST,TX,77575-3901
Sears,GROVE,3028,3028,1717 S BROADWAY ST,OK,74344-2824
Sears,LAKEPORT,3029,3029,2570 SOUTH MAIN ST,CA,95453-4118
Sears,OSKALOOSA,3030,3030,211 HWY 432,IA,52577
Sears,CARSON CITY,3031,3031,3917 N CARSON STREET,NV,89706
Sears,BEATRICE,3032,3032,1200 N 6TH ST STE C,NE,68310-2019
Sears,CLAREMONT,3033,3033,367 WASHINGTON ST,NH,3743
Sears,STILLWATER,3036,3036,913 E 6TH AVE,OK,74074-3819
Sears,COTTONWOOD,3037,3037,1427 E HIGHWAY 89A,AZ,86326-4504
Sears,OROVILLE,3038,3038,2140 FEATHER RIVER BLVD,CA,95965-5738
Sears,MADERA,3039,3039,1820 HOWARD RD,CA,93637
Sears,SIKESTON,3040,3040,1016 LINN ST,MO,63801-2223
Sears,WAUPACA,3042,3042,815 W FULTON STREET,WI,54981-1471
Sears,ROCHESTER,3043,3043,13 LILAC MALL RR 125,NH,3867
Sears,BENNINGTON,3044,3044,MONUMENT PLAZA,VT,5201
Sears,LA PLACE,3047,3047,105 CARROLLWOOD DR,LA,70068-3339
Sears,RAMONA,3048,3048,220 ROTANZI ST,CA,92065-2583
Sears,CLEARLAKE,3049,3049,15875 DAM ROAD EXT,CA,95422
Sears,HASTINGS,3050,3050,930 SOUTH BURLINGTON STE 100,NE,68901
Sears,AURORA,3051,3051,1612 S ELLIOTT AVE,MO,65605-2148
Sears,CENTER CONWAY,3053,3053,529 EASTMAN RD,NH,3813
Sears,ELLSWORTH,3054,3054,60 DOWNEAST HWY STE2,ME,04605-1850
Sears,SENECA,3055,3055,366 MARKET ST,SC,29678
Sears,PRINCETON,3056,3056,1607 W BROADWAY,IN,47670
Sears,BATESVILLE,3057,3057,2395 HARRISON ST,AR,72501-7420
Sears,PRICE,3058,3058,74 S CARBON AVE,UT,84501-2802
Sears,KLAMATH FALLS,3059,3059,4311 S 6TH ST,OR,97603-4863
Sears,PONTIAC,3061,3061,701 S NEWPORT RD,IL,61764-9691
Sears,PITTSBURG,3062,3062,2524 NORTH BROADWAY,KS,66762
Sears,WEST JEFFERSON,3065,3065,203 E 1ST ST,NC,28694
Sears,MURRAY,3066,3066,912 S 12TH ST,KY,42071-2949
Sears,BURLINGTON,3067,3067,2700 MOUNT PLEASANT ST STE 32,IA,52601-2182
Sears,KIRKSVILLE,3072,3072,2216 S BALTIMORE ST,MO,63501-4629
Sears,CAPE MAY,3073,3073,3845 BAYSHORE RD,NJ,08204-3261
Sears,GROVE CITY,3074,3074,27 PINE GROVE SQ,PA,16127-4447
Sears,CULLMAN,3075,3075,1726-A CHEROKEE AVE SW,AL,35055
Sears,LONDON,3076,3076,845B S MAIN ST,KY,40741-1996
Sears,LA JUNTA,3078,3078,310 COLORADO AVE,CO,81050-3608
Sears,TURLOCK,3079,3079,2353 W MAIN STREET,CA,95380-9431
Sears,WATERTOWN,3080,3080,1720 S CHURCH ST,WI,53094-7404
Sears,PLYMOUTH,3081,3081,2940 MILLER DRIVE,IN,46563
Sears,INDEPENDENCE,3082,3082,300 PENN ST,KS,67301
Sears,QUAKERTOWN,3083,3083,240-4 S WEST END BLVD,PA,18951-2307
Sears,COSHOCTON,3084,3084,480 DOWNTOWNER PLZ,OH,43812-1929
Sears,DEKALB,3085,3085,2359 SYCAMORE ROAD,IL,60115
Sears,SOUTH WILLIAMSON,3086,3086,275 SOUTHSIDE MALL RD STE 10B,KY,41503-3905
Sears,CAMDEN,3087,3087,150 GARDEN OAKS DR,AR,71701
Sears,SUNNYSIDE,3088,3088,1702 GREGORY AVE EXT,WA,98944-1660
Sears,KINGMAN,3089,3089,3140 N STOCKTON HILL RD STE B,AZ,86401
Sears,BRYAN,3091,3091,1429 W HIGH ST,OH,43506-1594
Sears,LE MARS,3092,3092,26 1ST AVE SW,IA,51031-3514
Sears,BATH,3093,3093,7172 RET 54,NY,14810-0614
Sears,BEDFORD,3094,3094,9525 LINCOLN HWY,PA,15522-3708
Sears,GLOUCESTER,3095,3095,6555 MARKET DRIVE,VA,23061
Sears,CLARKSVILLE,3097,3097,605 WEST MAIN STREET,AR,72830
Sears,MACOMB,3099,3099,1325 E JACKSON,IL,61455
Sears,FORT MADISON,3100,3100,704 AVENUE G,IA,52627-2927
Sears,AURORA,3101,3101,513 GREEN BLVD,IN,47001
Sears,FREMONT,3102,3102,7147 W 48TH ST,MI,49412-9191
Sears,RINGOES,3103,3103,176 HIGHWAY 202 & 31,NJ,8551
Sears,POTSDAM,3104,3104,6586 STATE HIGHWAY 56,NY,13676-3510
Sears,ANDALUSIA,3105,3105,204 W BYPASS,AL,36420-2512
Sears,HAZARD,3106,3106,450 VILLAGE LN,KY,41701-9405
Sears,EL DORADO,3107,3107,2020 NORTHWEST AVE,AR,71730
Sears,ENUMCLAW,3108,3108,1005 STEVENSON AVE,WA,98022-2912
Sears,FORT BRAGG,3109,3109,362 N FRANKLIN ST,CA,95437-3402
Sears,WILLMAR,3111,3111,1605 1ST STREET SO STE C6,MN,56201-4234
Sears,CONNERSVILLE,3112,3112,105 W 24TH ST,IN,47331-2940
Sears,BUCKHANNON,3113,3113,237 S KANAWHA ST,WV,26201-2356
Sears,ELKINS,3114,3114,1611 HARRISON AVE,WV,26241-8503
Sears,SELMA,3115,3115,2908 CITIZENS PKWY,AL,36701-3915
Sears,MCDONOUGH,3116,3116,1563 HWY 20 W,GA,30253
Sears,FORREST CITY,3117,3117,828 N WASHINGTON ST,AR,72335-2855
Sears,RED BLUFF,3119,3119,570 S MAIN ST,CA,96080-4301
Sears,CORYDON,3120,3120,1480 N OLD HIGHWAY 135,IN,47112-2001
Sears,NAMPA,3121,3121,3309 CALDWELL BLVD,ID,83651-6426
Sears,EL DORADO,3122,3122,130 N MAIN ST,KS,67042-2016
Sears,CHESTERTOWN,3123,3123,19 WASHINGTON SQ,MD,21620-1041
Sears,SAINT ALBANS,3124,3124,364 SWANTON RD,VT,5478
Sears,FORT PAYNE,3125,3125,2630 ALABAMA AVE NW,AL,35967-3707
Sears,DANVILLE,3126,3126,804 S 4TH ST,KY,40422-2129
Sears,HARRISON,3127,3127,1320 N MAIN ST,AR,72601-2211
Sears,GRASS VALLEY,3129,3129,129 IDAHO MARYLAND RD,CA,95945-5813
Sears,SPRINGVILLE,3134,3134,14218 ROUTE 219,NY,14141-9740
Sears,ALBERTVILLE,3135,3135,5850 US HIGHWAY 431 STE 6,AL,35950-2049
Sears,SOMERSET,3136,3136,370 S HIGHWAY 27 STE 9,KY,42501-2774
Sears,MANTECA,3138,3138,273 SPRECKELS AVE,CA,95336
Sears,WEST BRANCH,3140,3140,2711 I 75 BUSINESS LOOP,MI,48661-9322
Sears,RIFLE,3141,3141,1900 AIRPORT RD,CO,81650
Sears,OTTAWA,3142,3142,4103 HOLIDAY LN,IL,61350-9547
Sears,HAMMONTON,3143,3143,240 SOUTH WHITE HORSE PIKE,NJ,08037-1892
Sears,MITCHELL,3144,3144,700 WEST SPRUCE,SD,57301
Sears,JASPER,3145,3145,724 PARKLAND S/C N,AL,35501
Sears,PIKEVILLE,3146,3146,170 TOWN MOUNTAIN RD STE 1,KY,41501-1609
Sears,MOUNTAIN HOME,3147,3147,1029 HIGHWAY 62 E STE 1,AR,72653-3273
Sears,WARSAW,3148,3148,461 N MAIN ST,NY,14569-1032
Sears,AUBURN,3149,3149,415 GRASS VALLEY HWY,CA,95603-3713
Sears,SUMMERFIELD,3150,3150,16750 SOUTH HWY 441,FL,34491
Sears,BURLEY,3151,3151,2338 OVERLAND AVE,ID,83318
Sears,MADISON,3152,3152,419 CLIFTY DRIVE,IN,47250
Sears,WEST LEBANON,3153,3153,250 PLAINFIELD RD,NH,3784
Sears,HENDERSON,3156,3156,1535 DABNEY DR,NC,27536-2907
Sears,PARAGOULD,3157,3157,1721 PARAGOULD PLZ,AR,72450-4033
Sears,OTHELLO,3158,3158,730 E MAIN ST,WA,99344-1444
Sears,SONORA,3159,3159,14691 MONO WAY,CA,95370-9220
Sears,WATERTOWN,3160,3160,1101 JENSON AVE,SD,57201-5259
Sears,MARINETTE,3161,3161,1435 CLEVELAND AVE,WI,54143
Sears,ALEXANDRIA,3162,3162,2819 HIGHWAY 29 S,MN,56308-3445
Sears,WATERVILLE,3163,3163,192 COLLEGE AVE,ME,04901-4922
Sears,SCOTTSBORO,3165,3165,158 MICAH WAY,AL,35769
Sears,ABERDEEN,3166,3166,1377 N SANDHILLS BLVD,NC,28315-2211
Sears,RUSSELLVILLE,3167,3167,920 S ARKANSAS AVE,AR,72801-6012
Sears,MONTROSE,3168,3168,1445 HAWK PKWY,CO,81401-6440
Sears,PLACERVILLE,3169,3169,384 PLACERVILLE DR STE C,CA,95667-3939
Sears,GAYLORD,3170,3170,1150 S OTSEGO AVE,MI,49735-8434
Sears,RED WING,3171,3171,1919 OLD WEST MAIN ST,MN,55066-2072
Sears,KENDALLVILLE,3172,3172,550 FAIRVIEW BLVD,IN,46755-2969
Sears,MOREHEAD,3173,3173,1370 FLEMINGSBURG RD,KY,40351-1810
Sears,FORT KENT,3174,3174,204 W MAIN ST,ME,04743-1119
Sears,PALATKA,3175,3175,904 S STATE ROAD 19,FL,32177-9394
Sears,CROSSVILLE,3176,3176,1860 N MAIN ST,TN,38555-8763
Sears,GILROY,3178,3178,835 FIRST ST,CA,95020
Sears,RIDGECREST,3179,3179,120 N CHINA LAKE BLVD,CA,93555-4368
Sears,SAULT S MARIE,3180,3180,1140 W 3 MILE RD,MI,49783-9132
Sears,LAKE GENEVA,3181,3181,351 PELLER ROAD,WI,53147-4544
Sears,MENOMONIE,3182,3182,2521 HILS CT STE A,WI,54751-1129
Sears,PARIS,3186,3186,1060 MINERAL WELLS AVE,TN,38242
Sears,SEARCY,3187,3187,2310 E. RACE AVE,AR,72143-4785
Sears,STERLING,3188,3188,130 BROADWAY ST,CO,80751-2757
Sears,SHAWANO,3189,3189,822 E GREEN BAY ST,WI,54166
Sears,BURNHAM,3190,3190,325 W FREEDOM AVE STE 115,PA,17009
Sears,RHINELANDER,3191,3191,908 LINCOLN ST,WI,54501
Sears,CENTERVILLE,3192,3192,1005 NORTH 18TH STREET STE A,IA,52544
Sears,SAINT AUGUSTINE,3195,3195,2121 US 1 SOUTH SPACE 10,FL,32086
Sears,LUMBERTON,3196,3196,4329 FAYETTEVILLE RD,NC,28358
Sears,BLYTHEVILLE,3197,3197,302 N 6TH ST,AR,72315-2714
Sears,STEAMBOAT SPRINGS,3198,3198,1755 CENTRAL PARK DRIVE,CO,80487-4970
Sears,UKIAH,3199,3199,1230 AIRPORT PARK BLVD STE A,CA,95482-5999
Sears,CARROLL,3200,3200,1108 HEIRES AVE,IA,51401-3326
Sears,MONCKS CORNER,3202,3202,1013 OLD HWY 52 STE G,SC,29461
Sears,ONEONTA,3203,3203,61 S MAIN ST,NY,13820-2516
Sears,VAN WERT,3204,3204,745 FOX ROAD,OH,45891
Sears,SANFORD,3206,3206,2534 LEE AVE,NC,27332
Sears,MENA,3207,3207,908 MENA ST,AR,71953-4248
Sears,DURANGO,3208,3208,800 S CAMINO DEL RIO,CO,81301-6898
Sears,JACKSON,3209,3209,795 S STATE HIGHWAY 49,CA,95642-2621
Sears,VIRGINIA,3210,3210,5465 MT IRON DR,MN,55792
Sears,MARIANNA,3211,3211,OAK STATION PLAZA,FL,32446
Sears,VINCENNES,3212,3212,1815 N 6TH ST,IN,47591-3501
Sears,FERNANDINA,3215,3215,1118A SOUTH 14TH STREET,FL,32034
Sears,ELIZABETH CITY,3216,3216,1503 W EHRINGHAUS ST,NC,27909-4516
Sears,CONWAY,3217,3217,201 SKYLINE DR STE 35,AR,72032-3541
Sears,OTTAWA,3218,3218,220 S MAIN,KS,66067-2329
Sears,TEHACHAPI,3219,3219,835 TUCKER RD # A AND B,CA,93561-2511
Sears,MARSHFIELD,3221,3221,1810 N CENTRAL AVE,WI,54449-8310
Sears,SAINT MARYS,3222,3222,1280 INDIANA AVE,OH,45885-1371
Sears,HERKIMER,3223,3223,325 E ALBANY ST,NY,13350
Sears,ISABELA,3224,3224,CARRETERA NO 2 KM 110.3,PR,662
Sears,DUNN,3226,3226,1002 W CUMBERLAND ST,NC,28334-4716
Sears,CANON CITY,3228,3228,1700 RAINBOW DR,CO,81212-6409
Sears,ROGERS,3229,3229,100 N 8TH STREET,AR,72756
Sears,SHELDON,3230,3230,2390 PARK ST,IA,51201-8546
Sears,ESCANABA,3231,3231,322 N LINCOLN RD,MI,49829-1326
Sears,MANISTEE,3232,3232,1560 US 31 SOUTH,MI,49660-2275
Sears,WASHINGTON,3236,3236,1308 CAROLINA AVE,NC,27889-3538
Sears,EMPORIA,3237,3237,1602 INDUSTRIAL STREET,KS,66801-5141
Sears,SHOW LOW,3238,3238,4551 S WHITE MOUNTAIN RD # 3,AZ,85901-7713
Sears,RICHLAND CENTER,3239,3239,1515 BOHMANN DR,WI,53581
Sears,MOBERLY,3240,3240,643 N MORLEY STE D,MO,65270
Sears,CADILLAC,3241,3241,219 N MITCHELL ST,MI,49601-1834
Sears,LEBANON,3243,3243,2200 N LEBANON ST STE 2236,IN,46052
Sears,NICEVILLE,3245,3245,792 E JOHN SIMS PKWY,FL,32578
Sears,LINCOLNTON,3246,3246,917 E MAIN ST,NC,28092-3448
Sears,KALISPELL,3248,3248,1105 US HIGHWAY 2 W,MT,59901-3409
Sears,WOODLAND,3249,3249,427 MAIN ST,CA,95695-3431
Sears,BEAVER DAM,3250,3250,1645 N SPRING ST,WI,53916-1104
Sears,MARQUETTE,3251,3251,1495 O'DOVERO DR,MI,49855
Sears,FITZGERALD,3255,3255,215 S GRANT ST,GA,31750-2904
Sears,BULLHEAD CITY,3256,3256,2350 MIRACLE MILE RD STE B-230,AZ,86442-7505
Sears,DODGE CITY,3257,3257,2601 CENTRAL AVE,KS,67801-6200
Sears,LAPEER,3261,3261,1356 IMLAY CITY RD,MI,48446-3112
Sears,WAKEFIELD,3264,3264,SOUTH COUNTY COMMONS,RI,2879
Sears,HINESVILLE,3265,3265,103 W GENERAL SCREVEN WAY,GA,31313-3098
Sears,NEW CASTLE,3266,3266,3005 SOUTH 14TH ST,IN,47362
Sears,HAYS,3267,3267,2508 VINE ST,KS,67601-2408
Sears,MARSHALLTOWN,3268,3268,507 IOWA AVE W,IA,50158-4700
Sears,NAPA,3269,3269,1701 SOSCOL AVE,CA,94559
Sears,LIBERAL,3270,3270,1010 S KANSAS AVE STE 7,KS,67901-4697
Sears,KINGSFORD,3271,3271,610 S CARPENTER AVE,MI,49802-5561
Sears,WEST PLAINS,3272,3272,1347 SOUTHERN HILLS CTR,MO,65775-2918
Sears,RINDGE,3273,3273,4 SEARS DRIVE,NH,3461
Sears,BREVARD,3274,3274,352 N BROAD ST,NC,28712-3354
Sears,WHITEVILLE,3276,3276,#6 WHITEVILLE PLZ,NC,28472
Sears,BAYOU VISTA,3277,3277,837 US HWY 90 EAST,LA,70380
Sears,YANKTON,3278,3278,2901 BROADWAY AVE,SD,57078-5125
Sears,BLYTHE,3279,3279,155 N SPRING STREET,CA,92225
Sears,TAWAS CITY,3280,3280,215 W LAKE ST,MI,48763-9274
Sears,AUBURN,3281,3281,1016 W 7TH ST SUITE 345,IN,46706-2053
Sears,PLANO,3282,3282,117 S CENTER ST,IL,60545-1568
Sears,FAIRMONT,3283,3283,9803 MALL LOOP ROAD,WV,26554
Sears,SEABROOK,3285,3285,1 BATCHELDER RD,NH,3874
Sears,NATCHITOCHES,3287,3287,4278 UNIVERSITY PARKWAY,LA,71457-6478
Sears,BUTTE,3288,3288,3703 HARRISON AVE # G,MT,59701-6897
Sears,ONLEY,3289,3289,25044 LANKFORD HWY (RTE 13),VA,23418
Sears,REXBURG,3290,3290,664 N 2ND E,ID,83440-3566
Sears,THIEF RIVER FALLS,3291,3291,303 MAIN AVE N,MN,56701-1905
Sears,RICHMOND,3294,3294,830 EASTERN BYPASS,KY,40475
Sears,MILLEDGEVILLE,3295,3295,1831 N COLUMBIA ST,GA,31061-2316
Sears,SWEETWATER,3296,3296,604 E BROADWAY ST,TX,79556-4626
Sears,BOGALUSA,3297,3297,412 AVENUE B,LA,70427-3710
Sears,HELENA,3298,3298,3150 DREDGE DR,MT,59602-0515
Sears,SAN SEBASTIAN,3299,3299,ARCADIO ESTRADA STE 1,PR,685
Sears,HOUGHTON,3301,3301,910 EVERGREEN DR,MI,49931-2562
Sears,CENTRALIA,3302,3302,1037 W BROADWAY,IL,62801-5309
Sears,FAIRFIELD,3304,3304,1411 W MAIN STE C,IL,62837
Sears,JESUP,3305,3305,977 S 1ST ST,GA,31545-0331
Sears,MALONE,3306,3306,358 WEST MAIN STREET,NY,12953
Sears,NEWNAN,3307,3307,40 GREENWAY COURT,GA,30265
Sears,SCOTTSBLUFF,3308,3308,2302 FRONTAGE RD #30,NE,69361-1770
Sears,CARLSBAD,3309,3309,2302 W PIERCE ST STE C1,NM,88220-3560
Sears,CARMI,3310,3310,1704 W MAIN ST STE A,IL,62821-2263
Sears,CHARLEVOIX,3311,3311,6585 M 66 N,MI,49720-9272
Sears,POPLAR BLUFF,3312,3312,720 S WESTWOOD BLVD,MO,63901-5528
Sears,VIDALIA,3316,3316,203 MICHAEL COLLINS DR UNIT 1,GA,30474
Sears,PARSONS,3318,3318,2604 MAIN ST,KS,67357-2600
Sears,HOBBS,3319,3319,405 E NAVAJO DR,NM,88240-9308
Sears,ROCHESTER,3320,3320,221 APACHE DRIVE,IN,46975
Sears,CANTON,3321,3321,110 BLUFFS PARKWAY,GA,30114
Sears,PRINCE FREDERICK,3323,3323,255 SOLOMONS ISLAND RD,MD,20678
Sears,CHADRON,3324,3324,132 W 3RD STREET,NE,69337-2314
Sears,GREENWOOD,3325,3325,1410 MONTAGUE AVE EXT,SC,29649
Sears,JUNCTION CITY,3326,3326,101 N WASHINGTON STREET,KS,66441
Sears,OXFORD,3327,3327,707 N LAMAR BLVD,MS,38655-3242
Sears,SILVER CITY,3329,3329,1310 SILVER HEIGHTS BLVD,NM,88061-5528
Sears,GREAT BEND,3330,3330,2515 10TH ST,KS,67530-4356
Sears,SEDALIA,3332,3332,3117 W BROADWAY BLVD,MO,65301-2116
Sears,PRINEVILLE,3334,3334,1515 NE 3RD STE B,OR,97754
Sears,KINGSVILLE,3337,3337,STE E,TX,78363
Sears,EAGLE PASS,3338,3338,410 S TEXAS DRIVE,TX,78852-5079
Sears,TAOS,3339,3339,1046 PASEO DEL PUEBLO SUR,NM,87571
Sears,BUTLER,3340,3340,104 SUNSET DR,MO,64730-9400
Sears,GREENVILLE,3341,3341,301 S MAPLEWOOD ST STE 16,MI,48838
Sears,WARRENSBURG,3342,3342,703 E YOUNG ST,MO,64093-9607
Sears,HARLAN,3343,3343,168 VILLAGE CENTER RD STE 138,KY,40831-1719
Sears,KITTANNING,3345,3345,FRANKLIN VILLAGE MALL 19A,PA,16201
Sears,DAPHNE,3346,3346,6845 HWY 90 SUITE 101,AL,36526
Sears,CLEVELAND,3347,3347,522 THIRD ST,MS,38732
Sears,BRENHAM,3348,3348,2507 BECKER DR,TX,77833-5717
Sears,GALLUP,3349,3349,901 METRO AVE,NM,87301-5384
Sears,TIFFIN,3350,3350,682 W MARKET STREET,OH,44883-2528
Sears,NEWTON,3351,3351,505 N POPLAR ST,KS,67114-2126
Sears,EASTON,3353,3353,219 MARLBORO AVE,MD,21601-2720
Sears,GREENVILLE,3356,3356,140 W COMMERCE ST,AL,36037
Sears,CLARKSDALE,3357,3357,937 COMMERCE PLZ,MS,38614-4703
Sears,KERRVILLE,3358,3358,345 JUNCTION HWY,TX,78028-4279
Sears,CODY,3359,3359,762 LINDSAY LN,WY,82414-4103
Sears,FARMINGTON,3362,3362,606 WALMART DR,MO,63640-1951
Sears,CULPEPER,3363,3363,571 JAMES MADISON HWY,VA,22701-2408
Sears,FARMINGTON,3364,3364,632 WILTON RD,ME,04938-6138
Sears,SAINT MARYS,3365,3365,28 HAWTHORN LN,GA,31558-4027
Sears,GRENADA,3367,3367,1229D SUNSET DR,MS,38901-4025
Sears,COTTAGE GROVE,3368,3368,118 GATEWAY BLVD,OR,97424
Sears,NORTH BEND,3369,3369,1611 VIRGINIA AVE # 514,OR,97459-2729
Sears,DETROIT LAKES,3370,3370,1315 HWY 10 WEST,MN,56501-4218
Sears,STERLING,3371,3371,3606 E LINCOLNWAY,IL,61081-9756
Sears,WASHINGTON,3372,3372,1048 WASHINGTON SQ,MO,63090-5302
Sears,SOMERSET,3373,3373,1534 N CENTER AVE STE 170,PA,15501-1153
Sears,TOWANDA,3374,3374,1516 GOLDEN MILE ROAD,PA,18848-9303
Sears,VICKSBURG,3377,3377,2480 I 20 FRONTAGE RD,MS,39180-5251
Sears,CORSICANA,3378,3378,836 W 7TH AVE,TX,75110-6318
Sears,ONTARIO,3379,3379,1480 WESTPARK PLZ,OR,97914-2000
Sears,GRAYLING,3381,3381,6375 W M 72 HWY,MI,49738-7462
Sears,ROLLA,3382,3382,1070 S BISHOP AVE,MO,65401-4465
Sears,BARKHAMSTED,3384,3384,380 NEW HARTFORD RD RT 44,CT,6063
Sears,STATESBORO,3385,3385,718 NORTHSIDE DR EAST STE 36,GA,30458-5155
Sears,ELK CITY,3386,3386,2821 W 3RD ST,OK,73644-4321
Sears,CORINTH,3387,3387,1801 S HARPER RD STE 2,MS,38834-6726
Sears,GREENVILLE,3388,3388,5109 WESLEY ST,TX,75402-6315
Sears,GRANTS PASS,3389,3389,1533 NORTHEAST F ST,OR,97526
Sears,EAST LIVERPOOL,3390,3390,SKYVIEW PLAZA ST RT 170,OH,43920
Sears,RIVER FALLS,3391,3391,1660 COMMERCE CT,WI,54022-3242
Sears,SAINT ROBERT,3392,3392,713 MISSOURI AVE,MO,65584-4678
Sears,TROY,3393,3393,103 HIGHWAY 231 N,AL,36081-1766
Sears,CHESTER,3394,3394,1521 POSTAL RD,MD,21619
Sears,DUBLIN,3395,3395,921 HILLCREST PARKWAY,GA,31021-4207
Sears,ROANOKE RAPIDS,3396,3396,1211 JULIAN ALLSBROOK HWY,NC,27870-5107
Sears,BROOKHAVEN,3397,3397,222 HIGHWAY 51 NORTH,MS,39601-2654
Sears,EARLY,3398,3398,420 EARLY BLVD,TX,76802
Sears,JAMESTOWN,3399,3399,2400 8TH AVE SW,ND,58401-6623
Sears,BROOKFIELD,3400,3400,111 E BOSTON ST,MO,64628-1726
Sears,MEDFORD,3401,3401,6380 W FRONTAGE RD,MN,55049
Sears,LAKE ELSINORE,3402,3402,VISCAYA VILLAGE SHOPPING CTR,CA,92530
Sears,GRIFFIN,3405,3405,1503 HWY 16 WEST,GA,30223
Sears,DEL RIO,3406,3406,2400 VETERANS BLVD STE 16A,TX,78840-3136
Sears,BIG SPRING,3408,3408,1801 E FM 700-C6,TX,79720
Sears,SHERIDAN,3410,3410,1467 COFFEEN AVE,WY,82801-5703
Sears,GRAND RAPIDS,3411,3411,1239 S POKEGAMA AVE,MN,55744-4208
Sears,PITTSFIELD,3412,3412,1299 W WASHINGTON ST,IL,62363-1656
Sears,MIDDLETOWN,3414,3414,1235 WEST MAIN ROAD,RI,2842
Sears,MURPHY,3416,3416,1262 ANDREWS RD,NC,28906-2899
Sears,NACOGDOCHES,3418,3418,3801 NORTH ST,TX,75965-2473
Sears,ASTORIA,3419,3419,1152 MARINE DR,OR,97103-4112
Sears,ESTHERVILLE,3420,3420,408 CENTRAL AVE,IA,51334-2771
Sears,BEMIDJI,3421,3421,105 BELTRAMI AVE NW,MN,56601-8796
Sears,RUSTON,3422,3422,1701 COMMERCE STREET,LA,71270-3925
Sears,LOUISBURG,3423,3423,326 S BICKETT BLVD,NC,27549-2702
Sears,LEXINGTON,3424,3424,NEW HIGHWAY 64 W,NC,27295
Sears,BASTROP,3425,3425,STE B,TX,78602
Sears,MARION,3426,3426,1155 N MAIN ST STE 10,NC,28752
Sears,LIBERTY,3428,3428,25 SULLIVAN AVE SUITE 1,NY,12754
Sears,NEWPORT,3429,3429,2200 N COAST HWY 101,OR,97365
Sears,HIBBING,3431,3431,990 W 41ST ST,MN,55746-3045
Sears,HILLSDALE,3432,3432,2992 W CARLETON RD,MI,49242-1363
Sears,SOUTH BOSTON,3433,3433,3100 HALIFAX RD,VA,24592-4926
Sears,SOUTH HILL,3434,3434,1423 N MECKLENBURG AVE,VA,23970
Sears,AMERY,3435,3435,950 ELDEN AVE,WI,54001
Sears,KINSTON,3436,3436,834 HARDEE RD STE 400A,NC,28504
Sears,OAKDALE,3437,3437,860 N YOSEMITE AVE,CA,95361
Sears,LIVINGSTON,3438,3438,321 N BEATTY ST,TX,77351-3211
Sears,HERMISTON,3439,3439,80487 N HIGHWAY 395,OR,97838-6271
Sears,NEW ULM,3440,3440,1605 S BROADWAY ST,MN,56073-3752
Sears,BAXTER,3441,3441,15910 EDGEWOOD DRIVE,MN,56425
Sears,MEXICO,3442,3442,2988 S CLARK ST,MO,65265-3758
Sears,STAUNTON,3444,3444,1206 GREENVILLE AVE,VA,24401-5021
Sears,PORT ROYAL,3445,3445,1347-B RIBAUT RD,SC,29935
Sears,NAGS HEAD,3446,3446,5100 S CROATAN HWY,NC,27959
Sears,ADA,3447,3447,1101 LONNIE ABBOTT BLVD,OK,74820
Sears,CHENEY,3448,3448,10 WEST 1ST STREET,WA,99004
Sears,SCAPPOOSE,3449,3449,51581 COLUMBIA RIVER HWY,OR,97056-4407
Sears,MORRIS,3450,3450,721 BEDFORD RD W HGWY 6,IL,60450-3622
Sears,CAMBRIDGE,3453,3453,1950 2ND AVENUE SE,MN,55008-4049
Sears,LANCASTER,3455,3455,1125 HIGHWAY 9 BYPASS,SC,29720
Sears,PONCA CITY,3457,3457,412 E HARTFORD AVE,OK,74601-1511
Sears,NEW BRAUNFELS,3458,3458,114 NORTH BUSINESS I-H35,TX,78130
Sears,GALLIPOLIS,3462,3462,2200 EASTERN AVE,OH,45631-1825
Sears,MIDDLETOWN,3463,3463,600 N BROAD ST,DE,19709-1032
Sears,UNION CITY,3466,3466,1421 S FIRST ST EXTD,TN,38261
Sears,MCALESTER,3467,3467,500 VILLAGE BLVD,OK,74501
Sears,BAY CITY,3468,3468,3120 AVENUE F,TX,77414-7104
Sears,MCMINNVILLE,3469,3469,1621 NE BAKER STREET,OR,97128
Sears,GILLETTE,3470,3470,305 E LAKEWAY RD,WY,82718-6301
Sears,FERGUS FALLS,3471,3471,211 W LINCOLN AVE,MN,56537-2124
Sears,GREENSBURG,3472,3472,1411 N LIBERTY CIRCLE E,IN,47240
Sears,BRADFORD,3473,3473,560 CHESTNUT STREET EXT,PA,16701-2290
Sears,HARRISONBURG,3474,3474,51-J BURGESS RD,VA,22801-3482
Sears,PLOVER,3475,3475,3050 VILLAGE PARK DRIVE,WI,54467
Sears,TAYLOR,3478,3478,2121 N MAIN ST,TX,76574-1827
Sears,THE DALLES,3479,3479,1332 W 6TH ST,OR,97058-3518
Sears,DEVILS LAKE,3481,3481,346 HIGHWAY 2 W,ND,58301-2942
Sears,WARSAW,3482,3482,2816 FRONTAGE RD,IN,46580-3912
Sears,WISE,3484,3484,123 PLAZA RD SW,VA,24293
Sears,DYERSBURG,3486,3486,550 HWY 51 BYPASS,TN,38024
Sears,ARDMORE,3487,3487,320 N COMMERCE ST,OK,73401-3934
Sears,ATHENS,3488,3488,1115 E TYLER STREET,TX,75751-2163
Sears,HARBOR,3489,3489,97900 S/C AVE,OR,97415
Sears,HOULTON,3493,3493,143 NORTH ST,ME,04730-1832
Sears,WOODLAWN,3494,3494,30 PARTRIDGE ROAD,VA,24381
Sears,BEEVILLE,3496,3496,2001 N SAINT MARYS ST,TX,78102-2430
Sears,GRANBURY,3497,3497,420 E HIGHWAY 377,TX,76048-2554
Sears,MARYSVILLE,3498,3498,3715 134TH ST NE,WA,98271
Sears,FREEDOM,3499,3499,1702 FREEDOM BLVD,CA,95019-2837
Sears,FORT MORGAN,3500,3500,1997 E PIATTE AVE,CO,80701
Sears,WISCONSIN RAPIDS,3501,3501,910 HUNTINGTON AVE,WI,54494-6399
Sears,KEOKUK,3502,3502,3533 MAIN ST STE 3,IA,52632-2002
Sears,BARRE,3503,3503,1598 US ROUTE 302 BERLIN,VT,05641-2321
Sears,SULPHUR SPRINGS,3508,3508,1402 MOCKINGBIRD LANE STE 3,TX,75482-4839
Sears,MINOCQUA,3512,3512,7363 HWY 51 SOUTH,WI,54548
Sears,DERBY,3513,3513,US RT 5 NEWPORT/DERBY,VT,5829
Sears,CARROLLTON,3515,3515,1202 S PARK ST,GA,30117
Sears,STEPHENVILLE,3518,3518,2185 W SOUTH LOOP,TX,76401-3921
Sears,VERNAL,3519,3519,4 W MAIN STREET,UT,84078-2502
Sears,ALLIANCE,3520,3520,2500 W STATE STREET,OH,44601
Sears,HOWELL,3522,3522,4193 E GRAND RIVER AVE,MI,48843-8523
Sears,LITTLETON,3523,3523,831 MEADOW ST,NH,3561
Sears,HILTON HEAD,3525,3525,1555 FORDING ISLAND RD,SC,29926-1175
Sears,EUNICE,3526,3526,340 E LAUREL AVE,LA,70535-3420
Sears,TEMPLE,3527,3527,1212 MARLANDWOOD,TX,76502
Sears,WAXAHACHIE,3528,3528,600 N HIGHWAY 77,TX,75165-1870
Sears,MARSHALL,3530,3530,1420 E COLLEGE DR,MN,56258-2065
Sears,ATHENS,3531,3531,743 F2 EAST STATE STREET,OH,45701-1312
Sears,HASTINGS,3532,3532,275 W 33RD ST SPACE C,MN,55033
Sears,MORRISVILLE,3533,3533,65 NORTHGATE PLAZA,VT,5661
Sears,UVALDE,3536,3536,2344 E MAIN ST,TX,78801-4945
Sears,LAKE HAVASU CITY,3537,3537,1990 MCCULLOCH BLVD N UNIT 104,AZ,86403
Sears,PLAINVIEW,3538,3538,1507 W 5TH ST,TX,79072-7832
Sears,MOUNT PLEASANT,3540,3540,1400 S MISSION ST,MI,48858-4210
Sears,FLORA,3541,3541,501 W NORTH AAVE,IL,62839
Sears,LOGAN,3543,3543,105 HOLLY AVE,WV,25601-3338
Sears,HOPKINSVILLE,3544,3544,2412 FT CAMPBELL BLVD,KY,42240-4669
Sears,MC MINNVILLE,3546,3546,231 NORTHGATE DR # C,TN,37110-1426
Sears,COVINGTON,3547,3547,715 N MAIN ST,TN,38019-2042
Sears,JASPER,3548,3548,1901 W GIBSON,TX,75951
Sears,PORT ANGELES,3549,3549,520 S LINCOLN ST,WA,98362-6110
Sears,SALEM,3552,3552,1101 E SCENIC RIVERS BLVD,MO,65560-2843
Sears,SUMMERSVILLE,3553,3553,50 STONEWALL DRIVE,WV,26651
Sears,MADISONVILLE,3555,3555,110 MADISON SQUARE ST,KY,42431-2742
Sears,TULLAHOMA,3556,3556,1420 CEDAR LANE,TN,37388
Sears,KEARNEY,3557,3557,5804 2ND AVENUE,NE,68845
Sears,MOSES LAKE,3559,3559,312 S DIVISION ST,WA,98837-1955
Sears,MCPHERSON,3560,3560,311 N MAIN STREET,KS,67460-2506
Sears,DU QUOIN,3561,3561,325 S WASHINGTON STREET,IL,62832-1806
Sears,SPARTA,3562,3562,520 S BLACK RIVER ST,WI,54656-2045
Sears,NATCHEZ,3565,3565,31 S SERGEANT PRENTISS DR 3,MS,39120
Sears,ATHENS,3566,3566,823 US HIGHWAY 72 WEST,AL,35611-4215
Sears,MANSURA,3567,3567,168 GOLDEN ROD,LA,71350
Sears,MINERAL WELLS,3568,3568,2801 HIGHWAY 180 E STE 14,TX,76067-4730
Sears,ELLENSBURG,3569,3569,505 N PEARL ST,WA,98926-3113
Sears,KNOX,3571,3571,1704 S HEATON STREET,IN,46534
Sears,LITCHFIELD,3572,3572,224 E HIGHWAY 12,MN,55355-2249
Sears,BIDDEFORD,3574,3574,420 ALFRED ST STE 178,ME,04005-3012
Sears,MAYSVILLE,3575,3575,50 TUCKER DRIVE,KY,41056
Sears,HARRIMAN,3576,3576,236 S ROANE ST,TN,37748-7435
Sears,DERIDDER,3577,3577,1339 N PINE,LA,70634
Sears,ROCK SPRINGS,3578,3578,63 CENTER ST,WY,82901-5121
Sears,HAVRE,3579,3579,1753 HWY 2 WEST SUITE 40A,MT,59501
Sears,CHANUTE,3581,3581,102 EAST MAIN STREET,KS,66720
Sears,ALMA,3582,3582,1650 WRIGHT AVE,MI,48801-1022
Sears,RIPLEY,3583,3583,29 SOUTH HILL PLAZA DRIVE,WV,25271
Sears,WALLACE,3585,3585,1315 N NORWOOD ST,NC,28466-1331
Sears,DUNCAN,3586,3586,3001 N HIGHWAY 81,OK,73533-8923
Sears,BENTON,3587,3587,1110 FERGUSON,AR,72015-3528
Sears,OAK HARBOR,3589,3589,465 NE MIDWAY BLVD # 1,WA,98277-2659
Sears,PONCHA SPRINGS,3590,3590,11130 W HWY 50,CO,81242
Sears,JACKSONVILLE,3591,3591,901 W MORTON AVE STE 18C,IL,62650-4023
Sears,ATCHISON,3592,3592,101 N 4TH ST,KS,66002-2508
Sears,GORHAM,3593,3593,161 MAIN ST,NH,03581-1629
Sears,CROSSETT,3597,3597,301 FAIRVIEW RD,AR,71635-4539
Sears,BOZEMAN,3598,3598,2825 W MAIN ST UNIT 8H,MT,59718
Sears,OMAK,3599,3599,317 S MAIN STREET,WA,98841-9525
Sears,SILVERTHORNE,3600,3600,1291 BLUE RIVER PARKWAY,CO,80498
Sears,FREDONIA,3603,3603,3725 E MAIN - RTE 20,NY,14063
Sears,WEATHERFORD,3604,3604,310 N WASHINGTON ST STE 1245,OK,73096-5739
Sears,RICHMOND,3607,3607,821 HWY 90A EAST,TX,77469
Sears,WARE,3609,3609,124 WEST ST,MA,1082
Sears,DOWAGIAC,3610,3610,56153 M 51 S,MI,49047-9762
Sears,BUCYRUS,3611,3611,1810 E MANSFIELD ST,OH,44820-2018
Sears,CRAWFORDSVILLE,3612,3612,1760 S US HIGHWAY 231,IN,47933
Sears,PHILADELPHIA,3613,3613,216 LINE AVENUE,MS,39350
Sears,LUGOFF,3615,3615,814 HWY 1 SOUTH,SC,29078
Sears,GEORGETOWN,3616,3616,900 NORTH AUSTIN AVE #123,TX,78626
Sears,LAGRANGE,3617,3617,2004 WEST STATE HWY 71,TX,78945
Sears,LOMPOC,3618,3618,1009 NORTH H STREET,CA,93438
Sears,LA GRANDE,3619,3619,1700 PORTLAND AVE,OR,97850
Sears,DUNDAS,3620,3620,420 SCHILLING DRIVE NORTH,MN,55019
Sears,STARKVILLE,3623,3623,622 HWY 12 E,MS,39759-3635
Sears,LAUREL,3626,3626,2200 SANDY LN,MS,39443-8606
Sears,WINFIELD,3628,3628,912 MAIN ST,KS,67156
Sears,CARO,3630,3630,1152 CLEAVER RD,MI,48723-1150
Sears,LITTLE FALLS,3631,3631,210 1ST STREET SOUTH EAST,MN,56345
Sears,INTERNATIONAL FALLS,3632,3632,500 3RD ST WEST,MN,56649-2311
Sears,PARKER,3633,3633,1009 ARIZONA AVE,AZ,85344-5221
Sears,EAST WAREHAM,3634,3634,3119 CRANBERRY HWY,MA,2538
Sears,EAST ELLIJAY,3635,3635,67 FOWLER ST,GA,30539
Sears,WOODWARD,3636,3636,3000 8TH ST,OK,73801-6714
Sears,CANTON,3639,3639,1190 S TRADE DAYS BLVD,TX,75103
Sears,MOUNTAIN HOME,3640,3640,1535 AMERICAN LEGION BLVD,ID,83647-3162
Sears,CORTEZ,3642,3642,1 EAST MAIN ST,CO,81321-4262
Sears,GREAT BARRINGTON,3643,3643,228 STOCKBRIDGE RD,MA,01230-1232
Sears,BELFAST,3644,3644,38 STARRETT DR,ME,4915
Sears,CLANTON,3645,3645,1605 7TH ST N,AL,35045-2144
Sears,ONEONTA,3646,3646,1908 2ND AVE E,AL,35121-2710
Sears,OKMULGEE,3647,3647,1601 S WOOD DR,OK,74447-7843
Sears,ARAB,3648,3648,1004 N BRINDLEE MOUNTAIN PKWY,AL,35016-1095
Sears,PAHRUMP,3649,3649,1281 E CALVADA BLVD,NV,89048-5863
Sears,ENTERPRISE,3650,3650,621 BOLL WEEVIL CIRCLE STE 27,AL,36330
Sears,SHELBYVILLE,3652,3652,510 SARAINA RD,IN,46176-1892
Sears,COMMERCE,3655,3655,40099 HWY 441 S,GA,30529
Sears,GREEN VALLEY,3656,3656,115 W ESPERANZA STE 115A,AZ,85614-5089
Sears,WHEELERSBURG,3661,3661,9003 OHIO RIVER RD,OH,45694
Sears,SPEARFISH,3662,3662,137 E ILLINOIS STREET,SD,57783-9741
Sears,PENNINGTON GAP,3663,3663,40518 WEST MORGAN AVE,VA,24277-1811
Sears,REIDSVILLE,3665,3665,1573 FREEWAY DR,NC,27320
Sears,MOUNT PLEASANT,3667,3667,1203 W FERGUSON RD,TX,75455-4269
Sears,CARBONDALE,3671,3671,1350 E MALL RD,IL,62901-3151
Sears,DECATUR,3672,3672,1010 W BUSINESS 380,TX,76234-1645
Sears,PLYMOUTH,3673,3673,742 TENNEY MOUNTAIN HWY,NH,03264-3151
Sears,PRATTVILLE,3675,3675,690 MCQUEEN SMITH RD S,AL,36066-7510
Sears,BISHOP,3678,3678,1361 ROCKING W DR,CA,93514-1994
Sears,LEBANON,3680,3680,112 W COMMERCIAL ST,MO,65536
Sears,HARRISBURG,3681,3681,601 N COMMERCIAL ST STE 10,IL,62946-3327
Sears,WINCHESTER,3685,3685,1946 BYPASS RD,KY,40391
Sears,MARBLE FALLS,3686,3686,2603 US HWY 281 NORTH,TX,78654-4317
Sears,MINDEN,3689,3689,444 HIGHWAY 531,LA,71055-9001
Sears,REHOBOTH BEACH,3690,3690,18675 UNIT 1 COSTAL HWY,DE,19971
Sears,HANNIBAL,3691,3691,200 HUCK FINN SHOPPING CTR,MO,63401
Sears,LORIS,3693,3693,217 HIGHWAY 701 N,SC,29569-2484
Sears,COBLESKILL,3694,3694,2395 STATE RT 7,NY,12043
Sears,VALLEY,3695,3695,2918 20TH AVE SUITE 11,AL,36854-5083
Sears,CHIEFLAND,3696,3696,UNIT 150,FL,32626-1420
Sears,SUSANVILLE,3698,3698,911 MAIN STREET,CA,96130-4700
Sears,BOLIVAR,3700,3700,3151 S SPRINGFIELD AVE,MO,65613
Sears,AUSTIN,3702,3702,1301 18TH AVE NW STE 412,MN,55912-1888
Sears,FAIRMONT,3703,3703,450 S STATE ST,MN,56031-4147
Sears,DEMOPOLIS,3704,3704,1502 US HIGHWAY 80 E,AL,36732-3921
Sears,MAGEE,3706,3706,410 PINOLA DR SE,MS,39111-4240
Sears,GREENWOOD,3707,3707,717 W PARK AVE,MS,38930
Sears,DURANT,3708,3708,615 WESTSIDE DR,OK,74701-2955
Sears,POCAHONTAS,3709,3709,2607 HWY 67 SOUTH,AR,72455-4147
Sears,TAPPAHANNOCK,3712,3712,1675 TAPPAHANNOCK BLVD,VA,22560
Sears,SWAINSBORO,3713,3713,528 S MAIN ST,GA,30401-4861
Sears,BARRANQUITAS,3714,3714,RR 152,PR,794
Sears,FUQUAY VARINA,3715,3715,740 N MAIN ST,NC,27526-2029
Sears,MARSHALL,3717,3717,401 E GRAND,TX,75670
Sears,PETOSKEY,3718,3718,1840 M 119,MI,49770-9341
Sears,THOMASVILLE,3721,3721,3052 HWY #5 N,AL,36784
Sears,PRYOR,3722,3722,200 N MILL,OK,74361
Sears,LAWRENCEBURG,3723,3723,1604 N LOCUST AVE SUITE B,TN,38464-2214
Sears,FAYETTE,3724,3724,216 2ND STREET NE,AL,35555
Sears,CRESTVIEW,3725,3725,1133 INDUSTRIAL DRIVE HWY 85 N,FL,32539
Sears,EUFAULA,3727,3727,617 S MAIN ST,OK,74432-3301
Sears,ALICE,3728,3728,811 E MAIN ST STE C,TX,78332-5040
Sears,SPOONER,3729,3729,316 SERVICE RD,WI,54801-6200
Sears,RICE LAKE,3731,3731,2800 COLLEGE DR,WI,54868-2445
Sears,PRATT,3732,3732,300 S MAIN ST,KS,67124-2706
Sears,NORFOLK,3734,3734,2110 MARKET LN,NE,68701-4500
Sears,LAFOLLETTE,3735,3735,2221 JACKSBORO PIKE,TN,37766
Sears,HOMER,3737,3737,914 W MAIN ST,LA,71040-3328
Sears,ALBERT LEA,3738,3738,2722 BRIDGE AVE,MN,56007-2077
Sears,LOCK HAVEN,3739,3739,559 HIGH STREET STE 1,PA,17745
Sears,NEW ORLEANS,3741,3741,7300 READ BLVD,LA,70127-7425
Sears,ALTUS,3742,3742,2720A N MAIN ST,OK,73521
Sears,CALIFORNIA,3743,3743,23415 THREE NOTCH RD STE 2046,MD,20619-4019
Sears,SEGUIN,3744,3744,510 EAST I-H10,TX,78155-5271
Sears,NEW SMYRNA,3745,3745,1441 S DIXIE FWY,FL,32168-7604
Sears,WEATHERFORD,3747,3747,202 ADAMS DR,TX,76086-6281
Sears,PORTERVILLE,3748,3748,580 S JAYE STREET,CA,93257
Sears,SELMA,3749,3749,3352 FLORAL AVE # 103,CA,93662-9040
Sears,MONROEVILLE,3752,3752,918 S ALABAMA AVE STE 6,AL,36460-2588
Sears,HUTCHINSON,3754,3754,756 CENTURY AVE SW,MN,55350-3793
Sears,PLEASANTON,3756,3756,118 S MAIN ST,TX,78064
Sears,ANGOLA,3760,3760,1221 N WAYNE ST,IN,46703-2346
Sears,WINONA,3761,3761,330 W 2ND ST,MN,55987-3139
Sears,OSAGE BEACH,3762,3762,3797 HWY 54 UNIT C,MO,65065
Sears,SHALLOTTE,3763,3763,5302 MAIN ST,NC,28470-4490
Sears,LAKELAND,3765,3765,4695 CR540A EAST,FL,33813-4407
Sears,FORT STOCKTON,3766,3766,1208 W DICKINSON BLVD,TX,79735-4235
Sears,GREENVILLE,3769,3769,1220 RUSS RD,OH,45331-2756
Sears,ABERDEEN,3772,3772,3315 6TH AVE SE STE 8,SD,57401-5541
Sears,PALM COAST,3775,3775,4888 PALM COAST PKWY NW,FL,32137-3636
Sears,WEST MEMPHIS,3777,3777,209 SHOPPINGWAY BLVD,AR,72301-1733
Sears,LAS VEGAS,3780,3780,1654 7TH ST,NM,87701-4920
Sears,COLBY,3781,3781,1937 S RANGE AVE STE 1,KS,67701-4014
Sears,JUNEAU,3782,3782,9105 MENDENHALL MALL RD STE365,AK,99801-7136
Sears,GEORGETOWN,3785,3785,1249 N FRASER ST,SC,29440-2853
Sears,AGUADILLA,3786,3786,KM 125.1 INT RD #459,PR,603
Sears,CAMDEN,3787,3787,234 W MAIN ST,TN,38320-1625
Sears,LUVERNE,3790,3790,500 E MAIN ST,MN,56156-1906
Sears,KENTON,3791,3791,989 E COLUMBUS ST,OH,43326-1650
Sears,ASH FLAT,3794,3794,475 HWY 62/412,AR,72513
Sears,FAYETTEVILLE,3795,3795,1406 HUNTSVILLE HWY,TN,37334-3606
Sears,ARKADELPHIA,3796,3796,2919 W PINE,AR,71923
Sears,MAGNOLIA,3797,3797,1517C E MAIN ST,AR,71753-3801
Sears,SANDERSVILLE,3798,3798,306 RIDDLEVILLE RD,GA,31082-7643
Sears,MIDDLEFIELD,3800,3800,15561 W HIGH ST,OH,44062-9454
Sears,IONIA,3801,3801,205 S DEXTER ST,MI,48846-2001
Sears,FOREST LAKE,3802,3802,24139 GREENWAY RD STE B,MN,55025-8293
Sears,BOWLING GREEN,3804,3804,1234 N MAIN ST,OH,43402-1304
Sears,CARTHAGE,3806,3806,307 N W LOOP 436,TX,75633
Sears,BAKER CITY,3808,3808,2017 MAIN ST,OR,97814-3351
Sears,HOOD RIVER,3809,3809,1795 12TH ST,OR,97031
Sears,INVERNESS,3815,3815,1660 HWY 41 NORTH,FL,34450
Sears,FREDERICKSBURG,3816,3816,512 S ADAMS ST,TX,78624-5325
Sears,WATERLOO,3820,3820,1349 JAMIE LN,IL,62298-5569
Sears,NORTH PLATTE,3821,3821,310 E 5TH ST,NE,69101-6921
Sears,LINTON,3822,3822,1600 A ST NE,IN,47441-1614
Sears,CASA GRANDE,3823,3823,1355 E FLORENCE BLVD STE 153,AZ,85122
Sears,BELEN,3826,3826,19554 HIGHWAY 314,NM,87002-6379
Sears,FULTON,3827,3827,3308 HWY 35 NORTH,TX,78358
Sears,JACKSON,3829,3829,850 HIGHWAY 15 S,KY,41339-9602
Sears,SPENCER,3831,3831,915 13TH ST SW,IA,51301-5561
Sears,BEDFORD,3834,3834,2943 JOHN WILLIAMS BLVD,IN,47421
Sears,WALTERBORO,3836,3836,377 BELLS HWY,SC,29488-2506
Sears,HUDSON,3839,3839,160 FAIRVIEW AVE STE 134,NY,12534
Sears,BATAVIA,3841,3841,8326 LEWISTON RD,NY,14020
Sears,JENNINGS,3843,3843,1226 ELTON RD,LA,70546-4136
Sears,MONROE,3845,3845,500 GREAT OAKS DR - STE 7,GA,30655
Sears,ALAMOSA,3848,3848,239 WALKER RD,CO,81101-9804
Sears,SHELBYVILLE,3849,3849,196 FRANKFORT RD,KY,40065
Sears,ALPENA,3850,3850,136 THUNDERBAY S/C,MI,49707
Sears,PERRYVILLE,3851,3851,206 PROGRESS DR,MO,63775-1208
Sears,JACKSON,3852,3852,4435 N COLLEGE AVE,AL,36545-2018
Sears,SARANAC LAKE,3853,3853,65 MAIN ST,NY,12983-1705
Sears,HOPE,3854,3854,1301 N HERVEY ST STE D,AR,71801
Sears,CALHOUN,3856,3856,1290 CURTIS PARKWAY,GA,30701
Sears,TRINIDAD,3858,3858,2128 FREEDOM RD,CO,81082
Sears,FALLON,3859,3859,1430 W WILLIAMS AVE,NV,89406-2640
Sears,NEWPORT,3863,3863,90 MOOSEHEAD TRL,ME,04953-4109
Sears,CORBIN,3864,3864,1019 CUMBERLAND FALLS HWY,KY,40701
Sears,GATESVILLE,3866,3866,2514 SOUTH STATE HWY 36,TX,76528
Sears,BLAKELY,3867,3867,11554 COLUMBIA ST STE B,GA,39823
Sears,MOUNT VERNON,3868,3868,993 COSHOCTON AVE,OH,43050
Sears,EBENSBURG,3870,3870,926 W HIGH ST STE 20,PA,15931
Sears,MANSFIELD,3871,3871,173 N MAIN STREET,PA,16933
Sears,HEBER SPRINGS,3873,3873,1010 HIGHWAY 25B,AR,72543-2034
Sears,MONTICELLO,3874,3874,1520 N MAIN ST,KY,42633-2046
Sears,BOONE,3875,3875,1180 BLOWING ROCK RD,NC,28607-3943
Sears,FLORENCE,3876,3876,685A HIGHWAY 101,OR,97439-7616
Sears,MOULTON,3877,3877,13447 AL HIGHWAY 157,AL,35650-3705
Sears,MEADVILLE,3878,3878,16039 CONNEAUT LAKE RD STE 101,PA,16335
Sears,WYNNE,3880,3880,702 HWY 64 E,AR,72396-4023
Sears,OLNEY,3881,3881,703 W MAIN ST,IL,62450-1545
Sears,PAMPA,3882,3882,1623 N HOBART ST,TX,79065-4127
Sears,JACKSON,3883,3883,780 E MAIN ST UNIT B,OH,45640
Sears,HARTSVILLE,3887,3887,107 WESTFIELDS ST,SC,29550-5784
Sears,CAMERON,3889,3889,2101 N WALNUT,MO,64429
Sears,ASHLAND,3891,3891,1908 LAKE SHORE DRIVE EAST,WI,54806
Sears,OAKLAND,3893,3893,89 PLEASANT HILL DR,MD,21550-2042
Sears,NEW BERN,3894,3894,3138 MARTIN LUTHER KNG SPC414,NC,28562
Sears,BLAIRSVILLE,3896,3896,60 SEARS WAY,GA,30512-4457
Sears,LAGRANGE,3898,3898,325 S DAVIS RD,GA,30241-4457
Sears,PAGOSA SPRINGS,3900,3900,2800 CORNERSTONE DR UNIT 1,CO,81147
Sears,MCCOOK,3901,3901,(NORTH HWY 83),NE,69001-3634
Sears,CLINTON,3902,3902,743 E GAINES DR,MO,64735-3634
Sears,BATESVILLE,3903,3903,106 HIGHWAY 51 N,MS,38606-2347
Sears,MALVERN,3906,3906,1339 HWY 270 WEST,AR,72104
Sears,GRAHAM,3907,3907,1106 HIGHWAY 16 S,TX,76450-3808
Sears,OAKHURST,3908,3908,40322 JUNCTION DR,CA,93644-8783
Sears,DICKINSON,3910,3910,1867 6TH AVE WEST,ND,58601-2908
Sears,JACKSON,3911,3911,980 WEST BROADWAY # A,WY,83001-9475
Sears,CLARENDON,3913,3913,15455 ROUTE 6,PA,16313
Sears,MILAN,3915,3915,6034 S 1ST ST,TN,38358-3112
Sears,ORANGE,3916,3916,2264 MACARTHUR DRIVE,TX,77630
Sears,SYLACAUGA,3918,3918,1393 W FORT WILLIAMS ST,AL,35150-2775
Sears,SEQUIM,3919,3919,232 VALLEY CENTER PL,WA,98382
Sears,FREMONT,3920,3920,1690 E 23RD ST,NE,68025-2415
Sears,ROBINSON,3921,3921,2092 E MAIN ST,IL,62454-3700
Sears,LINCOLN CITY,3922,3922,1517 SW HWY 101,OR,97367
Sears,DOVER PLAINS,3923,3923,7 DOVER VILLAGE PLAZA STE 2,NY,12522
Sears,MOULTRIE,3925,3925,2417 S MAIN ST,GA,31768-6531
Sears,WEST HELENA,3926,3926,1005 HIGHWAY #49 WEST,AR,72390
Sears,GUN BARREL CITY,3927,3927,3015 W MAIN STREET,TX,75156
Sears,LIBBY,3929,3929,520 MINERAL AVE,MT,59923-1958
Sears,HUNTINGTON,3930,3930,2052 N JEFFERSON ST,IN,46750-1353
Sears,HAMILTON,3932,3932,1704 N 1ST ST STE A,MT,59840-3189
Sears,PAINTSVILLE,3933,3933,624 JEFFERSON AVE,KY,41240
Sears,TAHLEQUAH,3936,3936,27 PLAZA SOUTH,OK,74464
Sears,ALEXANDER CITY,3938,3938,3862 HWY 280,AL,35010
Sears,NEWBERRY,3944,3944,1905 WILSON RD,SC,29108
Sears,BAINBRIDGE,3945,3945,1602B EAST SHOTWELL ST,GA,39819
Sears,MEXIA,3948,3948,909 E MILAM US HWY 84,TX,76667
Sears,BROKEN BOW,3949,3949,RR 2 BOX 976-2,OK,74728-9688
Sears,KENNETT,3950,3950,1124 INDEPENDENCE AVE,MO,63857
Sears,EUFAULA,3951,3951,1234 N EUFAULA AVE,AL,36027-2518
Sears,MONTEVIDEO,3952,3952,116 S FIRST ST,MN,56265
Sears,GLASGOW,3953,3953,671 HAPPY VALLEY RD,KY,42141-1541
Sears,MOSCOW,3954,3954,1410 S BLAINE,ID,83843
Sears,DOUGLAS,3955,3955,516 PETERSON AVE S,GA,31533-5254
Sears,ATLANTA,3956,3956,301 E MAIN ST,TX,75551-2637
Sears,CLEBURNE,3957,3957,1655 W HENDERSON STE A,TX,76033-3814
Sears,SPRUCE PINE,3958,3958,11947 S HWY 226,NC,28777
Sears,BOERNE,3961,3961,1514 S MAIN ST,TX,78006-3308
Sears,RICHFIELD,3962,3962,20 E 1000 SOUTH,UT,84701
Sears,OPELOUSAS,3963,3963,901 CRESWELL LANE,LA,70570
Sears,RUIDOSO DOWNS,3966,3966,2172 W HIGHWAY 70,NM,88346-9501
Sears,PALESTINE,3967,3967,2024 CROCKETT RD,TX,75801-5907
Sears,HENDERSONVILLE,3969,3969,1800 FOUR SEASONS BLVD STE F11,NC,28792
Sears,LITCHFIELD,3970,3970,19 LITCHFIELD PLAZA S/C,IL,62056
Sears,THOMSON,3971,3971,663 MAIN ST,GA,30824
Sears,SAINT MARYS,3974,3974,1385 BUCKTAIL RD,PA,15857
Sears,ENGLEWOOD,3975,3975,455 S INDIANA AVE,FL,34223-3701
Sears,PICAYUNE,3976,3976,3300 HIGHWAY 11 N STE B,MS,39466-2064
Sears,DAHLONEGA,3977,3977,406 E MAIN STREET,GA,30533-0528
Sears,MANY,3978,3978,206 ELIZABETH ST,LA,71449-3081
Sears,WAYNESVILLE,3979,3979,163 WAYNESVILLE PLAZA,NC,28786
Sears,SAINT CLAIR,3980,3980,201 N RIVERSIDE AVE,MI,48079
Sears,WAHPETON,3981,3981,822 DAKOTA AVE,ND,58075
Sears,WSHNGTN CT HS,3983,3983,1572 STATE ROUTE 22 NW,OH,43160
Sears,THOMASVILLE,3986,3986,15082 U S 19 N,GA,31757
Sears,MINEOLA,3988,3988,332 W FM 564,TX,75773
Sears,ELKO,3989,3989,2645 MOUNTAIN CITY HIGHWAY,NV,89801
Sears,BREWTON,3992,3992,1023 DOUGLAS AVE,AL,36426-1559
Sears,ANTIGO,3993,3993,445 STATE ROAD 64,WI,54409
Sears,LAKE CITY,3996,3996,404 W MAIN ST,SC,29560-2318
Sears,YREKA,3998,3998,827 S MAIN ST,CA,96097-3320
Sears,TAFT,3999,3999,220 CENTER ST,CA,93268-0808
Sears,KANSAS CITY,4001,4001,3632 E FRONT ST,MO,64120-1029
Sears,LAKE CHARLES,4012,4012,3230 GERSTNER MEMORIAL DR,LA,70601
Sears,DAYTONA BEACH,4015,4015,1415 S NOVA,FL,32114
Sears,AMARILLO,4025,4025,7302 SW 34TH AVE,TX,79121
Sears,PORTAGE,4032,4032,669 MALL DRIVE,MI,49024
Sears,SANTA ANA,4049,4049,500 W WARNER AVE,CA,92707-3342
Sears,NEW CASTLE,4052,4052,700 CENTERPOINT BLVD,DE,19720
Sears,HOUSTON,4057,4057,5901 GRIGGS RD,TX,77023-6523
Sears,WEBSTER,4068,4068,20750 GULF FREEWAY,TX,77598
Sears,KANSAS CITY,4070,4070,SUITE 200,MO,64120
Sears,DENVER,4071,4071,701 OSAGE ST,CO,80204-4207
Sears,CORONA,4099,4099,492 N MAIN ST,CA,92880-2041
Sears,SPEEDWAY,4100,4100,6022 CRAWFORDSVILLE RD,IN,46224-3710
Sears,SUMTER,4111,4111,1298 BROAD STREET,SC,29150
Sears,SHREWSBURY,4113,4113,1000 BOSTON TPKE,MA,01545-3380
Sears,TACOMA,4119,4119,5401 6TH AVE STE 515,WA,98406-2645
Sears,PITTSBURGH,4121,4121,27 51ST ST,PA,15201-2707
Sears,SYRACUSE,4124,4124,306 HIAWATHA BLVD WEST SP H203,NY,13290
Sears,APPLETON,4132,4132,4635 WEST COLLEGE AVENUE,WI,54914
Sears,ALBANY,4134,4134,141 WASHINGTON AVE EXT STE 2,NY,12205-5612
Sears,MIDDLESBORO,4139,4139,2801 US HIGHWAY 25E STE 400,KY,40965-1889
Sears,CABOT,4142,4142,905 WEST MAIN STREET,AR,72023-2428
Sears,SAN LEANDRO,4158,4158,1936 W AVENUE 140TH,CA,94577-5608
Sears,PHILADELPHIA,4163,4163,780 FOULKROD ST,PA,19124-2335
Sears,CAZENOVIA,4172,4172,87-91 NELSON STREET,NY,13035
Sears,CLEARWATER,4185,4185,5251 110TH AVE N STE 120,FL,33760-4837
Sears,COLUMBUS,4186,4186,1404 OLD ABERDEEN RD,MS,39705
Sears,JACKSONVILLE,4205,4205,11111 SAN JOSE BLVD STE 1,FL,32223-7274
Sears,PEARL CITY,4248,4248,98-600 KAMEHAMEHA HWY,HI,96782
Sears,MIAMI,4256,4256,6605 S DIXIE HIGHWAY,FL,33143-7919
Sears,TUCKER,4275,4275,2301-A MT INDUSTRIAL BLVD,GA,30084-3808
Sears,NEWINGTON,4324,4324,65 HOLMES RD,CT,06111-1709
Sears,SAN DIEGO,4328,4328,960 SHERMAN ST,CA,92110-4015
Sears,TIMONIUM,4330,4330,1910 YORK RD,MD,21093-4223
Sears,BRIDGEVILLE,4333,4333,1051 WASHINGTON PIKE,PA,15017-2704
Sears,ST PETERSBURG,4335,4335,4600 PARK ST N,FL,33709-4024
Sears,WINTER PARK,4345,4345,3825 FORSYTH RD,FL,32792-6810
Sears,NASHVILLE,4356,4356,642 THOMPSON LN,TN,37204-3608
Sears,OSAGE,4463,4463,715 MAIN STREET,IA,50461
Sears,MEDLEY,4481,4481,8090 NW 77TH CT,FL,33166
Sears,ELGIN,4482,4482,822 SUMMIT AVE,IL,60120
Sears,GRAPEVINE,4486,4486,3000 GRAPEVINE MLS PKY STE 117,TX,76051
Sears,KANSAS CITY,4510,4510,3236 E FRONT STREET,MO,64120
Sears,WEST PALM BCH,4526,4526,4560 FOREST HILL BLVD,FL,33415-5638
Sears,WAUWATOSA,4583,4583,3203 N MAYFAIR RD,WI,53222
Sears,WEST BABYLON,4585,4585,1000-2 MONTAUK HWY,NY,11704
Sears,CUPEY BAJO,4595,4595,CARRETERA 176 KM 0.3,PR,926
Sears,TEMPE,4598,4598,THE GREAT MALL STE 625,AZ,85282
Sears,PRNCE WILLIAM,4599,4599,2700 POTOMAC MILLS CIR STE 707,VA,22192
Sears,VOORHEES,4601,4601,332 S BURNT MILL RD,NJ,08043-1107
Sears,DARIEN,4606,4606,7415 S CASS AVE,IL,60561-3607
Sears,COON RAPIDS,4611,4611,141 85TH AVE NW,MN,55433
Sears,CUPEY BAJO,4616,4616,CARRETERA 176 KM 0.3,PR,926
Sears,CARROLLTON,4617,4617,1215 MARSH LANE - SUITE 180,TX,75006
Sears,RANCHOCORDOVA,4618,4618,10347 FOLSOM BLVD,CA,95670
Sears,FENTON,4619,4619,639 GRAVOIS BLUFF BLVD STE A,MO,63026
Sears,COLUMBUS,4620,4620,3467 CLEVELAND AVE,OH,43224
Sears,PHILADELPHIA,4621,4621,1357 FRANKLIN MILLS CIRCLE,PA,19154
Sears,MESQUITE,4650,4650,1418 N TOWN EAST BLVD STE 100,TX,75150
Sears,POTTSTOWN,4651,4651,223 SHOEMAKER ROAD SUITE 315,PA,19464
Sears,IRVINE,4652,4652,13276 JAMBOREE RD,CA,92602
Sears,MURRAY,4654,4654,6328 S STATE ST,UT,84107
Sears,S PLAINFIELD,4661,4661,4910 HADLEY CENTER DRIVE,NJ,7080
Sears,WAUKEE,4663,4663,300 WEST HICKMAN RD,IA,50263
Sears,SAN ANTONIO,4693,4693,8910 BANDERA ROAD SUITE 100,TX,78250
Sears,SAINT JOHNSBURY,4694,4694,1999 MEMORIAL DR - STE 2,VT,5819
Sears,HAZELWOOD,4696,4696,5555 ST LOUIS MILLS BLV SP#283,MO,63042
Sears,MILPITAS,4697,4697,870 GREAT MALL DR,CA,95035-8041
Sears,CHINO,4718,4718,4036 GRAND AVE STE J,CA,91710
Sears,REDMOND,4734,4734,224 SW 6TH STREET,OR,97756
Sears,PERRYVILLE,4763,4763,68 HEATHER LANE,MD,21903-2532
Sears,HIGH POINT,4774,4774,1800 N MAIN ST,NC,27262
Sears,SCOTTSDALE,4778,4778,8684 E RAINTREE DR STE 101,AZ,85260
Sears,BYRAM,4787,4787,5547 I-55 SOUTH,MS,39272
Sears,WATERFORD,4789,4789,7374 HIGHLAND ROAD STE 4789,MI,48327
Sears,PORTAGE,4790,4790,6169 US ROUTE 6,IN,46368
Sears,FLORESVILLE,4798,4798,2301 10TH ST,TX,78114
Sears,FALL RIVER,4823,4823,133 MARIANO S BISHOP BLVD,MA,2721
Sears,MOREHEAD CITY,4828,4828,5317 HWY 70 WEST,NC,28557
Sears,KEYSER,4834,4834,500 KEYSER SQUARE,WV,26726
Sears,BORGER,4838,4838,800 NORTH WEATHERLY ST,TX,79007
Sears,TRUTH CONSQ,4839,4839,109 NORTH DATE STREET,NM,87901
Sears,E WENATCHEE,4849,4849,511 VALLEY MALL PARKWAY STE A3,WA,98802
Sears,WAYCROSS,4855,4855,2476 MEMORIAL DRIVE,GA,31503
Sears,MILTON,4864,4864,414 ROUTE 7 SOUTH,VT,5468
Sears,FAIRFIELD,4899,4899,1301 WEST BURLINGTON AVE,IA,52556
Sears,JACKSONVILLE,4950,4950,1555 PELHAM RD SOUTH STE D,AL,36265
Sears,PATASKALA,4951,4951,360 E BROAD STREET,OH,43062
Sears,NEWARK,4952,4952,ROUTE 273 AND CHAPMAN RD,DE,19702-1549
Sears,ONTARIO,4958,4958,2401 S VINEYARD AVE,CA,91761-6470
Sears,FORESTVILLE,4973,4973,3235 DONNELL DRIVE,MD,20747
Sears,NEWARK,4979,4979,310 CENTER BLVD,DE,19702
Sears,DELAWARE,4981,4981,1764 COLUMBUS PIKE,OH,43015
Sears,LAS VEGAS,4989,4989,4854 WEST LONE MOUNTAIN ROAD,NV,89130
Sears,RICHMOND,4994,4994,4100 TOMLYN ST STE A,VA,23230-3315
Sears,AVON,5002,5002,10400 E US HIGHWAY 36 STE 600,IN,46123-7003
Sears,MADRAS,5017,5017,510 SW 5TH STREET STE B,OR,97741
Sears,NORTH OLMSTED,5022,5022,23200 LORAIN RD,OH,44070-1622
Sears,INDIANAPOLIS,5031,5031,5425 E THOMPSON RD,IN,46237-2087
Sears,FAIRLESS HILLS,5033,5033,540 S OXFORD VALLEY RD,PA,19030-2615
Sears,VALPARAISO,5041,5041,1270 STRONGBOW,IN,46383
Sears,DOWNERS GROVE,5050,5050,925 OGDEN AVE,IL,60515-2828
Sears,MADISON,5052,5052,6656 N RIDGE ROAD,OH,44057
Sears,BIG RAPIDS,5053,5053,14305 NORTHLAND DRIVE,MI,49307
Sears,DALLAS,5054,5054,10031 MARSH LANE STE 131,TX,75229
Sears,REYNOLDSBURG,5060,5060,2885 GENDER ROAD,OH,43068
Sears,INDIANAPOLIS,5061,5061,8320 MICHIGAN ROAD STE 100,IN,46268
Sears,KETTERING,5062,5062,2000 E DOROTHY LN,OH,45420-1112
Sears,PASADENA,5067,5067,6793 SPENCER HWY,TX,77505-1755
Sears,FAIRFIELD,5080,5080,4655 DIXIE HWY,OH,45014-1845
Sears,CANTON,5081,5081,843 30TH ST NW,OH,44709-2901
Sears,EASTON,5083,5083,3762 EASTON NAZARETH HWY,PA,18045-8340
Sears,HOUSTON,5086,5086,11293 FUQUA ST,TX,77089-2514
Sears,KINGWOOD,5087,5087,23914 HIGHWAY 59 NORTH,TX,77339
Sears,LORAIN,5091,5091,2000 COOPER FOSTER PARK RD W,OH,44053-3608
Sears,CHELMSFORD,5103,5103,95 DRUM HILL RD,MA,01824-1503
Sears,ROANOKE,5108,5108,3355 HWY 431 SUITE 7,AL,36274
Sears,ELYRIA,5120,5120,5308 DETROIT RD,OH,44035-1440
Sears,CEDAR CITY,5122,5122,1166 S SAGE DRIVE,UT,84720
Sears,QUAKERTOWN,5123,5123,70 N WESTEND BLVD,PA,18951
Sears,NEWTON,5124,5124,RTE 206 NORTH,NJ,7860
Sears,EDWARDSVILLE,5130,5130,2300 TROY RD,IL,62025-2584
Sears,QUEENS VILLAGE,5133,5133,22005 HILLSIDE AVE,NY,11427-2033
Sears,CEDAR KNOLLS,5134,5134,235 RIDGEDALE AVE,NJ,07927-2105
Sears,ROCHESTER,5152,5152,1601 PENFIELD RD UNIT 34,NY,14625
Sears,WALLINGFORD,5154,5154,852 N COLONY RD,CT,06492-2410
Sears,PORTAGE,5157,5157,6169 US ROUTE 6,IN,46368
Sears,BONITA SPRINGS,5162,5162,28340 TRAILS EDGE BLVD,FL,34134
Sears,FLORISSANT,5171,5171,455 N HIGHWAY 67,MO,63031-5101
Sears,WEST CALDWELL,5173,5173,975 BLOOMFIELD AVE STE 2,NJ,07006-7128
Sears,CAMAS,5180,5180,224 NE 3RD AVE,WA,98607
Sears,HERNDON,5184,5184,13348 FRANKLIN FARM RD,VA,20171-4036
Sears,IOWA CITY,5186,5186,1676 SYCAMORE STREET,IA,52240
Sears,RICHLANDS,5190,5190,2010 SECOND STREET,VA,24641
Sears,BELTON,5191,5191,1147 E NORTH AVE,MO,64012
Sears,ORLEANS,5192,5192,136 ROUTE 6A UNIT B6,MA,2653
Sears,NEW MILFORD,5193,5193,507 DANBURY RD,CT,6776
Sears,COLCHESTER,5194,5194,199 OLD HARTFORD RD,CT,6415
Sears,HOUSTON,5195,5195,9425 JONES RD,TX,77065-4412
Sears,SPRING,5196,5196,4690 LOUETTA RD,TX,77388-4417
Sears,HEBER CITY,5202,5202,84 S MAIN STREET,UT,84032
Sears,MCHENRY,5207,5207,1750 N RICHMOND RD,IL,60050
Sears,MACEDONIA,5210,5210,949 E AURORA RD,OH,44056-1953
Sears,SANDUSKY,5212,5212,125 S ELK STREET,MI,48471
Sears,KENNETT SQUARE,5213,5213,817 E BALTIMORE PIKE,PA,19348-1863
Sears,GREENVILLE,5214,5214,"1651 HWY 1 SOUTH, STE 1A",MS,38701
Sears,MONROE,5215,5215,161 RICHLAND PLACE,LA,71203
Sears,SOUTH BEND,5220,5220,4035 S MICHIGAN STREET,IN,46614
Sears,WEST PALM BEACH,5221,5221,2505 OKEECHOBEE BLVD STE C,FL,33409-4071
Sears,NORRISTOWN,5223,5223,2811 DEKALB PIKE,PA,19401-1822
Sears,LIVONIA,5230,5230,12001 SEARS ST,MI,48150-2108
Sears,ROCHELLE,5231,5231,350 EAGLE DRIVE,IL,61068
Sears,GEORGETOWN,5232,5232,401 OUTLET CENTER DR STE 120,KY,40324
Sears,GLASSBORO,5243,5243,616 N DELSEA DR (RT 47),NJ,8028
Sears,KATY,5246,5246,649 S MASON RD,TX,77450-3469
Sears,SUGAR LAND,5247,5247,4550 HIGHWAY 6 SOUTH,TX,77479
Sears,SAN ANTONIO,5248,5248,6818 S ZARZAMORA,TX,78224
Sears,HIXSON,5264,5264,5450 HIGHWAY 153 STE 100,TN,37343
Sears,NASHVILLE,5270,5270,HWY 27 SOUTH,AR,71852
Sears,FAIRHAVEN,5274,5274,2 FAIRHAVEN COMMONS WAY,MA,2719
Sears,PARKER,5276,5276,18721 E PONDEROSA,CO,80134
Sears,WEST COVINA,5282,5282,728 SOUTH ORANGE AVE,CA,91790-2613
Sears,WARRINGTON,5284,5284,1661 EASTON RD STE C1,PA,18976-1200
Sears,SCHERERVILLE,5291,5291,1150 US HIGHWAY 41,IN,46375-1306
Sears,HUNTINGDON VALLEY,5293,5293,2170 COUNTY LINE RD,PA,19006-1740
Sears,CORONA,5298,5298,2280 GRIFFIN WAY,CA,92879-6531
Sears,COLUMBUS,5301,5301,1800 W HENDERSON RD,OH,43220-2502
Sears,LEAVENWORTH,5303,5303,4820 S 4TH STREET,KS,66048
Sears,COLORADO SPRINGS,5312,5312,5885 PALMER PARK BLVD,CO,80915
Sears,COLLINSVILLE,5320,5320,501 BELTLINE RD STE P 20,IL,62234-4410
Sears,ZEPHYRHILLS,5321,5321,7422 GALL BLVD,FL,33541
Sears,O FALLON,5331,5331,2947 HIGHWAY K,MO,63366-7862
Sears,FISHERS,5340,5340,11728 FISHERS CROSSING DR,IN,46038-2791
Sears,CHAGRIN FALLS,5341,5341,8459 E WASHINGTON ST,OH,44023-4511
Sears,WEST BERLIN,5344,5344,225 N ROUTE 73,NJ,08091-2500
Sears,ORLAND PARK,5351,5351,7010 W 159TH ST,IL,60462-5202
Sears,ROHNERT PARK,5352,5352,6085 STATE FARM DRIVE STE 140,CA,94928
Sears,ASHLAND,5353,5353,310 POND ST RT 126,MA,1721
Sears,MEDINA,5354,5354,1180 N COURT ST,OH,44256-1540
Sears,ALSIP,5360,5360,4849 W 111TH ST,IL,60803-2865
Sears,WEST ORANGE,5361,5361,495 PROSPECT AVE # 11,NJ,7052
Sears,DELAND,5365,5365,2661A S WOODLAND BLVD,FL,32704
Sears,BELLEVILLE,5371,5371,653 CARLYLE AVE,IL,62221-6224
Sears,HIGH RIDGE,5392,5392,40 DILLON PLAZA DR,MO,63049-2478
Sears,BERGENFIELD,5394,5394,450 S WASHINGTON AVE,NJ,07621-4316
Sears,PORTLAND,5397,5397,4500 N E 122ND AVENUE,OR,97230
Sears,FAIRLAWN,5411,5411,3737 W MARKET ST,OH,44333-4520
Sears,HOUSTON,5457,5457,8475 HIGHWAY 6 N,TX,77095-2042
Sears,GERMANTOWN,5471,5471,N 96 W 18650 COUNTY LINE RD,WI,53022
Sears,BATAVIA,5472,5472,3 N RANDALL RD,IL,60510-9208
Sears,ROSELLE,5473,5473,551 556 RARITAN RD,NJ,7203
Sears,ALLISON PARK,5474,5474,4706 ROUTE 8,PA,15101-2457
Sears,SHELTON,5484,5484,705 BRIDGEPORT AVE,CT,06484-4704
Sears,LOVELAND,5502,5502,3990 US 22 & 3,OH,45140
Sears,PORT JEFF STA,5523,5523,5137 NESCONSET HWY RR347,NY,11776
Sears,SOLON,5539,5539,6221 S O M CENTER RD,OH,44139
Sears,PICKERINGTON,5564,5564,1075 HILL RD N,OH,43147-8666
Sears,OLEAN,5574,5574,400 NORTH UNION ST UNIT H6,NY,14760
Sears,LOGAN,5578,5578,115 EAST 400 N,UT,84321
Sears,LONGMONT,5579,5579,700 KEN PRATT BLVD STE K2-B,CO,80501
Sears,FRANKFORT,5580,5580,831 LOUISVILLE RD,KY,40601
Sears,BAD AXE,5592,5592,850 N VAN DYKE,MI,48413
Sears,MANITOWOC,5593,5593,700 E MAGNOLIA UNIT 220,WI,54220
Sears,COLLEGEVILLE,5604,5604,305 2ND AVE STE 201,PA,19426-2658
Sears,MELROSE PARK,5640,5640,2065 GEORGE ST,IL,60160-1521
Sears,MORAGA,5684,5684,1550 CANYON RD,CA,94556-1948
Sears,HUNTSVILLE,5688,5688,1702 A 11TH STREET,TX,77340
Sears,EPHRATA,5693,5693,1206 BASIN ST SW,WA,98823
Sears,KILMARNOCK,5695,5695,412 NORTH MAIN STREET,VA,22482
Sears,BOLINGBROOK,5702,5702,200 N WEBER RD,IL,60440-1566
Sears,WESLACO,5710,5710,1025 NORTH TEXAS BLVD STE 9,TX,78596
Sears,THE WOODLANDS,5736,5736,4775 W PANTHER CREEK DR,TX,77381-4539
Sears,FOLEY,5770,5770,3798 S MCKENZIE ST,AL,36535
Sears,LAKE ZURICH,5772,5772,832 S RAND RD,IL,60047-2465
Sears,CENTREVILLE,5774,5774,6365 MULTIPLEX DR,VA,20121-5327
Sears,RENO,5779,5779,7525 COLBERT DR STE 108,NV,89511
Sears,SAN RAFAEL,5787,5787,530 W FRANCISCO BLVD STE C,CA,94901
Sears,SAN JOSE,5791,5791,1720 RINGWOOD AVE,CA,95131
Sears,CONCORD,5798,5798,2260 COMMERCE AVE STE E,CA,94520-4905
Sears,SACRAMENTO,5799,5799,1200 DEL PASO RD STE 150,CA,95834
Sears,HEWITT,5804,5804,1926 UNION VALLEY RD,NJ,07421-3020
Sears,YOUNGSTOWN,5810,5810,6009 MAHONING AVE,OH,44515-2227
Sears,BRISTOL,5814,5814,1235 FARMINGTON AVE RTE 6,CT,6010
Sears,NEWARK,5843,5843,400 COLLEGE SQ,DE,19711-5453
Sears,TEMPE,5861,5861,9025 S KYRENE RD OPUS COMMONS,AZ,85284
Sears,LAS VEGAS,5864,5864,7370 S DEAN MARTIN DR STE 401,NV,89139
Sears,SCOTTSDALE,5865,5865,15500 GREENWAY-HAYDEN LOOP 103,AZ,85260
Sears,TUCSON,5866,5866,3850 W ORANGE GROVE ROAD,AZ,85741
Sears,PARMA,5871,5871,7490 BROADVIEW RD,OH,44134-5718
Sears,TONAWANDA,5873,5873,1764 SHERIDAN DR,NY,14223-1212
Sears,HOWELL,5874,5874,4010 ROUTE 9 S,NJ,07731-3315
Sears,MIDLAND PARK,5902,5902,80 GODWIN AVE,NJ,07432-1951
Sears,SHIRLEY,5914,5914,1019 MONTAUK HWY,NY,11967-2111
Sears,READING,5934,5934,700 KENHORST PLZ,PA,19607-3649
Sears,NORTH WINDHAM,5954,5954,29 N RIDGE DR,CT,06256-1061
Sears,BONITA SPRING,5958,5958,27180 BAY LANDING DR,FL,34135
Sears,W PALM BEACH,5959,5959,400 NORTHPOINT PKWY STE403,FL,33407
Sears,POMPANO BEACH,5962,5962,1742 W ATLANTIC BLVD.,FL,33069
Sears,SARASOTA,5976,5976,5670 FRUITVILLE ROAD,FL,34232
Sears,PHOENIXVILLE,5980,5980,700 NUTT RD STE 500,PA,19460-3344
Sears,MIAMI,5991,5991,6300 S DIXIE HWY,FL,33143
Sears,WATERLOO,6002,6002,2060 CROSSROADS BLVD,IA,50702-4423
Sears,ROANOKE,6005,6005,4812 VALLEY VIEW BLVD (MALL),VA,24012
Sears,VALDOSTA,6006,6006,1709 BAYTREE RD,GA,31602-3507
Sears,PORTLAND,6009,6009,9800 SW WASHINGTON SQUARE RD,OR,97223-4455
Sears,SPRINGDALE,6010,6010,300 E KEMPER RD(TRI CNTY S/C),OH,45246
Sears,BEAVERCREEK,6012,6012,2727 FAIRFIELD COMMONS BLVD,OH,45431-3778
Sears,COLUMBIA,6013,6013,7201 TWO NOTCH RD #300,SC,29223-7527
Sears,YORK,6014,6014,5 GALLERIA MALL(WHITEFORD RD),PA,17402
Sears,JENSEN BEACH,6015,6015,3342 NW FEDERAL HWY,FL,34957-4404
Sears,CRANBERRY TOWNSHIP,6016,6016,2045 MACKENZIE WAY STE 400,PA,16066
Sears,LACEY,6021,6021,651 SLEATER KINNEY SE #1300,WA,98503-1071
Sears,NASHUA,6023,6023,310 DANIEL WEBSTER HWY STE 102,NH,03060-5731
Sears,MOORESTOWN,6024,6024,RT 38 & LENOLA RD,NJ,8057
Sears,CHARLESTON,6026,6026,2068 SAM RITTENBURG-CITADEL ML,SC,29407
Sears,PITTSBURGH,6027,6027,1008 ROSS PARK MALL DR,PA,15237-3803
Sears,SHORELINE,6028,6028,15711 AURORA AVE N,WA,98133-5921
Sears,FORT COLLINS,6029,6029,205 E FOOTHILLS PKWY,CO,80525-2612
Sears,PUYALLUP,6030,6030,3500 S MERIDIAN STE 900,WA,98373-3722
Sears,VANCOUVER,6031,6031,8800 NE VANCOUVER MALL DR,WA,98662-6745
Sears,SAINT PETERS,6032,6032,#3 MID RIVERS MALL,MO,63376
Sears,BRAINTREE,6033,6033,250 GRANITE ST,MA,02184-2804
Sears,WATERFORD,6034,6034,850 HARTFORD TPK/CRYSTAL MALL,CT,6385
Sears,ASHEVILLE,6035,6035,1 S TUNNEL RD,NC,28805-2218
Sears,LEWISVILLE,6036,6036,2401 S STEMMONS FWY STE 5000,TX,75067-8797
Sears,HURST,6037,6037,7000 NORTHEAST MALL,TX,76053
Sears,LOS ANGELES,6038,6038,BALDWIN HLS-3755 SANTA ROSALIA,CA,90008
Sears,FRANKLIN,6042,6042,3457 TOWNE BLVD,OH,45005-5512
Sears,GREENVILLE,6043,6043,700 HAYWOOD RD,SC,29607-2781
Sears,ANCHORAGE,6048,6048,700 E NORTHERN LIGHTS BLVD,AK,99503-4133
Sears,MISSOULA,6050,6050,SOUTHGATE ML-US HWY 93 & GRANT,MT,59801
Sears,AURORA,6051,6051,14200 E ALAMEDA AVE,CO,80012-2511
Sears,TAMPA,6052,6052,8245B NORTH FLORIDA AVE,FL,33604
Sears,MERIDEN,6053,6053,470 LEWIS AVE,CT,06451-2103
Sears,BRONX,6054,6054,4720 3RD AVE,NY,10458-5806
Sears,PALM BEACH GARDENS,6055,6055,3101 PGA BLVD/GARDENS MALL,FL,33410-2820
Sears,ELIZABETHTOWN,6056,6056,1704 N TOWNE MALL,KY,42701
Sears,HAPPY VALLEY,6058,6058,11800 SE 82ND AVE,OR,97086
Sears,LUFKIN,6059,6059,4600 S MEDFORD DR,TX,75901-5613
Sears,ELYRIA,6060,6060,4900 MIDWAY MALL,OH,44035-2470
Sears,TOPEKA,6061,6061,2100 SW WESTPORT DR,KS,66614-1932
Sears,HUTCHINSON,6062,6062,1500 E 11TH-HUTCHINSON ML 4000,KS,67501
Sears,WALDORF,6063,6063,11145 MALL CIR-ST CHARLES CTR,MD,20603
Sears,BETHEL PARK,6064,6064,680 SOUTH HILLS VILLAGE,PA,15102
Sears,NAPLES,6065,6065,2000 9TH ST N,FL,34102-4816
Sears,MOBILE,6066,6066,3201 BEL AIR MALL,AL,36606-3202
Sears,CHEYENNE,6068,6068,1400 DEL RANGE BLVD,WY,82009-4801
Sears,LITTLETON,6069,6069,8501 W BOWLES AVE,CO,80123-9502
Sears,GREENWOOD,6070,6070,1251 US HIGHWAY 31 N,IN,46142-4503
Sears,DES MOINES,6072,6072,MERLE HAY ML-4000 MERLE HAY RD,IA,50310
Sears,JERSEY CITY,6073,6073,50 MALL DR W,NJ,07310-1601
Sears,CLARKSVILLE,6074,6074,2801 WILMA RUDOLPH BLVD,TN,37040-5011
Sears,STREETSBORO,6076,6076,1276 STATE ROUTE 303,OH,44241
Sears,ROCHESTER,6077,6077,317 GREECE RIDGE CENTER DR,NY,14626-2920
Sears,TACOMA,6078,6078,4502 S STEELE ST STE 100,WA,98409
Sears,COLORADO SPRINGS,6079,6079,1650 BRIARGATE BLVD,CO,80920-3442
Sears,BEND,6080,6080,3044 N HWY 97,OR,97701
Sears,SALINA,6082,6082,2259 S 9TH ST,KS,67401-7313
Sears,CORAL SPRINGS,6084,6084,9565 W ATLANTIC BLVD,FL,33071-6943
Sears,PANAMA CITY,6085,6085,731 HWY 231,FL,32405-5302
Sears,CENTENNIAL,6089,6089,7001 S UNIVERSITY BLVD,CO,80122-1599
Sears,QUINCY,6090,6090,3400 QUINCY MALL,IL,62301-4640
Sears,SCHAUMBURG,6091,6091,890 PERIMETER DR,IL,60173-5048
Sears,HOLYOKE,6093,6093,86 LOWER WESTFIELD-INGELSIDE M,MA,1040
Sears,DALLAS,6094,6094,3450 W CAMP WISDOM RD,TX,75237-2504
Sears,MORROW,6095,6095,1300 SOUTHLAKE MALL,GA,30260-2326
Sears,MONTGOMERY,6096,6096,1500 EASTDALE MALL,AL,36117-2120
Sears,PALMDALE,6098,6098,1453 W AVENUE P,CA,93551-3968
Sears,FARMINGTON,6099,6099,4601 E MAIN ST,NM,87402-8667
Sears,LUBBOCK,6103,6103,6002 SLIDE RD,TX,79414-4310
Sears,BROOKLYN,6104,6104,2359 BEDFORD AVE,NY,11226-5403
Sears,HUMBLE,6105,6105,20131 HWY 59 - DEERBROOK MALL,TX,77338
Sears,MEMPHIS,6106,6106,1175 E SHELBY DR,TN,38116-7123
Sears,NORTH LITTLE ROCK,6107,6107,3930 MCCAIN BLVD,AR,72116-8055
Sears,FEDERAL WAY,6109,6109,1701 S COMMONS,WA,98003
Sears,PORTAGE,6112,6112,6780 S WESTNEDGE AVE,MI,49024-3589
Sears,DANBURY,6113,6113,7 BACKUS AVE DANBURY FAIR MALL,CT,6810
Sears,MIDDLETOWN,6114,6114,1500 HIGHWAY 35,NJ,07748-1831
Sears,LAKELAND,6115,6115,3800 N RD 98 STE 500,FL,33809
Sears,ROCHESTER,6117,6117,JEFFERSON & W HENRIETTA/MKT PL,NY,14623
Sears,SLIDELL,6118,6118,150 NORTHSHORE BLVD STE 1000,LA,70460-6822
Sears,REDMOND,6119,6119,2200 148TH AVE NE,WA,98052-5524
Sears,SILVERDALE,6120,6120,KITSAP ML-10315 SILVERDALE NW,WA,98383-7670
Sears,MAPLEWOOD,6122,6122,3001 WHITE BEAR AVE N,MN,55109-1215
Sears,PRESQUE ISLE,6123,6123,ARROSTOOK MALL-830 MAIN ST,ME,4769
Sears,ORLANDO,6124,6124,8001 S ORANGE BLOSSOM TRL,FL,32809-7654
Sears,DAYTONA BEACH,6125,6125,1700 W INTL SPEEDWAY BLVD,FL,32114
Sears,BUFFALO,6126,6126,3701 MCKINLEY PKWY,NY,14219-2695
Sears,JOHNSTOWN,6127,6127,540 GALLERIA DR,PA,15904-8900
Sears,LOS ANGELES,6128,6128,2711 E OLYMPIC BLVD,CA,90023-3409
Sears,LAS CRUCES,6129,6129,700 S TELSHOR BLVD,NM,88011-4669
Sears,CLARKSVILLE,6130,6130,823 E HWY 131 GREEN TREE MALL,IN,47129
Sears,KENNEWICK,6131,6131,455 COLUMBIA CTR,WA,99336-1164
Sears,BURNSVILLE,6132,6132,14250 BUCK HILL RD,MN,55306-4925
Sears,VALLEY STREAM,6134,6134,1150 SUNRISE HWY-GREEN ACRES,NY,11580
Sears,SAN ANTONIO,6136,6136,7635 IH 35 S,TX,78224
Sears,DALTON,6138,6138,816 WALNUT SQUARE BLVD STE A,GA,30721-4500
Sears,SANTA FE,6139,6139,4250 CERRILLOS RD,NM,87507-4697
Sears,CARTERSVILLE,6142,6142,206 NELSON STREET,GA,30120
Sears,HANOVER,6144,6144,HANOVER MAL/1775 WASHINGTON ST,MA,2339
Sears,FLORENCE,6148,6148,301 COX CREEK PKWY,AL,35630-1574
Sears,SPRINGFIELD,6151,6151,GATEWAY MALL-3030 GATEWAY BLVD,OR,97477
Sears,EDEN PRAIRIE,6152,6152,8301 FLYING CLOUD DR,MN,55344-5381
Sears,HATTIESBURG,6154,6154,1000 TURTLE CREEK DR,MS,39402-1145
Sears,PENSACOLA,6156,6156,7171 N DAVIS HWY,FL,32504-6254
Sears,ANDERSON,6158,6158,3101 N MAIN ST,SC,29621-2767
Sears,COLUMBUS,6160,6160,222 COMMONS MALL STE A,IN,47201-6762
Sears,COEUR D ALENE,6161,6161,200 W HANLEY AVE,ID,83815-6703
Sears,LANSING,6162,6162,3131 E MICHIGAN AVE,MI,48912-4618
Sears,SAUGUS,6163,6163,1325 BROADWAY,MA,01906-4178
Sears,HARRISBURG,6164,6164,4600 JONESTOWN-COLONIAL PK ML,PA,17109
Sears,MASSENA,6166,6166,6129 SAINT LAWRENCE CTR,NY,13662-3214
Sears,EL PASO,6167,6167,8401 GATEWAY W-CIELO VISTA ML,TX,79925
Sears,BURLINGTON,6170,6170,600 CASCADE MALL DR,WA,98233-3260
Sears,OAK BROOK,6171,6171,2 OAKBROOK CENTER MALL,IL,60523-1810
Sears,BLOOMINGDALE,6172,6172,#5 STRATFORD SQ,IL,60108
Sears,FREEHOLD,6173,6173,3710 US HIGHWAY 9 STE 1100,NJ,7728
Sears,PLANO,6174,6174,851 N CENTRAL EXPWY,TX,75075
Sears,WESTOVER,6176,6176,9520 MALL RD-MORGANTOWN MALL,WV,26505
Sears,WEST MIFFLIN,6177,6177,3075 CLAIRTON - CENTURY 111 ML,PA,15123
Sears,SACRAMENTO,6178,6178,1601 ARDEN WAY,CA,95815-4004
Sears,GREELEY,6179,6179,2800 GREELEY MALL,CO,80631-8517
Sears,CANTON,6180,6180,4100 BELDEN VILLAGE MALL,OH,44718-2502
Sears,WATERFORD,6182,6182,435 N TELEGRAPH RD,MI,48328-3332
Sears,SALEM,6183,6183,77 ROCKINGHAM PARK BLVD,NH,03079-2964
Sears,NORTH ATTLEBORO,6184,6184,1009 S WASHINGTON ST,MA,02760-3619
Sears,MIAMI,6185,6185,19505 BISCAYNE BLVD,FL,33180-2314
Sears,AIKEN,6186,6186,2441 WHISKEY RD,SC,29803-7679
Sears,COLUMBIA,6188,6188,100 COLUMBIANA CIR STE 101,SC,29212-2240
Sears,BOISE,6189,6189,460 N MILWAUKEE ST,ID,83704-9122
Sears,ALBANY,6190,6190,HERITAGE MALL-2095 14TH AVE SE,OR,97322-8509
Sears,WICHITA,6192,6192,4600 W KELLOGG DR,KS,67209-2568
Sears,PINEVILLE,6193,6193,11033 CAROLINA PK-CAROLINA PL,NC,28134-8370
Sears,WILMINGTON,6194,6194,3240 KIRKWOOD HWY,DE,19808-6130
Sears,MARY ESTHER,6195,6195,300 MARY ESTHER BLVD,FL,32569-1693
Sears,HOUSTON,6197,6197,9570 SOUTHWEST FRWY,TX,77074
Sears,VICTORVILLE,6199,6199,VICTOR VLY---14420 BEAR VLY RD,CA,92392
Sears,KANSAS CITY,6201,6201,5415 NE ANTIOCH RD,MO,64119-2522
Sears,LINCOLN PARK,6202,6202,2100 SOUTHFIELD RD,MI,48146-2250
Sears,HICKSVILLE,6204,6204,195 N BROADWAY,NY,11801-2912
Sears,AUGUSTA,6205,6205,3450B WRIGHTSBORO RD,GA,30909-2511
Sears,AUBURN,6207,6207,600 CENTER STREET,ME,4210
Sears,ANN ARBOR,6212,6212,900 BRIARWOOD CIR,MI,48108-1618
Sears,SPOKANE,6214,6214,14700 E INDIANA AVE,WA,99216-1839
Sears,JACKSONVILLE,6215,6215,10302 SOUTHSIDE-THE AVENUE ML,FL,32256
Sears,FORT LAUDERDALE,6216,6216,532 E SUNRISE BLVD,FL,33304-2033
Sears,VICTOR,6217,6217,200 EASTVIEW MALL,NY,14564-1006
Sears,AIEA,6218,6218,98-180 KAMEHAMEHA HWY,HI,96701-4711
Sears,CASPER,6219,6219,701 SE WYOMING BLVD,WY,82609-4213
Sears,COLUMBUS,6220,6220,2765 EASTLAND MALL,OH,43232-4902
Sears,WICHITA,6221,6221,7700 E KELLOGG DR,KS,67207-1772
Sears,HOUSTON,6222,6222,3000 WILLOWBROOK MALL,TX,77070-5715
Sears,BURLINGTON,6223,6223,RT 541 & I-295,NJ,8016
Sears,TALLAHASSEE,6225,6225,1500 APALACHEE PKWY,FL,32301-3055
Sears,POMPANO BEACH,6226,6226,2251 N FEDERAL HWY,FL,33062-1009
Sears,FAYETTEVILLE,6227,6227,4201 N SHILOH DR,AR,72703-5197
Sears,HAMMOND,6228,6228,2000 SW RAILROAD AVE,LA,70403
Sears,TOLEDO,6230,6230,3408 W CENTRAL AVE,OH,43606-1413
Sears,ODESSA,6231,6231,4101 E 42ND ST,TX,79762-7239
Sears,ROSEVILLE,6232,6232,32123 GRATIOT AVE,MI,48066-1147
Sears,COVINA,6233,6233,710 W ARROW HWY,CA,91722-1312
Sears,MIDDLETOWN,6234,6234,GALLERIA ML/1GALLERIA -STE 144,NY,10940
Sears,DAYTON,6235,6235,5200 SALEM AVE,OH,45426-1708
Sears,CHEEKTOWAGA,6236,6236,7 GALLERIA DR--2000 WALDEN AVE,NY,14225
Sears,CINCINNATI,6237,6237,9505 COLERAIN AVE/NORTHGATE ML,OH,45251
Sears,SEATTLE,6239,6239,2759 1ST AVE S,WA,98134-1823
Sears,LIVINGSTON,6242,6242,S ORANGE AVE & WALNUT ST,NJ,7039
Sears,SHELBY,6244,6244,2001 E DIXON BLVD STE 56,NC,28152-6968
Sears,MERRITT ISLAND,6245,6245,777 E MERRITT ISLAND CSWY #300,FL,32952-3571
Sears,HOUSTON,6247,6247,4111 FANNIN ST,TX,77004-4807
Sears,FAIRBANKS,6250,6250,3115 AIRPORT WAY,AK,99709-4755
Sears,LIVONIA,6252,6252,29500 7 MILE RD,MI,48152-1910
Sears,AUGUSTA,6253,6253,TURNPIKE MALL/10 WHITTEN RD,ME,4330
Sears,NEW CASTLE,6254,6254,2500 W STATE ST UNION PLZ,PA,16101
Sears,DU BOIS,6255,6255,690 SHAFFER RD,PA,15801-3304
Sears,BRUNSWICK,6256,6256,100 MALL BLVD STE 300,GA,31525-1857
Sears,MODESTO,6258,6258,100 VINTAGE FAIRE MALL,CA,95356-0559
Sears,LYNNWOOD,6259,6259,18600 ALDERWOOD MALL PKWY,WA,98037-8003
Sears,ONTARIO,6260,6260,2530 S EUCLID AVE,CA,91762
Sears,OVERLAND PARK,6261,6261,9701 METCALF AVE,KS,66212-2219
Sears,AUBURN,6263,6263,387 SOUTHBRIDGE ST,MA,01501-2404
Sears,STATEN ISLAND,6264,6264,283 PLATINUM AVE,NY,10314-5805
Sears,TITUSVILLE,6265,6265,3550 S WASHINGTON AVE,FL,32780-8627
Sears,SARATOGA SPRINGS,6266,6266,417 LOUDEN RD/SARATOGA MALL,NY,12866
Sears,KANEOHE,6268,6268,46-056 KAMEHAMEHA HWY,HI,96744-3755
Sears,VISALIA,6271,6271,3501 S MOONEY BLVD,CA,93277-7775
Sears,REDLANDS,6272,6272,1625 W REDLANDS,CA,92373
Sears,SWANSEA,6274,6274,262 SWANSEA MALL DR,MA,2777
Sears,CHARLESTON,6275,6275,200 QUARRIER ST,WV,25301-2006
Sears,SHREVEPORT,6276,6276,3595 SOUTHERN AVE,LA,71104-4121
Sears,ASHEBORO,6277,6277,1437 EAST DIXIE DR,NC,27203-0611
Sears,CLEVELAND,6278,6278,200 PAUL HUFF PARKWAY SPC 504,TN,37312
Sears,YUMA,6280,6280,3150 S 4TH AVE,AZ,85364-8104
Sears,PEABODY,6283,6283,RTS 114 & 128 -NORTHSHORE MALL,MA,1960
Sears,FAIRFAX,6284,6284,12000 FAIR OAKS MALL,VA,22033
Sears,PORT RICHEY,6285,6285,9409 US HIGHWAY 19 N STE 101,FL,34668-4626
Sears,BARBOURSVILLE,6287,6287,100 HUNTINGTON MALL,WV,25504
Sears,COLUMBUS,6290,6290,4411 W BROAD ST,OH,43228-1620
Sears,HYANNIS,6293,6293,RT 132 CAPE COD MALL,MA,2601
Sears,WATCHUNG,6294,6294,1640 ROUTE 22,NJ,07069-6503
Sears,JACKSON,6296,6296,2021 N HIGHLAND AVE,TN,38305-4903
Sears,DECATUR,6297,6297,1801 BELTLINE RD SW,AL,35601-5501
Sears,NORTHWOOD,6300,6300,3725 WILLISTON RD,OH,43619-2032
Sears,SANTA MARIA,6301,6301,TOWN CTR ML--200 TOWN CTR EAST,CA,93454
Sears,TROY,6302,6302,300 W 14 MILE RD,MI,48083-4218
Sears,LAFAYETTE,6307,6307,5715 JOHNSTON ST,LA,70503-5302
Sears,PLANTATION,6308,6308,8000 W BROWARD BLVD STE 100,FL,33388-0002
Sears,NORTH HOLLYWOOD,6309,6309,13007 SHERMAN WAY,CA,91605
Sears,SANTA BARBARA,6311,6311,3845 STATE ST,CA,93105-3111
Sears,INDIANAPOLIS,6312,6312,6020 E 82ND ST,IN,46250-4746
Sears,CHATTANOOGA,6313,6313,2100 HAMILTON PLACE BLVD,TN,37421-6006
Sears,SEAFORD,6314,6314,22954 SUSSEX HWY,DE,19973-1756
Sears,WASHINGTON,6316,6316,1500 W CHESTNUT ST,PA,15301-5864
Sears,MENTOR,6320,6320,7875 JOHNNYCAKE RIDGE RD,OH,44060-5529
Sears,ELMWOOD PARK,6321,6321,1630 N HARLEM AVE,IL,60707-4302
Sears,VERNON HILLS,6322,6322,#2 HAWTHORN CTR,IL,60061
Sears,NORTH DARTMOUTH,6323,6323,100 N DARTMOUTH MALL,MA,02747-4204
Sears,CHAMBERSBURG,6324,6324,400 CHAMBERSBURG MALL,PA,17201-8101
Sears,METAIRIE,6326,6326,4400 VETERANS MEMORIAL BLVD,LA,70006-5329
Sears,CHESAPEAKE,6327,6327,1401 GREENBRIER PKWY,VA,23320-2830
Sears,WATERBURY,6328,6328,375 UNION ST,CT,06706-1299
Sears,LAKE JACKSON,6329,6329,110 W HWY 332 STE 1096,TX,77566-4016
Sears,KAHULUI,6330,6330,275 KAAHUMANU AVE #1000,HI,96732
Sears,BILLINGS,6331,6331,1515 GRAND AVE-WEST PK PLZ,MT,59102
Sears,MERRILLVILLE,6332,6332,2300 SOUTHLAKE MALL,IN,46410-6443
Sears,MANCHESTER,6334,6334,1500 S WILLOW ST,NH,03103-3220
Sears,PORT CHARLOTTE,6335,6335,1441 TAMIAMI-TOWN CTR ML #801,FL,33948
Sears,CENTERVILLE,6336,6336,2930 WATSON BLVD/GALLERIA ML,GA,31028-1245
Sears,CLAY,6337,6337,GREAT NORTHERN ML-4155 RT 31,NY,13041
Sears,VINELAND,6338,6338,117 N DELSEA DR,NJ,08360-3619
Sears,WACO,6339,6339,6001 W WACO DR,TX,76710-6306
Sears,CLEVELAND,6340,6340,6950 W 130TH ST,OH,44130-7809
Sears,SIOUX FALLS,6343,6343,3400 EMPIRE MALL,SD,57106-6504
Sears,BETHESDA,6344,6344,7103 DEMOCRACY BLVD,MD,20817-1007
Sears,BAY SHORE,6345,6345,1701 SUNRISE HWY,NY,11706-6091
Sears,MARION,6346,6346,1377 MARION WALDO RD,OH,43302-7435
Sears,SARASOTA,6347,6347,8201 S TAMIAMI TRL,FL,34238-2966
Sears,FORT SMITH,6348,6348,5111 ROGERS AVE,AR,72903-2047
Sears,SAN ANTONIO,6349,6349,6909 N LOOP 1604 E,TX,78247-5317
Sears,AURORA,6352,6352,#2 FOX VALLEY CTR,IL,60504-4183
Sears,GRETNA,6356,6356,197-5 WESTBANK EXPWY,LA,70053
Sears,LOUISVILLE,6357,6357,JEFFERSN ML-4807 OUTER LOOP DR,KY,40219
Sears,JACKSONVILLE,6358,6358,9501 ARLINGTON EXWY-REGENCY SQ,FL,32225
Sears,BOCA RATON,6359,6359,5900 GLADES RD,FL,33431-7203
Sears,CHICAGO,6361,6361,4035 N CICERO AVE,IL,60641
Sears,INDIANAPOLIS,6362,6362,10202 E WASHINGTON/WASH SQ ML,IN,46229
Sears,SPRINGFIELD,6363,6363,1525 BOSTON RD,MA,1129
Sears,CAMP HILL,6364,6364,3595 CAPITAL CITY MALL,PA,17011-7009
Sears,LEESBURG,6365,6365,10401-2002 HIGHWAY 441,FL,34788
Sears,SAINT CLAIRSVILLE,6366,6366,67800 MALL RING RD,OH,43950
Sears,GAINESVILLE,6368,6368,6201 NEWBERRY RD,FL,32605
Sears,AUSTIN,6369,6369,2901 CAPITOL OF TX HWY S,TX,78746
Sears,GLEN BURNIE,6370,6370,7900 RITCHIE HWY,MD,21061
Sears,VERO BEACH,6371,6371,6200 20TH ST SUITE 300,FL,32966
Sears,BROOKLYN CENTER,6372,6372,1299 SHINGLE CREEK CROSSING,MN,55430-2893
Sears,WINCHESTER,6373,6373,1850 APPLE BLOSSOM DR,VA,22601-5136
Sears,BRIDGEPORT,6375,6375,225 MEADOWBROOK MALL,WV,26330
Sears,KENNESAW,6377,6377,400 ERNEST BARRETT PKWY,GA,30144
Sears,ABILENE,6379,6379,4310 BUFFALO GAP RD,TX,79606-2724
Sears,LEXINGTON,6380,6380,3555 NICHOLASVILLE-FAYETTE ML,KY,40503
Sears,NILES,6381,6381,9411 GREENWOOD AVE,IL,60714-3174
Sears,MINNETONKA,6382,6382,12431 WAYZATA BLVD,MN,55305
Sears,BOURBONNAIS,6383,6383,NORTHFIELD SQ-1600 STATE RD 50,IL,60914
Sears,WILKES BARRE,6384,6384,WYOMING VLY VALL/RT 115,PA,18711
Sears,NEW PHILADELPHIA,6385,6385,NEW TOWNE MALL-400 MILL AVE,OH,44663
Sears,DORAL,6389,6389,1625 NW 107TH AVE,FL,33172
Sears,CHERRY VALLEY,6391,6391,7200 HARRISON AVE,IL,61112
Sears,SPRINGFIELD,6392,6392,104 WHITE OAKS MALL,IL,62707
Sears,DOVER,6394,6394,1000 DOVER MALL/RTE 13,DE,19901
Sears,MONROE,6396,6396,4800 MILHAVEN RD-PECANLAND ML,LA,71203
Sears,FORT WORTH,6397,6397,1800 GREEN OAKS RD,TX,76116
Sears,MESA,6398,6398,1425 W SOUTHERN AVE,AZ,85202
Sears,BATON ROUGE,6399,6399,6551 BLUEBONNET BLVD,LA,70809
Sears,FREDERICK,6403,6403,5500 BUCKEYSTOWN PIKE,MD,21703
Sears,NEW BRUNSWICK,6404,6404,45 US HWY #1,NJ,8901
Sears,ATLANTA,6405,6405,2201 HENDERSON MILL RD,GA,30345
Sears,LITTLE ROCK,6406,6406,600 S UNIVERSITY AVE,AR,72205
Sears,MURFREESBORO,6408,6408,1720 OLD FORT PKWY,TN,37129-3351
Sears,SAN ANTONIO,6409,6409,6301 NW LOOP 410,TX,78238
Sears,GRAND RAPIDS,6411,6411,3099-28TH ST,MI,49512-1667
Sears,BLOOMINGTON,6412,6412,2812 E 3RD ST,IN,47401-5423
Sears,FAYETTEVILLE,6413,6413,400 CROSS CREEK MALL,NC,28303
Sears,ASHLAND,6415,6415,10699 US RT 60 STE 1000,KY,41102-6912
Sears,CHILLICOTHE,6416,6416,1075 N BRIDGE-CHILLICOTHE MALL,OH,45601
Sears,DULUTH,6417,6417,2100 PLEASANT HILL RD,GA,30096
Sears,JACKSONVILLE,6418,6418,344 JACKSONVILLE MALL,NC,28546
Sears,BARTLESVILLE,6419,6419,2350 SE WASHINGTON BLVD,OK,74006-7291
Sears,FLINT,6421,6421,3191 LINDEN RD,MI,48507-3003
Sears,GREAT FALLS,6422,6422,1200 10TH AVE S,MT,59405
Sears,BURLINGTON,6423,6423,1100 MIDDLESEX TURNPIKE,MA,1803
Sears,NANUET,6424,6424,100 W RT 59,NY,10954-2215
Sears,DALLAS,6427,6427,13131 PRESTON RD,TX,75240
Sears,TULSA,6428,6428,6929 S MEMORIAL,OK,74133
Sears,CORPUS CHRISTI,6429,6429,1305 AIRLINE DR-SUNRISE MALL,TX,78412
Sears,SAN LUIS OBISPO,6430,6430,273 MADONNA RD,CA,93405-5430
Sears,IDAHO FALLS,6431,6431,2300 E 17TH ST,ID,83404
Sears,NOVI,6432,6432,27600 NOVI RD,MI,48377
Sears,SILVER SPRING,6433,6433,11259 NEW HAMPSHIRE-WHITE OAK,MD,20904
Sears,WAYNE,6434,6434,50 ROUTE 46,NJ,07470-6834
Sears,FINDLAY,6435,6435,1800 TIFFIN AVE,OH,45840
Sears,JONESBORO,6436,6436,1901 S CARAWAY RD,AR,72401-5218
Sears,CLOVIS,6439,6439,2811 N PRINCE ST,NM,88101-4481
Sears,ANTIOCH,6441,6441,2600 SOMERSVILLE RD,CA,94509
Sears,ORLAND PARK,6442,6442,#2 ORLAND SQ MALL,IL,60462
Sears,WILMINGTON,6443,6443,3500 OLEANDER-INDEPENDENCE ML,NC,28403
Sears,LAKE GROVE,6444,6444,4 SMITH-HAVEN MALL,NY,11755
Sears,ENID,6449,6449,4125 W GARRIOTT RD,OK,73703
Sears,PEMBROKE PINES,6450,6450,12055 PINES BLVD,FL,33026
Sears,SAGINAW,6451,6451,4900 FASHION SQ MALL,MI,48604
Sears,JOLIET,6452,6452,2 LOUIS ML LOOP-3340 MALL LOOP,IL,60435
Sears,DEDHAM,6453,6453,300 PROVIDENCE HWY,MA,02026-1885
Sears,MAYS LANDING,6454,6454,4409 BLK HORSE PIKE,NJ,8330
Sears,BRISTOL,6455,6455,500 GATE CITY HWY,VA,24201
Sears,LANCASTER,6456,6456,1701 RIVER VALEY CIRCLE S,OH,43130-1470
Sears,BATON ROUGE,6457,6457,9001 CORTANA PL,LA,70815-8704
Sears,BREA,6458,6458,100 BREA MALL,CA,92821
Sears,IRVING,6459,6459,2501 IRVING MALL,TX,75062
Sears,MERCED,6460,6460,1011 W OLIVE AVE,CA,95348
Sears,SANTA CRUZ,6461,6461,4015 CAPITOLA RD,CA,95062
Sears,CHESTERFIELD,6462,6462,#1 CHESTERFIELD MALL,MO,63017
Sears,EAST AURORA,6463,6463,42 RILEY ST SUITE 200,NY,14052
Sears,MONACA,6464,6464,300 BEAVER VLY MALL,PA,15061
Sears,HORSEHEADS,6465,6465,3300 CHAMBERS RD S-ARNOT MALL,NY,14845-5050
Sears,MEMPHIS,6466,6466,4570 POPLAR AVE,TN,38117
Sears,PINE BLUFF,6467,6467,2901 PINES MALL DR,AR,71601
Sears,ALPHARETTA,6468,6468,6000 NORTHPOINT CIR,GA,30005
Sears,WICHITA FALLS,6469,6469,3111 MIDWESTERN PKWY,TX,76308
Sears,PASADENA,6470,6470,909 PASADENA BLVD,TX,77506
Sears,ELKHART,6471,6471,154-28B W HIVELY AVE,IN,46517
Sears,STERLING HEIGHTS,6472,6472,14100 LAKESIDE CIR,MI,48313-1322
Sears,CHAMPAIGN,6473,6473,2000 N NEIL ST,IL,61820
Sears,ORLANDO,6476,6476,3811 E COLONIAL DR,FL,32803
Sears,LAS VEGAS,6478,6478,4000 MEADOWS LANE,NV,89107
Sears,YOUNGSTOWN,6480,6480,7401 MARKET ST,OH,44512
Sears,WARWICK,6483,6483,RHODE ISLAND MALL,RI,2887
Sears,CRANBERRY,6485,6485,RT 257 & RT 322 CRANBERRY MALL,PA,16319
Sears,BUTLER,6486,6486,1521 N MAIN ST-CLEARVIEW MALL,PA,16001
Sears,SHAWNEE,6489,6489,4901 N KICKAPOO ST STE 2000,OK,74801-1301
Sears,DEARBORN,6492,6492,18900 MICHIGAN AVE,MI,48126
Sears,GALESBURG,6493,6493,1150 W CARL SANDBURG DR (MALL),IL,61401
Sears,DEPTFORD,6494,6494,1750 DEPTFORD CTR-DEPTFORD ML,NJ,8096
Sears,CARLSBAD,6498,6498,2561 EL CAMINO REAL,CA,92008-1202
Sears,AMARILLO,6499,6499,7701 W I-40,TX,79121
Sears,THOUSAND OAKS,6500,6500,145 W HILLCREST DR,CA,91360-4206
Sears,BROOKFIELD,6501,6501,115 S MOORLAND RD,WI,53005
Sears,LEOMINSTER,6503,6503,100 COMMERCIAL RD,MA,1453
Sears,MOUNT HOPE,6505,6505,CROSSROADS MALL-STATE HWY #16,WV,25880
Sears,WATERTOWN,6506,6506,21182 SALMON RUN ML LOOP WEST,NY,13601
Sears,JOHNSON CITY,6507,6507,OAKDALE ML-RT 17 EXPY EXIT 70,NY,13790
Sears,OWENSBORO,6508,6508,5000 FREDRICIA ST TOWNE SQ MLL,KY,42301
Sears,MIDWEST CITY,6509,6509,6909 E RENO,OK,73110
Sears,MARION,6510,6510,3000 W DEYOUNG STE 500,IL,62959
Sears,GREENDALE,6511,6511,5200 S 76TH ST,WI,53129
Sears,MISHAWAKA,6512,6512,6501 GRAPE RD-UNIVERSITY PK ML,IN,46545
Sears,POUGHKEEPSIE,6513,6513,792 SOUTH RD,NY,12601
Sears,BALTIMORE,6514,6514,6901 SECURITY BLVD,MD,21207
Sears,SPARTANBURG,6515,6515,205 W BLACKSTONE RD STE C,SC,29301
Sears,GADSDEN,6516,6516,1001 RAINBOW DR-GADSEN MALL,AL,35901-5345
Sears,TUSCALOOSA,6517,6517,207 UNIVERSITY MALL,AL,35404-5825
Sears,SALINAS,6518,6518,1100 NORTHRIDGE MALL,CA,93906
Sears,COLLEGE STATION,6519,6519,1502 HARVEY RD,TX,77840
Sears,AKRON,6520,6520,#10 CHAPEL HILL MALL,OH,44310
Sears,OKLAHOMA CITY,6521,6521,4400 S WESTERN AVE,OK,73109
Sears,SAINT PAUL,6522,6522,425 RICE ST,MN,55103-2123
Sears,SALISBURY,6523,6523,2323 CENTER DR,MD,21801
Sears,ERIE,6524,6524,5800 PEACH ST,PA,16565
Sears,FORT MYERS,6525,6525,4003 CLEVELAND AVE,FL,33901
Sears,OXFORD,6528,6528,700 QUINTARD DR,AL,36203-1845
Sears,KILLEEN,6529,6529,2100 SOUTH W S YOUNG DR,TX,76543
Sears,LAKE WALES,6531,6531,29 EAGLE RIDGE DR,FL,33859
Sears,RICHMOND HEIGHTS,6532,6532,621 RICHMOND RD,OH,44143
Sears,MANKATO,6533,6533,1896 ADAMS ST -RIVER HILLS ML,MN,56001
Sears,ROCKAWAY,6534,6534,RT 80 & MT HPE AVE,NJ,7866
Sears,INDIANA,6535,6535,2334 OAKLAND STE#1-INDIANA ML,PA,15701
Sears,KNOXVILLE,6537,6537,2931 KNOXVILLE CENTER DRIVE,TN,37924
Sears,LAFAYETTE,6538,6538,2415 SAGAMORE S-TIPPECANOE ML,IN,47905
Sears,MEDFORD,6539,6539,501 MEDFORD S/C,OR,97504
Sears,WEST DUNDEE,6542,6542,5000 SPRING HILL MALL,IL,60118
Sears,STROUDSBURG,6543,6543,344 STROUD MALL STE 600,PA,18360
Sears,GAITHERSBURG,6544,6544,701 RUSSELL AVE,MD,20877
Sears,UNIONTOWN,6545,6545,1500 W MAIN ST UNION TOWN MALL,PA,15401
Sears,ROCK HILL,6547,6547,2197 DAVE LYLE BLVD,SC,29730
Sears,COLORADO SPRINGS,6548,6548,2050 SOUTHGATE RD,CO,80906
Sears,LAREDO,6549,6549,5300 SAN DARIO-MALL DEL NORTE,TX,78041
Sears,REDDING,6550,6550,1403 HILLTOP DR,CA,96003
Sears,MADISON,6552,6552,522 S GAMMON RD,WI,53719
Sears,ROTTERDAM,6553,6553,ROTTERDAM SQ 93 W CAMPBELL RD,NY,12306
Sears,PARIS,6559,6559,3060 CLARKSVILLE,TX,75460
Sears,RENO,6560,6560,5405 MEADOWOOD MALL CIR,NV,89502
Sears,NEWPORT NEWS,6562,6562,100 NEWMARKET FAIR,VA,23605
Sears,CEDAR PARK,6563,6563,11200 LAKELINE MALL DR,TX,78613
Sears,GREENSBURG,6564,6564,970 E PITTSBURGH -WESTMORELAND,PA,15601
Sears,BLUEFIELD,6565,6565,MERCER COUNTY MALL,WV,24701
Sears,PLATTSBURGH,6566,6566,CHAMPLAIN CTR-60 SMITHFLD BLVD,NY,12901
Sears,NORTH OLMSTED,6567,6567,5000 GREAT NORTHERN BLVD,OH,44070
Sears,NEWARK,6568,6568,6000 MOWRY AVE,CA,94560
Sears,FLAGSTAFF,6570,6570,4800 N US HIGHWAY 89,AZ,86004-2411
Sears,VIRGINIA BEACH,6572,6572,4588 VIRGINIA BEACH BLVD,VA,23462
Sears,SANDUSKY,6575,6575,SANDUSKY MALL-4314 MILAN RD,OH,44870
Sears,HOUSTON,6577,6577,303 MEMORIAL CITY MALL STE 400,TX,77024
Sears,ROME,6578,6578,2770 M BERRY HWY-MT BERRY SQ M,GA,30165
Sears,SPOKANE,6579,6579,7005 N DIVISION ST,WA,99208
Sears,ALEXANDRIA,6582,6582,6001 DUKE ST,VA,22304
Sears,PADUCAH,6587,6587,5101 HINKLEVLE RD-100 KY OAKS,KY,42001-9049
Sears,CARSON,6589,6589,20420 S AVALON BLVD,CA,90745
Sears,LOUISVILLE,6590,6590,7900 SHELBYVILLE RD-OXMOOR CTR,KY,40222
Sears,HILO,6591,6591,111 E PUAINAKO ST,HI,96720
Sears,DAYTON,6592,6592,2560 MIAMISBURG-CENTERVILLE E,OH,45459
Sears,LAKEWOOD,6593,6593,RTE 394 AND MALL BLVD,NY,14750
Sears,LAWRENCEVILLE,6594,6594,300 QUAKER BRIDGE MALL,NJ,8648
Sears,MEMPHIS,6600,6600,8355 HWY 64,TN,38133
Sears,MESA,6601,6601,6343 E SOUTHERN AVE,AZ,85206
Sears,FORT WAYNE,6602,6602,4201 COLDWATER RD,IN,46805-1199
Sears,PARAMUS,6604,6604,585 FROM RD,NJ,7652
Sears,CHESAPEAKE,6605,6605,4200 PORTSMOUTH BLVD,VA,23321
Sears,BELLINGHAM,6606,6606,3548 MERIDIAN STREET STE 101,WA,98225
Sears,PHOENIX,6608,6608,WESTRIDGE SC--7611 W THOMAS RD,AZ,85075-8047
Sears,EUREKA,6610,6610,3300 BROADWAY -BAYSHORE MALL,CA,95501
Sears,DURHAM,6612,6612,1620 GUESS RD (NORTHGATE MALL),NC,27701
Sears,MANCHESTER,6613,6613,190 BUCKLAND HILLS DR,CT,06040-8700
Sears,GLENS FALLS,6615,6615,AVIATION RD,NY,12801
Sears,JOPLIN,6617,6617,101 RANGELINE RD/NORTHPARK ML,MO,64801
Sears,NILES,6620,6620,5320 YOUNGSTOWN RD-EASTWOOD ML,OH,44446
Sears,TUCSON,6621,6621,5950 E BROADWAY,AZ,85711
Sears,NORMAN,6624,6624,3201 W MAIN ST/SOONER MALL,OK,73072
Sears,LAWTON,6625,6625,#1 CENTRAL MALL,OK,73501
Sears,ITHACA,6626,6626,40 CATHERWOOD RD,NY,14850-1056
Sears,FLORENCE,6627,6627,3000 MALL RD/FLORENCE MALL,KY,41042
Sears,CHICAGO RIDGE,6630,6630,CHGO RDG MALL-6501 W 95TH ST,IL,60415
Sears,BURLINGTON,6632,6632,102 BURLINGTON SQ MALL,NC,27215
Sears,RUTLAND,6633,6633,82 DIAMOND RN PL-DIAMOND RN ML,VT,5701
Sears,BROWNSVILLE,6634,6634,2320 NORTH EXPWY,TX,78521
Sears,KEY WEST,6636,6636,3200 N ROOSEVELT BLVD,FL,33040-4114
Sears,OGDEN,6638,6638,1000 NEWGATE MALL,UT,84405
Sears,NEW HARTFORD,6639,6639,RT 5 & 5A SANGERTOWN SQ,NY,13413
Sears,CHICO,6640,6640,1982 E 20TH ST,CA,95928
Sears,LA CROSSE,6642,6642,4200 US HWY 16 -VALLEY VIEW ML,WI,54601
Sears,MCALLEN,6644,6644,2200 S 10TH ST - LA PLAZA MALL,TX,78503
Sears,NORTH CHARLESTON,6645,6645,7801 RIVERS AVE,SC,29406
Sears,MELBOURNE,6646,6646,1050 S BABCOCK ST,FL,32901-3022
Sears,HOUSTON,6647,6647,4000 N SHEPHERD DR,TX,77018
Sears,SAN ANGELO,6648,6648,4000 SUNSET,TX,76904
Sears,TEXAS CITY,6649,6649,10000 EMMETT F LOWRY EXPWY,TX,77591
Sears,HARLINGEN,6650,6650,2002 S EXPY 83,TX,78552
Sears,PHOENIX,6651,6651,10001 N METRO PKWY W,AZ,85051-1405
Sears,APPLETON,6652,6652,FOX RIVER MALL-4301 W WISC AVE,WI,54915
Sears,NATICK,6653,6653,1235 WORCESTER RD & SPEEN ST,MA,1760
Sears,OCEAN,6654,6654,RT 66 & 35,NJ,7712
Sears,FARGO,6655,6655,WEST ACRES REGIONAL S/C,ND,58103
Sears,BOWLING GREEN,6656,6656,2625 SCOTTSVILLE-GREENWOOD ML,KY,42104
Sears,HOUMA,6657,6657,6011 W PARK AVE,LA,70364
Sears,FRANKLIN,6658,6658,1800 GALLERIA BLVD STE 4000,TN,37067
Sears,PHOENIX,6661,6661,12820 N TATUM BLVD/PARADISE VL,AZ,85032
Sears,JACKSON,6662,6662,1250 BOARDMAN-JACKSON CROSSING,MI,49202
Sears,KINGSTON,6663,6663,101 INDEPENDENCE,MA,2364
Sears,DENTON,6664,6664,2201 INTERSTATE 35 EAST,TX,76205
Sears,LYNCHBURG,6668,6668,7701 TIMBERLAKE RD,VA,24502
Sears,TYLER,6669,6669,4701 S BROADWAY,TX,75703
Sears,LAKEWOOD,6671,6671,10785 W COLFAX AVE,CO,80215-3807
Sears,WEST HARTFORD,6673,6673,1445 NEW BRITAIN AVE,CT,06110-1659
Sears,YORKTOWN,6674,6674,600 LEE BLVD,NY,10598
Sears,LIMA,6675,6675,100 LIMA MALL-2400 ELIDA RD,OH,45805-1230
Sears,VICTORIA,6678,6678,7508 N NAVARRO ST,TX,77904-2654
Sears,SELINSGROVE,6682,6682,SUSQUEHANNA VALLEY MALL,PA,17870
Sears,LANDOVER,6683,6683,2497 BRIGHTSEAT RD,MD,20785
Sears,CHARLOTTESVILLE,6685,6685,CHRLTSVL FASH SQ-1531 E RIO RD,VA,22901
Sears,BATTLE CREEK,6692,6692,5575 B DRIVE N,MI,49015
Sears,CONCORD,6693,6693,270 LOUDEN RD,NH,3301
Sears,ALTOONA,6694,6694,5580 GOODS LANE STE 1005,PA,16602
Sears,BRADENTON,6696,6696,303 US HWY 301 BLVD W,FL,34205
Sears,OCALA,6697,6697,3100 SW COLLEGE RD STE 300,FL,34474
Sears,SAN DIEGO,6698,6698,4575 LA JOLLA VILLAGE DR,CA,92122-1203
Sears,ARLINGTON,6699,6699,3871 S COOPER-ARLINGTON PKS ML,TX,76015
Sears,FORT DODGE,6700,6700,307 S 25TH ST/CROSSROADS MALL,IA,50501
Sears,GLENDALE,6701,6701,211 W CALIFORNIA ST,CA,91203
Sears,WILMINGTON,6703,6703,4737 CONCORD PIKE,DE,19803
Sears,PORT ARTHUR,6704,6704,1 CENTRAL MALL 3100 HWY 365,TX,77642
Sears,PARKERSBURG,6705,6705,500 GRAND CENTRAL MALL,WV,26101
Sears,SPRINGFIELD,6706,6706,UPPER VLY ML-1475 UPPER VLY PK,OH,45504-1717
Sears,RICHARDSON,6709,6709,201 S PLANO RD-RICHARDSON SQ M,TX,75081
Sears,EVANSVILLE,6710,6710,1100 S GREEN RIVER RD,IN,47715
Sears,RIVERSIDE,6711,6711,5265 ARLINGTON AVE,CA,92504
Sears,GREENSBORO,6712,6712,701 PEMBROKE RD,NC,27408
Sears,WILLIAMSVILLE,6713,6713,4545 TRANSIT RD,NY,14221
Sears,MIDLAND,6714,6714,SPACE C 4511 N MIDKIFF RD,TX,79705
Sears,SANTA ROSA,6718,6718,100 SANTA ROSA PLZ,CA,95401-6381
Sears,TORRANCE,6721,6721,22100 HAWTHORNE BLVD,CA,90503
Sears,WOONSOCKET,6723,6723,1500 DIAMOND HILL RD,RI,2895
Sears,KING OF PRUSSIA,6724,6724,160 N GULPH RD,PA,19406
Sears,FLORENCE,6727,6727,2701 W DAVID MCLEOD BLVD,SC,29501
Sears,GREENVILLE,6728,6728,240 CAROLINA EAST MALL,NC,27834-6756
Sears,PASADENA,6729,6729,3801 E FOOTHILL BLVD,CA,91107-2225
Sears,BUENA PARK,6731,6731,8150 LA PALMA AVE/BUENA PK ML,CA,90620
Sears,WINSTON SALEM,6732,6732,190 HANES MALL CIRCLE,NC,27103
Sears,COCKEYSVILLE,6734,6734,126 SHAWAN RD,MD,21030
Sears,ORANGE PARK,6735,6735,1910 WELLS RD-ORANGE PK MALL,FL,32073
Sears,KNOXVILLE,6736,6736,7600-H KINGSTON PK-WEST TOWN M,TN,37919
Sears,ATHENS,6738,6738,3700 ATLANTA HWY-GEORGIA SQ ML,GA,30606
Sears,TEXARKANA,6739,6739,#1 CENTRAL MALL,TX,75503
Sears,BALTIMORE,6744,6744,8200 PERRY HALL BLVD,MD,21236
Sears,GREEN BAY,6745,6745,1555 GREEN BAY PLZ,WI,54304
Sears,WESTMINSTER,6748,6748,100 WESTMINSTER MALL,CA,92683
Sears,BEAUMONT,6749,6749,6461 EASTEX FWY,TX,77706-6706
Sears,MUSKOGEE,6751,6751,501 N MAIN,OK,74401
Sears,RALEIGH,6752,6752,4615 GLENWOOD-CRABTREE VLY ML,NC,27612
Sears,E NORTHPORT,6754,6754,HNTNGTON SQ ML--4000 E JERICHO,NY,11731
Sears,TAMPA,6755,6755,2266 UNIVERSITY SQ MALL,FL,33612
Sears,ALBUQUERQUE,6757,6757,6600 MENAUL BLVD,NM,87110
Sears,HUNTSVILLE,6758,6758,5901 UNIVERSITY DRIVE NW,AL,35806-2523
Sears,TWIN FALLS,6759,6759,MAGIC VLY ML-1543 POLE LN RD E,ID,83301
Sears,MINOT,6760,6760,2400 10TH ST SW -DAKOTA SQ ML,ND,58701
Sears,TRAVERSE CITY,6761,6761,1212 S AIRPORT RD,MI,49686
Sears,LINCOLN,6762,6762,GATEWAY CTR--6400 'O' ST,NE,68505
Sears,MICHIGAN CITY,6765,6765,MARQUETE SC-3901 S FRANKLIN ST,IN,46360
Sears,CHATTANOOGA,6766,6766,490 NORTHGATE MALL,TN,37415
Sears,GOODLETTSVILLE,6767,6767,1000 TWO MILE PKWY,TN,37072
Sears,MILWAUKEE,6770,6770,5900 N PT WASHINGTON-BAY SHORE,WI,53217
Sears,HAYWARD,6771,6771,662 W WINTON AVE,CA,94545
Sears,MADISON,6772,6772,43 EAST TOWNE MALL,WI,53704
Sears,READING,6773,6773,1665 STATE HILL RD,PA,19610
Sears,NORTH WALES,6774,6774,600 MONTGOMERY MALL,PA,19454
Sears,HEATH,6776,6776,771 S 30TH ST,OH,43056
Sears,TOMS RIVER,6777,6777,1201 HOOPER AVE,NJ,8753
Sears,FAIRFIELD,6778,6778,1495 GATEWAY BLVD,CA,94533
Sears,EVERETT,6779,6779,1302 SE EVERETT MALL WAY,WA,98208
Sears,BAKERSFIELD,6781,6781,3001 MING AVE,CA,93304-4145
Sears,RACINE,6782,6782,5600 DURAND AVE,WI,53406
Sears,WHITEHALL,6783,6783,1519 WHITEHALL MALL,PA,18052
Sears,MATTESON,6784,6784,4605 W LINCOLN HWY,IL,60443
Sears,JOHNSON CITY,6786,6786,2011 N ROAN ST,TN,37601
Sears,PHILLIPSBURG,6787,6787,1200 US RT 22,NJ,8865
Sears,LAGUNA HILLS,6788,6788,24300 LAGUNA HILLS MALL,CA,92653-7601
Sears,STOCKTON,6791,6791,5110 PACIFIC AVE,CA,95207
Sears,MERIDIAN,6792,6792,1051 BONITA LAKES CIRCLE,MS,39301
Sears,SOUTH PORTLAND,6793,6793,MAINE ML-400 MAINE MALL RD,ME,4106
Sears,COLUMBIA,6794,6794,10300 LITTLE PATUXENT PKWY,MD,21044
Sears,JANESVILLE,6796,6796,1915 HOLIDAY DRIVE,WI,53545
Sears,MESQUITE,6797,6797,3000 TOWN EAST BLVD,TX,75150
Sears,TUCSON,6798,6798,4570 N ORACLE RD,AZ,85705-1638
Sears,CITRUS HEIGHTS,6799,6799,5900 SUNRISE MALL,CA,95610-6901
Sears,MASON CITY,6800,6800,1720 S FEDERAL AVE,IA,50401
Sears,TULSA,6801,6801,1901 S YALE AVE,OK,74112
Sears,CEDAR RAPIDS,6802,6802,4600 FIRST AVE NE,IA,52402
Sears,WILLOW GROVE,6803,6803,2550 MORELAND RD/WILLOW GR ML,PA,19090
Sears,PHILADELPHIA,6804,6804,2100 COTTMAN AVE,PA,19149
Sears,TRACY,6805,6805,3350 NAGLEE RD,CA,95376
Sears,DOTHAN,6806,6806,734 W MAIN ST,AL,36301
Sears,GAINESVILLE,6807,6807,150 PEARL NIX PKWY,GA,30501
Sears,KINGSPORT,6808,6808,2101 FT HENRY DR,TN,37664
Sears,YUBA CITY,6809,6809,1235 COLUSA AVE,CA,95991
Sears,WESTLAND,6810,6810,35000 W WARREN RD,MI,48185-6223
Sears,FRESNO,6811,6811,1906 E GARLAND AVE,CA,93726
Sears,BRUNSWICK,6813,6813,8 GURNET RD,ME,04011-2766
Sears,HERMITAGE,6814,6814,3235 E STATE-SHENNANGO VLY ML,PA,16148
Sears,AUSTIN,6817,6817,1000 E 41ST ST,TX,78751
Sears,SAN RAFAEL,6818,6818,9000 NORTHGATE MALL,CA,94903
Sears,CITY OF INDUSTRY,6819,6819,1552 AZUSA AVE,CA,91748
Sears,BOYNTON BEACH,6820,6820,805 N CONGRESS AVE,FL,33426-3302
Sears,CHULA VISTA,6821,6821,565 BROADWAY,CA,91910-5307
Sears,MANHATTAN,6822,6822,103 MANHATTAN TOWN CTR MALL,KS,66502
Sears,DEFIANCE,6823,6823,1500 N CLINTON ST,OH,43512
Sears,DES MOINES,6825,6825,1111 SE ARMY POST RD,IA,50315-5970
Sears,HICKORY,6827,6827,1940 US HIGHWAY 70 SE,NC,28602-5158
Sears,MONTCLAIR,6828,6828,5080 E MONTCLAIR PLZ LN,CA,91763
Sears,VALENCIA,6829,6829,24137 VALENCIA BLVD,CA,91355-1814
Sears,INDEPENDENCE,6830,6830,18777 E 39TH ST,MO,64057-1708
Sears,CONCORD,6831,6831,1001 WILLOWPASS RD,CA,94520
Sears,FOND DU LAC,6832,6832,356 N PETERS,WI,54935
Sears,BENSALEM,6833,6833,100 NESHAMINY MALL,PA,19020
Sears,BRANDON,6834,6834,686 BRANDON TOWN CTR,FL,33511-4726
Sears,DANVILLE,6835,6835,2917 N VERMILLION,IL,61832
Sears,BLOOMSBURG,6837,6837,INT-80 & RT 42 /COLUMBIA MALL,PA,17815
Sears,SAN JOSE,6838,6838,2180 TULLEY RD,CA,95122
Sears,BAY CITY,6839,6839,BAY CITY MALL-4125 E WILDER RD,MI,48706
Sears,SAINT CLOUD,6840,6840,41ST & DIVISION,MN,56301
Sears,ORANGE,6841,6841,2100 N TUSTIN ST,CA,92865-3702
Sears,ENFIELD,6842,6842,104 ELM ST,CT,6082
Sears,LANESBORO,6843,6843,BERKSHIRE MALL-ROUTE 8,MA,1237
Sears,HUDSON,6845,6845,3351 HICKORY BLVD,NC,28638
Sears,FRANKLIN,6846,6846,1317 AMORY DRIVE,VA,23851
Sears,SAN ANTONIO,6847,6847,201 CENTRAL PARK,TX,78216
Sears,ESCONDIDO,6848,6848,210 E VIA RANCHO PKWY,CA,92025
Sears,UNION GAP,6849,6849,9 E VALLEY MALL BLVD,WA,98903-1612
Sears,JEFFERSON CITY,6850,6850,3600 COUNTRY CLUB DR,MO,65109
Sears,COSTA MESA,6851,6851,3333 BRISTOL ST,CA,92626
Sears,SHEBOYGAN,6852,6852,3347 KOHLER MEMORIAL DR,WI,53081
Sears,SCRANTON,6853,6853,RT 6 & INTERSTATE 81,PA,18508
Sears,HACKENSACK,6854,6854,516 MAIN ST,NJ,7601
Sears,PLYMOUTH,6856,6856,2615 EASTERN AVE,WI,53073
Sears,ATLANTA,6857,6857,2940 COBB PKWY-CUMBERLAND MALL,GA,30339
Sears,SAN BERNARDINO,6859,6859,101 INLAND CTR DR,CA,92408
Sears,SACRAMENTO,6861,6861,5901 FLORIN RD,CA,95823-2302
Sears,KENOSHA,6862,6862,7630 PERSHING BLVD,WI,53142
Sears,EDENTON,6863,6863,211 S BROAD STREET,NC,27932
Sears,OPELIKA,6864,6864,3724 PEPPERELL PARKWAY,AL,36801
Sears,LEBANON,6867,6867,1301 QUENTIN RD,PA,17042
Sears,NORTHRIDGE,6868,6868,1000 NORTHRIDGE FASHION CTR,CA,91324
Sears,OMAHA,6871,6871,7424 DODGE ST,NE,68114
Sears,BISMARCK,6872,6872,2700 STATE ST -GATEWAY MALL,ND,58501
Sears,KINGSTON,6873,6873,1300 ULSTER AVE STE 360,NY,12401
Sears,HOUSTON,6874,6874,2737 HWY 6 S,TX,77082
Sears,MIAMI,6875,6875,20701 SW 112 AVE,FL,33189
Sears,SAVANNAH,6876,6876,7810 ABERCORN ST,GA,31406
Sears,BAYTOWN,6879,6879,1000 SAN JACINTO MALL,TX,77521
Sears,MANSFIELD,6880,6880,627 RICHLAND MALL,OH,44906
Sears,SPRINGFIELD,6881,6881,2825 S GLENSTONE,MO,65804
Sears,ALBANY,6883,6883,1425 CENTRAL AVE,NY,12205-2702
Sears,RAPID CITY,6885,6885,RUSHMORE MALL-2200 N MAPLE AVE,SD,57701
Sears,ALBANY,6886,6886,2601 DAWSON RD,GA,31708
Sears,CERRITOS,6888,6888,100 LOS CERRITOS MALL,CA,90703-5421
Sears,COLUMBIA,6891,6891,2201 W WORLEY,MO,65203
Sears,CLEARWATER,6895,6895,27001 US 19 N STE 8520,FL,33761
Sears,SAINT PETERSBURG,6896,6896,2300 TYRONE BLVD N,FL,33710
Sears,HOT SPRINGS,6897,6897,4501 CENTRAL AVE STE 101,AR,71913-7412
Sears,TUPELO,6898,6898,1001 BARNES CROSSING RD,MS,38801
Sears,FRIENDSWOOD,6899,6899,300 BAYBROOK MALL,TX,77546
Sears,OVERLAND PARK,6901,6901,6635 WEST 135TH,KS,66223
Sears,MARYVILLE,6907,6907,198 FOOTHILLS MALL,TN,37801
Sears,CRYSTAL CITY,6908,6908,155 TWIN CITY MALL,MO,63019
Sears,SAN BRUNO,6909,6909,1178 EL CAMINO REAL,CA,94066
Sears,GRAND ISLAND,6910,6910,3404 W 13TH - 175 CONESTOGA ML,NE,68803
Sears,CALIFORNIA CITY,6911,6911,8209 CALIFORNIA CTY BL STE114,CA,93505
Sears,MARLBOROUGH,6912,6912,521 LYNCH BLVD,MA,01752-4725
Sears,NEWINGTON,6913,6913,50 FOX RUN RD ST#74-FOX RUN ML,NH,3801
Sears,WALLA WALLA,6914,6914,207 E MAIN ST,WA,99362
Sears,CORAL GABLES,6915,6915,3655 SW 22ND ST,FL,33145
Sears,BOSSIER CITY,6916,6916,2950 E TEXAS ST,LA,71111-3288
Sears,GRAND JUNCTION,6918,6918,2424 HWY 6&50 -100 MESA MALL,CO,81505
Sears,BLOOMINGTON,6921,6921,1631 E EMPIRE ST,IL,61701
Sears,SIOUX CITY,6922,6922,4480 SERGEANT-SOUTHERN HLS ML,IA,51106
Sears,LANCASTER,6923,6923,805 PLAZA BLVD,PA,17601
Sears,CUMBERLAND,6924,6924,2 VOCKE RD STE 100/CNTRY CLUB,MD,21502
Sears,LOGANSPORT,6925,6925,3902 E MARKET LOGANSPORT MALL,IN,46947
Sears,WAUSAU,6926,6926,411 WASHINGTON ST,WI,54403
Sears,EAU CLAIRE,6927,6927,4722 GOLF RD,WI,54701
Sears,RICHMOND,6928,6928,2300 HILLTOP MALL RD,CA,94806
Sears,SHERMAN,6929,6929,4800 TEXOMA PKWY STE 800,TX,75090
Sears,FORT GRATIOT,6932,6932,4460 24TH AVE,MI,48059
Sears,MEDIA,6933,6933,1067 W BALTIMORE PIKE,PA,19063
Sears,STRONGSVILLE,6934,6934,17271 SOUTHPARK CTR,OH,44136-9311
Sears,DULUTH,6935,6935,1600 MILLER TRUNK HWY,MN,55811
Sears,MUNCIE,6936,6936,3501 GRANVILLE AVE,IN,47303
Sears,CUPERTINO,6939,6939,10101 WOLFE RD,CA,95014
Sears,TERRE HAUTE,6940,6940,3401 US 41 S/HONEY CREEK SQ,IN,47802
Sears,DANVILLE,6941,6941,325 PIEDMONT DR,VA,24540
Sears,SPRING,6942,6942,26914 INTERSTATE 45 NORTH,TX,77386
Sears,HANOVER,6943,6943,1155 CARLISLE ST STE 5,PA,17331-1297
Sears,ALEXANDRIA,6946,6946,3401 MASONIC DR,LA,71301-3616
Sears,TAUNTON,6947,6947,8 GALLERIA MALL DR,MA,2780
Sears,MORENO VALLEY,6948,6948,MORENO VLY MALL-22560 TOWN CIR,CA,92553
Sears,LONGVIEW,6949,6949,3510 MCCANN RD,TX,75601
Sears,SALT LAKE CITY,6951,6951,754 S STATE ST,UT,84111
Sears,MIDLAND,6952,6952,MIDLAND MALL-6810 EASTMAN AVE,MI,48640
Sears,BANGOR,6953,6953,693 STILLWATER AVE,ME,04401-3606
Sears,OMAHA,6954,6954,3420 OAK VIEW DRIVE,NE,68144
Sears,DE WITT,6955,6955,SHOPPINGTOWN ML-3649 ERIE BL E,NY,13214
Sears,HIALEAH,6956,6956,1625 W 49TH ST-WESTLAND MALL,FL,33012
Sears,BIRMINGHAM,6959,6959,2500 RIVERCHASE GALLERIA,AL,35244
Sears,KOKOMO,6960,6960,1235 S REED RD-MARKLAND MALL,IN,46902
Sears,BALTIMORE,6963,6963,7885 EASTERN AVE/EASTPOINT MAL,MD,21224
Sears,FREDERICKSBURG,6964,6964,100 SPOTSLVANIA MALL,VA,22407
Sears,DAVENPORT,6965,6965,4302 BRADY ST NORTH PARK MALL,IA,52806
Sears,HADLEY,6966,6966,189 RUSSELL STREET,MA,1035
Sears,PENNSDALE,6967,6967,300 LYCOMING MALL RD,PA,17756
Sears,LAS VEGAS,6969,6969,3450 S MARYLAND PKWY,NV,89109
Sears,BANNING,6970,6970,1484 WEST RAMSEY ST,CA,92220
Sears,WESTMINSTER,6973,6973,400 N CENTER ST,MD,21157
Sears,FRACKVILLE,6974,6974,SCHUYKILL ML-RTE 61 AND 81,PA,17931
Sears,NEWBURGH,6977,6977,1401 RT 300,NY,12550
Sears,MILFORD,6979,6979,656A NORTH DUPONT HWY,DE,19963
Sears,EL CAJON,6981,6981,575 FLETCHER PKWY,CA,92020-2522
Sears,MACON,6984,6984,4551 BILLY WILLIAMSON DRIVE,GA,31206
Sears,BRANDON,6985,6985,1560C WEST GOVERNMENT ST,MS,39042
Sears,SANFORD,6986,6986,450 TOWNE CTR CIRCLE,FL,32771
Sears,GUYMON,6987,6987,1926 HWY 64 NORTH,OK,73942
Sears,LEWISTON,6989,6989,419 SNAKE RIVER AVE,ID,83501
Sears,DUBLIN,6991,6991,4975 TUTTLE CROSSING BLVD,OH,43016-1531
Sears,ALTAMONTE SPRINGS,6995,6995,451 E ALTAMONTE DR STE 401,FL,32701
Sears,SURPRISE,6997,6997,13980 W BELL RD SUITES 10-14,AZ,85374
Sears,SALISBURY,7004,7004,119 W NAYLOR MILL RD,MD,21801
Sears,AUBURN,7023,7023,387 SOUTHBRIDGE ST RT 12,MA,1501
Sears,WHITE PLAINS,7024,7024,100 MAIN ST,NY,10601
Sears,SILVER SPRING,7034,7034,11255 NEW HAMPSHIRE AVE,MD,20904-2628
Sears,GRAND JUNCTION,7061,7061,2422 F RD,CO,81505
Sears,ORANGE PARK,7065,7065,1540 PARK AVE,FL,32073
Sears,SPARKS,7068,7068,350 GLENDALE RD,NV,89431
Sears,CAPE CORAL,7070,7070,2708 SANTA BARBARA BLVD STE135,FL,33914
Sears,LAKELAND,7075,7075,3800 US HWY 98 N,FL,33809
Sears,GLEN BURNIE,7084,7084,597B E ORDNANCE RD,MD,21060-6555
Sears,BOYNTON BEACH,7085,7085,805 N CONGRESS AVE,FL,33426-3302
Sears,MESA,7088,7088,STE 111,AZ,85204-6628
Sears,PHOENIX,7089,7089,12025 N 32ND ST,AZ,85028
Sears,HENDERSON,7091,7091,1245 WARM SPRING RD,NV,89014
Sears,KENT,7099,7099,22014 68TH AVE S,WA,98032
Sears,PHILLIPSBURG,7104,7104,1011 RT 22 SUITE #4,NJ,8865
Sears,SOUTHAVEN,7109,7109,7457 AIRWAYS BLVD,MS,38671
Sears,SAINT JOSEPH,7121,7121,3702 FREDERICK BLVD,MO,64506
Sears,SHREVEPORT,7123,7123,9356 S MANSFIELD RD,LA,71118
Sears,CLEARWATER,7125,7125,27001 US 19 N,FL,33761
Sears,SHERMAN,7127,7127,4816 FRISCO RD,TX,75090
Sears,VICTORVILLE,7128,7128,13695 MARIPOSA RD,CA,92392
Sears,LANCASTER,7138,7138,44111 YUCCA AVE,CA,93534
Sears,NEW BRUNSWICK,7144,7144,51 US HWY 1,NJ,8901
Sears,SPRINGFIELD,7149,7149,3030 GATEWAY ST,OR,97477
Sears,MASON CITY,7152,7152,1720 S FEDERAL AVE,IA,50401
Sears,MIDDLETOWN,7153,7153,50 ENTERPRISE PL,NY,10940
Sears,LITTLE ROCK,7160,7160,12600 CHENAL PKWY,AR,72211
Sears,OSHKOSH,7163,7163,2081 WITZEL AVENUE,WI,54904
Sears,NANUET,7164,7164,85 RT 59 STE 200,NY,10954
Sears,CLARKSVILLE,7170,7170,ST RT 131,IN,47131
Sears,TURNERSVILLE,7172,7172,5851 NJ RTE 42 SOUTH,NJ,8012
Sears,EPHRAIM,7173,7173,360 N MAIN STREET,UT,84627
Sears,DALHART,7176,7176,700 TENNESSEE BLVD,TX,79022
Sears,SUGAR LAND,7178,7178,15850 SOUTHWEST FRWY STE 300,TX,77478
Sears,COVINGTON,7180,7180,27116 167TH PL SE STE 108,WA,98042
Sears,BANGOR,7183,7183,60 DOANE ST,ME,04401-5770
Sears,WEST MONROE,7186,7186,501 CONSTITUTION DR,LA,71292-8043
Sears,SPRINGFIELD,7190,7190,1180-1182 BALTIMORE PIKE,PA,19064
Sears,WILLIAMSBURG,7199,7199,6623 RICHMOND ROAD,VA,23188
Sears,GREEN BAY,7212,7212,1555 GREEN BAY PLZ,WI,54304
Sears,WINDSOR HEIGHTS,7217,7217,1003 73RD ST,IA,50324
Sears,GUNNISON,7218,7218,1000 NORTH MAIN ST STE 3,CO,81230
Sears,PELL CITY,7220,7220,803 MARTIN ST S,AL,35128
Sears,HYANNIS,7223,7223,1336 PHINNEYS LN,MA,2601
Sears,FORT SMITH,7231,7231,5111 ROGERS AVE,AR,72903-2047
Sears,SAVANNAH,7235,7235,1402 MILLS B LANE BLVD,GA,31405
Sears,TUCSON,7237,7237,7055 EAST BROADWAY,AZ,85710
Sears,ATHENS,7245,7245,3700 ATLANTA HWY,GA,30606-7201
Sears,COLLEGE STATION,7247,7247,1500 E HOLLEMAN ST,TX,77840
Sears,PARKERSBURG,7253,7253,403 CORRA DR,WV,26101
Sears,SHAWNEE,7261,7261,4901 N KICKAPOO ST,OK,74804-1311
Sears,WARWICK,7264,7264,650 BALD HILL RD,RI,2886
Sears,TOMAH,7270,7270,1114 N SUPERIOR AVE,WI,54660
Sears,VENICE,7285,7285,4135 S TAMIAMI TRAIL,FL,34293
Sears,WHITEHALL,7290,7290,1321 E COLBY STREET,MI,49461
Sears,HAMPSTEAD,7292,7292,15530 US HWY 17N,NC,28443
Sears,TUSCALOOSA,7296,7296,1701 MCFARLAND BLVD E,AL,35404-5825
Sears,ADRIAN,7315,7315,1424 S MAIN STREET,MI,49221
Sears,ANNISTON,7316,7316,416 W 21ST ST,AL,36201
Sears,FENTON,7323,7323,639B GRAVOIS BLUFFS BLVD,MO,63026
Sears,STATEN ISLAND,7324,7324,283 PLATINUM AVE,NY,10314
Sears,PADUCAH,7336,7336,#100 KENTUCKY OAK MALL,KY,42001
Sears,TEXARKANA,7337,7337,1419 N ROBISON RD,TX,75501-4109
Sears,LAFAYETTE,7343,7343,305 WEST PATTON STREET,GA,30728
Sears,GILBERT,7349,7349,857 N VAL VISTA DR STE 101,AZ,85234
Sears,OCEANSIDE,7359,7359,2505-B VISTA WAY 1,CA,92054
Sears,COMSTOCK PARK,7370,7370,4255 ALPINE AVE,MI,49321
Sears,STORM LAKE,7371,7371,701 SENECA STREET,IA,50588
Sears,BRUNSWICK,7375,7375,100 MALL BLVD SUITE 3,GA,31525-0500
Sears,DUNNELLON,7378,7378,11223 NORTH WILLIAMS ST STE M,FL,34432
Sears,CYPRESS,7379,7379,25704 NORTHWEST FRWY STE A,TX,77429
Sears,SPRINGDALE,7380,7380,UNIT B,AR,72762
Sears,RALEIGH,7385,7385,819 E SIX FORKS RD,NC,27609
Sears,HUMBLE,7389,7389,7011 FM 1960 EAST,TX,77346
Sears,CONROE,7391,7391,1302 WEST DAVIS STREET STE G,TX,77304
Sears,HIXSON,7394,7394,5450 HIGHWAY 153 STE 100,TN,37343-3799
Sears,RIPLEY,7396,7396,306 EAST WALNUT,MS,38663
Sears,TOOELE,7408,7408,162 N MAIN STREET,UT,84074
Sears,HOLYOKE,7424,7424,2209 NORTH HAMPTON ST,MA,01040-3447
Sears,MERIDIAN,7426,7426,1740 BONITA LAKES CIRCLE,MS,39301
Sears,LANSING,7429,7429,17355 TORRENCE AVENUE,IL,60438
Sears,GREENFIELD,7433,7433,1244 W MAIN STREET,IN,46140
Sears,BREA,7438,7438,2335 EAST IMPERIAL HWY,CA,92821
Sears,COUNCIL BLUFFS,7439,7439,1110 WOODBERRY AVE,IA,51503
Sears,WILLOUGHBY,7440,7440,35101 EUCLID AVE SUITE 18,OH,44094
Sears,NORTH OLMSTED,7450,7450,26662 BROOKPARK RD EXTENSION,OH,44070
Sears,JACKSONVILLE,7457,7457,3555-2 ST JOHNS BLUFF ROAD,FL,32224
Sears,BENICIA,7459,7459,521 STONE RD,CA,94510
Sears,BROOKLYN CENTER,7462,7462,1297 BROOKDALE CTR,MN,55430-2893
Sears,WILMINGTON,7465,7465,3500 OLEANDER DR,NC,28403-0811
Sears,HOUMA,7466,7466,5953 W PARK AVE,LA,70364
Sears,TAZEWELL,7467,7467,1444 N BROAD STREET,TN,37879
Sears,ABINGDON,7468,7468,783 E MAIN STREET,VA,24210
Sears,BAYAMON,7472,7472,CARR169 KM6.7 BO CAMARONE,PR,956
Sears,MIDDLETOWN,7474,7474,1500 HIGHWAY 35,NJ,7748
Sears,NORWALK,7482,7482,60 E MAIN STREET,OH,44857
Sears,CHICKASHA,7483,7483,1922 SOUTH FOURTH ST,OK,73018-5903
Sears,DURHAM,7485,7485,1620 GUESS RD,NC,27701
Sears,BLANCO,7489,7489,111A BLANCO AVE,TX,78606
Sears,COLLIERVILLE,7491,7491,640 W POPLAR AVE,TN,38017
Sears,BURNSVILLE,7492,7492,14250 BUCK HILL RD,MN,55337
Sears,MONACA,7493,7493,301 BEAVER VALLEY MALL,PA,15061
Sears,MAYAGUEZ,7496,7496,975 AVE HOSTOS STE 2120,PR,680
Sears,SUPERIOR,7497,7497,300 CENTER DRIVE SUITE A,CO,80027
Sears,BELLEVUE,7502,7502,2440 CORNHUSKER RD,NE,68123
Sears,GLENS FALLS,7503,7503,AVIATION ROAD,NY,12804
Sears,RICHMOND,7505,7505,1401 PARHAM RD,VA,23229-5500
Sears,WILKESBORO,7506,7506,703 EDGEWOOD ROAD,NC,28697
Sears,ROME,7507,7507,5799 ROME TABERG RD,NY,13440
Sears,COLONIAL HEIGHTS,7509,7509,114 SOUTH PARK CIR,VA,23834-2967
Sears,SAINT PAUL,7510,7510,425 RICE ST,MN,55103-2123
Sears,GLEN ALLEN,7511,7511,10101 BROOK RD,VA,23060
Sears,GRAIN VALLEY,7514,7514,101 A SW EAGLES PKWY,MO,64029
Sears,LEXINGTON,7515,7515,523 COLUMBIA AVE,SC,29072
Sears,NEWPORT NEWS,7518,7518,12263 HORNSBY LANE,VA,23602
Sears,SOUTHFIELD,7521,7521,29952 SOUTHFIELD ROAD,MI,48076
Sears,GREENVILLE,7533,7533,1117 WOODRUFF RD STE K,SC,29602
Sears,PHOENIX,7537,7537,401 EAST BELL ROAD STE 7 & 9,AZ,85022
Sears,SHORELINE,7538,7538,15711 1/2 AURORA AVE N,WA,98133
Sears,WESTMINSTER,7541,7541,7647 W 88TH AVE,CO,80005
Sears,GLOUCESTER,7545,7545,146 EASTERN AVE,MA,1930
Sears,N MIAMI BEACH,7546,7546,898 N MIAMI BEACH BLVD,FL,33162
Sears,MESA,7549,7549,952 E BASELINE RD STE 111,AZ,85204
Sears,BENTON HARBOR,7550,7550,1800 PIPESTONE RD STE M54,MI,49022
Sears,BARBOURSVILLE,7554,7554,100 HUNTINGTON MALL,WV,25504
Sears,MORROW,7556,7556,1915 MOUNT ZION ROAD,GA,30260
Sears,COCONUT CREEK,7557,7557,4690 N STATE ROAD 7,FL,33073
Sears,BUFORD,7559,7559,1328 BUFORD HWY,GA,30518
Sears,TAYLOR,7561,7561,9860 TELEGRAPH RD,MI,48180
Sears,CUDAHY,7562,7562,6045 S PACKARD AVE,WI,53110-3027
Sears,CHARLOTTE,7564,7564,9571 SOUTH BLVD,NC,28273
Sears,LAUDERHILL,7565,7565,7910 W COMMERCIAL BLVD,FL,33351
Sears,CEDAR HILL,7567,7567,145 W FM 1382 STE #500,TX,75104
Sears,HIRAM,7569,7569,66 HIRAM DOUGLASVILLE HWY,GA,30141
Sears,WILLISTON,7573,7573,48 INDUSTRIAL AVE,VT,05495-8997
Sears,ROANOKE,7574,7574,4812 VALLEY VIEW BLVD,VA,24012
Sears,JACKSONVILLE,7575,7575,COUNTRY CLUB RD,NC,28540
Sears,HENDERSONVLLE,7588,7588,393 EAST MAIN ST,TN,37075
Sears,BRIDGEVIEW,7590,7590,7333 WEST 79TH ST,IL,60455
Sears,DUBLIN,7592,7592,6020 SAWMILL ROAD STE 300,OH,43017
Sears,CHESAPEAKE,7593,7593,2005 SOUTH MILITARY HWY,VA,23320-4440
Sears,PENNSAUKEN,7594,7594,8000 NATIONAL HWY,NJ,8110
Sears,CINCINNATI,7601,7601,10200 COLERAIN AVE,OH,45251
Sears,CAMERON PARK,7609,7609,3000 GREEN VALLEY STE B2,CA,95682
Sears,FLORENCE,7611,7611,51 SPIRAL DRIVE,KY,41042
Sears,MARIETTA,7612,7612,1140 ROSWELL ROAD SE,GA,30062
Sears,OLIVE BRANCH,7614,7614,7501 GOODMAN RD SUITE E,MS,38654
Sears,WEST CHESTER,7617,7617,7554 VOICE OF AMERICA CTR DR,OH,45069
Sears,MELBOURNE,7625,7625,601 ATLANTIS RD,FL,32904
Sears,FRANKLIN,7630,7630,1866 NORTHWOOD PLAZA DRIVE,IN,46131
Sears,ARLINGTON,7631,7631,401 SOUTHWEST PLZ STE 105,TX,76016
Sears,WEST HAVEN,7633,7633,190A FRONTAGE ROAD,CT,6516
Sears,SCOTT,7637,7637,5550 CAMERON ST,LA,70583
Sears,ALEXANDRIA,7638,7638,7017 ALEXANDRIA PIKE,KY,41001
Sears,MINNEAPOLIS,7652,7652,2700 WINTER ST NE,MN,55413
Sears,CORVALLIS,7658,7658,2445 NW KINGS BLVD,OR,97330
Sears,TORRANCE,7659,7659,19800 HAWTHORNE BLVD STE 280,CA,90503
Sears,LOUISVILLE,7661,7661,6801 DIXIE HIGHWAY SUITE 146,KY,40258
Sears,MOORHEAD,7662,7662,3218 HIGHWAY 10 EAST,MN,56560
Sears,ALAMOGORDO,7667,7667,101 S WHITE SANDS BLVD,NM,88310
Sears,FENTON,7671,7671,14283 FENTON RD,MI,48430
Sears,SAINT CHARLES,7674,7674,2716 E MAIN ST,IL,60174
Sears,LAS VEGAS,7681,7681,SEARS HOME APPLIANCE SHOWROOM,NV,89149
Sears,DALLAS,7686,7686,6186 RETAIL RD SUITE 200,TX,75231
Sears,TULSA,7691,7691,10405 E 55TH PL,OK,74146
Sears,STAFFORD,7693,7693,1475 STAFFORD MARKET PLACE,VA,22556
Sears,STOCKTON,7700,7700,580 W HIGHWAY 32,MO,65785
Sears,STAMFORD,7703,7703,1145 HIGH RIDGE RD,CT,6905
Sears,RIVER GROVE,7704,7704,8345 W BELMONT AVENUE,IL,60171
Sears,MILTON,7709,7709,4563 BELL LANE,FL,32571
Sears,NATICK,7714,7714,SPEEN ST,MA,1760
Sears,STARKE,7720,7720,411 W MADISON STREET,FL,32091
Sears,CASSVILLE,7721,7721,99 HWY 37 S,MO,65625
Sears,HOT SPRINGS VILLAGE,7726,7726,4905 HWY 7 N,AR,71909
Sears,WEST MONROE,7727,7727,651 DOWNING PINES RD,LA,71292
Sears,LAKEWOOD,7731,7731,10785B W COLFAX AVE,CO,80215
Sears,PINEVILLE,7732,7732,3115 HWY 28 EAST,LA,71360
Sears,BAYAMON,7735,7735,CARR 167 ESQUINA 10,PR,958
Sears,DICKSON,7737,7737,269 DICKSON PLAZA DRIVE,TN,37055
Sears,NOBLESVILLE,7742,7742,17160 DRAGONFLY DRIVE STE 600,IN,46060
Sears,HUNTERSVILLE,7750,7750,10035 BIDDICK LN STE 100,NC,28078
Sears,MANATI,7765,7765,ROAD #2 INT. ROAD 149,PR,674
Sears,HUNTINGTON BEACH,7773,7773,10072 ADAMS AVE,CA,92646
Sears,FULTON,7781,7781,540 COMMONS DRIVE,MO,65251
Sears,MARYVILLE,7782,7782,1315 SOUTH MAIN ST STE A,MO,64468
Sears,CLEVELAND,7787,7787,638 EAST HOUSTON ST,TX,77327
Sears,RICHMOND,7804,7804,11500 MIDLOTHIAN TURNPIKE,VA,23235
Sears,EDMOND,7807,7807,3409 S BROADWAY STE 100,OK,73013
Sears,CITRUS HEIGHTS,7808,7808,5901 SUNRISE MALL,CA,95610
Sears,GAP,7813,7813,5360 LINCOLN HWY RTE 30 STR 5,PA,17527
Sears,ROCKY MOUNT,7814,7814,1214 N WESLYAN BLVD,NC,27804
Sears,COLUMBIA,7815,7815,SUITE 5,TN,38401
Sears,DAYTON,7816,7816,200 ABLE DRIVE - SUITE 9,TN,37321
Sears,FARMERS BRANCH,7817,7817,2270 VALLEY VIEW LN,TX,75234
Sears,SPRING,7818,7818,19750 N FREEWAY IH-45 NORTH,TX,77373
Sears,WAPAKONETA,7821,7821,1258 BELLEFONTAINE STREET,OH,45895
Sears,PRAIRIE DU CHIEN,7822,7822,700 E BLACKHAWK AVE STE 15,WI,53821
Sears,ARCADIA,7825,7825,1094 SOUTH EAST VERMONT AVE,FL,34266
Sears,ALPHARETTA,7835,7835,6000 N POINT CIR,GA,30022-4862
Sears,HOUSTON,7851,7851,7925 FM 1960 W,TX,77070
Sears,HARMONY,7853,7853,100 PERRY HWY STE 112,PA,16037
Sears,SOUTH ELGIN,7860,7860,203 RANDALL RD,IL,60177
Sears,NORTHGLENN,7861,7861,WASHINGTON PLZ-KINGS SUPER BLG,CO,80233
Sears,GREENFIELD,7862,7862,4260 M S 76TH ST,WI,53220
Sears,HONOLULU,7865,7865,2886 PAA ST,HI,96819-4405
Sears,ALBUQUERQUE,7867,7867,800 COMANCHE RD NE,NM,87107
Sears,GARLAND,7869,7869,3845 GRADER ST STE A,TX,75041
Sears,COLUMBUS,7870,7870,533 N NELSON RD,OH,43219
Sears,HUDSON,7873,7873,67 D PINE RD,NH,03051-3053
Sears,ST PETERSBURG,7875,7875,4600 PARK ST N,FL,33709-4024
Sears,PINEVILLE,7876,7876,11812 CAROLINA PLACE PKWY,NC,28134
Sears,SAN ANTONIO,7877,7877,7353 NW LOOP 410,TX,78245
Sears,BLOOMINGDALE,7880,7880,440 W ARMY TRAIL RD,IL,60108
Sears,FENTON,7882,7882,639B GRAVOIS BLUFFS BLVD,MO,63026
Sears,JEFFERSONTOWN,7886,7886,9948 BUNSEN WAY,KY,40299
Sears,INDIANAPOLIS,7890,7890,3301 ENGLISH AVE,IN,46201
Sears,GENESEO,7893,7893,4364 PONDSIDE PLAZA,NY,14454
Sears,RICHMOND,7895,7895,4100 TOMLYNN ST,VA,23230
Sears,ATLANTIC,7902,7902,1607 E 7TH STREET,IA,50022
Sears,SAINT PETERSBURG,7905,7905,4600 PARK ST N,FL,33709
Sears,PORTLAND,7909,7909,2626 SE 122ND AVE,OR,97236-3199
Sears,SCHAUMBURG,7910,7910,890 PERIMETER DR,IL,60173
Sears,PERRYSBURG,7911,7911,27322 CARRONADE DR,OH,43551
Sears,ROCHESTER,7913,7913,TOWN LINE RD,NY,14623
Sears,FT WORTH,7920,7920,1265 TOWN SQUARE DRIVE,TX,76116
Sears,CONCORDIA,7921,7921,238 W 6TH STREET,KS,66901
Sears,MEDLEY,7925,7925,8090 NW 77TH CT,FL,33166-2101
Sears,SEATTLE,7939,7939,4786 FIRST AVE S,WA,98134-2304
Sears,LEES SUMMIT,7940,7940,232 NW OLDHAM PKWY,MO,64081
Sears,LITTLETON,7946,7946,8438 S COLORADO BLVD,CO,80126-3957
Sears,EL CAJON,7948,7948,1406 NORTH JOHNSON AVE,CA,92020
Sears,AURORA,7951,7951,4020 FOX VALLEY CENTER DR,IL,60504
Sears,REEDSBURG,7952,7952,55 VIKING DRIVE,WI,53959
Sears,LULING,7954,7954,12715 HIGHWAY 90 STE 160B,LA,70070
Sears,PENSACOLA,7959,7959,7801 SEARS BLVD,FL,32514
Sears,VANDALIA,7960,7960,313 MATTES AVE,IL,62471
Sears,EDEN PRAIRIE,7961,7961,8301 FLYING CLOUD DR,MN,55344-5381
Sears,NASHVILLE,7966,7966,640 THOMPSON LANE,TN,37204
Sears,GRAND RAPIDS,7978,7978,3099 28TH ST SE,MI,49512-1667
Sears,JACKSONVILLE,7979,7979,3555-1 ST JOHNS BLUFF ROAD S,FL,32224
Sears,BATON ROUGE,7986,7986,12114 INDUSTRIPLEX BLVD,LA,70809
Sears,CONCORD,7993,7993,270 LOUDON ROAD,NH,3301
Sears,WINTER PARK,7997,7997,3825 FORSYTH RD,FL,32792
Sears,OCALA,8006,8006,201 SW 33RD AVE,FL,34474
Sears,PHOENIX,8018,8018,10001 N METRO PKWY W,AZ,85051-1405
Sears,COLLEGE PARK,8035,8035,2511 SULLIVAN RD,GA,30337
Sears,EL CAJON,8038,8038,1406 NORTH JOHNSON AVE,CA,92020
Sears,MONTGOMERY,8046,8046,311 NORTH EASTERN BLVD,AL,36117
Sears,SALT LAKE CTY,8048,8048,3158 S MAIN ST,UT,84115
Sears,HILO,8049,8049,50 POHAKU ST,HI,96720
Sears,AURORA,8053,8053,SUITE 100,CO,80011
Sears,JACKSONVILLE,8055,8055,3555-1 ST JOHNS BLUFF ROAD S,FL,32224
Sears,SACRAMENTO,8058,8058,5901 FLORIN RD,CA,95823-2302
Sears,GRAND RAPIDS,8060,8060,3099 28TH ST SE,MI,49512-1667
Sears,HARRISBURG,8064,8064,4360 LEWIS RD,PA,17111
Sears,MIAMI,8065,8065,3301 NW 107TH AVE,FL,33178-4342
Sears,PENSACOLA,8066,8066,7801 SEARS BLVD,FL,32514
Sears,FRESNO,8078,8078,3365 W SUSSEX AVE,CA,93722
Sears,SALEM,8079,8079,1375 WOODROW ST NE,OR,97303-3216
Sears,PORT RICHEY,8086,8086,9409 US HIGHWAY 19 N STE 101,FL,34668-4626
Sears,INDIANAPOLIS,8090,8090,7286 E 86TH ST,IN,46250
Sears,SAN BERNARDINO,8098,8098,595 S G ST,CA,92410-1917
Sears,KANSAS CITY,8101,8101,3630 E FRONT ST,MO,64120-1029
Sears,PITTSBURGH,8104,8104,27 51ST ST SUITE 2,PA,15201
Sears,BIRMINGHAM,8106,8106,196 VULCAN RD,AL,35209
Sears,HOUSTON,8107,8107,16555 PARK ROW,TX,77084-0000
Sears,SEATTLE,8109,8109,4786 FIRST AVE S,WA,98134-2304
Sears,DES MOINES,8112,8112,4000 MERLE HAY RD,IA,50310
Sears,OKLAHOMA CITY,8121,8121,1825 N WALNUT ST,OK,73105
Sears,FORT MYERS,8126,8126,6150 METRO PLANTATION RD,FL,33912-1200
Sears,BEAUMONT,8127,8127,6640 EASTEX FWY,TX,77708-4300
Sears,LOS ANGELES,8128,8128,2650 E OLYMPIC BLVD,CA,90023-2608
Sears,PORTLAND,8129,8129,2626 SE 122ND AVE,OR,97236-3199
Sears,HOUSTON,8137,8137,16555 PARK ROW,TX,77084
Sears,NEWINGTON,8143,8143,65 HOLMES RD,CT,06111-1709
Sears,SAN ANTONIO,8147,8147,7353 NW LOOP 410,TX,78245
Sears,INDIANAPOLIS,8150,8150,3301 ENGLISH AVE,IN,46201
Sears,TULSA,8151,8151,10405 E 55TH PL,OK,74146-6502
Sears,GARLAND,8157,8157,1617 KINGS RD,TX,75042-7727
Sears,HONOLULU,8158,8158,2886 PAA ST,HI,96819-4405
Sears,EDEN PRAIRIE,8162,8162,8301 FLYING CLOUD DR,MN,55344-5381
Sears,HOUSTON,8167,8167,525 E LITTLE YORK RD,TX,77076
Sears,OVERLAND PARK,8171,8171,9000 NIEMAN ROAD,KS,66214
Sears,DANVERS,8173,8173,74 ANDOVER ST - RT 114,MA,01923-1497
Sears,RICHMOND,8175,8175,4100 TOMLYN ST,VA,23230
Sears,LITTLE ROCK,8176,8176,6800 GEYER SPRINGS RD,AR,72209-2726
Sears,COLUMBUS,8180,8180,533 N NELSON RD,OH,43219
Sears,NORTHGLENN,8181,8181,930 E 104TH AVE,CO,80233-4303
Sears,GREENFIELD,8182,8182,4260M S 76TH ST,WI,53220
Sears,WINTER PARK,8185,8185,3825 FORSYTH RD,FL,32792-6810
Sears,HARLINGEN,8187,8187,1927 W JEFFERSON,TX,78550
Sears,COVINA,8199,8199,754 E ARROW HWY,CA,91724
Sears,JEFFERSONTOWN,8200,8200,9948 BUNSEN WAY,KY,40299
Sears,NASHVILLE,8206,8206,640 THOMPSON LANE,TN,37204
Sears,VICTORIA,8207,8207,7508C N NAVARRO,TX,77904
Sears,PENNSAUKEN,8214,8214,8000 NATIONAL HWY,NJ,8110
Sears,FORT WORTH,8217,8217,5001 N BEACH ST,TX,76137
Sears,DALLAS,8227,8227,2270 VALLEY VIEW LN,TX,75234
Sears,LAKE JACKSON,8237,8237,STE 1096,TX,77566
Sears,HAUPPAUGE,8244,8244,740 OLD WILLETS PATH,NY,11788-0000
Sears,ST PETERSBURG,8245,8245,4600 PARK ST N,FL,33709-4024
Sears,DICKINSON,8247,8247,1000 WEST FM 517,TX,77539
Sears,ROCHESTER,8254,8254,2213 BRIGHTON HENRIETTA,NY,14623
Sears,BATON ROUGE,8256,8256,12114 INDUSTRIPLEX BLVD,LA,70809-0000
Sears,LAKEWOOD,8258,8258,5436 WOODRUFF AVE,CA,90713
Sears,LUBBOCK,8267,8267,6702 UPLAND AVE,TX,79407
Sears,MONTCLAIR,8268,8268,5440 ARROW HWY,CA,91763
Sears,MOUNTT VERNON,8269,8269,2424 FREEWAY DR,WA,98273-5416
Sears,ALLENTOWN,8274,8274,1820 E RACE ST,PA,18109
Sears,LAGUNA HILLS,8278,8278,24300 LAGUNA HILLS MALL,CA,92653-7601
Sears,BELTON,8287,8287,1600 E SIXTH ST,TX,76513
Sears,SACRAMENTO,8291,8291,1200 BLUMENFELD RD,CA,95815-3904
Sears,PLANTATION,8295,8295,6801 W SUNRISE BLVD,FL,33313-0000
Sears,SAGINAW,8303,8303,STE C,MI,48604
Sears,MIAMI,8305,8305,13475 SW 128TH ST,FL,33186
Sears,MELVILLE,8308,8308,120 SPAGNOLI RD SUITE 2,NY,11747-3502
Sears,MERRILLVILLE,8311,8311,UNIT B,IN,46410
Sears,OMAHA,8313,8313,SUITE 101,NE,68137
Sears,TUCKER,8315,8315,2301 MT INDUSTRIAL BLVD,GA,30084-3808
Sears,LODI,8317,8317,2 MEMORIAL DR,NJ,7644
Sears,BLOOMINGDALE,8320,8320,440 W ARMY TRAIL RD,IL,60108
Sears,PROVO,8327,8327,971 W CENTER ST,UT,84601
Sears,SAN JOSE,8331,8331,2180 EASTRIDGE LOOP,CA,95122-1408
Sears,CINCINNATI,8339,8339,6000 CREEK ROAD,OH,45242
Sears,MCMURRAY,8344,8344,3260 WASHINGTON RD,PA,15317
Sears,VIRGINIA BEACH,8345,8345,102 SOUTH WITCHDUCK RD,VA,23462
Sears,SAN ANTONIO,8347,8347,7411 SAN PEDRO,TX,78216
Sears,BREA,8358,8358,100 BREA MALL WAY,CA,92821
Sears,CITRUS HTS,8368,8368,5901 SUNRISE MALL,CA,95610-6901
Sears,SANTA ANA,8369,8369,400 W WARNER AVE,CA,92707-3442
Sears,ALBUQUERQUE,8387,8387,800 COMANCHE RD NE,NM,87107-4107
Sears,THOUSAND OAKS,8389,8389,145 W HILLCREST DR,CA,91360-4206
Sears,RANDOLPH,8449,8449,21 PACELLA PARK DRIVE,MA,2368
Sears,KENNESAW,8455,8455,STE 500,GA,30144-4988
Sears,ODENTON,8615,8615,1781 CROSSROADS DR,MD,21113-1110
Sears,WICHITA,8636,8636,7700 E KELLOGG DR SUITE 1,KS,67207-1772
Sears,WEST JORDAN,8661,8661,7453 S PLAZA CENTER DR,UT,84088
Sears,SANTA ANA,8716,8716,400 W WARNER AVE,CA,92707-0000
Sears,COLLEGE POINT,8820,8820,114-02 15TH AVE,NY,11356
Sears,GUAYNABO,8935,8935,ROAD 169 KM 6.7 BO CAMARONES,PR,969
Sears,HORSHAM,8956,8956,507 PRUDENTIAL ROAD,PA,19044
Sears,NOVI,9062,9062,44075 W 12 MILE RD,MI,48377-2613
Sears,HOUSTON,9099,9099,3277 SOUTHWEST FREEWAY,TX,77027
Sears,LAWRENCEVILLE,9111,9111,5900 SUGARLOAF PARKWAY,GA,30043
Sears,LENEXA,9112,9112,8540 MAURER,KS,66219
Sears,NORRISTOWN,9114,9114,2700 DEKALB PIKE,PA,19401
Sears,CARROLLTON,9201,9201,2150 N JOSEY LANE STE 132,TX,75006
Sears,NASHVILLE,9202,9202,SUITE 1000,TN,37203
Sears,BAKER,9209,9209,252 MAIN STREET,LA,70714
Sears,LAWRENCE,9210,9210,2329 IOWA STREET SPACE M,KS,66046
Sears,COACHELLA,9219,9219,49693 HARRISON STREET,CA,92236
Sears,CHARLESTON,9226,9226,IN KMART 3080,SC,29407
Sears,CATHEDRAL CITY,9228,9228,31033 DATE PALM BLVD STE 2,CA,92234
Sears,SACRAMENTO,9229,9229,1200 BLUMENFELD DRIVE STE C,CA,95815
Sears,KAILUA KONA,9248,9248,74-5583 LUHIA ST BAY B7,HI,96740
Sears,DUMAS,9258,9258,708 S DUMAS AVE,TX,79029
Sears,OVERLAND,9270,9270,9034 OVERLAND PLAZA,MO,63114
Sears,DEER PARK,9272,9272,603 S FIR AVE,WA,99006
Sears,RIO GRANDE,9278,9278,BARRIO GUZMAN ABAJO,PR,745
Sears,LONETREE,9281,9281,8585 S YOSEMITE ST,CO,80124-2864
Sears,WHEATON,9282,9282,11060 VIERS MILLS ROAD,MD,20902
Sears,AUSTIN,9284,9284,13435 HWY 183 N,TX,78750
Sears,ALHAMBRA,9286,9286,2115A COMMONWEALTH AVE,CA,91803
Sears,DELAFIELD,9291,9291,2750 HERITAGE DRIVE,WI,53018
Sears,MEQUON,9292,9292,10954 N PORT WASHINGTON RD,WI,53092
Sears,HORSHAM,9293,9293,507 PRUDENTIAL ROAD,PA,19044
Sears,RCHO STA MARG,9295,9295,30485 AVENIDA DE LAS FLORES,CA,92688
Sears,PONDERAY,9296,9296,300 BONNER ML WAY STE 102-105,ID,83852
Sears,SAN DIMAS,9299,9299,726 W ARROW HWY,CA,91773
Sears,NAPERVILLE,9300,9300,1835 FERRY RD,IL,60563
Sears,LOS GATOS,9303,9303,720 UNIVERSITY AVE STE 100,CA,95030
Sears,AUSTIN,9306,9306,1300 LOUIS HENNA BLVD,TX,78864
Sears,NAPERVILLE,9311,9311,1835 FERRY RD,IL,60563
Sears,LOS GATOS,9358,9358,720 UNIVERSITY AVE STE 100,CA,95032
Sears,CLEVELAND,9362,9362,UNIT 8 AND 9,OH,44129
Sears,SAN DIEGO,9405,9405,12080 CARMEL MOUNTAIN ROAD,CA,92128
Sears,HOUSTON,9411,9411,11687 WESTHEIMER RD,TX,77077
Sears,ALEXANDRIA,9465,9465,6003 DUKE ST,VA,22304
Sears,FARMERS BRNCH,9481,9481,5000 ALPHA RD,TX,75244-4611
Sears,SPARKS,9486,9486,350 GLENDALE AVE SUITE 100,NV,89431
Sears,SUPERIOR,9490,9490,69 N 28TH STREET STE 400,WI,54880
Sears,TUCSON,9492,9492,4755 S BUTTERFIELD DR,AZ,85714
Sears,HAYWARD,9497,9497,680 W WINTON AVE,CA,94545
Sears,WINTER PARK,9505,9505,3825 FORSYTH RD,FL,32792-6810
Sears,SAN ANTONIO,9507,9507,1560 CABLE RANCH RD BLDG A,TX,78245
Sears,SAN ANTONIO,9507,9507,1560 CABLE RANCH RD BLDG A,TX,78245
Sears,HOLLAND,9522,9522,2931 WEST SHORE,MI,49424
Sears,WINTER PARK,9539,9539,3825 FORSYTHE,FL,32792
Sears,WINTER PARK,9555,9555,3825 FORSYTH RD,FL,32792-6810
Sears,LAMESA,9591,9591,417 SOUTH FIRST STREET,TX,79331
Sears,HUBER HEIGHTS,9603,9603,8284 TROY PIKE,OH,45424
Sears,CEDAR RAPIDS,9605,9605,2020 16TH AVE SW,IA,52404
Sears,BELVIDERE,9607,9607,425 SOUTHTOWNE DRIVE,IL,61008
Sears,FLINT,9620,9620,3070 S LINDEN RD,MI,48507-3026
Sears,SHELBYVILLE,9628,9628,620 MADISON STREET,TN,37160
Sears,CLINTON,9632,9632,1815 LINCOLN WAY,IA,52732
Sears,BRICK,9666,9666,511 RT 70 EAST #300,NJ,8723
Sears,CLIFTON,9668,9668,780 RT 3 WEST,NJ,7012
Sears,NAPERVILLE,9670,9670,540 S HIGHWAY 59,IL,60540
Sears,MONROEVILLE,9671,9671,3700 WILLIAM PENN HIGHWAY,PA,15146
Sears,MUNCIE,9680,9680,3501 GRANVILLE AVE,IN,47303
Sears,PLAINFIELD,9696,9696,1701 US HIGHWAY 22,NJ,7060
Sears,WHITINSVILLE,9698,9698,1167 PROVIDENCE RD UNIT 4,MA,1588
Sears,SAUGUS,9723,9723,1325 BROADWAY RD,MA,1906
Sears,CAYEY,9747,9747,1000 JESUS T PINERO AVE SPC 5,PR,736
Sears,TINLEY PARK,9756,9756,16040 S HARLEM AVE,IL,60477
Sears,ENGLEWOOD,9764,9764,200 W BELLVIEW,CO,80110
Sears,SAN ANTONIO,9774,9774,4100 S NEW BRAUNFELS AVE,TX,78223-1458
Sears,HEREFORD,9776,9776,1115 WEST PARK AVE,TX,79045
Sears,HORSHAM,9783,9783,507 PRUDENTIAL RD,PA,19044
Sears,NILES,9785,9785,8247 WEST GOLF ROAD,IL,60714
Sears,TUKWILA,9788,9788,18340 OLYMPIC AVE S,WA,98188-4723
Sears,ALLEN,9796,9796,109 N GREENVILLE AVE,TX,75002
Sears,CORTLAND,9843,9843,160 CLINTON AVE,NY,13045
Sears,HENDERSON,9849,9849,10405 SOUTH EASTERN AVE,NV,89052-3958
Sears,BLOOMFIELD,9850,9850,2101 TELEGRAPH,MI,48302
Sears,WOODSTOCK,9870,9870,2235 SOUTH EASTWOOD DRIVE,IL,60098
Sears,RALEIGH,9876,9876,4300 FAYETTEVILLE RD,NC,27603
Sears,WICHITA,9881,9881,3535 N ROCK ROAD STE 100,KS,67226
Sears,CLACKAMAS,9888,9888,10176 SE 82ND AVE,OR,97086
Sears,HOUSTON,9889,9889,5901 GRIGGS RD,TX,77023-6523
Sears,THREE RIVERS,9890,9890,211 N US HWY 131,MI,49093
Sears,GREENSBORO,9892,9892,1302 BRIDFORD PKWY,NC,27407
Sears,SAN ANTONIO,9897,9897,820 RECTOR DR EAST STE 120,TX,78209
Sears,RICHMOND,9898,9898,2208 STATION ROAD,VA,23234-5133
Sears,WESTLAKE,9906,9906,30219 DETROIT RD,OH,44145
Sears,ROUND ROCK,9911,9911,1300 LOUIS HENNA BLVD,TX,78664
Sears,CLERMONT,9916,9916,731 E HWY 50 STE C,FL,34711
Sears,ROUND ROCK,9917,9917,1300 LOUIS HENNA BLVD,TX,78664
Sears,PLANO,9935,9935,1601 PRESTON RD STE L,TX,75093
Sears,OWASSO,9936,9936,9002 N 121ST EAST AVENUE #600,OK,74055
Sears,VALLEJO,9937,9937,946 ADMIRAL CALLAGHAN LN ST914,CA,94591-3680
Sears,EXCELSIOR SPRINGS,9941,9941,1450 KEARNEY ROAD,MO,64024
Sears,BALTIMORE,9944,9944,8200 BELAIR ROAD,MD,21236
Sears,Hoffman Estates,9948,9948,3333 Beverly Road,IL,60179-0000
Sears,EL MONTE,9951,9951,3610 PECK RD,CA,91731-3529
Sears,BOTHELL,9958,9958,21129 BOTHELL-EVERETT HWY #104,WA,98021
Sears,CHERRY HILL,9963,9963,2232 ROUTE 70 WEST SUITE C,NJ,8002
Sears,KERNERSVILLE,9970,9970,619 NORTH MAIN STREET,NC,27284
Sears,CONCORD,9974,9974,545 CONCORD PKWY N,NC,28027
Sears,HUMACAO,9976,9976,BARRIO RIO ABAJO,PR,791
Sears,ROSEMOUNT,9982,9982,3420 150TH STREET W STE 109,MN,55068
Sears,NORFOLK,9983,9983,6101 N MILITARY HIGHWAY,VA,23518
Sears,STERLING HTS,9986,9986,14453 HALL ROAD,MI,48315
