Keywords,city,Agg store_number,store_number,address,state,zip_code
Sheetz,Altoona,7,00007 000007 0007 007 07 7,5706 6th Ave,PA,16602
Sheetz,Huntingdon,10,000010 0000010 00010 0010 010 10,1330 Moore St,PA,16652
Sheetz,Altoona,11,000011 0000011 00011 0011 011 11,1230 14th Ave,PA,16601
Sheetz,Altoona,14,000014 0000014 00014 0014 014 14,3315 Beale Ave,PA,16601
Sheetz,Tyrone,15,000015 0000015 00015 0015 015 15,1400 Logan Ave,PA,16686
Sheetz,Indiana,19,000019 0000019 00019 0019 019 19,768 Wayne Ave,PA,15701
Sheetz,Johnstown,21,000021 0000021 00021 0021 021 21,490 Central Ave,PA,15902
Sheetz,Johnstown,22,000022 0000022 00022 0022 022 22,208 Haynes St,PA,15901
Sheetz,Everett,23,000023 0000023 00023 0023 023 23,11 W Main St,PA,15537
Sheetz,Windber,27,000027 0000027 00027 0027 027 27,1500 Graham Ave,PA,15963
Sheetz,Bedford,28,000028 0000028 00028 0028 028 28,9402 Lincoln Hwy,PA,15522
Sheetz,Blairsville,29,000029 0000029 00029 0029 029 29,5 E Market St,PA,15717
Sheetz,Indiana,31,000031 0000031 00031 0031 031 31,380 Philadelphia St,PA,15701
Sheetz,Mcconnellsburg,32,000032 0000032 00032 0032 032 32,720 Lincoln Way E,PA,17233
Sheetz,Altoona,33,000033 0000033 00033 0033 033 33,718 Bellwood Rd,PA,16601
Sheetz,Altoona,34,000034 0000034 00034 0034 034 34,1701 7th Ave,PA,16602
Sheetz,Duncansville,35,000035 0000035 00035 0035 035 35,1371 Plank Rd,PA,16635
Sheetz,Altoona,38,000038 0000038 00038 0038 038 38,405 East 25th Ave,PA,16601
Sheetz,Mount Union,40,000040 0000040 00040 0040 040 40,201 N Jefferson St,PA,17066
Sheetz,Cumberland,41,000041 0000041 00041 0041 041 41,2045 Bedford St,MD,21502
Sheetz,Hancock,43,000043 0000043 00043 0043 043 43,192 W Main St,MD,21750
Sheetz,Ebensburg,45,000045 0000045 00045 0045 045 45,948 W High St,PA,15931
Sheetz,Cresaptown,46,000046 0000046 00046 0046 046 46,14606 Mcmullen Hwy Sw,MD,21502
Sheetz,Nanty Glo,48,000048 0000048 00048 0048 048 48,115 Pace St,PA,15943
Sheetz,Portage,49,000049 0000049 00049 0049 049 49,101 Main St,PA,15946
Sheetz,Cumberland,51,000051 0000051 00051 0051 051 51,210 Greene St,MD,21502
Sheetz,Patton,52,000052 0000052 00052 0052 052 52,304 Magee Ave,PA,16668
Sheetz,Northern Cambria,55,000055 0000055 00055 0055 055 55,4025 Crawford Ave,PA,15714
Sheetz,Somerset,57,000057 0000057 00057 0057 057 57,457 E Main St,PA,15501
Sheetz,Clarion,58,000058 0000058 00058 0058 058 58,1281 E Main St,PA,16214
Sheetz,Latrobe,59,000059 0000059 00059 0059 059 59,2853 Ligonier St,PA,15650
Sheetz,Somerset,60,000060 0000060 00060 0060 060 60,118 S Rosina Ave,PA,15501
Sheetz,Clymer,61,000061 0000061 00061 0061 061 61,825 Franklin St,PA,15728
Sheetz,Frostburg,62,000062 0000062 00062 0062 062 62,10601 New Georges Creek Rd Sw,MD,21532
Sheetz,Dubois,63,000063 0000063 00063 0063 063 63,701 E Dubois Ave,PA,15801
Sheetz,Philipsburg,64,000064 0000064 00064 0064 064 64,808 N Front St,PA,16866
Sheetz,Johnstown,65,000065 0000065 00065 0065 065 65,1000 Broad St,PA,15906
Sheetz,Brookville,66,000066 0000066 00066 0066 066 66,300 W Main St,PA,15825
Sheetz,Williamsport,68,000068 0000068 00068 0068 068 68,100 E Potomac St,MD,21795
Sheetz,Chambersburg,69,000069 0000069 00069 0069 069 69,1 Monticello Ct,PA,17201
Sheetz,Shippensburg,70,000070 0000070 00070 0070 070 70,359 E King St,PA,17257
Sheetz,Youngwood,72,000072 0000072 00072 0072 072 72,301 N 3rd St,PA,15697
Sheetz,Clearfield,73,000073 0000073 00073 0073 073 73,101 Nichols St,PA,16830
Sheetz,Hagerstown,74,000074 0000074 00074 0074 074 74,700 Potomac Ave,MD,21740
Sheetz,Slippery Rock,75,000075 0000075 00075 0075 075 75,107 Franklin St,PA,16057
Sheetz,Chambersburg,76,000076 0000076 00076 0076 076 76,1315 Lincoln Way E,PA,17201
Sheetz,Punxsutawney,79,000079 0000079 00079 0079 079 79,100 Elk Run Ave,PA,15767
Sheetz,Hagerstown,82,000082 0000082 00082 0082 082 82,301 E Washington St,MD,21740
Sheetz,Franklin,84,000084 0000084 00084 0084 084 84,1107 Liberty St,PA,16323
Sheetz,Johnstown,86,000086 0000086 00086 0086 086 86,1791 Goucher St,PA,15905
Sheetz,Scottdale,87,000087 0000087 00087 0087 087 87,5 S Broadway St,PA,15683
Sheetz,Meyersdale,89,000089 0000089 00089 0089 089 89,24 Center St,PA,15552
Sheetz,Monongahela,92,000092 0000092 00092 0092 092 92,111 E Main St,PA,15063
Sheetz,Ridgway,96,000096 0000096 00096 0096 096 96,138 N Broad St,PA,15853
Sheetz,New Kensington,99,000099 0000099 00099 0099 099 99,325 Freeport St,PA,15068
Sheetz,Altoona,100,0000100 00000100 000100 00100 0100 100,1661 E Pleasant Valley Blvd,PA,16602
Sheetz,Ford City,101,0000101 00000101 000101 00101 0101 101,503 Main St,PA,16226
Sheetz,Sidman,113,0000113 00000113 000113 00113 0113 113,101 Forest Hills Dr Box 188,PA,15955
Sheetz,Kittanning,114,0000114 00000114 000114 00114 0114 114,100 Walnut St,PA,16201
Sheetz,Pittsburgh,115,0000115 00000115 000115 00115 0115 115,8607 Perry Hwy,PA,15237
Sheetz,Greencastle,116,0000116 00000116 000116 00116 0116 116,215 W Baltimore St,PA,17225
Sheetz,Harrisville,121,0000121 00000121 000121 00121 0121 121,103 N Main St,PA,16038
Sheetz,State College,122,0000122 00000122 000122 00122 0122 122,1781 N Atherton St,PA,16803
Sheetz,Gibsonia,123,0000123 00000123 000123 00123 0123 123,5300 Route 8,PA,15044
Sheetz,Connellsville,124,0000124 00000124 000124 00124 0124 124,1002 W Crawford Ave,PA,15425
Sheetz,Berkeley Springs,126,0000126 00000126 000126 00126 0126 126,245 S Washington St,WV,25411
Sheetz,Carrolltown,127,0000127 00000127 000127 00127 0127 127,128 South Main Street,PA,15722
Sheetz,Rochester,128,0000128 00000128 000128 00128 0128 128,499 Adams St,PA,15074
Sheetz,Cumberland,129,0000129 00000129 000129 00129 0129 129,429 Virginia Ave,MD,21502
Sheetz,Creighton,130,0000130 00000130 000130 00130 0130 130,899 Freeport Rd,PA,15030
Sheetz,Taneytown,132,0000132 00000132 000132 00132 0132 132,40 Antrim Blvd,MD,21787
Sheetz,Cranberry Township,133,0000133 00000133 000133 00133 0133 133,1329 Freedom Road,PA,16066
Sheetz,Mercer,136,0000136 00000136 000136 00136 0136 136,105 N Erie St,PA,16137
Sheetz,Kearneysville,137,0000137 00000137 000137 00137 0137 137,3728 Charles Town Rd,WV,25430
Sheetz,Greenville,139,0000139 00000139 000139 00139 0139 139,294 Main St,PA,16125
Sheetz,Littlestown,141,0000141 00000141 000141 00141 0141 141,35 E King St,PA,17340
Sheetz,Inwood,143,0000143 00000143 000143 00143 0143 143,7899 Winchester Ave,WV,25428
Sheetz,Moorefield,144,0000144 00000144 000144 00144 0144 144,268 Genny Loop,WV,26836
Sheetz,Hagerstown,145,0000145 00000145 000145 00145 0145 145,18717 Longmeadow Rd,MD,21742
Sheetz,Brockway,146,0000146 00000146 000146 00146 0146 146,1408 Main St,PA,15824
Sheetz,Oakland,147,0000147 00000147 000147 00147 0147 147,5 N 3rd St,MD,21550
Sheetz,Dubois,148,0000148 00000148 000148 00148 0148 148,2120 Blinker Pkwy,PA,15801
Sheetz,Dubois,149,0000149 00000149 000149 00149 0149 149,124 N Brady St,PA,15801
Sheetz,State College,150,0000150 00000150 000150 00150 0150 150,2000 E College Ave,PA,16801
Sheetz,Emporium,151,0000151 00000151 000151 00151 0151 151,1 W 4th St,PA,15834
Sheetz,Beaver Falls,152,0000152 00000152 000152 00152 0152 152,3611 4th Ave,PA,15010
Sheetz,Meadville,153,0000153 00000153 000153 00153 0153 153,18425 Smock Hwy,PA,16335
Sheetz,Greensburg,154,0000154 00000154 000154 00154 0154 154,211 Harvey Ave,PA,15601
Sheetz,Martinsburg,155,0000155 00000155 000155 00155 0155 155,1617 W King St,WV,25401
Sheetz,Lewistown,158,0000158 00000158 000158 00158 0158 158,113 Juniata Street,PA,17044
Sheetz,Conneaut Lake,159,0000159 00000159 000159 00159 0159 159,315 Water St Box 5096,PA,16316
Sheetz,Shepherdstown,160,0000160 00000160 000160 00160 0160 160,8332 Martinsburg Pike,WV,25443
Sheetz,Frederick,161,0000161 00000161 000161 00161 0161 161,5601 Buckeystown Pike,MD,21701
Sheetz,Hagerstown,163,0000163 00000163 000163 00163 0163 163,17550 Virginia Ave,MD,21740
Sheetz,Westminster,164,0000164 00000164 000164 00164 0164 164,304 E Main St,MD,21157
Sheetz,Coudersport,165,0000165 00000165 000165 00165 0165 165,208 S Main St,PA,16915
Sheetz,Port Allegany,166,0000166 00000166 000166 00166 0166 166,101 N Main St,PA,16743
Sheetz,Corriganville,167,0000167 00000167 000167 00167 0167 167,100 E Main St Box 298,MD,21524
Sheetz,Keyser,168,0000168 00000168 000168 00168 0168 168,1280 New Creek Highway,WV,26726
Sheetz,East Freedom,169,0000169 00000169 000169 00169 0169 169,8711 Woodbury Pike,PA,16637
Sheetz,Indiana,170,0000170 00000170 000170 00170 0170 170,525 Ben Franklin Rd S,PA,15701
Sheetz,Ligonier,173,0000173 00000173 000173 00173 0173 173,3832 State Route 711,PA,15658
Sheetz,Belington,174,0000174 00000174 000174 00174 0174 174,221 N Crim Ave,WV,26250
Sheetz,Parsons,175,0000175 00000175 000175 00175 0175 175,200 1st St,WV,26287
Sheetz,Knoxville,176,0000176 00000176 000176 00176 0176 176,3842 Burkittsville Rd,MD,21758
Sheetz,Manchester,177,0000177 00000177 000177 00177 0177 177,3281 Main St,MD,21102
Sheetz,Chambersburg,178,0000178 00000178 000178 00178 0178 178,5234 Philadelphia Ave,PA,17201
Sheetz,Somerset,179,0000179 00000179 000179 00179 0179 179,1189 N Center Ave,PA,15501
Sheetz,Romney,180,0000180 00000180 000180 00180 0180 180,136 E Main St,WV,26757
Sheetz,Bellefonte,181,0000181 00000181 000181 00181 0181 181,820 S Eagle Valley Rd,PA,16823
Sheetz,Bridgeport,182,0000182 00000182 000182 00182 0182 182,1220 Johnson Ave,WV,26330
Sheetz,Connellsville,183,0000183 00000183 000183 00183 0183 183,2601 Memorial Blvd,PA,15425
Sheetz,Hagerstown,184,0000184 00000184 000184 00184 0184 184,12404 Lauger Ave,MD,21740
Sheetz,Chambersburg,185,0000185 00000185 000185 00185 0185 185,900 Wayne Ave,PA,17201
Sheetz,Winchester,186,0000186 00000186 000186 00186 0186 186,1503 N Frederick Pike,VA,22601
Sheetz,Altoona,187,0000187 00000187 000187 00187 0187 187,400 E Plank Rd,PA,16602
Sheetz,Transfer,188,0000188 00000188 000188 00188 0188 188,270 Edgewood Drive Ext,PA,16154
Sheetz,Cheswick,189,0000189 00000189 000189 00189 0189 189,1505 Pittsburgh Street,PA,15024
Sheetz,Pittsburgh,190,0000190 00000190 000190 00190 0190 190,2003 Golden Mile Hwy,PA,15239
Sheetz,Carlisle,191,0000191 00000191 000191 00191 0191 191,1098 Harrisburg Pike,PA,17013
Sheetz,Boyce,192,0000192 00000192 000192 00192 0192 192,12582 Lord Fairfax Hwy,VA,22620
Sheetz,Mifflintown,193,0000193 00000193 000193 00193 0193 193,24578 Route 35 N,PA,17059
Sheetz,Falls Creek,194,0000194 00000194 000194 00194 0194 194,1867 Rich Hwy,PA,15840
Sheetz,Mechanicsburg,195,0000195 00000195 000195 00195 0195 195,6558 Carlisle Pike,PA,17050
Sheetz,Cresson,196,0000196 00000196 000196 00196 0196 196,7551 Admiral Peary Hwy,PA,16630
Sheetz,Stephens City,197,0000197 00000197 000197 00197 0197 197,747 Fairfax St,VA,22655
Sheetz,Woodstock,198,0000198 00000198 000198 00198 0198 198,111 W Reservoir Rd,VA,22664
Sheetz,Hanover,199,0000199 00000199 000199 00199 0199 199,1191 Carlisle St,PA,17331
Sheetz,Thurmont,200,0000200 00000200 000200 00200 0200 200,428 N Church St,MD,21788
Sheetz,Mechanicsburg,201,0000201 00000201 000201 00201 0201 201,1415 S Market St,PA,17055
Sheetz,Hermitage,202,0000202 00000202 000202 00202 0202 202,2381 S Hermitage Rd,PA,16148
Sheetz,Winchester,203,0000203 00000203 000203 00203 0203 203,2311 Valley Ave,VA,22601
Sheetz,Murrysville,204,0000204 00000204 000204 00204 0204 204,4701 William Penn Hwy,PA,15668
Sheetz,Haymarket,205,0000205 00000205 000205 00205 0205 205,15315 Washington St,VA,20169
Sheetz,Weston,206,0000206 00000206 000206 00206 0206 206,39 Berlin Rd,WV,26452
Sheetz,Winchester,207,0000207 00000207 000207 00207 0207 207,1683 Berryville Pike,VA,22602
Sheetz,Winchester,208,0000208 00000208 000208 00208 0208 208,601 Millwood Ave,VA,22601
Sheetz,Boonsboro,209,0000209 00000209 000209 00209 0209 209,20723 National Pike,MD,21713
Sheetz,Walkersville,210,0000210 00000210 000210 00210 0210 210,8408 Woodsboro Pike,MD,21793
Sheetz,Palmyra,211,0000211 00000211 000211 00211 0211 211,811 E Main St,PA,17078
Sheetz,Petersburg,212,0000212 00000212 000212 00212 0212 212,299 Bryan St,WV,26847
Sheetz,Bloomsburg,213,0000213 00000213 000213 00213 0213 213,2511 New Berwick Hwy,PA,17815
Sheetz,Buckhannon,214,0000214 00000214 000214 00214 0214 214,4 Clarksburg Rd,WV,26201
Sheetz,Huntingdon,215,0000215 00000215 000215 00215 0215 215,9681 William Penn Hwy,PA,16652
Sheetz,Elysburg,216,0000216 00000216 000216 00216 0216 216,38 S Market St,PA,17824
Sheetz,Butler,217,0000217 00000217 000217 00217 0217 217,100 Freeport Rd,PA,16001
Sheetz,Harrisonburg,218,0000218 00000218 000218 00218 0218 218,533 University Blvd,VA,22801
Sheetz,Harrisburg,219,0000219 00000219 000219 00219 0219 219,2300 Colonial Rd,PA,17112
Sheetz,Martinsburg,220,0000220 00000220 000220 00220 0220 220,1465 Edwin Miller Blvd,WV,25404
Sheetz,Bealeton,221,0000221 00000221 000221 00221 0221 221,10101 James Madison Hwy,VA,22712
Sheetz,Harrisonburg,222,0000222 00000222 000222 00222 0222 222,1825 S Main St,VA,22801
Sheetz,Baden,223,0000223 00000223 000223 00223 0223 223,100 Ohio River Blvd,PA,15005
Sheetz,York,224,0000224 00000224 000224 00224 0224 224,405 Memory Ln,PA,17402
Sheetz,Breezewood,225,0000225 00000225 000225 00225 0225 225,16417 Lincoln Hwy,PA,15533
Sheetz,Reading,226,0000226 00000226 000226 00226 0226 226,501 E Bellevue Ave,PA,19605
Sheetz,Johnstown,227,0000227 00000227 000227 00227 0227 227,405 Galleria Dr,PA,15904
Sheetz,Halifax,228,0000228 00000228 000228 00228 0228 228,3625 Peters Mountain Rd,PA,17032
Sheetz,Irwin,229,0000229 00000229 000229 00229 0229 229,7821 Route 30,PA,15642
Sheetz,Carmichaels,230,0000230 00000230 000230 00230 0230 230,973 S 88 Rd,PA,15320
Sheetz,New Holland,231,0000231 00000231 000231 00231 0231 231,698 W Main St,PA,17557
Sheetz,Mt Holly Springs,232,0000232 00000232 000232 00232 0232 232,420 N Baltimore Ave,PA,17065
Sheetz,Manchester,233,0000233 00000233 000233 00233 0233 233,4309 N George Street Ext,PA,17345
Sheetz,Weirton,234,0000234 00000234 000234 00234 0234 234,239 Three Springs Drive,WV,26062
Sheetz,Selinsgrove,235,0000235 00000235 000235 00235 0235 235,766 North Susquehanna Trail,PA,17870
Sheetz,Marietta,236,0000236 00000236 000236 00236 0236 236,1158 River Rd,PA,17547
Sheetz,Lititz,237,0000237 00000237 000237 00237 0237 237,701 Furnace Hills Pike,PA,17543
Sheetz,Ruckersville,238,0000238 00000238 000238 00238 0238 238,7020 Seminole Trl,VA,22968
Sheetz,New Stanton,239,0000239 00000239 000239 00239 0239 239,205 N Center Ave,PA,15672
Sheetz,Charles Town,240,0000240 00000240 000240 00240 0240 240,51 Flowing Springs Rd,WV,25414
Sheetz,Martinsburg,241,0000241 00000241 000241 00241 0241 241,14686 Apple Harvest Drive,WV,25401
Sheetz,Frederick,242,0000242 00000242 000242 00242 0242 242,1600 Rosemont Ave,MD,21702
Sheetz,Warrenton,243,0000243 00000243 000243 00243 0243 243,600 Blackwell Rd,VA,20186
Sheetz,Woodbridge,244,0000244 00000244 000244 00244 0244 244,4021 Prince William Pkwy,VA,22193
Sheetz,Erie,245,0000245 00000245 000245 00245 0245 245,4662 W Ridge Rd,PA,16506
Sheetz,New Castle,246,0000246 00000246 000246 00246 0246 246,3208 Us 422,PA,16101
Sheetz,Fleetwood,247,0000247 00000247 000247 00247 0247 247,14350 Kutztown Rd,PA,19522
Sheetz,Girard,248,0000248 00000248 000248 00248 0248 248,2721 Salt Springs Rd,OH,44420
Sheetz,Frederick,249,0000249 00000249 000249 00249 0249 249,1300 E Patrick St,MD,21701
Sheetz,Butler,250,0000250 00000250 000250 00250 0250 250,356 New Castle Rd,PA,16001
Sheetz,East Liverpool,251,0000251 00000251 000251 00251 0251 251,15744 Saint Clair Ave,OH,43920
Sheetz,Clearfield,252,0000252 00000252 000252 00252 0252 252,14259 Clearfield Shawville Hwy,PA,16830
Sheetz,Pittsburgh,253,0000253 00000253 000253 00253 0253 253,251 Curry Hollow Rd,PA,15236
Sheetz,Morgantown,254,0000254 00000254 000254 00254 0254 254,900 Chestnut Ridge Rd,WV,26505
Sheetz,York,255,0000255 00000255 000255 00255 0255 255,1484 Carlisle Rd,PA,17408
Sheetz,Shoemakersville,256,0000256 00000256 000256 00256 0256 256,554 Shoemaker Ave,PA,19555
Sheetz,Lancaster,257,0000257 00000257 000257 00257 0257 257,1699 Oregon Pike,PA,17601
Sheetz,Pottsville,258,0000258 00000258 000258 00258 0258 258,900 Gordon Nagle Trl,PA,17901
Sheetz,King George,259,0000259 00000259 000259 00259 0259 259,17188 Owens Dr,VA,22485
Sheetz,Cranberry,260,0000260 00000260 000260 00260 0260 260,7119 Us 322 Box 228,PA,16319
Sheetz,Forest,261,0000261 00000261 000261 00261 0261 261,12259 E Lynchburg Salem Tpke,VA,24551
Sheetz,Hagerstown,262,0000262 00000262 000262 00262 0262 262,1396 S Potomac St,MD,21740
Sheetz,Carlisle,263,0000263 00000263 000263 00263 0263 263,1900 Ritner Hwy,PA,17013
Sheetz,Fredericksburg,264,0000264 00000264 000264 00264 0264 264,10 Washington Square Plz,VA,22405
Sheetz,Lynchburg,265,0000265 00000265 000265 00265 0265 265,14480 Wards Rd,VA,24501
Sheetz,Streetsboro,266,0000266 00000266 000266 00266 0266 266,9745 State Route 14,OH,44241
Sheetz,Leesburg,267,0000267 00000267 000267 00267 0267 267,915 Edwards Ferry Rd Ne,VA,20176
Sheetz,Red Lion,268,0000268 00000268 000268 00268 0268 268,3200 Cape Horn Rd,PA,17356
Sheetz,Ephrata,269,0000269 00000269 000269 00269 0269 269,4179 Oregon Pike,PA,17522
Sheetz,Manassas Park,270,0000270 00000270 000270 00270 0270 270,8504 Centreville Rd,VA,20111
Sheetz,Lynchburg,271,0000271 00000271 000271 00271 0271 271,2630 Lakeside Dr,VA,24501
Sheetz,Madison Heights,272,0000272 00000272 000272 00272 0272 272,4089 S Amherst Hwy,VA,24572
Sheetz,Birdsboro,273,0000273 00000273 000273 00273 0273 273,6600 Perkiomen Ave,PA,19508
Sheetz,Ashtabula,274,0000274 00000274 000274 00274 0274 274,2411 N Ridge Rd E,OH,44004
Sheetz,Morgantown,275,0000275 00000275 000275 00275 0275 275,1 Chaplin Rd,WV,26501
Sheetz,Mifflinburg,276,0000276 00000276 000276 00276 0276 276,240 E Chestnut St,PA,17844
Sheetz,Wexford,277,0000277 00000277 000277 00277 0277 277,12000 Perry Hwy,PA,15090
Sheetz,Uniontown,278,0000278 00000278 000278 00278 0278 278,10 New Salem Rd,PA,15401
Sheetz,Canonsburg,279,0000279 00000279 000279 00279 0279 279,2401 Washington Rd,PA,15317
Sheetz,Mill Hall,280,0000280 00000280 000280 00280 0280 280,288 Hogan Blvd,PA,17751
Sheetz,Austintown,281,0000281 00000281 000281 00281 0281 281,5499 Mahoning Ave,OH,44515
Sheetz,Warren,282,0000282 00000282 000282 00282 0282 282,1162 Niles Cortland Rd Se,OH,44484
Sheetz,Williamsport,283,0000283 00000283 000283 00283 0283 283,330 Westminster Dr,PA,17701
Sheetz,Waynesburg,284,0000284 00000284 000284 00284 0284 284,111 E Roy Furman Highway,PA,15370
Sheetz,Orange,285,0000285 00000285 000285 00285 0285 285,332 Madison Rd,VA,22960
Sheetz,Ashland,286,0000286 00000286 000286 00286 0286 286,10036 Sliding Hill Rd,VA,23005
Sheetz,State College,287,0000287 00000287 000287 00287 0287 287,101 Valley Vista Dr,PA,16803
Sheetz,Duncannon,288,0000288 00000288 000288 00288 0288 288,1550 State Rd,PA,17020
Sheetz,Sinking Spring,289,0000289 00000289 000289 00289 0289 289,4661 Penn Ave,PA,19608
Sheetz,Tappahannock,290,0000290 00000290 000290 00290 0290 290,1804 Tappahannock Blvd,VA,22560
Sheetz,Hazle Township,291,0000291 00000291 000291 00291 0291 291,101 Airport Rd,PA,18202
Sheetz,California,292,0000292 00000292 000292 00292 0292 292,22711 Three Notch Rd,MD,20619
Sheetz,Leesport,293,0000293 00000293 000293 00293 0293 293,5515 Pottsville Pike,PA,19533
Sheetz,Warren,294,0000294 00000294 000294 00294 0294 294,3379 Elm Rd Ne,OH,44484
Sheetz,Roanoke,295,0000295 00000295 000295 00295 0295 295,2703 Peters Creek Rd Nw,VA,24019
Sheetz,Stow,296,0000296 00000296 000296 00296 0296 296,950 E Steels Corners Rd,OH,44224
Sheetz,Wilkes Barre,297,0000297 00000297 000297 00297 0297 297,464 Wilkes Barre Township Blvd,PA,18702
Sheetz,Grove City,298,0000298 00000298 000298 00298 0298 298,1526 W Main Street Ext,PA,16127
Sheetz,Grove City,299,0000299 00000299 000299 00299 0299 299,1931 Butler Pike,PA,16127
Sheetz,Roanoke,300,0000300 00000300 000300 00300 0300 300,1212 Williamson Rd Ne,VA,24012
Sheetz,Ravenna,301,0000301 00000301 000301 00301 0301 301,6941 State Route 44,OH,44266
Sheetz,Staunton,302,0000302 00000302 000302 00302 0302 302,1250 Richmond Ave,VA,24402
Sheetz,Madison,303,0000303 00000303 000303 00303 0303 303,2902 S Seminole Trl,VA,22727
Sheetz,Chantilly,304,0000304 00000304 000304 00304 0304 304,25224 Poland Rd,VA,20152
Sheetz,York,305,0000305 00000305 000305 00305 0305 305,2721 S Queen St,PA,17403
Sheetz,Danville,306,0000306 00000306 000306 00306 0306 306,3425 Riverside Dr,VA,24541
Sheetz,King George,307,0000307 00000307 000307 00307 0307 307,11449 Kings Hwy,VA,22485
Sheetz,Ridgeway,308,0000308 00000308 000308 00308 0308 308,6758 Greensboro Rd,VA,24148
Sheetz,Winchester,309,0000309 00000309 000309 00309 0309 309,1574 Martinsburg Pike,VA,22602
Sheetz,North Lima,310,0000310 00000310 000310 00310 0310 310,9010 Market St,OH,44452
Sheetz,Akron,311,0000311 00000311 000311 00311 0311 311,20 W Waterloo Rd,OH,44319
Sheetz,Mt Joy,312,0000312 00000312 000312 00312 0312 312,1555 E Main St,PA,17552
Sheetz,North Huntingdon,313,0000313 00000313 000313 00313 0313 313,13700 Rt 30,PA,15642
Sheetz,New Alexandria,314,0000314 00000314 000314 00314 0314 314,8299 Route 22,PA,15670
Sheetz,Ashland,315,0000315 00000315 000315 00315 0315 315,12341 Washington Hwy,VA,23005
Sheetz,Joppa,316,0000316 00000316 000316 00316 0316 316,601 Pulaski Hwy,MD,21085
Sheetz,Cuyahoga Falls,317,0000317 00000317 000317 00317 0317 317,1210 Main St,OH,44221
Sheetz,Great Mills,318,0000318 00000318 000318 00318 0318 318,20760 Old Great Mills Rd,MD,20634
Sheetz,Trucksville,319,0000319 00000319 000319 00319 0319 319,163 S Memorial Hwy,PA,18708
Sheetz,Christiansburg,320,0000320 00000320 000320 00320 0320 320,2000 N Franklin St,VA,24073
Sheetz,Colonial Heights,321,0000321 00000321 000321 00321 0321 321,2711 Conduit Rd,VA,23834
Sheetz,Richmond,322,0000322 00000322 000322 00322 0322 322,2053 Huguenot Rd,VA,23235
Sheetz,Locust Grove,323,0000323 00000323 000323 00323 0323 323,5504 Germanna Hwy,VA,22508
Sheetz,Wadsworth,324,0000324 00000324 000324 00324 0324 324,5100 Ridge Rd,OH,44281
Sheetz,Salem,325,0000325 00000325 000325 00325 0325 325,1435 Apperson Dr,VA,24153
Sheetz,Gettysburg,326,0000326 00000326 000326 00326 0326 326,30 Camp Letterman Dr,PA,17325
Sheetz,Monroeville,327,0000327 00000327 000327 00327 0327 327,2100 Mosside Blvd,PA,15146
Sheetz,Canfield,328,0000328 00000328 000328 00328 0328 328,4585 Boardman Canfield Rd,OH,44406
Sheetz,Rocky Mount,329,0000329 00000329 000329 00329 0329 329,265 Old Franklin Tpke,VA,24151
Sheetz,Whitehall,330,0000330 00000330 000330 00330 0330 330,5001 Macarthur Rd,PA,18052
Sheetz,Powhatan,331,0000331 00000331 000331 00331 0331 331,2600 Anderson Hwy,VA,23139
Sheetz,Harrisonburg,332,0000332 00000332 000332 00332 0332 332,798 E Market St,VA,22801
Sheetz,Salem,333,0000333 00000333 000333 00333 0333 333,1340 W Main St,VA,24153
Sheetz,Edinboro,334,0000334 00000334 000334 00334 0334 334,5930 Route 6n,PA,16412
Sheetz,Butler,335,0000335 00000335 000335 00335 0335 335,499 Evans City Rd,PA,16001
Sheetz,Williamsport,336,0000336 00000336 000336 00336 0336 336,105 Maynard St,PA,17701
Sheetz,Meadville,337,0000337 00000337 000337 00337 0337 337,16590 Conneaut Lake Rd,PA,16335
Sheetz,Richmond,338,0000338 00000338 000338 00338 0338 338,20 S Providence Rd,VA,23236
Sheetz,State College,339,0000339 00000339 000339 00339 0339 339,765 Benner Pike,PA,16801
Sheetz,South Boston,340,0000340 00000340 000340 00340 0340 340,1007 Philpott Rd,VA,24592
Sheetz,Richmond,341,0000341 00000341 000341 00341 0341 341,9401 Amberdale Dr,VA,23236
Sheetz,Canton,342,0000342 00000342 000342 00342 0342 342,5057 Tuscarawas St W,OH,44708
Sheetz,Dunmore,343,0000343 00000343 000343 00343 0343 343,1101 Oneill Hwy,PA,18512
Sheetz,Plains Township,344,0000344 00000344 000344 00344 0344 344,1233 Highway 315 Blvd,PA,18702
Sheetz,Morgantown,345,0000345 00000345 000345 00345 0345 345,3830 Main St,PA,19543
Sheetz,Fredericksburg,346,0000346 00000346 000346 00346 0346 346,2001 Carl D Silver Pkwy,VA,22401
Sheetz,North Ridgeville,347,0000347 00000347 000347 00347 0347 347,32390 Lorain Rd,OH,44039
Sheetz,York,348,0000348 00000348 000348 00348 0348 348,4025 W Market St,PA,17408
Sheetz,Morgantown,349,0000349 00000349 000349 00349 0349 349,1901 Earl L Core Rd,WV,26505
Sheetz,Richmond,350,0000350 00000350 000350 00350 0350 350,7035 W Broad St,VA,23294
Sheetz,Hummelstown,351,0000351 00000351 000351 00351 0351 351,658 East Main Street,PA,17036
Sheetz,Bedford,352,0000352 00000352 000352 00352 0352 352,4354 Business 220,PA,15522
Sheetz,Pittsburgh,353,0000353 00000353 000353 00353 0353 353,5410 Campbells Run Rd,PA,15205
Sheetz,Altoona,354,0000354 00000354 000354 00354 0354 354,1915 Pleasant Valley Blvd,PA,16602
Sheetz,Walkertown,355,0000355 00000355 000355 00355 0355 355,5198 Reidsville Rd,NC,27051
Sheetz,Greensboro,356,0000356 00000356 000356 00356 0356 356,4319 W Wendover Ave,NC,27407
Sheetz,New Philadelphia,357,0000357 00000357 000357 00357 0357 357,1281 W High Ave,OH,44663
Sheetz,Fairlawn,358,0000358 00000358 000358 00358 0358 358,7335 Lee Hwy,VA,24141
Sheetz,Scranton,359,0000359 00000359 000359 00359 0359 359,610 Scranton Carbondale Hwy,PA,18508
Sheetz,Monroeville,360,0000360 00000360 000360 00360 0360 360,3954 William Penn Hwy,PA,15146
Sheetz,Raleigh,361,0000361 00000361 000361 00361 0361 361,4801 Thornton Rd,NC,27616
Sheetz,Wheeling,362,0000362 00000362 000362 00362 0362 362,887 National Rd,WV,26003
Sheetz,Clarks Summit,363,0000363 00000363 000363 00363 0363 363,1109 Northern Blvd,PA,18411
Sheetz,Fisherville,364,0000364 00000364 000364 00364 0364 364,726 Tinkling Spring Road,VA,22939
Sheetz,Fuquay-varina,365,0000365 00000365 000365 00365 0365 365,1655 N Main St,NC,27526
Sheetz,Greensboro,366,0000366 00000366 000366 00366 0366 366,5421 Hornaday Rd,NC,27407
Sheetz,Erie,367,0000367 00000367 000367 00367 0367 367,4816 Buffalo Rd,PA,16510
Sheetz,Akron,368,0000368 00000368 000368 00368 0368 368,1651 E Turkeyfoot Lake Rd,OH,44312
Sheetz,Homer City,369,0000369 00000369 000369 00369 0369 369,2260 Route 119 Hwy S,PA,15748
Sheetz,Lebanon,370,0000370 00000370 000370 00370 0370 370,195 Rocherty Rd,PA,17042
Sheetz,Raleigh,371,0000371 00000371 000371 00371 0371 371,5200 New Bern Ave,NC,27610
Sheetz,Danville,372,0000372 00000372 000372 00372 0372 372,116 Woodbine Ln,PA,17821
Sheetz,York,373,0000373 00000373 000373 00373 0373 373,2068 S Queen St,PA,17403
Sheetz,Harrisburg,374,0000374 00000374 000374 00374 0374 374,3695 Paxton St,PA,17113
Sheetz,Alliance,375,0000375 00000375 000375 00375 0375 375,236 W State St,OH,44601
Sheetz,Pittsburgh,376,0000376 00000376 000376 00376 0376 376,1000 Clairton Blvd.,PA,15236
Sheetz,Belle Vernon,377,0000377 00000377 000377 00377 0377 377,4692 Sr 51 S,PA,15012
Sheetz,Lewisburg,378,0000378 00000378 000378 00378 0378 378,260 International Dr,PA,17837
Sheetz,Moon Township,379,0000379 00000379 000379 00379 0379 379,9002 University Blvd,PA,15108
Sheetz,Mebane,380,0000380 00000380 000380 00380 0380 380,1237 Mebane Oaks Rd,NC,27302
Sheetz,New Castle,381,0000381 00000381 000381 00381 0381 381,3450 Wilmington Rd,PA,16105
Sheetz,Hermitage,382,0000382 00000382 000382 00382 0382 382,1650 N Hermitage Rd,PA,16148
Sheetz,Youngsville,383,0000383 00000383 000383 00383 0383 383,564 Us 1 Hwy,NC,27596
Sheetz,Bethlehem,384,0000384 00000384 000384 00384 0384 384,3201 Schoenersville Rd,PA,18017
Sheetz,Winston-salem,385,0000385 00000385 000385 00385 0385 385,2505 Somerset Center Dr,NC,27103
Sheetz,Chester,386,0000386 00000386 000386 00386 0386 386,231 E Hundred Rd,VA,23836
Sheetz,Cambridge,387,0000387 00000387 000387 00387 0387 387,2101 Southgate Pkwy,OH,43725
Sheetz,Lancaster,388,0000388 00000388 000388 00388 0388 388,3101 Columbia Ave,PA,17603
Sheetz,Canton,389,0000389 00000389 000389 00389 0389 389,2939 Whipple Ave Nw,OH,44708
Sheetz,Kent,390,0000390 00000390 000390 00390 0390 390,1762 E Main St,OH,44240
Sheetz,Greenville,391,0000391 00000391 000391 00391 0391 391,2100 County Home Rd,NC,27858
Sheetz,Chambersburg,392,0000392 00000392 000392 00392 0392 392,875 Norland Ave,PA,17201
Sheetz,Twinsburg,393,0000393 00000393 000393 00393 0393 393,2495 E Aurora Rd,OH,44087
Sheetz,Mentor,394,0000394 00000394 000394 00394 0394 394,7777 Reynolds Rd,OH,44060
Sheetz,Farmville,395,0000395 00000395 000395 00395 0395 395,2016 S Main St,VA,23901
Sheetz,Wilson,396,0000396 00000396 000396 00396 0396 396,2835 Forest Hills Rd Sw,NC,27893
Sheetz,Greenville,397,0000397 00000397 000397 00397 0397 397,1000 Charles Blvd,NC,27858
Sheetz,Durham,398,0000398 00000398 000398 00398 0398 398,3021 S Miami Blvd,NC,27703
Sheetz,Morrisville,399,0000399 00000399 000399 00399 0399 399,1600 Aviation Parkway,NC,27560
Sheetz,St. Mary's,400,0000400 00000400 000400 00400 0400 400,117 S Michael St,PA,15857
Sheetz,Waynesboro,401,0000401 00000401 000401 00401 0401 401,13030 Washington Township Blvd,PA,17268
Sheetz,Sarver,402,0000402 00000402 000402 00402 0402 402,717 S Pike Rd,PA,16055
Sheetz,Lynchburg,403,0000403 00000403 000403 00403 0403 403,3927 Wards Rd,VA,24502
Sheetz,Perry,404,0000404 00000404 000404 00404 0404 404,2800 N Ridge Rd,OH,44081
Sheetz,Statesville,405,0000405 00000405 000405 00405 0405 405,1244 Wilkesboro Hwy,NC,28625
Sheetz,Zanesville,406,0000406 00000406 000406 00406 0406 406,225 N Maysville Ave,OH,43701
Sheetz,Wytheville,407,0000407 00000407 000407 00407 0407 407,1340 N 4th St,VA,24382
Sheetz,Waynesboro,408,0000408 00000408 000408 00408 0408 408,2156 W Main St,VA,22980
Sheetz,Winterville,409,0000409 00000409 000409 00409 0409 409,650 Whitley Dr,NC,28590
Sheetz,Schuylkill Haven,410,0000410 00000410 000410 00410 0410 410,270 Route 61 S,PA,17972
Sheetz,Winston-salem,411,0000411 00000411 000411 00411 0411 411,12290 N Nc Highway 150,NC,27127
Sheetz,Harrisburg,412,0000412 00000412 000412 00412 0412 412,6290 Allentown Blvd,PA,17112
Sheetz,Dillsburg,413,0000413 00000413 000413 00413 0413 413,493 N Us Route 15,PA,17019
Sheetz,High Point,414,0000414 00000414 000414 00414 0414 414,2980 Nc 68 South,NC,27265
Sheetz,Greenville,415,0000415 00000415 000415 00415 0415 415,1201 Portertown Rd,NC,27858
Sheetz,Zebulon,416,0000416 00000416 000416 00416 0416 416,1406 N Arendell Ave,NC,27597
Sheetz,Burlington,417,0000417 00000417 000417 00417 0417 417,2628 Alamance Rd,NC,27215
Sheetz,Trinity,418,0000418 00000418 000418 00418 0418 418,5905 Finch Farm Rd,NC,27370
Sheetz,Barboursville,419,0000419 00000419 000419 00419 0419 419,4 Mall Rd,WV,25504
Sheetz,Altoona,420,0000420 00000420 000420 00420 0420 420,1015 Old 6th Ave Rd,PA,16602
Sheetz,Lancaster,421,0000421 00000421 000421 00421 0421 421,1180 Manheim Pike,PA,17603
Sheetz,Strongsville,422,0000422 00000422 000422 00422 0422 422,21034 Royalton Rd,OH,44149
Sheetz,York,423,0000423 00000423 000423 00423 0423 423,3998 E Market St,PA,17402
Sheetz,Milton,424,0000424 00000424 000424 00424 0424 424,1304 Johns Creek Rd,WV,25541
Sheetz,Martinsburg,425,0000425 00000425 000425 00425 0425 425,5715 Hammonds Mill Rd,WV,25404
Sheetz,Carlisle,426,0000426 00000426 000426 00426 0426 426,1796 West Trindle Road,PA,17013
Sheetz,Huntington,427,0000427 00000427 000427 00427 0427 427,432 18th St W,WV,25704
Sheetz,Eden,428,0000428 00000428 000428 00428 0428 428,102 N Van Buren Rd,NC,27288
Sheetz,Triadelphia,429,0000429 00000429 000429 00429 0429 429,6 Cabela Dr,WV,26059
Sheetz,Ebensburg,430,0000430 00000430 000430 00430 0430 430,4375 Admiral Peary Highway,PA,15931
Sheetz,North Canton,431,0000431 00000431 000431 00431 0431 431,"1415 Pittsburg Avenue, Nw",OH,44720
Sheetz,Jamestown,432,0000432 00000432 000432 00432 0432 432,1001 Gardner Hill Dr,NC,27282
Sheetz,Hurricane,433,0000433 00000433 000433 00433 0433 433,104 St. Rt. 19,WV,25526
Sheetz,Berwick,434,0000434 00000434 000434 00434 0434 434,2100 West Front Street,PA,18603
Sheetz,Chardon,435,0000435 00000435 000435 00435 0435 435,435 Water Street,OH,44024
Sheetz,Kernersville,436,0000436 00000436 000436 00436 0436 436,790 North Main Street,NC,27284
Sheetz,Rocky Mount,437,0000437 00000437 000437 00437 0437 437,1690 Benvenue Road,NC,27804
Sheetz,Charles Town,438,0000438 00000438 000438 00438 0438 438,1130 Marlow Road,WV,25414
Sheetz,Franklin,439,0000439 00000439 000439 00439 0439 439,590 Allegheny Blvd,PA,16323
Sheetz,Forest,440,0000440 00000440 000440 00440 0440 440,14449 Forest Rd,VA,24551
Sheetz,Sheffield Village,441,0000441 00000441 000441 00441 0441 441,5295 Detroit Rd,OH,44054
Sheetz,Linden,442,0000442 00000442 000442 00442 0442 442,7775 North Route 220 Hwy,PA,17744
Sheetz,Summerville,443,0000443 00000443 000443 00443 0443 443,1300 Wal Street,WV,26651
Sheetz,Fayetteville,444,0000444 00000444 000444 00444 0444 444,27 Whitewater Ave,WV,25840
Sheetz,Kittanning,445,0000445 00000445 000445 00445 0445 445,13510 St Rte 422,PA,16201
Sheetz,Follansbee,446,0000446 00000446 000446 00446 0446 446,1525 Main St,WV,26037
Sheetz,Rocky Mount,447,0000447 00000447 000447 00447 0447 447,3715 North Wesleyan Blvd,NC,27804
Sheetz,Hanover,448,0000448 00000448 000448 00448 0448 448,1841 Baltimore Pike,PA,17331
Sheetz,Harrisburg,449,0000449 00000449 000449 00449 0449 449,6010 Derry Street,PA,17111
Sheetz,Bellefonte,450,0000450 00000450 000450 00450 0450 450,2850 Benner Pike,PA,16823
Sheetz,Greencastle,451,0000451 00000451 000451 00451 0451 451,11104 Grindstone Hill Road,PA,17225
Sheetz,Kent,452,0000452 00000452 000452 00452 0452 452,600 North Mantua St,OH,44240
Sheetz,Winston Salem,453,0000453 00000453 000453 00453 0453 453,5519 Gumtree Road,NC,27107
Sheetz,Asheboro,454,0000454 00000454 000454 00454 0454 454,1065 East Dixie Drive,NC,27203
Sheetz,Mocksville,455,0000455 00000455 000455 00455 0455 455,1449 Yadkinville Road,NC,27028
Sheetz,Princeton,456,0000456 00000456 000456 00456 0456 456,751 Oakvale Road,WV,24740
Sheetz,Mt Hope,457,0000457 00000457 000457 00457 0457 457,5481 Robert C Byrd Drive,WV,25880
Sheetz,Princeton,458,0000458 00000458 000458 00458 0458 458,151 Courthouse Rd,WV,24740
Sheetz,Verona,459,0000459 00000459 000459 00459 0459 459,2175 Hulton Road,PA,15147
Sheetz,Greensboro,460,0000460 00000460 000460 00460 0460 460,6930 West Market St,NC,27409
Sheetz,Duncannon,461,0000461 00000461 000461 00461 0461 461,54 Benvenue Road,PA,17020
Sheetz,York,462,0000462 00000462 000462 00462 0462 462,215 Arsenal Road,PA,17402
Sheetz,Sugarloaf,463,0000463 00000463 000463 00463 0463 463,551 St Route 93,PA,18249
Sheetz,Hagerstown,464,0000464 00000464 000464 00464 0464 464,"191 Eastern Blvd, North",MD,21740
Sheetz,Parma,465,0000465 00000465 000465 00465 0465 465,6767 Ridge Road,OH,44129
Sheetz,Chambersburg,466,0000466 00000466 000466 00466 0466 466,1819 Wayne Ave,PA,17201
Sheetz,Hurricane,467,0000467 00000467 000467 00467 0467 467,3805 Teays Valley Road,WV,25526
Sheetz,Pittsburgh,468,0000468 00000468 000468 00468 0468 468,3457 William Penn Highway,PA,15235
Sheetz,Newville,469,0000469 00000469 000469 00469 0469 469,3299 Ritner Highway,PA,17241
Sheetz,Salisbury,470,0000470 00000470 000470 00470 0470 470,1520 Jake Alexander Boulevard South,NC,28146
Sheetz,Henderson,471,0000471 00000471 000471 00471 0471 471,619 Ruin Creek Road,NC,27536
Sheetz,Archdale,472,0000472 00000472 000472 00472 0472 472,10206 South Main Street,NC,27263
Sheetz,Beaver,473,0000473 00000473 000473 00473 0473 473,810 Ritter Highway,WV,25813
Sheetz,Mansfield,474,0000474 00000474 000474 00474 0474 474,85 West Wellsboro Street,PA,16933
Sheetz,State College,475,0000475 00000475 000475 00475 0475 475,120 South Ridge Plaza,PA,16801
Sheetz,Pittsburgh,476,0000476 00000476 000476 00476 0476 476,3025 Babcock Blvd,PA,15237
Sheetz,Lower Burrell,477,0000477 00000477 000477 00477 0477 477,203 Craig Dell Road,PA,15068
Sheetz,Ephrata,478,0000478 00000478 000478 00478 0478 478,891 East Main St,PA,17522
Sheetz,Benson,479,0000479 00000479 000479 00479 0479 479,13433 Nc Highway 210,NC,27504
Sheetz,Raleigh,480,0000480 00000480 000480 00480 0480 480,600 Corporate Center Dr,NC,27607
Sheetz,Wendell,481,0000481 00000481 000481 00481 0481 481,505 Wendell Blvd,NC,27591
Sheetz,Beckley,482,0000482 00000482 000482 00482 0482 482,1408 North Eisenhower Drive,WV,25801
Sheetz,King,483,0000483 00000483 000483 00483 0483 483,703 East King St,NC,27021
Sheetz,Greensboro,484,0000484 00000484 000484 00484 0484 484,3941 West Market St,NC,27407
Sheetz,Louisburg,485,0000485 00000485 000485 00485 0485 485,108 South Bickett Blvd,NC,27549
Sheetz,Star City,486,0000486 00000486 000486 00486 0486 486,3522 Monongahela Boulevard,WV,26505
Sheetz,Uniontown,487,0000487 00000487 000487 00487 0487 487,570 Pittsburgh Road,PA,15401
Sheetz,Greenville,488,0000488 00000488 000488 00488 0488 488,2521 North Memorial Dr,NC,27834
Sheetz,Greensboro,489,0000489 00000489 000489 00489 0489 489,1620 New Garden Road,NC,27410
Sheetz,Mt Airy,490,0000490 00000490 000490 00490 0490 490,2905 Rockford St,NC,27030
Sheetz,Zion Crossroads,491,0000491 00000491 000491 00491 0491 491,135 Market Street,VA,22942
Sheetz,Graham,492,0000492 00000492 000492 00492 0492 492,1138 South Main St,NC,27253
Sheetz,Dobson,493,0000493 00000493 000493 00493 0493 493,119 South Main St,NC,27017
Sheetz,Scott Depot,494,0000494 00000494 000494 00494 0494 494,4344a Teays Valley Road,WV,25560
Sheetz,Lexington,495,0000495 00000495 000495 00495 0495 495,8283 Old Us Highway 52,NC,27295
Sheetz,Johnstown,496,0000496 00000496 000496 00496 0496 496,1455 Scalp Ave,PA,15904
Sheetz,Claysburg,497,0000497 00000497 000497 00497 0497 497,12604 Dunnings Highway,PA,16625
Sheetz,Blairsville,498,0000498 00000498 000498 00498 0498 498,610 Route 22 Hwy W,PA,15717
Sheetz,Erie,499,0000499 00000499 000499 00499 0499 499,8180 Perry Highway,PA,16509
Sheetz,Sewickley,500,0000500 00000500 000500 00500 0500 500,1910 Mt Nebo Road,PA,15143
Sheetz,Clarksburg,501,0000501 00000501 000501 00501 0501 501,101 Stoneybrook Rd,WV,26301
Sheetz,Titusville,502,0000502 00000502 000502 00502 0502 502,331 West Central Ave,PA,16354
Sheetz,North Huntingdon,503,0000503 00000503 000503 00503 0503 503,101 Ronda Court,PA,15642
Sheetz,Rocky Mount,504,0000504 00000504 000504 00504 0504 504,157 North Old Carriage Road,NC,27804
Sheetz,Wake Forest,505,0000505 00000505 000505 00505 0505 505,1895 S Franklin St,NC,27587
Sheetz,Washington,506,0000506 00000506 000506 00506 0506 506,1695 W 5th Street,NC,27889
Sheetz,Raleigh,507,0000507 00000507 000507 00507 0507 507,7900 Fayetteville Rd,NC,27603
Sheetz,Reidsville,508,0000508 00000508 000508 00508 0508 508,1647 Freeway Drive,NC,27320
Sheetz,Greensboro,509,0000509 00000509 000509 00509 0509 509,1300 Battleground Ave,NC,27408
Sheetz,Yadkinville,510,0000510 00000510 000510 00510 0510 510,805 South State St,NC,27055
Sheetz,Smithfield,511,0000511 00000511 000511 00511 0511 511,1700 East Market St,NC,27577
Sheetz,Kernersville,512,0000512 00000512 000512 00512 0512 512,1400 Nc Hwy 66 South,NC,27284
Sheetz,Raleigh,513,0000513 00000513 000513 00513 0513 513,9915 Fayetteville Rd,NC,27603
Sheetz,Lexington,514,0000514 00000514 000514 00514 0514 514,600 East Nelson St,VA,24450
Sheetz,Bethel Park,515,0000515 00000515 000515 00515 0515 515,4599 Library Road,PA,15102
Sheetz,Bridgeport,516,0000516 00000516 000516 00516 0516 516,20 Oakmont Lane,WV,26330
Sheetz,Poca,517,0000517 00000517 000517 00517 0517 517,1457 Charleston Road,WV,25159
Sheetz,Mechanicsburg,518,0000518 00000518 000518 00518 0518 518,6054 Carlisle Pike,PA,17050
Sheetz,Frederick,519,0000519 00000519 000519 00519 0519 519,6050 Buckeystown Pike,MD,21704
Sheetz,North Warren,520,0000520 00000520 000520 00520 0520 520,2425 Market Street,PA,16365
Sheetz,Cranberry Twp,521,0000521 00000521 000521 00521 0521 521,2000 Ehrman Road,PA,16066
Sheetz,Easton,522,0000522 00000522 000522 00522 0522 522,3501 Nazareth Road,PA,18045
Sheetz,Harrisburg,523,0000523 00000523 000523 00523 0523 523,4001 Union Deposit Rd,PA,17109
Sheetz,Troutman,524,0000524 00000524 000524 00524 0524 524,1023 Charlotte Highway,NC,28166
Sheetz,Morrisville,525,0000525 00000525 000525 00525 0525 525,10700 Chapel Hill Road,NC,27560
Sheetz,Mentor,526,0000526 00000526 000526 00526 0526 526,7766 Lake Shore Blvd,OH,44060
Sheetz,Mechanicsburg,527,0000527 00000527 000527 00527 0527 527,5201 Simpson Ferry Rd,PA,17050
Sheetz,Girard,528,0000528 00000528 000528 00528 0528 528,809 Main Street East,PA,16417
Sheetz,Hartville,529,0000529 00000529 000529 00529 0529 529,1280 W Maple St,OH,44632
Sheetz,Muncy,530,0000530 00000530 000530 00530 0530 530,45 Muncy Creek Blvd,PA,17756
Sheetz,Fredericksburg,532,0000532 00000532 000532 00532 0532 532,2807 Lafayette Blvd,VA,22408
Sheetz,Brooklyn,533,0000533 00000533 000533 00533 0533 533,10315 Cascade Crossing,OH,44144
Sheetz,Goldsboro,534,0000534 00000534 000534 00534 0534 534,1001 N Spence Ave,NC,27530
Sheetz,Elkin,535,0000535 00000535 000535 00535 0535 535,401 Cc Camp Road,NC,28621
Sheetz,Raleigh,537,0000537 00000537 000537 00537 0537 537,2408 Dixie Forest Road,NC,27615
Sheetz,Mt Jackson,701,0000701 00000701 000701 00701 0701 701,227 Conicville Blvd,VA,22842
Sheetz,Raleigh,536,0000536 00000536 000536 00536 0536 536,4660 Millbrook Green Drive,NC,27604
Sheetz,High Point,538,0000538 00000538 000538 00538 0538 538,802 Westchester Dr,NC,27262
Sheetz,Apex,540,0000540 00000540 000540 00540 0540 540,4000 Lufkin Road,NC,27539
