keywords,city,Aggdata Store Number,store_number,address,state,zip_code
SHOPPERS Food & Pharmacy,Ellicott City,2256,2256 #2256,3301 North Ridge Rd # 4,MD,21043
SHOPPERS Food & Pharmacy,Baltimore,2281,2281 #2281,8212 Liberty Rd,MD,21244
SHOPPERS Food & Pharmacy,Towson,2282,2282 #2282,803 Goucher Blvd,MD,21204
SHOPPERS Food & Pharmacy,Pasadena,2283,2283 #2283,8048 Ritchie Hwy,MD,21122
SHOPPERS Food & Pharmacy,Millersville,2284,2284 #2284,670 Old Mill Rd,MD,21108
SHOPPERS Food & Pharmacy,Baltimore,2285,2285 #2285,2801 Smith Ave,MD,21209
SHOPPERS Food & Pharmacy,Baltimore,2286,2286 #2286,1200 Eastern Blvd,MD,21221
SHOPPERS Food & Pharmacy,Baltimore,2287,2287 #2287,5457 Baltimore National Pike,MD,21229
SHOPPERS Food & Pharmacy,Baltimore,2288,2288 #2288,857 E Fort Ave,MD,21230
SHOPPERS Food & Pharmacy,Baltimore,2290,2290 #2290,1955 E Joppa Rd,MD,21234
SHOPPERS Food & Pharmacy,Severn,2293,2293 #2293,7858 Quarterfield Rd,MD,21144
SHOPPERS Food & Pharmacy,Brooklyn Park,2295,2295 #2295,5722 Ritchie Hwy,MD,21225
SHOPPERS Food & Pharmacy,Baltimore,2298,2298 #2298,6500 Eastern Ave,MD,21224
SHOPPERS Food & Pharmacy,Baltimore,2299,2299 #2299,2000 Gwynns Falls Parkway,MD,21216
SHOPPERS Food & Pharmacy,Sykesville,2300,2300 #2300,6300 Georgetown Blvd,MD,21784
SHOPPERS Food & Pharmacy,Crofton,2332,2332 #2332,1649 Crofton Center,MD,21114
SHOPPERS Food & Pharmacy,Olney,2335,2335 #2335,18140 Village Center Dr,MD,20832
SHOPPERS Food & Pharmacy,Fairfax,2336,2336 #2336,9622 Main St,VA,22031
SHOPPERS Food & Pharmacy,Burke,2337,2337 #2337,9274 Old Keene Mill Rd,VA,22015
SHOPPERS Food & Pharmacy,Annapolis,2338,2338 #2338,2371 Solomons Island Rd,MD,21401
SHOPPERS Food & Pharmacy,New Carrollton,2339,2339 #2339,7790 Riverdale Rd,MD,20784
SHOPPERS Food & Pharmacy,Takoma Park,2340,2340 #2340,6881 New Hampshire Ave,MD,20912
SHOPPERS Food & Pharmacy,Clinton,2342,2342 #2342,6300 Coventry Way,MD,20735
SHOPPERS Food & Pharmacy,Colmar Manor,2343,2343 #2343,3831 Bladensburg Rd,MD,20722
SHOPPERS Food & Pharmacy,Manassas,2344,2344 #2344,10864 Sudley Manor Dr,VA,20109
SHOPPERS Food & Pharmacy,Capitol Heights,2345,2345 #2345,4801 Marlboro Pike,MD,20743
SHOPPERS Food & Pharmacy,Franconia,2346,2346 #2346,7005 Manchester Blvd,VA,22310
SHOPPERS Food & Pharmacy,Laurel,2347,2347 #2347,3441 Fort Meade Rd,MD,20724
SHOPPERS Food & Pharmacy,Waldorf,2349,2349 #2349,1170 West Smallwood Drive,MD,20603
SHOPPERS Food & Pharmacy,Forestville,2350,2350 #2350,5820 Silver Hill Rd,MD,20747
SHOPPERS Food & Pharmacy,Landover,2352,2352 #2352,7051 Martin Luther King Jr Hwy,MD,20785
SHOPPERS Food & Pharmacy,Largo,2353,2353 #2353,806 Largo Center Dr,MD,20774
SHOPPERS Food & Pharmacy,Sterling,2354,2354 #2354,47100 Community Plaza,VA,20164
SHOPPERS Food & Pharmacy,Hyattsville,2355,2355 #2355,2441 Chillum Rd,MD,20782
SHOPPERS Food & Pharmacy,Herndon,2356,2356 #2356,2425 Centreville Rd,VA,20171
SHOPPERS Food & Pharmacy,Leesburg,2357,2357 #2357,1079 Edwards Ferry Rd Ne,VA,20176
SHOPPERS Food & Pharmacy,Alexandria,2358,2358 #2358,7660 Richmond Hwy,VA,22306
SHOPPERS Food & Pharmacy,Woodbridge,2361,2361 #2361,14000 Shoppers Best Way,VA,22192
SHOPPERS Food & Pharmacy,Germantown,2362,2362 #2362,18066 Mateny Rd,MD,20874
SHOPPERS Food & Pharmacy,Falls Church,2364,2364 #2364,6360 Seven Corners Center,VA,22044
SHOPPERS Food & Pharmacy,Alexandria,2365,2365 #2365,3801 Jefferson Davis Hwy,VA,22305
SHOPPERS Food & Pharmacy,College Park,2366,2366 #2366,4720 Cherry Hill Rd,MD,20740
SHOPPERS Food & Pharmacy,Alexandria,2368,2368 #2368,6200 Little River Turnpike,VA,22312
SHOPPERS Food & Pharmacy,Oxon Hill,2369,2369 #2369,6111 Livingston Rd,MD,20745
SHOPPERS Food & Pharmacy,Kensington,2370,2370 #2370,5110 Nicholson Ln,MD,20895
SHOPPERS Food & Pharmacy,Wheaton,2371,2371 #2371,2201 Randolph Rd,MD,20902
SHOPPERS Food & Pharmacy,Stafford,2372,2372 #2372,1505 Stafford Market Place,VA,22554
SHOPPERS Food & Pharmacy,Westminster,2374,2374 #2374,551 Jermor Ln,MD,21157
SHOPPERS Food & Pharmacy,California,2375,2375 #2375,22599 Macarthur Blvd,MD,20619
SHOPPERS Food & Pharmacy,Centreville,2376,2376 #2376,6335 Multiplex Dr,VA,20121
SHOPPERS Food & Pharmacy,Forestville,2377,2377 #2377,2950 Donnell St,MD,20747
SHOPPERS Food & Pharmacy,Laurel,2379,2379 #2379,"13600 Baltimore Ave, Suite 100",MD,20707
SHOPPERS Food & Pharmacy,Manassas,2380,2380 #2380,9540 Liberia Ave,VA,20110
SHOPPERS Food & Pharmacy,Dumfries,2381,2381 #2381,4174 Fortuna Center Plaza,VA,22025
SHOPPERS Food & Pharmacy,Bowie,2383,2383 #2383,10501 Martin Luther King Jr. Hwy,MD,20720
SHOPPERS Food & Pharmacy,Lorton,2384,2384 #2384,9409 Lorton Market St,VA,22079
