keywords,city,Aggdata Store Number,store_number,address,state,zip_code
Smoothie King,Metairie,1,#01 #1 1NT,7215 Veterans Memorial Blvd.,LA,70003
Smoothie King,Metairie,2,#02 #2 2NT,3400 Houma Blvd.,LA,70006
Smoothie King,New Orleans,3,#03 #3 3NT,"1000 S. Clearview Pkwy., Suite 1004",LA,70123
Smoothie King,New Orleans,4,#04 #4 4NT,"6600 Franklin Ave., #A-11",LA,70122
Smoothie King,New Orleans,5,#05 #5 5NT,"5300 Tchoupitoulas St., #D-4",LA,70115
Smoothie King,Kenner,6,#06 #6 6NT,"4041 William-s Blvd., Ste. 4-A",LA,70065
Smoothie King,Gretna,7,#07 #7 7NT,900-A Terry Parkway,LA,70056
Smoothie King,Slidell,9,#09 #9 9NT,533 Gause Blvd,LA,70458
Smoothie King,Metairie,10,#010 #10 10NT,909 Veterans Blvd.,LA,70005
Smoothie King,Destrehan,11,#011 #11 11NT,"12519 Airline Highway, Ste I",LA,70047
Smoothie King,Hammond,13,#013 #13 13NT,404 West University Ave.,LA,70401
Smoothie King,Metairie,14,#014 #14 14NT,"2222 Clearview Pkwy., Ste. G",LA,70001
Smoothie King,New Orleans,15,#015 #15 15NT,6221 S. Claiborne Ave.,LA,70125
Smoothie King,Lake Charles,16,#016 #16 16NT,4300 Ryan St.,LA,70605
Smoothie King,Lafayette,19,#019 #19 19NT,3619 am-bassador Caffery Pkwy,LA,70503
Smoothie King,Chalmette,20,#020 #20 20NT,3366 Paris Rd.,LA,70043
Smoothie King,Mandeville,22,#022 #22 22NT,1830 North Causeway Approach,LA,70471
Smoothie King,Marrero,23,#023 #23 23NT,1991-B Barataria Blvd.,LA,70072
Smoothie King,Houston,24,#024 #24 24NT,4509 FM 1960 West,TX,77069
Smoothie King,New Orleans,25,#025 #25 25NT,3865 General DeGaulle Dr. Ste. B,LA,70114
Smoothie King,River Ridge,27,#027 #27 27NT,"9605 Jefferson Hwy., #C-1",LA,70123
Smoothie King,LaPlace,28,#028 #28 28NT,1506 West Airline Hwy,LA,70068
Smoothie King,Baton Rouge,29,#029 #29 29NT,5727 Essen Lane Ste. D-2,LA,70810
Smoothie King,Houston,30,#030 #30 30NT,5410 Kirby,TX,77005
Smoothie King,New Orleans,31,#031 #31 31NT,8050 Crowder Blvd.,LA,70127
Smoothie King,Houma,32,#032 #32 32NT,1052 W Tunnel Blvd,LA,70364
Smoothie King,Houston,33,#033 #33 33NT,5300 Richmond Ave.,TX,77056
Smoothie King,Houston,40,#040 #40 40NT,12513-B Westheimer,TX,77077
Smoothie King,Miami Beach,42,#042 #42 42NT,1525 Alton Rd.,FL,33139
Smoothie King,Atlanta,45,#045 #45 45NT,1270 West Paces Ferry Road NW,GA,30324
Smoothie King,Luling,46,#046 #46 46NT,"12715 Hwy. 90, Ste. 100",LA,70070
Smoothie King,Jackson,53,#053 #53 53NT,6392- E  Ridgewood Ct.,MS,39211
Smoothie King,Sugar Land,56,#056 #56 56NT,3303 South Hwy 6  Ste. A,TX,77478
Smoothie King,Mobile,57,#057 #57 57NT,310-B    S. University Blvd.,AL,36609
Smoothie King,Tampa,58,#058 #58 58NT,15788 N. Dale Mabry Hwy.,FL,33618
Smoothie King,Temple Terrace,59,#059 #59 59NT,5207 E. Fowler Ave.,FL,33617
Smoothie King,Hattiesburg,63,#063 #63 63NT,3705 Hardy Street,MS,39402
Smoothie King,Dunwoody,64,#064 #64 64NT,5561 Cham-blee Dunwoody Road,GA,30338
Smoothie King,Destin,68,#068 #68 68NT,1255 Airport Rd.,FL,32541
Smoothie King,Baton Rouge,69,#069 #69 69NT,4257 Perkins Rd.,LA,70808
Smoothie King,Houston,70,#070 #70 70NT,19736 S.H. 249,TX,77070
Smoothie King,Orlando,71,#071 #71 71NT,"12140 Collegiate Way, #100",FL,32817
Smoothie King,Birmingham,72,#072 #72 72NT,1926 28th Ave. South,AL,35209
Smoothie King,Miami,79,#079 #79 79NT,6637 S. Dixie Hwy.,FL,33143
Smoothie King,Baton Rouge,83,#083 #83 83NT,3851 S. Sherwood Forest Blvd.,LA,70816
Smoothie King,Katy,86,#086 #86 86NT,890 South Mason Rd. #D,TX,77450
Smoothie King,Houston,91,#091 #91 91NT,14549 Memorial Drive,TX,77079
Smoothie King,Atlanta,92,#092 #92 92NT,3330 Piedmont Road,GA,30305
Smoothie King,Flowood,94,#094 #94 94NT,4327 Lakeland Dr.,MS,39232
Smoothie King,Atlanta,100,#0100 #100 100NT,1572 Piedmont Ave. NE,GA,30324
Smoothie King,Dallas,101,#0101 #101 101NT,6061 Forest Lane,TX,75230
Smoothie King,Mobile,103,#0103 #103 103NT,2029-D Airport Road,AL,36606
Smoothie King,Baton Rouge,104,#0104 #104 104NT,"9634 Airline Hwy., Suite F-1C",LA,70815
Smoothie King,Slidell,106,#0106 #106 106NT,2349 East Gause Blvd,LA,70461
Smoothie King,Jacksonville Beach,107,#0107 #107 107NT,1020 S. Third St.,FL,32250
Smoothie King,Houston,109,#0109 #109 109NT,913 Westheimer,TX,77006
Smoothie King,Kennesaw,111,#0111 #111 111NT,400 Barret Parkway,GA,30144
Smoothie King,Athens,115,#0115 #115 115NT,1591 South Lumpkin St.,GA,30605
Smoothie King,Spring,120,#0120 #120 120NT,314 Sawdust Road Suite 103,TX,77380
Smoothie King,Houston,124,#0124 #124 124NT,"9703 Westheimer Rd., Suite C",TX,77042
Smoothie King,Houston,126,#0126 #126 126NT,"5161 San Felipe, Suite 160",TX,77056
Smoothie King,Nashville,132,#0132 #132 132NT,2422 Elliston Place,TN,37203
Smoothie King,Snellville,133,#0133 #133 133NT,2507 Highway 78,GA,30078
Smoothie King,Houston,134,#0134 #134 134NT,2617- D W. Holcombe Blvd.,TX,77025
Smoothie King,Baton Rouge,139,#0139 #139 139NT,3272 Highland Rd.,LA,70802
Smoothie King,Houston,140,#0140 #140 140NT,3651 Weslayan,TX,77027
Smoothie King,Daphne,146,#0146 #146 146NT,28841  US Highway 98,AL,36526
Smoothie King,Magnolia,150,#0150 #150 150NT,6627 F.M. 1488,TX,77354
Smoothie King,Fort Worth,153,#0153 #153 153NT,3054 University Drive,TX,76109
Smoothie King,Tomball,155,#0155 #155 155NT,28165 Tomball Pkwy.,TX,77375
Smoothie King,New Orleans,157,#0157 #157 157NT,1905 St. Charles Avenue,LA,70130
Smoothie King,Metairie,161,#0161 #161 161NT,5022 W. Esplanade Ave.,LA,70006
Smoothie King,Conroe,162,#0162 #162 162NT,2105 West Davis Street,TX,77304
Smoothie King,College Station,163,#0163 #163 163NT,1908 Texas Avenue,TX,77840
Smoothie King,Charlotte,167,#0167 #167 167NT,301 S. College Street,NC,28202
Smoothie King,College Park,168,#0168 #168 168NT,7403 Baltimore Avenue,MD,20740
Smoothie King,Houston,169,#0169 #169 169NT,5770 Hollister Street,TX,77040
Smoothie King,Kennesaw,174,#0174 #174 174NT,2615 George Busbee Pkwy.,GA,30144
Smoothie King,Covington,180,#0180 #180 180NT,1600 N. Hwy. 190,LA,70433
Smoothie King,Woodstock,184,#0184 #184 184NT,"2045 Towne Lake Pkwy., #100",GA,30189
Smoothie King,Cincinnati,189,#0189 #189 189NT,3880 Paxton Ave. Suite M,OH,45209
Smoothie King,Austin,193,#0193 #193 193NT,"504 W. 24th Street, Suite B",TX,78705
Smoothie King,Jacksonville,196,#0196 #196 196NT,1661  Riverside Avenue,FL,32204
Smoothie King,Metairie,217,#0217 #217 217NT,6313 B Airline Drive,LA,70003
Smoothie King,Southlake,219,#0219 #219 219NT,"2707 E. Southlake Blvd., Suite 150",TX,76092
Smoothie King,Farmers Branch,226,#0226 #226 226NT,13901 Midway Rd.,TX,75244
Smoothie King,Jacksonville,228,#0228 #228 228NT,9810-4 Baymeadows Rd.,FL,32256
Smoothie King,St. Augustine,238,#0238 #238 238NT,"1835 U.S.-1 South, Suite 113",FL,32086
Smoothie King,Louisville,241,#0241 #241 241NT,"1500 Bardstown Rd., Ste.103",KY,40205
Smoothie King,Dallas,250,#0250 #250 250NT,"5706 E. Mockingbird Lane, Suite 130",TX,75206
Smoothie King,Charlotte,251,#0251 #251 251NT,"8022 Providence Rd, Suite 400",NC,28277
Smoothie King,Plano,252,#0252 #252 252NT,"6009 W. Parker Rd., #141",TX,75093
Smoothie King,Jacksonville,253,#0253 #253 253NT,13770 Beach Blvd.,FL,32224
Smoothie King,Sandy Springs,255,#0255 #255 255NT,"6309 Roswell Road, Suite IG",GA,30328
Smoothie King,Pensacola,256,#0256 #256 256NT,"1630 Airport Blvd., #220",FL,32504
Smoothie King,Charlottesville,258,#0258 #258 258NT,945-B Emmet Street,VA,22903
Smoothie King,Houston,265,#0265 #265 265NT,6020 Westheimer,TX,77057
Smoothie King,Manchester,268,#0268 #268 268NT,14505 Manchester Road,MO,63011
Smoothie King,Houston,269,#0269 #269 269NT,562 Meyerland Plaza,TX,77096
Smoothie King,Richardson,271,#0271 #271 271NT,342 W. Cam-pbell Road.,TX,75080
Smoothie King,Phoenix,275,#0275 #275 275NT,"15030 N. Tatum Blvd, #140",AZ,85032
Smoothie King,Metairie,276,#0276 #276 276NT,"3301 Veterans Blvd., Suite 78-G",LA,70002
Smoothie King,Nashville,278,#0278 #278 278NT,3706 Hillsboro Road,TN,37215
Smoothie King,Tampa,280,#0280 #280 280NT,2205 W. Swann Avenue,FL,33606
Smoothie King,Plano,281,#0281 #281 281NT,4701 West Park Blvd. Suite 106,TX,75093
Smoothie King,Nashville,282,#0282 #282 282NT,4546 Harding Road,TN,37205
Smoothie King,Atlanta,285,#0285 #285 285NT,650 Ponce de Leon,GA,30309
Smoothie King,Bel Air,289,#0289 #289 289NT,225 Brierhill Drive Ste. J,MD,21015
Smoothie King,Knoxville,291,#0291 #291 291NT,8515 A-Kingston Pike,TN,37919
Smoothie King,Metairie,292,#0292 #292 292NT,"2701 Airline Drive, ste. N",LA,70001
Smoothie King,Midland,293,#0293 #293 293NT,2200 Wadley Dr.,TX,79705
Smoothie King,Kenner,296,#0296 #296 296NT,327 West Esplanade,LA,70065
Smoothie King,Metairie,300,#0300 #300 300NT,3515 Veterans Memorial Blvd.,LA,70002
Smoothie King,Overland Park,302,#0302 #302 302NT,12050 W. 135th St.,KS,66221
Smoothie King,Wichita,311,#0311 #311 311NT,8000 W. central,KS,67212
Smoothie King,Spring,313,#0313 #313 313NT,1440-B Lake Woodlands Drive,TX,77381
Smoothie King,University City,322,#0322 #322 322NT,6600 Delmar,MO,63130
Smoothie King,Atlanta,324,#0324 #324 324NT,8725 Roswell Road,GA,30350
Smoothie King,Fort Worth,326,#0326 #326 326NT,"4601 West Freeway, Suite 218",TX,76107
Smoothie King,Cookeville,328,#0328 #328 328NT,1095-D South Walnut Avenue,TN,38501
Smoothie King,Daytona Beach,332,#0332 #332 332NT,"1808 W Int'l Speedway Blvd, Ste 701",FL,32114
Smoothie King,Creve Coeur,334,#0334 #334 334NT,12599 A- Olive Blvd.,MO,63141
Smoothie King,Tyler,335,#0335 #335 335NT,4502 S. Broadway,TX,75703
Smoothie King,Red Bank,336,#0336 #336 336NT,65 Broad St.,NJ,7701
Smoothie King,Charlotte,337,#0337 #337 337NT,"9605 N. Tryon St., Suite V",NC,28262
Smoothie King,New Orleans,338,#0338 #338 338NT,"701 Poydras St., Box 27",LA,70139
Smoothie King,Slidell,342,#0342 #342 342NT,150 Northshore Boulevard,LA,70460
Smoothie King,Houston,344,#0344 #344 344NT,"10201-A Katy FWY, Ste. 300",TX,77024
Smoothie King,Denham Springs,346,#0346 #346 346NT,"1121 South Range Ave., Suite B",LA,70726
Smoothie King,Washington,349,#0349 #349 349NT,1300 Pennsylvania Ave.,DC,20004
Smoothie King,Franklin,353,#0353 #353 353NT,"600-A Frazier Dr., Suite 105",TN,37067
Smoothie King,Poway,354,#0354 #354 354NT,13538 Poway Rd. Ste. D,CA,92064
Smoothie King,Fort Worth,357,#0357 #357 357NT,4805 Bryant Irvin Road,TX,76132
Smoothie King,Harvey,359,#0359 #359 359NT,1650 Manhattan Blvd.,LA,70058
Smoothie King,Lakeland,360,#0360 #360 360NT,3423 S. Florida Ave.,FL,33803
Smoothie King,Round Rock,363,#0363 #363 363NT,150 Sundance Pkwy. #200,TX,78664
Smoothie King,Houston,365,#0365 #365 365NT,12132 Greenspoint Dr.,TX,77060
Smoothie King,Houston,367,#0367 #367 367NT,4373 Kingwood Dr.,TX,77339
Smoothie King,Towson,372,#0372 #372 372NT,"Dulaney Valley Shopping Center, Suite 812, Dulaney Valley Road",MD,21204
Smoothie King,Fairfax,373,#0373 #373 373NT,10342 Main Street,VA,22030
Smoothie King,Conway,377,#0377 #377 377NT,"985 Carson Cove, Suite D",AR,72034
Smoothie King,Lewisville,386,#0386 #386 386NT,"500 E. Round Grove Rd., Suite 305",TX,75067
Smoothie King,Sugar Land,387,#0387 #387 387NT,5022 HWY 90 A East Ste R,TX,77478
Smoothie King,Baton Rouge,393,#0393 #393 393NT,"7770 Bluebonnet Blvd, Suite D",LA,70810
Smoothie King,Wichita,397,#0397 #397 397NT,"3236 N. Rock Rd., Suite 200",KS,67226
Smoothie King,Phoenix,398,#0398 #398 398NT,21001 N. Tatum Ste. 78-1600,AZ,85050
Smoothie King,Murfreesboro,399,#0399 #399 399NT,2818 Middle Tennessee Blvd.,TN,37130
Smoothie King,Overland Park,400,#0400 #400 400NT,13440 Metcalf Ave.,KS,66213
Smoothie King,Auburn,402,#0402 #402 402NT,1499 S. College St.,AL,36830
Smoothie King,Frisco,404,#0404 #404 404NT,"2809 Preston Road, Suite 1220",TX,75034
Smoothie King,Houston,405,#0405 #405 405NT,"815 Walker St., Suite T 06",TX,77002
Smoothie King,Belle Chasse,411,#0411 #411 411NT,8160 Hwy. 23,LA,70037
Smoothie King,New Albany,414,#0414 #414 414NT,4214 Charlestown Rd #1,IN,47150
Smoothie King,Peoria,416,#0416 #416 416NT,4203 N. Sheridan Rd. Ste A1-1,IL,61614
Smoothie King,Hurst,417,#0417 #417 417NT,1316 West Pipeline Road,TX,76053
Smoothie King,Houston,424,#0424 #424 424NT,"5535 Memorial Drive, Suite E",TX,77007
Smoothie King,Annandale,429,#0429 #429 429NT,6920-K Bradlick Circle,VA,22003
Smoothie King,Burleson,432,#0432 #432 432NT,333 SW Wilshire Blvd.,TX,76028
Smoothie King,Memphis,433,#0433 #433 433NT,3586 Riverdale Rd.,TN,38115
Smoothie King,Jacksonville,434,#0434 #434 434NT,4624 Town Crossing Dr. Suite 119,FL,32246
Smoothie King,Arlington,435,#0435 #435 435NT,"1101 S. Joyce St., Suite B-9, Pentagon Row Shopping Center",VA,22202
Smoothie King,Aliso Viejo,436,#0436 #436 436NT,23411 Aliso Viejo Parkway Ste G,CA,92656
Smoothie King,Fitchburg,440,#0440 #440 440NT,2980 Cahill Main,WI,53711
Smoothie King,Atlanta,441,#0441 #441 441NT,2068 Hendersen Mill Road,GA,30345
Smoothie King,Wilmington,443,#0443 #443 443NT,415-2 South College Road,NC,28403
Smoothie King,Bethesda,444,#0444 #444 444NT,7720 Wisconsin Ave.,MD,20814
Smoothie King,Richmond,446,#0446 #446 446NT,3152 West Cary Street,VA,23221
Smoothie King,Jackson,448,#0448 #448 448NT,241 Stonebridge Blvd. #A,TN,38305
Smoothie King,Columbus,449,#0449 #449 449NT,"5555 Whittlesey Blvd., Suite 1180",GA,31909
Smoothie King,Cincinnati,452,#0452 #452 452NT,440-C Ohio Pike,OH,45255
Smoothie King,Houston,455,#0455 #455 455NT,9220-A Hwy 6 South,TX,77083
Smoothie King,Palmetto Bay,458,#0458 #458 458NT,14473 S. Dixie Hwy,FL,33176
Smoothie King,Charlotte,463,#0463 #463 463NT,8710 Krefeld Dr.,NC,28227
Smoothie King,Metairie,467,#0467 #467 467NT,4436 Veterans Memorial Blvd.,LA,70006
Smoothie King,Atlanta,468,#0468 #468 468NT,"60 Luckie, Suite 136",GA,30303
Smoothie King,Nacogdoches,470,#0470 #470 470NT,2417 North Street,TX,75965
Smoothie King,Ruston,471,#0471 #471 471NT,1100 Cooktown Rd.,LA,71270
Smoothie King,Thibodaux,475,#0475 #475 475NT,1123 Audubon Ave.,LA,70301
Smoothie King,Rockville,476,#0476 #476 476NT,14941-F Shady Grove Rd.,MD,20850
Smoothie King,Cincinnati,481,#0481 #481 481NT,11414 Montgomery Road,OH,45242
Smoothie King,Chattanooga,484,#0484 #484 484NT,"1913 Gunbarrel Rd., Suite 105",TN,37421
Smoothie King,Covington,485,#0485 #485 485NT,"70456 Hwy. 21, Suite 2",LA,70433
Smoothie King,Shreveport,486,#0486 #486 486NT,"1641 E 70th, Suite 100",LA,71105
Smoothie King,Charlotte,488,#0488 #488 488NT,"1600 E. Woodlawn, #220",NC,28209
Smoothie King,Chattanooga,492,#0492 #492 492NT,5200-B Hwy 153,TN,37343
Smoothie King,Cut Off,494,#0494 #494 494NT,283 La. Hwy. 3162,LA,70354
Smoothie King,Slidell,495,#0495 #495 495NT,4038 Pontchartrain Drive,LA,70458
Smoothie King,Canton,497,#0497 #497 497NT,5250 Dressler Road,OH,44718
Smoothie King,Augusta,498,#0498 #498 498NT,1145 Agerton Lane,GA,30909
Smoothie King,Miami,499,#0499 #499 499NT,12636 SW 88th ST,FL,33186
Smoothie King,Morrisville,501,#0501 #501 501NT,1117 Market Center Dr,NC,27560
Smoothie King,Ocala,502,#0502 #502 502NT,2708 SW College Road,FL,34474
Smoothie King,Knoxville,504,#0504 #504 504NT,305 Forest Park Blvd.,TN,37919
Smoothie King,Huntsville,505,#0505 #505 505NT,1328 Sam- Houston Ave.,TX,77340
Smoothie King,Nashville,506,#0506 #506 506NT,7087 A Old Harding Pike,TN,37221
Smoothie King,Rockwall,507,#0507 #507 507NT,718 East Interstate Hwy 30,TX,75087
Smoothie King,Lithonia,509,#0509 #509 509NT,3054 Panola Road,GA,30038
Smoothie King,Davie,510,#0510 #510 510NT,"6555 Nova Drive, #314",FL,33317
Smoothie King,Kenner,512,#0512 #512 512NT,"1401 W. Esplanade, Suite 716",LA,70065
Smoothie King,Cleveland,513,#0513 #513 513NT,2520 Keith St. NW Suite 4,TN,37311
Smoothie King,JAMAICA,514,#0514 #514 514NT,JFK International Airport,NY,11430
Smoothie King,Raceland,518,#0518 #518 518NT,4841 Hwy 1,LA,70394
Smoothie King,East Peoria,520,#0520 #520 520NT,426 Riverside Drive,IL,61611
Smoothie King,Chattanooga,521,#0521 #521 521NT,"325 Market Street, Suite 102",TN,37402
Smoothie King,Cincinnati,522,#0522 #522 522NT,2510 S. Market St.,OH,45219
Smoothie King,Spring,523,#0523 #523 523NT,7312 Louetta Road,TX,77379
Smoothie King,Cincinnati,524,#0524 #524 524NT,7875 Montgomery Road,OH,45236
Smoothie King,Lufkin,525,#0525 #525 525NT,"4505 S. Medford Dr., Ste. 209",TX,75901
Smoothie King,Huntsville,526,#0526 #526 526NT,"975 Airport Road, Suite A-4",AL,35802
Smoothie King,Tyler,529,#0529 #529 529NT,1849 Troup Hwy.,TX,75701
Smoothie King,Louisville,534,#0534 #534 534NT,"2400 Lime Kiln Lane, Suite A1",KY,40222
Smoothie King,Keller,538,#0538 #538 538NT,535 Keller Pkwy,TX,76248
Smoothie King,Pasadena,540,#0540 #540 540NT,5861 Fairmont Pkwy.,TX,77505
Smoothie King,Houston,543,#0543 #543 543NT,1001 Fannin St.,TX,77002
Smoothie King,Webster,544,#0544 #544 544NT,"3144 FM 528, Suite 3144",TX,77598
Smoothie King,Flower Mound,547,#0547 #547 547NT,"6101 Long Prairie Rd., #704",TX,75028
Smoothie King,Zachary,548,#0548 #548 548NT,"5635 Main Street, Suite B",LA,70791
Smoothie King,Ocean Springs,550,#0550 #550 550NT,918 Bechtel Blvd.,MS,39564
Smoothie King,Baton Rouge,552,#0552 #552 552NT,"14455 Wax Rd., Suite AA",LA,70818
Smoothie King,Prairieville,553,#0553 #553 553NT,"37459 Ultima Plaza Blvd., Ste. A",LA,70769
Smoothie King,Ann Arbor,555,#0555 #555 555NT,222 N. Fourth Ave,MI,48104
Smoothie King,Lafayette,556,#0556 #556 556NT,4307 am-bassador Caffery,LA,70508
Smoothie King,Broussard,557,#0557 #557 557NT,113 St. Nazaire Rd.,LA,70518
Smoothie King,Tampa,561,#0561 #561 561NT,4424 W. Kennedy Ave.,FL,33601
Smoothie King,Webster,563,#0563 #563 563NT,19431 Gatebrook Drive #1,TX,77598
Smoothie King,Lubbock,564,#0564 #564 564NT,3723 19th Street,TX,79410
Smoothie King,Bristol,566,#0566 #566 566NT,549 Highway 11 South,MS,39466
Smoothie King,Ridgeland,572,#0572 #572 572NT,1000 Highland Colony Pkwy,MS,39157
Smoothie King,Denton,576,#0576 #576 576NT,1601 Brinker Road Ste. 105,TX,76208
Smoothie King,Gonzales,577,#0577 #577 577NT,"1602 Burnside Ave, Suite C",LA,70737
Smoothie King,Corpus Christi,581,#0581 #581 581NT,"5017 Saratoga Blvd., Suite 101",TX,78413
Smoothie King,Houston,585,#0585 #585 585NT,6586 Woodway Drive,TX,77057
Smoothie King,Tulsa,586,#0586 #586 586NT,5075 S. Yale,OK,74135
Smoothie King,Plantation,587,#0587 #587 587NT,815 N. Nob Hill Rd.,FL,33324
Smoothie King,Fort Worth,592,#0592 #592 592NT,2901 Western Center Blvd Ste. 105,TX,76131
Smoothie King,Chattanooga,594,#0594 #594 594NT,2100 Ham-ilton Place Blvd.,TN,37421
Smoothie King,Dallas,595,#0595 #595 595NT,"Plaza of am-ericas, 650 N. Pearl Street, Suite H105",TX,75205
Smoothie King,McKinney,596,#0596 #596 596NT,"1920 Eldorado Pkwy, Ste. 700",TX,75069
Smoothie King,Cincinnati,597,#0597 #597 597NT,"441 Carew Tower, 2nd Fl",OH,45202
Smoothie King,Venice,604,#0604 #604 604NT,1554 US 41 Bypass S,FL,34293
Smoothie King,Huntsville,606,#0606 #606 606NT,6290 University Drive,AL,35806
Smoothie King,Marietta,608,#0608 #608 608NT,2525 Shallowford Rd. #600,GA,30066
Smoothie King,St. John,609,#0609 #609 609NT,8235 Wicker Ave.,IN,46373
Smoothie King,Baton Rouge,611,#0611 #611 611NT,Mall of Louisiana,LA,70836
Smoothie King,Owings Mills,614,#0614 #614 614NT,9167 Riesterstown Rd.,MD,21117
Smoothie King,Champaign,615,#0615 #615 615NT,1912a Round Barn Rd.,IL,61821
Smoothie King,Memphis,617,#0617 #617 617NT,1995 Union Avenue,TN,38104
Smoothie King,Hurlburt Field,618,#0618 #618 618NT,"427 Tully St, Bldg 90268",FL,32544
Smoothie King,Ashburn,620,#0620 #620 620NT,44260 Ice Rink Plaza Suite 108,VA,20147
Smoothie King,Chesterfield,625,#0625 #625 625NT,"703 Long Road Crossing Drive, suite 8",MO,63005
Smoothie King,Baton Rouge,626,#0626 #626 626NT,301 Main St.,LA,70801
Smoothie King,Savannah,629,#0629 #629 629NT,8108 Abercorn St.,GA,31406
Smoothie King,Miami,630,#0630 #630 630NT,14200 S.W. 8th Street Unit 102,FL,33184
Smoothie King,Hurlburt Field,632,#0632 #632 632NT,Eglin BX,FL,32544
Smoothie King,Charlotte,633,#0633 #633 633NT,"14825 John J. Delaney Dr., #185",NC,28277
Smoothie King,Tampa,634,#0634 #634 634NT,7873 Gunn Highway,FL,33626
Smoothie King,Rye,636,#0636 #636 636NT,#10 Purchase Street,NY,10580
Smoothie King,Houston,637,#0637 #637 637NT,5015 Westheimer Blvd.,TX,77056
Smoothie King,Orlando,638,#0638 #638 638NT,"UCF, Student Union, Pegasus Circle, Bldg 52",FL,32816
Smoothie King,Bloomington,640,#0640 #640 640NT,2205 East Oakland Ave.,IL,61701
Smoothie King,Hattiesburg,641,#0641 #641 641NT,6101 Highway 98,MS,39402
Smoothie King,Gulfport,642,#0642 #642 642NT,632  Courthouse Rd.,MS,39507
Smoothie King,Sunnyvale,644,#0644 #644 644NT,398 W. El Cam-ino Real,CA,94087
Smoothie King,Beaumont,648,#0648 #648 648NT,4012 Dowlen Rd.,TX,77706
Smoothie King,Atlanta,651,#0651 #651 651NT,171 Auburn Ave.,GA,30303
Smoothie King,Gahanna,655,#0655 #655 655NT,1350 N. Ham-ilton Rd.,OH,43230
Smoothie King,Brentwood,657,#0657 #657 657NT,330 Franklin Rd. 102 A,TN,37027
Smoothie King,Atlanta,658,#0658 #658 658NT,6175 Old National Highway,GA,30349
Smoothie King,Fort Campbell,659,#0659 #659 659NT,Building 99 PXpra Town Center,KY,42223
Smoothie King,Cusseta,661,#0661 #661 661NT,"Smith Fitness Center, 6835 Dixie Rd., Bldg 2874",GA,31905
Smoothie King,Dallas,665,#0665 #665 665NT,DFW Airport C Terminal (Gate C14),TX,75216
Smoothie King,Laredo,668,#0668 #668 668NT,1408 E. Delmar Blvd.,TX,78041
Smoothie King,Kalamazoo,673,#0673 #673 673NT,316 N. Drake Road,MI,49009
Smoothie King,Sanford,677,#0677 #677 677NT,1629 Rinehart Road,FL,32771
Smoothie King,Coral Gables,678,#0678 #678 678NT,3034 Grand Avenue,FL,33133
Smoothie King,Clearwater,679,#0679 #679 679NT,2532 State Road 580,FL,33761
Smoothie King,Savannah,680,#0680 #680 680NT,103 W. Broughton St.,GA,31401
Smoothie King,Austell,681,#0681 #681 681NT,2480 East-West Connector,GA,30106
Smoothie King,Lilburn,683,#0683 #683 683NT,4747 Stone Mountain Hwy,GA,30047
Smoothie King,Baton Rouge,685,#0685 #685 685NT,4965 Government Street,LA,70806
Smoothie King,Lithonia,690,#0690 #690 690NT,2998 Turner Hill Road,GA,30038
Smoothie King,Hendersonville,691,#0691 #691 691NT,125 Indian Lake Blvd Suite D,TN,37075
Smoothie King,Baton Rouge,693,#0693 #693 693NT,10825 Florida Blvd. Suite A,LA,70815
Smoothie King,Houston,694,#0694 #694 694NT,1340 North Fry Road,TX,77084
Smoothie King,Arlington,696,#0696 #696 696NT,3751 Matlock Rd.,TX,76015
Smoothie King,Pickerington,699,#0699 #699 699NT,10501 Blacklick Eastern Rd.,OH,43147
Smoothie King,Duluth,702,#0702 #702 702NT,4205 Pleasant Hil Road Northwest,GA,30097
Smoothie King,Biloxi,706,#0706 #706 706NT,921 Cedar Lake Road,MS,39532
Smoothie King,Port Orange,707,#0707 #707 707NT,1665 Dunlawton Ave.,FL,32129
Smoothie King,Morrow,708,#0708 #708 708NT,6681 Jonesboro Rd.,GA,30260
Smoothie King,Mobile,711,#0711 #711 711NT,720 Schillinger Road S,AL,36695
Smoothie King,Houston,712,#0712 #712 712NT,Houston Bush Intercontinental Airport,TX,77332
Smoothie King,Baton Rouge,714,#0714 #714 714NT,14241 Coursey Blvd,LA,70817
Smoothie King,Louisville,716,#0716 #716 716NT,3925 Shelbyville Road,KY,40207
Smoothie King,Kenner,717,#0717 #717 717NT,MSY Concourse D,LA,70062
Smoothie King,Decatur,718,#0718 #718 718NT,4920 Flat Shoals Parkway,GA,30034
Smoothie King,Fort Worth,719,#0719 #719 719NT,9583 Sage Meadow Trail,TX,76177
Smoothie King,Medina,723,#0723 #723 723NT,4891 Grand Blvd.,OH,44256
Smoothie King,Huntersville,725,#0725 #725 725NT,16933 Kaufinger St.,NC,28078
Smoothie King,Wesley Chapel,729,#0729 #729 729NT,1029 Bruce B Downs Boulevard,FL,33544-9257
Smoothie King,Montgomery,731,#0731 #731 731NT,7026 East Chase Pkwy.,AL,36117
Smoothie King,Cincinnati,732,#0732 #732 732NT,9591 B Colerain Avenue,OH,45251
Smoothie King,Alexandria,733,#0733 #733 733NT,4611 Jackson Street Suite C,LA,71303
Smoothie King,Austin,738,#0738 #738 738NT,4301 West William- Cannon,TX,78749
Smoothie King,Brentwood,739,#0739 #739 739NT,1800 Galleria Blvd.,TN,37027
Smoothie King,Houston,741,#0741 #741 741NT,1923 Taylor St.,TX,77007
Smoothie King,Sarasota,744,#0744 #744 744NT,3800 S. Tam-iam-i Trail,FL,34239
Smoothie King,Panama City Beach,745,#0745 #745 745NT,801 Pier Park Drive Suite 120,FL,32413
Smoothie King,Duluth,748,#0748 #748 748NT,11720 Medlock Bridge Road,GA,30097
Smoothie King,Harrisonburg,750,#0750 #750 750NT,1645 Reservoir Street,VA,22801
Smoothie King,San Antonio,751,#0751 #751 751NT,1141 N Loop 1604 East #106,TX,78258
Smoothie King,Buford,753,#0753 #753 753NT,3276 Buford Drive,GA,30519
Smoothie King,Grapevine,754,#0754 #754 754NT,DFW Texas Airport Terminal D,TX,75216
Smoothie King,Geismar,756,#0756 #756 756NT,13011 HWY 73 Suite B,LA,70734
Smoothie King,Oxford,758,#0758 #758 758NT,2311 West Jackson Ave,MS,38655
Smoothie King,Miami,759,#0759 #759 759NT,13730 SW 56th Street,FL,33175
Smoothie King,Bradenton,760,#0760 #760 760NT,3543 53rd Ave. W.,FL,34210
Smoothie King,Columbia,761,#0761 #761 761NT,8874 McGaw Road,MD,21045
Smoothie King,Loganville,762,#0762 #762 762NT,2735 Loganville Hwy,GA,30052
Smoothie King,Glen Allen,764,#0764 #764 764NT,10871 West Broad St.,VA,23060
Smoothie King,West Monroe,768,#0768 #768 768NT,2419 North 7th Street,LA,71291
Smoothie King,Longview,770,#0770 #770 770NT,530 E. Loop 281,TX,75605
Smoothie King,Natchitoches,772,#0772 #772 772NT,810 University Pkwy.,LA,71457
Smoothie King,Macon,774,#0774 #774 774NT,The Shoppes at River Crossing,GA,31210
Smoothie King,Trinity,777,#0777 #777 777NT,10720 SR54,FL,34655
Smoothie King,Kansas City,779,#0779 #779 779NT,8825 State Line Road,MO,64114
Smoothie King,Gainesville,791,#0791 #791 791NT,890 Dawsonville Hwy,GA,30501
Smoothie King,Euless,792,#0792 #792 792NT,2750 State Highway 121 N,TX,76039
Smoothie King,Lawrenceville,793,#0793 #793 793NT,3375 Sugarloaf Pkwy,GA,30044
Smoothie King,East Point,795,#0795 #795 795NT,3515 Cam-p Creek Pkwy,GA,30344
Smoothie King,Charlotte,796,#0796 #796 796NT,7510 Pineville Matthews Road,NC,28226
Smoothie King,Memphis,797,#0797 #797 797NT,932 North Germantown Pkwy,TN,38018
Smoothie King,Port Allen,800,#0800 #800 800NT,3225 LA Highway 1 S,LA,70767
Smoothie King,Brandon,801,#0801 #801 801NT,2020 W. Brandon Blvd.,FL,33511
Smoothie King,Mount Pleasant,802,#0802 #802 802NT,"976 Houston Northcutt Blvd., Ste. K",SC,29464
Smoothie King,Palm Harbor,804,#0804 #804 804NT,4956 Ridgemoor Blvd.,FL,34685
Smoothie King,Charlotte,808,#0808 #808 808NT,14130 Rivergate Parkway,NC,28273
Smoothie King,Charlotte,811,#0811 #811 811NT,9831 Rea Rd.,NC,28277
Smoothie King,Alpharetta,817,#0817 #817 817NT,12280 Houze Road,GA,30004
Smoothie King,Fort Myers,821,#0821 #821 821NT,4464 Fowler Street,FL,33907
Smoothie King,Fort Myers,824,#0824 #824 824NT,8595 College Pkwy,FL,33919
Smoothie King,Nashville,825,#0825 #825 825NT,15590 Old Hickory Blvd.,TN,37211
Smoothie King,Humble,827,#0827 #827 827NT,19717 Eastex Freeway,TX,77338
Smoothie King,Collierville,831,#0831 #831 831NT,3615 Houston Levee Rd Suite 109,TN,38017
Smoothie King,Gulf Breeze,833,#0833 #833 833NT,880 Gulf Breeze Pkwy.,FL,32561
Smoothie King,Lutz,837,#0837 #837 837NT,1408 N. Dale Mabry Hwy Ste. 114,FL,33548
Smoothie King,San Antonio,838,#0838 #838 838NT,11411 Bandera Rd.,TX,78250
Smoothie King,Cypress,839,#0839 #839 839NT,29300 Hempstead Rd.,TX,77433
Smoothie King,Louisville,841,#0841 #841 841NT,411 S. 4th St.,KY,40202
Smoothie King,Mooresville,842,#0842 #842 842NT,591-T  River Hwy.,NC,28117
Smoothie King,WEST CHESTER,847,#0847 #847 847NT,9320 Union Centre Blvd.,OH,45069
Smoothie King,Charlotte,848,#0848 #848 848NT,1235-H East Blvd.,NC,28203
Smoothie King,Atlanta,850,#0850 #850 850NT,2022 Powers Ferry Road,GA,30339
Smoothie King,Charlotte,851,#0851 #851 851NT,210 E. Trade St.,NC,28202
Smoothie King,Miami,855,#0855 #855 855NT,1010  South Miam-i Avenue,FL,33130
Smoothie King,Fayetteville,858,#0858 #858 858NT,315 Hwy. 314,GA,30214
Smoothie King,Atlanta,860,#0860 #860 860NT,1000 Northside Dr.NW,GA,30318
Smoothie King,Cottleville,861,#0861 #861 861NT,4765 Hwy. N,MO,63304
Smoothie King,Fairhope,863,#0863 #863 863NT,199 Baldwin Square Ste 101,AL,36532
Smoothie King,Columbus,868,#0868 #868 868NT,1924 Polaris Pkwy,OH,43240
Smoothie King,Silver Spring,869,#0869 #869 869NT,8563 Fenton St,MD,20910
Smoothie King,Marietta,878,#0878 #878 878NT,1271 Johnson Ferry Rd.,GA,30068
Smoothie King,Miami,880,#0880 #880 880NT,1557 SW 107th Ave,FL,33174
Smoothie King,Dobbs Ferry,882,#0882 #882 882NT,50 Livingstone Ave. (Exit 16 on the Saw Mill Parkway),NY,10522
Smoothie King,Bradenton,889,#0889 #889 889NT,11161 E State Road 70,FL,34202
Smoothie King,Frederick,890,#0890 #890 890NT,5219-A Presidents Court,MD,21703
Smoothie King,League City,891,#0891 #891 891NT,2660 Marina Bay Drive,TX,77573
Smoothie King,Greenville,894,#0894 #894 894NT,"27 South Pleasantburg, Suite 170",SC,29607
Smoothie King,Cypress,896,#0896 #896 896NT,17255 Spring Cypress Road,TX,77429
Smoothie King,Fort Wayne,898,#0898 #898 898NT,603 Coliseum Blvd.E,IN,46805-1215
Smoothie King,Birmingham,899,#0899 #899 899NT,1932 Highway 31 South,AL,35244
Smoothie King,Prince Frederick,900,#0900 #900 900NT,428 Solomons Island Road,MD,20678
Smoothie King,Gretna,902,#0902 #902 902NT,197 Westbank Expressway Suite 1165,LA,70056
Smoothie King,Lynchburg,907,#0907 #907 907NT,120 D Simons Run,VA,24502
Smoothie King,Walker,909,#0909 #909 909NT,"28977 Hwy 447, Suite A",LA,70785
Smoothie King,Peachtree City,912,#0912 #912 912NT,2707 West Hwy. 54,GA,30269
Smoothie King,Atlanta,913,#0913 #913 913NT,1155 Virginia Ave.,GA,30354
Smoothie King,Lehi,915,#0915 #915 915NT,1438 E Main St. Suite 100,UT,84043
Smoothie King,Middletown,916,#0916 #916 916NT,12430 Shelbyville Road,KY,40243
Smoothie King,New Orleans,917,#0917 #917 917NT,1515 Poydras Street Building,LA,70112
Smoothie King,Richmond,921,#0921 #921 921NT,1211 West Broad St.,VA,23220-3005
Smoothie King,Savannah,922,#0922 #922 922NT,4827 B. Waters Ave.,GA,31405
Smoothie King,Franklin Township,924,#0924 #924 924NT,458 Elizabeth Ave.,NJ,8873
Smoothie King,Las Vegas,925,#0925 #925 925NT,6530 N. Buffalo Dr.,NV,89131
Smoothie King,Raleigh,930,#0930 #930 930NT,3101-107 Edwards Mill Rd.,NC,27612
Smoothie King,JAMAICA,931,#0931 #931 931NT,JFK International Airport Delta Terminal 2,NY,11430
Smoothie King,Columbus,933,#0933 #933 933NT,5470 Westpointe Plaza Dr,OH,43228
Smoothie King,Normal,934,#0934 #934 934NT,"1608 Northbrook Drive, Suite 106",IL,61761
Smoothie King,Mount Laurel,935,#0935 #935 935NT,4310 Dearborn Circle,NJ,8054
Smoothie King,Matthews,938,#0938 #938 938NT,3118 Fincher Farm Rd,NC,28104
Smoothie King,Houston,940,#0940 #940 940NT,12710 Westlake Houston Pkwy,TX,77044
Smoothie King,Miami,941,#0941 #941 941NT,16327 SW 88th Street,FL,33196
Smoothie King,Opa-locka,943,#0943 #943 943NT,18355 NW 57TH AVE,FL,33055
Smoothie King,Bradenton,944,#0944 #944 944NT,3816 Manatee Ave. W.,FL,34209
Smoothie King,Ponchatoula,947,#0947 #947 947NT,401 West Pine St.,LA,70454
Smoothie King,Lumberton,949,#0949 #949 949NT,104A S. LHS Drive,TX,77657
Smoothie King,Hillsborough Township,952,#0952 #952 952NT,706 Route 206,NJ,8844
Smoothie King,Durham,953,#0953 #953 953NT,1125 W. NC Hwy. 54,NC,27707
Smoothie King,Voorhees Township,957,#0957 #957 957NT,1150 White Horse Rd.,NJ,8043
Smoothie King,McComb,959,#0959 #959 959NT,1611 Delaware Ave.,MS,39648
Smoothie King,Miami,962,#0962 #962 962NT,2001 Biscayne Blvd.,FL,33137
Smoothie King,Middletown,964,#0964 #964 964NT,United Terminal 1 Gate B-6,IL,62666
Smoothie King,Fort Lauderdale,966,#0966 #966 966NT,1135 E. Sunrise Blvd.,FL,33304
Smoothie King,Washington,968,#0968 #968 968NT,703 7th Street NW,DC,20001
Smoothie King,Jacksonville,969,#0969 #969 969NT,13457 Atlantic Blvd. Suite 1,FL,32225
Smoothie King,Orlando,971,#0971 #971 971NT,Orlando International Airport-Airside #2,FL,32827
Smoothie King,Orlando,972,#0972 #972 972NT,Orlando International Airport- Airside #4,FL,32827
Smoothie King,Middletown,973,#0973 #973 973NT,1159 Hwy. 35,NJ,7748
Smoothie King,New York,974,#0974 #974 974NT,1291 Broadway,NY,11221
Smoothie King,Tupelo,975,#0975 #975 975NT,3982 N. Gloster St.,MS,38804
Smoothie King,Carle Place,977,#0977 #977 977NT,225A Glen Cove Rd.,NY,11514
Smoothie King,Gambrills,980,#0980 #980 980NT,1316 Main Chapel Way,MD,21054
Smoothie King,Pearland,981,#0981 #981 981NT,11037 Shadow Creek Pkwy,TX,77584
Smoothie King,Austin,982,#0982 #982 982NT,4601 North Lam-ar,TX,78756
Smoothie King,Philadelphia,985,#0985 #985 985NT,1625 Chestnut Street Suite 207,PA,19103
Smoothie King,Canton,986,#0986 #986 986NT,6124 Hickory Flat Hwy.,GA,30115
Smoothie King,Madison,987,#0987 #987 987NT,1022 US 51,MS,39110
Smoothie King,New Orleans,989,#0989 #989 989NT,114 Royal St.,LA,70132
Smoothie King,Garland,995,#0995 #995 995NT,5129 N. Garland Ave.,TX,75040
Smoothie King,Charlottesville,996,#0996 #996 996NT,1980 Abbey Rd.,VA,22903
Smoothie King,Houston,998,#0998 #998 998NT,3007 S. Shepherd Drive,TX,77098
Smoothie King,St. Petersburg,1000,#01000 #1000 1000NT,1474 66th. St. North,FL,33710
Smoothie King,Montgomery,1005,#01005 #1005 1005NT,15260 Hwy 105 W,TX,77356
Smoothie King,Miami,1008,#01008 #1008 1008NT,8611 SW 40th St.,FL,33155
Smoothie King,Bossier City,1009,#01009 #1009 1009NT,4970 Barksdale Blvd.,LA,71112
Smoothie King,Smyrna,1011,#01011 #1011 1011NT,599 Sam- Ridley Pkwy,TN,37167
Smoothie King,Kenner,1012,#01012 #1012 1012NT,New Orleans International Airport,LA,70062
Smoothie King,Easley,1014,#01014 #1014 1014NT,5154 Calhoun Memorial Hwy,SC,29640
Smoothie King,Washington,1015,#01015 #1015 1015NT,1621 Connecticut Ave.,DC,20009
Smoothie King,Houston,1016,#01016 #1016 1016NT,850 FM 1960 W,TX,77090
Smoothie King,Cumming,1017,#01017 #1017 1017NT,405 Peachtree Pkwy,GA,30041
Smoothie King,Columbus,1019,#01019 #1019 1019NT,8211 North High St.,OH,43235
Smoothie King,Cape Girardeau,1020,#01020 #1020 1020NT,97 N. Kingshighway St.,MO,63701
Smoothie King,Monroe,1021,#01021 #1021 1021NT,1404 N. 18th St.,LA,71201
Smoothie King,Hammond,1022,#01022 #1022 1022NT,1910 SW Rail Road Ave.,LA,70403
Smoothie King,Tuscaloosa,1023,#01023 #1023 1023NT,1403 University Blvd.,AL,35401
Smoothie King,Pineville,1024,#01024 #1024 1024NT,3766 Monroe Hwy,LA,71360
Smoothie King,Concord,1025,#01025 #1025 1025NT,360 Exchange St. NW,NC,28027
Smoothie King,Atlanta,1029,#01029 #1029 1029NT,"1221 Caroline Street, Suite 120",GA,30307
Smoothie King,Saraland,1030,#01030 #1030 1030NT,1097 Industrial Pkwy,AL,36571
Smoothie King,North Miami,1031,#01031 #1031 1031NT,12607 Biscayne Blvd.,FL,33181
Smoothie King,Grove City,1033,#01033 #1033 1033NT,6007 Hoover Rd.,OH,43123
Smoothie King,Hamilton Township,1034,#01034 #1034 1034NT,3100 Quakerbridge Rd.,NJ,8619
Smoothie King,Philadelphia,1036,#01036 #1036 1036NT,1101 Market St.,PA,19107
Smoothie King,Dayton,1037,#01037 #1037 1037NT,2321 Miam-isburg Centerville Rd.,OH,45459
Smoothie King,Warren,1038,#01038 #1038 1038NT,9 Mount Bethel Road,NJ,7059
Smoothie King,Boston,1041,#01041 #1041 1041NT,314 Newbury St.,MA,2115
Smoothie King,Flemington,1042,#01042 #1042 1042NT,322 Rt. 31,NJ,8822
Smoothie King,Glen Rock,1043,#01043 #1043 1043NT,251 Rock Rd.,NJ,7452
Smoothie King,Murfreesboro,1044,#01044 #1044 1044NT,1970 Medical Center Pkwy,TN,37129
Smoothie King,Katy,1045,#01045 #1045 1045NT,5000 Katy Mills Circle,TX,77494
Smoothie King,San Antonio,1046,#01046 #1046 1046NT,John Peace Library,TX,78249
Smoothie King,Kirkwood,1047,#01047 #1047 1047NT,465A South Kirkwood Road,MO,63122
Smoothie King,Alpharetta,1048,#01048 #1048 1048NT,"5530 Windward Parkway, Suite 320",GA,30004
Smoothie King,Colorado Springs,1053,#01053 #1053 1053NT,1801 E. Cheyenne Mountain Blvd.,CO,80906
Smoothie King,Newtown,1054,#01054 #1054 1054NT,2112 South Eagle Road,PA,18940
Smoothie King,Middletown,1056,#01056 #1056 1056NT,6752 Cincinnati Dayton Rd,OH,45044
Smoothie King,Jackson,1058,#01058 #1058 1058NT,2601 N. State Street,MS,39216
Smoothie King,Allen,1059,#01059 #1059 1059NT,190 East Stacy Rd.,TX,75002-8761
Smoothie King,Cinnaminson,1060,#01060 #1060 1060NT,195 Route 130 South,NJ,8077
Smoothie King,New Orleans,1061,#01061 #1061 1061NT,201 St. Charles Ave,LA,70170
Smoothie King,Aventura,1062,#01062 #1062 1062NT,18185 Biscayne Blvd.,FL,33160
Smoothie King,Sylva,1064,#01064 #1064 1064NT,"1336 E Main St., Ste. A",NC,28779
Smoothie King,Nederland,1065,#01065 #1065 1065NT,1033 Nederland Ave,TX,77627
Smoothie King,Fruit Cove,1066,#01066 #1066 1066NT,445 Florida 13,FL,32259
Smoothie King,Las Vegas,1067,#01067 #1067 1067NT,8000 W. Sahara Ave,NV,89117
Smoothie King,Beaumont,1069,#01069 #1069 1069NT,6465 Phelan Blvd.,TX,77706
Smoothie King,Wichita,1072,#01072 #1072 1072NT,110  N. Rock Road,KS,67206
Smoothie King,York,1073,#01073 #1073 1073NT,2609 E. Market St.,PA,17402
Smoothie King,New Orleans,1075,#01075 #1075 1075NT,224  N. Carrollton Ave,LA,70119
Smoothie King,Greenville,1076,#01076 #1076 1076NT,1941-A Woodruff Rd.,SC,29607
Smoothie King,Conyers,1077,#01077 #1077 1077NT,2239 GA. Highway 20,GA,30013
Smoothie King,York,1079,#01079 #1079 1079NT,105 Hwy 80 E,MS,39056
Smoothie King,Baton Rouge,1080,#01080 #1080 1080NT,"6556 Siegan Lane, Suite A",LA,70809
Smoothie King,Gonzales,1081,#01081 #1081 1081NT,1618 N. Airline Hwy.,LA,70737
Smoothie King,Gretna,1082,#01082 #1082 1082NT,91 Westbank Expressway,LA,70053
Smoothie King,Lutherville-Timonium,1083,#01083 #1083 1083NT,1830 York Rd.,MD,21093
Smoothie King,Miami Lakes,1084,#01084 #1084 1084NT,15366 N. W. 79 Ct.,FL,33016
Smoothie King,Pinecrest,1085,#01085 #1085 1085NT,11399 South Dixie Hwy,FL,33156
Smoothie King,Cape Coral,1086,#01086 #1086 1086NT,1806 Del Prado Blvd,FL,33990
Smoothie King,Cypress,1088,#01088 #1088 1088NT,10920 Fry Rd,TX,77433
Smoothie King,New Orleans,1089,#01089 #1089 1089NT,111-A Robert E. Lee Blvd.,LA,70124
Smoothie King,Dayton,1090,#01090 #1090 1090NT,3510 Pentagon Blvd,OH,45431
Smoothie King,Doral,1092,#01092 #1092 1092NT,9690 NW 41st St.,FL,33178
Smoothie King,Newtown,1093,#01093 #1093 1093NT,20 North Newtown Street Road,PA,19073
Smoothie King,Baltimore,1094,#01094 #1094 1094NT,851 East Fort Ave.,MD,21230
Smoothie King,Belleville,1095,#01095 #1095 1095NT,3030 Frank Scott Parkway West,IL,62223
Smoothie King,Roanoke,1096,#01096 #1096 1096NT,638 Brandon Avenue SW,VA,24015
Smoothie King,Franklin,1097,#01097 #1097 1097NT,9040 Carothers Pkwy,TN,37067
Smoothie King,St. Louis,1098,#01098 #1098 1098NT,1211 Pine Street,MO,63103
Smoothie King,Dickinson,1099,#01099 #1099 1099NT,1620 W FM 646 Rd.,TX,77573
Smoothie King,Fort Worth,1101,#01101 #1101 1101NT,301 Clifford Center Dr,TX,76108
Smoothie King,Tampa,1103,#01103 #1103 1103NT,2307 S. Dale Mabry Hwy,FL,33629
Smoothie King,Mandeville,1104,#01104 #1104 1104NT,2100 Florida St.,LA,70448
Smoothie King,Baton Rouge,1105,#01105 #1105 1105NT,3676 Harding Blvd.,LA,70807
Smoothie King,Lincoln,1106,#01106 #1106 1106NT,5141 O Street,NE,68510
Smoothie King,New Orleans,1107,#01107 #1107 1107NT,1201 Jefferson Hwy.,LA,70121
Smoothie King,Bossier City,1108,#01108 #1108 1108NT,2650 Beene Blvd.,LA,71111
Smoothie King,Germantown,1109,#01109 #1109 1109NT,7820 Poplar Avenue,TN,38138
Smoothie King,Greensboro,1110,#01110 #1110 1110NT,2403 Battleground Ave,NC,27408
Smoothie King,Morgan City,1111,#01111 #1111 1111NT,1141 Victor II Blvd.,LA,70380
Smoothie King,Yonkers,1112,#01112 #1112 1112NT,1 Ridge Hill Blvd,NY,10701
Smoothie King,Richland,1114,#01114 #1114 1114NT,918 Hwy 49 South,MS,39218
Smoothie King,Jacksonville,1115,#01115 #1115 1115NT,460 Western Blvd.,NC,28546
Smoothie King,Philadelphia,1116,#01116 #1116 1116NT,1115 Independance Mall East,PA,19106
Smoothie King,Mobile,1117,#01117 #1117 1117NT,3057 Dauphin St.,AL,36606
Smoothie King,Frisco,1118,#01118 #1118 1118NT,8755 Preston Rd,TX,75034
Smoothie King,Bloomington,1119,#01119 #1119 1119NT,2109 N. Veterans Pkwy,IL,61704
Smoothie King,Coral Gables,1120,#01120 #1120 1120NT,2315 Ponce De Leon Blvd.,FL,33134
Smoothie King,Wellington,1121,#01121 #1121 1121NT,COMING SOON TO10300 W Forest Hill Blvd,FL,33414
Smoothie King,Dallas,1122,#01122 #1122 1122NT,5000 Belt Line Road,TX,75254
Smoothie King,Boca Raton,1123,#01123 #1123 1123NT,21200 St. Andrews Blvd.,FL,33433
Smoothie King,Miami,1124,#01124 #1124 1124NT,11401 NW 12th S,FL,33172
Smoothie King,Valdosta,1132,#01132 #1132 1132NT,North Oak Square,GA,31602
Smoothie King,Humble,1133,#01133 #1133 1133NT,7203 Atascocita Pavilions,TX,77346
Smoothie King,Spring,1136,#01136 #1136 1136NT,225 Cypresswood Dr,TX,77388
Smoothie King,Jacksonville,1138,#01138 #1138 1138NT,790 Skymarks Drive,FL,32218
Smoothie King,Plantation,1139,#01139 #1139 1139NT,3 North State Road 7,FL,33317
Smoothie King,Houma,1146,#01146 #1146 1146NT,Grand Caillou Rd.,LA,70363
Smoothie King,Kansas City,1153,#01153 #1153 1153NT,6368 N. Cosby Ave.,MO,64151
Smoothie King,College Station,1162,#01162 #1162 1162NT,TMAU Rec Center,TX,77840
Smoothie King,Atlanta,1177,#01177 #1177 1177NT,"1001 Piedmont Rd., Suite 101",GA,30309
Smoothie King,Sugar Land,0179NT,#00179 #0179 0179NT,14111 S.W. Freeway,TX,77478
Smoothie King,New Orleans,0194NT,#00194 #0194 0194NT,"Loyola University, 6363 St. Charles Avenue, Campus Box 243",LA,70118
Smoothie King,Houston,0229NT,#00229 #0229 0229NT,University of Houston - Downtown                               1 Main Street,TX,77002
Smoothie King,Houston,0262NT,#00262 #0262 0262NT,3801 Cullen Blvd. U of H University Center Satellite,TX,77004
Smoothie King,Houston,0264NT,#00264 #0264 0264NT,1500 E. Memorial Loop Drive,TX,77007
Smoothie King,Houston,0403NT,#00403 #0403 0403NT,"Univ. of Houston Recreation Center, 4500 University Dr.",TX,77004
Smoothie King,Houston,0420NT,#00420 #0420 0420NT,Dining Services - 1515 Holcombe Blvd.,TX,77030
Smoothie King,College Station,0527NT,#00527 #0527 0527NT,Texas A&M University,TX,77843
Smoothie King,Tuscaloosa,0535NT,#00535 #0535 0535NT,401 5th Ave.,AL,35401
Smoothie King,Knoxville,0590NT,#00590 #0590 0590NT,2111 Volunteer Blvd.,TN,37916
Smoothie King,League City,0600NT,#00600 #0600 0600NT,1700 League City Parkway,TX,77573
Smoothie King,Baton Rouge,0686NT,#00686 #0686 0686NT,LSU Student Recreation Center,LA,70803
Smoothie King,Charlotte,0742NT,#00742 #0742 0742NT,9405 Bryant Farms Rd,NC,28277
Smoothie King,San Antonio,0954NT,#00954 #0954 0954NT,6900 N. Loop 1604 W.,TX,78249
Smoothie King,Denton,0958NT,#00958 #0958 0958NT,1900 W. Chestnut St.,TX,76201
Smoothie King,Baton Rouge,0961NT,#00961 #0961 0961NT,"10000 Perkins Rowe, Inside Bally's Fitness",LA,70810
Smoothie King,Athens,0984NT,#00984 #0984 0984NT,2361 W. Broad,GA,30606
Smoothie King,Fort Polk South,1004NT,#01004 #1004 1004NT,2275 Louisiana Ave,LA,71459
Smoothie King,Dayton,1010NT,#01010 #1010 1010NT,Wright Field Fitness Center,OH,45433
Smoothie King,Barksdale AFB,1018NT,#01018 #1018 1018NT,455 Curtiss Rd Bldg 4711,LA,71110
Smoothie King,Marquette,1057NT,#01057 #1057 1057NT,1422 Presque Isle Ave.,MI,49855-2808
Smoothie King,Jackson,1063NT,#01063 #1063 1063NT,100 East Capitol St.,MS,39201
Smoothie King,Nashville,1074NT,#01074 #1074 1074NT,2700 Childrens Way,TN,37212
Smoothie King,Claxton,1091NT,#01091 #1091 1091NT,3002 Allen Drive,GA,30809
