keywords,city,Aggdata Store Number,store_number,address,state,zip_code
Sportsmans Warehouse,Provo,102,102,1075 S University Avenue,UT,84601
Sportsmans Warehouse,Riverdale,103,103,1137 W. Riverdale Road,UT,84405
Sportsmans Warehouse,Meridian,104,104,3797 E. Fairview Avenue,ID,83642
Sportsmans Warehouse,Idaho Falls,105,105,2909 S. 25th E.,ID,83406
Sportsmans Warehouse,Loveland,106,106,1675 Rocky Mountain Avenue,CO,80538
Sportsmans Warehouse,Grand Junction,108,108,2464 US Hwy 6 and 50 STE A,CO,81505
Sportsmans Warehouse,Midvale,114,114,165 W. 7200 S.,UT,84047
Sportsmans Warehouse,Phoenix,117,117,19205 N. 27th Avenue,AZ,85027
Sportsmans Warehouse,Twin Falls,118,118,1940 Bridgeview Boulevard,ID,83301
Sportsmans Warehouse,Thornton,119,119,11 W. 84th Avenue,CO,80260
Sportsmans Warehouse,Ankeny,120,120,921 SE Oralabor Road,IA,50021
Sportsmans Warehouse,Anchorage,121,121,8681 Old Seward Hwy,AK,99515
Sportsmans Warehouse,Reno,123,123,3306 Kietzke Lane,NV,89502
Sportsmans Warehouse,Albuquerque,126,126,1450 Renaissance Boulevard NE,NM,87107
Sportsmans Warehouse,Tucson,132,132,3945 West Costco Drive,AZ,85741
Sportsmans Warehouse,Casper,137,137,4120 East 2nd St.,WY,82609
Sportsmans Warehouse,Colorado Springs,138,138,555 North Chelton Road,CO,80909
Sportsmans Warehouse,Mesa,139,139,1750 S. Greenfield Rd.,AZ,85206
Sportsmans Warehouse,Fairbanks,145,145,423 Merhar Ave.,AK,99701
Sportsmans Warehouse,St. George,148,148,2957 East 850 North,UT,84790
Sportsmans Warehouse,Rocklin,149,149,6640 Lonetree Blvd,CA,95765
Sportsmans Warehouse,Chattanooga,152,152,6241 Perimeter Dr.,TN,37421
Sportsmans Warehouse,Columbia,155,155,476 Piney Grove Road,SC,29210
Sportsmans Warehouse,Medford,158,158,1710 Delta Waters Rd.,OR,97504
Sportsmans Warehouse,Wasilla,159,159,1901 East Parks Highway,AK,99654
Sportsmans Warehouse,Lexington,163,163,2200 War Admiral Way,KY,40509
Sportsmans Warehouse,Missoula,201,201,2323 N. Reserve St.,MT,59808
Sportsmans Warehouse,Helena,202,202,2990 North Sanders St.,MT,59601
Sportsmans Warehouse,Bozeman,203,203,2214 Tschache Lane,MT,59715
Sportsmans Warehouse,Portland,204,204,9401 SE 82nd Ave,OR,97086
Sportsmans Warehouse,Salem,205,205,1260 Lancaster Dr. SE,OR,97317
Sportsmans Warehouse,Bend,206,206,63492 Hunnell Rd.,OR,97701
Sportsmans Warehouse,Kennewick,207,207,6603 W Canal Dr.,WA,99336
Sportsmans Warehouse,Vancouver,208,208,11505 NE Fourth Plain Rd.,WA,98662
Sportsmans Warehouse,Silverdale,209,209,9577 Ridgetop Blvd NW,WA,98383
Sportsmans Warehouse,Federal Way,210,210,1405 S 348th St.,WA,98003
Sportsmans Warehouse,Southaven,211,211,130 Marathon Way,MS,38671
Sportsmans Warehouse,Soldotna,212,212,44402 Sterling Hwy.,AK,99669
Sportsmans Warehouse,Puyallup,213,213,120 31st Ave SE STE G,WA,98374
Sportsmans Warehouse,Redding,221,221,1659 Hilltop Dr.,CA,96002
Sportsmans Warehouse,Las Vegas,222,222,5647 Centennial Center Blvd,NV,89149
Sportsmans Warehouse,Roanoke,223,223,3550 Ferncliff Ave NW,VA,24017
Sportsmans Warehouse,Nampa,224,224,16865 N. Market Place Blvd.,ID,83687
Sportsmans Warehouse,Farmington,225,225,4905 E. Main St.,NM,87402
Sportsmans Warehouse,Lewiston,226,226,2002 Thain Grade,ID,83501
Sportsmans Warehouse,Cheyenne,227,227,3745 E Lincoln Way,WY,82001
Sportsmans Warehouse,Logan,228,228,99 E 1400 N,UT,84341
Sportsmans Warehouse,Carson City,229,229,1443 S Carson St,NV,89701
Sportsmans Warehouse,Hillsboro,230,230,18645 NW Tanasbourne Dr,OR,97124
Sportsmans Warehouse,East Wenatchee,231,231,611 Valley Mall Pkwy,WA,98802
Sportsmans Warehouse,Chico,232,232,765 East Avenue Suite 170,CA,95926
Sportsmans Warehouse,Rancho Cordova,233,233,2344 Sunrise Blvd,CA,95670
Sportsmans Warehouse,Vernal,234,234,2015 W Highway 40,UT,84078
