keywords,city,Aggdata Store Number,store_number,address,state,zip_code
Sport Clips,Anchorage,AK101,XX-101 XX101 #XX101 101 #101 AK101,8920 Old Seward Highway,AK,99515
Sport Clips,Wasilla,AK102,XX-102 XX102 #XX102 102 #102 AK102,1771 E Parks Highway,AK,99654
Sport Clips,Homewood,AL101,XX-101 XX101 #XX101 101 #101 AL101,"225 Lakeshore Pkwy, D-20",AL,35209
Sport Clips,Birmingham,AL102,XX-102 XX102 #XX102 102 #102 AL102,1942-A Highway 31 South,AL,35244
Sport Clips,Birmingham,AL103,XX-103 XX103 #XX103 103 #103 AL103,1616 Gadsten Highway Suite 106,AL,35235
Sport Clips,Birmingham,AL104,XX-104 XX104 #XX104 104 #104 AL104,1401 Doug Baker Blvd. Suite 108,AL,35242
Sport Clips,Hoover,AL105,XX-105 XX105 #XX105 105 #105 AL105,"4421 Creekside Ave., Suite 153",AL,35244
Sport Clips,Alabaster,AL106,XX-106 XX106 #XX106 106 #106 AL106,750 Colonial Promenade Pkwy Suite 4700,AL,35007
Sport Clips,Fultondale,AL107,XX-107 XX107 #XX107 107 #107 AL107,"3441 Lowery Pkwy., Suite 123",AL,35068
Sport Clips,Birmingham,AL108,XX-108 XX108 #XX108 108 #108 AL108,5519 Grove Blvd. Suite 133,AL,35244
Sport Clips,Oxford,AL109,XX-109 XX109 #XX109 109 #109 AL109,210 Oxford Exchange Blvd.,AL,36203
Sport Clips,Gadsden,AL110,XX-110 XX110 #XX110 110 #110 AL110,330 E. Meighan Blvd.,AL,35903
Sport Clips,Montgomery,AL201,XX-201 XX201 #XX201 201 #201 AL201,2518 Berryhill Rd.,AL,36117
Sport Clips,Prattville,AL202,XX-202 XX202 #XX202 202 #202 AL202,2786 Legends Pkwy.,AL,36066
Sport Clips,Mobile,AL301,XX-301 XX301 #XX301 301 #301 AL301,740 Schillinger Rd. S.,AL,36695
Sport Clips,Mobile,AL302,XX-302 XX302 #XX302 302 #302 AL302,4419-C Rangeline Rd.,AL,36619
Sport Clips,Fairhope,AL303,XX-303 XX303 #XX303 303 #303 AL303,86 Plantation Pointe,AL,36532
Sport Clips,Mobile,AL304,XX-304 XX304 #XX304 304 #304 AL304,"3725 Airport Blvd., Ste. 100 H",AL,36608
Sport Clips,Spanish Fort,AL305,XX-305 XX305 #XX305 305 #305 AL305,10200 Eastern Shore Blvd.,AL,36527
Sport Clips,Tuscaloosa,AL401,XX-401 XX401 #XX401 401 #401 AL401,"1800 McFarland Blvd. E, Ste. 602",AL,35404
Sport Clips,Tuscaloosa,AL402,XX-402 XX402 #XX402 402 #402 AL402,"1105 Southview Lane, Suite 101",AL,35405
Sport Clips,Huntsville,AL501,XX-501 XX501 #XX501 501 #501 AL501,6275 University Dr. Suite 21,AL,35806
Sport Clips,Huntsville,AL502,XX-502 XX502 #XX502 502 #502 AL502,4800 Whitesburg Dr Ste 17,AL,35802
Sport Clips,Madison,AL503,XX-503 XX503 #XX503 503 #503 AL503,5510 Promenade Point Parkway NW #130,AL,35757
Sport Clips,Little Rock,AR101,XX-101 XX101 #XX101 101 #101 AR101,"12800 Chenal Parkway, Suite 5",AR,72211
Sport Clips,Conway,AR102,XX-102 XX102 #XX102 102 #102 AR102,563 Ellisinger Blvd.,AR,72032
Sport Clips,Bryant,AR103,XX-103 XX103 #XX103 103 #103 AR103,"3213 Main St., Ste. 3",AR,72022
Sport Clips,North Little Rock,AR104,XX-104 XX104 #XX104 104 #104 AR104,"4619 East McCain, Ste D",AR,72117
Sport Clips,Little Rock,AR105,XX-105 XX105 #XX105 105 #105 AR105,12911 Cantrell Rd. Ste. 15,AR,72223
Sport Clips,Searcy,AR106,XX-106 XX106 #XX106 106 #106 AR106,3514 E. Race St.,AR,72143
Sport Clips,Hot Springs,AR107,XX-107 XX107 #XX107 107 #107 AR107,1412 Higdon Ferry Road,AR,71913
Sport Clips,Little Rock,AR108,XX-108 XX108 #XX108 108 #108 AR108,"410 S. University Ave., Suite 120",AR,72205
Sport Clips,Fayetteville,AR201,XX-201 XX201 #XX201 201 #201 AR201,"3595 N. Shiloh Dr., Suite 1",AR,72703
Sport Clips,Rogers,AR202,XX-202 XX202 #XX202 202 #202 AR202,"2212 W. Walnut, Suite A",AR,72756
Sport Clips,Bentonville,AR203,XX-203 XX203 #XX203 203 #203 AR203,1702-2 S. Walton Blvd.,AR,72712
Sport Clips,Springdale,AR204,XX-204 XX204 #XX204 204 #204 AR204,"7058 W. Sunset Ave, Suite 7",AR,72762
Sport Clips,Rogers,AR205,XX-205 XX205 #XX205 205 #205 AR205,2011 Promenade Blvd. Suite 100,AR,72758
Sport Clips,Fort Smith,AR301,XX-301 XX301 #XX301 301 #301 AR301,7805-B Rogers Ave.,AR,72903
Sport Clips,Fort Smith,AR302,XX-302 XX302 #XX302 302 #302 AR302,"4115 Phoenix Avenue, Ste 4115",AR,72903
Sport Clips,Jonesboro,AR401,XX-401 XX401 #XX401 401 #401 AR401,3009 East Highland Drive,AR,72401
Sport Clips,Gilbert,AZ101,XX-101 XX101 #XX101 101 #101 AZ101,1084 S. Gilbert Road Suite 102,AZ,85296
Sport Clips,Mesa,AZ102,XX-102 XX102 #XX102 102 #102 AZ102,"6606 E. McKellips, Suite 103",AZ,85215
Sport Clips,Mesa,AZ103,XX-103 XX103 #XX103 103 #103 AZ103,1940 S. Val-Vista Dr. Suite 103,AZ,85204
Sport Clips,Mesa,AZ104,XX-104 XX104 #XX104 104 #104 AZ104,1927 N. Gilbert Road,AZ,85203
Sport Clips,Chandler,AZ105,XX-105 XX105 #XX105 105 #105 AZ105,800 N. 54th St. Suite L-2,AZ,85226
Sport Clips,Phoenix,AZ106,XX-106 XX106 #XX106 106 #106 AZ106,"4645 E. Chandler Blvd., Ste. 12",AZ,85048
Sport Clips,Scottsdale,AZ107,XX-107 XX107 #XX107 107 #107 AZ107,"10893 N. Scottsdale Rd., Ste. 117",AZ,85254
Sport Clips,Glendale,AZ111,XX-111 XX111 #XX111 111 #111 AZ111,8251 W. Union Hills Ste. 110,AZ,85308
Sport Clips,Surprise,AZ112,XX-112 XX112 #XX112 112 #112 AZ112,13980 W. Bell Rd. Ste. 15,AZ,85374
Sport Clips,Chandler,AZ114,XX-114 XX114 #XX114 114 #114 AZ114,"4245 S. Arizona Ave., Ste. 2",AZ,85248
Sport Clips,Chandler,AZ115,XX-115 XX115 #XX115 115 #115 AZ115,"2875 W. Ray Rd., Ste.17",AZ,85224
Sport Clips,Avondale,AZ116,XX-116 XX116 #XX116 116 #116 AZ116,"1809 N. Dysart Rd., C-103",AZ,85323
Sport Clips,Mesa,AZ117,XX-117 XX117 #XX117 117 #117 AZ117,"1917 S. Signal Butte Rd., Ste. 108",AZ,85209
Sport Clips,Phoenix,AZ118,XX-118 XX118 #XX118 118 #118 AZ118,"610 East Bell Rd., Ste. A-104",AZ,85022
Sport Clips,Phoenix,AZ119,XX-119 XX119 #XX119 119 #119 AZ119,"34640 N. North Valley Parkway, Ste. 110",AZ,85086
Sport Clips,Queen Creek,AZ120,XX-120 XX120 #XX120 120 #120 AZ120,"1753 West Hunt Hwy, Suite 105",AZ,85243
Sport Clips,Tempe,AZ121,XX-121 XX121 #XX121 121 #121 AZ121,815 East Baseline Road,AZ,85283
Sport Clips,Chandler,AZ122,XX-122 XX122 #XX122 122 #122 AZ122,2990 E. Germann Rd. #D-102,AZ,85286
Sport Clips,Gilbert,AZ123,XX-123 XX123 #XX123 123 #123 AZ123,4622 S. Higley Rd #102,AZ,85297
Sport Clips,Scottsdale,AZ125,XX-125 XX125 #XX125 125 #125 AZ125,6501 E. Greenway Pkwy #121,AZ,85254
Sport Clips,Scottsdale,AZ126,XX-126 XX126 #XX126 126 #126 AZ126,15560 North Frank Lloyd Wright #B9,AZ,85260
Sport Clips,Mesa,AZ128,XX-128 XX128 #XX128 128 #128 AZ128,1960 W. Baseline Rd. ,AZ,85202
Sport Clips,Mesa,AZ129,XX-129 XX129 #XX129 129 #129 AZ129,6736 E. Baseline Rd. #106,AZ,85206
Sport Clips,Buckeye,AZ130,XX-130 XX130 #XX130 130 #130 AZ130,944 S Watson Rd #104,AZ,85326
Sport Clips,Phoenix,AZ131,XX-131 XX131 #XX131 131 #131 AZ131,3045 W Aqua Fria Freeway #103,AZ,85027
Sport Clips,Mesa,AZ132,XX-132 XX132 #XX132 132 #132 AZ132,937 N Dobson Rd. #103,AZ,85201
Sport Clips,Tucson,AZ201,XX-201 XX201 #XX201 201 #201 AZ201,"7625 N. Oracle Rd., Ste. 115",AZ,85704
Sport Clips,Oro Valley,AZ202,XX-202 XX202 #XX202 202 #202 AZ202,"1880 E. Tangerine Rd , Ste. #180",AZ,85755
Sport Clips,Tucson,AZ203,XX-203 XX203 #XX203 203 #203 AZ203 ,4230 N Oracle Rd #120,AZ,85705
Sport Clips,Tucson,AZ204,XX-204 XX204 #XX204 204 #204 AZ204,5920 W. Arizona Pavilion's Dr.,AZ,85743
Sport Clips,Tucson,AZ205,XX-205 XX205 #XX205 205 #205 AZ205,1065 E Tucson Marketplace Blvd.,AZ,85713
Sport Clips,Yuma,AZ301,XX-301 XX301 #XX301 301 #301 AZ301,"1630 S Pacific Avenue, Suite 103",AZ,85365
Sport Clips,Kingman,AZ401,XX-401 XX401 #XX401 401 #401 AZ401,3880 Stockton Hill Rd. #105,AZ,86409
Sport Clips,Roseville,CA101,XX-101 XX101 #XX101 101 #101 CA101,2030 Douglas Blvd. Ste. 44,CA,95661
Sport Clips,Carmichael,CA102R,XX-102R XX102R #XX102R 102R #102R CA102R,4005 Manzanita Ave #58 ,CA,95608
Sport Clips,Fair Oaks,CA103,XX-103 XX103 #XX103 103 #103 CA103,5351 Sunrise Blvd.,CA,95628
Sport Clips,Sacramento,CA104,XX-104 XX104 #XX104 104 #104 CA104,2577B Fair Oaks Blvd  ,CA,95825
Sport Clips,Sacramento,CA105,XX-105 XX105 #XX105 105 #105 CA105,"3610 N. Freeway Blvd., Ste. 130",CA,95834
Sport Clips,Folsom,CA106,XX-106 XX106 #XX106 106 #106 CA106,"25075 Blue Ravine Rd., Suite 140",CA,95630
Sport Clips,Rocklin,CA107,XX-107 XX107 #XX107 107 #107 CA107,"6620 Lone Tree Blvd., Ste. 300; Bldg. 7",CA,95765
Sport Clips,Cameron Park,CA108,XX-108 XX108 #XX108 108 #108 CA108,"3490 Palmer Dr., Ste. 3H",CA,95682
Sport Clips,Elk Grove,CA109,XX-109 XX109 #XX109 109 #109 CA109,"8259 Laguna Blvd, Suite 140",CA,95758
Sport Clips,West Sacramento,CA110,XX-110 XX110 #XX110 110 #110 CA110,767 Ikea Ct #128 ,CA,95605
Sport Clips,Davis,CA111,XX-111 XX111 #XX111 111 #111 CA111,1411 West Covell Blvd #106,CA,95616
Sport Clips,Folsom,CA112,XX-112 XX112 #XX112 112 #112 CA112,"9475 Madison Ave., Suite #130",CA,95630
Sport Clips,Roseville,CA114,XX-114 XX114 #XX114 114 #114 CA114,4021 Woodcreek Oaks Blvd.  #156,CA,95747
Sport Clips,Sacramento,CA115,XX-115 XX115 #XX115 115 #115 CA115,1809 S. St. #98,CA,95811
Sport Clips,Yuba City,CA150,XX-150 XX150 #XX150 150 #150 CA150,"1054 Harter Rd., Suite 2",CA,95993
Sport Clips,Fresno,CA201,XX-201 XX201 #XX201 201 #201 CA201,"9433 North Ft. Washington, Ste. 105-106",CA,93720
Sport Clips,Clovis,CA202,XX-202 XX202 #XX202 202 #202 CA202,1215 N. Willow  #170,CA,93619
Sport Clips,Fresno,CA203,XX-203 XX203 #XX203 203 #203 CA203,"782 W. Palmdon Avenue, Ste. 782",CA,93704
Sport Clips,Stockton,CA250,XX-250 XX250 #XX250 250 #250 CA250,"10318 Trinity Parkway, Ste. C",CA,95219
Sport Clips,Redding,CA301,XX-301 XX301 #XX301 301 #301 CA301,1750 Churn Creek Road,CA,96002
Sport Clips,Carlsbad,CA401,XX-401 XX401 #XX401 401 #401 CA401,"2708 Loker Ave. W, Ste. 106",CA,92010
Sport Clips,San Diego,CA402,XX-402 XX402 #XX402 402 #402 CA402,"4941 Clairemont Drive, Ste. E",CA,92117
Sport Clips,Chula Vista,CA404,XX-404 XX404 #XX404 404 #404 CA404,"884 Eastlake Pkwy., Ste. 1627",CA,91914
Sport Clips,Del Mar,CA405,XX-405 XX405 #XX405 405 #405 CA405,2632 Del Mar Heights,CA,92014
Sport Clips,La Jolla,CA406,XX-406 XX406 #XX406 406 #406 CA406,8855 Villa La Jolla Dr.,CA,92037
Sport Clips,San Diego,CA407,XX-407 XX407 #XX407 407 #407 CA407,15731 Bernardo Heights Pkwy.,CA,92128
Sport Clips,Escondido,CA408,XX-408 XX408 #XX408 408 #408 CA408,1036 W. Valley Parkway,CA,92025
Sport Clips,San Diego,CA409,XX-409 XX409 #XX409 409 #409 CA409,"2169 Fenton Pkwy., Ste. A-107",CA,92108
Sport Clips,Santee,CA410,XX-410 XX410 #XX410 410 #410 CA410,"9349 Mission Gorge Road, Suite 115",CA,92071
Sport Clips,Oceanside,CA411,XX-411 XX411 #XX411 411 #411 CA411,4259 Oceanside Blvd. Unit 2,CA,92056
Sport Clips,San Diego,CA412,XX-412 XX412 #XX412 412 #412 CA412,10549 Scripps Poway Parkway ,CA,92131
Sport Clips,Encinitas,CA414,XX-414 XX414 #XX414 414 #414 CA414,276 N El Camino Real Suite D,CA,92024
Sport Clips,San Diego,CA415,XX-415 XX415 #XX415 415 #415 CA415,"16615 Dove Canyon Road, Suite 113",CA,92127
Sport Clips,El Cajon,CA416,XX-416 XX416 #XX416 416 #416 CA416,12098 Fury Lane #B1,CA,92019
Sport Clips,San Diego,CA417,XX-417 XX417 #XX417 417 #417 CA417,4007 W. Pt. Loma Blvd,CA,92110
Sport Clips,San Marcos,CA418,XX-418 XX418 #XX418 418 #418 CA418,"310 S. Twin Oaks Valley Road, Suite 103",CA,92078
Sport Clips,La Mesa,CA419,XX-419 XX419 #XX419 419 #419 CA419,8034 La Mesa Blvd,CA,91942
Sport Clips,Irvine,CA501,XX-501 XX501 #XX501 501 #501 CA501,6274 Irvine Blvd.,CA,92620
Sport Clips,Huntington Beach,CA502,XX-502 XX502 #XX502 502 #502 CA502,19710 Beach Blvd.,CA,92648
Sport Clips,Tustin,CA504,XX-504 XX504 #XX504 504 #504 CA504,2318 Park Ave.,CA,92782
Sport Clips,Cypress,CA505,XX-505 XX505 #XX505 505 #505 CA505,10071 Valley View St.,CA,90630
Sport Clips,Ladera Ranch,CA506,XX-506 XX506 #XX506 506 #506 CA506,"27412 Antonio Parkway, R-3",CA,92694
Sport Clips,Ontario,CA508,XX-508 XX508 #XX508 508 #508 CA508,"1150 E. Philadelphia St., Ste. 109",CA,91761
Sport Clips,Mira Loma,CA509,XX-509 XX509 #XX509 509 #509 CA509,6445 Pats Ranch Rd. Suite C,CA,91752
Sport Clips,Lake Forest,CA510,XX-510 XX510 #XX510 510 #510 CA510,"23647 El Toro Rd., Ste. C",CA,92630
Sport Clips,Torrance,CA512,XX-512 XX512 #XX512 512 #512 CA512,"24223 Crenshaw Blvd., Suite F",CA,90505
Sport Clips,Yorba Linda,CA514,XX-514 XX514 #XX514 514 #514 CA514,21480 Yorba Linda Blvd  Suite C1,CA,92887
Sport Clips,Yorba Linda,CA515,XX-515 XX515 #XX515 515 #515 CA515,17476 Yorba Linda Blvd.,CA,92886
Sport Clips,Laguna Niguel,CA516,XX-516 XX516 #XX516 516 #516 CA516,27311 La Paz Road Suite F,CA,92677
Sport Clips,San Clemente,CA517,XX-517 XX517 #XX517 517 #517 CA517,638 Camino de los Mares Suite F-100,CA,92673
Sport Clips,Costa Mesa,CA518,XX-518 XX518 #XX518 518 #518 CA518,179 E 17th St.  Suite D,CA,92627
Sport Clips,Fullerton,CA519,XX-519 XX519 #XX519 519 #519 CA519,1060 E. Bastanchury Rd.,CA,92835
Sport Clips,Orange,CA520,XX-520 XX520 #XX520 520 #520 CA520,1549 E. Katella Ave. #B,CA,92867
Sport Clips,Foothill Ranch,CA521,XX-521 XX521 #XX521 521 #521 CA521,"26761 Portola Pkwy, #2C",CA,92610
Sport Clips,Irvine,CA522,XX-522 XX522 #XX522 522 #522 CA522,6779 Quail Hill Parkway,CA,92603
Sport Clips,Tustin,CA523,XX-523 XX523 #XX523 523 #523 CA523,1078 Irvine Blvd.,CA,92780
Sport Clips,Huntington Beach,CA524,XX-524 XX524 #XX524 524 #524 CA524,6834 Edinger Ave,CA,92647
Sport Clips,Mission Viejo,CA525,XX-525 XX525 #XX525 525 #525 CA525,26012 Marguerite Parkway #K,CA,92692
Sport Clips,La Habra,CA526,XX-526 XX526 #XX526 526 #526 CA526,1202 S. Idaho St #G,CA,90631
Sport Clips,Rancho Santa Margarita,CA527,XX-527 XX527 #XX527 527 #527 CA527,22312 El Paseo Ste B1,CA,92688
Sport Clips,Palm Desert,CA601,XX-601 XX601 #XX601 601 #601 CA601,74998 Country Club Dr. Suite 240,CA,92260
Sport Clips,Palm Springs,CA602,XX-602 XX602 #XX602 602 #602 CA602,5001 East Ramon Rd Suite 102,CA,92264
Sport Clips,La Quinta,CA603,XX-603 XX603 #XX603 603 #603 CA603,79024 Hwy. 111,CA,92253
Sport Clips,Glendora,CA630,XX-630 XX630 #XX630 630 #630 CA630,"1385 E. Gladstone St., Ste. 100",CA,91740
Sport Clips,Upland,CA632,XX-632 XX632 #XX632 632 #632 CA632,"1943 N. Campus Ave., Ste B",CA,91784
Sport Clips,Temecula,CA633,XX-633 XX633 #XX633 633 #633 CA633,"40335 Winchester Road, Suite A",CA,92591
Sport Clips,Temecula,CA634,XX-634 XX634 #XX634 634 #634 CA634,32068 Temecula Pkwy #400,CA,92592
Sport Clips,Chino Hills,CA635,XX-635 XX635 #XX635 635 #635 CA635,14230 Chino Hills Pkwy Suite D,CA,91709
Sport Clips,Pasadena,CA636,XX-636 XX636 #XX636 636 #636 CA636,2335 E Colorado Blvd Suite 120,CA,91107
Sport Clips,South Pasadena,CA637,XX-637 XX637 #XX637 637 #637 CA637,1124 Fair Oaks Ave,CA,91030
Sport Clips,Duarte,CA638,XX-638 XX638 #XX638 638 #638 CA638,1189 A Huntington Dr,CA,91010
Sport Clips,La Canada,CA640,XX-640 XX640 #XX640 640 #640 CA640,890 Town Center Drive Unit A,CA,91011
Sport Clips,Santa Clarita,CA701,XX-701 XX701 #XX701 701 #701 CA701,26562 Bouquet Canyon Rd.,CA,91350
Sport Clips,Santa Clarita,CA702,XX-702 XX702 #XX702 702 #702 CA702,"26485 Golden Valley Rd., Ste. B-3",CA,91350
Sport Clips,Valencia,CA703,XX-703 XX703 #XX703 703 #703 CA703,26818 The Old Road ,CA,91381
Sport Clips,Northridge,CA704,XX-704 XX704 #XX704 704 #704 CA704,"19500 Plummer Street, Unit D5",CA,91324
Sport Clips,Encino,CA705,XX-705 XX705 #XX705 705 #705 CA705,17200 Ventura Blvd.,CA,91316
Sport Clips,Burbank,CA706,XX-706 XX706 #XX706 706 #706 CA706,2452 W. Victory Blvd.,CA,91506
Sport Clips,Oxnard,CA750,XX-750 XX750 #XX750 750 #750 CA750,367 W. Esplanade Dr.,CA,93036
Sport Clips,Newbury Park,CA751,XX-751 XX751 #XX751 751 #751 CA751,715 Wendy Drive,CA,91320
Sport Clips,Camarillo,CA752,XX-752 XX752 #XX752 752 #752 CA752,391 Carmen Dr.,CA,93010
Sport Clips,Simi Valley,CA753,XX-753 XX753 #XX753 753 #753 CA753,2975 Cochran St. Suite C,CA,93065
Sport Clips,Ventura,CA754,XX-754 XX754 #XX754 754 #754 CA754,4020 E Main St B-6-2,CA,93003
Sport Clips,Thousand Oaks,CA755,XX-755 XX755 #XX755 755 #755 CA755,2072 E Avenida de Los Arboles Unit A-2,CA,91362
Sport Clips,Bakersfield,CA770,XX-770 XX770 #XX770 770 #770 CA770,9660 Hageman Rd. Suite C,CA,93312
Sport Clips,Bakersfield,CA771,XX-771 XX771 #XX771 771 #771 CA771,11320 Ming Avenue Suite 320,CA,93311
Sport Clips,Santa Maria,CA780,XX-780 XX780 #XX780 780 #780 CA780,"540 East Betteravia Road, Suite F",CA,93454
Sport Clips,San Luis Obispo,CA781,XX-781 XX781 #XX781 781 #781 CA781,481 Madonna Road Suite C,CA,93405
Sport Clips,Dublin,CA801,XX-801 XX801 #XX801 801 #801 CA801,7012 Amador Plaza Road,CA,94568
Sport Clips,Pleasant Hill,CA802,XX-802 XX802 #XX802 802 #802 CA802,"2360 Monument Blvd., Suite 1B",CA,94523
Sport Clips,Morgan Hill,CA803,XX-803 XX803 #XX803 803 #803 CA803,"1053 Cochrane Rd., Suite 140",CA,95037
Sport Clips,Concord,CA805,XX-805 XX805 #XX805 805 #805 CA805,5434 Ygnacio Valley Road,CA,94521
Sport Clips,Danville,CA806,XX-806 XX806 #XX806 806 #806 CA806,9500-B Crow Canyon Blvd.,CA,94506
Sport Clips,Fremont,CA807,XX-807 XX807 #XX807 807 #807 CA807,43321 Christy St.,CA,94538
Sport Clips,San Jose,CA808,XX-808 XX808 #XX808 808 #808 CA808,874-D Blossom Hill Road,CA,95123
Sport Clips,Livermore,CA809,XX-809 XX809 #XX809 809 #809 CA809,4338 Las Positas Rd.,CA,94550
Sport Clips,San Mateo,CA810,XX-810 XX810 #XX810 810 #810 CA810,2017 Chess Drive,CA,94404
Sport Clips,San Ramon,CA811,XX-811 XX811 #XX811 811 #811 CA811,120 Market Place,CA,94583
Sport Clips,Pleasanton,CA812,XX-812 XX812 #XX812 812 #812 CA812,4001 Santa Rita Road Suite 3,CA,94588
Sport Clips,Brentwood,CA814,XX-814 XX814 #XX814 814 #814 CA814,"5541 Lone Tree Way, Suite 120",CA,94513
Sport Clips,Burlingame,CA815,XX-815 XX815 #XX815 815 #815 CA815,1853 El Camino Real,CA,94010
Sport Clips,Pleasanton,CA816,XX-816 XX816 #XX816 816 #816 CA816,"6754 Bernal Ave, Ste 750",CA,94566
Sport Clips,Sunnyvale,CA818,XX-818 XX818 #XX818 818 #818 CA818,330 W. El Camino Real,CA,94087
Sport Clips,Petaluma,CA819,XX-819 XX819 #XX819 819 #819 CA819,401 Kenilworth Dr. Ste 640,CA,94952
Sport Clips,Vacaville,CA840,XX-840 XX840 #XX840 840 #840 CA840,1631 E. Monte Vista Ave. K101,CA,95688
Sport Clips,Fairfield,CA841,XX-841 XX841 #XX841 841 #841 CA841,1570 Gateway Blvd. Suite B,CA,94533
Sport Clips,Benicia,CA842,XX-842 XX842 #XX842 842 #842 CA842,808 Southampton Rd.,CA,94510
Sport Clips,Highlands Ranch,CO101,XX-101 XX101 #XX101 101 #101 CO101,9579 S. University Blvd. #110,CO,80126
Sport Clips,Westminster,CO102,XX-102 XX102 #XX102 102 #102 CO102,9940 N. Wadsworth Pkwy. # 300,CO,80021
Sport Clips,Evergreen,CO103,XX-103 XX103 #XX103 103 #103 CO103,1153 Bergen Pkwy Suite K,CO,80439
Sport Clips,Lone Tree,CO105,XX-105 XX105 #XX105 105 #105 CO105,9996 Commons St. Suite 320,CO,80124
Sport Clips,Castle Rock,CO106,XX-106 XX106 #XX106 106 #106 CO106,316 Allen Street,CO,80108
Sport Clips,Thornton,CO107,XX-107 XX107 #XX107 107 #107 CO107,3975 E. 120th Avenue,CO,80241
Sport Clips,Littleton,CO108,XX-108 XX108 #XX108 108 #108 CO108,"9956 W. Remington, Suite A-11",CO,80128
Sport Clips,Aurora,CO110,XX-110 XX110 #XX110 110 #110 CO110,5582 S. Parker Rd.,CO,80015
Sport Clips,Louisville,CO111,XX-111 XX111 #XX111 111 #111 CO111,"133 McCaslin Blvd., Suite F",CO,80027
Sport Clips,Aurora,CO112,XX-112 XX112 #XX112 112 #112 CO112,6140 Gun Club. Rd #K-5,CO,80016
Sport Clips,Westminster,CO114,XX-114 XX114 #XX114 114 #114 CO114,11225 Decatur St. Ste. 700,CO,80234
Sport Clips,Parker,CO115,XX-115 XX115 #XX115 115 #115 CO115,18366 Lincoln Ave. Ste 105,CO,80134
Sport Clips,Lakewood,CO117,XX-117 XX117 #XX117 117 #117 CO117,2589 S. Lewis Way Unit 6C,CO,80227
Sport Clips,Aurora,CO118,XX-118 XX118 #XX118 118 #118 CO118,3571 S. Tower Rd.,CO,80013
Sport Clips,Littleton,CO119,XX-119 XX119 #XX119 119 #119 CO119,"8246 W. Bowles Ave., #C",CO,80123
Sport Clips,Denver,CO120,XX-120 XX120 #XX120 120 #120 CO120,6300 E. Hampden Ave.,CO,80222
Sport Clips,Denver,CO121,XX-121 XX121 #XX121 121 #121 CO121,3700 Quebec #101,CO,80207
Sport Clips,Highlands Ranch,CO122,XX-122 XX122 #XX122 122 #122 CO122,"1100 Sgt. Jon Stiles Drive, Suite 103",CO,80129
Sport Clips,Glendale,CO123,XX-123 XX123 #XX123 123 #123 CO123,1000 S. Colorado Blvd. ,CO,80246
Sport Clips,Lakewood,CO124,XX-124 XX124 #XX124 124 #124 CO124,14409 West Colfax Ave.,CO,80401
Sport Clips,Aurora,CO125,XX-125 XX125 #XX125 125 #125 CO125,10551 E. Garden Drive,CO,80012
Sport Clips,Littleton,CO126,XX-126 XX126 #XX126 126 #126 CO126,191 Mineral Ave #150A,CO,80120
Sport Clips,Boulder,CO127,XX-127 XX127 #XX127 127 #127 CO127,2905 Pearl St,CO,80301
Sport Clips,Thornton,CO128,XX-128 XX128 #XX128 128 #128 CO128,9645 Washington St,CO,80229
Sport Clips,Colorado Springs,CO201,XX-201 XX201 #XX201 201 #201 CO201,3560 E. Woodmen Rd.,CO,80918
Sport Clips,Colorado Springs,CO202,XX-202 XX202 #XX202 202 #202 CO202,3736 Bloomington Avenue,CO,80922
Sport Clips,Monument,CO203,XX-203 XX203 #XX203 203 #203 CO203,16064 Jackson Creek Parkway ,CO,80132
Sport Clips,Fountain,CO204,XX-204 XX204 #XX204 204 #204 CO204,6825 Mesa Ridge Parkway #130,CO,80817
Sport Clips,Fort Collins,CO301,XX-301 XX301 #XX301 301 #301 CO301,"2519 S. Shields St., Suite 1N",CO,80526
Sport Clips,Greeley,CO302,XX-302 XX302 #XX302 302 #302 CO302,"4711 W. 29th St., Unit B",CO,80634
Sport Clips,Loveland,CO303,XX-303 XX303 #XX303 303 #303 CO303,1550 Fall River Dr. #160,CO,80538
Sport Clips,Fort Collins,CO304,XX-304 XX304 #XX304 304 #304 CO304,2733 Council Tree Ave #137,CO,80525
Sport Clips,Montrose,CO401,XX-401 XX401 #XX401 401 #401 CO401,"1541 Oxbow Dr., Ste. 1475",CO,81401
Sport Clips,Milford,CT101,XX-101 XX101 #XX101 101 #101 CT101,1678 Boston Post Rd.,CT,6460
Sport Clips,Fairfield,CT201,XX-201 XX201 #XX201 201 #201 CT201,2395 Black Rock Turnpike,CT,6825
Sport Clips,Norwalk,CT202,XX-202 XX202 #XX202 202 #202 CT202,360 Connecticut Ave,CT,6854
Sport Clips,Brandon,FL101,XX-101 XX101 #XX101 101 #101 FL101,819 E. Bloomingdale Avenue,FL,33511
Sport Clips,Brandon,FL103,XX-103 XX103 #XX103 103 #103 FL103,1969 W. Lumsden Rd.,FL,33511
Sport Clips,Riverview,FL104,XX-104 XX104 #XX104 104 #104 FL104,"10469 Gibsonton Dr., Ste. F",FL,33569
Sport Clips,Wesley Chapel,FL105,XX-105 XX105 #XX105 105 #105 FL105,27709 State Rd. 56 Ste. 104,FL,33544
Sport Clips,Clearwater,FL106,XX-106 XX106 #XX106 106 #106 FL106,2757 Gulf to Bay Blvd. ,FL,33759
Sport Clips,Sarasota,FL107,XX-107 XX107 #XX107 107 #107 FL107,8433 Tuttle,FL,34243
Sport Clips,Tampa,FL108,XX-108 XX108 #XX108 108 #108 FL108,415 S. Dale Mabry Hwy #G,FL,33609
Sport Clips,Tampa,FL109,XX-109 XX109 #XX109 109 #109 FL109,15724 N Dale Mabry Hwy,FL,33618
Sport Clips,St. Petersburg,FL110,XX-110 XX110 #XX110 110 #110 FL110,"3942 Tyrone Blvd N., Suite A1",FL,33709
Sport Clips,Tampa,FL111,XX-111 XX111 #XX111 111 #111 FL111,3801 W. Gandy Blvd. Suite B,FL,33611
Sport Clips,Clearwater,FL112,XX-112 XX112 #XX112 112 #112 FL112,2518 SR 580 #B,FL,33761
Sport Clips,Oldsmar,FL114,XX-114 XX114 #XX114 114 #114 FL114,3689 Tampa Rd #304,FL,34677
Sport Clips,Altamonte Springs,FL205,XX-205 XX205 #XX205 205 #205 FL205,"380 State Road 434, Suite 1001",FL,32714
Sport Clips,Winter Springs,FL206,XX-206 XX206 #XX206 206 #206 FL206,5268 Red Bug Lake Rd.,FL,32708
Sport Clips,Viera,FL208,XX-208 XX208 #XX208 208 #208 FL208,"6729 Colonnade Dr., Ste. 116",FL,32940
Sport Clips,Winter Garden,FL209,XX-209 XX209 #XX209 209 #209 FL209,3317-104 Daniels Rd.,FL,34787
Sport Clips,Orlando,FL210,XX-210 XX210 #XX210 210 #210 FL210,3402 Technological Ave Suite 130 ,FL,32817
Sport Clips,Ocala,FL211,XX-211 XX211 #XX211 211 #211 FL211,2602 SW 19th Ave Rd Suite 202,FL,34480
Sport Clips,Sanford,FL212,XX-212 XX212 #XX212 212 #212 FL212,1649 WP Ball Blvd,FL,32771
Sport Clips,Pembroke Pines,FL301,XX-301 XX301 #XX301 301 #301 FL301,18247 Pines Blvd.,FL,33029
Sport Clips,Pompano Beach,FL305,XX-305 XX305 #XX305 305 #305 FL305,2001 N. Federal Hwy. #115,FL,33062
Sport Clips,Deerfield Beach,FL306,XX-306 XX306 #XX306 306 #306 FL306,3656 West Hillsboro Blvd.,FL,33442
Sport Clips,Davie,FL307,XX-307 XX307 #XX307 307 #307 FL307,2052 S University Drive,FL,33324
Sport Clips,Coconut Creek,FL308,XX-308 XX308 #XX308 308 #308 FL308,4450 N State Road 7 Suite 7,FL,33073
Sport Clips,Palm Beach Gardens,FL331,XX-331 XX331 #XX331 331 #331 FL331,3910 Northlake Blvd.,FL,33403
Sport Clips,Stuart,FL333,XX-333 XX333 #XX333 333 #333 FL333,2517 NW Federal Hwy.,FL,34994
Sport Clips,Boca Raton,FL334,XX-334 XX334 #XX334 334 #334 FL334,"625 NE Spanish River Blvd., #104",FL,33431
Sport Clips,Wellington,FL335,XX-335 XX335 #XX335 335 #335 FL335,10200 Forest Hill Blvd #160,FL,33414
Sport Clips,Boynton Beach,FL336,XX-336 XX336 #XX336 336 #336 FL336,"830 N. Congress Ave., Ste. 110",FL,33426
Sport Clips,Royal Palm Beach,FL337,XX-337 XX337 #XX337 337 #337 FL337,"11081 Southern Blvd., Ste. 130",FL,33411
Sport Clips,Port St Lucie,FL339,XX-339 XX339 #XX339 339 #339 FL339,1740 SW St. Lucie West Blvd,FL,34986
Sport Clips,Lake Worth,FL340,XX-340 XX340 #XX340 340 #340 FL340,6169 S. Jog Rd.,FL,33467
Sport Clips,Fort Myers,FL371,XX-371 XX371 #XX371 371 #371 FL371,13711 S. Tamiami Trail #9,FL,33912
Sport Clips,Cape Coral,FL373,XX-373 XX373 #XX373 373 #373 FL373,2301 Del Prado Blvd. #860,FL,33990
Sport Clips,Estero,FL375,XX-375 XX375 #XX375 375 #375 FL375,"8017 Plaza del Lago Dr., Ste. 115",FL,33928
Sport Clips,Ft. Myers,FL376,XX-376 XX376 #XX376 376 #376 FL376,"9902 Gulf Coast Main St., Ste. D142",FL,33913
Sport Clips,Naples,FL377,XX-377 XX377 #XX377 377 #377 FL377,1410 Pine Ridge Rd. #2,FL,34109
Sport Clips,Naples,FL378,XX-378 XX378 #XX378 378 #378 FL378,2415 Tarpon Bay Blvd. Unit 6,FL,34119
Sport Clips,Naples,FL379,XX-379 XX379 #XX379 379 #379 FL379,13040 Livingston Road,FL,34105
Sport Clips,Jacksonville,FL403,XX-403 XX403 #XX403 403 #403 FL403,13170 Atlantic Blvd.,FL,32225
Sport Clips,Jacksonville,FL407,XX-407 XX407 #XX407 407 #407 FL407,"13760 Old St. Augustine Rd., Suite 113",FL,32258
Sport Clips,Gulf Breeze,FL480,XX-480 XX480 #XX480 480 #480 FL480,3711 Gulf Breeze Parkway,FL,32563
Sport Clips,Milton,FL481,XX-481 XX481 #XX481 481 #481 FL481,4816 US Hwy 90,FL,32571
Sport Clips,Pensacola,FL482,XX-482 XX482 #XX482 482 #482 FL482,5147-B Bayou Blvd.,FL,32503
Sport Clips,Ft. Walton Beach,FL483,XX-483 XX483 #XX483 483 #483 FL483,450 E. Racetrack Rd. NW,FL,32547
Sport Clips,Miami,FL502,XX-502 XX502 #XX502 502 #502 FL502,12305 SW 137th Ave,FL,33186
Sport Clips,Doral,FL503,XX-503 XX503 #XX503 503 #503 FL503,10481 NW 41st Street,FL,33178
Sport Clips,Lakeland,FL601,XX-601 XX601 #XX601 601 #601 FL601,3615 South Florida Ave. Suite #1330,FL,33803
Sport Clips,Lakeland,FL602,XX-602 XX602 #XX602 602 #602 FL602,4151 US Highway 98 North,FL,33809
Sport Clips,Panama City,FL701,XX-701 XX701 #XX701 701 #701 FL701,426 W. 23rd Street,FL,32405
Sport Clips,Tallahassee,FL801,XX-801 XX801 #XX801 801 #801 FL801,3495-4 Thomasville Road,FL,32309
Sport Clips,Tallahassee,FL802,XX-802 XX802 #XX802 802 #802 FL802,3122 Mahan Drive Suite 702,FL,32317
Sport Clips,Roswell,GA102,XX-102 XX102 #XX102 102 #102 GA102,"1105 Woodstock Rd., Ste. 120",GA,30075
Sport Clips,Atlanta,GA103,XX-103 XX103 #XX103 103 #103 GA103,"2090 Dunwoody Club Dr., Suite 122",GA,30350
Sport Clips,Alpharetta,GA104,XX-104 XX104 #XX104 104 #104 GA104,5250 Winward Parkway,GA,30004
Sport Clips,Woodstock,GA105,XX-105 XX105 #XX105 105 #105 GA105,"1428 Towne Lake Pkwy, Ste. 103",GA,30189
Sport Clips,Duluth,GA107,XX-107 XX107 #XX107 107 #107 GA107,6600 Sugarloaf Parkway,GA,30097
Sport Clips,Norcross,GA108,XX-108 XX108 #XX108 108 #108 GA108,5275 Peachtree Parkway #104,GA,30092
Sport Clips,Marietta,GA109,XX-109 XX109 #XX109 109 #109 GA109,4880 Lower Roswell Rd Suite 490,GA,30068
Sport Clips,McDonough,GA110,XX-110 XX110 #XX110 110 #110 GA110,1140 Hwy 20/81 West,GA,30253
Sport Clips,Hiram,GA111,XX-111 XX111 #XX111 111 #111 GA111,4795 Jimmy Lee Pkwy.,GA,30141
Sport Clips,Snellville,GA112,XX-112 XX112 #XX112 112 #112 GA112,"1699 Scenic Hwy., Ste. 101",GA,30078
Sport Clips,Cumming,GA114,XX-114 XX114 #XX114 114 #114 GA114,1574 Marketplace Blvd.,GA,30041
Sport Clips,Acworth,GA116,XX-116 XX116 #XX116 116 #116 GA116,"3345 N. Cobb Parkway, Ste. 200",GA,30101
Sport Clips,Suwanee,GA117,XX-117 XX117 #XX117 117 #117 GA117,3105 Peachtree Parkway Suite 102,GA,30024
Sport Clips,Loganville,GA118,XX-118 XX118 #XX118 118 #118 GA118,"4044 Atlanta Hwy., Suite 800",GA,30052
Sport Clips,Newnan,GA119,XX-119 XX119 #XX119 119 #119 GA119,335 Newnan Crossing Bypass suite C,GA,30265
Sport Clips,Canton,GA120,XX-120 XX120 #XX120 120 #120 GA120,1810 Cumming Highway,GA,30114
Sport Clips,Marietta,GA121,XX-121 XX121 #XX121 121 #121 GA121,"3154 Johnson Ferry Road, Ste. 104",GA,30062
Sport Clips,Buford,GA122,XX-122 XX122 #XX122 122 #122 GA122,3410 Buford Dr. Suite G420,GA,30519
Sport Clips,Atlanta,GA123,XX-123 XX123 #XX123 123 #123 GA123,1155 Mt. Vernon Hwy. Suite 460,GA,30338
Sport Clips,Alpharetta,GA124,XX-124 XX124 #XX124 124 #124 GA124,2622 Holcomb Bridge Rd. Suite 120,GA,30022
Sport Clips,Atlanta,GA125,XX-125 XX125 #XX125 125 #125 GA125,"3655 Roswell Road, NE Suite 220",GA,30342
Sport Clips,Gainesville,GA126,XX-126 XX126 #XX126 126 #126 GA126,890 C Dawsonville Hwy.,GA,30501
Sport Clips,Johns Creek,GA127,XX-127 XX127 #XX127 127 #127 GA127,9775 Medlock Bridge Road Suite E,GA,30097
Sport Clips,Douglasville,GA128,XX-128 XX128 #XX128 128 #128 GA128,6977 B Concourse Parkway,GA,30134
Sport Clips,Atlanta,GA129,XX-129 XX129 #XX129 129 #129 GA129,1715 Howell Mill Road NW #11,GA,30318
Sport Clips,Dawsonville,GA130,XX-130 XX130 #XX130 130 #130 GA130,143 Power Center Dr #140,GA,30534
Sport Clips,Athens,GA131,XX-131 XX131 #XX131 131 #131 GA131,1791 Oconee Connector #545,GA,30606
Sport Clips,Peachtree City,GA133,XX-133 XX133 #XX133 133 #133 GA133,2727 Hwy 54 West,GA,30269
Sport Clips,Atlanta,GA134,XX-134 XX134 #XX134 134 #134 GA134,2566 Briarcliff Rd. NE #110,GA,30329
Sport Clips,Marietta ,GA135,XX-135 XX135 #XX135 135 #135 GA135,3600 Dallas Highway,GA,30064
Sport Clips,Brunswick,GA201,XX-201 XX201 #XX201 201 #201 GA201,727 Glynn Isles,GA,31525
Sport Clips,Columbus,GA301,XX-301 XX301 #XX301 301 #301 GA301,5413 Whittlesey Blvd. Suite B,GA,31909
Sport Clips,Savannah,GA401,XX-401 XX401 #XX401 401 #401 GA401,7929 Abercorn St. Suite 400,GA,31406
Sport Clips,Pooler,GA402,XX-402 XX402 #XX402 402 #402 GA402,50 Traders Way,GA,31322
Sport Clips,Savannah,GA403,XX-403 XX403 #XX403 403 #403 GA403,"50 Berwick Blvd., Ste. 340",GA,31419
Sport Clips,Rincon,GA404,XX-404 XX404 #XX404 404 #404 GA404,"410 South Columbia Ave., Suite EE",GA,31326
Sport Clips,Evans,GA501,XX-501 XX501 #XX501 501 #501 GA501,"4446 Washington Rd., Ste. 5",GA,30809
Sport Clips,Augusta,GA503,XX-503 XX503 #XX503 503 #503 GA503,2807 Washington Walk,GA,30909
Sport Clips,Dalton,GA550,XX-550 XX550 #XX550 550 #550 GA550,1323 West Walnut Avenue #4,GA,30722
Sport Clips,Macon,GA601,XX-601 XX601 #XX601 601 #601 GA601,5932 Zebulon Road,GA,31210
Sport Clips,Warner Robins,GA602,XX-602 XX602 #XX602 602 #602 GA602,2945 Watson Blvd #3,GA,31093
Sport Clips,Statesboro,GA701,XX-701 XX701 #XX701 701 #701 GA701,701 Piedmont Loop Suite 400,GA,30458
Sport Clips,Valdosta,GA801,XX-801 XX801 #XX801 801 #801 GA801,1650 Baytree Rd. Suite B,GA,31602
Sport Clips,Waipahu,HI101,XX-101 XX101 #XX101 101 #101 HI101,94-050 Farrington Highway #B1-8,HI,96797
Sport Clips,West Des Moines,IA101,XX-101 XX101 #XX101 101 #101 IA101,5926 Ashworth Rd.,IA,50266
Sport Clips,Johnston,IA102,XX-102 XX102 #XX102 102 #102 IA102,"8460 Birchwood Crossing Court, Bay 4",IA,50131
Sport Clips,Ames,IA103,XX-103 XX103 #XX103 103 #103 IA103,1310 South Duff Ave. Ste. 108,IA,50010
Sport Clips,Clive,IA104,XX-104 XX104 #XX104 104 #104 IA104,"9901 University Ave., Ste. 200",IA,50325
Sport Clips,Ankeny,IA105,XX-105 XX105 #XX105 105 #105 IA105,1690 SE Delaware Avenue,IA,50021
Sport Clips,Clive,IA106,XX-106 XX106 #XX106 106 #106 IA106,"2180 NW 156th St, Suite 104",IA,50325
Sport Clips,Des Moines,IA107,XX-107 XX107 #XX107 107 #107 IA107,"4301 Fleur Drive, Suite 16B",IA,50321
Sport Clips,West Des Moines,IA108,XX-108 XX108 #XX108 108 #108 IA108,"5010 Mills Civic Pkwy, #108",IA,50265
Sport Clips,Des Moines,IA109,XX-109 XX109 #XX109 109 #109 IA109,5836 Douglas,IA,50266
Sport Clips,Cedar Rapids,IA201,XX-201 XX201 #XX201 201 #201 IA201,1100 Blairs Ferry Rd. NE,IA,52402
Sport Clips,Coralville,IA202,XX-202 XX202 #XX202 202 #202 IA202,2439 2nd St.,IA,52241
Sport Clips,Cedar Rapids,IA203,XX-203 XX203 #XX203 203 #203 IA203,2315 Edgewood Rd.,IA,52404
Sport Clips,North Liberty,IA204,XX-204 XX204 #XX204 204 #204 IA204,675 Pacha Parkway Unit C,IA,52317
Sport Clips,Sioux City,IA302,XX-302 XX302 #XX302 302 #302 IA302,5001 Sergeant Rd Space 25,IA,51106
Sport Clips,Dubuque,IA401,XX-401 XX401 #XX401 401 #401 IA401,2805 NW Arterial Suite 2,IA,52002
Sport Clips,Boise,ID101,XX-101 XX101 #XX101 101 #101 ID101,3625 S. Federal Way,ID,83705
Sport Clips,Meridian,ID102,XX-102 XX102 #XX102 102 #102 ID102,3355 E. Fairview Ave. Ste. 102,ID,83642
Sport Clips,Boise,ID103,XX-103 XX103 #XX103 103 #103 ID103,1468 S. Entertainment Ave,ID,83709
Sport Clips,Nampa,ID104,XX-104 XX104 #XX104 104 #104 ID104,16724 N. Marketplace Blvd.,ID,83687
Sport Clips,Eagle,ID105,XX-105 XX105 #XX105 105 #105 ID105,3116 E. State Street Suite 120,ID,83616
Sport Clips,Boise,ID106,XX-106 XX106 #XX106 106 #106 ID106,1749 W. State St.,ID,83702
Sport Clips,Idaho Falls,ID201,XX-201 XX201 #XX201 201 #201 ID201,756 E. 17th Street,ID,83404
Sport Clips,Pocatello,ID202,XX-202 XX202 #XX202 202 #202 ID202,231 West Quinn Rd. Suite D,ID,83202
Sport Clips,Hayden,ID401,XX-401 XX401 #XX401 401 #401 ID401,93 West Prairie ,ID,83835
Sport Clips,Orland Hills,IL101,XX-101 XX101 #XX101 101 #101 IL101,9239 W. 159th St.,IL,60477
Sport Clips,Schaumburg,IL102,XX-102 XX102 #XX102 102 #102 IL102,2474 Schaumburg Rd.,IL,60194
Sport Clips,Batavia,IL103,XX-103 XX103 #XX103 103 #103 IL103,834 N. Randall Rd.,IL,60510
Sport Clips,Algonquin,IL104,XX-104 XX104 #XX104 104 #104 IL104,434 S. Randall Rd.,IL,60102
Sport Clips,Bloomingdale,IL105,XX-105 XX105 #XX105 105 #105 IL105,"366 W. Army Trail Road, Suite #340",IL,60108
Sport Clips,Darien,IL106,XX-106 XX106 #XX106 106 #106 IL106,2445 75th St. Bldg. A-Unit B,IL,60561
Sport Clips,Carol Stream,IL107,XX-107 XX107 #XX107 107 #107 IL107,537 S. Schmale,IL,60188
Sport Clips,Vernon Hills,IL108,XX-108 XX108 #XX108 108 #108 IL108,"701 N. Milwaukee, Ste. 120",IL,60061
Sport Clips,Cary,IL109,XX-109 XX109 #XX109 109 #109 IL109,632 W NW Hwy,IL,60013
Sport Clips,Plainfield,IL110,XX-110 XX110 #XX110 110 #110 IL110,"12640 S. Route 59, Unit 400",IL,60585
Sport Clips,Oak Lawn,IL111,XX-111 XX111 #XX111 111 #111 IL111,10549 S. Cicero Ave.,IL,60453
Sport Clips,South Elgin,IL112,XX-112 XX112 #XX112 112 #112 IL112,476 Randall Rd.,IL,60177
Sport Clips,Naperville,IL113,XX-113 XX113 #XX113 113 #113 IL113,760 N. Rt. 59   Ste 116,IL,60510
Sport Clips,Gurnee,IL114,XX-114 XX114 #XX114 114 #114 IL114,"6409 Grand Ave., Suite A",IL,60031
Sport Clips,Glen Ellyn,IL115,XX-115 XX115 #XX115 115 #115 IL115,717 Roosevelt Rd.,IL,60137
Sport Clips,Homer Glen,IL116,XX-116 XX116 #XX116 116 #116 IL116,14005 S. Bell Rd.,IL,60491
Sport Clips,Woodridge,IL117,XX-117 XX117 #XX117 117 #117 IL117,6430 Main St. Ste. #110,IL,60517
Sport Clips,Shorewood,IL118,XX-118 XX118 #XX118 118 #118 IL118,1031 Brook Forest Dr.,IL,60404
Sport Clips,Lombard,IL119,XX-119 XX119 #XX119 119 #119 IL119,429 E  Roosevelt Rd,IL,60148
Sport Clips,Crystal Lake,IL120,XX-120 XX120 #XX120 120 #120 IL120,5899 Northwest Highway,IL,60014
Sport Clips,McHenry,IL121,XX-121 XX121 #XX121 121 #121 IL121,2451 Richmond Road,IL,60050
Sport Clips,Elmhurst,IL122,XX-122 XX122 #XX122 122 #122 IL122,692 W. North Ave,IL,60126
Sport Clips,Niles,IL123,XX-123 XX123 #XX123 123 #123 IL123,5944 West Touhy Avenue,IL,60714
Sport Clips,Bolingbrook,IL124,XX-124 XX124 #XX124 124 #124 IL124,722 East Boughton Rd.,IL,60440
Sport Clips,Northbrook,IL125,XX-125 XX125 #XX125 125 #125 IL125,"984 Willow Rd., Ste. D",IL,60062
Sport Clips,Bolingbrook,IL126,XX-126 XX126 #XX126 126 #126 IL126,139 N. Weber Rd.,IL,60490
Sport Clips,Mokena,IL127,XX-127 XX127 #XX127 127 #127 IL127,19854 S. LaGrange Rd.,IL,60448
Sport Clips,Oswego,IL129,XX-129 XX129 #XX129 129 #129 IL129,2430 Rt. 34,IL,60543
Sport Clips,Naperville,IL130,XX-130 XX130 #XX130 130 #130 IL130,2728 W. 75th St.,IL,60564
Sport Clips,Romeoville,IL131,XX-131 XX131 #XX131 131 #131 IL131,408 Weber Road,IL,60446
Sport Clips,Rolling Meadows,IL132,XX-132 XX132 #XX132 132 #132 IL132,1697 E. Algonquin Rd.,IL,60008
Sport Clips,Burbank,IL133,XX-133 XX133 #XX133 133 #133 IL133,7933 Harlem Ave.,IL,60459
Sport Clips,Willowbrook,IL134,XX-134 XX134 #XX134 134 #134 IL134,"7185 South Kingery Highway, Unit L3",IL,60527
Sport Clips,Carpentersville,IL135,XX-135 XX135 #XX135 135 #135 IL135,"27 S. Western Ave., Ste. D",IL,60110
Sport Clips,Park Ridge,IL136,XX-136 XX136 #XX136 136 #136 IL136,35 S. Northwest Highway,IL,60068
Sport Clips,St. Charles,IL137,XX-137 XX137 #XX137 137 #137 IL137,"1940 West Main St., Suite F",IL,60174
Sport Clips,Streamwood,IL138,XX-138 XX138 #XX138 138 #138 IL138,1058 S. Sutton Road,IL,60107
Sport Clips,South Barrington,IL139R,XX-139R XX139R #XX139R 139R #139R IL139R,100 W. Higgins Rd #M-25,IL,60010
Sport Clips,New Lenox,IL140,XX-140 XX140 #XX140 140 #140 IL140,420 E. Lincoln Highway,IL,60451
Sport Clips,Mt. Prospect,IL141,XX-141 XX141 #XX141 141 #141 IL141,110 E. Kensington Rd.,IL,60056
Sport Clips,Yorkville,IL142,XX-142 XX142 #XX142 142 #142 IL142,735 Erica Ln.,IL,60560
Sport Clips,Bannockburn,IL143,XX-143 XX143 #XX143 143 #143 IL143,2563 Waukegan Road,IL,60015
Sport Clips,Round Lake Beach,IL144,XX-144 XX144 #XX144 144 #144 IL144,1920 N. IL Route 83,IL,60073
Sport Clips,Evanston,IL145,XX-145 XX145 #XX145 145 #145 IL145,822 Clark St.,IL,60201
Sport Clips,Wheaton,IL146,XX-146 XX146 #XX146 146 #146 IL146,"801 East Butterfield Rd., Ste. 103",IL,60189
Sport Clips,Naperville,IL147,XX-147 XX147 #XX147 147 #147 IL147,2936 Showplace Dr. #118,IL,60564
Sport Clips,Lake Zurich,IL148,XX-148 XX148 #XX148 148 #148 IL148,195 S. Rand. Rd.,IL,60047
Sport Clips,Long Grove,IL149,XX-149 XX149 #XX149 149 #149 IL149,4188 N. IL Route 83,IL,60047
Sport Clips,Orland Park,IL150,XX-150 XX150 #XX150 150 #150 IL150,13133 S. LaGrange Road,IL,60462
Sport Clips,Skokie,IL151,XX-151 XX151 #XX151 151 #151 IL151,9404 Skokie Blvd.,IL,60077
Sport Clips,Arlington Heights,IL152,XX-152 XX152 #XX152 152 #152 IL152,47 S. Evergreen,IL,60005
Sport Clips,LaGrange,IL153,XX-153 XX153 #XX153 153 #153 IL153,34 N La Grange Rd,IL,60525
Sport Clips,Downers Grove,IL154,XX-154 XX154 #XX154 154 #154 IL154,334 Ogden Ave Suite 1004,IL,60515
Sport Clips,Wheaton,IL156,XX-156 XX156 #XX156 156 #156 IL156,2117 W. Roosevelt Road,IL,60187
Sport Clips,Palatine,IL157,XX-157 XX157 #XX157 157 #157 IL157,1590 North Rand Road Suite J,IL,60067
Sport Clips,Naperville,IL158,XX-158 XX158 #XX158 158 #158 IL158,Chicago & Washington,IL,60540
Sport Clips,Schaumburg,IL159,XX-159 XX159 #XX159 159 #159 IL159,130 E. Golf Rd,IL,60173
Sport Clips,Elgin,IL161,XX-161 XX161 #XX161 161 #161 IL161,849 S Randall Rd.,IL,60123
Sport Clips,Addison,IL162,XX-162 XX162 #XX162 162 #162 IL162,1072 N Rohlwing Rd.,IL,60101
Sport Clips,Libertyville,IL165,XX-165 XX165 #XX165 165 #165 IL165,878 S. Milwaukee Ave.,IL,60048
Sport Clips,Waukegan,IL166,XX-166 XX166 #XX166 166 #166 IL166,3929 Fountain Square Place,IL,60085
Sport Clips,Sycamore,IL168,XX-168 XX168 #XX168 168 #168 IL168,2686 Dekalb Avenue,IL,60178
Sport Clips,Elk Grove Village,IL170,XX-170 XX170 #XX170 170 #170 IL170,711 Meacham Road,IL,60007
Sport Clips,Chicago,IL201,XX-201 XX201 #XX201 201 #201 IL201,1223 W. Fullerton Ave.,IL,60614
Sport Clips,Montgomery,IL202A,XX-202A XX202A #XX202A 202A #202A IL202A,2077 Orchard Rd.,IL,60538
Sport Clips,Chicago,IL203,XX-203 XX203 #XX203 203 #203 IL203,3452 N. Clark St.,IL,60657
Sport Clips,Chicago,IL204,XX-204 XX204 #XX204 204 #204 IL204,3235 N. Ashland Ave.,IL,60657
Sport Clips,Chicago,IL205,XX-205 XX205 #XX205 205 #205 IL205,10 E. Harrison,IL,60605
Sport Clips,Chicago,IL206,XX-206 XX206 #XX206 206 #206 IL206,1444 N. Wells St.,IL,60610
Sport Clips,Chicago,IL207,XX-207 XX207 #XX207 207 #207 IL207,44 E Superior St #1,IL,60611
Sport Clips,Chicago,IL208,XX-208 XX208 #XX208 208 #208 IL208,539 W. Diversey Parkway,IL,60614
Sport Clips,Bradley,IL301,XX-301 XX301 #XX301 301 #301 IL301,840 N. Kinzie Ave.,IL,60915
Sport Clips,Machesney Park,IL401,XX-401 XX401 #XX401 401 #401 IL401,1554 West Lane Road,IL,61115
Sport Clips,Rockford,IL402,XX-402 XX402 #XX402 402 #402 IL402,575 S. Perryville Rd #111,IL,61108
Sport Clips,Peoria,IL501,XX-501 XX501 #XX501 501 #501 IL501,4203 N. Sheridan Suite A1-2,IL,61614
Sport Clips,Bloomington,IL502,XX-502 XX502 #XX502 502 #502 IL502,1407 N. Veterans Parkway Suite 11,IL,61704
Sport Clips,O'Fallon,IL601,XX-601 XX601 #XX601 601 #601 IL601,"1407 W. Highway 50,  Ste 105",IL,62269
Sport Clips,Marion,IL602,XX-602 XX602 #XX602 602 #602 IL602,2406 Williamson County Parkway,IL,62959
Sport Clips,Carbondale,IL603,XX-603 XX603 #XX603 603 #603 IL603,1254 East Main St.,IL,62901
Sport Clips,Glen Carbon,IL604,XX-604 XX604 #XX604 604 #604 IL604,102 Junction Drive,IL,62034
Sport Clips,Collinsville,IL605,XX-605 XX605 #XX605 605 #605 IL605,1128 Collinsville Crossing,IL,62234
Sport Clips,Springfield,IL702,XX-702 XX702 #XX702 702 #702 IL702,2971 Lindbergh,IL,62711
Sport Clips,Champaign,IL703,XX-703 XX703 #XX703 703 #703 IL703,1733 Kirby Ave #B-11,IL,61821
Sport Clips,Champaign,IL704,XX-704 XX704 #XX704 704 #704 IL704,1903 N Neil st. Suite A,IL,61820
Sport Clips,Carmel,IN102,XX-102 XX102 #XX102 102 #102 IN102,1950-11 E. Greyhound Pass,IN,46033
Sport Clips,Fishers,IN103,XX-103 XX103 #XX103 103 #103 IN103,11440 Olio Rd.,IN,46038
Sport Clips,Greenwood,IN104,XX-104 XX104 #XX104 104 #104 IN104,3147 W Smith Valley Rd Ste B,IN,46142
Sport Clips,Indianapolis,IN105,XX-105 XX105 #XX105 105 #105 IN105,9210 Rockville Rd. Ste. B-2,IN,46220
Sport Clips,Fishers,IN106,XX-106 XX106 #XX106 106 #106 IN106,11680 Commercial Dr. Ste. 600 Building B,IN,46038
Sport Clips,Indianapolis,IN107,XX-107 XX107 #XX107 107 #107 IN107,7411 N. Keystone Ave.,IN,46240
Sport Clips,Carmel,IN108,XX-108 XX108 #XX108 108 #108 IN108,10485 N. Michigan Rd.,IN,46032
Sport Clips,Indianapolis,IN109,XX-109 XX109 #XX109 109 #109 IN109,10935 East Washington St,IN,46229
Sport Clips,Greenwood,IN110,XX-110 XX110 #XX110 110 #110 IN110,1279 Emerson Ave,IN,46142
Sport Clips,Indianapolis,IN111,XX-111 XX111 #XX111 111 #111 IN111,7305 E. 96th St.,IN,46250
Sport Clips,Brownsburg,IN112,XX-112 XX112 #XX112 112 #112 IN112,321 West Northfield Dr.,IN,46112
Sport Clips,Noblesville,IN114,XX-114 XX114 #XX114 114 #114 IN114,16625 Mercantile Blvd,IN,46060
Sport Clips,Indianapolis,IN115,XX-115 XX115 #XX115 115 #115 IN115,"1345 West Southport Road, Suite 9",IN,46217
Sport Clips,Indianapolis,IN116,XX-116 XX116 #XX116 116 #116 IN116,2902  W 86th St.,IN,46268
Sport Clips,Carmel ,IN117,XX-117 XX117 #XX117 117 #117 IN117,12570 N. Gray Road,IN,46033
Sport Clips,Greenwood ,IN118,XX-118 XX118 #XX118 118 #118 IN118,2143 Independence Drive,IN,46143
Sport Clips,Plainfield,IN119,XX-119 XX119 #XX119 119 #119 IN119,"2683 East Main Street, Suite 109",IN,46168
Sport Clips,Bloomington,IN120,XX-120 XX120 #XX120 120 #120 IN120,2656 East 3rd Street,IN,47401
Sport Clips,Indianapolis,IN121,XX-121 XX121 #XX121 121 #121 IN121,11725 Fox Rd Suite A,IN,46236
Sport Clips,Carmel,IN122,XX-122 XX122 #XX122 122 #122 IN122,12249 N Meridian St.,IN,46032
Sport Clips,Indianapolis,IN123,XX-123 XX123 #XX123 123 #123 IN123,"7460 N. Shadeland Ave., Suite 300",IN,46250
Sport Clips,Kokomo,IN124,XX-124 XX124 #XX124 124 #124 IN124,2028 S. Reed Rd,IN,46902
Sport Clips,Lafayette,IN201,XX-201 XX201 #XX201 201 #201 IN201,100 S. Creasy Ln. #1280,IN,47905
Sport Clips,Muncie,IN301,XX-301 XX301 #XX301 301 #301 IN301,1509 West McGalliard Road,IN,47304
Sport Clips,Fort Wayne,IN401,XX-401 XX401 #XX401 401 #401 IN401,10250 Coldwater Road,IN,46825
Sport Clips,Fort Wayne,IN402,XX-402 XX402 #XX402 402 #402 IN402,4415 Coldwater Road,IN,46825
Sport Clips,Granger,IN501,XX-501 XX501 #XX501 501 #501 IN501,113 East University Dr.,IN,46530
Sport Clips,South Bend,IN502,XX-502 XX502 #XX502 502 #502 IN502,52931 State Road 933 North,IN,46637
Sport Clips,Valparaiso,IN601,XX-601 XX601 #XX601 601 #601 IN601,71 Silhavy Road Suite 131,IN,46383
Sport Clips,Schererville,IN602,XX-602 XX602 #XX602 602 #602 IN602,1519 US Hwy 41 Suite B10,IN,46375
Sport Clips,Overland Park,KS101,XX-101 XX101 #XX101 101 #101 KS101,6784 West 135th Street,KS,66223
Sport Clips,Shawnee,KS102,XX-102 XX102 #XX102 102 #102 KS102,16318 W. 65th,KS,66217
Sport Clips,Olathe,KS103,XX-103 XX103 #XX103 103 #103 KS103,13780 Blackbob Road,KS,66062
Sport Clips,Overland Park,KS104,XX-104 XX104 #XX104 104 #104 KS104,12060 Blue Valley Parkway,KS,66213
Sport Clips,Olathe,KS105,XX-105 XX105 #XX105 105 #105 KS105,14961 W. 119th St.,KS,66062
Sport Clips,Olathe,KS106,XX-106 XX106 #XX106 106 #106 KS106,291 N. K-7 Hwy.,KS,66061
Sport Clips,Shawnee,KS107,XX-107 XX107 #XX107 107 #107 KS107,6630 Monticello Road,KS,66226
Sport Clips,Overland Park,KS108,XX-108 XX108 #XX108 108 #108 KS108,8815 Metcalf Avenue,KS,66212
Sport Clips,Overland Park,KS109,XX-109 XX109 #XX109 109 #109 KS109,"8001 151st St., Ste. 101",KS,66223
Sport Clips,Mission,KS110,XX-110 XX110 #XX110 110 #110 KS110,6023 Metcalf Avenue,KS,66202
Sport Clips,Olathe,KS111,XX-111 XX111 #XX111 111 #111 KS111,20176 West 153rd Street,KS,66062
Sport Clips,Lenexa,KS112,XX-112 XX112 #XX112 112 #112 KS112,13220 W. 87th St. Pkwy.,KS,66215
Sport Clips,Lawrence,KS201,XX-201 XX201 #XX201 201 #201 KS201,3140 Iowa St. Suite 106,KS,66049
Sport Clips,Topeka,KS301,XX-301 XX301 #XX301 301 #301 KS301,1223 SW Wanamaker Rd,KS,66604
Sport Clips,Manhattan,KS302,XX-302 XX302 #XX302 302 #302 KS302,705 N. 3rd Place,KS,66502
Sport Clips,Wichita,KS901,XX-901 XX901 #XX901 901 #901 KS901,2357 N. Maize Road Suite 111,KS,67205
Sport Clips,Derby,KS902,XX-902 XX902 #XX902 902 #902 KS902,"1636 N.  Rock Road, Suite 300",KS,67037
Sport Clips,Wichita,KS903,XX-903 XX903 #XX903 903 #903 KS903,"7777 E. 21st Street, Ste. 140",KS,67206
Sport Clips,Wichita,KS905,XX-905 XX905 #XX905 905 #905 KS905,7130 W. Maple Suite 130,KS,67209
Sport Clips,Louisville,KY101,XX-101 XX101 #XX101 101 #101 KY101,3549 Springhurst Blvd.,KY,40241
Sport Clips,Louisville,KY102,XX-102 XX102 #XX102 102 #102 KY102,8800-A Dixie Hwy.,KY,40258
Sport Clips,Clarksville,KY103,XX-103 XX103 #XX103 103 #103 KY103,"1370 Veterans Parkway, Suite 900",IN,47129
Sport Clips,Louisville,KY104,XX-104 XX104 #XX104 104 #104 KY104,972 Breckenridge Ln.,KY,40207
Sport Clips,Louisville,KY105,XX-105 XX105 #XX105 105 #105 KY105,12613 Shelbyville Road,KY,40243
Sport Clips,Louisville,KY106,XX-106 XX106 #XX106 106 #106 KY106,1223 South Hurstbourne Pkwy,KY,40222
Sport Clips,Elizabethtown,KY107,XX-107 XX107 #XX107 107 #107 KY107,1811 North Dixie Ave #100,KY,42701
Sport Clips,Ft. Wright,KY201,XX-201 XX201 #XX201 201 #201 KY201,1990 Highland Pike,KY,41017
Sport Clips,Highland Heights,KY202,XX-202 XX202 #XX202 202 #202 KY202,2519 Wilson Ave,KY,41076
Sport Clips,Florence,KY203,XX-203 XX203 #XX203 203 #203 KY203,6805 Houston Road #200,KY,41042
Sport Clips,Newport,KY204,XX-204 XX204 #XX204 204 #204 KY204,91 Carothers Rd. ,KY,41071
Sport Clips,Lexington,KY301,XX-301 XX301 #XX301 301 #301 KY301,3090 Helmsdale Place Suite 320,KY,40509
Sport Clips,Bowling Green,KY401,XX-401 XX401 #XX401 401 #401 KY401,2435 Nashville Road Suite 108,KY,42104
Sport Clips,Lafayette,LA101,XX-101 XX101 #XX101 101 #101 LA101,120 Curran Lane Suite C1,LA,70506
Sport Clips,Lafayette,LA102,XX-102 XX102 #XX102 102 #102 LA102,"200 Production Dr., Ste. 1-18",LA,70508
Sport Clips,Baton Rouge,LA201,XX-201 XX201 #XX201 201 #201 LA201,"3132 College Drive, Ste. A2",LA,70808
Sport Clips,Baton Rouge,LA202,XX-202 XX202 #XX202 202 #202 LA202,7089 Siegen Lane,LA,70809
Sport Clips,Prairieville,LA203,XX-203 XX203 #XX203 203 #203 LA203,"37436 Ultima Plaza Blvd., Ste. E",LA,70769
Sport Clips,Denham Springs,LA204,XX-204 XX204 #XX204 204 #204 LA204,"240 Range 12 Blvd., Ste. 110",LA,70726
Sport Clips,Shreveport,LA301,XX-301 XX301 #XX301 301 #301 LA301,7040 Youree Dr.,LA,71105
Sport Clips,Bossier City,LA302,XX-302 XX302 #XX302 302 #302 LA302,"2300 Airline Dr., Ste. 400",LA,71111
Sport Clips,Sulphur,LA401,XX-401 XX401 #XX401 401 #401 LA401,309 N. Cities Service Hwy,LA,70663
Sport Clips,Kenner,LA602,XX-602 XX602 #XX602 602 #602 LA602,"2701 Veteran's Blvd., Suite 301",LA,70062
Sport Clips,Covington,LA603,XX-603 XX603 #XX603 603 #603 LA603,3039 Pinnacle Parkway Suite H-120,LA,70433
Sport Clips,Metairie,LA604,XX-604 XX604 #XX604 604 #604 LA604,3535 Severn Ave. Suite 4,LA,70002
Sport Clips,E. Falmouth,MA101,XX-101 XX101 #XX101 101 #101 MA101,137 Teaticket Hwy,MA,2536
Sport Clips,Andover,MA102,XX-102 XX102 #XX102 102 #102 MA102,209 North Main Street,MA,1810
Sport Clips,Revere,MA103,XX-103 XX103 #XX103 103 #103 MA103,31 Furlong Dr. Suite D,MA,2151
Sport Clips,Burlington,MA105,XX-105 XX105 #XX105 105 #105 MA105,10 Wall St.,MA,1803
Sport Clips,Danvers,MA106,XX-106 XX106 #XX106 106 #106 MA106,35 Independence Way,MA,1923
Sport Clips,Westminster,MD101,XX-101 XX101 #XX101 101 #101 MD101,625 Baltimore Blvd. Suite J,MD,21157
Sport Clips,Severna Park,MD102,XX-102 XX102 #XX102 102 #102 MD102,"580 Ritchie Hwy, Suite G",MD,21146
Sport Clips,Towson,MD103,XX-103 XX103 #XX103 103 #103 MD103,6376 York Rd.,MD,21212
Sport Clips,Bel Air,MD104,XX-104 XX104 #XX104 104 #104 MD104,696 Bel Air Rd. Suite J13,MD,21014
Sport Clips,Owings Mills,MD105,XX-105 XX105 #XX105 105 #105 MD105,10357 Reistertown Rd.,MD,21117
Sport Clips,Annapolis,MD106,XX-106 XX106 #XX106 106 #106 MD106,2329F Forest Dr.,MD,21401
Sport Clips,Abingdon,MD107,XX-107 XX107 #XX107 107 #107 MD107,412 A-2A Constant Friendship Blvd,MD,21009
Sport Clips,Columbia,MD108,XX-108 XX108 #XX108 108 #108 MD108,6476 Dobbin Center Way ,MD,21045
Sport Clips,Stevensville,MD109,XX-109 XX109 #XX109 109 #109 MD109,346 Thompson Creek Mall Road,MD,21666
Sport Clips,Nottingham,MD110,XX-110 XX110 #XX110 110 #110 MD110,"8153 Honeygo Blvd., Ste. J",MD,21236
Sport Clips,Timonium,MD111,XX-111 XX111 #XX111 111 #111 MD111,47 W. Aylesbury Rd.,MD,21093
Sport Clips,Parkville,MD112,XX-112 XX112 #XX112 112 #112 MD112,1959 E. Joppa Road,MD,21234
Sport Clips,Glen Burnie,MD114,XX-114 XX114 #XX114 114 #114 MD114,6720 Ritchie Highway Suite D2,MD,21060
Sport Clips,Pasadena,MD115,XX-115 XX115 #XX115 115 #115 MD115,4139 Mountain Road,MD,21122
Sport Clips,Towson,MD116,XX-116 XX116 #XX116 116 #116 MD116,1252 Putty Hill Avenue,MD,21286
Sport Clips,Edgewater,MD117,XX-117 XX117 #XX117 117 #117 MD117,3275-A Solomons Island Road,MD,21037
Sport Clips,Middle River,MD118,XX-118 XX118 #XX118 118 #118 MD118,1410 Martin Boulevard,MD,21220
Sport Clips,Fullerton,MD119,XX-119 XX119 #XX119 119 #119 MD119,7964 Belair Rd.,MD,21236
Sport Clips,Eldersburg,MD120,XX-120 XX120 #XX120 120 #120 MD120,"6300 Georgetown Blvd, Suite 129",MD,21784
Sport Clips,Gambrills,MD121,XX-121 XX121 #XX121 121 #121 MD121,1404 South Main Chapel Way,MD,21054
Sport Clips,Pikesville,MD122,XX-122 XX122 #XX122 122 #122 MD122,1433 Reisterstown Rd.,MD,21208
Sport Clips,Elkridge,MD123,XX-123 XX123 #XX123 123 #123 MD123,7260-B Montgomery Road,MD,21075
Sport Clips,Ellicott City,MD124,XX-124 XX124 #XX124 124 #124 MD124,11085 Resort Road #402,MD,21042
Sport Clips,Hampstead,MD125,XX-125 XX125 #XX125 125 #125 MD125,2320 Hanover Pike #12,MD,21074
Sport Clips,Waldorf,MD201,XX-201 XX201 #XX201 201 #201 MD201,3068 Festival Way,MD,20601
Sport Clips,Prince Frederick ,MD202,XX-202 XX202 #XX202 202 #202 MD202,114 West Dares Beach Rd,MD,20678
Sport Clips,Lexington Park,MD203,XX-203 XX203 #XX203 203 #203 MD203,46400 Lexington Village Way Suite 102,MD,20653
Sport Clips,Frederick,MD301,XX-301 XX301 #XX301 301 #301 MD301,5100 Buckeystown Pike,MD,21704
Sport Clips,Frederick,MD302,XX-302 XX302 #XX302 302 #302 MD302,7820 Wormans Mill Road,MD,21701
Sport Clips,Germantown,MD303,XX-303 XX303 #XX303 303 #303 MD303,13026 Middlebrook Road,MD,20874
Sport Clips,Gaithersburg,MD304,XX-304 XX304 #XX304 304 #304 MD304,488 N. Frederick Ave.,MD,20877
Sport Clips,Gaithersburg,MD305,XX-305 XX305 #XX305 305 #305 MD305,720 Center Point Way,MD,20878
Sport Clips,Salisbury,MD401,XX-401 XX401 #XX401 401 #401 MD401,2657 N Salisbury Rd #103,MD,21804
Sport Clips,Kalamazoo,MI101,XX-101 XX101 #XX101 101 #101 MI101,5304 West Main,MI,49009
Sport Clips,Portage,MI102,XX-102 XX102 #XX102 102 #102 MI102,7101 S. Westnedge Ave.,MI,49002
Sport Clips,New Hudson,MI203,XX-203 XX203 #XX203 203 #203 MI203,30800 Lyon Center Dr. E.,MI,48165
Sport Clips,Muskegon,MI301,XX-301 XX301 #XX301 301 #301 MI301,"5791 Harvey St., Ste. C",MI,49444
Sport Clips,Kentwood,MI401,XX-401 XX401 #XX401 401 #401 MI401,2753 E. Beltine Ave. SE,MI,49546
Sport Clips,Grandville,MI402,XX-402 XX402 #XX402 402 #402 MI402,"4365 Canal Ave., Ste. J",MI,49418
Sport Clips,Walker,MI404,XX-404 XX404 #XX404 404 #404 MI404,4761 Lake Michigan Dr NW,MI,49534
Sport Clips,Caledonia,MI405,XX-405 XX405 #XX405 405 #405 MI405,"1831 Marketplace Drive, SE",MI,49316
Sport Clips,Coon Rapids,MN101,XX-101 XX101 #XX101 101 #101 MN101,3540 Main St. NW,MN,55448
Sport Clips,Oakdale,MN102,XX-102 XX102 #XX102 102 #102 MN102,8340 3rd Street North,MN,55128
Sport Clips,Bloomington,MN103,XX-103 XX103 #XX103 103 #103 MN103,"7817 Southtown Center, Suite 208",MN,55431
Sport Clips,Blaine,MN104,XX-104 XX104 #XX104 104 #104 MN104,"10400 Baltimore St. NE, Suite 190",MN,55449
Sport Clips,Burnsville,MN105,XX-105 XX105 #XX105 105 #105 MN105,"1258 County Road 42, West ",MN,55337
Sport Clips,Minneapolis,MN106,XX-106 XX106 #XX106 106 #106 MN106,931 Washington Ave. SE,MN,55414
Sport Clips,Maple Grove,MN107,XX-107 XX107 #XX107 107 #107 MN107,"7805 Main Street North, Suite 09F",MN,55369
Sport Clips,Plymouth,MN108,XX-108 XX108 #XX108 108 #108 MN108,3570 Vicksburg Lane,MN,55447
Sport Clips,Eagan,MN109,XX-109 XX109 #XX109 109 #109 MN109,1270 Promenade Place,MN,55121
Sport Clips,Eden Prairie,MN110,XX-110 XX110 #XX110 110 #110 MN110,8045 Flying Cloud Drive Suite 120,MN,55344
Sport Clips,Minneapolis,MN111,XX-111 XX111 #XX111 111 #111 MN111,"1730 New Brighton Blvd., Suite 105",MN,55413
Sport Clips,St. Paul,MN112,XX-112 XX112 #XX112 112 #112 MN112,2112-A Ford Parkway,MN,55116
Sport Clips,Lakeville,MN114,XX-114 XX114 #XX114 114 #114 MN114,17440 Kenwood Trail,MN,55044
Sport Clips,Savage,MN115,XX-115 XX115 #XX115 115 #115 MN115,14359 Highway 13 S,MN,55378
Sport Clips,Chaska,MN116,XX-116 XX116 #XX116 116 #116 MN116,2908 Chestnut St. N.,MN,55318
Sport Clips,Minneapolis,MN117,XX-117 XX117 #XX117 117 #117 MN117,3100 Excelsior Blvd. Suite 103,MN,55416
Sport Clips,Maplewood,MN118,XX-118 XX118 #XX118 118 #118 MN118,3035 White Bear Ave. N Suite 16,MN,55109
Sport Clips,Cottage Grove,MN119,XX-119 XX119 #XX119 119 #119 MN119,7240 East Point Douglas Rd. S. Suite 140,MN,55016
Sport Clips,Shoreview,MN120,XX-120 XX120 #XX120 120 #120 MN120,1021 Red Fox Rd Suite 110,MN,55126
Sport Clips,Stillwater,MN121,XX-121 XX121 #XX121 121 #121 MN121,13325 60th St. N,MN,55082
Sport Clips,Excelsior,MN122,XX-122 XX122 #XX122 122 #122 MN122,486 Water Street,MN,55331
Sport Clips,Elk River,MN123,XX-123 XX123 #XX123 123 #123 MN123,18209 Carson Court,MN,55330
Sport Clips,Eagan,MN124,XX-124 XX124 #XX124 124 #124 MN124,2000 Rahncliff Road,MN,55122
Sport Clips,Apple Valley,MN126,XX-126 XX126 #XX126 126 #126 MN126,7394 153rd St. W. #101,MN,55124
Sport Clips,Wayzata,MN127,XX-127 XX127 #XX127 127 #127 MN127,1157 Wayzata Blvd E,MN,55391
Sport Clips,Minnetonka,MN128,XX-128 XX128 #XX128 128 #128 MN128,4925 County Road 101,MN,55345
Sport Clips,Crystal,MN129,XX-129 XX129 #XX129 129 #129 MN129,5612 W Broadway Ave,MN,55428
Sport Clips,Woodbury,MN130,XX-130 XX130 #XX130 130 #130 MN130,1575 Queens Drive #206,MN,55125
Sport Clips,St. Cloud,MN201,XX-201 XX201 #XX201 201 #201 MN201,2301 Division Street,MN,56301
Sport Clips,Mankato,MN301,XX-301 XX301 #XX301 301 #301 MN301,1872 Madison Ave,MN,56001
Sport Clips,Duluth,MN401,XX-401 XX401 #XX401 401 #401 MN401,4504 Grand Avenue Suite #2,MN,55807
Sport Clips,Chesterfield,MO101,XX-101 XX101 #XX101 101 #101 MO101,202 THF Boulevard,MO,63005
Sport Clips,Ballwin,MO102,XX-102 XX102 #XX102 102 #102 MO102,14838 Manchester Rd.,MO,63011
Sport Clips,Wentzville,MO103,XX-103 XX103 #XX103 103 #103 MO103,1937 Wentzville Parkway,MO,63385
Sport Clips,St. Louis,MO105,XX-105 XX105 #XX105 105 #105 MO105,4037 Union Road,MO,63129
Sport Clips,St. Charles,MO106,XX-106 XX106 #XX106 106 #106 MO106,2073 Zumbehl Road,MO,63303
Sport Clips,O'Fallon,MO107,XX-107 XX107 #XX107 107 #107 MO107,2115 Highway K,MO,63368
Sport Clips,O'Fallon,MO109,XX-109 XX109 #XX109 109 #109 MO109,979 Waterbury Falls Dr.,MO,63368
Sport Clips,Creve Coeur,MO110,XX-110 XX110 #XX110 110 #110 MO110,12426 Olive Blvd.,MO,63141
Sport Clips,St. Peters,MO111,XX-111 XX111 #XX111 111 #111 MO111,189 Mid Rivers Mall Drive,MO,63376
Sport Clips,Cottleville,MO112,XX-112 XX112 #XX112 112 #112 MO112,6075 Mid Rivers Mall Dr.,MO,63304
Sport Clips,St. Louis,MO114,XX-114 XX114 #XX114 114 #114 MO114,1520 South Kirkwood Road,MO,63127
Sport Clips,Fenton,MO115,XX-115 XX115 #XX115 115 #115 MO115,794 Gravois Bluffs Blvd.,MO,63026
Sport Clips,St. Louis,MO116,XX-116 XX116 #XX116 116 #116 MO116,6457 Chippewa Street,MO,63109
Sport Clips,Arnold,MO117,XX-117 XX117 #XX117 117 #117 MO117,2257 Michigan Avenue,MO,63010
Sport Clips,Columbia,MO201,XX-201 XX201 #XX201 201 #201 MO201,1401 Forum Blvd. Ste. 102,MO,65203
Sport Clips,Columbia,MO202,XX-202 XX202 #XX202 202 #202 MO202,"2716 Paris Rd, Ste. 3",MO,65202
Sport Clips,Columbia,MO203,XX-203 XX203 #XX203 203 #203 MO203,1105 Grindstone Parkway Suite 102,MO,65201
Sport Clips,Jefferson City,MO204,XX-204 XX204 #XX204 204 #204 MO204,3748 Truman Blvd.,MO,65109
Sport Clips,Joplin,MO301,XX-301 XX301 #XX301 301 #301 MO301,430 S. Geneva Ave.,MO,64801
Sport Clips,Cape Girardeau,MO601,XX-601 XX601 #XX601 601 #601 MO601,3019 William St.,MO,63703
Sport Clips,Springfield,MO801,XX-801 XX801 #XX801 801 #801 MO801,2041 E. Independence St.,MO,65804
Sport Clips,Springfield,MO802,XX-802 XX802 #XX802 802 #802 MO802,"2725 N. Kansas Expressway, Ste. 136",MO,65803
Sport Clips,Springfield,MO803,XX-803 XX803 #XX803 803 #803 MO803,3825 S. Campbell,MO,65807
Sport Clips,Lee's Summit,MO901,XX-901 XX901 #XX901 901 #901 MO901,1804 NW Chipman Road,MO,64081
Sport Clips,Independence,MO902,XX-902 XX902 #XX902 902 #902 MO902,18921 B E. Valley View Pkwy.,MO,64055
Sport Clips,Kansas City,MO903,XX-903 XX903 #XX903 903 #903 MO903,13167 State Line Road  ,MO,64145
Sport Clips,Blue Springs,MO904,XX-904 XX904 #XX904 904 #904 MO904,617 NE Coronado Dr.,MO,64014
Sport Clips,Kansas City,MO905,XX-905 XX905 #XX905 905 #905 MO905,8706 N Ambassador Dr.,MO,64154
Sport Clips,Belton,MO906,XX-906 XX906 #XX906 906 #906 MO906,904A East North Ave.,MO,64012
Sport Clips,Liberty,MO907,XX-907 XX907 #XX907 907 #907 MO907,"1912 Stardrive, Suite C",MO,64068
Sport Clips,Kansas City,MO908,XX-908 XX908 #XX908 908 #908 MO908,6205 NW 63rd Terrace,MO,64151
Sport Clips,Kansas City,MO909,XX-909 XX909 #XX909 909 #909 MO909,4155 Sterling Ave.,MO,64133
Sport Clips,Kansas City,MO910,XX-910 XX910 #XX910 910 #910 MO910,"1128A W. 103rd Street, Suite 291",MO,64114
Sport Clips,Kansas City,MO912,XX-912 XX912 #XX912 912 #912 MO912,4914 North Oak Trafficway,MO,64118
Sport Clips,Lees Summit,MO914,XX-914 XX914 #XX914 914 #914 MO914,1041 Sam Walton Ln,MO,64086
Sport Clips,Kansas City,MO915,XX-915 XX915 #XX915 915 #915 MO915,905-C Westport Rd,MO,64111
Sport Clips,Flowood,MS101,XX-101 XX101 #XX101 101 #101 MS101,"163 Ridgeway Dr., Ste. E",MS,39232
Sport Clips,Madison,MS103,XX-103 XX103 #XX103 103 #103 MS103,123 Grandview Blvd.,MS,39110
Sport Clips,Hattiesburg,MS201,XX-201 XX201 #XX201 201 #201 MS201,"6101 Hwy. 98, Ste. 30",MS,39402
Sport Clips,Meridian,MS301,XX-301 XX301 #XX301 301 #301 MS301,103 Frontage Rd. Ste. 212,MS,39301
Sport Clips,D'lberville,MS401,XX-401 XX401 #XX401 401 #401 MS401,3950 Promenade Parkway Suite D,MS,39540
Sport Clips,Tupelo,MS501,XX-501 XX501 #XX501 501 #501 MS501,3982 N Gloster St,MS,38804
Sport Clips,Billings,MT101,XX-101 XX101 #XX101 101 #101 MT101,111 24th St.,MT,59102
Sport Clips,Billings,MT102,XX-102 XX102 #XX102 102 #102 MT102,315 Main Street,MT,59105
Sport Clips,Bozeman,MT201,XX-201 XX201 #XX201 201 #201 MT201,1500 N. 19th Ave. Suite G,MT,59718
Sport Clips,Huntersville,NC103,XX-103 XX103 #XX103 103 #103 NC103,16735 B Cranlyn Dr. ,NC,28078
Sport Clips,Matthews,NC104,XX-104 XX104 #XX104 104 #104 NC104,1813  Matthews Township Pkwy Ste. 300,NC,28105
Sport Clips,Charlotte,NC105,XX-105 XX105 #XX105 105 #105 NC105,5355 Ballantyne Commons Pky. Ste. 400,NC,28277
Sport Clips,Charlotte,NC106,XX-106 XX106 #XX106 106 #106 NC106,1600 E. Woodlawn Rd. Studio 120,NC,28209
Sport Clips,Mooresville,NC107,XX-107 XX107 #XX107 107 #107 NC107,598 B. River Hwy,NC,28117
Sport Clips,Charlotte,NC108,XX-108 XX108 #XX108 108 #108 NC108,14145 River Gate Pkwy. Ste. 100,NC,28273
Sport Clips,Concord,NC109,XX-109 XX109 #XX109 109 #109 NC109,6169 Bayfield Pkwy.,NC,28027
Sport Clips,Charlotte,NC110,XX-110 XX110 #XX110 110 #110 NC110,"1824 East Arbors Dr., Ste. 370",NC,28262
Sport Clips,Charlotte,NC111,XX-111 XX111 #XX111 111 #111 NC111,9821 Northlake Centre Parkway Suite H,NC,28216
Sport Clips,Denver,NC112,XX-112 XX112 #XX112 112 #112 NC112,7260 N.Carolina  Hwy. 73    Suite 17,NC,28037
Sport Clips,Indian Trail,NC114,XX-114 XX114 #XX114 114 #114 NC114,14039 Highway 74 Suite A4,NC,28079
Sport Clips,Cornelius,NC115,XX-115 XX115 #XX115 115 #115 NC115,20619 Torrence Chapel Road #124,NC,28031
Sport Clips,Charlotte,NC116,XX-116 XX116 #XX116 116 #116 NC116,8206 Providence Rd #1700,NC,28277
Sport Clips,Hickory,NC151,XX-151 XX151 #XX151 151 #151 NC151,1752 Catawba Valley Blvd.,NC,28602
Sport Clips,Asheville,NC201,XX-201 XX201 #XX201 201 #201 NC201,264 Thetford Street #105,NC,28803
Sport Clips,Greensboro,NC301,XX-301 XX301 #XX301 301 #301 NC301,1602B Highwoods Blvd.,NC,27410
Sport Clips,Burlington,NC303,XX-303 XX303 #XX303 303 #303 NC303,"1449-F University Dr., Ste. M-6",NC,27215
Sport Clips,Winston-Salem,NC304,XX-304 XX304 #XX304 304 #304 NC304,1041 Hanes Mall Blvd.,NC,27103
Sport Clips,Greensboro,NC305,XX-305 XX305 #XX305 305 #305 NC305,"3354 West Friendly Ave., Ste. 149",NC,27410
Sport Clips,Kernersville,NC306,XX-306 XX306 #XX306 306 #306 NC306,1030 D South Main Street,NC,27284
Sport Clips,Greensboro,NC307,XX-307 XX307 #XX307 307 #307 NC307,1216 Bridford Pkwy Unit E,NC,27407
Sport Clips,Raleigh,NC501,XX-501 XX501 #XX501 501 #501 NC501,6113 Capital Blvd,NC,27616
Sport Clips,Garner,NC502,XX-502 XX502 #XX502 502 #502 NC502,132 Shenstone Blvd.,NC,27529
Sport Clips,Wake Forest,NC503,XX-503 XX503 #XX503 503 #503 NC503,11841 Retail Dr.,NC,27587
Sport Clips,Cary,NC504,XX-504 XX504 #XX504 504 #504 NC504,422 Crossroads Blvd.,NC,27511
Sport Clips,Cary,NC505,XX-505 XX505 #XX505 505 #505 NC505,261 Grande Heights Dr.,NC,27513
Sport Clips,Raleigh,NC506,XX-506 XX506 #XX506 506 #506 NC506,4120-150 Main Northhills St.,NC,27609
Sport Clips,Apex,NC507,XX-507 XX507 #XX507 507 #507 NC507,754 West Williams St.,NC,27502
Sport Clips,Raleigh,NC509,XX-509 XX509 #XX509 509 #509 NC509,10251 Little Brier Creek Lane  Ste. 110,NC,27617
Sport Clips,Durham,NC510,XX-510 XX510 #XX510 510 #510 NC510,8200 Renaissance Pkwy Ste 1008,NC,27713
Sport Clips,Cary,NC511,XX-511 XX511 #XX511 511 #511 NC511,82 Cornerstone Dr.,NC,27519
Sport Clips,Knightdale,NC512,XX-512 XX512 #XX512 512 #512 NC512,"1018-D Shoppes at Midway Plantation Dr, Ste. D",NC,27545
Sport Clips,Raleigh,NC514,XX-514 XX514 #XX514 514 #514 NC514,3201 Edwards Mill Road,NC,27612
Sport Clips,Raleigh,NC515,XX-515 XX515 #XX515 515 #515 NC515,8111 Creedmoor Road Suite 134,NC,27613
Sport Clips,Southern Pines,NC516,XX-516 XX516 #XX516 516 #516 NC516,10564 US Hwy 15 / 501 Suite G,NC,28387
Sport Clips,Raleigh,NC517,XX-517 XX517 #XX517 517 #517 NC517,6637 Falls of Neuse Rd,NC,27615
Sport Clips,Fayetteville,NC518,XX-518 XX518 #XX518 518 #518 NC518,5075 Morganton Rd. #18,NC,28314
Sport Clips,Holly Springs,NC519,XX-519 XX519 #XX519 519 #519 NC519,125 Grand Hill Place,NC,27540
Sport Clips,Fayetteville,NC520,XX-520 XX520 #XX520 520 #520 NC520,4411 Ramsey St #108,NC,28311
Sport Clips,Wilson,NC701,XX-701 XX701 #XX701 701 #701 NC701,3401 Raleigh Road Pkwy Ste 9E ,NC,27896
Sport Clips,Greenville,NC702,XX-702 XX702 #XX702 702 #702 NC702,"530 Greenville Blvd. S.E.,Suite B",NC,27858
Sport Clips,Wilmington,NC801,XX-801 XX801 #XX801 801 #801 NC801,"343 S. College Rd., Ste. 343-1",NC,28403
Sport Clips,Wilmington,NC802,XX-802 XX802 #XX802 802 #802 NC802,5621 Carolina Beach Rd. Suite D,NC,28412
Sport Clips,Wilmington,NC803,XX-803 XX803 #XX803 803 #803 NC803,8207-K Market Street,NC,28411
Sport Clips,Grand Forks,ND101,XX-101 XX101 #XX101 101 #101 ND101,"3221 32nd Avenue South, Ste. 600  ",ND,58201
Sport Clips,West Fargo,ND102,XX-102 XX102 #XX102 102 #102 ND102,"675 13th Avenue East, Suite #105",ND,58078
Sport Clips,Omaha,NE101,XX-101 XX101 #XX101 101 #101 NE101,2753 S. 140th St.,NE,68144
Sport Clips,Omaha,NE102,XX-102 XX102 #XX102 102 #102 NE102,18126 Wright St.,NE,68130
Sport Clips,Omaha,NE103,XX-103 XX103 #XX103 103 #103 NE103,575 N. 155th Plaza,NE,68154
Sport Clips,Papillion,NE104,XX-104 XX104 #XX104 104 #104 NE104,"8419 S. 73rd Place, Ste. 103",NE,68046
Sport Clips,Omaha,NE105,XX-105 XX105 #XX105 105 #105 NE105,12330 K Plaza #103,NE,68137
Sport Clips,Omaha,NE106,XX-106 XX106 #XX106 106 #106 NE106,205 N. 80th St.,NE,68114
Sport Clips,Omaha,NE107,XX-107 XX107 #XX107 107 #107 NE107,3506 N. 147th St. #125,NE,68116
Sport Clips,Bellevue,NE108,XX-108 XX108 #XX108 108 #108 NE108,3811 Twin Creek Drive #104,NE,68123
Sport Clips,Papillion,NE109,XX-109 XX109 #XX109 109 #109 NE109,304 Olson Drive #107,NE,68046
Sport Clips,Lincoln,NE201,XX-201 XX201 #XX201 201 #201 NE201,2712 Cornhusker Hwy,NE,68504
Sport Clips,Lincoln,NE202,XX-202 XX202 #XX202 202 #202 NE202,1631 Pine Lake Rd. Suite 5,NE,68512
Sport Clips,Plaistow,NH101,XX-101 XX101 #XX101 101 #101 NH101,58 Plaistow Road Unit D,NH,3865
Sport Clips,North Hampton,NH102,XX-102 XX102 #XX102 102 #102 NH102,45 Lafayette Rd. #4,NH,3862
Sport Clips,Warren,NJ101,XX-101 XX101 #XX101 101 #101 NJ101,9 Mt. Bethel Road,NJ,7059
Sport Clips,Somerset,NJ102,XX-102 XX102 #XX102 102 #102 NJ102,456 Elizabeth Ave,NJ,8873
Sport Clips,Rockaway,NJ103,XX-103 XX103 #XX103 103 #103 NJ103,343 Mt Hope Ave,NJ,7866
Sport Clips,Wyckoff,NJ104,XX-104 XX104 #XX104 104 #104 NJ104,319 Franklin Avenue Suite 107,NJ,7481
Sport Clips,Flanders,NJ105,XX-105 XX105 #XX105 105 #105 NJ105,50 International Dr. South Unit D-1B,NJ,7836
Sport Clips,Somerville,NJ106,XX-106 XX106 #XX106 106 #106 NJ106,137 West Main Street,NJ,8876
Sport Clips,West Long Branch,NJ107,XX-107 XX107 #XX107 107 #107 NJ107,310 SR 36,NJ,7764
Sport Clips,Edgewater,NJ108,XX-108 XX108 #XX108 108 #108 NJ108,445 River Road,NJ,7020
Sport Clips,Toms River,NJ109,XX-109 XX109 #XX109 109 #109 NJ109,"2 Rt. 37 West, Unit G2",NJ,8753
Sport Clips,Oakland,NJ110,XX-110 XX110 #XX110 110 #110 NJ110,350 Rampo Valley Road #475,NJ,7436
Sport Clips,Bedminster,NJ111,XX-111 XX111 #XX111 111 #111 NJ111,75 Washington Valley Road Suite H,NJ,7921
Sport Clips,Cherry Hill,NJ201,XX-201 XX201 #XX201 201 #201 NJ201,818 Haddonfield Road,NJ,8002
Sport Clips,Turnersville,NJ202,XX-202 XX202 #XX202 202 #202 NJ202,3501 Route 42 Suite 350,NJ,8012
Sport Clips,Mt. Laurel,NJ203,XX-203 XX203 #XX203 203 #203 NJ203,127 Ark Road #11,NJ,8054
Sport Clips,Mays Landing,NJ204,XX-204 XX204 #XX204 204 #204 NJ204,310 Hamilton Commons,NJ,8330
Sport Clips,Princeton,NJ301,XX-301 XX301 #XX301 301 #301 NJ301,564 Nassau Park Boulevard,NJ,8540
Sport Clips,Albuquerque,NM101,XX-101 XX101 #XX101 101 #101 NM101,6001 Winterhaven Rd. Ste. B,NM,87120
Sport Clips,Albuquerque,NM104,XX-104 XX104 #XX104 104 #104 NM104,"8000 Paseo del Norte NE, Ste. B6",NM,87109
Sport Clips,Rio Rancho,NM105,XX-105 XX105 #XX105 105 #105 NM105,701 Unser Blvd SE Unit 8,NM,87124
Sport Clips,Albuquerque,NM106,XX-106 XX106 #XX106 106 #106 NM106,3703 Ellison Drive NW #B,NM,87114
Sport Clips,Las Cruces,NM201,XX-201 XX201 #XX201 201 #201 NM201,3851 E. Lohman Suite 1,NM,88011
Sport Clips,Henderson,NV101,XX-101 XX101 #XX101 101 #101 NV101,605 Mall Ring Circle Suite 160,NV,89014
Sport Clips,Henderson,NV102,XX-102 XX102 #XX102 102 #102 NV102,9905 S. Eastern Ave. #130,NV,89074
Sport Clips,Las Vegas,NV103,XX-103 XX103 #XX103 103 #103 NV103,"6640 N. Durango, Ste. 120",NV,89149
Sport Clips,Las Vegas,NV104,XX-104 XX104 #XX104 104 #104 NV104,5130 S. Fort Apache Rd. Ste. #200,NV,89148
Sport Clips,Las Vegas,NV105,XX-105 XX105 #XX105 105 #105 NV105,"6475 N. Decatur Blvd., Ste 115",NV,89131
Sport Clips,Las Vegas,NV106,XX-106 XX106 #XX106 106 #106 NV106,7310 Arroyo Crossing Pkwy Suite 100,NV,89113
Sport Clips,Las Vegas,NV107,XX-107 XX107 #XX107 107 #107 NV107,2192 N. Rainbow Blvd. Ste. 102,NV,89108
Sport Clips,North Las Vegas,NV108,XX-108 XX108 #XX108 108 #108 NV108,2546 E. Craig Road,NV,89030
Sport Clips,Henderson,NV109,XX-109 XX109 #XX109 109 #109 NV109,655 S. Green Valley Pkwy. Suite 150,NV,89052
Sport Clips,Las Vegas,NV110,XX-110 XX110 #XX110 110 #110 NV110,1000 S. Rampart Blvd. Suite 6,NV,89145
Sport Clips,Reno,NV201,XX-201 XX201 #XX201 201 #201 NV201,6015C S. Virginia St.,NV,89502
Sport Clips,Sparks,NV202,XX-202 XX202 #XX202 202 #202 NV202,"131 Disc Drive, Ste. ES-3",NV,89436
Sport Clips,Clarence,NY201,XX-201 XX201 #XX201 201 #201 NY201,5095 Transit Rd. Suite 200,NY,14221
Sport Clips,Selden,NY301,XX-301 XX301 #XX301 301 #301 NY301,367 Independence Plaza,NY,11784
Sport Clips,Hauppauge,NY302,XX-302 XX302 #XX302 302 #302 NY302,389 Nesconset Highway,NY,11788
Sport Clips,Hartsdale,NY303,XX-303 XX303 #XX303 303 #303 NY303,417 N Central Ave,NY,10530
Sport Clips,Liverpool,NY401,XX-401 XX401 #XX401 401 #401 NY401,3873 State Route 31 Suite 120,NY,13090
Sport Clips,Colonie,NY501,XX-501 XX501 #XX501 501 #501 NY501,1770 Central Ave,NY,12205
Sport Clips,Columbus,OH101,XX-101 XX101 #XX101 101 #101 OH101,1093 Polaris Parkway,OH,43240
Sport Clips,Dublin,OH102,XX-102 XX102 #XX102 102 #102 OH102,6730 Perimeter Loop Road,OH,43017
Sport Clips,Pickerington,OH103,XX-103 XX103 #XX103 103 #103 OH103,172 Clint Dr.,OH,43147
Sport Clips,Westerville,OH104,XX-104 XX104 #XX104 104 #104 OH104,756 N. State St.,OH,43082
Sport Clips,Hilliard,OH106,XX-106 XX106 #XX106 106 #106 OH106,1896 Hilliard-Rome Rd.,OH,43026
Sport Clips,Columbus,OH107,XX-107 XX107 #XX107 107 #107 OH107,7944 E. Broad Street,OH,43068
Sport Clips,Grove City,OH108,XX-108 XX108 #XX108 108 #108 OH108,1728 Stringtown Rd.,OH,43123
Sport Clips,Gahanna,OH109,XX-109 XX109 #XX109 109 #109 OH109,4697 Morse Rd.,OH,43230
Sport Clips,Lancaster,OH110,XX-110 XX110 #XX110 110 #110 OH110,1614 N. Memorial Dr.,OH,43130
Sport Clips,Columbus,OH112,XX-112 XX112 #XX112 112 #112 OH112,2586 Bethel Road,OH,43220
Sport Clips,Lewis Center,OH114,XX-114 XX114 #XX114 114 #114 OH114,6429 Pullman Dr.,OH,43035
Sport Clips,Columbus,OH115,XX-115 XX115 #XX115 115 #115 OH115,1291 W. Lane Ave,OH,43221
Sport Clips,Powell,OH116,XX-116 XX116 #XX116 116 #116 OH116,4002 Powell Rd,OH,43065
Sport Clips,Columbus,OH117,XX-117 XX117 #XX117 117 #117 OH117,4422 N. High St.,OH,43214
Sport Clips,Dublin,OH118,XX-118 XX118 #XX118 118 #118 OH118,7593 Sawmill Rd,OH,43016
Sport Clips,Milford,OH201,XX-201 XX201 #XX201 201 #201 OH201,1081-E State Route 28,OH,45150
Sport Clips,West Chester,OH202,XX-202 XX202 #XX202 202 #202 OH202,8200 Princeton-Glendale Road,OH,45069
Sport Clips,West Chester,OH203,XX-203 XX203 #XX203 203 #203 OH203,7749 Cox Lane ,OH,45069
Sport Clips,Cincinnati,OH204,XX-204 XX204 #XX204 204 #204 OH204,5555 Glenway Ave. Ste 800,OH,45238
Sport Clips,Blue Ash,OH205,XX-205 XX205 #XX205 205 #205 OH205,11255 Reed Hartman Hwy.,OH,45241
Sport Clips,Cincinnati,OH206,XX-206 XX206 #XX206 206 #206 OH206,7426 Beechmont Avenue Suite 205,OH,45230
Sport Clips,Cincinnati,OH207,XX-207 XX207 #XX207 207 #207 OH207,3880-L Paxton Ave. St. #51,OH,45209
Sport Clips,Mason,OH208,XX-208 XX208 #XX208 208 #208 OH208,8241 Arbor Square Drive,OH,45040
Sport Clips,Fairfield Township,OH209,XX-209 XX209 #XX209 209 #209 OH209,3397 Princeton Rd. Suite 103,OH,45011
Sport Clips,Cincinnati,OH210,XX-210 XX210 #XX210 210 #210 OH210,Jungle Jim's Shopping Center,OH,45245
Sport Clips,Bellbrook,OH301,XX-301 XX301 #XX301 301 #301 OH301,6004 Wilmington Pike,OH,45459
Sport Clips,Beavercreek,OH303,XX-303 XX303 #XX303 303 #303 OH303,"2260 North Fairfield Rd, Ste. F",OH,45431
Sport Clips,Dayton,OH304,XX-304 XX304 #XX304 304 #304 OH304,2331 Miamisburg Centerville Rd.,OH,45459
Sport Clips,Springboro,OH305,XX-305 XX305 #XX305 305 #305 OH305,782 N. Main Street,OH,45066
Sport Clips,Springfield,OH306,XX-306 XX306 #XX306 306 #306 OH306,1970 North Bechtle Ave.,OH,45504
Sport Clips,Avon,OH401,XX-401 XX401 #XX401 401 #401 OH401,"35925 Detroit Rd., Ste 111",OH,44011
Sport Clips,Strongsville,OH402,XX-402 XX402 #XX402 402 #402 OH402,16754 Royalton Road,OH,44136
Sport Clips,Macedonia,OH403,XX-403 XX403 #XX403 403 #403 OH403,8210 Macedonia Commons Blvd. Suite 58,OH,44056
Sport Clips,Mayfield Heights,OH404,XX-404 XX404 #XX404 404 #404 OH404,1519 Goldengate Plaza,OH,44124
Sport Clips,South Euclid,OH405,XX-405 XX405 #XX405 405 #405 OH405,13967 Cedar Road,OH,44118
Sport Clips,Stow,OH406,XX-406 XX406 #XX406 406 #406 OH406,4320 Kent Road,OH,44224
Sport Clips,Lorain,OH407,XX-407 XX407 #XX407 407 #407 OH407,4310 Leavitt Road #B,OH,44053
Sport Clips,Rocky River,OH408,XX-408 XX408 #XX408 408 #408 OH408,19565-C Detroit Rd.,OH,44116
Sport Clips,Poland,OH501,XX-501 XX501 #XX501 501 #501 OH501,1320 Boardman Poland Rd.,OH,44514
Sport Clips,Owasso,OK103,XX-103 XX103 #XX103 103 #103 OK103,9045 N 121st East Ave Suite 1200,OK,74055
Sport Clips,Tulsa,OK104,XX-104 XX104 #XX104 104 #104 OK104,10910 E. 71st street,OK,74133
Sport Clips,Tulsa,OK105,XX-105 XX105 #XX105 105 #105 OK105,7470 S. Olympia Ave,OK,74132
Sport Clips,Broken Arrow,OK106,XX-106 XX106 #XX106 106 #106 OK106,1336 East Hillside Drive,OK,74012
Sport Clips,Tulsa,OK107,XX-107 XX107 #XX107 107 #107 OK107,7890 East 106th Place South #4,OK,74133
Sport Clips,Oklahoma City,OK201,XX-201 XX201 #XX201 201 #201 OK201,5401 N. May Ave Suite 600,OK,73112
Sport Clips,Edmond,OK202,XX-202 XX202 #XX202 202 #202 OK202,1118 E. 2nd St.,OK,73034
Sport Clips,Oklahoma City,OK203,XX-203 XX203 #XX203 203 #203 OK203,"2410 W. Memorial Rd., Ste. B",OK,73134
Sport Clips,Oklahoma City,OK204,XX-204 XX204 #XX204 204 #204 OK204,7640 N. W. Expressway Suite 110,OK,73132
Sport Clips,Yukon,OK205,XX-205 XX205 #XX205 205 #205 OK205,1771 Garth Brooks Blvd.,OK,73099
Sport Clips,Oklahoma City,OK206,XX-206 XX206 #XX206 206 #206 OK206,5932 Southwest 4th Terrace,OK,73127
Sport Clips,Midwest City,OK207,XX-207 XX207 #XX207 207 #207 OK207,7201 SE 29th St.,OK,73110
Sport Clips,Norman,OK208,XX-208 XX208 #XX208 208 #208 OK208,1428 24th Ave. NW,OK,73069
Sport Clips,Oklahoma City,OK209,XX-209 XX209 #XX209 209 #209 OK209,10440 S. Western,OK,73139
Sport Clips,Moore,OK210,XX-210 XX210 #XX210 210 #210 OK210,"631 SW 19th Street, Suite 103",OK,73160
Sport Clips,Lawton,OK301,XX-301 XX301 #XX301 301 #301 OK301,1766 NW 82nd Street,OK,73505
Sport Clips,Oregon City,OR101,XX-101 XX101 #XX101 101 #101 OR101,"19574 Molalla Ave., Ste. 147",OR,97045
Sport Clips,Beaverton,OR102,XX-102 XX102 #XX102 102 #102 OR102,3270 SW Cedar Hills Blvd.,OR,97005
Sport Clips,Hillsboro,OR103,XX-103 XX103 #XX103 103 #103 OR103,"18021 NW Evergreen Parkway, Suite E",OR,97006
Sport Clips,Clackamas,OR104,XX-104 XX104 #XX104 104 #104 OR104,10223 SE Sunnyside Rd,OR,97015
Sport Clips,West Linn,OR105,XX-105 XX105 #XX105 105 #105 OR105,21900 Willamette Dr,OR,97068
Sport Clips,Beaverton,OR106,XX-106 XX106 #XX106 106 #106 OR106,14845 SW Murray Scholls Dr.,OR,97007
Sport Clips,Tigard,OR107,XX-107 XX107 #XX107 107 #107 OR107,9009 SW Hall Blvd,OR,97223
Sport Clips,Lake Oswego,OR108,XX-108 XX108 #XX108 108 #108 OR108,3 Monroe Parkway,OR,97035
Sport Clips,Portland,OR109,XX-109 XX109 #XX109 109 #109 OR109,9738 SE Washington St.,OR,97216
Sport Clips,Salem,OR110,XX-110 XX110 #XX110 110 #110 OR110,2990 Commercial St. SE,OR,97302
Sport Clips,Lake Oswego,OR111,XX-111 XX111 #XX111 111 #111 OR111,17650 SW 63rd Ave,OR,97035
Sport Clips,Bend,OR201,XX-201 XX201 #XX201 201 #201 OR201,"63455 N. Hwy 97, Ste. 12",OR,97701
Sport Clips,Eugene,OR301,XX-301 XX301 #XX301 301 #301 OR301,"485 Coburg Rd., Ste. E",OR,97401
Sport Clips,Eugene,OR302,XX-302 XX302 #XX302 302 #302 OR302,3159 W 11th Ave.,OR,97402
Sport Clips,Pittsburgh,PA101,XX-101 XX101 #XX101 101 #101 PA101,270 Settlers Ridge Center Dr.  ,PA,15205
Sport Clips,Pittsburgh,PA102,XX-102 XX102 #XX102 102 #102 PA102,270 Mt Nebo Point Drive,PA,15237
Sport Clips,Cranberry Township,PA103,XX-103 XX103 #XX103 103 #103 PA103,1691 Route 228,PA,16066
Sport Clips,Gibsonia,PA104,XX-104 XX104 #XX104 104 #104 PA104,500 Grandview Crossing,PA,15044
Sport Clips,McMurray,PA105,XX-105 XX105 #XX105 105 #105 PA105,4120 Washington Rd Suite #160,PA,15317
Sport Clips,Pittsburgh,PA106,XX-106 XX106 #XX106 106 #106 PA106,941 Freeport Road,PA,15238
Sport Clips,Monroeville,PA107,XX-107 XX107 #XX107 107 #107 PA107,4180 William Pen Hwy. Suite 7,PA,15146
Sport Clips,Washington,PA108,XX-108 XX108 #XX108 108 #108 PA108,72 Trinity Point Drive,PA,15301
Sport Clips,Bridgeville,PA109,XX-109 XX109 #XX109 109 #109 PA109,1155 Washington Pike,PA,15017
Sport Clips,Monaca,PA110,XX-110 XX110 #XX110 110 #110 PA110,118 Wagner Road,PA,15061
Sport Clips,Pittsburgh,PA111,XX-111 XX111 #XX111 111 #111 PA111,9034 St. Simon Way,PA,15237
Sport Clips,Pittsburgh,PA112,XX-112 XX112 #XX112 112 #112 PA112,1610 Cochran Road,PA,15220
Sport Clips,Pittsburgh,PA114,XX-114 XX114 #XX114 114 #114 PA114,10 Old Clairton Road Suite 9A,PA,15236
Sport Clips,Wexford,PA115,XX-115 XX115 #XX115 115 #115 PA115,"11279 Perry Highway, Suite 312",PA,15090
Sport Clips,Greensburg,PA116,XX-116 XX116 #XX116 116 #116 PA116,Hempfield Plaza - 6207 Route 30,PA,15601
Sport Clips,Pittsburgh,PA117,XX-117 XX117 #XX117 117 #117 PA117,4870 McKnight Road,PA,15237
Sport Clips,Murrysville,PA118,XX-118 XX118 #XX118 118 #118 PA118,301 Blue Spruce Way,PA,15668
Sport Clips,Bensalem,PA201,XX-201 XX201 #XX201 201 #201 PA201,400 Rockhill Dr.,PA,19020
Sport Clips,North Wales,PA202,XX-202 XX202 #XX202 202 #202 PA202,"1460 Bethlehem Pike, Suite 160",PA,19454
Sport Clips,Collegeville,PA203,XX-203 XX203 #XX203 203 #203 PA203,250 Plaza Drive P4-5,PA,19426
Sport Clips,Doylestown,PA204,XX-204 XX204 #XX204 204 #204 PA204,73 Old Dublin Pike,PA,18901
Sport Clips,Richboro,PA205,XX-205 XX205 #XX205 205 #205 PA205,1040 Second Street Pike Suite D,PA,18954
Sport Clips,Fairless Hills,PA206,XX-206 XX206 #XX206 206 #206 PA206,110 Lincoln Hwy.,PA,19030
Sport Clips,Glen Mills,PA207,XX-207 XX207 #XX207 207 #207 PA207,391 Wilmington/West Chester Pike #14,PA,19342
Sport Clips,Mechanicsburg,PA301,XX-301 XX301 #XX301 301 #301 PA301,"6520 Carlisle Pike, Suite 3",PA,17050
Sport Clips,Lincoln,RI101,XX-101 XX101 #XX101 101 #101 RI101,618 George Washington Highway,RI,2865
Sport Clips,Rock Hill,SC101,XX-101 XX101 #XX101 101 #101 SC101,"572 John Ross Pkwy, Suite 104",SC,29730
Sport Clips,Fort Mill,SC102,XX-102 XX102 #XX102 102 #102 SC102,1135 Stonecrest Blvd,SC,29708
Sport Clips,Rock Hill,SC103,XX-103 XX103 #XX103 103 #103 SC103,"4811 Old York Rd., Ste. 104",SC,29732
Sport Clips,Summerville,SC201,XX-201 XX201 #XX201 201 #201 SC201,420A Azalea Square,SC,29483
Sport Clips,Mount Pleasant,SC202,XX-202 XX202 #XX202 202 #202 SC202,656-D Long Point Rd.,SC,29464
Sport Clips,West Ashley,SC203,XX-203 XX203 #XX203 203 #203 SC203,"1836 Ashley River Rd., Ste. C",SC,29407
Sport Clips,Summerville,SC204,XX-204 XX204 #XX204 204 #204 SC204,"9740 Dorchester Rd., Ste. 104",SC,29485
Sport Clips,Mount Pleasant,SC205,XX-205 XX205 #XX205 205 #205 SC205,3018 S. Morgan's Point Rd.,SC,29466
Sport Clips,Goose Creek,SC206,XX-206 XX206 #XX206 206 #206 SC206,607-C St. James Avenue,SC,29445
Sport Clips,Columbia,SC301,XX-301 XX301 #XX301 301 #301 SC301,10210  B. Two Notch Rd.,SC,29223
Sport Clips,Columbia,SC302,XX-302 XX302 #XX302 302 #302 SC302,378 Columbiana Dr.,SC,29212
Sport Clips,Lexington,SC304,XX-304 XX304 #XX304 304 #304 SC304,"5135 Sunset Blvd., Ste. G",SC,29072
Sport Clips,Columbia,SC305,XX-305 XX305 #XX305 305 #305 SC305,"327 Killian Road, Ste. 7",SC,29203
Sport Clips,Lexington,SC306,XX-306 XX306 #XX306 306 #306 SC306,"1792 South Lake Dr., Suite 140",SC,29073
Sport Clips,Columbia,SC307,XX-307 XX307 #XX307 307 #307 SC307,"4711 Forest Drive, Suite #18",SC,29206
Sport Clips,Bluffton,SC401,XX-401 XX401 #XX401 401 #401 SC401,30 Malphrus Rd. Ste. A,SC,29910
Sport Clips,Bluffton,SC402,XX-402 XX402 #XX402 402 #402 SC402,198 Okatie Village Drive,SC,29910
Sport Clips,Beaufort,SC403,XX-403 XX403 #XX403 403 #403 SC403,272 Robert Smalls Parkway #330,SC,29906
Sport Clips,Myrtle Beach,SC501,XX-501 XX501 #XX501 501 #501 SC501,1764 Pine Island Rd.,SC,29577
Sport Clips,Myrtle Beach,SC502,XX-502 XX502 #XX502 502 #502 SC502,1000 S. Commons Rd. Ste. 104,SC,29588
Sport Clips,N. Myrtle Beach,SC503,XX-503 XX503 #XX503 503 #503 SC503,114 Hwy. 17 S.,SC,29582
Sport Clips,Florence,SC504,XX-504 XX504 #XX504 504 #504 SC504,1940 Hoffmeyer Rd. Suite D,SC,29501
Sport Clips,Greenville,SC601,XX-601 XX601 #XX601 601 #601 SC601,"3915 Pelham Rd., Ste A",SC,29615
Sport Clips,Greenville,SC602,XX-602 XX602 #XX602 602 #602 SC602,"1106 Woodruff Rd., Ste. C",SC,29607
Sport Clips,Anderson,SC603,XX-603 XX603 #XX603 603 #603 SC603,116 Commons Pkwy,SC,29621
Sport Clips,Greenville,SC604,XX-604 XX604 #XX604 604 #604 SC604,1534 Poinsett Highway,SC,29609
Sport Clips,Easley,SC605,XX-605 XX605 #XX605 605 #605 SC605,6525 Calhoun Memorial Highway Suite G,SC,29640
Sport Clips,Simpsonville,SC606,XX-606 XX606 #XX606 606 #606 SC606,343B Harrison Bridge Road,SC,29680
Sport Clips,Spartanburg,SC607,XX-607 XX607 #XX607 607 #607 SC607,169 Hadden Heights Road,SC,29301
Sport Clips,Greenville,SC608,XX-608 XX608 #XX608 608 #608 SC608,2603-C Woodruff Rd.,SC,29651
Sport Clips,Greenwood,SC609,XX-609 XX609 #XX609 609 #609 SC609,"209 Hospitality Blvd, Suite S3",SC,29649
Sport Clips,Sioux Falls,SD101,XX-101 XX101 #XX101 101 #101 SD101,5019 S. Western Ave. Ste. 190,SD,57108
Sport Clips,Memphis,TN101,XX-101 XX101 #XX101 101 #101 TN101,7825 Winchester Rd. #102,TN,38125
Sport Clips,Bartlett,TN102,XX-102 XX102 #XX102 102 #102 TN102,2841 Bartlett Blvd.,TN,38134
Sport Clips,Memphis,TN103,XX-103 XX103 #XX103 103 #103 TN103,4732 Spottswood,TN,38117
Sport Clips,Cordova,TN104,XX-104 XX104 #XX104 104 #104 TN104,465 Germantown Pkwy. Ste. 106,TN,38018
Sport Clips,Collierville,TN105,XX-105 XX105 #XX105 105 #105 TN105,"295 New Byhalia Road, Ste. 107",TN,38017
Sport Clips,Lakeland,TN106,XX-106 XX106 #XX106 106 #106 TN106,"9005 Hwy 64, Suite 102",TN,38002
Sport Clips,Germantown,TN107,XX-107 XX107 #XX107 107 #107 TN107,7685 Farmington Blvd. Ste. 107,TN,38017
Sport Clips,Southaven,TN108,XX-108 XX108 #XX108 108 #108 TN108,"7111 Southcrest Pkwy., Suite 108",MS,38671
Sport Clips,Olive Branch,TN109,XX-109 XX109 #XX109 109 #109 TN109,"5070 Goodman Road, Suite 113",MS,38654
Sport Clips,Memphis,TN110,XX-110 XX110 #XX110 110 #110 TN110,5865 Poplar Ave Suite 108,TN,38119
Sport Clips,Memphis,TN112,XX-112 XX112 #XX112 112 #112 TN112,2323 N Germantown Parkway #103,TN,38016
Sport Clips,Franklin,TN201,XX-201 XX201 #XX201 201 #201 TN201,1010 Murfreesboro Rd. #174,TN,37064
Sport Clips,Nashville,TN202R,XX-202R XX202R #XX202R 202R #202R TN202R,96 White Bridge Rd ,TN,37205
Sport Clips,Franklin,TN203,XX-203 XX203 #XX203 203 #203 TN203,600 A Frazier Dr.,TN,37068
Sport Clips,Mt. Juliet,TN204,XX-204 XX204 #XX204 204 #204 TN204,300 Pleasant Grove Road,TN,37122
Sport Clips,Clarksville,TN205,XX-205 XX205 #XX205 205 #205 TN205,1820 F Madison St.,TN,37068
Sport Clips,Lebanon,TN206,XX-206 XX206 #XX206 206 #206 TN206,1700 US Hwy 70,TN,37087
Sport Clips,Murfreesboro,TN207,XX-207 XX207 #XX207 207 #207 TN207,"2615 Medical Pkwy, Suite 1020",TN,37129
Sport Clips,Smyrna,TN208,XX-208 XX208 #XX208 208 #208 TN208,"801 Industrial Blvd., Ste. 110",TN,37167
Sport Clips,Nashville,TN209,XX-209 XX209 #XX209 209 #209 TN209,8070 Highway 100; Behind McDonald's & Near Publix,TN,37221
Sport Clips,Springhill,TN210,XX-210 XX210 #XX210 210 #210 TN210,1007 Crossings Blvd,TN,37174
Sport Clips,Nashville,TN211,XX-211 XX211 #XX211 211 #211 TN211,6816 Charlotte Pike,TN,37209
Sport Clips,Gallatin,TN212,XX-212 XX212 #XX212 212 #212 TN212,1101 Nashville Pike Suite 170,TN,37066
Sport Clips,Hendersonville,TN215,XX-215 XX215 #XX215 215 #215 TN215,203 N. Anderson Lane,TN,37075
Sport Clips,Cookeville,TN217,XX-217 XX217 #XX217 217 #217 TN217,416-C West Jackson Rd.,TN,38501
Sport Clips,Murfreesboro,TN218,XX-218 XX218 #XX218 218 #218 TN218,2037 Old Fort Pkwy,TN,37129
Sport Clips,Jackson,TN301,XX-301 XX301 #XX301 301 #301 TN301,1233 Vann Drive,TN,38305
Sport Clips,Knoxville,TN401,XX-401 XX401 #XX401 401 #401 TN401,11523 Parkside Dr. ,TN,37934
Sport Clips,Knoxville,TN402,XX-402 XX402 #XX402 402 #402 TN402,6631 Clinton Hwy. - Ste 103,TN,37912
Sport Clips,Alcoa,TN403,XX-403 XX403 #XX403 403 #403 TN403,719 Louisville Rd.,TN,37701
Sport Clips,Knoxville,TN404,XX-404 XX404 #XX404 404 #404 TN404,5469 Washington Pike,TN,37918
Sport Clips,Knoxville,TN405,XX-405 XX405 #XX405 405 #405 TN405,123 North Peters Rd.,TN,37923
Sport Clips,Knoxville,TN407,XX-407 XX407 #XX407 407 #407 TN407,4227 Sam Walton Way,TN,37938
Sport Clips,Knoxville,TN408,XX-408 XX408 #XX408 408 #408 TN408,234 Brookview Centre Way #108,TN,37919
Sport Clips,Chattanooga,TN501,XX-501 XX501 #XX501 501 #501 TN501,7425 Commons Blvd.,TN,37421
Sport Clips,Ft. Oglethorpe,TN502,XX-502 XX502 #XX502 502 #502 TN502,2644 Battlefield Pkwy Ste 100,TN,30742
Sport Clips,Chattanooga,TN503,XX-503 XX503 #XX503 503 #503 TN503,"5591 Hwy. 153, Ste. 166",TN,37343
Sport Clips,Cleveland,TN504,XX-504 XX504 #XX504 504 #504 TN504,4462 Frontage Road,TN,37312
Sport Clips,Johnson City,TN601,XX-601 XX601 #XX601 601 #601 TN601,2244 N. Roan St. Suite 104,TN,37601
Sport Clips,Kingsport,TN602,XX-602 XX602 #XX602 602 #602 TN602,1880 N. Eastman Rd.,TN,37660
Sport Clips,Austin,TX101,XX-101 XX101 #XX101 101 #101 TX101,"10515 N. Mopac Expy., NB, Ste. 215",TX,78759
Sport Clips,Austin,TX102,XX-102 XX102 #XX102 102 #102 TX102,3201 Bee Caves Rd. #107,TX,78746
Sport Clips,Austin,TX103,XX-103 XX103 #XX103 103 #103 TX103,11301 Lakeline Blvd.,TX,78717
Sport Clips,Round Rock,TX105,XX-105 XX105 #XX105 105 #105 TX105,"2000 S. IH 35, Suite N-4B",TX,78681
Sport Clips,Austin,TX106,XX-106 XX106 #XX106 106 #106 TX106,"4970 Hwy 290 W., Suite 450",TX,78735
Sport Clips,Austin,TX107,XX-107 XX107 #XX107 107 #107 TX107,13000 IH-35 North #300,TX,78753
Sport Clips,Cedar Park,TX109,XX-109 XX109 #XX109 109 #109 TX109,"202 Walton Way, Ste. #164",TX,78613
Sport Clips,Georgetown,TX110,XX-110 XX110 #XX110 110 #110 TX110,1103 Rivery Blvd.,TX,78628
Sport Clips,Bee Cave,TX111,XX-111 XX111 #XX111 111 #111 TX111,"12717 Shops  Parkway,  Ste 400",TX,78738
Sport Clips,Austin,TX112,XX-112 XX112 #XX112 112 #112 TX112,"9600 IH-35 South, Ste 100",TX,78747
Sport Clips,Round Rock,TX114,XX-114 XX114 #XX114 114 #114 TX114,"4500 E. Palm Valley Dr., Ste. 110",TX,78664
Sport Clips,Round Rock,TX115,XX-115 XX115 #XX115 115 #115 TX115,201 University Oaks Suite. 1200,TX,78665
Sport Clips,Cedar Park,TX116,XX-116 XX116 #XX116 116 #116 TX116,"1465 East Whitestone Blvd., Suite H-330",TX,78613
Sport Clips,Pflugerville,TX117,XX-117 XX117 #XX117 117 #117 TX117,"1512 Town Center Dr., Ste. 450",TX,78660
Sport Clips,Kyle,TX118,XX-118 XX118 #XX118 118 #118 TX118,"5695 Kyle Parkway, Ste.200",TX,78640
Sport Clips,Austin,TX119,XX-119 XX119 #XX119 119 #119 TX119,2525 W. Anderson Lane,TX,78757
Sport Clips,Austin,TX120,XX-120 XX120 #XX120 120 #120 TX120,8300 N. FM 620 Building G Suite 200,TX,78726
Sport Clips,Houston,TX201,XX-201 XX201 #XX201 201 #201 TX201,2476 Hwy. 6 South,TX,77077
Sport Clips,Houston,TX202,XX-202 XX202 #XX202 202 #202 TX202,7536 Cypress Creek Parkway,TX,77070
Sport Clips,Houston,TX203,XX-203 XX203 #XX203 203 #203 TX203,7065 Hwy. 6 North,TX,77095
Sport Clips,Houston,TX204,XX-204 XX204 #XX204 204 #204 TX204,5000 Westheimer #104,TX,77056
Sport Clips,Sugarland,TX206,XX-206 XX206 #XX206 206 #206 TX206,4763 Sweetwater Blvd.,TX,77479
Sport Clips,Tomball,TX207,XX-207 XX207 #XX207 207 #207 TX207,"14030 FM 2920, Ste. C3",TX,77375
Sport Clips,Webster,TX208,XX-208 XX208 #XX208 208 #208 TX208,148 W. Bay Area Blvd.,TX,77598
Sport Clips,Pasadena,TX209,XX-209 XX209 #XX209 209 #209 TX209,5846 Fairmont Pkwy,TX,77505
Sport Clips,Sugarland,TX210,XX-210 XX210 #XX210 210 #210 TX210,4520 S. Highway 6,TX,77478
Sport Clips,Houston,TX211,XX-211 XX211 #XX211 211 #211 TX211,19859 Katy Freeway,TX,77094
Sport Clips,Baytown,TX212,XX-212 XX212 #XX212 212 #212 TX212,5015 Garth Road,TX,77521
Sport Clips,Kingwood,TX214,XX-214 XX214 #XX214 214 #214 TX214,4566 Kingwood Dr.,TX,77345
Sport Clips,Lake Jackson,TX215,XX-215 XX215 #XX215 215 #215 TX215,120 Hwy 332 W. Suite A-6,TX,77566
Sport Clips,The Woodlands,TX216,XX-216 XX216 #XX216 216 #216 TX216,1440-C Lake Woodlands Dr.,TX,77380
Sport Clips,Katy,TX218,XX-218 XX218 #XX218 218 #218 TX218,23501 Cinco Ranch Blvd.,TX,77494
Sport Clips,Houston,TX219,XX-219 XX219 #XX219 219 #219 TX219,5115 Buffalo Speedway #600,TX,77005
Sport Clips,Spring,TX220,XX-220 XX220 #XX220 220 #220 TX220,16718 Champion Forest Dr.,TX,77379
Sport Clips,The Woodlands,TX221,XX-221 XX221 #XX221 221 #221 TX221,6700 Woodlands Parkway,TX,77381
Sport Clips,Houston,TX222,XX-222 XX222 #XX222 222 #222 TX222,"8366 Westheimer, Suite E",TX,77063
Sport Clips,Houston,TX223,XX-223 XX223 #XX223 223 #223 TX223,2621 Shepherd Dr,TX,77098
Sport Clips,Conroe,TX224,XX-224 XX224 #XX224 224 #224 TX224,1317 W. Davis St. Ste. B,TX,77304
Sport Clips,Pearland,TX225,XX-225 XX225 #XX225 225 #225 TX225,"10504 Broadway, Suite C",TX,77584
Sport Clips,Houston,TX226,XX-226 XX226 #XX226 226 #226 TX226,13724 Northwest Freeway,TX,77040
Sport Clips,Cypress,TX228,XX-228 XX228 #XX228 228 #228 TX228,13215 Grant Road Suite #1600,TX,77429
Sport Clips,Cypress,TX229,XX-229 XX229 #XX229 229 #229 TX229,26084 U.S. HWY 290 W. Ste. 160,TX,77429
Sport Clips,Magnolia,TX230,XX-230 XX230 #XX230 230 #230 TX230,6011 FM 1488,TX,77354
Sport Clips,Pearland,TX231,XX-231 XX231 #XX231 231 #231 TX231,3108 Dixie Farm Rd.,TX,77581
Sport Clips,The Woodlands,TX232,XX-232 XX232 #XX232 232 #232 TX232,314 Sawdust Rd.,TX,77380
Sport Clips,Spring,TX233,XX-233 XX233 #XX233 233 #233 TX233,"5941 FM 2920, Suite C",TX,77388
Sport Clips,Humble,TX234,XX-234 XX234 #XX234 234 #234 TX234,19250 W. Lake Houston Pkwy Ste H,TX,77346
Sport Clips,Spring,TX235,XX-235 XX235 #XX235 235 #235 TX235,250 Cypresswood Dr Ste J,TX,77388
Sport Clips,Sugarland,TX236,XX-236 XX236 #XX236 236 #236 TX236,19770 SW Freeway,TX,77479
Sport Clips,Humble,TX237,XX-237 XX237 #XX237 237 #237 TX237,4801 Wilson Rd.,TX,77396
Sport Clips,The Woodlands,TX238,XX-238 XX238 #XX238 238 #238 TX238,"3026 College Park Dr., Ste. D",TX,77384
Sport Clips,Houston,TX239,XX-239 XX239 #XX239 239 #239 TX239,15242 Wallisville Rd. Ste. B,TX,77049
Sport Clips,Rosenberg,TX240,XX-240 XX240 #XX240 240 #240 TX240,"24004 SW Freeway, Ste. 202",TX,77471
Sport Clips,Houston,TX241,XX-241 XX241 #XX241 241 #241 TX241,"8420 Katy Freeway, Ste. 518",TX,77024
Sport Clips,League City,TX242,XX-242 XX242 #XX242 242 #242 TX242,"2860 Gulf Freeway South, Suite E",TX,77573
Sport Clips,Kemah,TX243,XX-243 XX243 #XX243 243 #243 TX243,"212 FM 518, Ste. 104",TX,77565
Sport Clips,Houston,TX244,XX-244 XX244 #XX244 244 #244 TX244,"8705 West Loop South, Suite 200",TX,77096
Sport Clips,Missouri City,TX245,XX-245 XX245 #XX245 245 #245 TX245,"8840 Hwy 6, Suite 120",TX,77459
Sport Clips,Richmond,TX246,XX-246 XX246 #XX246 246 #246 TX246,"22720 Bellaire Blvd., Suite 200",TX,77406
Sport Clips,Houston,TX247,XX-247 XX247 #XX247 247 #247 TX247,1911 Taylor St.,TX,77007
Sport Clips,The Woodlands,TX248,XX-248 XX248 #XX248 248 #248 TX248,"9955 Woodlands Parkway, Suite D",TX,77382
Sport Clips,Katy,TX249,XX-249 XX249 #XX249 249 #249 TX249,1998 Katy Mills Blvd.,TX,77494
Sport Clips,Montgomery,TX250,XX-250 XX250 #XX250 250 #250 TX250,15320 Highway 105 West,TX,77356
Sport Clips,Houston,TX251,XX-251 XX251 #XX251 251 #251 TX251,14013 Memorial Drive,TX,77079
Sport Clips,Houston,TX252,XX-252 XX252 #XX252 252 #252 TX252,"22545 State Highway 249, Ste. 120",TX,77070
Sport Clips,Houston,TX253,XX-253 XX253 #XX253 253 #253 TX253,13141 FM 1960 Road West Suite 800,TX,77065
Sport Clips,Deer Park,TX254,XX-254 XX254 #XX254 254 #254 TX254,"3717 Center Street, Suite D",TX,77536
Sport Clips,Pearland,TX255,XX-255 XX255 #XX255 255 #255 TX255,11037 Shadow Creek Pkwy.,TX,77584
Sport Clips,Livingston,TX256,XX-256 XX256 #XX256 256 #256 TX256,1770 W. Church St.,TX,77351
Sport Clips,Willis,TX257,XX-257 XX257 #XX257 257 #257 TX257,12709 I45 N Suite 250,TX,77318
Sport Clips,Houston,TX258,XX-258 XX258 #XX258 258 #258 TX258,"8498 S Sam Houston Pkwy E, Ste 800",TX,77075
Sport Clips,Houston,TX259,XX-259 XX259 #XX259 259 #259 TX259,103 Yale St.,TX,77007
Sport Clips,Humble,TX260,XX-260 XX260 #XX260 260 #260 TX260,9490 FM 1960 Bypass Ste.400 ,TX,77338
Sport Clips,Houston,TX261,XX-261 XX261 #XX261 261 #261 TX261,2248 W Holcombe,TX,77030
Sport Clips,Spring,TX262,XX-262 XX262 #XX262 262 #262 TX262,Now OPEN!!,TX,77386
Sport Clips,Kingwood,TX263,XX-263 XX263 #XX263 263 #263 TX263,OPENING MARCH 14th!! at 25639 US Highway 59 N #111 (Next to Kroger Marketplace),TX,77339
Sport Clips,Houston,TX264,XX-264 XX264 #XX264 264 #264 TX264,9930 Katy Fwy.,TX,77055
Sport Clips,Victoria,TX280,XX-280 XX280 #XX280 280 #280 TX280,"8806 N. Navarro, Ste. 200",TX,77904
Sport Clips,College Station,TX290,XX-290 XX290 #XX290 290 #290 TX290,"980  East University, Suite 200",TX,77840
Sport Clips,College Station,TX291,XX-291 XX291 #XX291 291 #291 TX291,943 William D. Fitch Pkwy #351,TX,77845
Sport Clips,Killeen,TX292,XX-292 XX292 #XX292 292 #292 TX292,2600 Trimmier Rd. Ste. 700,TX,76542
Sport Clips,Brenham,TX294,XX-294 XX294 #XX294 294 #294 TX294,107 US Hwy. 290 W,TX,77833
Sport Clips,Waco,TX295,XX-295 XX295 #XX295 295 #295 TX295,170 N. New Rd.,TX,76710
Sport Clips,Waco,TX296,XX-296 XX296 #XX296 296 #296 TX296,"2448 W. Loop 340, Suite 28",TX,76711
Sport Clips,Temple,TX297,XX-297 XX297 #XX297 297 #297 TX297,"3550 South General Bruce Dr. Bldg D,  Ste. 118",TX,76504
Sport Clips,Copperas Cove,TX298,XX-298 XX298 #XX298 298 #298 TX298,3010 E Hwy 190 #236,TX,76522
Sport Clips,San Antonio,TX301,XX-301 XX301 #XX301 301 #301 TX301,11075 I-10 W. Suite 308,TX,78230
Sport Clips,San Antonio,TX302,XX-302 XX302 #XX302 302 #302 TX302,2805 Thousand Oaks,TX,78232
Sport Clips,San Antonio,TX303,XX-303 XX303 #XX303 303 #303 TX303,11619 Bandera Road Suite 105,TX,78250
Sport Clips,San Antonio,TX304,XX-304 XX304 #XX304 304 #304 TX304,"1141 N. FM 1604 E., Suite 103",TX,78258
Sport Clips,Selma,TX305,XX-305 XX305 #XX305 305 #305 TX305,8332 Agora Parkway Suite 120,TX,78154
Sport Clips,San Antonio,TX306,XX-306 XX306 #XX306 306 #306 TX306,"6511 W. F.M. 1604 N, Ste. 120",TX,78254
Sport Clips,San Antonio,TX307,XX-307 XX307 #XX307 307 #307 TX307,"17503 La Cantera Pkwy, Suite 114",TX,78257
Sport Clips,San Antonio,TX309,XX-309 XX309 #XX309 309 #309 TX309,119 SW 410,TX,78245
Sport Clips,San Antonio,TX311,XX-311 XX311 #XX311 311 #311 TX311,3326 SE Military Drive Suite 102,TX,78223
Sport Clips,San Antonio,TX312,XX-312 XX312 #XX312 312 #312 TX312,"23002 US Hwy. 281 North, Suite 101",TX,78258
Sport Clips,San Antonio,TX314,XX-314 XX314 #XX314 314 #314 TX314,"754 NW Loop 410, Suite 104",TX,78216
Sport Clips,New Braunfels,TX315,XX-315 XX315 #XX315 315 #315 TX315,"161 Creekside Way, Suite 502",TX,78130
Sport Clips,San Marcos,TX316,XX-316 XX316 #XX316 316 #316 TX316,"651 Barnes Dr., Ste. 203",TX,78666
Sport Clips,Schertz,TX317,XX-317 XX317 #XX317 317 #317 TX317,17244 IH 35 North,TX,78154
Sport Clips,San Antonio,TX318,XX-318 XX318 #XX318 318 #318 TX318,1235 Austin Highway #106,TX,78209
Sport Clips,San Antonio,TX319,XX-319 XX319 #XX319 319 #319 TX319,9427 Culebra Rd.,TX,78251
Sport Clips,Corpus Christi,TX350,XX-350 XX350 #XX350 350 #350 TX350,"1502 Airline Dr., Ste. 120",TX,78412
Sport Clips,Lewisville,TX400,XX-400 XX400 #XX400 400 #400 TX400,"4770 State Hwy. 121, Ste. 110",TX,75056
Sport Clips,Bedford,TX401,XX-401 XX401 #XX401 401 #401 TX401,3208 Harwood,TX,76021
Sport Clips,Farmers Branch,TX402,XX-402 XX402 #XX402 402 #402 TX402,13901 Midway Road,TX,75244
Sport Clips,Lewisville,TX403,XX-403 XX403 #XX403 403 #403 TX403,291 E. Roundgrove Rd. #160,TX,75067
Sport Clips,Plano,TX404,XX-404 XX404 #XX404 404 #404 TX404,4701 W. Park #103,TX,75093
Sport Clips,Irving,TX405,XX-405 XX405 #XX405 405 #405 TX405,7707 N MacArthur Blvd. Suite 120,TX,75063
Sport Clips,Carrollton,TX406,XX-406 XX406 #XX406 406 #406 TX406,3320 E. Hebron Pkwy.,TX,75010
Sport Clips,North Richland Hills,TX407,XX-407 XX407 #XX407 407 #407 TX407,9147 Boulevard 26  # 460,TX,76180
Sport Clips,Frisco,TX408,XX-408 XX408 #XX408 408 #408 TX408,8300 Gaylord Parkway #10,TX,75034
Sport Clips,Watauga,TX409,XX-409 XX409 #XX409 409 #409 TX409,"8004 Denton Highway, Suite 144",TX,76148
Sport Clips,Grapevine,TX410,XX-410 XX410 #XX410 410 #410 TX410,1527 W. SH 114,TX,76051
Sport Clips,Flower Mound,TX411,XX-411 XX411 #XX411 411 #411 TX411,"1901 Long Prairie, Suite #112",TX,75028
Sport Clips,Dallas,TX412,XX-412 XX412 #XX412 412 #412 TX412,4727 Frankford Rd. Suite 357,TX,75287
Sport Clips,Hickory Creek,TX414,XX-414 XX414 #XX414 414 #414 TX414,4040 FM 2181,TX,75065
Sport Clips,Carrollton,TX415,XX-415 XX415 #XX415 415 #415 TX415,"4009 Old Denton, Suite 100",TX,75007
Sport Clips,Cedar Hill,TX416,XX-416 XX416 #XX416 416 #416 TX416,213 N. Highway 67 Ste 400-A,TX,75104
Sport Clips,Flower Mound,TX417,XX-417 XX417 #XX417 417 #417 TX417,6101 Long Prairie Road Suite 724,TX,75028
Sport Clips,Ft. Worth,TX418,XX-418 XX418 #XX418 418 #418 TX418,1664 S. University  D. Suite C,TX,76107
Sport Clips,Murphy,TX419,XX-419 XX419 #XX419 419 #419 TX419,120 E. FM 544 #76,TX,75094
Sport Clips,Garland,TX420,XX-420 XX420 #XX420 420 #420 TX420,5949 Broadway #125,TX,75043
Sport Clips,North Richland Hills,TX421,XX-421 XX421 #XX421 421 #421 TX421,8528 Davis Blvd. Suite 140,TX,76180
Sport Clips,Mansfield,TX422,XX-422 XX422 #XX422 422 #422 TX422,1811 Hwy 287 N,TX,76063
Sport Clips,Allen,TX423,XX-423 XX423 #XX423 423 #423 TX423,1008 W. McDermott Dr. Suite #200,TX,75013
Sport Clips,Dallas,TX424,XX-424 XX424 #XX424 424 #424 TX424,3001 Knox St. Suite 101A,TX,75205
Sport Clips,Roanoke,TX425,XX-425 XX425 #XX425 425 #425 TX425,1224 N. Hwy 377 Ste. 305,TX,76262
Sport Clips,Denton,TX426,XX-426 XX426 #XX426 426 #426 TX426,1400 Loop 288 Ste. 101-2,TX,76205
Sport Clips,Lewisville,TX427,XX-427 XX427 #XX427 427 #427 TX427,850 Valley Ridge Blvd. Suite #116,TX,75077
Sport Clips,Garland,TX428,XX-428 XX428 #XX428 428 #428 TX428,5255 George Bush Turnpike,TX,75040
Sport Clips,McKinney,TX429,XX-429 XX429 #XX429 429 #429 TX429,2950 Craig Dr. Ste. 302,TX,75070
Sport Clips,Burleson,TX430,XX-430 XX430 #XX430 430 #430 TX430,140 John Jones Blvd.  (FM 731),TX,76028
Sport Clips,Dallas,TX431,XX-431 XX431 #XX431 431 #431 TX431,307 Preston Royal Shopping Center,TX,75230
Sport Clips,Hurst,TX432,XX-432 XX432 #XX432 432 #432 TX432,1314 W. Pipeline Rd. Ste. A06,TX,76053
Sport Clips,Weatherford,TX434,XX-434 XX434 #XX434 434 #434 TX434,"116 E Interstate 20, Ste. 110",TX,76086
Sport Clips,Rockwall,TX435,XX-435 XX435 #XX435 435 #435 TX435,2789 Ridge Road ,TX,75032
Sport Clips,Coppell,TX436,XX-436 XX436 #XX436 436 #436 TX436,240 N. Denton Tap Rd.  Suite 430,TX,75019
Sport Clips,Little Elm,TX437,XX-437 XX437 #XX437 437 #437 TX437,2763 ElDorado Parkway #140,TX,75068
Sport Clips,Frisco,TX438,XX-438 XX438 #XX438 438 #438 TX438,4150 Legacy Drive Suite 414,TX,75034
Sport Clips,Fort Worth,TX439,XX-439 XX439 #XX439 439 #439 TX439,4811 Overton Ridge Blvd,TX,76132
Sport Clips,Dallas,TX440,XX-440 XX440 #XX440 440 #440 TX440,"15212 Montfort Dr., Ste. 312",TX,75248
Sport Clips,Plano,TX441,XX-441 XX441 #XX441 441 #441 TX441,"1201 E. Spring Creek Parkway, Ste. 170",TX,75086
Sport Clips,Forney,TX442,XX-442 XX442 #XX442 442 #442 TX442,501 N. FM 548 #150,TX,75126
Sport Clips,McKinney,TX443,XX-443 XX443 #XX443 443 #443 TX443,"8930 State Hwy. 121, Suite 546",TX,75070
Sport Clips,McKinney,TX444,XX-444 XX444 #XX444 444 #444 TX444,"1411 N. Custer Rd., Suite 800",TX,75071
Sport Clips,Euless,TX445,XX-445 XX445 #XX445 445 #445 TX445,3010 State Hwy. 121 #600,TX,76039
Sport Clips,Dallas,TX446,XX-446 XX446 #XX446 446 #446 TX446,4007 Lemmon Ave.,TX,75219
Sport Clips,Dallas,TX447,XX-447 XX447 #XX447 447 #447 TX447,6404 Gaston Ave.,TX,75214
Sport Clips,Wylie,TX448R,XX-448R XX448R #XX448R 448R #448R TX448R,805 Woodbridge Pkwy #600,TX,75098
Sport Clips,Rowlett,TX449,XX-449 XX449 #XX449 449 #449 TX449,"4301 Lakeview Parkway, Ste. 200",TX,75088
Sport Clips,Grand Prairie,TX450,XX-450 XX450 #XX450 450 #450 TX450,"3040 W. Camp Wisdom Rd., Ste. 160",TX,75052
Sport Clips,McKinney,TX451,XX-451 XX451 #XX451 451 #451 TX451,"1925 North Central Expressway, Ste. 460",TX,75070
Sport Clips,Ft. Worth,TX452,XX-452 XX452 #XX452 452 #452 TX452,"2880 Heritage Trace Pkwy., Ste. 502",TX,76177
Sport Clips,Denton,TX453,XX-453 XX453 #XX453 453 #453 TX453,"5017 Teasley Lane, Suite 109",TX,76210
Sport Clips,Richardson,TX454,XX-454 XX454 #XX454 454 #454 TX454,"700 E. Campbell Road, Suite 140",TX,75082
Sport Clips,Frisco,TX455,XX-455 XX455 #XX455 455 #455 TX455,11550 Legacy Drive,TX,75034
Sport Clips,Arlington,TX456,XX-456 XX456 #XX456 456 #456 TX456,1237 N. Little School Rd. Suite D,TX,76017
Sport Clips,Frisco,TX457,XX-457 XX457 #XX457 457 #457 TX457,"8445 Preston Rd., Suite 210",TX,75034
Sport Clips,Allen,TX458,XX-458 XX458 #XX458 458 #458 TX458,"190 East Stacy Road, Suite 208",TX,75002
Sport Clips,Arlington,TX459,XX-459 XX459 #XX459 459 #459 TX459,5001 South Cooper Ste. 117,TX,76017
Sport Clips,Plano,TX460,XX-460 XX460 #XX460 460 #460 TX460,"7120 Coit Road, Suite 118",TX,75025
Sport Clips,Dallas,TX461,XX-461 XX461 #XX461 461 #461 TX461,5521 Greenville Avenue Suite # 110,TX,75206
Sport Clips,Denton,TX462,XX-462 XX462 #XX462 462 #462 TX462,"2520 West University, Suite 1170",TX,76201
Sport Clips,Dallas,TX463,XX-463 XX463 #XX463 463 #463 TX463,6176 Retail Road Suite 200,TX,75231
Sport Clips,Sherman,TX492,XX-492 XX492 #XX492 492 #492 TX492,4060 Hwy 75 N.,TX,75090
Sport Clips,Abilene,TX493,XX-493 XX493 #XX493 493 #493 TX493,4217 Southwest Dr.,TX,79606
Sport Clips,Port Arthur,TX501,XX-501 XX501 #XX501 501 #501 TX501,8555 Memorial Blvd. Suite 300,TX,77642
Sport Clips,Beaumont,TX502,XX-502 XX502 #XX502 502 #502 TX502,"3939 Dowlen, Ste 6",TX,77706
Sport Clips,Tyler,TX503,XX-503 XX503 #XX503 503 #503 TX503,5365 S. Broadway,TX,75703
Sport Clips,Lindale,TX504,XX-504 XX504 #XX504 504 #504 TX504,3222 S. Main St.,TX,75771
Sport Clips,Tyler,TX505,XX-505 XX505 #XX505 505 #505 TX505,3707 Troup Highway,TX,75703
Sport Clips,Longview,TX506,XX-506 XX506 #XX506 506 #506 TX506,"3080 North Eastman Rd., #107",TX,75605
Sport Clips,Palestine,TX507,XX-507 XX507 #XX507 507 #507 TX507,419 Old Elkhart Road,TX,75801
Sport Clips,Nacogdoches,TX508,XX-508 XX508 #XX508 508 #508 TX508,"4919 North St, Suite 103",TX,75965
Sport Clips,McAllen,TX601,XX-601 XX601 #XX601 601 #601 TX601,4100 N. 2nd St. Suite 400,TX,78501
Sport Clips,McAllen,TX603,XX-603 XX603 #XX603 603 #603 TX603,"3300 Expressway 83, Bldg. 1200, # 1230",TX,78501
Sport Clips,Harlingen,TX604,XX-604 XX604 #XX604 604 #604 TX604,"2309 West Lincoln Ave, Suite A",TX,78550
Sport Clips,Laredo,TX651,XX-651 XX651 #XX651 651 #651 TX651,"2019 N.E. Bob Bullock Loop, C-250        ",TX,78045
Sport Clips,Brownsville,TX690,XX-690 XX690 #XX690 690 #690 TX690,3000 Pablo Kisel Blvd. Suite 300 B-1,TX,78526
Sport Clips,Amarillo,TX701,XX-701 XX701 #XX701 701 #701 TX701,"3240 Soncy Road, Suite 200",TX,79124
Sport Clips,Amarillo,TX702,XX-702 XX702 #XX702 702 #702 TX702,2325 S. Georgia St.,TX,79109
Sport Clips,Lubbock,TX710,XX-710 XX710 #XX710 710 #710 TX710,"4930 S. Loop 289, Ste. 200",TX,79414
Sport Clips,Lubbock,TX711,XX-711 XX711 #XX711 711 #711 TX711,"4505 98th St., Ste. 150",TX,79424
Sport Clips,Lubbock,TX712,XX-712 XX712 #XX712 712 #712 TX712,3719 19th Street,TX,79410
Sport Clips,San Angelo,TX720,XX-720 XX720 #XX720 720 #720 TX720,4419 Sunset Dr.,TX,76901
Sport Clips,Midland,TX730,XX-730 XX730 #XX730 730 #730 TX730,"3208 North Loop 250 West, Suite 400",TX,79707
Sport Clips,Odessa,TX731,XX-731 XX731 #XX731 731 #731 TX731,6113 E Hwy 191,TX,79762
Sport Clips,Wichita Falls,TX740,XX-740 XX740 #XX740 740 #740 TX740,3911 Lawrence Road Suite 300,TX,76308
Sport Clips,El Paso,TX801,XX-801 XX801 #XX801 801 #801 TX801,1830 N. Zaragoza #103,TX,79936
Sport Clips,El Paso,TX802,XX-802 XX802 #XX802 802 #802 TX802,655 Sunland Park Dr.,TX,79912
Sport Clips,Horizon City,TX803,XX-803 XX803 #XX803 803 #803 TX803,13900 Horizon Blvd,TX,79928
Sport Clips,Texarkana,TX901,XX-901 XX901 #XX901 901 #901 TX901,2523 Richmond Road,TX,75503
Sport Clips,Holladay,UT101,XX-101 XX101 #XX101 101 #101 UT101,1871 E. Murray Holladay Road,UT,84117
Sport Clips,American Fork,UT102,XX-102 XX102 #XX102 102 #102 UT102,368 N. 750 W. #2,UT,84003
Sport Clips,South Jordan,UT103,XX-103 XX103 #XX103 103 #103 UT103,10473 South Redwood Road,UT,84095
Sport Clips,Orem,UT104,XX-104 XX104 #XX104 104 #104 UT104,254 East University Pkwy.,UT,84058
Sport Clips,Cottonwood Heights,UT105,XX-105 XX105 #XX105 105 #105 UT105,6930 S. Park Centre Dr.,UT,84047
Sport Clips,West Jordan,UT106,XX-106 XX106 #XX106 106 #106 UT106,"7726 Campus View Drive, Bldg. C, Space 110",UT,84084
Sport Clips,Sandy,UT107,XX-107 XX107 #XX107 107 #107 UT107,10393 South State St.,UT,84070
Sport Clips,Lindon,UT108,XX-108 XX108 #XX108 108 #108 UT108,677 N. State Street,UT,84042
Sport Clips,West Bountiful,UT109,XX-109 XX109 #XX109 109 #109 UT109,175 North 500 West,UT,84087
Sport Clips,Riverton,UT110,XX-110 XX110 #XX110 110 #110 UT110,3728 W 13400 S,UT,84065
Sport Clips,West Valley,UT111,XX-111 XX111 #XX111 111 #111 UT111,2917 South Glen Eagles Drive,UT,84128
Sport Clips,Heber City,UT112,XX-112 XX112 #XX112 112 #112 UT112,1268 South US 189 Suite 700,UT,84032
Sport Clips,Riverdale,UT114,XX-114 XX114 #XX114 114 #114 UT114,4217 Riverdale Rd.,UT,84405
Sport Clips,Salt Lake City,UT115,XX-115 XX115 #XX115 115 #115 UT115,"613 E. 400 S, Suite A-3",UT,84102
Sport Clips,Sandy,UT116,XX-116 XX116 #XX116 116 #116 UT116,8675 S. Highland Dr.,UT,84093
Sport Clips,Draper,UT117,XX-117 XX117 #XX117 117 #117 UT117,280 East 12300 South #114,UT,84020
Sport Clips,Layton,UT118,XX-118 XX118 #XX118 118 #118 UT118,523 West South Ring Road,UT,84041
Sport Clips,Spanish Fork,UT119,XX-119 XX119 #XX119 119 #119 UT119,571 E 1000 N,UT,84660
Sport Clips,Clinton,UT120,XX-120 XX120 #XX120 120 #120 UT120,1912 West 1800 North #B103,UT,84015
Sport Clips,Manassas,VA105,XX-105 XX105 #XX105 105 #105 VA105,9934 Sowder Village Square,VA,20109
Sport Clips,Fredericksburg,VA106,XX-106 XX106 #XX106 106 #106 VA106,1663 Carl D Silver Parkway ,VA,22401
Sport Clips,Centreville,VA107,XX-107 XX107 #XX107 107 #107 VA107,14169 Saint Germain Dr,VA,20121
Sport Clips,Fairfax,VA108,XX-108 XX108 #XX108 108 #108 VA108,11224 James Swart Circle,VA,22030
Sport Clips,Fredericksburg,VA109,XX-109 XX109 #XX109 109 #109 VA109,9849 Jefferson Davis Highway,VA,22407
Sport Clips,Haymarket,VA110,XX-110 XX110 #XX110 110 #110 VA110,6434 Trading Square ,VA,20169
Sport Clips,Alexandria,VA111,XX-111 XX111 #XX111 111 #111 VA111,7732B Richmond Highway,VA,22306
Sport Clips,Springfield,VA112,XX-112 XX112 #XX112 112 #112 VA112,6575K Frontier Drive,VA,22150
Sport Clips,Warrenton,VA114,XX-114 XX114 #XX114 114 #114 VA114,129 W Lee Highway #210,VA,20186
Sport Clips,Richmond,VA201,XX-201 XX201 #XX201 201 #201 VA201,11736 West Broad St. Ste. 107,VA,23233
Sport Clips,Glen Allen,VA202,XX-202 XX202 #XX202 202 #202 VA202,1070 Virginia Center Parkway Ste. 103,VA,23059
Sport Clips,Midlothian,VA203,XX-203 XX203 #XX203 203 #203 VA203,12038 South Shore Point Drive,VA,23112
Sport Clips,Richmond,VA204,XX-204 XX204 #XX204 204 #204 VA204,9320 W Broad Street Ste. B-2,VA,23294
Sport Clips,Mechanicsville,VA205,XX-205 XX205 #XX205 205 #205 VA205,"7230 Bell Creek Rd., Ste. L",VA,23111
Sport Clips,Chesterfield,VA206,XX-206 XX206 #XX206 206 #206 VA206,11544 Busy Street,VA,23236
Sport Clips,Richmond,VA207,XX-207 XX207 #XX207 207 #207 VA207,1700 Willow Lawn Drive Suite 109,VA,23230
Sport Clips,Chester,VA208,XX-208 XX208 #XX208 208 #208 VA208,11914 Iron Bridge Plaza,VA,23831
Sport Clips,Midlothian,VA209,XX-209 XX209 #XX209 209 #209 VA209,15752 WC Main Street #215,VA,23113
Sport Clips,Colonial Heights,VA210,XX-210 XX210 #XX210 210 #210 VA210,1907 Southpark Boulevard,VA,23834
Sport Clips,Richmond,VA211,XX-211 XX211 #XX211 211 #211 VA211,1316 Gaskins Rd.,VA,23238
Sport Clips,Newport News,VA301,XX-301 XX301 #XX301 301 #301 VA301,"12551 Jefferson Ave., Ste. 405",VA,23602
Sport Clips,Williamsburg,VA302,XX-302 XX302 #XX302 302 #302 VA302,5206 Monticello Ave.,VA,23188
Sport Clips,Hampton,VA303,XX-303 XX303 #XX303 303 #303 VA303,4500 Kilgore Road,VA,23666
Sport Clips,Chesapeake,VA401,XX-401 XX401 #XX401 401 #401 VA401,"741 Eden Way N, Ste. 306",VA,23320
Sport Clips,Virginia Beach,VA402,XX-402 XX402 #XX402 402 #402 VA402,"4554 Virginia Beach Rd., Ste. 670",VA,23462
Sport Clips,Chesapeake,VA403,XX-403 XX403 #XX403 403 #403 VA403,4105 Chesapeake Square Blvd. Suite 104,VA,23321
Sport Clips,Virginia Beach,VA404,XX-404 XX404 #XX404 404 #404 VA404,"2165 General Booth Blvd, Suite 157",VA,23454
Sport Clips,Virginia Beach,VA405,XX-405 XX405 #XX405 405 #405 VA405,545A Hilltop Plaza,VA,23454
Sport Clips,Suffolk,VA406,XX-406 XX406 #XX406 406 #406 VA406,1217 North Main Street #203,VA,23434
Sport Clips,Blacksburg,VA501,XX-501 XX501 #XX501 501 #501 VA501,1480 South Main Street Suite 112,VA,24060
Sport Clips,Roanoke,VA502,XX-502 XX502 #XX502 502 #502 VA502,4208-F Franklin Road,VA,24014
Sport Clips,Lynchburg,VA503,XX-503 XX503 #XX503 503 #503 VA503,"4018 Wards Road, Suite E",VA,24502
Sport Clips,Charlottesville,VA601,XX-601 XX601 #XX601 601 #601 VA601,1650 Rio Road E,VA,22901
Sport Clips,Harrisonburg,VA701,XX-701 XX701 #XX701 701 #701 VA701,1645 Reservoir St. Suite 180,VA,22801
Sport Clips,Rutland,VT101,XX-101 XX101 #XX101 101 #101 VT101,474 Holiday Dr Suite 3,VT,5701
Sport Clips,Bellevue,WA101,XX-101 XX101 #XX101 101 #101 WA101,1645 140th Ave NE,WA,98005
Sport Clips,Federal Way,WA102,XX-102 XX102 #XX102 102 #102 WA102,"1401 South 348th St., #M104",WA,98003
Sport Clips,Issaquah,WA103,XX-103 XX103 #XX103 103 #103 WA103,775 NW Gilman Blvd.,WA,98027
Sport Clips,Covington,WA104,XX-104 XX104 #XX104 104 #104 WA104,17307 SE 272nd St,WA,98042
Sport Clips,Marysville,WA105,XX-105 XX105 #XX105 105 #105 WA105,"17020 Twin Lakes Ave., Ste. 104",WA,98271
Sport Clips,Kirkland,WA106,XX-106 XX106 #XX106 106 #106 WA106,10637 NE 68th St.,WA,98033
Sport Clips,Lynnwood,WA107,XX-107 XX107 #XX107 107 #107 WA107,12926 Mukilteo Speedway,WA,98087
Sport Clips,Bonney Lake,WA108,XX-108 XX108 #XX108 108 #108 WA108,"21260 SR 410 E, Ste. B21260",WA,98391
Sport Clips,Seattle,WA109,XX-109 XX109 #XX109 109 #109 WA109,1029 NE 65th St.,WA,98815
Sport Clips,Woodinville,WA110,XX-110 XX110 #XX110 110 #110 WA110,17705 140th Ave NE,WA,98072
Sport Clips,Mill Creek,WA111,XX-111 XX111 #XX111 111 #111 WA111,1018 164th St SE,WA,98012
Sport Clips,Redmond,WA112,XX-112 XX112 #XX112 112 #112 WA112,17158 Redmond Way,WA,98052
Sport Clips,Bothell,WA114,XX-114 XX114 #XX114 114 #114 WA114,21225 Bothell Everett Hwy,WA,98021
Sport Clips,Shoreline,WA115,XX-115 XX115 #XX115 115 #115 WA115,15407 Westminster Way N #5A-2,WA,98133
Sport Clips,Puyallup,WA116,XX-116 XX116 #XX116 116 #116 WA116,16816 Meridian Ave E ,WA,98375
Sport Clips,Lake Stevens,WA117,XX-117 XX117 #XX117 117 #117 WA117,8933 Market Pl. NE,WA,98258
Sport Clips,Renton,WA118,XX-118 XX118 #XX118 118 #118 WA118,960 Park Avenue N,WA,98057
Sport Clips,Bellevue,WA119,XX-119 XX119 #XX119 119 #119 WA119,3700 Factoria Blvd SE,WA,98006
Sport Clips,Sammamish,WA120,XX-120 XX120 #XX120 120 #120 WA120,3052 Issaquah Pine Lake Rd SE,WA,98075
Sport Clips,Maple Valley,WA121,XX-121 XX121 #XX121 121 #121 WA121,24081 SE 264th St.,WA,98038
Sport Clips,Spokane,WA201,XX-201 XX201 #XX201 201 #201 WA201,"4805 N. Division St.,Suite 106",WA,99207
Sport Clips,Spokane Valley,WA202,XX-202 XX202 #XX202 202 #202 WA202,10 North Sullivan Rd.,WA,99037
Sport Clips,Vancouver,WA301,XX-301 XX301 #XX301 301 #301 WA301,19171 SE Mill Plain Blvd Ste 103,WA,98683
Sport Clips,Vancouver,WA302,XX-302 XX302 #XX302 302 #302 WA302,310 NE 78th St,WA,98665
Sport Clips,Vancouver,WA303,XX-303 XX303 #XX303 303 #303 WA303,11215 NE Fourth Plain Blvd,WA,98662
Sport Clips,Yakima,WA401,XX-401 XX401 #XX401 401 #401 WA401,140 S 72nd Ave,WA,98908
Sport Clips,West Allis,WI101,XX-101 XX101 #XX101 101 #101 WI101,2913 S. 108th Street,WI,53227
Sport Clips,Brookfield,WI102,XX-102 XX102 #XX102 102 #102 WI102,2095 N. Calhoun Rd.,WI,53005
Sport Clips,Greenfield,WI103,XX-103 XX103 #XX103 103 #103 WI103,7915 W. Layton Ave.,WI,53220
Sport Clips,Pewaukee,WI104,XX-104 XX104 #XX104 104 #104 WI104,1279 Capitol Dr.,WI,53072
Sport Clips,Kenosha,WI105,XX-105 XX105 #XX105 105 #105 WI105,7114 118th Avenue,WI,53142
Sport Clips,Germantown,WI106,XX-106 XX106 #XX106 106 #106 WI106,W182 N9606 Appleton Ave,WI,53022
Sport Clips,Racine,WI107,XX-107 XX107 #XX107 107 #107 WI107,"5502 Washington Ave, Suite 200",WI,53406
Sport Clips,Franklin,WI108,XX-108 XX108 #XX108 108 #108 WI108,7700 S. Lovers Lane,WI,53132
Sport Clips,Brookfield,WI109,XX-109 XX109 #XX109 109 #109 WI109,12460B W. Capitol Dr.,WI,53005
Sport Clips,Waukesha,WI110,XX-110 XX110 #XX110 110 #110 WI110,2450 N Grandview Blvd. Suite F,WI,53188
Sport Clips,West Bend,WI111,XX-111 XX111 #XX111 111 #111 WI111,1739 S Main St ,WI,53095
Sport Clips,Glendale,WI112,XX-112 XX112 #XX112 112 #112 WI112,6150 N. Port Washington Rd,WI,53217
Sport Clips,Eau Claire,WI201,XX-201 XX201 #XX201 201 #201 WI201,4665 Keystone Crossing,WI,54701
Sport Clips,Chippewa Falls,WI202,XX-202 XX202 #XX202 202 #202 WI202,3034 Commercial Blvd.,WI,54729
Sport Clips,Eau Claire,WI203,XX-203 XX203 #XX203 203 #203 WI203,"2741 North Clairemont Ave., Ste. F",WI,54703
Sport Clips,Onalaska,WI204,XX-204 XX204 #XX204 204 #204 WI204,1230 Crossing Meadows Drive,WI,54650
Sport Clips,Green Bay,WI301,XX-301 XX301 #XX301 301 #301 WI301,"820 Willard Dr., Ste. 200",WI,54304
Sport Clips,Green Bay,WI302,XX-302 XX302 #XX302 302 #302 WI302,"2365 W. Mason Street, Suite 1",WI,54313
Sport Clips,Green Bay,WI303,XX-303 XX303 #XX303 303 #303 WI303,1976 Lime Kiln Rd Suite B,WI,54311
Sport Clips,Plover,WI401,XX-401 XX401 #XX401 401 #401 WI401,122 Crossroads Dr.,WI,54467
Sport Clips,Wausau,WI402,XX-402 XX402 #XX402 402 #402 WI402,4109 Rib Mountain Dr. ,WI,54401
Sport Clips,Appleton,WI501,XX-501 XX501 #XX501 501 #501 WI501,4343 W. Wisconsin Ave.,WI,54913
Sport Clips,OshKosh,WI502,XX-502 XX502 #XX502 502 #502 WI502,536 S. Koeller St.,WI,54902
Sport Clips,Fitchburg,WI601,XX-601 XX601 #XX601 601 #601 WI601,6231 McKee Road,WI,53719
Sport Clips,Madison,WI602,XX-602 XX602 #XX602 602 #602 WI602,"701 S. Gammon Rd., Ste. 3",WI,53707
Sport Clips,Middleton,WI603,XX-603 XX603 #XX603 603 #603 WI603,2189 Deming Way,WI,53562
Sport Clips,Janesville,WI604,XX-604 XX604 #XX604 604 #604 WI604,2929 Milton Ave #160,WI,53545
Sport Clips,Sun Prairie,WI605,XX-605 XX605 #XX605 605 #605 WI605,2828 Prairie Lakes Dr #103,WI ,53590
Sport Clips,Madison,WI606,XX-606 XX606 #XX606 606 #606 WI606,4020 University Ave,WI,53705
Sport Clips,Hudson,WI901,XX-901 XX901 #XX901 901 #901 WI901,1049 Pearson Drive,WI,54016
Sport Clips,South Charleston,WV101,XX-101 XX101 #XX101 101 #101 WV101,225 RHL Blvd,WV,25309
