keywords,city,Aggdata Store Number,store_number,address,state,zip_code
Sprouts Farmers Market,Chandler,1,1,1959 W. Ray Rd,AZ,85224
Sprouts Farmers Market,Scottsdale,2,2,9301 E. Shea Blvd.,AZ,85260
Sprouts Farmers Market,Glendale,3,3,5665 W. Bell Rd.,AZ,85308
Sprouts Farmers Market,Phoenix,4,4,12415 N. Tatum Blvd,AZ,85032
Sprouts Farmers Market,Mesa,5,5,1933 E. Brown Rd,AZ,85213
Sprouts Farmers Market,Peoria,6,6,8375 W. Thunderbird Rd.,AZ,85381
Sprouts Farmers Market,Phoenix,7,7,8040 N. 19th Ave,AZ,85021
Sprouts Farmers Market,Phoenix,8,8,2824 E. Indian School Rd.,AZ,85016
Sprouts Farmers Market,Glendale,9,9,5130 W. Peoria Ave.,AZ,85302
Sprouts Farmers Market,Mesa,10,10,5225 E. Southern Ave.,AZ,85206
Sprouts Farmers Market,Oro Valley,11,11,7665 N. Oracle Way.,AZ,85704
Sprouts Farmers Market,Surprise,12,12,13759 W. Bell Rd.,AZ,85374
Sprouts Farmers Market,Avondale,13,13,1813 N. Dysart Rd.,AZ,85392
Sprouts Farmers Market,Gilbert,14,14,2582 S. Val Vista Dr.,AZ,85296
Sprouts Farmers Market,Chandler,15,15,2855 S. Alma School Rd.,AZ,85286
Sprouts Farmers Market,Phoenix,16,16,4735 E. Ray Rd.,AZ,85044
Sprouts Farmers Market,Phoenix,17,17,1625 E. Glendale Ave,AZ,85020
Sprouts Farmers Market,Phoenix,18,18,245 East Bell Road #15,AZ,85022
Sprouts Farmers Market,Scottsdale,19,19,4402 N. Miller Road,AZ,85251
Sprouts Farmers Market,Tempe,20,20,1706 E. Southern Avenue,AZ,85282
Sprouts Farmers Market,Tucson,21,21,3860 West River Road,AZ,85741
Sprouts Farmers Market,Tucson,22,22,7877 East Broadway Boulevard,AZ,85710
Sprouts Farmers Market,Tucson,23,23,4282 N.1st Avenue,AZ,85719
Sprouts Farmers Market,Tucson,24,24,4645 East Speedway Boulevard,AZ,85712
Sprouts Farmers Market,Flagstaff,26,26,1560 N. Riordan Rand Rd.,AZ,86001
Sprouts Farmers Market,Deer Valley,27,27,6760 W. Deer Valley Rd,AZ,85310
Sprouts Farmers Market,Plano,101,101,4100 E. Legacy Dr.,TX,75024
Sprouts Farmers Market,Flower Mound,102,102,2301 Cross Timbers Rd.,TX,75028
Sprouts Farmers Market,Dallas,103,103,11722 Marsh Ln.,TX,75229
Sprouts Farmers Market,Southlake,104,104,220 Randol Mill Ave.,TX,76092
Sprouts Farmers Market,Frisco,105,105,5190 Preston Rd.,TX,75034
Sprouts Farmers Market,Richardson,106,106,1343 W. Campbell Rd.,TX,75080
Sprouts Farmers Market,Murphy,107,107,207 E. FM 544,TX,75094
Sprouts Farmers Market,Coppell,108,108,110 W. Sandy Lake Rd.,TX,75019
Sprouts Farmers Market,Round Rock,110,110,110 Interstate Hwy. 35 North,TX,78681
Sprouts Farmers Market,Austin,112,112,10225 Research Blvd.,TX,78759
Sprouts Farmers Market,Cedar Hill,113,113,362 E. FM 1382,TX,75104
Sprouts Farmers Market,Fort Worth,114,114,4650 SW Loop 820,TX,76109
Sprouts Farmers Market,Carrollton,115,115,1745 E. Hebron Pkwy.,TX,75010
Sprouts Farmers Market,Austin,117,117,4006 S. Lamar Blvd.,TX,78704
Sprouts Farmers Market,San Antonio,118,118,8101 Callaghan Rd.,TX,78230
Sprouts Farmers Market,Corpus Christi,119,119,1440 Airline Rd.,TX,78412
Sprouts Farmers Market,El Paso,120,120,6100 N. Mesa St.,TX,79912
Sprouts Farmers Market,McAllen,121,121,2008 N. 10th St.,TX,78501
Sprouts Farmers Market,San Antonio,122,122,2502 Nacogdoches Rd.,TX,78217
Sprouts Farmers Market,San Antonio,123,123,17700 N. US Hwy 281,TX,78232
Sprouts Farmers Market,Lubbock,124,124,8201 Quaker Ave.,TX,79424
Sprouts Farmers Market,Austin,125,125,6920 Manchaca Road,TX,78745
Sprouts Farmers Market,Dallas,126,126,1800 North Henderson Avenue,TX,75206
Sprouts Farmers Market,Katy,127,127,23105 Cinco Ranch Blvd.,TX,77494
Sprouts Farmers Market,Houston,130,130,22506 Tomball Parkway,TX,77070
Sprouts Farmers Market,Houston,131,131,7055 Hwy. 6 N.,TX,77095
Sprouts Farmers Market,McKinney,132,132,9241 Virginia Pkwy,TX,75071
Sprouts Farmers Market,Houston,133,133,11940 Westheimer Rd.,TX,77077
Sprouts Farmers Market,Keller,134,134,2003 S. Main Street,TX,76248
Sprouts Farmers Market,Overland Park,171,171,6821 W. 135th Street,KS,66223
Sprouts Farmers Market,El Cajon,202,202,152 N. 2nd St.,CA,92021
Sprouts Farmers Market,San Marcos,203,203,149 S. Las Posas Rd.,CA,92078
Sprouts Farmers Market,Torrance,204,204,4230 Pacific Coast Hwy.,CA,90505
Sprouts Farmers Market,Claremont,205,205,835 W. Foothill Blvd.,CA,91711
Sprouts Farmers Market,Irvine,206,206,3775 Alton Pkwy.,CA,92606
Sprouts Farmers Market,Tustin,207,207,14945 Holt Ave.,CA,92780
Sprouts Farmers Market,Seal Beach,208,208,12301 Seal Beach Blvd.,CA,90740
Sprouts Farmers Market,Brea,209,209,735 E. Birch St.,CA,92821
Sprouts Farmers Market,Riverside,210,210,475 E. Alessandro Blvd.,CA,92508
Sprouts Farmers Market,Orange,211,211,1500 E. Village Way,CA,92865
Sprouts Farmers Market,Huntington Beach,212,212,9861 Adams Ave.,CA,92646
Sprouts Farmers Market,San Diego,213,213,11710 Carmel Mountain Rd.,CA,92128
Sprouts Farmers Market,Thousand Oaks,214,214,600 W. Hillcrest Dr.,CA,91360
Sprouts Farmers Market,Culver City,215,215,5660 Sepulveda Blvd.,CA,90230
Sprouts Farmers Market,Sunnyvale,216,216,111 E. El Camino Real,CA,94087
Sprouts Farmers Market,Pasadena,217,217,39 N. Rosemead Blvd.,CA,91107
Sprouts Farmers Market,Valencia,218,218,24285 W. Magic Mountain Pkwy.,CA,91355
Sprouts Farmers Market,Roseville,219,219,6760 Stanford Ranch Rd.,CA,95678
Sprouts Farmers Market,Thousand Oaks,220,220,1012 S. Westlake Blvd.,CA,91361
Sprouts Farmers Market,Dublin,221,221,7153 Amador Plaza Rd.,CA,94568
Sprouts Farmers Market,Redondo Beach,222,222,1515 Hawthorne Blvd.,CA,90278
Sprouts Farmers Market,Granada Hills,223,223,10821 N. Zelzah Ave.,CA,91344
Sprouts Farmers Market,Encinitas,224,224,1327 Encinitas Blvd.,CA,92024
Sprouts Farmers Market,La Mesa,225,225,4630 Palm Ave.,CA,91941
Sprouts Farmers Market,San Diego,226,226,4175 Park Blvd.,CA,92103
Sprouts Farmers Market,San Diego,227,227,1260 Garnet Ave.,CA,92109
Sprouts Farmers Market,San Diego,228,228,3315 Rosecrans St.,CA,92110
Sprouts Farmers Market,Poway,229,229,13536 Poway Rd.,CA,92064
Sprouts Farmers Market,Elk Grove,230,230,8211 Laguna Blvd.,CA,95758
Sprouts Farmers Market,Solana Beach,231,231,659 Lomas Santa Fe Dr.,CA,92075
Sprouts Farmers Market,San Diego,232,232,3358 Governor Dr.,CA,92122
Sprouts Farmers Market,Lemon Grove,233,233,3205 Lemon Grove Ave.,CA,91945
Sprouts Farmers Market,San Diego,234,234,4439 Genesee Ave.,CA,92117
Sprouts Farmers Market,Hemet,235,235,1295 S. State St.,CA,92543
Sprouts Farmers Market,Burbank,236,236,1011 N. San Fernando Blvd.,CA,91504
Sprouts Farmers Market,Laguna Niguel,237,237,27271 La Paz Rd.,CA,92677
Sprouts Farmers Market,Yorba Linda,238,238,17482 Yorba Linda Blvd.,CA,92886
Sprouts Farmers Market,Carlsbad,239,239,2618 El Camino Real,CA,92008
Sprouts Farmers Market,Costa Mesa,240,240,3030 Harbor Blvd.,CA,92626
Sprouts Farmers Market,Chino Hills,241,241,3630 Grand Ave.,CA,91709
Sprouts Farmers Market,Mission Viejo,242,242,27765 Santa Margarita Pkwy.,CA,92691
Sprouts Farmers Market,Corona,243,243,120 W. Ontario Ave.,CA,92882
Sprouts Farmers Market,Fullerton,244,244,1447 S. Harbor Blvd.,CA,92832
Sprouts Farmers Market,Rancho Cucamonga,245,245,7355 Day Creek Blvd.,CA,91739
Sprouts Farmers Market,La Quinta,246,246,79050 Hwy. 111,CA,92253
Sprouts Farmers Market,Carlsbad,247,247,3243 Camino de los Coches,CA,92009
Sprouts Farmers Market,Temecula,248,248,32413 Temecula Pkwy. S.,CA,92592
Sprouts Farmers Market,San Diego,249,249,15727 Bernardo Heights Pkwy.,CA,92128
Sprouts Farmers Market,Oceanside,250,250,471 College Blvd.,CA,92057
Sprouts Farmers Market,Temecula,251,251,39606 Winchester Rd.,CA,92591
Sprouts Farmers Market,San Pedro,252,252,820 N. Western Ave.,CA,90732
Sprouts Farmers Market,Escondido,253,253,510 W. 13th Ave.,CA,92025
Sprouts Farmers Market,Santee,254,254,9361 Mission Gorge Rd.,CA,92071
Sprouts Farmers Market,Woodland Hills,255,255,21821 Ventura Blvd.,CA,91364
Sprouts Farmers Market,Tustin,256,256,3011 El Camino Real,CA,92782
Sprouts Farmers Market,Monrovia,257,257,400 W. Huntington Dr.,CA,91016
Sprouts Farmers Market,Costa Mesa,258,258,225 E. 17th St.,CA,92627
Sprouts Farmers Market,Walnut Creek,259,259,1510 Geary Rd.,CA,94957
Sprouts Farmers Market,Lakewood,260,260,4253 Woodruff Ave.,CA,90713
Sprouts Farmers Market,La Canada/Flintridge,261,261,920 Foothills Blvd.,CA,91011
Sprouts Farmers Market,Yorba Linda,262,262,22401 Old Canal Rd.,CA,92887
Sprouts Farmers Market,Citrus Heights,263,263,7905 Greenback Ln.,CA,95610
Sprouts Farmers Market,Whittier,264,264,15801 Whittier Blvd,CA,90603
Sprouts Farmers Market,Modesto,265,265,"1700 McHenry Avenue, Suite A-3",CA,95350
Sprouts Farmers Market,Sacramento,267,267,4408 Del Rio Road,CA,95822
Sprouts Farmers Market,Fremont,268,268,3900 Mowry Avenue,CA,94538
Sprouts Farmers Market,San Jose,269,269,5205 Prospect Road,CA,95129
Sprouts Farmers Market,San Jose,270,270,1130 Branham Lane,CA,95118
Sprouts Farmers Market,Mountain View,271,271,630 San Antonio Rd.,CA,92027
Sprouts Farmers Market,West Hills,272,272,6605 Fallbrook Ave,CA,91307
Sprouts Farmers Market,Fresno,273,273,7477 N. Blackstone,CA,93720
Sprouts Farmers Market,Petaluma,274,274,401 Kenilworth Dr,CA,94952
Sprouts Farmers Market,Los Angeles,275,275,1751 Westwood Blvd.,CA,90024
Sprouts Farmers Market,Huntington Beach,277,277,6942 Warner Ave.,CA,92647
Sprouts Farmers Market,Upland,281,281,847 W.Foothill Blvd,KS,91786
Sprouts Farmers Market,Chula Vista,298,298,690 3rd Ave.,CA,91910
Sprouts Farmers Market,Chula Vista,299,299,878 Eastlake Pkwy.,CA,91914
Sprouts Farmers Market,Westminster,301,301,5150 W. 120th Ave.,CO,80020
Sprouts Farmers Market,Parker,302,302,9751 S. Parker Rd.,CO,80134
Sprouts Farmers Market,Fort Collins,303,303,4345 Corbett Dr.,CO,80525
Sprouts Farmers Market,Boulder,304,304,2950 Baseline Rd.,CO,80303
Sprouts Farmers Market,Aurora,305,305,1150 S. Ironton St.,CO,80012
Sprouts Farmers Market,Centennial,306,306,20831 E. Smoky Hill Rd.,CO,80015
Sprouts Farmers Market,Castle Rock,307,307,5650 Allen Way,CO,80108
Sprouts Farmers Market,Greeley,308,308,4759 W. 29th St.,CO,80634
Sprouts Farmers Market,Lone Tree,309,309,10018 Commons St.,CO,80124
Sprouts Farmers Market,Arvada,310,310,7725 Wadsworth Boulevard,CO,80003
Sprouts Farmers Market,Aurora,311,311,"15405 East Briarwood Circle, Unit A",CO,80016
Sprouts Farmers Market,Boulder,312,312,2525 Arapahoe Avenue,CO,80302-6710
Sprouts Farmers Market,Colorado Springs,313,313,1730 Dublin Boulevard,CO,80918
Sprouts Farmers Market,Denver,314,314,4700 W.38th Avenue,CO,80212
Sprouts Farmers Market,Denver,315,315,2880 S. Colorado Boulevard,CO,80222
Sprouts Farmers Market,Ft.Collins,316,316,2601 S. Lemay Avenue,CO,80525
Sprouts Farmers Market,Greenwood Village,317,317,8557 E.Arapahoe Road #B,CO,80112
Sprouts Farmers Market,Highlands Ranch,318,318,1980 E. County Line Road,CO,80126
Sprouts Farmers Market,Lafayette,319,319,"555 W. South Boulder Road, Suite A",CO,80026
Sprouts Farmers Market,Littleton,320,320,8601 W. Cross Drive,CO,80123
Sprouts Farmers Market,Thornton,321,321,1131 E. 120th Avenue,CO,80233-5712
Sprouts Farmers Market,Denver,322,322,3625 E. Colfax Ave,CO,80212
Sprouts Farmers Market,Longmont,323,323,1101 S. Hover,CO,80501
Sprouts Farmers Market,Grand Junction,324,324,1450 W. Independent Ave,CO,81505
Sprouts Farmers Market,Las Vegas,501,501,3365 E. Tropicana Avenue,NV,89121
Sprouts Farmers Market,Las Vegas,502,502,4020 S. Rainbow Boulevard,NV,89103
Sprouts Farmers Market,Murray,601,601,6284 S.State Street,UT,84107
Sprouts Farmers Market,Orem,602,602,1375 S. State Street,UT,84097
Sprouts Farmers Market,Salt Lake City,603,603,656 E. 200 South,UT,84102-2111
Sprouts Farmers Market,Albuquerque,701,701,10701 Corrales Road N.W.,NM,87114
Sprouts Farmers Market,Albuquerque,702,702,5112 Lomas Boulevard N.E.,NM,87110
Sprouts Farmers Market,Albuquerque,703,703,11205 Montgomery Boulevard NE,NM,87111
Sprouts Farmers Market,Albuquerque,704,704,6300 San Mateo Boulevard N.E.,NM,87019
Sprouts Farmers Market,Santa Fe,705,705,"3201 Zafarano Drive, Suite # 20",NM,87507
Sprouts Farmers Market,Santa Fe,706,706,199 Paseo de Peralta,NM,87501
Sprouts Farmers Market,Oklahoma City,801,801,6410 N. May Avenue,OK,73116
Sprouts Farmers Market,Edmond,802,802,24 E. 2nd St.,OK,73083
Sprouts Farmers Market,Norman,803,803,555. W Main,OK,73069
Sprouts Farmers Market,Bixby,804,804,1011 S. Memorial Dr,OK,74133
Sprouts Farmers Market,Tulsa,805,805,4123 S. Harvard Ave.,OK,74135
