keywords,city,Agg store_number,store_number,address,state,zip_code
Staples,brighton,1,00101X 01 001 0001,1660 Soldiers Field Road,MA,2135
Staples,woburn,2,00102X 02 002 0002,335 Washington Street,MA,1801
Staples,providence,3,00103X 03 003 0003,555 North Main Street,RI,2904
Staples,portchester,4,00104X 04 004 0004,515 Boston Post Road,NY,10573
Staples,yonkers,5,00105X 05 005 0005,465 Tuckahoe Road,NY,10710
Staples,natick,8,00108X 08 008 0008,881 Worcester Road,MA,1760
Staples,springfield,9,00109X 09 009 0009,155 Route 22 East,NJ,7081
Staples,totowa,12,001012X 012 0012 00012,545 US Highway 46,NJ,7511
Staples,moorestown,13,001013X 013 0013 00013,1181 Nixon Drive,NJ,8057
Staples,stratford,18,001018X 018 0018 00018,955 Ferry Blvd at Main St.,CT,6614
Staples,milltown,19,001019X 019 0019 00019,396 Ryders Lane,NJ,8850
Staples,norwalk,22,001022X 022 0022 00022,654 Main Ave,CT,6851
Staples,alexandria,24,001024X 024 0024 00024,7708 Richmond Highway,VA,22306
Staples,bensalem,25,001025X 025 0025 00025,2329 Street Rd,PA,19020
Staples,rockville,26,001026X 026 0026 00026,11503 B Rockville Pike,MD,20852
Staples,springfield,27,001027X 027 0027 00027,6731 Frontier Dr. ,VA,22150
Staples,kenwood,28,001028X 028 0028 00028,7800 Montgomery Road,OH,45236
Staples,columbus,30,001030X 030 0030 00030,1666 E. Dublin-Granville Rd,OH,43229
Staples,columbus,31,001031X 031 0031 00031,4505 Kenny Road,OH,43220
Staples,marlton,33,001033X 033 0033 00033,701 W Route 70,NJ,8053
Staples,cincinnati,34,001034X 034 0034 00034,12050 Princeton Pike,OH,45246
Staples,randolph,35,001035X 035 0035 00035,140 Route 10 West,NJ,7869
Staples,waltham,36,001036X 036 0036 00036,800 Lexington Street,MA,2451
Staples,freeport,37,001037X 037 0037 00037,160 East Sunrise Highway,NY,11520
Staples,newington,38,001038X 038 0038 00038,3174 Berlin Turnpike,CT,6111
Staples,paramus,39,001039X 039 0039 00039,557 Route 17 South,NJ,7652
Staples,hicksville,40,001040X 040 0040 00040,442 S Oyster Bay Road,NY,11801
Staples,watchung,45,001045X 045 0045 00045,1515 Route 22 West,NJ,7069
Staples,springfield,46,001046X 046 0046 00046,751 Sproul Road,PA,19064
Staples,salem,47,001047X 047 0047 00047,176 South Broadway,NH,3079
Staples,norwalk,48,001048X 048 0048 00048,420 - 440 Westport Avenue,CT,6851
Staples,florence,49,001049X 049 0049 00049,7659 Mall Road,KY,41042
Staples,saugus,51,001051X 051 0051 00051,444 Broadway (Route 1),MA,1906
Staples,stamford,54,001054X 054 0054 00054,2299 Summer St.,CT,6905
Staples,orange,55,001055X 055 0055 00055,330 South Main Street,CA,92868
Staples,elmsford,56,001056X 056 0056 00056,339 Tarrytown Road,NY,10523
Staples,seekonk,57,001057X 057 0057 00057,179 Highland Ave,MA,2771
Staples,shrewsbury,59,001059X 059 0059 00059,571 Boston Turnpike,MA,1545
Staples,nashua,61,001061X 061 0061 00061,252 Daniel Webster Hwy. ,NH,3060
Staples,deptford,62,001062X 062 0062 00062,1907 Deptford Center Road,NJ,8096
Staples,boston,63,001063X 063 0063 00063,1 Washington Mall,MA,2108
Staples,jamaica,65,001065X 065 0065 00065,91 - 30 Van Wyck Expressway,NY,11418
Staples,exton,66,001066X 066 0066 00066,105 E. Swedesford Rd.,PA,19341
Staples,rochester,71,001071X 071 0071 00071,1100 Jefferson Rd Suite 12,NY,14623
Staples,cerritos,72,001072X 072 0072 00072,10820 Alondra Blvd.,CA,90703
Staples,irondequoit,74,001074X 074 0074 00074,1115 East Ridge Road,NY,14621
Staples,livingston,75,001075X 075 0075 00075,506 W. Mt. Pleasant Ave.,NJ,7039
Staples,iselin,77,001077X 077 0077 00077,801 Route 1 and Green St.,NJ,8830
Staples,whitehall,79,001079X 079 0079 00079,2180 MacArthur Road,PA,18052
Staples,boston,83,001083X 083 0083 00083,401 Park Drive ,MA,2215
Staples,philadelphia,84,001084X 084 0084 00084,1300 South Columbus Blvd.,PA,19147
Staples,pikesville,85,001085X 085 0085 00085,1340 - 1354 Reistertown Rd,MD,21208
Staples,lancaster,88,001088X 088 0088 00088,44620 Valley Central Way,CA,93536
Staples,cincinnati,89,001089X 089 0089 00089,1400 Reading Road,OH,45202
Staples,torrance,90,001090X 090 0090 00090,2748 Pacific Coast Highway,CA,90505
Staples,orange,91,001091X 091 0091 00091,100 Boston Post Road,CT,6477
Staples,cypress,93,001093X 093 0093 00093,6816 E. Katella Rd,CA,90630
Staples,upland,94,001094X 094 0094 00094,300 S. Mountain Ave.,CA,91786
Staples,manassas,98,001098X 098 0098 00098,7743 Sudley Road ,VA,20109
Staples,nanuet,103,0010103X 0103 00103 000103,230 West Route 59,NY,10954
Staples,fairfax,104,0010104X 0104 00104 000104,9470 Arlington Blvd,VA,22031
Staples,bayside,106,0010106X 0106 00106 000106,209 - 34 Northern Blvd,NY,11361
Staples,vernon,109,0010109X 0109 00109 000109,35 Talcottville Road,CT,6066
Staples,wilmington,110,0010110X 0110 00110 000110,3640 Concord Pike ,DE,19803
Staples,baltimore,111,0010111X 0111 00111 000111,5835 York Road,MD,21212
Staples,burbank,112,0010112X 0112 00112 000112,1060 W. Alameda Ave.,CA,91506
Staples,alhambra,113,0010113X 0113 00113 000113,610 E Valley Blvd,CA,91801
Staples,lahabra,117,0010117X 0117 00117 000117,1310 South Beach Blvd.,CA,90632
Staples,waterbury,120,0010120X 0120 00120 000120,910 Wolcott Road,CT,6705
Staples,covina,122,0010122X 0122 00122 000122,1460 North Azusa,CA,91722
Staples,wyomissing,123,0010123X 0123 00123 000123,1167 Berkshire Blvd.,PA,19610
Staples,venice,127,0010127X 0127 00127 000127,1501 Lincoln Blvd.,CA,90291
Staples,danbury,133,0010133X 0133 00133 000133,67 Newtown Road,CT,6810
Staples,avon,137,0010137X 0137 00137 000137,20 Stockwell Drive,MA,2322
Staples,lancaster,138,0010138X 0138 00138 000138,1296 Lititz Pike,PA,17601
Staples,pasadena,139,0010139X 0139 00139 000139,875 S. Arroyo Pkwy.,CA,91105
Staples,princeton,140,0010140X 0140 00140 000140,3495 US Route 1,NJ,8540
Staples,delran,141,0010141X 0141 00141 000141,1341 A Fairview Blvd,NJ,8075
Staples,riverside,144,0010144X 0144 00144 000144,3750 Tyler Street,CA,92503
Staples,laverne,145,0010145X 0145 00145 000145,2330 Foothill Blvd.,CA,91750
Staples,massapequa,146,0010146X 0146 00146 000146,5500 Sunrise Highway,NY,11758
Staples,brooklyn,147,0010147X 0147 00147 000147,9319 5th Avenue,NY,11209
Staples,towson,148,0010148X 0148 00148 000148,803 Goucher Blvd,MD,21286
Staples,baltimore,149,0010149X 0149 00149 000149,7929 Eastern Avenue,MD,21224
Staples,victorville,151,0010151X 0151 00151 000151,12353 C-1 Mariposa Rd. ,CA,92395
Staples,weymouth,153,0010153X 0153 00153 000153,120 Main Street Ames Plaza,MA,2188
Staples,hyannis,154,0010154X 0154 00154 000154,364 Barnstable Road,MA,2601
Staples,oxnard,157,0010157X 0157 00157 000157,411 Esplanade Drive,CA,93036
Staples,fairfield,158,0010158X 0158 00158 000158,1201 Kings Highway,CT,6824
Staples,baileys,159,0010159X 0159 00159 000159,5801 Leesburg Pike,VA,22041
Staples,saddlebrook,160,0010160X 0160 00160 000160,217 Route 46 W,NJ,7663
Staples,danvers,167,0010167X 0167 00167 000167,301 Newbury Street,MA,1923
Staples,woodside,171,0010171X 0171 00171 000171,51-10 Broadway,NY,11377
Staples,torrance,174,0010174X 0174 00174 000174,22025 Hawthorne Blvd,CA,90503
Staples,chino,175,0010175X 0175 00175 000175,11995 Central Avenue,CA,91710
Staples,newington,176,0010176X 0176 00176 000176,45 Gosling Rd,NH,3801
Staples,burlington,178,0010178X 0178 00178 000178,111 Middlesex Turnpike,MA,1803
Staples,cambridge,183,0010183X 0183 00183 000183,186 Alewife Brook Pkwy,MA,2138
Staples,manhattan,184,0010184X 0184 00184 000184,675 3rd Avenue,NY,10017
Staples,scarsdale,185,0010185X 0185 00185 000185,855 Central Park Avenue,NY,10583
Staples,plymouth,186,0010186X 0186 00186 000186,131 Samoset Street (Rt 44),MA,2360
Staples,brooklyn,188,0010188X 0188 00188 000188,2892 Ocean Avenue,NY,11235
Staples,larchmont,189,0010189X 0189 00189 000189,2444 Boston Post Rd,NY,10538
Staples,cincinnati,190,0010190X 0190 00190 000190,8465 Colerain Ave,OH,45239
Staples,southington,195,0010195X 0195 00195 000195,672 Queen Street,CT,6489
Staples,arlington,196,0010196X 0196 00196 000196,3804 Wilson Blvd,VA,22203
Staples,bronx,197,0010197X 0197 00197 000197,5680 Broadway and W. 234th St,NY,10463
Staples,needham,200,0010200X 0200 00200 000200,163 Highland Ave,MA,2494
Staples,tampa,201,0010201X 0201 00201 000201,3702 West  Spruce St. ,FL,33607
Staples,clearwater,203,0010203X 0203 00203 000203,23660 U.S. Hwy 19 N. ,FL,33765
Staples,allentown,204,0010204X 0204 00204 000204,3300 Lehigh Street,PA,18103
Staples,lakeland,205,0010205X 0205 00205 000205,4011 US Highway 98 North   ,FL,33809
Staples,sarasota,206,0010206X 0206 00206 000206,8199 Tamiami Trail South,FL,34231
Staples,columbia,207,0010207X 0207 00207 000207,9091 Snowden River Parkway,MD,21045
Staples,tampa,209,0010209X 0209 00209 000209,11806 Bruce B. Downs Blvd. ,FL,33612
Staples,brandon,210,0010210X 0210 00210 000210,2424 W. Brandon Blvd. ,FL,33511
Staples,linden,213,0010213X 0213 00213 000213,653 West Edgar Rd,NJ,7036
Staples,casselberry,214,0010214X 0214 00214 000214,5779 S. Hwy. 17-92 ,FL,32707
Staples,wayne,216,0010216X 0216 00216 000216,1491 Route 23,NJ,7470
Staples,salem,217,0010217X 0217 00217 000217,17 Paradise Road,MA,1970
Staples,washington,218,0010218X 0218 00218 000218,1250 H Street N.W.,DC,20005
Staples,huntington,220,0010220X 0220 00220 000220,49 Jericho Turnpike,NY,11746
Staples,commack,223,0010223X 0223 00223 000223,5003 Jericho Turnpike,NY,11725
Staples,enfield,224,0010224X 0224 00224 000224,14 Hazard Ave. Route 190,CT,6082
Staples,whittier,228,0010228X 0228 00228 000228,13550-B Whittier Blvd,CA,90605
Staples,largo,229,0010229X 0229 00229 000229,13013 Seminole Blvd,FL,33778
Staples,jericho,231,0010231X 0231 00231 000231,84 Jericho Turnpike,NY,11753
Staples,middletown,233,0010233X 0233 00233 000233,470 Route 211 East,NY,10940
Staples,hazlet,234,0010234X 0234 00234 000234,3140 Route 35,NJ,7730
Staples,ocala,235,0010235X 0235 00235 000235,1901 East Silversprings Blvd,FL,34470
Staples,frederick,240,0010240X 0240 00240 000240,1305 West 7th Street,MD,21702
Staples,kingston,242,0010242X 0242 00242 000242,1399 Ulster Ave,NY,12401
Staples,hollywood,243,0010243X 0243 00243 000243,6450 Sunset Blvd,CA,90028
Staples,freehold,245,0010245X 0245 00245 000245,4345 Highway Rt 9,NJ,7728
Staples,leominster,246,0010246X 0246 00246 000246,289 North Main Street,MA,1453
Staples,plattsburgh,251,0010251X 0251 00251 000251,77 Consumer Square,NY,12901
Staples,wallingford,253,0010253X 0253 00253 000253,1145 North Colony Road,CT,6492
Staples,queensbury,254,0010254X 0254 00254 000254,752 Upper Glen St,NY,12804
Staples,lebanon,257,0010257X 0257 00257 000257,1820 Quentin Road,PA,17042
Staples,ithaca,258,0010258X 0258 00258 000258,742 South Meadow St Suite 200,NY,14850
Staples,raynham,259,0010259X 0259 00259 000259,600 South St West,MA,2767
Staples,glendale,261,0010261X 0261 00261 000261,4350 W Camelback Rd,AZ,85301
Staples,tempe,262,0010262X 0262 00262 000262,3210 South McClintock Drive,AZ,85282
Staples,phoenix,263,0010263X 0263 00263 000263,1801 E. Camelback Rd,AZ,85016
Staples,scottsdale,264,0010264X 0264 00264 000264,3550 North Goldwater Blvd.,AZ,85251
Staples,merced,268,0010268X 0268 00268 000268,20 West Olive Ave,CA,95348
Staples,waldorf,270,0010270X 0270 00270 000270,2957 Festival Way #123,MD,20601
Staples,hagerstown,271,0010271X 0271 00271 000271,1631 Wesel Blvd,MD,21740
Staples,chambersburg,274,0010274X 0274 00274 000274,963 Norland Ave,PA,17201
Staples,heath,275,0010275X 0275 00275 000275,809 Hebron Road,OH,43055
Staples,escondido,276,0010276X 0276 00276 000276,1358 W Valley Pkwy,CA,92029
Staples,hadley,277,0010277X 0277 00277 000277,125 Westgate Center Drive,MA,1035
Staples,brick,278,0010278X 0278 00278 000278,495 Route 70,NJ,8723
Staples,elmira,279,0010279X 0279 00279 000279,821 County Rt 64,NY,14903
Staples,simsbury,281,0010281X 0281 00281 000281,15 Albany Turnpike,CT,6092
Staples,seaside,282,0010282X 0282 00282 000282,1550 Canyon Del Rey Blvd.,CA,93955
Staples,flemington,283,0010283X 0283 00283 000283,17 Reaville Ave (Rt 202 and Reaville Rd),NJ,8822
Staples,succasunna,284,0010284X 0284 00284 000284,281 State Route 10 East Suite ,NJ,7876
Staples,fredericksburg,285,0010285X 0285 00285 000285,2003 Plank Road,VA,22401
Staples,mesa,288,0010288X 0288 00288 000288,7032 East Hampton Ave,AZ,85209
Staples,peoria,289,0010289X 0289 00289 000289,7865 West Bell Road,AZ,85382
Staples,altoona,291,0010291X 0291 00291 000291,217 Falon Lane,PA,16602
Staples,greenville,292,0010292X 0292 00292 000292,600 East Greenville Blvd,NC,27858
Staples,jacksonville,293,0010293X 0293 00293 000293,1144 Western Blvd,NC,28546
Staples,auburn,294,0010294X 0294 00294 000294,436 Southbridge Street (Rt 12),MA,1501
Staples,dorchester,295,0010295X 0295 00295 000295,757 Gallivan Blvd,MA,2122
Staples,pittsfield,296,0010296X 0296 00296 000296,555 Hubbard Avenue,MA,1201
Staples,brunswick,297,0010297X 0297 00297 000297,8 Gurnet Rd,ME,4011
Staples,reading,298,0010298X 0298 00298 000298,4711 Perkiomen Avenue,PA,19606
Staples,williamsport,299,0010299X 0299 00299 000299,1915 East 3rd St,PA,17701
Staples,dover,301,0010301X 0301 00301 000301,1041 N Dupont Hwy,DE,19901
Staples,westminster,302,0010302X 0302 00302 000302,405 North Center Street,MD,21157
Staples,harrisonburg,303,0010303X 0303 00303 000303,265 Burgess Road,VA,22801
Staples,murrieta,305,0010305X 0305 00305 000305,25070 Madison Ave,CA,92562
Staples,valencia,306,0010306X 0306 00306 000306,25570 N Old Road,CA,91355
Staples,lewiston,307,0010307X 0307 00307 000307,855 Lisbon Street,ME,4240
Staples,torrington,309,0010309X 0309 00309 000309,15 South Main St.,CT,6790
Staples,millville,312,0010312X 0312 00312 000312,2124 North 2nd Street,NJ,8332
Staples,philadelphia,314,0010314X 0314 00314 000314,9906 E. Roosevelt Blvd,PA,19115
Staples,richmond,316,0010316X 0316 00316 000316,1601 Willow Lawn Dr Suite 304,VA,23230
Staples,richmond,317,0010317X 0317 00317 000317,9111 Midlothian Turnpike,VA,23235
Staples,lynchburg,319,0010319X 0319 00319 000319,3730 Candler Mountain Rd,VA,24502
Staples,charlottesville,320,0010320X 0320 00320 000320,600 Shoppers World Ct,VA,22901
Staples,roanoke,321,0010321X 0321 00321 000321,4210 Electric Road,VA,24018
Staples,louisville,322,0010322X 0322 00322 000322,1935 S Hurstbourne Parkway,KY,40220
Staples,columbia,323,0010323X 0323 00323 000323,2746 Decker Blvd,SC,29223
Staples,lansing,324,0010324X 0324 00324 000324,3003 East Michigan Ave,MI,48912
Staples,visalia,326,0010326X 0326 00326 000326,3643 South Mooney Blvd,CA,93277
Staples,highland,327,0010327X 0327 00327 000327,27945 Greenspot Rd,CA,92346
Staples,holland,328,0010328X 0328 00328 000328,2337 North Park Dr,MI,49424
Staples,pottstown,329,0010329X 0329 00329 000329,270 Upland Square Drive,PA,19464
Staples,indianapolis,330,0010330X 0330 00330 000330,3250A West 86th St.,IN,46268
Staples,muskegon,332,0010332X 0332 00332 000332,1773 East Sherman Blvd.,MI,49444
Staples,quakertown,334,0010334X 0334 00334 000334,654 North West End Blvd,PA,18951
Staples,yuma,337,0010337X 0337 00337 000337,101 West 16th Street,AZ,85364
Staples,phillipsburg,338,0010338X 0338 00338 000338,1200 New Brunswick Ave,NJ,8865
Staples,newark,340,0010340X 0340 00340 000340,1 Chestnut Hill Plaza,DE,19713
Staples,dearborn,346,0010346X 0346 00346 000346,23131 Michigan Ave,MI,48124
Staples,bellingham,348,0010348X 0348 00348 000348,284 Hartford Ave,MA,2019
Staples,framingham,349,0010349X 0349 00349 000349,659 Worcester Rd,MA,1701
Staples,syracuse,350,0010350X 0350 00350 000350,300 Northern Lights Plaza,NY,13212
Staples,winchester,351,0010351X 0351 00351 000351, 2045 Pleasent Valley Center,VA,22602
Staples,charleston,352,0010352X 0352 00352 000352,2810 Mountaineer Blvd,WV,25309
Staples,rutland,354,0010354X 0354 00354 000354,300 South Main St,VT,5701
Staples,erie,355,0010355X 0355 00355 000355,1924 Keystone Drive,PA,16509
Staples,philadelphia,357,0010357X 0357 00357 000357,4640 Roosevelt Blvd,PA,19124
Staples,milpitas,358,0010358X 0358 00358 000358,627 East Calaveras Blvd,CA,95035
Staples,clawson,360,0010360X 0360 00360 000360,1129 West 14 Mile Rd.,MI,48017
Staples,forsyth,365,0010365X 0365 00365 000365,900 Commerce Place,IL,62535
Staples,springfield,366,0010366X 0366 00366 000366,2490 W. Wabash Ave.,IL,62704
Staples,champaign,367,0010367X 0367 00367 000367,2005 N. Prospect Ave,IL,61822
Staples,louisville,368,0010368X 0368 00368 000368,4515 Outer Loop Drive,KY,40219
Staples,roseville,369,0010369X 0369 00369 000369,31900 Gratiot Ave,MI,48066
Staples,chesterfield,372,0010372X 0372 00372 000372,51382 Gratiot Ave,MI,48051
Staples,rochester,373,0010373X 0373 00373 000373,125 Washington Street,NH,3839
Staples,campbell,375,0010375X 0375 00375 000375,500 East Hamilton Ave.,CA,95008
Staples,eureka,376,0010376X 0376 00376 000376,800 West Harris St,CA,95503
Staples,phoenix,377,0010377X 0377 00377 000377,2760 West Peoria Ave,AZ,85029
Staples,bourbonnais,380,0010380X 0380 00380 000380,1585 North State Rt 50,IL,60914
Staples,findlay,381,0010381X 0381 00381 000381,2350 Tiffin Ave,OH,45840
Staples,lansing,383,0010383X 0383 00383 000383,321 North Marketplace Blvd.,MI,48917
Staples,ypsilanti,384,0010384X 0384 00384 000384,3120 Carpenter Rd,MI,48197
Staples,hempstead,388,0010388X 0388 00388 000388,280 Penninsula Blvd.,NY,11550
Staples,greensburg,389,0010389X 0389 00389 000389,6207 Route 30 Suite 1027,PA,15601
Staples,columbia,391,0010391X 0391 00391 000391,4464 Devine St,SC,29205
Staples,phoenix,392,0010392X 0392 00392 000392,106 West Osborn,AZ,85013
Staples,kokomo,393,0010393X 0393 00393 000393,1807 E Markland Ave,IN,46901
Staples,revere,394,0010394X 0394 00394 000394,151 VFW Parkway,MA,2151
Staples,phoenix,395,0010395X 0395 00395 000395,10815 N Tatum Blvd,AZ,85028
Staples,johnstown,396,0010396X 0396 00396 000396,590 Galleria Dr,PA,15904
Staples,morristown,397,0010397X 0397 00397 000397,30 Lafayette Ave,NJ,7960
Staples,goshen,398,0010398X 0398 00398 000398,4024 Elkhart Rd Ste 26,IN,46526
Staples,newton,400,0010400X 0400 00400 000400,Rt 206,NJ,7860
Staples,dubuque,401,0010401X 0401 00401 000401,190 John F. Kennedy Rd.,IA,52002
Staples,yorktown,402,0010402X 0402 00402 000402,3333 Crompond Rd,NY,10598
Staples,columbus,403,0010403X 0403 00403 000403,3680 West Dublin-Granville Rd,OH,43235
Staples,sumter,404,0010404X 0404 00404 000404,1121 Broad St,SC,29150
Staples,keene,406,0010406X 0406 00406 000406,63 Key Rd,NH,3431
Staples,vacaville,409,0010409X 0409 00409 000409,1010 Helen Power Dr.,CA,95688
Staples,salisbury,411,0010411X 0411 00411 000411,2636 North Salisbury Blvd.,MD,21801
Staples,palmdale,412,0010412X 0412 00412 000412,39258 10th Street West,CA,93551
Staples,chino,413,0010413X 0413 00413 000413,4016 Grand Ave,CA,91710
Staples,waterloo,414,0010414X 0414 00414 000414,1542 Flammang Dr,IA,50702
Staples,jupiter,415,0010415X 0415 00415 000415,201 North US 1,FL,33477
Staples,lafayette,416,0010416X 0416 00416 000416,3500 State Route. 38,IN,47905
Staples,greensboro,419,0010419X 0419 00419 000419,4214 West Wendover Ave.,NC,27407
Staples,pittsburg,420,0010420X 0420 00420 000420,2000 North Park Blvd,CA,94565
Staples,napa,422,0010422X 0422 00422 000422,3325 Jefferson Street,CA,94558
Staples,auburn,424,0010424X 0424 00424 000424,411 Grass Valley Highway,CA,95603
Staples,middletown,425,0010425X 0425 00425 000425,900 Washington St,CT,6457
Staples,norwood,426,0010426X 0426 00426 000426,991 Providence Highway,MA,2062
Staples,muncie,427,0010427X 0427 00427 000427,1501 McGalliard Blvd,IN,47304
Staples,indiana,428,0010428X 0428 00428 000428,3100 Oakland Ave.,PA,15701
Staples,bloomington,429,0010429X 0429 00429 000429,2815 E 3rd St,IN,47401
Staples,crosslanes,432,0010432X 0432 00432 000432,800 Nitro Mkt. Place,WV,25313
Staples,albany,433,0010433X 0433 00433 000433,1440 Central Ave,NY,12205
Staples,raleigh,435,0010435X 0435 00435 000435,2950 Millbrook Rd,NC,27604
Staples,wilson,436,0010436X 0436 00436 000436,2342 Forest Hills Rd,NC,27893
Staples,pottsville,437,0010437X 0437 00437 000437,6104 Cressona Mall,PA,17901
Staples,owensboro,438,0010438X 0438 00438 000438,528 Southtown Blvd.,KY,42303
Staples,prescott,440,0010440X 0440 00440 000440,186 E. Sheldon St.,AZ,86301
Staples,tracy,442,0010442X 0442 00442 000442,2471 North Naglee Road,CA,95304
Staples,davenport,444,0010444X 0444 00444 000444,5245 Elmore Ave.,IA,52807
Staples,moline,445,0010445X 0445 00445 000445,3900 44th Ave. Rock River Pl.,IL,61265
Staples,hamden,446,0010446X 0446 00446 000446,2335 Dixwell Ave,CT,6514
Staples,norwalk,447,0010447X 0447 00447 000447,51 Richards Ave.,CT,6854
Staples,franklin,450,0010450X 0450 00450 000450,2000 Mallory Ln,TN,37067
Staples,columbus,451,0010451X 0451 00451 000451,1747 Olentangy River Rd,OH,43212
Staples,latham,452,0010452X 0452 00452 000452,601 Troy-Schenectady Rd.,NY,12110
Staples,murfreesboro,453,0010453X 0453 00453 000453,1740 Old Fort Parkway,TN,37129
Staples,bowie,454,0010454X 0454 00454 000454,4450 Mitchellville Rd,MD,20716
Staples,cincinnati,456,0010456X 0456 00456 000456,8666 Beechmont Ave.,OH,45255
Staples,hazleton,457,0010457X 0457 00457 000457,180 Susquehanna Blvd (Rt. 93),PA,18202
Staples,tualatin,459,0010459X 0459 00459 000459,8795 SW Tualatin Sherwood Rd.,OR,97062
Staples,lavale,460,0010460X 0460 00460 000460,1230 National Highway,MD,21502
Staples,marshalltown,461,0010461X 0461 00461 000461,27 West Berle Rd,IA,50158
Staples,clifton,462,0010462X 0462 00462 000462,136 Kingsland Road,NJ,7014
Staples,eugene,464,0010464X 0464 00464 000464,2370 West 11th Ave.,OR,97402
Staples,hobbs,465,0010465X 0465 00465 000465,1781 North Turner Street,NM,88240
Staples,janesville,466,0010466X 0466 00466 000466,2900 Deerfield Dr,WI,53546
Staples,bozeman,469,0010469X 0469 00469 000469,200 South 23rd Ave.,MT,59715
Staples,ammon,470,0010470X 0470 00470 000470,1999 South 25th East,ID,83406
Staples,woodbridge,473,0010473X 0473 00473 000473,14497 Potomac Mills Rd ,VA,22192
Staples,langhorne,475,0010475X 0475 00475 000475,2339 East Lincoln Hwy (Rt 1),PA,19047
Staples,ridgecrest,476,0010476X 0476 00476 000476,923 S. China Lake Blvd.,CA,93555
Staples,portage,479,0010479X 0479 00479 000479,2830 New Pinery Road Hwy 51,WI,53901
Staples,plover,481,0010481X 0481 00481 000481,1250 Commons Circle,WI,54467
Staples,columbia,482,0010482X 0482 00482 000482,6225 Columbia Crossing Circle,MD,21045
Staples,valparaiso,483,0010483X 0483 00483 000483,2106 Morthland Drive,IN,46383
Staples,butte,484,0010484X 0484 00484 000484,3636 Harrison Ave,MT,59701
Staples,medford,485,0010485X 0485 00485 000485,45 East Stewart Ave,OR,97501
Staples,spokane,486,0010486X 0486 00486 000486,9960 N. Newport Hwy.,WA,99218
Staples,watsonville,491,0010491X 0491 00491 000491,1445 Main Street,CA,95076
Staples,danvers,495,0010495X 0495 00495 000495,230 Independence way,MA,1923
Staples,marysville,496,0010496X 0496 00496 000496,105 Mall Way,WA,98270
Staples,glendale,497,0010497X 0497 00497 000497,213 North Glendale Ave.,CA,91206
Staples,bartlesville,501,0010501X 0501 00501 000501,2400 SE Washington Blvd.,OK,74006
Staples,centerville,504,0010504X 0504 00504 000504,6254 Wilmington Pike,OH,45459
Staples,akron,507,0010507X 0507 00507 000507,2981 Arlington Road,OH,44312
Staples,minot,509,0010509X 0509 00509 000509,#10 28th Avenue SW,ND,58701
Staples,bismarck,510,0010510X 0510 00510 000510,840 S. Washington St.,ND,58504
Staples,augusta,512,0010512X 0512 00512 000512,246 Robert C Daniel Jr Pkwy,GA,30909
Staples,cartersville,513,0010513X 0513 00513 000513,155 Cherokee Place,GA,30121
Staples,jacksonville,515,0010515X 0515 00515 000515,1813 W. Morton Ave. ,IL,62650
Staples,aberdeen,516,0010516X 0516 00516 000516,1109 E. Wishkah Blvd. ,WA,98520
Staples,noblesville,517,0010517X 0517 00517 000517,16751 Clover Road,IN,46060
Staples,hudson,518,0010518X 0518 00518 000518,350 Fairview Ave.,NY,12534
Staples,statesville,519,0010519X 0519 00519 000519,224 Turnersburg Highway,NC,28625
Staples,bristol,521,0010521X 0521 00521 000521,871 Farmington Ave.,CT,6010
Staples,hackensack,522,0010522X 0522 00522 000522,466 Hackensack Ave,NJ,7601
Staples,brea,524,0010524X 0524 00524 000524,2375 East Imperial Hwy.,CA,92821
Staples,bedford,527,0010527X 0527 00527 000527,85 South River Road,NH,3110
Staples,stillwater,528,0010528X 0528 00528 000528,616 North Perkins,OK,74075
Staples,shawnee,530,0010530X 0530 00530 000530,4737 N. Kickapoo St.,OK,74801
Staples,mason,531,0010531X 0531 00531 000531,9550 Mason Montgomery Rd,OH,45040
Staples,raritan,532,0010532X 0532 00532 000532,Route 202 @ Somerville Circle,NJ,8869
Staples,rensselaer,534,0010534X 0534 00534 000534,600 Greenbush Road,NY,12144
Staples,raleigh,535,0010535X 0535 00535 000535,404 East Six Forks Road,NC,27609
Staples,ada,538,0010538X 0538 00538 000538,1630 Lonnie Abbott Blvd.,OK,74820
Staples,carrollton,539,0010539X 0539 00539 000539,1325 South Park Street,GA,30117
Staples,rome,540,0010540X 0540 00540 000540,107 Erie Blvd. West,NY,13440
Staples,bethlehem,541,0010541X 0541 00541 000541,2138 W Union Blvd,PA,18018
Staples,bergenfield,542,0010542X 0542 00542 000542,25 W. Central St.,NJ,7621
Staples,warrington,544,0010544X 0544 00544 000544,1075 Main Street,PA,18976
Staples,howell,545,0010545X 0545 00545 000545,4514 Rt 9 South,NJ,7731
Staples,russellville,546,0010546X 0546 00546 000546,89 State RD 331,AR,72802
Staples,rolla,547,0010547X 0547 00547 000547,615 South Bishop,MO,65401
Staples,madison,548,0010548X 0548 00548 000548,300 Main Street,NJ,7940
Staples,bloomfield,549,0010549X 0549 00549 000549,135 Bloomfield Ave.,NJ,7003
Staples,tifton,550,0010550X 0550 00550 000550,196 S Virginia Ave,GA,31794
Staples,ardmore,551,0010551X 0551 00551 000551,1203 N. Commerce St.,OK,73401
Staples,middletown,552,0010552X 0552 00552 000552,1515 Rt. 35 North,NJ,7748
Staples,greenville,553,0010553X 0553 00553 000553,1451 Woodruff Road,SC,29607
Staples,snellville,557,0010557X 0557 00557 000557,2059 Scenic Highway,GA,30078
Staples,alpharetta,560,0010560X 0560 00560 000560,945 North Point Drive,GA,30022
Staples,nacogdoches,561,0010561X 0561 00561 000561,4608 North Street,TX,75965
Staples,buford,562,0010562X 0562 00562 000562,3205 Woodward Crossing Blvd Suite F,GA,30519
Staples,parsippany,566,0010566X 0566 00566 000566,760 Route 46 West,NJ,7054
Staples,ramsey,567,0010567X 0567 00567 000567,1300 Rt 17 North,NJ,7446
Staples,duluth,568,0010568X 0568 00568 000568,2255 Pleasant Hill Road,GA,30096
Staples,pittsburgh,570,0010570X 0570 00570 000570,4801 McKnight Road,PA,15237
Staples,mobile,571,0010571X 0571 00571 000571,3250 Airport Blvd.,AL,36606
Staples,ponderay,572,0010572X 0572 00572 000572,260 Bonner Mall Way,ID,83852
Staples,chester,577,0010577X 0577 00577 000577,187 Route 206 North,NJ,7930
Staples,madison,578,0010578X 0578 00578 000578,431 E. Clifty Drive,IN,47250
Staples,gaithersburg,586,0010586X 0586 00586 000586,660 Quince Orchard Road,MD,20878
Staples,chattanooga,587,0010587X 0587 00587 000587,5450 Highway 153,TN,37343
Staples,missoula,588,0010588X 0588 00588 000588,2640 N Reserve Street,MT,59808
Staples,saginaw,589,0010589X 0589 00589 000589,2860 Tittabawassee Rd.,MI,48604
Staples,wooster,591,0010591X 0591 00591 000591, 3761 Burbank Rd.,OH,44691
Staples,adrian,592,0010592X 0592 00592 000592,1416 S. Main St. ,MI,49221
Staples,edgewater,594,0010594X 0594 00594 000594,547 River Road,NJ,7020
Staples,greenwich,595,0010595X 0595 00595 000595,1297 East Putnam Ave.,CT,6878
Staples,plainfield,597,0010597X 0597 00597 000597,2155 East Main Street,IN,46168
Staples,austin,598,0010598X 0598 00598 000598,1702B 17th Street NW,MN,55912
Staples,queens-,599,0010599X 0599 00599 000599,134-01 20th Ave,NY,11356
Staples,alcoa,601,0010601X 0601 00601 000601,1090 Hunters Crossing,TN,37701
Staples,troy,602,0010602X 0602 00602 000602,1761 West Main St.,OH,45373
Staples,columbus,603,0010603X 0603 00603 000603,3737 Easton Market,OH,43219
Staples,clay,604,0010604X 0604 00604 000604,4118 Rt. 31,NY,13041
Staples,clarksburg,607,0010607X 0607 00607 000607,504 Emily Drive,WV,26301
Staples,alpena,608,0010608X 0608 00608 000608,1064-M-32 West,MI,49707
Staples,beckley,609,0010609X 0609 00609 000609,18 By Pass Plaza,WV,25801
Staples,beloit,610,0010610X 0610 00610 000610,1810 Sutler Avenue,WI,53511
Staples,owosso,611,0010611X 0611 00611 000611,1580 East Main Street,MI,48867
Staples,vestal,612,0010612X 0612 00612 000612,3701 Vestal Parkway East,NY,13850
Staples,pasadena,616,0010616X 0616 00616 000616,3660 Colorado Blvd.,CA,91107
Staples,galesburg,617,0010617X 0617 00617 000617,2353 National Blvd,IL,61401
Staples,lewiston,619,0010619X 0619 00619 000619,2320 Thain Grade,ID,83501
Staples,wilkesboro,620,0010620X 0620 00620 000620,1907 US Hwy. 421 North,NC,28697
Staples,lawrence,621,0010621X 0621 00621 000621,2495 Brunswick Pike,NJ,8648
Staples,nampa,622,0010622X 0622 00622 000622,1901 Caldwell Blvd.,ID,83651
Staples,doylestown,627,0010627X 0627 00627 000627,436 N Main St,PA,18901
Staples,fayetteville,628,0010628X 0628 00628 000628,5075 Morganton Rd,NC,28314
Staples,yuma,629,0010629X 0629 00629 000629,500 W. Catalina Drive,AZ,85364
Staples,norco,630,0010630X 0630 00630 000630,1210 Hamner Avenue,CA,92860
Staples,asheboro,631,0010631X 0631 00631 000631,176 N. Highway 42,NC,27203
Staples,provo,632,0010632X 0632 00632 000632,971 S University Dr,UT,84601
Staples,turlock,633,0010633X 0633 00633 000633,1850 Countryside Drive,CA,95380
Staples,bloomsburg,634,0010634X 0634 00634 000634,2441 Columbia Blvd.,PA,17815
Staples,spokane,635,0010635X 0635 00635 000635,2624 North Division Rd.,WA,99207
Staples,camarillo,636,0010636X 0636 00636 000636,317 West Ventura Blvd.,CA,93010
Staples,portland,638,0010638X 0638 00638 000638,1805 N Tomahawk Island Dr,OR,97217
Staples,roanoke,639,0010639X 0639 00639 000639,4727 Valley View Blvd.,VA,24012
Staples,evansville,640,0010640X 0640 00640 000640,235 N Burkhardt Rd,IN,47715
Staples,cincinnati,642,0010642X 0642 00642 000642,6180 West Glenway Ave,OH,45211
Staples,mechanicsburg,643,0010643X 0643 00643 000643,5850 Carlisle Pike,PA,17055
Staples,indianapolis,644,0010644X 0644 00644 000644,4621 Lafayette Road,IN,46254
Staples,manhasset,646,0010646X 0646 00646 000646,1410 Northern Blvd,NY,11030
Staples,bangor,648,0010648X 0648 00648 000648,180 Bangor Mall Blvd.,ME,4401
Staples,venice,649,0010649X 0649 00649 000649,4291 S. Tamiami Trail,FL,34293
Staples,burke,651,0010651X 0651 00651 000651,9230 Old Keene Mill,VA,22015
Staples,turnersville,654,0010654X 0654 00654 000654,3501 Black Horse Pike,NJ,8012
Staples,fremont,655,0010655X 0655 00655 000655,43484 Boscell Rd,CA,94538
Staples,modesto,658,0010658X 0658 00658 000658,1657 East Hatch Road,CA,95351
Staples,sandy,659,0010659X 0659 00659 000659,10355 South State Street,UT,84070
Staples,boise,662,0010662X 0662 00662 000662,8059 W. Preece Drive,ID,83704
Staples,enid,663,0010663X 0663 00663 000663,3418 West Owen K. Garriot Rd.,OK,73703
Staples,patchogue,666,0010666X 0666 00666 000666,380 Sunrise Highway,NY,11772
Staples,hanford,667,0010667X 0667 00667 000667,510 N. 11th Ave,CA,93230
Staples,staunton,671,0010671X 0671 00671 000671,850 Statler Blvd.,VA,24401
Staples,warsaw,673,0010673X 0673 00673 000673,3600 Commerce Dr. U.S. Hwy 30,IN,46580
Staples,manhattan,679,0010679X 0679 00679 000679,632 Tuttle Creek Blvd.,KS,66502
Staples,butler,680,0010680X 0680 00680 000680,110 Moraine Pointe Plaza,PA,16001
Staples,annapolis,689,0010689X 0689 00689 000689,2631 Housley Road,MD,21401
Staples,lancaster,690,0010690X 0690 00690 000690,2350 Lincoln Hwy East Suite 700,PA,17602
Staples,hermitage,695,0010695X 0695 00695 000695,5100 Old Hickory Blvd.,TN,37076
Staples,fremont,696,0010696X 0696 00696 000696,1039 East 23rd ,NE,68025
Staples,germantown,697,0010697X 0697 00697 000697,20906-A Frederick Road,MD,20876
Staples,rotterdam,698,0010698X 0698 00698 000698,1350 Altamont Ave.,NY,12303
Staples,webster,699,0010699X 0699 00699 000699,950 Hard Road,NY,14580
Staples,ogden,703,0010703X 0703 00703 000703,4043 Riverdale Rd. ,UT,84405
Staples,southbury,704,0010704X 0704 00704 000704,775 Main St. South,CT,6488
Staples,uniontown,705,0010705X 0705 00705 000705,3 Work Parkway,PA,15401
Staples,columbus,706,0010706X 0706 00706 000706,4339 West Broad St.,OH,43228
Staples,durham,708,0010708X 0708 00708 000708,3600 North Duke St,NC,27704
Staples,mcminnville,709,0010709X 0709 00709 000709,1150 NE Highway 99 West,OR,97128
Staples,williamsburg,710,0010710X 0710 00710 000710,1320 Richmond Rd.,VA,23185
Staples,pittsburgh,711,0010711X 0711 00711 000711,6521 Steubenville Pike,PA,15205
Staples,bennington,712,0010712X 0712 00712 000712,5 Kocher Drive,VT,5201
Staples,moscow,714,0010714X 0714 00714 000714,233 War Bonnett Dr.,ID,83843
Staples,woodland,718,0010718X 0718 00718 000718,1770 East Main St,CA,95776
Staples,roseburg,720,0010720X 0720 00720 000720,1414 NW Valley View Drive,OR,97470
Staples,narberth,721,0010721X 0721 00721 000721,933 Montgomery Ave.,PA,19072
Staples,burlington,724,0010724X 0724 00724 000724,104 West Agency Rd.,IA,52655
Staples,lodi,726,0010726X 0726 00726 000726,2415 West Kettleman Lane,CA,95242
Staples,shelton,727,0010727X 0727 00727 000727,3 Armstrong Drive,CT,6484
Staples,fairhaven,728,0010728X 0728 00728 000728,17 Plaza Way (Rt. 6),MA,2719
Staples,quincy,729,0010729X 0729 00729 000729,3100 Broadway,IL,62301
Staples,marion,730,0010730X 0730 00730 000730,2630 S. Western Ave.,IN,46953
Staples,lawton,732,0010732X 0732 00732 000732,1217 NW Sheridan Road,OK,73505
Staples,mcalester,733,0010733X 0733 00733 000733,502 S. George Nigh Expressway,OK,74501
Staples,athens,734,0010734X 0734 00734 000734,1609 South Congress Parkway,TN,37303
Staples,scottsbluff,735,0010735X 0735 00735 000735,1711 Frontage Road,NE,69361
Staples,natomas,738,0010738X 0738 00738 000738,3631 Truxel Road,CA,95834
Staples,alexandria,741,0010741X 0741 00741 000741,3301 Jefferson Davis Hwy.,VA,22305
Staples,greeneville,745,0010745X 0745 00745 000745,1505 East Andrew Johnson Hwy.,TN,37745
Staples,knoxville,747,0010747X 0747 00747 000747,8913 Town and Country Circle,TN,37922
Staples,brooklyn-,755,0010755X 0755 00755 000755,1011 Flatbush Avenue,NY,11226
Staples,philadelphia,756,0010756X 0756 00756 000756,1500 Chestnut St. ,PA,19102
Staples,elizabethtown,757,0010757X 0757 00757 000757,1811 N. Dixie Ste.111,KY,42701
Staples,oceanside,759,0010759X 0759 00759 000759,2150 Vista Way,CA,92054
Staples,carbondale,760,0010760X 0760 00760 000760,1325 East Main St.,IL,62901
Staples,emporia,761,0010761X 0761 00761 000761,2200 Industrial Road,KS,66801
Staples,peru,764,0010764X 0764 00764 000764,4350 Mahoney Drive,IL,61354
Staples,killeen,765,0010765X 0765 00765 000765,3203 E Central Texas EXPY,TX,76543
Staples,farmingdale,766,0010766X 0766 00766 000766,204 Airport Plaza ,NY,11735
Staples,catonsville,768,0010768X 0768 00768 000768,6030 Baltimore National Pike ,MD,21228
Staples,gilroy,771,0010771X 0771 00771 000771,8840 San Ysidro Ave ,CA,95020
Staples,brighton,773,0010773X 0773 00773 000773,8063 Challis Rd.,MI,48116
Staples,york,774,0010774X 0774 00774 000774,965 Loucks Street (Rt. 30) ,PA,17404
Staples,niles,776,0010776X 0776 00776 000776,6004 Youngstown Rd.,OH,44446
Staples,sedalia,778,0010778X 0778 00778 000778,3601 West Boadway,MO,65301
Staples,columbia,779,0010779X 0779 00779 000779,115 Conley Road,MO,65201
Staples,albuquerque,780,0010780X 0780 00780 000780,10242 Coors Bypass Blvd. N.W.,NM,87114
Staples,zanesville,782,0010782X 0782 00782 000782,3030 Maple Ave,OH,43701
Staples,jasper,783,0010783X 0783 00783 000783,3830 Newton Street,IN,47546
Staples,albuquerque,786,0010786X 0786 00786 000786,6001 Menaul Blvd. NE,NM,87110
Staples,cleveland,787,0010787X 0787 00787 000787,4375 Keith St.,TN,37312
Staples,easton,788,0010788X 0788 00788 000788,3764 Easton Nazareth Hwy.,PA,18045
Staples,hermitage,789,0010789X 0789 00789 000789,439 S. Hermitage Rd.,PA,16148
Staples,monaca,790,0010790X 0790 00790 000790,3938 Brodhead Rd,PA,15061
Staples,chantilly,792,0010792X 0792 00792 000792,13653 Lee Jackson Memorial Hwy,VA,20151
Staples,layton,793,0010793X 0793 00793 000793,730 North Main Street,UT,84041
Staples,canton,796,0010796X 0796 00796 000796,108 Riverstone Parkway,GA,30114
Staples,ukiah,800,0010800X 0800 00800 000800,1225 Airport Park Blvd,CA,95482
Staples,roseville,801,0010801X 0801 00801 000801,6770 Stanford Ranch Rd.,CA,95678
Staples,ames,802,0010802X 0802 00802 000802,1333 Buckeye Road,IA,50010
Staples,ontario,804,0010804X 0804 00804 000804,125 S.E. 13th Street,OR,97914
Staples,ankeny,808,0010808X 0808 00808 000808,2407 SE Delaware Avenue,IA,50021
Staples,indianapolis,809,0010809X 0809 00809 000809,8245 East 96th Street,IN,46256
Staples,hanover,811,0010811X 0811 00811 000811,440 Eisenhower Dr,PA,17331
Staples,oshkosh,813,0010813X 0813 00813 000813,1126 South Koeller Ave,WI,54902
Staples,copley,815,0010815X 0815 00815 000815,4014 Medina Road,OH,44333
Staples,oroville,816,0010816X 0816 00816 000816,2150 Feather River Blvd,CA,95965
Staples,boardman,817,0010817X 0817 00817 000817,1260 Doral Dr.,OH,44514
Staples,sterling,819,0010819X 0819 00819 000819,21060 Southbank St.,VA,20165
Staples,barre,822,0010822X 0822 00822 000822,168 Ames Drive,VT,5641
Staples,midland,823,0010823X 0823 00823 000823,1517 Joe Mann Blvd.,MI,48642
Staples,bronx,824,0010824X 0824 00824 000824,330-340 Baychester Ave,NY,10475
Staples,watertown,825,0010825X 0825 00825 000825,1283 Arsenal St,NY,13601
Staples,harrisburg,827,0010827X 0827 00827 000827,4203 Union Deposit Rd,PA,17111
Staples,summerville,828,0010828X 0828 00828 000828,1318 N. Main St,SC,29483
Staples,albany,829,0010829X 0829 00829 000829,2000 S. Santiam Highway,OR,97322
Staples,kalispell,830,0010830X 0830 00830 000830,1290 Highway 2 East,MT,59901
Staples,orem,831,0010831X 0831 00831 000831,336 East University Pkwy,UT,84058
Staples,olean,832,0010832X 0832 00832 000832,2735 West State Street,NY,14760
Staples,flagstaff,833,0010833X 0833 00833 000833,2625 N Woodlands Village Blvd,AZ,86001
Staples,westerly,836,0010836X 0836 00836 000836,16 Post Road,RI,2891
Staples,falmouth,837,0010837X 0837 00837 000837,7 Davis Straits Road,MA,2540
Staples,monroe,838,0010838X 0838 00838 000838,19139 State Route 2,WA,98272
Staples,elyria,840,0010840X 0840 00840 000840,1733 Midway Mall Blvd.,OH,44035
Staples,queens,841,0010841X 0841 00841 000841,58-12 Queens Blvd.,NY,11377
Staples,aiken,844,0010844X 0844 00844 000844,933 Pine Log Rd,SC,29803
Staples,logan,846,0010846X 0846 00846 000846,1427 North Main St Suite A,UT,84341
Staples,richland,848,0010848X 0848 00848 000848,1480 Tapteal Drive,WA,99352
Staples,olympia,849,0010849X 0849 00849 000849,1200 Cooper Point Rd.  No: 518,WA,98502
Staples,fremont,851,0010851X 0851 00851 000851,2136 Enterprise Ave.,OH,43420
Staples,sandusky,852,0010852X 0852 00852 000852,5500 Milan Road,OH,44870
Staples,richmond,854,0010854X 0854 00854 000854,1248 CarMia Way,VA,23235
Staples,strongsville,855,0010855X 0855 00855 000855,12421 Pearl Road,OH,44136
Staples,frederick,857,0010857X 0857 00857 000857,5557 Urbana Pike,MD,21704
Staples,mattoon,860,0010860X 0860 00860 000860,1201 Charleston Ave. East,IL,61938
Staples,sterling,861,0010861X 0861 00861 000861,4311 E Lincolnway Suite K,IL,61081
Staples,danbury,862,0010862X 0862 00862 000862,113 Mill Plain Rd,CT,6811
Staples,streetsboro,863,0010863X 0863 00863 000863,9374 State Route 14,OH,44241
Staples,meadville,864,0010864X 0864 00864 000864,16218 Conneaut Lake Rd.,PA,16335
Staples,auburn,866,0010866X 0866 00866 000866,1210 West 15th Street,IN,46706
Staples,greer,868,0010868X 0868 00868 000868,1301 W Wade Hampton Blvd,SC,29651
Staples,beaufort,869,0010869X 0869 00869 000869,11 Robert Smalls Pkwy,SC,29906
Staples,carlisle,870,0010870X 0870 00870 000870,100 Noble Blvd.,PA,17013
Staples,biddeford,871,0010871X 0871 00871 000871,201 Mariner Way,ME,4005
Staples,concord,873,0010873X 0873 00873 000873,76 Fort Eddy Plaza,NH,3301
Staples,greenfield,874,0010874X 0874 00874 000874,259 Mohawk Trail (Rt. 2),MA,1301
Staples,easley,877,0010877X 0877 00877 000877,6101 Calhoun Memorial Hwy,SC,29640
Staples,goldsboro,880,0010880X 0880 00880 000880,1101B Berkeley Plaza,NC,27534
Staples,salisbury,881,0010881X 0881 00881 000881,355 Faith Road,NC,28146
Staples,brunswick,884,0010884X 0884 00884 000884,58 Altama Drive,GA,31525
Staples,pueblo,886,0010886X 0886 00886 000886,1411 Highway 50 W,CO,81008
Staples,goleta,889,0010889X 0889 00889 000889,7015 Marketplace Drive,CA,93117
Staples,hemet,890,0010890X 0890 00890 000890,3381 W Florida Ave,CA,92545
Staples,chandler,893,0010893X 0893 00893 000893,1157 West Chandler Blvd.,AZ,85224
Staples,nashua,897,0010897X 0897 00897 000897,255 Amherst St,NH,3063
Staples,plaistow,907,0010907X 0907 00907 000907,58 Plaistow Road,NH,3865
Staples,vienna,909,0010909X 0909 00909 000909,8387C Leesburg Pike,VA,22182
Staples,tigard,911,0010911X 0911 00911 000911,10329 S.W. Cascade Blvd.,OR,97223
Staples,rockville,912,0010912X 0912 00912 000912,1531 Rockville Pike,MD,20852
Staples,medina,913,0010913X 0913 00913 000913,4029 Pearl Rd.,OH,44256
Staples,chattanooga,914,0010914X 0914 00914 000914,2220 Hamilton Place Blvd Suite 126,TN,37421
Staples,riverdale,923,0010923X 0923 00923 000923,106 Route 23 North,NJ,7457
Staples,pekin,924,0010924X 0924 00924 000924,3507 Court St.,IL,61554
Staples,tilton,928,0010928X 0928 00928 000928,75 Laconia Rd,NH,3276
Staples,washington,929,0010929X 0929 00929 000929,301 Oak Spring Rd,PA,15301
Staples,wilmington,932,0010932X 0932 00932 000932,3200 Kirkwood Highway ,DE,19808
Staples,mansfield,934,0010934X 0934 00934 000934,542 Lexington Springmill Rd. N,OH,44906
Staples,spencer,936,0010936X 0936 00936 000936,700 11th Street S.W.,IA,51301
Staples,monroe,938,0010938X 0938 00938 000938,2145 N Telegraph Road,MI,48162
Staples,mentor,939,0010939X 0939 00939 000939,9215 Mentor Ave,OH,44060
Staples,novato,944,0010944X 0944 00944 000944,55 Rowland Way,CA,94945
Staples,tampa,945,0010945X 0945 00945 000945,15017 North Dale Mabry Highway,FL,33618
Staples,sonora,946,0010946X 0946 00946 000946,1171 Sanguinetti Rd.,CA,95370
Staples,norwich,947,0010947X 0947 00947 000947,45 Salem Turnpike,CT,6360
Staples,wenatchee,948,0010948X 0948 00948 000948,200 Ferry Road,WA,98801
Staples,sacramento,949,0010949X 0949 00949 000949,1900 Howe Ave,CA,95825
Staples,westchester,951,0010951X 0951 00951 000951,8704 South Sepulveda Blvd.,CA,90045
Staples,alliance,954,0010954X 0954 00954 000954,1846 N Freshley Ave,OH,44601
Staples,helena,955,0010955X 0955 00955 000955,2020 Cromwell Dixon Lane,MT,59601
Staples,brooklyn,957,0010957X 0957 00957 000957,348 4th Avenue,NY,11215
Staples,allston,958,0010958X 0958 00958 000958,214 Harvard Ave.,MA,2134
Staples,freeport,979,0010979X 0979 00979 000979,1722-1724 South West Ave.,IL,61032
Staples,wayne,986,0010986X 0986 00986 000986,145 East Swedesford Rd,PA,19087
Staples,alamogordo,988,0010988X 0988 00988 000988,801 White Sands Blvd.,NM,88310
Staples,atlanta,1003,00101003X 01003 001003 0001003,3535 Peachtree Rd NE Suite 103,GA,30326
Staples,orlando,1004,00101004X 01004 001004 0001004,8421 S John Young Pkwy,FL,32819
Staples,atlanta,1005,00101005X 01005 001005 0001005,650 Ponce De Leon Ave.,GA,30308
Staples,pittsburgh,1007,00101007X 01007 001007 0001007,2515 Banksville Road,PA,15216
Staples,angola,1009,00101009X 01009 001009 0001009,1211 N. Wayne Street,IN,46703
Staples,seymour,1011,00101011X 01011 001011 0001011,1710 East Tipton,IN,47274
Staples,boone,1012,00101012X 01012 001012 0001012,1275 Blowing Rock Road,NC,28607
Staples,waycross,1014,00101014X 01014 001014 0001014,2250 Brunswick Hwy.,GA,31501
Staples,lagrange,1016,00101016X 01016 001016 0001016,240 New Franklin Road,GA,30240
Staples,logansport,1017,00101017X 01017 001017 0001017,3930 East Market Street,IN,46947
Staples,springfield,1018,00101018X 01018 001018 0001018,2135 E. Independence Ave.,MO,65804
Staples,springfield,1019,00101019X 01019 001019 0001019,2636 N. Kansas Expwy,MO,65803
Staples,conyers,1022,00101022X 01022 001022 0001022,1550 Dogwood Dr.,GA,30013
Staples,silverdale,1023,00101023X 01023 001023 0001023,2850 Northwest Bucklin Hill Rd,WA,98383
Staples,oswego,1024,00101024X 01024 001024 0001024,301 State Route 104 East,NY,13126
Staples,sevierville,1025,00101025X 01025 001025 0001025,538 Winfield Dunn Prkwy ,TN,37876
Staples,roswell,1028,00101028X 01028 001028 0001028,1125 Woodstock Road,GA,30075
Staples,orange,1030,00101030X 01030 001030 0001030,2050 North Tustin Ave.,CA,92865
Staples,oviedo,1031,00101031X 01031 001031 0001031,1950 W. State Road 426,FL,32765
Staples,kissimmee,1032,00101032X 01032 001032 0001032,101 West Vine St.,FL,34741
Staples,hollister,1033,00101033X 01033 001033 0001033,1725 Airline Highway,CA,95023
Staples,orlando,1034,00101034X 01034 001034 0001034,2774 East Colonial Drive,FL,32803
Staples,edinburg,1037,00101037X 01037 001037 0001037,1606 West University Drive,TX,78539
Staples,tewksbury,1039,00101039X 01039 001039 0001039,10 Main Street,MA,1876
Staples,chickasha,1040,00101040X 01040 001040 0001040,2318 S. 4th Street,OK,73018
Staples,phoenix,1041,00101041X 01041 001041 0001041,4645 E. Broadway,AZ,85040
Staples,greensburg,1042,00101042X 01042 001042 0001042,470 Greensburg Commons Shopping Ctr,IN,47240
Staples,littleton,1043,00101043X 01043 001043 0001043,804 Meadow St,NH,3561
Staples,lompoc,1045,00101045X 01045 001045 0001045,615 H Street ,CA,93436
Staples,corvallis,1047,00101047X 01047 001047 0001047,720 NE Circle Blvd.,OR,97330
Staples,cookeville,1049,00101049X 01049 001049 0001049,514 South Willow Avenue,TN,38501
Staples,jacksonville,1053,00101053X 01053 001053 0001053,5800 Beach Blvd.,FL,32207
Staples,melbourne,1055,00101055X 01055 001055 0001055,1270-13 North Wickham Road,FL,32935
Staples,palatka,1056,00101056X 01056 001056 0001056,327 Highway 19 North,FL,32177
Staples,frazer,1059,00101059X 01059 001059 0001059,309 Lancaster Pike (Route 30),PA,19355
Staples,tallahassee,1060,00101060X 01060 001060 0001060,2345 Apalachee Parkway,FL,32301
Staples,lakeland,1064,00101064X 01064 001064 0001064,4313 South Florida Ave.,FL,33813
Staples,daphne,1065,00101065X 01065 001065 0001065,1802 US Highway 98,AL,36526
Staples,euless,1070,00101070X 01070 001070 0001070,2800 Highway 121 Suite 1000,TX,76039
Staples,tallahassee,1072,00101072X 01072 001072 0001072,2241 North Monroe Street,FL,32303
Staples,lenoir,1073,00101073X 01073 001073 0001073,112 Wilkesboro Blvd,NC,28645
Staples,victor,1075,00101075X 01075 001075 0001075,7560 Commons Blvd,NY,14564
Staples,albany,1077,00101077X 01077 001077 0001077,501 N. Slappy Blvd.,GA,31701
Staples,titusville,1081,00101081X 01081 001081 0001081,3155 Columbia Blvd,FL,32780
Staples,wakefield,1082,00101082X 01082 001082 0001082,160 Old Tower Hill Road,RI,2879
Staples,albuquerque,1084,00101084X 01084 001084 0001084,9701 Montgomery N.E.,NM,87111
Staples,allen,1085,00101085X 01085 001085 0001085,812 West McDermott Dr,TX,75013
Staples,brownsville,1086,00101086X 01086 001086 0001086,2436 Pablo Kisel Blvd.,TX,78526
Staples,richmond,1087,00101087X 01087 001087 0001087,1530 N Parham Rd,VA,23229
Staples,claremont,1088,00101088X 01088 001088 0001088,286 Washington St ( Route 11),NH,3743
Staples,clemmons,1090,00101090X 01090 001090 0001090,2509A Lewisville Clemmons Rd,NC,27012
Staples,ephrata,1091,00101091X 01091 001091 0001091,365 North Reading Rd,PA,17522
Staples,dedham,1093,00101093X 01093 001093 0001093,450 Providence Hwy,MA,2026
Staples,leesburg,1094,00101094X 01094 001094 0001094,1019-B Edwards Ferry Rd.,VA,20176
Staples,falmouth,1095,00101095X 01095 001095 0001095,244B US Route 1,ME,4105
Staples,glendale,1096,00101096X 01096 001096 0001096,6040 West Behrend Drive,AZ,85308
Staples,irving,1101,00101101X 01101 001101 0001101,3538 West Airport Freeway,TX,75062
Staples,frisco,1102,00101102X 01102 001102 0001102,3333 Preston Road,TX,75034
Staples,california,1103,00101103X 01103 001103 0001103,45035 Worth Ave,MD,20619
Staples,manhattan,1106,00101106X 01106 001106 0001106,769 Broadway,NY,10003
Staples,pharr,1107,00101107X 01107 001107 0001107,405 North Jackson Rd.,TX,78577
Staples,middletown,1108,00101108X 01108 001108 0001108,870 West Main Road,RI,2842
Staples,riverside,1109,00101109X 01109 001109 0001109,2550 Canyon Springs Pkwy Suite 1,CA,92507
Staples,morrow,1110,00101110X 01110 001110 0001110,1865 Mount  Zion Road,GA,30260
Staples,odessa,1114,00101114X 01114 001114 0001114,5161 East 42nd Street,TX,79762
Staples,newark,1115,00101115X 01115 001115 0001115,323 W. Main St.,DE,19702
Staples,orleans,1116,00101116X 01116 001116 0001116,136 Route 6A,MA,2653
Staples,harlem,1117,00101117X 01117 001117 0001117,105 West 125th St,NY,10027
Staples,poughkeepsie,1118,00101118X 01118 001118 0001118,3432 North Road,NY,12601
Staples,folsom,1120,00101120X 01120 001120 0001120,124 Morton Ave,PA,19033
Staples,rome,1123,00101123X 01123 001123 0001123,212 Shorter Ave.,GA,30161
Staples,seabrook,1124,00101124X 01124 001124 0001124,536 Lafayette Road,NH,3874
Staples,inglewood,1125,00101125X 01125 001125 0001125,3451 West Century Blvd,CA,90303
Staples,dallas,1127,00101127X 01127 001127 0001127,11700 Preston Rd,TX,75230
Staples,southport,1128,00101128X 01128 001128 0001128,5140 East Southport Rd.,IN,46237
Staples,stephenville,1129,00101129X 01129 001129 0001129,200 Wolfe Nursery Road,TX,76401
Staples,tulsa,1131,00101131X 01131 001131 0001131,2711 South Harvard,OK,74114
Staples,waterville,1132,00101132X 01132 001132 0001132,40 Waterville Commons Drive,ME,4901
Staples,brockton,1133,00101133X 01133 001133 0001133,599 Belmont St.,MA,2301
Staples,cincinnati,1134,00101134X 01134 001134 0001134,3808 Paxton Ave No 14A,OH,45209
Staples,yukon,1136,00101136X 01136 001136 0001136,1701 Garth Brooks Blvd,OK,73099
Staples,cary,1139,00101139X 01139 001139 0001139,220 Grande Heights Dr,NC,27513
Staples,tulsa,1144,00101144X 01144 001144 0001144,10302 East 71st South,OK,74133
Staples,newport,1145,00101145X 01145 001145 0001145,721 North Coast Highway,OR,97365
Staples,huntsville,1147,00101147X 01147 001147 0001147,9032A S. Memorial Parkway,AL,35802
Staples,downingtown,1149,00101149X 01149 001149 0001149,935 E. Lancaster Ave.,PA,19335
Staples,escanaba,1150,00101150X 01150 001150 0001150,421 North Lincoln Road,MI,49829
Staples,lubbock,1151,00101151X 01151 001151 0001151,6205 Slide Road,TX,79414
Staples,branson,1153,00101153X 01153 001153 0001153,1495 State Highway 248,MO,65616
Staples,cambridge,1154,00101154X 01154 001154 0001154,57 JFK Street,MA,2138
Staples,anaheim,1155,00101155X 01155 001155 0001155,2120 East Lincoln Avenue,CA,92806
Staples,pascagoula,1156,00101156X 01156 001156 0001156,3253 Denny Ave.,MS,39581
Staples,camillus,1157,00101157X 01157 001157 0001157,3736 Milton Ave.,NY,13031
Staples,decatur,1158,00101158X 01158 001158 0001158,817 Beltline Road,AL,35603
Staples,madison,1159,00101159X 01159 001159 0001159,7830 Highway 72,AL,35758
Staples,cleburne,1160,00101160X 01160 001160 0001160,1615 W Henderson,TX,76031
Staples,lincolnton,1161,00101161X 01161 001161 0001161,1623 E Main Street,NC,28092
Staples,suwanee,1162,00101162X 01162 001162 0001162,3630 Peachtree Pkwy,GA,30024
Staples,laporte,1163,00101163X 01163 001163 0001163,1406 East Lincoln Way,IN,46350
Staples,watauga,1164,00101164X 01164 001164 0001164,8000 Denton Highway,TX,76148
Staples,manhattan,1165,00101165X 01165 001165 0001165,442 5th Avenue,NY,10018
Staples,madison,1166,00101166X 01166 001166 0001166,4538 Verona Road,WI,53711
Staples,easton,1169,00101169X 01169 001169 0001169,8168 Elliot Road Suite 1,MD,21601
Staples,monona,1170,00101170X 01170 001170 0001170,6580 Monona Drive,WI,53716
Staples,saltillo,1172,00101172X 01172 001172 0001172,1046 Cross Creek Drive,MS,38866
Staples,tampa,1173,00101173X 01173 001173 0001173,12845 Citrus Plaza Drive,FL,33625
Staples,raleigh,1174,00101174X 01174 001174 0001174,8041 Brier Creek Parkway,NC,27617
Staples,savannah,1175,00101175X 01175 001175 0001175,11605 Abercorn St Suite 100,GA,31419
Staples,henderson,1177,00101177X 01177 001177 0001177,160 Dabney Road,NC,27537
Staples,temple,1179,00101179X 01179 001179 0001179,2112 SW H.K. Dodgen Loop Suite 183,TX,76504
Staples,seneca,1180,00101180X 01180 001180 0001180,101 Bi Lo Place,SC,29678
Staples,kernersville,1181,00101181X 01181 001181 0001181,210 Harmon Creek Road,NC,27284
Staples,gates,1182,00101182X 01182 001182 0001182,2036 Chili Ave.,NY,14624
Staples,guntersville,1183,00101183X 01183 001183 0001183,11468 Highway 431 South,AL,35976
Staples,stuart,1184,00101184X 01184 001184 0001184,3150 SE Federal Highway,FL,34994
Staples,athens,1185,00101185X 01185 001185 0001185,1036 Highway 72 East,AL,35611
Staples,birmingham,1188,00101188X 01188 001188 0001188,4614 Highway 280,AL,35242
Staples,manchester,1189,00101189X 01189 001189 0001189,1525 South Willow Street,NH,3103
Staples,bluffton,1190,00101190X 01190 001190 0001190,1050 Fording Island Road,SC,29910
Staples,greensboro,1191,00101191X 01191 001191 0001191,2226 Golden Gate Dr.,NC,27405
Staples,sturbridge,1193,00101193X 01193 001193 0001193,120 Charlton Road,MA,1566
Staples,williston,1195,00101195X 01195 001195 0001195,1375 Maple Tree Place                                       ,VT,5495
Staples,searcy,1196,00101196X 01196 001196 0001196,3500 East Race Street,AR,72143
Staples,crossville,1197,00101197X 01197 001197 0001197,2547 North Main St,TN,38555
Staples,cranberry,1198,00101198X 01198 001198 0001198,Route 322 Kimberly Drive,PA,16319
Staples,athens,1202,00101202X 01202 001202 0001202,973 E. State Street,OH,45701
Staples,birmingham,1204,00101204X 01204 001204 0001204,1905 Edwards Lake Road,AL,35235
Staples,naples,1207,00101207X 01207 001207 0001207,6305 Naples Blvd,FL,34109
Staples,macon,1211,00101211X 01211 001211 0001211,4658 Presidential Pkwy,GA,31206
Staples,warner-robins,1212,00101212X 01212 001212 0001212,2726 Watson Blvd.,GA,31093
Staples,lexington,1214,00101214X 01214 001214 0001214,524 West New Circle Road,KY,40511
Staples,lexington,1215,00101215X 01215 001215 0001215,2081 Harrodsburg Road,KY,40504
Staples,westborough,1216,00101216X 01216 001216 0001216,18 Lyman St,MA,1581
Staples,westfield,1217,00101217X 01217 001217 0001217,273 B East Main St.,MA,1085
Staples,worcester,1218,00101218X 01218 001218 0001218,541B Lincoln St,MA,1604
Staples,acton,1219,00101219X 01219 001219 0001219,145 Great Rd (Route 2A),MA,1720
Staples,foxboro,1221,00101221X 01221 001221 0001221,360 Patriot Place,MA,2035
Staples,nottingham,1222,00101222X 01222 001222 0001222,8115 Honeygo Blvd ,MD,21236
Staples,charlotte,1223,00101223X 01223 001223 0001223,10850 Providence Rd,NC,28277
Staples,concord,1224,00101224X 01224 001224 0001224,1480 US Highway 29 North,NC,28025
Staples,hendersonville,1225,00101225X 01225 001225 0001225,150 Highland Sq Dr US Hwy 64,NC,28792
Staples,aberdeen,1227,00101227X 01227 001227 0001227,290 Turner Street,NC,28315
Staples,manahawkin,1229,00101229X 01229 001229 0001229,601 Washington Ave,NJ,8050
Staples,brooklyn,1231,00101231X 01231 001231 0001231,1760 Utica Avenue,NY,11234
Staples,brooklyn,1232,00101232X 01232 001232 0001232,1880 Coney Island Avenue,NY,11230
Staples,cortland,1235,00101235X 01235 001235 0001235,3912 Route 281,NY,13045
Staples,geneva,1236,00101236X 01236 001236 0001236,337 Hamilton St,NY,14456
Staples,gettysburg,1239,00101239X 01239 001239 0001239,1275 York Road (US Route 30),PA,17325
Staples,hershey,1240,00101240X 01240 001240 0001240,710 West Chocolate Avenue,PA,17033
Staples,phoenixville,1241,00101241X 01241 001241 0001241,260 Schuylkill Road,PA,19460
Staples,stroudsburg,1242,00101242X 01242 001242 0001242,7005 Route 611,PA,18360
Staples,hendersonville,1244,00101244X 01244 001244 0001244,1012 Glenbrook Way,TN,37075
Staples,bradenton,1246,00101246X 01246 001246 0001246,7210 Manatee Ave,FL,34209
Staples,midland,1248,00101248X 01248 001248 0001248,4509 Navarrado,TX,79707
Staples,richardson,1250,00101250X 01250 001250 0001250,1306 East Beltline Road,TX,75081
Staples,dallas,1251,00101251X 01251 001251 0001251,16817 Coit Rd. ,TX,75248
Staples,christiansburg,1253,00101253X 01253 001253 0001253,145 Shoppers Way,VA,24073
Staples,smithfield,1255,00101255X 01255 001255 0001255,371 Putnam Pike STE 230,RI,2917
Staples,newtown,1256,00101256X 01256 001256 0001256,10 West Road,PA,18940
Staples,brooklyn,1257,00101257X 01257 001257 0001257,409 Gateway Drive,NY,11239
Staples,stafford,1264,00101264X 01264 001264 0001264,295 Worth Ave,VA,22556
Staples,cleveland,1265,00101265X 01265 001265 0001265,2150 West 117th Street,OH,44111
Staples,columbus,1266,00101266X 01266 001266 0001266,5555 Whittlesey Blvd,GA,31909
Staples,lithonia,1267,00101267X 01267 001267 0001267,8170 Mall Parkway,GA,30038
Staples,glastonbury,1268,00101268X 01268 001268 0001268,49 Putnam Blvd,CT,6033
Staples,burleson,1269,00101269X 01269 001269 0001269,1141 N. Burleson Blvd.,TX,76028
Staples,acworth,1270,00101270X 01270 001270 0001270,3344 Cobb Parkway,GA,30101
Staples,brattleboro,1272,00101272X 01272 001272 0001272,768 Putney Road (Route 5),VT,5301
Staples,chicopee,1274,00101274X 01274 001274 0001274,591 Memorial Drive,MA,1020
Staples,wareham,1275,00101275X 01275 001275 0001275,2421 Cranberry Highway Suite 2,MA,2571
Staples,fuquay-varina,1276,00101276X 01276 001276 0001276,921 E Broad St,NC,27526
Staples,gardner,1277,00101277X 01277 001277 0001277,60 Pearson Blvd. ,MA,1440
Staples,hackettstown,1278,00101278X 01278 001278 0001278,2045 Hwy. 57,NJ,7840
Staples,hanover,1279,00101279X 01279 001279 0001279,7661 Arundel Mills Blvd,MD,21076
Staples,huntsville,1280,00101280X 01280 001280 0001280,1201 North Memorial Parkway,AL,35801
Staples,indianapolis,1281,00101281X 01281 001281 0001281,6101 North Keystone,IN,46220
Staples,mansfield,1282,00101282X 01282 001282 0001282,1781 US HWY 287,TX,76063
Staples,mcdonough,1284,00101284X 01284 001284 0001284,1772 Jonesboro Rd,GA,30253
Staples,edgemont,1287,00101287X 01287 001287 0001287,4845 West Chester Pike,PA,19073
Staples,richmond,1290,00101290X 01290 001290 0001290,3540 Pump Road,VA,23233
Staples,rockland,1291,00101291X 01291 001291 0001291,235 Camden St. ,ME,4841
Staples,howell-,1292,00101292X 01292 001292 0001292,1072 S. Latson ,MI,48843
Staples,telford,1293,00101293X 01293 001293 0001293,4020 Bethlehem Pike,PA,18969
Staples,weymouth,1294,00101294X 01294 001294 0001294,729 Bridge St (Rt. 3A),MA,2191
Staples,willimantic,1295,00101295X 01295 001295 0001295,82 Storrs Road #86,CT,6226
Staples,whitehall,1296,00101296X 01296 001296 0001296,3790 East Broad,OH,43213
Staples,charlottesville,1297,00101297X 01297 001297 0001297,243 Ridge McIntire Road,VA,22903
Staples,fremont,1299,00101299X 01299 001299 0001299,39116 Fremont Hub,CA,94538
Staples,peoria,1306,00101306X 01306 001306 0001306,10310 North 91st Ave.,AZ,85345
Staples,gilbert,1308,00101308X 01308 001308 0001308,1455 East Warner Rd,AZ,85296
Staples,anaheim,1309,00101309X 01309 001309 0001309,790 North Brookhurst St.,CA,92801
Staples,chehalis,1311,00101311X 01311 001311 0001311,1740 National Ave,WA,98532
Staples,seattle,1312,00101312X 01312 001312 0001312,1541 15th Ave West,WA,98119
Staples,portland,1315,00101315X 01315 001315 0001315,12301 NE Glisan Street,OR,97230
Staples,walnut,1316,00101316X 01316 001316 0001316,21555 Valley Blvd,CA,91789
Staples,rochester,1317,00101317X 01317 001317 0001317,3839 Market Place Drive NW,MN,55901
Staples,albuquerque,1318,00101318X 01318 001318 0001318,5201 Ouray NW,NM,87120
Staples,mesa-,1320,00101320X 01320 001320 0001320,4535 E. McKellips Rd,AZ,85215
Staples,antioch,1321,00101321X 01321 001321 0001321,4863 Lone Tree Way,CA,94531
Staples,carson,1322,00101322X 01322 001322 0001322,250 E Sepulveda Blvd.,CA,90745
Staples,fontana,1323,00101323X 01323 001323 0001323,15058 Summit Ave.,CA,92336
Staples,vista,1334,00101334X 01334 001334 0001334,235 Vista Village Drive,CA,92083
Staples,bellevue,1335,00101335X 01335 001335 0001335,1645 140th N.E. Suite A4,WA,98005
Staples,bothell,1336,00101336X 01336 001336 0001336,18438 120th Ave NE,WA,98011
Staples,lynnwood,1338,00101338X 01338 001338 0001338,3011 196th Street SW,WA,98036
Staples,seattle,1339,00101339X 01339 001339 0001339,13240 Aurora Ave. North,WA,98133
Staples,hawthorne,1340,00101340X 01340 001340 0001340,14401 Hindry Avenue,CA,90250
Staples,manteca,1341,00101341X 01341 001341 0001341,249 Commerce Avenue,CA,95337
Staples,riverside,1342,00101342X 01342 001342 0001342,6296 Magnolia Ave.,CA,92506
Staples,sacramento,1343,00101343X 01343 001343 0001343,7551 Freeport Blvd.,CA,95832
Staples,issaquah,1344,00101344X 01344 001344 0001344,628 N. Front Street,WA,98027
Staples,temecula,1346,00101346X 01346 001346 0001346,32120 Highway 79 South,CA,92592
Staples,burbank,1347,00101347X 01347 001347 0001347,2080 Empire Avenue,CA,91504
Staples,irvine,1350,00101350X 01350 001350 0001350,2160 Barranca Parkway,CA,92606
Staples,ontario,1352,00101352X 01352 001352 0001352,921 North Milliken Ave.,CA,91761
Staples,petaluma,1353,00101353X 01353 001353 0001353,207 South McDowell Blvd,CA,94954
Staples,phoenix,1355,00101355X 01355 001355 0001355,2501 West Happy Valley Rd,AZ,85027
Staples,redmond,1356,00101356X 01356 001356 0001356,15790 Redmond Way,WA,98052
Staples,kent,1357,00101357X 01357 001357 0001357,18129 East Valley Hwy South,WA,98032
Staples,seattle,1361,00101361X 01361 001361 0001361,2501 SW Trenton Street,WA,98106
Staples,compton,1364,00101364X 01364 001364 0001364,203 Towne Center Drive,CA,90220
Staples,concord,1365,00101365X 01365 001365 0001365,4498 Treat Blvd.,CA,94521
Staples,poway,1372,00101372X 01372 001372 0001372,12900 Gregg Blvd,CA,92064
Staples,corona,1377,00101377X 01377 001377 0001377,3439 Grand Oaks,CA,92882
Staples,folsom,1378,00101378X 01378 001378 0001378,2435 Iron Point Rd,CA,95630
Staples,yucaipa,1381,00101381X 01381 001381 0001381,33730 Yucaipa Blvd ,CA,92399
Staples,jackson,1383,00101383X 01383 001383 0001383,520 W Broadway Ave,WY,83001
Staples,atascadero,1385,00101385X 01385 001385 0001385,815 El Camino Real,CA,93422
Staples,downey,1386,00101386X 01386 001386 0001386,12070 Lakewood Blvd,CA,90241
Staples,kingman,1388,00101388X 01388 001388 0001388,3320 N Stockton Hill Rd Bldg C,AZ,86409
Staples,gardena,1390,00101390X 01390 001390 0001390,701 West Redondo Beach Blvd.,CA,90247
Staples,chandler,1392,00101392X 01392 001392 0001392,2840 E Germann Rd,AZ,85286
Staples,carlsbad,1393,00101393X 01393 001393 0001393,2712 Loker Avenue West,CA,92010
Staples,gilbert-,1395,00101395X 01395 001395 0001395,865 East Baseline Rd        ,AZ,85233
Staples,encinitas,1396,00101396X 01396 001396 0001396,222 N El Camino Real,CA,92024
Staples,mesa,1397,00101397X 01397 001397 0001397,1850 S. Signal Butte Rd.,AZ,85209
Staples,gilbert,1398,00101398X 01398 001398 0001398,5382 S. Power Road,AZ,85295
Staples,chandler,1399,00101399X 01399 001399 0001399,4240 S Arizona Ave,AZ,85248
Staples,moorpark,1400,00101400X 01400 001400 0001400,742 New Los Angeles Ave.,CA,93021
Staples,riverbank,1401,00101401X 01401 001401 0001401,2347 Claribel Road,CA,95367
Staples,pocatello,1403,00101403X 01403 001403 0001403,1710 Hurley Dr.,ID,83202
Staples,bozeman,1404,00101404X 01404 001404 0001404,2975 Max Ave,MT,59718
Staples,keizer,1405,00101405X 01405 001405 0001405,6305 Ulali Drive,OR,97303
Staples,laramie,1407,00101407X 01407 001407 0001407,4037 E Grande Ave,WY,82070
Staples,jackson--,1413,00101413X 01413 001413 0001413,12060 Industry Blvd.,CA,95642
Staples,lincoln,1414,00101414X 01414 001414 0001414,930 Groveland Lane,CA,95648
Staples,boulder,1415,00101415X 01415 001415 0001415,1601 29th St. Suite 1292,CO,80301
Staples,glendale,1416,00101416X 01416 001416 0001416,870 South Colorado Blvd.,CO,80246
Staples,glendora,1417,00101417X 01417 001417 0001417,1391 East Gladstone Street,CA,91740
Staples,casper,1418,00101418X 01418 001418 0001418,4160 E 2nd Street,WY,82609
Staples,goodyear,1419,00101419X 01419 001419 0001419,1755 North Pebblecreek Parkway,AZ,85395
Staples,loveland,1422,00101422X 01422 001422 0001422,1665 Rocky Mountain Ave.,CO,80538
Staples,phoenix-,1424,00101424X 01424 001424 0001424,1980 W. Baseline Rd. Suite 110,AZ,85041
Staples,conifer,1429,00101429X 01429 001429 0001429,10853 US Highway 285,CO,80433
Staples,golden,1431,00101431X 01431 001431 0001431,16630 West Colfax,CO,80401
Staples,littleton,1433,00101433X 01433 001433 0001433,8055-3 West Bowles Ave Suite 3,CO,80120
Staples,longmont,1434,00101434X 01434 001434 0001434,210 Ken Pratt Blvd Ste 140,CO,80501
Staples,parker,1435,00101435X 01435 001435 0001435,11236 S Pikes Peak Drive,CO,80138
Staples,renton,1438,00101438X 01438 001438 0001438,1207 N Landing Way,WA,98055
Staples,beaumont,1439,00101439X 01439 001439 0001439,1638 E. 2nd Street,CA,92223
Staples,monument,1440,00101440X 01440 001440 0001440,16096 Jackson Creek Parkway,CO,80132
Staples,everett,1442,00101442X 01442 001442 0001442,4920 Evergreen Way South,WA,98203
Staples,centennial,1444,00101444X 01444 001444 0001444,6767 S. Vine Street,CO,80122
Staples,westminster,1446,00101446X 01446 001446 0001446,5150 W 120th Ave. Suite 100,CO,80020
Staples,farmington,1447,00101447X 01447 001447 0001447,3030 B East Main Street,NM,87402
Staples,westminster,1449,00101449X 01449 001449 0001449,14458 Delaware St Ste 600,CO,80023
Staples,missoula,1451,00101451X 01451 001451 0001451,2501 Brooks Street,MT,59801
Staples,fairfield,1452,00101452X 01452 001452 0001452,1250 Oliver Road,CA,94534
Staples,springfield-,1453,00101453X 01453 001453 0001453,3320 Gateway Street,OR,97477
Staples,portland,1454,00101454X 01454 001454 0001454,10251 NE Cascades Parkway,OR,97220
Staples,berkeley,1458,00101458X 01458 001458 0001458,2352 Shattuck Ave.,CA,94704
Staples,lakewood,1461,00101461X 01461 001461 0001461,7350 West Alameda,CO,80226
Staples,tucson,1463,00101463X 01463 001463 0001463,2930 Campbell Ave,AZ,85719
Staples,puyallup,1465,00101465X 01465 001465 0001465,10307 156th Street East,WA,98374
Staples,menifee,1466,00101466X 01466 001466 0001466,30450 Haun Road,CA,92584
Staples,reno,1470,00101470X 01470 001470 0001470,10350 N McCarran Blvd,NV,89503
Staples,reno,1472,00101472X 01472 001472 0001472,355 E Plumb Lane,NV,89502
Staples,henderson,1473,00101473X 01473 001473 0001473,280 West Lake Mead Parkway,NV,89015
Staples,tucson,1477,00101477X 01477 001477 0001477,6230 East Broadway Suite 100,AZ,85711
Staples,cupertino,1478,00101478X 01478 001478 0001478,20830 Stevens Creek Blvd,CA,95014
Staples,sedona,1479,00101479X 01479 001479 0001479,2350 W Highway 89A,AZ,86336
Staples,warrenton,1480,00101480X 01480 001480 0001480,1629 SE Ensign Lane ,OR,97146
Staples,tucson,1482,00101482X 01482 001482 0001482,3840 West River Road,AZ,85741
Staples,chico,1484,00101484X 01484 001484 0001484,2019 Forest Avenue   ,CA,95928
Staples,albuquerque,1485,00101485X 01485 001485 0001485,3339 Central Avenue NE    ,NM,87106
Staples,sonoma,1488,00101488X 01488 001488 0001488,977 West Napa Street,CA,95476
Staples,ventura,1489,00101489X 01489 001489 0001489,3400 Telegraph Road           ,CA,93003
Staples,riverton,1497,00101497X 01497 001497 0001497,3651 West Market Center Drive Suite 3200,UT,84065
Staples,allentown,1500,00101500X 01500 001500 0001500,4628 Broadway,PA,18104
Staples,audubon,1501,00101501X 01501 001501 0001501,130 Black Horse Pike (Rte 168),NJ,8106
Staples,binghamton,1504,00101504X 01504 001504 0001504,1290 Front Street ,NY,13901
Staples,branford,1506,00101506X 01506 001506 0001506,85 North Main Street (Rt.1) ,CT,6405
Staples,chelmsford,1509,00101509X 01509 001509 0001509,265 Chelmsford Street,MA,1824
Staples,dubois,1511,00101511X 01511 001511 0001511,690 Shaffer Road,PA,15801
Staples,glassboro,1515,00101515X 01515 001515 0001515,767 N Delsea Drive (Route 47),NJ,8028
Staples,laurel,1517,00101517X 01517 001517 0001517,14280 Baltimore Ave (Rt. 1),MD,20707
Staples,londonderry,1520,00101520X 01520 001520 0001520,41 Nashua RD,NH,3053
Staples,louisville,1521,00101521X 01521 001521 0001521,6801 Dixie Highway,KY,40258
Staples,mchenry,1522,00101522X 01522 001522 0001522,2525 North Richmond Rd,IL,60050
Staples,havertown,1524,00101524X 01524 001524 0001524,1305 Westchester Pike Suite 18,PA,19083
Staples,marlborough,1525,00101525X 01525 001525 0001525,771 Boston Post Rd,MA,1752
Staples,franklin,1527,00101527X 01527 001527 0001527,3601 Towne Boulevard,OH,45005
Staples,washington,1532,00101532X 01532 001532 0001532,1901 L Street,DC,20036
Staples,philadelphia,1535,00101535X 01535 001535 0001535,8500 Henry Avenue,PA,19128
Staples,manhattan,1536,00101536X 01536 001536 0001536,776 8th Ave,NY,10036
Staples,nashville,1539,00101539X 01539 001539 0001539,100 Powell Place,TN,37204
Staples,monticello,1541,00101541X 01541 001541 0001541,56 Thompson Sq,NY,12701
Staples,philadelphia,1542,00101542X 01542 001542 0001542,2290 Oregon Avenue,PA,19145
Staples,timonium,1543,00101543X 01543 001543 0001543,2131 York Rd,MD,21093
Staples,clearwater,1544,00101544X 01544 001544 0001544,30190 US Highway 19N,FL,33761
Staples,killingly,1545,00101545X 01545 001545 0001545,2079 Killingly Commons Drive ,CT,6241
Staples,altoona,1550,00101550X 01550 001550 0001550,3500 8th St. SW,IA,50009
Staples,mansfield,1551,00101551X 01551 001551 0001551,390 West St.,MA,2048
Staples,millbury-,1553,00101553X 01553 001553 0001553,70 Worcester Providence Tpke ,MA,1527
Staples,reading,1558,00101558X 01558 001558 0001558,34 Walkers Brook Dr. ,MA,1867
Staples,clinton,1559,00101559X 01559 001559 0001559,8861 Branch Ave,MD,20735
Staples,forestville,1560,00101560X 01560 001560 0001560,3024 Donnell Drive,MD,20747
Staples,hyattsville,1561,00101561X 01561 001561 0001561,2950 Belcrest Center Drive,MD,20782
Staples,novi,1565,00101565X 01565 001565 0001565,47610 Grand River ,MI,48374
Staples,stratham,1566,00101566X 01566 001566 0001566,20 Portsmouth Ave. ,NH,3885
Staples,absecon,1567,00101567X 01567 001567 0001567,413 Absecon Blvd (Route 30),NJ,8201
Staples,bayonne,1568,00101568X 01568 001568 0001568,110 LeFante Way,NJ,7002
Staples,oakland,1569,00101569X 01569 001569 0001569,350 Ramapo Valley Rd (Rt. 202),NJ,7436
Staples,ocean,1571,00101571X 01571 001571 0001571,1100 Highway 35 ,NJ,7712
Staples,manhattan-,1574,00101574X 01574 001574 0001574,500 Eighth Avenue New York ,NY,10018
Staples,queens,1575,00101575X 01575 001575 0001575,90-30 Metropolitan Avenue,NY,11374
Staples,riverhead,1576,00101576X 01576 001576 0001576,1087 Route 58,NY,11901
Staples,easton,1579,00101579X 01579 001579 0001579,4403 Birkland Place,PA,18045
Staples,milford,1580,00101580X 01580 001580 0001580,102 Milford Landing Dr Suite 1,PA,18337
Staples,royersford,1581,00101581X 01581 001581 0001581,1844 Ridge Pike Suite 5,PA,19468
Staples,charleston,1583,00101583X 01583 001583 0001583,78 Folly Road Space B 9,SC,29407
Staples,warrenton,1585,00101585X 01585 001585 0001585,251 West Lee Highway Suite 617,VA,20186
Staples,cheshire,1587,00101587X 01587 001587 0001587,943 South Main St (Route 10),CT,6410
Staples,hamilton,1590,00101590X 01590 001590 0001590,550 Marketplace Blvd,NJ,8691
Staples,asheville,1593,00101593X 01593 001593 0001593,65 Merrimon Avenue,NC,28801
Staples,brooklyn,1596,00101596X 01596 001596 0001596,7400 Brook Park Road Suite 7420,OH,44129
Staples,pittsburgh,1597,00101597X 01597 001597 0001597,999 Freeport Road,PA,15238
Staples,astoria,1602,00101602X 01602 001602 0001602,24-41 31st Street,NY,11102
Staples,schaumburg,1605,00101605X 01605 001605 0001605,160 Barrington Rd ,IL,60194
Staples,chicago,1606,00101606X 01606 001606 0001606,1130 South Canal Street,IL,60607
Staples,mundelein,1607,00101607X 01607 001607 0001607,2964 West Rte 60 ,IL,60060
Staples,reston,1610,00101610X 01610 001610 0001610,11620 Plaza America Drive,VA,20190
Staples,chicago,1611,00101611X 01611 001611 0001611,111 North Wabash Ave.,IL,60602
Staples,glenview,1612,00101612X 01612 001612 0001612,1509 Waukegan Road,IL,60025
Staples,palatine,1613,00101613X 01613 001613 0001613,761 E Dundee Rd ,IL,60067
Staples,shorewood,1615,00101615X 01615 001615 0001615,992 Brook Forest Avenue,IL,60404
Staples,jacksonville,1616,00101616X 01616 001616 0001616,10261 River Marsh Drive,FL,32246
Staples,chicago-,1617,00101617X 01617 001617 0001617,4610 North Clark  Chicago,IL,60640
Staples,chicago-,1618,00101618X 01618 001618 0001618,2484 North Elston Ave,IL,60647
Staples,caledonia,1620,00101620X 01620 001620 0001620,1849 Marketplace Drive,MI,49316
Staples,grandville,1621,00101621X 01621 001621 0001621,3313 Century Center Drive,MI,49418
Staples,clermont,1622,00101622X 01622 001622 0001622,1600 South Grand Highway,FL,34711
Staples,naples,1624,00101624X 01624 001624 0001624,13585 N Tamiami Trail Ste 12,FL,34110
Staples,bloomingdale,1627,00101627X 01627 001627 0001627,525 W. Army Trail Road,IL,60108
Staples,chicago,1628,00101628X 01628 001628 0001628,7554 So Stony Island Ave,IL,60649
Staples,frankfort,1631,00101631X 01631 001631 0001631,20015 S LaGrange Rd,IL,60423
Staples,naperville,1633,00101633X 01633 001633 0001633,1552 South Route 59,IL,60564
Staples,munster,1635,00101635X 01635 001635 0001635,7951 Calumet Ave,IN,46321
Staples,charlotte,1638,00101638X 01638 001638 0001638,7014 Smith Corners Blvd,NC,28269
Staples,bronx,1641,00101641X 01641 001641 0001641,2488 Grand Concourse,NY,10458
Staples,chardon,1643,00101643X 01643 001643 0001643,255 Meadowlands Drive,OH,44024
Staples,alexandria,1646,00101646X 01646 001646 0001646,6548 Little River Turnpike,VA,22312
Staples,manassas,1647,00101647X 01647 001647 0001647,9890 Liberia Ave,VA,20110
Staples,somerset,1648,00101648X 01648 001648 0001648,863 G.A.R Highway(Route 6),MA,2725
Staples,fayetteville,1649,00101649X 01649 001649 0001649,105 Banks Station,GA,30214
Staples,bolingbrook,1650,00101650X 01650 001650 0001650,740 E. Boughton Rd.,IL,60440
Staples,bedford,1652,00101652X 01652 001652 0001652,297 Great Road,MA,1730
Staples,southlake,1653,00101653X 01653 001653 0001653,200 N Kimball Ave Suite 221,TX,76092
Staples,hialeah,1654,00101654X 01654 001654 0001654,1700 West 49th Street,FL,33012
Staples,margate,1655,00101655X 01655 001655 0001655,5307 West Atlantic Boulevard,FL,33063
Staples,miami,1656,00101656X 01656 001656 0001656,8859 S.W. 24th St.,FL,33165
Staples,reynoldsburg,1658,00101658X 01658 001658 0001658,2321 Taylor Park Drive,OH,43068
Staples,wilmington,1662,00101662X 01662 001662 0001662,322 South College Road,NC,28403
Staples,milford,1663,00101663X 01663 001663 0001663,1371 Boston Post Road,CT,6460
Staples,watertown,1666,00101666X 01666 001666 0001666,544 Straits Turnpike,CT,6795
Staples,pinecrest,1672,00101672X 01672 001672 0001672,9801 South Dixie Hwy (US 1),FL,33156
Staples,miami,1673,00101673X 01673 001673 0001673,8811 SW 107th Avenue,FL,33176
Staples,lauderhill,1674,00101674X 01674 001674 0001674,7500 W Commercial Blvd,FL,33319
Staples,chicago,1675,00101675X 01675 001675 0001675,1300-J N Ashland Ave,IL,60622
Staples,moraine,1677,00101677X 01677 001677 0001677,1927 Dorothy Lane,OH,45439
Staples,ocala,1679,00101679X 01679 001679 0001679,2497 South West 27th Avenue,FL,34471
Staples,chicago,1688,00101688X 01688 001688 0001688,201 W 87th Street,IL,60620
Staples,wheeling,1689,00101689X 01689 001689 0001689,1550 East Lake Cook Road,IL,60090
Staples,naperville,1691,00101691X 01691 001691 0001691,1125 E. Ogden Ave,IL,60563
Staples,clarksville,1696,00101696X 01696 001696 0001696,1250 Veterans Parkway,IN,47129
Staples,louisville,1697,00101697X 01697 001697 0001697,5067 Shelbyville Rd,KY,40207
Staples,elkton,1698,00101698X 01698 001698 0001698,801 E. Pulaski Highway,MD,21921
Staples,amherst,1701,00101701X 01701 001701 0001701,124 Route 101A Suite 13,NH,3031
Staples,vauxhall,1702,00101702X 01702 001702 0001702,2933 Vauxhall Road Suite 7,NJ,7088
Staples,shirley,1704,00101704X 01704 001704 0001704,855 Montauk Highway Building B,NY,11967
Staples,glenmont,1705,00101705X 01705 001705 0001705,241 Route 9W,NY,12077
Staples,granbury,1708,00101708X 01708 001708 0001708,301 E Highway 377 Suite 112,TX,76048
Staples,arlington,1709,00101709X 01709 001709 0001709,I-20 203 Merchants Row Ste 121,TX,76018
Staples,bluefield,1710,00101710X 01710 001710 0001710,560 Commerce Dr,VA,24605
Staples,bronx,1713,00101713X 01713 001713 0001713,700 Exterior Street Bldg A,NY,10451
Staples,cleveland,1714,00101714X 01714 001714 0001714,3373 Steelyard Drive,OH,44109
Staples,somerville,1715,00101715X 01715 001715 0001715,165 Middlesex Ave.,MA,2145
Staples,washington,1720,00101720X 01720 001720 0001720,3100 14th Street NW Suite 115,DC,20010
Staples,miami,1721,00101721X 01721 001721 0001721,13640 North Kendall Drive,FL,33186
Staples,hilliard,1724,00101724X 01724 001724 0001724,3939 Trueman Blvd,OH,43026
Staples,pikeville,1732,00101732X 01732 001732 0001732,238 Cassidy Blvd. ,KY,41501
Staples,maspeth,1733,00101733X 01733 001733 0001733,60-40 Fresh Pond Road,NY,11378
Staples,indianapolis,1737,00101737X 01737 001737 0001737,10422 Pendleton Pike,IN,46236
Staples,shrewsbury,1742,00101742X 01742 001742 0001742,1021 Broad St.,NJ,7702
Staples,garner,1743,00101743X 01743 001743 0001743,250 Shenstone Lane US HWY 70,NC,27529
Staples,davie,1744,00101744X 01744 001744 0001744,8864 State Road 84,FL,33324
Staples,brownwood,1745,00101745X 01745 001745 0001745,531 W. Commerce Street,TX,76804
Staples,largo,1746,00101746X 01746 001746 0001746,10530 Campus Way South,MD,20774
Staples,naples,1747,00101747X 01747 001747 0001747,2415 Tarpon Bay Blvd No 4,FL,34119
Staples,cary,1748,00101748X 01748 001748 0001748,1391 Kildaire Farm Road,NC,27511
Staples,culpeper-,1749,00101749X 01749 001749 0001749,15323 Montanus Drive,VA,22701
Staples,dallas-,1750,00101750X 01750 001750 0001750,4351 Dallas Ft Worth Tpke Ste 200,TX,75211
Staples,delavan,1751,00101751X 01751 001751 0001751,2141 E. Geneva Street,WI,53115
Staples,englishtown,1754,00101754X 01754 001754 0001754,Marlboro Plaza 166 US Rte 9 N,NJ,7726
Staples,madisonville,1757,00101757X 01757 001757 0001757,98 Madison Square Drive,KY,42431
Staples,milford,1759,00101759X 01759 001759 0001759,220 Fortune Blvd,MA,1757
Staples,fredericksburg,1764,00101764X 01764 001764 0001764,9723 Jefferson Davis Highway ,VA,22408
Staples,rockwall,1765,00101765X 01765 001765 0001765,1009 E Interstate 30,TX,75087
Staples,willowbrook,1767,00101767X 01767 001767 0001767,7199 S Kingery Hwy,IL,60527
Staples,rogers,1771,00101771X 01771 001771 0001771,4021 West Walnut Street,AR,72756
Staples,chicago,1772,00101772X 01772 001772 0001772,4640 S Pulaski ,IL,60632
Staples,mooresville,1773,00101773X 01773 001773 0001773,615 River Highway ,NC,28117
Staples,lawrence,1774,00101774X 01774 001774 0001774,345 Rockaway Turnpike,NY,11559
Staples,naples,1775,00101775X 01775 001775 0001775,12632 East Tamiami Trail,FL,34113
Staples,orlando,1781,00101781X 01781 001781 0001781,638 N Alafaya Trail,FL,32828
Staples,hiram,1786,00101786X 01786 001786 0001786,4471 Jimmy Lee Smith Pky Ste i,GA,30141
Staples,savannah,1787,00101787X 01787 001787 0001787,1915 E. Victory Square Drive Suite E,GA,31404
Staples,norridge,1788,00101788X 01788 001788 0001788,7000 West Forest Preserve Dr.,IL,60706
Staples,merrillville,1790,00101790X 01790 001790 0001790,8205 Broadway,IN,46410
Staples,charlotte,1793,00101793X 01793 001793 0001793,8322 Pineville Matthews Road,NC,28226
Staples,huntersville,1794,00101794X 01794 001794 0001794,10031 Biddick Lane,NC,28078
Staples,brooklyn,1795,00101795X 01795 001795 0001795,535 Morgan Avenue,NY,11222
Staples,medford,1796,00101796X 01796 001796 0001796,2799 Rt 112,NY,11763
Staples,manhattan,1798,00101798X 01798 001798 0001798,390 Avenue of the Americas,NY,10011
Staples,greenville,1800,00101800X 01800 001800 0001800,3210 N Pleasantburg ,SC,29609
Staples,greenville,1801,00101801X 01801 001801 0001801,500 East McBee Ave,SC,29601
Staples,louisville,1803,00101803X 01803 001803 0001803,3030 Bardstown Road,KY,40205
Staples,cumming,1808,00101808X 01808 001808 0001808,2355 Market Place Blvd,GA,30040
Staples,edmond,1810,00101810X 01810 001810 0001810,1632 South Broadway,OK,73013
Staples,northampton,1812,00101812X 01812 001812 0001812,122 North King St,MA,1060
Staples,hamilton,1816,00101816X 01816 001816 0001816,3339 Princeton Road,OH,45011
Staples,apopka,1820,00101820X 01820 001820 0001820,1626 West Orange Blossom Trail,FL,32712
Staples,ludington,1822,00101822X 01822 001822 0001822,3815 W US 10,MI,49431
Staples,waynesville,1823,00101823X 01823 001823 0001823,89 Waynesville Plaza,NC,28786
Staples,wilmington-,1824,00101824X 01824 001824 0001824,5613 Carolina Beach Rd Ste 140,NC,28412
Staples,denton,1826,00101826X 01826 001826 0001826,2315 Colorado Blvd Ste 160,TX,76205
Staples,gainesville,1829,00101829X 01829 001829 0001829,7973 Stonewall Shoppes Sq,VA,20155
Staples,miami,1831,00101831X 01831 001831 0001831,2121 Biscayne Blvd,FL,33137
Staples,houston,1832,00101832X 01832 001832 0001832,10045 Almeda Genoa Rd.,TX,77075
Staples,alexandria,1834,00101834X 01834 001834 0001834,3155 Duke Street,VA,22314
Staples,vernal,1835,00101835X 01835 001835 0001835,1149 W Hwy 40,UT,84078
Staples,glasgow,1836,00101836X 01836 001836 0001836,204 S L Rogers Wells Blvd. ,KY,42141
Staples,madison,1837,00101837X 01837 001837 0001837,1791 A Gallatin Pike N.,TN,37115
Staples,milton,1838,00101838X 01838 001838 0001838,13071 Highway 9 North,GA,30004
Staples,atlanta,1839,00101839X 01839 001839 0001839,5560 Roswell Rd,GA,30342
Staples,charlotte,1840,00101840X 01840 001840 0001840,1055 Metropolitan Ave STE 250,NC,28204
Staples,addison,1842,00101842X 01842 001842 0001842,4400 Beltline Road,TX,75001
Staples,davenport,1843,00101843X 01843 001843 0001843,3500 Posner Blvd.,FL,33837
Staples,smyrna,1845,00101845X 01845 001845 0001845,809 Industrial Blvd.,TN,37167
Staples,collegeville,1846,00101846X 01846 001846 0001846,300 Water Loop Drive  Suite 2,PA,19426
Staples,braintree,1850,00101850X 01850 001850 0001850,500 Grossman Drive,MA,2184
Staples,roslindale,1851,00101851X 01851 001851 0001851,4165 Washington St,MA,2131
Staples,minnetonka,1852,00101852X 01852 001852 0001852,11500 Wayzata Blvd.,MN,55305
Staples,omaha,1854,00101854X 01854 001854 0001854,151 N 78th Street,NE,68114
Staples,paramus,1855,00101855X 01855 001855 0001855,60 Route 17 North,NJ,7652
Staples,edison,1856,00101856X 01856 001856 0001856,1130 US Hwy 1 North,NJ,8817
Staples,hauppauge,1857,00101857X 01857 001857 0001857,526 Route 111,NY,11788
Staples,houston,1860,00101860X 01860 001860 0001860,1919 Taylor Street,TX,77007
Staples,houston,1863,00101863X 01863 001863 0001863,19714 Northwest Freeway,TX,77065
Staples,rochester,1864,00101864X 01864 001864 0001864,1601 Penfield Road Suite 575,NY,14625
Staples,mckinney,1865,00101865X 01865 001865 0001865,8676 State Highway 121,TX,75070
Staples,hillsborough,1868,00101868X 01868 001868 0001868,315 US Hwy No. 206 Suite 200,NJ,8844
Staples,geneseo,1869,00101869X 01869 001869 0001869,4357 Genesee Valley Plaza Rd,NY,14454
Staples,austin,1871,00101871X 01871 001871 0001871,4301 W. William Cannon,TX,78749
Staples,houston,1872,00101872X 01872 001872 0001872,4701 FM 1960 RD West,TX,77069
Staples,pensacola,1876,00101876X 01876 001876 0001876,1123 Airport Blvd.,FL,32504
Staples,selinsgrove,1880,00101880X 01880 001880 0001880,292 Marketplace Blvd,PA,17870
Staples,harrison,1881,00101881X 01881 001881 0001881,595 Ring Road,OH,45030
Staples,crestview,1882,00101882X 01882 001882 0001882,2821 Ferdon Blvd South,FL,32536
Staples,woodbury,1883,00101883X 01883 001883 0001883,9885 Hudson Place,MN,55125
Staples,jacksonville,1884,00101884X 01884 001884 0001884,11111 San Jose Blvd  Suite 56,FL,32223
Staples,roseville,1885,00101885X 01885 001885 0001885,2100 N Snelling Dr Unit #42,MN,55113
Staples,levittown,1886,00101886X 01886 001886 0001886,2981-2991 Hempstead Tpke,NY,11756
Staples,conway,1889,00101889X 01889 001889 0001889,640 Elsinger Blvd.,AR,72032
Staples,martinsburg,1891,00101891X 01891 001891 0001891,246 Retail Commons Parkway,WV,25403
Staples,homestead,1892,00101892X 01892 001892 0001892,2631 NE 10th Ct,FL,33033
Staples,bethlehem,1894,00101894X 01894 001894 0001894,916 Loganville Highway,GA,30620
Staples,hillside,1896,00101896X 01896 001896 0001896,190 S Mannheim Road,IL,60162
Staples,anderson,1897,00101897X 01897 001897 0001897,120 Fritz Drive   ,SC,29621
Staples,zephyrhills,1899,00101899X 01899 001899 0001899,7910 Gall Blvd,FL,33542
Staples,lincoln,1900,00101900X 01900 001900 0001900,4940 O Street,NE,68510
Staples,orlando,1901,00101901X 01901 001901 0001901,7157 Narcoossee Road,FL,32822
Staples,houston,1902,00101902X 01902 001902 0001902,6022 E. Sam Houston Parkway North,TX,77049
Staples,webster,1903,00101903X 01903 001903 0001903,19335 Gulf Freeway,TX,77598
Staples,alexandria,1906,00101906X 01906 001906 0001906,1456 MacArthur Dr,LA,71307
Staples,houston,1907,00101907X 01907 001907 0001907,8225 S. Gessner Rd  Suite A,TX,77036
Staples,houston,1908,00101908X 01908 001908 0001908,520 Gulfgate Center Mall,TX,77087
Staples,tucker-,1910,00101910X 01910 001910 0001910,4351 Hugh Howell Road,GA,30084
Staples,amsterdam,1911,00101911X 01911 001911 0001911,220 Amsterdam Common,NY,12010
Staples,dickinson,1912,00101912X 01912 001912 0001912,3120 Gulf Freeway South,TX,77539
Staples,houston,1914,00101914X 01914 001914 0001914,14404 Hillcroft Avenue Suite 100,TX,77085
Staples,bridgehampton,1916,00101916X 01916 001916 0001916,2044 Montauk Highway Bldg 3 #44,NY,11932
Staples,bloomington,1918,00101918X 01918 001918 0001918,4200 West 78th Street,MN,55435
Staples,bastrop,1924,00101924X 01924 001924 0001924,767 State Highway 71 West,TX,78602
Staples,sarasota,1927,00101927X 01927 001927 0001927,1900 Fruitville Road,FL,34236
Staples,tulsa,1938,00101938X 01938 001938 0001938,7521 S Olympia Avenue West,OK,74132
Staples,cordova,1940,00101940X 01940 001940 0001940,2335 North Germantown Pkwy,TN,38016
Staples,memphis,1941,00101941X 01941 001941 0001941,5851 Poplar Avenue,TN,38119
Staples,queens,1948,00101948X 01948 001948 0001948,61-35 Junction Blvd,NY,11374
Staples,westbury,1952,00101952X 01952 001952 0001952,1080 Old Country Road ,NY,11590
Staples,west-springfield,6,00106X 06 006 0006,1129 Riverdale Road,MA,1089
Staples,king-of-prussia,14,001014X 014 0014 00014,197 East DeKalb Pike,PA,19406
Staples,silver-spring,21,001021X 021 0021 00021,9440 Georgia Avenue,MD,20910
Staples,n-bergen,29,001029X 029 0029 00029,3113 Kennedy Blvd,NJ,7047
Staples,willow-grove,32,001032X 032 0032 00032,1025 N. Easton Road,PA,19090
Staples,east-islip,43,001043X 043 0043 00043,2650-1 Sunrise Hwy,NY,11730
Staples,warwick,44,001044X 044 0044 00044,1276 Bald Hill Road/Route 2 ,RI,2886
Staples,lanham,52,001052X 052 0052 00052,7933 Annapolis Road,MD,20706
Staples,los-angeles,60,001060X 060 0060 00060,1833B S. La Cienega Blvd,CA,90035
Staples,bryn-mawr,67,001067X 067 0067 00067,755 West Lancaster Avenue,PA,19010
Staples,fountain-valley,68,001068X 068 0068 00068,18300 Euclid Street,CA,92708
Staples,west-hartford,69,001069X 069 0069 00069,2550 Albany Avenue,CT,6117
Staples,north-hollywood,70,001070X 070 0070 00070,12807 Sherman Way,CA,91605
Staples,santa-ana-,78,001078X 078 0078 00078,3861 S. Bristol Street,CA,92704
Staples,north-wales,81,001081X 081 0081 00081,1210 North Bethlehem Pike,PA,19454
Staples,falls-church,92,001092X 092 0092 00092,1104 West Broad Street,VA,22046
Staples,east-hartford,96,001096X 096 0096 00096,521 Connecticut Blvd,CT,6108
Staples,jersey-city,102,0010102X 0102 00102 000102,"701 State Route 440, Space 16",NJ,7304
Staples,monrovia-(duarte),107,0010107X 0107 00107 000107,1450 S. Mountain Ave.,CA,91010
Staples,south-portland,108,0010108X 0108 00108 000108,443 Western Avenue,ME,4106
Staples,city-of-industry,116,0010116X 0116 00116 000116,17638 E. Castleton St.,CA,91748
Staples,san-bernardino,119,0010119X 0119 00119 000119,945 E. Hospitality Lane ,CA,92408
Staples,woodland-hills,121,0010121X 0121 00121 000121,21500 Victory Blvd,CA,91367
Staples,simi-valley,126,0010126X 0126 00126 000126,2880 Cochran Street,CA,93065
Staples,los-angeles,128,0010128X 0128 00128 000128,5407 Wilshire Blvd.,CA,90036
Staples,palm-desert,135,0010135X 0135 00135 000135,72-811 Highway 111,CA,92260
Staples,valley-stream,142,0010142X 0142 00142 000142,80 W. Sunrise Hwy,NY,11581
Staples,new-york,143,0010143X 0143 00143 000143,16 East 34th Street,NY,10016
Staples,huntington-beach,152,0010152X 0152 00152 000152,7881 Edinger Ave.Ste.130,CA,92647
Staples,east-rutherford,161,0010161X 0161 00161 000161,280 Rt. 17 North,NJ,7073
Staples,toms-river,162,0010162X 0162 00162 000162,2 Route 37 W Bldg F,NJ,8753
Staples,long-beach,164,0010164X 0164 00164 000164,4600 Pacific Coast Hwy.,CA,90804
Staples,long-beach,165,0010165X 0165 00165 000165,3515 Atlantic Ave.,CA,90807
Staples,south-burlington,166,0010166X 0166 00166 000166,861 Williston Road,VT,5403
Staples,west-orange,168,0010168X 0168 00168 000168,235 Prospect Avenue,NJ,7052
Staples,chevy-chase,177,0010177X 0177 00177 000177,6800 Wisconsin Ave,MD,20815
Staples,santa-barbara,179,0010179X 0179 00179 000179,410 State Street,CA,93101
Staples,studio-city,180,0010180X 0180 00180 000180,12605 Ventura Blvd,CA,91604
Staples,garden-grove,182,0010182X 0182 00182 000182,13031 Harbor Blvd.,CA,92843
Staples,new-london,187,0010187X 0187 00187 000187,292 US Rte 1,CT,6320
Staples,new-york,193,0010193X 0193 00193 000193,217 Broadway (Vesey Street),NY,10007
Staples,old-bridge,198,0010198X 0198 00198 000198,1091 US Rt 9 N,NJ,8857
Staples,st.-petersburg,202,0010202X 0202 00202 000202,2004 34th Street North,FL,33713
Staples,fort-lee,208,0010208X 0208 00208 000208,461-469 West Street,NJ,7024
Staples,new-york,215,0010215X 0215 00215 000215,641 6th Ave,NY,10011
Staples,north-babylon,219,0010219X 0219 00219 000219,1241  Deer Park Avenue,NY,11703
Staples,wappingers-falls,221,0010221X 0221 00221 000221,1849 South Road,NY,12590
Staples,college-park,226,0010226X 0226 00226 000226,8904 62nd Avenue,MD,20740
Staples,los-angeles,227,0010227X 0227 00227 000227,3360 N. San Fernando Road,CA,90065
Staples,los-angeles,230,0010230X 0230 00230 000230,1701 South Figueroa,CA,90015
Staples,staten-island,232,0010232X 0232 00232 000232,1885 Hylan Blvd.,NY,10306
Staples,fall-river,236,0010236X 0236 00236 000236,416 William S. Canning Blvd.,MA,2722
Staples,bowling-green,247,0010247X 0247 00247 000247,1680 Campbell Ln,KY,42104
Staples,garden-city-park,248,0010248X 0248 00248 000248,2310 Jericho Trnpike,NY,11040
Staples,east-norriton,249,0010249X 0249 00249 000249,2832 DeKalb Pike ,PA,19401
Staples,chestnut-hill,250,0010250X 0250 00250 000250,7700 Germantown Avenue,PA,19118
Staples,saratoga-springs,255,0010255X 0255 00255 000255,3035 Route 50 (Wilton Square),NY,12866
Staples,solana-beach,256,0010256X 0256 00256 000256,681 San Rodolfo Drive,CA,92075
Staples,kearny-mesa,266,0010266X 0266 00266 000266,4240 Kearny Mesa Rd,CA,92111
Staples,cedar-rapids,272,0010272X 0272 00272 000272,2431 Wiley Blvd,IA,52404
Staples,national-city,273,0010273X 0273 00273 000273,1518 Sweetwater Rd.,CA,91950
Staples,yuba-city,286,0010286X 0286 00286 000286,671 Colusa Ave.,CA,95991
Staples,west-lebanon,287,0010287X 0287 00287 000287,254 Plainfield Rd Unit 11 Route 12A ,NH,3784
Staples,yorba-linda,304,0010304X 0304 00304 000304,5511 Mirage Street,CA,92887
Staples,san-diego,308,0010308X 0308 00308 000308,1880 Camino de la Reina Park ,CA,92108
Staples,mt.-pleasant,310,0010310X 0310 00310 000310,2141 S. Mission Street,MI,48858
Staples,santa-ana,311,0010311X 0311 00311 000311,2120 East 17th St.,CA,92705
Staples,bay-city,315,0010315X 0315 00315 000315,4021 North Euclid Avenue,MI,48706
Staples,colonial-heights,318,0010318X 0318 00318 000318,84 Southgate Square ,VA,23834
Staples,bel-air,325,0010325X 0325 00325 000325,615 Bel Air Road (US Rt. 1),MD,21014
Staples,fort-gratiot,331,0010331X 0331 00331 000331,4303 24th Avenue,MI,48059
Staples,mt.-kisco,335,0010335X 0335 00335 000335,350 North Bedford Rd. ,NY,10549
Staples,west-los-angeles,336,0010336X 0336 00336 000336,2052 Bundy Drive,CA,90025
Staples,s.-attleboro,341,0010341X 0341 00341 000341,275 Washington Street,MA,2703
Staples,west-goshen,342,0010342X 0342 00342 000342,937 Paoli Pike,PA,19380
Staples,winter-haven,344,0010344X 0344 00344 000344,700 3rd St SW 470 Citi Centre,FL,33880
Staples,san-luis-obispo,361,0010361X 0361 00361 000361,2950 Broad Street,CA,93401
Staples,carmel-mtn-ranch,362,0010362X 0362 00362 000362,11160 Rancho Carmel Dr,CA,92128
Staples,la-mesa,363,0010363X 0363 00363 000363,8805 Murray Dr,CA,91941
Staples,traverse-city,364,0010364X 0364 00364 000364,2632 Crossing Circle,MI,49685
Staples,west-bloomfield,371,0010371X 0371 00371 000371,7230 Orchard Lake Road,MI,48322
Staples,new-york,374,0010374X 0374 00374 000374,425 Park Avenue,NY,10022
Staples,mira-mesa,378,0010378X 0378 00378 000378,9420 Scranton Rd,CA,92121
Staples,battle-creek,379,0010379X 0379 00379 000379,6128 Beckley Dr. North,MI,49014
Staples,west-valley-city,382,0010382X 0382 00382 000382,3560 South 2700 West,UT,84119
Staples,san-juan-capistrano,385,0010385X 0385 00385 000385,33959 Doheny Park Rd,CA,92675
Staples,santa-cruz,387,0010387X 0387 00387 000387,2460 17th Avenue,CA,95062
Staples,burton,390,0010390X 0390 00390 000390,"4190 E. Court St, Suite 100",MI,48509
Staples,south-bend,399,0010399X 0399 00399 000399,1143 E. Ireland Rd.,IN,46614
Staples,rochester-hills,405,0010405X 0405 00405 000405,1950 South Rochester Rd,MI,48306
Staples,newport-beach,410,0010410X 0410 00410 000410,4343 MacArthur Blvd.,CA,92660
Staples,salt-lake-city,417,0010417X 0417 00417 000417,624 E 400th S,UT,84102
Staples,port-charlotte,421,0010421X 0421 00421 000421,1825 Tamiami Trail,FL,33948
Staples,high-point,423,0010423X 0423 00423 000423,2645 N Main St,NC,27260
Staples,rehoboth-beach,430,0010430X 0430 00430 000430,18670 Coastal Highway,DE,19971
Staples,benton-harbor,431,0010431X 0431 00431 000431,1485 Mall Drive,MI,49022
Staples,e.-springfield,439,0010439X 0439 00439 000439,1690 Boston Post Rd,MA,1129
Staples,fort-pierce,441,0010441X 0441 00441 000441,2609 South Federal Highway,FL,34982
Staples,pleasant-hill,443,0010443X 0443 00443 000443,2120 Contra Costa Blvd,CA,94523
Staples,grosse-point,448,0010448X 0448 00448 000448,17410 Mack Ave.,MI,48230
Staples,coos-bay,463,0010463X 0463 00463 000463,1995 Newmark Ave,OR,97420
Staples,el-cerrito,474,0010474X 0474 00474 000474,11545 San Pablo Ave.,CA,94530
Staples,cherry-hill,477,0010477X 0477 00477 000477,2230 West Marlton Pike,NJ,8002
Staples,granada-hills,480,0010480X 0480 00480 000480,17020 Chatsworth St.,CA,91344
Staples,s-san-francisco,488,0010488X 0488 00488 000488,470 Noor Ave,CA,94080
Staples,san-rafael,492,0010492X 0492 00492 000492,655 Irwin Street,CA,94901
Staples,pine-bluff,500,0010500X 0500 00500 000500,2910 E. Harding Blved.,AR,71601
Staples,morganton,505,0010505X 0505 00505 000505,D114 Morganton Heights Blvd,NC,28655
Staples,jefferson-city,508,0010508X 0508 00508 000508,2500 Missouri Blvd.,MO,65109
Staples,beaver-dam,520,0010520X 0520 00520 000520,1645 N Spring Street,WI,53916
Staples,spokane-valley,525,0010525X 0525 00525 000525,15224 E. Indiana Avenue,WA,99216
Staples,great-falls,529,0010529X 0529 00529 000529,207 NorthWest Bypass,MT,59404
Staples,belle-vernon,533,0010533X 0533 00533 000533,800 Rostraver Road,PA,15012
Staples,staten-island,537,0010537X 0537 00537 000537,1520 Forest Ave.,NY,10302
Staples,oak-ridge,555,0010555X 0555 00555 000555,849 W. Main Street,TN,37830
Staples,mt-holly,559,0010559X 0559 00559 000559,555 High St. (Rt.541),NJ,8060
Staples,park-ridge,563,0010563X 0563 00563 000563,175 Kinderkamack Road,NJ,7656
Staples,cedar-grove,573,0010573X 0573 00573 000573,91-93 Rte. 23 Pompton Ave.,NJ,7009
Staples,w.-marietta,575,0010575X 0575 00575 000575,2535B Dallas Highway,GA,30064
Staples,terre-haute,582,0010582X 0582 00582 000582,125 Davis Avenue,IN,47802
Staples,oxon-hill,584,0010584X 0584 00584 000584,6139 Oxon Hill Road,MD,20745
Staples,st.-clairsville,590,0010590X 0590 00590 000590,50585 Valley Plaza Drive,OH,43950
Staples,san-ramon,593,0010593X 0593 00593 000593,2710 Crow Canyon Rd,CA,94583
Staples,new-bern,600,0010600X 0600 00600 000600,3230 Martin Luther King Blvd,NC,28562
Staples,grants-pass,613,0010613X 0613 00613 000613,901 NE D St.,OR,97526
Staples,new-kensington,614,0010614X 0614 00614 000614,100 Tarentum Bridge Rd,PA,15068
Staples,klamath-falls,623,0010623X 0623 00623 000623,2206 Washburn Way,OR,97603
Staples,port-st.-lucie,624,0010624X 0624 00624 000624,10139 SE US Hwy 1,FL,34952
Staples,vero-beach,625,0010625X 0625 00625 000625,1191 US Highway 1,FL,32960
Staples,iowa-city,626,0010626X 0626 00626 000626,820 South Riverside Drive,IA,52246
Staples,e.-syracuse,637,0010637X 0637 00637 000637,3 Chevy Dr.,NY,13057
Staples,dickson-city,645,0010645X 0645 00645 000645,951 Viewmont Drive,PA,18519
Staples,san-diego,647,0010647X 0647 00647 000647,3146B Sports Arena Blvd,CA,92110
Staples,cape-girardeau,650,0010650X 0650 00650 000650,294 Siemers Dr.,MO,63701
Staples,pinole,652,0010652X 0652 00652 000652,1200 Fitzgerald Drive,CA,94564
Staples,new-york,653,0010653X 0653 00653 000653,1280 Lexington Ave,NY,10028
Staples,columbia-(harbison),656,0010656X 0656 00656 000656,320 Harbison Blvd Suite B,SC,29212
Staples,ponca-city,660,0010660X 0660 00660 000660,2216 North 14th Street,OK,74601
Staples,garden-city,665,0010665X 0665 00665 000665,2508 East Kansas Ave.,KS,67846
Staples,cuyahoga-falls,668,0010668X 0668 00668 000668,645 Howe Ave.,OH,44221
Staples,mayfield-heights,669,0010669X 0669 00669 000669,5950 Mayfield Road,OH,44124
Staples,e.-windsor,670,0010670X 0670 00670 000670,440 Rt. 130 South,NJ,8520
Staples,citrus-heights,674,0010674X 0674 00674 000674,6330 Sunrise Blvd,CA,95610
Staples,new-castle,693,0010693X 0693 00693 000693,Rt 224 and Rt 376,PA,16101
Staples,new-hope,701,0010701X 0701 00701 000701,300 West Bridge Street,PA,18938
Staples,paso-robles,702,0010702X 0702 00702 000702,160 Niblick Rd.,CA,93446
Staples,south-plainfield,707,0010707X 0707 00707 000707,7000 Hadley Rd,NJ,7080
Staples,st-george,713,0010713X 0713 00713 000713,245 Red Cliffs Drive,UT,84790
Staples,scottsdale,715,0010715X 0715 00715 000715,15657 N Hayden Rd,AZ,85260
Staples,san-jose,719,0010719X 0719 00719 000719,760 Newhall Drive,CA,95110
Staples,staten-island,725,0010725X 0725 00725 000725,2535 Richmond Ave.,NY,10314
Staples,bowling-green,731,0010731X 0731 00731 000731,1135 South Main Street Suite 215,OH,43402
Staples,san-luis-obispo,737,0010737X 0737 00737 000737,323 Madonna Road,CA,93405
Staples,aliso-viejo,743,0010743X 0743 00743 000743,26791 Aliso Creek Rd.,CA,92656
Staples,new-york,746,0010746X 0746 00746 000746,2248 Broadway,NY,10024
Staples,new-philadelphia,753,0010753X 0753 00753 000753,11 Winspear Dr.,OH,44663
Staples,wisconsin-rapids,769,0010769X 0769 00769 000769,2211 8th Street South,WI,54494
Staples,west-bay-shore,772,0010772X 0772 00772 000772,854 Sunrise Hwy,NY,11706
Staples,mason-city,781,0010781X 0781 00781 000781,3440 4th St SW ,IA,50401
Staples,mays-landing,784,0010784X 0784 00784 000784,2300 Wrangleboro Rd,NJ,8330
Staples,little-rock,785,0010785X 0785 00785 000785,12309 Chenal Parkway,AR,72211
Staples,lake-havasu-city,791,0010791X 0791 00791 000791,1851 Kiowa Ave,AZ,86403
Staples,walla-walla,794,0010794X 0794 00794 000794,420 N. Wilbur Street Ste. 116,WA,99362
Staples,elk-grove,795,0010795X 0795 00795 000795,9146 East Stockton Blvd.,CA,95624
Staples,rochester-(greece),797,0010797X 0797 00797 000797,1370 West Ridge Road,NY,14615
Staples,westlake-village,798,0010798X 0798 00798 000798,5760 Lindero Canyon Rd.,CA,91362
Staples,bend,803,0010803X 0803 00803 000803,"63485 Suite C, No. Highway 97",OR,97701
Staples,old-saybrook,806,0010806X 0806 00806 000806,1000 Boston Post Road,CT,6475
Staples,fond-du-lac,810,0010810X 0810 00810 000810,835 West Johnson St.,WI,54935
Staples,san-francisco,818,0010818X 0818 00818 000818,1700 Van Ness Ave,CA,94109
Staples,auburn-(syracuse),820,0010820X 0820 00820 000820,2 Plaza Drive,NY,13021
Staples,mt-pleasant,826,0010826X 0826 00826 000826,845 Houston Northcutt Blvd,SC,29464
Staples,park-city,835,0010835X 0835 00835 000835,6543 N Landmark Dr,UT,84098
Staples,west-nyack,842,0010842X 0842 00842 000842,2653 Palisades Ctr. Drive,NY,10994
Staples,chapel-hill,843,0010843X 0843 00843 000843,1710 East Franklin Street,NC,27514
Staples,charles-town,845,0010845X 0845 00845 000845,160 Patrick Henry Way,WV,25414
Staples,mt.-vernon,853,0010853X 0853 00853 000853,1558 E. Coshocton Rd.,OH,43050
Staples,big-rapids,856,0010856X 0856 00856 000856,408 Perry Avenue,MI,49307
Staples,mount-vernon,859,0010859X 0859 00859 000859,131 Davidson Ave.,IL,62864
Staples,san-mateo,875,0010875X 0875 00875 000875,2230 Bridgepoint Pkwy,CA,94404
Staples,cape-may-court-house,876,0010876X 0876 00876 000876,11 Court House South Dennis Rd,NJ,8210
Staples,hilton-head,878,0010878X 0878 00878 000878,11 Palmetto Bay Rd,SC,29928
Staples,oklahoma-city,879,0010879X 0879 00879 000879,2844 NW 63rd St STE A,OK,73116
Staples,tarpon-springs,882,0010882X 0882 00882 000882,41334 North Hwy 19,FL,34689
Staples,rancho-cordova,887,0010887X 0887 00887 000887,2690 Sunrise Blvd,CA,95742
Staples,san-clemente,891,0010891X 0891 00891 000891,93 Via Pico Plaza,CA,92672
Staples,port-orchard,896,0010896X 0896 00896 000896,1805 S.E. Lund Ave.,WA,98366
Staples,coeur-dalene,942,0010942X 0942 00942 000942,206 Ironwood Dr.,ID,83814
Staples,santa-maria,943,0010943X 0943 00943 000943,2170 S. Bradley Road,CA,93455
Staples,walled-lake,952,0010952X 0952 00952 000952,335 Haggerty Rd. ,MI,48390
Staples,new-york,953,0010953X 0953 00953 000953,5-9 Union Square West,NY,10003
Staples,glen-burnie,956,0010956X 0956 00956 000956,587 E Ordnance Road,MD,21060
Staples,sierra-vista,998,0010998X 0998 00998 000998,4299 East Highway 90,AZ,85635
Staples,glen-cove,1000,00101000X 01000 001000 0001000,71 School Street,NY,11542
Staples,fort-wayne,1006,00101006X 01006 001006 0001006,4408 Illinois Road,IN,46804
Staples,san-diego,1008,00101008X 01008 001008 0001008,3418 College Ave,CA,92115
Staples,red-bluff,1013,00101013X 01013 001013 0001013,580 South Main St,CA,96080
Staples,cranberry-township,1021,00101021X 01021 001021 0001021,1675 Route 228,PA,16066
Staples,oklahoma-city,1027,00101027X 01027 001027 0001027,128 W. I-240 Service Road,OK,73139
Staples,peachtree-city,1035,00101035X 01035 001035 0001035,225 Market Place Connector,GA,30269
Staples,north-kingstown,1036,00101036X 01036 001036 0001036,1007  Ten Rod Road,RI,2852
Staples,lake-mary,1038,00101038X 01038 001038 0001038,4215 Lake Mary Blvd.,FL,32746
Staples,the-dalles,1048,00101048X 01048 001048 0001048,460 Mount Hood Street,OR,97058
Staples,west-nashville,1050,00101050X 01050 001050 0001050,7615 US Hwy 70 South,TN,37221
Staples,ellicott-city,1051,00101051X 01051 001051 0001051,4380-B Montgomery Road,MD,21043
Staples,palm-bay,1057,00101057X 01057 001057 0001057,1595 Palm Bay Rd.,FL,32905
Staples,spring-hill,1058,00101058X 01058 001058 0001058,4210 Commercial Way,FL,34606
Staples,fernandina-beach,1063,00101063X 01063 001063 0001063,1445 Sadler Road,FL,32034
Staples,orange-park,1066,00101066X 01066 001066 0001066,2285 Kingsley Ave Suite A,FL,32073
Staples,palm-coast,1068,00101068X 01068 001068 0001068,9 Old Kings Road,FL,32137
Staples,plant-city,1069,00101069X 01069 001069 0001069,1866 Jim Redman Pkwy,FL,33563
Staples,st.-augustine,1071,00101071X 01071 001071 0001071,"1775 US Highway 1 South, Suite 1781",FL,32084
Staples,north-platte,1074,00101074X 01074 001074 0001074,1000 South Dewey,NE,69101
Staples,costa-mesa,1078,00101078X 01078 001078 0001078,241 East 17th Street,CA,92627
Staples,port-jefferson,1079,00101079X 01079 001079 0001079,5141 Nesconset Road,NY,11776
Staples,huber-heights,1080,00101080X 01080 001080 0001080,8139 Old Troy Pike ,OH,45424
Staples,cedar-hill,1089,00101089X 01089 001089 0001089,432 North Highway 67,TX,75104
Staples,daytona-beach,1092,00101092X 01092 001092 0001092,2500 W International Speedway Blvd Suite 900,FL,32114
Staples,grass-valley,1097,00101097X 01097 001097 0001097,646 Sutton Way,CA,95945
Staples,greenville-(dallas),1098,00101098X 01098 001098 0001098,6834 Wesley Drive,TX,75402
Staples,howard-beach,1099,00101099X 01099 001099 0001099,163-50 Cross Bay Boulevard,NY,11414
Staples,somersworth-(dover),1100,00101100X 01100 001100 0001100,249 Indian Brook Parkway,NH,3878
Staples,los-lunas,1104,00101104X 01104 001104 0001104,2353 Main Street Southeast,NM,87031
Staples,las-colinas,1105,00101105X 01105 001105 0001105,955 W. John Carpenter Freeway,TX,75039
Staples,mt.-airy,1111,00101111X 01111 001111 0001111,2123 Rockford St. Suite 300,NC,27030
Staples,san-diego-(pacific-beach),1112,00101112X 01112 001112 0001112,1650 Garnet Ave.,CA,92109
Staples,east-point,1113,00101113X 01113 001113 0001113,3675 Marketplace Blvd,GA,30344
Staples,rock-hill,1121,00101121X 01121 001121 0001121,2350 Dave Lyle Blvd,SC,29730
Staples,santa-monica,1122,00101122X 01122 001122 0001122,1610 Wilshire Boulevard,CA,90403
Staples,saint-albans,1130,00101130X 01130 001130 0001130,289 Swanton Rd,VT,5478
Staples,winston-salem,1135,00101135X 01135 001135 0001135,430 Hanes Mill Road,NC,27105
Staples,south-lake-tahoe,1148,00101148X 01148 001148 0001148,2061 Lake Tahoe Blvd,CA,96150
Staples,mt.-pleasant,1152,00101152X 01152 001152 0001152,2306 South Jefferson,TX,75455
Staples,lewisville-(dallas),1167,00101167X 01167 001167 0001167,997 Valley Ridge Blvd,TX,75067
Staples,jersey-city,1168,00101168X 01168 001168 0001168,613 Washington Blvd.,NJ,7310
Staples,forest-city,1171,00101171X 01171 001171 0001171,129 Plaza Drive,NC,28043
Staples,osage-beach,1178,00101178X 01178 001178 0001178,3534 Osage Beach Parkway,MO,65065
Staples,dallas-(buckner),1186,00101186X 01186 001186 0001186,9222 E RL Thornton Fwy,TX,75228
Staples,ft.-worth,1187,00101187X 01187 001187 0001187,1660 S. University Drive,TX,76107
Staples,boynton-beach,1194,00101194X 01194 001194 0001194,1540 S W 8th Street ,FL,33426
Staples,lake-park,1199,00101199X 01199 001199 0001199,1260 Northlake Blvd,FL,33403
Staples,wilkes-barre,1200,00101200X 01200 001200 0001200,453 Arena Hub Plaza,PA,18702
Staples,hoover-(birmingham),1201,00101201X 01201 001201 0001201,1694 Montgomery Highway,AL,35226
Staples,pelham-(birmingham),1203,00101203X 01203 001203 0001203,3552 Pelham Parkway,AL,35124
Staples,new-milford,1205,00101205X 01205 001205 0001205,122 Danbury Rd,CT,6776
Staples,cape-coral,1206,00101206X 01206 001206 0001206,1631 Del Prado Blvd.,FL,33990
Staples,ft.-myers,1209,00101209X 01209 001209 0001209,7191-3 Cypress Lake Drive,FL,33907
Staples,bloomfield-hills,1213,00101213X 01213 001213 0001213,43313 Woodward Ave,MI,48302
Staples,university-park,1220,00101220X 01220 001220 0001220,5429 University Pkwy ,FL,34201
Staples,morehead-city,1226,00101226X 01226 001226 0001226,5201 US Highway 70,NC,28557
Staples,north-conway,1228,00101228X 01228 001228 0001228,1739 White Mountain Highway,NH,3860
Staples,cranston,1230,00101230X 01230 001230 0001230,4000 Chapel View Blvd Suite 300,RI,2920
Staples,sioux-falls,1237,00101237X 01237 001237 0001237,515 West 41st  Street,SD,57105
Staples,mt.-vernon,1238,00101238X 01238 001238 0001238,275 East Sandford Blvd,NY,10550
Staples,silver-spring,1243,00101243X 01243 001243 0001243,12389 Georgia Ave,MD,20906
Staples,ft.-worth,1247,00101247X 01247 001247 0001247,5650 Overton Ridge Blvd,TX,76132
Staples,n.-richland-hills,1249,00101249X 01249 001249 0001249,6201 NE Loop 820,TX,76180
Staples,wake-forest-,1252,00101252X 01252 001252 0001252,11845 Retail Drive ,NC,27587
Staples,lake-worth,1254,00101254X 01254 001254 0001254,6313 Lake Worth Blvd.,TX,76135
Staples,north-beverly,1258,00101258X 01258 001258 0001258,65 Dodge St. Unit C ,MA,1915
Staples,n.-windham,1259,00101259X 01259 001259 0001259,770 Roosevelt Trail,ME,4062
Staples,central-valley,1260,00101260X 01260 001260 0001260,31 Centre Drive,NY,10917
Staples,auburn-hills,1271,00101271X 01271 001271 0001271,280 Brown Road,MI,48326
Staples,silver-spring,1273,00101273X 01273 001273 0001273,12008 Cherry Hill Rd,MD,20904
Staples,roanoke-rapids,1283,00101283X 01283 001283 0001283,1558 Julian R Allsbrook Hwy ,NC,27870
Staples,new-hartford,1285,00101285X 01285 001285 0001285,4795 Commercial Drive (Rt. 5A),NY,13413
Staples,ocean-city,1288,00101288X 01288 001288 0001288,12641 - 96 Ocean Gateway,MD,21842
Staples,owings-mills,1289,00101289X 01289 001289 0001289,9616 Reisterstown Rd,MD,21117
Staples,rancho-santa-margarita,1300,00101300X 01300 001300 0001300,30511 Avenida de las Flores,CA,92688
Staples,moses-lake,1301,00101301X 01301 001301 0001301,815 North Stratford Road,WA,98837
Staples,huntington-beach,1302,00101302X 01302 001302 0001302,7131 Yorktown Ave.,CA,92648
Staples,el-cajon,1307,00101307X 01307 001307 0001307,2879 Jamacha Road,CA,92019
Staples,van-nuys,1310,00101310X 01310 001310 0001310,6104 Sepulveda Blvd.,CA,91411
Staples,kent-(seattle),1319,00101319X 01319 001319 0001319,25420 104th Ave. SE,WA,98031
Staples,la-quinta,1324,00101324X 01324 001324 0001324,78680 Highway 111,CA,92253
Staples,los-angeles,1325,00101325X 01325 001325 0001325,4641 West Santa Monica Blvd.,CA,90029
Staples,monterey-park,1326,00101326X 01326 001326 0001326,2345 Atlantic Blvd.,CA,91754
Staples,san-jose,1327,00101327X 01327 001327 0001327,121 Bernal Road,CA,95119
Staples,carson-city,1328,00101328X 01328 001328 0001328,915 Jacks Valley Rd,NV,89705
Staples,burien-(seattle),1337,00101337X 01337 001337 0001337,158 SW 148th Street,WA,98166
Staples,mill-creek,1345,00101345X 01345 001345 0001345,16232 Bothell Everett Highway,WA,98012
Staples,colorado-springs,1348,00101348X 01348 001348 0001348,4520 Centennial Blvd.,CO,80919
Staples,colorado-springs,1349,00101349X 01349 001349 0001349,2955 New Center Point,CO,80922
Staples,pico-rivera,1354,00101354X 01354 001354 0001354,8950 Washington Blvd.,CA,90660
Staples,los-angeles,1359,00101359X 01359 001359 0001359,10830 W. Santa Monica Blvd. ,CA,90025
Staples,newbury-park,1362,00101362X 01362 001362 0001362,2725 Teller Road,CA,91320
Staples,huntington-park,1367,00101367X 01367 001367 0001367,3090 E Slauson Ave,CA,90255
Staples,ladera-ranch,1371,00101371X 01371 001371 0001371,27542 Antonio Parkway,CA,92694
Staples,san-marcos,1374,00101374X 01374 001374 0001374,561 Grand Avenue ,CA,92069
Staples,las-cruces,1375,00101375X 01375 001375 0001375,2260 East Lohman Ave,NM,88001
Staples,los-angeles,1376,00101376X 01376 001376 0001376,3701 W. Santa Rosalia Dr.,CA,90008
Staples,menlo-park,1379,00101379X 01379 001379 0001379,700 El Camino Real (Suite 120),CA,94025
Staples,roseville-(granite-bay),1380,00101380X 01380 001380 0001380,8670 Sierra College Blvd,CA,95661
Staples,cedar-city,1382,00101382X 01382 001382 0001382,889 S Main St,UT,84720
Staples,palm-springs,1384,00101384X 01384 001384 0001384,"5001 Ramon Road, Building 3",CA,92264
Staples,lake-elsinore,1387,00101387X 01387 001387 0001387,29225 Central Ave,CA,92532
Staples,chula-vista,1389,00101389X 01389 001389 0001389,1850 Main Court,CA,91911
Staples,mira-loma,1391,00101391X 01391 001391 0001391,12495 Limonite Ave.,CA,91752
Staples,san-leandro,1394,00101394X 01394 001394 0001394,15555 East 14th St Ste 200,CA,94578
Staples,san-bernardino,1402,00101402X 01402 001402 0001402,4404 N. University Parkway,CA,92407
Staples,lake-forest,1406,00101406X 01406 001406 0001406,23710 El Toro Road,CA,92630
Staples,rock-springs,1408,00101408X 01408 001408 0001408,1405 Dewar Dr.,WY,82901
Staples,boise-(meridian),1409,00101409X 01409 001409 0001409,6299 Eagle Road,ID,83713
Staples,santa-rosa,1410,00101410X 01410 001410 0001410,2222 Cleveland Avenue,CA,95403
Staples,irvine-(sand-canyon),1411,00101411X 01411 001411 0001411,6214 Irvine Blvd,CA,92620
Staples,steamboat-springs,1412,00101412X 01412 001412 0001412,1600 Mid Valley Drive,CO,80477
Staples,el-centro,1421,00101421X 01421 001421 0001421,560 E. Danenberg Drive,CA,92243
Staples,casa-grande,1423,00101423X 01423 001423 0001423,986 N Mission PKWY STE 103,AZ,85194
Staples,apple-valley,1426,00101426X 01426 001426 0001426,19201 A - Bear Valley Rd.,CA,92308
Staples,los-angeles,1427,00101427X 01427 001427 0001427,11341 National Blvd,CA,90064
Staples,morgan-hill,1428,00101428X 01428 001428 0001428,1023 Cochrane Rd,CA,95037
Staples,santa-fe,1436,00101436X 01436 001436 0001436,3529 Zafarano Dr.,NM,87507
Staples,la-jolla,1441,00101441X 01441 001441 0001441,8657 Villa La Jolla Drive,CA,92037
Staples,highlands-ranch,1445,00101445X 01445 001445 0001445,9449 S University Blvd,CO,80126
Staples,queen-creek,1448,00101448X 01448 001448 0001448,21168 East Ocotillo Rd ,AZ,85142
Staples,fort-collins,1450,00101450X 01450 001450 0001450,4333 Corbett Drive,CO,80525
Staples,culver-city,1457,00101457X 01457 001457 0001457,11441 Jefferson Blvd,CA,90230
Staples,el-monte,1464,00101464X 01464 001464 0001464,3542 Peck Rd,CA,91731
Staples,bullhead-city,1467,00101467X 01467 001467 0001467,3699 Highway 95 Suite 570,AZ,86442
Staples,santa-clarita,1468,00101468X 01468 001468 0001468,19141 Golden Valley Rd,CA,91387
Staples,n-las-vegas,1471,00101471X 01471 001471 0001471,6960 North 5th Street,NV,89084
Staples,henderson-(green-valley),1491,00101491X 01491 001491 0001491,675 S Green Valley Parkway,NV,89052
Staples,lake-stevens,1492,00101492X 01492 001492 0001492,701 SR 9 Suite A,WA,98258
Staples,las-vegas,1494,00101494X 01494 001494 0001494,"6677 Las Vegas Blvd South, Suite 108 ",NV,89119
Staples,spring,1498,00101498X 01498 001498 0001498,"19507 I-45 North, Suite 500",TX,77388
Staples,los-angeles,1499,00101499X 01499 001499 0001499,3223 West 6th Street,CA,90020
Staples,west-berlin,1503,00101503X 01503 001503 0001503,200 Route 73 S Unit 4,NJ,8091
Staples,augusta,1512,00101512X 01512 001512 0001512,"14 Crossing Way, Suite 3",ME,4330
Staples,grove-city,1514,00101514X 01514 001514 0001514,1739 Stringtown Road ,OH,43123
Staples,new-castle,1528,00101528X 01528 001528 0001528,128 Sunset Blvd,DE,19720
Staples,east-longmeadow,1540,00101540X 01540 001540 0001540,433 North Main St,MA,1028
Staples,north-andover,1555,00101555X 01555 001555 0001555,73 Turnpike Street,MA,1845
Staples,presque-isle,1563,00101563X 01563 001563 0001563,830 Main St Aroostook Centre Mall,ME,4769
Staples,ann-arbor,1564,00101564X 01564 001564 0001564,2601 Jackson St.,MI,48103
Staples,somers-point,1572,00101572X 01572 001572 0001572,9 Bethel Rd,NJ,8244
Staples,new-york,1573,00101573X 01573 001573 0001573,4320 Broadway,NY,10033
Staples,lewis-center,1577,00101577X 01577 001577 0001577,59 Meadow Park Ave,OH,43035
Staples,cold-spring,1592,00101592X 01592 001592 0001592,400 Crossroads Blvd.,KY,41076
Staples,grand-haven,1594,00101594X 01594 001594 0001594,840 Jackson St,MI,49417
Staples,west-deptford,1601,00101601X 01601 001601 0001601,1075 Mantua Pike (Rt. 45),NJ,8096
Staples,crescent-springs,1603,00101603X 01603 001603 0001603,2310 Buttermilk Crossing,KY,41017
Staples,tinley-park,1604,00101604X 01604 001604 0001604,16189 South Harlem Ave. ,IL,60477
Staples,allen-park,1608,00101608X 01608 001608 0001608,23035 Outer Drive,MI,48101
Staples,budd-lake,1609,00101609X 01609 001609 0001609,81 International Dr. South,NJ,7828
Staples,lady-lake-(the-villages),1623,00101623X 01623 001623 0001623,720 US Hwy. 441,FL,32159
Staples,fort-myers,1625,00101625X 01625 001625 0001625,10016 Gulf Center Drive,FL,33913
Staples,elk-grove-village,1630,00101630X 01630 001630 0001630,610 Meacham Rd.,IL,60007
Staples,rolling-meadows,1634,00101634X 01634 001634 0001634,1551 Algonquin Road,IL,60008
Staples,grand-rapids,1637,00101637X 01637 001637 0001637,5110 28th Street ,MI,49512
Staples,franklin-boro,1639,00101639X 01639 001639 0001639,70 State Highway 23,NJ,7416
Staples,camp-hill,1644,00101644X 01644 001644 0001644,128 South 32nd Street,PA,17011
Staples,oak-lawn,1657,00101657X 01657 001657 0001657,9631 S Cicero  Ave,IL,60453
Staples,south-elgin,1659,00101659X 01659 001659 0001659,432 Randall Rd.,IL,60177
Staples,pembroke,1660,00101660X 01660 001660 0001660,"125 Church St., Suite 170",MA,2359
Staples,highland-park,1661,00101661X 01661 001661 0001661,1931 Skokie Valley,IL,60035
Staples,bronx-(white-plains),1667,00101667X 01667 001667 0001667,2040 White Plains Road,NY,10462
Staples,coral-gables,1668,00101668X 01668 001668 0001668,2120 SW 32nd Avenue,FL,33145
Staples,detroit-(jefferson-ave),1676,00101676X 01676 001676 0001676,2760 E. Jefferson Ave,MI,48207
Staples,new-tampa,1680,00101680X 01680 001680 0001680,6260 Commerce Palms,FL,33647
Staples,west-palm-beach,1683,00101683X 01683 001683 0001683,2029 Okeechobee Blvd,FL,33409
Staples,orland-park,1692,00101692X 01692 001692 0001692,15515 S. 95th Avenue,IL,60462
Staples,elmwood-park,1693,00101693X 01693 001693 0001693,1850 North Harlem Avenue,IL,60707
Staples,vernon-hills,1694,00101694X 01694 001694 0001694,1600 N. Milwaukee Ave.,IL,60061
Staples,grand-blanc,1699,00101699X 01699 001699 0001699,6272 Saginaw Road,MI,48439
Staples,nags-head,1700,00101700X 01700 001700 0001700,2210 South Croatan Highway,NC,27959
Staples,bellerose-(queens),1703,00101703X 01703 001703 0001703,251-21 Jericho Turnpike,NY,11426
Staples,york-(mt-zion-rd),1707,00101707X 01707 001707 0001707,2915 Concord Road,PA,17402
Staples,north-charleston,1712,00101712X 01712 001712 0001712,4950 Centrepointe Dr Suite 100,SC,29418
Staples,port-st.-lucie,1716,00101716X 01716 001716 0001716,1729 NW St. Lucie West Blvd,FL,34986
Staples,cedar-rapids,1718,00101718X 01718 001718 0001718,4601 1st Avenue SE,IA,52401
Staples,fort-smith,1719,00101719X 01719 001719 0001719,5711 Rogers Ave,AR,72903
Staples,jackson-heights,1722,00101722X 01722 001722 0001722,93-18 Roosevelt Avenue,NY,11372
Staples,brooklyn-(bensonhurst),1725,00101725X 01725 001725 0001725,1949 Stillwell Ave.,NY,11223
Staples,lighthouse-point,1726,00101726X 01726 001726 0001726,3742 North Federal Highway,FL,33064
Staples,sea-girt,1727,00101727X 01727 001727 0001727,2145 Highway 35,NJ,8750
Staples,coconut-creek,1728,00101728X 01728 001728 0001728,4301 W Hillsboro Boulevard,FL,33073
Staples,mt.-juliet,1734,00101734X 01734 001734 0001734,401 South Mount Juliet Rd.,TN,37122
Staples,winter-garden,1740,00101740X 01740 001740 0001740,3065 Daniels Road,FL,34787
Staples,e.-brunswick,1755,00101755X 01755 001755 0001755,Mid State Mall 300 Rte 18 N,NJ,8816
Staples,south-brunswick,1760,00101760X 01760 001760 0001760,4180 US Rt 1 Suite 400B,NJ,8852
Staples,mountain-home,1762,00101762X 01762 001762 0001762,34 Staples Dr,AR,72653
Staples,state-college,1766,00101766X 01766 001766 0001766,1646 North Atherton,PA,16803
Staples,cape-coral,1776,00101776X 01776 001776 0001776,1800 Pine Island Road NE,FL,33909
Staples,cutler-bay,1778,00101778X 01778 001778 0001778,18591 South Dixie Highway,FL,33157
Staples,north-bergen,1785,00101785X 01785 001785 0001785,2100 88th Street  Building C,NJ,7047
Staples,lexington,1791,00101791X 01791 001791 0001791,"2321 Sir Barton Way, Suite 140",KY,40509
Staples,great-barrington,1792,00101792X 01792 001792 0001792,740 Main St Suite 1 ,MA,1230
Staples,ozone-park,1797,00101797X 01797 001797 0001797,102-34 Atlantic Ave,NY,11416
Staples,pittsburgh,1799,00101799X 01799 001799 0001799,"6375 Penn Ave., Suite B",PA,15206
Staples,front-royal,1802,00101802X 01802 001802 0001802,135 Crooked Run Plaza Suite 20 ,VA,22630
Staples,glen-mills,1804,00101804X 01804 001804 0001804,901 Byers Drive,PA,19342
Staples,forked-river,1805,00101805X 01805 001805 0001805,300 North Main Street,NJ,8731
Staples,the-colony,1809,00101809X 01809 001809 0001809,4711 Highway 121 No. 200,TX,75056
Staples,green-brook,1811,00101811X 01811 001811 0001811,200 Route 22 West,NJ,8812
Staples,kennett-square,1813,00101813X 01813 001813 0001813,855 East Baltimore Pike,PA,19348
Staples,nashville-(west),1814,00101814X 01814 001814 0001814,6622 Charlotte Pike Suite 104,TN,37209
Staples,seal-beach,1817,00101817X 01817 001817 0001817,12337 Seal Beach Blvd.,CA,90740
Staples,stony-brook,1825,00101825X 01825 001825 0001825,2100 Nesconset Highway,NY,11790
Staples,st.-cloud,1827,00101827X 01827 001827 0001827,4058 13th Street,FL,34769
Staples,north-hampton,1828,00101828X 01828 001828 0001828,35 Lafayette Road,NH,3862
Staples,overland-park,1847,00101847X 01847 001847 0001847,7131 W. 135th Street,KS,66223
Staples,kansas-city,1848,00101848X 01848 001848 0001848,8450 Prairie View Road,MO,64154
Staples,miami-beach,1849,00101849X 01849 001849 0001849,1139 5th Street,FL,33139
Staples,white-plains,1858,00101858X 01858 001858 0001858,20 Tarrytown Road,NY,10607
Staples,fort-myers,1861,00101861X 01861 001861 0001861,3236 Forum Blvd,FL,33905
Staples,royal-palm-beach,1862,00101862X 01862 001862 0001862,10465 Southern Blvd,FL,33411
Staples,des-moines,1867,00101867X 01867 001867 0001867,3800 Merle Hay Rd Ste 400,IA,50310
Staples,apple-valley,1878,00101878X 01878 001878 0001878,14969 Florence Trail,MN,55124
Staples,san-antonio,1879,00101879X 01879 001879 0001879,18203 Rim Drive 101,TX,78257
Staples,san-antonio,1887,00101887X 01887 001887 0001887,2003 N. Loop 1604 E Suite 111,TX,78232
Staples,clifton-park,1888,00101888X 01888 001888 0001888,24 Maxwell Drive,NY,12065
Staples,glen-ellyn,1895,00101895X 01895 001895 0001895,539 W Roosevelt Rd,IL,60137
Staples,austin-,1913,00101913X 01913 001913 0001913,"1201 Barbara Jordan Blvd, Suite 700",TX,78723
Staples,jacksonville-beach,1915,00101915X 01915 001915 0001915,4016 South Third Street,FL,32250
Staples,feasterville-trevose,1919,00101919X 01919 001919 0001919,93 E. Street Road,PA,19053
Staples,north-myrtle-beach,1920,00101920X 01920 001920 0001920,244 Highway 17 North,SC,29582
Staples,sioux-city,1922,00101922X 01922 001922 0001922,5001 Sergeant Road #50,IA,51106
Staples,little-rock,1926,00101926X 01926 001926 0001926,"416 South University Ave, Suite 100",AR,72205
Staples,san-antonio,1946,00101946X 01946 001946 0001946,"7555 NW Loop 410, Suite 103",TX,78245
Staples,frankfort,1949,00101949X 01949 001949 0001949,"1303 US 127 South, Space 5",KY,40601
Staples,canal-winchester,1950,00101950X 01950 001950 0001950,6591 Winchester Blvd,OH,43110
Staples,falls-church,1951,00101951X 01951 001951 0001951,8100A Arlington Blvd,VA,22042
Staples,overland-park,1953,00101953X 01953 001953 0001953,11880 W 95th St,KS,66214
Staples,new-york,1955,00101955X 01955 001955 0001955,574 2nd Avenue,NY,10016
Staples,tempe,1962,00101962X 01962 001962 0001962,1110 W Elliot Rd,AZ,85284
Staples,boston--,5301,00105301X 05301 005301 0005301,83 Summer St.,MA,2110
Staples,boston-,5302,00105302X 05302 005302 0005302,899 Boylston St.,MA,2115
Staples,brookline,5303,00105303X 05303 005303 0005303,1285 Beacon St,MA,2446
Staples,watertown,5304,00105304X 05304 005304 0005304,11 Mt Auburn St ,MA,2472
Staples,new-york,5308,00105308X 05308 005308 0005308,800 Third Avenue,NY,10022
Staples,manhattan,5311,00105311X 05311 005311 0005311,1755 Broadway,NY,10019
Staples,newton,5318,00105318X 05318 005318 0005318,714 Beacon St,MA,2459
Staples,new-york,5319,00105319X 05319 005319 0005319,330 Seventh Ave,NY,10001
Staples,westfield,5321,00105321X 05321 005321 0005321,225 E Broad Street,NJ,7090
Staples,new-york,5322,00105322X 05322 005322 0005322,1257 2nd Ave at 66th Street,NY,10065
Staples,medford,5329,00105329X 05329 005329 0005329,127 Main Street,MA,2155
Staples,red-bank,5330,00105330X 05330 005330 0005330,137 Broad Street,NJ,7701
Staples,new-york,5331,00105331X 05331 005331 0005331,315 Park Avenue South,NY,10010
Staples,santa-ana,5332,00105332X 05332 005332 0005332,2781 W. MacArthur Blvd Ste H,CA,92704
Staples,woodland-hills,5333,00105333X 05333 005333 0005333,20968 Ventura Blvd Suite A,CA,91364
Staples,los-angeles,5334,00105334X 05334 005334 0005334,835 Wilshire Blvd Suite 100,CA,90017
Staples,glendale,5335,00105335X 05335 005335 0005335,201 N Brand Blvd,CA,91203
Staples,venice-,5336,00105336X 05336 005336 0005336,2570 Lincoln Blvd Ste 103,CA,90291
Staples,los-angeles,5337,00105337X 05337 005337 0005337,12301 Wilshire Blvd. Suite 100,CA,90025
Staples,summit,5343,00105343X 05343 005343 0005343,408 Springfield Avenue,NJ,7901
