Keywords,city,Agg store_number,store_number,address,state,zip_code
Stop And Shop,Brookline,1,1 #1 #01 #001,28 Harrison Street,NY,10801
Stop And Shop,Framingham,3,3 #3 #03 #003,25 Waterfront Place,NY,10573
Stop And Shop,Roslindale,4,4 #4 #04 #004,5716 Broadway,NY,10463
Stop And Shop,Peabody,5,5 #5 #05 #005,691 Co Op City Boulevard,NY,10475
Stop And Shop,Natick,6,6 #6 #06 #006,1710 Avenue Y,NY,11235
Stop And Shop,Mansfield,7,7 #7 #07 #007,1009 Flatbush Avenue,NY,11226
Stop And Shop,Framingham,8,8 #8 #08 #008,64-66 Myrtle Avenue,NY,11385
Stop And Shop,Holyoke,9,9 #9 #09 #009,74-17 Grand Avenue,NY,11378
Stop And Shop,Revere,11,11 #11 #011 #0011,34-51 48th Street,NY,11104
Stop And Shop,Sandwich,12,12 #12 #012 #0012,8101 Jericho Turnpike,NY,11797
Stop And Shop,Pembroke,14,14 #14 #014 #0014,2795 Richmond Avenue,NY,10314
Stop And Shop,Swampscott,15,15 #15 #015 #0015,271 Main Street,NY,12561
Stop And Shop,Quincy,17,17 #17 #017 #0017,1328 Beekman Road,NY,12533
Stop And Shop,Dorchester,18,18 #18 #018 #0018,1831 East Main Street,NY,10566
Stop And Shop,Westborough,19,19 #19 #019 #0019,111 Vredenburg Avenue,NY,10704
Stop And Shop,Quincy,20,20 #20 #020 #0020,475 State Route 17M,NY,10950
Stop And Shop,Pittsfield,21,21 #21 #021 #0021,60 Brotherhood Plaza Drive,NY,10992
Stop And Shop,South Yarmouth,22,22 #22 #022 #0022,3126 Jericho Turnpike,NY,11731
Stop And Shop,Norwell,28,28 #28 #028 #0028,32 South Middletown Road,NY,10954
Stop And Shop,Holyoke,30,30 #30 #030 #0030,1429 Route 300,NY,12550
Stop And Shop,Beverly,32,32 #32 #032 #0032,2425 Palmer Avenue,NY,10801
Stop And Shop,Stoughton,33,33 #33 #033 #0033,390 Broadway,NY,10522
Stop And Shop,Hingham,35,35 #35 #035 #0035,420 White Plains Road,NY,10709
Stop And Shop,Chicopee,36,36 #36 #036 #0036,1581 US Highway 202,NY,10970
Stop And Shop,Worcester,37,37 #37 #037 #0037,6726 Route 9,NY,12572
Stop And Shop,Raynham,38,38 #38 #038 #0038,24926 Northern Boulevard,NY,11362
Stop And Shop,Stoneham,39,39 #39 #039 #0039,8989 Union Turnpike,NY,11385
Stop And Shop,Milford,40,40 #40 #040 #0040,59 Burnett Boulevard,NY,12603
Stop And Shop,Revere,43,43 #43 #043 #0043,95 Old Country Road,NY,11514
Stop And Shop,Walpole,44,44 #44 #044 #0044,177 Forest Avenue,NY,11542
Stop And Shop,Greenfield,45,45 #45 #045 #0045,425 Portion Road,NY,11779
Stop And Shop,Watertown,49,49 #49 #049 #0049,55 Motor Avenue,NY,11735
Stop And Shop,South Boston,53,53 #53 #053 #0053,65 Shore Road,NY,11050
Stop And Shop,Abington,54,54 #54 #054 #0054,2450 Jerusalem Avenue,NY,11710
Stop And Shop,Brockton,55,55 #55 #055 #0055,191 Montauk Highway,NY,11782
Stop And Shop,Grafton,57,57 #57 #057 #0057,351 Merrick Road,NY,11701
Stop And Shop,East Longmeadow,61,61 #61 #061 #0061,2525 Hempstead Turnpike,NY,11554
Stop And Shop,Malden,62,62 #62 #062 #0062,260 Pond Path,NY,11720
Stop And Shop,Orleans,64,64 #64 #064 #0064,385 Route 25A,NY,11764
Stop And Shop,Marstons Mills,66,66 #66 #066 #0066,3750 Hempstead Turnpike,NY,11756
Stop And Shop,Lynn,67,67 #67 #067 #0067,132 Fulton Avenue,NY,11550
Stop And Shop,New Bedford,70,70 #70 #070 #0070,421 Commack Road,NY,11729
Stop And Shop,Fall River,71,71 #71 #071 #0071,454 Fort Salonga Road,NY,11768
Stop And Shop,Westfield,72,72 #72 #072 #0072,530 West Old Country Road,NY,11801
Stop And Shop,Seekonk,73,73 #73 #073 #0073,291 West Main Street,NY,11787
Stop And Shop,Jamaica Plain,75,75 #75 #075 #0075,2650 Sunrise Highway,NY,11730
Stop And Shop,Worcester,79,79 #79 #079 #0079,2350 North Ocean Avenue,NY,11738
Stop And Shop,East Springfield,80,80 #80 #080 #0080,57-01 Sunrise Highway,NY,11741
Stop And Shop,Beverly,81,81 #81 #081 #0081,575 West Montauk Highway,NY,11704
Stop And Shop,Halifax,82,82 #82 #082 #0082,70-20 Rockaway Beach Blvd.,NY,11692
Stop And Shop,Worcester,85,85 #85 #085 #0085,3999 Albany Post Road,NY,12538
Stop And Shop,Mashpee,87,87 #87 #087 #0087,295 Pine Hollow Road,NY,11771
Stop And Shop,Bedford,88,88 #88 #088 #0088,653 Hillside Avenue,NY,11040
Stop And Shop,Allston,89,89 #89 #089 #0089,158 Route 25A,NY,11733
Stop And Shop,Nantucket,90,90 #90 #090 #0090,2160 South Merrick Mall,NY,11566
Stop And Shop,Shrewsbury,91,91 #91 #091 #0091,3577 Long Beach Road,NY,11572
Stop And Shop,North Andover,92,92 #92 #092 #0092,275 Middle Country Road,NY,11727
Stop And Shop,Danvers,93,93 #93 #093 #0093,2754 Hylan Boulevard,NY,10306
Stop And Shop,West Springfield,94,94 #94 #094 #0094,248 East Sunrise Highway,NY,11520
Stop And Shop,Hadley,95,95 #95 #095 #0095,1615 Old Country Road,NY,11901
Stop And Shop,Woburn,96,96 #96 #096 #0096,1326 West Boston Post Road,NY,10538
Stop And Shop,New Bedford,98,98 #98 #098 #0098,240 East Sandford Boulevard,NY,10550
Stop And Shop,Kingston,402,402 #402 #0402 #00402,670 North Broadway,NY,10603
Stop And Shop,Springfield,404,404 #404 #0404 #00404,1730 Veterans Memorial Highway,NY,11749
Stop And Shop,Hyannis,406,406 #406 #0406 #00406,180 North Main Street,NY,10956
Stop And Shop,Saugus,407,407 #407 #0407 #00407,2540 South Road,NY,12601
Stop And Shop,Gloucester,410,410 #410 #0410 #00410,610 White Plains Rd,NY,10591
Stop And Shop,Boston,412,412 #412 #0412 #00412,999 Montauk Hwy,NY,11967
Stop And Shop,Hyde Park,413,413 #413 #0413 #00413,1441 Richmond Ave ,NY,10314
Stop And Shop,Brockton,415,415 #415 #0415 #00415,4343 Amboy Road,NY,10312
Stop And Shop,Dedham,416,416 #416 #0416 #00416,194 West Montauk Highway,NY,11946
Stop And Shop,Norwood,418,418 #418 #0418 #00418,50 Cherry Valley Road,NY,11552
Stop And Shop,Somerset,421,421 #421 #0421 #00421,400 Union Blvd,NY,11795
Stop And Shop,Edgartown,422,422 #422 #0422 #00422,465 Atlantic Avenue,NY,11572
Stop And Shop,Vineyard Haven,423,423 #423 #0423 #00423,155 Harvard Street,MA,2446
Stop And Shop,East Falmouth,425,425 #425 #0425 #00425,235 Old Connecticut Path,MA,1701
Stop And Shop,Fairhaven,427,427 #427 #0427 #00427,950 American Legion Highway,MA,2136
Stop And Shop,Dorchester,429,429 #429 #0429 #00429,19 Howley Street,MA,1960
Stop And Shop,Bellingham,430,430 #430 #0430 #00430,829 Worcester Street,MA,1760
Stop And Shop,Attleboro,432,432 #432 #0432 #00432,377 Chauncy Street,MA,2048
Stop And Shop,Medford,433,433 #433 #0433 #00433,19 Temple Street,MA,1702
Stop And Shop,Gardner,434,434 #434 #0434 #00434,28 Lincoln Street,MA,1040
Stop And Shop,Belchertown,435,435 #435 #0435 #00435,40 Furlong Drive,MA,2151
Stop And Shop,Attleboro,443,443 #443 #0443 #00443,65 Route 6A,MA,2563
Stop And Shop,Whitman,444,444 #444 #0444 #00444,North River Plaza,MA,2359
Stop And Shop,Watertown,446,446 #446 #0446 #00446,450 Paradise Road,MA,1907
Stop And Shop,Springfield,454,454 #454 #0454 #00454,495 Southern Artery,MA,2169
Stop And Shop,Winchester,455,455 #455 #0455 #00455,545 Freeport Street,MA,2122
Stop And Shop,Pittsfield,458,458 #458 #0458 #00458,290 Turnpike Road,MA,1581
Stop And Shop,Roxbury,459,459 #459 #0459 #00459,65 Newport Avenue,MA,2170
Stop And Shop,Acton,460,460 #460 #0460 #00460,Dan Fox Drive,MA,1201
Stop And Shop,South Dennis,461,461 #461 #0461 #00461,55 Long Pond Drive,MA,2664
Stop And Shop,Plainville,462,462 #462 #0462 #00462,468 Washington Street,MA,2061
Stop And Shop,Plymouth,469,469 #469 #0469 #00469,2265 Northampton Street,MA,1040
Stop And Shop,Sandwich,470,470 #470 #0470 #00470,37 Enon Street,MA,1915
Stop And Shop,Andover,471,471 #471 #0471 #00471,278 Washington Street,MA,2072
Stop And Shop,Franklin,472,472 #472 #0472 #00472,400 Lincoln Street,MA,2043
Stop And Shop,Fall River,473,473 #473 #0473 #00473,672 Memorial Drive,MA,1020
Stop And Shop,East Wareham,474,474 #474 #0474 #00474,545 Lincoln Street,MA,1605
Stop And Shop,Harwich,475,475 #475 #0475 #00475,36 New State Highway,MA,2767
Stop And Shop,Braintree,478,478 #478 #0478 #00478,259 Main Street,MA,2180
Stop And Shop,Chelmsford,480,480 #480 #0480 #00480,196 East Main Street,MA,1757
Stop And Shop,Sturbridge,481,481 #481 #0481 #00481,540 Squire Road,MA,2151
Stop And Shop,Cohasset,482,482 #482 #0482 #00482,565 Main Street,MA,2081
Stop And Shop,Manomet,484,484 #484 #0484 #00484,89 French King Highway,MA,1301
Stop And Shop,E.Weymouth,487,487 #487 #0487 #00487,700 Pleasant Street,MA,2472
Stop And Shop,Reading,488,488 #488 #0488 #00488,713 East Broadway,MA,2127
Stop And Shop,Hudson,489,489 #489 #0489 #00489,375 Centre Avenue,MA,2351
Stop And Shop,North Attleboro,490,490 #490 #0490 #00490,932 North Montello Street,MA,2301
Stop And Shop,Lexington,491,491 #491 #0491 #00491,100 Worcester Street,MA,1519
Stop And Shop,Everett,492,492 #492 #0492 #00492,470 North Main Street,MA,1028
Stop And Shop,Dartmouth,493,493 #493 #0493 #00493,99 Charles Street,MA,2148
Stop And Shop,Foxboro,494,494 #494 #0494 #00494,24 Route 6a,MA,2653
Stop And Shop,Methuen,496,496 #496 #0496 #00496,3900 Falmouth Road,MA,2648
Stop And Shop,Westborough,497,497 #497 #0497 #00497,35 Washington Street,MA,1904
Stop And Shop,Somerville,498,498 #498 #0498 #00498,1001 King's Highway,MA,2745
Stop And Shop,Amesbury,499,499 #499 #0499 #00499,501 Rodman Street,MA,2721
Stop And Shop,New Rochelle,500,500 #500 #0500 #00500,57 Main Street,MA,1085
Stop And Shop,White Plains,501,501 #501 #0501 #00501,1045 Fallriver Avenue,MA,2771
Stop And Shop,Port Chester,502,502 #502 #0502 #00502,301 Centre Street,MA,2130
Stop And Shop,Bronx,503,503 #503 #0503 #00503,949 Grafton Street,MA,1604
Stop And Shop,Bronx,504,504 #504 #0504 #00504,1277 Liberty Street,MA,1104
Stop And Shop,Brooklyn,505,505 #505 #0505 #00505,224 Elliott Street,MA,1915
Stop And Shop,Brooklyn,506,506 #506 #0506 #00506,341 Plymouth Street,MA,2338
Stop And Shop,Glendale,508,508 #508 #0508 #00508,940 West Boylston Street,MA,1606
Stop And Shop,Maspeth,509,509 #509 #0509 #00509,39 Nathan Ellis Hwy,MA,2649
Stop And Shop,Long Island City,510,510 #510 #0510 #00510,337 Great Road,MA,1730
Stop And Shop,Woodbury,511,511 #511 #0511 #00511,60 Everett Street,MA,2135
Stop And Shop,Staten Island,512,512 #512 #0512 #00512,31 Sparks Avenue,MA,2554
Stop And Shop,Somers,513,513 #513 #0513 #00513,539-571 Boston Turnpike,MA,1545
Stop And Shop,New Paltz,515,515 #515 #0515 #00515,757 Turnpike Street,MA,1845
Stop And Shop,Huntington,516,516 #516 #0516 #00516,250 Newbury Street,MA,1923
Stop And Shop,Hopewell Junction,517,517 #517 #0517 #00517,935 Riverdale Street,MA,1089
Stop And Shop,Peekskill,521,521 #521 #0521 #00521,440 Russell Street,MA,1035
Stop And Shop,Yonkers,522,522 #522 #0522 #00522,2 Elm Street,MA,1801
Stop And Shop,Monroe,523,523 #523 #0523 #00523,438 Dartmouth Street,MA,2740
Stop And Shop,Washingtonville,524,524 #524 #0524 #00524,160 Summer Street,MA,2364
Stop And Shop,East Northport,526,526 #526 #0526 #00526,1600 Boston Road,MA,1129
Stop And Shop,Nanuet,527,527 #527 #0527 #00527,425 Attucks Lane,MA,2601
Stop And Shop,Newburgh,528,528 #528 #0528 #00528,164 Main Street,MA,1906
Stop And Shop,New Rochelle,529,529 #529 #0529 #00529,6 Thatcher Road,MA,1930
Stop And Shop,Dobbs Ferry,530,530 #530 #0530 #00530,1620 Tremont Street,MA,2120
Stop And Shop,Eastchester,532,532 #532 #0532 #00532,1025 Truman Parkway,MA,2136
Stop And Shop,Mount Ivy,533,533 #533 #0533 #00533,683 Belmont Street,MA,2301
Stop And Shop,West Nyack,535,535 #535 #0535 #00535,160 Providence Highway,MA,2026
Stop And Shop,Rhinebeck,536,536 #536 #0536 #00536,1415 Providence Highway,MA,2062
Stop And Shop,Little Neck,537,537 #537 #0537 #00537,815 Grand Army Highway,MA,2725
Stop And Shop,Glendale,539,539 #539 #0539 #00539,225 Upper Main Street,MA,2539
Stop And Shop,Poughkeepsie,540,540 #540 #0540 #00540,50 Water Street,MA,2568
Stop And Shop,Carle Place,541,541 #541 #0541 #00541,20 Teaticket Highway,MA,2536
Stop And Shop,Glen Cove,542,542 #542 #0542 #00542,221 Huttleston Avenue,MA,2719
Stop And Shop,West Babylon,543,543 #543 #0543 #00543,1100 Massachusetts Avenue,MA,2118
Stop And Shop,Lake Ronkonkoma,544,544 #544 #0544 #00544,70 Pulaski Boulevard,MA,2019
Stop And Shop,Farmingdale,545,545 #545 #0545 #00545,469 Pleasant Street,MA,2703
Stop And Shop,Port Washington,546,546 #546 #0546 #00546,760 Fellsway,MA,2155
Stop And Shop,North Bellmore,547,547 #547 #0547 #00547,384 Timpany Boulevard,MA,1440
Stop And Shop,Sayville,548,548 #548 #0548 #00548,40 George Hannum Street,MA,1007
Stop And Shop,Amityville,550,550 #550 #0550 #00550,251 Washington Street,MA,2703
Stop And Shop,Bayshore,551,551 #551 #0551 #00551,475 Bedford Street,MA,2382
Stop And Shop,East Meadow,552,552 #552 #0552 #00552,171 Watertown Street,MA,2472
Stop And Shop,South Setauket,553,553 #553 #0553 #00553,415 Cooley Street,MA,1128
Stop And Shop,Miller Place,554,554 #554 #0554 #00554,695 Main Street,MA,1890
Stop And Shop,Levittown,555,555 #555 #0555 #00555,660 Merrill Road,MA,1201
Stop And Shop,Hempstead,556,556 #556 #0556 #00556,460 Blue Hill Avenue,MA,2121
Stop And Shop,Deer Park,557,557 #557 #0557 #00557,100 Powder Mill Road,MA,1720
Stop And Shop,Northport,558,558 #558 #0558 #00558,500 Route 134,MA,2660
Stop And Shop,Hicksville,559,559 #559 #0559 #00559,109 Taunton Street,MA,2762
Stop And Shop,Smithtown,560,560 #560 #0560 #00560,127 Samoset Street,MA,2360
Stop And Shop,East Islip,561,561 #561 #0561 #00561,71 Quaker Meeting House Road,MA,2644
Stop And Shop,Farmingville,562,562 #562 #0562 #00562,209 North Main Street,MA,1810
Stop And Shop,Holbrook,563,563 #563 #0563 #00563,40 Franklin Village Drive,MA,2038
Stop And Shop,West Babylon,564,564 #564 #0564 #00564,333 Mariano Bishop Boulevard,MA,2721
Stop And Shop,Arverne By-the-Sea,566,566 #566 #0566 #00566,2991 Cranberry Highway,MA,2576
Stop And Shop,Hyde Park,567,567 #567 #0567 #00567,Rt. 39 and Rt. 137,MA,2645
Stop And Shop,Oyster Bay,569,569 #569 #0569 #00569,316 Grove Street,MA,2184
Stop And Shop,New Hyde Park,570,570 #570 #0570 #00570,299 Chelmsford St,MA,1824
Stop And Shop,Setauket,574,574 #574 #0574 #00574,100 Charlton Road,MA,1566
Stop And Shop,Merrick,575,575 #575 #0575 #00575,400 Chief Justice Cushing Highway,MA,2025
Stop And Shop,Oceanside,577,577 #577 #0577 #00577,Route 3a State Rd,MA,2360
Stop And Shop,Inwood,578,578 #578 #0578 #00578,700 Middle Street,MA,2188
Stop And Shop,Coram,579,579 #579 #0579 #00579,25 Walkers Brook Drive,MA,1867
Stop And Shop,Staten Island,581,581 #581 #0581 #00581,10 Technology Drive,MA,1749
Stop And Shop,Medford,583,583 #583 #0583 #00583,206 East Washington Street,MA,2760
Stop And Shop,Freeport,586,586 #586 #0586 #00586,36 Bedford Street,MA,2420
Stop And Shop,Riverhead,590,590 #590 #0590 #00590,1690 Revere Beach Parkway,MA,2149
Stop And Shop,Mamaroneck,591,591 #591 #0591 #00591,25 Faunce Corner Road,MA,2747
Stop And Shop,Mount Vernon,592,592 #592 #0592 #00592,141 Main Street,MA,2035
Stop And Shop,North White Plains,593,593 #593 #0593 #00593,90 Pleasant Valley Street,MA,1844
Stop And Shop,Islandia,594,594 #594 #0594 #00594,32 Lyman Street,MA,1581
Stop And Shop,Tarrytown,595,595 #595 #0595 #00595,779 McGrath Highway,MA,2145
Stop And Shop,New City,596,596 #596 #0596 #00596,100 Macy Street,MA,1913
Stop And Shop,Poughkeepsie,597,597 #597 #0597 #00597,154 Westchester Avenue,NY,10601
Stop And Shop,Wappingers Falls,598,598 #598 #0598 #00598,80 Birdsall Road,NY,10598
Stop And Shop,Tarrytown,599,599 #599 #0599 #00599,1100 Jerico Turnpike,NY,11743
Stop And Shop,Hamden,600,600 #600 #0600 #00600,320 Route 59,NY,10960
Stop And Shop,Litchfield,601,601 #601 #0601 #00601,363 Route 109,NY,11704
Stop And Shop,Seymour,603,603 #603 #0603 #00603,533 Montauk Hwy,NY,11706
Stop And Shop,Naugatuck,604,604 #604 #0604 #00604,603 Burnside Avenue,NY,11096
Stop And Shop,Glastonbury,605,605 #605 #0605 #00605,700-60 Patchogue Yaphank,NY,11980
Stop And Shop,Cromwell,606,606 #606 #0606 #00606,350 South Broadway,NY,10591
Stop And Shop,Simsbury,607,607 #607 #0607 #00607,1357 US Highway 9,NY,12590
Stop And Shop,Colchester,608,608 #608 #0608 #00608,2335 Dixwell Avenue,CT,6514
Stop And Shop,Wethersfield,610,610 #610 #0610 #00610,331 West Street,CT,6759
Stop And Shop,Granby,611,611 #611 #0611 #00611,15 Franklin Street,CT,6483
Stop And Shop,Greenwich,612,612 #612 #0612 #00612,727 Rubber Avenue,CT,6770
Stop And Shop,Vernon,613,613 #613 #0613 #00613,55 Oak Street,CT,6033
Stop And Shop,Berlin,614,614 #614 #0614 #00614,207 West Street,CT,6416
Stop And Shop,Norwich,615,615 #615 #0615 #00615,498 Bushy Hill Road,CT,6070
Stop And Shop,Greenwich,616,616 #616 #0616 #00616,99 Linwood Avenue,CT,6415
Stop And Shop,Waterbury,618,618 #618 #0618 #00618,1380 Berlin Turnpike,CT,6109
Stop And Shop,Windsor,619,619 #619 #0619 #00619,120 Salmon Brook Street,CT,6035
Stop And Shop,Trumbull,620,620 #620 #0620 #00620,11 Glen Ridge Road,CT,6831
Stop And Shop,Southbury,621,621 #621 #0621 #00621,10 Pitkin Road,CT,6066
Stop And Shop,Torrington,622,622 #622 #0622 #00622,1135 Farmington Avenue,CT,6037
Stop And Shop,Middletown,623,623 #623 #0623 #00623,70 Town Street,CT,6360
Stop And Shop,Madison,624,624 #624 #0624 #00624,161 West Putnam Avenue,CT,6830
Stop And Shop,Winsted,625,625 #625 #0625 #00625,410 Reidville Drive,CT,6705
Stop And Shop,Darien,626,626 #626 #0626 #00626,1095 Kennedy Road,CT,6095
Stop And Shop,Bristol,628,628 #628 #0628 #00628,100 Quality Street,CT,6611
Stop And Shop,Shelton,629,629 #629 #0629 #00629,100 Main Street North,CT,6488
Stop And Shop,Newington,630,630 #630 #0630 #00630,211 High Street,CT,6790
Stop And Shop,Glastonbury,631,631 #631 #0631 #00631,416 East Main Street,CT,6457
Stop And Shop,Rocky Hill,632,632 #632 #0632 #00632,128 Samson Rock Road,CT,6443
Stop And Shop,Hartford,634,634 #634 #0634 #00634,200 New Hartford Road,CT,6098
Stop And Shop,Ansonia,635,635 #635 #0635 #00635,148 Heights Road,CT,6820
Stop And Shop,Newtown,636,636 #636 #0636 #00636,597 Farmington Avenue,CT,6010
Stop And Shop,Stamford,637,637 #637 #0637 #00637,898 Bridgeport Avenue,CT,6484
Stop And Shop,Wallingford,638,638 #638 #0638 #00638,44 Fenn Road,CT,6111
Stop And Shop,Stratford,639,639 #639 #0639 #00639,215 Glastonbury Boulevard,CT,6033
Stop And Shop,Norwalk,640,640 #640 #0640 #00640,80 Town Line Road,CT,6067
Stop And Shop,Forrestville,642,642 #642 #0642 #00642,150 New Park Avenue,CT,6106
Stop And Shop,Danbury,644,644 #644 #0644 #00644,100 Division Street,CT,6401
Stop And Shop,New Britain,645,645 #645 #0645 #00645,228 South Main Street,CT,6470
Stop And Shop,Stamford,646,646 #646 #0646 #00646,2200 Bedford Street,CT,6905
Stop And Shop,Milford,647,647 #647 #0647 #00647,930 North Colony Road,CT,6492
Stop And Shop,New Haven,648,648 #648 #0648 #00648,200 East Main Street,CT,6614
Stop And Shop,Fairfield,650,650 #650 #0650 #00650,385 Connecticut Avenue,CT,6854
Stop And Shop,Bloomfield,651,651 #651 #0651 #00651,747 Pine Street,CT,6010
Stop And Shop,Clinton,652,652 #652 #0652 #00652,44 Lake Avenue Ext.,CT,6811
Stop And Shop,Westport,653,653 #653 #0653 #00653,1079 W. Main Street,CT,6053
Stop And Shop,Meriden,654,654 #654 #0654 #00654,1937 West Main Street,CT,6902
Stop And Shop,Ridgefield,656,656 #656 #0656 #00656,855 Bridgeport Avenue,CT,6460
Stop And Shop,Watertown,657,657 #657 #0657 #00657,112 Amity Road,CT,6515
Stop And Shop,Wilton,658,658 #658 #0658 #00658,1160 Kings Highway Cut-off,CT,6824
Stop And Shop,Danbury,659,659 #659 #0659 #00659,313 Cottage Grove Rd.,CT,6002
Stop And Shop,Norwalk,662,662 #662 #0662 #00662,215 East Main Street,CT,6413
Stop And Shop,Milford,663,663 #663 #0663 #00663,1790 Post Road East,CT,6880
Stop And Shop,East Lyme,665,665 #665 #0665 #00665,485 Broad Street,CT,6450
Stop And Shop,Waterford,667,667 #667 #0667 #00667,125 Danbury Road,CT,6877
Stop And Shop,Bridgeport,670,670 #670 #0670 #00670,763 Straits Turnpike,CT,6795
Stop And Shop,Fairfield,673,673 #673 #0673 #00673,5 River Road,CT,6897
Stop And Shop,Willimantic,674,674 #674 #0674 #00674,72 Newtown Road,CT,6810
Stop And Shop,Waterbury,675,675 #675 #0675 #00675,380 Main Avenue,CT,6851
Stop And Shop,North Canaan,677,677 #677 #0677 #00677,1360 East Town Road,CT,6460
Stop And Shop,Montville,678,678 #678 #0678 #00678,248 Flanders Road,CT,6357
Stop And Shop,Waterbury,679,679 #679 #0679 #00679,155 Boston Post Road,CT,6385
Stop And Shop,Meriden,680,680 #680 #0680 #00680,4531 Main Street,CT,6606
Stop And Shop,West Hartford,681,681 #681 #0681 #00681,760 Villa Avenue,CT,6825
Stop And Shop,Groton,682,682 #682 #0682 #00682,1391 Main Street,CT,6226
Stop And Shop,New Milford,683,683 #683 #0683 #00683,920 Wolcott Road,CT,6716
Stop And Shop,Southington,684,684 #684 #0684 #00684,11 East Main Street,CT,6018
Stop And Shop,Monroe,685,685 #685 #0685 #00685,2020 Norwich-New London Turnpk,CT,6382
Stop And Shop,Unionville,686,686 #686 #0686 #00686,240 Chase Avenue,CT,6704
Stop And Shop,Branford,687,687 #687 #0687 #00687,77 Centennial Plaza,CT,6451
Stop And Shop,Old Saybrook,688,688 #688 #0688 #00688,1235 Farmington Avenue,CT,6107
Stop And Shop,Manchester,689,689 #689 #0689 #00689,220 Route 12,CT,6340
Stop And Shop,East Haven,692,692 #692 #0692 #00692,180 Danbury Road,CT,6776
Stop And Shop,East Hartford,693,693 #693 #0693 #00693,505 North Main Street,CT,6489
Stop And Shop,North Haven,694,694 #694 #0694 #00694,470 Monroe Turnpike,CT,6468
Stop And Shop,Cheshire,695,695 #695 #0695 #00695,1799 Farmington Avenue,CT,6085
Stop And Shop,West Haven,696,696 #696 #0696 #00696,22 Leetes Island Rd.,CT,6405
Stop And Shop,Killingly,697,697 #697 #0697 #00697,665 Boston Post Road,CT,6475
Stop And Shop,Bridgeport,698,698 #698 #0698 #00698,318 West Middle Turnpike,CT,6040
Stop And Shop,South Windsor,699,699 #699 #0699 #00699,370 Hemingway Avenue,CT,6512
Stop And Shop,Newport,701,701 #701 #0701 #00701,940 Silver Lane,CT,6118
Stop And Shop,Johnston,703,703 #703 #0703 #00703,79 Washington Avenue,CT,6473
Stop And Shop,Cumberland,704,704 #704 #0704 #00704,275 Highland Avenue,CT,6410
Stop And Shop,Greenville,705,705 #705 #0705 #00705,460 Elm Street,CT,6516
Stop And Shop,Cranston,707,707 #707 #0707 #00707,1092 Killingly Commons Drive,CT,6241
Stop And Shop,Middletown,708,708 #708 #0708 #00708,2145 Fairfield Avenue,CT,6605
Stop And Shop,Warwick,709,709 #709 #0709 #00709,1739 Ellington Road,CT,6074
Stop And Shop,Pawtucket,710,710 #710 #0710 #00710,250 Bellevue Avenue,RI,2840
Stop And Shop,Lincoln,712,712 #712 #0712 #00712,11 Commerce Way,RI,2919
Stop And Shop,Cranston,714,714 #714 #0714 #00714,70 Mendon Road,RI,2864
Stop And Shop,North Kingstown,716,716 #716 #0716 #00716,446 Putnam Pike,RI,2828
Stop And Shop,Narragansett,718,718 #718 #0718 #00718,200 Atwood Avenue,RI,2920
Stop And Shop,Coventry,720,720 #720 #0720 #00720,1360 West Main Road,RI,2842
Stop And Shop,North Smithfield,721,721 #721 #0721 #00721,300 Quaker Lane,RI,2886
Stop And Shop,Providence,722,722 #722 #0722 #00722,368-398 Cottage Street,RI,2860
Stop And Shop,Bristol,723,723 #723 #0723 #00723,622 George Washington Highway,RI,2865
Stop And Shop,North Providence,724,724 #724 #0724 #00724,204 Garfield Avenue,RI,2920
Stop And Shop,Providence,725,725 #725 #0725 #00725,90 Frenchtown Road,RI,2852
Stop And Shop,Warwick,726,726 #726 #0726 #00726,66 Point Judith Rd,RI,2882
Stop And Shop,Putnam,727,727 #727 #0727 #00727,900 Tiogue Avenue,RI,2816
Stop And Shop,Richmond,729,729 #729 #0729 #00729,35 Eddie Downling Highway,RI,2896
Stop And Shop,Newport,731,731 #731 #0731 #00731,850 Manton Avenue,RI,2909
Stop And Shop,Westerly,736,736 #736 #0736 #00736,605 Metacom Avenue,RI,2809
Stop And Shop,North Kingstown,737,737 #737 #0737 #00737,1128 Mineral Spring Avenue,RI,2904
Stop And Shop,Warwick,739,739 #739 #0739 #00739,333 West River Street,RI,2904
Stop And Shop,Arlington,776,776 #776 #0776 #00776,521 Sandy Lane,RI,2889
Stop And Shop,Agawam,782,782 #782 #0782 #00782,60 Providence Turnpike,CT,6260
Stop And Shop,North Adams,784,784 #784 #0784 #00784,3 Stilson Road,RI,2898
Stop And Shop,Northampton,787,787 #787 #0787 #00787,199 Connell Highway,RI,2840
Stop And Shop,Keyport,801,801 #801 #0801 #00801,149 Franklin Street,RI,2891
Stop And Shop,Franklin Park,802,802 #802 #0802 #00802,1300 Ten Rod Road,RI,2852
Stop And Shop,Edison,803,803 #803 #0803 #00803,575 Greenwich Avenue,RI,2886
Stop And Shop,Watchung,804,804 #804 #0804 #00804,905 Massachusetts Avenue,MA,2476
Stop And Shop,Aberdeen,807,807 #807 #0807 #00807,1282 Springfield Street,MA,1030
Stop And Shop,Toms River,808,808 #808 #0808 #00808,876 State Road,MA,1247
Stop And Shop,Somerset,809,809 #809 #0809 #00809,228 King Street,MA,1060
Stop And Shop,Monroe Township,810,810 #810 #0810 #00810,100 State Route 36,NJ,7735
Stop And Shop,Toms River,811,811 #811 #0811 #00811,3333 Route 27,NJ,8823
Stop And Shop,Emerson,812,812 #812 #0812 #00812,1049 US Highway 1 South,NJ,8841
Stop And Shop,Clifton,813,813 #813 #0813 #00813,1511 US Highway 22 West,NJ,7069
Stop And Shop,Howell,815,815 #815 #0815 #00815,1129 Rte. 34 North,NJ,7747
Stop And Shop,Phillipsburg,816,816 #816 #0816 #00816,2360 Lakewood Road,NJ,8755
Stop And Shop,Hackensack,817,817 #817 #0817 #00817,940 Easton Avenue,NJ,8873
Stop And Shop,Dayton,818,818 #818 #0818 #00818,1600 Perrineville Road,NJ,8831
Stop And Shop,Lyndhurst,819,819 #819 #0819 #00819,353 Route 37 East,NJ,8753
Stop And Shop,Ridgewood,820,820 #820 #0820 #00820,600 Kinderkamack Road,NJ,7630
Stop And Shop,Elizabeth,822,822 #822 #0822 #00822,160 Kingsland Road,NJ,7014
Stop And Shop,Sparta,823,823 #823 #0823 #00823,4861 US Highway 9,NJ,7731
Stop And Shop,Wyckoff,825,825 #825 #0825 #00825,1278 US Highway 22,NJ,8865
Stop And Shop,Dumont,828,828 #828 #0828 #00828,380 W. Pleasantview Avenue,NJ,7601
Stop And Shop,Franklin Lakes,829,829 #829 #0829 #00829,24 Summerfield Boulevard,NJ,8810
Stop And Shop,Point Pleasant,830,830 #830 #0830 #00830,425 Lewandowski Street,NJ,7071
Stop And Shop,Carlstadt,831,831 #831 #0831 #00831,175 Franklin Avenue,NJ,7450
Stop And Shop,Berkeley Heights,834,834 #834 #0834 #00834,801 Newark Avenue,NJ,7208
Stop And Shop,Tenafly,835,835 #835 #0835 #00835,5 Town Center Drive,NJ,7871
Stop And Shop,Waldwick,838,838 #838 #0838 #00838,327 Franklin Avenue,NJ,7481
Stop And Shop,Butler,839,839 #839 #0839 #00839,20 Washington Avenue,NJ,7628
Stop And Shop,Brick,840,840 #840 #0840 #00840,816 Franklin Avenue,NJ,7417
Stop And Shop,Jersey City,843,843 #843 #0843 #00843,3208 Bridge Avenue,NJ,8742
Stop And Shop,Pennington,850,850 #850 #0850 #00850,625 Paterson Avenue,NJ,7073
Stop And Shop,Teaneck,851,851 #851 #0851 #00851,404 Springfield Avenue,NJ,7922
Stop And Shop,Union,852,852 #852 #0852 #00852,34 West Railroad Avenue,NJ,7670
Stop And Shop,Bayonne,853,853 #853 #0853 #00853,19 Wyckoff Avenue,NJ,7463
Stop And Shop,Whiting,855,855 #855 #0855 #00855,1506 State Route 23,NJ,7405
Stop And Shop,Westfield,857,857 #857 #0857 #00857,55 Brick Boulevard,NJ,8723
Stop And Shop,Edison,859,859 #859 #0859 #00859,232 Central Avenue,NJ,7307
Stop And Shop,Wanaque,860,860 #860 #0860 #00860,800 F Denow Road,NJ,8534
Stop And Shop,Hillsborough,862,862 #862 #0862 #00862,665 American Legion Drive,NJ,7666
Stop And Shop,Raritan,864,864 #864 #0864 #00864,1201 Stuyvesant Avenue,NJ,7083
Stop And Shop,Flemington,866,866 #866 #0866 #00866,1 Lefante Way,NJ,7002
Stop And Shop,Highland Park,867,867 #867 #0867 #00867,400 Lacey Road,NJ,8759
Stop And Shop,Jackson,873,873 #873 #0873 #00873,219 Elm Street,NJ,7090
Stop And Shop,Basking Ridge,877,877 #877 #0877 #00877,1083 Inman Avenue,NJ,8820
Stop And Shop,Paramus,878,878 #878 #0878 #00878,4 Union Avenue,NJ,7420
Stop And Shop,Ringwood,885,885 #885 #0885 #00885,649 US Highway 206,NJ,8844
Stop And Shop,Middletown,887,887 #887 #0887 #00887,120 Orlando Drive,NJ,8869
Stop And Shop,Wayne,888,888 #888 #0888 #00888,334 State Route 31,NJ,8822
Stop And Shop,Morris Plains,893,893 #893 #0893 #00893,424 Raritan Avenue,NJ,8904
Stop And Shop,Piscataway,897,897 #897 #0897 #00897,2275 West County Line Road,NJ,8527
Stop And Shop,Provincetown,2403,2403 #2403 #02403 #002403,553 South Finley Avenue,NJ,7920
Stop And Shop,Seekonk,2404,2404 #2404 #02404 #002404,859 South State Route 17,NJ,7446
Stop And Shop,North Reading,2406,2406 #2406 #02406 #002406,130 Skyline Drive,NJ,7456
Stop And Shop,Medford,2410,2410 #2410 #02410 #002410,850 State Route 35,NJ,7748
Stop And Shop,Somerville,2411,2411 #2411 #02411 #002411,1220 Hamburg Turnpike,NJ,7470
Stop And Shop,Nantucket,2413,2413 #2413 #02413 #002413,245 Littleton Road,NJ,7950
Stop And Shop,Pembroke,2414,2414 #2414 #02414 #002414,581 Stelton Road,NJ,8854
Stop And Shop,South Yarmouth,2422,2422 #2422 #02422 #002422,56 Shank Painter Road,MA,2657
Stop And Shop,Ossining,2502,2502 #2502 #02502 #002502,1475 Newman Avenue,MA,2771
Stop And Shop,West Haverstraw,2503,2503 #2503 #02503 #002503,265 Main Street,MA,1864
Stop And Shop,Shirley,2505,2505 #2505 #02505 #002505,471 Salem Street,MA,2155
Stop And Shop,Staten Island,2512,2512 #2512 #02512 #002512,105 Alewife Brook Parkway,MA,2144
Stop And Shop,Staten Island,2513,2513 #2513 #02513 #002513,9  Salem Street,MA,2554
Stop And Shop,Orangeburg,2545,2545 #2545 #02545 #002545,24 Mattakeesett Street,MA,2359
Stop And Shop,Hampton Bays,2551,2551 #2551 #02551 #002551,474 Station Avenue,MA,2664
Stop And Shop,West Hempstead,2552,2552 #2552 #02552 #002552,246 South Highland Ave,NY,10510
Stop And Shop,West Islip,2553,2553 #2553 #02553 #002553,7 Samsondale Plaza,NY,10993
Stop And Shop,Oceanside,2565,2565 #2565 #02565 #002565,170 Route 303/1 Stevens Way,NY,10983
Stop And Shop,Torrington,2604,2604 #2604 #02604 #002604,931 Torringford Street,CT,6790
Stop And Shop,Enfield,2605,2605 #2605 #02605 #002605,54 Hazard Avenue,CT,6082
Stop And Shop,West Hartford,2606,2606 #2606 #02606 #002606,176 Newington Road,CT,6110
Stop And Shop,Pawcatuck,2607,2607 #2607 #02607 #002607,91 Voluntown Road,CT,6379
Stop And Shop,Darien,2610,2610 #2610 #02610 #002610,25 Old King's Highway N,CT,6820
Stop And Shop,East Hampton,2611,2611 #2611 #02611 #002611,11 E. High Street,CT,6424
Stop And Shop,New Fairfield,2612,2612 #2612 #02612 #002612,25 State Route 39,CT,6812
Stop And Shop,Newington,2613,2613 #2613 #02613 #002613,206 Kitts Lane,CT,6111
Stop And Shop,Rockville,2614,2614 #2614 #02614 #002614,50 Windsorville Road,CT,6066
Stop And Shop,New Haven,2633,2633 #2633 #02633 #002633,150 Whalley Avenue,CT,6511
Stop And Shop,Wayland,2700,2700 #2700 #02700 #002700,400 Boston Post Road,MA,1778
Stop And Shop,East Providence,2701,2701 #2701 #02701 #002701,1925 Pawtucket Avenue,RI,2914
Stop And Shop,Cranston,2702,2702 #2702 #02702 #002702,275 Warwick Avenue,RI,2905
Stop And Shop,Franklin Township,2800,2800 #2800 #02800 #002800,1221 Route 27,NJ,8873
Stop And Shop,Clifton,2802,2802 #2802 #02802 #002802,1189 Broad Street,NJ,7013
Stop And Shop,Madison,2805,2805 #2805 #02805 #002805,133 Main Street,NJ,7940
Stop And Shop,West Caldwell,2807,2807 #2807 #02807 #002807,875 Bloomfield Avenue West,NJ,7006
Stop And Shop,East Brunswick,2809,2809 #2809 #02809 #002809,647 Route 18 South ,NJ,8816
Stop And Shop,Point Pleasant Beach,2810,2810 #2810 #02810 #002810,505 Richmond Avenue,NJ,8742
Stop And Shop,Manalapan,2811,2811 #2811 #02811 #002811,700 Tennent Road,NJ,7726
Stop And Shop,Freehold,2812,2812 #2812 #02812 #002812,160 Village Center Drive,NJ,7728
Stop And Shop,Long Branch,2813,2813 #2813 #02813 #002813,150 West End Court,NJ,7740
Stop And Shop,Neptune City,2814,2814 #2814 #02814 #002814,116 Route 35,NJ,7753
