keywords,city,Aggdata Store Number,store_number,address,state,zip_code
Talbots,Hingham,3,3 #3 #03 #003,164 North Street,MA,2043
Talbots,Duxbury,4,4 #4 #04 #004,447 Washington St.,MA,2332
Talbots,Lenox,5,5 #5 #05 #005,46 Walker Street,MA,1240
Talbots,Hamden,6,6 #6 #06 #006,3490 Whitney Avenue,CT,6518
Talbots,Canton,7,7 #7 #07 #007,"110 Albany Turnpike, Suite 1000",CT,6019
Talbots,Acton,8,8 #8 #08 #008,149 Great Road,MA,1720
Talbots,South Hamilton,9,9 #9 #09 #009,31 Bay Road Route 1A,MA,1982
Talbots,Mashpee,10,10 #10 #010 #0010,23 Steeple Street,MA,2649
Talbots,Ridgefield,11,11 #11 #011 #0011,107 Danbury Road,CT,6877
Talbots,Westport,12,12 #12 #012 #0012,165 Main Street,CT,6880
Talbots,Boston,13,13 #13 #013 #0013,500 Boylston Street,MA,2116
Talbots,Wellesley,14,14 #14 #014 #0014,50 Central Street,MA,2482
Talbots,Chappaqua,18,18 #18 #018 #0018,400 King Street,NY,10514
Talbots,Wilmington,19,19 #19 #019 #0019,3801 Kennett Pike,DE,19807
Talbots,Chevy Chase,20,20 #20 #020 #0020,5320 Western Place,MD,20815
Talbots,Baltimore,21,21 #21 #021 #0021,50 Village Square,MD,21210
Talbots,Cherry Hill,22,22 #22 #022 #0022,957 Haddonfield Road,NJ,8002
Talbots,Morristown,23,23 #23 #023 #0023,1001 Mount Kemble Avenue,NJ,7960
Talbots,Newport,24,24 #24 #024 #0024,162 Bellevue Avenue,RI,2840
Talbots,Essex,25,25 #25 #025 #0025,1 Essex Square,CT,6426
Talbots,Pittsford,26,26 #26 #026 #0026,66 Monroe Avenue,NY,14534
Talbots,Lyndhurst,30,30 #30 #030 #0030,25225 Cedar Road,OH,44124
Talbots,Sewickley,31,31 #31 #031 #0031,400 Broad Street,PA,15143
Talbots,Cincinnati,33,33 #33 #033 #0033,2669 Edmondson Road,OH,45209
Talbots,Pittsburgh,34,34 #34 #034 #0034,5428 Walnut Street,PA,15232
Talbots,Alexandria,35,35 #35 #035 #0035,601 North Washington St,VA,22314
Talbots,Scarsdale,37,37 #37 #037 #0037,696 White Plains Road,NY,10583
Talbots,McLean,38,38 #38 #038 #0038,8022 Tysons Corner Center,VA,22102
Talbots,Short Hills,40,40 #40 #040 #0040,Kennedy Blvd.,NJ,7078
Talbots,Stamford,41,41 #41 #041 #0041,100 Greyrock Pl.,CT,6901
Talbots,Deer Park,45,45 #45 #045 #0045,20530 N. Rand Road,IL,60010
Talbots,Lake Forest,47,47 #47 #047 #0047,247 East Market Square,IL,60045
Talbots,Paramus,48,48 #48 #048 #0048,Routes 4 & 17,NJ,7652
Talbots,North Bethesda,49,49 #49 #049 #0049,11301 Rockville Pike,MD,20895
Talbots,Troy,52,52 #52 #052 #0052,2801 West Big Beaver Road,MI,48084
Talbots,Westlake,53,53 #53 #053 #0053,140 Main Street,OH,44145
Talbots,Novi,55,55 #55 #055 #0055,27242 Novi Road,MI,48377
Talbots,Ridgewood,57,57 #57 #057 #0057,17 South Walnut Street,NJ,7450
Talbots,Indianapolis,58,58 #58 #058 #0058,49 West Maryland Street,IN,46204
Talbots,Indianapolis,59,59 #59 #059 #0059,8702 Keystone Crossing,IN,46240
Talbots,Atlanta,60,60 #60 #060 #0060,2391 Peachtree Road NE,GA,30305
Talbots,Mt. Laurel,62,62 #62 #062 #0062,4120 Dearborn Circle,NJ,8054
Talbots,Grosse Pointe,63,63 #63 #063 #0063,17015 Kercheval Street,MI,48230
Talbots,Ann Arbor,64,64 #64 #064 #0064,272 Briarwood Circle,MI,48108
Talbots,Bellevue,67,67 #67 #067 #0067,2062 Bellevue Square Way NE,WA,98004
Talbots,Dayton,68,68 #68 #068 #0068,2524 Far Hills Avenue,OH,45419
Talbots,Upper Arlington,70,70 #70 #070 #0070,1711 West Lane Ave,OH,43221
Talbots,Springfield,72,72 #72 #072 #0072,6825 Bland Street,VA,22150
Talbots,Albany,73,73 #73 #073 #0073,5 Metro Park Drive,NY,12205
Talbots,Park Ridge,74,74 #74 #074 #0074,575 Busse Highway,IL,60068
Talbots,Corte Madera,81,81 #81 #081 #0081,1500 Redwood Highway,CA,94925
Talbots,Lexington,82,82 #82 #082 #0082,3615 Nicholasville Road,KY,40503
Talbots,Atlanta,83,83 #83 #083 #0083,4300 Paces Ferry Road,GA,30339
Talbots,Shrewsbury,84,84 #84 #084 #0084,641 Route 35,NJ,7702
Talbots,Towson,85,85 #85 #085 #0085,825 Dulaney Valley Road,MD,21204
Talbots,Madison,86,86 #86 #086 #0086,7815 Mineral Point Road,WI,53717
Talbots,Worthington,87,87 #87 #087 #0087,125 Worthington Mall,OH,43085
Talbots,Oak Brook,88,88 #88 #088 #0088,148 Oakbrook Center,IL,60523
Talbots,Walnut Creek,91,91 #91 #091 #0091,1201 South Main Street,CA,94596
Talbots,New York,92,92 #92 #092 #0092,1251-1255 Third Avenue,NY,10021
Talbots,Charlottesville,93,93 #93 #093 #0093,1027 Emmet Street,VA,22901
Talbots,Naperville,98,98 #98 #098 #0098,217 South Main Street,IL,60540
Talbots,Virginia Beach,99,99 #99 #099 #0099,1860 Laskin Road La Promenade,VA,23454
Talbots,Wayzata,101,101 #101 #0101 #00101,619 East Lake Street,MN,55391
Talbots,Louisville,102,102 #102 #0102 #00102,194 North Hurstbourne Lane,KY,40222
Talbots,Dallas,103,103 #103 #0103 #00103,8687 N. Central Expressway,TX,75225
Talbots,San Antonio,104,104 #104 #0104 #00104,7400 San Pedro Avenue,TX,78216
Talbots,Kansas City,108,108 #108 #0108 #00108,239 West 47th Street,MO,64112
Talbots,Plano,109,109 #109 #0109 #00109,1900 Preston Road,TX,75093
Talbots,Costa Mesa,110,110 #110 #0110 #00110,3333 Bear Street,CA,92626
Talbots,Williamsville,112,112 #112 #0112 #00112,5501 Main Street,NY,14221
Talbots,Raleigh,113,113 #113 #0113 #00113,438 Woodburn Road,NC,27605
Talbots,Winston-Salem,114,114 #114 #0114 #00114,280 S. Stratford Center,NC,27103
Talbots,Santa Barbara,115,115 #115 #0115 #00115,110 South Hope Avenue,CA,93105
Talbots,Chapel Hill,116,116 #116 #0116 #00116,1800 E. Franklin Street,NC,27514
Talbots,Springfield,117,117 #117 #0117 #00117,1100 Baltimore Pike,PA,19064
Talbots,Fort Worth,118,118 #118 #0118 #00118,1540 South University Drive,TX,76107
Talbots,Memphis,122,122 #122 #0122 #00122,408 Grove Park Road South,TN,38117
Talbots,Pasadena,123,123 #123 #0123 #00123,497 South Lake Avenue,CA,91101
Talbots,Nashville,124,124 #124 #0124 #00124,4119 Hillsboro Road,TN,37215
Talbots,Austin,126,126 #126 #0126 #00126,9722 Great Hills Trail,TX,78759
Talbots,Charlotte,127,127 #127 #0127 #00127,6401 Morrison Boulevard,NC,28211
Talbots,Fayetteville,129,129 #129 #0129 #00129,98 Maple Drive,NY,13066
Talbots,Annapolis,131,131 #131 #0131 #00131,1910 Towne Centre Boulevard,MD,21401
Talbots,Knoxville,132,132 #132 #0132 #00132,5614 Kingston Pike,TN,37919
Talbots,Knoxville,132,132 #132 #0132 #00132,5614 Kingston Pike,TN,37919
Talbots,Burlington,134,134 #134 #0134 #00134,1125 Burlington Mall,MA,1803
Talbots,Mount Lebanon,136,136 #136 #0136 #00136,1500 Washington Road,PA,15228
Talbots,Greenville,137,137 #137 #0137 #00137,2222 Augusta Street,SC,29605
Talbots,Saint Louis,138,138 #138 #0138 #00138,39 Plaza Frontenac,MO,63131
Talbots,Bridgewater,139,139 #139 #0139 #00139,400 Commons Way,NJ,8807
Talbots,Chesterfield,142,142 #142 #0142 #00142,1580 Clarkson Road,MO,63017
Talbots,Glendale,143,143 #143 #0143 #00143,5695 North Centerpark Way,WI,53217
Talbots,Cincinnati,144,144 #144 #0144 #00144,7875 Montgomery Road,OH,45236
Talbots,Omaha,146,146 #146 #0146 #00146,10343 Pacific Street,NE,68114
Talbots,Oklahoma City,147,147 #147 #0147 #00147,2125 NW Expressway,OK,73112
Talbots,New York,148,148 #148 #0148 #00148,525 Madison Avenue (Between 53rd & 54th St),NY,10022
Talbots,Edina,149,149 #149 #0149 #00149,3936 West 50th Street,MN,55424
Talbots,Rolling Hills Estates,150,150 #150 #0150 #00150,550 Deep Valley Dr,CA,90274
Talbots,Germantown,151,151 #151 #0151 #00151,2055 West Street,TN,38138
Talbots,Winter Park,155,155 #155 #0155 #00155,180 Park Avenue North,FL,32789
Talbots,Columbia,156,156 #156 #0156 #00156,4809 Forest Drive,SC,29206
Talbots,Grand Rapids,157,157 #157 #0157 #00157,1862 Breton Road,MI,49506
Talbots,Murray,158,158 #158 #0158 #00158,194 East Winchester Street,UT,84107
Talbots,La Jolla,159,159 #159 #0159 #00159,7817 Girard Avenue,CA,92037
Talbots,Houston,160,160 #160 #0160 #00160,5135 West Alabama,TX,77056
Talbots,Saint Paul,163,163 #163 #0163 #00163,665 South Cleveland Avenue,MN,55116
Talbots,Sacramento,165,165 #165 #0165 #00165,581 591 Pavilions Lane,CA,95825
Talbots,Rochester,167,167 #167 #0167 #00167,111 South Broadway,MN,55904
Talbots,Reston,168,168 #168 #0168 #00168,11888 Market Street,VA,20190
Talbots,Houston,172,172 #172 #0172 #00172,2028 West Gray,TX,77019
Talbots,Philadelphia,173,173 #173 #0173 #00173,1719-1721 Walnut Street,PA,19103
Talbots,Denver,174,174 #174 #0174 #00174,3000 East 1st Avenue,CO,80206
Talbots,South Burlington,208,208 #208 #0208 #00208,41 IDX Drive,VT,5403
Talbots,Clive,209,209 #209 #0209 #00209,9739 University Avenue,IA,50325
Talbots,Okemos,210,210 #210 #0210 #00210,5050 Marsh Road,MI,48864
Talbots,Springfield,211,211 #211 #0211 #00211,2800 Plaza Drive,IL,62704
Talbots,Tulsa,212,212 #212 #0212 #00212,1930 Utica Square,OK,74114
Talbots,Savannah,213,213 #213 #0213 #00213,5525 Abercorn Street Abercorn Walk,GA,31405
Talbots,Chattanooga,216,216 #216 #0216 #00216,2121 Hamilton Place Boulevard,TN,37421
Talbots,Brea,218,218 #218 #0218 #00218,1114 Brea Mall,CA,92821
Talbots,Charleston,219,219 #219 #0219 #00219,2011 Charleston Town Center,WV,25389
Talbots,Brookfield,220,220 #220 #0220 #00220,18000 W. Bluemound Road,WI,53045
Talbots,Lancaster,221,221 #221 #0221 #00221,1647 Manheim Pike,PA,17601
Talbots,Scottsdale,222,222 #222 #0222 #00222,7014 East Camelback Road,AZ,85251
Talbots,Overland Park,223,223 #223 #0223 #00223,4709 West 119th Street Hawthorne Plaza,KS,66209
Talbots,Augusta,224,224 #224 #0224 #00224,491 A Highland Avenue,GA,30909
Talbots,Albany,225,225 #225 #0225 #00225,1475 Western Avenue,NY,12203
Talbots,Newark,228,228 #228 #0228 #00228,458 Christiana Mall,DE,19702
Talbots,Camp Hill,230,230 #230 #0230 #00230,3214 Trindle Road,PA,17011
Talbots,Ft. Wayne,231,231 #231 #0231 #00231,4130 Jefferson Boulevard,IN,46804
Talbots,Boise,232,232 #232 #0232 #00232,356 North Milwaukee Street,ID,83704
Talbots,Mobile,233,233 #233 #0233 #00233,9 Du Rhu Drive,AL,36608
Talbots,Doylestown,234,234 #234 #0234 #00234,100 South Main Street,PA,18901
Talbots,Jackson,235,235 #235 #0235 #00235,172 Highland Village,MS,39211
Talbots,Fairlawn,237,237 #237 #0237 #00237,2955 West Market Street,OH,44333
Talbots,Portage,239,239 #239 #0239 #00239,6762 South Westnedge Avenue The Carillion Centre,MI,49002
Talbots,Wichita,240,240 #240 #0240 #00240,2132 N. Rock Road,KS,67206
Talbots,Tallahassee,241,241 #241 #0241 #00241,1333 Market Street,FL,32312
Talbots,Appleton,242,242 #242 #0242 #00242,4301 W. Wisconsin Avenue,WI,54915
Talbots,Clarks Summit,244,244 #244 #0244 #00244,501 South State Street,PA,18411
Talbots,Glastonbury,246,246 #246 #0246 #00246,140 Glastonbury Boulevard,CT,6033
Talbots,Cedar Rapids,247,247 #247 #0247 #00247,4444 1st Avenue NE,IA,52402
Talbots,Huntsville,248,248 #248 #0248 #00248,3030 South Memorial Parkway,AL,35801
Talbots,Davenport,249,249 #249 #0249 #00249,320 W Kimberly Road,IA,52806
Talbots,Asheville,251,251 #251 #0251 #00251,10 Brook Street,NC,28803
Talbots,Shreveport,252,252 #252 #0252 #00252,6535 Youree Drive,LA,71105
Talbots,Peoria,253,253 #253 #0253 #00253,4633 North University,IL,61614
Talbots,Evansville,254,254 #254 #0254 #00254,800 North Green River Road,IN,47715
Talbots,Fresno,255,255 #255 #0255 #00255,680 West Shaw Avenue,CA,93704
Talbots,Bethlehem,256,256 #256 #0256 #00256,3303 Bath Pike,PA,18017
Talbots,Miami,259,259 #259 #0259 #00259,7685 North Kendall Drive,FL,33156
Talbots,Macon,260,260 #260 #0260 #00260,5080 Riverside Drive,GA,31210
Talbots,Jacksonville,261,261 #261 #0261 #00261,10311 Big Tree Lane,FL,32257
Talbots,Cranston,262,262 #262 #0262 #00262,27-29 Hillside Road,RI,2920
Talbots,El Paso,263,263 #263 #0263 #00263,720 Sunland Park Drive,TX,79912
Talbots,Wheaton,264,264 #264 #0264 #00264,391 Town Square,IL,60187
Talbots,Lincoln,265,265 #265 #0265 #00265,2910 East Pinelake Rd,NE,68516
Talbots,Upper Montclair,266,266 #266 #0266 #00266,574 Valley Road,NJ,7043
Talbots,Boardman,267,267 #267 #0267 #00267,813 Boardman Poland Road,OH,44512
Talbots,Erie,268,268 #268 #0268 #00268,3330 West 26th Street,PA,16506
Talbots,Cockeysville,273,273 #273 #0273 #00273,10265 York Road,MD,21030
Talbots,San Leandro,276,276 #276 #0276 #00276,1235 Marina Boulevard,CA,94577
Talbots,Lexington,277,277 #277 #0277 #00277,1895 Vendor Way,KY,40509
Talbots,Baton Rouge,280,280 #280 #0280 #00280,7455 Corporate Boulevard,LA,70809
Talbots,Livonia,282,282 #282 #0282 #00282,37584 West Six Mile Road,MI,48152
Talbots,Bakersfield,283,283 #283 #0283 #00283,9000 Ming Avenue,CA,93311
Talbots,Rockford,284,284 #284 #0284 #00284,7160 Harrison Ave,IL,61112
Talbots,Sea Girt,285,285 #285 #0285 #00285,2150 Highway 35,NJ,8750
Talbots,Toledo,286,286 #286 #0286 #00286,5001 Monroe Street,OH,43623
Talbots,Roanoke,289,289 #289 #0289 #00289,4702 Starkey Rd. Southwest,VA,24014
Talbots,Bloomington,290,290 #290 #0290 #00290,1515 East Empire Boulevard,IL,61701
Talbots,Dallas,291,291 #291 #0291 #00291,13350 North Dallas Parkway,TX,75240
Talbots,Columbia,292,292 #292 #0292 #00292,10300 Little Patuxent Parkway,MD,21044
Talbots,Vestal,293,293 #293 #0293 #00293,4777 Vestal Parkway East,NY,13850
Talbots,Reno,294,294 #294 #0294 #00294,13935 South Virginia Street,NV,89511
Talbots,Naples,295,295 #295 #0295 #00295,5555 Tamiami Trail North,FL,34108
Talbots,Topeka,296,296 #296 #0296 #00296,1717 SW Wanamaker Road,KS,66604
Talbots,Spartanburg,297,297 #297 #0297 #00297,551 East Main Street,SC,29302
Talbots,Tucson,298,298 #298 #0298 #00298,2905 East Skyline Drive,AZ,85718
Talbots,Columbus,299,299 #299 #0299 #00299,6401 Whitesville Road,GA,31904
Talbots,Southbury,300,300 #300 #0300 #00300,108 Main Street North,CT,6488
Talbots,Ithaca,301,301 #301 #0301 #00301,903 Hanshaw Road,NY,14850
Talbots,West Lafayette,302,302 #302 #0302 #00302,500 Sagamore Parkway West,IN,47906
Talbots,Lafayette,305,305 #305 #0305 #00305,5725 Johnston Street,LA,70503
Talbots,Fayetteville,307,307 #307 #0307 #00307,108 N. McPherson Church Road,NC,28303
Talbots,Beavercreek,309,309 #309 #0309 #00309,4414 Cedar Park Drive,OH,45440
Talbots,Wilmington,310,310 #310 #0310 #00310,3607 Oleander Drive,NC,28403
Talbots,Beaumont,312,312 #312 #0312 #00312,408 Dowlen Road,TX,77706
Talbots,Pensacola,315,315 #315 #0315 #00315,4411 Bayou Boulevard,FL,32503
Talbots,Albuquerque,316,316 #316 #0316 #00316,2260 Louisiana Blvd. NE,NM,87110
Talbots,Fishkill,317,317 #317 #0317 #00317,1083 Route 9,NY,12524
Talbots,Sarasota,318,318 #318 #0318 #00318,300 Southgate Plaza,FL,34239
Talbots,Sparta,321,321 #321 #0321 #00321,25 Sparta Avenue,NJ,7871
Talbots,New York,323,323 #323 #0323 #00323,2289-2291 Broadway,NY,10024
Talbots,Holden,324,324 #324 #0324 #00324,1063 Main Street,MA,1520
Talbots,Gainesville,326,326 #326 #0326 #00326,3842 West Newberry Road,FL,32607
Talbots,Midland,327,327 #327 #0327 #00327,2300 West Loop 250 North,TX,79705
Talbots,Natick,328,328 #328 #0328 #00328,1245 Worcester Street,MA,1760
Talbots,Corpus Christi,329,329 #329 #0329 #00329,3850 South Alameda,TX,74811
Talbots,Springfield,330,330 #330 #0330 #00330,3120 S. Glenstone Avenue,MO,65804
Talbots,Boca Raton,331,331 #331 #0331 #00331,6000 Glades Rd,FL,33431
Talbots,Houston,332,332 #332 #0332 #00332,660 West Sam Houston Pkwy N,TX,77024
Talbots,State College,333,333 #333 #0333 #00333,1341 South Atherton Street,PA,16801
Talbots,Stratham,334,334 #334 #0334 #00334,64 Portsmouth Avenue,NH,3885
Talbots,Northampton,335,335 #335 #0335 #00335,34 Bridge Street,MA,1060
Talbots,Roseville,338,338 #338 #0338 #00338,196 Rosedale Center,MN,55113
Talbots,Skokie,339,339 #339 #0339 #00339,90 Old Orchard Center,IL,60077
Talbots,Tuscaloosa,340,340 #340 #0340 #00340,312 Merchants Walk,AL,35406
Talbots,King of Prussia,342,342 #342 #0342 #00342,690 West Dekalb Pike,PA,19406
Talbots,Kingston,345,345 #345 #0345 #00345,194 South Wyoming Avenue,PA,18704
Talbots,Granger,346,346 #346 #0346 #00346,326 West Cleveland,IN,46530
Talbots,Hickory,349,349 #349 #0349 #00349,3028 North Center Street,NC,28601
Talbots,Sanford,350,350 #350 #0350 #00350,152 Towne Center Circle,FL,32771
Talbots,Amarillo,351,351 #351 #0351 #00351,2201 South Georgia Street,TX,79109
Talbots,Clearwater,354,354 #354 #0354 #00354,2570 McMullen Booth Road,FL,33761
Talbots,Germantown,355,355 #355 #0355 #00355,7509 Highway 72,TN,38138
Talbots,Santa Rosa,356,356 #356 #0356 #00356,2410 Sonoma Avenue,CA,95405
Talbots,Fairfax,357,357 #357 #0357 #00357,11815L Fair Oaks,VA,22033
Talbots,Naples,359,359 #359 #0359 #00359,5375 Tamiami Trail North,FL,34108
Talbots,Tukwila,361,361 #361 #0361 #00361,21 Southcenter Mall,WA,98188
Talbots,The Woodland,362,362 #362 #0362 #00362,1201 Lake Woodlands Drive,TX,77380
Talbots,Friendswood,363,363 #363 #0363 #00363,1096 Baybrook Mall,TX,77546
Talbots,Johnson City,364,364 #364 #0364 #00364,2509 North Roan Street,TN,37601
Talbots,Greenville,365,365 #365 #0365 #00365,1125 Woodruff Road,SC,29607
Talbots,Miami,366,366 #366 #0366 #00366,8888 SW 136th Street,FL,33176
Talbots,Harwich,367,367 #367 #0367 #00367,115 Route 137,MA,2645
Talbots,Greenville,368,368 #368 #0368 #00368,511 Red Banks Road,NC,27858
Talbots,Arcadia,370,370 #370 #0370 #00370,400 S. Baldwin Avenue,CA,91007
Talbots,Greensburg,371,371 #371 #0371 #00371,5256 ROUTE 30,PA,15601
Talbots,Ponte Vedra Beach,372,372 #372 #0372 #00372,330 State Road,FL,32082
Talbots,Houston,376,376 #376 #0376 #00376,500 Meyerland Plaza,TX,77096
Talbots,Duluth,377,377 #377 #0377 #00377,3492 Satellite Boulevard,GA,30096
Talbots,Nashua,381,381 #381 #0381 #00381,310 Daniel Webster Highway,NH,3060
Talbots,Linwood,382,382 #382 #0382 #00382,Central Avenue & New Road,NJ,8221
Talbots,Littleton,383,383 #383 #0383 #00383,8405 Park Meadows Center Drive,CO,80124
Talbots,Eugene,384,384 #384 #0384 #00384,99 Oakway Center,OR,97401
Talbots,Marlborough,385,385 #385 #0385 #00385,601 Donald Lynch Boulevard,MA,1752
Talbots,Sugar Land,386,386 #386 #0386 #00386,16535 Southwest Freeway,TX,77479
Talbots,Bel Air,387,387 #387 #0387 #00387,16D Bel Air South Parkway,MD,21015
Talbots,Tyler,388,388 #388 #0388 #00388,4601 S. Broadway,TX,75703
Talbots,Vero Beach,392,392 #392 #0392 #00392,6200 20th Street,FL,32966
Talbots,Metairie,393,393 #393 #0393 #00393,3301 Veterans Memorial Blvd.,LA,70002
Talbots,Burlington,396,396 #396 #0396 #00396,1125 Burlington Mall,MA,1803
Talbots,Braintree,397,397 #397 #0397 #00397,250 Granite Street,MA,2184
Talbots,Allentown,398,398 #398 #0398 #00398,3900 Hamilton Boulevard,PA,18103
Talbots,Franklin,399,399 #399 #0399 #00399,1800 Galleria Boulevard,TN,37067
Talbots,Rocky Mount,402,402 #402 #0402 #00402,153 South Winstead Avenue,NC,27804
Talbots,Pineville,403,403 #403 #0403 #00403,9835 Pineville-Matthews Road,NC,28134
Talbots,Tulsa,404,404 #404 #0404 #00404,7021 S. Memorial Drive,OK,74133
Talbots,Fort Myers,410,410 #410 #0410 #00410,13499 U.S. 41 S.E,FL,33907
Talbots,Garden City,413,413 #413 #0413 #00413,1142 Franklin Avenue,NY,11530
Talbots,Dublin,416,416 #416 #0416 #00416,5043 Tuttle Crossing Blvd.,OH,43016
Talbots,Farmington,417,417 #417 #0417 #00417,550 West Farms Mall,CT,6032
Talbots,Cary,418,418 #418 #0418 #00418,1105 Walnut Street,NC,27511
Talbots,Downingtown,420,420 #420 #0420 #00420,1096 East Lancaster Avenue,PA,19335
Talbots,Langhorne,421,421 #421 #0421 #00421,100 North Flowers Mill Road,PA,19047
Talbots,Baton Rouge,423,423 #423 #0423 #00423,6401 Blue Bonnet Blvd.,LA,70836
Talbots,Peabody,425,425 #425 #0425 #00425,State Hwy 128 N at Andover St,MA,1960
Talbots,Sarasota,427,427 #427 #0427 #00427,214 Southgate Plaza,FL,34239
Talbots,Birmingham,428,428 #428 #0428 #00428,243 Summit Boulevard,AL,35243
Talbots,Holland,430,430 #430 #0430 #00430,23 West 8th Street,MI,49423
Talbots,Frederick,433,433 #433 #0433 #00433,18 East Street,MD,21709
Talbots,Austin,434,434 #434 #0434 #00434,2901 S. Capital of Texas Highway,TX,78746
Talbots,Fayetteville,437,437 #437 #0437 #00437,4201 N. Shiloh Drive,AR,72703
Talbots,Huntersville,438,438 #438 #0438 #00438,16740 Birkdale Commons Pkwy,NC,28078
Talbots,Jackson,440,440 #440 #0440 #00440,162 Highland Village,MS,39211
Talbots,Bangor,441,441 #441 #0441 #00441,620 Stillwater Avenue,ME,4401
Talbots,Columbia,444,444 #444 #0444 #00444,2300 Bernadette Drive,MO,65203
Talbots,Southern Pines,447,447 #447 #0447 #00447,44 Pinecrest Plaza,NC,28387
Talbots,Peachtree City,448,448 #448 #0448 #00448,234 City Circle,GA,30269
Talbots,Decatur,450,450 #450 #0450 #00450,225 North Water Street,IL,62523
Talbots,Wyomissing,451,451 #451 #0451 #00451,728 Woodland Road,PA,19610
Talbots,Lynchburg,456,456 #456 #0456 #00456,4925 Boonsboro Road,VA,24503
Talbots,Myrtle Beach,458,458 #458 #0458 #00458,7200 North Kings Highway,SC,29572
Talbots,Mission Viejo,462,462 #462 #0462 #00462,27000 Crown Valley Parkway,CA,92691
Talbots,San Antonio,463,463 #463 #0463 #00463,11745 Interstate Highway 10 W,TX,78230
Talbots,Solon,465,465 #465 #0465 #00465,6025 Kruse Drive,OH,44139
Talbots,Norfolk,466,466 #466 #0466 #00466,300 Monticello Avenue,VA,23510
Talbots,Easton,468,468 #468 #0468 #00468,218 North Washington Street,MD,21601
Talbots,Lake Charles,474,474 #474 #0474 #00474,644 West Prien Lake Road,LA,70601
Talbots,Traverse City,476,476 #476 #0476 #00476,148 East Front Street,MI,49684
Talbots,Pittsburgh,478,478 #478 #0478 #00478,3428 William Penn Highway,PA,15235
Talbots,Stockton,480,480 #480 #0480 #00480,5759 Pacific Avenue,CA,95207
Talbots,Columbia,481,481 #481 #0481 #00481,7011 St. Andrews Road,SC,29212
Talbots,Columbus,482,482 #482 #0482 #00482,3946 Easton Square Plaza -East,OH,43219
Talbots,Marietta,483,483 #483 #0483 #00483,4475 Roswell Road,GA,30062
Talbots,Paducah,484,484 #484 #0484 #00484,2929 James Sanders Blvd.,KY,42001
Talbots,Florence,486,486 #486 #0486 #00486,2150 Evans Street,SC,29501
Talbots,Chandler,488,488 #488 #0488 #00488,7131 W. Ray Road,AZ,85226
Talbots,Hanover,489,489 #489 #0489 #00489,7 Lebanon Street,NH,3755
Talbots,Houston,490,490 #490 #0490 #00490,5442 F.M. 1960 West,TX,77069
Talbots,New Hartford,491,491 #491 #0491 #00491,8496 Seneca Turnpike,NY,13413
Talbots,Dover,492,492 #492 #0492 #00492,1404 Forest Avenue,DE,19904
Talbots,Monroe,493,493 #493 #0493 #00493,1811 Avenue of America,LA,71201
Talbots,Glenn Mills,501,501 #501 #0501 #00501,957 Baltimore Pike,PA,19342
Talbots,Roseville,504,504 #504 #0504 #00504,1151 Galleria Boulevard,CA,95678
Talbots,Edmond,506,506 #506 #0506 #00506,1488 South Bryant Avenue,OK,73034
Talbots,Carlsbad,509,509 #509 #0509 #00509,1925 Calle Barcelona,CA,92009
Talbots,Alpharetta,607,607 #607 #0607 #00607,7300 North Point Parkway,GA,30022
Talbots,Eden Prairie,608,608 #608 #0608 #00608,1018 Eden Prairie Center,MN,55344
Talbots,Louisville,609,609 #609 #0609 #00609,4200 Summit Plaza Drive,KY,40241
Talbots,Fort Collins,613,613 #613 #0613 #00613,100 East Foothill Pkwy,CO,80525
Talbots,Albany,614,614 #614 #0614 #00614,2404 Dawson Road,GA,31707
Talbots,N. Bethesda,617,617 #617 #0617 #00617,11301 Rockville Pike,MD,20895
Talbots,Palm Desert,618,618 #618 #0618 #00618,73575 El Paseo,CA,92260
Talbots,Littleton,620,620 #620 #0620 #00620,7301 South Sante Fe Drive,CO,80120
Talbots,Hendersonville,621,621 #621 #0621 #00621,1701 Brevard Highway,NC,28739
Talbots,Athens,622,622 #622 #0622 #00622,196 Alps Road,GA,30604
Talbots,Southlake,623,623 #623 #0623 #00623,1430 Civic Place,TX,76092
Talbots,King of Prussia,625,625 #625 #0625 #00625,690 West Dekalb Pike,PA,19406
Talbots,Hyannis,630,630 #630 #0630 #00630,769 Iyanough Road,MA,2601
Talbots,Norcross,631,631 #631 #0631 #00631,5151 Peachtree Parkway,GA,30092
Talbots,Rochester Hills,632,632 #632 #0632 #00632,310 North Adams Road,MI,48309
Talbots,Lincolnshire,633,633 #633 #0633 #00633,970 Milwaukee Avenue,IL,60069
Talbots,Bowling Green,634,634 #634 #0634 #00634,1770 Scottsville Rd,KY,42104
Talbots,Mandeville,635,635 #635 #0635 #00635,2875 Highway 190,LA,70471
Talbots,Plano,637,637 #637 #0637 #00637,6121 West Park Blvd,TX,75093
Talbots,Tampa,638,638 #638 #0638 #00638,2223 N. West Shore Blvd,FL,33607
Talbots,Williamsburg,643,643 #643 #0643 #00643,445 West Duke of Gloucester Street Merchants Square,VA,23185
Talbots,Columbus,644,644 #644 #0644 #00644,1500 Polaris Parkway,OH,43240
Talbots,Durham,645,645 #645 #0645 #00645,6910 Fayetteville Road,NC,27713
Talbots,Chester,648,648 #648 #0648 #00648,140 State Route 206 South,NJ,7930
Talbots,Wauwatosa,650,650 #650 #0650 #00650,2500 North Mayfair Road,WI,53226
Talbots,Ormond Beach,651,651 #651 #0651 #00651,286 North Nova Road,FL,32174
Talbots,South Fargo,654,654 #654 #0654 #00654,3902 13th Ave,ND,58103
Talbots,Richmond,655,655 #655 #0655 #00655,6237 River Road,VA,23229
Talbots,Raleigh,657,657 #657 #0657 #00657,5959 Triangle Town Boulevard,NC,27616
Talbots,Las Vegas,658,658 #658 #0658 #00658,1007 South Rampart Blvd.,NV,89145
Talbots,Saratoga Springs,661,661 #661 #0661 #00661,307 Broadway,NY,12866
Talbots,Woodcliff Lake,662,662 #662 #0662 #00662,431 Chestnut Ridge Road,NJ,7675
Talbots,Kingwood,663,663 #663 #0663 #00663,880 Kingwood Drive,TX,77339
Talbots,Orlando,665,665 #665 #0665 #00665,4200 Conroy Rd,FL,32839
Talbots,Costa Mesa,667,667 #667 #0667 #00667,3333 Bear Street,CA,92626
Talbots,Atlanta,796,796 #796 #0796 #00796,3500 Peachtree Road NE,GA,30326
Talbots,North York,811,811 #811 #0811 #00811,2901 Bayview Avenue,ON,M2K 1E6
Talbots,Toronto,812,812 #812 #0812 #00812,2 Bloor Street West,ON,M4W 3E2
Talbots,Etobicoke,813,813 #813 #0813 #00813,25 West Mall,ON,M9C 1B8
Talbots,North York,814,814 #814 #0814 #00814,3401 Dufferin Street,ON,M6A 2T9
Talbots,Ottawa,815,815 #815 #0815 #00815,50 Rideau Street,ON,K1N 9J7
Talbots,Nepean,816,816 #816 #0816 #00816,100 Bayshore Drive,ON,K2B 8C1
Talbots,Vancouver,817,817 #817 #0817 #00817,229 Oakridge Centre,BC,V5Z 2M9
Talbots,West Vancouver,818,818 #818 #0818 #00818,Park Royal North,BC,V7T 1H7
Talbots,Edmonton,820,820 #820 #0820 #00820,10200-102 Avenue NW,AB,T5J 4B7
Talbots,Calgary,821,821 #821 #0821 #00821,3625 Shaganappi Trail NW,AB,T3A 0E2
Talbots,Calgary,822,822 #822 #0822 #00822,100 Anderson Road SE,AB,T2J 3V1
Talbots,Victoria,829,829 #829 #0829 #00829,353-3147 Douglas Street,BC,V8Z 6E3
Talbots,Woodbridge,830,830 #830 #0830 #00830,16 Famous Avenue,ON,L4L 9M3
Talbots,Dartmouth,831,831 #831 #0831 #00831,21 Mic Mac Blvd,NS,B3A 4K7
Talbots,Saint Simons Island,1004,1004 #1004 #01004 #001004,600 Sea Island Road,GA,31522
Talbots,Harrisburg,1005,1005 #1005 #01005 #001005,2581 Brindle Drive,PA,17110
Talbots,Fredericksburg,1006,1006 #1006 #01006 #001006,1460 Central Park Boulevard,VA,22401
Talbots,Maple Grove,1010,1010 #1010 #01010 #001010,12297 Elm Creek Blvd.,MN,55369
Talbots,Salem,1012,1012 #1012 #01012 #001012,99 Rockingham Park Blvd,NH,3079
Talbots,Nashville,1014,1014 #1014 #01014 #001014,Mall at Green Hills 2126 Abbott-Martin Road,TN,37215
Talbots,Barrington,1016,1016 #1016 #01016 #001016,180 County Road Route 114,RI,2806
Talbots,Richmond,1017,1017 #1017 #01017 #001017,9200 Stony Point Parkway,VA,23235
Talbots,Scottsdale,1018,1018 #1018 #01018 #001018,7030 East Greenway Parkway,AZ,85254
Talbots,Colorado Springs,1019,1019 #1019 #01019 #001019,The Shops at Briargate 1925 Briargate Parkway,CO,80920
Talbots,Hingham,1020,1020 #1020 #01020 #001020,96 Derby Street,MA,2043
Talbots,Marlton,1021,1021 #1021 #01021 #001021,500 Route 73 S,NJ,8053
Talbots,Charlotte,1023,1023 #1023 #01023 #001023,8930 JM Keynes Drive,NC,28262
Talbots,Orange,1024,1024 #1024 #01024 #001024,550 Boston Post Road,CT,6477
Talbots,Ft. Smith,1025,1025 #1025 #01025 #001025,4300 Rogers Avenue,AR,72903
Talbots,West Des Moines,1029,1029 #1029 #01029 #001029,101 Jordan Creek Parkway,IA,50266
Talbots,Denville,1030,1030 #1030 #01030 #001030,3056 State Route 10 West The Shoppes at Union Hill,NJ,7834
Talbots,Tallahassee,1031,1031 #1031 #01031 #001031,1500 Apalachee Parkway,FL,32301
Talbots,Wilmington,1032,1032 #1032 #01032 #001032,3801 Kennett Pike,DE,19807
Talbots,Paoli,1034,1034 #1034 #01034 #001034,182 E Lancaster Ave,PA,19301
Talbots,West Houston,1036,1036 #1036 #01036 #001036,12850 Memorial Drive,TX,77024
Talbots,College Station,1039,1039 #1039 #01039 #001039,1501 University Drive,TX,77801
Talbots,Houston,1040,1040 #1040 #01040 #001040,2504 Amherst St,TX,77005
Talbots,Manhattan Beach,1042,1042 #1042 #01042 #001042,3200 North Sepulveda Boulevard,CA,90266
Talbots,Marietta,1043,1043 #1043 #01043 #001043,3625 Dallas Highway SW The Avenue West Cobb,GA,30064
Talbots,South Windsor,1044,1044 #1044 #01044 #001044,201 Evergreen Way,CT,6074
Talbots,Hackensack,1046,1046 #1046 #01046 #001046,231 Riverside Square,NJ,7601
Talbots,Horseheads,1048,1048 #1048 #01048 #001048,3343 Chamber Road South,NY,14845
Talbots,Lansing,1051,1051 #1051 #01051 #001051,3018 Towne Centre Blvd,MI,48912
Talbots,Scarsdale,1052,1052 #1052 #01052 #001052,680 White Plains Road,NY,10583
Talbots,Montgomery,1053,1053 #1053 #01053 #001053,6874 EastChase Parkway,AL,36117
Talbots,Concord,1061,1061 #1061 #01061 #001061,270 Loudon Road,NH,3301
Talbots,Destin,1063,1063 #1063 #01063 #001063,4230 Legendary Drive,FL,32541
Talbots,High Point,1064,1064 #1064 #01064 #001064,1231 Eastchester Drive,NC,27265
Talbots,Rome,1065,1065 #1065 #01065 #001065,1410 Turner McCall Boulevard,GA,30161
Talbots,Barboursville,1068,1068 #1068 #01068 #001068,1 Mall Road,WV,25504
Talbots,Winchester,1069,1069 #1069 #01069 #001069,3103 Valley Avenue Creekside Station,VA,22601
Talbots,Wilmington,1071,1071 #1071 #01071 #001071,6848 Main Street,NC,28405
Talbots,Morgantown,1072,1072 #1072 #01072 #001072,601 Venture Drive,WV,26508
Talbots,Spanish Fort,1073,1073 #1073 #01073 #001073,30500 State Highway 181,AL,36527
Talbots,Tigard,1075,1075 #1075 #01075 #001075,7381 SW Bridgeport Road,OR,97224
Talbots,Waterford,1078,1078 #1078 #01078 #001078,903 Hartford Turnpike,CT,6385
Talbots,Hudson,1079,1079 #1079 #01079 #001079,82 First Street First and Main,OH,44236
Talbots,Freehold,1081,1081 #1081 #01081 #001081,3710 Rt. 9,NJ,7728
Talbots,Los Gatos,1082,1082 #1082 #01082 #001082,50 University Ave,CA,95032
Talbots,Williamsport,1084,1084 #1084 #01084 #001084,2350 East Third Street,PA,17701
Talbots,Rock Hill,1085,1085 #1085 #01085 #001085,355 S. Herlong Avenue Millwood,SC,29732
Talbots,North Wales,1086,1086 #1086 #01086 #001086,1460 Bethlehem Pike,PA,19454
Talbots,Mason,1087,1087 #1087 #01087 #001087,5575 Deerfield Boulevard,OH,45040
Talbots,Glendale,1089,1089 #1089 #01089 #001089,20022 North 67th Avenue,AZ,85308
Talbots,Perrysburg,1091,1091 #1091 #01091 #001091,3105 Levis Commons Boulevard,OH,43551
Talbots,Melbourne,1092,1092 #1092 #01092 #001092,7200 Lake Andrew Drive,FL,32940
Talbots,Orchard Park,1098,1098 #1098 #01098 #001098,4005 North Buffalo Road,NY,14127
Talbots,Collierville,1099,1099 #1099 #01099 #001099,4610 Merchant Park Circle,TN,38017
Talbots,Mashpee,1100,1100 #1100 #01100 #001100,7 Steeple Street,MA,2649
Talbots,Fairview Heights,1101,1101 #1101 #01101 #001101,6520 North Illinois,IL,62208
Talbots,Salisbury,1102,1102 #1102 #01102 #001102,2737 North Salisbury Boulevard,MD,21804
Talbots,Gastonia,1103,1103 #1103 #01103 #001103,530 South New Hope Road,NC,28054
Talbots,Bedford,1105,1105 #1105 #01105 #001105,25 South River Road,NH,3110
Talbots,Pittsburgh,1106,1106 #1106 #01106 #001106,1000 Ross Park Mall Drive,PA,15237
Talbots,Orland Park,1107,1107 #1107 #01107 #001107,14215 La Grange Road,IL,60462
Talbots,Estero,1109,1109 #1109 #01109 #001109,23181 Village Shops Way,FL,33928
Talbots,Vienna,1111,1111 #1111 #01111 #001111,1100 9th Street,WV,26105
Talbots,Skaneateles,1112,1112 #1112 #01112 #001112,14 West genesee Street,NY,13152
Talbots,South Portland,1114,1114 #1114 #01114 #001114,343 Gorham Road,ME,4106
Talbots,Beaufort,1115,1115 #1115 #01115 #001115,1029 Boundary Street,SC,29902
Talbots,Newburyport,1116,1116 #1116 #01116 #001116,15 Green Street,MA,1950
Talbots,Cranberry Township,1118,1118 #1118 #01118 #001118,20412 Route 19,PA,16066
Talbots,Anderson,1119,1119 #1119 #01119 #001119,2500 North Main Street,SC,29621
Talbots,Charleston,1121,1121 #1121 #01121 #001121,2107 Charleston Town Center,WV,25389
Talbots,Virginia Beach,1125,1125 #1125 #01125 #001125,1860 Laskin Road,VA,23454
Talbots,Knoxville,1126,1126 #1126 #01126 #001126,11315 Parkside Dr,TN,37934
Talbots,Fernandina Beach,1128,1128 #1128 #01128 #001128,1408 Sadler Road,FL,32034
Talbots,Alexandria,1130,1130 #1130 #01130 #001130,2303 S. MacArthur Drive,LA,71303
Talbots,Jackson,1134,1134 #1134 #01134 #001134,2189 N Highland Ave,TN,38305
Talbots,Katy,1138,1138 #1138 #01138 #001138,23501 Cinco Ranch Boulevard,TX,77494
Talbots,Greensboro,1140,1140 #1140 #01140 #001140,3326 W. Friendly Ave,NC,27410
Talbots,Moosic,1146,1146 #1146 #01146 #001146,2311 Shoppes Boulevard,PA,18507
Talbots,San Antonio,1147,1147 #1147 #01147 #001147,22714 US 281 N,TX,78259
Talbots,Highland Village,1148,1148 #1148 #01148 #001148,1100 Cottonwood Creek,TX,75077
Talbots,Burlington,1149,1149 #1149 #01149 #001149,3143 Waltham Blvd.,NC,27215
Talbots,Hendersonville,1150,1150 #1150 #01150 #001150,300 Indian Lake Boulevard,TN,37075
Talbots,Murfreesboro,1156,1156 #1156 #01156 #001156,2615 Medical Center Parkway,TN,37129
Talbots,Plymouth,1157,1157 #1157 #01157 #001157,146 Colony Place,MA,2360
Talbots,North Brunswick,1159,1159 #1159 #01159 #001159,780 Shoppes Boulevard,NJ,8902
Talbots,Hattiesburg,1160,1160 #1160 #01160 #001160,6156 Highway 98 West,MS,39402
Talbots,Coconut Creek,1163,1163 #1163 #01163 #001163,4455 Lyons Road,FL,33073
Talbots,Pembroke Pines,1166,1166 #1166 #01166 #001166,400 SW 145th Ave,FL,33027
Talbots,Ridgeland,1169,1169 #1169 #01169 #001169,1000 Highland Colony Parkway,MS,39157
Talbots,Blacksburg,1170,1170 #1170 #01170 #001170,S. Main Street,VA,24060
Talbots,Statesboro,1172,1172 #1172 #01172 #001172,721 S. Main Street,GA,30458
Talbots,Mesa,1173,1173 #1173 #01173 #001173,1660 South Val Vista Drive,AZ,85204
Talbots,Wesley Chapel,1176,1176 #1176 #01176 #001176,28250 Paseo Drive,FL,33543
Talbots,Marlborough,1182,1182 #1182 #01182 #001182,601 Donald Lynch Boulevard,MA,1752
Talbots,Cumming,1183,1183 #1183 #01183 #001183,410 Peachtree Parkway,GA,30041
Talbots,Plantation,1185,1185 #1185 #01185 #001185,8160 W. Broward Blvd,FL,33324
Talbots,Woburn,1186,1186 #1186 #01186 #001186,300 Mishawum Road,MA,1801
Talbots,Flemington,1189,1189 #1189 #01189 #001189,100 Reaville Avenue,NJ,8822
Talbots,Jacksonville,1192,1192 #1192 #01192 #001192,4812 River City Drive,FL,32246
Talbots,Brentwood,1193,1193 #1193 #01193 #001193,2565 Sand Creek Road,CA,94513
Talbots,Charlotte,1196,1196 #1196 #01196 #001196,9856 Rea Road,NC,28277
Talbots,Charleston,1208,1208 #1208 #01208 #001208,261 King Street,SC,29401
Talbots,Princeton,1209,1209 #1209 #01209 #001209,38 Nassau Street,NJ,8542
Talbots,Champaign,1210,1210 #1210 #01210 #001210,1727 West Kirby avenue,IL,61821
Talbots,Little Rock,1211,1211 #1211 #01211 #001211,6000 West Markham Street,AR,72205
Talbots,Providence,1212,1212 #1212 #01212 #001212,44 Providence Place,RI,2903
Talbots,Richmond,1213,1213 #1213 #01213 #001213,6223 River Road,VA,23229
Talbots,Edina,1214,1214 #1214 #01214 #001214,3936 West 50th Street,MN,55424
Talbots,Lexington,1215,1215 #1215 #01215 #001215,3615 Nicholasville Road,KY,40503
Talbots,Lubbock,1216,1216 #1216 #01216 #001216,8201 Quaker Ave,TX,79424
Talbots,Hampton,1217,1217 #1217 #01217 #001217,1480 Merchant Lane,VA,23666
Talbots,Mount Pleasant,1218,1218 #1218 #01218 #001218,1125 Market Center Boulevard,SC,29464
Talbots,Santa Clara,1221,1221 #1221 #01221 #001221,2855 Stevens Creek Boulevard,CA,95050
Talbots,Wrentham,4000,4000 #4000 #04000 #004000,1 Premium Outlets Boulevard,MA,2093
Talbots,Clinton,4001,4001 #4001 #04001 #004001,20-A Killingworth Turnpike,CT,6413
Talbots,Dawsonville,4002,4002 #4002 #04002 #004002,800 Highway 400 South,GA,30534
Talbots,Limerick,4003,4003 #4003 #04003 #004003,18 W. Lightcap Road,PA,19464
Talbots,Tinton Falls,4004,4004 #4004 #04004 #004004,1 Premium Outlets Boulevard,NJ,7753
Talbots,St. Augustine,4005,4005 #4005 #04005 #004005,500 Prime Outlets Boulevard,FL,32084
Talbots,Riverhead,4006,4006 #4006 #04006 #004006,1947 Old Country Road,NY,11901
Talbots,San Marcos,4007,4007 #4007 #04007 #004007,3939 IH 35 South,TX,78666
Talbots,North Conway,4009,4009 #4009 #04009 #004009,14 Settlers Green,NH,3860
Talbots,Destin,4010,4010 #4010 #04010 #004010,10562 Emerald Coast Parkway West,FL,32550
Talbots,Leesburg,4011,4011 #4011 #04011 #004011,241 Fort Evans Road NE,VA,20176
Talbots,Orlando,4012,4012 #4012 #04012 #004012,8200 Vineland Avenue,FL,32821
Talbots,Aurora,4013,4013 #4013 #04013 #004013,1650 Premium Outlet Blvd,IL,60502
Talbots,Allen,4014,4014 #4014 #04014 #004014,820 W. Stacy Road,TX,75013
Talbots,Queenstown,4015,4015 #4015 #04015 #004015,401 Outlet Center Drive,MD,21658
Talbots,Camarillo,4016,4016 #4016 #04016 #004016,740 E. Ventura Boulevard,CA,93010
Talbots,Cypress,4017,4017 #4017 #04017 #004017,29300 Hempstead Road,TX,77433
Talbots,Napa,4018,4018 #4018 #04018 #004018,859 Factory Stores Drive,CA,94558
Talbots,Merrimack,4019,4019 #4019 #04019 #004019,80 Premium Outlets Boulevard,NH,3054
Talbots,Smithfield,4020,4020 #4020 #04020 #004020,1025 Industrial Park Drive,NC,27577
Talbots,Mebane,4021,4021 #4021 #04021 #004021,4000 Arrowhead Blvd.,NC,27302
Talbots,Rehoboth Beach,4022,4022 #4022 #04022 #004022,35015 Midway Outlet Drive,DE,19971
Talbots,Leeds,4023,4023 #4023 #04023 #004023,6200 Grand River Boulevard East,AL,35094
Talbots,Auburn Hills,4024,4024 #4024 #04024 #004024,4000 Baldwin Road,MI,48326
Talbots,Hagerstown,4025,4025 #4025 #04025 #004025,240 Premium Outlets Boulevard,MD,21740
Talbots,Estero,4026,4026 #4026 #04026 #004026,10801 Corkscrew Road,FL,33928
Talbots,Williamsburg,4027,4027 #4027 #04027 #004027,5645-140 Richmond Road,VA,23188
Talbots,Lee,4028,4028 #4028 #04028 #004028,17 Premium Outlet Boulevard,MA,1238
Talbots,Gulfport,4029,4029 #4029 #04029 #004029,10550 Factory Shops Boulevard,MS,39503
Talbots,Hershey,4030,4030 #4030 #04030 #004030,56 Outlet Square,PA,17033
Talbots,Lancaster,4031,4031 #4031 #04031 #004031,805 Stanley K. Tanger Boulevard,PA,17602
Talbots,Bluffton,4032,4032 #4032 #04032 #004032,1414 Fording Island Road,SC,29910
Talbots,Myrtle Beach,4033,4033 #4033 #04033 #004033,10835 Kings Road,SC,29572
Talbots,Oklahoma City,4034,4034 #4034 #04034 #004034,7624 W. Reno Ave.,OK,73127
Talbots,Woodbridge,4035,4035 #4035 #04035 #004035,2700 Potomac Mills Circle,VA,22192
Talbots,Hanover,4036,4036 #4036 #04036 #004036,7000 Arundel Mills Circle,MD,21076
Talbots,Sunrise,4037,4037 #4037 #04037 #004037,2612 Sawgrass Mills Circle,FL,33323
Talbots,Nashville,4038,4038 #4038 #04038 #004038,270 Opry Mills Drive,TN,37214
Talbots,Monroe,4039,4039 #4039 #04039 #004039,106 Premium Outlets Drive,OH,45050
Talbots,Washington,4040,4040 #4040 #04040 #004040,2200 Tanger Boulevard,PA,15301
Talbots,Locust Grove,4041,4041 #4041 #04041 #004041,1000 Tanger Drive,GA,30248
Talbots,North Charleston,4042,4042 #4042 #04042 #004042,4840 Tanger Outlet Boulevard,SC,29418
Talbots,Freeport,4043,4043 #4043 #04043 #004043,One Freeport Village Station,ME,4032
Talbots,Bethlehem,4044,4044 #4044 #04044 #004044,77 Sands Boulevard,PA,18015
Talbots,Grand Prairie,4045,4045 #4045 #04045 #004045,2950 West Interstate 20,TX,75052
Talbots,Deer Park,4046,4046 #4046 #04046 #004046,351 The Arches Circle,NY,11729
Talbots,Foley,4047,4047 #4047 #04047 #004047,2601 South McKenzie Street,AL,36535
Talbots,Livermore,4048,4048 #4048 #04048 #004048,2642 Paragon Outlets Drive,CA,94551
Talbots,Woodstock,4049,4049 #4049 #04049 #004049,915 Ridgewalk Pkwy,GA,30188
Talbots,Tilton,4050,4050 #4050 #04050 #004050,120 Laconia Road,NH,3276
Talbots,Baraboo,4051,4051 #4051 #04051 #004051,210 North Gassar Road,WI,53913
Talbots,Park City,4052,4052 #4052 #04052 #004052,6699 North Landmark Drive,UT,84098
Talbots,Nags Head,4053,4053 #4053 #04053 #004053,7100 South Croatan Highway,NC,27959
Talbots,Williamsburg,4054,4054 #4054 #04054 #004054,454 Tanger Drive,IA,52361
Talbots,Glendale,4055,4055 #4055 #04055 #004055,6800 North 95th Avenue,AZ,85305
Talbots,Gonzales,4056,4056 #4056 #04056 #004056,2410 South Tanger Boulevard,LA,70737
Talbots,Kittery,4058,4058 #4058 #04058 #004058,360 US Rte. 1,ME,3904
Talbots,Kennebunk,4903,4903 #4903 #04903 #004903,"2 Shape Drive, US 1",ME,4043
Talbots,Hingham,4906,4906 #4906 #04906 #004906,2 Shipyard Drive,MA,2043
