Keywords,city,store_number,Agg store_number,address,state,zip_code
Target,Milwaukee,57,57 0000057 000057,8501 W Brown Deer Rd,WI,53224-2112
Target,Fort Collins,79,79 0000079 000079,105 W Troutman Pkwy,CO,80525-3038
Target,Wichita Falls,80,80 0000080 000080,4317 Kemp Blvd,TX,76308-3717
Target,Lubbock,83,83 0000083 000083,7302 University Ave,TX,79423-1423
Target,Carrollton,84,84 0000084 000084,2620 N Josey Ln,TX,75007-5516
Target,Minot,85,85 0000085 000085,2400 10th St SW,ND,58701-2013
Target,Wichita,92,92 0000092 000092,301 S Towne East Mall Dr,KS,67207-1022
Target,Grand Junction,93,93 0000093 000093,2424 Highway 6 and 50,CO,81505-1109
Target,Anderson,107,107 00000107 0000107,5501 S Scatterfield Rd,IN,46013-3140
Target,Kokomo,111,111 00000111 0000111,1037 S Reed Rd,IN,46902-1929
Target,Louisville,120,120 00000120 0000120,9070 Dixie Hwy,KY,40258-1007
Target,Madison,144,144 00000144 0000144,2050 Gallatin Rd N,TN,37115-2002
Target,Knoxville,151,151 00000151 0000151,8040 Ray Mears Blvd,TN,37919-5457
Target,Racine,152,152 00000152 0000152,5300 Durand Ave,WI,53406-5056
Target,Colorado Springs,154,154 00000154 0000154,5240 N Academy Blvd,CO,80918-4004
Target,Beaumont,158,158 00000158 0000158,5850 Eastex Fwy,TX,77708-4824
Target,North Little Rock,162,162 00000162 0000162,4000 McCain Blvd,AR,72116-8039
Target,Casper,164,164 00000164 0000164,401 SE Wyoming Blvd,WY,82609-4219
Target,Alexandria,167,167 00000167 0000167,2206 Memorial Dr,LA,71301-3611
Target,Billings,171,171 00000171 0000171,2601 Central Ave,MT,59102-6652
Target,Abilene,219,219 00000219 0000219,3710 Ridgemont Dr,TX,79606-2726
Target,Amarillo,221,221 00000221 0000221,8201 I-40 W,TX,79121-1104
Target,Cheyenne,224,224 00000224 0000224,1708 Dell Range Blvd,WY,82009-4945
Target,Great Falls,253,253 00000253 0000253,2000 10th Ave S,MT,59405-2753
Target,San Angelo,254,254 00000254 0000254,4235 Sunset Dr,TX,76904-5653
Target,Aliso Viejo,259,259 00000259 0000259,26932 La Paz Rd,CA,92656-3038
Target,Las Vegas,264,264 00000264 0000264,1200 S Nellis Blvd,NV,89104-5752
Target,Roseville,267,267 00000267 0000267,1925 Douglas Blvd,CA,95661-3834
Target,Victorville,276,276 00000276 0000276,15321 Palmdale Rd,CA,92392-2403
Target,Dearborn,279,279 00000279 0000279,15901 Ford Rd,MI,48126-2800
Target,San Bernardino,297,297 00000297 0000297,2380 Sterling Ave,CA,92404-4624
Target,Mountain View,322,322 00000322 0000322,555 Showers Dr,CA,94040-1432
Target,Pittsburg,332,332 00000332 0000332,4301 Century Blvd,CA,94565-7101
Target,Saginaw,347,347 00000347 0000347,2772 Tittabawassee Rd,MI,48604-9433
Target,Flint,350,350 00000350 0000350,G3515 Miller Rd,MI,48507-1273
Target,Battle Creek,610,610 00000610 0000610,5700 Beckley Rd,MI,49015-4184
Target,Boise,617,617 00000617 0000617,633 N Milwaukee St,ID,83704-9139
Target,Pueblo,618,618 00000618 0000618,3300 Dillon Dr,CO,81008-1040
Target,Toledo,622,622 00000622 0000622,817 W Alexis Rd,OH,43612-4303
Target,Toledo,623,623 00000623 0000623,5225 Monroe St,OH,43623-3139
Target,Holland,624,624 00000624 0000624,1465 E Mall Dr,OH,43528-9490
Target,Kelso,628,628 00000628 0000628,205 Three Rivers Dr,WA,98626-3127
Target,Flint,629,629 00000629 0000629,3701 Lapeer Rd,MI,48503-4598
Target,Bay City,631,631 00000631 0000631,4135 Wilder Rd,MI,48706-2240
Target,Fort Gratiot,632,632 00000632 0000632,4300 24th Ave,MI,48059-3806
Target,Ann Arbor,634,634 00000634 0000634,2000 Waters Rd,MI,48103-8999
Target,Indianapolis,635,635 00000635 0000635,8448 Center Run Dr,IN,46250-4505
Target,Orlando,650,650 00000650 0000650,880 Sand Lake Rd,FL,32809-7710
Target,Willmar,661,661 00000661 0000661,2505 1st St S,MN,56201-4215
Target,Sarasota,665,665 00000665 0000665,8401 S Tamiami Trl,FL,34238-2927
Target,Columbus,668,668 00000668 0000668,3720 Soldano Blvd,OH,43228-1422
Target,Daytona Beach,688,688 00000688 0000688,2380 W International Speedway Blvd,FL,32114-1116
Target,Melbourne Village,689,689 00000689 0000689,2750 W New Haven Ave,FL,32904-3706
Target,Port Charlotte,690,690 00000690 0000690,1400A Tamiami Trl,FL,33948-1004
Target,Twin Falls,699,699 00000699 0000699,1611 Blue Lakes Blvd N,ID,83301-3374
Target,Colorado Springs,739,739 00000739 0000739,1630 E Cheyenne Mountain Blvd,CO,80906-4050
Target,Lawrenceville,747,747 00000747 0000747,875 Lawrenceville Suwanee Rd #4000,GA,30043-8479
Target,Jefferson City,752,752 00000752 0000752,735 W Stadium Blvd,MO,65109-4753
Target,Johnson City,756,756 00000756 0000756,2116 N Roan St,TN,37601-2535
Target,Owensboro,757,757 00000757 0000757,5151 Frederica St,KY,42301-7443
Target,West Jordan,768,768 00000768 0000768,6748 Redwood Rd,UT,84084-2403
Target,Midland,770,770 00000770 0000770,4001 N Midland Dr,TX,79707-3534
Target,Plainfield,773,773 00000773 0000773,2673 E Main St,IN,46168-2710
Target,Tyler,775,775 00000775 0000775,7003 S Broadway Ave,TX,75703-4737
Target,Fayetteville,778,778 00000778 0000778,107 Pavilion Pkwy,GA,30214-4098
Target,Elizabethtown,779,779 00000779 0000779,1631 Ring Rd,KY,42701-5470
Target,Cuyahoga Falls,793,793 00000793 0000793,449 Howe Ave,OH,44221-4943
Target,North Canton,794,794 00000794 0000794,5584 Dressler Rd NW,OH,44720-7757
Target,Knoxville,795,795 00000795 0000795,6670 Clinton Hwy,TN,37912-1016
Target,Gainesville,796,796 00000796 0000796,514 Shallowford Rd NW,GA,30504-4154
Target,Mobile,797,797 00000797 0000797,3150 Bel Air Mall,AL,36606-3203
Target,College Station,800,800 00000800 0000800,2100 Texas Ave S,TX,77840-3918
Target,Laredo,801,801 00000801 0000801,7501 San Dario Ave,TX,78045-7207
Target,Harlingen,802,802 00000802 0000802,1002 Dixieland Rd,TX,78552-5913
Target,Des Moines,803,803 00000803 0000803,1111 E Army Post Rd Ste 2204,IA,50315-5962
Target,Marshfield,805,805 00000805 0000805,1708 N Central Ave,WI,54449-1514
Target,Stevens Point,806,806 00000806 0000806,5300 US Highway 10 E,WI,54482-8551
Target,Fond Du Lac,808,808 00000808 0000808,485 N Rolling Meadows Dr,WI,54937-9784
Target,Venice,813,813 00000813 0000813,4271 Tamiami Trl S,FL,34293-5131
Target,Bradenton,817,817 00000817 0000817,6150 14th St W,FL,34207-4622
Target,McAllen,824,824 00000824 0000824,708 E Expressway 83,TX,78503-1609
Target,Scottsbluff,831,831 00000831 0000831,1401 Frontage Rd,NE,69361-2773
Target,Roswell,832,832 00000832 0000832,2725 N Main St,NM,88201-6512
Target,Elgin,834,834 00000834 0000834,300 S Randall Rd,IL,60123-5525
Target,Aberdeen,848,848 00000848 0000848,3316 7th Ave SE,SD,57401-6639
Target,Las Vegas,850,850 00000850 0000850,3550 S Rainbow Blvd,NV,89103-1004
Target,Phoenix,851,851 00000851 0000851,7409 W Virginia Ave,AZ,85035-1336
Target,Norfolk,856,856 00000856 0000856,1510 Market Ln,NE,68701-7328
Target,Watertown,859,859 00000859 0000859,2000 9th Ave SE,SD,57201-5352
Target,West Burlington,860,860 00000860 0000860,525 S Gear Ave,IA,52655-1031
Target,Prescott,884,884 00000884 0000884,1851 E Highway 69,AZ,86301-5665
Target,Missoula,885,885 00000885 0000885,2420 N Reserve St,MT,59808-1317
Target,Victoria,888,888 00000888 0000888,7608 NE Zac Lentz Pkwy,TX,77904-1390
Target,Superior,889,889 00000889 0000889,3535 Tower Ave,WI,54880-5334
Target,Ottumwa,890,890 00000890 0000890,1020 N Quincy Ave,IA,52501-3821
Target,Galesburg,891,891 00000891 0000891,1071 W Carl Sandburg Dr,IL,61401-1343
Target,Mchenry,892,892 00000892 0000892,1860 N Richmond Rd,IL,60051-5416
Target,Monroe,900,900 00000900 0000900,2121 N Monroe St,MI,48162-5316
Target,Grand Rapids,904,904 00000904 0000904,2140 S Pokegama Ave,MN,55744-5124
Target,Salina,905,905 00000905 0000905,2939 Market Pl,KS,67401-8598
Target,Garden City,906,906 00000906 0000906,2401 E Kansas Ave,KS,67846-6962
Target,Spokane,915,915 00000915 0000915,13724 E Sprague Ave,WA,99216-0812
Target,Jackson,921,921 00000921 0000921,93 Stonebrook Pl,TN,38305-3637
Target,Peru,929,929 00000929 0000929,4370 Venture Dr,IL,61354-1013
Target,Clinton,932,932 00000932 0000932,2900 S 25th St,IA,52732-7206
Target,Hutchinson,946,946 00000946 0000946,1529 E 17th Ave,KS,67501-1114
Target,San Antonio,948,948 00000948 0000948,12621 W IH 10,TX,78230-1025
Target,Lufkin,953,953 00000953 0000953,4200 S Medford Dr,TX,75901-5644
Target,Bowling Green,958,958 00000958 0000958,160 American Ave,KY,42104-6378
Target,Clarksville,959,959 00000959 0000959,2823 Wilma Rudolph Blvd,TN,37040-5002
Target,Rocky Mount,962,962 00000962 0000962,731 Sutters Creek Blvd,NC,27804-8452
Target,Goldsboro,964,964 00000964 0000964,1204 Sunburst Dr,NC,27534-8202
Target,Cartersville,969,969 00000969 0000969,100 Cherokee Pl,GA,30121-2954
Target,Norcross,982,982 00000982 0000982,3200 Holcomb Bridge Rd,GA,30092-3361
Target,Fairlawn,986,986 00000986 0000986,2801 W Market St,OH,44333-4028
Target,Stow,988,988 00000988 0000988,4200 Kent Rd,OH,44224-4325
Target,Lancaster,990,990 00000990 0000990,1300 River Valley Blvd,OH,43130-1649
Target,Cape Girardeau,992,992 00000992 0000992,202 Siemers Dr,MO,63701-8419
Target,Westminster,1000,1000 000001000 00001000,200 Malcolm Dr,MD,21157-6110
Target,New Bern,1015,1015 000001015 00001015,3410 Dr Martin Luther King Jr Blvd,NC,28562-5220
Target,Glen Allen,1019,1019 000001019 00001019,10100 Brook Rd,VA,23059-6514
Target,Greenville,1022,1022 000001022 00001022,3040 S Evans St,NC,27834-3176
Target,Richmond,1041,1041 000001041 00001041,11301 Midlothian Tpke,VA,23235-4715
Target,Wenatchee,1064,1064 000001064 00001064,1102 Springwater St,WA,98801-1548
Target,Owatonna,1068,1068 000001068 00001068,301 Park Dr,MN,55060-5639
Target,Carrollton,1073,1073 000001073 00001073,1129 S Park St,GA,30117-4429
Target,High Point,1079,1079 000001079 00001079,1050 Mall Loop,NC,27262-7656
Target,Idaho Falls,1082,1082 000001082 00001082,2171 S 25th E,ID,83406-5712
Target,Augusta,1090,1090 000001090 00001090,235 Robert C Daniel Jr Pkwy,GA,30909-0800
Target,Winona,1096,1096 000001096 00001096,860 Mankato Ave,MN,55987-4867
Target,Marietta,1106,1106 000001106 00001106,3040 Shallowford Rd,GA,30062-1252
Target,Little Rock,1114,1114 000001114 00001114,12700 Chenal Pkwy,AR,72211-3360
Target,Rio Rancho,1117,1117 000001117 00001117,4225 Crestview Dr,NM,87124-5903
Target,Benton Harbor,1127,1127 000001127 00001127,960 Fairplain Dr,MI,49022-5794
Target,Altoona,1160,1160 000001160 00001160,153 Sierra Dr,PA,16601-9341
Target,Austell,1164,1164 000001164 00001164,4125 Austell Rd,GA,30106-1836
Target,Horn Lake,1169,1169 000001169 00001169,7255 Interstate Dr,MS,38637-1410
Target,Douglasville,1172,1172 000001172 00001172,2950 Chapel Hill Rd,GA,30135-1708
Target,Austin,1173,1173 000001173 00001173,1701 18th Ave NW,MN,55912-9337
Target,Fergus Falls,1174,1174 000001174 00001174,2300 College Way,MN,56537-1062
Target,Loveland,1178,1178 000001178 00001178,1725 Rocky Mtn Ave,CO,80538-8851
Target,Columbus,1179,1179 000001179 00001179,1591 Bradley Park Dr,GA,31904-3071
Target,Salem,1186,1186 000001186 00001186,203 S Broadway,NH,03079-3311
Target,New Ulm,1202,1202 000001202 00001202,1914 S Broadway St,MN,56073-3753
Target,Hutchinson,1210,1210 000001210 00001210,1370 Highway 15,MN,55350-3801
Target,Indianapolis,1214,1214 000001214 00001214,10202 E Washington St,IN,46229-2670
Target,Elyria,1215,1215 000001215 00001215,240 Market Dr,OH,44035-2886
Target,Washington,1216,1216 000001216 00001216,335 Washington Rd,PA,15301-2701
Target,Pittsburgh,1217,1217 000001217 00001217,600 Chauvet Dr,PA,15275-1043
Target,Pittsburgh,1218,1218 000001218 00001218,9805 McKnight Rd,PA,15237-6008
Target,Monroeville,1219,1219 000001219 00001219,4004 Monroeville Blvd,PA,15146-2506
Target,Greensburg,1220,1220 000001220 00001220,6206 State Rte 30,PA,15601-6399
Target,Jacksonville,1226,1226 000001226 00001226,1395D Western Blvd,NC,28546-6663
Target,Boise,1230,1230 000001230 00001230,6280 N Eagle Rd,ID,83713-0955
Target,Salisbury,1233,1233 000001233 00001233,125 E North Point Dr,MD,21804-2283
Target,Columbus,1236,1236 000001236 00001236,1485 Polaris Pkwy,OH,43240-2041
Target,Bozeman,1237,1237 000001237 00001237,2550 Catron Rd,MT,59718-7993
Target,Carson City,1239,1239 000001239 00001239,910 Jacks Valley Rd,NV,89705-6936
Target,Hastings,1245,1245 000001245 00001245,875 General Sieben Dr,MN,55033-2485
Target,Sturgeon Bay,1246,1246 000001246 00001246,410 S Ashland Ave,WI,54235-3805
Target,Appleton,1248,1248 000001248 00001248,1800 S Kensington Dr,WI,54915-4136
Target,Maryville,1250,1250 000001250 00001250,800 Watkins Rd,TN,37801-4597
Target,Homestead,1253,1253 000001253 00001253,360 Waterfront Dr E,PA,15120-5004
Target,Cranberry Twp,1259,1259 000001259 00001259,1717 Route 228,PA,16066-5312
Target,West Mifflin,1270,1270 000001270 00001270,1717 Lebanon Church Rd,PA,15236-1450
Target,Daphne,1274,1274 000001274 00001274,1698 US Highway 98,AL,36526-4252
Target,Springfield,1277,1277 000001277 00001277,1885 W 1st St,OH,45504-1926
Target,Helena,1282,1282 000001282 00001282,3303 N Montana Ave,MT,59602-7817
Target,Murrieta,1283,1283 000001283 00001283,41040 California Oaks Rd,CA,92562-5749
Target,State College,1288,1288 000001288 00001288,315 Colonnade Blvd,PA,16803-2321
Target,Saugus,1290,1290 000001290 00001290,400 Lynn Fells Pkwy,MA,01906-3100
Target,Bluffton,1298,1298 000001298 00001298,1050 Fording Island Rd,SC,29910-6500
Target,Jacksonville,1300,1300 000001300 00001300,10490 San Jose Blvd,FL,32257-6207
Target,Niles,1301,1301 000001301 00001301,5555 Youngstown Warren Rd,OH,44446-4804
Target,Turlock,1304,1304 000001304 00001304,3000 Countryside Dr,CA,95380-8402
Target,Aiken,1310,1310 000001310 00001310,2545 Whiskey Rd,SC,29803-8521
Target,Rossford,1317,1317 000001317 00001317,9666 Olde US 20,OH,43460-1710
Target,Florence,1322,1322 000001322 00001322,372 Cox Creek Pkwy,AL,35630-1540
Target,Billings,1333,1333 000001333 00001333,403 Main St,MT,59105-3227
Target,Saint George,1357,1357 000001357 00001357,275 S River Rd,UT,84790-2116
Target,Macon,1379,1379 000001379 00001379,4685 Presidential Pkwy,GA,31206-8712
Target,Warner Robins,1380,1380 000001380 00001380,2929 Watson Blvd,GA,31093-9600
Target,Mansfield,1381,1381 000001381 00001381,2205 Walker Lake Rd,OH,44903-6519
Target,Commack,1387,1387 000001387 00001387,4 Henry St,NY,11725-5423
Target,Kansas City,1388,1388 000001388 00001388,4375 N Chouteau Trfy,MO,64117-1743
Target,Lake Charles,1399,1399 000001399 00001399,1720 W Prien Lake Rd,LA,70601-8361
Target,Butler,1414,1414 000001414 00001414,200 Butler Commons,PA,16001-2482
Target,Somerville,1441,1441 000001441 00001441,180 Somerville Ave,MA,02143-3405
Target,Watertown,1442,1442 000001442 00001442,550 Arsenal St,MA,02472-2853
Target,Houma,1450,1450 000001450 00001450,1727 Martin Luther King Jr Blvd,LA,70360-2409
Target,Boardman,1463,1463 000001463 00001463,417 Boardman Poland Rd,OH,44512-4907
Target,Monroe,1469,1469 000001469 00001469,4103 Pecanland Mall Dr,LA,71203-7009
Target,Fayetteville,1470,1470 000001470 00001470,3545 N Shiloh Dr,AR,72703-5359
Target,Barboursville,1478,1478 000001478 00001478,2070 Thundering Herd Rd,WV,25504-2600
Target,Mcallen,1490,1490 000001490 00001490,7400 N 10th St,TX,78504-7700
Target,Kingston,1495,1495 000001495 00001495,101 Independence Mall Way,MA,02364-3048
Target,Opelika,1499,1499 000001499 00001499,2640 Enterprise Dr,AL,36801-1511
Target,Odessa,1506,1506 000001506 00001506,3909 E 42nd St,TX,79762-5939
Target,Red Wing,1522,1522 000001522 00001522,151 Tyler Rd N,MN,55066-1865
Target,Waco,1531,1531 000001531 00001531,5401 Bosque Blvd,TX,76710-4442
Target,Belton,1538,1538 000001538 00001538,1106 E North Ave,MO,64012-5104
Target,Kalispell,1540,1540 000001540 00001540,2365 US Highway 93 N,MT,59901-2558
Target,Charlotte,1793,1793 000001793 00001793,8830 Albemarle Rd,NC,28227-2616
Target,Raleigh,1794,1794 000001794 00001794,8651 Brier Creek Pkwy,NC,27617-7325
Target,Salem,1803,1803 000001803 00001803,227 Highland Ave,MA,01970-1830
Target,Texarkana,1811,1811 000001811 00001811,102 Richmond Ranch Rd,TX,75503-1081
Target,American Fork,1814,1814 000001814 00001814,608 W Main St,UT,84003-9762
Target,Montgomery,1825,1825 000001825 00001825,2576 Berryhill Rd,AL,36117-3564
Target,Bridgeport,1828,1828 000001828 00001828,2800 Meadowbrook Mall,WV,26330-9795
Target,Northfield,1841,1841 000001841 00001841,8282 Golden Link Blvd,OH,44067-2067
Target,Brooklyn,1849,1849 000001849 00001849,139 Flatbush Ave,NY,11217-1403
Target,Gilroy,1851,1851 000001851 00001851,6705 Camino Arroyo,CA,95020-7075
Target,San Antonio,1852,1852 000001852 00001852,3227 SE Military Dr,TX,78223-3876
Target,Charlottesville,1858,1858 000001858 00001858,312 Connor Dr,VA,22911-5605
Target,Abingdon,1871,1871 000001871 00001871,403 Constant Friendship Blvd,MD,21009-2566
Target,Port Arthur,1877,1877 000001877 00001877,3100 Highway 365 Ste 90,TX,77642-7796
Target,Sheboygan Falls,1880,1880 000001880 00001880,4085 State Highway 28,WI,53085-2848
Target,Conway,1891,1891 000001891 00001891,501 Elsinger Blvd,AR,72032-4717
Target,South Bend,1902,1902 000001902 00001902,1400 E Ireland Rd,IN,46614-3452
Target,Lithonia,1909,1909 000001909 00001909,8109 Mall Pkwy,GA,30038-2546
Target,Osage Beach,1914,1914 000001914 00001914,919 Hwy D,MO,65065-3169
Target,Jonesboro,1919,1919 000001919 00001919,3000 E Highland Dr Ste A,AR,72401-6321
Target,Richmond,1931,1931 000001931 00001931,7107 Forest Hill Ave,VA,23225-1501
Target,Santa Ana,1936,1936 000001936 00001936,1441 W 17th St,CA,92706-3301
Target,Morgantown,1949,1949 000001949 00001949,5001 University Towne Center Dr,WV,26501-2267
Target,Decatur,1951,1951 000001951 00001951,355 W Mound Rd,IL,62526-1965
Target,Austin,1953,1953 000001953 00001953,11220 FM 2222,TX,78730-1001
Target,Mount Kisco,1954,1954 000001954 00001954,195 N Bedford Rd Ste A,NY,10549-1104
Target,Howell,1971,1971 000001971 00001971,10025 E Highland Rd,MI,48843-1879
Target,St. Joseph,1977,1977 000001977 00001977,5201 N Belt Hwy Ste H,MO,64506-1297
Target,Andover,2025,2025 000002025 00002025,2000 Bunker Lake Blvd NW,MN,55304-4014
Target,Evans,2027,2027 000002027 00002027,4223 Washington Rd,GA,30809-3069
Target,Glenwood Springs,2029,2029 000002029 00002029,110 W Meadows Dr,CO,81601-9516
Target,Massillon,2044,2044 000002044 00002044,1980 Lincoln Way E,OH,44646-6965
Target,Hattiesburg,2055,2055 000002055 00002055,6143 U S Highway 98 Ste 80,MS,39402-8533
Target,Knoxville,2057,2057 000002057 00002057,5405 Washington Pke,TN,37918-7004
Target,Lincoln,2073,2073 000002073 00002073,620 George Washington Hwy,RI,02865-4216
Target,Pittsburgh,2077,2077 000002077 00002077,288 Mt Nebo Pointe Dr,PA,15237-1317
Target,Decatur,2084,2084 000002084 00002084,1235 Point Mallard Parkway SE,AL,35601-6531
Target,Charlotte,2090,2090 000002090 00002090,9870 Rea Rd,NC,28277-6655
Target,Branson,2098,2098 000002098 00002098,1200 Branson Hills Pkwy,MO,65616-9943
Target,Monaca,2100,2100 000002100 00002100,87 Wagner Rd,PA,15061-2141
Target,Laredo,2112,2112 000002112 00002112,1910 Bob Bullock Loop,TX,78043-9733
Target,North Huntingdon,2114,2114 000002114 00002114,8931 Rte 30,PA,15642-2791
Target,South Jordan,2123,2123 000002123 00002123,11525 Parkway Plaza Dr,UT,84095-5605
Target,Lanesboro,2127,2127 000002127 00002127,655 Cheshire Rd,MA,01237-9501
Target,Kernersville,2134,2134 000002134 00002134,1090 S Main St,NC,27284-7440
Target,West Jordan,2150,2150 000002150 00002150,7779 Jordan Landing Blvd,UT,84084-1975
Target,Brownsville,2152,2152 000002152 00002152,301 E Morrison Rd,TX,78526-3366
Target,Oxford,2153,2153 000002153 00002153,400 Oxford Exchange Blvd,AL,36203-3459
Target,Waterbury,2156,2156 000002156 00002156,300 Chase Ave,CT,06704-2246
Target,Streetsboro,2157,2157 000002157 00002157,1144 State Rte 303,OH,44241-5266
Target,Sandusky,2159,2159 000002159 00002159,4020 Milan Rd,OH,44870-5892
Target,Biddeford,2166,2166 000002166 00002166,430 Mariner Way,ME,04005-9440
Target,Wilson,2168,2168 000002168 00002168,3401 Raleigh Road Pkwy W Ste 1A,NC,27896-8219
Target,Millville,2170,2170 000002170 00002170,2100 N 2nd St,NJ,08332-1304
Target,Abington,2173,2173 000002173 00002173,385 Centre Ave,MA,02351-2209
Target,Uniontown,2184,2184 000002184 00002184,120 Matthew Dr,PA,15401-8418
Target,Lubbock,2190,2190 000002190 00002190,6064 Marsha Sharp Freeway,TX,79407-3726
Target,Pittsburgh,2201,2201 000002201 00002201,4801 McKnight Rd Ste 3,PA,15237-3423
Target,Bryant,2204,2204 000002204 00002204,7377 Alcoa Rd,AR,72022-6204
Target,Nampa,2206,2206 000002206 00002206,16300 N Market Place Blvd,ID,83687-7910
Target,Windsor,2213,2213 000002213 00002213,1075 Kennedy Rd,CT,06095-1308
Target,McAllen,2224,2224 000002224 00002224,3600 Nolana Ave,TX,78504-4594
Target,Edgewater,2225,2225 000002225 00002225,1985 Sheridan Blvd,CO,80214-1325
Target,Triadelphia,2231,2231 000002231 00002231,300 Cabela Dr,WV,26059-1023
Target,Mission,2237,2237 000002237 00002237,2427 E Expwy 83,TX,78572-8354
Target,Port St Lucie,2248,2248 000002248 00002248,10720 SW Village Pkwy,FL,34987-2188
Target,Gibsonia,2262,2262 000002262 00002262,550 Grandview Crossing Dr,PA,15044-7105
Target,Prattville,2274,2274 000002274 00002274,2754 Legends Pkwy,AL,36066-7748
Target,Alabaster,2276,2276 000002276 00002276,250 S Colonial Dr,AL,35007-4657
Target,Temple,2278,2278 000002278 00002278,3550 S General Bruce Dr,TX,76504-5133
Target,Longview,2283,2283 000002283 00002283,3092 N Eastman Rd Ste 100,TX,75605-5093
Target,Fort Smith,2284,2284 000002284 00002284,4001 Phoenix Ave,AR,72903-6099
Target,Waynesboro,2294,2294 000002294 00002294,811 Town Center Dr,VA,22980-9262
Target,Cicero,2295,2295 000002295 00002295,8061 Brewerton Rd,NY,13039-8061
Target,Bristol,2308,2308 000002308 00002308,16600 Highlands Center Blvd,VA,24202-4301
Target,Richland,2314,2314 000002314 00002314,2941 Queensgate Dr,WA,99352-9101
Target,Augusta,2315,2315 000002315 00002315,119 Crossing Way,ME,04330-6184
Target,Muskegon,2327,2327 000002327 00002327,5057 Harvey St,MI,49444-9795
Target,Kingsport,2332,2332 000002332 00002332,2626 E Stone Dr Suite 90,TN,37660-5848
Target,Wasilla,2339,2339 000002339 00002339,1801 E Parks Hwy,AK,99654-7350
Target,Montrose,2343,2343 000002343 00002343,3530 Wolverine Dr,CO,81401-4952
Target,Akron,2346,2346 000002346 00002346,762 Arlington Rdg,OH,44312-5269
Target,Lake Geneva,2348,2348 000002348 00002348,660 N Edwards Blvd,WI,53147-4595
Target,Fultondale,2355,2355 000002355 00002355,3489 Lowery Pkwy,AL,35068-1677
Target,Cleveland,2367,2367 000002367 00002367,4570 Frontage Rd NW,TN,37312-2905
Target,Bullhead City,2368,2368 000002368 00002368,3699 Hwy 95,AZ,86442-9119
Target,Ft Myers,2369,2369 000002369 00002369,9350 Dynasty Dr,FL,33905-5574
Target,Anchorage,2371,2371 000002371 00002371,1200 N Muldoon Rd,AK,99504-6103
Target,Anchorage,2372,2372 000002372 00002372,150 W 100th Ave,AK,99515-2673
Target,Harker Heights,2374,2374 000002374 00002374,201 E Central Texas Expy,TX,76548-2747
Target,Bessemer,2375,2375 000002375 00002375,4889 Promenade Pkwy,AL,35022-7305
Target,Lafayette,2377,2377 000002377 00002377,3225 Louisiana Ave,LA,70501-1406
Target,Batavia,2382,2382 000002382 00002382,4300 Veterans Memorial Dr,NY,14020-1258
Target,Pittsburgh,2385,2385 000002385 00002385,2661 Freeport Rd,PA,15238-1441
Target,Flowery Branch,2387,2387 000002387 00002387,5865 Spout Springs Rd,GA,30542-3448
Target,Danville,2407,2407 000002407 00002407,155 Holt Garrison Pkwy,VA,24540-5947
Target,Philadelphia,2418,2418 000002418 00002418,7400 Bustleton Ave,PA,19152-4312
Target,Bryan,2428,2428 000002428 00002428,3061 Wildflower Dr,TX,77802-3060
Target,Dayville,2432,2432 000002432 00002432,2177 Killingly CMNS,CT,06241-2188
Target,Richmond,2436,2436 000002436 00002436,4521 S Laburnum Ave,VA,23231-2421
Target,Derby,2448,2448 000002448 00002448,2024 North Rock Rd,KS,67037-3752
Target,Midlothian,2478,2478 000002478 00002478,201 Perimeter Dr,VA,23113-7314
Target,Lowell,2480,2480 000002480 00002480,181 Plain St,MA,01852-5132
Target,South Lebanon,2486,2486 000002486 00002486,400 Corwin Nixon Blvd,OH,45065-1196
Target,Bethlehem,2493,2493 000002493 00002493,916 Loganville Hwy,GA,30620-2145
Target,North Las Vegas,2497,2497 000002497 00002497,7090 N 5th St,NV,89084-1333
Target,Rogers,2498,2498 000002498 00002498,2404 Promenade Blvd,AR,72758-9080
Target,Philadelphia,2527,2527 000002527 00002527,2450 Shoppers Ln,PA,19150-1526
Target,Lititz,2545,2545 000002545 00002545,960 Lititz Pike,PA,17543-9328
Target,Los Angeles,2774,2774 000002774 00002774,10861 Weyburn Ave,CA,90024-2957
Target,Crystal,3,3 000003 00003,5537 W Broadway Ave,MN,55428-3507
Target,Duluth,4,4 000004 00004,1902 Miller Trunk Hwy,MN,55811-1810
Target,Bloomington,5,5 000005 00005,2555 W 79th St,MN,55431-1250
Target,Bridgeton,12,12 0000012 000012,12275 Saint Charles Rock Rd,MO,63044-2502
Target,Dallas,13,13 0000013 000013,13131 Montfort Dr,TX,75240-5112
Target,Tulsa,19,19 0000019 000019,1701 S Yale Ave,OK,74112-6221
Target,Greenfield,24,24 0000024 000024,4777 S 27th St,WI,53221-2601
Target,Ballwin,26,26 0000026 000026,15025 Manchester Rd,MO,63011-4626
Target,Oklahoma City,43,43 0000043 000043,5400 N May Ave,OK,73112-5407
Target,Oklahoma City,44,44 0000044 000044,800 SW 44th St,OK,73109-3424
Target,Arvada,48,48 0000048 000048,7899 Wadsworth Blvd,CO,80003-2107
Target,Minneapolis,52,52 0000052 000052,2500 E Lake St,MN,55406-1909
Target,Dallas,55,55 0000055 000055,212 Medallion Shp Ctr,TX,75214-1579
Target,Fargo,61,61 0000061 000061,4202 13th Ave SW,ND,58103-3308
Target,Boulder,64,64 0000064 000064,2800 Pearl St,CO,80301-1123
Target,Plano,67,67 0000067 000067,120 W Parker Rd,TX,75075-2331
Target,Saint Paul,68,68 0000068 000068,1744 Suburban Ave,MN,55106-6619
Target,West Des Moines,69,69 0000069 000069,1800 Valley West Dr,IA,50266-1104
Target,Houston,75,75 0000075 000075,10801 Westheimer Rd,TX,77042-3201
Target,Sioux Falls,76,76 0000076 000076,3600 S Louise Ave,SD,57106-6326
Target,Alton,78,78 0000078 000078,300 Homer M Adams Pkwy,IL,62002-5928
Target,Waukesha,82,82 0000082 000082,2401 Kossow Rd,WI,53186-2904
Target,Dubuque,86,86 0000086 000086,3500 Dodge St,IA,52003-5261
Target,Memphis,90,90 0000090 000090,601 Colonial Rd,TN,38117-5132
Target,Austin,95,95 0000095 000095,8601 Research Blvd,TX,78758-7121
Target,Austin,96,96 0000096 000096,2300 W Ben White Blvd,TX,78704-7525
Target,Minnetonka,100,100 00000100 0000100,13201 Ridgedale Dr,MN,55305-1809
Target,Evansville,108,108 00000108 0000108,4000 1st Ave,IN,47710-3614
Target,Normal,137,137 00000137 0000137,301 Veterans Pkwy,IL,61761-2115
Target,New Albany,139,139 00000139 0000139,2209 State St,IN,47150-4924
Target,Nashville,146,146 00000146 0000146,26 White Bridge Rd,TN,37205-1411
Target,Englewood,147,147 00000147 0000147,6767 S Clinton St,CO,80112-3617
Target,San Antonio,176,176 00000176 0000176,13700 San Pedro Ave,TX,78232-4332
Target,Tucson,179,179 00000179 0000179,5255 E Broadway Blvd,AZ,85711-3702
Target,Pacoima,183,183 00000183 0000183,9725 Laurel Canyon Blvd,CA,91331-4100
Target,Alhambra,184,184 00000184 0000184,2120 W Main St,CA,91801-1856
Target,San Bernardino,188,188 00000188 0000188,499 W Orange Show Rd,CA,92408-2029
Target,Los Angeles,189,189 00000189 0000189,5600 Whittier Blvd,CA,90022-4106
Target,South Gate,190,190 00000190 0000190,5700 Firestone Blvd,CA,90280-3704
Target,Garden Grove,192,192 00000192 0000192,12100 Harbor Blvd,CA,92840-4004
Target,Garden Grove,193,193 00000193 0000193,13831 Brookhurst St,CA,92843-3120
Target,Long Beach,195,195 00000195 0000195,2270 N Bellflower Blvd,CA,90815-2017
Target,Culver City,198,198 00000198 0000198,10820 Jefferson Blvd,CA,90230-4935
Target,Manhattan Beach,199,199 00000199 0000199,1200 N Sepulveda Blvd,CA,90266-5104
Target,Torrance,200,200 00000200 0000200,3433 Sepulveda Blvd,CA,90505-2606
Target,San Diego,201,201 00000201 0000201,3245 Sports Arena Blvd,CA,92110-4529
Target,Chula Vista,203,203 00000203 0000203,1240 Broadway,CA,91911-2911
Target,San Diego,205,205 00000205 0000205,8001 Othello Ave,CA,92111-3713
Target,Riverside,212,212 00000212 0000212,3520 Tyler St,CA,92503-4175
Target,Saint Cloud,215,215 00000215 0000215,4201 W Division St,MN,56301-6601
Target,Lincoln,217,217 00000217 0000217,333 N 48th St,NE,68504-3505
Target,Eden Prairie,220,220 00000220 0000220,8225 Flying Cloud Dr,MN,55344-5315
Target,Rowland Heights,222,222 00000222 0000222,17751 Colima Rd,CA,91748-1714
Target,Milwaukee,223,223 00000223 0000223,2950 S Chase Ave,WI,53207-6407
Target,La Verne,226,226 00000226 0000226,2462 Foothill Blvd,CA,91750-3056
Target,Santa Fe Springs,227,227 00000227 0000227,10621 Carmenita Rd,CA,90670-4017
Target,West Hills,228,228 00000228 0000228,6635 Fallbrook Ave,CA,91307-3520
Target,Cypress,229,229 00000229 0000229,6835 Katella Ave,CA,90630-5107
Target,Orange,230,230 00000230 0000230,2191 N Tustin St,CA,92865-3701
Target,Phoenix,233,233 00000233 0000233,12602 N Paradise Village Pkwy W,AZ,85032-7671
Target,Appleton,238,238 00000238 0000238,4301 W Wisconsin Ave,WI,54913-8605
Target,Columbia,239,239 00000239 0000239,2400 Bernadette Dr,MO,65203-4616
Target,Brooklyn Center,240,240 00000240 0000240,6100 Shingle Creek Pkwy,MN,55430-2110
Target,Lancaster,245,245 00000245 0000245,43525 10th St W,CA,93534-6091
Target,Simi Valley,246,246 00000246 0000246,2907 Cochran St,CA,93065-2773
Target,Westminster,249,249 00000249 0000249,16400 Beach Blvd,CA,92683-7858
Target,Santa Ana,250,250 00000250 0000250,3300 S Bristol St,CA,92704-7246
Target,Mesa,251,251 00000251 0000251,1135 S Gilbert Rd,AZ,85204-5205
Target,Irving,255,255 00000255 0000255,3333 W Airport Fwy,TX,75062-5921
Target,Aurora,256,256 00000256 0000256,16910 E Quincy Ave,CO,80015-2745
Target,Valencia,257,257 00000257 0000257,24425 Magic Mountain Pkwy,CA,91355-3403
Target,Chino,258,258 00000258 0000258,5555 Philadelphia St,CA,91710-2481
Target,St Louis Park,260,260 00000260 0000260,3601 Highway 100 S,MN,55416-2500
Target,Las Vegas,265,265 00000265 0000265,4001 S Maryland Pkwy,NV,89119-7556
Target,Highlands Ranch,271,271 00000271 0000271,1950 E County Line Rd,CO,80126-2437
Target,Modesto,273,273 00000273 0000273,3405 Mchenry Ave,CA,95350-1445
Target,Escondido,274,274 00000274 0000274,1280 Auto Park Way,CA,92029-2231
Target,Fresno,275,275 00000275 0000275,3150 W Shaw Ave,CA,93711-3215
Target,Shelby Township,278,278 00000278 0000278,13221 Hall Rd,MI,48315-5834
Target,Taylor,280,280 00000280 0000280,14099 Pardee Rd,MI,48180-4792
Target,Westland,281,281 00000281 0000281,35401 Warren Rd,MI,48185-6590
Target,Madison Heights,282,282 00000282 0000282,32001 John R Rd,MI,48071-1322
Target,Santa Ana,286,286 00000286 0000286,1330 E 17th St,CA,92705-8500
Target,Woodland Hills,288,288 00000288 0000288,20801 Ventura Blvd,CA,91364-2319
Target,Cerritos,289,289 00000289 0000289,20200 Bloomfield Ave,CA,90703-7821
Target,Gardena,290,290 00000290 0000290,2169 W Redondo Beach Blvd,CA,90247-3625
Target,Riverside,291,291 00000291 0000291,3333 Arlington Ave,CA,92506-3252
Target,Fullerton,293,293 00000293 0000293,2920 Yorba Linda Blvd,CA,92831-1523
Target,North Hollywood,294,294 00000294 0000294,11051 Victory Blvd,CA,91606-3719
Target,Poway,296,296 00000296 0000296,14823 Pomerado Rd,CA,92064-2803
Target,Ventura,298,298 00000298 0000298,4200 E Main St,CA,93003-5230
Target,Northridge,299,299 00000299 0000299,8840 Corbin Ave,CA,91324-3309
Target,Mission Viejo,300,300 00000300 0000300,24500 Alicia Pkwy,CA,92691-4508
Target,Rancho Cucamonga,301,301 00000301 0000301,10576 Foothill Blvd,CA,91730-3890
Target,Duarte,302,302 00000302 0000302,1050 Huntington Dr,CA,91010-2475
Target,Oceanside,303,303 00000303 0000303,2255 S El Camino Real,CA,92054-6318
Target,El Cajon,304,304 00000304 0000304,250 Broadway,CA,92021-4539
Target,San Diego,305,305 00000305 0000305,8251 Mira Mesa Blvd,CA,92126-2603
Target,Cathedral City,307,307 00000307 0000307,67750 E Palm Canyon Dr,CA,92234-5441
Target,Santa Maria,309,309 00000309 0000309,223 E Betteravia Rd,CA,93454-7803
Target,Sacramento,310,310 00000310 0000310,2505 Riverside Blvd,CA,95818-2234
Target,Sacramento,311,311 00000311 0000311,5001 Madison Ave,CA,95841-2604
Target,Sacramento,312,312 00000312 0000312,1919 Fulton Ave,CA,95825-1905
Target,Stockton,313,313 00000313 0000313,4707 Pacific Ave,CA,95207-6301
Target,Fresno,314,314 00000314 0000314,3173 E Shields Ave,CA,93726-6902
Target,Chico,317,317 00000317 0000317,1951 E 20th St,CA,95928-6300
Target,Yuba City,318,318 00000318 0000318,1153 Butte House Rd,CA,95991-3102
Target,Tempe,319,319 00000319 0000319,1818 E Baseline Rd,AZ,85283-1502
Target,Colma,320,320 00000320 0000320,5001 Junipero Serra Blvd,CA,94014-3217
Target,Redwood City,321,321 00000321 0000321,2485 El Camino Real,CA,94063-2849
Target,Cupertino,323,323 00000323 0000323,20745 Stevens Creek Blvd,CA,95014-2123
Target,San Jose,324,324 00000324 0000324,1811 Hillsdale Ave,CA,95124-3027
Target,Dublin,328,328 00000328 0000328,7200 Amador Plaza Rd,CA,94568-2320
Target,Pleasant Hill,330,330 00000330 0000330,560 Contra Costa Blvd,CA,94523-1216
Target,Vallejo,331,331 00000331 0000331,904 Admiral Callaghan Lane,CA,94591-3680
Target,Corpus Christi,335,335 00000335 0000335,5425 S Padre Island Dr,TX,78411-5301
Target,Irvine,336,336 00000336 0000336,3750 Barranca Pkwy,CA,92606-8200
Target,Everett,337,337 00000337 0000337,405 SE Everett Mall Way,WA,98208-3243
Target,Lynnwood,338,338 00000338 0000338,18305 Alderwood Mall Pkwy,WA,98037-3961
Target,Bellevue,339,339 00000339 0000339,4053 Factoria Square Mall SE,WA,98006-1286
Target,Tacoma,341,341 00000341 0000341,3320 S 23rd St,WA,98405-1603
Target,Puyallup,342,342 00000342 0000342,3310 S Meridian,WA,98373-3777
Target,Vancouver,343,343 00000343 0000343,7809C NE Vancouver Plaza Dr,WA,98662-6624
Target,Beaverton,344,344 00000344 0000344,10775 SW Beaverton Hillsdale Hwy,OR,97005-3001
Target,Tigard,345,345 00000345 0000345,9009 SW Hall Blvd,OR,97223-4432
Target,Clackamas,346,346 00000346 0000346,9000 SE Sunnyside Rd,OR,97015-9758
Target,Bellingham,348,348 00000348 0000348,30 Bellis Fair Pkwy,WA,98226-5573
Target,Lakewood,349,349 00000349 0000349,5618 Lakewood Town Center Blvd SW,WA,98499-3894
Target,Rochester Hills,351,351 00000351 0000351,2887 S Rochester Rd,MI,48307-4580
Target,Dearborn Heights,353,353 00000353 0000353,26650 Ford Rd,MI,48127-2841
Target,Canton,354,354 00000354 0000354,43670 Ford Rd,MI,48187-3101
Target,Topeka,355,355 00000355 0000355,2120 SW Wanamaker Rd,KS,66614-5231
Target,Albuquerque,356,356 00000356 0000356,8510 Montgomery Blvd NE,NM,87111-2307
Target,Albuquerque,357,357 00000357 0000357,11120 Lomas Blvd NE,NM,87112-5582
Target,Clovis,358,358 00000358 0000358,900 Shaw Ave,CA,93612-3900
Target,Temecula,359,359 00000359 0000359,29676 Rancho California Rd,CA,92591-5283
Target,Eagan,360,360 00000360 0000360,2000 Cliff Lake Rd,MN,55122-2400
Target,Lansing,361,361 00000361 0000361,500 E Edgewood Blvd,MI,48911-5901
Target,Hillsboro,362,362 00000362 0000362,2295 SE Tualatin Valley Hwy,OR,97123-7915
Target,Scottsdale,363,363 00000363 0000363,9000 E Indian Bend Rd,AZ,85250-8502
Target,Schofield,364,364 00000364 0000364,2707 Schofield Ave,WI,54476-2430
Target,Okemos,365,365 00000365 0000365,4890 Marsh Rd,MI,48864-1123
Target,Lexington,366,366 00000366 0000366,131 West Reynolds Rd,KY,40503-3599
Target,Smyrna,373,373 00000373 0000373,2201 Cobb Pkwy SE,GA,30080-7633
Target,Walker,397,397 00000397 0000397,3248 Alpine Ave NW,MI,49544-1655
Target,Omaha,530,530 00000530 0000530,4001 N 132nd St,NE,68164-1839
Target,Lawrence,531,531 00000531 0000531,3201 S Iowa St,KS,66046-5205
Target,Papillion,532,532 00000532 0000532,718 N Washington St,NE,68046-3910
Target,Davenport,533,533 00000533 0000533,5225 Elmore Ave,IA,52807-3454
Target,Portage,604,604 00000604 0000604,6839 S Westnedge Ave,MI,49002-3582
Target,Sterling Heights,605,605 00000605 0000605,35700 Van Dyke Ave,MI,48312-3564
Target,Silverdale,606,606 00000606 0000606,3201 NW Randall Way,WA,98383-7952
Target,Olympia,607,607 00000607 0000607,2925 Harrison Ave NW,WA,98502-2566
Target,Salem,608,608 00000608 0000608,3790 Center St NE,OR,97301-2905
Target,Albany,609,609 00000609 0000609,2255 14th Ave SE,OR,97322-8513
Target,Farmington Hills,611,611 00000611 0000611,30020 Grand River Ave,MI,48336-4722
Target,Springfield,612,612 00000612 0000612,2750 Gateway St,OR,97477-1172
Target,Medford,613,613 00000613 0000613,2000 Crater Lake Hwy,OR,97504-4161
Target,Bakersfield,614,614 00000614 0000614,3401 Mall View Rd,CA,93306-3060
Target,Redding,615,615 00000615 0000615,1280 Dana Dr,CA,96003-4038
Target,Lansing,616,616 00000616 0000616,5609 W Saginaw Hwy,MI,48917-2456
Target,Shoreview,619,619 00000619 0000619,3800 Lexington Ave N,MN,55126-2916
Target,Onalaska,620,620 00000620 0000620,9400 State Road 16,WI,54650-8540
Target,Albuquerque,625,625 00000625 0000625,9371 Coors Blvd NW,NM,87114-4005
Target,San Jose,626,626 00000626 0000626,2155 Morrill Ave,CA,95132-1130
Target,Tukwila,627,627 00000627 0000627,301 Strander Blvd,WA,98188-2971
Target,Spokane,636,636 00000636 0000636,9770 N Newport Hwy,WA,99218-1249
Target,Seattle,637,637 00000637 0000637,2800 SW Barton St,WA,98126-3975
Target,Boca Raton,638,638 00000638 0000638,21637 State Road 7,FL,33428-1843
Target,Mesa,639,639 00000639 0000639,1525 S Power Rd,AZ,85206-3707
Target,Merced,641,641 00000641 0000641,3280 R St,CA,95348-1954
Target,Delray Beach,642,642 00000642 0000642,1200 Linton Blvd,FL,33444-1115
Target,Apple Valley,643,643 00000643 0000643,15150 Cedar Ave,MN,55124-7056
Target,Jacksonville,645,645 00000645 0000645,444 Monument Rd,FL,32225-6429
Target,Altamonte Springs,647,647 00000647 0000647,886 W State Road 436,FL,32714-3006
Target,Orlando,649,649 00000649 0000649,718 Maguire Blvd,FL,32803-3706
Target,Palm Harbor,652,652 00000652 0000652,900 E Lake Rd,FL,34685-2430
Target,Largo,654,654 00000654 0000654,10500 Ulmerton Rd,FL,33771-3544
Target,Tampa,655,655 00000655 0000655,15240 N Dale Mabry Hwy,FL,33618-1809
Target,Tampa,656,656 00000656 0000656,13658 University Plaza St,FL,33613-4649
Target,Bemidji,657,657 00000657 0000657,2100 Paul Bunyan Dr NW,MN,56601-5645
Target,Moorhead,658,658 00000658 0000658,3301 Highway 10 E,MN,56560-2516
Target,Baxter,659,659 00000659 0000659,14546 Dellwood Dr N,MN,56425-9744
Target,Fontana,660,660 00000660 0000660,16964 Slover Ave,CA,92337-7556
Target,Cottage Grove,662,662 00000662 0000662,8655 E Point Douglas Rd S,MN,55016-4035
Target,Mankato,663,663 00000663 0000663,1850 Adams St,MN,56001-4864
Target,Plymouth,664,664 00000664 0000664,4175 Vinewood Ln N,MN,55442-2624
Target,Dublin,666,666 00000666 0000666,6000 Sawmill Rd,OH,43017-1626
Target,Jacksonville,669,669 00000669 0000669,9041 Southside Blvd,FL,32256-5484
Target,Springfield,670,670 00000670 0000670,3445 Freedom Dr,IL,62704-6517
Target,Traverse City,671,671 00000671 0000671,3130 S Airport Rd W,MI,49684-8995
Target,Midland,672,672 00000672 0000672,6820 Eastman Ave,MI,48642-7805
Target,Jackson,673,673 00000673 0000673,1076 Jackson Xing,MI,49202-2039
Target,Marion,674,674 00000674 0000674,3000 W Deyoung St,IL,62959-5553
Target,Fairfield,675,675 00000675 0000675,2059 Cadenasso Dr,CA,94533-6806
Target,Salinas,676,676 00000676 0000676,1640 N Main St,CA,93906-5102
Target,Anaheim,677,677 00000677 0000677,8148 E Santa Ana Canyon Rd,CA,92808-1105
Target,Coeur dAlene,679,679 00000679 0000679,315 W Canfield Ave,ID,83815-7750
Target,Henderson,680,680 00000680 0000680,605 N Stephanie St,NV,89014-2612
Target,Kent,681,681 00000681 0000681,26301 104th Ave SE,WA,98030-7649
Target,Germantown,682,682 00000682 0000682,9235 Poplar Ave,TN,38138-7903
Target,The Woodlands,684,684 00000684 0000684,1100 Lake Woodlands Dr,TX,77380-3221
Target,Palmdale,685,685 00000685 0000685,39440 10th St W,CA,93551-3747
Target,Pensacola,686,686 00000686 0000686,4711 Bayou Blvd,FL,32503-2607
Target,Gainesville,687,687 00000687 0000687,3970 SW Archer Rd,FL,32608-2342
Target,Novato,692,692 00000692 0000692,200 Vintage Way,CA,94945-5005
Target,Brooklyn Park,693,693 00000693 0000693,7535 W Broadway Ave,MN,55428-1287
Target,Woodbury,694,694 00000694 0000694,7200 Valley Creek Plz,MN,55125-2265
Target,Franklin,695,695 00000695 0000695,1701 Galleria Blvd,TN,37067-1602
Target,Burlington,696,696 00000696 0000696,199 Cascade Mall Dr,WA,98233-3251
Target,Oro Valley,700,700 00000700 0000700,10555 N Oracle Rd,AZ,85737-9353
Target,Highland,731,731 00000731 0000731,10451 Indianapolis Blvd,IN,46322-3511
Target,Cicero,732,732 00000732 0000732,2901 S Cicero Ave,IL,60804-3637
Target,Edwardsville,733,733 00000733 0000733,2350 Troy Rd,IL,62025-2584
Target,Albany,734,734 00000734 0000734,2721 Dawson Rd,GA,31707-1672
Target,Sierra Vista,735,735 00000735 0000735,4151 E Highway 90,AZ,85635-2425
Target,Norco,736,736 00000736 0000736,1290 Hamner Ave,CA,92860-3117
Target,Pinole,737,737 00000737 0000737,1400 Fitzgerald Dr,CA,94564-2250
Target,Tracy,738,738 00000738 0000738,2800 Naglee Rd,CA,95304-7307
Target,Mary Esther,740,740 00000740 0000740,250 E Miracle Strip Pkwy,FL,32569-1924
Target,Miami,746,746 00000746 0000746,15005 SW 88th St,FL,33196-1314
Target,Duluth,749,749 00000749 0000749,5950 State Bridge Rd,GA,30097-6438
Target,Valdosta,750,750 00000750 0000750,1815 Norman Dr,GA,31601-3502
Target,Vadnais Heights,751,751 00000751 0000751,975 County Road E,MN,55127-7114
Target,Palatine,753,753 00000753 0000753,679 E Dundee Rd,IL,60074-2817
Target,Jackson,754,754 00000754 0000754,6365 I 55 N,MS,39213-9742
Target,Fayetteville,755,755 00000755 0000755,2056 Skibo Rd,NC,28314-2245
Target,Fort Worth,758,758 00000758 0000758,8550 East Fwy,TX,76120-4414
Target,Woodbridge,759,759 00000759 0000759,2460 Prince William Pkwy,VA,22192-4148
Target,Yakima,760,760 00000760 0000760,12 N Fair Ave,WA,98901-4520
Target,Hemet,761,761 00000761 0000761,3527 W Florida Ave,CA,92545-3564
Target,Charlotte,762,762 00000762 0000762,9531 South Blvd,NC,28273-6901
Target,Bend,766,766 00000766 0000766,63435 N Highway 97,OR,97701-7802
Target,San Dimas,767,767 00000767 0000767,888 W Arrow Hwy,CA,91773-2495
Target,Las Cruces,769,769 00000769 0000769,2541 E Lohman Ave Ste A,NM,88011-8233
Target,San Antonio,771,771 00000771 0000771,2810 SW Military Dr,TX,78224-1032
Target,Fredericksburg,772,772 00000772 0000772,1180 Carl D Silver Pkwy,VA,22401-4913
Target,Joplin,774,774 00000774 0000774,3151 E 7th St,MO,64801-5581
Target,Harper Woods,776,776 00000776 0000776,18000 Vernier Rd,MI,48225-1046
Target,Southfield,777,777 00000777 0000777,21400 Northwestern Hwy,MI,48075-5006
Target,Louisville,780,780 00000780 0000780,4640 Taylorsville Rd,KY,40220-3530
Target,Parma,792,792 00000792 0000792,6850 Ridge Rd,OH,44129-5627
Target,Tampa,798,798 00000798 0000798,6295 W Waters Ave,FL,33634-1100
Target,Sarasota,799,799 00000799 0000799,5350 Fruitville Rd,FL,34232-6401
Target,Mason City,804,804 00000804 0000804,3450 4th St SW,IA,50401-1572
Target,Oshkosh,807,807 00000807 0000807,1900 S Koeller St,WI,54902-6153
Target,Janesville,809,809 00000809 0000809,2017 Humes Rd,WI,53545-0204
Target,Rockford,810,810 00000810 0000810,6560 E State St,IL,61108-2545
Target,Panama City,811,811 00000811 0000811,2340 Highway 77,FL,32405-4404
Target,Brandon,812,812 00000812 0000812,187 Brandon Town Center Dr,FL,33511-4754
Target,Sunrise,815,815 00000815 0000815,12801 W Sunrise Blvd,FL,33323-4020
Target,Stuart,816,816 00000816 0000816,2650 NW Federal Hwy,FL,34994-9318
Target,Fort Myers,818,818 00000818 0000818,13711 S Tamiami Trl,FL,33912-1649
Target,Clinton Township,819,819 00000819 0000819,33860 S Gratiot Ave,MI,48035-6115
Target,Coon Rapids,820,820 00000820 0000820,8600 Springbrook Dr NW,MN,55433-6033
Target,Alexandria,821,821 00000821 0000821,4404 Highway 29 S,MN,56308-2915
Target,El Paso,822,822 00000822 0000822,801 Sunland Park Dr,TX,79912-5209
Target,El Paso,823,823 00000823 0000823,1901 George Dieter Dr,TX,79936-3855
Target,Peoria,825,825 00000825 0000825,8055 W Bell Rd,AZ,85382-3806
Target,Las Vegas,826,826 00000826 0000826,3210 N Tenaya Way,NV,89129-6239
Target,Vacaville,827,827 00000827 0000827,3000 Harbison Dr,CA,95687-3909
Target,Kennewick,830,830 00000830 0000830,1106 N Columbia Center Blvd,WA,99336-1161
Target,Vernon Hills,833,833 00000833 0000833,313 E Townline Rd,IL,60061-1555
Target,Schaumburg,835,835 00000835 0000835,2621 W Schaumburg Rd,IL,60194-3894
Target,Glendale Heights,836,836 00000836 0000836,175 W Army Trail Rd,IL,60139-1971
Target,Melrose Park,837,837 00000837 0000837,850 W North Ave,IL,60160-1611
Target,Wheaton,838,838 00000838 0000838,601 S County Farm Rd,IL,60187-4529
Target,Batavia,839,839 00000839 0000839,115 N Randall Rd,IL,60510-9209
Target,Naperville,840,840 00000840 0000840,1951 W Jefferson Ave,IL,60540-3914
Target,Chicago,841,841 00000841 0000841,7100 S Cicero Ave,IL,60629-5813
Target,Orland Park,842,842 00000842 0000842,15850 S 94th Ave,IL,60462-4725
Target,Hodgkins,843,843 00000843 0000843,9250 Joliet Rd,IL,60525-4162
Target,Tallahassee,844,844 00000844 0000844,2120 Apalachee Pkwy,FL,32301-4819
Target,Lake Mary,845,845 00000845 0000845,4155 W Lake Mary Blvd,FL,32746-2410
Target,Calumet City,846,846 00000846 0000846,1717 E West Rd,IL,60409-5414
Target,Virginia,847,847 00000847 0000847,1001 13th St S,MN,55792-3254
Target,El Paso,849,849 00000849 0000849,6001 W Gateway Blvd,TX,79925-3416
Target,Tucson,854,854 00000854 0000854,3901 W Ina Rd,AZ,85741-2206
Target,Tucson,855,855 00000855 0000855,6500 E Grant Rd,AZ,85715-3801
Target,Kearney,857,857 00000857 0000857,4800 3rd Ave,NE,68845-2892
Target,Houston,858,858 00000858 0000858,13250 Northwest Fwy,TX,77040-6003
Target,Buffalo,861,861 00000861 0000861,1300 State Highway 55 NE,MN,55313-4321
Target,Chanhassen,862,862 00000862 0000862,851 W 78th St,MN,55317-9579
Target,Menomonee Falls,863,863 00000863 0000863,N95 W 17707 Shady Ln,WI,53051-8012
Target,Delafield,864,864 00000864 0000864,2553 Sun Valley Dr,WI,53018-2333
Target,Gurnee,865,865 00000865 0000865,6601 Grand Ave,IL,60031-4591
Target,Woodridge,866,866 00000866 0000866,2333 63rd St,IL,60517-1300
Target,Bolingbrook,867,867 00000867 0000867,1188 W Boughton Rd,IL,60440-1508
Target,Crestwood,868,868 00000868 0000868,5071 Cal Sag Rd,IL,60445-1458
Target,Merrillville,870,870 00000870 0000870,2661 E US Highway 30,IN,46410-5898
Target,Peoria,871,871 00000871 0000871,5001 N Big Hollow Rd,IL,61615-3538
Target,Livonia,872,872 00000872 0000872,20100 Haggerty Rd,MI,48152-1087
Target,Ocala,873,873 00000873 0000873,2000 SW College Rd,FL,34471-3020
Target,Orange City,874,874 00000874 0000874,2575 Enterprise Rd,FL,32763-7960
Target,Dallas,875,875 00000875 0000875,2417 N Haskell Ave,TX,75204-3707
Target,Grapevine,876,876 00000876 0000876,1101 Ira E Woods Ave,TX,76051-4020
Target,Hollywood,877,877 00000877 0000877,300 Hollywood Mall,FL,33021-6904
Target,Fort Dodge,878,878 00000878 0000878,2910 1st Ave S,IA,50501-2972
Target,Lincoln,879,879 00000879 0000879,5330 S 56th St,NE,68516-1833
Target,Schaumburg,880,880 00000880 0000880,1235 E Higgins Rd,IL,60173-4939
Target,Indianapolis,881,881 00000881 0000881,6925 W 38th St,IN,46254-3905
Target,Lake Jackson,882,882 00000882 0000882,202 Highway 332 W,TX,77566-4013
Target,Baytown,887,887 00000887 0000887,4510 Garth Rd,TX,77521-2124
Target,Wood Dale,893,893 00000893 0000893,401 W Irving Park Rd,IL,60191-1338
Target,Joliet,894,894 00000894 0000894,2701 Plainfield Rd,IL,60435-1166
Target,Bourbonnais,895,895 00000895 0000895,1615 N State Route 50,IL,60914-9303
Target,Walled Lake,896,896 00000896 0000896,495 Haggerty Hwy,MI,48390-3936
Target,Oviedo,897,897 00000897 0000897,820 Oviedo Mall Blvd,FL,32765-9348
Target,Casselberry,898,898 00000898 0000898,4410 S Highway 17 92,FL,32707-3290
Target,Naples,899,899 00000899 0000899,2324 Pine Ridge Rd,FL,34109-2006
Target,Kalamazoo,901,901 00000901 0000901,5350 W Main St,MI,49009-3304
Target,Houston,907,907 00000907 0000907,19955 Katy Fwy,TX,77094-1019
Target,Phoenix,909,909 00000909 0000909,4734 E Ray Rd,AZ,85044-6225
Target,Beaverton,910,910 00000910 0000910,18101 NW Evergreen Pkwy,OR,97006-7439
Target,Snellville,917,917 00000917 0000917,1905 Scenic Hwy N,GA,30078-5633
Target,Matthews,918,918 00000918 0000918,1900 Matthews Township Pkwy,NC,28105-4660
Target,Spring Hill,919,919 00000919 0000919,4401 Commercial Way,FL,34606-1914
Target,Pembroke Pines,920,920 00000920 0000920,11253 Pines Blvd,FL,33026-4118
Target,Brighton,922,922 00000922 0000922,8043 Challis Rd,MI,48116-7446
Target,Woodhaven,923,923 00000923 0000923,23555 Allen Rd,MI,48183-3381
Target,Mount Pleasant,924,924 00000924 0000924,4097 E Blue Grass Rd,MI,48858-7997
Target,Moline,926,926 00000926 0000926,900 42nd Avenue Dr,IL,61265-6871
Target,Evanston,927,927 00000927 0000927,2209 Howard St,IL,60202-3636
Target,Niles,928,928 00000928 0000928,6150 W Touhy Ave,IL,60714-4621
Target,Saint Cloud,930,930 00000930 0000930,125 Lincoln Ave SE,MN,56304-0823
Target,Stillwater,931,931 00000931 0000931,2021 Market Dr,MN,55082-7546
Target,Flagstaff,935,935 00000935 0000935,1650 S Milton Rd,AZ,86001-0802
Target,Scottsdale,936,936 00000936 0000936,15444 N Frank Lloyd Wright Blvd,AZ,85260-2845
Target,Chicago,942,942 00000942 0000942,2656 N Elston Ave,IL,60647-2019
Target,Champaign,943,943 00000943 0000943,2102 N Prospect Ave,IL,61822-1231
Target,Chesterfield,945,945 00000945 0000945,51400 Gratiot Ave,MI,48051-2007
Target,Dallas,947,947 00000947 0000947,9440 Marsh Ln,TX,75220-4924
Target,Phoenix,950,950 00000950 0000950,4515 E Thomas Rd,AZ,85018-7614
Target,Farmington,952,952 00000952 0000952,4900 E Main St,NM,87402-8658
Target,Houston,955,955 00000955 0000955,4323 San Felipe St,TX,77027-3406
Target,Villa Park,957,957 00000957 0000957,50 E North Ave,IL,60181-1244
Target,Cary,961,961 00000961 0000961,2021 Walnut St,NC,27518-9205
Target,Myrtle Beach,963,963 00000963 0000963,1150 Seaboard St,SC,29577-6517
Target,Huntersville,966,966 00000966 0000966,9801 Sam Furr Rd,NC,28078-8219
Target,Jacksonville Beach,967,967 00000967 0000967,490 Marsh Landing Pkwy,FL,32250-5855
Target,Miami,968,968 00000968 0000968,7795 SW 40th St,FL,33155-3546
Target,Alpharetta,970,970 00000970 0000970,6000 N Point Pkwy,GA,30022-3006
Target,Kennesaw,981,981 00000981 0000981,740 Ernest W Barrett Pkwy NW,GA,30144-6860
Target,Medina,984,984 00000984 0000984,1015 N Court St,OH,44256-1582
Target,Strongsville,985,985 00000985 0000985,18200 Royalton Rd,OH,44136-5181
Target,Heath,989,989 00000989 0000989,270 Airport Pkwy,OH,43056-1278
Target,Houston,993,993 00000993 0000993,6955 Highway 6 N,TX,77084-1313
Target,Redmond,995,995 00000995 0000995,17700 NE 76th St,WA,98052-3300
Target,Issaquah,996,996 00000996 0000996,755 NW Gilman Blvd,WA,98027-5357
Target,Nottingham,1001,1001 000001001 00001001,5230 Campbell Blvd,MD,21236-4983
Target,Bel Air,1002,1002 000001002 00001002,580 Marketplace Dr,MD,21014-4310
Target,Glen Burnie,1003,1003 000001003 00001003,7951 Nolpark Ct,MD,21061-5205
Target,Bowie,1004,1004 000001004 00001004,4600 Mitchellville Rd,MD,20716-3110
Target,Fairfax,1005,1005 000001005 00001005,10301 New Guinea Rd,VA,22032-3268
Target,Upper Marlboro,1006,1006 000001006 00001006,10500 Campus Way S,MD,20774-1309
Target,Laurel,1007,1007 000001007 00001007,3343 Corridor Marketplace,MD,20724-2378
Target,Waldorf,1008,1008 000001008 00001008,3300 Western Pkwy,MD,20603-4582
Target,Sterling,1009,1009 000001009 00001009,46201 Potomac Run Plz,VA,20164-6609
Target,Amherst,1010,1010 000001010 00001010,1575 Niagara Falls Blvd,NY,14228-2704
Target,Williamsville,1011,1011 000001011 00001011,8290 Transit Rd,NY,14221-2820
Target,Niagara Falls,1012,1012 000001012 00001012,7414 Niagara Falls Blvd,NY,14304-1720
Target,Buffalo,1013,1013 000001013 00001013,2626 Delaware Ave,NY,14216-1737
Target,Cheektowaga,1014,1014 000001014 00001014,1750 Walden Ave,NY,14225-4925
Target,Colonial Heights,1016,1016 000001016 00001016,721 Southpark Blvd,VA,23834-3605
Target,Chester,1017,1017 000001017 00001017,2530 Weir Rd,VA,23831-5350
Target,Richmond,1018,1018 000001018 00001018,5401 W Broad St,VA,23230-2629
Target,Chesapeake,1021,1021 000001021 00001021,1316 Greenbrier Pkwy,VA,23320-0605
Target,Saint Petersburg,1023,1023 000001023 00001023,4450 Park St N,FL,33709-4020
Target,Lombard,1024,1024 000001024 00001024,60 Yorktown Shopping Ctr,IL,60148-5529
Target,Elk Grove,1025,1025 000001025 00001025,7505 Laguna Blvd,CA,95758-5061
Target,Napa,1026,1026 000001026 00001026,205 Soscol Ave,CA,94559-4007
Target,Camarillo,1027,1027 000001027 00001027,209 W Ventura Blvd,CA,93010-8359
Target,West Covina,1028,1028 000001028 00001028,2831 E Eastland Ctr Dr,CA,91791-1624
Target,Encinitas,1029,1029 000001029 00001029,1010 N El Camino Real,CA,92024-1320
Target,Memphis,1030,1030 000001030 00001030,7989 US Highway 64,TN,38133-4007
Target,Springfield,1031,1031 000001031 00001031,1825 E Primrose St,MO,65804-6497
Target,Irving,1032,1032 000001032 00001032,7845 N Macarthur Blvd,TX,75063-7516
Target,Baldwin Park,1033,1033 000001033 00001033,3100 Baldwin Park Blvd,CA,91706-4703
Target,Santa Fe,1034,1034 000001034 00001034,3550 Zafarano Dr,NM,87507-2606
Target,Saint Peters,1035,1035 000001035 00001035,6241 Mid Rivers Mall Dr,MO,63304-1102
Target,Lake Zurich,1036,1036 000001036 00001036,555 S Rand Rd,IL,60047-2356
Target,Springdale,1037,1037 000001037 00001037,900 E Kemper Rd,OH,45246-2518
Target,North Miami Beach,1038,1038 000001038 00001038,14075 Biscayne Blvd,FL,33181-1629
Target,Miami,1039,1039 000001039 00001039,8350 S Dixie Hwy,FL,33143-7714
Target,Vista,1040,1040 000001040 00001040,1751 University Dr,CA,92083-7775
Target,Ellicott City,1042,1042 000001042 00001042,4390 Montgomery Rd,MD,21043-6068
Target,Aberdeen,1043,1043 000001043 00001043,1025 Middleton Rd,MD,21001-2263
Target,Columbia,1044,1044 000001044 00001044,6111 Dobbin Rd,MD,21045-5802
Target,Owings Mills,1045,1045 000001045 00001045,11200 Reisterstown Rd,MD,21117-1903
Target,Germantown,1046,1046 000001046 00001046,20908 Frederick Rd,MD,20876-4134
Target,Virginia Beach,1047,1047 000001047 00001047,525 First Colonial Rd,VA,23451-6119
Target,Norfolk,1048,1048 000001048 00001048,1245 N Military Hwy,VA,23502-2228
Target,Glen Allen,1049,1049 000001049 00001049,11290 W Broad St,VA,23060-5815
Target,Vero Beach,1050,1050 000001050 00001050,5800 20th St,FL,32966-1017
Target,Tampa,1051,1051 000001051 00001051,3625 W Gandy Blvd,FL,33611-2607
Target,Wyoming,1052,1052 000001052 00001052,5455 Clyde Park Ave SW,MI,49509-9722
Target,Merritt Island,1053,1053 000001053 00001053,250 Crockett Blvd,FL,32953-4395
Target,San Bruno,1054,1054 000001054 00001054,1150 El Camino Real,CA,94066-2420
Target,Edison,1055,1055 000001055 00001055,100 Parsonage Rd,NJ,08837-2424
Target,Vestal,1056,1056 000001056 00001056,3112 Vestal Pkwy E,NY,13850-2038
Target,Orchard Park,1057,1057 000001057 00001057,5622 Amanda Ln,NY,14127-1555
Target,Columbus,1058,1058 000001058 00001058,1717 Olentangy River Rd,OH,43212-1452
Target,Nashville,1059,1059 000001059 00001059,3171 Lebanon Pike,TN,37214-2314
Target,Madison,1060,1060 000001060 00001060,201 Junction Rd,WI,53717-2615
Target,Austin,1061,1061 000001061 00001061,5300 S Mo Pac Expy,TX,78749-1112
Target,Sand City,1062,1062 000001062 00001062,2040 California Ave,CA,93955-3150
Target,Carmel,1063,1063 000001063 00001063,1600 E 151st Street,IN,46032-1399
Target,Rockwall,1065,1065 000001065 00001065,850 Steger Towne Rd,TX,75032-5658
Target,Round Rock,1066,1066 000001066 00001066,121 Louis Henna Blvd,TX,78664-7307
Target,Madison,1069,1069 000001069 00001069,4301 Lien Rd,WI,53704-3608
Target,Waukegan,1070,1070 000001070 00001070,3050 N Lewis Ave,IL,60087-2231
Target,Louisville,1071,1071 000001071 00001071,4101 Towne Center Dr,KY,40241-4146
Target,Columbus,1072,1072 000001072 00001072,4199 Morse Xing,OH,43219-6015
Target,Aventura,1074,1074 000001074 00001074,21265 Biscayne Blvd,FL,33180-1241
Target,Miami,1075,1075 000001075 00001075,20500 SW 112th Ave,FL,33189-2296
Target,Alexandria,1076,1076 000001076 00001076,3101 Jefferson Davis Hwy,VA,22305-3042
Target,Winston Salem,1077,1077 000001077 00001077,5420 University Pkwy,NC,27105-1366
Target,Greensboro,1078,1078 000001078 00001078,1212 Bridford Pkwy,NC,27407-2645
Target,Raleigh,1080,1080 000001080 00001080,4841 Grove Barton Rd,NC,27613-1900
Target,Charlotte,1081,1081 000001081 00001081,8120 University City Blvd,NC,28213-8126
Target,West Nyack,1083,1083 000001083 00001083,4120 Palisades Center Dr,NY,10994-6801
Target,Union,1084,1084 000001084 00001084,2690 US Hwy 22 E,NJ,07083-8512
Target,Cherry Hill,1085,1085 000001085 00001085,2137 Route 38,NJ,08002-2045
Target,Winston Salem,1086,1086 000001086 00001086,1040 Hanes Mall Blvd,NC,27103-1309
Target,Charlotte,1087,1087 000001087 00001087,7860 Rea Rd,NC,28277-6502
Target,Reston,1088,1088 000001088 00001088,12197 Sunset Hills Rd,VA,20190-3208
Target,Cincinnati,1091,1091 000001091 00001091,9841 Waterstone Blvd,OH,45249-8296
Target,Cincinnati,1092,1092 000001092 00001092,8680 Beechmont Ave,OH,45255-4710
Target,Lexington,1094,1094 000001094 00001094,1940 Pavillon Way,KY,40509-2210
Target,Minneapolis,1095,1095 000001095 00001095,1650 New Brighton Blvd,MN,55413-1643
Target,Auburn,1097,1097 000001097 00001097,2700 Bell Rd,CA,95603-2508
Target,Folsom,1098,1098 000001098 00001098,430 Blue Ravine Rd,CA,95630-3402
Target,Thousand Oaks,1100,1100 000001100 00001100,2705 Teller Rd,CA,91320-1190
Target,Florissant,1101,1101 000001101 00001101,2341 N Highway 67,MO,63033-2033
Target,Brentwood,1102,1102 000001102 00001102,25 Brentwood Promenade Ct,MO,63144-1428
Target,Newport News,1103,1103 000001103 00001103,12130 Jefferson Ave,VA,23602-6908
Target,Garner,1104,1104 000001104 00001104,2700 Timber Dr,NC,27529-2591
Target,Virginia Beach,1105,1105 000001105 00001105,2060 S Independence Blvd,VA,23453-4747
Target,Wilmington,1107,1107 000001107 00001107,4711 New Centre Dr,NC,28405-3442
Target,Commack,1108,1108 000001108 00001108,98 Veterans Memorial Hwy,NY,11725-3432
Target,Mays Landing,1109,1109 000001109 00001109,380 Consumer Sq,NJ,08330-3326
Target,Greenacres,1110,1110 000001110 00001110,5900 Lake Worth Rd,FL,33463-3212
Target,Willoughby,1112,1112 000001112 00001112,36195 Euclid Ave,OH,44094-4410
Target,Coralville,1113,1113 000001113 00001113,1441 Coral Ridge Ave,IA,52241-2801
Target,Conroe,1115,1115 000001115 00001115,503 I 45 N,TX,77304-2331
Target,Grand Prairie,1116,1116 000001116 00001116,554 W Interstate 20,TX,75052-6932
Target,Woodinville,1118,1118 000001118 00001118,13950 NE 178th Pl,WA,98072-3523
Target,Paso Robles,1120,1120 000001120 00001120,2305 Theatre Dr,CA,93446-9604
Target,Citrus Heights,1121,1121 000001121 00001121,5837 Sunrise Blvd,CA,95610-6866
Target,San Mateo,1122,1122 000001122 00001122,2220 Bridgepointe Pkwy,CA,94404-1569
Target,Houston,1124,1124 000001124 00001124,21515 Tomball Pkwy,TX,77070-1647
Target,Niles,1125,1125 000001125 00001125,239 Golf Mill Ctr,IL,60714-1237
Target,Murfreesboro,1126,1126 000001126 00001126,1851 Old Fort Pkwy,TN,37129-3364
Target,Beavercreek,1128,1128 000001128 00001128,2490 N Fairfield Rd,OH,45431-1787
Target,Huber Heights,1129,1129 000001129 00001129,5700 Executive Blvd,OH,45424-1449
Target,Saint Petersburg,1131,1131 000001131 00001131,8151 Dr Martin Luther King St N,FL,33702-4111
Target,Turnersville,1132,1132 000001132 00001132,4001 Black Horse Pike,NJ,08012-1762
Target,Voorhees,1133,1133 000001133 00001133,1139 White Horse Rd,NJ,08043-2107
Target,Exton,1134,1134 000001134 00001134,201 Sunrise Blvd,PA,19341-2336
Target,Langhorne,1135,1135 000001135 00001135,2331 E Lincoln Hwy,PA,19047-1812
Target,Springfield,1136,1136 000001136 00001136,857 Baltimore Pike,PA,19064-3963
Target,Frederick,1137,1137 000001137 00001137,5437 Urbana Pike,MD,21704-7275
Target,Silver Spring,1138,1138 000001138 00001138,12000 Cherry Hill Rd,MD,20904-1985
Target,Westbury,1139,1139 000001139 00001139,999 Corporate Dr,NY,11590-6614
Target,El Cajon,1140,1140 000001140 00001140,2911 Jamacha Rd,CA,92019-4342
Target,Phoenix,1141,1141 000001141 00001141,2727 W Agua Fria Fwy,AZ,85027-3929
Target,Towson,1142,1142 000001142 00001142,1238 Putty Hill Ave,MD,21286-5844
Target,Watsonville,1143,1143 000001143 00001143,1415 Main St,CA,95076-3755
Target,Coon Rapids,1144,1144 000001144 00001144,3300 124th Ave NW,MN,55433-3805
Target,Wilmington,1146,1146 000001146 00001146,1050 Brandywine Pkwy,DE,19803-1492
Target,Copiague,1147,1147 000001147 00001147,1149 Sunrise Hwy,NY,11726-1330
Target,Bay Shore,1148,1148 000001148 00001148,838 Sunrise Hwy,NY,11706-5908
Target,College Point,1150,1150 000001150 00001150,13505 20th Ave,NY,11356-2446
Target,Princeton,1151,1151 000001151 00001151,500 Nassau Park Blvd,NJ,08540-5991
Target,Milltown,1152,1152 000001152 00001152,400 Ryders Ln,NJ,08850-1700
Target,Brick,1153,1153 000001153 00001153,570 Route 70,NJ,08723-4014
Target,Toms River,1154,1154 000001154 00001154,1331 Hooper Ave,NJ,08753-2822
Target,Watchung,1155,1155 000001155 00001155,1515 US Highway 22,NJ,07069-6509
Target,Victor,1156,1156 000001156 00001156,7500 Commons Blvd,NY,14564-1010
Target,Rochester,1157,1157 000001157 00001157,2325 Marketplace Dr,NY,14623-6009
Target,Burlington,1158,1158 000001158 00001158,2703 Route 541,NJ,08016-4175
Target,North Wales,1159,1159 000001159 00001159,125 Witchwood Dr,PA,19454-1833
Target,Williamsburg,1161,1161 000001161 00001161,4630 Monticello Ave,VA,23188-8200
Target,Roanoke,1162,1162 000001162 00001162,4737 Valley View Blvd NW,VA,24012-2000
Target,Fort Lauderdale,1163,1163 000001163 00001163,3200 N Federal Hwy,FL,33306-1062
Target,Marietta,1165,1165 000001165 00001165,2535 Dallas Hwy SW,GA,30064-2543
Target,Crystal Lake,1166,1166 000001166 00001166,5580 Northwest Hwy,IL,60014-8016
Target,Glenview,1167,1167 000001167 00001167,2241 Willow Rd,IL,60025-7636
Target,Highland Park,1168,1168 000001168 00001168,2099 Skokie Valley Rd,IL,60035-1728
Target,Ames,1170,1170 000001170 00001170,320 S Duff Ave,IA,50010-6644
Target,Las Vegas,1171,1171 000001171 00001171,9725 S Eastern Ave,NV,89183-6841
Target,Fairfield,1175,1175 000001175 00001175,632 Route 46 E,NJ,07004-1581
Target,Arlington Heights,1176,1176 000001176 00001176,1700 E Rand Rd,IL,60004-4379
Target,Kansas City,1177,1177 000001177 00001177,8420 N Madison Ave,MO,64155-2777
Target,Greensboro,1180,1180 000001180 00001180,2701 Lawndale Dr,NC,27408-4820
Target,Hickory,1181,1181 000001181 00001181,1910 Catawba Valley Blvd SE,NC,28602-4146
Target,Greenville,1182,1182 000001182 00001182,1112 Woodruff Rd,SC,29607-4109
Target,Bensalem,1183,1183 000001183 00001183,800 Rock Hill Dr,PA,19020-1628
Target,Manalapan,1184,1184 000001184 00001184,55 US Hwy 9,NJ,07726-3018
Target,North Saint Paul,1185,1185 000001185 00001185,2199  Hwy 36 E,MN,55109-2215
Target,Danvers,1187,1187 000001187 00001187,240 Independence Way,MA,01923-3653
Target,Warwick,1188,1188 000001188 00001188,1245 Bald Hill Rd,RI,02886-4233
Target,Taunton,1189,1189 000001189 00001189,81 Taunton Depot Dr,MA,02780-6915
Target,North Attleboro,1190,1190 000001190 00001190,1205 S Washington St,MA,02760-6251
Target,South Setauket,1191,1191 000001191 00001191,255 Pond Path Rd,NY,11720-2007
Target,Middletown,1192,1192 000001192 00001192,2105 Route 35,NJ,07748-1301
Target,Gaithersburg,1193,1193 000001193 00001193,25 Grand Corner Ave,MD,20878-7305
Target,Rochester,1194,1194 000001194 00001194,600 Greece Ridge Center Dr,NY,14626-2825
Target,Fairport,1195,1195 000001195 00001195,2161 N Nine Mile Point Rd,NY,14450-8509
Target,Warrington,1196,1196 000001196 00001196,401 Easton Rd,PA,18976-2457
Target,Atlanta,1197,1197 000001197 00001197,3535 Peachtree Rd NE,GA,30326-3287
Target,Anderson,1198,1198 000001198 00001198,3519 Clemson Blvd,SC,29621-1312
Target,Columbia,1199,1199 000001199 00001199,134 Harbison Blvd,SC,29212-2204
Target,Florence,1200,1200 000001200 00001200,1100 Hansel Dr,KY,41042-4869
Target,Independence,1201,1201 000001201 00001201,17810 E 39th St S,MO,64055-3870
Target,Selma,1204,1204 000001204 00001204,8234 Agora Pkwy,TX,78154-1304
Target,Gig Harbor,1205,1205 000001205 00001205,11400 51st Ave NW,WA,98332-7891
Target,Buford,1206,1206 000001206 00001206,3205 Woodward Crossing Blvd,GA,30519-4938
Target,Las Vegas,1207,1207 000001207 00001207,8750 W Charleston Blvd,NV,89117-5452
Target,Walnut Creek,1208,1208 000001208 00001208,1871 N Main St,CA,94596-4106
Target,Gilbert,1209,1209 000001209 00001209,1515 E Warner Rd,AZ,85296-3138
Target,Northfield,1211,1211 000001211 00001211,2323 Highway 3 S,MN,55057-5172
Target,Grafton,1212,1212 000001212 00001212,1250 N Port Washington Rd,WI,53024-9315
Target,Lemont,1213,1213 000001213 00001213,13460 S Archer Ave,IL,60439-4755
Target,York,1221,1221 000001221 00001221,2610 Pleasant Valley Rd,PA,17402-9609
Target,Wyomissing,1222,1222 000001222 00001222,2769 Papermill Rd,PA,19610-3329
Target,Newnan,1223,1223 000001223 00001223,555 Bullsboro Dr,GA,30265-1045
Target,Bridgewater,1224,1224 000001224 00001224,200 Promenade Blvd,NJ,08807-3456
Target,Midlothian,1225,1225 000001225 00001225,4601 Commonwealth Center Pkwy,VA,23112-2639
Target,Concord,1227,1227 000001227 00001227,80 Damante Dr,NH,03301-5759
Target,Nashua,1228,1228 000001228 00001228,310 Daniel Webster Hwy,NH,03060-5730
Target,Everett,1229,1229 000001229 00001229,1 Mystic View Rd,MA,02149-2428
Target,Allen,1231,1231 000001231 00001231,907 W McDermott Dr,TX,75013-6503
Target,Holyoke,1232,1232 000001232 00001232,50 Holyoke St,MA,01040-2709
Target,Winchester,1234,1234 000001234 00001234,2340 Legge Blvd,VA,22601-7008
Target,Hudson,1235,1235 000001235 00001235,2401 Coulee Rd,WI,54016-2183
Target,Irvine,1238,1238 000001238 00001238,13200 Jamboree Rd,CA,92602-2307
Target,O Fallon,1241,1241 000001241 00001241,2300 Highway K,MO,63368-6661
Target,Goodyear,1242,1242 000001242 00001242,1515 N Litchfield Rd,AZ,85395-1237
Target,Forest Lake,1244,1244 000001244 00001244,356 12th St SW,MN,55025-1749
Target,Green Bay,1247,1247 000001247 00001247,1001 Cormier Rd,WI,54304-4404
Target,Manchester,1249,1249 000001249 00001249,125 Buckland Hills Dr,CT,06042-8701
Target,Auburn Hills,1251,1251 000001251 00001251,650 Brown Rd,MI,48326-1307
Target,Dayton,1252,1252 000001252 00001252,2300 Miamisburg Centerville Rd,OH,45459-3722
Target,Harrisburg,1254,1254 000001254 00001254,5125 Jonestown Rd Ste 331,PA,17112-2983
Target,Enfield,1255,1255 000001255 00001255,90 Elm St,CT,06082-3770
Target,Abington,1256,1256 000001256 00001256,1495 Old York Rd,PA,19001-1923
Target,Hagerstown,1257,1257 000001257 00001257,17213 Cole Rd,MD,21740-6981
Target,California,1258,1258 000001258 00001258,45155 First Colony Way,MD,20619-2416
Target,Stroudsburg,1260,1260 000001260 00001260,155 Pocono Commons,PA,18360-8170
Target,South Charleston,1261,1261 000001261 00001261,30 Rhl Blvd,WV,25309-8278
Target,Edgewater,1263,1263 000001263 00001263,543 River Rd,NJ,07020-1146
Target,Levittown,1264,1264 000001264 00001264,3850 Hempstead Tpke,NY,11756-1303
Target,Cockeysville,1265,1265 000001265 00001265,9901 York Rd,MD,21030-3407
Target,Woburn,1266,1266 000001266 00001266,101 Commerce Way,MA,01801-1007
Target,Waterford,1267,1267 000001267 00001267,900 Hartford Tpke,CT,06385-4246
Target,Colonie,1268,1268 000001268 00001268,1440 Central Ave,NY,12205-5118
Target,Plymouth Meeting,1269,1269 000001269 00001269,2250 Chemical Rd,PA,19462-1716
Target,Saratoga Springs,1271,1271 000001271 00001271,3031 Route 50,NY,12866-2926
Target,Shakopee,1272,1272 000001272 00001272,1685 17th Ave E,MN,55379-4407
Target,Pensacola,1273,1273 000001273 00001273,1749 E Nine Mile Rd,FL,32514-5729
Target,Lynchburg,1275,1275 000001275 00001275,4028 Wards Rd,VA,24502-2944
Target,Arnold,1278,1278 000001278 00001278,3849 Vogel Rd,MO,63010-3776
Target,Kirkwood,1279,1279 000001279 00001279,1042 S Kirkwood Rd,MO,63122-7200
Target,Saint Charles,1280,1280 000001280 00001280,3881 Mexico Rd,MO,63303-3042
Target,Milford,1281,1281 000001281 00001281,250 Fortune Blvd,MA,01757-1743
Target,Seattle,1284,1284 000001284 00001284,302 NE Northgate Way,WA,98125-6047
Target,Ypsilanti,1285,1285 000001285 00001285,3749 Carpenter Rd,MI,48197-9809
Target,Valparaiso,1286,1286 000001286 00001286,2420 Laporte Ave,IN,46383-6914
Target,Erie,1287,1287 000001287 00001287,6700 Peach St,PA,16509-7712
Target,New Britain,1289,1289 000001289 00001289,475 Hartford Rd,CT,06053-1524
Target,Phoenixville,1291,1291 000001291 00001291,200 Mill Road,PA,19460
Target,Christiansburg,1292,1292 000001292 00001292,195 Conston Ave,VA,24073-1151
Target,Costa Mesa,1293,1293 000001293 00001293,3030 Harbor Blvd Ste A,CA,92626-2562
Target,Saint Augustine,1294,1294 000001294 00001294,1440 US Hwy 1 S,FL,32084-4211
Target,Greenbelt,1295,1295 000001295 00001295,6100 Greenbelt Rd,MD,20770-4063
Target,Middletown,1296,1296 000001296 00001296,1 N Galleria Dr,NY,10941-3029
Target,Lakeland,1299,1299 000001299 00001299,3570 Harden Blvd,FL,33803-5928
Target,Chattanooga,1302,1302 000001302 00001302,1816 Gunbarrel Rd,TN,37421-3129
Target,Cambridge,1303,1303 000001303 00001303,215 Balsam St N,MN,55008-5814
Target,Cerritos,1305,1305 000001305 00001305,11525 South St,CA,90703-6627
Target,Los Angeles,1306,1306 000001306 00001306,3535 S La Cienega Blvd,CA,90016-4407
Target,Van Nuys,1307,1307 000001307 00001307,5711 Sepulveda Blvd,CA,91411-2918
Target,Framingham,1308,1308 000001308 00001308,400 Cochituate Rd,MA,01701-4655
Target,Van Nuys,1309,1309 000001309 00001309,14920 Raymer St,CA,91405-1146
Target,New Berlin,1311,1311 000001311 00001311,4798 S Moorland Rd,WI,53151-7486
Target,Dover,1312,1312 000001312 00001312,148 John Hunn Brown Rd,DE,19901-4708
Target,Troy,1313,1313 000001313 00001313,1301 Coolidge Hwy,MI,48084-7017
Target,Fenton,1314,1314 000001314 00001314,197 Gravois Bluffs Plaza Dr,MO,63026-4013
Target,Linden,1315,1315 000001315 00001315,621 W Edgar Rd,NJ,07036-3203
Target,Tucson,1316,1316 000001316 00001316,1225 W Irvington Rd,AZ,85714-1167
Target,Kingston,1318,1318 000001318 00001318,1300 Ulster Ave,NY,12401-1501
Target,Columbia,1319,1319 000001319 00001319,10204 Two Notch Rd,SC,29229-4386
Target,St Charles,1323,1323 000001323 00001323,3885 E Main St,IL,60174-2400
Target,Mayfield Heights,1324,1324 000001324 00001324,1285 Som Center Rd,OH,44124-2073
Target,Avon,1325,1325 000001325 00001325,35830 Detroit Rd,OH,44011-1681
Target,Castle Rock,1326,1326 000001326 00001326,5010 Founders Pkwy,CO,80108-7838
Target,Scottsdale,1327,1327 000001327 00001327,32351 N Scottsdale Rd,AZ,85266-1513
Target,Seal Beach,1328,1328 000001328 00001328,12300 Seal Beach Blvd,CA,90740-2709
Target,Inglewood,1329,1329 000001329 00001329,3471 W Century Blvd,CA,90301-1218
Target,Hackensack,1330,1330 000001330 00001330,630 Main St,NJ,07601-5913
Target,Lake Stevens,1331,1331 000001331 00001331,9601 Market Pl,WA,98258-7949
Target,Pasadena,1332,1332 000001332 00001332,3121 E Colorado Blvd,CA,91107-3814
Target,Marquette,1334,1334 000001334 00001334,3250 US Hwy 41 W,MI,49855-9483
Target,Surprise,1335,1335 000001335 00001335,13731 W Bell Rd,AZ,85374-3871
Target,Houston,1336,1336 000001336 00001336,8500 S Main St,TX,77025-2703
Target,Deerfield Beach,1337,1337 000001337 00001337,1200 S Federal Hwy,FL,33441-7037
Target,South Portland,1338,1338 000001338 00001338,200 Running Hill Rd,ME,04106-3258
Target,Arlington,1339,1339 000001339 00001339,1600 W Arbrook Blvd,TX,76015-4107
Target,Norwalk,1340,1340 000001340 00001340,10600 Firestone Blvd,CA,90650-7410
Target,Fairfax,1341,1341 000001341 00001341,13047 Fair Lakes Shopping Ctr,VA,22033-5179
Target,Rosemont,1342,1342 000001342 00001342,7000 Mannheim Rd,IL,60018-3621
Target,Elmhurst,1344,1344 000001344 00001344,8801 Queens Blvd,NY,11373-4449
Target,East Windsor,1345,1345 000001345 00001345,70 Princeton Hightstown Rd,NJ,08520-1933
Target,Huntsville,1346,1346 000001346 00001346,6275 University Dr NW,AL,35806-1776
Target,Shreveport,1347,1347 000001347 00001347,7110 Youree Dr,LA,71105-5107
Target,Worcester,1348,1348 000001348 00001348,529 Lincoln St,MA,01605-1905
Target,Spartanburg,1349,1349 000001349 00001349,8199 Warren H Abernathy Pkwy,SC,29301-2452
Target,Fishers,1350,1350 000001350 00001350,11750 Commercial Dr,IN,46038-2903
Target,Rochester,1351,1351 000001351 00001351,3827 Marketplace Dr NW,MN,55901-3192
Target,Chaska,1352,1352 000001352 00001352,111 Pioneer Trl,MN,55318-1121
Target,Chesterfield,1353,1353 000001353 00001353,40 THF Blvd,MO,63005-1150
Target,San Antonio,1354,1354 000001354 00001354,18255 Blanco Rd,TX,78258-4585
Target,Lacey,1355,1355 000001355 00001355,665 Sleater Kinney Rd SE,WA,98503-1007
Target,Minnetonka,1356,1356 000001356 00001356,4848 County Road 101,MN,55345-2635
Target,White Plains,1358,1358 000001358 00001358,9 City Pl,NY,10601-3331
Target,Missouri City,1359,1359 000001359 00001359,6000 Highway 6,TX,77459-4163
Target,Phoenix,1360,1360 000001360 00001360,21001 N Tatum Blvd Ste 20,AZ,85050-4207
Target,Glendale,1361,1361 000001361 00001361,9350 W Northern Ave,AZ,85305-1103
Target,Burbank,1362,1362 000001362 00001362,1800 W Empire Ave,CA,91504-3403
Target,Reno,1363,1363 000001363 00001363,6845 Sierra Center Pkwy,NV,89511-2214
Target,Greenwood,1364,1364 000001364 00001364,895 S State Rd 135,IN,46143-9413
Target,Marlton,1365,1365 000001365 00001365,751 Route 73 S,NJ,08053-9637
Target,Carmel,1366,1366 000001366 00001366,10401 N Michigan Rd,IN,46032-7939
Target,Huntsville,1367,1367 000001367 00001367,2750 Carl T Jones Dr SE Ste 7,AL,35802-4914
Target,Euless,1368,1368 000001368 00001368,1401 W Glade Rd,TX,76039-5417
Target,Baton Rouge,1369,1369 000001369 00001369,6885 Siegen Ln,LA,70809-4528
Target,Knoxville,1370,1370 000001370 00001370,11100 Parkside Dr,TN,37934-1960
Target,Rock Hill,1371,1371 000001371 00001371,1900 Springsteen Rd,SC,29730-6990
Target,Thornton,1372,1372 000001372 00001372,1001 E 120th Ave,CO,80233-5711
Target,Meriden,1373,1373 000001373 00001373,474 Chamberlain Hwy,CT,06451-1818
Target,Seekonk,1374,1374 000001374 00001374,79 Commerce Way,MA,02771-5816
Target,Minneapolis,1375,1375 000001375 00001375,900 Nicollet Mall,MN,55403-2530
Target,Mobile,1376,1376 000001376 00001376,790 Schillinger Rd S,AL,36695-8912
Target,Clear Lake Shores,1377,1377 000001377 00001377,255 Marina Bay Dr,TX,77565-2671
Target,Ocean,1378,1378 000001378 00001378,2331 State Route 66,NJ,07712-3961
Target,Wesley Chapel,1382,1382 000001382 00001382,1201 County Road 581,FL,33544-9261
Target,Fullerton,1383,1383 000001383 00001383,1893 W Malvern Ave,CA,92833-2403
Target,Bakersfield,1384,1384 000001384 00001384,9100 Rosedale Hwy,CA,93312-2143
Target,Wheeling,1385,1385 000001385 00001385,1400 W Lake Cook Rd,IL,60090-2239
Target,Mesa,1386,1386 000001386 00001386,2151 N Power Rd,AZ,85215-2971
Target,Deptford,1389,1389 000001389 00001389,1900 Deptford Center Rd,NJ,08096-5624
Target,Tucker,1390,1390 000001390 00001390,4241 Lavista Rd,GA,30084-5310
Target,Charleston,1391,1391 000001391 00001391,2070 Sam Rittenberg Blvd,SC,29407-4605
Target,Lees Summit,1392,1392 000001392 00001392,1850 NW Chipman Rd,MO,64081-3938
Target,Milford,1393,1393 000001393 00001393,100 Rivers Edge,OH,45150-2585
Target,Cumming,1394,1394 000001394 00001394,1525 Market Place Blvd,GA,30041-7935
Target,Lewisville,1395,1395 000001395 00001395,725 Hebron Pkwy,TX,75057-5001
Target,Pasadena,1396,1396 000001396 00001396,5757 Fairmont Pkwy,TX,77505-3905
Target,Oklahoma City,1397,1397 000001397 00001397,13924 N Pennsylvania Ave,OK,73134-6021
Target,Edmond,1398,1398 000001398 00001398,1200 E 2nd St,OK,73034-5317
Target,Hiram,1400,1400 000001400 00001400,5220 Jimmy Lee Smith Pkwy,GA,30141-2739
Target,Brooklyn,1401,1401 000001401 00001401,519 Gateway Dr,NY,11239-2801
Target,Oswego,1402,1402 000001402 00001402,3020 Route 34,IL,60543-8333
Target,Plainfield,1403,1403 000001403 00001403,12800 S State Route 59,IL,60585-5415
Target,Smithfield,1404,1404 000001404 00001404,371 Putnam Pike Ste A-250,RI,02917-2440
Target,Eugene,1405,1405 000001405 00001405,4575 W 11th Ave,OR,97402-5442
Target,Fairview,1406,1406 000001406 00001406,21500 NE Halsey St,OR,97024-8616
Target,Daly City,1407,1407 000001407 00001407,133 Serramonte Ctr,CA,94015-2349
Target,Los Angeles,1408,1408 000001408 00001408,2626 Colorado Blvd,CA,90041-1070
Target,Lakewood,1409,1409 000001409 00001409,141 Lakewood Center Mall,CA,90712-2419
Target,San Diego,1410,1410 000001410 00001410,1288 Camino Del Rio N,CA,92108-1511
Target,Rosemead,1411,1411 000001411 00001411,3600 Rosemead Blvd,CA,91770-2066
Target,Aurora,1413,1413 000001413 00001413,1400 S Havana St,CO,80012-4014
Target,Silver Spring,1415,1415 000001415 00001415,11160 Veirs Mill Rd,MD,20902-2538
Target,Springfield,1416,1416 000001416 00001416,6600 Springfield Mall,VA,22150-1712
Target,Fresno,1417,1417 000001417 00001417,5740 N Blackstone Ave,CA,93710-5006
Target,Fullerton,1418,1418 000001418 00001418,200 W Orangethorpe Ave,CA,92832-2900
Target,Portland,1419,1419 000001419 00001419,9800 SE Washington St,OR,97216-2420
Target,Chesapeake,1420,1420 000001420 00001420,4200 Portsmouth Blvd,VA,23321-2100
Target,Eureka,1421,1421 000001421 00001421,2525 4th St,CA,95501-0823
Target,Fremont,1422,1422 000001422 00001422,39201 Fremont Blvd,CA,94538-1301
Target,Montclair,1423,1423 000001423 00001423,9052 Central Ave,CA,91763-1621
Target,Norwalk,1424,1424 000001424 00001424,12051 Imperial Hwy,CA,90650-3084
Target,Pico Rivera,1425,1425 000001425 00001425,8800 Whittier Blvd,CA,90660-2658
Target,San Jose,1426,1426 000001426 00001426,450 N Capital Ave,CA,95133-1938
Target,San Jose,1427,1427 000001427 00001427,1600 Saratoga Ave,CA,95129-5101
Target,San Leandro,1428,1428 000001428 00001428,15555 E 14th St Ste 400,CA,94578-1978
Target,Mesa,1429,1429 000001429 00001429,1230 S Longmore Ave,AZ,85202-9602
Target,Richardson,1430,1430 000001430 00001430,601 S Plano Rd,TX,75081-4512
Target,Falls Church,1431,1431 000001431 00001431,6100 Arlington Blvd,VA,22044-2901
Target,Fountain Hills,1432,1432 000001432 00001432,16825 E Shea Blvd,AZ,85268-6668
Target,Houston,1435,1435 000001435 00001435,984 Gessner Rd,TX,77024-2505
Target,Kansas City,1436,1436 000001436 00001436,8509 State Line Rd,MO,64114-2723
Target,Chicago,1437,1437 000001437 00001437,2939 W Addison St,IL,60618-4635
Target,Napa,1438,1438 000001438 00001438,4000 Bel Aire Plaza,CA,94558-2835
Target,Tucson,1439,1439 000001439 00001439,3699 E Broadway Blvd,AZ,85716-5400
Target,Philadelphia,1443,1443 000001443 00001443,1 Mifflin St,PA,19148-2017
Target,Vancouver,1444,1444 000001444 00001444,16200 SE Mill Plain Blvd,WA,98684-9638
Target,Granger,1445,1445 000001445 00001445,155 University Dr E,IN,46530-4474
Target,Goshen,1446,1446 000001446 00001446,3938 Midway Rd,IN,46526-5854
Target,Cincinnati,1447,1447 000001447 00001447,4825A Marburg Ave,OH,45209-5013
Target,Lino Lakes,1448,1448 000001448 00001448,749 Apollo Dr,MN,55014-3035
Target,Metairie,1449,1449 000001449 00001449,4500 Veterans Memorial Blvd,LA,70006-5330
Target,Harvey,1451,1451 000001451 00001451,1731 Manhattan Blvd,LA,70058-3409
Target,Florence,1452,1452 000001452 00001452,2791 David H Mcleod Blvd,SC,29501-4043
Target,Athens,1453,1453 000001453 00001453,3065 Atlanta Hwy,GA,30606-3334
Target,Cape Coral,1454,1454 000001454 00001454,2430 Santa Barbara Blvd,FL,33914-4485
Target,Kansas City,1455,1455 000001455 00001455,9220 NE Barry Rd,MO,64157-1209
Target,Rogers,1456,1456 000001456 00001456,21615 S Diamond Lake Rd,MN,55374-8893
Target,Humble,1457,1457 000001457 00001457,20777 Hwy 59 N,TX,77338-2209
Target,Spring,1458,1458 000001458 00001458,19511 I H 45,TX,77388-6015
Target,Pearland,1459,1459 000001459 00001459,3045 Silverlake Village St,TX,77584-8080
Target,Homewood,1460,1460 000001460 00001460,17605 S Halsted St,IL,60430-2007
Target,Mcdonough,1461,1461 000001461 00001461,1850 Jonesboro Rd,GA,30253-5960
Target,Las Vegas,1462,1462 000001462 00001462,6480 Sky Pointe Dr,NV,89131-4038
Target,Phillipsburg,1464,1464 000001464 00001464,1204 New Brunswick Ave,NJ,08865-4124
Target,Novi,1465,1465 000001465 00001465,27100 Wixom Rd,MI,48374-1115
Target,Shelby Township,1466,1466 000001466 00001466,8200 26 Mile Rd,MI,48316-5132
Target,Clark,1467,1467 000001467 00001467,45 Central Ave,NJ,07066-1421
Target,Dothan,1468,1468 000001468 00001468,4601 Montgomery Hwy Ste 300,AL,36303-1522
Target,Aurora,1471,1471 000001471 00001471,14200 E Ellsworth Ave,CO,80012-1402
Target,Hayward,1472,1472 000001472 00001472,2499 Whipple Rd,CA,94544-7807
Target,Lafayette,1473,1473 000001473 00001473,4313 Ambassador Caffery Pkwy,LA,70508-6703
Target,Dickson City,1474,1474 000001474 00001474,1140 Commerce Blvd,PA,18519-1688
Target,Liverpool,1475,1475 000001475 00001475,3857 State Route 31,NY,13090-1309
Target,Fayetteville,1476,1476 000001476 00001476,340 Towne Dr,NY,13066-1371
Target,Clifton Park,1477,1477 000001477 00001477,26 Crossing Blvd,NY,12065-4180
Target,Louisville,1479,1479 000001479 00001479,3600 Mall Rd,KY,40218-5403
Target,Plantation,1480,1480 000001480 00001480,8201 Federated West Roadway,FL,33324-2719
Target,Evansville,1481,1481 000001481 00001481,6625 E Lloyd Expy,IN,47715-2757
Target,Holland,1482,1482 000001482 00001482,3456 W Shore Dr,MI,49424-9699
Target,Green Bay,1483,1483 000001483 00001483,2050 Lime Kiln Rd,WI,54311-6264
Target,Lakeville,1484,1484 000001484 00001484,18275 Kenrick Ave,MN,55044-7306
Target,Santee,1485,1485 000001485 00001485,9846 Mission Gorge Rd,CA,92071-3834
Target,Atlanta,1486,1486 000001486 00001486,2400 N Druid Hills Rd NE,GA,30329-3211
Target,Mission,1487,1487 000001487 00001487,6100 Broadmoor St,KS,66202-3229
Target,Chicago,1488,1488 000001488 00001488,8560 S Cottage Grove Ave,IL,60619-6116
Target,Garland,1489,1489 000001489 00001489,5301 N Garland Ave,TX,75040-2716
Target,East Hanover,1491,1491 000001491 00001491,130 State Route 10,NJ,07936-2103
Target,New Hartford,1492,1492 000001492 00001492,1 Sangertown Sq Ste 3,NY,13413-1595
Target,Summerville,1493,1493 000001493 00001493,450 Azalea Square Blvd,SC,29483-7321
Target,Westborough,1496,1496 000001496 00001496,330 Turnpike Rd,MA,01581-2813
Target,Fleming Island,1497,1497 000001497 00001497,1490 County Rd 220,FL,32003-7927
Target,Slidell,1498,1498 000001498 00001498,61121 Airport Rd,LA,70460-6838
Target,Lakewood,1500,1500 000001500 00001500,14500 W Colfax Ave Unit B1,CO,80401-3203
Target,Colorado Springs,1501,1501 000001501 00001501,3810 Bloomington St,CO,80922-3203
Target,Roseville,1502,1502 000001502 00001502,10451 Fairway Dr,CA,95678-1987
Target,Wake Forest,1504,1504 000001504 00001504,12000 Retail Dr,NC,27587-7353
Target,Mooresville,1505,1505 000001505 00001505,594 River Hwy,NC,28117-6829
Target,Richmond,1507,1507 000001507 00001507,4500 Macdonald Ave,CA,94805-2307
Target,Ithaca,1508,1508 000001508 00001508,40 Catherwood Rd,NY,14850-1056
Target,Saint Louis,1509,1509 000001509 00001509,4250 Rusty Rd,MO,63128-1973
Target,Allentown,1510,1510 000001510 00001510,1600 N Cedar Crest Blvd,PA,18104-2318
Target,Hendersonville,1511,1511 000001511 00001511,1004 Andrews Run,TN,37075-1232
Target,Miramar,1512,1512 000001512 00001512,16901 Miramar Pkwy,FL,33027-4528
Target,Louisville,1513,1513 000001513 00001513,7311 Jefferson Blvd,KY,40219-6178
Target,North Richland Hills,1514,1514 000001514 00001514,8532 Davis Blvd,TX,76182-8300
Target,Saint Louis,1515,1515 000001515 00001515,4255 Hampton Ave,MO,63109-2120
Target,Marlborough,1516,1516 000001516 00001516,423 Donald Lynch Blvd,MA,01752-4709
Target,Flower Mound,1517,1517 000001517 00001517,5959 Long Prairie Rd,TX,75028-2224
Target,Orlando,1518,1518 000001518 00001518,4750 Millenia Plaza Way,FL,32839-2434
Target,Clermont,1519,1519 000001519 00001519,2660 East Hwy 50,FL,34711-6034
Target,Hooksett,1520,1520 000001520 00001520,100 Quality Dr,NH,03106-2651
Target,Schenectady,1521,1521 000001521 00001521,428 Balltown Rd,NY,12304-2245
Target,Balcones Heights,1523,1523 000001523 00001523,4522 Fredricksburg Rd,TX,78201-6521
Target,Las Vegas,1524,1524 000001524 00001524,4155 S Grand Canyon Dr,NV,89147-7123
Target,Silverthorne,1525,1525 000001525 00001525,715 Blue River Pkwy,CO,80498-9224
Target,Manteca,1526,1526 000001526 00001526,280 Spreckels Ave,CA,95336-6005
Target,Sacramento,1527,1527 000001527 00001527,8101 Cosumnes River Blvd,CA,95823-5415
Target,Bethel,1528,1528 000001528 00001528,7 Stony Hill Rd,CT,06801-1030
Target,Mount Pleasant,1529,1529 000001529 00001529,1300 Long Grove Dr,SC,29464-9462
Target,Muncie,1530,1530 000001530 00001530,3601 N Barr St,IN,47303-1246
Target,Nashua,1532,1532 000001532 00001532,600 Amherst St,NH,03063-1002
Target,Alexandria,1533,1533 000001533 00001533,6600 Richmond Hwy,VA,22306-6601
Target,West Chester,1534,1534 000001534 00001534,7644 Voice of America Center Dr,OH,45069-2794
Target,Galveston,1535,1535 000001535 00001535,6128 Broadway St,TX,77551-1030
Target,Mansfield,1536,1536 000001536 00001536,1801 Highway 287 N,TX,76063-7533
Target,Bellevue,1537,1537 000001537 00001537,3808 Twin Creek Dr,NE,68123-4163
Target,Shiloh,1539,1539 000001539 00001539,3400 Green Mountcrossing Dr,IL,62269-7277
Target,Pikesville,1541,1541 000001541 00001541,1737 Reisterstown Rd,MD,21208-2907
Target,Austin,1542,1542 000001542 00001542,5621 N I H 35,TX,78723-2431
Target,Olathe,1543,1543 000001543 00001543,20255 W 154th St,KS,66062-7055
Target,Stamford,1544,1544 000001544 00001544,21 Broad St,CT,06901-2309
Target,Cincinnati,1545,1545 000001545 00001545,9040 Colerain Ave,OH,45251-2402
Target,East Point,1546,1546 000001546 00001546,3660 Marketplace Blvd,GA,30344-5738
Target,Moorpark,1547,1547 000001547 00001547,800 New Los Angeles Ave,CA,93021-3585
Target,Corona,1548,1548 000001548 00001548,2615 Tuscanny St,CA,92881-4631
Target,Centerville,1750,1750 000001750 00001750,200 N Market Place Dr,UT,84014-1752
Target,Salt Lake City,1751,1751 000001751 00001751,7025 Park Centre Dr,UT,84121-6619
Target,Sandy,1752,1752 000001752 00001752,10130 S State St,UT,84070-4118
Target,Riverdale,1753,1753 000001753 00001753,1135 W Riverdale Rd,UT,84405-3722
Target,Orem,1754,1754 000001754 00001754,175 W Center St,UT,84057-4607
Target,Layton,1755,1755 000001755 00001755,815 W 2000 N,UT,84041-1632
Target,Olathe,1756,1756 000001756 00001756,15345 W 119th St,KS,66062-1074
Target,Overland Park,1757,1757 000001757 00001757,12200 Blue Valley Pkwy,KS,66213-2639
Target,Shawnee,1759,1759 000001759 00001759,15700 Shawnee Mission Pkwy,KS,66217-9321
Target,Orlando,1760,1760 000001760 00001760,325 N Alafaya Trl,FL,32828-7012
Target,Roswell,1761,1761 000001761 00001761,1135 Woodstock Rd,GA,30075-2231
Target,Lafayette,1762,1762 000001762 00001762,3630 South Street,IN,47905-4807
Target,Frisco,1763,1763 000001763 00001763,3201 Preston Rd,TX,75034-9446
Target,Plano,1764,1764 000001764 00001764,2200 Dallas Pkwy,TX,75093-4300
Target,Watauga,1765,1765 000001765 00001765,8000 Denton Hwy,TX,76148-2464
Target,Hurst,1766,1766 000001766 00001766,1400 Precinct Line Rd,TX,76053-3828
Target,Ankeny,1767,1767 000001767 00001767,2135 SE Delaware Ave,IA,50021-4592
Target,Cedar Rapids,1768,1768 000001768 00001768,1030 Blairs Ferry Rd NE,IA,52402-1220
Target,Superior,1769,1769 000001769 00001769,400 Marshall Rd,CO,80027-8623
Target,Fort Worth,1770,1770 000001770 00001770,5700 Overton Ridge Blvd,TX,76132-3220
Target,Cedar Rapids,1771,1771 000001771 00001771,3400 Edgewood Rd SW,IA,52404-7214
Target,Birmingham,1772,1772 000001772 00001772,4616 Highway 280 S,AL,35242-5028
Target,Birmingham,1773,1773 000001773 00001773,1654 Gadsden Hwy,AL,35235-3104
Target,Eau Claire,1774,1774 000001774 00001774,3649 S Hastings Way,WI,54701-8182
Target,Dallas,1775,1775 000001775 00001775,16731 Coit Rd,TX,75248-1750
Target,Littleton,1776,1776 000001776 00001776,9390 W Cross Dr,CO,80123-2202
Target,Omaha,1777,1777 000001777 00001777,17810 W Center Rd,NE,68130-2308
Target,Lauderhill,1778,1778 000001778 00001778,7730 W Commercial Blvd,FL,33351-4301
Target,Woodstock,1780,1780 000001780 00001780,140 Woodstock Square Ave,GA,30189-6500
Target,Tulsa,1782,1782 000001782 00001782,10711 E 71st St,OK,74133-2522
Target,Grand Forks,1783,1783 000001783 00001783,3601 32nd Ave S,ND,58201-5911
Target,Dallas,1784,1784 000001784 00001784,6419 Skillman St,TX,75231-7109
Target,San Antonio,1785,1785 000001785 00001785,11311 Bandera Rd,TX,78250-6812
Target,Sugar Land,1786,1786 000001786 00001786,16300 Southwest Fwy,TX,77479-2371
Target,Tuscaloosa,1787,1787 000001787 00001787,1901 13th Ave E,AL,35404-4785
Target,Avon,1788,1788 000001788 00001788,10209 E US Highway 36,IN,46123-7985
Target,Indianapolis,1789,1789 000001789 00001789,4850 E Southport Rd,IN,46237-3321
Target,Orlando,1790,1790 000001790 00001790,2155 Town Center Blvd,FL,32837-6801
Target,Urbandale,1791,1791 000001791 00001791,11148 Plum Dr,IA,50322-6328
Target,Waterloo,1792,1792 000001792 00001792,1501 E San Marnan Dr,IA,50702-4300
Target,Port Orange,1795,1795 000001795 00001795,1771 Dunlawton Ave,FL,32127-4757
Target,Rensselaer,1796,1796 000001796 00001796,625 3rd Ave Ext,NY,12144-5618
Target,Austin,1797,1797 000001797 00001797,10900 Lakeline Mall Dr,TX,78717-5924
Target,Bronx,1798,1798 000001798 00001798,40 W 225th St,NY,10463-7016
Target,Machesney Park,1799,1799 000001799 00001799,9833 N Alpine Rd,IL,61115-1681
Target,Sioux City,1800,1800 000001800 00001800,5775 Sunnybrook Dr,IA,51106-4247
Target,Algonquin,1801,1801 000001801 00001801,750 S Randall Rd,IL,60102-5915
Target,Newington,1802,1802 000001802 00001802,3265 Berlin Turnpike,CT,06111-5101
Target,University Heights,1804,1804 000001804 00001804,14070 Cedar Rd,OH,44118-3216
Target,Visalia,1805,1805 000001805 00001805,4247 S Mooney Blvd,CA,93277-9146
Target,Glendale,1806,1806 000001806 00001806,4301 E Virginia Ave,CO,80246-1510
Target,Asheville,1807,1807 000001807 00001807,115 River Hills Rd,NC,28805-2550
Target,Spring Valley,1808,1808 000001808 00001808,50 Spring Valley Market Pl,NY,10977-5213
Target,Philadelphia,1809,1809 000001809 00001809,11000 Roosevelt Blvd Ste 3,PA,19116-3961
Target,Bee Cave,1812,1812 000001812 00001812,3702 Ranch Rd 620 S,TX,78738-6304
Target,Greeley,1813,1813 000001813 00001813,4400 Centerplace Dr,CO,80634-3756
Target,Chula Vista,1815,1815 000001815 00001815,910 Eastlake Pkwy,CA,91914-3558
Target,El Centro,1816,1816 000001816 00001816,2295 N Imperial Ave,CA,92243-1335
Target,Austin,1817,1817 000001817 00001817,12901 N I H 35 Ste 3-300,TX,78753-1020
Target,Riverhead,1818,1818 000001818 00001818,1150 Old Country Rd,NY,11901-2073
Target,Antioch,1819,1819 000001819 00001819,5769 Lone Tree Way,CA,94531-8587
Target,Clearwater,1820,1820 000001820 00001820,2747 Gulf To Bay Blvd,FL,33759-3945
Target,Manhattan,1821,1821 000001821 00001821,800 Commons Pl,KS,66503-3001
Target,Clifton,1822,1822 000001822 00001822,30 Kingsland Rd,NJ,07014-1904
Target,Howell,1823,1823 000001823 00001823,4955 US Highway 9,NJ,07731-3750
Target,Garner,1824,1824 000001824 00001824,1040 Timber Dr E,NC,27529-6913
Target,Raleigh,1826,1826 000001826 00001826,7900 Old Wake Forest Rd,NC,27616-3319
Target,Chantilly,1827,1827 000001827 00001827,14391 Chantilly Crossing Ln,VA,20151-2118
Target,North Charleston,1829,1829 000001829 00001829,7250 Rivers Ave,SC,29406-4625
Target,Queensbury,1830,1830 000001830 00001830,578 Aviation Rd Ste 1S,NY,12804-1803
Target,Champlin,1831,1831 000001831 00001831,11990 Business Park Blvd N,MN,55316-2005
Target,Blaine,1832,1832 000001832 00001832,1500 109th Ave NE,MN,55449-4670
Target,Savage,1833,1833 000001833 00001833,14333 Hwy 13,MN,55378-2153
Target,Upland,1834,1834 000001834 00001834,1931 Campus Ave,CA,91784-1667
Target,Millbury,1835,1835 000001835 00001835,70 Worcester Providence Tpke #100,MA,01527-2652
Target,Cedar Hill,1836,1836 000001836 00001836,739 N Highway 67,TX,75104-2142
Target,Webster,1837,1837 000001837 00001837,1801 W Bay Area Blvd,TX,77598-3403
Target,Chandler,1838,1838 000001838 00001838,3425 W Frye Rd,AZ,85226-5008
Target,Hadley,1839,1839 000001839 00001839,367 Russell St,MA,01035-9456
Target,Kansas City,1840,1840 000001840 00001840,1201 W 136th St,MO,64145-1647
Target,Overland Park,1842,1842 000001842 00001842,8101 W 151st,KS,66223-2113
Target,Riverside,1843,1843 000001843 00001843,2755 Canyon Springs Pkwy,CA,92507-0932
Target,Cordova,1844,1844 000001844 00001844,475 N Germantown Pkwy,TN,38018-6209
Target,Wilkes-Barre Township,1845,1845 000001845 00001845,3400 Wilkes-Barre Township Commons,PA,18702-6832
Target,San Diego,1846,1846 000001846 00001846,3424 College Ave,CA,92115-7134
Target,Wilsonville,1847,1847 000001847 00001847,25925 SW Heather Pl,OR,97070-5785
Target,Indianapolis,1848,1848 000001848 00001848,1300 E 86th St Ste 35,IN,46240-1990
Target,Addison,1850,1850 000001850 00001850,3730 Belt Line Rd,TX,75001-4301
Target,Jacksonville,1853,1853 000001853 00001853,6331 Roosevelt Blvd,FL,32244-3303
Target,Rockville,1854,1854 000001854 00001854,5700 Bou Ave,MD,20852-1663
Target,Bangor,1855,1855 000001855 00001855,60 Longview Dr,ME,04401-3629
Target,Poughkeepsie,1856,1856 000001856 00001856,2001 South Rd,NY,12601-5978
Target,Stafford,1857,1857 000001857 00001857,1090 Stafford Market Pl,VA,22556-4523
Target,Lakeland,1859,1859 000001859 00001859,4005 Highway 98 N,FL,33809-3815
Target,Oklahoma City,1860,1860 000001860 00001860,8315 N Rockwell Ave,OK,73132-4220
Target,Sherman,1861,1861 000001861 00001861,4160 Town Center Road,TX,75092-2567
Target,Stockton,1862,1862 000001862 00001862,10424 Trinity Parkway,CA,95219-7225
Target,Tucson,1863,1863 000001863 00001863,9615 E Old Spanish Trl,AZ,85748-7540
Target,Rockaway,1864,1864 000001864 00001864,381 Mount Hope Ave,NJ,07866-1645
Target,North Bergen,1865,1865 000001865 00001865,7101 Tonnelle Ave,NJ,07047-4507
Target,Farmingdale,1866,1866 000001866 00001866,100 Willow Park Ctr,NY,11735-1001
Target,La Quinta,1867,1867 000001867 00001867,78935 US Hwy 111,CA,92253-2072
Target,Sherwood,1868,1868 000001868 00001868,21365 SW Baler Way,OR,97140-8989
Target,Redlands,1869,1869 000001869 00001869,27320 W Lugonia Ave,CA,92374-2041
Target,Simpsonville,1870,1870 000001870 00001870,694 Fairview Rd,SC,29680-6708
Target,Durham,1872,1872 000001872 00001872,4037 Durham Chapel Hill Blvd,NC,27707-2516
Target,Gainesville,1873,1873 000001873 00001873,13301 Gateway Center Dr,VA,20155-2984
Target,Leesburg,1874,1874 000001874 00001874,1200 Edwards Ferry Rd,VA,20176-3318
Target,York,1875,1875 000001875 00001875,2251 York Crossing Dr,PA,17408-4753
Target,Covington,1876,1876 000001876 00001876,69320 Highway 21,LA,70433-7220
Target,Bloomington,1878,1878 000001878 00001878,2966 E 3rd St,IN,47401-5424
Target,Chicago,1879,1879 000001879 00001879,4433 S Pulaski Rd,IL,60632-4010
Target,Shorewood,1881,1881 000001881 00001881,1111 Brook Forest Ave,IL,60404-8845
Target,Willowbrook,1882,1882 000001882 00001882,7601 Kingery Hwy,IL,60527-5538
Target,Vancouver,1883,1883 000001883 00001883,8801 NE Hazel Dell Ave,WA,98665-8145
Target,West Hollywood,1884,1884 000001884 00001884,7100 Santa Monica Blvd Ste 201,CA,90046-5896
Target,Hicksville,1885,1885 000001885 00001885,2003 Broadway Mall,NY,11801-2719
Target,Jersey City,1886,1886 000001886 00001886,100 14th St,NJ,07310-1202
Target,Mount Vernon,1887,1887 000001887 00001887,500 East Sandford Blvd,NY,10550-4784
Target,Norridge,1888,1888 000001888 00001888,4050 N Harlem Ave,IL,60706-1202
Target,Chicago,1889,1889 000001889 00001889,1154 S Clark St,IL,60605-2159
Target,Hyattsville,1890,1890 000001890 00001890,3500 East West Hwy Ste 1200,MD,20782-5003
Target,Raleigh,1892,1892 000001892 00001892,4191 The Circle at North Hills St,NC,27609-5712
Target,Falls Church,1893,1893 000001893 00001893,5115 Leesburg Pike,VA,22041-3207
Target,Cypress,1894,1894 000001894 00001894,25901 Highway 290,TX,77429-1099
Target,West Milwaukee,1895,1895 000001895 00001895,1501 Miller Park Way,WI,53214-3654
Target,South Elgin,1896,1896 000001896 00001896,530 Randall Rd,IL,60177-3315
Target,District Heights,1897,1897 000001897 00001897,3101 Donnell Dr,MD,20747-3204
Target,Dorchester,1898,1898 000001898 00001898,7 Allstate Rd,MA,02125-1663
Target,West Des Moines,1901,1901 000001901 00001901,5405 Mills Civic Pkwy,IA,50266-5303
Target,Warrenville,1903,1903 000001903 00001903,28201 Diehl Rd,IL,60555-3934
Target,Tomball,1904,1904 000001904 00001904,14302 FM 2920 Rd,TX,77377-5504
Target,Phoenix,1905,1905 000001905 00001905,2140 E Baseline Rd,AZ,85042-6910
Target,Hanford,1906,1906 000001906 00001906,140 N 12th Ave,CA,93230-5971
Target,Collierville,1907,1907 000001907 00001907,325 New Byhalia Rd,TN,38017-3705
Target,Katy,1908,1908 000001908 00001908,23710 Westheimer Pkwy,TX,77494-3605
Target,Savannah,1910,1910 000001910 00001910,14065 Abercorn St,GA,31419-1964
Target,Columbus,1911,1911 000001911 00001911,1865 N National Rd,IN,47201-5194
Target,Mundelein,1912,1912 000001912 00001912,3100 W IL Rte 60,IL,60060-4267
Target,Munster,1913,1913 000001913 00001913,8005 Calumet Ave,IN,46321-1217
Target,Latham,1915,1915 000001915 00001915,675 Troy Schenectady Rd,NY,12110-2459
Target,North Haven,1916,1916 000001916 00001916,200 Universal Dr N,CT,06473-3156
Target,Mount Laurel,1917,1917 000001917 00001917,4 Centerton Rd,NJ,08054-6102
Target,Kissimmee,1918,1918 000001918 00001918,4795 W Irlo Bronson Memorial Hwy,FL,34746-5332
Target,Flowood,1920,1920 000001920 00001920,170 Promenade Blvd,MS,39232-8017
Target,Jacksonville,1921,1921 000001921 00001921,13740 Beach Blvd,FL,32224-1208
Target,Burleson,1922,1922 000001922 00001922,200 NW John Jones Dr,TX,76028-5615
Target,Columbia,1923,1923 000001923 00001923,6090A Garners Ferry Rd,SC,29209-0600
Target,Chicago,1924,1924 000001924 00001924,6525 W Diversey Ave,IL,60707-2312
Target,Oak Creek,1925,1925 000001925 00001925,8989 S Howell Ave,WI,53154-3803
Target,Albany,1926,1926 000001926 00001926,1057 Eastshore Hwy,CA,94710-1011
Target,San Jose,1927,1927 000001927 00001927,879 Blossom Hill Rd,CA,95123-1213
Target,Westminster,1928,1928 000001928 00001928,10445 Reed St,CO,80021-6063
Target,South Plainfield,1929,1929 000001929 00001929,5000 Hadley Center Dr,NJ,07080-1135
Target,Plainville,1930,1930 000001930 00001930,91 Taunton St,MA,02762-1207
Target,Apex,1932,1932 000001932 00001932,1201 Beaver Creek Commons Dr,NC,27502-3922
Target,Fort Wayne,1933,1933 000001933 00001933,6119 Stellhorn Rd,IN,46815-5357
Target,Melbourne,1934,1934 000001934 00001934,8455 N Wickham Rd,FL,32940-6607
Target,West Palm Beach,1935,1935 000001935 00001935,10155 Okeechobee Blvd,FL,33411-1404
Target,Taylors,1937,1937 000001937 00001937,6025 Wade Hampton Blvd,SC,29687-5334
Target,Glen Burnie,1938,1938 000001938 00001938,6717 Ritchie Hwy,MD,21061-2318
Target,Altoona,1939,1939 000001939 00001939,3414 8th St SW,IA,50009-1024
Target,Dayton,1940,1940 000001940 00001940,4341 Feedwire Rd,OH,45440-3970
Target,Revere,1942,1942 000001942 00001942,36 Furlong Dr,MA,02151-4006
Target,Wichita,1943,1943 000001943 00001943,7575 Maple St,KS,67209-2013
Target,Wichita,1944,1944 000001944 00001944,10800 E 21st St N,KS,67206-3542
Target,Wichita,1945,1945 000001945 00001945,2727 N Maize Rd,KS,67205-7311
Target,Hamilton,1946,1946 000001946 00001946,3369 Princeton Rd,OH,45011-5389
Target,Federal Way,1947,1947 000001947 00001947,2201 S Commons,WA,98003-6023
Target,Medford,1948,1948 000001948 00001948,2975 Horseblock Rd,NY,11763-2526
Target,Streamwood,1950,1950 000001950 00001950,1001 Sutton Rd,IL,60107-2332
Target,Chesterfield,1952,1952 000001952 00001952,1272 Town & Country Crossing Dr,MO,63017-0605
Target,Orange,1955,1955 000001955 00001955,25 Boston Post Rd,CT,06477-3203
Target,Trumbull,1956,1956 000001956 00001956,120 Hawley Ln,CT,06611-5347
Target,Bonney Lake,1957,1957 000001957 00001957,9400 192nd Ave E,WA,98391-8564
Target,Fontana,1958,1958 000001958 00001958,15272 Summit Ave,CA,92336-0231
Target,Mesa,1959,1959 000001959 00001959,5110 S Power Rd,AZ,85212-4201
Target,Gilbert,1960,1960 000001960 00001960,3931 S Gilbert Rd,AZ,85297-7004
Target,Mira Loma,1961,1961 000001961 00001961,12471 Limonite Ave,CA,91752-2457
Target,Waxahachie,1962,1962 000001962 00001962,1316 N Highway 77,TX,75165-5116
Target,Franklin,1963,1963 000001963 00001963,3064 Columbia Ave,TN,37064-7424
Target,Atlanta,1964,1964 000001964 00001964,1275 Caroline St NE,GA,30307-2705
Target,Leominster,1965,1965 000001965 00001965,86 Orchard Hill Park Dr,MA,01453-7020
Target,Sanford,1966,1966 000001966 00001966,1201 W P Ball Blvd,FL,32771-7204
Target,Trinity,1967,1967 000001967 00001967,2900 Little Rd,FL,34655-4420
Target,Mechanicsville,1968,1968 000001968 00001968,7235 Bell Creek Rd,VA,23111-3541
Target,Hilliard,1969,1969 000001969 00001969,4211 Trueman Blvd,OH,43026-2480
Target,Middle River,1970,1970 000001970 00001970,1330 Martin Blvd,MD,21220-4104
Target,Whitehall,1972,1972 000001972 00001972,3955 E Broad St,OH,43213-1130
Target,Tallahassee,1973,1973 000001973 00001973,3700 Bradfordville Rd,FL,32309-1943
Target,Jacksonville,1974,1974 000001974 00001974,4567 River City Dr,FL,32246-7411
Target,Houston,1975,1975 000001975 00001975,300 Meyerland Plaza Mall,TX,77096-1611
Target,Aurora,1976,1976 000001976 00001976,7400 S Gartrell Rd,CO,80016-4236
Target,Columbus,1978,1978 000001978 00001978,55 Graceland Blvd,OH,43214-7508
Target,San Antonio,1979,1979 000001979 00001979,8223 State Highway 151,TX,78245-2104
Target,Redondo Beach,1980,1980 000001980 00001980,1601 Kingsdale Ave,CA,90278-3928
Target,Weatherford,1981,1981 000001981 00001981,122 E Interstate 20,TX,76087-8556
Target,Georgetown,1982,1982 000001982 00001982,1021 W University Ste B3,TX,78628-5339
Target,Brentwood,1983,1983 000001983 00001983,780 Old Hickory Blvd,TN,37027-4527
Target,San Jose,1984,1984 000001984 00001984,1750 Story Rd,CA,95122-1921
Target,Staten Island,2006,2006 000002006 00002006,2900 Veterans Rd W,NY,10309-2500
Target,Bowie,2007,2007 000002007 00002007,10401 Martin Luther King Jr Hwy,MD,20720-4201
Target,Lake Worth,2008,2008 000002008 00002008,6604 Lake Worth Blvd,TX,76135-3000
Target,Bedford,2009,2009 000002009 00002009,220 S River Rd,NH,03110-6819
Target,Omaha,2010,2010 000002010 00002010,6636 N 73rd Plz,NE,68122-1803
Target,Arden,2011,2011 000002011 00002011,15 McKenna Rd,NC,28704-9201
Target,Grand Rapids,2014,2014 000002014 00002014,5120 28th St SE,MI,49512-2049
Target,Caledonia,2015,2015 000002015 00002015,1925 Marketplace Dr SE,MI,49316-8511
Target,North Olmsted,2016,2016 000002016 00002016,24646 Brookpark Rd,OH,44070-3482
Target,Dumfries,2017,2017 000002017 00002017,4310 Fortuna Center Plz,VA,22025-1538
Target,Clovis,2018,2018 000002018 00002018,695 W Herndon Ave,CA,93612-0104
Target,Whittier,2019,2019 000002019 00002019,15614 Whittwood Ln,CA,90603-2324
Target,Northridge,2020,2020 000002020 00002020,8999 Balboa Blvd,CA,91325-2608
Target,Wheat Ridge,2021,2021 000002021 00002021,5071 Kipling St,CO,80033-2251
Target,Davie,2022,2022 000002022 00002022,5800 S University Dr,FL,33328-6102
Target,Lone Tree,2023,2023 000002023 00002023,10001 Commons St,CO,80124-5547
Target,Monroe,2024,2024 000002024 00002024,128 Bailey Farm Rd,NY,10950-4949
Target,Carson,2026,2026 000002026 00002026,20700 S Avalon Blvd Ste 700,CA,90746-3701
Target,New Lenox,2028,2028 000002028 00002028,2370 E Lincoln Hwy,IL,60451-9533
Target,Santa Clarita,2030,2030 000002030 00002030,19105 Golden Valley Rd,CA,91387-1428
Target,Albuquerque,2031,2031 000002031 00002031,6100 Paseo Del Norte NE,NM,87113-1512
Target,Winter Park,2032,2032 000002032 00002032,3770 N Goldenrod Rd,FL,32792-8832
Target,Allen Park,2033,2033 000002033 00002033,3100 Fairlane Dr,MI,48101-2870
Target,Sarasota,2034,2034 000002034 00002034,101  N Cattlemen Rd,FL,34243-4700
Target,Tinley Park,2035,2035 000002035 00002035,7300 191st St,IL,60487-9361
Target,Atlanta,2036,2036 000002036 00002036,100 Perimeter Center Pl,GA,30346-1204
Target,Burlington,2037,2037 000002037 00002037,1475 University Dr,NC,27215-8768
Target,Webster,2038,2038 000002038 00002038,1050 Ridge Rd,NY,14580-2908
Target,Tampa,2040,2040 000002040 00002040,1544 N Dale Mabry Hwy,FL,33607-2551
Target,Des Moines,2041,2041 000002041 00002041,5901 Douglas Ave,IA,50322-3303
Target,Fort Worth,2042,2042 000002042 00002042,301 Carroll St,TX,76107-1956
Target,Overland Park,2043,2043 000002043 00002043,11501 W 97th St,KS,66214-2289
Target,Milford,2045,2045 000002045 00002045,1191 Boston Post Rd,CT,06460-2763
Target,West St Paul,2046,2046 000002046 00002046,1750 Robert St S,MN,55118-3919
Target,St John,2048,2048 000002048 00002048,9885 Wicker Ave,IN,46373-9413
Target,Jennings,2050,2050 000002050 00002050,8007 W Florissant Ave,MO,63136-1400
Target,Huntington Beach,2051,2051 000002051 00002051,9882 Adams Ave,CA,92646-4808
Target,Denver,2052,2052 000002052 00002052,7930 Northfield Blvd,CO,80238-3527
Target,Hixson,2053,2053 000002053 00002053,5579 Highway 153,TN,37343-3748
Target,Suwanee,2056,2056 000002056 00002056,2625 Peachtree Pkwy,GA,30024-1048
Target,The Villages,2058,2058 000002058 00002058,716 N US Highway 441/27,FL,32159-3194
Target,Fort Myers,2059,2059 000002059 00002059,10000 Gulf Center Dr,FL,33913-8961
Target,Midwest City,2061,2061 000002061 00002061,7305 SE 29th St,OK,73110-6122
Target,Mount Dora,2062,2062 000002062 00002062,17450 US Highway 441,FL,32757-6748
Target,Naples,2063,2063 000002063 00002063,2415 Tarpon Bay Blvd,FL,34119-8764
Target,Pinellas Park,2064,2064 000002064 00002064,7150 US 19 N,FL,33781-4600
Target,Lake Worth,2065,2065 000002065 00002065,5900 State Rd 7,FL,33449-5404
Target,Houston,2066,2066 000002066 00002066,6801 FM 1960 Rd W,TX,77069-3803
Target,Boynton Beach,2067,2067 000002067 00002067,10201 Hagen Ranch Rd,FL,33437-3758
Target,Clarksville,2068,2068 000002068 00002068,1125 Veterans Pkwy,IN,47129-2664
Target,Durham,2069,2069 000002069 00002069,8210 Renaissance Pkwy,NC,27713-6688
Target,Grove City,2070,2070 000002070 00002070,4144 Buckeye Pkwy,OH,43123-8175
Target,Harrisonburg,2071,2071 000002071 00002071,1995 E Market St,VA,22801-3433
Target,Lancaster,2072,2072 000002072 00002072,2385 Covered Bridge Dr,PA,17602-1174
Target,Monroe,2074,2074 000002074 00002074,2901 W Highway 74,NC,28110-8435
Target,Philadelphia,2075,2075 000002075 00002075,2701 Castor Ave,PA,19134-5505
Target,Newburgh,2076,2076 000002076 00002076,50 Rte 17 K,NY,12550-3918
Target,Chicago,2078,2078 000002078 00002078,1940 W 33rd St,IL,60608-6107
Target,Chicago,2079,2079 000002079 00002079,2112 W Peterson Ave,IL,60659-4277
Target,Charlotte,2080,2080 000002080 00002080,9841 Northlake Centre Pkwy,NC,28216-8930
Target,Broadview,2081,2081 000002081 00002081,800 Broadview Village Sq,IL,60155-4887
Target,Buena Park,2082,2082 000002082 00002082,7530 Orangethorpe Ave,CA,90621-3429
Target,Yuma,2083,2083 000002083 00002083,1450 S Yuma Palms Pkwy,AZ,85365-1707
Target,Destin,2085,2085 000002085 00002085,853 Harbor Blvd,FL,32541-2709
Target,Reynoldsburg,2086,2086 000002086 00002086,8100 E Broad St,OH,43068-8019
Target,Oak Lawn,2087,2087 000002087 00002087,4120 W 95th St,IL,60453-2675
Target,San Jose,2088,2088 000002088 00002088,533 Coleman Ave,CA,95110-2047
Target,Baton Rouge,2089,2089 000002089 00002089,2001 Millerville Rd,LA,70816-1408
Target,Acworth,2091,2091 000002091 00002091,3378 Cobb Pkwy NW,GA,30101-8304
Target,Deerfield Beach,2092,2092 000002092 00002092,3599 W Hillsboro Blvd,FL,33442-9404
Target,Houston,2093,2093 000002093 00002093,2580 Shearn St,TX,77007
Target,Owasso,2095,2095 000002095 00002095,9010 N 121st East Ave,OK,74055-5358
Target,Riverbank,2096,2096 000002096 00002096,2425 Claribel Rd,CA,95367-9456
Target,Carlisle,2099,2099 000002099 00002099,246 Westminster Dr,PA,17013-3117
Target,Roseville,2101,2101 000002101 00002101,1515 County Road B W,MN,55113-6005
Target,Central Islip,2102,2102 000002102 00002102,160 N Research Pl,NY,11722-4458
Target,Dardenne Prairie,2103,2103 000002103 00002103,7955 Hwy N,MO,63368-7382
Target,Delran,2104,2104 000002104 00002104,4004 Rte 130 N,NJ,08075-2414
Target,Fenton,2105,2105 000002105 00002105,3255 Owen Rd,MI,48430-1755
Target,Fitchburg,2106,2106 000002106 00002106,6321 McKee Rd,WI,53719-5017
Target,Greensboro,2108,2108 000002108 00002108,1628 Highwoods Blvd,NC,27410-2048
Target,Hialeah,2109,2109 000002109 00002109,1750 W 37th St,FL,33012-4687
Target,Keizer,2110,2110 000002110 00002110,6450 Keizer Station Blvd NE,OR,97303-1695
Target,Knightdale,2111,2111 000002111 00002111,1000 Shoppes at Midway Dr,NC,27545-7313
Target,Macomb,2113,2113 000002113 00002113,20877 Hall Rd,MI,48044-4526
Target,Sacramento,2115,2115 000002115 00002115,3601 N Freeway Blvd,CA,95834-2902
Target,Lutz,2118,2118 000002118 00002118,1040 Dale Mabry Hwy,FL,33548-3004
Target,Wadsworth,2119,2119 000002119 00002119,1183 Williams Reserve Blvd,OH,44281-9314
Target,Keene,2120,2120 000002120 00002120,46 Ash Brook Rd,NH,03431-5918
Target,Marietta,2121,2121 000002121 00002121,1401 Johnson Ferry Rd,GA,30062-6495
Target,HoffMan Estates,2122,2122 000002122 00002122,2800 N Sutton Rd,IL,60192-3717
Target,Philadelphia,2124,2124 000002124 00002124,4000 Monument Rd,PA,19131-1600
Target,Omaha,2125,2125 000002125 00002125,7200 Dodge St,NE,68114-3673
Target,Mount Juliet,2126,2126 000002126 00002126,401 S Mount Juliet Rd Ste 600,TN,37122-6309
Target,Irvine,2128,2128 000002128 00002128,115 Fortune Dr,CA,92618-2946
Target,Peachtree City,2129,2129 000002129 00002129,1209 Peachtree Pkwy N,GA,30269-1743
Target,Topsham,2130,2130 000002130 00002130,125 Topsham Fair Mall Rd,ME,04086-1799
Target,Royersford,2131,2131 000002131 00002131,1824 E Ridge Pike,PA,19468-2819
Target,Charlotte,2132,2132 000002132 00002132,12830 Walker Branch Dr,NC,28273-8850
Target,La Plata,2133,2133 000002133 00002133,60 Shining Willow Way,MD,20646-4224
Target,Oakdale,2135,2135 000002135 00002135,7900 32nd St N,MN,55128-4054
Target,Puyallup,2136,2136 000002136 00002136,10302 156Th St E,WA,98374-9321
Target,Atlanta,2137,2137 000002137 00002137,375 18th St,GA,30363
Target,Fredericksburg,2138,2138 000002138 00002138,9785 Jefferson Davis Hwy,VA,22407-9406
Target,Houston,2139,2139 000002139 00002139,8605 Westheimer Rd,TX,77063-4201
Target,Tucson,2140,2140 000002140 00002140,4040 N Oracle Rd,AZ,85705-2700
Target,Vauxhall,2141,2141 000002141 00002141,2235 Springfield Ave,NJ,07088-1100
Target,McKinney,2142,2142 000002142 00002142,8900 State Hwy 121,TX,75070-2917
Target,Canoga Park,2143,2143 000002143 00002143,6700 Topanga Canyon Blvd,CA,91303-2624
Target,Houston,2144,2144 000002144 00002144,12701 FM 1960 Rd W,TX,77065-4014
Target,Denton,2145,2145 000002145 00002145,1801 S Loop 288,TX,76205-4801
Target,Coral Springs,2146,2146 000002146 00002146,4400 N State Rd 7,FL,33073-3353
Target,West Covina,2147,2147 000002147 00002147,2370 S Azusa Ave,CA,91792-1511
Target,Tolleson,2149,2149 000002149 00002149,9830 W Lower Buckeye Rd,AZ,85353-9424
Target,Tustin,2151,2151 000002151 00002151,2300 Park Ave,CA,92782-2702
Target,Gulf Shores,2154,2154 000002154 00002154,3820 Gulf Shores Pkwy,AL,36542-2819
Target,Yulee,2155,2155 000002155 00002155,463737 State Rd 200,FL,32097-8652
Target,Elmira,2158,2158 000002158 00002158,930 County Rd 64,NY,14903-9704
Target,Aurora,2161,2161 000002161 00002161,18855 N Market Place Dr,OH,44202-8784
Target,Mission Viejo,2163,2163 000002163 00002163,25601 Jeronimo Rd,CA,92691-2794
Target,Las Vegas,2164,2164 000002164 00002164,4100 Blue Diamond Rd,NV,89139-7717
Target,Vista,2165,2165 000002165 00002165,3150 Business Park Dr,CA,92081-8520
Target,North Dartmouth,2167,2167 000002167 00002167,479 State Rd,MA,02747-4309
Target,Concord,2169,2169 000002169 00002169,6150 Bayfield Pkwy,NC,28027-7486
Target,Atlanta,2171,2171 000002171 00002171,2539 Piedmont Rd NE,GA,30324-3006
Target,Glen Mills,2172,2172 000002172 00002172,600 Hatton Dr,PA,19342-3317
Target,Conyers,2174,2174 000002174 00002174,2195 Hwy 20 SE,GA,30013-2028
Target,Fredericksburg,2175,2175 000002175 00002175,25 S Gateway Dr,VA,22406-1228
Target,Tempe,2176,2176 000002176 00002176,1800 E Rio Salado Pkwy Ste 120,AZ,85281-2266
Target,North Aurora,2177,2177 000002177 00002177,1800 Orchard Gateway Blvd,IL,60542-6500
Target,Bloomfield Hills,2178,2178 000002178 00002178,2400 S Telegraph Rd,MI,48302-0255
Target,Diamond Bar,2179,2179 000002179 00002179,747 Grand Ave,CA,91765-8400
Target,Monticello,2180,2180 000002180 00002180,1447 E 7th St,MN,55362-4666
Target,Sicklerville,2181,2181 000002181 00002181,487 Cross Keys Rd,NJ,08081-9749
Target,Somersworth,2182,2182 000002182 00002182,11 Andrews Rd,NH,03878-1042
Target,Brighton,2183,2183 000002183 00002183,2171 Prairie Center Pkwy,CO,80601-7000
Target,Hayward,2185,2185 000002185 00002185,19661 Hesperian Blvd,CA,94541-4200
Target,Harrisburg,2186,2186 000002186 00002186,4600 High Pointe Blvd,PA,17111-2447
Target,San Antonio,2187,2187 000002187 00002187,17502 La Cantera Pkwy,TX,78257-8202
Target,Miami,2188,2188 000002188 00002188,3401 N Miami Ave Ste 100,FL,33127-3500
Target,Minneapolis,2189,2189 000002189 00002189,8900 Hwy 7,MN,55426-3919
Target,Depew,2191,2191 000002191 00002191,4920 Transit Rd,NY,14043-4625
Target,Marysville,2192,2192 000002192 00002192,16818 Twin Lakes Ave,WA,98271-4724
Target,Maple Grove,2193,2193 000002193 00002193,15300 Grove Circle N,MN,55369-4469
Target,Bismarck,2194,2194 000002194 00002194,600 Kirkwood Mall,ND,58504-5704
Target,Lake Elsinore,2195,2195 000002195 00002195,18287 Collier Ave,CA,92530-2755
Target,Miami Gardens,2196,2196 000002196 00002196,5601 NW 183rd St,FL,33055-2305
Target,Westminster,2197,2197 000002197 00002197,14451 Orchard Pkwy,CO,80023-9174
Target,West Allis,2199,2199 000002199 00002199,2600 S 108th St,WI,53227-1926
Target,Fridley,2200,2200 000002200 00002200,755 53rd Ave NE,MN,55421-1240
Target,Mechanicsburg,2202,2202 000002202 00002202,6416 Carlisle Pike,PA,17050-2384
Target,Chesapeake,2203,2203 000002203 00002203,233 Carmichael Way,VA,23322-2182
Target,Rosenberg,2205,2205 000002205 00002205,23912 Commercial Dr,TX,77471-6204
Target,Southfield,2207,2207 000002207 00002207,30333 Southfield Rd,MI,48076-1352
Target,Panama City Beach,2208,2208 000002208 00002208,15555 Starfish St,FL,32413-2457
Target,Odessa,2209,2209 000002209 00002209,16400 State Rd 54,FL,33556-3720
Target,Boynton Beach,2210,2210 000002210 00002210,650 N Congress Ave,FL,33426-3445
Target,Rochester,2211,2211 000002211 00002211,500 Medley Centre Pkwy,NY,14622-2466
Target,Brooklyn,2212,2212 000002212 00002212,1598 Flatbush Ave,NY,11210-3036
Target,Lincoln,2214,2214 000002214 00002214,950 Groveland LN,CA,95648-8041
Target,El Paso,2216,2216 000002216 00002216,1874 Joe Battle Blvd,TX,79936-0962
Target,Fort Wayne,2217,2217 000002217 00002217,3801 Coldwater Rd,IN,46805-1198
Target,Longmont,2218,2218 000002218 00002218,551 S Hover Rd,CO,80501-7920
Target,Parker,2219,2219 000002219 00002219,11150 S Twenty Mile Rd,CO,80134-4952
Target,Norman,2220,2220 000002220 00002220,1400 24th Ave NW,OK,73069-6385
Target,Colorado Springs,2221,2221 000002221 00002221,9670 Prominent Pt,CO,80924-5000
Target,Kansas City,2222,2222 000002222 00002222,10900 Stadium Pkwy,KS,66111-8100
Target,Medina,2223,2223 000002223 00002223,300 Clydesdale Trl,MN,55340-4538
Target,Cleveland,2226,2226 000002226 00002226,3100 W 117th St,OH,44111-1747
Target,Peoria,2227,2227 000002227 00002227,24890 N Lake Pleasant Pkwy,AZ,85383-1348
Target,Cleveland,2228,2228 000002228 00002228,3535 Steelyard Dr,OH,44109-2387
Target,Saint Paul,2229,2229 000002229 00002229,1300 University Ave W,MN,55104-4185
Target,Livonia,2230,2230 000002230 00002230,29451 Plymouth Rd,MI,48150-2112
Target,National City,2232,2232 000002232 00002232,3060 Plaza Bonita Rd,CA,91950-8004
Target,Jacksonville,2233,2233 000002233 00002233,9525 Crosshill Blvd,FL,32222-5812
Target,Rowlett,2234,2234 000002234 00002234,4701 Lakeview Pkwy,TX,75088-4037
Target,Riverview,2235,2235 000002235 00002235,10150 Bloomingdale Ave,FL,33578-3612
Target,Phoenix,2236,2236 000002236 00002236,16806 N 7th St,AZ,85022-6698
Target,San Jose,2238,2238 000002238 00002238,3155 Silver Creek Rd,CA,95121-1730
Target,San Antonio,2239,2239 000002239 00002239,22832 US Highway 281 N,TX,78258-7430
Target,Nashville,2240,2240 000002240 00002240,6814 Charlotte Pike,TN,37209-4206
Target,Chambersburg,2241,2241 000002241 00002241,913 Norland Ave,PA,17201-4213
Target,Grand Prairie,2243,2243 000002243 00002243,5270 S State Hwy 360,TX,75052-8307
Target,Charlotte,2244,2244 000002244 00002244,900 Metropolitan Ave Ste 2,NC,28204-3262
Target,Ontario,2245,2245 000002245 00002245,4200 E 4th St,CA,91764-5250
Target,Quakertown,2246,2246 000002246 00002246,610 N West End Blvd,PA,18951-4100
Target,Riverdale,2247,2247 000002247 00002247,94 State Rt 23,NJ,07457-1208
Target,Ansonia,2249,2249 000002249 00002249,20 W Main St,CT,06401-1812
Target,Culpeper,2250,2250 000002250 00002250,15341 Montanus Dr,VA,22701-2523
Target,Pleasant Prairie,2251,2251 000002251 00002251,9777 76th St,WI,53158-1990
Target,Morgan Hill,2252,2252 000002252 00002252,1061 Cochrane Rd,CA,95037-9305
Target,Watertown,2253,2253 000002253 00002253,21800 Towne Center Dr,NY,13601-5898
Target,Sterling Heights,2254,2254 000002254 00002254,2310 Metropolitan Pkwy,MI,48310-4209
Target,Washington,2255,2255 000002255 00002255,1851 Vernaci Dr,MO,63090-6174
Target,Monmouth Junction,2256,2256 000002256 00002256,4196 US Hwy 1,NJ,08852-1904
Target,Stoughton,2258,2258 000002258 00002258,1 Hawes Way,MA,02072-1162
Target,Washington,2259,2259 000002259 00002259,3100 14th St NW,DC,20010-2444
Target,Apple Valley,2260,2260 000002260 00002260,20288 US Hwy 18,CA,92307-2937
Target,Sheridan,2261,2261 000002261 00002261,3650 Riverpoint Pkwy,CO,80110-3312
Target,Matteson,2263,2263 000002263 00002263,4647 Promenade Way,IL,60443-2981
Target,Winter Garden,2264,2264 000002264 00002264,3343 Daniels Rd,FL,34787
Target,Coral Springs,2265,2265 000002265 00002265,9600 Westview Dr,FL,33076-2514
Target,Fairview Park,2266,2266 000002266 00002266,20900 Westgate Mall,OH,44126-1320
Target,South Easton,2267,2267 000002267 00002267,41 Robert Dr,MA,02375-1352
Target,West Sacramento,2268,2268 000002268 00002268,2005 Town Center Plz,CA,95691-4957
Target,Titusville,2269,2269 000002269 00002269,3055 Columbia Blvd,FL,32780-7865
Target,El Dorado Hills,2270,2270 000002270 00002270,4400 Town Center Blvd,CA,95762-7130
Target,Annapolis,2271,2271 000002271 00002271,1911 Towne Centre Blvd,MD,21401-3020
Target,Sterling,2272,2272 000002272 00002272,45130 Columbia PL,VA,20166-2500
Target,Bossier City,2273,2273 000002273 00002273,2735 Beene Blvd,LA,71111-5491
Target,Compton,2275,2275 000002275 00002275,1621 S Alameda St,CA,90220-4973
Target,Lexington,2277,2277 000002277 00002277,5119 Sunset Blvd,SC,29072-9155
Target,Pace,2279,2279 000002279 00002279,4727 Hwy 90,FL,32571-1403
Target,Hawthorne,2280,2280 000002280 00002280,2700 W 120th St,CA,90250-3388
Target,San Jose,2281,2281 000002281 00002281,2161 Monterey Hwy,CA,95125-1057
Target,Methuen,2287,2287 000002287 00002287,67 Pleasant Valley St,MA,01844-7202
Target,Austin,2288,2288 000002288 00002288,9500 S Interstate 35 Ste G,TX,78748-1753
Target,Tampa,2289,2289 000002289 00002289,11627 W Hillsborough Ave,FL,33635-9736
Target,Renton,2290,2290 000002290 00002290,1215 N Landing Way,WA,98057-5521
Target,Wareham,2292,2292 000002292 00002292,2421 Cranberry Hwy Ste 110,MA,02571-5022
Target,Romeoville,2293,2293 000002293 00002293,349 S Weber Rd,IL,60446-5061
Target,Williamsburg,2296,2296 000002296 00002296,200 Marquis Pkwy,VA,23185-5371
Target,Front Royal,2297,2297 000002297 00002297,10 Crooked Run Plaza,VA,22630-7004
Target,Richfield,2300,2300 000002300 00002300,6445 Richfield Pkwy,MN,55423-6400
Target,Brunswick,2301,2301 000002301 00002301,200 Glynn Isle,GA,31525-2929
Target,Temple,2302,2302 000002302 00002302,4220 N 5th Street Hwy,PA,19560-1738
Target,Lincoln,2303,2303 000002303 00002303,8201 S 40th St,NE,68516-3005
Target,Westminster,2304,2304 000002304 00002304,200 Westminster Mall,CA,92683-4984
Target,Torrington,2305,2305 000002305 00002305,1922 E Main St,CT,06790-3101
Target,Marina,2306,2306 000002306 00002306,133 General Stilwell Dr,CA,93933-6242
Target,Glendale,2307,2307 000002307 00002307,2195 Glendale Galleria,CA,91210-2101
Target,Moreno Valley,2309,2309 000002309 00002309,27100 Eucalyptus Ave,CA,92555-4522
Target,Easton,2310,2310 000002310 00002310,28539 Marlboro Ave,MD,21601-2752
Target,Springfield,2312,2312 000002312 00002312,1200 Baltimore Pike,PA,19064-2701
Target,Edina,2313,2313 000002313 00002313,7000 York Ave S,MN,55435-4285
Target,Cape Coral,2316,2316 000002316 00002316,1890 NE Pine Island Road,FL,33909-1733
Target,Estero,2317,2317 000002317 00002317,8040 Mediterranean Dr,FL,33928-8304
Target,Signal Hill,2319,2319 000002319 00002319,950 E 33rd St,CA,90755-5114
Target,Dickinson,2320,2320 000002320 00002320,1801 Gulf FWY,TX,77539-3207
Target,Rochester,2321,2321 000002321 00002321,4611 Maine Ave SE,MN,55904-6929
Target,Mentor,2322,2322 000002322 00002322,9669 Mentor Ave,OH,44060-4528
Target,Manassas,2323,2323 000002323 00002323,9900 Sowder Village Sq,VA,20109-5464
Target,Syracuse,2324,2324 000002324 00002324,3657 W Genesee St,NY,13219-2003
Target,Haverhill,2325,2325 000002325 00002325,35 Computer Dr,MA,01832-1236
Target,Omaha,2326,2326 000002326 00002326,16959 Evans Plaza,NE,68116-2388
Target,Carson,2328,2328 000002328 00002328,651 W Sepulveda Blvd,CA,90745-6314
Target,Granada Hills,2329,2329 000002329 00002329,11133 Balboa Blvd,CA,91344-4204
Target,Belleville,2330,2330 000002330 00002330,5601 Belleville Crossing St,IL,62226-3104
Target,Savannah,2331,2331 000002331 00002331,1907 E Victory Dr,GA,31404-3714
Target,Sandy Springs,2333,2333 000002333 00002333,5570 Roswell Rd,GA,30342-1102
Target,Dallas,2334,2334 000002334 00002334,39739 LBJ Fwy,TX,75237-3560
Target,Mckinney,2335,2335 000002335 00002335,2025 N Central Expy,TX,75070-2911
Target,Henrico,2337,2337 000002337 00002337,9001 Staples Mill Rd,VA,23228-2022
Target,Frisco,2338,2338 000002338 00002338,4885 Eldorado Pkwy,TX,75033-8662
Target,Burnsville,2340,2340 000002340 00002340,810 County Rd 42 W,MN,55337-4492
Target,Glendale,2341,2341 000002341 00002341,10404 N 43rd Ave,AZ,85302-2019
Target,Cedar Park,2342,2342 000002342 00002342,1101 C-Bar Ranch Trl Lot #2,TX,78613
Target,Chicago,2344,2344 000002344 00002344,11840 S Marshfield Ave,IL,60643-4902
Target,Wentzville,2345,2345 000002345 00002345,1883 Wentzville Pkwy,MO,63385-3896
Target,Lathrop,2347,2347 000002347 00002347,16858 Golden Valley Pkwy,CA,95330-8535
Target,Tulare,2349,2349 000002349 00002349,2195 E Prosperity Ave,CA,93274-7754
Target,Palmdale,2350,2350 000002350 00002350,38019 47Th St E,CA,93552-3103
Target,Amherst,2351,2351 000002351 00002351,8000 Oak Point Rd,OH,44001-9654
Target,Casa Grande,2353,2353 000002353 00002353,951 N Promenade Pkwy,AZ,85194-5400
Target,Phoenix,2354,2354 000002354 00002354,5715 N 19th Ave,AZ,85015-2433
Target,Magnolia,2356,2356 000002356 00002356,32858 FM 2978 Rd,TX,77354-6073
Target,Tulsa,2357,2357 000002357 00002357,7437 S Olympia Ave W,OK,74132-1838
Target,Hilliard,2358,2358 000002358 00002358,1970 Hilliard Rome Rd,OH,43026-7566
Target,Los Banos,2359,2359 000002359 00002359,1405 W Pacheco Blvd,CA,93635-8506
Target,Smyrna,2360,2360 000002360 00002360,803 Industrial Blvd,TN,37167-6865
Target,Trumbull,2361,2361 000002361 00002361,5065 Main St Ste Target,CT,06611-4204
Target,Spring Hill,2362,2362 000002362 00002362,1033 Crossings Blvd,TN,37174-2755
Target,Ft Myers,2363,2363 000002363 00002363,15880 San Carlos Blvd,FL,33908-3378
Target,Palm Coast,2364,2364 000002364 00002364,5100 E Hwy 100,FL,32164-2365
Target,Queen Creek,2365,2365 000002365 00002365,21398 S Ellsworth Loop Rd,AZ,85142-5379
Target,Davenport,2366,2366 000002366 00002366,5000 Grandview Pkwy,FL,33837-2300
Target,Kissimmee,2370,2370 000002370 00002370,3200 Rolling Oaks Blvd,FL,34747-3052
Target,Chicago,2373,2373 000002373 00002373,4466 N Broadway St,IL,60640-5660
Target,Orlando,2376,2376 000002376 00002376,120 W Grant St,FL,32806-3932
Target,Yorkville,2378,2378 000002378 00002378,1652 N Beecher Rd,IL,60560-5602
Target,Winchester,2379,2379 000002379 00002379,191 Market St,VA,22603-4750
Target,New York,2380,2380 000002380 00002380,517 E 117th Street,NY,10035-4410
Target,Paramus,2381,2381 000002381 00002381,900 Bergen Town Ctr,NJ,07652-5005
Target,Omaha,2383,2383 000002383 00002383,12500 K Plaza,NE,68137-2207
Target,Sewell,2384,2384 000002384 00002384,675 Woodbury Glassboro Rd,NJ,08080-3733
Target,Atwater,2386,2386 000002386 00002386,1000 Commerce Ave,CA,95301-5213
Target,Franklin,2388,2388 000002388 00002388,7800 S Lovers Lane Rd,WI,53132-2290
Target,Humble,2389,2389 000002389 00002389,6931 FM 1960 Rd E,TX,77346-2705
Target,Apple Valley,2390,2390 000002390 00002390,15560 Pilot Knob Rd,MN,55124-7286
Target,Indianapolis,2391,2391 000002391 00002391,6101 N Keystone Ave,IN,46220-2488
Target,Manahawkin,2392,2392 000002392 00002392,209 Stafford Park Blvd,NJ,08050-2734
Target,Baltimore,2393,2393 000002393 00002393,3201 Tioga Pkwy,MD,21215-7987
Target,Brandywine,2394,2394 000002394 00002394,15922 Crain Hwy SE,MD,20613-8000
Target,Wesley Chapel,2395,2395 000002395 00002395,6350 Weddington Rd,NC,28104-7925
Target,Virginia Beach,2396,2396 000002396 00002396,2233 Upton Dr,VA,23454-1186
Target,La Habra,2397,2397 000002397 00002397,1000 W Imperial Hwy,CA,90631-6901
Target,Ventura,2398,2398 000002398 00002398,245 S Mills Rd,CA,93003
Target,Allentown,2399,2399 000002399 00002399,912 Airport Center Dr,PA,18109-9384
Target,Goodyear,2400,2400 000002400 00002400,995 S Cotton Ln,AZ,85338-4604
Target,Fort Collins,2403,2403 000002403 00002403,2936 Council Tree Ave,CO,80525-6300
Target,Henderson,2404,2404 000002404 00002404,350 W Lake Mead Pkwy,NV,89015-7088
Target,Woodbury,2406,2406 000002406 00002406,449 Commerce Dr,MN,55125-4872
Target,Woodland,2408,2408 000002408 00002408,2185 Bronze Star Dr,CA,95776-5406
Target,Austin,2409,2409 000002409 00002409,10107 Research Blvd,TX,78759-5803
Target,Honolulu,2410,2410 000002410 00002410,4380 Lawehana St,HI,96818-3129
Target,Kapolei,2411,2411 000002411 00002411,4450 Kapolei Pkwy,HI,96707-1878
Target,Kailua-Kona,2412,2412 000002412 00002412,74-5455 Makala Blvd,HI,96740-2711
Target,Fairview Heights,2414,2414 000002414 00002414,4701 N Illinois St,IL,62208-3416
Target,Canton,2415,2415 000002415 00002415,47330 Michigan Ave,MI,48188-2310
Target,Houston,2419,2419 000002419 00002419,2700 Eldridge Pkwy,TX,77082-6870
Target,Porterville,2420,2420 000002420 00002420,1363 W Henderson Ave,CA,93257-1456
Target,Anaheim,2421,2421 000002421 00002421,101 S Euclid St,CA,92802-1011
Target,Broken Arrow,2422,2422 000002422 00002422,1150 E Hillside Dr,OK,74012-2385
Target,Kansas City,2423,2423 000002423 00002423,9040 N Skyview Ave,MO,64154-8501
Target,Long Beach,2424,2424 000002424 00002424,6750 Cherry Ave,CA,90805-1717
Target,Fort Worth,2425,2425 000002425 00002425,751 Alta Mere Dr,TX,76116-1526
Target,San Antonio,2426,2426 000002426 00002426,5355 W Loop 1604 N,TX,78253-5300
Target,West Palm Beach,2427,2427 000002427 00002427,1760 Palm Beach Lakes Blvd,FL,33401-2082
Target,New Braunfels,2429,2429 000002429 00002429,135 Creekside Way,TX,78130-6248
Target,Warwick,2430,2430 000002430 00002430,400 Bald Hill Rd,RI,02886-6101
Target,Milton,2431,2431 000002431 00002431,13055 Hwy 9 N,GA,30004-5137
Target,Lisbon,2433,2433 000002433 00002433,195 River Rd,CT,06351-3253
Target,Southington,2434,2434 000002434 00002434,600 Executive Blvd,CT,06489-6008
Target,Muncy,2437,2437 000002437 00002437,170 S Lycoming Mall Rd,PA,17756-8152
Target,San Marcos,2438,2438 000002438 00002438,700 Barnes Dr,TX,78666-6187
Target,Selinsgrove,2439,2439 000002439 00002439,501 Market Place Blvd,PA,17870-2407
Target,Fort Wayne,2440,2440 000002440 00002440,1102 S Thomas Rd,IN,46804-1144
Target,Indio,2441,2441 000002441 00002441,42625 Jackson St,CA,92203-9737
Target,Olive Branch,2442,2442 000002442 00002442,5150 Goodman Rd,MS,38654-7903
Target,Alpharetta,2443,2443 000002443 00002443,2600 Holcomb Bridge Rd,GA,30022-5305
Target,Pensacola,2445,2445 000002445 00002445,2950 S Blue Angel Pkwy,FL,32506-6905
Target,Hackettstown,2446,2446 000002446 00002446,68 US Hwy 46 W,NJ,07840-4978
Target,Waconia,2449,2449 000002449 00002449,875 E Main St,MN,55387-1081
Target,Reynoldsburg,2450,2450 000002450 00002450,2437 Taylor Park Dr,OH,43068-8036
Target,Flushing,2451,2451 000002451 00002451,4024 College Point Blvd,NY,11354-5112
Target,San Antonio,2452,2452 000002452 00002452,7014 FM 78,TX,78244-1758
Target,Council Bluffs,2454,2454 000002454 00002454,3804 Metro Dr,IA,51501-7732
Target,Davis,2455,2455 000002455 00002455,4601 2nd St,CA,95618-9446
Target,Otsego,2456,2456 000002456 00002456,15800 87th St NE,MN,55330-6546
Target,Rapid City,2457,2457 000002457 00002457,1415 Eglin St,SD,57701-9504
Target,Aurora,2458,2458 000002458 00002458,15700 E Briarwood Cir,CO,80016-1558
Target,Plattsburgh,2459,2459 000002459 00002459,60 Smithfield Blvd,NY,12901-2151
Target,Yukon,2460,2460 000002460 00002460,1700 Garth Brooks Blvd,OK,73099-6387
Target,Amsterdam,2461,2461 000002461 00002461,100 Amsterdam Commons,NY,12010-7565
Target,Simi Valley,2462,2462 000002462 00002462,51 Tierra Rejada Rd,CA,93065-2902
Target,Rancho Cordova,2463,2463 000002463 00002463,10880 Olson Dr,CA,95670-5646
Target,San Diego,2465,2465 000002465 00002465,5680 Balboa Ave,CA,92111-2702
Target,San Antonio,2467,2467 000002467 00002467,746 NW Loop 410,TX,78216-5609
Target,Hesperia,2468,2468 000002468 00002468,12795 Main St,CA,92345-9110
Target,Visalia,2469,2469 000002469 00002469,3308 N Dinuba Blvd,CA,93291-8718
Target,San Pedro,2470,2470 000002470 00002470,1701 N Gaffey St,CA,90731-1274
Target,Menifee,2471,2471 000002471 00002471,30340 Haun Rd,CA,92584-6806
Target,Sparks,2472,2472 000002472 00002472,1550 E Lincoln Way,NV,89434-8989
Target,Louisville,2473,2473 000002473 00002473,4174 Westport Rd,KY,40207-2784
Target,Memphis,2474,2474 000002474 00002474,5959 Poplar Ave,TN,38119-3938
Target,Bronx,2475,2475 000002475 00002475,700 Exterior St,NY,10451-2022
Target,Canton,2476,2476 000002476 00002476,2022 Cumming Hwy,GA,30115-8071
Target,Brea,2482,2482 000002482 00002482,855 E Birch St,CA,92821-5769
Target,Newport,2483,2483 000002483 00002483,160 Pavilion Pkwy,KY,41071-2884
Target,Diberville,2485,2485 000002485 00002485,3867 Promenade Pkwy,MS,39540-5363
Target,Cincinnati,2488,2488 000002488 00002488,6150 Glenway Ave,OH,45211-6319
Target,Brooksville,2489,2489 000002489 00002489,3101 Aerial Way,FL,34604-0629
Target,Hillside,2490,2490 000002490 00002490,130 S Mannheim Rd,IL,60162-1821
Target,Sun Prairie,2491,2491 000002491 00002491,660 S Grand Ave,WI,53590-9832
Target,Sacramento,2492,2492 000002492 00002492,6507 4th Ave,CA,95817-2611
Target,Houston,2494,2494 000002494 00002494,8503 S Sam Houston Pkwy E,TX,77075-4857
Target,Pflugerville,2495,2495 000002495 00002495,18700 Limestone Commercial Dr,TX,78660-6545
Target,Exton,2496,2496 000002496 00002496,180 Eagleview Blvd,PA,19341-3012
Target,Murrieta,2499,2499 000002499 00002499,27818 Clinton Keith Rd,CA,92562-8554
Target,Hampton,2501,2501 000002501 00002501,5001 Holt Ave,VA,23666-2282
Target,Birmingham,2503,2503 000002503 00002503,5561 Grove Blvd,AL,35226-4600
Target,Allen,2516,2516 000002516 00002516,150 E Stacy Rd,TX,75002-8756
Target,Inver Grove Heights,2519,2519 000002519 00002519,7841 Amana Trail,MN,55077
Target,Lewisville,2520,2520 000002520 00002520,4760 State Hwy 121,TX,75056-2913
Target,Portland,2523,2523 000002523 00002523,9401 NE Cascades Pkwy,OR,97220-6824
Target,Bakersfield,2524,2524 000002524 00002524,2901 Ming Ave,CA,93304-4144
Target,Blue Springs,2525,2525 000002525 00002525,1040 NE CORONADO,MO,64014-2971
Target,Cedar Falls,2526,2526 000002526 00002526,214 Viking Plaza Dr,IA,50613-6936
Target,Rochester,2528,2528 000002528 00002528,3181 Chili Ave,NY,14624-5409
Target,Reading,2529,2529 000002529 00002529,4599 Perkiomen Ave,PA,19606-3201
Target,Greenland,2530,2530 000002530 00002530,1450 Greenland Rd,NH,03840-2438
Target,Hammond,2531,2531 000002531 00002531,2030 Hammond Square Dr,LA,70403-6156
Target,Hanover,2532,2532 000002532 00002532,1167 Washington St,MA,02339-1643
Target,Huntsville,2533,2533 000002533 00002533,259 Interstate 45 S,TX,77340-4903
Target,Kenner,2534,2534 000002534 00002534,1401 W ESPLANADE AVE,LA,70065-2845
Target,Easton,2536,2536 000002536 00002536,3835 Dryland Way,PA,18045-8208
Target,Malvern,2537,2537 000002537 00002537,455 Carnegie Blvd,PA,19355-8599
Target,Martinsburg,2538,2538 000002538 00002538,436 Retail Commons Pkwy,WV,25403-6183
Target,Sioux Falls,2540,2540 000002540 00002540,1021 Highline Pl,SD,57110
Target,Tulsa,2542,2542 000002542 00002542,10019 S Memorial Dr,OK,74133-6103
Target,Warren,2544,2544 000002544 00002544,28800 Dequindre Rd,MI,48092-2466
Target,Waukesha,2546,2546 000002546 00002546,1250 W Sunset Dr,WI,53189-8423
Target,Melbourne,2547,2547 000002547 00002547,4305 Norfolk Pkwy,FL,32904-8605
Target,Pottstown,2548,2548 000002548 00002548,100 Upland Square Dr,PA,19464-1575
Target,Wylie,2550,2550 000002550 00002550,3440 W FM 544,TX,75098-9408
Target,Blue Ash,2557,2557 000002557 00002557,9099 Plainfield Rd,OH,45236-1245
Target,Dekalb,2559,2559 000002559 00002559,2555 Sycamore Rd,IL,60115-2051
Target,Gastonia,2565,2565 000002565 00002565,425 Cox Rd,NC,28054
Target,Hanover,2567,2567 000002567 00002567,31 WILSON AVE,PA,17331-5207
Target,Henderson,2568,2568 000002568 00002568,695 S Green Valley Pkwy,NV,89052-0404
Target,Las Vegas,2569,2569 000002569 00002569,6371 N Decatur Blvd,NV,89130-8001
Target,Marlborough,2570,2570 000002570 00002570,605 Boston Post Rd E,MA,01752-3702
Target,Mesquite,2572,2572 000002572 00002572,1629 N Town East Blvd,TX,75150-4105
Target,San Jose,2581,2581 000002581 00002581,95 Holger Way,CA,95134-1377
Target,Sunnyvale,2584,2584 000002584 00002584,298 W McKinley Ave,CA,94086-6193
Target,Wauwatosa,2586,2586 000002586 00002586,3900 N 124th St,WI,53222-2105
Target,Petaluma,2601,2601 000002601 00002601,401 Kenilworth Drive,CA,94952
Target,Rocklin,2604,2604 000002604 00002604,5104 Commons Dr,CA,95677
Target,San Jose,2605,2605 000002605 00002605,5630 Cottle Rd,CA,95123
Target,Swansea,2607,2607 000002607 00002607,579 GAR HWY,MA,02777-4587
Target,West Valley City,2609,2609 000002609 00002609,5518 W High Market Dr,UT,84120
Target,Chicago,2613,2613 000002613 00002613,1200 N Larrabee St,IL,60610
Target,Fremont,2615,2615 000002615 00002615,43950 Pacific Commons Blvd,CA,94538-3803
Target,Azusa,2627,2627 000002627 00002627,809 N Azusa Ave,CA,91702-2510
Target,Gambrills,2631,2631 000002631 00002631,2384 BRANDERMILL BLVD,MD,21054
Target,Culver City,2632,2632 000002632 00002632,6000 Sepulveda Blvd,CA,90230-6423
Target,Salt Lake City,2641,2641 000002641 00002641,1110 S 300 W,UT,84101-3053
Target,Hilo,2682,2682 000002682 00002682,391 E MAKAALA ST,HI,96720-5146
Target,Braintree,2693,2693 000002693 00002693,250 Granite St,MA,02184-2813
Target,Bakersfield,2715,2715 000002715 00002715,11000 Stockdale Hwy,CA,93311-3635
Target,Highlands Ranch,2716,2716 000002716 00002716,1265 Sgt Jon Stiles Dr,CO,80129-2265
Target,Lakewood,2717,2717 000002717 00002717,460 S Vance St,CO,80226-3305
Target,Morrisville,2721,2721 000002721 00002721,3001 Market Center Dr,NC,27560
Target,Kyle,2725,2725 000002725 00002725,5188 Kyle Center Dr,TX,78640-6137
Target,Moore,2727,2727 000002727 00002727,720 SW 19TH ST,OK,73160-2941
Target,Louisville,2728,2728 000002728 00002728,12975 Shelbyville Rd,KY,40243-2425
Target,San Clemente,2730,2730 000002730 00002730,990 Avenida Vista Hermosa,CA,92673-6360
Target,Little Rock,2737,2737 000002737 00002737,420 S University Ave,AR,72205-5246
Target,Lawton,2739,2739 000002739 00002739,2030 NW 82nd Street,OK,73505
Target,Myrtle Beach,2742,2742 000002742 00002742,140 Sayebrook Pkwy,SC,29588
Target,Fresno,2744,2744 000002744 00002744,6655 North Riverside Dr,CA,93722
Target,Chandler,2747,2747 000002747 00002747,3777 S ARIZONA AVE,AZ,85248
Target,Staten Island,2753,2753 000002753 00002753,2873 Richmond Ave,NY,10314-5811
Target,PITTSBURGH,2757,2757 000002757 00002757,6231 PENN AVE,PA,15206
Target,San Luis Obispo,2759,2759 000002759 00002759,11990 LOS OSOS VALLEY RD,CA,93405
Target,Oxnard,2760,2760 000002760 00002760,2850 N OXNARD BLVD,CA,93036-5443
Target,Newark,2764,2764 000002764 00002764,800 Christiana Mall,DE,19702-3216
Target,Madison,2765,2765 000002765 00002765,750 Hilldale Way,WI,53705-2644
Target,San Francisco,2766,2766 000002766 00002766,789 Mission St,CA,94103-3132
Target,Emeryville,2767,2767 000002767 00002767,1555 40th Street,CA,94608-3515
Target,San Francisco,2768,2768 000002768 00002768,2675 Geary Blvd,CA,94118-3400
Target,Virginia Beach,2770,2770 000002770 00002770,4554 Virginia Beach Blvd,VA,23462-3004
Target,Dublin,2771,2771 000002771 00002771,2800 Dublin Blvd,CA,94568-4589
Target,San Rafael,2772,2772 000002772 00002772,125 Shoreline Pkwy,CA,94901-5521
Target,Los Angeles,2775,2775 000002775 00002775,8480 Beverly Blvd Ste 1A,CA,90048-3414
Target,Los Angeles,2776,2776 000002776 00002776,735 S Figueroa St,CA,90017
Target,Portland,2779,2779 000002779 00002779,1555 N Tomahawk Island Dr,OR,97217-8296
Target,Brookfield,2780,2780 000002780 00002780,12725 W Bluemound Rd,WI,53005
Target,Chicago,2781,2781 000002781 00002781,1101 W Jackson Blvd,IL,60607-2905
Target,Cary,2784,2784 000002784 00002784,7129 OKelly Chapel Road,NC,27519
Target,Holly Springs,2785,2785 000002785 00002785,100 Grand Hill Place,NC,27540-4416
Target,Seattle,2786,2786 000002786 00002786,1401 2nd Ave,WA,98101-2007
Target,Pittsburgh,2787,2787 000002787 00002787,201 S Hills Vlg,PA,15241-1408
Target,Fairfax,2790,2790 000002790 00002790,2905 District Ave S Ste 400,VA,22031
Target,Portland,2791,2791 000002791 00002791,939 SW Morrison,OR,97205
Target,Capitola,2795,2795 000002795 00002795,1825 41st Ave,CA,95010-2504
Target,Homewood,2796,2796 000002796 00002796,531 Brookwood Village,AL,35209-4501
Target,Chicago,2799,2799 000002799 00002799,1 S State St,IL,60603
Target,Escondido,2802,2802 000002802 00002802,280 E Via Rancho Pkwy,CA,92025-8005
Target,San Antonio,2803,2803 000002803 00002803,1223 Austin Hwy,TX,78209
Target,Schenectady,2805,2805 000002805 00002805,204 Saratoga Rd,NY,12302-4509
Target,Albuquerque,2813,2813 000002813 00002813,2120 Louisiana Blvd NE,NM,87110-5402
Target,Knoxville,2815,2815 000002815 00002815,1900 Town Center Blvd,TN,37922
Target,Madison,2816,2816 000002816 00002816,8207 HIGHWAY 72 W,AL,35758
Target,Grandville,2818,2818 000002818 00002818,3130 44th St SW,MI,49418
Target,Denver,2820,2820 000002820 00002820,7777 E Hampden Ave,CO,80231
Target,East Peoria,2824,2824 000002824 00002824,480 W Washington St,IL,61611-2445
Target,Alameda,2829,2829 000002829 00002829,2700 Fifth Street,CA,94501
Target,Pomona,2831,2831 000002831 00002831,701 Rio Rancho Road,CA,91766
Target,Valley Stream,2840,2840 000002840 00002840,500 W Sunrise Hwy,NY,11581-1001
Target,Huntington Station,2844,2844 000002844 00002844,124 E Jericho Tpke,NY,11746-7324
Target,Baltimore,2845,2845 000002845 00002845,3559 Boston Street,MD,21224
Target,Miami,, 00000 0000,7800 SW 104th St,FL,33156-2631
