Keywords,city,AGG store_number,store_number,address,state,zip_code
Texaco,ATLANTA,40010,040010 0040010,3330 MARTIN LUTHER KING,GA,30331-1712
Texaco,LOUISVILLE,53281,053281 0053281,1000 W MAIN ST,MS,39339
Texaco,VANCOUVER,92090,092090 0092090,3515 E FOURTH PLAIN BLVD,WA,98661
Texaco,NEW IBERIA,109343,0109343 00109343,1426 CENTER ST,LA,70560-6113
Texaco,NEW BRAUNFELS,149683,0149683 00149683,1185 IH 35 E,TX,78130-3786
Texaco,DELHI,200621,0200621 00200621,930 BROADWAY,LA,71232-3404
Texaco,FLOWOOD,200842,0200842 00200842,630 HWY 80 EAST,MS,39232
Texaco,BELLEVUE,203442,0203442 00203442,15248 BEL RED RD.,WA,98007
Texaco,NEW IBERIA,204247,0204247 00204247,901 S LEWIS ST,LA,70560-6303
Texaco,DELCAMBRE,206143,0206143 00206143,814 HWY 14 WEST,LA,70528
Texaco,ST. GEORGE,206714,0206714 00206714,750 SOUTH BLUFF ST.,UT,84770
Texaco,SUGAR LAND,207126,0207126 00207126,7800 HWY 90A,TX,77478
Texaco,NORTHPORT,207992,0207992 00207992,5675 HWY 43 N,AL,35473-8256
Texaco,CLEVELAND,209314,0209314 00209314,2725 20TH ST NE,TN,37312
Texaco,WINFIELD,210547,0210547 00210547,7016 HWY 129,AL,35594
Texaco,EDMONDS,210708,0210708 00210708,21412 HWY 99,WA,98026-7748
Texaco,MURRAY,210815,0210815 00210815,4489 SOUTH CENTURY DRIVE,UT,84123
Texaco,AUSTIN,300848,0300848 00300848,7002 RR 620 & FM 2222,TX,78732
Texaco,LOGAN,302000,0302000 00302000,970 NORTH MAIN ST,UT,84321
Texaco,WILMER,302027,0302027 00302027,104 S US HIGHWAY 75,TX,75172
Texaco,THIBODAUX,302031,0302031 00302031,197 EAST BAYOU ROAD,LA,70301
Texaco,GALLIANO,302032,0302032 00302032,352 HIGHWAY 3162,LA,70354
Texaco,HOUMA,302034,0302034 00302034,551 SOUTH VAN,LA,70363
Texaco,LOCKPORT,302035,0302035 00302035,1114 CRESCENT AVENUE,LA,70374
Texaco,THIBODAUX,302037,0302037 00302037,1501 ST MARY HWY,LA,70301
Texaco,ARLINGTON,302038,0302038 00302038,6107 S COOPER STREET,TX,76018
Texaco,HOUMA,302039,0302039 00302039,6459 WEST PARK AVENUE,LA,70364
Texaco,BURLESON,302048,0302048 00302048,701 NE ASBURY STREET,TX,76028
Texaco,ALEXANDRIA,302056,0302056 00302056,6100 W CALHOUN DR,LA,71303
Texaco,NATCHITOCHES,302057,0302057 00302057,97 HWY 1 SOUTH,LA,71457
Texaco,MANY,302058,0302058 00302058,275 SAN ANTONIO,LA,71449
Texaco,NATCHITOCHES,302059,0302059 00302059,642 COLLEGE AVE,LA,71457
Texaco,MARKSVILLE,302060,0302060 00302060,745 TUNIKA DR E,LA,71351
Texaco,MANSFIELD,302061,0302061 00302061,912 POLK ST,LA,71052
Texaco,MANY,302062,0302062 00302062,300 FISHER RD,LA,71449
Texaco,NATCHITOCHES,302063,0302063 00302063,5354 UNIVERSITY DRIVE,LA,71457
Texaco,ST. MARTINVILLE,302066,0302066 00302066,2040 TERRACE HWY,LA,70582
Texaco,BREAUX BRIDGE,302068,0302068 00302068,2116 ANSE BROUSSARD HIGHWAY,LA,70517
Texaco,SAINT MARTINVILLE,302069,0302069 00302069,508 NORTH MAIN STREET,LA,70582
Texaco,ABBEVILLE,302070,0302070 00302070,818 SOUTH HENRY,LA,70510
Texaco,CHURCH POINT,302072,0302072 00302072,620 W CANAL ST,LA,70525
Texaco,DAVENPORT,302169,0302169 00302169,6828F HWY 25 SO,WA,99122
Texaco,BATON ROUGE,302191,0302191 00302191,17752 HIGHLAND,LA,70810
Texaco,SIMMESPORT,302192,0302192 00302192,15972 HIGHWAY 1,LA,71369
Texaco,BATON ROUGE,302194,0302194 00302194,8240 VETERAN MEMORIAL,LA,70807
Texaco,BATON ROUGE,302195,0302195 00302195,6945 FLORIDA BLVD,LA,70806
Texaco,OPELOUSAS,302196,0302196 00302196,4932 I-49 NORTH SERVICE RD,LA,70570
Texaco,BREAUX BRIDGE,302204,0302204 00302204,2942 GRAND POINT HIGHWAY,LA,70517
Texaco,ZACHARY,302208,0302208 00302208,20190 PLANK,LA,70791
Texaco,PEARLAND,302268,0302268 00302268,1601 E. BROADWAY,TX,77581
Texaco,DALLAS,302274,0302274 00302274,5723 SINGELTON,TX,75212
Texaco,MESQUITE,302275,0302275 00302275,4503 GUS THOMASSON RD,TX,75150
Texaco,DALLAS,302278,0302278 00302278,1607 REGAL ROW,TX,75247
Texaco,HOUSTON,302282,0302282 00302282,9530 WESTHEIMER,TX,77042
Texaco,HOUSTON,302286,0302286 00302286,6750 HILLCROFT,TX,77081
Texaco,FORT WORTH,302289,0302289 00302289,6601 MEADOWBROOK DR.,TX,76112
Texaco,HOUSTON,302293,0302293 00302293,3110 HILLCROFT,TX,77057
Texaco,KATY,302295,0302295 00302295,23955 FRANZ RD,TX,77493
Texaco,HOUSTON,302296,0302296 00302296,12602 South FWY #288,TX,77047
Texaco,HOUSTON,302297,0302297 00302297,3250 OLD SPANIS TRAIL,TX,77021
Texaco,SPRING,302298,0302298 00302298,3211 CYPRESSWOOD DRIVE,TX,77388
Texaco,HOUSTON,302301,0302301 00302301,9225 EASTEX FREEWAY,TX,77093
Texaco,HOUSTON,302302,0302302 00302302,6617 ALMEDA GENOA,TX,77048
Texaco,TEXAS CITY,302303,0302303 00302303,1402 TEXAS AVE,TX,77590
Texaco,MARIETTA,302323,0302323 00302323,1655 POWDER SPRINGS ROAD,GA,30064
Texaco,DOUGLASVILLE,302324,0302324 00302324,2195 FAIRBURN ROAD,GA,30135
Texaco,POWDER SPRINGS,302328,0302328 00302328,3265 FLORENCE ROAD,GA,30127
Texaco,HIRAM,302329,0302329 00302329,4120 JIM SMITH PARKWAY,GA,30141
Texaco,ATLANTA,302330,0302330 00302330,4341 ROSWELL ROAD,GA,30309
Texaco,WOODSTOCK,302331,0302331 00302331,6790 BELLS FERRY RD.,GA,30188
Texaco,DOUGLASVILLE,302335,0302335 00302335,9318 HIGHWAY 5,GA,30134
Texaco,CARTERSVILLE,302336,0302336 00302336,998 CASS WHITE ROAD NE,GA,30121
Texaco,KENNEWICK,302380,0302380 00302380,325 S UNION,WA,99336
Texaco,LOCKHART,302399,0302399 00302399,1325 S COLORADO,TX,78644
Texaco,LOCKHART,302400,0302400 00302400,1317 N COLORADO,TX,78644
Texaco,ASHVILLE,302432,0302432 00302432,36950 HWY 231 N,AL,35953
Texaco,SOUTHSIDE,302433,0302433 00302433,3740 HWY 77,AL,35907
Texaco,GADSDEN,302434,0302434 00302434,400 N TWELVETH ST,AL,35901
Texaco,HOKES BLUFF,302435,0302435 00302435,5589 MAIN ST,AL,35903
Texaco,GLENCOE,302437,0302437 00302437,606 W MAIN ST,AL,35905
Texaco,ATTALLA,302441,0302441 00302441,815 CLEVELAND AVE,AL,35954
Texaco,CENTRE,302442,0302442 00302442,903 E MAIN ST,AL,35960
Texaco,PIEDMONT,302443,0302443 00302443,101 HWY 278 W,AL,36272
Texaco,GADSDEN,302444,0302444 00302444,301 MEIGHAN BLVD,AL,35901
Texaco,DALLAS,302454,0302454 00302454,4605 FRANKFORD ROAD,TX,75287
Texaco,COLLEYVILLE,302457,0302457 00302457,4612 COLLEYVILLE BLVD,TX,76034
Texaco,HOUSTON,302463,0302463 00302463,12790 S DAIRY ASHFORD ST,TX,77099
Texaco,HUMBLE,302464,0302464 00302464,19555 MCKAY BLVD,TX,77338
Texaco,MERIDIAN,302468,0302468 00302468,4432 20TH ST,MS,39301
Texaco,MERIDIAN,302469,0302469 00302469,4610 8TH ST,MS,39301
Texaco,MERIDIAN,302470,0302470 00302470,1121 HWY 39,MS,39301
Texaco,VICKSBURG,302472,0302472 00302472,1775 N WASHINGTON,MS,39183
Texaco,PASCAGOULA,302477,0302477 00302477,3021 MARKET ST,MS,39567
Texaco,VICKSBURG,302481,0302481 00302481,4110 CLAY ST,MS,39183
Texaco,VICKSBURG,302482,0302482 00302482,4300 NAILOR RD,MS,39180
Texaco,BRANDON,302487,0302487 00302487,915 W GOVERNMENT ST,MS,39042
Texaco,TERRY,302491,0302491 00302491,511 W CUNNINGHAM,MS,39170
Texaco,PASS CHRISTIAN,302493,0302493 00302493,8088 MENGE AVE,MS,39571
Texaco,TALLULAH,302498,0302498 00302498,I 20 @ LA 65,LA,71282
Texaco,VICKSBURG,302503,0302503 00302503,401 TIFFENTOWN RD,MS,39183
Texaco,DACULA,302510,0302510 00302510,842 HARBINS ROAD SE,GA,30019
Texaco,GRIFFIN,302511,0302511 00302511,1669 W MCINTOSH ROAD,GA,30223
Texaco,GAINESVILLE,302512,0302512 00302512,1860 ATLANTA HIGHWAY,GA,30504
Texaco,SUWANEE,302513,0302513 00302513,2161 LAWRENCEVILLE - SUWANEE ROAD NW,GA,30024
Texaco,MCDONOUGH,302514,0302514 00302514,3279 JODECO ROAD,GA,30253
Texaco,DECATUR,302515,0302515 00302515,5631 COVINGTON HIGHWAY,GA,30035
Texaco,BUFORD,302516,0302516 00302516,6986 MCEVER ROAD,GA,30518
Texaco,SMYRNA,302517,0302517 00302517,4725 S ATLANTA ROAD SE,GA,30080
Texaco,ELLENWOOD,302518,0302518 00302518,5245 BOULDERCREST ROAD,GA,30294
Texaco,ATLANTA,302519,0302519 00302519,111 BOULEVARD SE,GA,30312
Texaco,MCDONOUGH,302520,0302520 00302520,140 NEW CAMPGROUND ROAD,GA,30253
Texaco,ATLANTA,302521,0302521 00302521,757 CLEVELAND AVE SW,GA,30315
Texaco,LAWRENCEVILLE,302522,0302522 00302522,2815 CLUB DRIVE NW,GA,30044
Texaco,MONROE,302523,0302523 00302523,7744 STATE ROAD 81,GA,30656
Texaco,ATLANTA,302524,0302524 00302524,2067 DELOWE DRIVE,GA,30344
Texaco,ELLENWOOD,302525,0302525 00302525,5195 STATE ROAD 42,GA,30294
Texaco,REX,302526,0302526 00302526,6551 HIGHWAY 42,GA,30273
Texaco,HOSCHTON,302527,0302527 00302527,4362 STATE ROAD 124 NE,GA,30548
Texaco,MCDONOUGH,302529,0302529 00302529,597 JONESBORO ROAD,GA,30253
Texaco,LOCUST GROVE,302530,0302530 00302530,3998 STATE ROAD 42,GA,30248
Texaco,DECATUR,302531,0302531 00302531,3364 GLENWOOD ROAD,GA,30032
Texaco,GAINESVILLE,302532,0302532 00302532,3649 MOUNT VERNON ROAD,GA,30506
Texaco,JONESBORO,302533,0302533 00302533,7119 MOUNT ZION BLVD,GA,30236
Texaco,ATLANTA,302534,0302534 00302534,294 NORTHSIDE DRIVE,GA,30314
Texaco,LITHONIA,302535,0302535 00302535,3860 PANOLA ROAD,GA,30038
Texaco,DECATUR,302536,0302536 00302536,3230 PANTHERSVILLE ROAD,GA,30034
Texaco,POWDER SPRINGS,302537,0302537 00302537,3290 NEW MACLAND ROAD SW,GA,30127
Texaco,DULUTH,302538,0302538 00302538,2590 PEACHTREE INDUSTRIAL BLVD NW,GA,30097
Texaco,AUSTELL,302540,0302540 00302540,880 SIX FLAGS ROAD,GA,30168
Texaco,MCDONOUGH,302541,0302541 00302541,840 HAMPTON ROAD,GA,30253
Texaco,ATLANTA,302552,0302552 00302552,345 PHARR ROAD,GA,30305
Texaco,ATLANTA,302554,0302554 00302554,1888 PEACHTREE RD,GA,30309
Texaco,HERNANDO,302686,0302686 00302686,645 W NORVEL BRYANT HWY,FL,34442
Texaco,BELLEVIEW,302688,0302688 00302688,5934 ABSHIRE BLVD,FL,34420
Texaco,OCALA,302689,0302689 00302689,3401 SW COLLEGE RD,FL,34474
Texaco,OCALA,302691,0302691 00302691,3825 W SILVER SPRINGS RD,FL,34482
Texaco,CITRUS SPRINGS,302694,0302694 00302694,9548 N CITRUS SPRINGS RD,FL,34434
Texaco,TAMPA,302727,0302727 00302727,2135 GREEN ST,FL,33607
Texaco,VANCLEAVE,302793,0302793 00302793,12600 HWY 57 S,MS,39565
Texaco,BRANDON,302794,0302794 00302794,1866 SPILLWAY RD,MS,39047
Texaco,PEARL,302795,0302795 00302795,1649 HWY 469 N,MS,39208
Texaco,OCEAN SPRINGS,302797,0302797 00302797,522 WASHINGTON AVE,MS,39564
Texaco,CALHOUN CITY,302798,0302798 00302798,355 HWY 9 S,MS,38916
Texaco,CULLMAN,302801,0302801 00302801,1667 CHEROKEE AVE,AL,35055
Texaco,CULLMAN,302803,0302803 00302803,201 SECOND AVE N/W,AL,35055
Texaco,CULLMAN,302804,0302804 00302804,8482 CR 1545,AL,35058
Texaco,HANCEVILLE,302805,0302805 00302805,228 HWY 69 S,AL,35077
Texaco,ADDISON,302807,0302807 00302807,30711 HWY 278,AL,35540
Texaco,CULLMAN,302809,0302809 00302809,3266 HWY 157,AL,35055
Texaco,FACKLER,302810,0302810 00302810,34846 HWY 72,AL,35746
Texaco,CULLMAN,302811,0302811 00302811,400 SECOND AVE,AL,35055
Texaco,CULLMAN,302812,0302812 00302812,5801 HWY 157,AL,35055
Texaco,MADISON,302814,0302814 00302814,8006 O MADISON PK,AL,35758
Texaco,HANCEVILLE,302815,0302815 00302815,110 MAIN ST,AL,35077
Texaco,UMATILLA,302816,0302816 00302816,1010 6TH ST,OR,97882
Texaco,TUPELO,302835,0302835 00302835,1725 N GLOSTER,MS,38801
Texaco,TUPELO,302836,0302836 00302836,214 S THOMAS ST,MS,38802
Texaco,RIPLEY,302837,0302837 00302837,100 COTTON GIN,MS,38663
Texaco,TUPELO,302838,0302838 00302838,1400 S GLOSTER,MS,38801
Texaco,RED BANKS,302841,0302841 00302841,4056 HWY 178,MS,38661
Texaco,SALTILLO,302842,0302842 00302842,1360 BARNESCROSSING,MS,38866
Texaco,STARKVILLE,302843,0302843 00302843,416 HWY 82,MS,39759
Texaco,PONTOTOC,302846,0302846 00302846,206 HWY 6 W,MS,38863
Texaco,AMORY,302850,0302850 00302850,206 HWY 278 E,MS,38821
Texaco,ABERDEEN,302853,0302853 00302853,306 HWY 145 N,MS,39730
Texaco,ABERDEEN,302854,0302854 00302854,803 MERIDIAN ST,MS,39730
Texaco,TUPELO,302855,0302855 00302855,2126 W JACKSON ST,MS,38801
Texaco,MADISON,302874,0302874 00302874,7964 HWY 20,AL,35758
Texaco,HUNTSVILLE,302875,0302875 00302875,10000 BAILEY COVE RD,AL,35803
Texaco,HUNTSVILLE,302876,0302876 00302876,307 ANDREW JACKSON,AL,35801
Texaco,HUNTSVILLE,302880,0302880 00302880,4200 BOB WALLACE AVE,AL,35805
Texaco,HUNTSVILLE,302881,0302881 00302881,1818 HWY 72 EAST,AL,35811
Texaco,DECATUR,302884,0302884 00302884,819 6TH AVE NE,AL,35601
Texaco,HUNTSVILLE,302886,0302886 00302886,4011 UNIVERSITY DR,AL,35816
Texaco,HARTSELLE,302887,0302887 00302887,1806 HWY 31 NORTH,AL,35640
Texaco,DECATUR,302893,0302893 00302893,2401 BELTLINE RD,AL,35601
Texaco,HARTSELLE,302894,0302894 00302894,610 NANCE FORD RD,AL,35640
Texaco,TANNER,302895,0302895 00302895,5980 HWY 31 NORTH,AL,35671
Texaco,HUNTSVILLE,302900,0302900 00302900,3200 BOB WALLACE AVE,AL,35805
Texaco,HUNTSVILLE,302902,0302902 00302902,2424 JORDAN LANE,AL,35810
Texaco,HUNTSVILLE,302903,0302903 00302903,2200 UNIVERSITY DR,AL,35816
Texaco,DECATUR,302905,0302905 00302905,3065 HWY 20,AL,35601
Texaco,MADISON,302907,0302907 00302907,7190 WALL TRIANA HWY,AL,35757
Texaco,MADISON,302909,0302909 00302909,7584 HWY 72,AL,35758
Texaco,ARAB,302910,0302910 00302910,952 GUNTERSVILLE RD,AL,35016
Texaco,TROY,302917,0302917 00302917,240 ELBA HWY,AL,36079
Texaco,BIRMINGHAM,302920,0302920 00302920,1101 FORTH AVE NORTH,AL,35203
Texaco,BIRMINGHAM,302925,0302925 00302925,201 SIXTH AVE SW,AL,35211
Texaco,ORMOND BEACH,302937,0302937 00302937,5 S. YONGE ST,FL,32174
Texaco,WINTHROP,302942,0302942 00302942,900 S HWY 20,WA,98862
Texaco,HALLANDALE,302946,0302946 00302946,126 N FEDERAL HWY,FL,33009
Texaco,PLANTATION,302949,0302949 00302949,501 N STATE RD 7,FL,33317
Texaco,PALM BEACH GARDENS,302960,0302960 00302960,12220 ALT A1A,FL,33410
Texaco,LAKE PARK,302961,0302961 00302961,917 10TH ST,FL,33403
Texaco,YAKIMA,302964,0302964 00302964,7208 POSTMA RD,WA,98901
Texaco,WEST PALM BEACH,302965,0302965 00302965,1153 N MILITARY,FL,33406
Texaco,LAKE WORTH,302967,0302967 00302967,1901 N DIXIE HWY,FL,33460
Texaco,FORT LAUDERDALE,302968,0302968 00302968,1501 ST RD 84,FL,33315
Texaco,WILTON MANORS,302972,0302972 00302972,2425 WILTON DR,FL,33305
Texaco,FORT LAUDERDALE,302973,0302973 00302973,2699 W OAKLAND PARK BLVD,FL,33311
Texaco,PALM CITY,302975,0302975 00302975,3499 MAPP,FL,34990
Texaco,BOYNTON BEACH,302979,0302979 00302979,5002 N OCEAN,FL,33426
Texaco,NORTH LAUDERDALE,302983,0302983 00302983,7336 SOUTHGATE BLVD,FL,33068
Texaco,NAPLES,302986,0302986 00302986,6175 TOWN CENTER CIRCLE,FL,34119
Texaco,LAKE PARK,302987,0302987 00302987,2915 NORTHLAKE BLVD,FL,33403
Texaco,OXFORD,302998,0302998 00302998,1429 HWY 78 W,AL,36203
Texaco,HEFLIN,303004,0303004 00303004,1476 ROSS ST,AL,36264
Texaco,SLIDELL,303017,0303017 00303017,727 FREMAUX AVE,LA,70458
Texaco,PINSON,303019,0303019 00303019,6635 HWY 75,AL,35126
Texaco,CENTER POINT,303020,0303020 00303020,2478 OLD SPRINGVILLE RD,AL,35215
Texaco,BIRMINGHAM,303021,0303021 00303021,400 19TH ST S,AL,35233
Texaco,JASPER,303024,0303024 00303024,3600 HWY 78 E,AL,35501
Texaco,MONTEVALLO,303026,0303026 00303026,4570 HWY 25,AL,35115
Texaco,BIRMINGHAM,303028,0303028 00303028,1557 MONTE CLAIRE,AL,35210
Texaco,BIRMINGHAM,303029,0303029 00303029,1480 MINOR PKWY,AL,35224
Texaco,DULUTH,303036,0303036 00303036,2255 DULUTH HWY,GA,30097
Texaco,DALTON GARDENS,303048,0303048 00303048,5632 N 15TH,ID,83815
Texaco,COEUR DALENE,303049,0303049 00303049,2001 E SHERMAN AVE,ID,83814
Texaco,WOODSTOCK,303064,0303064 00303064,6315 OLD HWY 5,GA,30188
Texaco,BREMEN,303066,0303066 00303066,835 PACIFIC AVE,GA,30110
Texaco,ROSWELL,303067,0303067 00303067,1000 MARIETTA HIGHWAY,GA,30075
Texaco,CARROLLTON,303068,0303068 00303068,1101 ALABAMA ST,GA,30117
Texaco,MARIETTA,303069,0303069 00303069,824 S COBB DR SE,GA,30060
Texaco,KENNESAW,303070,0303070 00303070,4160 CHEROKEE ST NW,GA,30144
Texaco,ATLANTA,303076,0303076 00303076,1668 EASTLAND ROAD SE,GA,30316
Texaco,AUSTELL,303081,0303081 00303081,2671 JEFFERSON ST SW,GA,30168
Texaco,BLAKELY,303090,0303090 00303090,317 S. MAIN ST,GA,39823
Texaco,FOREST,303114,0303114 00303114,702 HWY 35,MS,39074
Texaco,BASSFIELD,303115,0303115 00303115,4110 HWY 42,MS,39421
Texaco,NORWOOD,303116,0303116 00303116,1387 MAIN ST,LA,70761
Texaco,BROOKHAVEN,303117,0303117 00303117,298 HWY 51,MS,39601
Texaco,MCCOMB,303118,0303118 00303118,540 PEARL RIVER AVE.,MS,39648
Texaco,COLUMBIA,303119,0303119 00303119,757 HWY 98,MS,39429
Texaco,JASPER,303120,0303120 00303120,5285 CURRY HWY,AL,35503
Texaco,JASPER,303121,0303121 00303121,1655 HWY 5 N.,AL,35501
Texaco,CORDOVA,303122,0303122 00303122,6801 HWY 78,AL,35550
Texaco,CARBON HILL,303123,0303123 00303123,31804 FIRST AVE NE,AL,35549
Texaco,CORDOVA,303124,0303124 00303124,6885 HORSECREEK BLVD,AL,35550
Texaco,OAKMAN,303129,0303129 00303129,15170 HWY 69 S,AL,35579
Texaco,EMPIRE,303137,0303137 00303137,5840 SIPSEY RD,AL,35063
Texaco,ALEXANDER CITY,303157,0303157 00303157,941 JEFFERSON ST,AL,35010
Texaco,ALEXANDER CITY,303158,0303158 00303158,1981 HWY 280,AL,35010
Texaco,EULESS,303191,0303191 00303191,101 S. ECTOR DR.,TX,76040
Texaco,WEST PALM BEACH,303197,0303197 00303197,701 BELVEDERE RD,FL,33405
Texaco,WEST PALM BEACH,303208,0303208 00303208,2274 OKEECHOBEE BLVD,FL,33409
Texaco,STUART,303211,0303211 00303211,3313 SE DIXIE HWY,FL,34997
Texaco,STUART,303215,0303215 00303215,6350 S KANNER HWY,FL,34997
Texaco,AUSTIN,303272,0303272 00303272,11031 SOUTH I-35,TX,78759
Texaco,EAST POINT,303289,0303289 00303289,4221 WASHINGTON RD,GA,30344
Texaco,HAPEVILLE,303291,0303291 00303291,315 N CENTRAL AVE,GA,30354
Texaco,GREENVILLE,303294,0303294 00303294,1007 FORT DALE RD,AL,36037
Texaco,RINCON,303320,0303320 00303320,700 FT HOWARD RD,GA,31326
Texaco,CAIRO,303359,0303359 00303359,995 US HIGHWAY 84 E,GA,39828
Texaco,PANAMA CITY,303369,0303369 00303369,6924 THOMAS DRIVE,FL,32408
Texaco,DALLAS,303389,0303389 00303389,7470 GREENVILLE,TX,75235
Texaco,BENBROOK,303397,0303397 00303397,4958 HWY 377 S,TX,76126
Texaco,RICHARDSON,303400,0303400 00303400,2150 E. BELTLINE,TX,75081
Texaco,BAY SPRINGS,303429,0303429 00303429,2827 HWY 15,MS,39422
Texaco,THEODORE,303435,0303435 00303435,7040 THEODORE-DAWES RD,AL,36582
Texaco,PROSPER,303436,0303436 00303436,640 N PRESTON RD,TX,75078
Texaco,DIBERVILLE,303439,0303439 00303439,4008 POPPS FERRY RD,MS,39532
Texaco,LONG BEACH,303440,0303440 00303440,119 W. RAILROAD ST,MS,39560
Texaco,TRUSSVILLE,303449,0303449 00303449,1123 CHALKVILLE RD,AL,35173
Texaco,CORINTH,303455,0303455 00303455,102 S. HARPER,MS,38834
Texaco,DOTHAN,303470,0303470 00303470,4468 WEST MAIN ST,AL,36305
Texaco,NICEVILLE,303484,0303484 00303484,100 REDWOOD DR,FL,32578
Texaco,FORT WALTON BEACH,303486,0303486 00303486,306 RACETRACK RD NW,FL,32547
Texaco,ENTERPRISE,303516,0303516 00303516,2200 OZARK HIGHWAY # G,AL,36330
Texaco,TOOMSUBA,303540,0303540 00303540,57 WILL GARRETT RD,MS,39364
Texaco,MIDLAND,303640,0303640 00303640,3300 N. MIDKIFF,TX,79705
Texaco,ODESSA,303641,0303641 00303641,10173 W. UNIVERSITY,TX,79764
Texaco,MIDLAND,303645,0303645 00303645,1101 N. MIDKIFF,TX,79703
Texaco,BIG LAKE,303647,0303647 00303647,1105 E. 2ND ST.,TX,76932
Texaco,MIDLAND,303648,0303648 00303648,11400 W. HWY 158,TX,79707
Texaco,MIDLAND,303649,0303649 00303649,1500 W. FRONT,TX,79701
Texaco,WACO,303650,0303650 00303650,1900 E. CREST DR.,TX,76706
Texaco,MIDLAND,303651,0303651 00303651,2315 E. FRONT,TX,79701
Texaco,ODESSA,303653,0303653 00303653,2463 E. 8TH,TX,79761
Texaco,MIDLAND,303654,0303654 00303654,2910 N. BIG SPRING,TX,79705
Texaco,MIDLAND,303656,0303656 00303656,3310 W. WALL,TX,79701
Texaco,MIDLAND,303658,0303658 00303658,3312 W LOOP 250 N,TX,79707
Texaco,MIDLAND,303659,0303659 00303659,4101 E. HWY 158,TX,79706
Texaco,WACO,303660,0303660 00303660,8306 N STATE HWY 6,TX,76712
Texaco,ODESSA,303661,0303661 00303661,4203 N. GRANDVIEW,TX,79762
Texaco,MIDLAND,303662,0303662 00303662,4701 BRIARWOOD,TX,79707
Texaco,MOODY,303663,0303663 00303663,1500 S HWY 317,TX,76557
Texaco,MIDLAND,303664,0303664 00303664,5311 W. WADLEY,TX,79708
Texaco,ODESSA,303666,0303666 00303666,601 W. COUNTY ROAD,TX,79763
Texaco,MIDLAND,303667,0303667 00303667,800 E. FLORIDA,TX,79701
Texaco,ODESSA,303668,0303668 00303668,9403 W. UNIVERSITY,TX,79763
Texaco,DALLAS,303669,0303669 00303669,4201 W. JEFFERSON,TX,75211
Texaco,DALLAS,303670,0303670 00303670,3103 SR-12 LOOP,TX,75216
Texaco,FORT WORTH,303671,0303671 00303671,3300 E. BERRY STREET,TX,76105
Texaco,CARROLLTON,303672,0303672 00303672,3600 HUFFINES BLVD,TX,75010
Texaco,WEST MONROE,303684,0303684 00303684,151 WELL ROAD,LA,71291
Texaco,HOUSTON,303686,0303686 00303686,8605 FULTON,TX,77022
Texaco,HOUSTON,303687,0303687 00303687,2111 FANNIN ST.,TX,77002
Texaco,BURNET,303690,0303690 00303690,302 N. WATER ST.,TX,78611
Texaco,HOUSTON,303695,0303695 00303695,13155 ALIEF CLODINE,TX,77082
Texaco,AUSTIN,303699,0303699 00303699,8201 N. LAMAR BLVD,TX,78753
Texaco,AUSTIN,303701,0303701 00303701,12503 LAMPLIGHTER VILLAGE,TX,78727
Texaco,JOHNSON CITY,303702,0303702 00303702,HWY 290 & AVE C,TX,78636
Texaco,HOUSTON,303706,0303706 00303706,12297 BEECHNUT,TX,77072
Texaco,HOUSTON,303707,0303707 00303707,11902 HEMPSTEAD HWY,TX,77092
Texaco,HOUSTON,303710,0303710 00303710,10606 WILCREST,TX,77099
Texaco,HOUSTON,303712,0303712 00303712,10317 SHELDON RD.,TX,77049
Texaco,CHANNELVIEW,303716,0303716 00303716,15606 I-10 EAST,TX,77530
Texaco,HOUSTON,303718,0303718 00303718,14400 WALLISVILLE RD.,TX,77049
Texaco,AUSTIN,303719,0303719 00303719,9618 MANCHACA,TX,78748
Texaco,HOUSTON,303723,0303723 00303723,6275 AIRLINE DR.,TX,77076
Texaco,HOUSTON,303724,0303724 00303724,13205 JF KENNEDY BLVD,TX,77039
Texaco,HOUSTON,303725,0303725 00303725,13102 KUYKENDAHL RD,TX,77090
Texaco,HOUSTON,303726,0303726 00303726,6660 TELEPHONE RD,TX,77061
Texaco,HOUSTON,303727,0303727 00303727,1955 GEARS RD,TX,77067
Texaco,FREDERICKSBURG,303728,0303728 00303728,701 EAST MAIN,TX,78624
Texaco,SPRING,303729,0303729 00303729,19255 KUYKENDAHL,TX,77379
Texaco,HOUSTON,303730,0303730 00303730,7050 S LOOP FWY E,TX,77087
Texaco,HOUSTON,303731,0303731 00303731,1836 AIRLINE DR.,TX,77009
Texaco,HOUSTON,303732,0303732 00303732,8403 HAMMERLY,TX,77055
Texaco,AUSTIN,303733,0303733 00303733,2225 E OLTORF ST,TX,78741
Texaco,HOUSTON,303734,0303734 00303734,9598 SOUTH MAIN,TX,77025
Texaco,HOUSTON,303736,0303736 00303736,9515 LITTLE YORK,TX,77040
Texaco,PORTER,303737,0303737 00303737,23077 FM 1314 RD,TX,77365
Texaco,HOUSTON,303738,0303738 00303738,9343 CLAY RD,TX,77080
Texaco,AUSTIN,303739,0303739 00303739,2800 W WILLIAM CANNON DR,TX,78745-5122
Texaco,HOUSTON,303740,0303740 00303740,916 DUNLAVY,TX,77019
Texaco,MARBLE FALLS,303741,0303741 00303741,911 HWY 281,TX,78654
Texaco,HOUSTON,303743,0303743 00303743,4750 T.C. JESTER BLVD,TX,77091
Texaco,HOUSTON,303745,0303745 00303745,4700 NAVIGATION BLVD,TX,77011
Texaco,LEANDER,303746,0303746 00303746,2607 HWY 183,TX,78641
Texaco,ROSENBERG,303747,0303747 00303747,4005 AVENUE N,TX,77471
Texaco,STAFFORD,303748,0303748 00303748,2603 5TH ST,TX,77477
Texaco,HOUSTON,303749,0303749 00303749,5700 GESSNER,TX,77041
Texaco,TOMBALL,303751,0303751 00303751,500 EAST MAIN,TX,77375
Texaco,HOUSTON,303752,0303752 00303752,3411 ANTOINE DR.,TX,77092
Texaco,HOUSTON,303753,0303753 00303753,3230 CAMPBELL RD,TX,77080-2746
Texaco,KATY,303754,0303754 00303754,3110 FRY RD,TX,77449
Texaco,HOUSTON,303755,0303755 00303755,606 WEST GULFBANK,TX,77037
Texaco,HOUSTON,303756,0303756 00303756,620 LITTLE YORK RD,TX,77076
Texaco,GULF BREEZE,303794,0303794 00303794,220 GULF BREEZE PARKWAY,FL,32561
Texaco,TALLAHASSEE,303795,0303795 00303795,400 CAPITAL CIRCLE SW,FL,32310
Texaco,GULF BREEZE,303796,0303796 00303796,3107 GULF BREEZE PARKWAY,FL,32561
Texaco,TALLAHASSEE,303797,0303797 00303797,4015 FRED GEORGE RD,FL,32303
Texaco,TALLAHASSEE,303798,0303798 00303798,5899 WEST TENNESEE ST,FL,32304
Texaco,HAVANA,303799,0303799 00303799,1612 FLORIDA-GEORGIA PARKWAY,FL,32333
Texaco,PRATTVILLE,303822,0303822 00303822,402 S. WASHINGTON ST,AL,36067
Texaco,MONROEVILLE,303823,0303823 00303823,714 W. CLAIBORNE ST,AL,36460
Texaco,BLAIRSVILLE,303843,0303843 00303843,5916 MURPHY HWY,GA,30512
Texaco,COLUMBUS,303851,0303851 00303851,2246 MILITARY RD,MS,39701
Texaco,COLUMBUS,303852,0303852 00303852,7125 HWY 45 N,MS,39705
Texaco,COLUMBUS,303854,0303854 00303854,2110 HWY 45 N,MS,39701
Texaco,TUPELO,303857,0303857 00303857,5399 N. RAYMOND AVE,MS,38804
Texaco,CARROLLTON,303861,0303861 00303861,2520 BELTLINE,TX,75006
Texaco,DALLAS,303862,0303862 00303862,3130 N. BUCKNER,TX,75228
Texaco,DALLAS,303863,0303863 00303863,17610 MIDWAY,TX,75287
Texaco,GARLAND,303865,0303865 00303865,1949 CENTERVILLE,TX,75041
Texaco,DALLAS,303867,0303867 00303867,12307 PLANO ROAD,TX,75243
Texaco,MESQUITE,303868,0303868 00303868,801 KEARNY,TX,75149
Texaco,FORT WORTH,303870,0303870 00303870,2749 LAS VEGAS TRAIL,TX,76116
Texaco,DALLAS,303872,0303872 00303872,2847 ROYAL LANE,TX,75229
Texaco,FORT WORTH,303881,0303881 00303881,6700 RUFE SNOW,TX,76148
Texaco,FORT WORTH,303884,0303884 00303884,2529 MEACHAM,TX,76106
Texaco,PLANO,303887,0303887 00303887,2200 MCDERMOTT ROAD,TX,75025
Texaco,DALLAS,303890,0303890 00303890,5909 S HAMPTON,TX,75232
Texaco,PLANO,303893,0303893 00303893,2500 14TH.,TX,75074
Texaco,PLANO,303894,0303894 00303894,3960 LEGACY,TX,75023
Texaco,PLANO,303904,0303904 00303904,500 SPRING CREEK PKWY,TX,75074
Texaco,CARROLLTON,303905,0303905 00303905,2745 E. BELTLINE ROAD,TX,75006
Texaco,DALLAS,303907,0303907 00303907,8098 S. LOOP 12,TX,75217
Texaco,RICHARDSON,303909,0303909 00303909,1401 E BELTLINE ROAD,TX,75081
Texaco,ARLINGTON,303911,0303911 00303911,901 E. PIONEER PARKWAY,TX,76010
Texaco,PLANO,303916,0303916 00303916,3301 AVE. K,TX,75074
Texaco,EULESS,303918,0303918 00303918,1010 AIRPORT FREEWAY,TX,76039
Texaco,GRAND PRAIRIE,303920,0303920 00303920,1402 NW 19TH STREET,TX,75050
Texaco,RICHARDSON,303923,0303923 00303923,591 W. CAMPBELL RD.,TX,75081
Texaco,LEWISVILLE,303924,0303924 00303924,1298 W. MAIN STREET,TX,75077
Texaco,CARROLLTON,303925,0303925 00303925,2525 E. ROSEMEADE PKWY,TX,75007
Texaco,DALLAS,303926,0303926 00303926,6500 E. NORTHWEST HIGHWAY,TX,75231
Texaco,DALLAS,303927,0303927 00303927,12920 PRESTON RD.,TX,75230
Texaco,PLANO,303928,0303928 00303928,2405 E PLANO PKWY,TX,75074
Texaco,DALLAS,303931,0303931 00303931,10950 N. CENTRAL EXPWAY,TX,75231
Texaco,RICHARDSON,303932,0303932 00303932,1436 SPRING VALLEY ROAD,TX,75080
Texaco,DALLAS,303933,0303933 00303933,9100 FOREST LANE,TX,75243
Texaco,PLANO,303934,0303934 00303934,500 E 15TH STREET,TX,75074
Texaco,GARLAND,303935,0303935 00303935,501 E-I30,TX,75043
Texaco,RICHARDSON,303937,0303937 00303937,1350 E CAMPBELL,TX,75081
Texaco,GARLAND,303938,0303938 00303938,3036 BROADWAY,TX,75041
Texaco,ARLINGTON,303939,0303939 00303939,2601 E. PARK ROW,TX,76010
Texaco,DALLAS,303940,0303940 00303940,5304 ARAPAHO,TX,75248
Texaco,FORT WORTH,303941,0303941 00303941,2600 EPHRIHAM AVE,TX,76106
Texaco,FARMERS BRANCH,303943,0303943 00303943,2904 VALLEY VIEW,TX,75234
Texaco,DALLAS,303947,0303947 00303947,865 S. WALTON WALKER,TX,75211
Texaco,FORT WORTH,303950,0303950 00303950,4429 BELLAIRE SOUTH,TX,76109
Texaco,DESOTO,303952,0303952 00303952,834 N HAMPTON,TX,75115
Texaco,DALLAS,303954,0303954 00303954,11770 FERGUSON RD.,TX,75228
Texaco,DALLAS,303972,0303972 00303972,1701 SKILLMAN,TX,75206
Texaco,MELISSA,303973,0303973 00303973,2210 N HWY 121,TX,75454
Texaco,DENTON,303975,0303975 00303975,1516 E MCKINNEY,TX,76205
Texaco,MESQUITE,303976,0303976 00303976,2604 TOWNE CENTRE DR,TX,75150
Texaco,MARCO ISLAND,303980,0303980 00303980,740 BALD EAGLE DR.,FL,34145
Texaco,NEDERLAND,304006,0304006 00304006,1349 NEDERLAND AVE.,TX,77627
Texaco,PORT NECHES,304007,0304007 00304007,852 MAGNOLIA,TX,77651
Texaco,BEAUMONT,304008,0304008 00304008,7390 HWY 105,TX,77713
Texaco,PORT ARTHUR,304010,0304010 00304010,3950 MEMORIAL,TX,77640
Texaco,VIDOR,304011,0304011 00304011,695 N. MAIN,TX,77662
Texaco,VANTAGE,304020,0304020 00304020,401 SOUTH MAIN,WA,98950
Texaco,FORT WORTH,304027,0304027 00304027,6550 WICHITA STREET,TX,76140
Texaco,FORT WORTH,304029,0304029 00304029,5200 CAMP BOWIE BLVD.,TX,76112
Texaco,FORT WORTH,304030,0304030 00304030,5400 BRENTWOOD STAIR RD,TX,76112
Texaco,GONZALES,304033,0304033 00304033,1817 ST. JOSEPH ST,TX,78629
Texaco,YOUNGSVILLE,304036,0304036 00304036,301 LAFAYETTE ST,LA,70592
Texaco,SAN ANTONIO,304037,0304037 00304037,469 CASTROVILLE RD,TX,78207
Texaco,BUFORD,304078,0304078 00304078,5905 SUWANEE DAM RD,GA,30518
Texaco,CUMMING,304079,0304079 00304079,720 ATLANTA HWY,GA,30041
Texaco,GRAND PRAIRIE,304083,0304083 00304083,3095 CLAREMONT,TX,75051
Texaco,THOMASVILLE,304084,0304084 00304084,2499 US HWY 319 SOUTH,GA,31792
Texaco,BAKER,304096,0304096 00304096,790 MAIN ST.,LA,70714
Texaco,FORT WORTH,304098,0304098 00304098,6101 ROSEDALE DR,TX,76112
Texaco,FORT WORTH,304103,0304103 00304103,2747 8TH AVE,TX,76110-3041
Texaco,FORT WORTH,304104,0304104 00304104,2700 E. ROSEDALE AVENUE,TX,76105
Texaco,FORT WORTH,304105,0304105 00304105,2700 AZLE AVENUE,TX,76106
Texaco,FORT WORTH,304106,0304106 00304106,1424 PENNSYLVANIA AVE,TX,76104
Texaco,NORCROSS,304115,0304115 00304115,5045 SINGLETON RD,GA,30093
Texaco,NORCROSS,304117,0304117 00304117,BRITT RD @ OLD NORCROSS RD,GA,30093
Texaco,OCEAN SPRINGS,304123,0304123 00304123,3098 BIENVILLE RD,MS,39564
Texaco,SARASOTA,304127,0304127 00304127,2788 FRUITVILLE BLVD,FL,34237
Texaco,SAINT PETERSBURG,304128,0304128 00304128,3727 TYRONE BLVD,FL,33710
Texaco,NAPLES,304131,0304131 00304131,20018 TAMIAMI TRL,FL,34114
Texaco,COLLEGE PARK,304135,0304135 00304135,4903 OLD NATIONAL HWY,GA,30337
Texaco,MOSS POINT,304136,0304136 00304136,3400 MAIN ST.,MS,39563
Texaco,MCKINNEY,304157,0304157 00304157,101 SOUTH CENTRAL,TX,75070
Texaco,WINNIE,304163,0304163 00304163,522 S HWY 124,TX,77665
Texaco,FRESNO,304164,0304164 00304164,3503 FM 521,TX,77545
Texaco,DALLAS,304168,0304168 00304168,3082 FOREST LANE,TX,75234
Texaco,GARLAND,304169,0304169 00304169,3501 FOREST LANE,TX,75042
Texaco,NACOGDOCHES,304170,0304170 00304170,1626 N. UNIVERSITY,TX,75961
Texaco,GROESBECK,304171,0304171 00304171,402 S. ELLIS,TX,76642
Texaco,CENTER,304172,0304172 00304172,701 SOUTHVIEW,TX,75935
Texaco,TAYLOR,304173,0304173 00304173,2200 W. SECOND ST,TX,76574
Texaco,GEORGETOWN,304174,0304174 00304174,1015 LEANDER RD,TX,78628
Texaco,LA GRANGE,304177,0304177 00304177,138 S. JEFFERSON,TX,78945
Texaco,CROCKETT,304178,0304178 00304178,1272 E. LOOP 304,TX,75835
Texaco,MCKINNEY,304179,0304179 00304179,1815 NORTH CENTRAL,TX,75070
Texaco,JERSEY,304180,0304180 00304180,124 NORTH MAIN ST,GA,30018
Texaco,SIMSBORO,304182,0304182 00304182,4331 HWY 563,LA,71275
Texaco,VIVIAN,304185,0304185 00304185,120 SOUTH PINE,LA,71082
Texaco,ALEXANDRIA,304188,0304188 00304188,603 MACARTHUR DR,LA,71301
Texaco,HAUGHTON,304192,0304192 00304192,9011 N. HWY 157,LA,71037
Texaco,HOUSTON,304196,0304196 00304196,1231 FREEPORT ST,TX,77015
Texaco,GALVESTON,304200,0304200 00304200,1928 BROADWAY,TX,77555
Texaco,HOUSTON,304201,0304201 00304201,8450 GULF FWY,TX,77017
Texaco,CHANNELVIEW,304202,0304202 00304202,817 SHELDON ROAD,TX,77530
Texaco,TOMBALL,304203,0304203 00304203,27939 FM 149,TX,77375
Texaco,HOUSTON,304214,0304214 00304214,1999 FM 1960,TX,77090
Texaco,KINGWOOD,304219,0304219 00304219,1800 NORTHPARK DR,TX,77339
Texaco,BAYTOWN,304220,0304220 00304220,2107 W. LYNCHBURG CEDAR-BAYOU,TX,77521
Texaco,ABBEVILLE,304225,0304225 00304225,410 CHARITY,LA,70510
Texaco,ERATH,304226,0304226 00304226,908 WEST LASTIE,LA,70533
Texaco,BEDFORD,304262,0304262 00304262,2000 MURPHY DRIVE,TX,76021
Texaco,JUSTIN,304265,0304265 00304265,224 S HWY 156,TX,76247
Texaco,SILVER SPRINGS,304302,0304302 00304302,10777 E. HWY 40,FL,34488
Texaco,WILDWOOD,304304,0304304 00304304,6596 E HWY 44,FL,34785
Texaco,DALLAS,304311,0304311 00304311,7205 FERGUSON RD,TX,75228
Texaco,BEAUMONT,304332,0304332 00304332,3980 EASTEX FREEWAY,TX,77703
Texaco,WINNIE,304333,0304333 00304333,46135 I-10 WEST,TX,77665
Texaco,ROME,304339,0304339 00304339,507 TURNER MCCALL BLVD,GA,30165
Texaco,BAYTOWN,304344,0304344 00304344,6114 DECKER DR.,TX,77521
Texaco,LAGO VISTA,304352,0304352 00304352,7501 LOHMANS CROSSING,TX,78645
Texaco,SAN ANTONIO,304355,0304355 00304355,2223 LOCKHILL SELMA,TX,78230
Texaco,CEDAR PARK,304356,0304356 00304356,1050 CLUCK CREEK,TX,78630
Texaco,JONESTOWN,304357,0304357 00304357,18638 FM 1431,TX,78645
Texaco,SAN ANTONIO,304358,0304358 00304358,13210 HUEBNER,TX,78230
Texaco,SAN ANTONIO,304359,0304359 00304359,3500 BROADWAY,TX,78209
Texaco,SAN ANTONIO,304360,0304360 00304360,8005 BANDERA,TX,78250
Texaco,CONVERSE,304362,0304362 00304362,9068 FM 78,TX,78109
Texaco,SAN ANTONIO,304363,0304363 00304363,5770 BABCOCK,TX,78240
Texaco,FORT WORTH,304366,0304366 00304366,5401 SUN VALLEY DR,TX,76119
Texaco,SOUTHLAKE,304367,0304367 00304367,110 SOUTHLAKE BLVD,TX,76092
Texaco,DALLAS,304370,0304370 00304370,10560 NEW CHURCH ROAD,TX,75238
Texaco,SARASOTA,304375,0304375 00304375,19 EAST RD,FL,34240-9504
Texaco,JACKSONVILLE,304379,0304379 00304379,7410 BLANDING BLVD,FL,32244
Texaco,MOUNT OLIVE,304405,0304405 00304405,ROCK HILL RD & HWY 49,MS,39119
Texaco,NORTH RICHLAND HILLS,304440,0304440 00304440,8015 GLENVIEW DR. STE A,TX,76180
Texaco,TUSCALOOSA,304449,0304449 00304449,4535 SKYLAND BLVD E,AL,35405
Texaco,DALLAS,304463,0304463 00304463,4404 W. ILLINOIS AVE,TX,75287
Texaco,PLANO,304466,0304466 00304466,6000 INDEPENDENCE PARKWAY,TX,75023
Texaco,CROWLEY,304467,0304467 00304467,1900 FM 1187,TX,76036
Texaco,WATAUGA,304468,0304468 00304468,5850 DENTON HWY,TX,76148
Texaco,FORT WORTH,304469,0304469 00304469,2616 JACKBORO HWY,TX,76199
Texaco,NEW ORLEANS,304470,0304470 00304470,3501 GENERAL MEYER AVE.,LA,70114
Texaco,GAINESVILLE,304494,0304494 00304494,4909 34TH STREET,FL,32601
Texaco,GAINESVILLE,304499,0304499 00304499,1602 NE WALDO RD,FL,32609
Texaco,GAINESVILLE,304500,0304500 00304500,4114 SW 13TH STREET,FL,32601
Texaco,GAINESVILLE,304501,0304501 00304501,2109 SW 13TH STREET,FL,32608
Texaco,HOUSTON,304506,0304506 00304506,7901 SOUTH MAIN ST,TX,77025
Texaco,PASADENA,304507,0304507 00304507,3105 RED BLUFF,TX,77503
Texaco,OSTEEN,304528,0304528 00304528,140 N SR 415,FL,32764
Texaco,JACKSONVILLE,304541,0304541 00304541,4354 BLANDING BLVD,FL,32210
Texaco,JACKSONVILLE,304544,0304544 00304544,5525 N MAIN ST,FL,32208
Texaco,JACKSONVILLE,304545,0304545 00304545,8403 ATLANTIC BLVD,FL,32211
Texaco,CHIEFLAND,304580,0304580 00304580,1025 NO YOUNG BLVD,FL,32626
Texaco,TRENTON,304581,0304581 00304581,414 WEST WADE STREET,FL,32693
Texaco,WINFIELD,304597,0304597 00304597,391 BANKHEAD HWY,AL,35594
Texaco,VERNON,304598,0304598 00304598,44390 HYW 17,AL,35592
Texaco,NORTHPORT,304601,0304601 00304601,15007 HWY 43,AL,35475
Texaco,ABERDEEN,304603,0304603 00304603,40143 LACKEY RD,MS,39730
Texaco,SULLIGENT,304605,0304605 00304605,5262 HWY 278,AL,35586
Texaco,HAMILTON,304606,0304606 00304606,215 BEXAR AVE,AL,35570
Texaco,ELROD,304607,0304607 00304607,17945 HWY 82,AL,35458
Texaco,SAN ANTONIO,304608,0304608 00304608,10775 POTRANCO,TX,78251
Texaco,SAN ANTONIO,304611,0304611 00304611,4447 DE ZAVALA,TX,78249
Texaco,GARLAND,304613,0304613 00304613,1935 S. Jupiter Road,TX,75042
Texaco,FRISCO,304616,0304616 00304616,8750 MAIN ST.,TX,75034
Texaco,HALTOM CITY,304620,0304620 00304620,1718 HALTOM RD,TX,76117
Texaco,ACKERMAN,304661,0304661 00304661,9324 HWY 9,MS,39735
Texaco,TUPELO,304665,0304665 00304665,703 CR 931,MS,38801
Texaco,MATHISTON,304672,0304672 00304672,HWY 82,MS,39752
Texaco,HUMBLE,304688,0304688 00304688,607 WILSON RD,TX,77338
Texaco,BAY SAINT LOUIS,304690,0304690 00304690,500 MAIN ST,MS,39520
Texaco,CROWLEY,304696,0304696 00304696,3953 FM 1187,TX,76036
Texaco,NORTH RICHLAND HILLS,304697,0304697 00304697,6728 DAVIS BLVD,TX,76180
Texaco,DALLAS,304699,0304699 00304699,2104 E LEDBETTER DR,TX,75216
Texaco,SAN ANTONIO,304706,0304706 00304706,1515 N. NEW BRAUNFELS ST,TX,78208
Texaco,AUSTIN,304708,0304708 00304708,539 W. OLTORF,TX,78704
Texaco,MARIETTA,304709,0304709 00304709,2145 POWERS FERRY ROAD,GA,30067
Texaco,STONE MOUNTAIN,304718,0304718 00304718,1525 MOUNTAIN INDUSTRIAL BLVD,GA,30083
Texaco,EAST POINT,304719,0304719 00304719,3155 CAMP CREEK PKWY,GA,30344
Texaco,DORAVILLE,304721,0304721 00304721,7066 BUFORD HIGHWAY,GA,30340
Texaco,LITHONIA,304722,0304722 00304722,6139 COVINGTON HIGHWAY,GA,30038
Texaco,NORCROSS,304724,0304724 00304724,5496 BUFORD HIGHWAY,GA,30071
Texaco,CLEVELAND,304725,0304725 00304725,4512 MOUSE CREEK DRIVE,TN,37312
Texaco,DECATUR,304726,0304726 00304726,HWY 58 N @ SMITH ST,TN,37322
Texaco,JONESBORO,304727,0304727 00304727,7915 JONESBORO ROAD,GA,30236
Texaco,CHATTANOOGA,304728,0304728 00304728,6001 SHALLOWFORD RD,TN,37401
Texaco,EAST RIDGE,304730,0304730 00304730,6701 RINGGOLD RD,TN,37412
Texaco,CHARLESTON,304731,0304731 00304731,8772 HIWASSEE ST,TN,37310
Texaco,FOREST PARK,304733,0304733 00304733,503 FOREST PARKWAY,GA,30297
Texaco,SMYRNA,304734,0304734 00304734,4495 SOUTH COBB DRIVE,GA,30080
Texaco,HOUSTON,304737,0304737 00304737,11137 N ELDRIDGE PKWY,TX,77065
Texaco,HOUSTON,304738,0304738 00304738,15935 LEE RD,TX,77032
Texaco,HOUSTON,304741,0304741 00304741,3326 CANAL,TX,77003
Texaco,SUWANEE,304743,0304743 00304743,7110 MCGINNIS FERRY RD,GA,30024
Texaco,BIRMINGHAM,304745,0304745 00304745,3800 CLAIRMONT AVE,AL,35222-3608
Texaco,TARRANT,304747,0304747 00304747,1135 PINSON VALLEY PKWY,AL,35217-2318
Texaco,REFORM,304748,0304748 00304748,506 FIRST AVE W.,AL,35481
Texaco,SUNRISE,304780,0304780 00304780,4399 N PINE ISLAND ROAD,FL,33326
Texaco,GARLAND,304788,0304788 00304788,3464 CAMPBELL RD.,TX,75044
Texaco,MIAMI,304793,0304793 00304793,601 N W 103 STREET,FL,33150
Texaco,HOLLYWOOD,304796,0304796 00304796,5611 HOLLYWOOD BLVD,FL,33024
Texaco,MIAMI,304799,0304799 00304799,11191 SW 176TH ST,FL,33157
Texaco,DANVILLE,304807,0304807 00304807,1539 HWY 157,AL,35619
Texaco,ST. GEORGE,304813,0304813 00304813,1409 E. ST. GEORGE BLVD,UT,84790
Texaco,ST. GEORGE,304815,0304815 00304815,851 WEST SUNSET BLVD,UT,84770
Texaco,WASHINGTON,304817,0304817 00304817,1036 W. MIDDLETON DR,UT,84780
Texaco,ST. GEORGE,304819,0304819 00304819,1572 S. CONVENTION CENTER DR,UT,84790
Texaco,ATHENS,304855,0304855 00304855,716 E. HOBBS,AL,35611
Texaco,ATHENS,304856,0304856 00304856,1809 HWY 72 EAST,AL,35611
Texaco,HUNTSVILLE,304857,0304857 00304857,1979 WINCHESTER RD NE,AL,35811
Texaco,ATHENS,304858,0304858 00304858,1202 W. MARKET ST,AL,35611-4769
Texaco,DALLAS,304863,0304863 00304863,5711 E. GRAND AVE,TX,75223
Texaco,DUNCANVILLE,304864,0304864 00304864,607 E. CAMP WISDOM,TX,75116
Texaco,CARROLLTON,304865,0304865 00304865,3656 OLD DENTON RD,TX,75007
Texaco,DALLAS,304869,0304869 00304869,9791 FERGUSON RD,TX,75228
Texaco,GRAPEVINE,304870,0304870 00304870,2636 W.D. TATE,TX,76051
Texaco,PILOT POINT,304871,0304871 00304871,110 HWY 377 S,TX,76258
Texaco,MCKINNEY,304874,0304874 00304874,1313 CHURCH RD,TX,75069
Texaco,AUSTIN,304879,0304879 00304879,8925 ANDERSON MILL RD,TX,78729
Texaco,CLEVELAND,304889,0304889 00304889,3865 MICHIGAN AVE,TN,37312
Texaco,EUFAULA,304904,0304904 00304904,3281 S. EUFAULA AVE,AL,36027
Texaco,COLUMBUS,304905,0304905 00304905,3651 WEEMS RD,GA,31909
Texaco,COLUMBUS,304906,0304906 00304906,1708 WYNNTON RD,GA,31906
Texaco,AUSTIN,304918,0304918 00304918,3325 HWY 620 S,TX,78738-6812
Texaco,MUSCLE SHOALS,304921,0304921 00304921,906 WOODWARD AVE.,AL,35661-1552
Texaco,ARLINGTON,304951,0304951 00304951,2200 N. COLLINS,TX,76011
Texaco,FORT WORTH,304953,0304953 00304953,5829 CURZON,TX,76107
Texaco,TUSCUMBIA,304954,0304954 00304954,105 HWY 72 W,AL,35674-4440
Texaco,ATLANTA,304956,0304956 00304956,6380 PEACHTREE INDUSTRIAL BLVD,GA,30360
Texaco,DOUGLASVILLE,304960,0304960 00304960,2400 FAIRBURN ROAD,GA,30134
Texaco,STONE MOUNTAIN,304974,0304974 00304974,4513 ROCKBRIDGE RD,GA,30083
Texaco,DEL RIO,304978,0304978 00304978,1009 VETERANS BLVD,TX,78840-4067
Texaco,TUNICA,305005,0305005 00305005,1433 HWY 61,MS,38676
Texaco,ATHENS,305006,0305006 00305006,1452 PRINCE AVENUE,GA,30606
Texaco,BLANCHARD,305009,0305009 00305009,127 MAIN STREET,LA,71009
Texaco,DALLAS,305031,0305031 00305031,1525 INWOOD RD,TX,75247
Texaco,SMITHVILLE,305044,0305044 00305044,1501 NORTHEAST LOOP 230,TX,78957
Texaco,GIDDINGS,305050,0305050 00305050,4115 E. AUSTIN,TX,78942
Texaco,ELGIN,305056,0305056 00305056,13919 COUNTY LINE RD.,TX,78621
Texaco,BASTROP,305057,0305057 00305057,108 WATTERSON ROAD,TX,78602
Texaco,AUSTIN,305058,0305058 00305058,14400 FM 969,TX,78724
Texaco,ESCALON,305067,0305067 00305067,1405 CALIFORNIA ST.,CA,95320
Texaco,SAVANNAH,305072,0305072 00305072,12403 WHITE BLUFF RD,GA,31419
Texaco,DESTIN,305081,0305081 00305081,902 HIGHWAY 98 EAST,FL,32541
Texaco,FORT WALTON BEACH,305082,0305082 00305082,"226 HOLLYWOOD BLVD, SE",FL,32548
Texaco,DESTIN,305083,0305083 00305083,248 MAIN STREET,FL,32540
Texaco,GAINESVILLE,305089,0305089 00305089,272 DAWSONVILLE HWY,GA,30501
Texaco,SELMA,305104,0305104 00305104,2904 MC CALL,CA,93662
Texaco,OREM,305108,0305108 00305108,1588 N. STATE ST.,UT,84057
Texaco,AUSTIN,305111,0305111 00305111,6422 HIGHWAY 183 S,TX,78744
Texaco,HOUSTON,305112,0305112 00305112,14317 WALTERS RD,TX,77014
Texaco,POOLER,305113,0305113 00305113,211 W. HWY 80,GA,31322
Texaco,SPOKANE,305124,0305124 00305124,3333 W INDIAN TRAIL RD,WA,99208
Texaco,RATHDRUM,305126,0305126 00305126,15370 N. HWY 41,ID,83858
Texaco,MADRAS,305129,0305129 00305129,178 SW 4TH STREET,OR,97741
Texaco,TAFT,305137,0305137 00305137,903 KERN ST.,CA,93268
Texaco,BAKERSFIELD,305142,0305142 00305142,2300 PANAMA LN,CA,93307
Texaco,BOUNTIFUL,305145,0305145 00305145,560 W. 500 S,UT,84010
Texaco,NEPHI,305146,0305146 00305146,2050 S. MAIN,UT,84648
Texaco,FILLMORE,305147,0305147 00305147,1160 NORTH CEDAR MTN. ROAD,UT,84631
Texaco,SPOKANE,305158,0305158 00305158,3430 N. CRESTLINE,WA,99207
Texaco,RITZVILLE,305160,0305160 00305160,1508 W. 1ST ST. AVE,WA,99169
Texaco,COEUR DALENE,305170,0305170 00305170,1801 NORTHWEST BLVD,ID,83814
Texaco,MABLETON,305199,0305199 00305199,5401 FLOYD RD,GA,30126
Texaco,REDMOND,305211,0305211 00305211,539 NW 6TH STREET,OR,97756
Texaco,KLAMATH FALLS,305214,0305214 00305214,2104 SE 6TH STREET,OR,97601
Texaco,BEND,305215,0305215 00305215,718 COLUMBIA,OR,97701
Texaco,WALLA WALLA,305230,0305230 00305230,506 S 9TH,WA,99362
Texaco,CONYERS,305233,0305233 00305233,1410 KLONDIKE ROAD,GA,30094
Texaco,HOUSTON,305249,0305249 00305249,10949 S SAM HOUSTON PWKY,TX,77031
Texaco,ELLENWOOD,305250,0305250 00305250,2710 BOULDERCREST RD,GA,30294
Texaco,MINDEN,305254,0305254 00305254,2193 HWY 532,LA,71055
Texaco,HEWITT,305256,0305256 00305256,621 HEWITT DR,TX,76643
Texaco,MCGREGOR,305258,0305258 00305258,602 W MCGREGOR,TX,76657
Texaco,LA PORTE,305259,0305259 00305259,8300 SPENCER HWY.,TX,77571
Texaco,AUSTIN,305264,0305264 00305264,201 RR 620,TX,78734
Texaco,FRANKLIN,305265,0305265 00305265,116 E US HIGHWAY 79,TX,77856
Texaco,PARADIS,305278,0305278 00305278,14851 HWY 90,LA,70080
Texaco,PENSACOLA,305283,0305283 00305283,6500 W. NINE MILE RD.,FL,32526
Texaco,MCDERMITT,305289,0305289 00305289,195 HWY 95,NV,89421
Texaco,MOUNTAIN HOME,305290,0305290 00305290,495 N 2ND EAST,ID,83647
Texaco,BOISE,305292,0305292 00305292,3205 VISTA,ID,83705
Texaco,TEHACHAPI,305302,0305302 00305302,1050 CAPITOL HILLS,CA,93561
Texaco,TEHACHAPI,305303,0305303 00305303,20436 BRIAN WAY,CA,93561
Texaco,WEST PALM BEACH,305309,0305309 00305309,2175 PALM BEACH LKS,FL,33409
Texaco,STEVENSON,305318,0305318 00305318,333 ROCKCREEK DRIVE,WA,98648
Texaco,DECATUR,305323,0305323 00305323,1105 N HIGHWAY 287,TX,76234
Texaco,KILLEEN,305324,0305324 00305324,1803 GRANDON DRIVE,TX,76541
Texaco,FORT WORTH,305325,0305325 00305325,1300 E. LONG AVE.,TX,76106
Texaco,PLEASANT HILL,305335,0305335 00305335,35310 HWY 58,OR,97455
Texaco,LEBANON,305345,0305345 00305345,1550 MAIN ST,OR,97355
Texaco,CORVALLIS,305346,0305346 00305346,5800 NW HWY 99 W,OR,97330
Texaco,TILLAMOOK,305350,0305350 00305350,1015 PACIFIC,OR,97141
Texaco,OREM,305364,0305364 00305364,1594 S STATE ST,UT,84097
Texaco,FREELAND,305366,0305366 00305366,18205 STATE ROUTE 525,WA,98249
Texaco,EHRENBERG,305367,0305367 00305367,18221 TOM WELLS RD,AZ,85334
Texaco,LAKE STEVENS,305368,0305368 00305368,16410 84TH STREET NE,WA,98258
Texaco,PLEASANT GROVE,305370,0305370 00305370,690 W STATE ST,UT,84062
Texaco,CAMANO ISLAND,305381,0305381 00305381,390 NE CAMANO DR,WA,98282
Texaco,DUVALL,305382,0305382 00305382,15410 MAIN ST E,WA,98019
Texaco,TUSCUMBIA,305383,0305383 00305383,17750 HWY 72,AL,35674
Texaco,MUSCLE SHOALS,305384,0305384 00305384,100 RIVER RD,AL,35661
Texaco,LEOMA,305386,0305386 00305386,2339 HIGHWAY 43 SOUTH,TN,38468
Texaco,ALPINE,305387,0305387 00305387,120 US HWY 89,WY,83128
Texaco,BUHL,305388,0305388 00305388,651 BROADWAY AVE SO,ID,83316
Texaco,RUSSELLVILLE,305391,0305391 00305391,700 G WALLACE HWY,AL,35654
Texaco,SPANISH FORK (SPANIS,305398,0305398 00305398,780 E 800 NORTH,UT,84660
Texaco,SPANISH FORK (SPANIS,305399,0305399 00305399,614 N MAIN,UT,84660
Texaco,AUSTIN,305406,0305406 00305406,8630 RESEARCH BLVD,TX,78758
Texaco,ROY,305415,0305415 00305415,4395 SO 1900 WEST,UT,84067
Texaco,BATON ROUGE,305416,0305416 00305416,7808 GREENWELL SPRINGS RD,LA,70814
Texaco,HOUSTON,305429,0305429 00305429,1621 S. VOSS RD,TX,77057
Texaco,HOUSTON,305432,0305432 00305432,9404 NORTH FRWY,TX,77088
Texaco,KATY,305433,0305433 00305433,24985 KATY FRWY,TX,77494
Texaco,HOUSTON,305434,0305434 00305434,1110 N. SAM HOUSTON PKWY,TX,77038
Texaco,HIGHLANDS,305435,0305435 00305435,1001 I - 10 EAST,TX,77562
Texaco,HOUSTON,305436,0305436 00305436,9101 CLINTON DR,TX,77029
Texaco,HOUSTON,305437,0305437 00305437,10611 I - 10 EAST,TX,77029
Texaco,SHENANDOAH,305438,0305438 00305438,28677 I-45 NORTH,TX,77381
Texaco,HOUSTON,305439,0305439 00305439,15303 ELLA BLVD,TX,77090
Texaco,HOUSTON,305440,0305440 00305440,14711 S. MAIN,TX,77035
Texaco,HOUSTON,305441,0305441 00305441,10755 VETERANS MEMORIAL BLVD,TX,77038
Texaco,HOUSTON,305442,0305442 00305442,8201 NORTH FRWY,TX,77037
Texaco,HOUSTON,305443,0305443 00305443,435 N. LOOP WEST,TX,77009
Texaco,HOUSTON,305444,0305444 00305444,5797 N. BELTWAY 8,TX,77032
Texaco,HOUSTON,305448,0305448 00305448,411 RICHMOND AVE,TX,77002
Texaco,HOUSTON,305452,0305452 00305452,702 RANKIN RD,TX,77073
Texaco,THE WOODLANDS,305453,0305453 00305453,660 SAWDUST RD,TX,77380
Texaco,HOUSTON,305457,0305457 00305457,1520 BARKER CYPRESS,TX,77084
Texaco,HOUSTON,305459,0305459 00305459,8110 N. SAM HOUSTON PKWY,TX,77064
Texaco,CENTRAL POINT,305461,0305461 00305461,16 N. FRONT ST,OR,97502
Texaco,HOUSTON,305462,0305462 00305462,5716 I-45 NORTH,TX,77076
Texaco,HOUSTON,305464,0305464 00305464,10910 AIRLINE DR,TX,77037
Texaco,BAYTOWN,305465,0305465 00305465,10330 I-10 EAST,TX,77520
Texaco,ROYSE CITY,305466,0305466 00305466,926 E. I-30,TX,75189
Texaco,THE WOODLANDS,305467,0305467 00305467,24627 I-45 NORTH,TX,77380
Texaco,GRANTS PASS,305468,0305468 00305468,104 NE MORGAN,OR,97526
Texaco,HUMBLE,305469,0305469 00305469,3411 FM 1960,TX,77338
Texaco,MEDFORD,305470,0305470 00305470,600 E MAIN ST,OR,97504
Texaco,HOUSTON,305471,0305471 00305471,7102 NORTH FRWY,TX,77076
Texaco,ROSENBERG,305474,0305474 00305474,28111 SOUTHWEST FRWY,TX,77471
Texaco,ROSEBURG,305478,0305478 00305478,912 SE STEPHENS,OR,97470
Texaco,HURST,305482,0305482 00305482,844 WEST PIPELINE RD,TX,76053
Texaco,SILVER CREEK,305484,0305484 00305484,2912 US HWY 12,WA,98585
Texaco,CENTRALIA,305485,0305485 00305485,1010 BELMONT AVE,WA,98531
Texaco,CHEHALIS,305488,0305488 00305488,1249 S MARKET BLVD,WA,98532
Texaco,KELSO,305489,0305489 00305489,400 N PACIFIC,WA,98626
Texaco,CHEHALIS,305492,0305492 00305492,1400 NW LOUISIANA AVE,WA,98532
Texaco,SEAVIEW,305494,0305494 00305494,4105 PACIFIC HWY,WA,98644
Texaco,OCEAN PARK,305497,0305497 00305497,BAY AVENUE & HWY 103,WA,98640
Texaco,LONGVIEW,305498,0305498 00305498,1055 TENNANT WAY,WA,98632
Texaco,LONGVIEW,305499,0305499 00305499,3003 COLUMBIA HTS RD,WA,98632
Texaco,LEHI,305500,0305500 00305500,62 INTERSTATE PLAZA DR,UT,84043
Texaco,HOUSTON,305507,0305507 00305507,5333 KATY FRWY,TX,77007
Texaco,KENTWOOD,305511,0305511 00305511,733 AVE G,LA,70444
Texaco,CARENCRO,305516,0305516 00305516,926 VETERANS DR,LA,70520
Texaco,MERIDIAN,305517,0305517 00305517,3100 S MERIDIAN RD,ID,83642
Texaco,MOAB,305520,0305520 00305520,555 S. MAIN ST,UT,84532
Texaco,ALPINE,305521,0305521 00305521,400 S. MAIN ST,UT,84004
Texaco,BRYCE CANYON,305522,0305522 00305522,1000 SOUTH HWY 63,UT,84764
Texaco,HARKER HEIGHTS,305547,0305547 00305547,519 E. VETERANS MEMORIAL BLVD,TX,76548
Texaco,ROMA (ROMA-LOS SAENZ,305548,0305548 00305548,73 E. GRANT ST.,TX,78584
Texaco,PANAMA CITY,305570,0305570 00305570,707 WEST 11TH ST.,FL,32401
Texaco,VISALIA,305612,0305612 00305612,1301 E. HOUSTON,CA,93291
Texaco,MCDONOUGH,305617,0305617 00305617,3700 HWY 81,GA,30252
Texaco,JACKSONVILLE BEACH,305618,0305618 00305618,10 N. 3RD ST.,FL,32250
Texaco,ANGELS CAMP (ANGELS),305623,0305623 00305623,2892 HWY. 49,CA,95222
Texaco,IRVING,305627,0305627 00305627,8580 N MC ARTHUR,TX,75063
Texaco,ARCO,305655,0305655 00305655,2437 US HWY 20,ID,83213
Texaco,LAKE HAVASU CITY,305657,0305657 00305657,1571 S. PALO VERDE,AZ,86403
Texaco,MCFARLAND,305663,0305663 00305663,31988 HWY 46,CA,93250
Texaco,WHITE SETTLEMENT,305665,0305665 00305665,1409 S. CHERRY LANE,TX,76108
Texaco,VILLA RICA,305674,0305674 00305674,820 DALLAS HIGHWAY,GA,30180
Texaco,TEMPLE,305675,0305675 00305675,233 CARROLLTON ST.,GA,30179
Texaco,BREMEN,305676,0305676 00305676,2002 ALABAMA AVE,GA,30110
Texaco,CARROLLTON,305677,0305677 00305677,1435 S. PARK ST. (HWY 27),GA,30117
Texaco,WOODSTOCK,305678,0305678 00305678,9114 S. MAIN ST.,GA,30188
Texaco,OGDEN,305692,0305692 00305692,1514 WEST 2100 SOUTH,UT,84401
Texaco,OROVILLE,305694,0305694 00305694,33607 HWY 97 N,WA,98844
Texaco,KENNEWICK,305696,0305696 00305696,526 W. COLUMBIA DRIVE,WA,99336
Texaco,OMAK,305697,0305697 00305697,600 OMACHE DR.,WA,98841
Texaco,TOPPENISH,305698,0305698 00305698,321 S. ELM STREET,WA,98948
Texaco,ATLANTA,305706,0305706 00305706,1870 GLENWOOD AVE,GA,30316
Texaco,AUSTIN,305713,0305713 00305713,7110 BEE CAVE RD,TX,78746-4103
Texaco,AUSTIN,305716,0305716 00305716,719 W. WILLIAM CANNON,TX,78745
Texaco,PANAMA CITY BEACH,305723,0305723 00305723,4909 THOMAS DR,FL,32408
Texaco,PANAMA CITY,305724,0305724 00305724,5100 HIGHWAY 98,FL,32402
Texaco,PANAMA CITY,305726,0305726 00305726,8701 FRONT BEACH RD,FL,32407
Texaco,PANAMA CITY,305727,0305727 00305727,1512 HARRISON AVE,FL,32402
Texaco,CALLAWAY,305728,0305728 00305728,7409 HIGHWAY 22 & STAR,FL,32404
Texaco,YOUNGSTOWN,305729,0305729 00305729,12039 HIGHWAY 231,FL,32466
Texaco,LYNN HAVEN,305730,0305730 00305730,4702 HIGHWAY 389,FL,32444
Texaco,PANAMA CITY,305731,0305731 00305731,207 W. 23RD ST,FL,32405
Texaco,CALLAWAY,305732,0305732 00305732,102 N. TYNDALL PKWY,FL,32404
Texaco,PANAMA CITY,305733,0305733 00305733,3623 W. 23RD ST,FL,32405
Texaco,GILA BEND,305735,0305735 00305735,623 WEST PIMA,AZ,85337
Texaco,IDAHO FALLS,305748,0305748 00305748,799 S. HOLMES,ID,83401
Texaco,HOUSTON,305749,0305749 00305749,7997 W. AIRPORT,TX,77071
Texaco,PANAMA CITY,305753,0305753 00305753,10970 E COUNTY HWY 30A,FL,32413
Texaco,MALAD,305766,0305766 00305766,102 BANNOCK,ID,83252
Texaco,METAIRIE,305783,0305783 00305783,5001 AIRLINE DR,LA,70001
Texaco,WOLF CREEK,305787,0305787 00305787,397 OLD HWY 99,OR,97497
Texaco,OXFORD,305790,0305790 00305790,1448 S. LAMAR,MS,38655
Texaco,TUNICA,305791,0305791 00305791,1173 S. MAIN ST.,MS,38676
Texaco,ARLINGTON,305792,0305792 00305792,11417 HWY. 64,TN,38002
Texaco,CLEARFIELD,305812,0305812 00305812,310 NORTH MAIN,UT,84015
Texaco,SPOKANE,305814,0305814 00305814,2706 E. 29TH,WA,99203
Texaco,DALLAS,305823,0305823 00305823,8181 S LANCASTER,TX,75241
Texaco,HOUSTON,305825,0305825 00305825,7545 PARK PLACE BLVD,TX,77087
Texaco,SCIPIO,305832,0305832 00305832,275 W. 400 N,UT,84656
Texaco,BASTROP,305833,0305833 00305833,306 HWY 71 WEST,TX,78602
Texaco,LINDSAY,305840,0305840 00305840,340 W. HERMOSA AVE,CA,93247
Texaco,HANFORD,305841,0305841 00305841,600 N. IRWIN ST.,CA,93230
Texaco,SPRING,305844,0305844 00305844,603 RAYFORD ROAD,TX,77386
Texaco,MACON,305848,0305848 00305848,5394 THOMASTON ROAD,GA,31220
Texaco,ARCATA,305864,0305864 00305864,421 J ST.,CA,95521
Texaco,COBB,305865,0305865 00305865,16340 HWY 175,CA,95426
Texaco,EUREKA,305866,0305866 00305866,3505 BROADWAY,CA,95503
Texaco,LEMOORE,305871,0305871 00305871,49 E. D STREET,CA,93245
Texaco,HANFORD,305875,0305875 00305875,711 E. LACEY BLVD.,CA,93230
Texaco,CIBOLO,305879,0305879 00305879,700 FM 1103,TX,78108
Texaco,AMMON,305881,0305881 00305881,3480 17TH ST.,ID,83406
Texaco,SAINT ANTHONY,305886,0305886 00305886,33 S BRIDGE STREET,ID,83445
Texaco,TONOPAH,305887,0305887 00305887,1500 ERIE-MAIN ST.,NV,89049
Texaco,PICABO,305888,0305888 00305888,18918 HWY 20,ID,83348
Texaco,LEVAN,305889,0305889 00305889,85 NORTH MAIN,UT,84639
Texaco,KETCHUM,305891,0305891 00305891,258 NORTHWOOD WAY,ID,83340
Texaco,DALLAS,305918,0305918 00305918,14106 DALLAS PARKWAY,TX,75240
Texaco,SAN ANTONIO,305921,0305921 00305921,8318 JONES MALTSBERGER,TX,78216
Texaco,NOME,305922,0305922 00305922,1043 HWY 90 EAST,TX,77629
Texaco,OLYMPIA,305925,0305925 00305925,2007 W. HARRISON,WA,98502
Texaco,OLYMPIA,305926,0305926 00305926,2020 BLACK LAKE BLVD.,WA,98502
Texaco,OLYMPIA,305928,0305928 00305928,2036 E. 4TH AVE.,WA,98506
Texaco,LACEY,305929,0305929 00305929,9139 PACIFIC AVE.,WA,98513
Texaco,OLYMPIA,305930,0305930 00305930,11315 SCOTT CREEK DR. SW,WA,98502
Texaco,KILLEEN,305934,0305934 00305934,1219 S. FT. HOOD ST.,TX,76542
Texaco,COPPERAS COVE,305935,0305935 00305935,2411 HWY 190,TX,76522
Texaco,GEORGETOWN,305937,0305937 00305937,2995 WILLIAMS DR,TX,78628
Texaco,AUSTIN,305938,0305938 00305938,1403 S. LAMAR,TX,78704
Texaco,CEDAR PARK,305944,0305944 00305944,12020 FM 620 NORTH,TX,78613
Texaco,ALAMO,305945,0305945 00305945,215 W. MAIN ST.,GA,30411
Texaco,PFLUGERVILLE,305946,0305946 00305946,15010 FM 1825,TX,78660
Texaco,BOYNTON BEACH,305947,0305947 00305947,7450 W. BOYNTON BEACH,FL,33437
Texaco,AUSTIN,305949,0305949 00305949,9200 BURNET ROAD,TX,78758
Texaco,AUSTIN,305957,0305957 00305957,408 E RUNDBERG LANE,TX,78753
Texaco,AUSTIN,305958,0305958 00305958,6607 CIRCLE S DRIVE,TX,78745
Texaco,AUSTIN,305959,0305959 00305959,2601 W BRAKER LAND,TX,78758
Texaco,ORLANDO,305969,0305969 00305969,6177 WESTWOOD BLVD,FL,32821
Texaco,SMITHVILLE,305984,0305984 00305984,63466 HWY 25 N,MS,38870
Texaco,SHANNON,305985,0305985 00305985,6125 NOAH CURTIS ST.,MS,38868
Texaco,GLEN ROSE,305987,0305987 00305987,901 NE BIG BEND TRAIL,TX,76043
Texaco,MESQUITE,305988,0305988 00305988,1433 S. BELTLINE,TX,75149
Texaco,AUSTIN,305997,0305997 00305997,6607 S. PLEASANT VALLEY RD,TX,78744
Texaco,ATLANTA,305999,0305999 00305999,121 CLEVELAND AVENUE SW,GA,30315
Texaco,TUCKER,306000,0306000 00306000,4271 LAVISTA ROAD,GA,30084
Texaco,KELSO,306009,0306009 00306009,1221 ROSE VALLEY RD.,WA,98626
Texaco,HOUSTON,306025,0306025 00306025,12003 BAMMEL N. HOUSTON,TX,77066
Texaco,ELLENSBURG,306027,0306027 00306027,200 W. UNIVERSITY,WA,98926
Texaco,KINGSTON,306028,0306028 00306028,26605 SR 104,WA,98346
Texaco,SEABECK,306029,0306029 00306029,14174 NW HOLLY RD,WA,98380
Texaco,RAINIER,306030,0306030 00306030,101 BINGHAMPTON,WA,98576
Texaco,PE ELL,306031,0306031 00306031,504 N MAIN,WA,98572
Texaco,OLYMPIA,306033,0306033 00306033,1441 83rd Ave SW,WA,98512
Texaco,OLYMPIA,306034,0306034 00306034,1515 E BLACK LAKE BLVD. SW,WA,98502
Texaco,OLYMPIA,306035,0306035 00306035,3210 COOPER PT RD NW,WA,98502
Texaco,BREMERTON,306036,0306036 00306036,5010 MAY ST NW,WA,98311
Texaco,OLYMPIA,306037,0306037 00306037,7706 OLD HWY 99,WA,98501
Texaco,OLYMPIA,306038,0306038 00306038,9410 MARTIN WAY E.,WA,98516
Texaco,POULSBO,306039,0306039 00306039,10400 CENTRAL VALLEY GROCERY,WA,98370
Texaco,LAKEWOOD,306040,0306040 00306040,12706 BRIDGEPORT WAY,WA,98499-3338
Texaco,COTTONWOOD,306041,0306041 00306041,19845 MAIN ST.,CA,96022
Texaco,REDDING,306043,0306043 00306043,5001 BECHELLI LN.,CA,96002
Texaco,PORT ANGELES,306044,0306044 00306044,232951 HWY 101,WA,98363
Texaco,ELMA,306048,0306048 00306048,1509 W MAIN ST.,WA,98541
Texaco,SILVERDALE,306050,0306050 00306050,9571 SILVERDALE WAY,WA,98383
Texaco,LAKE TAPPS,306051,0306051 00306051,18215 9TH ST EAST,WA,98391
Texaco,OLYMPIA,306066,0306066 00306066,9200 LITTLEROCK RD,WA,98512
Texaco,YELM,306072,0306072 00306072,15201 VAIL RD. SE,WA,98597
Texaco,FLAGSTAFF,306082,0306082 00306082,1601 SOUTH MILTON ROAD,AZ,86001
Texaco,WILLCOX,306087,0306087 00306087,I-10 AND REX ALLEN DRIVE,AZ,85644
Texaco,RENTON,306089,0306089 00306089,2801 NE SUNSET BOULEVARD,WA,98056
Texaco,SAINT MARTINVILLE,306106,0306106 00306106,7030 MAIN HWY,LA,70582
Texaco,HOUSTON,306107,0306107 00306107,10030 HOMESTEAD,TX,77016
Texaco,MONROE,306109,0306109 00306109,280 NORTH MAIN,UT,84754
Texaco,ST. GEORGE,306113,0306113 00306113,810 EAST ST. GEORGE BLVD,UT,84770
Texaco,BELLEVUE,306118,0306118 00306118,516 NORTH MAIN STREET,ID,83313
Texaco,SUNNYSIDE,306126,0306126 00306126,209 YAKIMA VALLEY,WA,98944
Texaco,WHITE SWAN,306128,0306128 00306128,180 BIRCH AVE.,WA,98952
Texaco,CHELAN,306129,0306129 00306129,53 S. LAKE SHORE,WA,98816
Texaco,NORTHPORT,306132,0306132 00306132,208 CENTER ST.,WA,99157
Texaco,MARYSVALE,306133,0306133 00306133,10 NORTH STATE ST.,UT,84750
Texaco,MAPLETON,306142,0306142 00306142,790 N. 1600 W.,UT,84664
Texaco,WEST VALLEY,306153,0306153 00306153,3575 W. 3500 S.,UT,84119
Texaco,FILLMORE,306159,0306159 00306159,885 SOUTH PARK AVE,UT,84631
Texaco,ROSEBURG,306167,0306167 00306167,346 NW GARDEN VALLEY,OR,97470
Texaco,LOA,306170,0306170 00306170,241 NORTH MAIN,UT,84747
Texaco,SHOSHONE,306179,0306179 00306179,605 S. GREENWOOD,ID,83324
Texaco,TOMBALL,306199,0306199 00306199,24900 KUYKENDAHL,TX,77375
Texaco,PINEVILLE,306201,0306201 00306201,2665 HWY 28 EAST,LA,71360
Texaco,BRYAN,306219,0306219 00306219,300 E. VILLA MARIA,TX,77801
Texaco,COLLEGE STATION,306223,0306223 00306223,2201 LONGMIRE,TX,77845
Texaco,BRYAN,306224,0306224 00306224,1201 W. WILLIAM JOEL BRYAN PKWY.,TX,77801
Texaco,SOMERVILLE,306226,0306226 00306226,17270 HWY 36 SOUTH,TX,77879
Texaco,MESQUITE,306235,0306235 00306235,4401 N. GALLOWAY,TX,75150
Texaco,AUSTIN,306237,0306237 00306237,1822 RUTLAND DR,TX,78758
Texaco,BRYAN,306238,0306238 00306238,3401 HWY 21 EAST,TX,77808
Texaco,AUSTIN,306239,0306239 00306239,11643 RESEARCH BLVD,TX,78759
Texaco,AUSTIN,306241,0306241 00306241,6111 BEE CAVES RD,TX,78746
Texaco,PFLUGERVILLE,306243,0306243 00306243,15829 IH 35 NORTH,TX,78660
Texaco,WEST LAKE HILLS,306245,0306245 00306245,3625 BEE CAVES RD,TX,78746
Texaco,CLANTON,306246,0306246 00306246,2320 7TH ST S,AL,35046
Texaco,GARDEN CITY,306252,0306252 00306252,25 NORTH BEAR LAKE ROAD,UT,84028
Texaco,DALLAS,306253,0306253 00306253,8405 STEMMONS FRWY,TX,75247
Texaco,RIO VISTA,306265,0306265 00306265,100 N. HWY. 174,TX,76093
Texaco,CLEBURNE,306266,0306266 00306266,1201 E. HENDERSON,TX,76031
Texaco,WATAUGA,306267,0306267 00306267,5901 HIGHTOWER DR.,TX,76148
Texaco,PANAMA CITY,306272,0306272 00306272,4925 HIGHWAY 22,FL,32404
Texaco,GULF BREEZE,306274,0306274 00306274,5358 GULF BREEZE PARKWAY,FL,32561
Texaco,ELLISVILLE,306277,0306277 00306277,5213 HWY 11 NORTH,MS,39437
Texaco,SPRING,306290,0306290 00306290,17638 STUEBNER AIRLINE,TX,77379
Texaco,FAIRFIELD,306302,0306302 00306302,4012 LLOYD NOLEN PKWY,AL,35064
Texaco,HOUSTON,306310,0306310 00306310,14834 IH-45 NORTH,TX,77073
Texaco,FORT WORTH,306314,0306314 00306314,2717 HORNE ST.,TX,76107
Texaco,CARSON,306318,0306318 00306318,11 CARSON FRONTAGE RD.,WA,98610
Texaco,LACEY,306324,0306324 00306324,1101 COLLEGE ST SE,WA,98503
Texaco,OLYMPIA,306325,0306325 00306325,8031 YELM HWY,WA,98503
Texaco,PULLMAN,306327,0306327 00306327,500 S. GRAND AVE.,WA,99163
Texaco,SAINT HELENS,306336,0306336 00306336,373 S. COLUMBIA RIVER HWY,OR,97051
Texaco,CLEAR LAKE,306337,0306337 00306337,1301 HWY 9,WA,98235
Texaco,REEDSPORT,306338,0306338 00306338,1625 HWY 101,OR,97467
Texaco,MOUNT VERNON,306339,0306339 00306339,17768 STATE ROUTE 536,WA,98273
Texaco,ANACORTES,306340,0306340 00306340,7601 SR 20,WA,98221
Texaco,MOUNT VERNON,306341,0306341 00306341,1726 E. COLLEGE WAY,WA,98273
Texaco,ASTORIA,306344,0306344 00306344,1701 MARINE DR.,OR,97103
Texaco,POULSBO,306346,0306346 00306346,15915 STATE HWY 305 NE,WA,98370
Texaco,ASTORIA,306351,0306351 00306351,42930 OLD HWY 30,OR,97103
Texaco,GRAHAM,306356,0306356 00306356,29822 ORTING-KAPOWSIN HWY,WA,98338
Texaco,ENUMCLAW,306357,0306357 00306357,43529 228TH AVE SE,WA,98022
Texaco,UNION,306358,0306358 00306358,1031 E. MCGREAVEY RD.,WA,98592
Texaco,CONROE,306362,0306362 00306362,27455 HANNA RD,TX,77385
Texaco,SPOKANE,306366,0306366 00306366,4617 N. NEVADA,WA,99207
Texaco,MEAD,306367,0306367 00306367,11810 N. MARKET ST.,WA,99021
Texaco,ROSEBURG,306372,0306372 00306372,334 W HARVARD,OR,97470
Texaco,MEDFORD,306373,0306373 00306373,1006 S. RIVERSIDE,OR,97501
Texaco,NORTH BEND,306376,0306376 00306376,1180 N. VIRGINIA,OR,97459
Texaco,NEWBERG,306377,0306377 00306377,1902 PORTLAND RD.,OR,97132
Texaco,ELMA,306378,0306378 00306378,306 S 3RD ST.,WA,98541
Texaco,HUBBARD,306381,0306381 00306381,3574 PACIFIC HWY 99,OR,97032
Texaco,BLAINE,306382,0306382 00306382,4485 BIRCH BAY LYNDEN RD.,WA,98230
Texaco,BLACKFOOT,306386,0306386 00306386,902 WEST HWY 39,ID,83221
Texaco,MEMPHIS,306391,0306391 00306391,1590 SYCAMORE VIEW RD.,TN,38134
Texaco,FORT WORTH,306407,0306407 00306407,4000 SYCAMORE SCHOOL RD,TX,76133
Texaco,ASHLAND,306408,0306408 00306408,345 LITHIA WAY,OR,97520
Texaco,COOS BAY,306409,0306409 00306409,392 SOUTH 4TH,OR,97420
Texaco,WHITE CITY,306410,0306410 00306410,13325 ANTIOCH RD,OR,97503
Texaco,GRANTS PASS,306411,0306411 00306411,730 REDWOOD AVE.,OR,97527
Texaco,ASHLAND,306412,0306412 00306412,2371 ASHLAND STREET,OR,97520
Texaco,SULTAN,306654,0306654 00306654,921 STEVENS AVE.,WA,98294
Texaco,ROCK SPRINGS,306666,0306666 00306666,1620 ELK STREET,WY,82901
Texaco,PRESCOTT,306668,0306668 00306668,810 E SHELDON ST,AZ,86301
Texaco,ASH FORK,306669,0306669 00306669,925 FRONTAGE RD,AZ,86320
Texaco,BLAINE,306675,0306675 00306675,347 D STREET,WA,98231
Texaco,BOISE,306690,0306690 00306690,4780 W. STATE STREET,ID,83703
Texaco,PAUL,306692,0306692 00306692,400 WEST 100 SOUTH,ID,83347
Texaco,SAN ANTONIO,306700,0306700 00306700,1302 LAVEN DR.,TX,78228
Texaco,MEMPHIS,306721,0306721 00306721,1220 GETWELL RD,TN,38111
Texaco,MEMPHIS,306723,0306723 00306723,2510 N WATKINS,TN,38127
Texaco,FAIRBURN,306725,0306725 00306725,3939 CASCADE PALMETTO HWY,GA,30213
Texaco,TULARE,306728,0306728 00306728,14002 AVE 232,CA,93274
Texaco,OKEECHOBEE,306755,0306755 00306755,4993 US HIGHWAY 441 S,FL,34974
Texaco,COTTONWOOD,306761,0306761 00306761,962 S MAIN ST,AZ,86326
Texaco,DALLAS,306774,0306774 00306774,6008 S. R. L. THORNTON,TX,75232
Texaco,HANSEN,306780,0306780 00306780,3048 ROCK CREEK ROAD,ID,83334
Texaco,POMPANO BEACH,306781,0306781 00306781,4517 N. DIXIE HWY,FL,33064
Texaco,BESSEMER,306783,0306783 00306783,1101 ALLIANCE RD.,AL,35023
Texaco,VESTAVIA HILLS,306784,0306784 00306784,1487 MONTGOMERY HWY,AL,35216
Texaco,BIRMINGHAM,306786,0306786 00306786,211 W. VALLEY AVE.,AL,35209
Texaco,BESSEMER,306787,0306787 00306787,2924 MORGAN RD.S/E,AL,35022
Texaco,BIRMINGHAM,306788,0306788 00306788,1737 JEFFERSON AVE.,AL,35211
Texaco,RIVERSIDE,306790,0306790 00306790,11950 HWY. 78,AL,35135
Texaco,BESSEMER,306793,0306793 00306793,1957 FOURTH AVE. S/W,AL,35020
Texaco,BESSEMER,306795,0306795 00306795,2800 NINTH AVE. N.,AL,35020
Texaco,VADO,306800,0306800 00306800,1716 VADO DRIVE,NM,88072
Texaco,ADGER,306806,0306806 00306806,9225 LOCK 17 ROAD,AL,35006
Texaco,BIRMINGHAM,306808,0306808 00306808,208 OXMOOR RD.,AL,35209
Texaco,DICKINSON,306813,0306813 00306813,4921 FM 517,TX,77539
Texaco,WEBSTER,306816,0306816 00306816,501 EL DORADO,TX,77598
Texaco,BESSEMER,306819,0306819 00306819,5977 JOHNS RD.,AL,35023
Texaco,TOMBALL,306851,0306851 00306851,19931 FM-2920,TX,77377
Texaco,MIAMI,306863,0306863 00306863,15450 SW 136 STREET,FL,33186
Texaco,OXFORD,306864,0306864 00306864,166 PRIEBES MILL RD.,AL,36203
Texaco,GULFPORT,306865,0306865 00306865,2354 EAST PASS ROAD,MS,39507
Texaco,RIVERDALE,306873,0306873 00306873,626 VALLEY HILL RD.,GA,30274
Texaco,OXFORD,306877,0306877 00306877,2156 HIGHWAY 81,GA,30054
Texaco,TEQUESTA,306884,0306884 00306884,250 S US HWY 1,FL,33469
Texaco,JEFFERSON,306891,0306891 00306891,2715 HWY 124 W,GA,30549
Texaco,LEWISVILLE,306899,0306899 00306899,397 SW PARKWAY SUITE 101,TX,75067
Texaco,BAKERSFIELD,306903,0306903 00306903,8501 KERN CANYON RD.,CA,93306
Texaco,RENTON,306914,0306914 00306914,10545 SE CARR ROAD,WA,98055
Texaco,FILER,306917,0306917 00306917,120 HWY 30,ID,83328
Texaco,SANDY,306924,0306924 00306924,9812 S. 700 E.,UT,84070
Texaco,MABTON,306925,0306925 00306925,451 N.MAIN ST.,WA,98935
Texaco,LA GRANDE,306930,0306930 00306930,2112 ISLAND AVE.,OR,97850
Texaco,OAK HARBOR,306933,0306933 00306933,971 W. AULT FIELD RD.,WA,98277
Texaco,CATHEYS VALLEY,306934,0306934 00306934,4993 HORNITOS RD.,CA,95306
Texaco,GOLD BAR,306938,0306938 00306938,109 W. CROFT AVE.,WA,98251
Texaco,DAYTON,306939,0306939 00306939,533 W. MAIN ST.,WA,99328
Texaco,ZILLAH,306940,0306940 00306940,723 S. 1ST ST.,WA,98953
Texaco,PASCO,306941,0306941 00306941,2519 W. COURT,WA,99301
Texaco,USK,306949,0306949 00306949,111 5TH ST.,WA,99180
Texaco,LEHI,306952,0306952 00306952,290 W. STATE,UT,84043
Texaco,MIDVALE,306956,0306956 00306956,7348 S. UNION PARK AVENUE,UT,84047
Texaco,GUNTERSVILLE,306958,0306958 00306958,2109 GUNTER AVENUE,AL,35976
Texaco,ELY,306961,0306961 00306961,1490 EAST AULTMAN STREET,NV,89301
Texaco,BAKERSFIELD,306964,0306964 00306964,8101 EDISON HWY,CA,93307
Texaco,SNOHOMISH,306965,0306965 00306965,701 2ND STREET,WA,98290
Texaco,EVERETT,306966,0306966 00306966,130 128TH STREET S.E.,WA,98208
Texaco,CARTERSVILLE,306969,0306969 00306969,1401 WEST AVENUE,GA,30120
Texaco,HOUSTON,306976,0306976 00306976,15050 BEECHNUT,TX,77083
Texaco,PORTER,306981,0306981 00306981,24076 LOOP 494,TX,77365
Texaco,NEW HARMONY,306989,0306989 00306989,3802 EAST HWY 144,UT,84757
Texaco,TYLER,306999,0306999 00306999,1118 W GENTRY,TX,75702
Texaco,HENAGAR,307010,0307010 00307010,8999 AL HWY 40,AL,35978
Texaco,HOUSTON,307011,0307011 00307011,5122 N. MCARTY ROAD,TX,77013
Texaco,PINEVILLE,307018,0307018 00307018,4000 HOLLOWAY PRAIRIE RD,LA,71360
Texaco,ALEXANDRIA,307019,0307019 00307019,5203 JACKSON STREET,LA,71302
Texaco,MISSOURI CITY,307021,0307021 00307021,14607 HILLCROFT STREET,TX,77489
Texaco,HOUSTON,307025,0307025 00307025,10840 HUGHES ROAD,TX,77089
Texaco,HOUSTON,307028,0307028 00307028,601 SPENCER HIGHWAY,TX,77002
Texaco,SCOTTSBORO,307036,0307036 00307036,701 E. WILLOW STREET,AL,35768
Texaco,FLAT ROCK,307037,0307037 00307037,4842 AL HWY 75,AL,35966
Texaco,STEVENSON,307044,0307044 00307044,42590 US HWY 72,AL,35772
Texaco,CLARKSTON,307067,0307067 00307067,3906 E PONCE DE LEON AVE,GA,30021
Texaco,HOUSTON,307078,0307078 00307078,1214 NORTH BELT EAST,TX,77032
Texaco,SPLENDORA,307085,0307085 00307085,50 TRAM ROAD HWY 2090,TX,77372
Texaco,HOUSTON,307088,0307088 00307088,14049 EASTEX FREEWAY,TX,77032
Texaco,HOUSTON,307091,0307091 00307091,3606 IRVINGTON,TX,77009
Texaco,HOUSTON,307110,0307110 00307110,7140 SCOTT ROAD,TX,77021
Texaco,KENT,307120,0307120 00307120,19243 84TH AVE S,WA,98032
Texaco,HOOKS,307133,0307133 00307133,803 MAIN STREET,TX,75561
Texaco,MIDLAND,307137,0307137 00307137,10400 IH 20,TX,79706
Texaco,WOODVILLE,307145,0307145 00307145,116 HWY 61 N,MS,39669
Texaco,DEMING,307146,0307146 00307146,6476 MT. BAKER HWY,WA,98244
Texaco,SLAUGHTER,307147,0307147 00307147,23896 HWY 19,LA,70777
Texaco,LITHIA SPRINGS,307158,0307158 00307158,3229 BANKHEAD HWY.,GA,30122
Texaco,MEMPHIS,307196,0307196 00307196,629 N HIGHLAND AVE,TN,38112
Texaco,WHY,307205,0307205 00307205,230 S SONOYTA WAY,AZ,85321
Texaco,WICKETT,307206,0307206 00307206,IH-20 @ HWY 1219,TX,79788
Texaco,LAKE WORTH,307207,0307207 00307207,401 LAKE AVENUE,FL,33460
Texaco,MARIPOSA,307223,0307223 00307223,5177 HWY. 140,CA,95338
Texaco,LA GRANGE,307226,0307226 00307226,1511 LAFAYETTE PKWY,GA,30241
Texaco,LYNNWOOD,307232,0307232 00307232,19406 HWY 99,WA,98036
Texaco,PORTLAND,307236,0307236 00307236,420 S.E. 122ND AVE,OR,97233
Texaco,PORTLAND,307239,0307239 00307239,4027 S.E. 39TH,OR,97202
Texaco,PORTLAND,307241,0307241 00307241,12479 SE 82ND AVENUE,OR,97266
Texaco,MILWAUKIE,307242,0307242 00307242,11010 S.E. MCLOUGHLIN,OR,97222
Texaco,INDEPENDENCE,307245,0307245 00307245,1082 MONMOUTH STREET,OR,97351
Texaco,TOOELE,307246,0307246 00307246,2901 N. SHEEP LANE,UT,84074
Texaco,DALLAS,307257,0307257 00307257,4826 COLE AVENUE,TX,75234
Texaco,DALLAS,307259,0307259 00307259,3103 INWOOD,TX,75235
Texaco,DALLAS,307260,0307260 00307260,11804 INWOOD RD.,TX,75234
Texaco,BINGEN,307269,0307269 00307269,102 E. STEUBEN,WA,98605
Texaco,CARTERSVILLE,307274,0307274 00307274,1061 SUGAR VALLEY RD,GA,30120
Texaco,ALPHARETTA,307277,0307277 00307277,5320 ATLANTA HIGHWAY,GA,30004
Texaco,WOODBURN,307279,0307279 00307279,490 S PACIFIC HWY.,OR,97071
Texaco,SILVERTON,307283,0307283 00307283,737 MCCLAINE ST.,OR,97381
Texaco,MCMINNVILLE,307286,0307286 00307286,2741 N HWY. 99W,OR,97128
Texaco,STAYTON,307287,0307287 00307287,1375 N FIRST ST.,OR,97383
Texaco,OREGON CITY,307288,0307288 00307288,19791 HIGHWAY 213,OR,97045
Texaco,KIRKLAND,307292,0307292 00307292,12633 NE 85TH STREET,WA,98033-8046
Texaco,SEATAC,307294,0307294 00307294,16402 MILITARY ROAD,WA,98188
Texaco,SARGENT,307305,0307305 00307305,8232 HWY 457,TX,77414
Texaco,ORLANDO,307359,0307359 00307359,4003 WEST OAKRIDGE ROAD,FL,32809
Texaco,STONE MOUNTAIN,307362,0307362 00307362,6201 MEMORIAL DRIVE,GA,30083
Texaco,DAHLONEGA,307375,0307375 00307375,550 S.CHESTATEE ST.,GA,30533
Texaco,MONTGOMERY,307418,0307418 00307418,12820 WALDEN ROAD,TX,77356
Texaco,KINGMAN,307422,0307422 00307422,2500 HUALAPAI MT RD,AZ,86401
Texaco,EHRENBERG,307424,0307424 00307424,49998 P PARKER HWY,AZ,85334
Texaco,PAYSON,307425,0307425 00307425,1116 NORTH BEELINE HWY,AZ,85541
Texaco,BENSON,307426,0307426 00307426,1090 SO HWY 80,AZ,85602
Texaco,BULLHEAD CITY,307427,0307427 00307427,5480 HWY 95 SOUTH,AZ,86427
Texaco,DEWEY,307428,0307428 00307428,210 SO. SWY 69,AZ,86327
Texaco,MAYER,307430,0307430 00307430,17257 SPRING LANE,AZ,86333
Texaco,NOGALES,307432,0307432 00307432,2595 N GRAND AVE,AZ,85621
Texaco,PRESCOTT VALLEY,307433,0307433 00307433,8470 E HWY 69,AZ,86314
Texaco,PERIDOT,307434,0307434 00307434,"HWY 70 , 566",AZ,85542
Texaco,TUSCALOOSA,307438,0307438 00307438,1200 MCFARLAND BLVD. N/E,AL,35406
Texaco,RAYMOND,307441,0307441 00307441,9140 HWY 18 W,MS,39154
Texaco,NORCROSS,307442,0307442 00307442,6360 JIMMY CARTER BLVD.,GA,30071
Texaco,MEMPHIS,307449,0307449 00307449,1708 WINCHESTER RD,TN,38116
Texaco,STOCKBRIDGE,307455,0307455 00307455,1247 EAGLES LANDING PKWY,GA,30281
Texaco,SHORELINE,307478,0307478 00307478,17563 15TH AVE N.E.,WA,98155
Texaco,SAN ANTONIO,307480,0307480 00307480,2111 HUNT LANE,TX,78227
Texaco,ELGIN,307481,0307481 00307481,233 HWY 290 EAST,TX,78621
Texaco,DRIPPING SPRINGS,307482,0307482 00307482,18901 HAMILTON POOL RD.,TX,78620
Texaco,CROSS CITY,307493,0307493 00307493,15958 SE US HWY 19,FL,32628
Texaco,GARLAND,307518,0307518 00307518,1538 EAST I-30,TX,75043
Texaco,CARRIERE,307519,0307519 00307519,498 W UNION RD.,MS,39426
Texaco,JACKSONVILLE,307521,0307521 00307521,11307 N. MAIN ST,FL,32218
Texaco,TUSCALOOSA,307537,0307537 00307537,2015 SKYLAND BLVD.,AL,35405
Texaco,WINNSBORO,307544,0307544 00307544,HWY 154 CORNER 2869,TX,75494
Texaco,PELL CITY,307548,0307548 00307548,1859 MARTIN ST.SOUTH,AL,35125
Texaco,TALLADEGA,307549,0307549 00307549,67455 HWY 77,AL,35160
Texaco,SAN MARCOS,307550,0307550 00307550,1903 IH 35 NORTH,TX,78666
Texaco,VERBENA,307552,0307552 00307552,6211 COUNTY RD. 59,AL,36091
Texaco,SYLACAUGA,307553,0307553 00307553,804 W. FT. WILLIAMS ST.,AL,35150
Texaco,CLANTON,307554,0307554 00307554,2690 LAY DAM RD.,AL,35045
Texaco,KELLYTON,307557,0307557 00307557,1652 HIGHWAY 280,AL,35089
Texaco,BILLINGSLEY,307558,0307558 00307558,3356 HWY. 82,AL,36006
Texaco,JEMISON,307560,0307560 00307560,65 HWY. 191,AL,35085
Texaco,NACOGDOCHES,307564,0307564 00307564,2430 S.E. STALLINGS DR.,TX,75961
Texaco,SAN AUGUSTINE,307569,0307569 00307569,802 WEST COLUMBIA DRIVE,TX,75972
Texaco,LUFKIN,307570,0307570 00307570,620 NORTH RAGUET STREET,TX,75904
Texaco,LUFKIN,307571,0307571 00307571,1203 SOUTH CHESTNUT,TX,75901
Texaco,HOUSTON,307579,0307579 00307579,12823 I-10 EAST,TX,77029
Texaco,AUSTIN,307580,0307580 00307580,12800A PEARCE LANE,TX,78714
Texaco,MANOR,307582,0307582 00307582,17600 BLAKE MANOR RD.,TX,78653
Texaco,SHELTON,307583,0307583 00307583,2235 OLYMPIC HWY N.,WA,98584
Texaco,SALMON,307585,0307585 00307585,609 HWY 93 NORTH,ID,83467
Texaco,CORSICANA,307647,0307647 00307647,1500 W. SECOND AVE,TX,75110
Texaco,DOUGLASVILLE,307663,0307663 00307663,5870 E BANKHEAD HWY,GA,30134
Texaco,PLAQUEMINE,307683,0307683 00307683,58720 BELLVIEW ROAD,LA,70764
Texaco,LA GRANGE,307695,0307695 00307695,2146 HWY 77 SOUTH,TX,78945
Texaco,SORRENTO,307705,0307705 00307705,7337 JOHN LEBLANCE HWY,LA,70778
Texaco,MORGAN (MORGAN CITY),307723,0307723 00307723,95 NORTH STATE RD.,UT,84050
Texaco,HOUSTON,307755,0307755 00307755,522 E. LITTLE YORK,TX,77076
Texaco,HAMMOND,307761,0307761 00307761,43370 SOUTH AIRPORT ROAD,LA,70403
Texaco,CHALMETTE,307765,0307765 00307765,501 WEST JUDGE PEREZ,LA,70043
Texaco,ROBERT,307774,0307774 00307774,44192 HWY 445,LA,70455
Texaco,BATON ROUGE,307775,0307775 00307775,5732 SILVERLEAF,LA,70812
Texaco,BATON ROUGE,307776,0307776 00307776,2515 GOVERNMENT ST.,LA,70804
Texaco,BRUSLY (BRUSLY LANDI,307777,0307777 00307777,1920 AMERICAN WAY,LA,70719
Texaco,GLADSTONE,307800,0307800 00307800,19805 MCLOUGHLIN BLVD,OR,97027
Texaco,TAYLOR,307801,0307801 00307801,1510 NORTH MAIN,TX,76574
Texaco,WACO,307802,0307802 00307802,736 N. VALLEY MILLS,TX,76710
Texaco,HAMPTON,307805,0307805 00307805,10270 US HWY 301 S,FL,32044
Texaco,SAN MARCOS,307810,0307810 00307810,2100 RANCH ROAD 12,TX,78666
Texaco,MARTINDALE,307811,0307811 00307811,16985 SAN MARCOS HWY,TX,78655
Texaco,SAN MARCOS,307813,0307813 00307813,15610 HWY 123,TX,78666
Texaco,BAKERSFIELD,307821,0307821 00307821,801 EAST CALIFORNIA ST.,CA,93307
Texaco,BOGALUSA,307846,0307846 00307846,63298 HWY 10,LA,70427
Texaco,PICAYUNE,307849,0307849 00307849,6349 HWY 11 N,MS,39466
Texaco,DALLAS,307850,0307850 00307850,8008 S. POLK STREET,TX,75232
Texaco,OREGON CITY,308000,0308000 00308000,1511 MOLALLA AVE,OR,97045
Texaco,MILWAUKIE,308002,0308002 00308002,3046 SE HARRISON STREET,OR,97222
Texaco,TYLER,308004,0308004 00308004,1938 TROUP HWY,TX,75701
Texaco,TYLER,308006,0308006 00308006,1810 ESE LOOP 323,TX,75701
Texaco,TYLER,308007,0308007 00308007,401 S. BECKHAM ST.,TX,75702
Texaco,BEN WHEELER,308008,0308008 00308008,13858 STATE HIGHWAY64,TX,75754
Texaco,QUITMAN,308009,0308009 00308009,150 N. WINNSBORO ST.,TX,75783
Texaco,WILLS POINT,308010,0308010 00308010,598 N. 4TH ST.,TX,75169
Texaco,TYLER,308011,0308011 00308011,105 NNW LOOP 323,TX,75702
Texaco,PRESCOTT,308012,0308012 00308012,4155 W OUTER LOOP RD,AZ,86305
Texaco,WALKER,308017,0308017 00308017,27952 WALKER SOUTH,LA,70785
Texaco,DALLAS,308027,0308027 00308027,6808 LAKE JUNE ROAD,TX,75217
Texaco,DENTON,308030,0308030 00308030,718 HERCULES LANE,TX,76209
Texaco,DIXON,308033,0308033 00308033,2615 PLAZA COURT WEST A,CA,95620
Texaco,FORT WORTH,308042,0308042 00308042,5317 MAINSFIELD HWY,TX,76119
Texaco,YAKIMA,308043,0308043 00308043,2805 W. WASHINGTON,WA,98903
Texaco,SALT LAKE CITY,308056,0308056 00308056,315 EAST 3900 SOUTH,UT,84115
Texaco,GROVELAND,308061,0308061 00308061,31191 HARDIN FLAT,CA,95321
Texaco,REEDLEY,308065,0308065 00308065,1720 E. DINUBA AVE.,CA,93654
Texaco,LA MARQUE,308066,0308066 00308066,4603 GULF FREEWAY,TX,77568
Texaco,BATON ROUGE,308074,0308074 00308074,2020 ONEAL LANE,LA,70816
Texaco,KILLEEN,308089,0308089 00308089,809 E. RANCIER,TX,76541
Texaco,BELLMEAD,308092,0308092 00308092,100 N. LOOP 340,TX,76705
Texaco,HARKER HEIGHTS,308094,0308094 00308094,1000 INDIAN TRAILS,TX,76548
Texaco,FORT WORTH,308115,0308115 00308115,5324 TRAIL LAKE DRIVE,TX,76133
Texaco,AUSTIN,308117,0308117 00308117,1900 E. ANDERSON LANE,TX,78754
Texaco,FORT WORTH,308118,0308118 00308118,1200 HENDERSON,TX,76104
Texaco,VANDERWAGEN,308133,0308133 00308133,602 FENCE LAKE,NM,87326
Texaco,HOUSTON,308136,0308136 00308136,4400 LOCKWOOD DR,TX,77026
Texaco,VANCOUVER,308154,0308154 00308154,13412 NE 4TH PLAIN RD,WA,98682
Texaco,BATON ROUGE,308155,0308155 00308155,6404 HOOPER ROAD,LA,70811
Texaco,DENHAM SPRINGS,308156,0308156 00308156,1000 FLORIDA BLVD E,LA,70726
Texaco,BATON ROUGE,308158,0308158 00308158,2382 LOBDELL BOULEVARD,LA,70805
Texaco,RIVERDALE,308160,0308160 00308160,7295 HWY 85,GA,30274
Texaco,CEDAR CREEK,308166,0308166 00308166,1522 W HWY 21,TX,78612
Texaco,ARLINGTON,308167,0308167 00308167,1800 BAIRD FARM ROAD,TX,76006
Texaco,DALLAS,308168,0308168 00308168,10550 WALNUT,TX,75243
Texaco,MESQUITE,308171,0308171 00308171,3020 BIG TOWN BLVD,TX,75150
Texaco,CARROLLTON,308172,0308172 00308172,"3108 OLD DENTON RD, 108",TX,75007
Texaco,FLOWOOD,308185,0308185 00308185,110 LAKELAND HEIGHTSBLVD,MS,39232
Texaco,NEW ORLEANS,308186,0308186 00308186,2101 PARIS ROAD,LA,70129
Texaco,AUSTIN,308192,0308192 00308192,8600 HWY 290 WEST,TX,78736
Texaco,AIRWAY HEIGHTS,308206,0308206 00308206,14212 W. STATE RTE. 2,WA,99001
Texaco,VISALIA,308208,0308208 00308208,105 N. CHINOWITH,CA,93291
Texaco,LAFAYETTE,308225,0308225 00308225,1500 N. UNIVERSITY AVE,LA,70506
Texaco,LUFKIN,308232,0308232 00308232,103 N. JOHN REDDITT DR.,TX,75904
Texaco,WEATHERFORD,308237,0308237 00308237,6231 FM RD 920,TX,76088
Texaco,MANSFIELD,308238,0308238 00308238,1239 EVANS LOOP RD,LA,71052
Texaco,MARSHALL,308239,0308239 00308239,100 EAST END BLVD,TX,75671
Texaco,SPRINGTOWN,308242,0308242 00308242,9098 W HWY 199,TX,76082
Texaco,MOUNT PLEASANT,308245,0308245 00308245,HWY 271 @ FM-1734,TX,75455
Texaco,CANTON,308249,0308249 00308249,1534 W PEACE ST,MS,39046
Texaco,BATON ROUGE,308270,0308270 00308270,13315 OLD HAMMOND,LA,70816
Texaco,BATON ROUGE,308271,0308271 00308271,6224 PLANK RD,LA,70811
Texaco,AUSTIN,308274,0308274 00308274,2400 EXPOSITION,TX,78703
Texaco,ONALASKA,308275,0308275 00308275,1735 STATE HWY 508,WA,98570
Texaco,VERNAL,308295,0308295 00308295,850 W. HWY 40,UT,84078
Texaco,RICHFIELD,308296,0308296 00308296,305 S. MAIN ST.,UT,84701
Texaco,GRENADA,308308,0308308 00308308,9320 OLD HWY 99 SOUTH,CA,96038
Texaco,OREM,308324,0308324 00308324,835 WEST 1200 SOUTH,UT,84058
Texaco,CEDAR HILL,308328,0308328 00308328,271 S. HIGHWAY 67,TX,75104
Texaco,CRESSON,308329,0308329 00308329,9001 HIGHWAY 377 SOUTH,TX,76035
Texaco,DELANO,308331,0308331 00308331,1200 HIGH STREET,CA,93215
Texaco,ARLINGTON,308334,0308334 00308334,1300 SOUTH COOPER STREET,TX,76013
Texaco,MIAMI BEACH,308348,0308348 00308348,1840 ALTON ROAD,FL,33139
Texaco,ROBERTSDALE,308349,0308349 00308349,21485 HWY 59,AL,36567
Texaco,NEW IBERIA,308350,0308350 00308350,4814 HWY 90E,LA,70560
Texaco,WELLPINIT,308351,0308351 00308351,5451 WELLPINIT RD.,WA,99040
Texaco,MERIDIAN,308380,0308380 00308380,1400 24TH AVE,MS,39301
Texaco,LAUDERDALE,308381,0308381 00308381,9733 OLD HWY 45N,MS,39335
Texaco,MERIDIAN,308382,0308382 00308382,1303 ROEBUCK DR.,MS,39301
Texaco,PHILADELPHIA,308383,0308383 00308383,1534 HWY 16W,MS,39350
Texaco,NEWTON,308384,0308384 00308384,291 EASTSIDE DRIVE,MS,39345
Texaco,DE KALB,308385,0308385 00308385,HWY 16 & HWY 39 N,MS,39328
Texaco,COLLINSVILLE,308386,0308386 00308386,8960 HWY 19N,MS,39325
Texaco,MERIDIAN,308389,0308389 00308389,514 HWY 19E,MS,39302
Texaco,PELAHATCHIE,308390,0308390 00308390,344 HWY 43S,MS,39145
Texaco,MERIDIAN,308391,0308391 00308391,144 NORTH HILLS ST.,MS,39305
Texaco,BRANDON,308392,0308392 00308392,306 GOVERNMENT ST.,MS,39042
Texaco,MAGEE,308393,0308393 00308393,1563 HWY 49S,MS,39111
Texaco,PEARL,308394,0308394 00308394,350 GILCHRIST DR.,MS,39208
Texaco,MENDENHALL,308395,0308395 00308395,202 HWY 49,MS,39114
Texaco,FLOWOOD,308396,0308396 00308396,4445 MANGUM DR.,MS,39232
Texaco,JACKSON,308397,0308397 00308397,1635 COUNTY LINE RD.,MS,39206
Texaco,RICHLAND,308398,0308398 00308398,1281 HWY 49S,MS,39218
Texaco,FLOWOOD,308399,0308399 00308399,1693 OLD FANNIN RD,MS,39232
Texaco,PEARL,308401,0308401 00308401,246 S PEARSON RD.,MS,39208
Texaco,STONEWALL,308405,0308405 00308405,975 S ERWIN,MS,39363
Texaco,THOMASVILLE,308406,0308406 00308406,908 HWY 43S,AL,36784
Texaco,MARION,308407,0308407 00308407,5200 DALE DR.,MS,39342
Texaco,BUTLER,308409,0308409 00308409,210 PUSHMATA,AL,36904
Texaco,PERDIDO,308410,0308410 00308410,52668 HWY 31 N,AL,36562
Texaco,FOLEY,308411,0308411 00308411,22023 US HWY 98,AL,36535
Texaco,DAPHNE,308412,0308412 00308412,HWY 181 & HWY 90,AL,36526
Texaco,CHEWELAH,308416,0308416 00308416,2544 SMITH RD,WA,99109
Texaco,COLLEGE PARK,308438,0308438 00308438,5990 OLD NATIONAL HWY,GA,30349
Texaco,BUFORD,308439,0308439 00308439,1643 BUFORD HWY,GA,30518
Texaco,COPPERAS COVE,308440,0308440 00308440,2101 FM 116 S.,TX,76522
Texaco,HUEYTOWN,308442,0308442 00308442,3162 ALLISON-BONNETT MEMORIAL DR.,AL,35023
Texaco,CEDAR HILL,308451,0308451 00308451,1030 N. HIGHWAY 67,TX,75104
Texaco,JONESBORO,308457,0308457 00308457,6331 TARA BOULEVARD,GA,30236
Texaco,COLLEGE PARK,308472,0308472 00308472,5209 W FAYETTVILLE RD.,GA,30349
Texaco,VALLEY VIEW,308473,0308473 00308473,1005 S FRONTAGE RD,TX,76272
Texaco,LOGANVILLE,308474,0308474 00308474,2324 CLAUDE BREWER RD,GA,30052
Texaco,COLUMBUS,308497,0308497 00308497,65 INDUSTRIAL PARK RD.,MS,39701
Texaco,LILBURN,308499,0308499 00308499,4090 FIVE FORKS TRICKUM,GA,30047
Texaco,ORLANDO,308502,0308502 00308502,4115 TOWN CENTER BLVD,FL,32837
Texaco,WOODSTOCK,308513,0308513 00308513,9068 HIWY 92,GA,30189
Texaco,ACWORTH,308514,0308514 00308514,5634 BELLS FERRY RD,GA,30102
Texaco,CANTON,308515,0308515 00308515,180 BUTTERWORTH RD,GA,30114
Texaco,CANTON,308516,0308516 00308516,101 RIVERSTONE PKWY,GA,30114
Texaco,ALEXANDRIA,308519,0308519 00308519,4700 S. JACKSON ST EXT.,LA,71303
Texaco,PINEVILLE,308522,0308522 00308522,5831 MONROE HWY 165,LA,71360
Texaco,CONVERSE,308524,0308524 00308524,14425 I-10/TRAINER HALE,TX,78109
Texaco,CANTON,308530,0308530 00308530,3780 SIXES RD,GA,30114
Texaco,HOUSTON,308578,0308578 00308578,16955 S. POST OAK,TX,77057
Texaco,HOUSTON,308586,0308586 00308586,7500 ALMEDA RD,TX,77054
Texaco,LA GRANGE,308594,0308594 00308594,1616 WHITEVILLE RD,GA,30240
Texaco,GRAPEVINE,308598,0308598 00308598,101 BALL STREET,TX,76051
Texaco,GORDON,308609,0308609 00308609,108 WEST I-20,TX,76453
Texaco,DECATUR,308612,0308612 00308612,4943 SNAPFINGER WOODS DR,GA,30035
Texaco,HOMEWOOD,308627,0308627 00308627,2614 18TH PLACE SOUTH,AL,35209
Texaco,STONE MOUNTAIN,308632,0308632 00308632,4092 REDAN ROAD,GA,30083
Texaco,WATKINSVILLE,308633,0308633 00308633,3351 MACON HWY,GA,30677
Texaco,LOGANVILLE,308634,0308634 00308634,780 CONYERS RD.,GA,30052
Texaco,WEST MONROE,308653,0308653 00308653,4188 HWY 34,LA,71292
Texaco,GARDNER,308658,0308658 00308658,320 ST CLAIR ROAD,LA,71409
Texaco,ETHEL,308659,0308659 00308659,6430 HWY 19,LA,70730
Texaco,PRAIRIEVILLE,308660,0308660 00308660,41016 HWY 933,LA,70769
Texaco,SLIDELL,308683,0308683 00308683,1703 WEST GAUSE,LA,70458
Texaco,NATCHITOCHES,308687,0308687 00308687,985 HWY 504,LA,71457
Texaco,PROVENCAL,308698,0308698 00308698,4556 N BOULEVARD,LA,71468
Texaco,MONROE,308716,0308716 00308716,4566 WINNSBORO RD,LA,71202
Texaco,HOUSTON,308722,0308722 00308722,11302 SPACE CENTER BLVD,TX,77059
Texaco,TRINIDAD,308725,0308725 00308725,312 SH 31,TX,75163
Texaco,MINERAL WELLS,308729,0308729 00308729,2501 N OAK STREET,TX,76067
Texaco,MINERAL WELLS,308730,0308730 00308730,902 NORTH OAK,TX,76067
Texaco,MINERAL WELLS,308731,0308731 00308731,1901 HWY 180 W,TX,76067
Texaco,MINERAL WELLS,308732,0308732 00308732,101 SE 25TH STREET,TX,76067
Texaco,SAN ANTONIO,308736,0308736 00308736,3822 COLONY DRIVE,TX,78230
Texaco,PEARL RIVER,308739,0308739 00308739,60479 HWY 11,LA,70452
Texaco,BAY SAINT LOUIS,308740,0308740 00308740,1098 HWY 90,MS,39520
Texaco,LAFAYETTE,308743,0308743 00308743,2727 WEST PINHOOK,LA,70508
Texaco,WETUMPKA,308745,0308745 00308745,75930 TALLASSEE HWY,AL,36092
Texaco,HOUSTON,308747,0308747 00308747,12968 WESTHEIMER ROAD,TX,77077
Texaco,HOUSTON,308749,0308749 00308749,5248 ALLUM RD.,TX,77045
Texaco,DAWSONVILLE,308769,0308769 00308769,25 BEARTOOTH PARKWAY,GA,30534
Texaco,MONTEVALLO,308774,0308774 00308774,4737 HWY. 119,AL,35115
Texaco,CANTON,308812,0308812 00308812,1089 W DALLAS ST. HWY 64,TX,75103
Texaco,SAN ANTONIO,308820,0308820 00308820,7979 FREDERICKSBURG,TX,78229
Texaco,SHARPSBURG (SHARPSBO,308826,0308826 00308826,897 HWY 154,GA,30277
Texaco,VERO BEACH,308833,0308833 00308833,8201 20TH STREET,FL,32966
Texaco,TAMPA,308878,0308878 00308878,7710 CAUSEWAY BLVD,FL,33619
Texaco,MOBILE,308929,0308929 00308929,3305 ST. STEPHENS ROAD,AL,36612
Texaco,MOBILE,308930,0308930 00308930,4126 MOFFETT ROAD,AL,36618
Texaco,MOBILE,308931,0308931 00308931,1507 SPRING HILL AVENUE,AL,36604
Texaco,MOBILE,308932,0308932 00308932,3000 OLD SHELL ROAD,AL,36607
Texaco,MOBILE,308933,0308933 00308933,3365 MOFFETT ROAD,AL,36607
Texaco,PRICHARD,308934,0308934 00308934,1651 ST. STEPHENS RD.,AL,36610
Texaco,SNELLVILLE,308935,0308935 00308935,3095 LENORA CHURCH RD.,GA,30078
Texaco,YULEE,308937,0308937 00308937,463152 SR 200,FL,32097
Texaco,MADISON,308940,0308940 00308940,1743 HWY 51,MS,39110
Texaco,SANSOM PARK VILLAGE,308946,0308946 00308946,5724 JACKSBORO HWY,TX,76114
Texaco,ENNIS,308947,0308947 00308947,2201 WEST ENNIS,TX,75119
Texaco,LITTLE RIVER,308948,0308948 00308948,102 S. HWY 95,TX,76554
Texaco,CHEHALIS,308949,0308949 00308949,118 US HWY 12,WA,98532
Texaco,CEDAR PARK,308959,0308959 00308959,2509 S. BELL BLVD.,TX,78613
Texaco,FORT WORTH,308993,0308993 00308993,5133 WICHITA ST.,TX,76119
Texaco,IRVING,308995,0308995 00308995,"2810 N. BELTLINE RD,",TX,75062
Texaco,GALVESTON,308999,0308999 00308999,4502 SEAWALL,TX,77551
Texaco,KEMAH,309019,0309019 00309019,901 HWY 146,TX,77565
Texaco,HOUSTON,309039,0309039 00309039,6565 HOMESTEAD ROAD,TX,77028
Texaco,WINNEMUCCA,309045,0309045 00309045,685 W. WINNEMUCCA BLVD.,NV,89445
Texaco,YERINGTON,309046,0309046 00309046,202 N. MAIN ST.,NV,89447
Texaco,YERINGTON,309047,0309047 00309047,1 HWY 95A,NV,89447
Texaco,FALLON,309051,0309051 00309051,1960 W. WILLIAMS AVE,NV,89406
Texaco,SPARKS,309056,0309056 00309056,1365 BARING BLVD.,NV,89434
Texaco,CARSON CITY,309057,0309057 00309057,1615 E. 5TH ST.,NV,89701
Texaco,CARROLLTON,309073,0309073 00309073,3070 N. JOSEY LN.,TX,75007
Texaco,COPPELL,309088,0309088 00309088,890 S. DENTON TAP RD,TX,75019
Texaco,ALLEN,309094,0309094 00309094,802 W. MCDERMOTT DRIVE,TX,75002
Texaco,MESQUITE,309098,0309098 00309098,1711 SCYENE RD.,TX,75149
Texaco,RICHARDSON,309100,0309100 00309100,701 W. SPRING VALLEY RD,TX,75080
Texaco,PORTLAND,309108,0309108 00309108,1545 NE 181ST AVENUE,OR,97230
Texaco,HOUSTON,309111,0309111 00309111,611 EAST RICHEY RD,TX,77073
Texaco,MUSCLE SHOALS,309124,0309124 00309124,600 SIXTH ST.,AL,35661
Texaco,TUSCUMBIA,309125,0309125 00309125,2691 HWY. 20,AL,35674
Texaco,FLORENCE,309126,0309126 00309126,600 N. ROYAL AVE.,AL,35630
Texaco,LAWRENCEBURG,309127,0309127 00309127,1602 N. LOCUST AVE.,TN,38464
Texaco,LAWRENCEBURG,309128,0309128 00309128,200 PROSSER RD.,TN,38464
Texaco,LAWRENCEBURG,309130,0309130 00309130,300 W. GAINES ST.,TN,38464
Texaco,WAYNESBORO,309131,0309131 00309131,205 D. WOODS BLVD.,TN,38485
Texaco,HOUSTON,309149,0309149 00309149,5702 BRITTMORE,TX,77041
Texaco,ATLANTA,309160,0309160 00309160,3744 CAMPBELLTON RD SW,GA,30331
Texaco,ROOSEVELT,309169,0309169 00309169,133 N 200 EAST,UT,84066
Texaco,TAYLORSVILLE,309170,0309170 00309170,2724 WEST 5400 SOUTH,UT,84123
Texaco,COLLEGE PARK,309183,0309183 00309183,4165 ROOSEVELT HWY,GA,30349
Texaco,BATON ROUGE,309191,0309191 00309191,12390 SCOTLAND AVENUE,LA,70807
Texaco,BATON ROUGE,309192,0309192 00309192,3015 MILLERVILLE RD.,LA,70816
Texaco,LOST HILLS,309201,0309201 00309201,17191 HIGHWAY 46,CA,93249
Texaco,PRIMM,309202,0309202 00309202,31960 LAS VEGAS BLVD S,NV,89019
Texaco,LAMPASAS,309208,0309208 00309208,404 N. KEY AVE,TX,76550
Texaco,BROUSSARD,309213,0309213 00309213,2903 HWY 90 EAST,LA,70518
Texaco,PLATTENVILLE,309214,0309214 00309214,105 HWY 70 SPUR,LA,70393
Texaco,LAFAYETTE,309215,0309215 00309215,120 E PONT DES MOUTON,LA,70507
Texaco,HOUMA,309220,0309220 00309220,831 HWY 182,LA,70364
Texaco,KANAB,309268,0309268 00309268,1055 S HIGHWAY 89A,UT,84741
Texaco,VISALIA,309287,0309287 00309287,15641 AVE 384,CA,93292
Texaco,LAKE HAVASU CITY,309298,0309298 00309298,2890 JAMAICA BLVD. SOUTH,AZ,86406
Texaco,CARROLLTON,309307,0309307 00309307,2301 MAPLE ST,GA,30117
Texaco,MIDFIELD,309310,0309310 00309310,5500 WOODWARD RD.,AL,35228
Texaco,ADAMSVILLE,309311,0309311 00309311,5401 VETERANS MEM.,AL,35005
Texaco,PEARLAND,309321,0309321 00309321,7206 BROADWAY STREET,TX,77581
Texaco,BAYTOWN,309347,0309347 00309347,SEC N. MAIN & BAKER,TX,77521
Texaco,GAINESVILLE,309361,0309361 00309361,1411 BROWNS BRIDGE RD,GA,30501
Texaco,VINTON,309383,0309383 00309383,1601 HWY. 90 EAST,LA,70668
Texaco,DUNWOODY,309384,0309384 00309384,4369 NORTH PEACHTREE RD,GA,30338
Texaco,STATHAM,309385,0309385 00309385,504 HAYES LAKE RD,GA,30666
Texaco,ELWOOD,309389,0309389 00309389,5175 W. 9600 N.,UT,84337
Texaco,PASADENA,309398,0309398 00309398,2626 SPENCER HWY,TX,77504
Texaco,HURRICANE,309399,0309399 00309399,82 N. CORAL CANYON BLVD.,UT,84737
Texaco,WHITE HILLS,309411,0309411 00309411,"MILE MKR 29.5, N. HWY 93",AZ,86445
Texaco,PRAIRIEVILLE,309431,0309431 00309431,17227 AIRLINE HWY.,LA,70769
Texaco,HOUSTON,309432,0309432 00309432,11912 OLD GLAVESTON ROAD,TX,77034
Texaco,MORTON,309434,0309434 00309434,2582 HWY 13 S,MS,39117
Texaco,AUSTIN,309438,0309438 00309438,5517 CAMERON RD,TX,78723
Texaco,COTTONDALE,309477,0309477 00309477,9917 HWY. 11,AL,35453
Texaco,MUNFORD,309479,0309479 00309479,39270 HWY. 21,AL,36268
Texaco,ATLANTA,309486,0309486 00309486,689 BOULEVARD NE,GA,30308
Texaco,Slidell,350505,0350505 00350505,601 ROBERT Boulevard,LA,70458
Texaco,BELLE CHASSE,351866,0351866 00351866,9654 BELLE CHASSE HWY,LA,70037
Texaco,MANDEVILLE,351872,0351872 00351872,2000 FLORIDA STREET,LA,70448
Texaco,CONROE,351873,0351873 00351873,8546 HWY 242,TX,77385
Texaco,AUSTIN,351876,0351876 00351876,1112 W. KOENIG LANE,TX,78756
Texaco,PARK CITY,351880,0351880 00351880,2010 PARK AVENUE,UT,84060
Texaco,ORLANDO,351885,0351885 00351885,1350 W. HOLDEN AVE.,FL,32839
Texaco,MIAMI,351894,0351894 00351894,12300 BISCAYNE BLVD N.,FL,33181
Texaco,ABITA SPRINGS,351906,0351906 00351906,71011 HWY 59,LA,70420
Texaco,VARNADO,351907,0351907 00351907,25590 HWY 21,LA,70467
Texaco,LACOMBE,351908,0351908 00351908,28165 HWY 190,LA,70445
Texaco,PONCHATOULA,351909,0351909 00351909,19009 HWY 22,LA,70454
Texaco,BUSH,351910,0351910 00351910,81550 HWY 21,LA,70431
Texaco,HAMMOND,351911,0351911 00351911,PUMPKIN CENTER RD,LA,70403
Texaco,BOGALUSA,351912,0351912 00351912,846 AVE F,LA,70427
Texaco,BOGALUSA,351913,0351913 00351913,14483 HWY 21,LA,70427
Texaco,TUSCUMBIA,351915,0351915 00351915,1021 HWY. 72 E.,AL,35674
Texaco,BESSEMER,351919,0351919 00351919,5036 FORD PKWY.,AL,35022
Texaco,DALLAS,351923,0351923 00351923,12950 COIT ROAD,TX,75251
Texaco,NEWNAN,351940,0351940 00351940,30 RAYMOND HILL RD,GA,30263
Texaco,WELLS,351955,0351955 00351955,502 RUSK AVE.,TX,75976
Texaco,HOUSTON,351961,0351961 00351961,3803 SOUTH GESSNER,TX,77063
Texaco,SANTO,351967,0351967 00351967,13850 S. FM4,TX,76472
Texaco,OAKLAND,351972,0351972 00351972,6300 HWY 64,TN,38060
Texaco,BILOXI,351976,0351976 00351976,12202 HWY 67,MS,39532
Texaco,HUNTSVILLE,351984,0351984 00351984,3030 N. MEMORIAL PKWY,AL,35801
Texaco,DOUBLE SPRINGS,351986,0351986 00351986,234 MAIN ST,AL,35553
Texaco,OZARK,351987,0351987 00351987,168 R. PARKER RD. E.,AL,36360
Texaco,HARTFORD,351988,0351988 00351988,1005 S. ST. HWY 52,AL,36344
Texaco,ALAMOGORDO,351989,0351989 00351989,3500 N. WHITE SANDS BLVD,NM,88310
Texaco,JASPER,352021,0352021 00352021,1275 HWY 78 W,AL,35501
Texaco,CLAYTON,352023,0352023 00352023,42 W. BYPASS,AL,36016
Texaco,EUFAULA,352024,0352024 00352024,1056 N. EUFAULA AVE.,AL,36027
Texaco,PELL CITY,352055,0352055 00352055,410 MARTIN ST.,AL,35125
Texaco,OLD TOWN,352067,0352067 00352067,13835 NE HWY 349,FL,32680
Texaco,GAINESVILLE,352074,0352074 00352074,5011 MT VERNON ROAD,GA,30506
Texaco,SAN ANTONIO,352078,0352078 00352078,8767 STATE HWY 151,TX,78245
Texaco,MANOR,352089,0352089 00352089,12836 HWY 290,TX,78653
Texaco,LAFAYETTE,352091,0352091 00352091,1332 EVANGELINE THRUWAY,LA,70507
Texaco,KENNESAW,352095,0352095 00352095,2675 STILESBORO RD,GA,30152
Texaco,CUMMING,352101,0352101 00352101,725 LANIER PARKWAY,GA,30040
Texaco,ATLANTA,352107,0352107 00352107,1977 MLK JR. DR.,GA,30310
Texaco,MEMPHIS,352108,0352108 00352108,3599 HICKORY HILL,TN,38115
Texaco,MEMPHIS,352109,0352109 00352109,4286 MACON RD.,TN,38122
Texaco,MEMPHIS,352110,0352110 00352110,5470 WINCHESTER,TN,38115
Texaco,MEMPHIS,352112,0352112 00352112,946 S PARKWAY,TN,38106
Texaco,ALAMOGORDO,352113,0352113 00352113,901 HWY 70 WEST,NM,88310
Texaco,NEW ORLEANS,352126,0352126 00352126,3684 RIDGEWAY BLVD,LA,70129
Texaco,SUBLIMITY,352149,0352149 00352149,104 NW STAR,OR,97385
Texaco,JACKSON,352160,0352160 00352160,3720 S. SIWELL RD.,MS,39212
Texaco,HATTIESBURG,352192,0352192 00352192,2624 LINCOLN ROAD,MS,39402
Texaco,MONTGOMERY,352193,0352193 00352193,755 AIR BASE BLVD.,AL,36108
Texaco,PINEVILLE,352216,0352216 00352216,2828 HWY 107 SOUTH,LA,71360
Texaco,BLANCO,352222,0352222 00352222,1016 NORTH MAIN,TX,78606
Texaco,ROUND ROCK,352224,0352224 00352224,712 ROUND ROCK IH-35,TX,78664
Texaco,MARIETTA,352241,0352241 00352241,2270 AUSTELL RD,GA,30008
Texaco,NORCROSS,352243,0352243 00352243,3425 MEDLOCK BRIDGE RD.,GA,30092
Texaco,TERRELL,352278,0352278 00352278,320 W. MOORE,TX,75160
Texaco,LAS VEGAS,352285,0352285 00352285,3415 W TROPICANA AVE,NV,89103
Texaco,LAS VEGAS,352286,0352286 00352286,3710 S NELLIS BLVD,NV,89121
Texaco,LAS VEGAS,352287,0352287 00352287,3375 E FLAMINGO RD,NV,89121
Texaco,LAS VEGAS,352288,0352288 00352288,11 N NELLIS BLVD,NV,89110
Texaco,LAS VEGAS,352289,0352289 00352289,7500 W CHEYENNE AVE,NV,89129
Texaco,HENDERSON,352291,0352291 00352291,10530 S EASTERN AVE,NV,89052
Texaco,NORTH LAS VEGAS,352294,0352294 00352294,1412 W CRAIG RD,NV,89032
Texaco,LAS VEGAS,352299,0352299 00352299,4910 S MARYLAND PARKWAY,NV,89119
Texaco,NEW FAIRVIEW,352307,0352307 00352307,101 ILLINOIS,TX,76078
Texaco,WINNEMUCCA,352316,0352316 00352316,6450 GRASS VALLEY RD,NV,89445
Texaco,WENDOVER,352317,0352317 00352317,1711 BUTTE STREET,NV,89883
Texaco,HOUSTON,352328,0352328 00352328,NEC FM-1960 & LEE RD,TX,77002
Texaco,SACRAMENTO,352331,0352331 00352331,9680 BUSINESS PARK DR,CA,95827
Texaco,KILLEEN,352340,0352340 00352340,2901 W. ELM RD.,TX,76542
Texaco,TYLER,352349,0352349 00352349,2700 E. FIFTH STREET,TX,75702
Texaco,ORMOND BEACH,352426,0352426 00352426,1629 W. GRANADA BLVD.,FL,32174
Texaco,GOLDTHWAITE,352440,0352440 00352440,1170 HWY 84 W,TX,76844
Texaco,RIVERDALE,352443,0352443 00352443,336 SR-138,GA,30274
Texaco,HOUSTON,352453,0352453 00352453,12805 CULLEN,TX,77047
Texaco,AUSTIN,352457,0352457 00352457,717 E. 7TH,TX,78701
Texaco,CARTERSVILLE,352467,0352467 00352467,71 OLD GRASSDALE RD,GA,30121
Texaco,ATLANTA,352507,0352507 00352507,2124 JOHNSON FERRY RD,GA,30319
Texaco,CALDWELL,352576,0352576 00352576,7755 HWY 21 W,TX,77836
Texaco,LILBURN,352581,0352581 00352581,4785 LAWRENCEVILLE HWY,GA,30047
Texaco,EASTPOINT,352582,0352582 00352582,499 HWY 98,FL,32328
Texaco,JACK,352587,0352587 00352587,HWY 167 SOUTH,AL,36346
Texaco,PASADENA,352641,0352641 00352641,1901 ALLEN GENOA #150,TX,77502
Texaco,ROUND ROCK,352642,0352642 00352642,2255 COUNTY ROAD 172,TX,78681
Texaco,HOUSTON,352648,0352648 00352648,1080 WILCREST,TX,77042
Texaco,DATELAND,352705,0352705 00352705,1737 SOUTH AVE 64 EAST,AZ,85333
Texaco,GREEN POND,352794,0352794 00352794,20640 EASTERN VALLEY,AL,35074
Texaco,LIVINGSTON,352795,0352795 00352795,19636 US HWY 11,AL,35470
Texaco,WOODSTOCK,352797,0352797 00352797,28845 HWY 5,AL,35188
Texaco,GREENSBORO,352799,0352799 00352799,1201 STATE STREET,AL,36744
Texaco,DALLAS,352820,0352820 00352820,2232 S. CORINTH STREET,TX,75203
Texaco,SAN ANTONIO,352821,0352821 00352821,6647 CALLIGHAN RD,TX,78229
Texaco,DALLAS,352857,0352857 00352857,3333 S. HASKELL AVENUE,TX,75223
Texaco,GRAND PRAIRIE,352903,0352903 00352903,1612 E.MAIN STREET,TX,75050
Texaco,LAUDERHILL,352957,0352957 00352957,1900 N STATE ROAD 7,FL,33313
Texaco,CLERMONT,352967,0352967 00352967,6822 CLEVELAND HWY,GA,30527
Texaco,SAN ANTONIO,352973,0352973 00352973,2408 PALO ALTO RD,TX,78211
Texaco,TRION,353037,0353037 00353037,14678 HWY 151,GA,30753
Texaco,GAINESVILLE,353099,0353099 00353099,1807 W. CALIFORNIA ST.,TX,76240
Texaco,HUTTO,353101,0353101 00353101,550 S. FM 1660,TX,78634
Texaco,DALLAS,353166,0353166 00353166,2745 W. NW FREEWAY,TX,75220
Texaco,HOUSTON,353180,0353180 00353180,6309 BARKER CYPRESS RD,TX,77084
Texaco,TALLAHASSEE,353187,0353187 00353187,1837 CAPITAL CICLE,FL,32301
Texaco,GUNTOWN,353188,0353188 00353188,557 MITCHELL AVE.,MS,38849
Texaco,ALLEN,353504,0353504 00353504,123 N. GREENVILLE AVE.,TX,75002
Texaco,TUSCALOOSA,353518,0353518 00353518,3700 CULVER RD.,AL,35401
Texaco,EUTAW,353519,0353519 00353519,106 FIRST AVE.,AL,35462
Texaco,HORNBECK,353520,0353520 00353520,1153 HAMMOND STREET,LA,71439
Texaco,DALLAS,353542,0353542 00353542,2919 E. ILLINOIS AV.,TX,75216
Texaco,HOUSTON,353559,0353559 00353559,18323 CLAY RD,TX,77084
Texaco,ANACOCO,353611,0353611 00353611,4556 MAIN STREET,LA,71403
Texaco,LAS VEGAS,353843,0353843 00353843,6390 N. DURANGO DRIVE,NV,89112
Texaco,CHAMBLEE,353849,0353849 00353849,4930 PEACHTREE RD.,GA,30341
Texaco,GARLAND,353978,0353978 00353978,730 W WALNUT ST.,TX,75040
Texaco,BATON ROUGE,353988,0353988 00353988,3636 N. SHERWOOD FOREST DR.,LA,70815
Texaco,JACKSONVILLE,353989,0353989 00353989,"3126 EDGEWOOD AVENUE, N",FL,32254
Texaco,JACKSON,354029,0354029 00354029,5310 N. STATE STREET,MS,39213
Texaco,JACKSON,354030,0354030 00354030,4414 MEDGAR EVERS BLVD,MS,39213
Texaco,WILLS POINT,354048,0354048 00354048,28129 I-20,TX,75169
Texaco,BOISE,354340,0354340 00354340,107 BROADWAY AVE,ID,83702
Texaco,PRATTVILLE,354392,0354392 00354392,1670 HIGHWAY 31 NORTH,AL,36067
Texaco,NORTH RICHLAND HILLS,354412,0354412 00354412,5800 DAVIS BLVD,TX,76180
Texaco,ELBA,354458,0354458 00354458,412 CLAXTON AVENUE,AL,36323
Texaco,MILLEDGEVILLE,354472,0354472 00354472,1687 NORTH COLUMBIA ST.,GA,31061
Texaco,DUBLIN,354473,0354473 00354473,601 EAST JACKSON STREET,GA,31021
Texaco,DOTHAN,354474,0354474 00354474,1676 EAST COTTONWOOD,AL,36301
Texaco,DOTHAN,354475,0354475 00354475,2931 WEST MAIN STREET,AL,36301
Texaco,DOTHAN,354489,0354489 00354489,3260 HARTFORD HIGHWAY,AL,36305
Texaco,MANSFIELD,354513,0354513 00354513,1207 SH 157,TX,76063
Texaco,SALEM,354556,0354556 00354556,2315 COMMERCIAL ST SE,OR,97302
Texaco,CUMMING,354581,0354581 00354581,1295 CANTON HWY,GA,30040
Texaco,HUNTSVILLE,354591,0354591 00354591,851 RYLAND PIKE,AL,35811
Texaco,GREENVILLE,354608,0354608 00354608,1048 N TALIBURTON HWY,GA,30222
Texaco,AUSTIN,354626,0354626 00354626,5301 LAMAR,TX,78751
Texaco,ALBUQUERQUE,354639,0354639 00354639,845 JUAN TABO NE,NM,87123
Texaco,AUSTIN,354663,0354663 00354663,8101 SALT SPRINGS DRIVE,TX,78744
Texaco,ODESSA,354664,0354664 00354664,3722 ANDREWS HWY,TX,79762
Texaco,RENTON,354668,0354668 00354668,5321 N. 4TH,WA,98059
Texaco,HUMBLE,354825,0354825 00354825,14925 OLD HUMBLE RD,TX,77396
Texaco,TUSCALOOSA,354934,0354934 00354934,3108 GREENSBORO AVE.,AL,35401
Texaco,LAFAYETTE,355097,0355097 00355097,2700 N. UNIVERSITY AVE.,LA,70507
Texaco,WIGGINS,355186,0355186 00355186,321 W CENTRAL AVE.,MS,39577
Texaco,MESQUITE,355200,0355200 00355200,1430 GALLOWAY,TX,75149
Texaco,CADDO MILLS,355214,0355214 00355214,2819 FM 1903,TX,75135
Texaco,BLOUNTSTOWN,355288,0355288 00355288,20406 CENTRAL AVE. WEST,FL,32424
Texaco,BLOUNTSTOWN,355289,0355289 00355289,17590 NE PEAR STREET,FL,32424
Texaco,FORT WORTH,355290,0355290 00355290,1525 E. BERRY ST.,TX,76119
Texaco,AUSTIN,355429,0355429 00355429,11331 N. LAMAR,TX,78753
Texaco,PURVIS,355454,0355454 00355454,5791 HWY 11,MS,39475
Texaco,PAYSON,355455,0355455 00355455,788 S 1270 W,UT,84651
Texaco,EL PASO,355523,0355523 00355523,9060 DYER RD,TX,79904
Texaco,IRVING,355564,0355564 00355564,102 IRBY LANE,TX,75061
Texaco,IRVING,355565,0355565 00355565,3635 N. BELTLINE RD.,TX,75062
Texaco,LEANDER,355588,0355588 00355588,12120 OLD 2243 WEST,TX,78641
Texaco,SAN ANTONIO,355589,0355589 00355589,3315 FREDERICKSBURG RD,TX,78201
Texaco,ST. AMANT,355591,0355591 00355591,44063 HWY 431,LA,70774
Texaco,BOGART,355611,0355611 00355611,4020 ATLANTA HWY,GA,30622
Texaco,KENNESAW,355623,0355623 00355623,1630 OLD HWY 41,GA,30152
Texaco,NORTH SALT LAKE,355748,0355748 00355748,1095 NORTH HWY 89,UT,84054
Texaco,SALT LAKE CITY,355749,0355749 00355749,1360 SOUTH 2100 EAST,UT,84108
Texaco,LIVINGSTON,355828,0355828 00355828,651 HWY. 28 W.,AL,35470
Texaco,HOUSTON,355843,0355843 00355843,740 W LITTLE YORK SUITE A,TX,77091
Texaco,HOUSTON,355844,0355844 00355844,5454 AIRPORT,TX,77048
Texaco,GONZALES,355898,0355898 00355898,15013 HIGHWAY 44,LA,70737
Texaco,BENICIA,355921,0355921 00355921,6001 GOODYEAR ROAD,CA,94510
Texaco,MENIFEE,355923,0355923 00355923,26015 NEWPORT RD,CA,92584
Texaco,ANAHEIM,355925,0355925 00355925,1101 NORTH MAGNOLIA,CA,92801
Texaco,ATLANTA,355937,0355937 00355937,2784 DONALD LEE HOLLOWELL PKWY,GA,30318
Texaco,BATON ROUGE,355965,0355965 00355965,10982 GREENWELL SPRINGS,LA,70814
Texaco,BYRON,356124,0356124 00356124,245 HWY 49N,GA,31008
Texaco,FORT WORTH,356201,0356201 00356201,4901 DENTON HWY,TX,76117
Texaco,KINGMAN,356204,0356204 00356204,932 W. BEALE ST.,AZ,86401
Texaco,TUSAYAN,356205,0356205 00356205,439 HWY 64,AZ,86023
Texaco,PRESCOTT,356206,0356206 00356206,2889 WILLOW CREEK RD.,AZ,86301
Texaco,FLAGSTAFF,356207,0356207 00356207,4501 N. HWY 89,AZ,86004
Texaco,PINE,356213,0356213 00356213,4102 N. HWY 87,AZ,85544
Texaco,MCCALLA,356227,0356227 00356227,5530 E. VALLEY RD.,AL,35111
Texaco,SAN ANTONIO,356312,0356312 00356312,5010 RITTIMAN ROAD,TX,78218
Texaco,HAMMOND,356323,0356323 00356323,14154 UNIVERSITY DRIVE,LA,70401
Texaco,HUNTSVILLE,356337,0356337 00356337,4701 MERIDIAN STREET N.,AL,35801
Texaco,PLANO,356365,0356365 00356365,5960 DALLAS PARKWAY,TX,75093
Texaco,ALVARADO,356426,0356426 00356426,1101 GLENWOOD,TX,76009
Texaco,PORTER,356436,0356436 00356436,22510 US HIGHWAY 59,TX,77365
Texaco,DECATUR,356445,0356445 00356445,2832 NORTH DECATUR RD.,GA,30033
Texaco,OXFORD,356471,0356471 00356471,2018 UNIVERSITY AVE. E.,MS,38655
Texaco,WALLISVILLE,356478,0356478 00356478,22902 INTERSTATE HWY 10,TX,77597
Texaco,RUSTON,356550,0356550 00356550,2113 FARMERVILLE HWY,LA,71270
Texaco,RUSTON,356551,0356551 00356551,101 SOUTH SERVICE ROAD,LA,71270
Texaco,RICEBORO,356564,0356564 00356564,10840 COASTAL HWY.,GA,31323
Texaco,HOUSTON,356571,0356571 00356571,10186 VETERANS MEMORIAL,TX,77038
Texaco,AUSTIN,356647,0356647 00356647,729 SLAUGHTER LANE,TX,78744
Texaco,PFLUGERVILLE,356648,0356648 00356648,14300 DESSAU ROAD,TX,78660
Texaco,WEST JORDAN,356659,0356659 00356659,4783 W 6200 S,UT,84084
Texaco,FULTON,356776,0356776 00356776,1 COUNTRY CLUB ROAD,MS,38843
Texaco,HAMILTON,356777,0356777 00356777,144 RIVER ROAD,AL,35570
Texaco,RIENZI,356780,0356780 00356780,270 HWY 45 W.,MS,38865
Texaco,MURRAYVILLE,356825,0356825 00356825,5338 THOMPSON BRIDGE RD.,GA,30564
Texaco,DECATUR,356826,0356826 00356826,3774 FLAT SHOALS PARKWAY,GA,30034
Texaco,FAYETTE,356878,0356878 00356878,302 SECOND AVE. S/E,AL,35555
Texaco,KENNESAW,356893,0356893 00356893,3129 COBB PARKWAY NW,GA,30152
Texaco,CONYERS,356894,0356894 00356894,2291 SIGMAN ROAD SW,GA,30012
Texaco,AZLE,356898,0356898 00356898,100 E MAIN,TX,76020
Texaco,AUBURN,356915,0356915 00356915,1700 AUBURN OPELIKA ROAD,AL,36830
Texaco,PARIS,356917,0356917 00356917,1656 S. CHURCH STREET,TX,75460
Texaco,KILLEEN,356952,0356952 00356952,305 E STAN SCHLUETER,TX,76542
Texaco,CONYERS,357031,0357031 00357031,1801 HWY 138 NE,GA,30013
Texaco,LAS VEGAS,357039,0357039 00357039,500 S DECATUR BLVD,NV,89107
Texaco,GARLAND,357161,0357161 00357161,1901 N. GARLAND,TX,75042
Texaco,HUNTSVILLE,357221,0357221 00357221,3726 BLUE SPRINGS ROAD,AL,35810
Texaco,SHELTON,357222,0357222 00357222,3841 STATE ROUTE 3,WA,98584
Texaco,CRYSTAL SPRINGS,357285,0357285 00357285,25066 HWY 51,MS,39059
Texaco,FORT WORTH,357290,0357290 00357290,701 N HENDERSON,TX,76107
Texaco,FOREST PARK,357306,0357306 00357306,5991 OLD DIXIE ROAD,GA,30297
Texaco,STONE MOUNTAIN,357307,0357307 00357307,5248 MEMORIAL DRIVE,GA,30083
Texaco,LAKE POINT,357327,0357327 00357327,8764 NORTH HIGHWAY 36,UT,84074
Texaco,MOBILE,357347,0357347 00357347,1363 GOVERNMENT ST,AL,36604
Texaco,CONYERS,357348,0357348 00357348,1827 HWY 212 SW,GA,30094
Texaco,NETTLETON,357349,0357349 00357349,104 COUNTRY ROAD 100,MS,38858
Texaco,KINGMAN,357388,0357388 00357388,3461 E ANDY DEVINE AVE,AZ,86409
Texaco,HOUSTON,357396,0357396 00357396,1880 BLALOCK,TX,77080
Texaco,DALLAS,357410,0357410 00357410,8505 LAKE JUNE ROAD,TX,75217
Texaco,ATLANTA,357458,0357458 00357458,3263 HUGH HOLLOWELL PKWY,GA,30331
Texaco,ORTING,357497,0357497 00357497,221 WASHINGTON AVENUE,WA,98360
Texaco,SULPHUR,357558,0357558 00357558,4796 HIGHWAY 27 SOUTH,LA,70665
Texaco,DECATUR,357600,0357600 00357600,3902 COVINGTON HIGHWAY,GA,30032
Texaco,HOUSTON,357635,0357635 00357635,9531 FALLBROOK DRIVE,TX,77064
Texaco,SNELLVILLE,357667,0357667 00357667,2348 EAST MAIN STREET,GA,30078
Texaco,BIRMINGHAM,357753,0357753 00357753,3101 CAHABA HEIGHTS ROAD,AL,35243
Texaco,HATTIESBURG,357757,0357757 00357757,6417 US HWY 49,MS,39401
Texaco,PETAL,357758,0357758 00357758,853 HWY 11,MS,39465
Texaco,HATTIESBURG,357759,0357759 00357759,4401 W HARDY,MS,39402
Texaco,HATTIESBURG,357760,0357760 00357760,4878 HWY 49,MS,39402
Texaco,HATTIESBURG,357761,0357761 00357761,5000 W HARDY,MS,39402
Texaco,HATTIESBURG,357762,0357762 00357762,4041 HWY 11 S,MS,39402
Texaco,HATTIESBURG,357763,0357763 00357763,6734 HWY 49,MS,39402
Texaco,HATTIESBURG,357764,0357764 00357764,6470 HWY 98,MS,39402
Texaco,WIGGINS,357765,0357765 00357765,1912 AZALAE DR.,MS,39577
Texaco,WHITE,357776,0357776 00357776,"2472 HIGHWAY 411, E",GA,30184
Texaco,MIDLAND,357777,0357777 00357777,4400 W ILLINOIS,TX,79703
Texaco,ODESSA,357778,0357778 00357778,1100 N. GRANDVIEW,TX,79761
Texaco,MONAHANS,357779,0357779 00357779,2113 S. STOCKTON,TX,79756
Texaco,KERMIT,357780,0357780 00357780,240 JIM SHARP BLVD,TX,79745
Texaco,LONGVIEW,357799,0357799 00357799,3357 WASHINGTON WAY,WA,98632
Texaco,ROSENBERG,357854,0357854 00357854,1925 4TH STREET,TX,77471
Texaco,ATLANTA,357866,0357866 00357866,364 HILL STREET,GA,30316
Texaco,AUSTIN,357875,0357875 00357875,4619 S. CONGRESS,TX,78745
Texaco,AVONDALE,357876,0357876 00357876,3110 HIGHWAY 90,LA,70094
Texaco,SAN ANTONIO,357878,0357878 00357878,14626 NACOGDOCHES,TX,78247
Texaco,LYONS,357907,0357907 00357907,13720 HWY 36 SOUTH,TX,77863
Texaco,DE QUINCY,357908,0357908 00357908,603 E 4TH,LA,70633
Texaco,BRENHAM,357914,0357914 00357914,3100 HIGHWAY 36S,TX,77833
Texaco,LEAGUE CITY,357916,0357916 00357916,3100 TUSCAN LAKES,TX,77573
Texaco,NAVASOTA,357917,0357917 00357917,10200 HWY 6 S. LOOP,TX,77868
Texaco,HOUSTON,357919,0357919 00357919,12850 TELGE,TX,77002
Texaco,HOUSTON,357921,0357921 00357921,11501 TANNNER ROAD,TX,77041
Texaco,HUNTSVILLE,357922,0357922 00357922,563 I-45 SOUTH,TX,77340
Texaco,HOUSTON,357923,0357923 00357923,10025 TELEPHONE ROAD,TX,77075
Texaco,CEDAR CREEK,357954,0357954 00357954,877 W HWY 21,TX,78612
Texaco,JACKSONVILLE,358040,0358040 00358040,7148 PHLLIP HWY.,FL,32256
Texaco,ATLANTIC BEACH,358041,0358041 00358041,1600 MAYPORT ROAD,FL,32233
Texaco,HOUSTON,358069,0358069 00358069,5201 LOCKWOOD,TX,77026
Texaco,GAINESVILLE,358077,0358077 00358077,4110 CLEVELAND HWY,GA,30506
Texaco,HOUSTON,358116,0358116 00358116,2144 LITTLE YORK,TX,77093
Texaco,PHOENIX,358135,0358135 00358135,710 E INDIAN SCHOOL ROAD,AZ,85014
Texaco,DECATUR,358187,0358187 00358187,4544 GLENWOOD RD.,GA,30032
Texaco,CANTON,358255,0358255 00358255,2240 HOLLY SPRINGS PKWY.,GA,30114
Texaco,PORT ANGELES,358396,0358396 00358396,210 EAST 1ST STREET,WA,98362
Texaco,DINUBA,358397,0358397 00358397,1200 ALTA AVE,CA,93618
Texaco,NORTHRIDGE,358440,0358440 00358440,10101 BALBOA BOULEVARD,CA,91325
Texaco,SAVANNAH,358442,0358442 00358442,5920 HIGHWAY 17,GA,31419
Texaco,TOLEDO,358443,0358443 00358443,123 FOSTER CREEK RD.,WA,98591
Texaco,ATLANTA,358455,0358455 00358455,29 MORELAND AVENUE,GA,30316
Texaco,DULUTH,358458,0358458 00358458,2920 OLD NORCROSS ROAD,GA,30096
Texaco,CALDWELL,358480,0358480 00358480,259 STATE HIGHWAY 36 N,TX,77836-7556
Texaco,CALEDONIA,358506,0358506 00358506,9766 WOLFE ROAD,MS,39740
Texaco,NORTHPORT,358507,0358507 00358507,5210 HWY 69,AL,35476
Texaco,KENNESAW,358520,0358520 00358520,3870 MOONSTATION RD. NW,GA,30144
Texaco,OXFORD,358559,0358559 00358559,1053 E. HAMRIC DR.,AL,36203
Texaco,EXETER,358576,0358576 00358576,21695 AVE 296,CA,93221
Texaco,MARIETTA,358577,0358577 00358577,2651 POWDER SPRINGS ROAD,GA,30064
Texaco,WOODSTOCK,358587,0358587 00358587,6425 BELLS FERRY RD.,GA,30189
Texaco,GOLDEN VALLEY,358628,0358628 00358628,5405 HWY 68,AZ,86413
Texaco,ANAHEIM,358632,0358632 00358632,700 N BROOKHURST STREET,CA,92801
Texaco,PASADENA,358673,0358673 00358673,3926 COUNTRY RD.,TX,77505
Texaco,SPANISH FORK (SPANIS,358708,0358708 00358708,866 SOUTH MAIN STREET,UT,84660
Texaco,DANVILLE,358716,0358716 00358716,3500 CAMINO TASSAJARA,CA,94506
Texaco,FOREST PARK,358759,0358759 00358759,5111 OLD DIXIE HWY,GA,30297
Texaco,PORT ORCHARD,358799,0358799 00358799,4163 SE MILE HILL DR,WA,98366
Texaco,DECATUR,358800,0358800 00358800,3521 FLAT SHOALS ROAD,GA,30034
Texaco,CASTLE ROCK,358814,0358814 00358814,4858 WEST SIDE HIGHWAY,WA,98611
Texaco,EUTAW,358845,0358845 00358845,1030 COUNTY RD. 208,AL,35462
Texaco,BROOKSVILLE,358846,0358846 00358846,13997 HWY 388,MS,39739
Texaco,KYLE,358930,0358930 00358930,1030 GOFORTH,TX,78640
Texaco,MOBILE,358981,0358981 00358981,810 DAUPHIN ISLAND PKWY.,AL,36606
Texaco,LAWRENCEVILLE,358982,0358982 00358982,2585 CRUSE ROAD,GA,30046
Texaco,ST. ROSE,358985,0358985 00358985,10405 AIRLINE DR.,LA,70087
Texaco,BEDFORD,359028,0359028 00359028,2901 N CENTRAL DR,TX,76021
Texaco,MOSES LAKE,359052,0359052 00359052,2481 S. MAIERS RD.,WA,98837
Texaco,PENNINGTON,359079,0359079 00359079,5655 MAIN ST.,AL,36916
Texaco,SHARPSBURG (SHARPSBO,359132,0359132 00359132,3124 HWY 16 EAST,GA,30277
Texaco,DEMOPOLIS,359185,0359185 00359185,1407 HWY 80 WEST,AL,36732
Texaco,TOMBALL,359244,0359244 00359244,18712 HUFFSMITH KOH,TX,77375
Texaco,GEORGETOWN,359256,0359256 00359256,1911 SOUTH AUSTIN AVE.,TX,78626
Texaco,BULLARD,359322,0359322 00359322,47400 US HWY 69 N.,TX,75757
Texaco,CEDAR CITY,359352,0359352 00359352,1075 WEST 200 NORTH,UT,84720
Texaco,ELK GROVE,359353,0359353 00359353,8338 POWER INN RD,CA,95624
Texaco,SAN ANTONIO,359385,0359385 00359385,6447 CAMP BULLIS RD,TX,78257
Texaco,FREEPORT,359423,0359423 00359423,16094 US HWY. 331 S,FL,32439
Texaco,DESTIN,359424,0359424 00359424,201 US 98 E,FL,32541
Texaco,BREAUX BRIDGE,359433,0359433 00359433,2996 GRAND POINT HWY.,LA,70517
Texaco,PANAMA CITY BEACH,359434,0359434 00359434,16930 PANAMA CITY BEACH,FL,32413
Texaco,NEWNAN,359435,0359435 00359435,505 HWY. 34 WEST,GA,30263
Texaco,NEW IBERIA,359460,0359460 00359460,304 S. LEWIS ST.,LA,70560
Texaco,LAFAYETTE,359590,0359590 00359590,1000 HWY 89,LA,70508
Texaco,HOUSTON,359683,0359683 00359683,LITTLE YORK & GREENHOUSE,TX,77002
Texaco,PFLUGERVILLE,359728,0359728 00359728,18900 NORTH HEATHERWILDE,TX,78660
Texaco,CEDAR PARK,359729,0359729 00359729,2004 NORTH LAKELINE BLVD,TX,78613
Texaco,GAINESVILLE,359784,0359784 00359784,1680 PARKHILL DRIVE,GA,30501
Texaco,BIRMINGHAM,359796,0359796 00359796,3100 12TH AVENUE NORTH,AL,35234
Texaco,RINCON,359808,0359808 00359808,1113 NORTH COLUMBIA DR.,GA,31326
Texaco,ATLANTA,359826,0359826 00359826,2510 GRESHAM ROAD,GA,30316
Texaco,Houston,370016,0370016 00370016,W. MONTGOMERY & GARDEN CITY DR.,TX,77088
Texaco,JACKSONVILLE,370056,0370056 00370056,801 EDGEWOOD AVENUE W,FL,32208
Texaco,AUSTIN,370094,0370094 00370094,7310 E. RIVERSIDE,TX,78745
Texaco,MODESTO,370144,0370144 00370144,937 PARADISE RD,CA,95351
Texaco,HUNGERFORD,370218,0370218 00370218,10400 HWY 59 NORTH,TX,77448
Texaco,LATHROP,370253,0370253 00370253,15600 S HARLAN RD,CA,95330
Texaco,EVERETT,370256,0370256 00370256,1515 112TH ST SE,WA,98208
Texaco,HATTIESBURG,370358,0370358 00370358,2611 WEST 7TH ST,MS,39401
Texaco,WOODSTOCK,370361,0370361 00370361,21352 U.S. HWY 11,AL,35188
Texaco,LINDEN,370366,0370366 00370366,2493 US HWY 43,AL,36748
Texaco,AUSTIN,370415,0370415 00370415,4925 CRAIGWOOD DR.,TX,78725
Texaco,ATLANTA,370418,0370418 00370418,608 14TH STREET,GA,30318
Texaco,PETALUMA,370425,0370425 00370425,421 PETALUMA BLVD,CA,94952
Texaco,CANTON,370464,0370464 00370464,1490 RIVERSTONE PARKWAY,GA,30114
Texaco,NEWNAN,370536,0370536 00370536,2344 HWY. 29 NORTH,GA,30265
Texaco,JACKSON,370651,0370651 00370651,123 W NORTHSIDE DR.,MS,39206
Texaco,DORA,370652,0370652 00370652,7656 HWY 78,AL,35062
Texaco,NEWNAN,370773,0370773 00370773,114 TEMPLE AVENUE,GA,30263
Texaco,BALCH SPRINGS,370779,0370779 00370779,4202 PIONEER,TX,75180
Texaco,DALLAS,370780,0370780 00370780,1707 ROBERT B. CULLEN RD,TX,75210
Texaco,PFLUGERVILLE,370858,0370858 00370858,18818 WEISS LANE,TX,78660
Texaco,AUSTIN,370872,0370872 00370872,8801 WESGATE,TX,78745
Texaco,KYLE,370879,0370879 00370879,MATHIS AND WINDY HILL,TX,78640
Texaco,SEALY,370967,0370967 00370967,2100 HWY. 36,TX,77474
Texaco,BUFFALO,370969,0370969 00370969,2431 COMMERCE ST.,TX,75831
Texaco,HOUSTON,370972,0370972 00370972,11602 HOUSTON ROSSLYN,TX,77086
Texaco,BIRMINGHAM,371022,0371022 00371022,5706 CHALKVILLE ROAD,AL,35235
Texaco,PERRY,371046,0371046 00371046,203 GENERAL COURTNEY HODGES BLVD.,GA,31069
Texaco,LAWRENCEVILLE,371087,0371087 00371087,2346 LAWRENCEVILLE HWY.,GA,30044
Texaco,LILBURN,371107,0371107 00371107,5374 FIVE FORKS TRICKUM RD.,GA,30047
Texaco,LAWRENCEVILLE,371179,0371179 00371179,139 EAST CROGAN ST.,GA,30045
Texaco,MEMPHIS,371445,0371445 00371445,1974 WHITTEN RD.,TN,38133
Texaco,LAS VEGAS,371508,0371508 00371508,9380 W. TROPICANA AVE.,NV,89147
Texaco,EUREKA,371523,0371523 00371523,1007 BROADWAY,CA,95501
Texaco,CRESCENT CITY,371524,0371524 00371524,1006 HWY 101,CA,95531
Texaco,LAKEWAY,371577,0371577 00371577,2200 LAKEWAY BLVD,TX,78734
Texaco,FOREST PARK,371674,0371674 00371674,4962 JONESBORO RD.,GA,30297
Texaco,CHAMBLEE,371700,0371700 00371700,3484 CHAMBLEE-TUCKER RD,GA,30341
Texaco,GATESVILLE,371722,0371722 00371722,2603 E. MAIN STREET,TX,76528
Texaco,New Iberia,371849,0371849 00371849,3617 Coteau Road,LA,70560
Texaco,MAPLE VALLEY,371862,0371862 00371862,22240 SE 272ND STREET,WA,98038
Texaco,EVERETT,371925,0371925 00371925,607 SE EVERETT MALL WAY,WA,98208
Texaco,TOLEDO,371954,0371954 00371954,550 N. 5TH ST.,WA,98591
Texaco,Odessa,371976,0371976 00371976,Faudree Road and Dorado Drive,TX,79761
Texaco,Humble,371985,0371985 00371985,6569 Atascocita Rd,TX,77346
Texaco,AUSTIN,372300,0372300 00372300,623 W. DITTMAR RD.,TX,78745
Texaco,WEST POINT,372412,0372412 00372412,110 HWY 45,MS,39773
Texaco,TUPELO,372419,0372419 00372419,110 HWY 6 W,MS,38801
Texaco,DECATUR,372477,0372477 00372477,1829 SOMERVILLE ROAD SE,AL,35601
Texaco,BENBROOK,372480,0372480 00372480,14134 HIGHWAY 377S,TX,76126
Texaco,NACOGDOCHES,372494,0372494 00372494,540 STALLINGS DRIVE,TX,75961
Texaco,CLACKAMAS,372506,0372506 00372506,10560 S.E. HWY 212,OR,97015
Texaco,CONYERS,372688,0372688 00372688,3490 HWY 20 S.E.,GA,30013
Texaco,TUSCALOOSA,372761,0372761 00372761,1431 19TH AVE.,AL,35405
Texaco,ATLANTA,372858,0372858 00372858,"225 CLIFTON STREET, SE",GA,30317
Texaco,DALLAS,372864,0372864 00372864,10750 FERGUSON RD.,TX,75218
Texaco,CONCORD,372884,0372884 00372884,4595 CLAYTON ROAD,CA,94521
Texaco,THEODORE,372905,0372905 00372905,10178 OLD PASCAGOULA RD.,AL,36582
Texaco,HEPHZIBAH,372911,0372911 00372911,4150 WINDSOR SPRING ROAD,GA,30815
Texaco,TUPELO,372935,0372935 00372935,601 N GLOSTER ST,MS,38801
Texaco,AUSTELL,372953,0372953 00372953,1401 HURT ROAD,GA,30106
Texaco,WEST POINT,372970,0372970 00372970,1404 HWY 45 N,MS,39773
Texaco,ATLANTA,372977,0372977 00372977,4455 FULTON INDUSTRIAL BLVD.,GA,30336
Texaco,SMYRNA,373116,0373116 00373116,2691 SOUTH COBB DRIVE,GA,30080
