keywords,city,Aggdata Store Number,store_number,address,state,zip_code
Timberland,Reading,117,#117,801 Hill Avenue,PA,19610
Timberland,Lake George,121,#121,1444 State Route 9,NY,12845
Timberland,Lancaster,122,#122,630 Stanley K. Tanger Blvd.,PA,17602
Timberland,Gilroy,126,#126,681 Leavesly Road,CA,95020
Timberland,Riverhead,132,#132,517 Tanger Mall Drive,NY,11901
Timberland,Grove City,136,#136,1911 Leesburg-Grove City Road,PA,16127
Timberland,Rehoboth Beach,139,#139,34986 Midway Outlet Drive,DE,19971
Timberland,Tannersville,142,#142,The Crossings Premium Outlets,PA,18372
Timberland,Myrtle Beach,143,#143,4630 Highway 501,SC,29579
Timberland,Westbrook,144,#144,314 Flat Rock Place,CT,6498
Timberland,Barstow,145,#145,2796 Tanger Way,CA,92311
Timberland,Dawsonville,146,#146,800 Highway 400 South,GA,30534
Timberland,Orlando,147,#147,4963 International Drive,FL,32819
Timberland,Williamsburg,148,#148,5711-80 Richmond Rd.,VA,23188
Timberland,Commerce,153,#153,800 Steven B. Tanger Blvd.,GA,30529
Timberland,Camarillo,156,#156,690 West Ventura Blvd.,CA,93010
Timberland,Waterloo,158,#158,655 Route 318,NY,13165
Timberland,Jackson,160,#160,537 Monmouth Rd,NJ,8527
Timberland,Flemington,161,#161,67 Liberty Village,NJ,8822
Timberland,Wrentham,166,#166,One Premium Outlets Blvd.,MA,2093
Timberland,Hagerstown,168,#168,510 Premium Outlets Blvd,MD,21740
Timberland,Orlando,178,#178,8200 Vineland Avenue,FL,32821
Timberland,Sevierville,179,#179,1645 Parkway,TN,37862
Timberland,San Marcos,180,#180,4015 I-35 South,TX,78666-5983
Timberland,Sunrise,184,#184,12801 West Sunrise Blvd.,FL,33323
Timberland,Woodbridge,185,#185,2700 Potomac Mills Circle,VA,22192
Timberland,Smithfield,186,#186,1025 Industrial Park Drive,NC,27577
Timberland,Atlantic City,187,#187,117 North Michigan Ave.,NJ,8401
Timberland,Las Vegas,188,#188,805 Grand Central Parkway,NV,89106
Timberland,Leesburg,190,#190,241 Fort Evans Road,VA,20176
Timberland,Aurora,191,#191,1650 Premium Outlets Blvd.,IL,60502
Timberland,White Plains,220,#220,125 Westchester Avenue,NY,10601
Timberland,King of Prussia,224,#224,690 West DeKalb Pike,PA,19406
Timberland,New York,249,#249,474 Broadway,NY,10013
Timberland,Boston,251,#251,201 Newbury Street,MA,2116
Timberland,New York,252,#252,Herald Square,NY,10001
Timberland,San Francisco,253,#253,845 Market Street,CA,94103
Timberland,Skokie,254,#254,Westfield Old Orchard,IL,60077
Timberland,Minneapolis,256,#256,3001 Hennepin Ave,MN,55408
Timberland,Chicago,257,#257,625 North Michigan Ave,IL,60611
Timberland,Stratham,280,#280,200 Domain Drive,NH,3885
Timberland,Auburn Hills,304,#304,4564 Baldwin Road,MI,48326
Timberland,Milpitas,305,#305,447 Great Mall Drive,CA,95035
Timberland,Vacaville,308,#308,268 Nut Tree Road,CA,95687
Timberland,Ontario,309,#309,One Mills Circle,CA,91764
Timberland,Gaffney,315,#315,660 Factory Outlets Blvd.,SC,29341
Timberland,Pottstown,316,#316,18 Lightcap Road,PA,19464
Timberland,Las Vegas,317,#317,7400 Las Vegas Blvd. South,NV,89123
Timberland,Deer Park,319,#319,1601 The Arches Circle,NY,11729
Timberland,Tinton Falls,320,#320,1 Premium Blvd,NJ,7753
Timberland,Hanover,322,#322,7000 Arundel Mills Circle,MD,21076
Timberland,Elizabeth,323,#323,651 Kapkowski Road,NJ,7201
Timberland,Orlando,325,#325,15777 State Road 535,FL,32821
Timberland,North Conway,326,#326,2 Common Court Suite E13,NH,3860
Timberland,Merrimack,328,#328,80 Premium Outlets Blvd Space 639,NH,3054
Timberland,Central Valley,329,#329,680 Bluebird Court,NY,10917
Timberland,San Diego,330,#330,4211 Camino de la Plaza,CA,92173
