Keywords,city,Agg store_number,store_number,address,state,zip_code
Time Warner,Banning,1,1-TWCABLE,"300 S. Highland Springs Rd, #10b",CA,92220
Time Warner,Palm Desert,3,3-TWCABLE,"44-425 Town Center Way, #h",CA,92260
Time Warner,Waco,4,4-TWCABLE,215 Factory Dr.,TX,76710
Time Warner,Temple,5,5-TWCABLE,3034 South 31st Street,TX,76502
Time Warner,Temple,6,6-TWCABLE,1314 West Adams,TX,76504
Time Warner,Waco,10,10-TWCABLE,105 Hewitt Drive,TX,76712
Time Warner,Belton,12,12-TWCABLE,525 N. Main,TX,76513
Time Warner,Killeen,16,16-TWCABLE,2200 W Central Texas Expy,TX,76549
Time Warner,Harker Heights,18,18-TWCABLE,305 Millers Crossing,TX,76548
Time Warner,Waco,21,21-TWCABLE,810 La Salle,TX,76706
Time Warner,Waco,23,23-TWCABLE,1025 N Valley Mills Dr,TX,76710
Time Warner,Kent,28,28-TWCABLE,1848 State Rt. 59,OH,44240
Time Warner,Norwalk,34,34-TWCABLE,29 East Main St.,OH,44857
Time Warner,Warren,38,38-TWCABLE,4352 Youngstown Rd. Se,OH,44484
Time Warner,Coachella,43,43-TWCABLE,51-508 Harrison,CA,92236
Time Warner,Palm Desert,44,44-TWCABLE,42-335 Washington,CA,92260
Time Warner,Indio,47,47-TWCABLE,"81-557 Dr. Carreon Blvd., #c-7",CA,92201
Time Warner,Cincinnati,62,62-TWCABLE,4601 Eastgate Blvd. #816,OH,45245
Time Warner,Cincinnati,63,63-TWCABLE,3268 Highland Ave.,OH,45213
Time Warner,Cincinnati,64,64-TWCABLE,3290 Westbourne Dr.,OH,45248
Time Warner,Hillsboro,65,65-TWCABLE,848 S. High Street,OH,45133
Time Warner,Franklin,67,67-TWCABLE,3589 Dixie Highway,OH,45005
Time Warner,Charlotte,173,173-TWCABLE,3140 W Arrowood Rd,NC,28273
Time Warner,Charlotte,174,174-TWCABLE,316 E. Morehead St,NC,28202
Time Warner,Albemarle,179,179-TWCABLE,2403 Us Hwy 52 North,NC,28001
Time Warner,Gastonia,180,180-TWCABLE,2125 Union Rd,NC,28054
Time Warner,Kannapolis,184,184-TWCABLE,1730 S Cannon Blvd,NC,28083
Time Warner,Monroe,185,185-TWCABLE,1490 Walkup Ave,NC,28110
Time Warner,Rockingham,186,186-TWCABLE,349 County Home Rd,NC,28379
Time Warner,Salisbury,187,187-TWCABLE,1216 Lincolnton Rd,NC,28147
Time Warner,Shelby,188,188-TWCABLE,1229 Fallston Rd,NC,28150
Time Warner,Wadesboro,189,189-TWCABLE,805 Camden Rd,NC,28170
Time Warner,Kenosha,200,200-TWCABLE,1403 Washington Road,WI,53140
Time Warner,Racine,206,206-TWCABLE,5812 - 21st Street,WI,53406
Time Warner,Plymouth,207,207-TWCABLE,2209 Eastern Avenue,WI,53073
Time Warner,Milwaukee,208,208-TWCABLE,Time Warner Cable,WI,53201
Time Warner,Cary,245,245-TWCABLE,1307 Nw Maynard Rd,NC,27513
Time Warner,Henderson,246,246-TWCABLE,215 Young Street,NC,27536
Time Warner,Chapel Hill,247,247-TWCABLE,1201b Raleigh Road,NC,27517
Time Warner,Lumberton,248,248-TWCABLE,1506 Godwin Avenue Office,NC,28358
Time Warner,Durham,249,249-TWCABLE,1515 North Pointe Dr.,NC,27705
Time Warner,Raleigh,250,250-TWCABLE,2505 Atlantic Avenue Suite 101,NC,27604
Time Warner,Fayetteville,253,253-TWCABLE,6202 Raeford Road,NC,28304
Time Warner,Southern Pines,254,254-TWCABLE,390 West Pennsylvania Ave,NC,28387
Time Warner,Goldsboro,257,257-TWCABLE,1503 Wayne Memorial Drive,NC,27534
Time Warner,Wilson,258,258-TWCABLE,2843 Raleigh Rd Pkwy,NC,27893
Time Warner,Durham,260,260-TWCABLE,(no Equipment Returns),NC,27713
Time Warner,Fayetteville,261,261-TWCABLE,Cross Creek Mall (food Court),NC,28307
Time Warner,Barstow,262,262-TWCABLE,1881 W. Main St.,CA,92311
Time Warner,Wauwatosa,263,263-TWCABLE,2500 North Mayfair Road,WI,53226
Time Warner,Wells,310,310-TWCABLE,19 Kimballs Lane,ME,4090
Time Warner,Saco,311,311-TWCABLE,22 Industrial Park Road,ME,4072
Time Warner,San Diego,312,312-TWCABLE,8949 Ware Court,CA,92121
Time Warner,Coronado,316,316-TWCABLE,1110 Orange Ave,CA,92118
Time Warner,Appleton,318,318-TWCABLE,133 N. Mall Drive,WI,54913
Time Warner,Oshkosh,319,319-TWCABLE,1825 Witzel Avenue,WI,54902
Time Warner,Green Bay,320,320-TWCABLE,2580 W. Mason Street,WI,54303
Time Warner,Marinette,321,321-TWCABLE,"3900 Hall Avenue, Suite F",WI,54143
Time Warner,Jacksonville,326,326-TWCABLE,265 Center St,NC,28546
Time Warner,Newport,327,327-TWCABLE,500 Time Warner Drive,NC,28570
Time Warner,Wilmington,332,332-TWCABLE,3500 Oleander Dr.,NC,28403
Time Warner,Albany,336,336-TWCABLE,130 Washington Avenue Extension,NY,12203
Time Warner,Amsterdam,337,337-TWCABLE,4848 State Highway 30,NY,12010
Time Warner,Schenectady,341,341-TWCABLE,1021 Highbridge Road,NY,12303
Time Warner,Troy,345,345-TWCABLE,50 Water Plant Road,NY,12182
Time Warner,Fredericksburg,348,348-TWCABLE,711 N. Llano,TX,78624
Time Warner,Round Rock,349,349-TWCABLE,1905 N Mays Street,TX,78664
Time Warner,San Marcos,351,351-TWCABLE,1120 Highway 123,TX,78666
Time Warner,Austin,353,353-TWCABLE,6607 S I H 35,TX,78744
Time Warner,Austin,354,354-TWCABLE,200 Hancock Center,TX,78751
Time Warner,Austin,355,355-TWCABLE,7015 Village Center,TX,78731
Time Warner,Austin,356,356-TWCABLE,6900 Brodie Lane,TX,78745
Time Warner,Austin,357,357-TWCABLE,12407 Mopack Expwy N.,TX,78758
Time Warner,Austin,358,358-TWCABLE,1437 Wells Branch Pkwy,TX,78728
Time Warner,Austin,359,359-TWCABLE,2400 S Congress,TX,78704
Time Warner,Austin,360,360-TWCABLE,5808 Burnet Road,TX,78756
Time Warner,Austin,361,361-TWCABLE,7010 Hwy 71 West,TX,78753
Time Warner,Austin,362,362-TWCABLE,2110 Slaughter Lane,TX,78748
Time Warner,Austin,363,363-TWCABLE,2508 E Riverside Drive,TX,78741
Time Warner,Austin,364,364-TWCABLE,7112 Ed Bluestein Blvd,TX,78723
Time Warner,Cedar Park,365,365-TWCABLE,170 Whitestone Blvd,TX,78613
Time Warner,Austin,366,366-TWCABLE,9414 N Lamar Blvd,TX,78735
Time Warner,Austin,367,367-TWCABLE,13776 N Hwy 183,TX,78750
Time Warner,Austin,368,368-TWCABLE,10511 Jollyville Road,TX,78759
Time Warner,Austin,369,369-TWCABLE,600 W. William Cannon,TX,78745
Time Warner,Austin,370,370-TWCABLE,6001 W Parmer Lane,TX,78727
Time Warner,Bee Caves,371,371-TWCABLE,12400 W Highway 71,TX,78738
Time Warner,Round Rock,373,373-TWCABLE,110 W Taylor Ave ( Hwy 79),TX,78664
Time Warner,Round Rock,374,374-TWCABLE,16900 N Rr 620,TX,78681
Time Warner,Round Rock,375,375-TWCABLE,603 Louis Henna Blvd,TX,78664
Time Warner,Round Rock,376,376-TWCABLE,7301 N Fm 620,TX,78681
Time Warner,Bastrop,377,377-TWCABLE,104 Hasler Blvd.,TX,78602
Time Warner,San Marcos,378,378-TWCABLE,641 E Hopkins,TX,78666
Time Warner,San Marcos,379,379-TWCABLE,200 W Hopkins,TX,78666
Time Warner,Taylor,380,380-TWCABLE,"100 N.w. Carlos G. Parker Blvd, Ste 101",TX,76574
Time Warner,Buda,381,381-TWCABLE,15300 S I H 35,TX,78610
Time Warner,Elgin,382,382-TWCABLE,1080 East Hwy 290,TX,78621
Time Warner,Lockhart,383,383-TWCABLE,403 S Colorado St,TX,78644
Time Warner,Austin,384,384-TWCABLE,3909 N I H 35,TX,78722
Time Warner,Austin,385,385-TWCABLE,2248 Guadalupe St,TX,78705
Time Warner,Austin,386,386-TWCABLE,2237 Riverside Drive,TX,78741
Time Warner,Lincoln,401,401-TWCABLE,11th & Cornhusker Hwy,NE,68521
Time Warner,Lincoln,445,445-TWCABLE,1600 North Cotner Blvd,NE,68505
Time Warner,Lincoln,447,447-TWCABLE,#1 Gateway Mall,NE,68505
Time Warner,Nebraska City,449,449-TWCABLE,911 Central Ave,NE,68410
Time Warner,Tecumseh,451,451-TWCABLE,186 North 12th Street,NE,68450
Time Warner,Lincoln,455,455-TWCABLE,6100 Apple's Way,NE,68516
Time Warner,Hamilton,457,457-TWCABLE,103 Utica St,NY,13346
Time Warner,Kansas City,463,463-TWCABLE,15 Nw Barry Road,MO,64155
Time Warner,Kansas City,465,465-TWCABLE,6555 Winchester Ave,MO,64133
Time Warner,Kansas City,466,466-TWCABLE,8143 Parallel Avenue,KS,66112
Time Warner,Leavenworth,467,467-TWCABLE,541 Mcdonald Road,KS,66048
Time Warner,Overland Park,468,468-TWCABLE,8221 W 119th Street,KS,66213
Time Warner,Kearney,470,470-TWCABLE,655 W. 92 Hwy,MO,64060
Time Warner,Liberty,471,471-TWCABLE,215 N. 291 Hwy.,MO,64068
Time Warner,Smithville,472,472-TWCABLE,Hwy 69 & 92,MO,64089
Time Warner,N. Kansas City,473,473-TWCABLE,1909 Swift Ave.,MO,64116
Time Warner,Ilion,475,475-TWCABLE,150 Central Avenue,NY,13357
Time Warner,Oneida,476,476-TWCABLE,1930 Fairview Avenue,NY,13421
Time Warner,Syracuse,482,482-TWCABLE,550 Harrison Ctr.,NY,13202
Time Warner,Cortland,484,484-TWCABLE,224 Tompkins Street,NY,13045
Time Warner,Fulton,485,485-TWCABLE,524 Cayuga Street,NY,13069
Time Warner,Rome,487,487-TWCABLE,1117 Erie Boulevard West,NY,13440
Time Warner,Ithaca,488,488-TWCABLE,519 West State Street,NY,14850
Time Warner,Trumansburg,489,489-TWCABLE,Main Street,NY,14886
Time Warner,Ithaca,490,490-TWCABLE,110 North Tioga Street,NY,14850
Time Warner,Ithaca,491,491-TWCABLE,135 Ho Plaza,NY,14853
Time Warner,Ithaca,492,492-TWCABLE,2251 N Triphammer Road,NY,14850
Time Warner,Ithaca,493,493-TWCABLE,775 South Meadow Street,NY,14850
Time Warner,Cortland,494,494-TWCABLE,33 Clinton Avenue,NY,13045
Time Warner,Ithaca,495,495-TWCABLE,1012 Ellis Hollow Road,NY,14850
Time Warner,Ithaca,496,496-TWCABLE,40 Catherwood Road,NY,14850
Time Warner,Ithaca,497,497-TWCABLE,2230 North Triphammer Road,NY,14850
Time Warner,Ithaca,498,498-TWCABLE,701 West Seneca Street,NY,14850
Time Warner,Dryden,499,499-TWCABLE,139 N Street Ext,NY,13053
Time Warner,Watertown,500,500-TWCABLE,340 Eastern Boulevard,NY,13601
Time Warner,Lowville,501,501-TWCABLE,7395 Utica Blvd,NY,13367
Time Warner,Adams,503,503-TWCABLE,10923 Us Route 11,NY,13605
Time Warner,Malone,505,505-TWCABLE,3859 State Route 11,NY,12953
Time Warner,Massena,506,506-TWCABLE,277 Andrews Street,NY,13662
Time Warner,Ogdensburg,507,507-TWCABLE,1 Fine Street,NY,13669
Time Warner,Oswego,508,508-TWCABLE,335 West First Street,NY,13126
Time Warner,Canton,514,514-TWCABLE,80 Main Street,NY,13617
Time Warner,E. Syracuse,515,515-TWCABLE,6005 Fair Lakes Rd,NY,13057
Time Warner,Baldwinsville,516,516-TWCABLE,7271 State Fair Boulevard,NY,13027
Time Warner,Tully,517,517-TWCABLE,596 State Route 11a,NY,13159
Time Warner,Bishopville,520,520-TWCABLE,National Check Cashing (payments Only),SC,29010
Time Warner,Columbia,522,522-TWCABLE,1030 Harden Street,SC,29205
Time Warner,Columbia,523,523-TWCABLE,5450 Strom Thurmond Blvd.,SC,29206
Time Warner,Orangeburg,529,529-TWCABLE,1125 Orangeburg Mall,SC,29115
Time Warner,Sumter,531,531-TWCABLE,1170 North Guignard Dr,SC,29150
Time Warner,Walnut Cove,537,537-TWCABLE,329 North Main Street,NC,27052
Time Warner,Vestal,554,554-TWCABLE,483 Plaza Drive,NY,13850
Time Warner,Corning,555,555-TWCABLE,56 Ferris Street,NY,14830
Time Warner,Horseheads,556,556-TWCABLE,3311 South Main Street,NY,14845
Time Warner,Oneonta,559,559-TWCABLE,123 Corporate Drive,NY,13820
Time Warner,Owego,560,560-TWCABLE,40 Lake Street,NY,13827
Time Warner,Darlington,566,566-TWCABLE,Pearl Street Furniture (payments Only),SC,29532
Time Warner,Lake City,567,567-TWCABLE,210 John Street,SC,29560
Time Warner,Georgetown,569,569-TWCABLE,1253 North Fraser St.,SC,29440
Time Warner,Sayre,570,570-TWCABLE,142 West Lockhart Street,PA,18840
Time Warner,Myrtle Beach,571,571-TWCABLE,1901 Oak St,SC,29577
Time Warner,North Myrtle Beach,572,572-TWCABLE,757 Main St,SC,29582
Time Warner,Pawleys Island,573,573-TWCABLE,10225 Ocean Highway,SC,29585
Time Warner,Summerville,575,575-TWCABLE,1525 Old Trolley Rd,SC,29485
Time Warner,Rochester,576,576-TWCABLE,71 Mt. Hope Avenue,NY,14620
Time Warner,Webster,577,577-TWCABLE,980 Ridge Rd.,NY,14580
Time Warner,East Rochester,578,578-TWCABLE,349 West Commercial St,NY,14445
Time Warner,Brockport,579,579-TWCABLE,4776 Lake Rd. South,NY,14420
Time Warner,Geneva,580,580-TWCABLE,3518 Sutton Rd,NY,14456
Time Warner,Batavia,581,581-TWCABLE,29 Cedar St,NY,14020
Time Warner,San Antonio,585,585-TWCABLE,8121 Callaghan Road,TX,78230
Time Warner,New Braunfels,586,586-TWCABLE,160 South Business 35,TX,78130
Time Warner,Seguin,587,587-TWCABLE,1239 East College,TX,78115
Time Warner,San Antonio,588,588-TWCABLE,803 Castroville Road,TX,78237
Time Warner,Universal City,589,589-TWCABLE,1924 Pat Booker Road,TX,78148
Time Warner,San Antonio,590,590-TWCABLE,640 Sw Military Dr,TX,78221
Time Warner,San Antonio,591,591-TWCABLE,1955 Nacogdoches Road,TX,78209
Time Warner,San Antonio,592,592-TWCABLE,4821 Broadway,TX,78209
Time Warner,San Antonio,593,593-TWCABLE,2715 Commerce,TX,78202
Time Warner,San Antonio,594,594-TWCABLE,1601 Nogalitos,TX,78204
Time Warner,San Antonio,595,595-TWCABLE,2118 Fredericksburg,TX,78201
Time Warner,San Antonio,596,596-TWCABLE,2701 S. Presa,TX,78210
Time Warner,San Antonio,597,597-TWCABLE,415 N. New Braunfels,TX,78202
Time Warner,San Antonio,598,598-TWCABLE,300 W. Olmos,TX,78212
Time Warner,San Antonio,599,599-TWCABLE,735 S.w. Military Drive,TX,78221
Time Warner,San Antonio,600,600-TWCABLE,2130 Culebra,TX,78228
Time Warner,San Antonio,601,601-TWCABLE,400 Valley Hi Drive,TX,78227
Time Warner,San Antonio,602,602-TWCABLE,18140 San Pedro Ave.,TX,78232
Time Warner,San Antonio,603,603-TWCABLE,3524 S. New Braunfels,TX,78223
Time Warner,San Antonio,604,604-TWCABLE,6839 San Pedro Ave.,TX,78216
Time Warner,San Antonio,605,605-TWCABLE,1705 Pat Booker Road,TX,78148
Time Warner,San Antonio,606,606-TWCABLE,721 Castroville Road,TX,78237
Time Warner,San Antonio,607,607-TWCABLE,12777 W. Ih-10,TX,78230
Time Warner,San Antonio,608,608-TWCABLE,1520 Austin Hwy.,TX,78218
Time Warner,San Antonio,609,609-TWCABLE,6580 Fm 78,TX,78219
Time Warner,San Antonio,610,610-TWCABLE,2929 Thousand Oaks Dr.,TX,78232
Time Warner,San Antonio,611,611-TWCABLE,3333 Se Military Dr.,TX,78223
Time Warner,San Antonio,612,612-TWCABLE,1015 S. Ww White Rd.,TX,78220
Time Warner,San Antonio,613,613-TWCABLE,5803 Babcock Rd.,TX,78240
Time Warner,San Antonio,614,614-TWCABLE,6000 West Ave.,TX,78213
Time Warner,San Antonio,615,615-TWCABLE,7951 Guilbeau Rd.,TX,78250
Time Warner,San Antonio,616,616-TWCABLE,17460 Ih-35 North,TX,78154
Time Warner,San Antonio,617,617-TWCABLE,8231 Marbach Rd.,TX,78227
Time Warner,San Antonio,618,618-TWCABLE,9900 Wurzbach Rd.,TX,78230
Time Warner,San Antonio,619,619-TWCABLE,5601 Bandera Rd.,TX,78238
Time Warner,San Antonio,620,620-TWCABLE,2323 Lockhill Selma Rd.,TX,78230
Time Warner,San Antonio,621,621-TWCABLE,11650 Bandera Rd.,TX,78250
Time Warner,San Antonio,622,622-TWCABLE,14087 Oconnor Rd,TX,78247
Time Warner,San Antonio,623,623-TWCABLE,6030 Montgomery,TX,78239
Time Warner,San Antonio,624,624-TWCABLE,15000 San Pedro Ave.,TX,78232
Time Warner,San Antonio,625,625-TWCABLE,7010 S. Zarzamora St.,TX,78224
Time Warner,San Antonio,626,626-TWCABLE,9255 Grissom Rd.,TX,78250
Time Warner,San Antonio,627,627-TWCABLE,11551 West Ave.,TX,78213
Time Warner,San Antonio,628,628-TWCABLE,1150 N. Loop 1604 West,TX,78248
Time Warner,San Antonio,629,629-TWCABLE,10660 Culebra Rd.,TX,78251
Time Warner,San Antonio,630,630-TWCABLE,14610 Huebner Rd.,TX,78230
Time Warner,San Antonio,631,631-TWCABLE,999 E. Basse Rd.,TX,78209
Time Warner,San Antonio,632,632-TWCABLE,12018 Perrin Beitel Rd.,TX,78217
Time Warner,San Antonio,633,633-TWCABLE,20935 Us Hwy 281 N.,TX,78259
Time Warner,New Braunfels,635,635-TWCABLE,651 S. Walnut Ave.,TX,78130
Time Warner,San Antonio,636,636-TWCABLE,5103 S. Flores St.,TX,78214
Time Warner,San Antonio,637,637-TWCABLE,4107 Blanco Rd.,TX,78212
Time Warner,San Antonio,638,638-TWCABLE,4350 Callaghan Rd.,TX,78228
Time Warner,San Antonio,639,639-TWCABLE,448 Castroville Rd.,TX,78207
Time Warner,San Antonio,640,640-TWCABLE,3414 Nogalitos,TX,78225
Time Warner,San Antonio,641,641-TWCABLE,919 Bandera Rd.,TX,78228
Time Warner,San Antonio,642,642-TWCABLE,808 S. Acme Rd.,TX,78237
Time Warner,San Antonio,643,643-TWCABLE,1264 S. Ww White Rd.,TX,78220
Time Warner,San Antonio,644,644-TWCABLE,733 N. New Braunfels,TX,78202
Time Warner,El Paso,646,646-TWCABLE,Vista Hills Shopping Center,TX,79936
Time Warner,El Paso,647,647-TWCABLE,5200 Montana,TX,79903
Time Warner,El Paso,648,648-TWCABLE,700 N Zaragoza,TX,79907
Time Warner,El Paso,649,649-TWCABLE,515 South Kansas,TX,79901
Time Warner,El Paso,650,650-TWCABLE,5300 Doniphan,TX,79932
Time Warner,El Paso,652,652-TWCABLE,7656 N. Loop,TX,79915
Time Warner,El Paso,653,653-TWCABLE,9120 Dyer,TX,79924
Time Warner,El Paso,654,654-TWCABLE,1025 North Carolina,TX,79915
Time Warner,El Paso,655,655-TWCABLE,5511 Alameda,TX,79905
Time Warner,El Paso,656,656-TWCABLE,324 E San Antonio,TX,79901
Time Warner,El Paso,657,657-TWCABLE,1478 George Dieter Dr. Suite A,TX,79936
Time Warner,El Paso,661,661-TWCABLE,6510 N. Mesa,TX,79912
Time Warner,El Paso,662,662-TWCABLE,7010 Airport Road,TX,79906
Time Warner,El Paso,663,663-TWCABLE,9155 Dyer St.,TX,79924
Time Warner,Socorro,664,664-TWCABLE,10750 North Loop Road,TX,79927
Time Warner,Wichita Falls,666,666-TWCABLE,921 Lamar St,TX,76301
Time Warner,Wichita Falls,667,667-TWCABLE,3002 Kemp Blvd,TX,76308
Time Warner,Archer City,670,670-TWCABLE,104 E. Walnut St,TX,76351
Time Warner,Wichita Falls,671,671-TWCABLE,2704 Old Iowa Park Rd,TX,76306
Time Warner,Wichita Falls,673,673-TWCABLE,2410 Seymour Hwy.,TX,76301
Time Warner,Wichita Falls,674,674-TWCABLE,1818 9th St.,TX,76301
Time Warner,Wichita Falls,676,676-TWCABLE,1201 Central Freeway East,TX,76302
Time Warner,Wichita Falls,677,677-TWCABLE,3225 Maurine St.,TX,76306
Time Warner,Austin,680,680-TWCABLE,6608 S. Congress,TX,78745
Time Warner,Austin,681,681-TWCABLE,9616 N. Lamar  #199,TX,78753
Time Warner,Austin,682,682-TWCABLE,11643-b Research Blvd,TX,78759
Time Warner,Austin,683,683-TWCABLE,2805 S. Lamar,TX,78704
Time Warner,Cedar Park,685,685-TWCABLE,251 N Bell Blvd,TX,78613
Time Warner,Austin,686,686-TWCABLE,7201 Cameron Rd.,TX,78752
Time Warner,Austin,687,687-TWCABLE,2030 E. Oltorf #102-b,TX,78741
Time Warner,Austin,688,688-TWCABLE,3840 Airport Blvd.,TX,78722
Time Warner,Austin,689,689-TWCABLE,3724-b  N. Lamar,TX,78705
Time Warner,Austin,690,690-TWCABLE,1900 E. Riverside Dr.,TX,78741
Time Warner,Austin,691,691-TWCABLE,1921 Cedar Bend #c-103,TX,78758
Time Warner,Austin,693,693-TWCABLE,1717 S. Pleasant Valley #290,TX,78741
Time Warner,Austin,694,694-TWCABLE,6401-b  Airport Blvd.,TX,78752
Time Warner,Austin,695,695-TWCABLE,7115 Woodrow Ave,TX,78757
Time Warner,Austin,696,696-TWCABLE,2712 S. Congress Ave.,TX,78704
Time Warner,Austin,697,697-TWCABLE,2514 E. Ben White Blvd.,TX,78741
Time Warner,Austin,698,698-TWCABLE,3001 W. Anderson Lane,TX,78757
Time Warner,Austin,699,699-TWCABLE,11300-b Pollyanna,TX,78753
Time Warner,Austin,700,700-TWCABLE,719 W. William Cannon #112,TX,78745
Time Warner,Austin,701,701-TWCABLE,1103-a   N  I H 35,TX,78702
Time Warner,Austin,702,702-TWCABLE,2521 Rutland  #150,TX,78758
Time Warner,Austin,703,703-TWCABLE,3601 W. William Cannon #400,TX,78749
Time Warner,Pflugerville,704,704-TWCABLE,1505-c Wells Branch Parkway,TX,78660
Time Warner,Austin,705,705-TWCABLE,112 East 7th St.,TX,78701
Time Warner,Buda,706,706-TWCABLE,15300 S  I H 35,TX,78610
Time Warner,Austin,707,707-TWCABLE,9912 Manchaca Road,TX,78748
Time Warner,Austin,708,708-TWCABLE,7112 Ed Bluestein Blvd. Ste #177,TX,78723
Time Warner,Austin,709,709-TWCABLE,1909 E. William Cannon Ste. #101,TX,78744
Time Warner,San Marcos,710,710-TWCABLE,706 E. Hopkins,TX,78666
Time Warner,San Marcos,711,711-TWCABLE,1204-a  Hwy 123,TX,78666
Time Warner,Harlingen,712,712-TWCABLE,2309 W Lincoln,TX,78552
Time Warner,Mcallen,713,713-TWCABLE,921 W. Dove,TX,78501
Time Warner,Brownsville,714,714-TWCABLE,705 Paredes Line Rd,TX,78520
Time Warner,Corpus Christi,720,720-TWCABLE,4001 Saratoga Blvd Ste. 106,TX,78413
Time Warner,Beeville,722,722-TWCABLE,1207 S St Marys,TX,78102
Time Warner,Alice,723,723-TWCABLE,2041 E. Main,TX,78332
Time Warner,Zapata,726,726-TWCABLE,112 E. First,TX,78076
Time Warner,Orange,728,728-TWCABLE,3121 Edgar Brown Drive,TX,77630
Time Warner,Port Arthur,735,735-TWCABLE,5330 Twin City Hwy.,TX,77640
Time Warner,Beaumont,736,736-TWCABLE,1460 Calder,TX,77702
Time Warner,Del Rio,741,741-TWCABLE,312 Pecan St.,TX,78840
Time Warner,Eagle Pass,742,742-TWCABLE,690 Ford St.,TX,78852
Time Warner,Pearsall,743,743-TWCABLE,818 North Oak Street,TX,78061
Time Warner,Uvalde,744,744-TWCABLE,340 N. Getty St.,TX,78801
Time Warner,Pearsall,745,745-TWCABLE,205 N. Oak St.,TX,78061
Time Warner,Eagle Pass,746,746-TWCABLE,2135 E. Main St.,TX,78852
Time Warner,Austin,748,748-TWCABLE,730 W. Stassney Ln,TX,78745
Time Warner,Mililani,763,763-TWCABLE,200 Akamainui Street,HI,96789
Time Warner,Honolulu,767,767-TWCABLE,1450 Ala Moana Boulevard,HI,96814
Time Warner,Kahului,769,769-TWCABLE,350 Hoohana St.,HI,96732
Time Warner,Lahaina,770,770-TWCABLE,"910 Honoapiilani Hwy, Suite 6",HI,96761
Time Warner,Kailua Kona,773,773-TWCABLE,73-4876 Kanalani Street,HI,96740
Time Warner,Lihue,774,774-TWCABLE,"3022 Peleke Street, Suite 8",HI,96766
Time Warner,Lanai,775,775-TWCABLE,"730 Lanai Ave., Suite # 118a",HI,96763
Time Warner,Honolulu,776,776-TWCABLE,7192 Kalanianaole Highway Suite G103,HI,96825
Time Warner,Kaneohe,777,777-TWCABLE,"45-480 Kaneohe Bay Dr, Suite C19",HI,96744
Time Warner,Honolulu,778,778-TWCABLE,820 Hind Drive #101,HI,96821
Time Warner,Honolulu,779,779-TWCABLE,1450 Ala Moana Blvd.,HI,96814
Time Warner,Honolulu,780,780-TWCABLE,1460 S. Beretania St.,HI,96814
Time Warner,Honolulu,781,781-TWCABLE,1505 Dillingham Blvd.,HI,96817
Time Warner,Ewa Beach,782,782-TWCABLE,91-1401 Ft. Weaver Rd.,HI,96706
Time Warner,Honolulu,783,783-TWCABLE,7192 Kalanianaole Hwy,HI,96825
Time Warner,Kailua,784,784-TWCABLE,108 Hekili Street,HI,96734
Time Warner,Kaneohe,785,785-TWCABLE,45-480 Kaneohe Bay Dr,HI,96744
Time Warner,Laie,786,786-TWCABLE,55-510 Kamehameha Hwy.,HI,96762
Time Warner,Honolulu,787,787-TWCABLE,2939 Harding Ave.,HI,96816
Time Warner,Mililani,788,788-TWCABLE,95-221 Kipapa Dr.,HI,96789
Time Warner,Nanakuli,789,789-TWCABLE,87-2070 Farrington Hwy,HI,96792
Time Warner,Pearl City,790,790-TWCABLE,1089 Waimano Home Rd.,HI,96782
Time Warner,Haleiwa,791,791-TWCABLE,59-720 Kamehameha Hwy,HI,96712
Time Warner,Honolulu,792,792-TWCABLE,414 N. School St.,HI,96817
Time Warner,Honolulu,793,793-TWCABLE,4561 Salt Lake Blvd.,HI,96818
Time Warner,Wahiawa,794,794-TWCABLE,823 California Ave.,HI,96786
Time Warner,Waipio,795,795-TWCABLE,94-1040 Waipio Uka St.,HI,96797
Time Warner,Kahului,796,796-TWCABLE,90 Kane St.,HI,96732
Time Warner,Kihei,797,797-TWCABLE,1881 S Kihei Rd.,HI,96753
Time Warner,Lahaina,798,798-TWCABLE,"878 Front Street, #6b",HI,96761
Time Warner,Pukalani,799,799-TWCABLE,55 Pukalani St.,HI,96768
Time Warner,Wailuku,800,800-TWCABLE,790 Eha Street,HI,96793
Time Warner,Princeville,801,801-TWCABLE,5-4280 Kuhio Hwy.,HI,96722
Time Warner,Kapaa,802,802-TWCABLE,4-771 Kuhio Hwy.,HI,96746
Time Warner,Hilo,803,803-TWCABLE,250 Kinoole St.,HI,96720
Time Warner,Kailua Kona,804,804-TWCABLE,75-5595 Palani Rd.,HI,96740
Time Warner,Hilo,805,805-TWCABLE,2100 Kanoelehua Ave.,HI,96720
Time Warner,Kamuela,806,806-TWCABLE,67-1185 Mamalahoa Hwy,HI,96743
Time Warner,Laredo,809,809-TWCABLE,1301 Guadalupe St.,TX,78040
Time Warner,Laredo,810,810-TWCABLE,219 S. Zapata Hwy.,TX,78043
Time Warner,Molokai,813,813-TWCABLE,"Ulili Street, #d (lot 18)",HI,96748
Time Warner,Kerrville,815,815-TWCABLE,900 Sidney Baker St.,TX,78028
Time Warner,Kerrville,816,816-TWCABLE,300 Main St.,TX,78028
Time Warner,Columbus,818,818-TWCABLE,1308 Fannin,TX,78934
Time Warner,Cuero,819,819-TWCABLE,1102 North Esplanade Street,TX,77954
Time Warner,Gonzales,820,820-TWCABLE,301 N St Joseph St,TX,78629
Time Warner,Cuero,822,822-TWCABLE,1109 North Esplanade Street,TX,77954
Time Warner,Eagle Lake,823,823-TWCABLE,100 Commerce St,TX,77434
Time Warner,Yoakum,824,824-TWCABLE,201 W Gonzales St,TX,77995
Time Warner,Keene,833,833-TWCABLE,11 Eagle Ct.,NH,3431
Time Warner,Springfield,840,840-TWCABLE,75 W. Main Street,OH,45502
Time Warner,Tipp City,874,874-TWCABLE,1440 Commerce Park Dr,OH,45371
Time Warner,Troy,876,876-TWCABLE,1450 Experiment Farm Road,OH,45373
Time Warner,Piqua,878,878-TWCABLE,614 N. Main Street,OH,45356
Time Warner,Greenville,880,880-TWCABLE,632 Wagner Avenue,OH,45331
Time Warner,Sidney,882,882-TWCABLE,537 N Vandemark Rd,OH,45365
Time Warner,Eaton,888,888-TWCABLE,419 South Barron Street,OH,45320
Time Warner,Union City,890,890-TWCABLE,450 W. Chestnut Street,IN,47390
Time Warner,Dayton,892,892-TWCABLE,2834 Miamisburg-centerville Rd.,OH,45459
Time Warner,Dayton,894,894-TWCABLE,275 Leo Street,OH,45404
Time Warner,Dayton,900,900-TWCABLE,3503 W Siebenthaler Ave,OH,45406
Time Warner,Dayton,902,902-TWCABLE,1413 N. Main St,OH,45405
Time Warner,Dayton,904,904-TWCABLE,5615 N. Dixie Dr.,OH,45414
Time Warner,Dayton,908,908-TWCABLE,3620 Germantown St,OH,45408
Time Warner,Dayton,912,912-TWCABLE,1616 W. Third St,OH,45407
Time Warner,Dayton,916,916-TWCABLE,801 Lexington Ave,OH,45407
Time Warner,Milwaukee,922,922-TWCABLE,,WI,53212
Time Warner,Spring Lake,928,928-TWCABLE,1214 N Bragg Blvd,NC,28390
Time Warner,Canton,931,931-TWCABLE,45 Court St,NY,13617
Time Warner,Del Rio,938,938-TWCABLE,500 Pecan,TX,78840
Time Warner,Uvalde,939,939-TWCABLE,201 E. Main,TX,78801
Time Warner,Crystal City,940,940-TWCABLE,514 E. Zavala,TX,78839
Time Warner,Carrizo Springs,941,941-TWCABLE,400 N. 5th St,TX,78834
Time Warner,Jourdanton,942,942-TWCABLE,1205 Oak St.,TX,78026
Time Warner,Poteet,943,943-TWCABLE,9014 North Hwy 16,TX,78065
Time Warner,Dilley,944,944-TWCABLE,17255 South I-35,TX,78017
Time Warner,Cotulla,945,945-TWCABLE,1203 N. Main,TX,78014
Time Warner,Port Arthur,947,947-TWCABLE,1912 9th Ave,TX,77642
Time Warner,Port Neches,948,948-TWCABLE,1219 Magnolia Ave,TX,77651
Time Warner,Port Arthur,949,949-TWCABLE,8196 9th Ave,TX,77642
Time Warner,Port Arthur,950,950-TWCABLE,4800b Highway 635,TX,77642
Time Warner,Nederland,951,951-TWCABLE,1721 Spurlock Rd.,TX,77627
Time Warner,Beaumont,952,952-TWCABLE,3965 Dowlen Rd.,TX,77706
Time Warner,Beaumont,953,953-TWCABLE,2745 Washington Blvd.,TX,77705
Time Warner,Beaumont,954,954-TWCABLE,150 N 11th St.,TX,77702
Time Warner,Beaumont,955,955-TWCABLE,3845 Phelan Blvd.,TX,77707
Time Warner,Beaumont,956,956-TWCABLE,5595 College,TX,77707
Time Warner,Beaumont,957,957-TWCABLE,1010 Washington,TX,77705
Time Warner,Laredo,958,958-TWCABLE,1002 Farragut St.,TX,78040
Time Warner,Laredo,959,959-TWCABLE,4801 San Dario Ave,TX,78041
Time Warner,Laredo,960,960-TWCABLE,210 W. Del Mar Blvd.,TX,78041
Time Warner,Laredo,961,961-TWCABLE,2310 E Saunders St.,TX,78041
Time Warner,Laredo,962,962-TWCABLE,7811 Mcpherson Rd.,TX,78045
Time Warner,Laredo,963,963-TWCABLE,2314 S. Zapata Hwy,TX,78046
Time Warner,Laredo,964,964-TWCABLE,401 W. Saunders St.,TX,78041
Time Warner,Laredo,965,965-TWCABLE,2102 S. Meadow Ave,TX,78046
Time Warner,Laredo,966,966-TWCABLE,8002 Mines Rd.,TX,78045
Time Warner,Laredo,967,967-TWCABLE,4001 Mcpherson Ave. Ste. 1,TX,78041
Time Warner,Amherst,968,968-TWCABLE,972 Maple Road,NY,14221
Time Warner,Buffalo,970,970-TWCABLE,355 Chicago St.,NY,14204
Time Warner,Niagara Falls,976,976-TWCABLE,2604 Seneca St,NY,14305
Time Warner,Orchard Park,978,978-TWCABLE,4066 North Buffalo St.,NY,14127
Time Warner,Westfield,981,981-TWCABLE,15-17 Main St.,NY,14787
Time Warner,Dallas,984,984-TWCABLE,1565 Chenault St,TX,75228
Time Warner,North Adams,985,985-TWCABLE,225 Hodges Cross Road,MA,1247
Time Warner,Lee,986,986-TWCABLE,20 Silver Street,MA,1238
Time Warner,Arlington,988,988-TWCABLE,2421 Matlock Road,TX,76015
Time Warner,Grapevine,989,989-TWCABLE,820 W Northwest Highway,TX,76051
Time Warner,Irving,990,990-TWCABLE,3301 W. Royal Lane,TX,75063
Time Warner,Desoto,991,991-TWCABLE,223 W Dalton,TX,75115
Time Warner,Richardson,993,993-TWCABLE,1776 N Greenville Ave,TX,75080
Time Warner,Garland,995,995-TWCABLE,934 East Centerville,TX,75041
Time Warner,Plano,996,996-TWCABLE,1414 Summit Avenue,TX,75074
Time Warner,Bowling Green,1182,1182-TWCABLE,1135 S. Main St. Ste. 210,OH,43402
Time Warner,Findlay,1186,1186-TWCABLE,205 Crystal Avenue,OH,45840
Time Warner,Fremont,1188,1188-TWCABLE,1800 E. State Street,OH,43420
Time Warner,Wapakoneta,1204,1204-TWCABLE,110 W. Auglaize Street,OH,45895
Time Warner,Columbus,1209,1209-TWCABLE,1019 W. Broad Street,OH,43222
Time Warner,Columbus,1211,1211-TWCABLE,699 Harrisburg Pike,OH,43223
Time Warner,Galion,1217,1217-TWCABLE,21 Public Square,OH,44833
Time Warner,Delaware,1221,1221-TWCABLE,156 Johnson Drive,OH,43015
Time Warner,Lancaster,1222,1222-TWCABLE,1315 Granville Pike,OH,43130
Time Warner,Mount Vernon,1225,1225-TWCABLE,1441 Newark Road,OH,43050
Time Warner,Statesville,1230,1230-TWCABLE,122 North Tradd Street,NC,28677
Time Warner,Alice,1233,1233-TWCABLE,1115 East Main Street,TX,78332
Time Warner,Beeville,1234,1234-TWCABLE,100 East Houston Street,TX,78102
Time Warner,Corpus Christi,1235,1235-TWCABLE,3500 Leopard Street,TX,78408
Time Warner,Corpus Christi,1236,1236-TWCABLE,5425 South Padre Island Drive,TX,78411
Time Warner,Corpus Christi,1237,1237-TWCABLE,4444 Kostoryz Road,TX,78415
Time Warner,Corpus Christi,1238,1238-TWCABLE,5801 Weber Road,TX,78413
Time Warner,Corpus Christi,1239,1239-TWCABLE,11100 Leopard Street,TX,78410
Time Warner,Corpus Christi,1240,1240-TWCABLE,10241 South Padre Island Drive,TX,78418
Time Warner,Corpus Christi,1241,1241-TWCABLE,4737 Saratoga Blvd,TX,78413
Time Warner,Corpus Christi,1242,1242-TWCABLE,3133 South Alameda Street,TX,78404
Time Warner,Corpus Christi,1243,1243-TWCABLE,3033 South Port Avenue,TX,78405
Time Warner,Corpus Christi,1244,1244-TWCABLE,4320 South Alameda Street,TX,78412
Time Warner,Mathis,1245,1245-TWCABLE,601 East San Patricio Avenue,TX,78368
Time Warner,Portland,1246,1246-TWCABLE,1600 Wildcat Drive,TX,78374
Time Warner,Refugio,1247,1247-TWCABLE,206 South Alamo Street,TX,78377
Time Warner,Robstown,1248,1248-TWCABLE,308 East Main Avenue,TX,78380
Time Warner,Corpus Christi,1249,1249-TWCABLE,4414 Prescott Street,TX,78416
Time Warner,Corpus Christi,1250,1250-TWCABLE,2909 Norton Street,TX,78415
Time Warner,Falfurrias,1251,1251-TWCABLE,208 East Rice Street,TX,78355
Time Warner,Freer,1252,1252-TWCABLE,Highway 44,TX,78357
Time Warner,Desert Hot Springs,1254,1254-TWCABLE,11855 Palm Drive,CA,92240
Time Warner,Yucca Valley,1255,1255-TWCABLE,7500 Kickapoo Trail,CA,92284
Time Warner,Elizabeth City,1256,1256-TWCABLE,701 N. Hughes Blvd.,NC,27909
Time Warner,Chittenango,1258,1258-TWCABLE,703 E Genesee St,NY,13037
Time Warner,Hilton Head Island,1260,1260-TWCABLE,11 Office Park Road,SC,29928
Time Warner,Bangor,1261,1261-TWCABLE,444 Perry Road,ME,4401
Time Warner,Lewiston,1262,1262-TWCABLE,37 Alfred A. Plourde Pkwy.,ME,4240
Time Warner,Madawaska,1263,1263-TWCABLE,381 Main Street,ME,4756
Time Warner,Rockland,1264,1264-TWCABLE,400 Old County Road,ME,4841
Time Warner,Rumford,1265,1265-TWCABLE,114 Hancock Street,ME,4276
Time Warner,Windham,1266,1266-TWCABLE,57 Tandberg Trail (rte 35),ME,4062
Time Warner,Winslow,1267,1267-TWCABLE,148 China Road,ME,4901
Time Warner,Conway Center,1268,1268-TWCABLE,548 Eastman Road,NH,3813
Time Warner,Plymouth,1269,1269-TWCABLE,12 Yeaton Road,NH,3264
Time Warner,Littleton,1270,1270-TWCABLE,380 Union Street,NH,3561
Time Warner,Augusta,1271,1271-TWCABLE,83 Anthony Ave,ME,4330
Time Warner,Dillon,1272,1272-TWCABLE,1741 Hwy 9 West,SC,29536
Time Warner,Hartsville,1273,1273-TWCABLE,1920 W. Bobo Newsome Hwy,SC,29550
Time Warner,Laurinburg,1274,1274-TWCABLE,222 North Wilkerson Drive,NC,28353
Time Warner,Rio Grande City,1276,1276-TWCABLE,3543 West Hwy 83,TX,78582
Time Warner,Carlsbad,1278,1278-TWCABLE,5720 El Camino Real,CA,92008
Time Warner,Utica,1280,1280-TWCABLE,1000 Firehouse Rd,NY,13502
Time Warner,Old Forge,1282,1282-TWCABLE,1 Codling Street,NY,13420
Time Warner,Utica,1283,1283-TWCABLE,222 Genesee Street,NY,13502
Time Warner,Saranac Lake,1284,1284-TWCABLE,588 Lake Flower Avenue,NY,12983
Time Warner,Tupper Lake,1285,1285-TWCABLE,3 Main Street,NY,12986
Time Warner,Tupper Lake,1286,1286-TWCABLE,75 Park Street,NY,12986
Time Warner,Utica,1289,1289-TWCABLE,1256 Albany Street,NY,13501
Time Warner,Ashtabula,1291,1291-TWCABLE,2904 State Road,OH,44004
Time Warner,Brunswick,1293,1293-TWCABLE,1733 Pearl Road,OH,44212
Time Warner,Garfield Hts,1297,1297-TWCABLE,12556 Rockside Road,OH,44125
Time Warner,Lorain,1298,1298-TWCABLE,1801 Elyria Ave,OH,44052
Time Warner,North Olmsted,1300,1300-TWCABLE,24910 Lorain Rd,OH,44070
Time Warner,Concord,1301,1301-TWCABLE,7757 Auburn Rd,OH,44077
Time Warner,Strongsville,1302,1302-TWCABLE,8150 East Dow Circle,OH,44136
Time Warner,New Philadelphia,1305,1305-TWCABLE,617 Tuscarawas Ave,OH,44663
Time Warner,Logan,1331,1331-TWCABLE,205 W. Second St.,OH,43138
Time Warner,Chillicothe,1332,1332-TWCABLE,32 Enterprise Dr.,OH,45601
Time Warner,Newark,1336,1336-TWCABLE,111 N. 11th St.,OH,43058
Time Warner,Coshocton,1338,1338-TWCABLE,640 Walnut St.,OH,43812
Time Warner,Celina,1340,1340-TWCABLE,812 N Main St.,OH,45822
Time Warner,Syracuse,1342,1342-TWCABLE,1431 N Salina Street,NY,13208
Time Warner,Syracuse,1344,1344-TWCABLE,140 Oakwood Ave,NY,13202
Time Warner,Saranac Lake,1347,1347-TWCABLE,488 Broadway,NY,12983
Time Warner,Auburn,1350,1350-TWCABLE,352 Genesee Street,NY,13021
Time Warner,Saranac Lake,1352,1352-TWCABLE,622 Lake Flower Avenue,NY,12983
Time Warner,Utica,1354,1354-TWCABLE,700 Plant Street,NY,13502
Time Warner,Utica,1356,1356-TWCABLE,608 South Street,NY,13501
Time Warner,Auburn,1429,1429-TWCABLE,32 Owasco St.,NY,13021
Time Warner,Saranac Lake,1432,1432-TWCABLE,277 Broadway,NY,12983
Time Warner,Malone,1444,1444-TWCABLE,485 East Main Street,NY,12953
Time Warner,Hamilton,1451,1451-TWCABLE,100 Utica Street,NY,13446
Time Warner,Malone,1454,1454-TWCABLE,3400 State Route 11,NY,12953
Time Warner,Watertown,1456,1456-TWCABLE,1328 Washington Street,NY,13601
Time Warner,Potsdam,1458,1458-TWCABLE,200 Market Street,NY,13676
Time Warner,Watertown,1460,1460-TWCABLE,905 Coffeen Street,NY,13601
Time Warner,Massena,1462,1462-TWCABLE,210 North Main Street,NY,13662
Time Warner,Cortland,1464,1464-TWCABLE,3666 State Route 281,NY,13045
Time Warner,Fulton,1466,1466-TWCABLE,17 West 1st Street South,NY,13069
Time Warner,Whitesboro,1468,1468-TWCABLE,40 Oriskany Boulevard,NY,13492
Time Warner,Rome,1472,1472-TWCABLE,217 Erie Boulevard West,NY,13440
Time Warner,Cortland,1474,1474-TWCABLE,24 Main Street,NY,13045
Time Warner,Oswego,1476,1476-TWCABLE,24 West Bridge Street,NY,13126
Time Warner,Kingstree,1483,1483-TWCABLE,Kingstree Hardware (payments Only),SC,29556
Time Warner,Vanceburg,1489,1489-TWCABLE,21 East Kentucky 8,KY,41179
Time Warner,Killeen,1490,1490-TWCABLE,2100 South W.s. Young Drive,TX,76543
Time Warner,San Antonio,1500,1500-TWCABLE,438 Nw Loop 410,TX,78216
Time Warner,Garden City,1517,1517-TWCABLE,2520 Highway 17 South Unit 10,SC,29576
Time Warner,Clayton,1524,1524-TWCABLE,11771 Business Us Hwy 70 W,NC,27520
Time Warner,Bluffton,1525,1525-TWCABLE,26 Okatie Maintenance Road,SC,29909
Time Warner,Port Clinton,1531,1531-TWCABLE,2853 East Harbor Rd.,OH,43452
Time Warner,Portsmouth,1532,1532-TWCABLE,1223 Offnere Street,OH,45662
Time Warner,Laredo,1542,1542-TWCABLE,1313 W. Calton Rd,TX,78041
Time Warner,Poway,1547,1547-TWCABLE,Oak Knoll Market,CA,92064
Time Warner,San Diego,1548,1548-TWCABLE,The Check Cashing Place,CA,92101
Time Warner,San Diego,1549,1549-TWCABLE,Millers Market,CA,92101
Time Warner,San Diego,1550,1550-TWCABLE,The Check Cashing Place,CA,92102
Time Warner,San Diego,1551,1551-TWCABLE,Farmers Liquor Market,CA,92104
Time Warner,San Diego,1552,1552-TWCABLE,The Check Cashing Place,CA,92104
Time Warner,San Diego,1553,1553-TWCABLE,Families Market,CA,92105
Time Warner,San Diego,1554,1554-TWCABLE,Los Amigos Market,CA,92105
Time Warner,San Diego,1555,1555-TWCABLE,New Money Express,CA,92105
Time Warner,San Diego,1556,1556-TWCABLE,The Check Cashing Place,CA,92105
Time Warner,San Diego,1557,1557-TWCABLE,Apple Tree Market,CA,92107
Time Warner,San Diego,1558,1558-TWCABLE,The Check Cashing Place,CA,92107
Time Warner,San Diego,1559,1559-TWCABLE,Convoy Liquor,CA,92111
Time Warner,San Diego,1560,1560-TWCABLE,The Check Cashing Place,CA,92111
Time Warner,San Diego,1562,1562-TWCABLE,Jr Gas And Mini Mart,CA,92113
Time Warner,San Diego,1563,1563-TWCABLE,The Check Cashing Place,CA,92113
Time Warner,San Diego,1564,1564-TWCABLE,Encanto Liquor & Market,CA,92114
Time Warner,San Diego,1565,1565-TWCABLE,Imperial Food Supermarket,CA,92114
Time Warner,San Diego,1566,1566-TWCABLE,Cash Plus,CA,92115
Time Warner,San Diego,1568,1568-TWCABLE,The Check Cashing Place,CA,92126
Time Warner,San Diego,1569,1569-TWCABLE,Western Check Cashers,CA,92126
Time Warner,San Diego,1570,1570-TWCABLE,El Picador Foods,CA,92154
Time Warner,Fallbrook,1571,1571-TWCABLE,El Toro Market,CA,92028
Time Warner,San Marcos,1572,1572-TWCABLE,San Marcos Check Cashing,CA,92069
Time Warner,San Marcos,1573,1573-TWCABLE,San Marcos Money Transfer & Cks,CA,92069
Time Warner,San Marcos,1574,1574-TWCABLE,Save A Lot,CA,92069
Time Warner,San Marcos,1575,1575-TWCABLE,Sm Postal Center,CA,92069
Time Warner,Vista,1577,1577-TWCABLE,La Mexicana Market,CA,92083
Time Warner,Vista,1578,1578-TWCABLE,Postal Center,CA,92083
Time Warner,Vista,1579,1579-TWCABLE,Postal Center Of Vista,CA,92083
Time Warner,Vista,1580,1580-TWCABLE,Salsa Discount Market,CA,92083
Time Warner,Vista,1581,1581-TWCABLE,The Check Cashing Place,CA,92083
Time Warner,Winston-salem,1584,1584-TWCABLE,(no Equipment Returns),NC,27103
Time Warner,Raleigh,1589,1589-TWCABLE,(no Equipment Returns),NC,27612
Time Warner,San Diego,1605,1605-TWCABLE,3051 Clairemont Drive,CA,92117
Time Warner,Madison,1621,1621-TWCABLE,1109 Clifty Drive,IN,47250
Time Warner,Yuma,1629,1629-TWCABLE,1289 S. 2nd Ave.,AZ,85364
Time Warner,Lebanon,1635,1635-TWCABLE,1805 Campbellsville Hwy,KY,40033
Time Warner,Danville,1637,1637-TWCABLE,220 Hightower Rd.,KY,40422
Time Warner,Fairmont,1652,1652-TWCABLE,52 V I P Way,WV,26554
Time Warner,Fairmont,1658,1658-TWCABLE,1208 Fairmont Avenue,WV,26554
Time Warner,Waco,1671,1671-TWCABLE,9100 Woodway Dr,TX,76712
Time Warner,San Antonio,1673,1673-TWCABLE,10718 Potranco,TX,78251
Time Warner,Laredo,1674,1674-TWCABLE,1911 East Bob Bullock,TX,78045
Time Warner,Alamo,1675,1675-TWCABLE,1211 E. Frontage,TX,78516
Time Warner,Austin,1676,1676-TWCABLE,1000 E. 41 Street,TX,78751
Time Warner,Austin,1678,1678-TWCABLE,2701 E. Seventh,TX,78702
Time Warner,Austin,1679,1679-TWCABLE,500 Canyon Ridge Dr.,TX,78753
Time Warner,Austin,1680,1680-TWCABLE,170 E. Whitestone,TX,78613
Time Warner,Austin,1681,1681-TWCABLE,"11521 North Fm 620, Bldg A",TX,78750
Time Warner,Austin,1682,1682-TWCABLE,12860 Research Blvd,TX,78750
Time Warner,Austin,1683,1683-TWCABLE,5800 W. Slaughter Lane,TX,78749
Time Warner,Austin,1685,1685-TWCABLE,10710 Research Blvd #200,TX,78759
Time Warner,Austin,1686,1686-TWCABLE,2800 East Whitestone,TX,78613
Time Warner,Beaumont,1687,1687-TWCABLE,3025 North Doweln Rd.,TX,77706
Time Warner,Beaumont,1688,1688-TWCABLE,1108 S 11th St.,TX,77701
Time Warner,Boerne,1689,1689-TWCABLE,420 W. Bandera,TX,78006
Time Warner,Brownsville,1690,1690-TWCABLE,924 E. Elizabeth,TX,78520
Time Warner,Brownsville,1691,1691-TWCABLE,1628 Central Blvd.,TX,78520
Time Warner,Brownsville,1692,1692-TWCABLE,2950 Southmost Road,TX,78520
Time Warner,Brownsville,1693,1693-TWCABLE,2155 Paredes Line Rd.,TX,78521
Time Warner,Brownsville,1694,1694-TWCABLE,2250 Boca Chica,TX,78520
Time Warner,Burnet,1695,1695-TWCABLE,105 S. Boundary,TX,78611
Time Warner,Corpus Christi,1696,1696-TWCABLE,1145 Waldren Rd.,TX,78418
Time Warner,Corpus Christi,1698,1698-TWCABLE,5313 Saratoga,TX,78413
Time Warner,Donna,1699,1699-TWCABLE,813 Miller,TX,78537
Time Warner,Edinburg,1700,1700-TWCABLE,1212 S. Closner,TX,78539
Time Warner,Edinburg,1701,1701-TWCABLE,2700 W. Freddy Gonzales,TX,78539
Time Warner,Elsa,1702,1702-TWCABLE,101 N. Crockett,TX,78543
Time Warner,Falfurrias,1703,1703-TWCABLE,700 S. St. Mary,TX,78355
Time Warner,Fredricksburg,1704,1704-TWCABLE,407 S. Adams,TX,78624
Time Warner,Georgetown,1705,1705-TWCABLE,1100 S. Ih 35,TX,78626
Time Warner,Georgetown,1706,1706-TWCABLE,4500 Fm 2338,TX,78628
Time Warner,Gonzales,1707,1707-TWCABLE,424 Saint Matthew,TX,78629
Time Warner,Harlingen,1708,1708-TWCABLE,1213 S. Commerce,TX,78550
Time Warner,Harlingen,1709,1709-TWCABLE,1103 Morgan,TX,78550
Time Warner,Harlingen,1710,1710-TWCABLE,613 S. Expwy 83,TX,78550
Time Warner,Houston,1711,1711-TWCABLE,9710 Katy Freeway,TX,78230
Time Warner,Killeen,1712,1712-TWCABLE,809 N. Gray,TX,76541
Time Warner,Kyle,1713,1713-TWCABLE,5401 South Fm 1626,TX,78640
Time Warner,Leander,1714,1714-TWCABLE,651 N. Us Hwy 183,TX,78641
Time Warner,Luling,1715,1715-TWCABLE,320 E. Pierce,TX,78648
Time Warner,Marble Talls,1716,1716-TWCABLE,1503 Hwy. 1431 West,TX,78654
Time Warner,Mcallen,1717,1717-TWCABLE,3200 N. Tenth Street,TX,78501
Time Warner,Mcallen,1718,1718-TWCABLE,900 S. Tenth Street,TX,78501
Time Warner,Mcallen,1719,1719-TWCABLE,3601 Pecan,TX,78501
Time Warner,Mcallen,1720,1720-TWCABLE,901 Trenton Rd.,TX,78501
Time Warner,Mercedes,1721,1721-TWCABLE,209 N. Texas,TX,78570
Time Warner,Mission,1722,1722-TWCABLE,2409 East Expressway 83,TX,78572
Time Warner,Mission,1727,1727-TWCABLE,820 S. Conway,TX,78572
Time Warner,Mission,1728,1728-TWCABLE,200 E. Griffin Pkwy,TX,78572
Time Warner,Palmview,1729,1729-TWCABLE,6016 W. Expressway 83,TX,78572
Time Warner,Pharr,1730,1730-TWCABLE,1300 E. Business 83,TX,78577
Time Warner,Port Arthur,1731,1731-TWCABLE,4800 B Hwy 365,TX,77642
Time Warner,Port Isabel,1732,1732-TWCABLE,1679 West Hwy. 100,TX,78578
Time Warner,Raymondville,1733,1733-TWCABLE,405 W. Hidalgo,TX,78580
Time Warner,Rio Grande City,1734,1734-TWCABLE,4031 E. Hwy 83,TX,78582
Time Warner,Round Rock,1735,1735-TWCABLE,3750 Gattis School Rd.,TX,78664
Time Warner,Round Rock,1736,1736-TWCABLE,1700 E. Palm Vally Blvd.,TX,78664
Time Warner,San Antonio,1737,1737-TWCABLE,"24165 Ih 10 West, Ste. 300",TX,78256
Time Warner,San Benito,1738,1738-TWCABLE,1141 W. Business #77,TX,78586
Time Warner,San Juan,1739,1739-TWCABLE,901 W. Expressway 83,TX,78589
Time Warner,Seguin,1740,1740-TWCABLE,1368 E. Court,TX,78155
Time Warner,Temple,1741,1741-TWCABLE,3002 S. 31st Street,TX,76501
Time Warner,Universal City,1742,1742-TWCABLE,910 Kitty Hawk,TX,78148
Time Warner,Weslaco,1743,1743-TWCABLE,1004 N. Texas,TX,78596
Time Warner,Weslaco,1744,1744-TWCABLE,310 N. Westgate Dr.,TX,78596
Time Warner,West Lake Hills,1745,1745-TWCABLE,701 Capital Of Tx. Hwy,TX,78746
Time Warner,Dothan,1749,1749-TWCABLE,104 S. Woodburn Drive,AL,36305
Time Warner,Coeur D'alene,1750,1750-TWCABLE,1735 B 15th Street,ID,83814
Time Warner,Mesquite,1757,1757-TWCABLE,327 Gross Road,TX,75149
Time Warner,Gorham,1768,1768-TWCABLE,609 Main Street,NH,3581
Time Warner,Hilo,1771,1771-TWCABLE,548 Kanoelehua Ave,HI,96720
Time Warner,Cleveland,1772,1772-TWCABLE,3300 Lakeside Ave.,OH,44114
Time Warner,Akron,1773,1773-TWCABLE,1919 Brittan Road,OH,44310
Time Warner,Erie,1774,1774-TWCABLE,18 B Millcreek Square,PA,16565
Time Warner,Cleveland Heights,1775,1775-TWCABLE,7 Severance Circle,OH,44118
Time Warner,Canton,1776,1776-TWCABLE,5520 Whipple Ave. Nw,OH,44720
Time Warner,Erie,1777,1777-TWCABLE,3627 Zimmerman Rd.,PA,16510
Time Warner,Fort Rucker,1779,1779-TWCABLE,5700 Novosel Street,AL,36362
Time Warner,Cheektowaga,1782,1782-TWCABLE,2897 Union Road,NY,14227
Time Warner,Falls City,1785,1785-TWCABLE,1816 Stone St,NE,68355
Time Warner,Fremont,1787,1787-TWCABLE,1780 East 23rd Street,NE,68025
Time Warner,Auburn,1789,1789-TWCABLE,1304 Courthouse Ave,NE,68305
Time Warner,Calexico,1792,1792-TWCABLE,601 S. Imperial Ave.,CA,92231
Time Warner,Syracuse,1800,1800-TWCABLE,2823 James St.,NY,13206
Time Warner,Owego,1805,1805-TWCABLE,88 North Ave.,NY,13827
Time Warner,Syracuse,1807,1807-TWCABLE,915 State Fair Blvd,NY,13209
Time Warner,Dunkirk,1809,1809-TWCABLE,411 Central Ave.,NY,14048
Time Warner,Utica,1811,1811-TWCABLE,1256 Albany St.,NY,13501
Time Warner,Sodus,1813,1813-TWCABLE,109 West Main St.,NY,14551
Time Warner,Dunkirk,1820,1820-TWCABLE,3967 Vineyard Drive,NY,14048
Time Warner,Austin,1823,1823-TWCABLE,"1000 E 41st Street, Suite 920",TX,78751
Time Warner,Hickam,1824,1824-TWCABLE,Building 1232,HI,96853
Time Warner,Rancho Penasquitos,1825,1825-TWCABLE,13179-1 Black Mountain Rd.,CA,92129
Time Warner,Palm Springs,1828,1828-TWCABLE,440 El Cielo Rd,CA,92262
Time Warner,Clymer,1829,1829-TWCABLE,8720 E. Main Street,NY,14724
Time Warner,Dansville,1830,1830-TWCABLE,189 Main Street,NY,14437
Time Warner,Sidney,1831,1831-TWCABLE,42 Union Street,NY,13838
Time Warner,Greene,1832,1832-TWCABLE,65 Genesee Street,NY,13778
Time Warner,Bainbridge,1833,1833-TWCABLE,16 S. Main Street,NY,13733
Time Warner,Walton,1834,1834-TWCABLE,3 Liberty Street,NY,13856
Time Warner,Oneonta,1835,1835-TWCABLE,53 Market Street,NY,13820
Time Warner,Norwich,1836,1836-TWCABLE,5900 County Road 32,NY,13815
Time Warner,Norwich,1837,1837-TWCABLE,State Highway 23,NY,13815
Time Warner,Cooperstown,1838,1838-TWCABLE,206 Main Street,NY,13326
Time Warner,Sidney,1839,1839-TWCABLE,13 Division Street,NY,13838
Time Warner,Bainbridge,1840,1840-TWCABLE,9 North Main Street,NY,13733
Time Warner,Richfield Springs,1841,1841-TWCABLE,16 West Main Street,NY,13439
Time Warner,Delhi,1842,1842-TWCABLE,100 Main Street,NY,13753
Time Warner,Huntersville,1844,1844-TWCABLE,Market Square Shopping Center,NC,28078
Time Warner,West Columbia,1846,1846-TWCABLE,3347 Platt Springs Rd.,SC,29170
Time Warner,Milwaukee,1854,1854-TWCABLE,2323 N. Dr. Martin Luther King Jr. Dr,WI,53212
Time Warner,Brawley,1862,1862-TWCABLE,135 S. Plaza Street.,CA,92227
Time Warner,El Paso,1863,1863-TWCABLE,1700 N Zaragosa Ste 121,TX,79936
Time Warner,Mayfield,1920,1920-TWCABLE,1512 Cuba Road,KY,42066
Time Warner,Calvert City,1922,1922-TWCABLE,Food Giant,KY,42029
Time Warner,Samburg,1937,1937-TWCABLE,Kelly One Stop,TN,38232
Time Warner,Ridgely,1939,1939-TWCABLE,Ridgely Taylor Pharmacy,TN,38080
Time Warner,Austin,25,25-TWCABLE,12012 N Mo Pac Expy,TX,78758
Time Warner,Cincinnati,41,41-TWCABLE,11700 Princeton Pike,OH,45246
Time Warner,Randleman,60,60-TWCABLE,100 South Main Street,NC,27317
Time Warner,West Allis,201,201-TWCABLE,1511 S. 108th St.,WI,53214
Time Warner,Cedarburg,205,205-TWCABLE,W61n529 Washington Ave,WI,
Time Warner,Portland,307,307-TWCABLE,118 Johnson Road,ME,4102
Time Warner,Whiteville,331,331-TWCABLE,1345 Madison Street South,NC,28472
Time Warner,Glens Falls,338,338-TWCABLE,227 Dix Avenue,NY,12801
Time Warner,Saratoga Springs,342,342-TWCABLE,8 Circular Street,NY,12866
Time Warner,Pflugerville,372,372-TWCABLE,201 North  Fm 685,TX,78660
Time Warner,Crete,387,387-TWCABLE,1122 Main Street,NE,68333
Time Warner,Lincoln,389,389-TWCABLE,5400 South 16th Street,NE,68512
Time Warner,Boonville,478,478-TWCABLE,261 Route 12,NY,13309
Time Warner,Syracuse,480,480-TWCABLE,815 E. Erie Blvd,NY,13210
Time Warner,Potsdam,509,509-TWCABLE,22 1/2 Elm Street,NY,13676
Time Warner,Norwood,512,512-TWCABLE,28 South Main Street,NY,13668
Time Warner,Burlington,544,544-TWCABLE,316 Huffman Mill Road,NC,27215
Time Warner,Greensboro,546,546-TWCABLE,1813 Spring Garden Street,NC,27403
Time Warner,High Point,548,548-TWCABLE,118 East State Avenue,NC,27262
Time Warner,Winston-salem,549,549-TWCABLE,1410 Trade Mart Blvd.,NC,27127
Time Warner,Florence,552,552-TWCABLE,3232 Bryson Drive,SC,29501
Time Warner,Jamestown,557,557-TWCABLE,120 East Second Street,NY,14701
Time Warner,Medina,660,660-TWCABLE,520 Main St,NY,14103
Time Warner,Round Rock,684,684-TWCABLE,907 N Ih 35,TX,78664
Time Warner,Austn,692,692-TWCABLE,6800 West Gate Blvd,TX,78745
Time Warner,Elmhurst,825,825-TWCABLE,90-15 Queens Boulevard,NY,11373
Time Warner,Del Rio,935,935-TWCABLE,200 Veterans Blvd,TX,78840
Time Warner,Farmers Branch,992,992-TWCABLE,14079 Senlac Drive,TX,75234
Time Warner,Greenville,997,997-TWCABLE,4520 Stonewall Street,TX,75401
Time Warner,Tiffin,1190,1190-TWCABLE,90 S. Washington Street,OH,44883
Time Warner,Upper Sandusky,1202,1202-TWCABLE,114 N. Sandusky Street,OH,43351
Time Warner,Columbus,1206,1206-TWCABLE,1015 Olentangy River Road,OH,43212
Time Warner,Athens,1213,1213-TWCABLE,28 Station St,OH,45701
Time Warner,Circleville,1226,1226-TWCABLE,1226 N Court St,OH,43113
Time Warner,Greendale,1228,1228-TWCABLE,5300 S. 76th Street,WI,53129
Time Warner,Mentor,1311,1311-TWCABLE,7820 Division Dr,OH,44060
Time Warner,Franklin,1314,1314-TWCABLE,501 13th St,PA,16323
Time Warner,Defiance,1330,1330-TWCABLE,2010 S Jefferson Ave,OH,43512
Time Warner,Marion,1337,1337-TWCABLE,160 N. Greenwood,OH,43302
Time Warner,Mocksville,1447,1447-TWCABLE,1368 Hwy 601 South,NC,27028
Time Warner,Norwich,1480,1480-TWCABLE,39 Hale Street,NY,13815
Time Warner,Columbia,1481,1481-TWCABLE,9810 Two Notch Road,SC,29223
Time Warner,Brooklyn,1596,1596-TWCABLE,769 5th Avenue,NY,11232
Time Warner,Mount Vernon,1598,1598-TWCABLE,701 North Macquesten Parkway,NY,10552
Time Warner,Newburgh,1603,1603-TWCABLE,1279 Rte. 300,NY,12550
Time Warner,Middletown,1608,1608-TWCABLE,2 Industrial Drive,,10941
Time Warner,Ellenville,1610,1610-TWCABLE,177 Canal Street,NY,12428
Time Warner,Kingston,1611,1611-TWCABLE,142 Schwenk Dr.,NY,12401
Time Warner,Poughkeepsie,1613,1613-TWCABLE,12 Reservoir Square,NY,12601
Time Warner,Clarksburg,1617,1617-TWCABLE,507 Rosebud Plaza,WV,26301
Time Warner,Coeur D?alene,1622,1622-TWCABLE,2305 W. Kathleen Avenue,ID,83815
Time Warner,Moscow,1623,1623-TWCABLE,828 W. Pullman Road,ID,83843
Time Warner,Pullman,1624,1624-TWCABLE,1020 Se Latah Street,WA,99163
Time Warner,Telluride,1632,1632-TWCABLE,126 W. Colorado Avenue,CO,81435
Time Warner,Richmond,1639,1639-TWCABLE,1615 Foxhaven Dr.,KY,40475
Time Warner,Mt. Sterling,1641,1641-TWCABLE,223 Indian Mound Dr.,KY,40353
Time Warner,Harrodsburg,1643,1643-TWCABLE,108 N. Greenville St.,KY,40330
Time Warner,Winchester,1645,1645-TWCABLE,"120 S. Maple St., Suite 8",KY,40391
Time Warner,Owensboro,1647,1647-TWCABLE,100 Industrial Dr.,KY,42301
Time Warner,Newburgh,1649,1649-TWCABLE,5088 Plaza Dr.,IN,47630
Time Warner,Terre Haute,1656,1656-TWCABLE,1829 Lafayette Ave.,IN,47804
Time Warner,Columbus,1666,1666-TWCABLE,1980 Alum Creek Drive,OH,43207
Time Warner,Coeur D'alene,1752,1752-TWCABLE,1217 N 4th Street,ID,
Time Warner,Coeur D'alene,1753,1753-TWCABLE,200 W Hanley Avenue,ID,
Time Warner,Hayden,1754,1754-TWCABLE,240 W Hanley Avenue,ID,
Time Warner,New York,1769,1769-TWCABLE,2554 Broadway,NY,10025
Time Warner,Matthews,1781,1781-TWCABLE,7928 Council Place,NC,28105
Time Warner,Yuma,1793,1793-TWCABLE,One City Plaza,AZ,85364
Time Warner,Walton,1852,1852-TWCABLE,167 Delaware Street,NY,13856
Time Warner,Grove City,1860,1860-TWCABLE,4182 Buckeye Parkway,OH,43123
Time Warner,Lee?s Summit,1861,1861-TWCABLE,188 Nw Oldham Pkwy,MO,64081
Time Warner,Beaver Dam,1924,1924-TWCABLE,1387 N. Main Street,KY,42320
Time Warner,Somerset,1926,1926-TWCABLE,5026 S. Highway 27,KY,42501
Time Warner,Corbin,1928,1928-TWCABLE,105 W. 3rd Street,KY,40701
Time Warner,Pineville,1930,1930-TWCABLE,218 Park Ave,KY,40977
Time Warner,Dyer,1933,1933-TWCABLE,229 N. Main St.,TN,38330
Time Warner,Ripley,1935,1935-TWCABLE,111 West Jackson St.,TN,38063
Time Warner,Akron,1942,1942-TWCABLE,1835 West Market St,OH,44313
Time Warner,Akron,1943,1943-TWCABLE,2147 West Market St.,OH,44314
Time Warner,Akron,1944,1944-TWCABLE,2420 Wedgewood Dr,OH,44312
Time Warner,Akron,1945,1945-TWCABLE,3235 Manchester Rd.,OH,44319
Time Warner,Akron,1946,1946-TWCABLE,3979 Medina Rd. Rt.18,OH,44333
Time Warner,Akron,1947,1947-TWCABLE,1750 Goodyear Blvd Ste B,OH,44305
Time Warner,Akron,1948,1948-TWCABLE,250 E. Cuyahoga Falls Ave,OH,44310
Time Warner,Akron,1949,1949-TWCABLE,2062 Romig Rd,OH,44320
Time Warner,Akron,1950,1950-TWCABLE,1902 Buchholzer Blvd,OH,44310
Time Warner,Akron,1951,1951-TWCABLE,1731 Wooster Ave,OH,44320
Time Warner,Akron,1952,1952-TWCABLE,1287 S. Arlington St,OH,44306
Time Warner,Akron,1953,1953-TWCABLE,380 E. South St.,OH,44311
Time Warner,Akron,1954,1954-TWCABLE,1206 Manchester Rd,OH,44307
Time Warner,Akron,1955,1955-TWCABLE,854 E Buchtel Ave,OH,44305
Time Warner,Akron,1956,1956-TWCABLE,901 Kenmore Blvd,OH,44314
Time Warner,Akron,1957,1957-TWCABLE,1230 S. Arlington St,OH,44306
Time Warner,Akron,1958,1958-TWCABLE,1584 S Hawkins Ave,OH,44320
Time Warner,Akron,1959,1959-TWCABLE,3100 Manchester Rd,OH,44319
Time Warner,Akron,1960,1960-TWCABLE,1658 Brittain Rd,OH,44310
Time Warner,Akron,1961,1961-TWCABLE,1509 S Arlington St,OH,44306
Time Warner,Akron,1962,1962-TWCABLE,1619 S Hawkins Ave,OH,44320
Time Warner,Akron,1963,1963-TWCABLE,2801 E Waterloo Rd,OH,44312
Time Warner,Akron,1964,1964-TWCABLE,484 E Waterloo Rd,OH,44319
Time Warner,Portland,1966,1966-TWCABLE,821 Market St.,TX,78374
Time Warner,Akron,1967,1967-TWCABLE,1525 S. Hawkins Ave,OH,44320
Time Warner,Akron,1968,1968-TWCABLE,1500 Canton Rd,OH,44312
Time Warner,Akron,1969,1969-TWCABLE,1400 S Arlington St,OH,44306
Time Warner,Akron,1973,1973-TWCABLE,1400 S. Arlington St,OH,44306
Time Warner,Akron,1974,1974-TWCABLE,2500 N Turkeyfoot Rd,OH,44319
Time Warner,Akron,1975,1975-TWCABLE,598 E Waterloo Rd,OH,44319
Time Warner,Albion,1976,1976-TWCABLE,23 E State St,PA,16401
Time Warner,Alliance,1977,1977-TWCABLE,1320 W State St,OH,44601
Time Warner,Alliance,1978,1978-TWCABLE,1800 W State St,OH,44601
Time Warner,Alliance,1979,1979-TWCABLE,22810 Alliance-sebring Rd,OH,44601
Time Warner,Alliance,1980,1980-TWCABLE,475 E State St,OH,44601
Time Warner,Ashtabula,1981,1981-TWCABLE,2606 W Prospect Rd,OH,44004
Time Warner,Barberton,1982,1982-TWCABLE,926 Wooster Rd,OH,44203
Time Warner,Barberton,1983,1983-TWCABLE,41 5th St Se,OH,44203
Time Warner,Berea,1984,1984-TWCABLE,815 N Rocky River Dr,OH,44017
Time Warner,Berea,1985,1985-TWCABLE,50 W Bridge St,OH,44017
Time Warner,Bolivar,1986,1986-TWCABLE,23236 Giant Eagle,OH,44612
Time Warner,Brecksville,1987,1987-TWCABLE,7510 Chippewa Rd,OH,44141
Time Warner,Brooklyn,1988,1988-TWCABLE,6300 Biddulph Rd,OH,44144
Time Warner,Brookpark,1989,1989-TWCABLE,13375 Snow Rd,OH,44142
Time Warner,Brookpark,1990,1990-TWCABLE,14650 Snow Rd,OH,44142
Time Warner,Brunswick,1991,1991-TWCABLE,1733 Pearl Rd,OH,44212
Time Warner,Bucyrus,1992,1992-TWCABLE,1669 Marion Rd,OH,44820
Time Warner,Canfield,1993,1993-TWCABLE,525 E Main St,OH,44406
Time Warner,Canton,1994,1994-TWCABLE,2549 16th St Ne,OH,44705
Time Warner,Canton,1996,1996-TWCABLE,1100 12th St Nw,OH,44703
Time Warner,Canton,1997,1997-TWCABLE,2802 Whipple Ave Nw,OH,44708
Time Warner,Canton,1998,1998-TWCABLE,4408 W Tuscarawas St,OH,44708
Time Warner,Canton,1999,1999-TWCABLE,1300 Tuscarawas St,OH,44707
Time Warner,Canton,2000,2000-TWCABLE,3228 Cleveland Ave Nw,OH,44709
Time Warner,Canton,2001,2001-TWCABLE,2820 Tuscarawas St W,OH,44710
Time Warner,Canton,2002,2002-TWCABLE,4313 Tuscarawas St W,OH,44710
Time Warner,Canton,2003,2003-TWCABLE,2341 Columbus Rd Ne,OH,44705
Time Warner,Canton,2004,2004-TWCABLE,608 Raff Rd Sw,OH,44710
Time Warner,Canton,2005,2005-TWCABLE,3100 Cromer Ave Nw,OH,44709
Time Warner,Canton,2006,2006-TWCABLE,3325 Harmont Ave Ne,OH,44705
Time Warner,Canton,2007,2007-TWCABLE,805 Mckinley Ave,OH,44707
Time Warner,Canton,2008,2008-TWCABLE,3400 17th St Nw,OH,44706
Time Warner,Canton,2009,2009-TWCABLE,2240 Tuscarawas St W,OH,44708
Time Warner,Canton,2010,2010-TWCABLE,2019 Harrisburg Rd Ne,OH,44705
Time Warner,Chardon,2011,2011-TWCABLE,351 Center St,OH,44024
Time Warner,Cleveland,2012,2012-TWCABLE,7602 Madison Ave,OH,44102
Time Warner,Cleveland,2013,2013-TWCABLE,5802 Storer Ave,OH,44102
Time Warner,Cleveland,2014,2014-TWCABLE,14585 Lorain Ave,OH,44111
Time Warner,Cleveland,2015,2015-TWCABLE,655 Prospect Ave E,OH,44115
Time Warner,Cleveland,2016,2016-TWCABLE,4660 Ridge Rd,OH,44144
Time Warner,Cleveland,2018,2018-TWCABLE,562 E 185th St,OH,44119
Time Warner,Cleveland,2019,2019-TWCABLE,5817 Mayfield Rd,OH,44124
Time Warner,Cleveland,2020,2020-TWCABLE,8043 Euclid Ave,OH,44103
Time Warner,Cleveland,2021,2021-TWCABLE,13520 Euclid Ave,OH,44112
Time Warner,Cleveland,2022,2022-TWCABLE,4180 Pearl Rd,OH,44109
Time Warner,Cleveland,2023,2023-TWCABLE,7205 Lorain Ave,OH,44102
Time Warner,Cleveland,2024,2024-TWCABLE,4701 Storer Ave,OH,44102
Time Warner,Cleveland,2025,2025-TWCABLE,4163 Rocky River Dr,OH,44135
Time Warner,Cleveland,2026,2026-TWCABLE,16122 Lake Shore,OH,44110
Time Warner,Cleveland,2027,2027-TWCABLE,3050 W 117th St,OH,44111
Time Warner,Cleveland,2028,2028-TWCABLE,15325 Edgecliff Ave,OH,44111
Time Warner,Cleveland,2029,2029-TWCABLE,13820 Lorain Ave,OH,44111
Time Warner,Cleveland,2030,2030-TWCABLE,11501 Buckeye Rd,OH,44104
Time Warner,Cleveland,2031,2031-TWCABLE,7939 Day Dr,OH,44129
Time Warner,Cleveland,2032,2032-TWCABLE,3224 Euclid Ave,OH,44115
Time Warner,Cleveland,2033,2033-TWCABLE,8404 Carnegie Ave,OH,44106
Time Warner,Cleveland,2034,2034-TWCABLE,7515 Kinsman Rd,OH,44104
Time Warner,Cleveland,2035,2035-TWCABLE,7911 Carnegie Ave,OH,44103
Time Warner,Cleveland,2036,2036-TWCABLE,14201 Kinsman Rd,OH,44120
Time Warner,Cleveland,2037,2037-TWCABLE,3456 W 25th St,OH,44109
Time Warner,Cleveland,2038,2038-TWCABLE,2168 W 117th St,OH,44102
Time Warner,Cleveland,2039,2039-TWCABLE,3114 Clark Ave,OH,44113
Time Warner,Cleveland,2040,2040-TWCABLE,1208 E 105th St,OH,44108
Time Warner,Cleveland,2041,2041-TWCABLE,6206 Broadway Ave,OH,44127
Time Warner,Cleveland Hts,2042,2042-TWCABLE,2230 Noble Rd,OH,44121
Time Warner,Corry,2043,2043-TWCABLE,731 N. Center St,PA,16407
Time Warner,Cuyahoga Falls,2044,2044-TWCABLE,2226 State Rd,OH,44223
Time Warner,Cuyahoga Falls,2045,2045-TWCABLE,2630 Bailey Rd,OH,44221
Time Warner,Cuyahoga Falls,2046,2046-TWCABLE,2020 State Rd,OH,44223
Time Warner,Cuyahoga Falls,2047,2047-TWCABLE,696 Howe Ave,OH,44221
Time Warner,Dover,2048,2048-TWCABLE,810 N Tuscarawas Ave,OH,44622
Time Warner,Dover,2049,2049-TWCABLE,515 Union Ave,OH,44622
Time Warner,East Canton,2050,2050-TWCABLE,406 W. Noble St,OH,44730
Time Warner,Cleveland,2051,2051-TWCABLE,15545 Euclid Ave,OH,44112
Time Warner,Cleveland,2052,2052-TWCABLE,14333 Euclid,OH,44112
Time Warner,Eastlake,2053,2053-TWCABLE,33419 Vine St,OH,44095
Time Warner,Eastlake,2054,2054-TWCABLE,34750 Vine St,OH,44095
Time Warner,Edinboro,2055,2055-TWCABLE,606 Erie St,PA,16412
Time Warner,Erie,2056,2056-TWCABLE,2501 W 12th St,PA,16505
Time Warner,Erie,2057,2057-TWCABLE,2877 W 26th St,PA,16506
Time Warner,Erie,2058,2058-TWCABLE,4500 Buffalo Rd,PA,16510
Time Warner,Erie,2059,2059-TWCABLE,7200 Peach St,PA,16509
Time Warner,Erie,2060,2060-TWCABLE,3502 Station Rd,PA,16510
Time Warner,Erie,2061,2061-TWCABLE,810-16 Parade St,PA,16503
Time Warner,Erie,2062,2062-TWCABLE,1903 W 8th St,PA,16505
Time Warner,Erie,2063,2063-TWCABLE,601 E 24th St,PA,16503
Time Warner,Erie,2064,2064-TWCABLE,605 Parade St,PA,16507
Time Warner,Erie,2065,2065-TWCABLE,431 State St,PA,16501
Time Warner,Euclid,2066,2066-TWCABLE,22318 Lakeshore Ave,OH,44123
Time Warner,Fairlawn,2067,2067-TWCABLE,2775 W Market St,OH,44333
Time Warner,Akron,2069,2069-TWCABLE,2775 W Market St,OH,44333
Time Warner,Fairlawn,2070,2070-TWCABLE,3750 W Market St,OH,44333
Time Warner,Fairview Park,2071,2071-TWCABLE,21593 Lorain Rd,OH,44126
Time Warner,Garfield Hts,2072,2072-TWCABLE,12634 Rockside Rd,OH,44125
Time Warner,Garfield Hts,2073,2073-TWCABLE,5744 Transportation Blvd,OH,44125
Time Warner,Girard,2074,2074-TWCABLE,9215 Ridge Rd,PA,16471
Time Warner,Greenville,2075,2075-TWCABLE,181 Hadley Rd,PA,16125
Time Warner,Hartville,2076,2076-TWCABLE,907 W Maple St,OH,44632
Time Warner,Kent,2077,2077-TWCABLE,1709 State Rte 59,OH,44240
Time Warner,Lake City,2078,2078-TWCABLE,10543 Old Lake Rd,PA,16423
Time Warner,Lodi,2079,2079-TWCABLE,711 Wooster St,OH,44254
Time Warner,Lorain,2080,2080-TWCABLE,435 W 4th St,OH,44052
Time Warner,Lorain,2081,2081-TWCABLE,2193 North Ridge Rd,OH,44055
Time Warner,Lorain,2082,2082-TWCABLE,4375 Oberlin Ave,OH,44053
Time Warner,Lorain,2083,2083-TWCABLE,2239 Leavitt Rd,OH,44052
Time Warner,Louisville,2084,2084-TWCABLE,1338 N Chapel St,OH,44641
Time Warner,Lyndhurst,2085,2085-TWCABLE,25105 Cedar Rd,OH,44124
Time Warner,Mansfield,2086,2086-TWCABLE,165 E 2nd St,OH,44902
Time Warner,Mansfield,2088,2088-TWCABLE,991 Ashland Rd,OH,44905
Time Warner,Mansfield,2089,2089-TWCABLE,1406-b Lexington Ave,OH,44907
Time Warner,Massillon,2091,2091-TWCABLE,59 Lincoln Way E Ste 100,OH,44646
Time Warner,Mentor,2093,2093-TWCABLE,9354 Mentor Ave,OH,44060
Time Warner,Mentor,2095,2095-TWCABLE,7454 Mentor Ave,OH,44060
Time Warner,Mentor,2097,2097-TWCABLE,7290 Mentor Ave,OH,44060
Time Warner,Middlefield,2099,2099-TWCABLE,15400 W High St,OH,44062
Time Warner,New Middletown,2101,2101-TWCABLE,11045 Main St,OH,44442
Time Warner,Niles,2103,2103-TWCABLE,5614 Youngstown-warren R,OH,44446
Time Warner,Niles,2105,2105-TWCABLE,1108 Niles-cortland Rd,OH,44446
Time Warner,North Canton,2107,2107-TWCABLE,6493 Strip Ave Nw,OH,44720
Time Warner,N Olmstead,2109,2109-TWCABLE,24755 Lorain Rd,OH,44070
Time Warner,N Royalton,2111,2111-TWCABLE,6000 Royalton Rd,OH,44133
Time Warner,,2113,2113-TWCABLE,3200 Greenwich Rd,,44203
Time Warner,,2115,2115-TWCABLE,171 Milan Ave,,44857
Time Warner,,2117,2117-TWCABLE,137 Richmond St,,44077
Time Warner,,2119,2119-TWCABLE,1225 W Pleasant Valley Rd,,44134
Time Warner,,2121,2121-TWCABLE,5813 Pearl Rd,,44129
Time Warner,,2123,2123-TWCABLE,7311 Brookpark Rd,,44129
Time Warner,,2125,2125-TWCABLE,909 E Main St,,44266
Time Warner,,2127,2127-TWCABLE,4260 State Route 44,,44272
Time Warner,,2129,2129-TWCABLE,201 S Lincoln Ave,,44460
Time Warner,,2131,2131-TWCABLE,4401 Mayfield Rd,,44121
Time Warner,,2133,2133-TWCABLE,4445 Kent Rd,,44224
Time Warner,,2135,2135-TWCABLE,4300 Kent Rd,,44224
Time Warner,,2137,2137-TWCABLE,982 5th St,,44471
Time Warner,,2139,2139-TWCABLE,161 Lowellville,,44471
Time Warner,,2141,2141-TWCABLE,525 South Ave,,44278
Time Warner,,2143,2143-TWCABLE,110 S Martin St,,16354
Time Warner,,2145,2145-TWCABLE,1700 Corporate Woods Parkway,,44685
Time Warner,,2147,2147-TWCABLE,825 Ambassador Dr,,44281
Time Warner,,2149,2149-TWCABLE,1956 Elm Rd Ne,,44483
Time Warner,,2151,2151-TWCABLE,2700 Mahoning Ave Nw,,44483
Time Warner,,2153,2153-TWCABLE,4575 Northfield Rd,,44128
Time Warner,,2155,2155-TWCABLE,34302 Euclid A,,44094
Time Warner,,2157,2157-TWCABLE,27505 Chardon Rd,,44092
Time Warner,,2159,2159-TWCABLE,1600 S Raccoon Rd Ste 3,,44515
Time Warner,,2161,2161-TWCABLE,66 Boardman Poland Rd,,44512
Time Warner,,2163,2163-TWCABLE,3950 Belmont Ave,,44505
Time Warner,,2165,2165-TWCABLE,1698 S Raccoon Rd,,44515
Time Warner,,2167,2167-TWCABLE,1201 Doral Rd,,44514
Time Warner,,2169,2169-TWCABLE,3026 Belmont Ave,,44505
Time Warner,,2171,2171-TWCABLE,5021 Market St,,44512
Time Warner,,2173,2173-TWCABLE,3233 Belmont Ave,,44505
Time Warner,,2175,2175-TWCABLE,4496 Mahoning Ave,,44515
Time Warner,,2177,2177-TWCABLE,711 Canton Rd.,,44312
Time Warner,,2182,2182-TWCABLE,300 Leavitt Rd.,,44001
Time Warner,,2183,2183-TWCABLE,3032 N Ridge Rd. East,,44004
Time Warner,,2184,2184-TWCABLE,33552 Detroit Road,,44001
Time Warner,,2185,2185-TWCABLE,33382 Walker Rd.,,44012
Time Warner,,2186,2186-TWCABLE,4730 Hills & Dales Nw,,44708
Time Warner,,2187,2187-TWCABLE,592 12th Street N.w.,,44615
Time Warner,,2188,2188-TWCABLE,16765 Chillicothe Rd.,,44023
Time Warner,,2189,2189-TWCABLE,12575 Chillicothe Rd.,,44026
Time Warner,,2190,2190-TWCABLE,17815 Puritas Ave.,,44135
Time Warner,,2191,2191-TWCABLE,4170 Fulton Rd.,,44144
Time Warner,,2192,2192-TWCABLE,3889 East 71st St.,,44105
Time Warner,,2193,2193-TWCABLE,1062 W Mcpherson Hwy,,43410
Time Warner,,2194,2194-TWCABLE,655 West Portage Trail,,44221
Time Warner,,2195,2195-TWCABLE,3015 North Wooster Ave.,,44622
Time Warner,,2196,2196-TWCABLE,34100 Vine St.,,44095
Time Warner,,2197,2197-TWCABLE,500 Abbe Rd.,,44035
Time Warner,,2198,2198-TWCABLE,110 Chestnut Commons,,44035
Time Warner,,2199,2199-TWCABLE,725 East 200th St.,,44119
Time Warner,,2200,2200-TWCABLE,765 Alpha Drive,,44143
Time Warner,,2201,2201-TWCABLE,5863 Darrow Rd.,,44236
Time Warner,,2202,2202-TWCABLE,420 Cleveland Rd. East,,44839
Time Warner,,2203,2203-TWCABLE,6160 Brecksville Rd.,,44131
Time Warner,,2204,2204-TWCABLE,107 South Chestnut St.,,44047
Time Warner,,2205,2205-TWCABLE,1763 E. Main St.,,44240
Time Warner,,2206,2206-TWCABLE,15412 Detroit Avenue,,44107
Time Warner,,2207,2207-TWCABLE,11900 Detroit Ave.,,44107
Time Warner,,2208,2208-TWCABLE,661 Wooster Street,,44254
Time Warner,,2209,2209-TWCABLE,2253 Colorado Ave.,,44052
Time Warner,,2210,2210-TWCABLE,6148 Dunham Rd.,,44137
Time Warner,,2211,2211-TWCABLE,8500 Mentor Ave.,,44060
Time Warner,,2212,2212-TWCABLE,1145 Alliance Rd Nw,,44657
Time Warner,,2213,2213-TWCABLE,238 Second St. Nw,,44663
Time Warner,,2214,2214-TWCABLE,1695 North Main St.,,44720
Time Warner,,2215,2215-TWCABLE,4925 Portage St. Nw,,44720
Time Warner,,2216,2216-TWCABLE,24485 Lorain Rd.,,44070
Time Warner,,2217,2217-TWCABLE,5500 Wallings Rd.,,44133
Time Warner,,2218,2218-TWCABLE,201 Cline St.,,44857
Time Warner,,2219,2219-TWCABLE,12289 Leavitt Rd.,,44074
Time Warner,,2220,2220-TWCABLE,8191 Columbia Rd.,,44138
Time Warner,,2221,2221-TWCABLE,25 Briggs Road,,44862
Time Warner,,2222,2222-TWCABLE,6476 York Rd.,,44130
Time Warner,,2223,2223-TWCABLE,"3100 Glenwood Dr, Suite 294",,44087
Time Warner,,2224,2224-TWCABLE,5298 Detroit Road,,44035
Time Warner,,2225,2225-TWCABLE,219 Mansfield Ave.,,44875
Time Warner,,2226,2226-TWCABLE,13919 Prospect Rd,,44149
Time Warner,,2227,2227-TWCABLE,4044 Fishcreek Rd.,,44224
Time Warner,,2228,2228-TWCABLE,1155 East Wyandot Ave.,,43351
Time Warner,,2229,2229-TWCABLE,4208 Liberty Ave.,,44089
Time Warner,,2230,2230-TWCABLE,1005 High St.,,44281
Time Warner,,2231,2231-TWCABLE,27300 Detroit Avenue,,44145
Time Warner,,2232,2232-TWCABLE,307? W. Walton Ave.,,44890
Time Warner,,2233,2233-TWCABLE,629 Beall Ave.,,44691
