keywords,city,Agg store_number,store_number,address,state,zip_code
Toys R US,CAMARILLO,5749,#5749,CAMARILLO OUTLETS 900 CAMARILLO CENTER,CA,93010
Toys R US,OXFORD,7287,#7287,QUINTARD MALL 700 QUINTARD DRIVE,AL,36203
Toys R US,CEDAR HILL,7808,#7808,428 E. FM 1382,TX,75104
Toys R US,PEARLAND,5508,#5508,PEARLAND TOWN CENTER 11200 BROADWAY STREET,TX,77584
Toys R US,MIAMI,5514,#5514,MIRACLE MARKETPLACE 3301 CORAL WAY,FL,33145
Toys R US,ZANESVILLE,5521,#5521,COLONY SQUARE MALL 3575 MAPLE AVENUE,OH,43701
Toys R US,GREENDALE,5543,#5543,SOUTHRIDGE MALL 5300 SOUTH 76TH STREET,WI,53129
Toys R US,KAHULUI,5544,#5544,QUEEN KA'AHUMANU CENTER 275 W. KA'AHUMANU AVE,HI,96732
Toys R US,MIAMI,5571,#5571,SHOPS AT MIDTOWN MIAMI 3401 N. MIAMI AVE,FL,33127
Toys R US,GARLAND,5573,#5573,320 WINE CUP WAY,TX,75040
Toys R US,UPLAND,5579,#5579,1295 EAST 19TH ST,CA,91784
Toys R US,VAN NUYS,5602,#5602,16040 SHERMAN WAY,CA,91406
Toys R US,BURBANK,5603,#5603,683 NORTH VICTORY BOULEVARD,CA,91502
Toys R US,WEST COVINA,5604,#5604,960 LAKES DRIVE,CA,91790
Toys R US,BAKERSFIELD,5605,#5605,3792 MING AVENUE,CA,93309
Toys R US,LAS VEGAS,5607,#5607,4550 MEADOWS LANE,NV,89107
Toys R US,LAS VEGAS,5609,#5609,4000 S. MARYLAND PARKWY,NV,89119
Toys R US,WOODLAND HILLS,5610,#5610,6245 TOPANGA CANYON BLV,CA,91367
Toys R US,RIVERSIDE,5611,#5611,10391 MAGNOLIA AVENUE,CA,92505
Toys R US,VENTURA,5613,#5613,2975 JOHNSON DRIVE,CA,93004
Toys R US,CITY OF INDUSTRY,5614,#5614,1600 S. AZUSA AVENUE,CA,91716
Toys R US,LANCASTER,5615,#5615,1335 WEST AVENUE K,CA,93534
Toys R US,LOS ANGELES,5616,#5616,1833 LA CIENEGA BOULEVARD,CA,90035
Toys R US,THOUSAND OAKS,5617,#5617,179 N. MOORPARK ROAD,CA,91360
Toys R US,RIVERSIDE,5618,#5618,2550 CANYON SPRINGS PKW SUITE J,CA,92507
Toys R US,VICTORVILLE,5619,#5619,12450 AMARGOSA ROAD,CA,92392
Toys R US,INDIO,5620,#5620,42500 JACKSON STREET,CA,92203
Toys R US,BUENA PARK,5621,#5621,8371 LA PALMA AVENUE,CA,90620
Toys R US,TORRANCE,5622,#5622,22035 HAWTHORNE BOULEVARD,CA,90503
Toys R US,CHULA VISTA,5625,#5625,1008A INDUSTRIAL BOULEVARD,CA,91911
Toys R US,LA MESA,5626,#5626,8790 GROSSMONT BOULEVARD,CA,91941
Toys R US,OCEANSIDE,5627,#5627,2425 VISTA WAY,CA,92054
Toys R US,SAN DIEGO,5628,#5628,1240 WEST MORENA BOULEVARD,CA,92110
Toys R US,BELL GARDENS,5629,#5629,7102 EASTERN AVENUE,CA,90201
Toys R US,CERRITOS,5630,#5630,11340 EAST SOUTH STREET,CA,90701
Toys R US,CULVER CITY,5632,#5632,11136 JEFFERSON BOULEVARD,CA,90230
Toys R US,ESCONDIDO,5633,#5633,1240 AUTO PARKWAY SOUTH,CA,92029
Toys R US,HUNTINGTON BEACH,5634,#5634,7212 EDINGER AVENUE,CA,92647
Toys R US,SANTA MARIA,5636,#5636,1411 SOUTH BRADLEY,CA,93454
Toys R US,FONTANA,5637,#5637,16795 VALLEY BOULEVARD,CA,92334
Toys R US,TUSTIN,5638,#5638,2882 EL CAMINO REAL,CA,92780
Toys R US,AIEA,5639,#5639,98-211 PALI MOMI STREET,HI,96701
Toys R US,TUCSON,5640,#5640,4525 NORTH ORACLE ROAD,AZ,85705
Toys R US,GOODYEAR,5641,#5641,15325 W. MCDOWELL ROAD,AZ,85338
Toys R US,PHOENIX,5644,#5644,245 E. BELL ROAD,AZ,85022
Toys R US,PHOENIX,5645,#5645,12801 NORTH TATUM BOULEVARD,AZ,85032
Toys R US,TUCSON,5646,#5646,5355 EAST BROADWAY BOULEVARD,AZ,85711
Toys R US,FULLERTON,5647,#5647,1100 SOUTH HARBOR BOULEVARD,CA,92832
Toys R US,MURRIETA,5649,#5649,39855 ALTA MURIETTA DRI,CA,92562
Toys R US,HAWTHORNE,5650,#5650,14705 OCEANGATE AVENUE,CA,90250
Toys R US,MESA,5651,#5651,1516 SOUTH POWER ROAD,AZ,85206
Toys R US,SCOTTSDALE,5652,#5652,9139 INDIAN BEND ROAD,AZ,85250
Toys R US,NATIONAL CITY,5653,#5653,1100 EAST 30TH STREET,CA,91950
Toys R US,MONTEBELLO,5654,#5654,1445 MONTEBELLO BOULEVARD,CA,90640
Toys R US,MONROVIA,5655,#5655,660 W. HUNINGTON DRIVE,CA,91016
Toys R US,CHINO HILLS,5657,#5657,4635 CHINO HILLS PARKWY,CA,91709
Toys R US,CALEXICO,5658,#5658,2600 ROCKWOOD AVENUE,CA,92231
Toys R US,MISSION VIEJO,5659,#5659,25362 EL PASEO ROAD,CA,92691
Toys R US,HENDERSON,5661,#5661,1425 W SUNSET ROAD,NV,89014
Toys R US,ALHAMBRA,5662,#5662,2500 W COMMONWEALTH AVENUE,CA,91802
Toys R US,YUMA,5663,#5663,801 WEST 32ND STREET,AZ,85365
Toys R US,GLENDALE,5664,#5664,7430 WEST BELL ROAD,AZ,85308
Toys R US,NEWHALL,5666,#5666,25510 THE OLD ROAD,CA,91381
Toys R US,LOS ANGELES,5667,#5667,2905 LOS FELIZ BOULEVARD,CA,90039
Toys R US,NORTHRIDGE,5681,#5681,11460 PORTER RANCH DR,CA,91326
Toys R US,CHANDLER,5682,#5682,840 NORTH 54TH STREET,AZ,85226
Toys R US,ONTARIO,5683,#5683,4460 ONTARIO MILLS PARKWAY,CA,91764
Toys R US,VISALIA,5684,#5684,2800 S. MOONEY BOULEVARD,CA,93277
Toys R US,MURRAY,5685,#5685,5968 SOUTH STATE STREET,UT,84107
Toys R US,WEST VALLEY CITY,5686,#5686,3550 CONSTITUTION BLV,UT,84119
Toys R US,SALT LAKE CITY,5688,#5688,2210 S 1300 EAST ST,UT,84106
Toys R US,OREM,5689,#5689,86 EAST UNIVERSITY PARKWAY,UT,84058
Toys R US,LAYTON,5691,#5691,1780 WOODLAND PARK DRIVE,UT,84041
Toys R US,PEARL,5748,#5748,OUTLETS OF MISSISSIPPI 200 BASS PRO DRIVE,MS,39288
Toys R US,DAWSONVILLE,5750,#5750,NORTH GEORGIA OUTLETS 800 HWY 400 S.,GA,30534
Toys R US,BARCELONETA,5751,#5751,PUERTO RICO OUTLETS 1 PREMIUM OUTLETS BLVD,PR,617
Toys R US,ROUND ROCK,5752,#5752,ROUND ROCK OUTLETS 4401 NORTH IH-35,TX,78664
Toys R US,SAN DIEGO,5754,#5754,LAS AMERICAS OUTLETS 4345 CAMINO DE LA PLAZA,CA,92173
Toys R US,NASHVILLE,5755,#5755,OPRY MILLS MALL 433 OPRY MILLS DRIVE,TN,37214
Toys R US,WOODSTOCK,5756,#5756,OUTLETS AT ATLANTA 915 RIDGEWALK PARKWAY,GA,30188
Toys R US,CHESTERFIELD,5757,#5757,ST. LOUIS OUTLETS 18521 OUTLET BLVD.,MO,63005
Toys R US,TAMPA,5758,#5758,CITRUS PARK MALL 8021 CITRUS PARK TOWN C,FL,33625
Toys R US,AVENTURA,5761,#5761,TRU AVENTURA 2747 NE 193RD STREET,FL,33180
Toys R US,LANGHORNE,5770,#5770,OXFORD VALLEY MALL 2300 EAST LINCOLN ROAD,PA,19047
Toys R US,VICTOR,5771,#5771,EASTVIEW MALL 764 EASTVIEW MALL,NY,14564
Toys R US,HILO,5773,#5773,PRINCE KUHIO PLAZA MALL 111 EAST PUAINAKO,HI,96720
Toys R US,BRIDGEPORT,5775,#5775,MEADOWBROOK MALL 2399 MEADOWBROOK RD,WV,26330
Toys R US,ALTAMONTE SPRINGS,5778,#5778,ALTAMONTE MALL 451 E. ALTAMONTE DRIVE,FL,32701
Toys R US,CHULA VISTA,5783,#5783,OTAY RANCH TOWN CENTER 2015 BIRCH ROAD,CA,91915
Toys R US,FRESNO,5802,#5802,3520 WEST SHAW AVENUE,CA,93711
Toys R US,PLEASANT HILL,5803,#5803,568 CONTRA COSTA BOULEVARD,CA,94523
Toys R US,PINOLE,5804,#5804,1330 FITZGERALD DRIVE,CA,94564
Toys R US,RENO,5805,#5805,5000 SMITH RIDGE DRIVE,NV,89502
Toys R US,ELK GROVE,5806,#5806,8507 BOND ROAD BLDG A,CA,95624
Toys R US,SACRAMENTO,5807,#5807,1919 ARDEN WAY,CA,95815
Toys R US,CITRUS HEIGHTS,5808,#5808,7800 GREENBACK LANE,CA,95610
Toys R US,MODESTO,5809,#5809,2700 SISK ROAD,CA,95350
Toys R US,STOCKTON,5810,#5810,718 WEST HAMMER LANE,CA,95210
Toys R US,DUBLIN,5811,#5811,6850 AMADOR PLAZA ROAD,CA,94568
Toys R US,SAN JOSE,5813,#5813,751 S. WINCHESTER BOULEVARD,CA,95128
Toys R US,SUNNYVALE,5814,#5814,130 EAST EL CAMINO REAL,CA,94087
Toys R US,SANTA ROSA,5815,#5815,2705 SANTA ROSA AVENUE,CA,95407
Toys R US,HAYWARD,5817,#5817,24011 HESPERIAN BOULEVARD,CA,94541
Toys R US,SAN JOSE,5818,#5818,1082 BLOSSOM HILL ROAD,CA,95123
Toys R US,SAN JOSE,5819,#5819,2179 MONTEREY HIGHWAY,CA,95125
Toys R US,SALINAS,5820,#5820,370 NORTH RIDGE CENTER,CA,93906
Toys R US,REDWOOD CITY,5821,#5821,202 WALNUT STREET,CA,94063
Toys R US,FREMONT,5822,#5822,43756 CHRISTY STREET,CA,94538
Toys R US,CHICO,5824,#5824,1919 EAST 20TH STREET,CA,95928
Toys R US,PITTSBURG,5825,#5825,4505 CENTURY BOULEVARD,CA,94565
Toys R US,SAN RAFAEL,5829,#5829,600 FRANCISCO BOULEVARD,CA,94901
Toys R US,YUBA CITY,5832,#5832,700 A ONSTOTT ROAD,CA,95993
Toys R US,MEDFORD,5839,#5839,1300 BIDDLE ROAD,OR,97504
Toys R US,CLOVIS,5841,#5841,1425 SHAW AVENUE,CA,93611
Toys R US,ROSEVILLE,5842,#5842,6780 STANFORD RANCH ROAD,CA,95678
Toys R US,SANTA CRUZ,5843,#5843,1660 COMMERCIAL WAY,CA,95065
Toys R US,SAN MATEO,5845,#5845,2270 BRIDGEPOINT PWY,CA,94404
Toys R US,PEORIA,6002,#6002,2601 WEST LAKE AVENUE,IL,61615
Toys R US,SPRINGFIELD,6003,#6003,2701 VETERANS PARKWAY,IL,62704
Toys R US,BURBANK,6004,#6004,8148 S. CICERO AVENUE,IL,60459
Toys R US,MELROSE PARK,6005,#6005,9200 W. NORTH AVENUE,IL,60160
Toys R US,NILES,6006,#6006,9555 N. MILWAUKEE AVENUE,IL,60714
Toys R US,BLOOMINGTON,6008,#6008,1703 EAST EMPIRE,IL,61701
Toys R US,SCHAUMBURG,6009,#6009,1111 EAST GOLF ROAD,IL,60173
Toys R US,DOWNERS GROVE,6010,#6010,1434 BUTTERFIELD ROAD,IL,60515
Toys R US,DOWNERS GROVE,6012,#6012,1500 75TH STREET,IL,60516
Toys R US,MISHAWAKA,6013,#6013,6011 NORTH GRAPE ROAD,IN,46545
Toys R US,MERRILLVILLE,6015,#6015,2020 EAST LINCOLN HIGHW,IN,46410
Toys R US,NORTH RIVERSIDE,6016,#6016,7451 WEST CERMAK ROAD,IL,60546
Toys R US,AURORA,6017,#6017,4070 FOX VALLEY CNTR DR,IL,60504
Toys R US,JOLIET,6018,#6018,3128 VOYAGER LANE,IL,60435
Toys R US,CHICAGO,6019,#6019,3300 N WESTERN AVENUE,IL,60618
Toys R US,BLOOMINGDALE,6020,#6020,404 W. ARMY TRAIL ROAD,IL,60108
Toys R US,MATTESON,6021,#6021,5001 LINCOLN HIGHWAY,IL,60443
Toys R US,ALGONQUIN,6022,#6022,826 S. RANDALL ROAD,IL,60102
Toys R US,ORLAND PARK,6023,#6023,45 ORLAND SQUARE DRIVE,IL,60462
Toys R US,LAFAYETTE,6025,#6025,2324 SAGAMORE PARKWAY S.,IN,47905
Toys R US,HIGHLAND PARK,6026,#6026,1610 DEERFIELD ROAD,IL,60035
Toys R US,VERNON HILLS,6028,#6028,5555 TOWN LINE ROAD,IL,60061
Toys R US,BURNSVILLE,6029,#6029,14041 ALDRICH AVENUE,MN,55337
Toys R US,JANESVILLE,6032,#6032,2723 MILTON AVENUE,WI,53546
Toys R US,MADISON,6033,#6033,7309 WEST TOWN WAY,WI,53719
Toys R US,ROCKFORD,6034,#6034,6449 EAST STATE ST,IL,61108
Toys R US,MILWAUKEE,6035,#6035,3900 SOUTH 27TH STREET,WI,53221
Toys R US,MILWAUKEE,6036,#6036,8825 NORTH 76TH STREET,WI,53223
Toys R US,BROOKFIELD,6037,#6037,355 SOUTH MOORELAND ROA,WI,53005
Toys R US,GREEN BAY,6038,#6038,1640 WEST MASON STREET,WI,54303
Toys R US,APPLETON,6039,#6039,4411 WEST WISCONSIN AV,WI,54913
Toys R US,CEDAR RAPIDS,6040,#6040,2425 WILEY BOULEVARD,IA,52404
Toys R US,DAVENPORT,6041,#6041,200 E. KIMBERLY ROAD,IA,52806
Toys R US,BLOOMINGTON,6043,#6043,7839 SOUTHTOWN MALL,MN,55431
Toys R US,MINNETONKA,6044,#6044,14100 WAYZATA BOULEVARD,MN,55305
Toys R US,MAPLEWOOD,6046,#6046,1852 E. COUNTY ROAD D,MN,55109
Toys R US,BLAINE,6047,#6047,170 89TH AVENUE N.E.,MN,55434
Toys R US,MOLINE,6049,#6049,4555 16TH STREET,IL,61265
Toys R US,ROCHESTER,6050,#6050,808 APACHE LANE,MN,55902
Toys R US,RACINE,6051,#6051,2433 SOUTH GREEN BAY RO,WI,53406
Toys R US,GURNEE,6054,#6054,6050 GURNEE MILLS BOULEVARD,IL,60031
Toys R US,SAINT CLOUD,6056,#6056,141 PARK AVENUE S.,MN,56301
Toys R US,CHAMPAIGN,6057,#6057,40 EAST ANTHONY DRIVE,IL,61820
Toys R US,WATERLOO,6062,#6062,2039 CROSSROADS BOULEVARD,IA,50702
Toys R US,SOUTH ELGIN,6063,#6063,486 RANDALL ROAD,IL,60177
Toys R US,FLINT,6068,#6068,3250 SOUTH LINDEN,MI,48507
Toys R US,SAGINAW,6069,#6069,2800 TITTABAWASSEE ROAD,MI,48603
Toys R US,GRAND RAPIDS,6070,#6070,3445-28TH STREET SE,MI,49512
Toys R US,PORTAGE,6072,#6072,6207 SOUTH WESTNEDGE AV,MI,49002
Toys R US,GRAND RAPIDS,6074,#6074,3130 ALPINE AVENUE,MI,49544
Toys R US,JACKSON,6077,#6077,1038 JACKSON CROSSING,MI,49204
Toys R US,MUSKEGON HEIGHTS,6078,#6078,5363 HARVEY STREET,MI,49444
Toys R US,TRAVERSE CITY,6079,#6079,2620 CROSSING CIRCLE,MI,49684
Toys R US,CRYSTAL LAKE,6080,#6080,6120-A NORTHWEST HIGHWA,IL,60039
Toys R US,LAKE JACKSON,6102,#6102,BRAZOS MALL 100 HWY 332 WEST#1000,TX,77566
Toys R US,TUSCOLA,6104,#6104,TANGER OUTLETS TUSCOLA C400 TUSCOLA BLVD,IL,61953
Toys R US,SHAWNEE,6105,#6105,SHAWNEE MALL 4901 N KICKAPOO STREET,OK,74804
Toys R US,BRANDON,6120,#6120,BRANDON MALL 459 BRANDON TOWN CENTER,FL,33511
Toys R US,BROWNSVILLE,6152,#6152,SUNRISE MALL 2370 N. EXPRESSWAY,TX,78521
Toys R US,TOTOWA,6304,#6304,445 US HIGHWAY 46,NJ,7512
Toys R US,EAST BRUNSWICK,6305,#6305,581 ROUTE 18 SOUTH,NJ,8816
Toys R US,PARAMUS,6306,#6306,250 EAST ROUTE 4,NJ,7652
Toys R US,WATCHUNG,6307,#6307,1701-45 US HIGHWAY 22,NJ,7069
Toys R US,BROOKLYN,6308,#6308,2875 FLATBUSH AVENUE,NY,11234
Toys R US,MASSAPEQUA,6309,#6309,5520 SUNRISE HIGHWAY,NY,11758
Toys R US,VALLEY STREAM,6310,#6310,300 WEST SUNRISE HIGHWA,NY,11580
Toys R US,CARLE PLACE,6311,#6311,117 OLD COUNTRY ROAD,NY,11514
Toys R US,STATEN ISLAND,6312,#6312,2845 RICHMOND AVENUE,NY,10314
Toys R US,EATONTOWN,6313,#6313,137 ROUTE 35 NORTH,NJ,7724
Toys R US,ALBANY,6314,#6314,38 WOLF ROAD,NY,12205
Toys R US,JERSEY CITY,6315,#6315,641 ROUTE 440,NJ,7304
Toys R US,LAKE GROVE,6317,#6317,3250 MIDDLE COUNTRY ROAD,NY,11755
Toys R US,ISELIN,6318,#6318,675 ROUTE 1 SOUTH,NJ,8830
Toys R US,LIVINGSTON,6319,#6319,599 MOUNT PLEASANT AVENUE,NJ,7039
Toys R US,YONKERS,6320,#6320,1000 CENTRAL PARK AVENUE,NY,10704
Toys R US,TOMS RIVER,6321,#6321,1224 HOOPER AVENUE,NJ,8753
Toys R US,LITTLE NECK,6322,#6322,242-02 61ST AVENUE & DGLSTN PKWY,NY,11363
Toys R US,BROOKLYN,6323,#6323,8973-95 BAY PARKWAY,NY,11214
Toys R US,BAY SHORE,6324,#6324,1851 SUNRISE HIGHWAY,NY,11706
Toys R US,NANUET,6325,#6325,122 EAST ROUTE 59,NY,10954
Toys R US,MILFORD,6326,#6326,330 OLDGATE LANE,CT,6460
Toys R US,UNION,6329,#6329,1701 MORRIS AVENUE,NJ,7083
Toys R US,PARAMUS,6330,#6330,634 RIDGEWOOD AVENUE AT ROUTE 17N,NJ,7652
Toys R US,POUGHKEEPSIE,6331,#6331,463 SOUTH ROAD,NY,12601
Toys R US,DANBURY,6332,#6332,19 BACKUS AVENUE,CT,6810
Toys R US,FLUSHING,6333,#6333,66-26 METROPOLITAN AVEN,NY,11379
Toys R US,RARITAN,6334,#6334,451 ROUTE 28,NJ,8869
Toys R US,ROCKAWAY,6335,#6335,MALL RING ROAD ROCKAWAY SQUARE MALL,NJ,7866
Toys R US,BRONX,6336,#6336,350 BAY CHESTER AVENUE BAY PLAZA,NY,10475
Toys R US,MIDDLETOWN,6337,#6337,88 DUNNING ROAD,NY,10940
Toys R US,LONG ISLAND CITY,6338,#6338,3540 48TH STREET,NY,11101
Toys R US,JEFFERSON VALLEY,6339,#6339,621 BANK STREET,NY,10535
Toys R US,CLIFTON PARK,6341,#6341,17 CLIFTON COUNTY ROAD,NY,12065
Toys R US,FREEHOLD,6342,#6342,600 TROTTER WAY,NJ,7728
Toys R US,HAZLET,6343,#6343,3035 ROUTE 35 NORTH HAZLET PLAZA,NJ,7730
Toys R US,WAYNE,6344,#6344,7 WAYNE HILLS MALL,NJ,7470
Toys R US,WHITE PLAINS,6347,#6347,7 CITY PLACE,NY,10601
Toys R US,HOLBROOK,6350,#6350,5801 SUNRISE HIGHWAY,NY,11741
Toys R US,BRONX,6352,#6352,970 WHITE PLAINS ROAD,NY,10473
Toys R US,NORWALK,6353,#6353,59 CONNECTICUT AVENUE,CT,6851
Toys R US,RIVERHEAD,6355,#6355,1151 OLD COUNTRY ROAD,NY,11901
Toys R US,KINGSTON,6356,#6356,100 VALUE DRIVE HUDSON VALLEY MALL,NY,12401
Toys R US,WHITEHALL,6359,#6359,955 GRAPE STREET,PA,18052
Toys R US,LAWRENCEVILLE,6360,#6360,3265 BRUNSWICK PIKE,NJ,8648
Toys R US,WILKES BARRE,6361,#6361,620 KIDDER STREET,PA,18702
Toys R US,SCRANTON,6362,#6362,409 SCRANTON CARBONDALE HIGHWAY,PA,18508
Toys R US,HORSEHEADS,6363,#6363,7 ARNOT ROAD,NY,14845
Toys R US,ELIZABETH,6365,#6365,900 CENTER DRIVE,NJ,7201
Toys R US,NORTH HAVEN,6366,#6366,376 UNIVERSAL DRIVE NTH,CT,6473
Toys R US,QUEENSBURY,6367,#6367,708 UPPER GLEN STREET,NY,12804
Toys R US,FAIRFAX,6368,#6368,13035 FAIR LAKES PLAZA,VA,22030
Toys R US,COMMACK,6378,#6378,108 VETERANS MEMORIAL H,NY,11725
Toys R US,PHILLIPSBURG,6382,#6382,1280 ROUTE 22 & ST. JAMES,NJ,8865
Toys R US,FLUSHING,6390,#6390,30-02 WHITESTONE EXPRES,NY,11356
Toys R US,NEW YORK,6423,#6423,1514 BROADWAY AT 44TH S,NY,10036
Toys R US,ONALASKA,6489,#6489,2906 MARKET PLACE,WI,54650
Toys R US,EMERYVILLE,6554,#6554,3938 HORTON,CA,94608
Toys R US,TOWSON,6559,#6559,1238 PUTTY HILL AVENUE,MD,21204
Toys R US,BETHEL PARK,6560,#6560,4000 OXFORD DRIVE,PA,15102
Toys R US,REDLANDS,6583,#6583,9930 ALABAMA STREET,CA,92374
Toys R US,CORONA,6622,#6622,3665 GRAND OAKS,CA,92881
Toys R US,SECAUCUS,6623,#6623,3 MILL CREEK DRIVE,NJ,7094
Toys R US,NORTH LAS VEGAS,6624,#6624,7020 NORTH 5TH STREET DEER SPRINGS TOWN CNTER,NV,89084
Toys R US,BRONX,6629,#6629,610 EXTERIOR STREET,NY,10451
Toys R US,OCEANSIDE,6630,#6630,SANDS SHOPPING CENTER 3515 LONG BEACH ROAD,NY,11572
Toys R US,RIVERHEAD,6650,#6650,TANGER RIVERHEAD TANGER MALL DRIVE,NY,11901
Toys R US,APPLEWOOD,6665,#6665,COLORADO MILLS 14500 W. COLFAX AVE,CO,80401
Toys R US,NEW YORK,6677,#6677,MANHATTAN MALL 901 AVE OF THE AMERICAS,NY,10001
Toys R US,PHILADELPHIA,6678,#6678,GALLERY AT MARKET EAST 901 MARKET STREET,PA,19107
Toys R US,REGO PARK,6753,#6753,61-35 JUNCTION BOULEVARD 2ND FLOOR,NY,11374
Toys R US,CORAL SPRINGS,6755,#6755,6001 WEST SAMPLE ROAD,FL,33067
Toys R US,MEMPHIS,6756,#6756,7676 POLO GROUND BOULEVARD,TN,38125
Toys R US,TEMPE,6764,#6764,ARIZONA MILLS OUTLETS 5000 ARIZONA MILLS CIRC,AZ,85282
Toys R US,SANTA BARBARA,6771,#6771,LA CUMBRE PLAZA MALL 121 SOUTH HOPE AVE,CA,93105
Toys R US,LOS ANGELES,6772,#6772,BALDWIN HILLS MALL 3650 W MRTN LUTHER KING,CA,90008
Toys R US,PHOENIX,6793,#6793,OUTLETS AT ANTHEM 4250 WEST ANTHEM WAY,AZ,85086
Toys R US,CITY OF COMMERCE,6794,#6794,CITADEL OUTLETS 100 CITADEL DR. ST 313,CA,90040
Toys R US,SCHAUMBURG,6856,#6856,WOODFIELD MALL 5 WOODFIELD SHOPPING CT,IL,60173
Toys R US,GURNEE,6867,#6867,GURNEE MILLS MALL 6170 W GRAND AVE,IL,60031
Toys R US,HICKSVILLE,6909,#6909,BROADWAY MALL 358 B. BROADWAY MALL,NY,11801
Toys R US,EATONTOWN,6910,#6910,MONMOUTH MALL 180 RT 35,NJ,7724
Toys R US,MYRTLE BEACH,6939,#6939,TANGER MYRTLE BEACH 501 4619 FACTORY STORES BLV,SC,29579
Toys R US,CASTLE ROCK,6952,#6952,OUTLETS AT CASTLEROCK 5050 FACTORY SHOPPES BL,CO,80104
Toys R US,PARAMUS,6966,#6966,GARDEN STATE PLAZA MALL 290 GARDEN STATE PLAZA,NJ,7652
Toys R US,POTTSTOWN,6978,#6978,PHILADELPHIA OUTLETS 18 WEST LIGHTCAP ROAD,PA,19464
Toys R US,MARY ESTHER,6984,#6984,SANTA ROSA MALL 300 MARY ESTHER BLVD,FL,32569
Toys R US,PASADENA,7002,#7002,5651 FAIRMONT PARKWAY,TX,77505
Toys R US,HOUSTON,7004,#7004,9730 KATY FREEWAY,TX,77024
Toys R US,BEAUMONT,7006,#7006,5910 EASTEX FREEWAY,TX,77708
Toys R US,SELMA,7007,#7007,8270 AGORA PARKWAY,TX,78154
Toys R US,HOUSTON,7009,#7009,17776 STATE HIGHWAY 249 SUITE 1,TX,77064
Toys R US,AUSTIN,7010,#7010,4025 CAPITOL TEXAS HIGHWAY,TX,78704
Toys R US,AUSTIN,7011,#7011,12901 HIGHWAY 35 NORTH BUILDING 8,TX,78753
Toys R US,HUMBLE,7012,#7012,20450 HIGHWAY 59 NORTH,TX,77338
Toys R US,BAYTOWN,7013,#7013,4815 I-10 E. EASTPOINT,TX,77521
Toys R US,CORPUS CHRISTI,7014,#7014,1220 AIRLINE ROAD,TX,78412
Toys R US,METAIRIE,7016,#7016,3609 VETERANS MEMORIAL,LA,70002
Toys R US,BATON ROUGE,7017,#7017,10780 NORTH MALL DR,LA,70809
Toys R US,MARRERO,7018,#7018,4800 LA PALCO BOULEVARD,LA,70072
Toys R US,WEBSTER,7019,#7019,1449 BAY AREA BOULEVARD,TX,77598
Toys R US,MONROE,7022,#7022,1350 PECAN LAND DRIVE,LA,71201
Toys R US,JACKSON,7023,#7023,1175 E. COUNTY LINE ROAD,MS,39211
Toys R US,LAFAYETTE,7026,#7026,5700 JOHNSTON STREET,LA,70506
Toys R US,EL PASO,7027,#7027,9801 GATEWAY BOULEVARD WEST,TX,79925
Toys R US,EL PASO,7028,#7028,801 MESA HILLS DRIVE,TX,79912
Toys R US,MC ALLEN,7030,#7030,1101 W. EXPRESSWAY 83,TX,78502
Toys R US,HOUSTON,7031,#7031,6145 WESTHEIMER ROAD,TX,77057
Toys R US,SAN ANTONIO,7032,#7032,321 NW LOOP 410 SUITE 108,TX,78216
Toys R US,LAREDO,7035,#7035,5404 SAN BERNARDO AVENUE,TX,78041
Toys R US,HOUSTON,7036,#7036,1212 OLD SPANISH TRAIL,TX,77054
Toys R US,COLLEGE STATION,7038,#7038,1306 HARVEY ROAD,TX,77845
Toys R US,THE WOODLANDS,7039,#7039,1420 LAKE WOODLAND DRIVE,TX,77380
Toys R US,HATTIESBURG,7040,#7040,4600 HARDY STREET,MS,39402
Toys R US,LAKE CHARLES,7043,#7043,3405 GERSTNER MEMORIAL,LA,70607
Toys R US,SLIDELL,7044,#7044,137 NORTHSHORE BOULEVARD,LA,70459
Toys R US,SUGAR LAND,7046,#7046,16618 SW FREEWAY,TX,77478
Toys R US,AUSTIN,7047,#7047,9333 RESEARCH BOULEVARD BLG A. SUITE 200,TX,78759
Toys R US,KATY,7050,#7050,25024 KATY MILLS DRIVE,TX,77494
Toys R US,ORLANDO,7103,#7103,ORLANDO OUTLETS 8200 VINELAND AVE,FL,32821
Toys R US,SAUGUS,7132,#7132,SQUARE ONE CENTRE 1201 BROADWAY,MA,1906
Toys R US,TAUNTON,7149,#7149,SILVER CITY GALLERIA 2 GALLERIA MALL DRIVE,MA,2780
Toys R US,CENTRAL VALLEY,7158,#7158,WOODBURY COMMON OUTLETS 620 BLUEBIRD CRT,NY,10917
Toys R US,ELIZABETH,7159,#7159,JERSEY GARDENS OUTLET 651 KAPKOWSKI ROAD,NJ,7201
Toys R US,BIRCH RUN,7191,#7191,BIRCH RUN OUTLETS 12247 S. BEYER ROAD,MI,48415
Toys R US,CALHOUN,7192,#7192,CALHOUN PREMIUM OUTLETS 455 BELWOOD ROAD,GA,30701
Toys R US,FLORIDA CITY,7193,#7193,FLORIDA KEYS OUTLETS 250 EAST PALM DRIVE,FL,33034
Toys R US,NORTH CONWAY,7212,#7212,SETTLERS GREEN OUTLETS 2 COMMON COURT,NH,3860
Toys R US,STATEN ISLAND,7237,#7237,105 MILL ROAD,NY,10306
Toys R US,WARWICK,7502,#7502,RHODE ISLAND S/C 375 EAST AVE,RI,2886
Toys R US,PEABODY,7503,#7503,NORTHSHORE SHP CENTER RTS128/114,MA,1960
Toys R US,AUBURN,7504,#7504,416 SOUTHBRIDGE STREET,MA,1501
Toys R US,FRAMINGHAM,7505,#7505,1 WORCESTER ROAD,MA,1701
Toys R US,WOBURN,7506,#7506,366 CAMBRIDGE STREET,MA,1801
Toys R US,DEDHAM,7507,#7507,302 PROVIDENCE HIGHWAY ROUTE 1,MA,2026
Toys R US,SPRINGFIELD,7508,#7508,1686 BOSTON ROAD,MA,1129
Toys R US,WATERBURY,7509,#7509,275 UNION ST,CT,6706
Toys R US,WEST HARTFORD,7510,#7510,1471 NEW BRITAIN AVENUE,CT,6110
Toys R US,MANCHESTER,7511,#7511,2 KELLER STREET,NH,3103
Toys R US,SWANSEA,7512,#7512,86 SWANSEA MALL DRIVE,MA,2777
Toys R US,SOUTH PORTLAND,7513,#7513,303 MAINE MALL ROAD,ME,4106
Toys R US,NEWINGTON,7514,#7514,85 GOSLING ROAD,NH,3801
Toys R US,WATERFORD,7515,#7515,5 DAYTON ROAD,CT,6385
Toys R US,NEW HARTFORD,7518,#7518,4505 COMMERCIAL DRIVE,NY,13413
Toys R US,BANGOR,7519,#7519,6 BANGOR MALL BOULEVARD,ME,4401
Toys R US,KINGSTON,7520,#7520,8 GALLEN ROAD,MA,2364
Toys R US,NASHUA,7521,#7521,272 DANIEL WEBSTER HIGHWAY,NH,3060
Toys R US,BROCKTON,7522,#7522,105 CAMPENELLI INDUSTRI,MA,2301
Toys R US,SALEM,7523,#7523,16 VETERANS MEMORIAL PA,NH,3079
Toys R US,NORTH ATTLEBORO,7524,#7524,1190 S. WASHINGTON STREET,MA,2760
Toys R US,LEOMINSTER,7527,#7527,118 COMMERCIAL ROAD SEARSTOWN MALL,MA,1453
Toys R US,CONCORD,7528,#7528,310 LOUDON ROAD,NH,3301
Toys R US,HYANNIS,7530,#7530,1070 ROUTE 132 FESTIVAL MALL,MA,2601
Toys R US,MANCHESTER,7532,#7532,1460 PLEASANT VALLEY ROAD,CT,6040
Toys R US,NORTH DARTMOUTH,7534,#7534,492 STATE ROAD DARTMOUTH TOWNE CTR,MA,2747
Toys R US,BELLINGHAM,7535,#7535,217 HARTFORD AVENUE,MA,2019
Toys R US,NEWINGTON,7536,#7536,3491 BERLIN TURNPIKE,CT,6111
Toys R US,WILLISTON,7537,#7537,244 RETAIL WAY,VT,5495
Toys R US,HOUMA,7768,#7768,SOUTHLAND MALL 5953 WEST PARK AVENUE,LA,70364
Toys R US,TEMPLE,7791,#7791,TEMPLE MALL 3111 S. 31ST STREET,TX,76502
Toys R US,WHITE SETTLEMENT,7802,#7802,7606 WEST FREEWAY,TX,76108
Toys R US,FRISCO,7803,#7803,2871 PRESTON ROAD SHAFER PLAZA,TX,75034
Toys R US,OKLAHOMA CITY,7804,#7804,1119 S. E. 66TH STREET,OK,73149
Toys R US,MESQUITE,7805,#7805,2063 N. TOWN EAST BOULEVARD #2100,TX,75150
Toys R US,ALBUQUERQUE,7807,#7807,7400 INDIAN SCHOOL ROAD,NM,87110
Toys R US,HURST,7809,#7809,1319 WEST PIPELINE ROAD,TX,76053
Toys R US,OKLAHOMA CITY,7811,#7811,2121 N. W. 138TH STREET,OK,73134
Toys R US,ALLEN,7812,#7812,170 E. STACY ROAD BUILDING 2250,TX,75002
Toys R US,IRVING,7813,#7813,7730 N. MACARTHUR BOULEVARD,TX,75063
Toys R US,WACO,7814,#7814,5200 W. WACO DRIVE,TX,76710
Toys R US,AMARILLO,7815,#7815,2403 S SONCY ROAD,TX,79121
Toys R US,LUBBOCK,7816,#7816,6101 SLIDE ROAD,TX,79414
Toys R US,ARLINGTON,7817,#7817,4111 SOUTH COOPER STREE,TX,76015
Toys R US,NORTH LITTLE ROCK,7818,#7818,4239 E. MCCAIN BOULEVARD,AR,72117
Toys R US,MIDLAND,7819,#7819,3109 W. LOOP 250 NORTH,TX,79705
Toys R US,DALLAS,7820,#7820,9358 N. CENTRAL EXPRESS,TX,75231
Toys R US,FORT SMITH,7821,#7821,5609 E. ROGERS AVENUE,AR,72903
Toys R US,LEWISVILLE,7822,#7822,2412 S. STEMMONS FREEWY,TX,75067
Toys R US,TYLER,7825,#7825,414 E.S.E. LOOP 323,TX,75701
Toys R US,KILLEEN,7826,#7826,2500 E. CENTRAL TEXAS EXPRESSWAY #B,TX,76541
Toys R US,LONGVIEW,7827,#7827,402 WEST LOOP 281,TX,75604
Toys R US,WICHITA FALLS,7828,#7828,2500 E. ELLIOTT STREET,TX,76308
Toys R US,LITTLE ROCK,7830,#7830,11500 FINANCIAL CENTER PKW,AR,72211
Toys R US,BOSSIER CITY,7831,#7831,2918 E. TEXAS STREET PIERRE-BOSSIER MALL,LA,71111
Toys R US,FAYETTEVILLE,7833,#7833,4166 N. COLLEGE AVENUE,AR,72701
Toys R US,NORMAN,7834,#7834,560 ED NOBLE PARKWAY,OK,73072
Toys R US,ALBUQUERQUE,7835,#7835,3701 ELLISON ROAD N.W.,NM,87114
Toys R US,TUKWILA,8002,#8002,17501 SOUTHCENTER PRKWY,WA,98188
Toys R US,LYNNWOOD,8003,#8003,18601 ALDERWOOD MALL BL,WA,98037
Toys R US,PORTLAND,8004,#8004,12305 N. STARLIGHT DR,OR,97217
Toys R US,CLACKAMAS,8005,#8005,12535 S. E. 82ND AVENUE,OR,97015
Toys R US,TIGARD,8006,#8006,10065 S. W. CASCADE BLV,OR,97223
Toys R US,TACOMA,8007,#8007,4214 SOUTH TACOMA MALL,WA,98409
Toys R US,EUGENE,8009,#8009,1133 VALLEY RIVER DRIVE,OR,97401
Toys R US,SALEM,8010,#8010,1200 LANCASTER DR. NE,OR,97301
Toys R US,BELLEVUE,8011,#8011,103 110TH AVENUE N. E.,WA,98004
Toys R US,SILVERDALE,8013,#8013,3567 NW RANDALL WAY,WA,98383
Toys R US,MERIDIAN,8014,#8014,2070 N EAGLE ROAD,ID,83646
Toys R US,OLYMPIA,8015,#8015,1000 COOPER POINT ROAD,WA,98502
Toys R US,EVERETT,8016,#8016,1325A S.E. EVERETT MALL,WA,98208
Toys R US,ANCHORAGE,8017,#8017,8600 KING STREET,AK,99515
Toys R US,MILPITAS,8018,#8018,GREAT MALL 447 GREAT MALL DRIVE,CA,95035
Toys R US,KENNEWICK,8019,#8019,821 COLUMBIA CENTER,WA,99336
Toys R US,BILLINGS,8020,#8020,640 S. 24TH STREET W.,MT,59103
Toys R US,IDAHO FALLS,8021,#8021,2395 E. 17TH STREET,ID,83401
Toys R US,PUYALLUP,8023,#8023,3551 9TH STREET S.W.,WA,98373
Toys R US,UNION GAP,8026,#8026,1401 EAST WASHINGTON AV,WA,98903
Toys R US,VERADALE,8027,#8027,15505 E. BROADWAY,WA,99037
Toys R US,LOMBARD,8116,#8116,YORKTOWN MALL 203 YORKTOWN ROAD,IL,60148
Toys R US,BURBANK,8120,#8120,LODI STATION OUTLETS 9911 AVON LAKE ROAD,OH,44214
Toys R US,WHEATON,8242,#8242,WHEATON MALL 11160 VEIRS MILL ROAD,MD,20902
Toys R US,THORNTON,8245,#8245,16511 N. WASHINGTON STREET,CO,80023
Toys R US,SAN BRUNO,8271,#8271,TANFORAN PARK CENTER 1150 EL CAMINO RE,CA,94066
Toys R US,ATLANTIC CITY,8285,#8285,TANGER ATLANTIC CITY 114 N. CHRIS. COLUMBUS,NJ,8401
Toys R US,LAS VEGAS,8286,#8286,LAS VEGAS OUTLETS 7400 LAS VEGAS BLVD S,NV,89123
Toys R US,SUNRISE,8288,#8288,SAWGRASS MILLS OUTLET 12801 WEST SUNRISE BLVD,FL,33323
Toys R US,SHIRLEY,8289,#8289,SOUTHPORT PLAZA CENTER 999-16 MONTAUK HIGHWAY,NY,11967
Toys R US,NORTH WALES,8302,#8302,2 AIRPORT SQUARE,PA,19454
Toys R US,KING OF PRUSSIA,8303,#8303,250 MALL BOULEVARD,PA,19406
Toys R US,BAILEYS CROSSROADS,8304,#8304,5521 LEESBURG PIKE,VA,22041
Toys R US,PHILADELPHIA,8305,#8305,3401 ARAMINGO AVENUE,PA,19134
Toys R US,DEPTFORD,8306,#8306,409 ALMONESSON ROAD,NJ,8096
Toys R US,CHERRY HILL,8307,#8307,500 ROUTE 38,NJ,8034
Toys R US,PHILADELPHIA,8308,#8308,2045 COTTMAN AVENUE,PA,19149
Toys R US,PHILADELPHIA,8309,#8309,2703-2817 SOUTH THIRD S,PA,19148
Toys R US,NORTH YORK,8310,#8310,1410 KENNETH ROAD,PA,17404
Toys R US,LANGHORNE,8311,#8311,2345 EAST LINCOLN HIGHW,PA,19047
Toys R US,MEDIA,8312,#8312,1154 WEST BALTIMORE PIKE,PA,19063
Toys R US,NEWARK,8314,#8314,10 GEOFFREY DRIVE,DE,19702
Toys R US,MECHANICSBURG,8315,#8315,6391 CARLISLE PIKE,PA,17050
Toys R US,CLINTON,8316,#8316,8401 MIKE SHAPIRO DRIVE,MD,20735
Toys R US,HARRISBURG,8318,#8318,3405 PAXTON STREET,PA,17111
Toys R US,GAITHERSBURG,8319,#8319,600 N. FREDERICK ROAD,MD,20877
Toys R US,DOVER,8320,#8320,1061 N. DUPONT HIGHWAY,DE,19901
Toys R US,HORSHAM,8322,#8322,100 WELSH ROAD,PA,19044
Toys R US,PENNSDALE,8323,#8323,421 LYCOMING MALL CIRCL,PA,17756
Toys R US,LANCASTER,8326,#8326,1430 HARRISBURG PIKE,PA,17601
Toys R US,MAYS LANDING,8327,#8327,4476 BLACKHORSE PIKE,NJ,8330
Toys R US,EXTON,8328,#8328,103 EAST SWEDESFORD ROAD,PA,19341
Toys R US,PHILADELPHIA,8329,#8329,201 FRANKLIN MILLS CIRC,PA,19154
Toys R US,VINELAND,8330,#8330,100 CUMBERLAND MALL 3849 SOUTH DELSEA DRIVE,NJ,8360
Toys R US,COLONIAL HEIGHTS,8331,#8331,1869 S. PARK BOULEVARD,VA,23834
Toys R US,OWINGS MILLS,8332,#8332,10200 REISTERTOWN ROAD,MD,21117
Toys R US,WALDORF,8333,#8333,11055 MALL CIRCLE ROAD,MD,20603
Toys R US,LYNCHBURG,8334,#8334,3700 CANDLERS MOUNTAIN RD,VA,24502
Toys R US,MANASSAS,8335,#8335,10318 PORTSMOUTH ROAD,VA,20110
Toys R US,ANNAPOLIS,8336,#8336,2115 WEST STREET,MD,21401
Toys R US,CHARLOTTESVILLE,8338,#8338,590 BRANCHLANDS BOULEVARD,VA,22901
Toys R US,WINCHESTER,8340,#8340,655 E. JUBAL EARLY AVENUE,VA,22601
Toys R US,WOODBRIDGE,8341,#8341,14603 TELEGRAPH ROAD,VA,22194
Toys R US,FREDERICKSBURG,8342,#8342,3101 PLANK ROAD,VA,22404
Toys R US,HAGERSTOWN,8345,#8345,1730 VALLEY MALL ROAD,MD,21740
Toys R US,CHESAPEAKE,8346,#8346,4120 PORTSMOUTH BOULEVARD,VA,23321
Toys R US,DANVILLE,8347,#8347,142 EXECUTIVE DRIVE,VA,24541
Toys R US,BEL AIR,8348,#8348,660 MARKET PLACE DRIVE,MD,21014
Toys R US,GLEN BURNIE,8350,#8350,6711 RITCHIE HIGHWAY,MD,21061
Toys R US,NORFOLK,8352,#8352,400 MILITARY HIGHWAY,VA,23502
Toys R US,RICHMOND,8353,#8353,11861 WEST BROAD STREET,VA,23233
Toys R US,BALTIMORE,8354,#8354,8804 PULASKI HIGHWAY,MD,21237
Toys R US,ALEXANDRIA,8356,#8356,6001 KINGSTOWNE VILLAGE PARKWAY,VA,22315
Toys R US,VIRGINIA BEACH,8357,#8357,2701 N. MALL DRIVE SUITE 101,VA,23452
Toys R US,ROANOKE,8358,#8358,4943 VALLEY VIEW BOULEVARD,VA,24018
Toys R US,RICHMOND,8360,#8360,1257 CARMIA WAY CHESTERFIELD MKT. PL.,VA,23235
Toys R US,FREDERICK,8361,#8361,1308 WEST PATRICK ST,MD,21701
Toys R US,BRIDGEPORT,8362,#8362,2301 MEADOWBROOK MALL R,WV,26330
Toys R US,COLUMBIA,8363,#8363,6100 DOBBIN ROAD,MD,21045
Toys R US,STERLING,8364,#8364,46300 UNIT 100 POTOMAC RUN PLAZA,VA,20164
Toys R US,BURLINGTON,8365,#8365,RT 541 AND CADILLAC ROAD,NJ,8016
Toys R US,WYOMISSING,8366,#8366,1055 WOODLAND ROAD,PA,19610
Toys R US,VIENNA,8367,#8367,113 GRAND CENTRAL AVENUE,WV,26105
Toys R US,ALTOONA,8368,#8368,235 PARK PLAZA,PA,16602
Toys R US,NEWPORT NEWS,8369,#8369,12132 JEFFERSON AVENUE,VA,23602
Toys R US,JOHNSTOWN,8370,#8370,620 GALLERIA DRIVE,PA,15904
Toys R US,JOHNSON CITY,8371,#8371,1910 N. ROAN STREET,TN,37601
Toys R US,HICKORY,8372,#8372,1840 HIGHWAY 70 S.E.,NC,28601
Toys R US,GREENSBORO,8373,#8373,3728 HIGH POINT ROAD,NC,27407
Toys R US,FAYETTEVILLE,8374,#8374,1736 SKIBO ROAD,NC,28303
Toys R US,WILMINGTON,8375,#8375,4510 OLEANDER DRIVE,NC,28403
Toys R US,WINSTON-SALEM,8376,#8376,3200 SILAS CREEK PARKWY,NC,27103
Toys R US,GREENVILLE,8378,#8378,228 S.W. GREENVILLE BLV,NC,27834
Toys R US,CARY,8379,#8379,201 CROSSROAD BOULEVARD,NC,27518
Toys R US,DURHAM,8381,#8381,3330 WESTGATE DRIVE,NC,27704
Toys R US,SALISBURY,8385,#8385,500 EAST NAYLOR MILL ROAD,MD,21804
Toys R US,WEST PALM BEACH,8702,#8702,450 SOUTH SR 7,FL,33414
Toys R US,MIAMI,8703,#8703,8325 SOUTH DIXIE HIGHWA,FL,33143
Toys R US,HIALEAH,8705,#8705,500 WEST 49TH STREET,FL,33012
Toys R US,PLANTATION,8706,#8706,8101 WEST BROWARD BOULEVARD,FL,33324
Toys R US,MIAMI,8707,#8707,1645 NORTHWEST 107TH AV,FL,33172
Toys R US,CUTLER BAY,8708,#8708,19525 SOUTH DIXIE HIGHW,FL,33157
Toys R US,NORTH MIAMI BEACH,8709,#8709,551 N. E. 167TH STREET,FL,33162
Toys R US,FORT MYERS,8710,#8710,4983 SOUTH CLEVELAND AV,FL,33907
Toys R US,PALM BEACH GARDENS,8712,#8712,3195 PGA. BOULEVARD,FL,33410
Toys R US,BOCA RATON,8713,#8713,20429 STATE ROAD 7 MISSION BAY PLAZA,FL,33498
Toys R US,FORT LAUDERDALE,8714,#8714,1600 NORTH FEDERAL HIGHWAY,FL,33305
Toys R US,MIAMI,8715,#8715,8789 S.W. 117TH AVENUE,FL,33183
Toys R US,BOYNTON BEACH,8716,#8716,601 N. CONGRESS AVENUE,FL,33426
Toys R US,DAYTONA BEACH,8718,#8718,2455 INTL. SPEEDWAY BLV,FL,32114
Toys R US,MAYAGUEZ,8719,#8719,CARRETERA 2-KM 159.0,PR,682
Toys R US,HATILLO,8720,#8720,CARRETERA 2-KM 81.9,PR,659
Toys R US,SAN JUAN,8722,#8722,CALAF STREET 555 PLAZA DE LAS AMERICAS,PR,918
Toys R US,CAROLINA,8723,#8723,ST RD886 BARRIO SAN ANT BARRIO SAN ANTONIO,PR,987
Toys R US,ALTAMONTE SPRINGS,8724,#8724,350 E. ALTAMONTE DR,FL,32701
Toys R US,ORLANDO,8725,#8725,1250 N ALAFAYA TRAIL,FL,32828
Toys R US,ORLANDO,8726,#8726,1631 FLORIDA MALL AV,FL,32809
Toys R US,WESLEY CHAPEL,8727,#8727,"6105 WESLEY GROVE BOULEVARD ,",FL,33544
Toys R US,CLEARWATER,8728,#8728,26286 US 19 NORTH,FL,33761
Toys R US,JACKSONVILLE,8729,#8729,4875 TOWN CENTER PARKWY,FL,32246
Toys R US,TALLAHASSEE,8730,#8730,1625 APALACHEE PARKWAY,FL,32301
Toys R US,BRADENTON,8731,#8731,512 CORTEZ ROAD WEST,FL,34207
Toys R US,ORANGE PARK,8732,#8732,1972 WELLS ROAD,FL,32073
Toys R US,GAINESVILLE,8733,#8733,6711 W. NEWBERRY ROAD,FL,32605
Toys R US,LAKELAND,8734,#8734,3770 US HIGHWAY 98 NORTH,FL,33809
Toys R US,SAINT PETERSBURG,8735,#8735,1900 TYRONE BOULEVARD,FL,33710
Toys R US,JENSEN BEACH,8736,#8736,3550 N. FEDERAL HIGHWAY,FL,34957
Toys R US,PORT RICHEY,8737,#8737,6233 TACOMA DRIVE,FL,34668
Toys R US,OCALA,8738,#8738,2800 S.W. COLLEGE ROAD,FL,34474
Toys R US,MELBOURNE,8740,#8740,1275 W. NEW HAVEN AVENUE,FL,32904
Toys R US,PEMBROKE PINES,8743,#8743,12235 PINES BOULEVARD,FL,33026
Toys R US,BRANDON,8744,#8744,330 BRANDON TOWN CENTER,FL,33511
Toys R US,SANFORD,8745,#8745,101 TOWN CENTER BOULEVARD,FL,32771
Toys R US,VALDOSTA,8746,#8746,1200B N. SAINT AUGUSTIN,GA,31602
Toys R US,PANAMA CITY,8747,#8747,809 EAST 23RD ST,FL,32401
Toys R US,NAPLES,8749,#8749,5305 AIRPORT/ PULLING R,FL,34109
Toys R US,ORLANDO,8751,#8751,4607 MILLENIA PLAZA WAY,FL,32839
Toys R US,SAVANNAH,8754,#8754,7400 ABERCORN ST,GA,31406
Toys R US,NORTH CHARLESTON,8755,#8755,7800 RIVERS AVENUE SUITE 1100,SC,29418
Toys R US,MADISON,8802,#8802,1800 GALLATIN PIKE NORT,TN,37115
Toys R US,MC DONOUGH,8803,#8803,209 SOUTH POINT BOULEVARD,GA,30252
Toys R US,MONTGOMERY,8804,#8804,5484 ATLANTA HIGHWAY,AL,36109
Toys R US,ATLANTA,8805,#8805,2955 COBB PARKWAY,GA,30339
Toys R US,TUCKER,8807,#8807,4033 LA VISTA ROAD,GA,30084
Toys R US,HUNTSVILLE,8809,#8809,6884 GOVERNORS WEST,AL,35806
Toys R US,KNOXVILLE,8810,#8810,8009 KINGSTON PIKE,TN,37919
Toys R US,DULUTH,8811,#8811,2205 PLEASANT HILL SQR,GA,30096
Toys R US,LITHONIA,8812,#8812,2918 TURNER HILL ROAD,GA,30058
Toys R US,AUGUSTA,8814,#8814,3424 WRIGHTSBORO ROAD,GA,30909
Toys R US,KENNESAW,8815,#8815,501 ROBERTS COURT,GA,30144
Toys R US,CHATTANOOGA,8817,#8817,2200 HAMILTON PLACE BLV,TN,37421
Toys R US,COLUMBUS,8818,#8818,5555 WHITTLESSEY BOULEVARD SUITE 2300,GA,31907
Toys R US,PENSACOLA,8819,#8819,7171 N DAVIS HIGHWAY,FL,32504
Toys R US,FAYETTEVILLE,8820,#8820,132 PAVILLION PARKWAY,GA,30214
Toys R US,GREENVILLE,8822,#8822,1025 WOODRUFF ROAD,SC,29607
Toys R US,SPARTANBURG,8823,#8823,1508B WO EZELL BOULEVARD,SC,29301
Toys R US,CONCORD,8825,#8825,8050 CONCORD MILLS BOULEVARD,NC,28027
Toys R US,MOBILE,8827,#8827,429 BEL AIR BOULEVARD,AL,36606
Toys R US,FLORENCE,8830,#8830,2680 DAVID MCLEOD BOULEVARD .,SC,29501
Toys R US,HOOVER,8831,#8831,1715 MONTGOMERY HIGHWAY,AL,35226
Toys R US,CLARKSVILLE,8832,#8832,2821 GUTHRIE HIGHWAY,TN,37040
Toys R US,KNOXVILLE,8833,#8833,3200 EAST TOWNE MALL CI,TN,37919
Toys R US,GASTONIA,8834,#8834,2830 EAST FRANKLIN BOULEVARD,NC,28056
Toys R US,COLUMBIA,8835,#8835,140 COLUMBIANA DRIVE,SC,29212
Toys R US,ANDERSON,8836,#8836,3405 CLEMSON BOULEVARD,SC,29621
Toys R US,ASHEVILLE,8837,#8837,877 BREVARD ROAD,NC,28806
Toys R US,DOTHAN,8838,#8838,201 BUYERS DRIVE,AL,36303
Toys R US,NASHVILLE,8840,#8840,7663 HIGHWAY 70 SOUTH,TN,37221
Toys R US,PINEVILLE,8841,#8841,11300 CAROLINA PL. PKW,NC,28134
Toys R US,ALBANY,8842,#8842,2601 H-1 DAWSON ROAD,GA,31707
Toys R US,FRANKLIN,8843,#8843,1735 GALLERIA BOULEVARD SUITE 1003,TN,37064
Toys R US,BOGART,8846,#8846,3900 ATLANTA HIGHWAY,GA,30622
Toys R US,ALPHARETTA,8847,#8847,7731 NORTHPOINT PARKWAY,GA,30022
Toys R US,TUSCALOOSA,8848,#8848,2600 MC FARLAND BL. 16,AL,35401
Toys R US,TUPELO,8850,#8850,969 BARNES CROSSING ROA,MS,38804
Toys R US,WARNER ROBINS,8851,#8851,3000 WATSON BOULEVARD,GA,31093
Toys R US,ROME,8852,#8852,2780 MARTHA BERRY HIGHWAY,GA,30161
Toys R US,DOUGLASVILLE,8853,#8853,9365 THE LANDING DRIVE SUITE B,GA,30135
Toys R US,ATLANTA,8866,#8866,1 BUCKHEAD LOOP DR. N.E,GA,30326
Toys R US,MEMPHIS,8867,#8867,8060 GIACOSA PLACE,TN,38133
Toys R US,JACKSON,8868,#8868,2139 NORTH HIGHLAND,TN,38305
Toys R US,BUFORD,8870,#8870,3480 FINANCIAL CENTR WY,GA,30519
Toys R US,MURFREESBORO,8872,#8872,2075 OLD FORT PARKWAY,TN,37129
Toys R US,MYRTLE BEACH,8873,#8873,1100 SEABOARD STREET,SC,29577
Toys R US,RALEIGH,8889,#8889,7810 POYNER POND CIRCLE,NC,27616
Toys R US,INDIANAPOLIS,8902,#8902,8250 CASTLETON CORNER,IN,46250
Toys R US,FLORENCE,8903,#8903,7960 CONNECTOR DRIVE,KY,41042
Toys R US,CINCINNATI,8905,#8905,9959 COLERAIN AVENUE,OH,45251
Toys R US,LOUISVILLE,8906,#8906,4805 OUTER LOOP ROAD,KY,40219
Toys R US,LOUISVILLE,8907,#8907,6650 DIXIE HIGHWAY,KY,40258
Toys R US,CINCINNATI,8908,#8908,4585 EASTGATE BOULEVARD,OH,45245
Toys R US,INDIANAPOLIS,8909,#8909,1650 EAST COUNTY LINE R,IN,46227
Toys R US,COLUMBUS,8910,#8910,4285 GROVES ROAD,OH,43232
Toys R US,COLUMBUS,8911,#8911,1400 GEMINI PLACE ROAD,OH,43240
Toys R US,INDIANAPOLIS,8913,#8913,9251 EAST WASHINGTON ST,IN,46229
Toys R US,SAINT MATTHEWS,8914,#8914,4900 SHELBYVILLE ROAD,KY,40207
Toys R US,MIAMISBURG,8916,#8916,2859 MIAMISBURG CENTERVILLE RD,OH,45342
Toys R US,LEXINGTON,8917,#8917,3220 NICHOLSVILLE ROAD,KY,40503
Toys R US,EVANSVILLE,8918,#8918,318 N. GREEN RIVER ROAD,IN,47715
Toys R US,LIMA,8919,#8919,2292 ELIDA ROAD,OH,45805
Toys R US,FORT WAYNE,8920,#8920,4122 LIMA ROAD,IN,46805
Toys R US,BARBOURSVILLE,8921,#8921,109 MALL ROAD,WV,25504
Toys R US,DUBLIN,8922,#8922,6547 SAW MILL ROAD,OH,43017
Toys R US,BOWLING GREEN,8923,#8923,3000 SCOTTSVILLE ROAD,KY,42101
Toys R US,CLARKSVILLE,8924,#8924,RIVER FALLS MALL STATE ROAD 131,IN,47129
Toys R US,TERRE HAUTE,8925,#8925,55 W. HONEYCREEK PARKWAY,IN,47802
Toys R US,MARION,8927,#8927,2904 WEST DEYOUNG STREET,IL,62959
Toys R US,PADUCAH,8928,#8928,3411 JAMES SANDERS BOULEVARD,KY,42001
Toys R US,CINCINNATI,8929,#8929,6251 GLENWAY AVENUE,OH,45238
Toys R US,CINCINNATI,8930,#8930,7800 MONTGOMERY ROAD,OH,45236
Toys R US,BEAVERCREEK,8931,#8931,2500 N. FAIRFIELD ROAD,OH,45431
Toys R US,CHARLESTON,8933,#8933,2846 MOUNTAINEER BOULEVARD,WV,25309
Toys R US,HEATH,8934,#8934,851 S. 30TH STREET,OH,43055
Toys R US,MUNCIE,8936,#8936,3400 NORTH MORRISON ROA,IN,47304
Toys R US,SOUTHLAKE,9007,#9007,250 N. KIMBALL AVENUE,TX,76092
Toys R US,NORTHBOROUGH,9008,#9008,6110 SHOPS WAY,MA,1532
Toys R US,BIRMINGHAM,9009,#9009,335 SUMMIT BOULEVARD,AL,35243
Toys R US,GULFPORT,9018,#9018,GULFPORT OUTLETS 10135 FACTORY SHOPS BLV,MS,39503
Toys R US,FOLSOM,9021,#9021,FOLSOM OUTLETS 13000 FOLSOM BLVD,CA,95630
Toys R US,CENTURY CITY,9029,#9029,CENTURY CITY MALL 10250 SANTA MONICA BLVD,CA,90067
Toys R US,LANCASTER,9044,#9044,ROCKVALE OUTLETS 35 S. WILLOWDALE DR,PA,17602
Toys R US,FOLEY,9057,#9057,TANGER OUTLETS FOLEY 2601 S. MCKENZIE STREET,AL,36535
Toys R US,KANEOHE,9058,#9058,WINDWARD MALL 46-056 KAMEHAMEHA HIGHW,HI,96744
Toys R US,MERCEDES,9059,#9059,RIO GRANDE VLY OUTLETS 5001 EAST EXPRESSWAY 83,TX,78570
Toys R US,SEAL BEACH,9062,#9062,12347 SEAL BEACH BOULEVARD,CA,90740
Toys R US,VALLEJO,9063,#9063,105 PLAZA DRIVE,CA,94591
Toys R US,LINCOLN CITY,9081,#9081,TANGER LINCOLN CITY 1500 SE EAST DEVILS LAK,OR,97367
Toys R US,ORLANDO,9093,#9093,OUTLET MARKETPLACE 5221 INTERNATIONAL DRIV,FL,32819
Toys R US,CUYAHOGA FALLS,9203,#9203,590 HOWE AVENUE,OH,44221
Toys R US,MAYFIELD HEIGHTS,9204,#9204,1385 SOM CENTER ROAD,OH,44124
Toys R US,PARMA,9205,#9205,8515 DAY DRIVE,OH,44129
Toys R US,NILES,9206,#9206,5555 YOUNGSTON-WARREN R,OH,44446
Toys R US,MENTOR,9207,#9207,7723 MENTOR AVENUE,OH,44060
Toys R US,ELYRIA,9208,#9208,1601 WEST RIVER ROAD NO,OH,44035
Toys R US,ERIE,9209,#9209,1920 EDINBORO ROAD,PA,16509
Toys R US,BOARDMAN,9210,#9210,317 BOARDMAN POLAND ROAD,OH,44512
Toys R US,CANTON,9211,#9211,4822 N.W. WHIPPLE AVENUE,OH,44718
Toys R US,SAINT CLAIRSVILLE,9212,#9212,67681 MALL ROAD,OH,43950
Toys R US,MONROEVILLE,9213,#9213,3735 WILLIAM PENN HIGHWAY,PA,15146
Toys R US,WEST MIFFLIN,9214,#9214,275 CLAIRTON BOULEVARD,PA,15122
Toys R US,PITTSBURGH,9215,#9215,2003 CHERYL DRIVE,PA,15237
Toys R US,WASHINGTON,9216,#9216,301 OAK SPRING ROAD,PA,15301
Toys R US,MONACA,9218,#9218,RT 18 & VALLEY VIEW DRI,PA,15061
Toys R US,NORTH OLMSTED,9221,#9221,27048 LORAIN ROAD,OH,44070
Toys R US,AMHERST,9223,#9223,3030 SHERIDAN DRIVE,NY,14226
Toys R US,WILLIAMSVILLE,9224,#9224,4135 TRANSIT ROAD,NY,14221
Toys R US,ROCHESTER,9225,#9225,1530 RIDGE ROAD WEST,NY,14615
Toys R US,HAMBURG,9226,#9226,3464 MC KINLEY PARKWAY,NY,14075
Toys R US,ROCHESTER,9227,#9227,654 HYLAN DRIVE,NY,14623
Toys R US,GREENSBURG,9229,#9229,135 DANOHOE ROAD,PA,15601
Toys R US,COPLEY,9232,#9232,52 ROTHROCK ROAD,OH,44321
Toys R US,MANSFIELD,9233,#9233,2196 WEST 4TH STREET & LEX-SPRINGMILL ROAD,OH,44906
Toys R US,CRANBERRY TOWNSHIP,9234,#9234,1000 CRANBERRY SQUARE,PA,16066
Toys R US,PITTSBURGH,9251,#9251,2001 PARK MANOR BOULEVARD,PA,15205
Toys R US,SOUTHGATE,9262,#9262,14333 EUREKA ROAD,MI,48195
Toys R US,MADISON HEIGHTS,9263,#9263,32700 JOHN R. ROAD,MI,48071
Toys R US,SOUTHFIELD,9264,#9264,27000 TELEGRAPH ROAD,MI,48034
Toys R US,LIVONIA,9265,#9265,29150 W. SEVEN MILE ROAD,MI,48152
Toys R US,ROSEVILLE,9266,#9266,32070 GRATIOT AVENUE,MI,48066
Toys R US,TOLEDO,9267,#9267,5025 MONROE STREET,OH,43623
Toys R US,DEARBORN,9268,#9268,24411 MICHIGAN AVENUE,MI,48124
Toys R US,STERLING HEIGHTS,9269,#9269,13801 LAKESIDE CIRCLE,MI,48313
Toys R US,ANN ARBOR,9270,#9270,3725 WASHTENAW,MI,48104
Toys R US,WESTLAND,9271,#9271,34800 WARREN ROAD,MI,48185
Toys R US,PONTIAC,9273,#9273,220 NORTH TELEGRAPH ROAD,MI,48341
Toys R US,NOVI,9274,#9274,43460 WEST OAKS DRIVE,MI,48377
Toys R US,TOLEDO,9275,#9275,2333 SOUTH REYNOLDS ROAD,OH,43614
Toys R US,TOLEDO,9276,#9276,340 NEW TOWN SQUARE,OH,43612
Toys R US,SANDUSKY,9277,#9277,5500 MILAN ROAD,OH,44870
Toys R US,FORT GRATIOT,9278,#9278,4235 24TH AVENUE,MI,48059
Toys R US,OKEMOS,9287,#9287,1705 WEST NEWMAN ROAD,MI,48864
Toys R US,SEASIDE,9417,#9417,SEASIDE FACTORY OUTLETS 1111 NORTH ROOSEVELT DR,OR,97138
Toys R US,NORTH BRANCH,9423,#9423,NORTH BRANCH OUTLETS 38500 TANGER DRIVE,MN,55056
Toys R US,TEXAS CITY,9438,#9438,TANGER GALVESTON HOU 5885 GULF FREEWAY,TX,77590
Toys R US,BRANSON,9449,#9449,TANGER OUTLETS BRANSON 300 STANLEY TANGER BLVD,MO,65616
Toys R US,TULARE,9454,#9454,TULARE OUTLET CENTER 1401 RETHERFORD STREET,CA,93274
Toys R US,INDEPENDENCE,9502,#9502,13920 EAST 40 HIGHWAY,MO,64055
Toys R US,OVERLAND PARK,9503,#9503,11620 WEST 95TH STREET,KS,66214
Toys R US,TOPEKA,9504,#9504,2190 WANAMAKER ROAD,KS,66614
Toys R US,CLIVE,9507,#9507,8801 UNIVERSITY AVENUE,IA,50325
Toys R US,SAINT PETERS,9508,#9508,5821 SUE MANDY DRIVE,MO,63376
Toys R US,FAIRVIEW HEIGHTS,9510,#9510,120 COMMERCE LANE,IL,62208
Toys R US,SPRINGFIELD,9512,#9512,1425 EAST BATTLEFIELD,MO,65804
Toys R US,CALVERTON PARK,9513,#9513,10895 WEST FLORISSANT R,MO,63136
Toys R US,WICHITA,9514,#9514,8011 E. KELLOGG AVENUE,KS,67207
Toys R US,CHESTERFIELD,9515,#9515,1781 CLARKSON ROAD,MO,63017
Toys R US,SAINT LOUIS,9516,#9516,6926 SOUTH LINDBERGH,MO,63129
Toys R US,DES MOINES,9517,#9517,1211 EAST ARMY POST ROAD,IA,50315
Toys R US,JOPLIN,9518,#9518,630 S. RANGELINE ROAD,MO,64802
Toys R US,CAPE GIRARDEAU,9519,#9519,201 SILVER SPGS. ROAD,MO,63701
Toys R US,KANSAS CITY,9520,#9520,8330 NORTH BROADWAY,MO,64118
Toys R US,OMAHA,9521,#9521,3435 OAKVIEW DRIVE,NE,68144
Toys R US,LINCOLN,9522,#9522,5220 N. 27TH STREET,NE,68521
Toys R US,COLUMBIA,9523,#9523,1901 BERNADETTE,MO,65203
Toys R US,TULSA,9525,#9525,6910 SOUTH MEMORIAL,OK,74133
Toys R US,TULSA,9526,#9526,14303 EAST 21 STREET SO,OK,74108
Toys R US,AURORA,9528,#9528,1150 S. IRONTON,CO,80012
Toys R US,COLORADO SPRINGS,9529,#9529,3730 N. CITADEL DRIVE,CO,80909
Toys R US,WESTMINSTER,9531,#9531,5650 W. 88TH AVENUE,CO,80030
Toys R US,FORT COLLINS,9533,#9533,4250 CORBETT DR,CO,80525
Toys R US,RAPID CITY,9536,#9536,450 E. DISK DRIVE,SD,57701
Toys R US,SIOUX FALLS,9537,#9537,4401 W. EMPIRE ROAD,SD,57106
Toys R US,FARGO,9538,#9538,4603 13TH AVENUE SOUTH,ND,58102
Toys R US,COUNCIL BLUFFS,9539,#9539,3145 MANAWA CENTER DR,IA,51501
Toys R US,ENGLEWOOD,9540,#9540,9505 E. COUNTY LINE ROAD,CO,80112
Toys R US,LITTLETON,9545,#9545,5142 SOUTH WADSWORTH,CO,80123
Toys R US,SAN ANTONIO,9549,#9549,8327 HIGHWAY 151,TX,78245
Toys R US,DALLAS,9561,#9561,13710 DALLAS PARKWAY,TX,75240
Toys R US,OLATHE,9564,#9564,14680 S. FLAMING ROAD,KS,66061
Toys R US,SUNSET HILLS,9565,#9565,3600 LINDBERGH BOULEVARD,MO,63127
Toys R US,MAPLE GROVE,9576,#9576,12750 ELM CREEK BLVD NORTH,MN,55369
Toys R US,MERIDIAN,9590,#9590,1003 BONITA LAKES CIR.,MS,39301
Toys R US,JACKSONVILLE,9591,#9591,1370 WESTERN BOULEVARD,NC,28541
Toys R US,WEST PALM BEACH,5753,#5753,PALM BEACH OUTLETS 1801 PALM BCH LAKES BLV,FL,33401
Toys R US,SAINT AUGUSTINE,6176,#6176,ST AUGUSTINE PRIME 500 OUTLET MALL DRIVE,FL,32084
Toys R US,JOHNSON CITY,6364,#6364,416 HARRY L DRIVE RTS 201 &amp;17,NY,13790
Toys R US,DEER PARK,6651,#6651,TANGER OUTLET CENTERS 766THE ARCHES CIRCLE,NY,11729
Toys R US,CLAY,7517,#7517,GR. NORTRN MALL I-480 &amp; RT. 31,NY,13041
Toys R US,LEEDS,8119,#8119,SHOPS AT GRAND RIVER 6200 GRAND RIVER BLVD.,AL,35094
Toys R US,HIXSON,8849,#8849,5230 HIGHWAY 153 SUITE 100,TN,37343
Toys R US,SEVIERVILLE,9027,#9027,TANGER SEVIERVILLE 1645 PARKWAY,TN,37862
