keywords,city,Aggdata Store Number,store_number,address,state,zip_code
Tractor Supply,MUSCLE SHOALS,100,100 #100 #0100,535 AVALON AVE,AL,35661
Tractor Supply,BLOOMINGTON,102,102 #102 #0102,2238 WESTGATE DR,IL,61704
Tractor Supply,CEDAR RAPIDS,103,103 #103 #0103,6622 6TH ST SW,IA,52404
Tractor Supply,CAMDEN,104,104 #104 #0104,1635 E SPRINGDALE DR,SC,29020
Tractor Supply,DELAWARE,105,105 #105 #0105,2621 US HWY 23 N,OH,43015
Tractor Supply,DANVILLE,106,106 #106 #0106,3623 N VERMILION ST,IL,61832
Tractor Supply,ST. MARYS,107,107 #107 #0107,1005 S SAINT MARYS ST,PA,15857
Tractor Supply,LUFKIN,109,109 #109 #0109,511 N BRENTWOOD DR,TX,75904
Tractor Supply,SUMMERSVILLE,110,110 #110 #0110,810 NORTHSIDE DR,WV,26651
Tractor Supply,BAKERSFIELD,112,112 #112 #0112,2749 CALLOWAY DR,CA,93312
Tractor Supply,VINELAND,113,113 #113 #0113,3095 S DELSEA DR,NJ,8360
Tractor Supply,GALESBURG,115,115 #115 #0115,631 W CARL SANDBURG DR,IL,61401
Tractor Supply,GRAND FORKS,116,116 #116 #0116,4460 32ND AVE S,ND,58201
Tractor Supply,ASHLAND CITY,117,117 #117 #0117,356 FREY ST,TN,37015
Tractor Supply,DELAVAN,118,118 #118 #0118,433 S WRIGHT ST,WI,53115
Tractor Supply,INDIANAPOLIS,119,119 #119 #0119,8135 BROOKVILLE RD,IN,46239
Tractor Supply,LAFAYETTE,121,121 #121 #0121,4841 STATE ROAD 38 E,IN,47905
Tractor Supply,LANSING,122,122 #122 #0122,510 N MARKETPLACE BLVD,MI,48917
Tractor Supply,LIMA,123,123 #123 #0123,2785 HARDING HWY,OH,45804
Tractor Supply,VALDOSTA,124,124 #124 #0124,1000A N ST AUGUSTINE RD,GA,31601
Tractor Supply,MANKATO,125,125 #125 #0125,1771 N VICTORY DR,MN,56001
Tractor Supply,ASHLAND,126,126 #126 #0126,2310 CLAREMONT AVE,OH,44805
Tractor Supply,MASON CITY,127,127 #127 #0127,1905 4TH ST SW,IA,50401
Tractor Supply,COLLIERVILLE,128,128 #128 #0128,240 US HWY 72 W,TN,38017
Tractor Supply,CENTRAL CITY,129,129 #129 #0129,1504 W EVERLY BROTHERS BLVD,KY,42330
Tractor Supply,MINOT,130,130 #130 #0130,1325 S BROADWAY,ND,58701-5930
Tractor Supply,HOUGHTON LAKE,131,131 #131 #0131,3451 W HOUGHTON LAKE DR,MI,48629
Tractor Supply,HENDERSONVILLE,132,132 #132 #0132,911 CENTER POINT RD,TN,37075
Tractor Supply,NORTH LITTLE ROCK,133,133 #133 #0133,5470 LANDERS RD,AR,72117
Tractor Supply,OTTUMWA,134,134 #134 #0134,2850 N COURT ST,IA,52501
Tractor Supply,BOWLING GREEN,135,135 #135 #0135,5387 SCOTTSVILLE RD,KY,42104
Tractor Supply,MCALESTER,136,136 #136 #0136,410 S GEORGE NIGH EXPRESSWAY,OK,74501
Tractor Supply,ROCHESTER,137,137 #137 #0137,4205 SE MAINE AVE,MN,55904
Tractor Supply,SAVANNAH,138,138 #138 #0138,195 WATER ST,TN,38372
Tractor Supply,SAGINAW,139,139 #139 #0139,7130 GRATIOT RD,MI,48609
Tractor Supply,BALDWINSVILLE,140,140 #140 #0140,3580 ROUTE 31,NY,13027
Tractor Supply,GENEVA,142,142 #142 #0142,885 PRE EMPTION RD,NY,14456
Tractor Supply,ALBION,143,143 #143 #0143,1448 NORTH EATON ST,MI,49224
Tractor Supply,TERRE HAUTE,144,144 #144 #0144,4931 S US HWY 41,IN,47802
Tractor Supply,TOLEDO,145,145 #145 #0145,7716 W CENTRAL AVE,OH,43617
Tractor Supply,WATERLOO,146,146 #146 #0146,4040 UNIVERSITY AVE,IA,50701
Tractor Supply,WILLISTON,147,147 #147 #0147,120 26TH ST E SUITE 101,ND,58801
Tractor Supply,JASPER,148,148 #148 #0148,584 E GIBSON ST,TX,75951
Tractor Supply,HUDSONVILLE,150,150 #150 #0150,2480 CHICAGO DR,MI,49426
Tractor Supply,SWEETWATER,151,151 #151 #0151,409 NE GEORGIA AVE,TX,79556
Tractor Supply,SPRINGVILLE,152,152 #152 #0152,205 S CASCADE DR,NY,14141
Tractor Supply,ARLINGTON,153,153 #153 #0153,9715 US HWY 64,TN,38002
Tractor Supply,WATERTOWN,154,154 #154 #0154,1911 MARKET WAY,WI,53094
Tractor Supply,LAVALE,155,155 #155 #0155,12101 SW WINCHESTER RD,MD,21502
Tractor Supply,MIDLAND,156,156 #156 #0156,7614 EASTMAN AVE,MI,48642
Tractor Supply,GATESVILLE,157,157 #157 #0157,2401 S HWY 36,TX,76528
Tractor Supply,JONESBORO,158,158 #158 #0158,2606 STADIUM BLVD,AR,72401
Tractor Supply,EVANSVILLE,160,160 #160 #0160,5210 E MORGAN AVE,IN,47715
Tractor Supply,OAK RIDGE,161,161 #161 #0161,8005 MARKET PLACE DR,NC,27310
Tractor Supply,UKIAH,162,162 #162 #0162,1248 AIRPORT PARK BLVD,CA,95482
Tractor Supply,PUNXSUTAWNEY,163,163 #163 #0163,557 W MAHONING ST,PA,15767
Tractor Supply,MILLEDGEVILLE,164,164 #164 #0164,1850 N COLUMBIA ST,GA,31061
Tractor Supply,HENDERSON,165,165 #165 #0165,1733 DABNEY DR,NC,27536
Tractor Supply,BLUEFIELD,166,166 #166 #0166,3955 CUMBERLAND RD,WV,24701
Tractor Supply,GRISWOLD,167,167 #167 #0167,461 VOLUNTOWN RD,CT,6351
Tractor Supply,MECHANICSVILLE,169,169 #169 #0169,7047 MECHANICSVILLE TURNPIKE,VA,23111
Tractor Supply,BECKLEY,170,170 #170 #0170,4303 ROBERT C BYRD DR,WV,25801
Tractor Supply,MASSILLON,171,171 #171 #0171,4020 ERIE AVE SW,OH,44646
Tractor Supply,EAST SYRACUSE,172,172 #172 #0172,6641 MANLIUS CENTER RD,NY,13057
Tractor Supply,PARIS,173,173 #173 #0173,1266 HIGHWAY 641 S,TN,38242
Tractor Supply,APPLETON,174,174 #174 #0174,W3098 COUNTY RD KK,WI,54915
Tractor Supply,CLIFTON PARK,175,175 #175 #0175,1746 ROUTE 9,NY,12065
Tractor Supply,SODDY DAISY,176,176 #176 #0176,222 SEQUOYAH RD,TN,37379
Tractor Supply,PORT HURON,177,177 #177 #0177,1400 32ND ST,MI,48060
Tractor Supply,STRASBURG,178,178 #178 #0178,218 HARTMAN BRIDGE RD,PA,17579
Tractor Supply,FORT WAYNE,179,179 #179 #0179,2112 W COLISEUM BLVD,IN,46808
Tractor Supply,MILLINGTON,180,180 #180 #0180,8247 US HWY 51 N,TN,38053
Tractor Supply,FLORESVILLE,181,181 #181 #0181,540 10TH ST,TX,78114
Tractor Supply,CENTER,182,182 #182 #0182,1155 TENAHA ST,TX,75935
Tractor Supply,FREMONT,183,183 #183 #0183,2850 E 23RD AVE N,NE,68025
Tractor Supply,PADUCAH,184,184 #184 #0184,5525 US HWY 60 W,KY,42001
Tractor Supply,LEWISBURG,185,185 #185 #0185,150 THE ACRES,TN,37091
Tractor Supply,MIAMI,186,186 #186 #0186,2630 N MAIN ST,OK,74354
Tractor Supply,MOUNT VERNON,187,187 #187 #0187,4813 BROADWAY ST,IL,62864
Tractor Supply,ENNIS,189,189 #189 #0189,300 SOUTH I 45,TX,75119
Tractor Supply,BATTLE CREEK,190,190 #190 #0190,6360 B DR N,MI,49014
Tractor Supply,MURFREESBORO,191,191 #191 #0191,2310 MERCURY BLVD,TN,37130
Tractor Supply,PEORIA,192,192 #192 #0192,2115 SW WASHINGTON ST,IL,61602
Tractor Supply,PLATTSBURGH,193,193 #193 #0193,29 DELLA DR,NY,12901
Tractor Supply,WISCONSIN RAPIDS,194,194 #194 #0194,4841 8TH ST S,WI,54494
Tractor Supply,DAWSONVILLE,195,195 #195 #0195,6921 HWY 53 E,GA,30534
Tractor Supply,WABASH,198,198 #198 #0198,1495 NORTH CASS ST,IN,46992
Tractor Supply,INVER GROVE HEIGHTS,199,199 #199 #0199,9273 CAFFERTY CT,MN,55076
Tractor Supply,WASHINGTON CT HS,200,200 #200 #0200,1650 COLUMBUS AVE,OH,43160
Tractor Supply,HUNTINGDON,201,201 #201 #0201,20940 MAIN ST E,TN,38344
Tractor Supply,DEFIANCE,202,202 #202 #0202,8718 STATE ROUTE 66 N,OH,43512-8254
Tractor Supply,VALPARAISO,203,203 #203 #0203,2500 MORTHLAND DR,IN,46383
Tractor Supply,PLYMOUTH,204,204 #204 #0204,1310 PILGRIM LN,IN,46563
Tractor Supply,BONHAM,205,205 #205 #0205,2205 STATE HWY 121 N,TX,75418
Tractor Supply,KINGWOOD,206,206 #206 #0206,425 E MAIN ST,WV,26537
Tractor Supply,IONIA,207,207 #207 #0207,45 FARM LN,MI,48846
Tractor Supply,BURLINGTON,209,209 #209 #0209,1801 MILWAUKEE AVE,WI,53105
Tractor Supply,PRINCETON,210,210 #210 #0210,2110 NORTH MAIN ST,IL,61356
Tractor Supply,VINCENNES,211,211 #211 #0211,1901 HART ST,IN,47591
Tractor Supply,CONWAY,213,213 #213 #0213,3353 CHURCH ST,SC,29526
Tractor Supply,SPRINGFIELD,214,214 #214 #0214,5451 URBANA RD,OH,45502
Tractor Supply,NEW BRAUNFELS,215,215 #215 #0215,840 LOOP 337,TX,78130
Tractor Supply,BELLEFONTAINE,216,216 #216 #0216,1651 S MAIN ST,OH,43311
Tractor Supply,DECATUR,217,217 #217 #0217,829 S 13TH ST,IN,46733
Tractor Supply,WARSAW,218,218 #218 #0218,3294 E US HWY 30,IN,46580
Tractor Supply,SHAWNEE,219,219 #219 #0219,4850 SHAWNEE MISSION DR,OK,74804
Tractor Supply,LEBANON,220,220 #220 #0220,2423 N LEBANON ST,IN,46052
Tractor Supply,SAINT CROIX FALLS,221,221 #221 #0221,2179 US HIGHWAY 8,WI,54024
Tractor Supply,THOMSON,222,222 #222 #0222,676 WASHINGTON RD,GA,30824
Tractor Supply,FAYETTEVILLE,223,223 #223 #0223,8000 RAEFORD RD,NC,28304
Tractor Supply,SPRINGFIELD,224,224 #224 #0224,3556 TOM AUSTIN HWY,TN,37172
Tractor Supply,MURFREESBORO,225,225 #225 #0225,135 JOHN R RICE BLVD,TN,37129-1111
Tractor Supply,BUCYRUS,226,226 #226 #0226,2141 E MANSFIELD ST,OH,44820
Tractor Supply,WILMINGTON,227,227 #227 #0227,1627 E ROMBACH AVE,OH,45177
Tractor Supply,OWOSSO,228,228 #228 #0228,1437 E M 21,MI,48867
Tractor Supply,LAPEER,229,229 #229 #0229,1203 EAST IMLAY CITY RD,MI,48446
Tractor Supply,RICHMOND,230,230 #230 #0230,4675 NATIONAL ROAD E,IN,47374
Tractor Supply,HARRISBURG,231,231 #231 #0231,601 N COMMERCIAL ST STE 15,IL,62946
Tractor Supply,MOUNT VERNON,232,232 #232 #0232,1401 COSHOCTON AVE,OH,43050
Tractor Supply,YORK,234,234 #234 #0234,901 LOUCKS RD,PA,17404
Tractor Supply,GOSHEN,239,239 #239 #0239,2323 LINCOLNWAY E,IN,46526
Tractor Supply,CELINA,240,240 #240 #0240,4581 US ROUTE 127,OH,45822
Tractor Supply,BOWLING GREEN,241,241 #241 #0241,18201 N DIXIE HWY,OH,43402
Tractor Supply,TUPELO,243,243 #243 #0243,850 SYMPHONY DR,MS,38804
Tractor Supply,ELIZABETHTOWN,247,247 #247 #0247,1511 N DIXIE HWY,KY,42701
Tractor Supply,GLASGOW,248,248 #248 #0248,3300 VETERANS OUTER LOOP,KY,42141
Tractor Supply,NEW CASTLE,250,250 #250 #0250,3000 S MEMORIAL DR,IN,47362
Tractor Supply,NILES,252,252 #252 #0252,2125 S 11TH ST # US33,MI,49120
Tractor Supply,THREE RIVERS,255,255 #255 #0255,301 N US HWY 131,MI,49093
Tractor Supply,YANKTON,260,260 #260 #0260,2908 BROADWAY AVE,SD,57078
Tractor Supply,POTTSTOWN,262,262 #262 #0262,799 STATE ST,PA,19464
Tractor Supply,FRANKLIN,263,263 #263 #0263,1101 HILLVIEW LN,TN,37064
Tractor Supply,CARLISLE,264,264 #264 #0264,10 NOBLE BLVD,PA,17013
Tractor Supply,CARO,265,265 #265 #0265,1255 E CAMERON RD,MI,48723
Tractor Supply,CAPE GIRARDEAU,266,266 #266 #0266,501 S KINGS HIGHWAY ST,MO,63701
Tractor Supply,NORTH CANTON,267,267 #267 #0267,5840 WHIPPLE AVE NW,OH,44720
Tractor Supply,LEBANON,268,268 #268 #0268,1980 QUENTIN RD,PA,17042
Tractor Supply,EL CAMPO,269,269 #269 #0269,3506 WEST LOOP,TX,77437
Tractor Supply,TIFFIN,270,270 #270 #0270,2501 WEST MARKET ST,OH,44883
Tractor Supply,WORTHINGTON,271,271 #271 #0271,1160 RYANS RD,MN,56187
Tractor Supply,CHARLOTTE,272,272 #272 #0272,1650 PACKARD HWY,MI,48813
Tractor Supply,GREENVILLE,273,273 #273 #0273,6030 S GREENVILLE RD,MI,48838
Tractor Supply,DEVILS LAKE,274,274 #274 #0274,223 4TH ST SW,ND,58301
Tractor Supply,LEBANON,275,275 #275 #0275,1455B W MAIN ST,TN,37087
Tractor Supply,PLAINFIELD,276,276 #276 #0276,129 N PERRY RD,IN,46168
Tractor Supply,BISMARCK,277,277 #277 #0277,1101 BROOKSIDE LN,ND,58503
Tractor Supply,SAINT JOHNS,278,278 #278 #0278,2150 S US HWY 27,MI,48879
Tractor Supply,TEMPLE,279,279 #279 #0279,23208 SE H K DODGEN LOOP,TX,76502-6701
Tractor Supply,ONEIDA,280,280 #280 #0280,2019 UPPER LENOX AVE,NY,13421
Tractor Supply,GREENCASTLE,281,281 #281 #0281,25 PUTNAM PLAZA,IN,46135
Tractor Supply,WESTMINSTER,282,282 #282 #0282,1151 BALTIMORE BLVD,MD,21157
Tractor Supply,LITCHFIELD,283,283 #283 #0283,20 LITCHFIELD PLZ,IL,62056
Tractor Supply,PARIS,286,286 #286 #0286,2035 SPUR 139,TX,75462
Tractor Supply,WACO,287,287 #287 #0287,300 N VALLEY MILLS DR STE A,TX,76710
Tractor Supply,HILLSBORO,288,288 #288 #0288,1457 NORTH HIGH ST,OH,45133
Tractor Supply,FENTON,289,289 #289 #0289,3265 OWEN RD,MI,48430
Tractor Supply,NEWARK,290,290 #290 #0290,315 DEO DR,OH,43055
Tractor Supply,STURGIS,291,291 #291 #0291,1313 S CENTERVILLE RD,MI,49091
Tractor Supply,TOPEKA,292,292 #292 #0292,5236 SW TOPEKA BLVD,KS,66609
Tractor Supply,CLARKSVILLE,293,293 #293 #0293,3355 GUTHRIE HWY,TN,37040
Tractor Supply,COLUMBIA,294,294 #294 #0294,2211 CARMACK BLVD,TN,38401
Tractor Supply,VICTORIA,295,295 #295 #0295,9304 N NAVARRO ST,TX,77904
Tractor Supply,MOORHEAD,296,296 #296 #0296,3330 HWY 10 E,MN,56560
Tractor Supply,JONESVILLE,297,297 #297 #0297,710 OLDS ST,MI,49250
Tractor Supply,LIMA,298,298 #298 #0298,3101 ELIDA RD,OH,45805
Tractor Supply,WASHINGTON,301,301 #301 #0301,1750 WASHINGTON RD,IL,61571
Tractor Supply,BEATRICE,302,302 #302 #0302,3620 AIR PARK RD,NE,68310
Tractor Supply,BILLINGS,303,303 #303 #0303,496 MAIN ST,MT,59105
Tractor Supply,COLUMBUS,304,304 #304 #0304,1319 23RD ST,NE,68601
Tractor Supply,ADRIAN,305,305 #305 #0305,1260 W US HWY 223,MI,49221
Tractor Supply,WICHITA FALLS,306,306 #306 #0306,2618 SOUTHWEST PKWY,TX,76308
Tractor Supply,ATHENS,307,307 #307 #0307,1400 E TYLER ST,TX,75751
Tractor Supply,BURLESON,308,308 #308 #0308,324 SW WILSHIRE BLVD,TX,76028
Tractor Supply,LAGRANGE,309,309 #309 #0309,2005 W STATE HWY 71,TX,78945
Tractor Supply,RICHMOND,310,310 #310 #0310,1400 FM 2218 RD,TX,77469
Tractor Supply,MEDINA,311,311 #311 #0311,3768 PEARL RD,OH,44256
Tractor Supply,KEARNEY,312,312 #312 #0312,514 3RD AVE,NE,68845
Tractor Supply,BOONVILLE,313,313 #313 #0313,820B W MAIN ST,IN,47601
Tractor Supply,LANSING,315,315 #315 #0315,1111 N MAIN ST,KS,66043
Tractor Supply,HOWELL,316,316 #316 #0316,4601 E GRAND RIVER AVE,MI,48843
Tractor Supply,SALINA,317,317 #317 #0317,3120 RIFFEL DR,KS,67401
Tractor Supply,CORINTH,318,318 #318 #0318,1983 HWY 72 E,MS,38834
Tractor Supply,SIOUX FALLS,320,320 #320 #0320,3520 NORTH CLIFF AVE,SD,57104
Tractor Supply,SUSSEX,322,322 #322 #0322,775 ROUTE 23,NJ,7461
Tractor Supply,UTICA,323,323 #323 #0323,790 HORATIO ST,NY,13502
Tractor Supply,WATERTOWN,324,324 #324 #0324,2200 9TH AVE SE,SD,57201
Tractor Supply,WICHITA,325,325 #325 #0325,9425 W KELLOGG DR,KS,67209
Tractor Supply,COUNCIL BLUFFS,327,327 #327 #0327,329 W SOUTH OMAHA BRIDGE RD,IA,51501
Tractor Supply,ALBEMARLE,328,328 #328 #0328,636-24 NC 24-27 BYPASS E,NC,28001
Tractor Supply,JOPLIN,329,329 #329 #0329,1316 N RANGE LINE RD,MO,64801
Tractor Supply,OMAHA,330,330 #330 #0330,7910 L ST,NE,68127
Tractor Supply,TOPEKA,331,331 #331 #0331,710 NE US HWY 24,KS,66608
Tractor Supply,LINCOLN,332,332 #332 #0332,7300 HUSKER CIR,NE,68504
Tractor Supply,ROBSTOWN,333,333 #333 #0333,3153 US HWY 77,TX,78380
Tractor Supply,HUTCHINSON,336,336 #336 #0336,1203 N LORRAINE ST,KS,67501
Tractor Supply,MINERAL WELLS,338,338 #338 #0338,200 GARRETT MORRIS PKWY,TX,76067
Tractor Supply,MUKWONAGO,339,339 #339 #0339,857 S ROCHESTER ST STE 500,WI,53149
Tractor Supply,STARKE,340,340 #340 #0340,1371 S WALNUT ST,FL,32091
Tractor Supply,NEW HAVEN,341,341 #341 #0341,57155 GRATIOT AVE,MI,48048
Tractor Supply,NORFOLK,343,343 #343 #0343,2201 KRENZIEN DR,NE,68701
Tractor Supply,SAINT JOSEPH,345,345 #345 #0345,3027 S BELT HWY,MO,64503
Tractor Supply,TOCCOA,346,346 #346 #0346,998 BIG A RD,GA,30577
Tractor Supply,FAIRFIELD,347,347 #347 #0347,2068 BROOKVILLE RD,IA,52556
Tractor Supply,OLATHE,348,348 #348 #0348,11934 S STRANG LINE RD,KS,66062
Tractor Supply,PLAINWELL,349,349 #349 #0349,1221 M 89,MI,49080
Tractor Supply,TROY,350,350 #350 #0350,20 S STANFIELD RD,OH,45373
Tractor Supply,FARMINGTON,351,351 #351 #0351,604 WALMART DR,MO,63640
Tractor Supply,WOOSTER,352,352 #352 #0352,4166 BURBANK RD,OH,44691
Tractor Supply,GREENWOOD,353,353 #353 #0353,1460 US HWY 31 S,IN,46143
Tractor Supply,SPRINGBORO,354,354 #354 #0354,505 W CENTRAL AVE,OH,45066
Tractor Supply,STEPHENVILLE,355,355 #355 #0355,2900 W WASHINGTON ST STE 35,TX,76401
Tractor Supply,COOKEVILLE,356,356 #356 #0356,575 S JEFFERSON AVE STE A,TN,38501
Tractor Supply,BROWNWOOD,357,357 #357 #0357,315A E COMMERCE ST,TX,76801
Tractor Supply,GEORGETOWN,358,358 #358 #0358,305 CONNECTOR RD,KY,40324
Tractor Supply,GREENEVILLE,359,359 #359 #0359,1665 E ANDREW JOHNSON HWY,TN,37745
Tractor Supply,MORRISTOWN,360,360 #360 #0360,3480 W ANDREW JOHNSON HWY,TN,37814
Tractor Supply,MC MINNVILLE,361,361 #361 #0361,200 HOBSON ST,TN,37110
Tractor Supply,WEATHERFORD,362,362 #362 #0362,1817 S MAIN ST,TX,76086
Tractor Supply,SELMA,363,363 #363 #0363,1401 S POLLOCK ST,NC,27576
Tractor Supply,KIRKSVILLE,364,364 #364 #0364,1700 N BALTIMORE ST,MO,63501
Tractor Supply,BENTONVILLE,365,365 #365 #0365,2817 S WALTON BLVD,AR,72712
Tractor Supply,MOUNT AIRY,366,366 #366 #0366,2151 ROCKFORD ST STE C,NC,27030
Tractor Supply,SHERMAN,367,367 #367 #0367,3201 HWY 75 STE 101,TX,75091
Tractor Supply,CLEVELAND,368,368 #368 #0368,2750 KEITH ST NW,TN,37312
Tractor Supply,MARSHALL,369,369 #369 #0369,105 E END BLVD N,TX,75670
Tractor Supply,TOMBALL,370,370 #370 #0370,27400 TOMBALL PKWY,TX,77375
Tractor Supply,FARMINGTON,371,371 #371 #0371,215 E MAIN ST,AR,72730
Tractor Supply,MONROE,372,372 #372 #0372,2492 N TELEGRAPH RD,MI,48162
Tractor Supply,SAN ANGELO,373,373 #373 #0373,2701 SOUTHWEST BLVD,TX,76904
Tractor Supply,NACOGDOCHES,374,374 #374 #0374,4301A NORTH ST,TX,75965
Tractor Supply,BATAVIA,375,375 #375 #0375,1159 STATE ROUTE 32,OH,45103
Tractor Supply,SEARCY,376,376 #376 #0376,101 S POPLAR ST,AR,72143
Tractor Supply,ROCKY MOUNT,377,377 #377 #0377,506 SUTTERS CREEK RD,NC,27804
Tractor Supply,RICHMOND,378,378 #378 #0378,856 EASTERN BYP,KY,40475
Tractor Supply,WHITEVILLE,379,379 #379 #0379,26 WHITE CROSSING PLZ,NC,28472
Tractor Supply,KINGSPORT,380,380 #380 #0380,2606 MINNICH TR,TN,37660
Tractor Supply,HARRISON,381,381 #381 #0381,619 N HWY 62 65,AR,72601
Tractor Supply,CANTON,382,382 #382 #0382,401 E HWY 243,TX,75103-2423
Tractor Supply,SULPHUR SPRINGS,383,383 #383 #0383,1737 S BROADWAY ST,TX,75482
Tractor Supply,PALESTINE,384,384 #384 #0384,2200 S LOOP 256,TX,75801
Tractor Supply,MOUNT AIRY,385,385 #385 #0385,301 CENTURY DR,MD,21771
Tractor Supply,STATESVILLE,386,386 #386 #0386,1134 CROSSROADS DR,NC,28625
Tractor Supply,ASHEBORO,387,387 #387 #0387,1200 E DIXIE DR,NC,27203
Tractor Supply,MARYVILLE,388,388 #388 #0388,1800 W LAMAR ALEXANDER PKWY,TN,37801
Tractor Supply,BASTROP,389,389 #389 #0389,441B STATE HWY 71 W,TX,78602
Tractor Supply,UVALDE,390,390 #390 #0390,421 E MAIN ST,TX,78801
Tractor Supply,STAUNTON,391,391 #391 #0391,29 PAYNE LN,VA,24401
Tractor Supply,DECATUR,392,392 #392 #0392,1200 S FM 51,TX,76234
Tractor Supply,COLLEGE STATION,393,393 #393 #0393,2704 TEXAS AVE S STE 1,TX,77840
Tractor Supply,FLORENCE,394,394 #394 #0394,5895 CENTENNIAL CIR,KY,41042
Tractor Supply,BRISTOL,395,395 #395 #0395,13113 LEE HWY,VA,24202
Tractor Supply,DURANT,396,396 #396 #0396,2100 W EVERGREEN ST,OK,74701
Tractor Supply,HAMILTON,401,401 #401 #0401,1372 MAIN ST,OH,45013
Tractor Supply,TULLAHOMA,402,402 #402 #0402,1905 N JACKSON ST,TN,37388
Tractor Supply,NICHOLASVILLE,403,403 #403 #0403,1015 N MAIN ST,KY,40356
Tractor Supply,BRENHAM,404,404 #404 #0404,2718 S MARKET ST,TX,77833
Tractor Supply,SOMERSET,405,405 #405 #0405,3639 S HWY 27,KY,42501
Tractor Supply,AMHERST,406,406 #406 #0406,1971 COOPER FOSTER PARK RD,OH,44001
Tractor Supply,SOUTH BOSTON,407,407 #407 #0407,3130 HALIFAX RD STE E,VA,24592
Tractor Supply,PORTER,408,408 #408 #0408,23741 HWY 59 STE 41,TX,77365
Tractor Supply,WAXAHACHIE,409,409 #409 #0409,1201 N HWY 77,TX,75165
Tractor Supply,WEAVERVILLE,410,410 #410 #0410,14 MONTICELLO RD,NC,28787
Tractor Supply,WARRENTON,411,411 #411 #0411,41 W LEE HWY STE 65,VA,20186
Tractor Supply,CHILLICOTHE,412,412 #412 #0412,1850 N BRIDGE ST,OH,45601
Tractor Supply,GAINESVILLE,413,413 #413 #0413,1700 N GRAND AVE,TX,76240
Tractor Supply,SEGUIN,414,414 #414 #0414,1500 E COURT ST STE 900,TX,78155
Tractor Supply,ATHENS,415,415 #415 #0415,601 US HWY 72 W,AL,35611
Tractor Supply,CAMPBELLSVILLE,416,416 #416 #0416,399 CAMPBELLSVILLE BYP STE 170,KY,42718
Tractor Supply,MONROE,417,417 #417 #0417,1010 W ROOSEVELT BLVD,NC,28110
Tractor Supply,SAN MARCOS,418,418 #418 #0418,935 HWY 80,TX,78666
Tractor Supply,INDEPENDENCE,420,420 #420 #0420,2210 S STATE ROUTE 291,MO,64057
Tractor Supply,LAWRENCEBURG,421,421 #421 #0421,2028 N LOCUST AVE,TN,38464
Tractor Supply,WESLACO,422,422 #422 #0422,1002 EXPRESSWAY 83,TX,78596
Tractor Supply,ORANGEBURG,423,423 #423 #0423,2994 NORTH RD,SC,29118
Tractor Supply,HENDERSON,424,424 #424 #0424,2307 US HWY 79 S,TX,75654
Tractor Supply,SEVIERVILLE,425,425 #425 #0425,330 W MAIN ST,TN,37862
Tractor Supply,WINCHESTER,426,426 #426 #0426,1500 BYPASS RD,KY,40391
Tractor Supply,WARREN,427,427 #427 #0427,3800 ELM RD NE,OH,44483
Tractor Supply,FAYETTEVILLE,428,428 #428 #0428,1332 HUNTSVILLE HWY,TN,37334
Tractor Supply,GREENVILLE,429,429 #429 #0429,2703 TRADERS RD,TX,75402
Tractor Supply,GEORGETOWN,430,430 #430 #0430,800 S IH 35,TX,78626
Tractor Supply,WESTFIELD,431,431 #431 #0431,18160 US 31 N,IN,46074
Tractor Supply,EL RENO,432,432 #432 #0432,1504 SW 27TH ST,OK,73036
Tractor Supply,LEESBURG,433,433 #433 #0433,935 EDWARDS FERRY RD NE,VA,20176
Tractor Supply,CULLMAN,434,434 #434 #0434,1807 2ND AVE SW,AL,35055
Tractor Supply,COLUMBUS,435,435 #435 #0435,5525 W BROAD ST,OH,43228
Tractor Supply,JACKSONVILLE,436,436 #436 #0436,1626 S JACKSON ST STE 128,TX,75766
Tractor Supply,MARYSVILLE,437,437 #437 #0437,15600 US HWY 36,OH,43040
Tractor Supply,GALLATIN,438,438 #438 #0438,670A NASHVILLE PK,TN,37066
Tractor Supply,SHELBY,439,439 #439 #0439,1665 E DIXON BLVD,NC,28152
Tractor Supply,ANDERSON,440,440 #440 #0440,3719 CLEMSON BLVD,SC,29621
Tractor Supply,MIDDLEFIELD,441,441 #441 #0441,15411 W HIGH ST,OH,44062
Tractor Supply,TEXARKANA,442,442 #442 #0442,5001 N STATE LINE AVE STE D,TX,75503
Tractor Supply,MOUNT PLEASANT,443,443 #443 #0443,2525 S JEFFERSON AVE,TX,75455
Tractor Supply,MESQUITE,444,444 #444 #0444,1740 N BELT LINE RD,TX,75149
Tractor Supply,BURLINGTON,445,445 #445 #0445,3129 GARDEN RD,NC,27215
Tractor Supply,ALVIN,446,446 #446 #0446,1200 FM 1462 RD,TX,77511
Tractor Supply,DANVILLE,447,447 #447 #0447,119 PINEY FOREST RD,VA,24540
Tractor Supply,HUNTSVILLE,448,448 #448 #0448,960 VETERANS MEMORIAL HWY,TX,77320
Tractor Supply,PICKERINGTON,449,449 #449 #0449,12985 STONECREEK DR,OH,43147
Tractor Supply,HARRISON,450,450 #450 #0450,389 COMFORT DR,OH,45030
Tractor Supply,MAYSVILLE,451,451 #451 #0451,501 MARKET SQUARE DR,KY,41056
Tractor Supply,DENTON,452,452 #452 #0452,1200 S LOOP 288,TX,76205
Tractor Supply,NEWBERRY,453,453 #453 #0453,2808 MAIN ST,SC,29108
Tractor Supply,DICKSON,454,454 #454 #0454,715 HWY 46 S,TN,37055
Tractor Supply,TERRELL,455,455 #455 #0455,100 STATE HWY 205 STE 100,TX,75160
Tractor Supply,GONZALES,456,456 #456 #0456,1619 E SARAH DEWITT DR,TX,78629
Tractor Supply,ELKIN,457,457 #457 #0457,1925 N BRIDGE ST STE 100,NC,28621
Tractor Supply,NEWTON,458,458 #458 #0458,3250 HWY 70 SE,NC,28658
Tractor Supply,ADA,459,459 #459 #0459,1320 N HILLS SHOPPING CTR,OK,74820
Tractor Supply,CLEBURNE,460,460 #460 #0460,1615 W HENDERSON ST STE A,TX,76033
Tractor Supply,LAKE WORTH,461,461 #461 #0461,3919 TELEPHONE RD,TX,76135
Tractor Supply,LIBERTY,462,462 #462 #0462,2337 N MAIN ST,TX,77575
Tractor Supply,SALISBURY,463,463 #463 #0463,405 JAKE ALEXANDER BLVD S,NC,28147
Tractor Supply,CONCORD,464,464 #464 #0464,104 COMMERCIAL PARK DR,NC,28027
Tractor Supply,LAKE JACKSON,465,465 #465 #0465,203 HWY 332 W,TX,77566
Tractor Supply,BENBROOK,466,466 #466 #0466,9249 HWY 377 S,TX,76126
Tractor Supply,MADISON HEIGHTS,467,467 #467 #0467,248 AMELON SQ,VA,24572
Tractor Supply,CLEMMONS,468,468 #468 #0468,196 WESTWOOD VILLAGE DR,NC,27012
Tractor Supply,TYLER,469,469 #469 #0469,3509 ROBERTSON RD,TX,75701
Tractor Supply,ROCK HILL,470,470 #470 #0470,2374 CROSSPOINTE DR,SC,29730
Tractor Supply,GREENWOOD,471,471 #471 #0471,109 TOWERS DR,SC,29649
Tractor Supply,AUGUSTA,472,472 #472 #0472,10025 SW DIAMOND RD,KS,67010
Tractor Supply,BEEVILLE,473,473 #473 #0473,2500 N SAINT MARYS ST,TX,78102
Tractor Supply,MAULDIN,474,474 #474 #0474,206 S MAIN ST STE F,SC,29662
Tractor Supply,CHRISTIANSBURG,475,475 #475 #0475,1542 ROANOKE ST,VA,24073
Tractor Supply,JACKSON,476,476 #476 #0476,15 CARRIAGE HOUSE DR,TN,38305
Tractor Supply,RURAL HALL,477,477 #477 #0477,1011 BETHANIA RURAL HALL RD,NC,27045
Tractor Supply,CROSSVILLE,478,478 #478 #0478,135 HIGHLAND SQ,TN,38555
Tractor Supply,PULASKI,479,479 #479 #0479,1640 W COLLEGE ST,TN,38478
Tractor Supply,CONROE,480,480 #480 #0480,1407 I 45 N,TX,77304
Tractor Supply,GOLDSBORO - RELO,481,481 #481 #0481,1308 W GRANTHAM ST,NC,27530-1161
Tractor Supply,LEXINGTON,483,483 #483 #0483,800 N LEE HWY,VA,24450
Tractor Supply,EASTLAND,484,484 #484 #0484,1401 E MAIN ST,TX,76448
Tractor Supply,LEXINGTON,485,485 #485 #0485,5589 SUNSET BLVD,SC,29072
Tractor Supply,LONGVIEW,486,486 #486 #0486,1011 WAL ST STE 300,TX,75605
Tractor Supply,MANSFIELD,487,487 #487 #0487,1550 HIGHWAY 157 N,TX,76063
Tractor Supply,CEDAR PARK,488,488 #488 #0488,2000 N BELL BLVD,TX,78613
Tractor Supply,SHELBYVILLE,489,489 #489 #0489,196 MIDLAND BLVD,KY,40065
Tractor Supply,CORSICANA,490,490 #490 #0490,3751 W HIGHWAY 31,TX,75110
Tractor Supply,SANDUSKY,491,491 #491 #0491,47 DAWSON ST,MI,48471
Tractor Supply,BEAVERCREEK,492,492 #492 #0492,610 N ORCHARD LN,OH,45434
Tractor Supply,BOERNE,493,493 #493 #0493,1530 S MAIN ST,TX,78006-3308
Tractor Supply,PLEASANTON,494,494 #494 #0494,1715 W OAKLAWN RD STE A,TX,78064
Tractor Supply,SMYRNA,495,495 #495 #0495,513 NOLAN DR,TN,37167
Tractor Supply,OLD HICKORY,500,500 #500 #0500,14925 LEBANON RD,TN,37138
Tractor Supply,WINTERVILLE,501,501 #501 #0501,3985 S MEMORIAL DR,NC,28590
Tractor Supply,KNIGHTDALE,502,502 #502 #0502,1201 MAMMOTH DR,NC,27545
Tractor Supply,SPARTANBURG,503,503 #503 #0503,2091 E MAIN ST,SC,29307
Tractor Supply,KERRVILLE,504,504 #504 #0504,1305 SIDNEY BAKER ST,TX,78028
Tractor Supply,FORT PIERCE,505,505 #505 #0505,4888 OKEECHOBEE RD,FL,34947
Tractor Supply,SAINT CLOUD,506,506 #506 #0506,4257 13TH ST,FL,34769
Tractor Supply,CHIEFLAND,507,507 #507 #0507,2202 N YOUNG BLVD STE 100,FL,32626
Tractor Supply,LAKE WALES,508,508 #508 #0508,1450 STATE ROAD 60 E,FL,33853
Tractor Supply,LEESBURG,509,509 #509 #0509,1706 CITRUS BLVD,FL,34748
Tractor Supply,SEBRING,510,510 #510 #0510,3300 US HWY 27 S,FL,33870
Tractor Supply,OKEECHOBEE,512,512 #512 #0512,3371 HWY 441 S,FL,34974
Tractor Supply,EUSTIS,513,513 #513 #0513,100 W ARDICE AVE,FL,32726
Tractor Supply,HAINES CITY,514,514 #514 #0514,35874 HWY 27,FL,33844
Tractor Supply,PLANT CITY,515,515 #515 #0515,1803 JIM REDMAN PKWY,FL,33563
Tractor Supply,COLLEGE GROVE,516,516 #516 #0516,5111 MURFREESBORO RD,TN,37046
Tractor Supply,MOORE,517,517 #517 #0517,2030 S TELEPHONE RD,OK,73160
Tractor Supply,CLAYTON,518,518 #518 #0518,7355 SALEM AVE,OH,45315
Tractor Supply,JACKSON,519,519 #519 #0519,3350 E MICHIGAN AVE,MI,49202
Tractor Supply,JOHNSON CITY,520,520 #520 #0520,4534 BRISTOL HWY,TN,37686
Tractor Supply,KILLEEN,521,521 #521 #0521,2002 E CENTRAL TEXAS EXPY,TX,76541
Tractor Supply,ANGOLA,522,522 #522 #0522,1807 N WAYNE ST,IN,46703
Tractor Supply,ATHENS,523,523 #523 #0523,622 CONGRESS PKWY S,TN,37303
Tractor Supply,LOVELAND,524,524 #524 #0524,3333 MONTGOMERY RD,OH,45140
Tractor Supply,HERMITAGE,525,525 #525 #0525,2998 E STATE ST,PA,16148
Tractor Supply,WASHINGTON,526,526 #526 #0526,66030 VAN DYKE RD,MI,48095
Tractor Supply,EDMOND,527,527 #527 #0527,601 COMFORT DR,OK,73013
Tractor Supply,AUGUSTA,528,528 #528 #0528,596 BOBBY JONES EXPY STE 20C,GA,30907
Tractor Supply,KNOXVILLE,529,529 #529 #0529,7580 MAYNARDVILLE PK,TN,37938
Tractor Supply,CHARLOTTESVILLE,530,530 #530 #0530,921 RIVER RD,VA,22901
Tractor Supply,SALINE,531,531 #531 #0531,111 SAGE CT,MI,48176
Tractor Supply,BROOKSVILLE,532,532 #532 #0532,18741 CORTEZ BLVD,FL,34601
Tractor Supply,ANDERSON,533,533 #533 #0533,6818 S SCATTERFIELD RD,IN,46013
Tractor Supply,MEADVILLE,534,534 #534 #0534,16083 CONNEAUT LAKE RD,PA,16335
Tractor Supply,ASHTABULA,535,535 #535 #0535,2915 N RIDGE E,OH,44004
Tractor Supply,DANVILLE,536,536 #536 #0536,2900 S DANVILLE BYP,KY,40422
Tractor Supply,NEWBERRY,537,537 #537 #0537,14151 W NEWBERRY RD,FL,32669
Tractor Supply,OCALA,538,538 #538 #0538,7351 N US HWY 441,FL,34475-7667
Tractor Supply,WYLIE,539,539 #539 #0539,900 S WESTGATE WAY,TX,75098
Tractor Supply,BRADENTON,540,540 #540 #0540,4404 E STATE ROAD 64,FL,34208
Tractor Supply,PALATKA,541,541 #541 #0541,115 N STATE ROAD 19,FL,32177
Tractor Supply,ORANGE PARK,542,542 #542 #0542,1455 BLANDING BLVD,FL,32065
Tractor Supply,BELTON,543,543 #543 #0543,8016 E 171ST ST,MO,64012
Tractor Supply,WAUCHULA,544,544 #544 #0544,1101 S 6TH AVE,FL,33873
Tractor Supply,ZEPHYRHILLS,545,545 #545 #0545,7431 GALL BLVD,FL,33541
Tractor Supply,LAFAYETTE,546,546 #546 #0546,449 HWY 52 BYP W,TN,37083
Tractor Supply,BEDFORD,547,547 #547 #0547,1128 E LYNCHBURG SALEM TPKE,VA,24523
Tractor Supply,CARROLLTON,548,548 #548 #0548,912 S PARK ST,GA,30117
Tractor Supply,DELAND,549,549 #549 #0549,2300 N WOODLAND BLVD,FL,32720
Tractor Supply,LAKE CITY,550,550 #550 #0550,4281 W US HWY 90,FL,32055
Tractor Supply,LENOIR CITY,551,551 #551 #0551,785 HWY 321 N,TN,37771-6543
Tractor Supply,CALHOUN,552,552 #552 #0552,490 HWY 53 SE,GA,30701
Tractor Supply,FORT OGLETHORPE,553,553 #553 #0553,1785 BATTLEFIELD PKWY,GA,30742
Tractor Supply,ERIE,554,554 #554 #0554,2275 DOWNS DR,PA,16509
Tractor Supply,MARION,555,555 #555 #0555,1591 N MAIN ST,VA,24354
Tractor Supply,FORT PAYNE,556,556 #556 #0556,100 DEKALB PLAZA BLVD SW,AL,35967
Tractor Supply,BAY CITY,557,557 #557 #0557,2886 WILDER RD,MI,48706
Tractor Supply,HILLSBORO,558,558 #558 #0558,307 COKE AVE,TX,76645
Tractor Supply,PONCA CITY,559,559 #559 #0559,3008 N 14TH ST,OK,74601
Tractor Supply,ORLANDO,560,560 #560 #0560,16849 E COLONIAL DR,FL,32820-1910
Tractor Supply,MARBLE FALLS,561,561 #561 #0561,1507 US HWY 281,TX,78654
Tractor Supply,MELBOURNE,562,562 #562 #0562,3660 W NEW HAVEN AVE,FL,32904
Tractor Supply,PORT CHARLOTTE,563,563 #563 #0563,1185 KINGS HWY,FL,33980
Tractor Supply,ARCADIA,564,564 #564 #0564,1701 E OAK ST,FL,34266
Tractor Supply,DUNNELLON,565,565 #565 #0565,11252 N WILLIAMS ST,FL,34432
Tractor Supply,MC KINNEY,566,566 #566 #0566,3350 N CENTRAL EXPY,TX,75071
Tractor Supply,LAKELAND,567,567 #567 #0567,6945 US HWY 98 N,FL,33809
Tractor Supply,COVINGTON,568,568 #568 #0568,10161 LOCHRIDGE BLVD,GA,30014
Tractor Supply,OCALA,569,569 #569 #0569,1751 SW 134TH ST,FL,34473
Tractor Supply,BIG RAPIDS,570,570 #570 #0570,754 PERRY AVE,MI,49307
Tractor Supply,FORT MYERS,571,571 #571 #0571,2395 S OLGA DR,FL,33905
Tractor Supply,MCPHERSON,572,572 #572 #0572,1330 N MAIN ST,KS,67460
Tractor Supply,NEW PORT RICHEY,573,573 #573 #0573,8447 STATE ROAD 54,FL,34655
Tractor Supply,NEW PHILADELPHIA,574,574 #574 #0574,240 BLUEBELL DR NW,OH,44663
Tractor Supply,ABILENE,575,575 #575 #0575,4450 SOUTHWEST DR,TX,79606
Tractor Supply,GREENFIELD,576,576 #576 #0576,1645 N STATE ST,IN,46140
Tractor Supply,HANOVER,577,577 #577 #0577,1150 CARLISLE ST,PA,17331-1100
Tractor Supply,GRIFFIN,578,578 #578 #0578,1515 LUCKY ST,GA,30223
Tractor Supply,CLARKSBURG,579,579 #579 #0579,210 EMILY DR,WV,26301
Tractor Supply,WESTON,580,580 #580 #0580,100 MARKET PLACE MALL STE 1,WV,26452
Tractor Supply,HORSEHEADS,581,581 #581 #0581,1020 CENTER ST,NY,14845
Tractor Supply,ARCADE,582,582 #582 #0582,378 MAIN ST,NY,14009
Tractor Supply,MEXIA,583,583 #583 #0583,1011 E MILAM ST,TX,76667
Tractor Supply,JACKSON,584,584 #584 #0584,2805 SPRINGPORT RD,MI,49202
Tractor Supply,ABERDEEN,585,585 #585 #0585,2201 6TH AVE SE,SD,57401
Tractor Supply,SAYRE,586,586 #586 #0586,407 N ELMIRA ST,PA,18840
Tractor Supply,LAKEWOOD,587,587 #587 #0587,201 E FAIRMOUNT AVE,NY,14750
Tractor Supply,WARSAW,588,588 #588 #0588,461 N MAIN ST,NY,14569
Tractor Supply,MUNCY,589,589 #589 #0589,42 EASTERN MALL DR,PA,17756
Tractor Supply,LA GRANGE,590,590 #590 #0590,100 PLANTATION WAY,GA,30241
Tractor Supply,BUTLER,591,591 #591 #0591,148 ALAMEDA PLAZA,PA,16001
Tractor Supply,AMENIA,592,592 #592 #0592,5094 ROUTE 22,NY,12501
Tractor Supply,LEITCHFIELD,593,593 #593 #0593,1351 ELIZABETHTOWN RD,KY,42754
Tractor Supply,THOMASVILLE,594,594 #594 #0594,15086 US HWY 19 S,GA,31757
Tractor Supply,CONWAY,595,595 #595 #0595,2280 SANDERS RD,AR,72032
Tractor Supply,RUSSELLVILLE,596,596 #596 #0596,320 N HAMPTON AVE,AR,72802
Tractor Supply,DYERSBURG,600,600 #600 #0600,2705 LAKE RD,TN,38024
Tractor Supply,FRANKLIN,601,601 #601 #0601,1075 S MAIN ST,KY,42134
Tractor Supply,UNION CITY,602,602 #602 #0602,425 W REELFOOT AVE,TN,38261
Tractor Supply,GRAHAM,603,603 #603 #0603,1551 FOURTH ST,TX,76450
Tractor Supply,SOUTHAMPTON,604,604 #604 #0604,2 COLLEGE HWY,MA,1073
Tractor Supply,JAMESTOWN,605,605 #605 #0605,1100 5TH AVE SE,ND,58401
Tractor Supply,PURCELL,606,606 #606 #0606,1620 N GREEN AVE,OK,73080
Tractor Supply,OXFORD,607,607 #607 #0607,321 N THIRD ST,PA,19363
Tractor Supply,HARVEY,608,608 #608 #0608,716 HWY 52,ND,58341
Tractor Supply,ELK RIVER,610,610 #610 #0610,11150 179TH AVE NW,MN,55330
Tractor Supply,HURRICANE,611,611 #611 #0611,3790 TEAYS VALLEY RD,WV,25526
Tractor Supply,ANKENY,612,612 #612 #0612,405 SE ORALABOR ROAD,IA,50021
Tractor Supply,LAWRENCEBURG,613,613 #613 #0613,230 WEST PARK,KY,40342
Tractor Supply,MITCHELL,614,614 #614 #0614,2400 S MENTZER ST,SD,57301
Tractor Supply,DOVER,615,615 #615 #0615,4089 S DUPONT HWY,DE,19901
Tractor Supply,COLUMBIA CITY,616,616 #616 #0616,528 N MAIN ST,IN,46725
Tractor Supply,CORYDON,617,617 #617 #0617,1935 OLD HWY 135 NW,IN,47112
Tractor Supply,FRANKLIN,618,618 #618 #0618,1540 N MORTON ST,IN,46131
Tractor Supply,GREENSBURG,619,619 #619 #0619,1929 N GREENSBURG CROSSING,IN,47240
Tractor Supply,KENDALLVILLE,620,620 #620 #0620,995 E NORTH ST,IN,46755
Tractor Supply,LA PORTE,621,621 #621 #0621,71 PINE LAKE AVE,IN,46350
Tractor Supply,MADISON,622,622 #622 #0622,405 E CLIFTY DR,IN,47250
Tractor Supply,MUNCIE,623,623 #623 #0623,3601 E MCGALLIARD RD,IN,47303
Tractor Supply,NOBLESVILLE,624,624 #624 #0624,2375 PLEASANT ST,IN,46060
Tractor Supply,SEYMOUR,625,625 #625 #0625,2003 E TIPTON ST,IN,47274
Tractor Supply,BARDSTOWN,626,626 #626 #0626,235 KENTUCKY HOME SQ,KY,40004
Tractor Supply,LOUISVILLE,627,627 #627 #0627,11250 PRESTON HWY,KY,40229
Tractor Supply,LONDON,628,628 #628 #0628,100 LONDON SHOPPING CTR,KY,40741
Tractor Supply,HAGERSTOWN,629,629 #629 #0629,1701 MASSEY BLVD,MD,21740
Tractor Supply,ALPENA,630,630 #630 #0630,310 S RIPLEY BLVD,MI,49707
Tractor Supply,BAD AXE,631,631 #631 #0631,736 N VAN DYKE RD,MI,48413
Tractor Supply,CADILLAC,632,632 #632 #0632,9040 E 34 ROAD,MI,49601
Tractor Supply,CEDAR SPRINGS,633,633 #633 #0633,4011 17 MILE RD NE,MI,49319
Tractor Supply,CLIO,634,634 #634 #0634,4058 W VIENNA RD,MI,48420
Tractor Supply,FREMONT,635,635 #635 #0635,1328 W MAIN ST,MI,49412
Tractor Supply,GAYLORD,636,636 #636 #0636,1286 S OTSEGO AVE,MI,49735
Tractor Supply,IMLAY CITY,637,637 #637 #0637,2070 S CEDAR ST,MI,48444
Tractor Supply,LANSING,638,638 #638 #0638,5241 W GRAND RIV,MI,48906
Tractor Supply,LUDINGTON,639,639 #639 #0639,4572 W US HWY 10,MI,49431
Tractor Supply,MOUNT PLEASANT,640,640 #640 #0640,5688 E PICKARD ST,MI,48858
Tractor Supply,MUSKEGON,641,641 #641 #0641,1550 WHITEHALL RD,MI,49445
Tractor Supply,PORTAGE,642,642 #642 #0642,8610 SHAVER RD,MI,49002
Tractor Supply,SAGINAW,643,643 #643 #0643,5555 BAY RD,MI,48604
Tractor Supply,TRAVERSE CITY,645,645 #645 #0645,825 US HWY 31 S,MI,49685
Tractor Supply,WEST BRANCH,646,646 #646 #0646,2050 S M 76,MI,48661
Tractor Supply,AMSTERDAM,647,647 #647 #0647,4850 STATE HWY 30,NY,12010
Tractor Supply,AUBURN,648,648 #648 #0648,360 GRANT AVENUE RD,NY,13021
Tractor Supply,BATAVIA,649,649 #649 #0649,4974 E MAIN ST,NY,14020
Tractor Supply,CANANDAIGUA,650,650 #650 #0650,2380 ROCHESTER RD,NY,14424
Tractor Supply,COBLESKILL,651,651 #651 #0651,125 PLAZA LN,NY,12043
Tractor Supply,CORTLAND,652,652 #652 #0652,848 STATE ROUTE 13,NY,13045
Tractor Supply,DUNKIRK,653,653 #653 #0653,3978 VINEYARD DR,NY,14048
Tractor Supply,FULTON,654,654 #654 #0654,806 W BROADWAY STE 1,NY,13069
Tractor Supply,GENESEO,655,655 #655 #0655,4377 GENESEE VALLEY PLAZA,NY,14454
Tractor Supply,LOCKPORT,656,656 #656 #0656,6015 S TRANSIT RD,NY,14094
Tractor Supply,ONEONTA,657,657 #657 #0657,6396 STATE HWY 23,NY,13820
Tractor Supply,VESTAL,658,658 #658 #0658,154 VESTAL PKWY W,NY,13850
Tractor Supply,WATERTOWN,659,659 #659 #0659,1125 ARSENAL ST,NY,13601
Tractor Supply,WELLSVILLE,660,660 #660 #0660,480 BOLIVAR RD,NY,14895
Tractor Supply,ALLIANCE,661,661 #661 #0661,2520 W STATE ST,OH,44601
Tractor Supply,CAMBRIDGE,662,662 #662 #0662,2000 SOUTHGATE PKWY,OH,43725-3080
Tractor Supply,CHARDON,663,663 #663 #0663,540 WATER ST,OH,44024
Tractor Supply,CIRCLEVILLE,664,664 #664 #0664,23735 US HWY 23 S,OH,43113
Tractor Supply,COSHOCTON,665,665 #665 #0665,499 DOWNTOWNER PLZ,OH,43812
Tractor Supply,EATON,667,667 #667 #0667,1637 N BARRON ST,OH,45320
Tractor Supply,FINDLAY,668,668 #668 #0668,15212 E US ROUTE 224,OH,45840
Tractor Supply,FREMONT,669,669 #669 #0669,3801 W STATE ST,OH,43420
Tractor Supply,GALLIPOLIS,670,670 #670 #0670,600 SILVER BRIDGE PLZ,OH,45631
Tractor Supply,GREENVILLE,671,671 #671 #0671,1415 WAGNER AVE,OH,45331
Tractor Supply,HAMILTON,672,672 #672 #0672,4525 HAMILTON MIDDLETOWN RD,OH,45011
Tractor Supply,JACKSON,673,673 #673 #0673,780 E MAIN ST,OH,45640
Tractor Supply,CARROLL,674,674 #674 #0674,3700 CLAYPOOL DR,OH,43112
Tractor Supply,MANSFIELD,675,675 #675 #0675,2727 W 4TH ST,OH,44906
Tractor Supply,MARIETTA,676,676 #676 #0676,315 GROSS ST,OH,45750
Tractor Supply,MARION,677,677 #677 #0677,1488 MARION WALDO RD,OH,43302
Tractor Supply,HEATH,678,678 #678 #0678,2035 HEBRON RD,OH,43056
Tractor Supply,RAVENNA,679,679 #679 #0679,1149 E MAIN ST,OH,44266
Tractor Supply,SALEM,680,680 #680 #0680,2366 E STATE ST,OH,44460
Tractor Supply,SANDUSKY,681,681 #681 #0681,709 W PERKINS AVE,OH,44870
Tractor Supply,VAN WERT,682,682 #682 #0682,1122 S SHANNON ST,OH,45891
Tractor Supply,BLOOMSBURG,683,683 #683 #0683,1399 COLUMBIA RD,PA,17815
Tractor Supply,CHAMBERSBURG,684,684 #684 #0684,1733 LINCOLN WAY E,PA,17201
Tractor Supply,CLEARFIELD,685,685 #685 #0685,1720 RIVER RD,PA,16830
Tractor Supply,CORRY,686,686 #686 #0686,390 W COLUMBUS AVE,PA,16407
Tractor Supply,INDIANA,687,687 #687 #0687,2000 SHELLY DR,PA,15701
Tractor Supply,LATROBE,688,688 #688 #0688,310 LATROBE THIRTY PLZ,PA,15650
Tractor Supply,LEWISTOWN,689,689 #689 #0689,10410B US HWY 522 S,PA,17044
Tractor Supply,MOUNT PLEASANT,690,690 #690 #0690,820 CROSSROADS PLZ,PA,15666
Tractor Supply,QUAKERTOWN,691,691 #691 #0691,735 N WEST END BLVD,PA,18951
Tractor Supply,SHAMOKIN DAM,692,692 #692 #0692,1 BALDWIN BLVD STE 23,PA,17876
Tractor Supply,SOMERSET,693,693 #693 #0693,1534 N CENTER AVE STE 100,PA,15501
Tractor Supply,UNIONTOWN,694,694 #694 #0694,575 MORGANTOWN RD,PA,15401
Tractor Supply,FREDERICKSBURG,695,695 #695 #0695,4179 PLANK RD,VA,22407
Tractor Supply,HARRISONBURG,696,696 #696 #0696,2385 E MARKET ST,VA,22801
Tractor Supply,WINCHESTER,697,697 #697 #0697,150 GETTY LN,VA,22603
Tractor Supply,FOLLANSBEE,698,698 #698 #0698,1500 MAIN ST,WV,26037
Tractor Supply,KEYSER,699,699 #699 #0699,US RT 220 S,WV,26726
Tractor Supply,MARTINSBURG,700,700 #700 #0700,1212 N QUEEN ST,WV,25404
Tractor Supply,NEW MARTINSVILLE,701,701 #701 #0701,245 N STATE ROUTE 2,WV,26155
Tractor Supply,WHEELING,702,702 #702 #0702,6 ELM GROVE CROSSING MALL,WV,26003
Tractor Supply,CULPEPER,703,703 #703 #0703,588 CULPEPER TOWN SQ,VA,22701
Tractor Supply,OMAHA,704,704 #704 #0704,9630 IDA ST,NE,68122
Tractor Supply,HOPKINSVILLE,705,705 #705 #0705,10710 EAGLE WAY,KY,42240
Tractor Supply,SHELBYVILLE,706,706 #706 #0706,1714 N MAIN ST,TN,37160
Tractor Supply,DUNCANSVILLE,707,707 #707 #0707,2002 OLD ROUTE 220 N,PA,16635
Tractor Supply,STATE COLLEGE,708,708 #708 #0708,965 BENNER PK,PA,16801
Tractor Supply,KITTANNING,709,709 #709 #0709,31 FRANKLIN VILLAGE MALL,PA,16201
Tractor Supply,TEMPLE,710,710 #710 #0710,5370 ALLENTOWN PK,PA,19560
Tractor Supply,ARDMORE,711,711 #711 #0711,2520 N COMMERCE ST,OK,73401
Tractor Supply,OSWEGO,712,712 #712 #0712,293 SR 104,NY,13126
Tractor Supply,LEXINGTON,713,713 #713 #0713,677 WEST CHURCH ST,TN,38351
Tractor Supply,COOPERSVILLE,714,714 #714 #0714,1070 W RANDALL ST,MI,49404
Tractor Supply,ZANESVILLE,715,715 #715 #0715,3660 MAPLE AVE,OH,43701
Tractor Supply,CHESTER,716,716 #716 #0716,78 BROOKSIDE AVE,NY,10918
Tractor Supply,HORN LAKE,717,717 #717 #0717,6915 WINDCHASE DR,MS,38637
Tractor Supply,ENFIELD,718,718 #718 #0718,67 PALOMBA DR,CT,6082
Tractor Supply,MAYFIELD,719,719 #719 #0719,1111 PARIS RD,KY,42066
Tractor Supply,NORWICH,720,720 #720 #0720,5640 STATE HWY 12,NY,13815
Tractor Supply,GLENS FALLS,721,721 #721 #0721,751 UPPER GLEN ST,NY,12804
Tractor Supply,ALBANY,722,722 #722 #0722,2761 LEDO RD,GA,31707
Tractor Supply,ELKTON,723,723 #723 #0723,1111 E PULASKI HWY,MD,21921
Tractor Supply,AIKEN,724,724 #724 #0724,2655 WHISKEY ROAD,SC,29803
Tractor Supply,LOWELL,725,725 #725 #0725,2111 W MAIN ST,MI,49331
Tractor Supply,YUBA CITY,726,726 #726 #0726,990 THARP RD,CA,95993
Tractor Supply,SPINDALE,727,727 #727 #0727,1639 US HWY 74A BYPASS,NC,28160
Tractor Supply,PITTSFIELD,728,728 #728 #0728,898 CRANE AVE,MA,1201
Tractor Supply,MIDLOTHIAN,729,729 #729 #0729,6801 LAKE HARBOUR DR,VA,23112
Tractor Supply,SARATOGA SPRINGS,730,730 #730 #0730,79 WEIBEL AVE,NY,12866
Tractor Supply,DUNCAN,731,731 #731 #0731,1520 W PLATO RD,OK,73533
Tractor Supply,JOHNSTOWN,732,732 #732 #0732,640 GALLERIA DR,PA,15904
Tractor Supply,BEAUMONT,733,733 #733 #0733,8055 EASTEX FREEWAY,TX,77708
Tractor Supply,OROVILLE,734,734 #734 #0734,2000 FEATHER RIVER BLVD,CA,95965
Tractor Supply,DRIPPING SPRINGS,735,735 #735 #0735,1711B W HWY 290,TX,78620
Tractor Supply,VIROQUA,736,736 #736 #0736,1202 N MAIN ST,WI,54665
Tractor Supply,DUNDEE,737,737 #737 #0737,16497 TECUMSEH RD,MI,48131
Tractor Supply,BROCKPORT,738,738 #738 #0738,6365 BROCKPORT-SPENCERPORT RD,NY,14420
Tractor Supply,WOODSTOCK,739,739 #739 #0739,541 W RESERVIOR RD,VA,22664
Tractor Supply,PRAIRIE DU CHIEN,740,740 #740 #0740,20 RIVERSIDE SQ,WI,53821
Tractor Supply,NORTH CLARENDON,741,741 #741 #0741,1177 US ROUTE 7 S,VT,5759
Tractor Supply,LIBERTY,742,742 #742 #0742,1939 STATE ROUTE 52,NY,12754
Tractor Supply,HASTINGS,743,743 #743 #0743,2490 W M-43 HWY,MI,49058
Tractor Supply,RED BLUFF,744,744 #744 #0744,249 S MAIN ST,CA,96080
Tractor Supply,OREGON,745,745 #745 #0745,3942 NAVARRE AVE,OH,43616
Tractor Supply,BEDFORD,746,746 #746 #0746,88 BEDFORD SQ,PA,15537
Tractor Supply,GREER,747,747 #747 #0747,1326 W WADE HAMPTON BLVD,SC,29650
Tractor Supply,EAST LIVERPOOL,748,748 #748 #0748,15981 STATE ROUTE 170,OH,43920
Tractor Supply,WILLIAMSTOWN,749,749 #749 #0749,1418 N MAIN ST,KY,41097
Tractor Supply,HIGHLAND,750,750 #750 #0750,3650 US HWY 9W,NY,12528
Tractor Supply,BULVERDE,751,751 #751 #0751,33701 HWY 281 N,TX,78163
Tractor Supply,TREXLERTOWN,752,752 #752 #0752,7450 HAMILTON BLVD,PA,18087
Tractor Supply,BENNINGTON,753,753 #753 #0753,300 DEPOT ST,VT,5201
Tractor Supply,BARKHAMSTED,754,754 #754 #0754,380 NEW HARTFORD RD,CT,6063
Tractor Supply,HUDSON,755,755 #755 #0755,350 FAIRVIEW AVE,NY,12534
Tractor Supply,KATY,756,756 #756 #0756,444 FM 1463 RD,TX,77494
Tractor Supply,ASHEVILLE,757,757 #757 #0757,14 OLD BREVARD RD,NC,28806
Tractor Supply,TOMAH,759,759 #759 #0759,1310 N SUPERIOR AVE,WI,54660
Tractor Supply,TAYLOR,760,760 #760 #0760,3600 N MAIN ST,TX,76574
Tractor Supply,MARION,761,761 #761 #0761,3416 S WESTERN AVE,IN,46953
Tractor Supply,PARKESBURG,762,762 #762 #0762,985 OCTORARA TR,PA,19365
Tractor Supply,SALISBURY,763,763 #763 #0763,112 E NORTH POINT DR,MD,21804
Tractor Supply,FARMVILLE,764,764 #764 #0764,1575 S MAIN ST,VA,23901
Tractor Supply,ROME,765,765 #765 #0765,420 HWY 411 SE,GA,30161
Tractor Supply,LINCOLN,766,766 #766 #0766,9000 AMBER HILL CT,NE,68526
Tractor Supply,BATESVILLE,767,767 #767 #0767,3239 HARRISON ST,AR,72501
Tractor Supply,BENTON,768,768 #768 #0768,17318 INTERSTATE 30,AR,72015
Tractor Supply,COMMERCE,769,769 #769 #0769,2250 HOMER RD,GA,30529
Tractor Supply,BOAZ,772,772 #772 #0772,2085 US HWY 431,AL,35957
Tractor Supply,HUNTSVILLE,773,773 #773 #0773,3240-C MEMORIAL PKWY NW,AL,35810
Tractor Supply,ARAB,774,774 #774 #0774,1067 N BRINDLEE MOUNTAIN PKWY,AL,35016
Tractor Supply,WINDER,775,775 #775 #0775,10 PLAZA DR,GA,30680
Tractor Supply,CLINTON,776,776 #776 #0776,1516 SUNSET AVE,NC,28328
Tractor Supply,WHITE PLAINS,777,777 #777 #0777,10795 WAWA LN,MD,20695
Tractor Supply,SOUTHAMPTON,778,778 #778 #0778,1869 ROUTE 38,NJ,8088
Tractor Supply,PORTAGE,779,779 #779 #0779,3033 CTH CX,WI,53901
Tractor Supply,PILESGROVE (WOODSTOWN),780,780 #780 #0780,862 ROUTE 45,NJ,8098
Tractor Supply,SAULT ST. MARIE,781,781 #781 #0781,4646 I-75 BUSINESS SPUR,MI,49783
Tractor Supply,THOMPSONS STATION,782,782 #782 #0782,4709 TRADERS WAY,TN,37179
Tractor Supply,HARRISBURG,783,783 #783 #0783,7150 ALLENTOWN BLVD,PA,17112
Tractor Supply,PARKERSBURG,784,784 #784 #0784,101 TARA LN,WV,26101
Tractor Supply,CLARION,785,785 #785 #0785,26 COMMERCE RD,PA,16214
Tractor Supply,TALLADEGA,786,786 #786 #0786,232 HAYNES ST,AL,35160
Tractor Supply,WARNER ROBINS,787,787 #787 #0787,6010 WATSON BLVD,GA,31008
Tractor Supply,NEW HOLSTEIN,788,788 #788 #0788,2245 CALUMET DR,WI,53061
Tractor Supply,TURLOCK,789,789 #789 #0789,201 N WALNUT RD,CA,95380
Tractor Supply,MUSKOGEE,790,790 #790 #0790,1140 W SHAWNEE ST,OK,74401
Tractor Supply,LENOIR,791,791 #791 #0791,360 BLOWING ROCK BLVD,NC,28645
Tractor Supply,WASHINGTON,792,792 #792 #0792,398 S ROUTE 57 W 4,NJ,7882
Tractor Supply,CHICO,793,793 #793 #0793,2475 MLK JR PKWY,CA,95928
Tractor Supply,LEE'S SUMMIT,794,794 #794 #0794,1253 SE OLDHAM PKWY,MO,64081
Tractor Supply,WINCHESTER,795,795 #795 #0795,1425 DINAH SHORE BLVD,TN,37398
Tractor Supply,SALLISAW,796,796 #796 #0796,2000 E CHEROKEE AVE,OK,74955
Tractor Supply,WOODLAND,797,797 #797 #0797,1390 E MAIN ST,CA,95776
Tractor Supply,JASPER,798,798 #798 #0798,1200 HWY 78 W,AL,35501
Tractor Supply,WAYCROSS,799,799 #799 #0799,2103 MEMORIAL DR,GA,31501
Tractor Supply,IDABEL,1101,1101 #1101 #01101,901 SE WASHINGTON ST,OK,74745
Tractor Supply,PRYOR,1102,1102 #1102 #01102,935 S MILL ST,OK,74361
Tractor Supply,ASHLAND,1103,1103 #1103 #01103,445 DIEDERICH BLVD,KY,41169
Tractor Supply,MISSION,1104,1104 #1104 #01104,1501 W EXPRESSWAY 83,TX,78572
Tractor Supply,SAINT JOHN,1105,1105 #1105 #01105,9957 EARL DR,IN,46373
Tractor Supply,CROCKETT,1106,1106 #1106 #01106,1408 E LOOP 304,TX,75835
Tractor Supply,LIVINGSTON,1107,1107 #1107 #01107,1820 US HWY 190W,TX,77351
Tractor Supply,CRANBERRY,1108,1108 #1108 #01108,6885 US 322,PA,16323
Tractor Supply,CANTON,1109,1109 #1109 #01109,2860 E CHEROKEE DR,GA,30115
Tractor Supply,MINEOLA,1110,1110 #1110 #01110,1451 S PACIFIC ST,TX,75773
Tractor Supply,BATESVILLE,1112,1112 #1112 #01112,1216 HWY 6E,MS,38606
Tractor Supply,DALLAS,1113,1113 #1113 #01113,115 GREYSTONE POWER BLVD,GA,30157
Tractor Supply,MARSHALL,1114,1114 #1114 #01114,4203 OLD STOCKYARD RD,VA,20115
Tractor Supply,GRANBURY,1115,1115 #1115 #01115,2101 W HWY 377,TX,76048
Tractor Supply,NEW MILFORD,1116,1116 #1116 #01116,204 DANBURY RD,CT,6776
Tractor Supply,ST. ALBANS,1117,1117 #1117 #01117,2636 HIGHGATE RD,VT,5478
Tractor Supply,CARTHAGE,1118,1118 #1118 #01118,2001 W PANOLA ST,TX,75633
Tractor Supply,ONTARIO,1119,1119 #1119 #01119,662 ROUTE 104,NY,14519
Tractor Supply,ALICE,1120,1120 #1120 #01120,3736 E HWY 44,TX,78332
Tractor Supply,SAN BENITO,1121,1121 #1121 #01121,901 FM 509,TX,78586
Tractor Supply,HOLLAND,1122,1122 #1122 #01122,12891 QUINCY ST,MI,49424
Tractor Supply,WARREN,1123,1123 #1123 #01123,4210 MARKET ST,PA,16365
Tractor Supply,ROCKFORD,1124,1124 #1124 #01124,6910 69TH AVE,MN,55373
Tractor Supply,ATHENS,1125,1125 #1125 #01125,1000 E STATE ST,OH,45701
Tractor Supply,GRAND ISLAND,1126,1126 #1126 #01126,1308 NORTH DIERS AVE,NE,68803
Tractor Supply,PEKIN,1127,1127 #1127 #01127,3539 VETERANS DR,IL,61554
Tractor Supply,RUSSELLVILLE,1128,1128 #1128 #01128,1150 WEST 9TH ST,KY,42276
Tractor Supply,PAINTED POST,1129,1129 #1129 #01129,3148 SILVERBACK LANE,NY,14870
Tractor Supply,NAVASOTA,1130,1130 #1130 #01130,9320 HWY 6,TX,77868
Tractor Supply,MONROE,1131,1131 #1131 #01131,156 MARTIN LUTHER KING JR,GA,30655
Tractor Supply,PLAINVIEW,1132,1132 #1132 #01132,1001 N INTERSTATE 27,TX,79072
Tractor Supply,PAW PAW,1133,1133 #1133 #01133,1000 S KALAMAZOO ST,MI,49079
Tractor Supply,FREDERICKSBURG,1134,1134 #1134 #01134,3325 E US HWY 290,TX,78624
Tractor Supply,MARINETTE,1136,1136 #1136 #01136,2881 ROOSEVELT RD,WI,54143
Tractor Supply,MONTPELIER,1137,1137 #1137 #01137,352 RIVER ST,VT,5602
Tractor Supply,POTSDAM,1138,1138 #1138 #01138,7473 US HWY 11,NY,13676
Tractor Supply,CLEWISTON,1139,1139 #1139 #01139,975 W SUGARLAND HWY,FL,33440
Tractor Supply,HEREFORD,1140,1140 #1140 #01140,539 N 25 MILE AVE,TX,79045
Tractor Supply,FLORENCE,1141,1141 #1141 #01141,2590 S IRBY ST,SC,29505
Tractor Supply,SPRINGFIELD,1142,1142 #1142 #01142,4241 SCHOONER DR,IL,62711
Tractor Supply,GLOVERSVILLE,1143,1143 #1143 #01143,27 ARTERIAL PLAZA,NY,12078
Tractor Supply,RINGOES,1144,1144 #1144 #01144,144 US HWY 202,NJ,8551
Tractor Supply,OAKDALE,1145,1145 #1145 #01145,1580 EAST F ST,CA,95361
Tractor Supply,ELKINS,1146,1146 #1146 #01146,800 BEVERLY PK,WV,26241
Tractor Supply,MACON,1147,1147 #1147 #01147,5301 EISENHOWER PKWY,GA,31206
Tractor Supply,LUBBOCK,1148,1148 #1148 #01148,7531 82ND ST,TX,79424
Tractor Supply,WILLIAMSTON,1149,1149 #1149 #01149,3001 N WILLIAMSTON RD,MI,48895
Tractor Supply,WASHINGTON,1150,1150 #1150 #01150,406 WASHINGTON RD,PA,15301
Tractor Supply,HAMBURG,1151,1151 #1151 #01151,4484 SOUTHWESTERN BLVD,NY,14075
Tractor Supply,FUQUAY-VARINA,1152,1152 #1152 #01152,1348 N MAIN ST,NC,27526
Tractor Supply,BAY CITY,1154,1154 #1154 #01154,4715 7TH ST,TX,77414
Tractor Supply,FLANDERS,1155,1155 #1155 #01155,293 US HWY 206,NJ,7836
Tractor Supply,PRIOR LAKE,1156,1156 #1156 #01156,16907 HWY 13 S,MN,55372
Tractor Supply,FAIRVIEW,1157,1157 #1157 #01157,2320 FAIRVIEW BLVD,TN,37062
Tractor Supply,CHATSWORTH,1158,1158 #1158 #01158,20 COMMERCE ST,GA,30705
Tractor Supply,AMARILLO,1159,1159 #1159 #01159,8511 CANYON DR,TX,79119
Tractor Supply,MUSTANG,1160,1160 #1160 #01160,201 N MUSTANG RD,OK,73064
Tractor Supply,ITHACA,1161,1161 #1161 #01161,378 ELMIRA RD,NY,14850
Tractor Supply,CRANBERRY TOWNSHIP,1162,1162 #1162 #01162,20860 ROUTE 19,PA,16066
Tractor Supply,YORK,1163,1163 #1163 #01163,802 EAST LIBERTY ST,SC,29745
Tractor Supply,CORDELE,1164,1164 #1164 #01164,1407-A E 16TH AVE,GA,31015
Tractor Supply,DERIDDER,1165,1165 #1165 #01165,1050 N PINE ST,LA,70634
Tractor Supply,ODESSA,1166,1166 #1166 #01166,7800 E HWY 191,TX,79765
Tractor Supply,REDDING,1167,1167 #1167 #01167,5450 MOUNTAIN VIEW DR,CA,96003
Tractor Supply,MERRIMACK,1168,1168 #1168 #01168,515 DANIEL WEBSTER HWY,NH,3054
Tractor Supply,ARANSAS PASS,1169,1169 #1169 #01169,1920 W WHEELER AVE,TX,78336
Tractor Supply,MILLERSBURG,1170,1170 #1170 #01170,1720 S WASHINGTON ST,OH,44654
Tractor Supply,GILROY,1171,1171 #1171 #01171,6881 CAMERON BLVD,CA,95020
Tractor Supply,BAYTOWN,1172,1172 #1172 #01172,6202 GARTH RD,TX,77521
Tractor Supply,TAHLEQUAH,1173,1173 #1173 #01173,401 DAISY DR,OK,74464
Tractor Supply,SEAFORD,1174,1174 #1174 #01174,20952 SUSSEX HWY,DE,19973
Tractor Supply,GALAX,1175,1175 #1175 #01175,1043 E STUART DR,VA,24333
Tractor Supply,ANNISTON,1176,1176 #1176 #01176,5500 MCLELLAN BLVD,AL,36206
Tractor Supply,SHREVEPORT,1177,1177 #1177 #01177,9620 MANSFIELD RD,LA,71118
Tractor Supply,ABERDEEN,1178,1178 #1178 #01178,1040 BEARDS HILL RD,MD,21001
Tractor Supply,MANHATTAN,1179,1179 #1179 #01179,8110 SOUTH PORT ROAD,KS,66502
Tractor Supply,DIXON,1180,1180 #1180 #01180,2000 N 1ST ST,CA,95620
Tractor Supply,CALDWELL,1181,1181 #1181 #01181,805 STATE HWY 21 E,TX,77836
Tractor Supply,KIMBALL,1182,1182 #1182 #01182,225 WILSON CARTER DR,TN,37347
Tractor Supply,MIDLAND,1183,1183 #1183 #01183,2110 RANKIN HWY,TX,79701
Tractor Supply,LEXINGTON,1184,1184 #1184 #01184,15 PLAZA PKWY,NC,27292
Tractor Supply,WAUSEON,1185,1185 #1185 #01185,14400 US HWY 20A,OH,43567
Tractor Supply,DELMONT,1186,1186 #1186 #01186,725 MANOR RD,PA,15626
Tractor Supply,WISE,1187,1187 #1187 #01187,181 SW PLAZA RD,VA,24293
Tractor Supply,LAKE CHARLES,1188,1188 #1188 #01188,181 HWY 171,LA,70611
Tractor Supply,DUBLIN,1189,1189 #1189 #01189,2435 HWY 80 W,GA,31021
Tractor Supply,CASTROVILLE,1190,1190 #1190 #01190,1800 HWY 90,TX,78009
Tractor Supply,NEW CASTLE,1191,1191 #1191 #01191,2524 W STATE ST,PA,16101
Tractor Supply,PLAQUEMINE,1192,1192 #1192 #01192,58485 BELLEVIEW RD,LA,70764
Tractor Supply,ATLANTA,1193,1193 #1193 #01193,315 LOOP 59,TX,75551
Tractor Supply,ORANGE,1194,1194 #1194 #01194,2020 INTERSTATE HWY 10 W,TX,77632
Tractor Supply,VIDALIA,1195,1195 #1195 #01195,2305 E FIRST ST,GA,30474
Tractor Supply,SCARBOROUGH,1197,1197 #1197 #01197,1 SOUTHGATE RD,ME,4074
Tractor Supply,SKOWHEGAN,1198,1198 #1198 #01198,381 MADISON AVE SUITE 11,ME,4976
Tractor Supply,NAPLES,1199,1199 #1199 #01199,13235 TAMIAMI TR E,FL,34114
Tractor Supply,RINCON,1200,1200 #1200 #01200,101 W FORT HOWARD RD,GA,31326
Tractor Supply,ROME,1201,1201 #1201 #01201,1183 ERIE BLVD W,NY,13440
Tractor Supply,EAST ELLIJAY,1202,1202 #1202 #01202,709 1ST AVE,GA,30540
Tractor Supply,BOWIE,1203,1203 #1203 #01203,1532 HWY 59 N,TX,76230
Tractor Supply,RIPLEY,1205,1205 #1205 #01205,130 MCGRAW ST,WV,25271
Tractor Supply,MIDDLETOWN,1206,1206 #1206 #01206,912 MIDDLETOWN WARWICK RD,DE,19709
Tractor Supply,CARROLLTON,1207,1207 #1207 #01207,1335 CANTON RD NW,OH,44615
Tractor Supply,ANN ARBOR NORTH,1209,1209 #1209 #01209,6850 WHITMORE LAKE RD,MI,48189
Tractor Supply,SENECA,1210,1210 #1210 #01210,125 THRIFT AVE,SC,29678
Tractor Supply,ORANGE,1211,1211 #1211 #01211,13226 JAMES MADISON HWY,VA,22960
Tractor Supply,PARIS,1212,1212 #1212 #01212,2040 BYPASS RD,KY,40361
Tractor Supply,GONZALES,1213,1213 #1213 #01213,414 W HWY 30,LA,70737
Tractor Supply,MINDEN,1214,1214 #1214 #01214,1100 HOMER RD,LA,71055
Tractor Supply,MACEDONIA,1215,1215 #1215 #01215,2011 ALEXANDRIA WAY,OH,44056
Tractor Supply,PUTNAM,1216,1216 #1216 #01216,97 PROVIDENCE PK,CT,6260
Tractor Supply,SPRINGDALE,1217,1217 #1217 #01217,4355 E ROBINSON AVE,AR,72764
Tractor Supply,JESUP,1218,1218 #1218 #01218,1137 NORTH FIRST ST,GA,31545
Tractor Supply,COVENTRY,1219,1219 #1219 #01219,1175 TIOGUE AVE,RI,2816
Tractor Supply,DOUGLAS,1220,1220 #1220 #01220,1314 MADISON AVE S,GA,31533
Tractor Supply,FULTON,1221,1221 #1221 #01221,1920 NORTH BLUFF ST,MO,65251
Tractor Supply,TALLAHASSEE,1223,1223 #1223 #01223,5743 W TENNESSEE ST,FL,32304
Tractor Supply,BELLE VERNON,1224,1224 #1224 #01224,176 FINLEY RD,PA,15012
Tractor Supply,SCHODACK,1225,1225 #1225 #01225,1649 COLUMBIA TURNPIKE,NY,12033
Tractor Supply,MOULTON,1226,1226 #1226 #01226,11655 AL HWY 157,AL,35650
Tractor Supply,PULASKI,1227,1227 #1227 #01227,1050 E MAIN ST,VA,24301
Tractor Supply,ELIZABETHTON,1228,1228 #1228 #01228,210 CHEROKEE PARK DR,TN,37643
Tractor Supply,CLOVIS,1230,1230 #1230 #01230,4724 N Price St,NM,88101
Tractor Supply,MASSENA,1231,1231 #1231 #01231,105 HARTE HAVEN PLAZA,NY,13662
Tractor Supply,SAINT CLAIR,1232,1232 #1232 #01232,550 TERRY RICH BLVD,PA,17970
Tractor Supply,TIFTON,1234,1234 #1234 #01234,149 VIRGINIA AVE S,GA,31794
Tractor Supply,ROANOKE RAPIDS,1235,1235 #1235 #01235,1350 JULIAN ALLSBROOK HWY,NC,27870
Tractor Supply,GUYMON,1236,1236 #1236 #01236,2501 N HWY 64,OK,73942
Tractor Supply,DENVER,1237,1237 #1237 #01237,285 Gillman Rd,NC,28037
Tractor Supply,ESCANABA,1238,1238 #1238 #01238,2501 N LINCOLN RD,MI,49829
Tractor Supply,ZACHARY,1239,1239 #1239 #01239,10011 MAIN ST,LA,70791
Tractor Supply,SAINT AUGUSTINE,1240,1240 #1240 #01240,3345 US HWY 1 S,FL,32086
Tractor Supply,ROSWELL,1241,1241 #1241 #01241,5000 N MAIN ST,NM,88201
Tractor Supply,WEATHERFORD,1242,1242 #1242 #01242,1200 E EAGLE RD,OK,73096
Tractor Supply,JEFFERSON CITY,1243,1243 #1243 #01243,127 W BROADWAY BLVD,TN,37760
Tractor Supply,POUNDING MILL,1244,1244 #1244 #01244,12966 GOVERNOR G C PEERY HWY,VA,24637
Tractor Supply,ORTONVILLE,1245,1245 #1245 #01245,700 S ORTONVILLE RD,MI,48462
Tractor Supply,PRESCOTT,1246,1246 #1246 #01246,1445 N ACRES RD,WI,54021
Tractor Supply,TILTON,1247,1247 #1247 #01247,630 W MAIN ST SUITE 900,NH,3276
Tractor Supply,YOUNGSVILLE,1248,1248 #1248 #01248,55 GATEKEEPER DR,NC,27596
Tractor Supply,WEST MONROE,1249,1249 #1249 #01249,201 MANE ST,LA,71292
Tractor Supply,BAINBRIDGE,1250,1250 #1250 #01250,1520 TALLAHASSEE HWY,GA,39819
Tractor Supply,POCONO SUMMIT,1251,1251 #1251 #01251,2970 ROUTE 940,PA,18346
Tractor Supply,MILFORD,1253,1253 #1253 #01253,191 ELM ST STE 1,NH,3055
Tractor Supply,CHIPLEY,1254,1254 #1254 #01254,1610 MAIN ST,FL,32428
Tractor Supply,IRON MOUNTAIN,1255,1255 #1255 #01255,1860 S STEPHENSON AVE,MI,49801
Tractor Supply,POWHATAN,1256,1256 #1256 #01256,2470 ANDERSON HWY SUITE G,VA,23139
Tractor Supply,ALTON,1257,1257 #1257 #01257,3001 HOMER ADAMS PKWY,IL,62002
Tractor Supply,ROANOKE,1258,1258 #1258 #01258,8110 GANDER WAY,VA,24019
Tractor Supply,MOUNDSVILLE,1259,1259 #1259 #01259,1607 WHEELING AVE,WV,26038
Tractor Supply,LITTLETON,1260,1260 #1260 #01260,683 MEADOW ST,NH,3561
Tractor Supply,NORTH PLATTE,1261,1261 #1261 #01261,3728 S JEFFERS ST,NE,69101
Tractor Supply,BRUNSWICK,1262,1262 #1262 #01262,5940 NEW JESUP HWY,GA,31523
Tractor Supply,WASHINGTON,1263,1263 #1263 #01263,608 W 15TH ST,NC,27889
Tractor Supply,MADISON,1264,1264 #1264 #01264,2220 EATONTON HWY,GA,30650
Tractor Supply,PIKEVILLE,1265,1265 #1265 #01265,164 LEE AVE,KY,41501
Tractor Supply,OAK RIDGE,1266,1266 #1266 #01266,465 OAK RIDGE TURNPIKE,TN,37830
Tractor Supply,EDEN,1267,1267 #1267 #01267,842-A S VAN BUREN RD,NC,27288
Tractor Supply,ABBEVILLE,1268,1268 #1268 #01268,3410 VETERANS MEMORIAL DR,LA,70510
Tractor Supply,TULARE,1269,1269 #1269 #01269,1949 E PROSPERITY AVE,CA,93274
Tractor Supply,GREENVILLE,1270,1270 #1270 #01270,25 WILLIAMSON RD E STE 10,PA,16125
Tractor Supply,MOODY,1271,1271 #1271 #01271,3400 MOODY PKWY,AL,35004
Tractor Supply,KALAMAZOO,1272,1272 #1272 #01272,6285 GULL RD,MI,49048
Tractor Supply,CHELSEA,1273,1273 #1273 #01273,119 ATCHISON DR,AL,35043
Tractor Supply,ALEXANDRIA,1274,1274 #1274 #01274,3162 N MACARTHUR DR,LA,71303
Tractor Supply,BLAIRSTOWN,1275,1275 #1275 #01275,128 SR 94 STE 9,NJ,7825
Tractor Supply,FORT SCOTT,1277,1277 #1277 #01277,2420 S MAIN ST,KS,66701
Tractor Supply,WADESBORO,1278,1278 #1278 #01278,1051 E CASWELL ST,NC,28170
Tractor Supply,UNION,1279,1279 #1279 #01279,1650 DENMARK RD,MO,63084
Tractor Supply,ATWATER,1280,1280 #1280 #01280,1700 BELL LN,CA,95301
Tractor Supply,LOCKHART,1281,1281 #1281 #01281,2313 S COLORADO ST,TX,78644
Tractor Supply,NANTICOKE,1282,1282 #1282 #01282,2456 SANS SOUCI PKWY,PA,18706
Tractor Supply,SOUTHWICK,1283,1283 #1283 #01283,689 COLLEGE HWY,MA,1077
Tractor Supply,HAMILTON,1284,1284 #1284 #01284,1010 MADISON MARKETPLACE,NY,13346
Tractor Supply,SANFORD,1285,1285 #1285 #01285,3004 S HORNER BLVD,NC,27332-9644
Tractor Supply,DANSVILLE,1286,1286 #1286 #01286,70 VILLAGE PLAZA,NY,14437
Tractor Supply,BRADY,1288,1288 #1288 #01288,2309 S BRIDGE ST,TX,76825
Tractor Supply,VERNON,1289,1289 #1289 #01289,4101 HILLCREST PLAZA,TX,76384
Tractor Supply,GADSDEN,1290,1290 #1290 #01290,2900 E MEIGHAN BLVD,AL,35903
Tractor Supply,LEBANON,1291,1291 #1291 #01291,689 S MONROE ST,MO,65536
Tractor Supply,BIG SPRING,1292,1292 #1292 #01292,1104 W INTERSTATE 20,TX,79720
Tractor Supply,LOS BANOS,1293,1293 #1293 #01293,1131 W PACHECO BLVD,CA,93635
Tractor Supply,DIXON,1294,1294 #1294 #01294,1810 S GALENA AVE,IL,61021
Tractor Supply,BEAVER FALLS,1295,1295 #1295 #01295,142 MCKINLEY RD,PA,15010
Tractor Supply,MOREHEAD,1296,1296 #1296 #01296,250 PINECREST DR,KY,40351
Tractor Supply,GLOUCESTER,1297,1297 #1297 #01297,6499 MARKET DR,VA,23061
Tractor Supply,LAGRANGE,1298,1298 #1298 #01298,2003 PRIEST DR,KY,40031
Tractor Supply,SICKLERVILLE,1299,1299 #1299 #01299,643 CROSS KEYS RD,NJ,8081
Tractor Supply,CRESTVIEW,1300,1300 #1300 #01300,320 W JAMES LEE BLVD,FL,32536
Tractor Supply,PAINTSVILLE,1301,1301 #1301 #01301,980 3ED ST,KY,41240
Tractor Supply,NAZARETH,1302,1302 #1302 #01302,4037 JANDY BLVD,PA,18064
Tractor Supply,RIPON,1303,1303 #1303 #01303,860 N JACK TONE RD,CA,95366
Tractor Supply,RIO GRANDE CITY,1304,1304 #1304 #01304,3162 W HWY 83,TX,78582
Tractor Supply,GORHAM,1305,1305 #1305 #01305,491 MAIN ST STE 8,NH,3581
Tractor Supply,LANCASTER,1306,1306 #1306 #01306,593 LANCASTER BYPASS E,SC,29720
Tractor Supply,HASTINGS,1307,1307 #1307 #01307,3000 OSBORN DR E STE 100,NE,68901
Tractor Supply,POCOMOKE CITY,1308,1308 #1308 #01308,1701 MARKET ST UNIT 109,MD,21851
Tractor Supply,HARVARD,1311,1311 #1311 #01311,1201 S DIVISION ST,IL,60033
Tractor Supply,CARPENTERSVILLE,1312,1312 #1312 #01312,150 S KENNEDY DR STE 8A,IL,60110
Tractor Supply,LEHIGHTON,1313,1313 #1313 #01313,486 BLAKESLEE BLVD DR W,PA,18235
Tractor Supply,DOTHAN,1314,1314 #1314 #01314,3775 W MAIN ST,AL,36305
Tractor Supply,GALT,1315,1315 #1315 #01315,10520 TWIN CITIES RD,CA,95632
Tractor Supply,GIBSONIA,1316,1316 #1316 #01316,100 TRACTOR LN,PA,15044
Tractor Supply,RAVENEL,1317,1317 #1317 #01317,4405 SAVANNAH HWY,SC,29470
Tractor Supply,MILLBROOK,1319,1319 #1319 #01319,3791 AL HWY 14,AL,36054
Tractor Supply,JAMESTOWN,1320,1320 #1320 #01320,421 N MAIN ST,TN,38556
Tractor Supply,CARTHAGE,1321,1321 #1321 #01321,59 DIXON SPRINGS HWY,TN,37030
Tractor Supply,TROY,1323,1323 #1323 #01323,170 MARKET PLACE DR,MO,63379
Tractor Supply,CLOVIS,1325,1325 #1325 #01325,1630 HERNDON AVE,CA,93611
Tractor Supply,CHICHESTER,1326,1326 #1326 #01326,307 DOVER RD,NH,3258
Tractor Supply,BEDFORD,1328,1328 #1328 #01328,2653 16TH ST,IN,47421
Tractor Supply,ANDALUSIA,1329,1329 #1329 #01329,540 W BYPASS,AL,36420
Tractor Supply,VAN BUREN,1330,1330 #1330 #01330,150 SANDSTONE DR,AR,72956
Tractor Supply,EDINBURG,1331,1331 #1331 #01331,7135 N US HWY 281,TX,78542
Tractor Supply,OXFORD,1332,1332 #1332 #01332,1272 MAIN ST,ME,4270
Tractor Supply,WINDSOR,1333,1333 #1333 #01333,1000 AMERICAN WAY,CA,95492
Tractor Supply,CARTERSVILLE,1334,1334 #1334 #01334,10 RYAN BLVD NE,GA,30121
Tractor Supply,JEFFERSON CITY,1336,1336 #1336 #01336,3714 CODY DR,MO,65109
Tractor Supply,LOUISA,1337,1337 #1337 #01337,16230 US HWY 23,KY,41230
Tractor Supply,PATTERSON,1338,1338 #1338 #01338,1253 ROUTE 311,NY,12563
Tractor Supply,STILLWATER,1339,1339 #1339 #01339,3624 S PERKINS RD,OK,74074
Tractor Supply,DERBY,1340,1340 #1340 #01340,124 COMMERCE WAY,VT,5855
Tractor Supply,BELCHERTOWN,1341,1341 #1341 #01341,30 TURKEY HILL RD,MA,1007
Tractor Supply,AUGUSTA,1343,1343 #1343 #01343,420 CIVIC CENTER DR,ME,4330
Tractor Supply,OLEAN,1344,1344 #1344 #01344,1900 CONSTITUTION AVE,NY,14760
Tractor Supply,MONTGOMERY,1345,1345 #1345 #01345,5310 TROY HWY,AL,36116
Tractor Supply,HOHENWALD,1346,1346 #1346 #01346,608 E MAIN ST,TN,38462
Tractor Supply,BREAUX BRIDGE,1347,1347 #1347 #01347,1404 REES ST,LA,70517
Tractor Supply,WARSAW,1348,1348 #1348 #01348,4238 RICHMOND RD,VA,22572
Tractor Supply,SUMMERVILLE,1349,1349 #1349 #01349,1672 N MAIN ST STE 5,SC,29483
Tractor Supply,SONORA,1350,1350 #1350 #01350,14879 MONO WAY,CA,95370
Tractor Supply,HAMMOND,1351,1351 #1351 #01351,12512 HWY 190,LA,70401
Tractor Supply,MONTROSE,1352,1352 #1352 #01352,17856 ST RT 706,PA,18801
Tractor Supply,BANGOR,1353,1353 #1353 #01353,1161 BROADWAY,ME,4401
Tractor Supply,ALDEN,1355,1355 #1355 #01355,13059 BROADWAY ST,NY,14004
Tractor Supply,LURAY,1357,1357 #1357 #01357,1462 US HWY 211 W,VA,22835
Tractor Supply,RAPID CITY,1358,1358 #1358 #01358,3440 E MALL DR,SD,57701
Tractor Supply,COLUMBUS,1359,1359 #1359 #01359,6713 FLAT ROCK COURT STE 100,GA,31820
Tractor Supply,NORTH WINDHAM,1360,1360 #1360 #01360,476 BOSTON POST RD,CT,6256
Tractor Supply,ATHENS,1361,1361 #1361 #01361,4420 LEXINGTON RD,GA,30605
Tractor Supply,LEWISTON,1362,1362 #1362 #01362,1619 LISBON ST,ME,4240
Tractor Supply,DEL RIO,1363,1363 #1363 #01363,803 TEXAS SPUR 239,TX,78840
Tractor Supply,IRMO,1365,1365 #1365 #01365,1003 DUTCH FORK RD,SC,29063
Tractor Supply,NATCHITOCHES,1366,1366 #1366 #01366,345 SOUTH DR,LA,71457
Tractor Supply,DAYTON,1368,1368 #1368 #01368,200 ABLE DR STE 10,TN,37321
Tractor Supply,PORT LAVACA,1369,1369 #1369 #01369,715 STATE HWY 35 S,TX,77979
Tractor Supply,KINGSVILLE,1370,1370 #1370 #01370,2405 S BRAHMA BLVD,TX,78363
Tractor Supply,OOLTEWAH,1371,1371 #1371 #01371,9408 APISON PK STE 122,TN,37363
Tractor Supply,DERRY,1372,1372 #1372 #01372,55 CRYSTAL AVE UNIT 17A,NH,3038
Tractor Supply,SILOAM SPRINGS,1373,1373 #1373 #01373,3480 US HWY 412 EAST,AR,72761
Tractor Supply,HOT SPRINGS,1374,1374 #1374 #01374,2307 ALBERT PIKE RD,AR,71913
Tractor Supply,JACKSONVILLE,1375,1375 #1375 #01375,2748 RICHLANDS HWY,NC,28540
Tractor Supply,LITTLE ROCK,1376,1376 #1376 #01376,10801 COLONEL GLENN SQUARE,AR,72204
Tractor Supply,TUNKHANNOCK,1377,1377 #1377 #01377,12 RT 6 PLAZA,PA,18657
Tractor Supply,MANSFIELD,1378,1378 #1378 #01378,1430 S MAIN ST,PA,16933
Tractor Supply,GLENPOOL,1380,1380 #1380 #01380,140 W 161ST ST,OK,74033
Tractor Supply,LAUREL,1381,1381 #1381 #01381,400 SE 4TH ST,MT,59044
Tractor Supply,NEWNAN,1382,1382 #1382 #01382,90 MARKETPLACE DR,GA,30265
Tractor Supply,HENDERSONVILLE,1383,1383 #1383 #01383,115 FOUR SEASONS MALL STE A,NC,28792
Tractor Supply,WYTHEVILLE,1384,1384 #1384 #01384,1380 E MAIN ST STE 400,VA,24382
Tractor Supply,KENEDY,1385,1385 #1385 #01385,407 N SUNSET STRIP,TX,78119
Tractor Supply,GLENMONT,1386,1386 #1386 #01386,329 GLENMONT RD,NY,12077
Tractor Supply,HAZARD,1387,1387 #1387 #01387,330 VILLAGE LN,KY,41701
Tractor Supply,MOOREFIELD,1388,1388 #1388 #01388,747 N MAIN ST SUITE E,WV,26836
Tractor Supply,GAFFNEY,1389,1389 #1389 #01389,1333 W FLOYD BAKER BLVD,SC,29341
Tractor Supply,DELHI,1390,1390 #1390 #01390,69 MAIN ST,NY,13753
Tractor Supply,MURPHY,1391,1391 #1391 #01391,3340 W US HWY 64,NC,28906
Tractor Supply,ALEXANDRIA,1392,1392 #1392 #01392,7910 ALEXANDRIA PK,KY,41001
Tractor Supply,BRIDGETON,1393,1393 #1393 #01393,48 CORNWELL DR,NJ,8302
Tractor Supply,HUNTINGDON,1394,1394 #1394 #01394,7625 LAKE RAYSTOWN SHOPPING CR,PA,16652
Tractor Supply,MALONE,1395,1395 #1395 #01395,3184 STATE RT 11,NY,12953
Tractor Supply,MIDDLESBORO,1396,1396 #1396 #01396,2030 US HWY 25 E,KY,40965
Tractor Supply,FRANKLIN,1398,1398 #1398 #01398,3077 GEORGIA RD,NC,28734
Tractor Supply,WINNSBORO,1399,1399 #1399 #01399,3282 FRONT ST,LA,71295
Tractor Supply,GREENVILLE,1400,1400 #1400 #01400,151 INTERSTATE DR,AL,36037
Tractor Supply,LOWVILLE,1401,1401 #1401 #01401,5710 NUMBER FOUR RD,NY,13367
Tractor Supply,ELIZABETHVILLE,1402,1402 #1402 #01402,4955 ST RT 209,PA,17023
Tractor Supply,WEST HAZELTON,1403,1403 #1403 #01403,216 SUSQUEHANNA BLVD,PA,18202
Tractor Supply,SHREWSBURY,1404,1404 #1404 #01404,510 RENAISSANCE DR,PA,17349
Tractor Supply,NEWARK,1405,1405 #1405 #01405,6700 RT 31 E,NY,14513
Tractor Supply,STURBRIDGE,1406,1406 #1406 #01406,178 MAIN ST,MA,1566
Tractor Supply,TROY,1407,1407 #1407 #01407,111 SOUTHLAND VILLAGE,AL,36079
Tractor Supply,FARMINGTON,1410,1410 #1410 #01410,979 US RT 2 E,ME,4294
Tractor Supply,LAWRENCE,1411,1411 #1411 #01411,2420 FAIRFIED ST,KS,66046
Tractor Supply,NEGAUNEE,1412,1412 #1412 #01412,367 US HWY 41 E,MI,49866
Tractor Supply,NIXA,1413,1413 #1413 #01413,525 W NORTHVIEW RD,MO,65714
Tractor Supply,LEICESTER,1414,1414 #1414 #01414,1435 MAIN ST,MA,1524
Tractor Supply,BLOOMINGTON,1415,1415 #1415 #01415,5790 W STATE RD 46,IN,47404
Tractor Supply,WILSON,1418,1418 #1418 #01418,2380 FOREST HILLS RD W,NC,27893
Tractor Supply,PRESQUE ISLE,1419,1419 #1419 #01419,23 HOULTON RD,ME,4769
Tractor Supply,BRISTOW,1420,1420 #1420 #01420,700 N MAIN ST,OK,74010
Tractor Supply,OPELOUSAS,1421,1421 #1421 #01421,241 ACADIANA PREP CIR,LA,70570
Tractor Supply,RUSTON,1422,1422 #1422 #01422,2507 N SERVICE RD E,LA,71270
Tractor Supply,BALLINGER,1423,1423 #1423 #01423,2021 HUTCHINS AVE,TX,76821
Tractor Supply,PEARSALL,1424,1424 #1424 #01424,550 S IH 35,TX,78061
Tractor Supply,CROWLEY,1425,1425 #1425 #01425,204 ODD FELLOWS RD,LA,70526
Tractor Supply,SUMMERDALE,1426,1426 #1426 #01426,20438 ST HWY 59,AL,36580
Tractor Supply,OGDENSBURG,1427,1427 #1427 #01427,1051 PARK STREET,NY,13669
Tractor Supply,COVINGTON,1428,1428 #1428 #01428,1884 COLLINS BLVD,LA,70433
Tractor Supply,COLUMBIA,1429,1429 #1429 #01429,817 JAMESTOWN ST,KY,42728
Tractor Supply,FOREST,1430,1430 #1430 #01430,476 W THIRD ST,MS,39074
Tractor Supply,OSSIPEE,1432,1432 #1432 #01432,901 RT 16,NH,3864
Tractor Supply,HAZLEHURST,1433,1433 #1433 #01433,110D MARKET PLACE,MS,39083
Tractor Supply,WAYNESVILLE,1434,1434 #1434 #01434,121 PARAGON PKWY,NC,28721
Tractor Supply,BASTROP,1435,1435 #1435 #01435,2310 E MADISON AVE,LA,71220
Tractor Supply,SELLERSBURG,1437,1437 #1437 #01437,7327 HWY 311,IN,47172
Tractor Supply,DUBOIS,1438,1438 #1438 #01438,425 BEAVER DR,PA,15801
Tractor Supply,BAY MINETTE,1440,1440 #1440 #01440,108B MCMEANS AVE,AL,36507
Tractor Supply,MURRAY,1442,1442 #1442 #01442,610 N 12TH ST,KY,42071
Tractor Supply,COLUMBIA,1443,1443 #1443 #01443,940 HWY 13 S,MS,39429
Tractor Supply,LAURENS,1444,1444 #1444 #01444,917 E MAIN ST STE H,SC,29360
Tractor Supply,BRUNSWICK,1446,1446 #1446 #01446,24 FARLEY RD,ME,4011
Tractor Supply,ALLENTOWN,1447,1447 #1447 #01447,701 ROUTE 524,NJ,8501
Tractor Supply,RONCEVERTE,1448,1448 #1448 #01448,8444 SENECA TRAIL S,WV,24970
Tractor Supply,SKIATOOK,1449,1449 #1449 #01449,810 W ROGERS BLVD,OK,74070
Tractor Supply,TAUNTON,1450,1450 #1450 #01450,2101 BAY ST STE A,MA,2780
Tractor Supply,LUCEDALE,1451,1451 #1451 #01451,12120B OLD 63 S,MS,39452
Tractor Supply,BELLEVILLE,1452,1452 #1452 #01452,1570 E STATE ROUTE 15,IL,62221
Tractor Supply,EUFAULA,1453,1453 #1453 #01453,1021 S EUFAULA AVE,AL,36027
Tractor Supply,HOOKSETT,1454,1454 #1454 #01454,1328 HOOKSETT RD UNIT 13C,NH,3106
Tractor Supply,GAINESVILLE,1455,1455 #1455 #01455,3640 MUNDY MILL RD STE 170,GA,30504
Tractor Supply,PENSACOLA,1456,1456 #1456 #01456,3 W NINE MILE RD STE 16,FL,32534
Tractor Supply,GEORGETOWN,1457,1457 #1457 #01457,1295 N FRASER ST,SC,29440
Tractor Supply,WILKESBORO,1458,1458 #1458 #01458,1834 WINKLER ST STE C,NC,28697
Tractor Supply,PULASKI,1459,1459 #1459 #01459,3779 STATE RTE 13,NY,13142
Tractor Supply,CYNTHIANA,1460,1460 #1460 #01460,994 US HWY 27 S,KY,41031
Tractor Supply,HATTIESBURG,1461,1461 #1461 #01461,7168 US HIGHWAY 49,MS,39402
Tractor Supply,HAMILTON,1462,1462 #1462 #01462,1500 MILITARY STREET S SUITE 100,AL,35570
Tractor Supply,PINE BUSH,1463,1463 #1463 #01463,2401 STATE ROUTE 52,NY,12566
Tractor Supply,SANFORD,1464,1464 #1464 #01464,1770 MAIN ST,ME,4073
Tractor Supply,WALPOLE,1465,1465 #1465 #01465,8 RED BARN LANE,NH,3608
Tractor Supply,FREDERICK,1466,1466 #1466 #01466,7631 DEVILBISS BRIDGE RD,MD,21701
Tractor Supply,LAMPASAS,1467,1467 #1467 #01467,469 CENTRAL TEXAS EXPRESSWAY,TX,76550
Tractor Supply,OAKDALE,1468,1468 #1468 #01468,733 HWY 165 S,LA,71463
Tractor Supply,SEDALIA,1469,1469 #1469 #01469,3901 WEST BROADWAY BLVD,MO,65301
Tractor Supply,NORTHPORT,1470,1470 #1470 #01470,5510 MCFARLAND BLVD,AL,35476
Tractor Supply,GRANVILLE,1471,1471 #1471 #01471,87 QUAKER ST STE 5,NY,12832
Tractor Supply,BOGALUSA,1472,1472 #1472 #01472,320 CUMBERLAND ST,LA,70427
Tractor Supply,MANSURA,1473,1473 #1473 #01473,7686 HIGHWAY 1,LA,71350
Tractor Supply,FRANKLIN,1475,1475 #1475 #01475,1465 ARMORY DRIVE,VA,23851
Tractor Supply,LOGAN,1479,1479 #1479 #01479,28 HOCKING MALL,OH,43138
Tractor Supply,SILER CITY,1480,1480 #1480 #01480,100 SILER CROSSING,NC,27344
Tractor Supply,SHAWANO,1481,1481 #1481 #01481,1313 E GREEN BAY STREET,WI,54166
Tractor Supply,HORNELL,1482,1482 #1482 #01482,18 PARK DR,NY,14843
Tractor Supply,OPELIKA,1483,1483 #1483 #01483,2600 PEPPERALL PKWY,AL,36801
Tractor Supply,NATCHEZ,1484,1484 #1484 #01484,780 HIGHWAY 61 N,MS,39120
Tractor Supply,PAWCATUCK,1485,1485 #1485 #01485,331 LIBERTY STREET,CT,6379
Tractor Supply,GIDDINGS,1486,1486 #1486 #01486,2911 E AUSTIN ST,TX,78942
Tractor Supply,ANN ARBOR,1487,1487 #1487 #01487,7251 JACKSON RD,MI,48103
Tractor Supply,MISHAWAKA,1488,1488 #1488 #01488,330 E IRELAND RD,IN,46544
Tractor Supply,SHELBURNE,1490,1490 #1490 #01490,3708 SHELBURNE RD,VT,5482
Tractor Supply,HOBBS,1491,1491 #1491 #01491,201 EAST NAVAJO DR,NM,88240
Tractor Supply,SMITHVILLE,1492,1492 #1492 #01492,620 W BROAD STREET,TN,37166
Tractor Supply,FARMINGTON,1493,1493 #1493 #01493,361 SCOTT SWAMP ROAD,CT,6032
Tractor Supply,RINDGE,1494,1494 #1494 #01494,21 COMMERCIAL LN UNIT 1,NH,3461
Tractor Supply,ELIZABETH CITY,1495,1495 #1495 #01495,1111 HALSTEAD BLVD,NC,27909
Tractor Supply,SENECA FALLS,1496,1496 #1496 #01496,2109 ROUTE 5 AND 20 UNIT 16,NY,13148
Tractor Supply,MEDINA,1497,1497 #1497 #01497,11181 MAPLE RIDGE RD,NY,14103
Tractor Supply,SALEM,1498,1498 #1498 #01498,601 S MAIN ST STE 12,IN,47167
Tractor Supply,MONTEVALLO,1499,1499 #1499 #01499,4633 HIGHWAY 25,AL,35115
Tractor Supply,NEW HUDSON,1500,1500 #1500 #01500,57184 LYON CENTER DRIVE WEST,MI,48165
Tractor Supply,SOUTH HILL,1501,1501 #1501 #01501,1275 E ATLANTIC ST,VA,23950-1820
Tractor Supply,SUMTER,1502,1502 #1502 #01502,2705 BROAD ST,SC,29150
Tractor Supply,COLUMBUS,1503,1503 #1503 #01503,4880 IH 10 ROAD,TX,78934
Tractor Supply,DALTON,1504,1504 #1504 #01504,2518 CLEVELAND HWY STE 8,GA,30721
Tractor Supply,MONROEVILLE,1506,1506 #1506 #01506,465 PIKE ST STE A,AL,36460
Tractor Supply,DEMOPOLIS,1507,1507 #1507 #01507,1404 US HIGHWAY 80 W,AL,36732
Tractor Supply,GARDEN CITY,1508,1508 #1508 #01508,3333 E MARY ST,KS,67846
Tractor Supply,CUERO,1509,1509 #1509 #01509,1600 EAST BROADWAY,TX,77954
Tractor Supply,NEW BOSTON,1510,1510 #1510 #01510,907 N CENTER ST,TX,75570
Tractor Supply,MERIDIAN,1511,1511 #1511 #01511,2110 HIGHWAY 19 N,MS,39307
Tractor Supply,GREENFIELD,1512,1512 #1512 #01512,72 NEWTON ST,MA,1301
Tractor Supply,WATERVILLE,1513,1513 #1513 #01513,10 KENNEDY MEMORIAL DR,ME,04901-3216
Tractor Supply,ROCKWOOD,1514,1514 #1514 #01514,1494 N GATEWAY AVE,TN,37854
Tractor Supply,SAND SPRINGS,1515,1515 #1515 #01515,3829 S HIGHWAY 97,OK,74063
Tractor Supply,MT STERLING,1516,1516 #1516 #01516,804 INDIAN MOUND DR,KY,40353
Tractor Supply,COLUMBIA,1517,1517 #1517 #01517,4151 PARIS RD,MO,65202
Tractor Supply,ALAMOGORDO,1518,1518 #1518 #01518,2900 N WHITE SANDS BLVD,NM,88310
Tractor Supply,GRAYSON,1519,1519 #1519 #01519,370 STATE HIGHWAY 1947,KY,41143
Tractor Supply,BARTLESVILLE,1520,1520 #1520 #01520,3403 SE WASHINGTON BLVD,OK,74006
Tractor Supply,COLUMBIA,1521,1521 #1521 #01521,256 KILLIAN RD,SC,29203
Tractor Supply,BEREA,1522,1522 #1522 #01522,304 COOPER DR,KY,40403
Tractor Supply,SCOTTSBORO,1523,1523 #1523 #01523,1501 S BROAD STE A,AL,35768
Tractor Supply,LUBBOCK,1525,1525 #1525 #01525,4605 INTERSTATE 27,TX,79404
Tractor Supply,PAOLI,1526,1526 #1526 #01526,889 N GOSPEL ST STE 1,IN,47454
Tractor Supply,BLACK MOUNTAIN,1527,1527 #1527 #01527,125 OLD US 70 E,NC,28711
Tractor Supply,HONEOYE FALLS,1528,1528 #1528 #01528,345 WEST MAIN ST,NY,14472
Tractor Supply,ROANOKE,1529,1529 #1529 #01529,1701 N HIGHWAY 377,TX,76262
Tractor Supply,GRAY,1530,1530 #1530 #01530,3827 W PARK AVE,LA,70359
Tractor Supply,BOLIVAR,1531,1531 #1531 #01531,1361 W MARKET ST STE B,TN,38008
Tractor Supply,ROCKY MOUNT,1532,1532 #1532 #01532,58 VIRGINIA MARKET PLACE DR,VA,24151
Tractor Supply,THEODORE,1533,1533 #1533 #01533,5618 HIGHWAY 90 W,AL,36582
Tractor Supply,LAREDO,1534,1534 #1534 #01534,4102 STATE HIGHWAY 359,TX,78043
Tractor Supply,OAK HILL,1535,1535 #1535 #01535,1556 E MAIN ST STE A,WV,25901
Tractor Supply,DOVER FOXCROFT,1536,1536 #1536 #01536,1073 W MAIN STREET STE 1,ME,4426
Tractor Supply,TICONDEROGA,1537,1537 #1537 #01537,9 COMMERCE DR,NY,12883
Tractor Supply,GULFPORT,1538,1538 #1538 #01538,13440 HIGHWAY 49,MS,39503
Tractor Supply,LAS CRUCES,1539,1539 #1539 #01539,1440 W PICACHO AVE,NM,88005
Tractor Supply,MARION,1540,1540 #1540 #01540,417 N MAIN ST STE A,NC,28752
Tractor Supply,TRAVELERS REST,1541,1541 #1541 #01541,550 ROE CENTER CT,SC,29690
Tractor Supply,LAVALETTE,1542,1542 #1542 #01542,4942 ROUTE 152,WV,25535
Tractor Supply,TROY,1543,1543 #1543 #01543,864 HOOSICK RD,NY,12180
Tractor Supply,MT JOY,1544,1544 #1544 #01544,1360 STRICKLER RD,PA,17552
Tractor Supply,LAWTON,1545,1545 #1545 #01545,7402 NW SUN BLVD,OK,73505
Tractor Supply,SAINT MARYS,1546,1546 #1546 #01546,1220 INDIANA AVE,OH,45885
Tractor Supply,LONDON,1547,1547 #1547 #01547,304 LAFAYETTE ST,OH,43140
Tractor Supply,LITTLE FALLS,1548,1548 #1548 #01548,1800 1ST AVENUE NE STE 101,MN,56345
Tractor Supply,GOUVERNEUR,1549,1549 #1549 #01549,471 E MAIN ST STE 3,NY,13642
Tractor Supply,LAKE ARIEL,1550,1550 #1550 #01550,454 HAMLIN HWY STE 100A,PA,18436
Tractor Supply,MILLINOCKET,1552,1552 #1552 #01552,800 CENTRAL ST,ME,04462-2126
Tractor Supply,ELK CITY,1553,1553 #1553 #01553,3105 W 3RD ST STE A,OK,73644
Tractor Supply,EAST WAREHAM,1554,1554 #1554 #01554,3017 CRANBERRY HIGHWAY,MA,2538
Tractor Supply,SOUTH POINT,1555,1555 #1555 #01555,367 COUNTRY RD 406 STE A,OH,45680
Tractor Supply,VICKSBURG,1556,1556 #1556 #01556,1800 S FRONTAGE RD STE G,MS,39180
Tractor Supply,DUNLAP,1557,1557 #1557 #01557,7342 STATE ROUTE 28 STE B,TN,37327
Tractor Supply,HOULTON,1558,1558 #1558 #01558,377 NORTH ST,ME,4730
Tractor Supply,LEOMINSTER,1559,1559 #1559 #01559,235 NEW LANCASTER RD,MA,1453
Tractor Supply,PLYMOUTH,1560,1560 #1560 #01560,85 BOULDER POINT DR,NH,3264
Tractor Supply,WILLIAMSBURG,1561,1561 #1561 #01561,159 PENNY LN,KY,40769
Tractor Supply,LIVE OAK,1562,1562 #1562 #01562,207 72ND TRACE NE,FL,32064
Tractor Supply,STATESBORO,1563,1563 #1563 #01563,657 NORTHSIDE DR EAST,GA,30458
Tractor Supply,AWENDAW,1564,1564 #1564 #01564,4765 N HIGHWAY 17,SC,29429
Tractor Supply,FRANKFORT,1565,1565 #1565 #01565,111 ARROWHEAD CT,KY,40601
Tractor Supply,EL PASO,1566,1566 #1566 #01566,9541 ALAMEDA AVE,TX,79927
Tractor Supply,CANTON,1567,1567 #1567 #01567,12110 CUMMING HWY,GA,30115
Tractor Supply,URBANA,1568,1568 #1568 #01568,1637 E US HIGHWAY 36 UNIT 1A,OH,43078
Tractor Supply,NEWPORT,1569,1569 #1569 #01569,165 WESTERN PLAZA WAY,TN,37821
Tractor Supply,BOSSIER CITY,1570,1570 #1570 #01570,2151 AUTOPLEX DR,LA,71111
Tractor Supply,SMITHFIELD,1571,1571 #1571 #01571,13500 BENNS CHURCH BLVD,VA,23430
Tractor Supply,PLYMPTON,1572,1572 #1572 #01572,406 MAIN ST,MA,2367
Tractor Supply,BRODHEADSVILLE,1573,1573 #1573 #01573,1580 ROUTE 209,PA,18322
Tractor Supply,WYNNE,1574,1574 #1574 #01574,1590 FALLS BLVD NORTH,AR,72396
Tractor Supply,GREENWICH,1575,1575 #1575 #01575,1175 STATE ROUTE 29,NY,12834
Tractor Supply,LAURINBURG,1576,1576 #1576 #01576,1690 S MAIN ST,NC,28352
Tractor Supply,SOUTH WILLIAMSON,1577,1577 #1577 #01577,169 SOUTHSIDE MALL RD,KY,41503
Tractor Supply,HARTWELL,1578,1578 #1578 #01578,1541 ANDERSON HWY STE A,GA,30643
Tractor Supply,NEW BOSTON,1579,1579 #1579 #01579,4000 RHODES AVE,OH,45662
Tractor Supply,MANASSAS,1580,1580 #1580 #01580,10870 BALLS FORD RD,VA,20109
Tractor Supply,MCDONOUGH,1581,1581 #1581 #01581,1565 HIGHWAY 81 EAST,GA,30252
Tractor Supply,BOSQUE FARMS,1582,1582 #1582 #01582,890 BOSQUE FARMS BLVD,NM,87068
Tractor Supply,MORGANTON,1583,1583 #1583 #01583,111 INDEPENDENCE BLVD STE E,NC,28655
Tractor Supply,AUBURN,1584,1584 #1584 #01584,3950 GRASS VALLEY HWY,CA,95602-2011
Tractor Supply,LAUREL,1585,1585 #1585 #01585,1501 NORTHWEST DR,MS,39440
Tractor Supply,DODGE CITY,1587,1587 #1587 #01587,2612 CENTRAL AVE,KS,67801
Tractor Supply,PETALUMA,1588,1588 #1588 #01588,2000 LAKEVILLE HIGHWAY STE A,CA,94954
Tractor Supply,SOMERVILLE,1589,1589 #1589 #01589,50 TEAGUE STORE RD,TN,38068
Tractor Supply,EASTON,1590,1590 #1590 #01590,29328 CECIL DR,MD,21601
Tractor Supply,COLUMBUS,1591,1591 #1591 #01591,4010 HIGHWAY 45N,MS,39705
Tractor Supply,BRADFORD,1592,1592 #1592 #01592,1001 E MAIN ST,PA,16701
Tractor Supply,ELLSWORTH,1593,1593 #1593 #01593,461 HIGH ST,ME,04605-2501
Tractor Supply,CAMBRIDGE,1594,1594 #1594 #01594,1465 1ST AVE E,MN,55008
Tractor Supply,CHILDRESS,1595,1595 #1595 #01595,2211 AVE F NW,TX,79201
Tractor Supply,WINDHAM,1596,1596 #1596 #01596,496 ROOSEVELT TRAIL,ME,4062
Tractor Supply,CASSVILLE,1597,1597 #1597 #01597,1011 OLD EXETER RD,MO,65625
Tractor Supply,WILLIAMSBURG,1598,1598 #1598 #01598,119 NORGE LN,VA,23188
Tractor Supply,CLAREMONT,1599,1599 #1599 #01599,419 MAIN ST,NH,3743
Tractor Supply,BUDA,1600,1600 #1600 #01600,15555 S INTERSTATE 35,TX,78610-3614
Tractor Supply,BRENTWOOD,1601,1601 #1601 #01601,437 ROUTE 125,NH,3833
Tractor Supply,JACKSONVILLE,1602,1602 #1602 #01602,9025 NEW KINGS RD,FL,32219
Tractor Supply,PETOSKEY,1603,1603 #1603 #01603,2201 N US HIGHWAY 31,MI,49770
Tractor Supply,STARKVILLE,1604,1604 #1604 #01604,1301 GRETA LANE,MS,39759
Tractor Supply,MCCOMB,1605,1605 #1605 #01605,602 W PRESLEY BLVD,MS,39648
Tractor Supply,MARIANNA,1606,1606 #1606 #01606,2800 HIGHWAY 71,FL,32446
Tractor Supply,MORGANTOWN,1608,1608 #1608 #01608,7 VISTA DEL RIO DR,WV,26508
Tractor Supply,PASO ROBLES,1609,1609 #1609 #01609,2800 RIVERSIDE AVENUE,CA,93446-1301
Tractor Supply,ALEXANDER CITY,1610,1610 #1610 #01610,1556 MILL SQUARE,AL,35010-2674
Tractor Supply,SANDERSVILLE,1611,1611 #1611 #01611,1246 S HARRIS ST,GA,31082
Tractor Supply,SIDNEY,1612,1612 #1612 #01612,1650 MICHIGAN ST,OH,45365
Tractor Supply,JONESBOROUGH,1613,1613 #1613 #01613,507 BOONES CREEK RD,TN,37659
Tractor Supply,GREELEY,1614,1614 #1614 #01614,3015 S 23RD AVE,CO,80631-8752
Tractor Supply,NEW HOLLAND,1615,1615 #1615 #01615,151 TOWER RD,PA,17557
Tractor Supply,RICHLAND,1616,1616 #1616 #01616,102 BAPTIST DR,MS,39218
Tractor Supply,SPENCER,1617,1617 #1617 #01617,58 WILLIAMS DR,WV,25276
Tractor Supply,JACKSON,1618,1618 #1618 #01618,773 S STATE HIGHWAY 49,CA,95642
Tractor Supply,EDGEWOOD,1619,1619 #1619 #01619,5 MARIETTA CT,NM,87015
Tractor Supply,COVINGTON,1620,1620 #1620 #01620,975 HIGHWAY 51 N,TN,38019-1523
Tractor Supply,ELIZABETHTOWN,1621,1621 #1621 #01621,1305 W BROAD ST,NC,28337-9548
Tractor Supply,FORT STOCKTON,1622,1622 #1622 #01622,1700 W DICKINSON BLVD,TX,79735-4240
Tractor Supply,ROXBORO,1623,1623 #1623 #01623,754 N MADISON BLVD,NC,27573
Tractor Supply,SWANSEA,1624,1624 #1624 #01624,207 SWANSEA MALL DR,MA,02777-4120
Tractor Supply,CHARLES TOWN,1625,1625 #1625 #01625,1040 SOMERSET BLVD,WV,25414
Tractor Supply,SARALAND,1626,1626 #1626 #01626,1010 INDUSTRIAL PKWY,AL,36571
Tractor Supply,CARLSBAD,1627,1627 #1627 #01627,3127 NATIONAL PARKS HWY,NM,88220-5381
Tractor Supply,WALTERBORO,1628,1628 #1628 #01628,297 BELLS HWY,SC,29488-2790
Tractor Supply,ONEONTA,1629,1629 #1629 #01629,1608 2ND AVE E,AL,35121-2704
Tractor Supply,BREWTON,1630,1630 #1630 #01630,1730 DOUGLAS AVE,AL,36426-1118
Tractor Supply,PRINCETON,1631,1631 #1631 #01631,500 US HIGHWAY 62 W,KY,42445-2410
Tractor Supply,SELMA,1632,1632 #1632 #01632,2680 US HWY 80 W,AL,36701-2401
Tractor Supply,BATH,1633,1633 #1633 #01633,404 W MORRIS ST,NY,14810-1039
Tractor Supply,OZARK,1634,1634 #1634 #01634,1177 ANDREWS AVE,AL,36360-3723
Tractor Supply,GALLUP,1635,1635 #1635 #01635,1308A METRO AVE,NM,87301
Tractor Supply,NEW BERN,1636,1636 #1636 #01636,3821 DR ML KING JR BLVD,NC,28562
Tractor Supply,LINCOLNTON,1637,1637 #1637 #01637,401 N GENERALS BLVD,NC,28092-3559
Tractor Supply,ROCHESTER,1638,1638 #1638 #01638,12 TWO ROD ROAD,NH,3867
Tractor Supply,MILAN,1639,1639 #1639 #01639,6025 S First St,TN,38358-3158
Tractor Supply,DEFUNIAK SPRINGS,1640,1640 #1640 #01640,931 US HIGHWAY 331 S,FL,32435-3384
Tractor Supply,PLACERVILLE,1642,1642 #1642 #01642,1360 BROADWAY,CA,95667-5902
Tractor Supply,MILTON,1643,1643 #1643 #01643,6531 CAROLINE ST,FL,32570
Tractor Supply,ENTERPRISE,1644,1644 #1644 #01644,1305 BOLL WEEVIL CIR,AL,36330
Tractor Supply,PLAISTOW,1645,1645 #1645 #01645,96 PLAISTOW RD,NH,3865
Tractor Supply,SIDNEY,1646,1646 #1646 #01646,174 DELAWARE AVE,NY,13838
Tractor Supply,TELL CITY,1647,1647 #1647 #01647,375 OLD HIGHWAY RD,IN,47586-1100
Tractor Supply,THOMASTON,1648,1648 #1648 #01648,1075 HIGHWAY 19 N,GA,30286-2230
Tractor Supply,DEQUEEN,1649,1649 #1649 #01649,708A E COLLIN RAYE DR,AR,71832
Tractor Supply,CLINTON,1650,1650 #1650 #01650,464 SPRINGRIDGE RD,MS,39056
Tractor Supply,SILVER CITY,1651,1651 #1651 #01651,2707 HIGHWAY 180 E,NM,88061
Tractor Supply,MIMS,1652,1652 #1652 #01652,2619 US 1,FL,32754-3853
Tractor Supply,COLDWATER,1653,1653 #1653 #01653,613 LOTT RD,MI,49036-9401
Tractor Supply,HOLLISTER,1654,1654 #1654 #01654,2949 S BUSINESS 65,MO,65672
Tractor Supply,JEFFERSON,1655,1655 #1655 #01655,630 SOUTH MAIN ST,NC,28640
Tractor Supply,TAYLORSVILLE,1657,1657 #1657 #01657,837 NC HWY 16 S,NC,28681-9983
Tractor Supply,WILLIAMSTON,1658,1658 #1658 #01658,831 EAST BLVD,NC,27892-2739
Tractor Supply,GREENWOOD,1659,1659 #1659 #01659,2211 HIGHWAY 82 W,MS,38930
Tractor Supply,THOMASVILLE,1660,1660 #1660 #01660,33891 HIGHWAY 43,AL,36784-3346
Tractor Supply,STEVENSVILLE,1661,1661 #1661 #01661,5180 RED ARROW HIGHWAY,MI,49127-1014
Tractor Supply,HOLLYWOOD,1662,1662 #1662 #01662,23788 MERVELL DEAN ROAD,MD,20636
Tractor Supply,HERKIMER,1663,1663 #1663 #01663,716 MOHAWK ST,NY,13350
Tractor Supply,VERNON,1664,1664 #1664 #01664,404 TALCOTTVILLE RD,CT,6066
Tractor Supply,TUSCALOOSA,1665,1665 #1665 #01665,601 PATRIOT PKWY,AL,35405
Tractor Supply,CANON CITY,1666,1666 #1666 #01666,1919 E MAIN ST,CO,81212-3950
Tractor Supply,DILLSBURG,1667,1667 #1667 #01667,880 NORTH US ROUTE 15,PA,17019-1617
Tractor Supply,GRAND JUNCTION,1668,1668 #1668 #01668,2449 HIGHWAY 6 AND 50,CO,81505-1101
Tractor Supply,GLENWOOD SPRINGS,1669,1669 #1669 #01669,51027 HIGHWAY 6 AND 24,CO,81601-2551
Tractor Supply,AKRON/LAKEMORE,1670,1670 #1670 #01670,1500 CANTON ROAD,OH,44312
Tractor Supply,TIPTON,1671,1671 #1671 #01671,840 E JEFFERSON ST,IN,46072-8750
Tractor Supply,MORRISVILLE,1672,1672 #1672 #01672,88 CENTER ROAD,VT,5661
Tractor Supply,SANFORD,1673,1673 #1673 #01673,3004 S HORNER BLVD,NC,27332-9644
Tractor Supply,FARMINGTON,1674,1674 #1674 #01674,141 S BROWNING PKWY,NM,87401
Tractor Supply,EASLEY,1675,1675 #1675 #01675,339 ROLLING HILLS CIR,SC,29640
Tractor Supply,KINSTON,1677,1677 #1677 #01677,1030 W NEW BERN RD,NC,28504-4806
Tractor Supply,DEMING,1678,1678 #1678 #01678,414 E PINE STREET,NM,88030-3839
Tractor Supply,PEARSIBURG,1679,1679 #1679 #01679,332 N MAIN STREET,VA,24134
Tractor Supply,SNYDER,1680,1680 #1680 #01680,1901 MCCOWEN STREET,TX,79549
Tractor Supply,STUTTGART,1681,1681 #1681 #01681,2307 N HIGHWAY 63,AR,72160
Tractor Supply,DAVISON,1682,1682 #1682 #01682,8171 LAPEER ROAD,MI,48423
Tractor Supply,CHESAPEAKE,1683,1683 #1683 #01683,433 CENTERVILLE TURNPIKE S,VA,23322-3907
Tractor Supply,PICAYUNE,1684,1684 #1684 #01684,2320 HIGHWAY 43 S,MS,39466
Tractor Supply,MONTICELLO,1685,1685 #1685 #01685,1125 N MAIN STREET SUITE 1,KY,42633-2865
Tractor Supply,BREVARD,1686,1686 #1686 #01686,1232 ASHEVILLE HWY,NC,28712-3051
Tractor Supply,WEST MEMPHIS,1687,1687 #1687 #01687,2100 WEST SERVICE ROAD,AR,72301
Tractor Supply,PHILADELPHIA,1688,1688 #1688 #01688,14841 HIGHWAY 16 WEST,MS,39350
Tractor Supply,MIDLAND,1689,1689 #1689 #01689,11855 US HIGHWAY 601 S,NC,28107
Tractor Supply,HARTSELLE,1690,1690 #1690 #01690,800 HIGHWAY 31 W,AL,35640-2800
Tractor Supply,HOMOSASSA,1692,1692 #1692 #01692,3826 S SUNCOAST BLVD,FL,34448-2624
Tractor Supply,MACCLENNY,1693,1693 #1693 #01693,1340 S 6TH STREET,FL,32063-4621
Tractor Supply,APPOMATTOX,1695,1695 #1695 #01695,7645 RICHMOND HWY,VA,24522
Tractor Supply,WAYNESBURG,1696,1696 #1696 #01696,55 SUGAR RUN RD,PA,15370-9644
Tractor Supply,WINNIE,1697,1697 #1697 #01697,201 SPUR 5,TX,77665
Tractor Supply,LUMBERTON,1698,1698 #1698 #01698,3357 LACKEY STREET,NC,28360
Tractor Supply,HARLAN,1699,1699 #1699 #01699,10 COMPREHENSIVE DRIVE,KY,40831
Tractor Supply,THOMASTON,1700,1700 #1700 #01700,38 THOMASTON COMMONS WAY,ME,4861
Tractor Supply,RENSSELAER,1701,1701 #1701 #01701,1232 W CLARK STREET,IN,47978
Tractor Supply,SOUTHPORT,1702,1702 #1702 #01702,6922 HIGHWAY 77,FL,32409-1571
Tractor Supply,BELLE,1703,1703 #1703 #01703,2700 E DUPONT AVE,WV,25015-1842
Tractor Supply,WADSWORTH,1706,1706 #1706 #01706,180 GREAT OAKS TRAIL,OH,44281-9465
Tractor Supply,BARNWELL,1708,1708 #1708 #01708,10499 DUNBARTON,SC,29812
Tractor Supply,BAXLEY,1709,1709 #1709 #01709,375 E PARKER STREET,GA,31513-0017
Tractor Supply,CORNELIA,1711,1711 #1711 #01711,310 HABERSHAM HILLS CIRCLE,GA,30531
Tractor Supply,HONESDALE,1712,1712 #1712 #01712,240 WILLOW AVENUE,PA,18431-1110
Tractor Supply,CANTON,1713,1713 #1713 #01713,176 FEATHER LANE,MS,39046
Tractor Supply,LAS VEGAS,1714,1714 #1714 #01714,29 NM HIGHWAY 518,NM,87701
Tractor Supply,AUSTINTOWN,1715,1715 #1715 #01715,6225 MAHONING AVENUE,OH,44515
Tractor Supply,MADISONVILLE,1716,1716 #1716 #01716,1606 E MAIN ST,TX,77864-2208
Tractor Supply,RUMFORD,1718,1718 #1718 #01718,142 VALLEY CIRCLE,ME,04276-3643
Tractor Supply,PHENIX CITY,1719,1719 #1719 #01719,2012 HIGHWAY 280-431 N,AL,36867
Tractor Supply,MONTICELLO,1720,1720 #1720 #01720,1575 S JEFFERSON STREET,FL,32344
Tractor Supply,OAKLAND,1721,1721 #1721 #01721,13631 GARRETT HWY,MD,21550-4010
Tractor Supply,PINE BLUFF,1722,1722 #1722 #01722,6903 SHERIDAN RD,AR,71602
Tractor Supply,NEW ALBANY,1724,1724 #1724 #01724,112 VIRGINIA WAY,MS,38652
Tractor Supply,WILLARD,1725,1725 #1725 #01725,535 WEST WALTON ST,OH,44890
Tractor Supply,MIAMI (GLOBE),1726,1726 #1726 #01726,2260 W HIGHWAY 60,AZ,85539
Tractor Supply,CLEVELAND,1727,1727 #1727 #01727,1725 E HOUSTON ST,TX,77327
Tractor Supply,BARTOW,1728,1728 #1728 #01728,1050 N WILSON AVENUE,FL,33830-3349
Tractor Supply,NORTH ADAMS,1729,1729 #1729 #01729,826 CURRAN MEMORIAL HIGHWAY,MA,1247
Tractor Supply,COLCHESTER,1731,1731 #1731 #01731,150 NEW LONDON ROAD,CT,6415
Tractor Supply,SUFFOLK,1732,1732 #1732 #01732,3000 PRUDEN BLVD,VA,23434
Tractor Supply,WOODWARD,1733,1733 #1733 #01733,1105 NW HIGHWAY 270,OK,73801
Tractor Supply,PRESCOTT VALLEY,1734,1734 #1734 #01734,8740 E EASTRIDGE DR,AZ,86314
Tractor Supply,PETERSBURG,1735,1735 #1735 #01735,8175 WAGNER WAY,VA,23875
Tractor Supply,ASHLAND,1736,1736 #1736 #01736,201 JUNCTION DRIVE,VA,23005-2272
Tractor Supply,VASS,1737,1737 #1737 #01737,5601 US HIGHWAY 1,NC,28394
Tractor Supply,CHEBOYGAN,1738,1738 #1738 #01738,1125 E. STATE STREET,MI,49721
Tractor Supply,BERNALILLO,1739,1739 #1739 #01739,300 W HIGHWAY,NM,87004
Tractor Supply,DINWIDDIE,1740,1740 #1740 #01740,13118 BOYDTON PLANK ROAD,VA,23841-2426
Tractor Supply,PAULS VALLEY,1741,1741 #1741 #01741,106 N INDIAN MERIDIAN Road,OK,73075-9236
Tractor Supply,GUNNISON,1742,1742 #1742 #01742,1125 NORTH MAIN STREET,CO,81230
Tractor Supply,Chester,1743,1743 #1743 #01743,1839 J A Cochran Bypass,SC,29706
Tractor Supply,RAWLINS,1744,1744 #1744 #01744,2201 PLAZA STREET,WY,82301
Tractor Supply,MILFORD,1745,1745 #1745 #01745,609B N DUPONT BLVD,DE,19963
Tractor Supply,KENTON,1747,1747 #1747 #01747,948 E. COLUMBUS STREET,OH,43326-1683
Tractor Supply,MIDDLETOWN,1748,1748 #1748 #01748,4655 ROOSEVELT BLVD,OH,45044
Tractor Supply,HOUGHTON,1749,1749 #1749 #01749,1701 MEMORIAL RD,MI,49931-2436
Tractor Supply,Perry,1751,1751 #1751 #01751,2500 S Byron Butler Parkway,FL,32348
Tractor Supply,CALAIS,1752,1752 #1752 #01752,289 SOUTH STREET,ME,4619
Tractor Supply,CARSON CITY,1753,1753 #1753 #01753,2035 E WILLIAM STREET,NV,89701-2723
Tractor Supply,DURANGO,1754,1754 #1754 #01754,1175 DOMINGUEZ DRIVE,CO,81303
Tractor Supply,CONNERSVILLE,1755,1755 #1755 #01755,2202 N PARK ROAD,IN,47331
Tractor Supply,BESSEMER,1757,1757 #1757 #01757,690 ACADEMY DRIVE,AL,35022
Tractor Supply,Clanton,1758,1758 #1758 #01758,1001 Woodfin Lane,AL,35045-8775
Tractor Supply,GUILDERLAND,1761,1761 #1761 #01761,2327 WESTERN AVENUE,NY,12084
Tractor Supply,MILLBURY,1762,1762 #1762 #01762,99 WORCESTER PROVIDENCE TURNPIKE,MA,01527-2649
Tractor Supply,VIRGINIA BEACH,1763,1763 #1763 #01763,2000 FISHER ARCH,VA,23456
Tractor Supply,GROVE,1764,1764 #1764 #01764,2121 US HIGHWAY 59,OK,74344
Tractor Supply,Chickasha,1765,1765 #1765 #01765,300 E. Grand Avenue,OK,73018
Tractor Supply,JASPER,1766,1766 #1766 #01766,294 E CHURCH ST,GA,30143-1302
Tractor Supply,Yucca Valley,1768,1768 #1768 #01768,57980 29 Palms Hwy Ste A,CA,92284
Tractor Supply,Old Saybrook,1769,1769 #1769 #01769,401 Middlesex Tpke,CT,06475-4210
Tractor Supply,HINSDALE,1770,1770 #1770 #01770,670 BRATTLEBORO ROAD,NH,3451
Tractor Supply,MAGEE,1771,1771 #1771 #01771,1800 SIMPSON HIGHWAY 49,MS,39111-5391
Tractor Supply,WHITE LAKE,1772,1772 #1772 #01772,10150 HIGHLAND ROAD,MI,48386-1803
Tractor Supply,WICKENBURG,1773,1773 #1773 #01773,1860 WEST WICKENBURG WAY,AZ,85390
Tractor Supply,THATCHER,1774,1774 #1774 #01774,2411 W. US HIGHWAY 70,AZ,85552
Tractor Supply,SHOW LOW,1775,1775 #1775 #01775,3801 S. WHITE MOUNTAIN ROAD,AZ,85901-7610
Tractor Supply,GROVELAND,1776,1776 #1776 #01776,6801 STATE ROAD 50,FL,34736
Tractor Supply,Madison,1779,1779 #1779 #01779,6603 North Ridge Road,OH,44057
Tractor Supply,KINGMAN,1781,1781 #1781 #01781,3136 A.N. STOCKTON HILL ROAD,AZ,86401
Tractor Supply,Yuma,1782,1782 #1782 #01782,10637 E. South Frontage Road,AZ,85365
Tractor Supply,BENSON,1783,1783 #1783 #01783,350 S. OCOTILLO,AZ,85602-6401
Tractor Supply,Buckeye,1784,1784 #1784 #01784,2555 S. Miller Road,AZ,85326
Tractor Supply,BRIGHTON,1786,1786 #1786 #01786,147 DENVER STREET,CO,80601
Tractor Supply,MAGNOLIA,1787,1787 #1787 #01787,18567 BUDDY RILEY BLVD,TX,77354
Tractor Supply,Martinsville,1788,1788 #1788 #01788,4920 Greensboro Road,VA,24148
Tractor Supply,EASTMAN,1790,1790 #1790 #01790,993 INDIAN DRIVE,GA,31023
Tractor Supply,DELTA,1791,1791 #1791 #01791,145 GUNNISON RIVER DRIVE,CO,81416
Tractor Supply,SIERRA VISTA,1793,1793 #1793 #01793,4860 E. HIGHWAY 90,AZ,85635
Tractor Supply,EAGLE PASS,1794,1794 #1794 #01794,2116 TOWN SQUARE BLVD,TX,78852
Tractor Supply,Fortuna,1795,1795 #1795 #01795,1000 River Ranch,CA,95540
Tractor Supply,SIDNEY,1796,1796 #1796 #01796,302 E. HOLLY STREET,MT,59270
Tractor Supply,Leesville,1797,1797 #1797 #01797,1111 Boone St. Suite 2,LA,71446-5235
Tractor Supply,Fruitport,1800,1800 #1800 #01800,6435 Airline Road,MI,49415-8934
Tractor Supply,Macedon,1801,1801 #1801 #01801,280 State Route 31,NY,14502-8818
Tractor Supply,Gastonia,1804,1804 #1804 #01804,1630 Edgewood Road,NC,28016-6501
Tractor Supply,DENHAM SPRINGS,1805,1805 #1805 #01805,246 FLORIDA AVENUE SE,LA,70726
Tractor Supply,Castle Rock,1806,1806 #1806 #01806,959 Plum Creek Blvd.,CO,80104
Tractor Supply,Santa Fe,1816,1816 #1816 #01816,3901 Oliver Road,NM,87507
Tractor Supply,Burkburnett,1820,1820 #1820 #01820,106 S Red River Expressway,TX,76354
Tractor Supply,Minden,1822,1822 #1822 #01822,1645 Highway 88,NV,89423
