keywords,city,Aggdata Store Number,store_number,address,state,zip_code
Turkey Hill,Marysville,66900600,66900600 67000600 670000600 6700000600 #0600 #600,1860 S Ohio St,IN,46151
Turkey Hill,Scranton,66900602,66900602 67000602 670000602 6700000602 #0602 #602,1221 S Range Line Rd,IN,46032
Turkey Hill,Martinsville,66900603,66900603 67000603 670000603 6700000603 #0603 #603,4960 Madison Ave,IN,46227
Turkey Hill,Carmel,66900702,66900702 67000702 670000702 6700000702 #0702 #702,753 Hebron Rd,OH,43056
Turkey Hill,Indianapolis,66900703,66900703 67000703 670000703 6700000703 #0703 #703,721 S Hamilton Rd,OH,43213
Turkey Hill,Heath,66900704,66900704 67000704 670000704 6700000704 #0704 #704,2685 N High St,OH,43202
Turkey Hill,Whitehall,66900705,66900705 67000705 670000705 6700000705 #0705 #705,1953 Morse Rd,OH,43229
Turkey Hill,Columbus,66900706,66900706 67000706 670000706 6700000706 #0706 #706,1880 E Broad St,OH,43203
Turkey Hill,Columbus,66900707,66900707 67000707 670000707 6700000707 #0707 #707,2740 Stratford Rd,OH,43015
Turkey Hill,Columbus,66900708,66900708 67000708 670000708 6700000708 #0708 #708,1425 N Cassady Ave,OH,43219
Turkey Hill,Delaware,66900709,66900709 67000709 670000709 6700000709 #0709 #709,5350 Tuttle Crossing Blvd,OH,43016
Turkey Hill,Columbus,66900710,66900710 67000710 670000710 6700000710 #0710 #710,6977 E Broad St,OH,43213
Turkey Hill,Dublin,66900711,66900711 67000711 670000711 6700000711 #0711 #711,7447 State Route 3,OH,43082
Turkey Hill,Columbus,66900712,66900712 67000712 670000712 6700000712 #0712 #712,3900 S High St,OH,43207
Turkey Hill,Westerville,66900714,66900714 67000714 670000714 6700000714 #0714 #714,1910 Stringtown Rd,OH,43123
Turkey Hill,Columbus,66900715,66900715 67000715 670000715 6700000715 #0715 #715,1621 Cobblestone Way,OH,43040
Turkey Hill,Grove City,66900717,66900717 67000717 670000717 6700000717 #0717 #717,950 Georgesville Rd.,OH,43228
Turkey Hill,Columbus,67000002,669002 670002 6700002 67000002 #02 #2,1612 Lincoln Hwy E,PA,17602
Turkey Hill,Lancaster,67000003,669003 670003 6700003 67000003 #03 #3,1338 Mount Rose Ave,PA,17403
Turkey Hill,York,67000008,669008 670008 6700008 67000008 #08 #8,806 New Holland Ave,PA,17602
Turkey Hill,Lancaster,67000009,669009 670009 6700009 67000009 #09 #9,2820 Carlisle Rd,PA,17408
Turkey Hill,York,67000014,6690014 6700014 67000014 670000014 #014 #14,3701 Kutztown Rd,PA,19605
Turkey Hill,Laureldale,67000015,6690015 6700015 67000015 670000015 #015 #15,2921 Willow Street Pike N,PA,17584
Turkey Hill,Willow Street,67000017,6690017 6700017 67000017 670000017 #017 #17,325 W Main St,PA,17552
Turkey Hill,Mount Joy,67000019,6690019 6700019 67000019 670000019 #019 #19,520 Hershey Ave,PA,17603
Turkey Hill,Lancaster,67000020,6690020 6700020 67000020 670000020 #020 #20,936 Columbia Ave,PA,17603
Turkey Hill,Lancaster,67000021,6690021 6700021 67000021 670000021 #021 #21,101 S Main St,PA,17545
Turkey Hill,Manheim,67000022,6690022 6700022 67000022 670000022 #022 #22,257 N Decatur St,PA,17579
Turkey Hill,Strasburg,67000024,6690024 6700024 67000024 670000024 #024 #24,245 N Market St,PA,17022
Turkey Hill,Elizabethtown,67000027,6690027 6700027 67000027 670000027 #027 #27,870 Manor St,PA,17603
Turkey Hill,Lancaster,67000028,6690028 6700028 67000028 670000028 #028 #28,742 Roosevelt Ave,PA,17404
Turkey Hill,York,67000029,6690029 6700029 67000029 670000029 #029 #29,2673 Lititz Pike,PA,17601
Turkey Hill,Neffsville,67000030,6690030 6700030 67000030 670000030 #030 #30,1500 W Market St,PA,17404
Turkey Hill,York,67000031,6690031 6700031 67000031 670000031 #031 #31,2240 Hampden Blvd,PA,19604
Turkey Hill,Reading,67000032,6690032 6700032 67000032 670000032 #032 #32,5959 East Main St,PA,17520
Turkey Hill,East Petersburg,67000033,6690033 6700033 67000033 670000033 #033 #33,549 S Market St,PA,17022
Turkey Hill,Elizabethtown,67000034,6690034 6700034 67000034 670000034 #034 #34,170 E Main St,PA,17057
Turkey Hill,Middletown,67000035,6690035 6700035 67000035 670000035 #035 #35,298 Main St,PA,17538
Turkey Hill,Landisville,67000036,6690036 6700036 67000036 670000036 #036 #36,340 Hellam St,PA,17368
Turkey Hill,Wrightsville,67000037,6690037 6700037 67000037 670000037 #037 #37,300 Main St,PA,17517
Turkey Hill,Denver,67000038,6690038 6700038 67000038 670000038 #038 #38,265 W State St,PA,17566
Turkey Hill,Quarryville,67000039,6690039 6700039 67000039 670000039 #039 #39,106 S 7Th St,PA,17501
Turkey Hill,Akron,67000040,6690040 6700040 67000040 670000040 #040 #40,1660 New Holland Rd,PA,19607
Turkey Hill,Reading,67000041,6690041 6700041 67000041 670000041 #041 #41,2787 Lincoln Hwy E,PA,17572
Turkey Hill,Ronks,67000042,6690042 6700042 67000042 670000042 #042 #42,716 E Lehman St,PA,17046
Turkey Hill,Lebanon,67000045,6690045 6700045 67000045 670000045 #045 #45,2 E Main St,PA,17003
Turkey Hill,Annville,67000047,6690047 6700047 67000047 670000047 #047 #47,815 Quentin Rd,PA,17042
Turkey Hill,Lebanon,67000048,6690048 6700048 67000048 670000048 #048 #48,26 Manor Ave,PA,17551
Turkey Hill,Millersville,67000049,6690049 6700049 67000049 670000049 #049 #49,346 W Broadway,PA,17356
Turkey Hill,Red Lion,67000050,6690050 6700050 67000050 670000050 #050 #50,1001 Lancaster Pike,PA,17566
Turkey Hill,Quarryville,67000051,6690051 6700051 67000051 670000051 #051 #51,133 W. Main Street,PA,19522
Turkey Hill,Fleetwood,67000052,6690052 6700052 67000052 670000052 #052 #52,941 Rt 41,PA,17527
Turkey Hill,Gap,67000053,6690053 6700053 67000053 670000053 #053 #53,2450 Perkiomen Ave,PA,19606
Turkey Hill,Reading,67000054,6690054 6700054 67000054 670000054 #054 #54,425-445 N 13th St,PA,19604
Turkey Hill,Reading,67000055,6690055 6700055 67000055 670000055 #055 #55,209 Carlisle Ave,PA,17404
Turkey Hill,York,67000059,6690059 6700059 67000059 670000059 #059 #59,50 W Main St,PA,19530
Turkey Hill,Kutztown,67000060,6690060 6700060 67000060 670000060 #060 #60,2453 Old Philadelphia Pike,PA,17602
Turkey Hill,Lancaster,67000061,6690061 6700061 67000061 670000061 #061 #61,3057 Saint Lawrence Ave,PA,19606
Turkey Hill,Reading,67000062,6690062 6700062 67000062 670000062 #062 #62,4801 5Th Street Hwy,PA,19560
Turkey Hill,Temple,67000063,6690063 6700063 67000063 670000063 #063 #63,903 S State St,PA,17522
Turkey Hill,Ephrata,67000064,6690064 6700064 67000064 670000064 #064 #64,524 S Lincoln Ave,PA,17042
Turkey Hill,Lebanon,67000065,6690065 6700065 67000065 670000065 #065 #65,5 W Clay St,PA,17603
Turkey Hill,Lancaster,67000066,6690066 6700066 67000066 670000066 #066 #66,639 Main St,PA,17344
Turkey Hill,Mcsherrystown,67000067,6690067 6700067 67000067 670000067 #067 #67,300 Frederick St,PA,17331
Turkey Hill,Hanover,67000068,6690068 6700068 67000068 670000068 #068 #68,342 Chestnut St,PA,17512
Turkey Hill,Columbia,67000069,6690069 6700069 67000069 670000069 #069 #69,2501 N Reading Rd,PA,17517
Turkey Hill,Denver,67000070,6690070 6700070 67000070 670000070 #070 #70,102 S 8Th St,PA,17042
Turkey Hill,Lebanon,67000071,6690071 6700071 67000071 670000071 #071 #71,4031 Horseshoe Pike,PA,19344
Turkey Hill,Honey Brook,67000072,6690072 6700072 67000072 670000072 #072 #72,189 S Richland Ave,PA,17404
Turkey Hill,York,67000073,6690073 6700073 67000073 670000073 #073 #73,5 W 28Th Division Hwy,PA,17543
Turkey Hill,Lititz,67000074,6690074 6700074 67000074 670000074 #074 #74,284 E Main St,PA,17540
Turkey Hill,Leola,67000075,6690075 6700075 67000075 670000075 #075 #75,1349 Millersville Pike,PA,17603
Turkey Hill,Lancaster,67000076,6690076 6700076 67000076 670000076 #076 #76,2101 New Danville Pike,PA,17603
Turkey Hill,Lancaster,67000077,6690077 6700077 67000077 670000077 #077 #77,812 E Penn Ave,PA,17042
Turkey Hill,Cleona,67000078,6690078 6700078 67000078 670000078 #078 #78,863 Village Rd,PA,17537
Turkey Hill,Lampeter,67000079,6690079 6700079 67000079 670000079 #079 #79,1004 Harrisburg Pike,PA,17603
Turkey Hill,Lancaster,67000080,6690080 6700080 67000080 670000080 #080 #80,320 E Main St,PA,17554
Turkey Hill,Mountville,67000081,6690081 6700081 67000081 670000081 #081 #81,298 W Lincoln Ave,PA,17067
Turkey Hill,Myerstown,67000082,6690082 6700082 67000082 670000082 #082 #82,Rt. 10 & Rt. 41,PA,19330
Turkey Hill,Cochranville,67000083,6690083 6700083 67000083 670000083 #083 #83,336 W Columbia St,PA,17972
Turkey Hill,Schuylkill Haven,67000084,6690084 6700084 67000084 670000084 #084 #84,10 E 1St Ave,PA,19365
Turkey Hill,Parkesburg,67000085,6690085 6700085 67000085 670000085 #085 #85,330 E Broad St,PA,18252
Turkey Hill,Tamaqua,67000087,6690087 6700087 67000087 670000087 #087 #87,200 W Catawissa St,PA,18240
Turkey Hill,Nesquehoning,67000088,6690088 6700088 67000088 670000088 #088 #88,17 Briarcrest Sq,PA,17033
Turkey Hill,Hershey,67000089,6690089 6700089 67000089 670000089 #089 #89,216 Pike St,PA,17965
Turkey Hill,Port Carbon,67000090,6690090 6700090 67000090 670000090 #090 #90,5009 Locust Ln,PA,17109
Turkey Hill,Harrisburg,67000091,6690091 6700091 67000091 670000091 #091 #91,438 S 3Rd St,PA,17043
Turkey Hill,Lemoyne,67000093,6690093 6700093 67000093 670000093 #093 #93,4490 E Prospect Rd,PA,17406
Turkey Hill,York,67000094,6690094 6700094 67000094 670000094 #094 #94,12 S Harrisburg St,PA,17113
Turkey Hill,Oberlin,67000095,6690095 6700095 67000095 670000095 #095 #95,390 N Houcks Rd,PA,17109
Turkey Hill,Harrisburg,67000096,6690096 6700096 67000096 670000096 #096 #96,2900 Emmaus Ave.,PA,18103
Turkey Hill,Allentown,67000097,6690097 6700097 67000097 670000097 #097 #97,1014 E Lincoln Hwy,PA,19320
Turkey Hill,Coatesville,67000098,6690098 6700098 67000098 670000098 #098 #98,707 N Mountain Rd,PA,17112
Turkey Hill,Linglestown,67000099,6690099 6700099 67000099 670000099 #099 #99,733 E Philadelphia Ave,PA,19512
Turkey Hill,Boyertown,67000101,66900101 67000101 670000101 6700000101 #0101 #101,101 Susquehanna St,PA,18229
Turkey Hill,Jim Thorpe,67000102,66900102 67000102 670000102 6700000102 #0102 #102,22 W Patterson St,PA,18232
Turkey Hill,Lansford,67000103,66900103 67000103 670000103 6700000103 #0103 #103,2395 S Market St,PA,17022
Turkey Hill,Elizabethtown,67000104,66900104 67000104 670000104 6700000104 #0104 #104,610 Main St,PA,18080
Turkey Hill,Slatington,67000105,66900105 67000105 670000105 6700000105 #0105 #105,1434 E Philadelphia Ave,PA,19525
Turkey Hill,Gilbertsville,67000106,66900106 67000106 670000106 6700000106 #0106 #106,500 Jonestown Rd,PA,17038
Turkey Hill,Jonestown,67000107,66900107 67000107 670000107 6700000107 #0107 #107,1060 Main St,PA,18067
Turkey Hill,Northampton,67000108,66900108 67000108 670000108 6700000108 #0108 #108,5 Fuhrman Mill Rd,PA,17331
Turkey Hill,Hanover,67000109,66900109 67000109 670000109 6700000109 #0109 #109,132 W Lancaster Ave,PA,19335
Turkey Hill,Downingtown,67000110,66900110 67000110 670000110 6700000110 #0110 #110,602 Chestnut St,PA,18049
Turkey Hill,Emmaus,67000111,66900111 67000111 670000111 6700000111 #0111 #111,501 Park Ave,PA,17602
Turkey Hill,Lancaster,67000113,66900113 67000113 670000113 6700000113 #0113 #113,901 Nissley Rd,PA,17601
Turkey Hill,Lancaster,67000114,66900114 67000114 670000114 6700000114 #0114 #114,4205 Lehigh Dr,PA,18035
Turkey Hill,Cherryville,67000115,66900115 67000115 670000115 6700000115 #0115 #115,4443 New Holland Rd,PA,19540
Turkey Hill,Mohnton,67000117,66900117 67000117 670000117 6700000117 #0117 #117,1638 Centre St,PA,17921
Turkey Hill,Ashland,67000118,66900118 67000118 670000118 6700000118 #0118 #118,3400 Compass Rd,PA,17527
Turkey Hill,Gap,67000119,66900119 67000119 670000119 6700000119 #0119 #119,329 Main St,PA,19510
Turkey Hill,Blandon,67000120,66900120 67000120 670000120 6700000120 #0120 #120,501 Spring St,PA,19601
Turkey Hill,Reading,67000121,66900121 67000121 670000121 6700000121 #0121 #121,2610 Kutztown Rd,PA,19605
Turkey Hill,Reading,67000122,66900122 67000122 670000122 6700000122 #0122 #122,2868 Horseshoe Pike,PA,17010
Turkey Hill,Campbelltown,67000123,66900123 67000123 670000123 6700000123 #0123 #123,120 S Main St,PA,17976
Turkey Hill,Shenandoah,67000124,66900124 67000124 670000124 6700000124 #0124 #124,3664 Seisholtzville Rd,PA,18056
Turkey Hill,Hereford,67000125,66900125 67000125 670000125 6700000125 #0125 #125,686 2Nd St,PA,17034
Turkey Hill,Highspire,67000126,66900126 67000126 670000126 6700000126 #0126 #126,4 S Centre Ave,PA,19533
Turkey Hill,Leesport,67000129,66900129 67000129 670000129 6700000129 #0129 #129,862 Chestnut St,PA,17834
Turkey Hill,Kulpmont,67000130,66900130 67000130 670000130 6700000130 #0130 #130,594 W Market St,PA,17401
Turkey Hill,York,67000132,66900132 67000132 670000132 6700000132 #0132 #132,798 N Charlotte St,PA,19464
Turkey Hill,Pottstown,67000133,66900133 67000133 670000133 6700000133 #0133 #133,130 E 5Th St,PA,17851
Turkey Hill,Mount Carmel,67000134,66900134 67000134 670000134 6700000134 #0134 #134,703 Carlisle St,PA,17331
Turkey Hill,Hanover,67000135,66900135 67000135 670000135 6700000135 #0135 #135,501 N 2Nd St,PA,17872
Turkey Hill,Shamokin,67000136,66900136 67000136 670000136 6700000136 #0136 #136,3570 Marietta Ave,PA,17601
Turkey Hill,Lancaster,67000137,66900137 67000137 670000137 6700000137 #0137 #137,536 Baltimore St,PA,17331
Turkey Hill,Hanover,67000138,66900138 67000138 670000138 6700000138 #0138 #138,1490 Stony Battery Rd,PA,17601
Turkey Hill,Lancaster,67000140,66900140 67000140 670000140 6700000140 #0140 #140,1370 Wyoming Ave,PA,18704
Turkey Hill,Forty Fort,67000142,66900142 67000142 670000142 6700000142 #0142 #142,1429 Mulberry St,PA,18510
Turkey Hill,Scranton,67000145,66900145 67000145 670000145 6700000145 #0145 #145,211 W Harford St,PA,18337
Turkey Hill,Milford,67000150,66900150 67000150 670000150 6700000150 #0150 #150,330 Main St,PA,18421
Turkey Hill,Forest City,67000151,66900151 67000151 670000151 6700000151 #0151 #151,912 Pennsylvania Ave,PA,18336
Turkey Hill,Matamoras,67000152,66900152 67000152 670000152 6700000152 #0152 #152,455 Main St,PA,18704
Turkey Hill,Kingston,67000153,66900153 67000153 670000153 6700000153 #0153 #153,632 Carey Ave,PA,18702
Turkey Hill,Wilkes Barre,67000154,66900154 67000154 670000154 6700000154 #0154 #154,776 Rutter Ave,PA,18704
Turkey Hill,Kingston,67000155,66900155 67000155 670000155 6700000155 #0155 #155,335 E Main St,PA,18705
Turkey Hill,Wilkes Barre,67000156,66900156 67000156 670000156 6700000156 #0156 #156,754 S Main St,PA,18702
Turkey Hill,Wilkes Barre,67000157,66900157 67000157 670000157 6700000157 #0157 #157,170 Hazle St,PA,18702
Turkey Hill,Wilkes Barre,67000158,66900158 67000158 670000158 6700000158 #0158 #158,1037 N Washington St,PA,18705
Turkey Hill,Wilkes Barre,67000160,66900160 67000160 670000160 6700000160 #0160 #160,480 S Keyser Ave,PA,18517
Turkey Hill,Taylor,67000165,66900165 67000165 670000165 6700000165 #0165 #165,980 Wyoming Ave,PA,18643
Turkey Hill,Exeter,67000167,66900167 67000167 670000167 6700000167 #0167 #167,925 Main St,PA,18519
Turkey Hill,Dickson City,67000168,66900168 67000168 670000168 6700000168 #0168 #168,735 Newark Rd,PA,19350
Turkey Hill,Landenberg,67000170,66900170 67000170 670000170 6700000170 #0170 #170,460 S Duke St,PA,17602
Turkey Hill,Lancaster,67000171,66900171 67000171 670000171 6700000171 #0171 #171,413 E Chestnut St,PA,17602
Turkey Hill,Lancaster,67000175,66900175 67000175 670000175 6700000175 #0175 #175,340 Wilkes-Barre Twp Blvd,PA,18702
Turkey Hill,Wilkes-Barre,67000176,66900176 67000176 670000176 6700000176 #0176 #176,3026 Horseshoe Pike,PA,19344
Turkey Hill,Honey Brook,67000177,66900177 67000177 670000177 6700000177 #0177 #177,1000 W. Kings Hwy.,PA,19320
Turkey Hill,Coatesville,67000178,66900178 67000178 670000178 6700000178 #0178 #178,560 N Main Ave,PA,18504
Turkey Hill,Scranton,67000179,66900179 67000179 670000179 6700000179 #0179 #179,1 Brookhill Rd,PA,18249
Turkey Hill,Sugarloaf,67000181,66900181 67000181 670000181 6700000181 #0181 #181,204 N Main St,PA,18518
Turkey Hill,Old Forge,67000182,66900182 67000182 670000182 6700000182 #0182 #182,33 Belmont St,PA,18407
Turkey Hill,Carbondale,67000183,66900183 67000183 670000183 6700000183 #0183 #183,8Th & River Street,PA,18407
Turkey Hill,Carbondale,67000184,66900184 67000184 670000184 6700000184 #0184 #184,140 W Lincoln St,PA,17872
Turkey Hill,Shamokin,67000185,66900185 67000185 670000185 6700000185 #0185 #185,14 N State St,PA,17508
Turkey Hill,Brownstown,67000186,66900186 67000186 670000186 6700000186 #0186 #186,50 N Front St,PA,17113
Turkey Hill,Steelton,67000187,66900187 67000187 670000187 6700000187 #0187 #187,118 Old York Rd,PA,17070
Turkey Hill,New Cumberland,67000188,66900188 67000188 670000188 6700000188 #0188 #188,1201 W Maple St,PA,17046
Turkey Hill,Lebanon,67000189,66900189 67000189 670000189 6700000189 #0189 #189,300 Meridian Ave,PA,18504
Turkey Hill,Scranton,67000191,66900191 67000191 670000191 6700000191 #0191 #191,2 E State Route 61,PA,17851
Turkey Hill,Mount Carmel,67000192,66900192 67000192 670000192 6700000192 #0192 #192,358 Pierce St,PA,18704
Turkey Hill,Kingston,67000193,66900193 67000193 670000193 6700000193 #0193 #193,2 E Bridge St,PA,19475
Turkey Hill,Spring City,67000194,66900194 67000194 670000194 6700000194 #0194 #194,460 W Main St,PA,18634
Turkey Hill,Nanticoke,67000195,66900195 67000195 670000195 6700000195 #0195 #195,3248 Morgantown Rd,PA,19540
Turkey Hill,Mohnton,67000196,66900196 67000196 670000196 6700000196 #0196 #196,198 N Pennsylvania Ave,PA,18701
Turkey Hill,Wilkes Barre,67000197,66900197 67000197 670000197 6700000197 #0197 #197,100 W Main St,PA,17078
Turkey Hill,Palmyra,67000199,66900199 67000199 670000199 6700000199 #0199 #199,4760 State Route 54,PA,17772
Turkey Hill,Turbotville,67000200,66900200 67000200 670000200 6700000200 #0200 #200,134 S Tulpehocken St,PA,17963
Turkey Hill,Pine Grove,67000201,66900201 67000201 670000201 6700000201 #0201 #201,2688 Euclid Ave,PA,17702
Turkey Hill,Duboistown,67000202,66900202 67000202 670000202 6700000202 #0202 #202,276 State Route 87,PA,17754
Turkey Hill,Montoursville,67000206,66900206 67000206 670000206 6700000206 #0206 #206,18 East Water Street,PA,17756
Turkey Hill,Muncy,67000207,66900207 67000207 670000207 6700000207 #0207 #207,122 E Valley Ave,PA,17824
Turkey Hill,Elysburg,67000208,66900208 67000208 670000208 6700000208 #0208 #208,854 Mahoning St,PA,17847
Turkey Hill,Milton,67000209,66900209 67000209 670000209 6700000209 #0209 #209,501 N. Front St.,PA,17801
Turkey Hill,Sunbury,67000210,66900210 67000210 670000210 6700000210 #0210 #210,700 Washington Blvd,PA,17701
Turkey Hill,Williamsport,67000211,66900211 67000211 670000211 6700000211 #0211 #211,300 Broad St,PA,17754
Turkey Hill,Montoursville,67000212,66900212 67000212 670000212 6700000212 #0212 #212,3585 Rothsville Rd,PA,17522
Turkey Hill,Ephrata,67000213,66900213 67000213 670000213 6700000213 #0213 #213,101 S Lehigh Ave,PA,17931
Turkey Hill,Frackville,67000214,66900214 67000214 670000214 6700000214 #0214 #214,220 N 9Th St,PA,18360
Turkey Hill,Stroudsburg,67000215,66900215 67000215 670000215 6700000215 #0215 #215,55 Morgan Hill Rd,PA,18042
Turkey Hill,Easton,67000216,66900216 67000216 670000216 6700000216 #0216 #216,1 Cranes Gap Rd,PA,17013
Turkey Hill,Carlisle,67000217,66900217 67000217 670000217 6700000217 #0217 #217,2 W Main St,PA,17313
Turkey Hill,Dallastown,67000218,66900218 67000218 670000218 6700000218 #0218 #218,4001 Carlisle Rd,PA,17315
Turkey Hill,Dover,67000221,66900221 67000221 670000221 6700000221 #0221 #221,Rt 209 & Gilbert Rd,PA,18331
Turkey Hill,Gilbert,67000222,66900222 67000222 670000222 6700000222 #0222 #222,10 W Hershey Park Dr,PA,17033
Turkey Hill,Hershey,67000223,66900223 67000223 670000223 6700000223 #0223 #223,434 E Main St,PA,18072
Turkey Hill,Pen Argyl,67000224,66900224 67000224 670000224 6700000224 #0224 #224,1140 Hellertown Rd,PA,18015
Turkey Hill,Bethlehem,67000225,66900225 67000225 670000225 6700000225 #0225 #225,900 N 4Th St,PA,17801
Turkey Hill,Sunbury,67000226,66900226 67000226 670000226 6700000226 #0226 #226,893 Market St,PA,18013
Turkey Hill,Bangor,67000227,66900227 67000227 670000227 6700000227 #0227 #227,4850 Union Deposit Rd,PA,17111
Turkey Hill,Harrisburg,67000228,66900228 67000228 670000228 6700000228 #0228 #228,73 N Broadway,PA,18091
Turkey Hill,Wind Gap,67000229,66900229 67000229 670000229 6700000229 #0229 #229,1565 Bunting St,PA,17901
Turkey Hill,Pottsville,67000231,66900231 67000231 670000231 6700000231 #0231 #231,1199 Prospect Rd,PA,17512
Turkey Hill,Columbia,67000232,66900232 67000232 670000232 6700000232 #0232 #232,2931 Fairgrounds Rd,PA,17921
Turkey Hill,Ashland,67000233,66900233 67000233 670000233 6700000233 #0233 #233,2001 Kutztown Rd,PA,19605
Turkey Hill,Reading,67000234,66900234 67000234 670000234 6700000234 #0234 #234,6300 Derry St,PA,17111
Turkey Hill,Harrisburg,67000235,66900235 67000235 670000235 6700000235 #0235 #235,998 N Hanover St,PA,17022
Turkey Hill,Elizabethtown,67000236,66900236 67000236 670000236 6700000236 #0236 #236,5150 Simpson Ferry Rd,PA,17050
Turkey Hill,Mechanicsburg,67000237,66900237 67000237 670000237 6700000237 #0237 #237,401 S Blakely St,PA,18512
Turkey Hill,Dunmore,67000238,66900238 67000238 670000238 6700000238 #0238 #238,3106 Everett Rd,PA,16637
Turkey Hill,East Freedom,67000239,66900239 67000239 670000239 6700000239 #0239 #239,829 N Center Ave,PA,15501
Turkey Hill,Somerset,67000240,66900240 67000240 670000240 6700000240 #0240 #240,2130 S Market St,PA,17055
Turkey Hill,Mechanicsburg,67000241,66900241 67000241 670000241 6700000241 #0241 #241,2000 Lincoln Hwy E,PA,17602
Turkey Hill,Lancaster,67000242,66900242 67000242 670000242 6700000242 #0242 #242,2901 Papermill Rd,PA,19610
Turkey Hill,Wyomissing,67000244,66900244 67000244 670000244 6700000244 #0244 #244,4899 Perkiomen Ave,PA,19606
Turkey Hill,Reading,67000245,66900245 67000245 670000245 6700000245 #0245 #245,1991 State Rd,PA,17601
Turkey Hill,Lancaster,67000246,66900246 67000246 670000246 6700000246 #0246 #246,1503 Columbia Ave,PA,17603
Turkey Hill,Lancaster,67000247,66900247 67000247 670000247 6700000247 #0247 #247,6115 York Rd,PA,17350
Turkey Hill,New Oxford,67000248,66900248 67000248 670000248 6700000248 #0248 #248,2 Denver Rd,PA,17517
Turkey Hill,Denver,67000249,66900249 67000249 670000249 6700000249 #0249 #249,7 Airport Rd,PA,18202
Turkey Hill,Hazleton,67000250,66900250 67000250 670000250 6700000250 #0250 #250,800 Alter St,PA,18201
Turkey Hill,Hazleton,67000251,66900251 67000251 670000251 6700000251 #0251 #251,23 Centerville Rd,PA,17603
Turkey Hill,Lancaster,67000252,66900252 67000252 670000252 6700000252 #0252 #252,733 S Broad St,PA,17543
Turkey Hill,Lititz,67000253,66900253 67000253 670000253 6700000253 #0253 #253,1501 Manheim Pike,PA,17601
Turkey Hill,Lancaster,67000254,66900254 67000254 670000254 6700000254 #0254 #254,2855 Lehigh St,PA,18103
Turkey Hill,Allentown,67000255,66900255 67000255 670000255 6700000255 #0255 #255,1050 Main St,PA,18431
Turkey Hill,Honesdale,67000256,66900256 67000256 670000256 6700000256 #0256 #256,7637 Woodbury Pike,PA,16673
Turkey Hill,Roaring Spring,67000257,66900257 67000257 670000257 6700000257 #0257 #257,3321 Main St,PA,19508
Turkey Hill,Birdsboro,67000258,66900258 67000258 670000258 6700000258 #0258 #258,141 W Main St,PA,18062
Turkey Hill,Macungie,67000259,66900259 67000259 670000259 6700000259 #0259 #259,616 Hazle St,PA,18702
Turkey Hill,Wilkes Barre,67000260,66900260 67000260 670000260 6700000260 #0260 #260,3051 E High St,PA,19464
Turkey Hill,Pottstown,67000261,66900261 67000261 670000261 6700000261 #0261 #261,549 Bondsville Rd,PA,19335
Turkey Hill,Downingtown,67000262,66900262 67000262 670000262 6700000262 #0262 #262,106 S 3Rd St,PA,18036
Turkey Hill,Coopersburg,67000263,66900263 67000263 670000263 6700000263 #0263 #263,1562 Millport Rd,PA,17602
Turkey Hill,Lancaster,67000264,66900264 67000264 670000264 6700000264 #0264 #264,4 Hahnstown Rd,PA,17522
Turkey Hill,Ephrata,67000265,66900265 67000265 670000265 6700000265 #0265 #265,1025 Middletown Rd,PA,17036
Turkey Hill,Hummelstown,67000266,66900266 67000266 670000266 6700000266 #0266 #266,2015 Dodson Ct,PA,17110
Turkey Hill,Harrisburg,67000267,66900267 67000267 670000267 6700000267 #0267 #267,3690 E Market St,PA,17402
Turkey Hill,York,67000268,66900268 67000268 670000268 6700000268 #0268 #268,7040 Wertzville Rd,PA,17050
Turkey Hill,Mechanicsburg,67000269,66900269 67000269 670000269 6700000269 #0269 #269,1600 W High St,PA,19464
Turkey Hill,Stowe,67000270,66900270 67000270 670000270 6700000270 #0270 #270,2 N Mountain Blvd,PA,18707
Turkey Hill,Mountain Top,67000271,66900271 67000271 670000271 6700000271 #0271 #271,515 Main St,PA,18076
Turkey Hill,Red Hill,67000272,66900272 67000272 670000272 6700000272 #0272 #272,1242 E Market St,PA,17403
Turkey Hill,York,67000273,66900273 67000273 670000273 6700000273 #0273 #273,3369 Birney Ave,PA,18507
Turkey Hill,Moosic,67000274,66900274 67000274 670000274 6700000274 #0274 #274,Rr 1 Box 614,PA,18372
Turkey Hill,Tannersville,67000275,66900275 67000275 670000275 6700000275 #0275 #275,5 W Main St,PA,18651
Turkey Hill,Plymouth,67000276,66900276 67000276 670000276 6700000276 #0276 #276,311 Main St,PA,18447
Turkey Hill,Blakely,67000278,66900278 67000278 670000278 6700000278 #0278 #278,703 E Main St,PA,17552
Turkey Hill,Mount Joy,67000279,66900279 67000279 670000279 6700000279 #0279 #279,2885 Paxton St,PA,17111
Turkey Hill,Harrisburg,67000280,66900280 67000280 670000280 6700000280 #0280 #280,2060 Good Hope Rd,PA,17025
Turkey Hill,Enola,67000281,66900281 67000281 670000281 6700000281 #0281 #281,1010 Sharp Ave,PA,17522
Turkey Hill,Ephrata,67000282,66900282 67000282 670000282 6700000282 #0282 #282,240 Hershey Rd,PA,17036
Turkey Hill,Hummelstown,67000283,66900283 67000283 670000283 6700000283 #0283 #283,209 W King St,PA,17257
Turkey Hill,Shippensburg,67000284,66900284 67000284 670000284 6700000284 #0284 #284,600 N Oak St,PA,17543
Turkey Hill,Lititz,67000285,66900285 67000285 670000285 6700000285 #0285 #285,4003 Memorial Hwy.,PA,18612
Turkey Hill,Dallas,67000286,66900286 67000286 670000286 6700000286 #0286 #286,2551 Route 6,PA,18428
Turkey Hill,Hawley,67000287,66900287 67000287 670000287 6700000287 #0287 #287,750 Providence Rd.,PA,18508
Turkey Hill,Hazle Township,67000289,66900289 67000289 670000289 6700000289 #0289 #289,1140 N Church St,PA,18202
Turkey Hill,Waynesboro,67000291,66900291 67000291 670000291 6700000291 #0291 #291,315 W Main St,PA,17268
Turkey Hill,Reading,67000292,66900292 67000292 670000292 6700000292 #0292 #292,2432 Morgantown Rd,PA,19607
Turkey Hill,Ottsville,67000293,66900293 67000293 670000293 6700000293 #0293 #293,8330 Easton Rd Ste A,PA,18942
Turkey Hill,Mechanicsburg,67000294,66900294 67000294 670000294 6700000294 #0294 #294,6708 Carlisle Pike,PA,17050
Turkey Hill,Womelsdorf,67000295,66900295 67000295 670000295 6700000295 #0295 #295,2600 Conrad Weiser Pkwy,PA,19567
Turkey Hill,Harrisburg,67000296,66900296 67000296 670000296 6700000296 #0296 #296,7601 Allentown Blvd,PA,17112
Turkey Hill,Hazle Township,67000297,66900297 67000297 670000297 6700000297 #0297 #297,70 Station Cir,PA,18202
Turkey Hill,Bethlehem,67000298,66900298 67000298 670000298 6700000298 #0298 #298,6020 Sterners Way,PA,18017
Turkey Hill,Eagleville,67000299,66900299 67000299 670000299 6700000299 #0299 #299,10 Eagleville Rd,PA,19403
Turkey Hill,Pittston,67000300,66900300 67000300 670000300 6700000300 #0300 #300,257 S Main St,PA,18640
Turkey Hill,Berwick,67000302,66900302 67000302 670000302 6700000302 #0302 #302,521 W Front St,PA,18603
Turkey Hill,Tamaqua,67000303,66900303 67000303 670000303 6700000303 #0303 #303,205 Claremont Ave,PA,18252
Turkey Hill,East Stroudsburg,67000304,66900304 67000304 670000304 6700000304 #0304 #304,5005 Winona Falls Rd E,PA,18302
Turkey Hill,Columbia,67000305,66900305 67000305 670000305 6700000305 #0305 #305,301 Linden St,PA,17512
Turkey Hill,Lancaster,67000306,66900306 67000306 670000306 6700000306 #0306 #306,482 Royer Dr,PA,17601
Turkey Hill,Lancaster,67000307,66900307 67000307 670000307 6700000307 #0307 #307,2171 Columbia Ave,PA,17603
Turkey Hill,Birdsboro,67000308,66900308 67000308 670000308 6700000308 #0308 #308,320 N. Furnace St.,PA,19508
