Keywords,city, agg store_number,store_number,address,state,zip_code
Urban Outfitters,Philadelphia,1,1 #0001 #001 #1 0001 00001,110 South 36th St.,PA,19104-3211
Urban Outfitters,Cambridge,2,2 #0002 #002 0002 0002 00002,11 J.F.Kennedy St.,MA,02138-4908
Urban Outfitters,Philadelphia,3,3 #0003 #003 00003 0003 00003,1627 Walnut St.,PA,19103-5402
Urban Outfitters,New York,4,4 #0004 #004 4 0004 00004,628 Broadway,NY,10012-2679
Urban Outfitters,Washington,5,5 #0005 #005 5 0005 00005,"3111 M St., N.W.",DC,20007-3705
Urban Outfitters,New York,6,6 #0006 #006 6 0006 00006,374 Ave. of Americas,NY,10011-8402
Urban Outfitters,Madison,7,7 #0007 #007 7 0007 00007,604 State St.,WI,53703-1016
Urban Outfitters,Ann Arbor,8,8 #0008 #008 8 0008 00008,231 S. State St.,MI,48104-2006
Urban Outfitters,Boston,9,9 #0009 #009 9 0009 00009,361 Newbury St.,MA,02115-2738
Urban Outfitters,Minneapolis,10,10 #00010 #0010 10 00010 000010,3006 Hennepin Ave. S,MN,55408-2614
Urban Outfitters,New York,11,11 #00011 #0011 11 00011 000011,999 3rd Avenue,NY,10022-1207
Urban Outfitters,Seattle,12,12 #00012 #0012 12 00012 000012,"401 Broadway East, #101",WA,98102-5078
Urban Outfitters,Berkeley,13,13 #00013 #0013 13 00013 000013,2590 Bancroft Way,CA,94704-1713
Urban Outfitters,Santa Monica,14,14 #00014 #0014 14 00014 000014,1440 Third St. Promenade,CA,90401-1713
Urban Outfitters,San Francisco,15,15 #00015 #0015 15 00015 000015,80 Powell St.,CA,94102-2816
Urban Outfitters,Costa Mesa,16,16 #00016 #0016 16 00016 000016,2930 Bristol St.,CA,92626-7901
Urban Outfitters,Chicago,17,17 #00017 #0017 17 00017 000017,2352 North Clark St.,IL,60614-3423
Urban Outfitters,Pasadena,18,18 #00018 #0018 18 00018 000018,139 West Colorado Blvd.,CA,91105-1924
Urban Outfitters,Chicago,19,19 #00019 #0019 19 00019 000019,935 North Rush St.,IL,60611-1422
Urban Outfitters,Portland,20,20 #00020 #0020 20 00020 000020,2320 N.W. Westover Rd.,OR,97210-3533
Urban Outfitters,Austin,21,21 #00021 #0021 21 00021 000021,2406 Guadalupe St.,TX,78705-4809
Urban Outfitters,Tempe,22,22 #00022 #0022 22 00022 000022,545 South Mill Ave.,AZ,85281-3619
Urban Outfitters,Houston,23,23 #00023 #0023 23 00023 000023,2501 University Blvd.,TX,77005-3228
Urban Outfitters,Montreal,24,24 #00024 #0024 24 00024 000024,1246 Ste. Catherine St. W.,QC,H3G -1P1
Urban Outfitters,Toronto,25,25 #00025 #0025 25 00025 000025,235 Yonge St.,ON,M5B -1N8
Urban Outfitters,Miami Beach,26,26 #00026 #0026 26 00026 000026,653 Collins Ave.,FL,33139-6213
Urban Outfitters,San Diego,27,27 #00027 #0027 27 00027 000027,665 Fifth Ave.,CA,92101-6915
Urban Outfitters,Boulder,28,28 #00028 #0028 28 00028 000028,934 Pearl St.,CO,80302-5125
Urban Outfitters,Bloomington,29,29 #00029 #0029 29 00029 000029,530 E. Kirkwood Ave.,IN,47408-4059
Urban Outfitters,Columbus,30,30 #00030 #0030 30 00030 000030,1782 N. High St.,OH,43201-1144
Urban Outfitters,New York,31,31 #00031 #0031 31 00031 000031,162 2nd Avenue,NY,10003-5754
Urban Outfitters,Los Angeles,32,32 #00032 #0032 32 00032 000032,7650 Melrose Avenue,CA,90046-7301
Urban Outfitters,Burlington,33,33 #00033 #0033 33 00033 000033,25 Church St.,VT,05401-4417
Urban Outfitters,E. Lansing,34,34 #00034 #0034 34 00034 000034,119 E. Grand River Avenue,MI,48823-4385
Urban Outfitters,Lawrence,35,35 #00035 #0035 35 00035 000035,1013 Massachusetts St.,KS,66044-2923
Urban Outfitters,Miami,36,36 #00036 #0036 36 00036 000036,7535 N. Kendall Drive,FL,33156
Urban Outfitters,Seattle,37,37 #00037 #0037 37 00037 000037,1507 5th Avenue,WA,98101-1603
Urban Outfitters,Tucson,38,38 #00038 #0038 38 00038 000038,901 E. University Blvd.,AZ,85719-5040
Urban Outfitters,New York,39,39 #00039 #0039 39 00039 000039,"2081 Broadway, at 72nd St.",NY,10023-2804
Urban Outfitters,Providence,40,40 #00040 #0040 40 00040 000040,285 Thayer St.,RI,02906-1524
Urban Outfitters,Santa Barbara,41,41 #00041 #0041 41 00041 000041,624 State St.,CA,93101-3302
Urban Outfitters,Evanston,42,42 #00042 #0042 42 00042 000042,921 Church St.,IL,60201-3125
Urban Outfitters,Dallas,43,43 #00043 #0043 43 00043 000043,"5331 East Mockingbird Lane, S.190",TX,75206-5107
Urban Outfitters,New Haven,44,44 #00044 #0044 44 00044 000044,43 Broadway,CT,06511-3411
Urban Outfitters,Cincinnati,45,45 #00045 #0045 45 00045 000045,2510 Ohio Avenue,OH,45219-1519
Urban Outfitters,New York,46,46 #00046 #0046 46 00046 000046,526 Avenue of the Americas,NY,10011-8405
Urban Outfitters,King of Prussia,48,48 #00048 #0048 48 00048 000048,640 W. DeKalb Pike,PA,19406-2960
Urban Outfitters,Atlanta,49,49 #00049 #0049 49 00049 000049,"3393 Peachtree Rd. N.E., #2241 A",GA,30326-1109
Urban Outfitters,Orlando,50,50 #00050 #0050 50 00050 000050,"4200 Conroy Rd., #250",FL,32839-2406
Urban Outfitters,Irvine,51,51 #00051 #0051 51 00051 000051,"81 Fortune Dr., #119",CA,92618-3082
Urban Outfitters,Houston,52,52 #00052 #0052 52 00052 000052,"5135 W. Alabama St., #7000",TX,77056-5802
Urban Outfitters,Burbank,53,53 #00053 #0053 53 00053 000053,330 N. San Fernando Blvd.,CA,91502-1125
Urban Outfitters,Las Vegas,54,54 #00054 #0054 54 00054 000054,3930 Las Vegas Blvd S.,NV,89119-1002
Urban Outfitters,Garden City,55,55 #00055 #0055 55 00055 000055,"630 Old Country Rd., #1107-A",NY,11530-3467
Urban Outfitters,Denver,56,56 #00056 #0056 56 00056 000056,"3000 E. 1st Ave, Cherry Creek #1101",CO,80206-5639
Urban Outfitters,Santa Cruz,57,57 #00057 #0057 57 00057 000057,1401 Pacific Ave.,CA,95060-3910
Urban Outfitters,Miami,58,58 #00058 #0058 58 00058 000058,"19575 Biscayne Blvd, #1655",FL,33180-2324
Urban Outfitters,New Orleans,59,59 #00059 #0059 59 00059 000059,"400 N. Peters St., #103",LA,70130-1037
Urban Outfitters,Los Angeles,60,60 #00060 #0060 60 00060 000060,1100 Westwood Blvd.,CA,90024-3412
Urban Outfitters,San Jose,61,61 #00061 #0061 61 00061 000061,"355 Santana Row, #1050",CA,95128-2037
Urban Outfitters,Lone Tree,62,62 #00062 #0062 62 00062 000062,"8401 Park Meadows Ctr Dr., #1400",CO,80124-5128
Urban Outfitters,Bloomington,63,63 #00063 #0063 63 00063 000063,122 W. Market,MN,55425-5521
Urban Outfitters,Schaumburg,64,64 #00064 #0064 64 00064 000064,"5 Woodfield Shopping Ctr, #E-306",IL,60173-5012
Urban Outfitters,Spring,65,65 #00065 #0065 65 00065 000065,"1201 Lake Woodlands Dr., #3022",TX,77380-5014
Urban Outfitters,Charlotte,66,66 #00066 #0066 66 00066 000066,4400 Sharon Rd.,NC,28211-3531
Urban Outfitters,Washington,67,67 #00067 #0067 67 00067 000067,737 7th St. NW,DC,20001-3715
Urban Outfitters,Pittsburgh,68,68 #00068 #0068 68 00068 000068,"435 Cinema Dr., #C-141",PA,15203-2373
Urban Outfitters,Thousand Oaks,69,69 #00069 #0069 69 00069 000069,"310 West Hillcrest Dr., #L-15",CA,91360-4295
Urban Outfitters,Elmhurst,70,70 #00070 #0070 70 00070 000070,"90-15 Queens Blvd., #1069",NY,11373-4900
Urban Outfitters,Westlake,71,71 #00071 #0071 71 00071 000071,33 Main St.,OH,44145-6975
Urban Outfitters,Kansas City,72,72 #00072 #0072 72 00072 000072,520 Nichols Rd.,MO,64112-2008
Urban Outfitters,West Edmonton,73,73 #00073 #0073 73 00073 000073,8882-170 St.,AB,T5T -4J2
Urban Outfitters,Boston,74,74 #00074 #0074 74 00074 000074,"S. Market St., Faneuil Hall",MA,02109-6171
Urban Outfitters,St. Louis,75,75 #00075 #0075 75 00075 000075,"1491 St. Louis Galleria, S. 1491",MO,63117-1112
Urban Outfitters,Rancho Cucamonga,76,76 #00076 #0076 76 00076 000076,"12587 N. Main St., #5040",CA,91739-8889
Urban Outfitters,McLean,77,77 #00077 #0077 77 00077 000077,"7861 Tysons Corner Center, N-15-U",VA,22102-4562
Urban Outfitters,Charleston,78,78 #00078 #0078 78 00078 000078,371 King St.,SC,29401-1670
Urban Outfitters,Troy,79,79 #00079 #0079 79 00079 000079,"2800 W. Big Beaver Rd., #Y-315",MI,48084-3224
Urban Outfitters,Scottsdale,81,81 #00081 #0081 81 00081 000081,"7135 E. Camelback Rd., #150",AZ,85251-1205
Urban Outfitters,Oak Brook,82,82 #00082 #0082 82 00082 000082,"294 Oakbrook Center, #294",IL,60523-1838
Urban Outfitters,San Luis Obispo,83,83 #00083 #0083 83 00083 000083,962 Monterey St.,CA,93401-3205
Urban Outfitters,Chicago,84,84 #00084 #0084 84 00084 000084,20 S. State St.,IL,60603-2601
Urban Outfitters,Tigard,85,85 #00085 #0085 85 00085 000085,"7297 S.W. Bridgeport Rd., #B-102",OR,97224-7765
Urban Outfitters,Chicago,86,86 #00086 #0086 86 00086 000086,1521 N. Milwaukee Avenue,IL,60622-2009
Urban Outfitters,Birmingham,87,87 #00087 #0087 87 00087 000087,"320 Summit Blvd, #100",AL,35243-3109
Urban Outfitters,Vancouver,88,88 #00088 #0088 88 00088 000088,822-830 Granville St.,BC,V6Z -1K3
Urban Outfitters,Boise,89,89 #00089 #0089 89 00089 000089,"328 S. 8th St., #7105",ID,83702-7103
Urban Outfitters,Baltimore,90,90 #00090 #0090 90 00090 000090,"301 Light St., #2540",MD,21202-1087
Urban Outfitters,Baton Rouge,91,91 #00091 #0091 91 00091 000091,"10000 Perkins Rowe, #G-170",LA,70810-1690
Urban Outfitters,Buffalo,92,92 #00092 #0092 92 00092 000092,1 Walden Galleria,NY,14225-5408
Urban Outfitters,Walnut Creek,93,93 #00093 #0093 93 00093 000093,1530 Olympic Blvd.,CA,94596-5107
Urban Outfitters,Omaha,94,94 #00094 #0094 94 00094 000094,745 North 14th St.,NE,68102-4702
Urban Outfitters,Newport Beach,95,95 #00095 #0095 95 00095 000095,857 Newport Center Dr.,CA,92660-6943
Urban Outfitters,Jacksonville,96,96 #00096 #0096 96 00096 000096,"4791 River City Dr., #101",FL,32246-7413
Urban Outfitters,Sacramento,97,97 #00097 #0097 97 00097 000097,1703 Arden Way,CA,95815-5001
Urban Outfitters,Salt Lake,98,98 #00098 #0098 98 00098 000098,"12 S 400 W, Salt Lake City",UT,84101-1241
Urban Outfitters,Milwaukee,99,99 #00099 #0099 99 00099 000099,1937 E. Kenilworth Pl.,WI,53202-1121
Urban Outfitters,Palm Beach Gardens,100,100 #000100 #00100 100 000100 0000100,"11701 Lake Victoria Gardens, #1102",FL,33410-2704
Urban Outfitters,Dallas,101,101 #000101 #00101 101 000101 0000101,"8687 N. Central Expy, #2280",TX,75225-4427
Urban Outfitters,Richmond,102,102 #000102 #00102 102 000102 0000102,"11800 W. Broad St., #1790",VA,23233-7690
Urban Outfitters,Montclair,103,103 #000103 #00103 103 000103 0000103,20 S. Park St.,NJ,07042-2705
Urban Outfitters,Studio City,104,104 #000104 #00104 104 000104 0000104,12110 Ventura Blvd.,CA,91604-2514
Urban Outfitters,Lynnwood,105,105 #000105 #00105 105 000105 0000105,"3000 184 St. S.W., Alderwood Mall #810",WA,98037-4749
Urban Outfitters,Durham,106,106 #000106 #00106 106 000106 0000106,"8030 Renaissance Pkwy, #980",NC,27713-8261
Urban Outfitters,Torrance,107,107 #000107 #00107 107 000107 0000107,"3525 W. Carson St., #72",CA,90503-5704
Urban Outfitters,Las Vegas,108,108 #000108 #00108 108 000108 0000108,"3663 Las Vegas Blvd. S., #150",NV,89109-1944
Urban Outfitters,Fresno,109,109 #000109 #00109 109 000109 0000109,"639 East Shaw Avenue, #179",CA,93710-7731
Urban Outfitters,Ardmore,110,110 #000110 #00110 110 000110 0000110,117 Coulter Ave.,PA,19003-2410
Urban Outfitters,Seattle,111,111 #000111 #00111 111 000111 0000111,4518 University Way N.E.,WA,98105-4530
Urban Outfitters,Montreal,112,112 #000112 #00112 112 000112 0000112,4301 St. Denis St.,QC,H2J -2K9
Urban Outfitters,Atlanta,113,113 #000113 #00113 113 000113 0000113,1061 Ponce de Leon Ave. NE,GA,30306-4219
Urban Outfitters,Brooklyn,114,114 #000114 #00114 114 000114 0000114,166 Atlantic Avenue,NY,11201-5604
Urban Outfitters,Glendale,115,115 #000115 #00115 115 000115 0000115,260 Americana Way,CA,91210-0000
Urban Outfitters,San Francisco,116,116 #000116 #00116 116 000116 0000116,3322 Fillmore St.,CA,94123-2711
Urban Outfitters,Toronto,117,117 #000117 #00117 117 000117 0000117,481 Queen St. W.,ON,M5V -2A9
Urban Outfitters,Paramus,118,118 #000118 #00118 118 000118 0000118,"1 Garden State Plaza, #A-7",NJ,07652-2404
Urban Outfitters,Kingston,119,119 #000119 #00119 119 000119 0000119,207 Princess St.,ON,K7L -1B3
Urban Outfitters,Champaign,120,120 #000120 #00120 120 000120 0000120,507 East Green St.,IL,61820-5719
Urban Outfitters,Albuquerque,121,121 #000121 #00121 121 000121 0000121,3225 Central Avenue NE,NM,87106-1447
Urban Outfitters,Savannah,122,122 #000122 #00122 122 000122 0000122,221 West Broughton St.,GA,31401-0000
Urban Outfitters,San Antonio,123,123 #000123 #00123 123 000123 0000123,15900 La Cantera Pkwy,TX,78256
Urban Outfitters,Northampton,124,124 #000124 #00124 124 000124 0000124,109 Main Street,MA,1060
Urban Outfitters,Los Angeles,125,125 #000125 #00125 125 000125 0000125,"1520 N. Cahuenga Blvd, Suite 1",CA,90028
Urban Outfitters,Nashville,126,126 #000126 #00126 126 000126 0000126,405 12th Ave South,TN,37203
Urban Outfitters,Charlottesville,127,127 #000127 #00127 127 000127 0000127,316 E. Main St.,VA,22902
Urban Outfitters,Edison,128,128 #000128 #00128 128 000128 0000128,100 Menlo Park,NJ,8837
Urban Outfitters,Ithaca,129,129 #000129 #00129 129 000129 0000129,131 E. Green Street,NY,14850
Urban Outfitters,Cherry Hill,130,130 #000130 #00130 130 000130 0000130,2000 Rte 38,NJ,8002
Urban Outfitters,Roseville,131,131 #000131 #00131 131 000131 0000131,1173 Galleria Blvd.,CA,95678
Urban Outfitters,Ventura,132,132 #000132 #00132 132 000132 0000132,327 E. Main Street,CA,93001
Urban Outfitters,Dedham,133,133 #000133 #00133 133 000133 0000133,700 Legacy Place,MA,2026
Urban Outfitters,San Diego,134,134 #000134 #00134 134 000134 0000134,3946 5th Ave,CA,92103
Urban Outfitters,Red Bank,135,135 #000135 #00135 135 000135 0000135,2-10 Broad Street,NJ,7701
Urban Outfitters,Allston,136,136 #000136 #00136 136 000136 0000136,226 Harvard Ave,MA,2134
Urban Outfitters,Asheville,137,137 #000137 #00137 137 000137 0000137,15 Haywood St.,NC,28801
Urban Outfitters,San Diego,138,138 #000138 #00138 138 000138 0000138,4516 Mission Blvd,CA,92109
Urban Outfitters,Newark,139,139 #000139 #00139 139 000139 0000139,306 Christiana Mall,DE,19702
Urban Outfitters,Canoga Park,140,140 #000140 #00140 140 000140 0000140,6600 Topanga Canyon Blvd.,CA,91303
Urban Outfitters,Dunwoody,141,141 #000141 #00141 141 000141 0000141,4400 Ashford Dunwoody Rd NE,GA,30346
Urban Outfitters,Tampa,142,142 #000142 #00142 142 000142 0000142,2223 N. West Shore Blvd.,FL,33607
Urban Outfitters,New York,143,143 #000143 #00143 143 000143 0000143,2633 Broadway,NY,10025
Urban Outfitters,Syracuse,144,144 #000144 #00144 144 000144 0000144,223 Walton St.,NY,13201
Urban Outfitters,New York City,145,145 #000145 #00145 145 000145 0000145,1511 3rd Ave,NY,10028
Urban Outfitters,Ottawa,146,146 #000146 #00146 146 000146 0000146,135 Rideau St.,ON,K1N 5X4
Urban Outfitters,Quebec,147,147 #000147 #00147 147 000147 0000147,509 Saint-Joseph St.,QC,G1K -3B7
Urban Outfitters,Calgary,148,148 #000148 #00148 148 000148 0000148,6455 MacLeod Trail SWChinook Centre,AB,T2H 0K3
Urban Outfitters,Corte Madera,149,149 #000149 #00149 149 000149 0000149,#332 Town Center,CA,94925
Urban Outfitters,New York City,150,150 #000150 #00150 150 000150 0000150,521 Fifth Ave.,NY,10175
Urban Outfitters,Chicago,151,151 #000151 #00151 151 000151 0000151,651 W. Diversey Parkway,IL,60614
Urban Outfitters,Phoenix,152,152 #000152 #00152 152 000152 0000152,"11 W. Washington St., #100 City Scape",AZ,85003-2320
Urban Outfitters,Brea,153,153 #000153 #00153 153 000153 0000153,Brea Mall #2011,CA,92821
Urban Outfitters,Plano,154,154 #000154 #00154 154 000154 0000154,7205 Bishop Rd Suite E-5,TX,75024
Urban Outfitters,Memphis,155,155 #000155 #00155 155 000155 0000155,2151 Central Avenue,TN,38104
Urban Outfitters,Greenwich,156,156 #000156 #00156 156 000156 0000156,20 East Elm St,CT,6830
Urban Outfitters,Carlsbad,157,157 #000157 #00157 157 000157 0000157,1905 Calle Barcelona#120 Forum,CA,92009
Urban Outfitters,Houston,158,158 #000158 #00158 158 000158 0000158,#799 Town and Country Blvd.,TX,77024
Urban Outfitters,Natick,159,159 #000159 #00159 159 000159 0000159,1245 Worcester St #4000 Natick Collection,MA,1760
Urban Outfitters,Austin,160,160 #000160 #00160 160 000160 0000160,320 W. 2nd St.,TX,78701
Urban Outfitters,South Bend,161,161 #000161 #00161 161 000161 0000161,"1234 N. Eddy St. Commons, #116",IN,46617
Urban Outfitters,State College,162,162 #000162 #00162 162 000162 0000162,234 E. College Avenue,PA,16801
Urban Outfitters,Manhasset,163,163 #000163 #00163 163 000163 0000163,1950 Northern Blvd.#B-1-B,NY,11030
Urban Outfitters,Towson,164,164 #000164 #00164 164 000164 0000164,424 York Rd.,MD,21204
Urban Outfitters,Palo Alto,165,165 #000165 #00165 165 000165 0000165,660 Stanford Shopping Center,CA,94304
Urban Outfitters,Farmington,166,166 #000166 #00166 166 000166 0000166,500 Westfarms Mall#B115,CT,6032
Urban Outfitters,Indianapolis,167,167 #000167 #00167 167 000167 0000167,8702 Keystone Crossing #123-B Fshn Mall,IN,46240
Urban Outfitters,Portland,168,168 #000168 #00168 168 000168 0000168,188 Middle St.,ME,4101
Urban Outfitters,Westport,169,169 #000169 #00169 169 000169 0000169,101 Post Rd. East,CT,6880
Urban Outfitters,Toronto,170,170 #000170 #00170 170 000170 0000170,"2300 Yonge St., Box 2468, #M-13 Yonge Eglinton Centre",ON,M4P 1E4
Urban Outfitters,Vancouver,171,171 #000171 #00171 171 000171 0000171,2199 W. 4th Ave,BC,V6K 1N7
Urban Outfitters,Emeryville,172,172 #000172 #00172 172 000172 0000172,5905 Shellmound St.,CA,94608
Urban Outfitters,Louisville,173,173 #000173 #00173 173 000173 0000173,"1140 Bardstown Rd, #A Tyler Park Plaza",KT,40204
Urban Outfitters,Norfolk,174,174 #000174 #00174 174 000174 0000174,271 Granby St.,VA,23510
Urban Outfitters,Burlington,175,175 #000175 #00175 175 000175 0000175,"75 Middlesex Tpk, #2211 Burlington Mall",MA,1803
Urban Outfitters,Fort Worth,176,176 #000176 #00176 176 000176 0000176,2735 W. 7th St.,TX,76107-2218
Urban Outfitters,London,177,177 #000177 #00177 177 000177 0000177,743 Richmond St.,ON,N6A 3H2
Urban Outfitters,Brossard,178,178 #000178 #00178 178 000178 0000178,"9200 Boulevard Leduc , #S-3, Quartiers Dix30",QC,J4Y 0B3
Urban Outfitters,Bethesda,179,179 #000179 #00179 179 000179 0000179,7101 Democracy Blvd #1310,MD,20817-1069
Urban Outfitters,Princeton,180,180 #000180 #00180 180 000180 0000180,42 Nassau St.,NJ,8542
Urban Outfitters,London,201,201 #000201 #00201 201 000201 0000201,36-38 Kensington High Street,WV,W84PF
Urban Outfitters,Dublin,202,202 #000202 #00202 202 000202 0000202,4 Cecilia St. and 7 1//2 Fownes St.,WV,2
Urban Outfitters,Glasgow,203,203 #000203 #00203 203 000203 0000203,157 Buchanan Street,WV,G12JX
Urban Outfitters,London,204,204 #000204 #00204 204 000204 0000204,42-56 Earlham Street,WV,WC2H9LJ
Urban Outfitters,London,205,205 #000205 #00205 205 000205 0000205,200 Oxford Street,WV,W1D 1NU
Urban Outfitters,Birmingham,206,206 #000206 #00206 206 000206 0000206,5-7 Corporation Street,WV,B24LP
Urban Outfitters,Manchester,207,207 #000207 #00207 207 000207 0000207,42-43 Market Street,WV,M11WR
Urban Outfitters,Kobenhavn,208,208 #000208 #00208 208 000208 0000208,Ostergade 42B,WV,1100
Urban Outfitters,Stockholm,209,209 #000209 #00209 209 000209 0000209,Biblioteksgatan 5,WV,11146
Urban Outfitters,Dublin,210,210 #000210 #00210 210 000210 0000210,"Unit 44, Sandyford Road",WV,16
Urban Outfitters,Kent,211,211 #000211 #00211 211 000211 0000211,Stone Greenhithe,WV,DA9 9ST
Urban Outfitters,Antwerpen,212,212 #000212 #00212 212 000212 0000212,Meir 78 // 201,WV,2000
Urban Outfitters,Belfast,213,213 #000213 #00213 213 000213 0000213,43-55 Ann Street,WV,BT1 4ED
Urban Outfitters,Leeds,214,214 #000214 #00214 214 000214 0000214,63-65 Albion St.,WV,LS1 5AA
Urban Outfitters,Hamburg,215,215 #000215 #00215 215 000215 0000215,Gansemarkt 45,WV,20354
Urban Outfitters,Bristol,216,216 #000216 #00216 216 000216 0000216,Stokes Croft,WV,BS1 3LZ
Urban Outfitters,Liverpool,217,217 #000217 #00217 217 000217 0000217,41 Paradise Street,WV,L13EU
Urban Outfitters,Berlin,218,218 #000218 #00218 218 000218 0000218,Weinmeister Strasse 10,WV,10178
Urban Outfitters,Berlin,219,219 #000219 #00219 219 000219 0000219,Kurfurstendamm 19-24,WV,10719
Anthropologie,Wayne,401,401 #000401 #00401 401 000401 0000401,201 W Lancaster Ave,PA,19087
Anthropologie,Chevy Chase,402,402 #000402 #00402 402 000402 0000402,5406 Wisconsin Ave,MD,20815
Anthropologie,Westport,403,403 #000403 #00403 403 000403 0000403,1365 Post Rd E,CT,6880
Anthropologie,Greenvale,404,404 #000404 #00404 404 000404 0000404,9 Northern Blvd,NY,11548
Anthropologie,New York,405,405 #000405 #00405 405 000405 0000405,375 West Broadway,NY,10012
Anthropologie,Newport Beach,406,406 #000406 #00406 406 000406 0000406,823 Newport Center Dr,CA,92660
Anthropologie,Santa Monica,407,407 #000407 #00407 407 000407 0000407,1402 3rd St Promenade,CA,90401
Anthropologie,Chicago,408,408 #000408 #00408 408 000408 0000408,111 E Chicago Ave,IL,60611
Anthropologie,Highland Park,409,409 #000409 #00409 409 000409 0000409,1780 Green Bay Rd,IL,60035
Anthropologie,Beverly Hills,410,410 #000410 #00410 410 000410 0000410,211 S Beverly Dr,CA,90212
Anthropologie,Seattle,411,411 #000411 #00411 411 000411 0000411,2520 NE University Vlg St,WA,98105
Anthropologie,Santa Barbara,412,412 #000412 #00412 412 000412 0000412,1123 State St,CA,93101
Anthropologie,Birmingham,413,413 #000413 #00413 413 000413 0000413,214 W Maple Rd,MI,48009
Anthropologie,Boston,414,414 #000414 #00414 414 000414 0000414,203 Newbury St,MA,2116
Anthropologie,New York,416,416 #000416 #00416 416 000416 0000416,85 Fifth Ave,NY,10003
Anthropologie,Atlanta,417,417 #000417 #00417 417 000417 0000417,3393 Peachtree Rd NE,GA,30326
Anthropologie,Philadelphia,418,418 #000418 #00418 418 000418 0000418,1801 Walnut St,PA,19103
Anthropologie,Seattle,419,419 #000419 #00419 419 000419 0000419,1509 Fifth Ave,WA,98101
Anthropologie,Tampa,420,420 #000420 #00420 420 000420 0000420,705 S Dakota Ave,FL,33606
Anthropologie,Greenwich,421,421 #000421 #00421 421 000421 0000421,480 West Putnam Ave,CT,6830
Anthropologie,San Francisco,422,422 #000422 #00422 422 000422 0000422,880 Market St,CA,94102
Anthropologie,Scottsdale,423,423 #000423 #00423 423 000423 0000423,15210 N Scottsdale Rd,AZ,85254
Anthropologie,Cincinnati,424,424 #000424 #00424 424 000424 0000424,7875 Montgomery Rd,OH,45236
Anthropologie,West Palm Beach,425,425 #000425 #00425 425 000425 0000425,700 S Rosemary Ave,FL,33401
Anthropologie,Miami Beach,426,426 #000426 #00426 426 000426 0000426,1108 Lincoln Rd,FL,33139
Anthropologie,Minneapolis,427,427 #000427 #00427 427 000427 0000427,4999 France Ave S,MN,55410
Anthropologie,Houston,428,428 #000428 #00428 428 000428 0000428,4045 Westheimer Rd,TX,77027
Anthropologie,Kansas City,429,429 #000429 #00429 429 000429 0000429,531 Nichols Rd,MO,64112
Anthropologie,Columbus,430,430 #000430 #00430 430 000430 0000430,4235 The Strand,OH,43219
Anthropologie,Salt Lake City,431,431 #000431 #00431 431 000431 0000431,50 South Main Street Suite 214,UT,84101
Anthropologie,Woodcliff Lake,432,432 #000432 #00432 432 000432 0000432,379 Chestnut Ridge Rd,NJ,7677
Anthropologie,Los Angeles,433,433 #000433 #00433 433 000433 0000433,6301 W 3rd St,CA,90036
Anthropologie,White Plains,434,434 #000434 #00434 434 000434 0000434,125 Westchester Ave,NY,10601
Anthropologie,Palo Alto,435,435 #000435 #00435 435 000435 0000435,999 Alma St,CA,94301
Anthropologie,San Jose,436,436 #000436 #00436 436 000436 0000436,356 Santana Row,CA,95128
Anthropologie,Geneva,437,437 #000437 #00437 437 000437 0000437,Geneva Commons,IL,60134
Anthropologie,McLean,438,438 #000438 #00438 438 000438 0000438,1701-M Galleria Tysons II,VA,22102
Anthropologie,Orlando,439,439 #000439 #00439 439 000439 0000439,4200 Conroy Rd,FL,32839
Anthropologie,Coral Gables,440,440 #000440 #00440 440 000440 0000440,330 San Lorenzo Ave,FL,33146
Anthropologie,Edgewater,441,441 #000441 #00441 441 000441 0000441,43 The Promenade,NJ,7020
Anthropologie,Mount Lebanon,442,442 #000442 #00442 442 000442 0000442,1500 Washington Rd,PA,15228
Anthropologie,Denver,443,443 #000443 #00443 443 000443 0000443,3000 E 1st Ave,CO,80206
Anthropologie,Richmond,444,444 #000444 #00444 444 000444 0000444,9200 Stony Point Pkwy,VA,23235
Anthropologie,Maple Grove,445,445 #000445 #00445 445 000445 0000445,12413 Elm Creek Blvd N,MN,55369
Anthropologie,Pasadena,446,446 #000446 #00446 446 000446 0000446,35 N Fair Oaks Ave #35,CA,91103
Anthropologie,Princeton,447,447 #000447 #00447 447 000447 0000447,3535 US Hwy 1,NJ,8540
Anthropologie,Berkeley,448,448 #000448 #00448 448 000448 0000448,750 Hearst Ave,CA,94710
Anthropologie,Palm Beach Gardens,449,449 #000449 #00449 449 000449 0000449,"3101 PGA Blvd, #H-205",FL,33410
Anthropologie,Dallas,450,450 #000450 #00450 450 000450 0000450,8687 N Central Expy,TX,75225
Anthropologie,Dallas,451,451 #000451 #00451 451 000451 0000451,100 Highland Park Village,TX,75205
Anthropologie,Woodmere,452,452 #000452 #00452 452 000452 0000452,28829 Chagrin Blvd,OH,44122
Anthropologie,Spring,453,453 #000453 #00453 453 000453 0000453,1201 Lake Woodlands Dr,TX,77380
Anthropologie,Charlotte,454,454 #000454 #00454 454 000454 0000454,4400 Sharon Rd,NC,28211
Anthropologie,Lone Tree,455,455 #000455 #00455 455 000455 0000455,8401 Park Meadows Ctr Dr,CO,80124
Anthropologie,Dunwoody,456,456 #000456 #00456 456 000456 0000456,4400 Ashford Dunwoody Rd,GA,30346
Anthropologie,Towson,457,457 #000457 #00457 457 000457 0000457,825 Dulaney Valley Rd,MD,21204
Anthropologie,Plano,458,458 #000458 #00458 458 000458 0000458,6121 W Park Blvd,TX,75093
Anthropologie,Portland,459,459 #000459 #00459 459 000459 0000459,1115 NW Couch St,OR,97209
Anthropologie,Schaumburg,460,460 #000460 #00460 460 000460 0000460,5 Woodfield Mall,IL,60173
Anthropologie,Las Vegas,461,461 #000461 #00461 461 000461 0000461,3500 Las Vegas Blvd S,NV,89109
Anthropologie,Short Hills,462,462 #000462 #00462 462 000462 0000462,1200 Morris Tpke,NJ,7078
Anthropologie,South Windsor,463,463 #000463 #00463 463 000463 0000463,300 Evergreen Way,CT,6074
Anthropologie,Thousand Oaks,464,464 #000464 #00464 464 000464 0000464,502 W Hillcrest Dr,CA,91360
Anthropologie,Henderson,465,465 #000465 #00465 465 000465 0000465,2275 Village Walk Dr,NV,89052
Anthropologie,Washington,466,466 #000466 #00466 466 000466 0000466,3222 M St NW,DC,20007
Anthropologie,Tucson,467,467 #000467 #00467 467 000467 0000467,2905 Skyline Dr,AZ,85718
Anthropologie,Birmingham,468,468 #000468 #00468 468 000468 0000468,200 Summit Blvd,AL,35243
Anthropologie,Scottsdale,469,469 #000469 #00469 469 000469 0000469,7014 E Camelback Rd,AZ,85851
Anthropologie,Charlotte,470,470 #000470 #00470 470 000470 0000470,6801 Northlake Mall Dr,NC,28216
Anthropologie,San Antonio,471,471 #000471 #00471 471 000471 0000471,15900 La Cantera Pkwy,TX,78256
Anthropologie,Irvine,472,472 #000472 #00472 472 000472 0000472,99 Fortune Dr,CA,92618
Anthropologie,Carlsbad,473,473 #000473 #00473 473 000473 0000473,1911 Calle Barcelona,CA,92009
Anthropologie,Oak Brook,475,475 #000475 #00475 475 000475 0000475,190 Oakbrook Ctr,IL,60523
Anthropologie,St. Louis,476,476 #000476 #00476 476 000476 0000476,1155 St. Louis Galleria,MO,63117
Anthropologie,Tigard,478,478 #000478 #00478 478 000478 0000478,7203 SW Bridgeport Rd,OR,97224
Anthropologie,Glen Mills,479,479 #000479 #00479 479 000479 0000479,949 Baltimore Pike,PA,19342
Anthropologie,Jacksonville,480,480 #000480 #00480 480 000480 0000480,4751 River City Dr,FL,32246
Anthropologie,El Segundo,481,481 #000481 #00481 481 000481 0000481,800 S Sepulveda Blvd,CA,90245
Anthropologie,Burlingame,482,482 #000482 #00482 482 000482 0000482,220 Primrose Rd,CA,94010
Anthropologie,Shrewsbury,483,483 #000483 #00483 483 000483 0000483,617 Broad St,NJ,7702
Anthropologie,Nashville,484,484 #000484 #00484 484 000484 0000484,4031 Hillsboro Pike,TN,37215
Anthropologie,Natick,485,485 #000485 #00485 485 000485 0000485,1245 Worcester St,MA,1760
Anthropologie,Baton Rouge,486,486 #000486 #00486 486 000486 0000486,10202 Perkins Rowe,LA,70810
Anthropologie,Boulder,487,487 #000487 #00487 487 000487 0000487,1805 29th St,CO,80301
Anthropologie,Indianapolis,488,488 #000488 #00488 488 000488 0000488,8702 Keystone Crssng,IN,46240
Anthropologie,Madison,489,489 #000489 #00489 489 000489 0000489,702 N Midvale Blvd,WI,53705
Anthropologie,Albuquerque,490,490 #000490 #00490 490 000490 0000490,2260 Q St NE,NM,87110
Anthropologie,Troy,491,491 #000491 #00491 491 000491 0000491,2800 W Big Beaver Rd,MI,48084
Anthropologie,Naples,492,492 #000492 #00492 492 000492 0000492,5415 Tamiami Trl N,FL,34108
Anthropologie,Southlake,493,493 #000493 #00493 493 000493 0000493,266 Grand Ave,TX,76092
Anthropologie,New York,494,494 #000494 #00494 494 000494 0000494,50 Rockefeller Ctr,NY,10020
Anthropologie,Torrance,495,495 #000495 #00495 495 000495 0000495,3525 W Carson St,CA,90503
Anthropologie,Fresno,496,496 #000496 #00496 496 000496 0000496,639 E Shaw Ave,CA,93710
Anthropologie,Corte Madera,497,497 #000497 #00497 497 000497 0000497,1848 Redwood Hwy,CA,94925
Anthropologie,Carmel By The Sea,498,498 #000498 #00498 498 000498 0000498,Ocean Ave and Mission St,CA,93923
Anthropologie,Corona,499,499 #000499 #00499 499 000499 0000499,2785 Cabot Dr,CA,92883
Anthropologie,Chula Vista,500,500 #000500 #00500 500 000500 0000500,2015 Birch Rd,CA,91915
Anthropologie,Austin,501,501 #000501 #00501 501 000501 0000501,601 N Lamar Blvd,TX,78703
Anthropologie,Chicago,502,502 #000502 #00502 502 000502 0000502,3532 N Southport Ave,IL,60657
Anthropologie,Rancho Cucamonga,503,503 #000503 #00503 503 000503 0000503,7812 Monet Ave,CA,91739
Anthropologie,Boca Raton,504,504 #000504 #00504 504 000504 0000504,6000 Glades Rd,FL,33431
Anthropologie,Burlington,505,505 #000505 #00505 505 000505 0000505,75 Middlesex Tpke,MA,1803
Anthropologie,Huntsville,506,506 #000506 #00506 506 000506 0000506,345 Bridge St,AL,35806
Anthropologie,Boise,507,507 #000507 #00507 507 000507 0000507,822 Idaho St,ID,83702
Anthropologie,Milwaukee,508,508 #000508 #00508 508 000508 0000508,301 N Broadway,WI,53202
Anthropologie,Glendale,509,509 #000509 #00509 509 000509 0000509,519 Americana Way,CA,91210
Anthropologie,Myrtle Beach,510,510 #000510 #00510 510 000510 0000510,3340 Reed St,SC,29577
Anthropologie,Danville,511,511 #000511 #00511 511 000511 0000511,3380 Blackhawk Plz Cir,CA,94506
Anthropologie,North Brunswick,512,512 #000512 #00512 512 000512 0000512,531 Shoppes Blvd,NJ,8902
Anthropologie,San Diego,513,513 #000513 #00513 513 000513 0000513,4525 La Jolla Village Dr,CA,92122
Anthropologie,Roseville,514,514 #000514 #00514 514 000514 0000514,1182 Roseville Pkwy,CA,95678
Anthropologie,Mesa,515,515 #000515 #00515 515 000515 0000515,1652 S Val Vista Dr,AZ,85204
Anthropologie,San Diego,516,516 #000516 #00516 516 000516 0000516,7007 Friars Rd,CA,92108
Anthropologie,Reston,517,517 #000517 #00517 517 000517 0000517,11965 Market St,VA,20190
Anthropologie,Omaha,518,518 #000518 #00518 518 000518 0000518,120 Regency Pkwy,NE,68114
Anthropologie,Annapolis,519,519 #000519 #00519 519 000519 0000519,1910 Towne Centre Blvd,MD,21401
Anthropologie,Ridgeland,520,520 #000520 #00520 520 000520 0000520,1000 Highland Colony Pkwy,MS,39157
Anthropologie,Greensboro,521,521 #000521 #00521 521 000521 0000521,3320 W Friendly Ave,NC,27410
Anthropologie,Toronto,522,522 #000522 #00522 522 000522 0000522,19 Clock Tower Rd,ON,M3C OE1
Anthropologie,Durham,523,523 #000523 #00523 523 000523 0000523,8030 Renaissance Pkwy,NC,27713
Anthropologie,Edmonton,524,524 #000524 #00524 524 000524 0000524,"#2154, 8882 170 St.",AB,T5T 4J2
Anthropologie,Marlton,525,525 #000525 #00525 525 000525 0000525,500 Rte 73 S,NJ,8053
Anthropologie,Houston,526,526 #000526 #00526 526 000526 0000526,800 Town and Country Ln,TX,77024
Anthropologie,Miami,527,527 #000527 #00527 527 000527 0000527,19501 Biscayne Blvd,FL,33180
Anthropologie,Toronto,528,528 #000528 #00528 528 000528 0000528,80 Yorkville Ave E,ON,M5R 2C2
Anthropologie,Dedham,529,529 #000529 #00529 529 000529 0000529,946 Providence Hwy,MA,2026
Anthropologie,Charlottesville,530,530 #000530 #00530 530 000530 0000530,1207 Emmet St N,VA,22903
Anthropologie,Montclair,531,531 #000531 #00531 531 000531 0000531,470 Bloomfield Ave,NJ,7042
Anthropologie,Bellevue,532,532 #000532 #00532 532 000532 0000532,1070 Bellevue Square,WA,98004
Anthropologie,Chicago,533,533 #000533 #00533 533 000533 0000533,108 N State St,IL,60602
Anthropologie,St Louis Park,534,534 #000534 #00534 534 000534 0000534,1622 West End Blvd,MN,55416
Anthropologie,Skokie,535,535 #000535 #00535 535 000535 0000535,4999 Old Orchard Ctr,IL,60077
Anthropologie,Victor,536,536 #000536 #00536 536 000536 0000536,147 Eastview Mall,NY,14564
Anthropologie,Newark,537,537 #000537 #00537 537 000537 0000537,115 Christiana Mall,DE,19702
Anthropologie,Germantown,538,538 #000538 #00538 538 000538 0000538,7615 W Farmington Blvd,TN,38138
Anthropologie,New York,539,539 #000539 #00539 539 000539 0000539,75 9th Ave,NY,10011
Anthropologie,Canoga Park,540,540 #000540 #00540 540 000540 0000540,6600 Topanga Canyon Blvd,CA,91303
Anthropologie,Austin,541,541 #000541 #00541 541 000541 0000541,11410 Century Oaks Ter,TX,78758
Anthropologie,Pittsburgh,542,542 #000542 #00542 542 000542 0000542,6425 Penn Ave,PA,15206
Anthropologie,Palm Desert,543,543 #000543 #00543 543 000543 0000543,73-545 El Paseo,CA,92260
Anthropologie,New Orleans,544,544 #000544 #00544 544 000544 0000544,333 Canal St,LA,70130
Anthropologie,Cambridge,545,545 #000545 #00545 545 000545 0000545,48 Brattle St,MA,2138
Anthropologie,Tulsa,546,546 #000546 #00546 546 000546 0000546,1860 Utica Sq,OK,74114
Anthropologie,Little Rock,547,547 #000547 #00547 547 000547 0000547,17725 Chenal Pkwy,AR,72223
Anthropologie,Fort Worth,548,548 #000548 #00548 548 000548 0000548,1540 S University Dr,TX,76107
Anthropologie,Calgary,549,549 #000549 #00549 549 000549 0000549,6455 Macleod Trl SW,AB,T2H 0K8
Anthropologie,Atlanta,550,550 #000550 #00550 550 000550 0000550,1207 Howell Mill Rd,GA,30318
Anthropologie,Cranston,551,551 #000551 #00551 551 000551 0000551,56 Hillside Rd,RI,2920
Anthropologie,Paramus,552,552 #000552 #00552 552 000552 0000552,1123 Garden State Plz,NJ,7652
Anthropologie,Vancouver,553,553 #000553 #00553 553 000553 0000553,2912 Granville St,BC,V6H 3J7
Anthropologie,Buffalo,554,554 #000554 #00554 554 000554 0000554,1 Walden Galleria,NY,14225
Anthropologie,Westlake,555,555 #000555 #00555 555 000555 0000555,215 Crocker Park Blvd,OH,44145
Anthropologie,Leawood,556,556 #000556 #00556 556 000556 0000556,5024 W 119th St,KS,66209
Anthropologie,Allen,557,557 #000557 #00557 557 000557 0000557,902 Market St,TX,75013
Anthropologie,Farmington,558,558 #000558 #00558 558 000558 0000558,201 Westfarms Mall,CT,6032
Anthropologie,Washington,559,559 #000559 #00559 559 000559 0000559,950 F St NW at 10th St,DC,20004
Anthropologie,Grand Rapids,560,560 #000560 #00560 560 000560 0000560,1960 Breton Rd SE,MI,49506
Anthropologie,St Paul,561,561 #000561 #00561 561 000561 0000561,917 Grand Ave,MN,55105
Anthropologie,Montreal,562,562 #000562 #00562 562 000562 0000562,2130 Rue de la Montagne,QC,H3G 1Z7
Anthropologie,New York,563,563 #000563 #00563 563 000563 0000563,1230 3rd Ave,NY,10021
Anthropologie,Alexandria,564,564 #000564 #00564 564 000564 0000564,610 King St,VA,22314
Anthropologie,Oklahoma City,565,565 #000565 #00565 565 000565 0000565,6100 NW Grand Blvd,OK,73118
Anthropologie,Oakville,566,566 #000566 #00566 566 000566 0000566,159 Lakeshore Rd E,ON,L6J 5C3
Anthropologie,Walnut Creek,567,567 #000567 #00567 567 000567 0000567,1556 Mt Diablo Blvd,CA,94596
Anthropologie,Huntington Station,568,568 #000568 #00568 568 000568 0000568,160 Walt Whitman Rd,NY,11746
Anthropologie,Costa Mesa,569,569 #000569 #00569 569 000569 0000569,3333 Bear St,CA,92626
Anthropologie,Los Gatos,570,570 #000570 #00570 570 000570 0000570,50 University Ave,CA,95030
Anthropologie,Chevy Chase,571,571 #000571 #00571 571 000571 0000571,5402 Wisconsin Avenue,MD,20815
Anthropologie,Nashville,572,572 #000572 #00572 572 000572 0000572,The Mall at Green Hills,TN,37215
Anthropologie,Baltimore,573,573 #000573 #00573 573 000573 0000573,280 International Dr,MD,21202
Anthropologie,Louisville,574,574 #000574 #00574 574 000574 0000574,7900 Shelbyville Rd,KY,40222
Anthropologie,Charleston,575,575 #000575 #00575 575 000575 0000575,Historic District,SC,29401
Anthropologie,Franklin,576,576 #000576 #00576 576 000576 0000576,335 Main St,TN,37064
Anthropologie,Yorkdale,577,577 #000577 #00577 577 000577 0000577,3401 Dufferin Street,ON,M6A 2T9
Anthropologie,Fairfax,578,578 #000578 #00578 578 000578 0000578,"8223 Lee Hwy, Space A20",VA,22031
Anthropologie,Lexington,579,579 #000579 #00579 579 000579 0000579,161 Lexington Green Circle,KY,40503
Urban Outfitters,Westfield,1001,1001 #0001001 #001001 1001 0001001 00001001,154 E. Broad St.,NJ,7090
Urban Outfitters,White Plains,1002,1002 #0001002 #001002 1002 0001002 00001002,125 Westchester Avenue #2710 The Westchester Mall W,NY,10601
Urban Outfitters,Knoxville,1003,1003 #0001003 #001003 1003 0001003 00001003,503 Market St.,TN,37902
Urban Outfitters,Scottsdale,1004,1004 #0001004 #001004 1004 0001004 00001004,15037 N. Scottsdale Rd.,AZ,85254
Urban Outfitters,Columbia,1005,1005 #0001005 #001005 1005 0001005 00001005,912 Gervais St.,SC,29201-3128
Urban Outfitters,San Diego,1006,1006 #0001006 #001006 1006 0001006 00001006,7007 Friars Road,CA,92108-1141
Urban Outfitters,Malibu,1007,1007 #0001007 #001007 1007 0001007 00001007,3806 Cross Creek Road,CA,90265
Urban Outfitters,Sherman Oaks,1008,1008 #0001008 #001008 1008 0001008 00001008,14608 Ventura Blvd,CA,91403-3771
