keywords,city,Aggdata Store Number,store_number,address,state,zip_code
Victoria's Secret,Palo Alto,1,01 #1,180 El Camino Real,NV,89109
Victoria's Secret,Cupertino,3,03 #3,10123 N Wolfe Road,FL,33172
Victoria's Secret,Walnut Creek,5,05 #5,1281 Broadway Plaza,CA,95123
Victoria's Secret,Los Angeles,6,06 #6,8500 Beverly Boulevard,MI,48326
Victoria's Secret,Chestnut Hill,7,07 #7,199 Boylston Street,NJ,7202
Victoria's Secret,Short Hills,9,09 #9,1200 Morris Turnpike,AZ,85345
Victoria's Secret,Schaumburg,11,011 #11,134 Woodfield Drive,FL,33543
Victoria's Secret,Dallas,12,012 #12,13350 Dallas Parkway,CA,94513
Victoria's Secret,Columbus,14,014 #14,2747 Eastland Mall,AZ,85282
Victoria's Secret,San Diego,16,016 #16,7007 Friar's Road,PA,19154
Victoria's Secret,Hackensack,19,019 #19,1 Riverside Square,OH,43240
Victoria's Secret,Fairfax,20,020 #20,11823 Fair Oaks Mall,IL,60031
Victoria's Secret,Monroeville,23,023 #23,214 Monroeville Mall,FL,32819
Victoria's Secret,Vernon Hills,24,024 #24,410/411 Hawthorne Center,NY,11901
Victoria's Secret,Mc Lean,25,025 #25,1961 Chain Bridge Road,FL,33189
Victoria's Secret,Willow Grove,27,027 #27,2500 Moreland Road,TX,78666
Victoria's Secret,Upper St. Clair,28,028 #28,301 South Hills Village,OH,44070
Victoria's Secret,Burlington,30,030 #30,75 Middlesex Turnpike,CA,90017
Victoria's Secret,Bloomingdale,33,033 #33,219 Stratford Square,TX,78216
Victoria's Secret,Miami,34,034 #34,8888 SW 136Th Street,FL,34103
Victoria's Secret,Paramus,35,035 #35,1 Garden State Plaza,FL,32607
Victoria's Secret,Humble,36,036 #36,20131 Highway 59,CA,94304
Victoria's Secret,Friendswood,37,037 #37,500 Baybrook Mall,CA,95014
Victoria's Secret,San Diego,39,039 #39,4353 La Jolla Village Drive,CA,94596
Victoria's Secret,Sterling Heights,40,040 #40,14000 Lakeside Circle,CA,90048
Victoria's Secret,Washington,41,041 #41,1050 Connecticut Avenue NW,MA,2467
Victoria's Secret,Skokie,45,045 #45,153 Old Orchard Center,NJ,7078
Victoria's Secret,Houston,46,046 #46,1042 Willowbrook Mall,IL,60173
Victoria's Secret,Metairie,47,047 #47,3301 Veterans Memorial Blvd,TX,75240
Victoria's Secret,Troy,48,048 #48,412 W 14 Mile Road,OH,43232
Victoria's Secret,Overland Park,49,049 #49,11289 W 95Th Street,CA,92108
Victoria's Secret,Pleasanton,51,051 #51,2345 Stoneridge Mall Drive,NJ,7601
Victoria's Secret,Farmington,56,056 #56,500 Westfarms Mall,VA,22033
Victoria's Secret,Dearborn,57,057 #57,18900 Michigan Avenue,PA,15146
Victoria's Secret,Los Angeles,59,059 #59,750 W 7Th Street,IL,60061
Victoria's Secret,Albany,60,060 #60,1 Crossgates Mall,VA,22102
Victoria's Secret,Louisville,61,061 #61,7900 Shelbyville Road,PA,19090
Victoria's Secret,Monterey,63,063 #63,1410 Delmonte Center,PA,15241
Victoria's Secret,Plantation,65,065 #65,8000 W Broward Boulevard,MA,1803
Victoria's Secret,Miami,66,066 #66,7535 North Kendall Drive,IL,60108
Victoria's Secret,White Plains,68,068 #68,100 Main Street,FL,33176
Victoria's Secret,Northbrook,69,069 #69,1218 Northbrook Court,NJ,7652
Victoria's Secret,Altamonte Springs,70,070 #70,451 E Altamonte Drive,TX,77338
Victoria's Secret,Chicago,71,071 #71,2828 N Clark Street,TX,77546
Victoria's Secret,San Diego,72,072 #72,1640 Camino Del Rio North,CA,92122
Victoria's Secret,Beachwood,73,073 #73,26300 Cedar Road,MI,48313
Victoria's Secret,Birmingham,74,074 #74,623 Brookwood Village,DC,20036
Victoria's Secret,Las Vegas,75,075 #75,3680 Maryland Parkway,IL,60077
Victoria's Secret,Chesterfield,76,076 #76,291 Chesterfield Mall,TX,77070
Victoria's Secret,San Mateo,78,078 #78,220 Hillsdale Shopping Center,LA,70002
Victoria's Secret,San Diego,80,080 #80,324 Horton Plaza,MI,48084
Victoria's Secret,Redondo Beach,81,081 #81,1815 Hawthorne Boulevard,KS,66214
Victoria's Secret,Paramus,83,083 #83,218 Paramus Park,CA,94588
Victoria's Secret,Los Angeles,84,084 #84,10250 Santa Monica Boulevard,CT,6032
Victoria's Secret,Grand Rapids,85,085 #85,3161 28Th Street SE,MI,48126
Victoria's Secret,Boynton Beach,86,086 #86,801 N Congress Avenue,CA,90017
Victoria's Secret,Duluth,87,087 #87,2100 Pleasant Hill Road,NY,12203
Victoria's Secret,Kenner,88,088 #88,1401 W Esplanade Avenue,KY,40222
Victoria's Secret,Hoover,90,090 #90,2000 Riverchase Galleria,CA,93940
Victoria's Secret,Escondido,91,091 #91,200 East Via Rancho Parkway,FL,33388
Victoria's Secret,Kennesaw,92,092 #92,400 Ernest Barrett Parkway,FL,33156
Victoria's Secret,Las Vegas,93,093 #93,3200 Las Vegas Boulevard S,NY,10601
Victoria's Secret,King Of Prussia,94,094 #94,403 Goddard Boulevard,IL,60062
Victoria's Secret,Atlanta,95,095 #95,1417 Cumberland Mall SE,FL,32701
Victoria's Secret,Atlanta,96,096 #96,4400 Ashford Dunwoody Road,IL,60657
Victoria's Secret,Cherry Hill,97,097 #97,2000 Route 38,CA,92108
Victoria's Secret,Phoenix,98,098 #98,4550-336 East Cactus Road,OH,44122
Victoria's Secret,Lawrenceville,99,099 #99,150 Quakerbridge Mall,AL,35209
Victoria's Secret,Atlanta,102,0102 #102,3393 Peachtree Road NE,NV,89109
Victoria's Secret,Orlando,103,0103 #103,8001 S Orange Blossom Trail,MO,63017
Victoria's Secret,Wayne,104,0104 #104,1467 Willowbrook Mall,CA,94403
Victoria's Secret,Ann Arbor,105,0105 #105,430 Briarwood Circle,CA,92101
Victoria's Secret,S Portland,106,0106 #106,364 Maine Mall Road,CA,90278
Victoria's Secret,Youngstown,107,0107 #107,7401 Market Street,NJ,7652
Victoria's Secret,Peabody,108,0108 #108,210 Andover Street,CA,90067
Victoria's Secret,Houston,109,0109 #109,5085 Westheimer Road,MI,49512
Victoria's Secret,Holyoke,111,0111 #111,50 Holyoke Street,FL,33426
Victoria's Secret,Cincinnati,112,0112 #112,11700 Princeton Pike,GA,30096
Victoria's Secret,Lombard,113,0113 #113,157 E Yorktown,LA,70065
Victoria's Secret,Doral Branch,114,0114 #114,1455 NW 107Th Avenue,AL,35244
Victoria's Secret,Waterford,115,0115 #115,850 Hartford Turnpike,CA,92025
Victoria's Secret,Tucson,116,0116 #116,4500 N Oracle Road,GA,30144
Victoria's Secret,Winston-Salem,117,0117 #117,6612 Hanes Mall,PA,19406
Victoria's Secret,Flint,118,0118 #118,3311 S Linden Road,GA,30339
Victoria's Secret,Lake Grove,120,0120 #120,313 Smith Haven Mall,GA,30346
Victoria's Secret,Owings Mills,121,0121 #121,10300 Mill Run Circle,NJ,8002
Victoria's Secret,Sherman Oaks,123,0123 #123,14006 Riverside Drive,AZ,85032
Victoria's Secret,Arlington,124,0124 #124,4238 Wilson Boulevard,NJ,8648
Victoria's Secret,Massapequa,125,0125 #125,357 Sunrise Mall,GA,30326
Victoria's Secret,Nashua,126,0126 #126,310 Daniel Webster Highway,FL,32809
Victoria's Secret,Pittsburgh,127,0127 #127,1000 Ross Park Drive,NJ,7470
Victoria's Secret,Atlanta,128,0128 #128,1400 Northlake Mall,MI,48108
Victoria's Secret,Boca Raton,129,0129 #129,289 Towne Center,ME,4106
Victoria's Secret,Danbury,130,0130 #130,7 Backus Avenue,OH,44512
Victoria's Secret,Ridgeland,131,0131 #131,1200 E County Line Road,MA,1960
Victoria's Secret,Warwick,132,0132 #132,400 Bald Hill Road,TX,77056
Victoria's Secret,Oklahoma City,133,0133 #133,2501 W Memorial Road,MA,1040
Victoria's Secret,Toledo,134,0134 #134,5001 Monroe Street,OH,45246
Victoria's Secret,Lafayette,135,0135 #135,5725 Johnston Street,IL,60148
Victoria's Secret,Burnsville,136,0136 #136,1036 Burnsville Center,CT,6385
Victoria's Secret,Dayton,137,0137 #137,2700 Miamisburg-Centerville,AZ,85705
Victoria's Secret,Santa Clara,138,0138 #138,2855 Stevens Creek Boulevard,NC,27103
Victoria's Secret,Fort Worth,141,0141 #141,4800 S Hulen Street,MI,48507
Victoria's Secret,Clearwater,142,0142 #142,27001 US 19 N,NY,11755
Victoria's Secret,Bakersfield,143,0143 #143,2701 Ming Avenue,MD,21117
Victoria's Secret,Charleston,144,0144 #144,3000 Charleston Town Center,CA,91423
Victoria's Secret,Glendale,145,0145 #145,2148 Glendale Galleria,VA,22203
Victoria's Secret,Coral Springs,146,0146 #146,9469 W Atlantic Boulevard,NY,11758
Victoria's Secret,San Antonio,147,0147 #147,7400 San Pedro,NH,3063
Victoria's Secret,Dallas,149,0149 #149,1010 Northpark Center,PA,15237
Victoria's Secret,New York,150,0150 #150,34 E 57th Street,GA,30345
Victoria's Secret,San Jose,151,0151 #151,925 Blossom Hill Road,FL,33431
Victoria's Secret,Novi,153,0153 #153,27350 Novi Road,CT,6810
Victoria's Secret,N Little Rock,154,0154 #154,3929 Mccain Boulevard,MS,39157
Victoria's Secret,Hialeah,155,0155 #155,1675 W 49Th Street,RI,2886
Victoria's Secret,Knoxville,156,0156 #156,3001 Knoxville Center Drive,OK,73134
Victoria's Secret,Braintree,158,0158 #158,250 Granite Street,OH,43623
Victoria's Secret,Tulsa,159,0159 #159,7021 S Memorial Drive,LA,70503
Victoria's Secret,Edina,160,0160 #160,6601 France Avenue,MN,55337
Victoria's Secret,Roseville,161,0161 #161,138 Rosedale Center,OH,45459
Victoria's Secret,Plano,162,0162 #162,811 Centeral Expressway,CA,95050
Victoria's Secret,Springfield,163,0163 #163,1250 Baltimore Pike,TX,76132
Victoria's Secret,Daly City,164,0164 #164,121 Serramonte Center,FL,33761
Victoria's Secret,Savannah,165,0165 #165,7804 Abercorn Street,CA,93304
Victoria's Secret,Greenville,167,0167 #167,700 Haywood Road,WV,25389
Victoria's Secret,Bridgewater,168,0168 #168,400 Commons Way,CA,91210
Victoria's Secret,Morrow,169,0169 #169,2421 Southlake Mall,FL,33071
Victoria's Secret,Minnetonka,171,0171 #171,12401 Wayzata Boulevard,TX,78216
Victoria's Secret,Glen Burnie,172,0172 #172,7900 Governor Ritchie Highway,TX,75225
Victoria's Secret,Trumbull,173,0173 #173,5065 Main Street,NY,10022
Victoria's Secret,Victor,176,0176 #176,219 Eastview Mall,MI,48375
Victoria's Secret,Miami,177,0177 #177,401 Biscayne Blvd,AR,72116
Victoria's Secret,Whitehall,179,0179 #179,Route 22-Mcarthur Road No,FL,33012
Victoria's Secret,Boston,180,0180 #180,100 Huntington Avenue,TN,37924
Victoria's Secret,New Hartford,181,0181 #181,Route 5 & Route 5A,MA,2184
Victoria's Secret,Columbia,182,0182 #182,10300 Little Patuxent Parkway,OK,74133
Victoria's Secret,Greensboro,183,0183 #183,215 Four Seasons Boulevard,MN,55435
Victoria's Secret,Manchester,185,0185 #185,1500 S Willow Street,MN,55113
Victoria's Secret,Niles,193,0193 #193,5555 Youngstown-Warren Road,TX,75075
Victoria's Secret,Orland Park,194,0194 #194,228 Orland Square Drive,PA,19064
Victoria's Secret,Pensacola,195,0195 #195,5100 N 9Th Avenue,CA,94015
Victoria's Secret,El Paso,196,0196 #196,8401 Gateway West,GA,31406
Victoria's Secret,Columbia,197,0197 #197,7201 Two Notch Road,SC,29607
Victoria's Secret,Lubbock,198,0198 #198,6002 Slide Road,NJ,8807
Victoria's Secret,Monroe,199,0199 #199,4700 Millhavenuen Road,GA,30260
Victoria's Secret,Chicago,200,0200 #200,845 N Michigan Avenue,MN,55305
Victoria's Secret,Jacksonville,201,0201 #201,9501 Arlington Expressway,MD,21061
Victoria's Secret,Baton Rouge,202,0202 #202,9787 Cortana Place,CT,6611
Victoria's Secret,Erie,204,0204 #204,1 Millcreek Mall,NY,14564
Victoria's Secret,Fargo,206,0206 #206,136 West Acres Shopping Center,FL,33132
Victoria's Secret,Baltimore,207,0207 #207,8200 Perry Hall Boulevard,PA,18052
Victoria's Secret,Poughkeepsie,210,0210 #210,2001 South Road,MA,2116
Victoria's Secret,Lakewood,211,0211 #211,54 Lakewood Center Mall,NY,13413
Victoria's Secret,Chattanooga,212,0212 #212,2100 Hamilton Place Boulevard,MD,21044
Victoria's Secret,Wichita,213,0213 #213,1318 Town East Square,NC,27415
Victoria's Secret,Mays Landing,214,0214 #214,4403 Black Horse Pike,NH,3103
Victoria's Secret,Canoga Park,215,0215 #215,6600 Topanga Canyon Boulevard,OH,44446
Victoria's Secret,Brookfield,216,0216 #216,96 N Moorland Road,IL,60462
Victoria's Secret,Huntsville,220,0220 #220,5901 University Drive,FL,32504
Victoria's Secret,Orange Park,221,0221 #221,1910 Wells Road,TX,79925
Victoria's Secret,Fayetteville,222,0222 #222,417 Cross Creek Road,SC,29223
Victoria's Secret,Maplewood,223,0223 #223,3000 White Bear Avenue,TX,79414
Victoria's Secret,North Olmsted,224,0224 #224,5472 Great Northern Mall,LA,71203
Victoria's Secret,Santa Ana,226,0226 #226,2800 N Main Street,IL,60611
Victoria's Secret,Charlotte,228,0228 #228,4400 Sharon Road,FL,32225
Victoria's Secret,Seattle,230,0230 #230,303 Southcenter Mall,LA,70815
Victoria's Secret,Des Moines,231,0231 #231,3850 Merle Hay Road,PA,16565
Victoria's Secret,Mobile,232,0232 #232,3436 Bel Air Mall,ND,58103
Victoria's Secret,Baltimore,233,0233 #233,200 E Pratt Street,MD,21236
Victoria's Secret,Aurora,234,0234 #234,1228 Fox Valley Center,NY,12601
Victoria's Secret,Richmond,235,0235 #235,11500 Midlothian Turnpike,CA,90712
Victoria's Secret,Aurora,236,0236 #236,14200 E Alameda Avenue,TN,37421
Victoria's Secret,Buffalo,237,0237 #237,3701 Mckinley Parkway,KS,67207
Victoria's Secret,Wheaton,238,0238 #238,11160 Veirs Mill Road,NJ,8330
Victoria's Secret,Aventura,239,0239 #239,19501 Biscayne Boulevard,CA,91303
Victoria's Secret,Jensen Beach,240,0240 #240,3174 NW Federal Highway,WI,53005
Victoria's Secret,Arlington,241,0241 #241,3811 S Cooper Street,AL,35806
Victoria's Secret,Exton,242,0242 #242,100 Exton Square,FL,32073
Victoria's Secret,Jersey City,243,0243 #243,30 Mall Drive W,NC,28303
Victoria's Secret,Hyannis,244,0244 #244,Route 132,MN,55109
Victoria's Secret,Cerritos,245,0245 #245,342 Los Cerritos Center,OH,44070
Victoria's Secret,Appleton,246,0246 #246,4301 W Wisconsin Avenue,CA,92705
Victoria's Secret,Burlington,247,0247 #247,49 Church Street,NC,28211
Victoria's Secret,Lancaster,249,0249 #249,327 Park City Center,WA,98188
Victoria's Secret,Huntington Station,250,0250 #250,220-10 Route 110,IA,50310
Victoria's Secret,Williamsville,253,0253 #253,4545 Transit Road,AL,36606
Victoria's Secret,Lakeland,254,0254 #254,3800 US Highway 98 N,MD,21202
Victoria's Secret,Stamford,255,0255 #255,100 Greyrock Place,IL,60504
Victoria's Secret,Barboursville,256,0256 #256,1 Huntington Mall,VA,23235
Victoria's Secret,Topeka,257,0257 #257,1801 SW Wanamaker Road,CO,80012
Victoria's Secret,Deptford,258,0258 #258,Clements Bridge Road,NY,14219
Victoria's Secret,San Antonio,260,0260 #260,849 E Commerce St,MD,20902
Victoria's Secret,Goodlettsville,261,0261 #261,1000 Rivergate Parkway,FL,33180
Victoria's Secret,Fairview Heights,262,0262 #262,134 St Clair Square,FL,34957
Victoria's Secret,San Francisco,268,0268 #268,3251 20Th Avenue,TX,76015
Victoria's Secret,Okemos,269,0269 #269,1982 E Grand River Avenue,PA,19341
Victoria's Secret,Oklahoma City,270,0270 #270,1900 NW Expressway,NJ,7302
Victoria's Secret,Amherst,271,0271 #271,730 Alberta Drive,MA,2601
Victoria's Secret,Peoria,273,0273 #273,4501 War Memorial Drive,CA,90701
Victoria's Secret,Bloomington,275,0275 #275,1615 E Empire Street,WI,54915
Victoria's Secret,Greensburg,277,0277 #277,State Route 30 East,VT,5401
Victoria's Secret,Swansea,279,0279 #279,262 Swansea Mall Drive,PA,17601
Victoria's Secret,Wilmington,280,0280 #280,4737 Concord Pike,NY,11746
Victoria's Secret,Camp Hill,281,0281 #281,3506Capital Mall Drive,NY,14221
Victoria's Secret,Chicago,282,0282 #282,7601 S Cicero Avenue,FL,33809
Victoria's Secret,North Wales,284,0284 #284,292 Montgomery Mall,CT,6901
Victoria's Secret,Augusta,285,0285 #285,3450 Wrightsboro Road,WV,25504
Victoria's Secret,Albuquerque,287,0287 #287,6600 Menaul NE,KS,66604
Victoria's Secret,Voorhees,289,0289 #289,2395 Echelon Mall,NJ,8096
Victoria's Secret,Plymouth Meeting,290,0290 #290,500 W. Germantown Pike,TX,78205
Victoria's Secret,Springfield,291,0291 #291,1475 Upper Valley Pike,TN,37072
Victoria's Secret,Garden City,293,0293 #293,630 Old Country Road,IL,62208
Victoria's Secret,Little Rock,295,0295 #295,6000 W Markham,CA,94132
Victoria's Secret,Washington,297,0297 #297,40 Massachusetts Avenue NE,MI,48864
Victoria's Secret,Bellevue,299,0299 #299,263 Bellevue Square,OK,73118
Victoria's Secret,Manassas,302,0302 #302,8300 Sudly Road,NY,14226
Victoria's Secret,Livingston,303,0303 #303,112 Eisenhower Parkway,IL,61613
Victoria's Secret,Bethesda,304,0304 #304,7101 Democracry Boulevard,IL,61701
Victoria's Secret,El Paso,306,0306 #306,750 Sunland Park Drive,PA,15601
Victoria's Secret,Memphis,307,0307 #307,4465 Poplar Avenue,MA,2777
Victoria's Secret,Indianapolis,309,0309 #309,8701 Keystone Crossing,DE,19803
Victoria's Secret,Mesquite,310,0310 #310,2052 Town East Mall,PA,17011
Victoria's Secret,Clay,311,0311 #311,4081 Route 31,IL,60652
Victoria's Secret,Cincinnati,316,0316 #316,9525 Colerain Avenue,PA,19454
Victoria's Secret,Palm Beach Gardens,317,0317 #317,3101 Pga Boulevard,GA,30909
Victoria's Secret,Portland,318,0318 #318,12000 SE 82nd Avenue,NM,87110
Victoria's Secret,Myrtle Beach,319,0319 #319,10177 N Kings Highway,NJ,8043
Victoria's Secret,Lexington,321,0321 #321,3401 Nicholasville Road,PA,19462
Victoria's Secret,Johnson City,325,0325 #325,223 Reynolds Road,OH,45504
Victoria's Secret,Virginia Beach,326,0326 #326,701 Lynnhaven Parkway,NY,11530
Victoria's Secret,Boise,327,0327 #327,350 N Milwaukee,AR,72205
Victoria's Secret,Wilmington,328,0328 #328,3500 Oleander Drive,DC,20002
Victoria's Secret,Cincinnati,330,0330 #330,7875 Montgomery Road,WA,98004
Victoria's Secret,Newport News,332,0332 #332,12300 Jefferson Avenue,VA,20109
Victoria's Secret,Phoenix,333,0333 #333,9802A Metro Parkway E,NJ,7039
Victoria's Secret,Madison,334,0334 #334,37 W Towne Mall,MD,20817
Victoria's Secret,Westminster,335,0335 #335,1015 Westminster Mall,TX,79912
Victoria's Secret,West Mifflin,338,0338 #338,3075 Clairton Road,TN,38117
Victoria's Secret,Syracuse,339,0339 #339,9683 Destiny USA Drive,IN,46240
Victoria's Secret,Wauwatosa,340,0340 #340,2500 N Mayfair Road,TX,75150
Victoria's Secret,Raleigh,341,0341 #341,4325 Glenwood Avenue,NY,13041
Victoria's Secret,Knoxville,343,0343 #343,7600 Kingston Pike,OH,45251
Victoria's Secret,Rochester,345,0345 #345,4041 Market Place Mall,FL,33410
Victoria's Secret,Florence,346,0346 #346,2106 Florence Mall,OR,97086
Victoria's Secret,Omaha,347,0347 #347,1000 California Street,SC,29572
Victoria's Secret,Springfield,349,0349 #349,2825 South Glenstone Avenue,KY,40503
Victoria's Secret,Hickory,351,0351 #351,1960 Highway 70 SE,NY,13790
Victoria's Secret,Denton,352,0352 #352,2201 I-35 East,VA,23452
Victoria's Secret,Schenectady,353,0353 #353,353 Rotterdam Square,ID,83704
Victoria's Secret,Port Charlotte,354,0354 #354,1441 Tamiami Trail,NC,28403
Victoria's Secret,Gainesville,355,0355 #355,6415 Newberry Road,OH,45236
Victoria's Secret,Modesto,356,0356 #356,3401 Dale Road,VA,23602
Victoria's Secret,Scranton,357,0357 #357,Route 6,AZ,85051
Victoria's Secret,Concord,359,0359 #359,1 Sunvalley Mall,WI,53719
Victoria's Secret,Waldorf,360,0360 #360,11110 Mall Circle,CA,92683
Victoria's Secret,Hicksville,361,0361 #361,358 Broadway Mall,PA,15123
Victoria's Secret,Asheville,362,0362 #362,3 South Tunnel Road,NY,13204
Victoria's Secret,Altoona,363,0363 #363,Route 220 & Goods Lane,WI,53226
Victoria's Secret,San Antonio,364,0364 #364,6909 N Loop 1604 E,NC,27612
Victoria's Secret,Arlington,366,0366 #366,1100 S Hayes Street,TN,37919
Victoria's Secret,Colonial Heights,367,0367 #367,230 Southpark Circle,NY,14623
Victoria's Secret,Langhorne,368,0368 #368,2300 E Lincoln,KY,41042
Victoria's Secret,Tallahassee,369,0369 #369,1500 Apalachee Parkway,NE,68114
Victoria's Secret,N Attleboro,370,0370 #370,999 S Washington Street,MO,65804
Victoria's Secret,Eatontown,372,0372 #372,Route 35 & 36,NC,28602
Victoria's Secret,Harrisburg,374,0374 #374,3601 Harrisburg East Mall,TX,76205
Victoria's Secret,Austin,376,0376 #376,2901 S Capital Of Texas Hwy,NY,12306
Victoria's Secret,Tampa,377,0377 #377,2200 East Fowler Avenue,FL,33948
Victoria's Secret,Houston,378,0378 #378,1000 West Oaks Mall,FL,32605
Victoria's Secret,Columbus,379,0379 #379,3117 Peachtree Mall,CA,95356
Victoria's Secret,Reno,381,0381 #381,5000 1 Meadowood Mall Circle,PA,18508
Victoria's Secret,Manchester,383,0383 #383,194 Buckland Hills Drive,CA,94520
Victoria's Secret,Cleveland,387,0387 #387,230 W Huron Road,MD,20603
Victoria's Secret,Canton,389,0389 #389,4373 Belden Village Mall,NY,11801
Victoria's Secret,Lewisville,390,0390 #390,2401 S Stemmons Freeway,NC,28805
Victoria's Secret,Kingston,391,0391 #391,1001 Independence Mall Way,PA,16602
Victoria's Secret,Fort Worth,392,0392 #392,1966 Green Oaks Road,TX,78247
Victoria's Secret,Murray,393,0393 #393,6191 S State Street,VA,22202
Victoria's Secret,Lincolnwood,394,0394 #394,3333 W Touhy Avenue,VA,23834
Victoria's Secret,Sarasota,395,0395 #395,114 S Gate Plaza,PA,19047
Victoria's Secret,Chesapeake,396,0396 #396,4200 Portsmouth Boulevard,FL,32301
Victoria's Secret,Livonia,397,0397 #397,37700 W Six Mile Road,MA,2760
Victoria's Secret,Sacramento,398,0398 #398,1689 Arden Way,NJ,7724
Victoria's Secret,Stockton,399,0399 #399,5308 Pacific Avenue,PA,17111
Victoria's Secret,Sarasota,401,0401 #401,8201 S Tamiami Trail,TX,78746
Victoria's Secret,Gainesville,402,0402 #402,150 Pearl Nix Parkway,FL,33612
Victoria's Secret,York,404,0404 #404,1500 Mount Zion Road,TX,77082
Victoria's Secret,Oak Brook,405,0405 #405,22Nd Street & Route 83,GA,31909
Victoria's Secret,Newport Beach,406,0406 #406,1103 Newport Center Drive,NV,89502
Victoria's Secret,Portland,407,0407 #407,700 SW Fifth Avenue,CT,6042
Victoria's Secret,Eugene,408,0408 #408,223 Valley River Center,OH,44115
Victoria's Secret,Arcadia,409,0409 #409,400 S Baldwin Avenue,OH,44718
Victoria's Secret,Gastonia,410,0410 #410,246 North New Hope Road,TX,75067
Victoria's Secret,Naples,412,0412 #412,1770 Tamiami Trail North,MA,2364
Victoria's Secret,Carlsbad,414,0414 #414,2525 El Camino Real,TX,76116
Victoria's Secret,Rockaway,415,0415 #415,Route 80 And Mount Hope Avenue,UT,84107
Victoria's Secret,Woodbridge,416,0416 #416,250 Woodbridge Centre,IL,60646
Victoria's Secret,Portland,417,0417 #417,9591 Washington Square,FL,34239
Victoria's Secret,Chesapeake,418,0418 #418,1401 Greenbrier Parkway S,VA,23321
Victoria's Secret,Charlottesville,419,0419 #419,1600 E Rio Road,MI,48152
Victoria's Secret,Roanoke,420,0420 #420,4802 Valley View Boulevard,CA,95815
Victoria's Secret,Winchester,421,0421 #421,1850 Apple Blossom Drive,CA,95207
Victoria's Secret,City Of Industry,422,0422 #422,1600 Azusa Avenue,FL,34238
Victoria's Secret,Thousand Oaks,423,0423 #423,248 West Hillcrest Drive,GA,30501
Victoria's Secret,Columbia,424,0424 #424,100 Columbiana Circle,PA,17402
Victoria's Secret,San Francisco,425,0425 #425,865 Market St,IL,60521
Victoria's Secret,Salisbury,426,0426 #426,2300 N Salisbury Boulevard,CA,92660
Victoria's Secret,Tupelo,427,0427 #427,1001 Barnes Crossing Road,OR,97204
Victoria's Secret,Freehold,428,0428 #428,3710 Route 9,OR,97401
Victoria's Secret,Cambridge,429,0429 #429,100 Cambridgeside Place,CA,91007
Victoria's Secret,Concord,430,0430 #430,270 Loudon Road,NC,28054
Victoria's Secret,Santa Barbara,431,0431 #431,651 Paseo Nuevo,FL,34102
Victoria's Secret,Shrewsbury,432,0432 #432,577 Route 35,CA,92008
Victoria's Secret,Alexandria,433,0433 #433,5801 Duke Street,NJ,7866
Victoria's Secret,Tyler,435,0435 #435,4601 S Broadway,NJ,7095
Victoria's Secret,Savannah,436,0436 #436,14045 Abercorn Street,OR,97223
Victoria's Secret,Denver,437,0437 #437,3000 E First Avenue,VA,23320
Victoria's Secret,Durham,438,0438 #438,1058 W Club Boulevard,VA,22901
Victoria's Secret,Corpus Christi,439,0439 #439,5488 South Padre Island Drive,VA,24012
Victoria's Secret,College Station,440,0440 #440,1500 Harvey Road,VA,22601
Victoria's Secret,Fort Gratiot,441,0441 #441,4350 24Th Avenue,CA,91748
Victoria's Secret,Mesa,442,0442 #442,6555 E Southern Avenue,CA,91360
Victoria's Secret,Portage,443,0443 #443,6650 South Westnedge Avenue,SC,29212
Victoria's Secret,Carbondale,445,0445 #445,1237 E Main Street,CA,94103
Victoria's Secret,Tampa,446,0446 #446,308 West Shore Plaza,MD,21801
Victoria's Secret,Glendale,447,0447 #447,5701 North Center Parkway,MS,38804
Victoria's Secret,Ft Lauderdale,449,0449 #449,2588 East Sunrise Boulevard,NJ,7728
Victoria's Secret,Boston,450,0450 #450,4 Faneuil Market Place,MA,2141
Victoria's Secret,Gaithersburg,451,0451 #451,701 Russell Avenue,NH,3301
Victoria's Secret,Coconut Grove,452,0452 #452,3015 Grand Avenue,CA,93101
Victoria's Secret,Joplin,453,0453 #453,101 Rangeline Road,NJ,7702
Victoria's Secret,Jacksonville,454,0454 #454,10300 Southside Boulevard,VA,22304
Victoria's Secret,Newark,456,0456 #456,315 Christiana Mall Road,TX,75703
Victoria's Secret,Harrisburg,457,0457 #457,Route 22 & Colonial Road,GA,31419
Victoria's Secret,Tucson,458,0458 #458,5870 E Broadway,CO,80206
Victoria's Secret,St Petersburg,459,0459 #459,6901 22Nd Avenue,NC,27701
Victoria's Secret,Portland,460,0460 #460,1037 Lloyd Center,TX,78411
Victoria's Secret,Fort Wayne,461,0461 #461,4201 Coldwater Road,TX,77840
Victoria's Secret,Costa Mesa,462,0462 #462,3333 Bristol Street,MI,48059
Victoria's Secret,Phillipsburg,463,0463 #463,1200 Highway 22 E,AZ,85206
Victoria's Secret,State College,465,0465 #465,2901 E College Avenue,MI,49024
Victoria's Secret,Scottsdale,467,0467 #467,7014 East Camelback Road,IL,62901
Victoria's Secret,Houston,468,0468 #468,858 Memorial City Mall,FL,33609
Victoria's Secret,Richmond,470,0470 #470,1420 Parham Road,WI,53217
Victoria's Secret,Capitola,472,0472 #472,1855 41St Avenue,FL,33304
Victoria's Secret,Lynchburg,473,0473 #473,3405 Candlers Mountain Road,MA,2109
Victoria's Secret,Frederick,474,0474 #474,5500 Buckeystown Pike,MD,20877
Victoria's Secret,St Louis,475,0475 #475,63 South County Center Way,FL,33133
Victoria's Secret,Merrillville,476,0476 #476,1930 Southlake Mall,MO,64801
Victoria's Secret,Mission Viejo,478,0478 #478,555 The Shops at Mission Viejo,FL,32256
Victoria's Secret,Florence,479,0479 #479,2701 David H Mcleod Boulevard,DE,19702
Victoria's Secret,El Cajon,480,0480 #480,581 Parkway Plaza,PA,17109
Victoria's Secret,Northridge,481,0481 #481,9301 Tampa Avenue,AZ,85711
Victoria's Secret,Toms River,482,0482 #482,1201 Hooper Avenue,FL,33710
Victoria's Secret,Hanover,483,0483 #483,1775 Washington Street,OR,97232
Victoria's Secret,Mishawaka,484,0484 #484,6501 N Grape Road,IN,46805
Victoria's Secret,Pineville,485,0485 #485,11025 Carolina Place Parkway,CA,92626
Victoria's Secret,Charleston,486,0486 #486,2070 Sam Rittenberg Boulevard,NJ,8865
Victoria's Secret,Cary,487,0487 #487,1105 Walnut Street,PA,16801
Victoria's Secret,St Louis,489,0489 #489,2454 St Louis Galleria,AZ,85251
Victoria's Secret,Salem,491,0491 #491,99 Rockingham Park Boulevard,TX,77024
Victoria's Secret,Nashville,493,0493 #493,2126 Abbott Martin Road,VA,23229
Victoria's Secret,Milford,494,0494 #494,1201 Boston Post Road,CA,95010
Victoria's Secret,Eau Claire,495,0495 #495,4800 Golf Road,VA,24502
Victoria's Secret,Edison,496,0496 #496,432 Menlo Park,MD,21701
Victoria's Secret,Towson,497,0497 #497,825 Dulaney Valley Road,MO,63129
Victoria's Secret,Franklin,498,0498 #498,1800 Galleria Boulevard,IN,46410
Victoria's Secret,Athens,499,0499 #499,3700 Atlanta Highway,CA,92691
Victoria's Secret,San Francisco,500,0500 #500,335 Powell Street,SC,29501
Victoria's Secret,Burbank,501,0501 #501,201 East Magnolia Boulevard,CA,92020
Victoria's Secret,Buffalo,502,0502 #502,One Galleria Way,CA,91324
Victoria's Secret,Montclair,503,0503 #503,2015 Montclair Plaza Lane,NJ,8753
Victoria's Secret,Albany,504,0504 #504,131 Colonie Center,MA,2339
Victoria's Secret,Omaha,505,0505 #505,3001 South 144Th Street,IN,46545
Victoria's Secret,Akron,506,0506 #506,2000 Brittain Road,NC,28134
Victoria's Secret,Riverside,508,0508 #508,2077 Galleria At Tyler Avenue,SC,29407
Victoria's Secret,Spokane,509,0509 #509,North 4750 Division,NC,27511
Victoria's Secret,Tallahassee,510,0510 #510,2415 N Monroe Street,MO,63117
Victoria's Secret,Madison,512,0512 #512,62 East Towne Mall,NH,3079
Victoria's Secret,Louisville,513,0513 #513,5000 Shelbyville Road,TN,37215
Victoria's Secret,Dewitt,514,0514 #514,3649 Erie Boulevard E,CT,6460
Victoria's Secret,Wheaton,515,0515 #515,151 East Loop Drive,WI,54701
Victoria's Secret,Middletown,516,0516 #516,One Galleria Drive,NJ,8837
Victoria's Secret,Taunton,517,0517 #517,Route 24 & 140,MD,21204
Victoria's Secret,Watertown,518,0518 #518,485 Arsenal Street,TN,37064
Victoria's Secret,Traverse City,519,0519 #519,3200 S Airport Road W,GA,30606
Victoria's Secret,Media,520,0520 #520,1067 W Baltimore Pike,CA,94102
Victoria's Secret,Shreveport,521,0521 #521,1133 St Vincent Avenue,CA,91501
Victoria's Secret,Brea,522,0522 #522,1065 Brea Mall,NY,14225
Victoria's Secret,Champaign,524,0524 #524,2000 N Neil Street,CA,91763
Victoria's Secret,Las Vegas,525,0525 #525,3500 Las Vegas Boulevard S,NY,12205
Victoria's Secret,West Dundee,526,0526 #526,Highway 31 & Route 72,NE,68144
Victoria's Secret,Beavercreek,527,0527 #527,2727 Fairfield Commons,OH,44310
Victoria's Secret,Valencia,528,0528 #528,24140 Magic Mountain Parkway,CA,92503
Victoria's Secret,Fairfield,529,0529 #529,1350 Travis Boulevard,WA,99207
Victoria's Secret,Daytona Beach,530,0530 #530,1700 Volusia Avenue,FL,32303
Victoria's Secret,Irving,537,0537 #537,3652 Irving Mall,WI,53704
Victoria's Secret,Evansville,538,0538 #538,800 N Green River Road,KY,40207
Victoria's Secret,Bloomington,539,0539 #539,238 South Avenue,NY,13214
Victoria's Secret,Waco,540,0540 #540,6001 W Waco Drive,IL,60187
Victoria's Secret,Parma,541,0541 #541,7797 W Ridgewood Drive,NY,10941
Victoria's Secret,Meriden,542,0542 #542,470 Lewis Avenue,MA,2780
Victoria's Secret,Glen Allen,543,0543 #543,10101 Brook Road,MA,2472
Victoria's Secret,Pembroke Pines,544,0544 #544,11401 Pines Boulevard,MI,49684
Victoria's Secret,West Covina,545,0545 #545,286 Plaza Drive,PA,19063
Victoria's Secret,Rochester,546,0546 #546,250 Greeceridge Center Drive,LA,71104
Victoria's Secret,Moreno Valley,547,0547 #547,22500 Town Circle,CA,92821
Victoria's Secret,Fresno,548,0548 #548,615 E Shaw Avenue,IL,61820
Victoria's Secret,Panama City,549,0549 #549,2150 Martin Luther King Blvd,NV,89109
Victoria's Secret,Bloomington,551,0551 #551,3010 E Third Street,IL,60118
Victoria's Secret,Gretna,552,0552 #552,197 West Bank Expressway,OH,45431
Victoria's Secret,Calumet City,553,0553 #553,159Th Street & Torrence Avenue,CA,91355
Victoria's Secret,Saugus,554,0554 #554,1277 Broadway,CA,94533
Victoria's Secret,West Des Moines,555,0555 #555,1235 Valley West Drive,FL,32114
Victoria's Secret,Staten Island,556,0556 #556,2655 Richmond Avenue,TX,75062
Victoria's Secret,Costa Mesa,557,0557 #557,3333 Bear Street,IN,47715
Victoria's Secret,Greendale,558,0558 #558,5300 S 76Th Street,MN,55425
Victoria's Secret,Billings,559,0559 #559,300 S 24Th Street W,TX,76710
Victoria's Secret,Beaumont,561,0561 #561,6155 Eastex Freeway,OH,44129
Victoria's Secret,Mentor,562,0562 #562,7850 Mentor Avenue,CT,6451
Victoria's Secret,Davenport,563,0563 #563,320 W Kimberly Road,VA,23060
Victoria's Secret,Dover,564,0564 #564,1355 North Dupont Highway,FL,33026
Victoria's Secret,North Riverside,565,0565 #565,7501 W Cermak Road,CA,91790
Victoria's Secret,National City,567,0567 #567,3030 Plaza Bonita Road,NY,14626
Victoria's Secret,Santa Rosa,568,0568 #568,235 Santa Rosa Plaza,CA,92557
Victoria's Secret,Littleton,570,0570 #570,8501 W Bowles Avenue,CA,93710
Victoria's Secret,Brooklyn,571,0571 #571,5373 Kings Plaza,FL,32405
Victoria's Secret,Citrus Heights,572,0572 #572,6041 Sunrise Boulevard,IN,47401
Victoria's Secret,Indianapolis,573,0573 #573,6020 E 82Nd Street,LA,70056
Victoria's Secret,Los Angeles,574,0574 #574,10800 W Pico Boulevard,IL,60409
Victoria's Secret,Greeley,575,0575 #575,2050 Greeley Mall,MA,1906
Victoria's Secret,Bridgeport,576,0576 #576,2390 Meadowbrook Mall,IA,50266
Victoria's Secret,Reston,577,0577 #577,11929 Market Street,NY,10314
Victoria's Secret,Montebello,578,0578 #578,1827 Montebello Boulevard,CA,92626
Victoria's Secret,Biloxi,579,0579 #579,2600 Beach Boulevard,WI,53129
Victoria's Secret,Henderson,580,0580 #580,1300 W Sunset Road,MT,59102
Victoria's Secret,Valley Stream,581,0581 #581,1020 Green Acres Mall,TX,77706
Victoria's Secret,Sioux Falls,582,0582 #582,730 Empire Mall,OH,44060
Victoria's Secret,Akron,583,0583 #583,3265 W Market Street,IA,52806
Victoria's Secret,Glendale,584,0584 #584,7700-1064 Arrowhead Towne,DE,19901
Victoria's Secret,Laguna Hills,585,0585 #585,24155 Laguna Hills Mall,IL,60546
Victoria's Secret,Cranston,586,0586 #586,51 Hillside Road,CA,91950
Victoria's Secret,Alpharetta,587,0587 #587,11350 Haynes Bridge Road,CA,95401
Victoria's Secret,Norridge,588,0588 #588,4132-E N Harlem Avenue,CO,80123
Victoria's Secret,Annapolis,591,0591 #591,30 Annapolis Mall,NY,11234
Victoria's Secret,Wyomissing,592,0592 #592,1665 Bern Road,CA,95610
Victoria's Secret,Newark,593,0593 #593,2054 New Park Mall,IN,46250
Victoria's Secret,Springfield,595,0595 #595,2501 W Wabash Avenue,CA,90064
Victoria's Secret,Bowling Green,596,0596 #596,2625 Scottsville Road,CO,80631
Victoria's Secret,Brandon,597,0597 #597,459 Brandon Town Center,WV,26330
Victoria's Secret,Melbourne,598,0598 #598,1700 W New Haven Avenue,VA,20190
Victoria's Secret,Salinas,599,0599 #599,710 Northridge Mall,CA,90640
Victoria's Secret,Chicago,600,0600 #600,734 N Michigan Avenue,MS,39531
Victoria's Secret,Albuquerque,601,0601 #601,10000 Coors Boulevard Bypass,NV,89014
Victoria's Secret,Saratoga Springs,602,0602 #602,3065 Route 50,NY,11581
Victoria's Secret,Chicago Ridge,603,0603 #603,321 Chicago Ridge Mall,SD,57106
Victoria's Secret,White Plains,604,0604 #604,125 Westchester Avenue,OH,44333
Victoria's Secret,Concord,606,0606 #606,1480 US Highway 29 N,AZ,85308
Victoria's Secret,Natick,607,0607 #607,1245 Worcester Street,CA,92653
Victoria's Secret,Fredericksburg,610,0610 #610,810 Spotsylvania Mall,RI,2920
Victoria's Secret,Spartanburg,611,0611 #611,205 West Blackstock Road,GA,30022
Victoria's Secret,Manhattan Beach,612,0612 #612,3200 Sepulreda Boulevard,IL,60634
Victoria's Secret,Colorado Springs,614,0614 #614,750 Citadel Drive E,MD,21401
Victoria's Secret,Lansing,615,0615 #615,5330 W Saginaw Highway,PA,19610
Victoria's Secret,Hattiesburg,616,0616 #616,1000 Turtle Creek Drive,CA,94560
Victoria's Secret,Puyallup,617,0617 #617,3500 S Meridian,IL,62704
Victoria's Secret,Mary Esther,618,0618 #618,300 Mary Esther Boulevard,KY,42104
Victoria's Secret,Indianapolis,619,0619 #619,49 W Maryland Street,FL,33511
Victoria's Secret,Greenwood,621,0621 #621,1251 US 31,FL,32904
Victoria's Secret,Moline,622,0622 #622,4500 16Th Street,CA,93906
Victoria's Secret,Laredo,623,0623 #623,5300 San Dario Road,IL,60611
Victoria's Secret,Fort Myers,624,0624 #624,4125 Cleveland Avenue,NM,87114
Victoria's Secret,Mcallen,625,0625 #625,2200S 10Th Street,NY,12866
Victoria's Secret,Las Vegas,627,0627 #627,4300 Meadows Lane,IL,60415
Victoria's Secret,High Point,628,0628 #628,921 Eastchester Drive,NY,10601
Victoria's Secret,Newington,629,0629 #629,50 Fox Run Road,NC,28025
Victoria's Secret,South Burlington,630,0630 #630,155 Dorset Street,MA,1760
Victoria's Secret,The Woodlands,631,0631 #631,1201 Lake Woodlands Drive,VA,22407
Victoria's Secret,Lincoln,632,0632 #632,6100 O Street,SC,29301
Victoria's Secret,San Jose,633,0633 #633,2200 Eastridge Loop,CA,90266
Victoria's Secret,Leawood,634,0634 #634,5024 W 119Th Street,CO,80909
Victoria's Secret,Bensalem,635,0635 #635,707 Neshaminy Mall,MI,48917
Victoria's Secret,Palmdale,636,0636 #636,1233 W Rancho Vista Boulevard,MS,39402
Victoria's Secret,Palm Desert,637,0637 #637,72840 Highway 111,WA,98373
Victoria's Secret,St. Cloud,638,0638 #638,4101 W Division Street,FL,32569
Victoria's Secret,Houston,639,0639 #639,2414 University Boulevard,IN,46204
Victoria's Secret,Sanford,640,0640 #640,159 Towne Center Circle,IN,46142
Victoria's Secret,Lynnwood,641,0641 #641,3000 184 Th Street SW,IL,61265
Victoria's Secret,Tuscaloosa,643,0643 #643,1701 Mcfarland Boulevard,TX,78041
Victoria's Secret,Rochester,644,0644 #644,333 Apache Mall,FL,33901
Victoria's Secret,Vineland,645,0645 #645,100 Cumberland Mall,TX,78503
Victoria's Secret,Findlay,647,0647 #647,1800 Tiffin Avenue,NV,89107
Victoria's Secret,Abilene,648,0648 #648,4310 Buffalo Gap Road,NC,27265
Victoria's Secret,Dartmouth,649,0649 #649,111 N Dartmouth Mall,NH,3801
Victoria's Secret,Slidell,651,0651 #651,150 N Shore Boulevard,VT,5403
Victoria's Secret,Cedar Park,652,0652 #652,11200 Lakestop Boulevard,TX,77380
Victoria's Secret,Fort Worth,653,0653 #653,1620 S University Drive,NE,68505
Victoria's Secret,San Antonio,654,0654 #654,6301 NW Loop 410,CA,95122
Victoria's Secret,Plainview,655,0655 #655,407B S Oyster Bay Road,KS,66209
Victoria's Secret,Monaca,656,0656 #656,380 Beavenuer Valley Mall,PA,19020
Victoria's Secret,Sandy,657,0657 #657,10450 S State Street,CA,93551
Victoria's Secret,North Charleston,658,0658 #658,2150 Northwoods Boulevard,CA,92260
Victoria's Secret,Bellingham,660,0660 #660,One Bellis Fair,MN,56301
Victoria's Secret,Greensboro,661,0661 #661,800-B Freindly Center Road,TX,77005
Victoria's Secret,Amarillo,662,0662 #662,7701 W I-40,FL,32771
Victoria's Secret,Visalia,663,0663 #663,2031 South Mooney Boulevard,WA,98037
Victoria's Secret,Harrisonburg,664,0664 #664,1925 E Market Street,AL,35405
Victoria's Secret,Rocky Mount,665,0665 #665,1100 N Wesleyan Boulevard,MN,55902
Victoria's Secret,Houston,666,0666 #666,3942 Westheimer Road,NJ,8360
Victoria's Secret,Avon,667,0667 #667,380 W Main Street,OH,45840
Victoria's Secret,El Paso,668,0668 #668,6101 Gateway Boulevard W,TX,79606
Victoria's Secret,Greenville,669,0669 #669,714 E Greenville Boulevard,MA,2747
Victoria's Secret,Chula Vista,670,0670 #670,555 Broadway Avenue,LA,70460
Victoria's Secret,Taylor,672,0672 #672,23000 Eureka Road,TX,78613
Victoria's Secret,Dothan,673,0673 #673,900 Commons Drive,TX,76107
Victoria's Secret,Bayside,675,0675 #675,213-25 - 26Th Avenue,TX,78238
Victoria's Secret,Lafayette,676,0676 #676,2415 Sagamore Parkway S,NY,11803
Victoria's Secret,Vancouver,677,0677 #677,8700 NE Vancouver Mall Drive,PA,15061
Victoria's Secret,Racine,678,0678 #678,5660 Durand Avenue,UT,84070
Victoria's Secret,Downey,679,0679 #679,362 Stonewood Street,SC,29406
Victoria's Secret,Tracy,680,0680 #680,320 Naglee Road,WA,98226
Victoria's Secret,Ogden,681,0681 #681,3651 Wall Avenue,NC,27408
Victoria's Secret,Anderson,682,0682 #682,3101 N Main Street,TX,79121
Victoria's Secret,Colorado Springs,683,0683 #683,1710 Briargate Boulevard,CA,93277
Victoria's Secret,Enfield,684,0684 #684,90 Elm Street,VA,22801
Victoria's Secret,Seattle,685,0685 #685,401 NE Northgate Way,NC,27804
Victoria's Secret,Bay Shore,686,0686 #686,1701 Sunrise Highway,TX,77027
Victoria's Secret,Cheyenne,687,0687 #687,1400 Dell Range Boulevard,CT,6001
Victoria's Secret,Lake Wales,688,0688 #688,706 Eagle Ridge Drive,TX,79925
Victoria's Secret,Salem,689,0689 #689,480 Center Street NE,NC,27858
Victoria's Secret,Columbia,691,0691 #691,2300 Bernadette Drive,CA,91910
Victoria's Secret,Las Cruces,693,0693 #693,700 S Telshor Boulevard,MI,48180
Victoria's Secret,Bossier City,694,0694 #694,2950 E Texas Street,AL,36303
Victoria's Secret,Morgantown,695,0695 #695,9500 Mall Road,NY,11360
Victoria's Secret,Cedar Rapids,696,0696 #696,4444 First Avenue NE,IN,47905
Victoria's Secret,Glastonbury,697,0697 #697,140 Glastonbury Boulevard,WA,98662
Victoria's Secret,Westland,698,0698 #698,35000 W Warren Road,WI,53406
Victoria's Secret,Sandusky,699,0699 #699,4314 Milan Road,CA,90241
Victoria's Secret,San Luis Obispo,701,0701 #701,898 Higura Street,CA,95304
Victoria's Secret,Niles,702,0702 #702,261 Golf Mill Shop Court,UT,84405
Victoria's Secret,Alexandria,703,0703 #703,3437 Masonic Drive,SC,29621
Victoria's Secret,Chico,704,0704 #704,1905 E 20Th Street,CO,80920
Victoria's Secret,Marlborough,705,0705 #705,580 Donald Lynch Boulevard,CT,6082
Victoria's Secret,Moorestown,706,0706 #706,400 Route 38,WA,98125
Victoria's Secret,Troy,707,0707 #707,2800 W Big Beaver Road,NY,11706
Victoria's Secret,Elyria,708,0708 #708,4417 Midway Mall,WY,82009
Victoria's Secret,Montgomery,709,0709 #709,1067 Eastdale Mall,FL,33853
Victoria's Secret,Miami Lakes,710,0710 #710,6800 Main Street,OR,97301
Victoria's Secret,Sugar Land,711,0711 #711,16535 Southwest Freeway,MO,65203
Victoria's Secret,Harlingen,712,0712 #712,2000 S Expressway 83,NM,88011
Victoria's Secret,Joliet,713,0713 #713,3340 Mall Loop Drive,LA,71111
Victoria's Secret,Torrance,714,0714 #714,21880 Hawthorne Boulevard,WV,26501
Victoria's Secret,Bismarck,716,0716 #716,600 S 5Th Street,IA,52402
Victoria's Secret,Jackson,717,0717 #717,2021 N Highland Avenue,CT,6033
Victoria's Secret,Redmond,718,0718 #718,16495 NE 74Th,MI,48185
Victoria's Secret,Fayetteville,720,0720 #720,4201 N Shiloh Drive,OH,44870
Victoria's Secret,Culver City,721,0721 #721,6000 Sepulveda Boulevard,CA,93401
Victoria's Secret,East Brunswick,722,0722 #722,755 State Route 18,IL,60714
Victoria's Secret,Littleton,723,0723 #723,8505 Park Meadows Ctr Drive,LA,71301
Victoria's Secret,Ocoee,724,0724 #724,9401 West Colonial Drive,CA,95928
Victoria's Secret,Sioux City,725,0725 #725,4400 Sergeant Road,MA,1752
Victoria's Secret,Rapid City,726,0726 #726,2200 N Maple,NJ,8057
Victoria's Secret,Grand Forks,727,0727 #727,2800 Columbia Road,MI,48084
Victoria's Secret,Fort Smith,729,0729 #729,5111 Rogers Avenue,OH,44035
Victoria's Secret,Memphis,730,0730 #730,2760 N Germantown Parkway,AL,36117
Victoria's Secret,Medford,731,0731 #731,1600 N Riverside Avenue,FL,33014
Victoria's Secret,Rome,732,0732 #732,2770 Martha Berry Highway,TX,77479
Victoria's Secret,Yorktown Heights,733,0733 #733,650 Lee Boulevard,TX,78552
Victoria's Secret,Duluth,734,0734 #734,1600 Miller Truck Highway,IL,60435
Victoria's Secret,Lancaster,735,0735 #735,1635 River Valley Circle,CA,90503
Victoria's Secret,Spokane,736,0736 #736,14700 E Indiana Avenue,ND,58504
Victoria's Secret,Vero Beach,737,0737 #737,6200 20Th Street,TN,38305
Victoria's Secret,Meridian,739,0739 #739,1000 Bonita Lakes Circle,WA,98052
Victoria's Secret,Albany,741,0741 #741,2601 Dawson Road,AR,72703
Victoria's Secret,Chattanooga,742,0742 #742,271 Northgate Mall,CA,90230
Victoria's Secret,Paducah,743,0743 #743,5101 Hinkleville Road,NJ,8816
Victoria's Secret,Leominster,744,0744 #744,100 Commercial Road,CO,80124
Victoria's Secret,Orlando,745,0745 #745,9101 International Drive,FL,34761
Victoria's Secret,Fort Collins,746,0746 #746,215 East Foothills Parkway,IA,51106
Victoria's Secret,Silverdale,747,0747 #747,10315 Silverdale Way NW,SD,57701
Victoria's Secret,Eureka,748,0748 #748,3300 Broadway,ND,58201
Victoria's Secret,Santa Fe,749,0749 #749,4250 Cerrillos Road,AR,72903
Victoria's Secret,Longview,750,0750 #750,3500 Mccann Road,TN,38133
Victoria's Secret,Kennewick,751,0751 #751,556 Columbia Center Boulevard,OR,97501
Victoria's Secret,Charleston,752,0752 #752,254 King Street,GA,30161
Victoria's Secret,Green Bay,753,0753 #753,2481 Oneida Street,NY,10598
Victoria's Secret,Flagstaff,754,0754 #754,4650 N Highway 89,MN,55811
Victoria's Secret,Bangor,755,0755 #755,663 Stillwater Avenue,OH,43130
Victoria's Secret,Texarkana,756,0756 #756,29 Central Mall,WA,99216
Victoria's Secret,Ames,758,0758 #758,2801 Grand Avenue,FL,32966
Victoria's Secret,Strongsville,759,0759 #759,128 Southpark Center,MS,39301
Victoria's Secret,Cedar Falls,762,0762 #762,6301 University Avenue,GA,31707
Victoria's Secret,Jackson,763,0763 #763,1850 W Michigan Avenue,TN,37415
Victoria's Secret,Missoula,765,0765 #765,2901 Brooks Street,KY,42001
Victoria's Secret,Kingston,766,0766 #766,1300 Ulster Avenue,MA,1453
Victoria's Secret,Lake Charles,768,0768 #768,496 W Prien Lake Road,FL,32819
Victoria's Secret,St. Peters,769,0769 #769,2400 Mid Rivers Mall,CO,80525
Victoria's Secret,Dublin,770,0770 #770,5043 Tuttle Crossing Boulevard,WA,98383
Victoria's Secret,Cincinnati,771,0771 #771,4601/200 Eastgate Boulevard,CA,95501
Victoria's Secret,Norfolk,772,0772 #772,880 N Military Highway,NM,87505
Victoria's Secret,Scranton,773,0773 #773,300 Mall At Steamtown,TX,75605
Victoria's Secret,New York,774,0774 #774,591-593 Broadway,WA,99336
Victoria's Secret,Great Falls,776,0776 #776,1200 10Th Avenue S,SC,29401
Victoria's Secret,Johnson City,777,0777 #777,2011 N Roan Street,WI,54304
Victoria's Secret,Lanesborough,778,0778 #778,Old State Road & Route 8,AZ,86001
Victoria's Secret,Rockford,779,0779 #779,7200 Harrison Avenue,ME,4401
Victoria's Secret,New York,780,0780 #780,115 5Th Avenue,TX,75501
Victoria's Secret,Muncie,781,0781 #781,3501 N Granville Avenue,IA,50010
Victoria's Secret,Mankato,782,0782 #782,1850 Adams Street,OH,44136
Victoria's Secret,Midland,783,0783 #783,4511 N Midkiff Drive,IA,50613
Victoria's Secret,Temple,784,0784 #784,3111 S 31 Street,MI,49202
Victoria's Secret,Bloomington,785,0785 #785,60 E Broadway,MT,59801
Victoria's Secret,Elmhurst,787,0787 #787,90-15 Queens Boulevard,NY,12401
Victoria's Secret,Bel Air,790,0790 #790,696A Bel Air Road,LA,70601
Victoria's Secret,Baton Rouge,793,0793 #793,6401 Bluebonnet Boulevard,MO,63376
Victoria's Secret,Danville,796,0796 #796,325 Piedmont Drive,OH,43016
Victoria's Secret,Valdosta,797,0797 #797,1700 Norman Drive,OH,45245
Victoria's Secret,West Nyack,798,0798 #798,1482 Palisades Center Drive,VA,23502
Victoria's Secret,Mansfield,799,0799 #799,708 Richland Mall,PA,18503
Victoria's Secret,King Of Prussia,800,0800 #800,160 N Gulph Road,NY,10012
Victoria's Secret,Killeen,801,0801 #801,2100 South W S Young Drive,MT,59405
Victoria's Secret,Independence,803,0803 #803,2035 Independence Center Drive,TN,37601
Victoria's Secret,Birmingham,804,0804 #804,209 Summit Boulevard,MA,1237
Victoria's Secret,Fort Myers,805,0805 #805,13499 US 41 SE,IL,61112
Victoria's Secret,South Miami,806,0806 #806,5701 Sunset Drive,NY,10003
Victoria's Secret,Murfreesboro,807,0807 #807,1720 Old Fort Parkway,IN,47303
Victoria's Secret,Wilkes Barre,808,0808 #808,20 Wyoming Valley Mall,MN,56001
Victoria's Secret,Rutland,812,0812 #812,1 Route 7 South,TX,79705
Victoria's Secret,Denver,815,0815 #815,500 Sixteenth Street,TX,76502
Victoria's Secret,Tacoma,816,0816 #816,4502 S Steele Street,MN,55425
Victoria's Secret,La Crosse,817,0817 #817,3800 State Road 16,NY,11373
Victoria's Secret,Zanesville,820,0820 #820,3575 N Maple Avenue,MD,21014
Victoria's Secret,Wausau,825,0825 #825,C-302 Wausau Center,LA,70836
Victoria's Secret,Hagerstown,826,0826 #826,17301 Valley Mall Road,VA,24540
Victoria's Secret,Myrtle Beach,827,0827 #827,1206 Celebrity Circle,GA,31601
Victoria's Secret,Clarksville,828,0828 #828,2801 Wilma Rudolph Boulevard,NY,10994
Victoria's Secret,Houma,829,0829 #829,5953 West Park Avenue,OH,44906
Victoria's Secret,Dubuque,830,0830 #830,555 JFK Road,PA,19406
Victoria's Secret,Janesville,831,0831 #831,2500 Milton Avenue,TX,76543
Victoria's Secret,Florence,832,0832 #832,301 Cox Creek Parkway,MO,64057
Victoria's Secret,Waterbury,833,0833 #833,451 Union Street,AL,35243
Victoria's Secret,Horseheads,834,0834 #834,3300 Chambers Road S,FL,33907
Victoria's Secret,Saginaw,835,0835 #835,4787 Fashion Square Mall,FL,33143
Victoria's Secret,Johnstown,839,0839 #839,500 Galleria Drive,TN,37133
Victoria's Secret,Philadelphia,840,0840 #840,1625 Chesnut Street,PA,18702
Victoria's Secret,Oviedo,841,0841 #841,1650 Oviedo Marketplace Blvd,VT,5701
Victoria's Secret,Auburn,843,0843 #843,385 Southbridge Street,CO,80202
Victoria's Secret,Watertown,844,0844 #844,21182 Salmon Run Mall Loop W,WA,98409
Victoria's Secret,Hurst,846,0846 #846,1101 Melbourne Road,WI,54601
Victoria's Secret,Lincoln,848,0848 #848,Pine Lake Road & 27Th Street,OH,43701
Victoria's Secret,Decatur,849,0849 #849,1801 Beltline Road SW,WI,54403
Victoria's Secret,Tampa,850,0850 #850,8059 Citrus Park Town Mall,MD,21740
Victoria's Secret,Marlton,852,0852 #852,300 Route 73,SC,29577
Victoria's Secret,Southlake,853,0853 #853,129 Grand Avenue,TN,37040
Victoria's Secret,San Antonio,854,0854 #854,11745 Interstate Highway 10 W,LA,70364
Victoria's Secret,Seattle,857,0857 #857,600 Pine Street,IA,52002
Victoria's Secret,Marietta,859,0859 #859,4493 Roswell Road,WI,53545
Victoria's Secret,Peachtree City,860,0860 #860,Ga Highway 54 At Ga Highway 74,AL,35630
Victoria's Secret,Wichita,861,0861 #861,2000 North Rock Road,CT,6706
Victoria's Secret,Provo,864,0864 #864,4801 N University Avenue,NY,14845
Victoria's Secret,Bend,865,0865 #865,520 SW Powerhouse Drive,MI,48604
Victoria's Secret,Provo,866,0866 #866,1200 Towne Centre Boulevard,PA,15904
Victoria's Secret,Parkersburg,867,0867 #867,100 Grand Central Mall,PA,19103
Victoria's Secret,Oxford,868,0868 #868,700 Quintard Drive,FL,32765
Victoria's Secret,Buford,869,0869 #869,3333 Buford Drive,MA,1501
Victoria's Secret,Selinsgrove,870,0870 #870,Route 11 & 15,NY,13601
Victoria's Secret,Bloomsburg,871,0871 #871,225 Columbia Mall Drive,TX,76053
Victoria's Secret,Muncy,872,0872 #872,Junction Route 220 & I-180,NE,68516
Victoria's Secret,San Antonio,873,0873 #873,255 E Basse Road,AL,35601
Victoria's Secret,Providence,874,0874 #874,100 Francis Street,FL,33625
Victoria's Secret,Norman,875,0875 #875,3441 West Main Street,NJ,8053
Victoria's Secret,Coralville,877,0877 #877,1451 Coral Ridge Avenue,TX,76092
Victoria's Secret,Everett,878,0878 #878,East Everett Mall Way,TX,78230
Victoria's Secret,Temecula,899,0899 #899,40820 Winchester Road,WA,98101
Victoria's Secret,Sea Girt,1002,01002 #1002,2150 State Hgwy 35,GA,30062
Victoria's Secret,Waterloo,1030,01030 #1030,124 Cross Roads Center,GA,30269
Victoria's Secret,Richmond,1031,01031 #1031,3801 National Road East,KS,67206
Victoria's Secret,Norfolk,1032,01032 #1032,300 Monticello Avenue,UT,84604
Victoria's Secret,Dulles,1033,01033 #1033,21100 Dulles Town Circle,OR,97702
Victoria's Secret,Astoria,1035,01035 #1035,31-35 Steinway Street,UT,84603
Victoria's Secret,Olympia,1039,01039 #1039,625 Black Lake Boulevard SW,WV,26101
Victoria's Secret,Council Bluffs,1040,01040 #1040,1751 Madison Avenue,AL,36203
Victoria's Secret,Peru,1041,01041 #1041,3940 Route 251,GA,30519
Victoria's Secret,Salina,1042,01042 #1042,2259 S 9Th Street,PA,17870
Victoria's Secret,Douglasville,1043,01043 #1043,6700 Douglass Boulevard,PA,17815
Victoria's Secret,Richmond Heights,1044,01044 #1044,691 Richmond Road,PA,17756
Victoria's Secret,Yonkers,1045,01045 #1045,2040 Mall Walk,TX,78209
Victoria's Secret,St Clairsville,1046,01046 #1046,Ohio Valley Mall,RI,2903
Victoria's Secret,Lawton,1047,01047 #1047,125 Central Mall,OK,73072
Victoria's Secret,Gadsden,1048,01048 #1048,1001 Rainbow Drive,IA,52241
Victoria's Secret,Mt Pleasant,1049,01049 #1049,1728 Towne Centre Way,WA,98208
Victoria's Secret,Woodcliff,1050,01050 #1050,415 Chestnut Ridge Road,CA,92591
Victoria's Secret,Holland,1051,01051 #1051,12331 James St,NJ,8750
Victoria's Secret,Grand Island,1052,01052 #1052,3404 W 13Th Street,IA,50702
Victoria's Secret,Lexington,1053,01053 #1053,2308 Sir Barton Drive,IN,47374
Victoria's Secret,Hot Springs,1054,01054 #1054,4501 Central Avenue,VA,23510
Victoria's Secret,Lufkin,1060,01060 #1060,4600 S Medford Drive,VA,20166
Victoria's Secret,Auburn,1061,01061 #1061,1627 Opelika Road,NY,11103
Victoria's Secret,Allentown,1062,01062 #1062,3300 Lehigh Street,WA,98502
Victoria's Secret,Pottstown,1063,01063 #1063,Route 100 & 724 Bypass,IA,51503
Victoria's Secret,Sumter,1066,01066 #1066,1057 Broad Street,IL,61354
Victoria's Secret,Louisville,1067,01067 #1067,4801 Outer Loop,KS,67401
Victoria's Secret,Lakewood,1068,01068 #1068,318 E Fairmount Avenue,GA,30135
Victoria's Secret,Heath,1069,01069 #1069,771 S 30Th Street,OH,44143
Victoria's Secret,Roseville,1072,01072 #1072,1151 Galleria Boulevard,NY,10704
Victoria's Secret,Grandville,1073,01073 #1073,4700 Wilson Avenue,OH,43950
Victoria's Secret,Deer Park,1074,01074 #1074,20530 N Rand Road,OK,73501
Victoria's Secret,Idaho Falls,1075,01075 #1075,2300 E 17Th Street,AL,35901
Victoria's Secret,Sherman,1082,01082 #1082,4800 N Texoma Parkway,SC,29464
Victoria's Secret,Hayward,1083,01083 #1083,1 Southland Mall Drive,NJ,7677
Victoria's Secret,Broomfield,1084,01084 #1084,One Flatiron Circle,MI,49424
Victoria's Secret,Layton,1085,01085 #1085,2080 Layton Hills,NE,68803
Victoria's Secret,Bourbonnais,1087,01087 #1087,1600 N State Road 50,KY,40509
Victoria's Secret,Wichita,1088,01088 #1088,4600 W Kellogg Drive,AR,71913
Victoria's Secret,Lima,1089,01089 #1089,2400 Elida Road & US 30 S,TX,75901
Victoria's Secret,Christiansburg,1090,01090 #1090,858 New River Road,AL,36830
Victoria's Secret,Ocala,1091,01091 #1091,3100 SW College Road,PA,18103
Victoria's Secret,Washington,1092,01092 #1092,1500 W Chestnut Street,PA,19465
Victoria's Secret,Chambersburg,1093,01093 #1093,926 Chambersburg Mall,SC,29150
Victoria's Secret,Ventura,1099,01099 #1099,3301 E Main Street,KY,40219
Victoria's Secret,Grand Junction,1101,01101 #1101,2424 US Highway 6 And 50,NY,14750
Victoria's Secret,Auburn Hills,1102,01102 #1102,4756 Baldwin Road,OH,43056
Victoria's Secret,Blaine,1104,01104 #1104,University Avenue N & Hwy 10,CA,95678
Victoria's Secret,Kingsport,1105,01105 #1105,2101 Fort Henry Drive,MI,49418
Victoria's Secret,Sierra Vista,1107,01107 #1107,2200 El Mercado Loop,IL,60010
Victoria's Secret,Orem,1108,01108 #1108,575 East University Parkway,ID,83404
Victoria's Secret,Manhattan,1109,01109 #1109,115 Manhattan Town Center,TX,75090
Victoria's Secret,Battle Creek,1110,01110 #1110,5775 Beckley Road,CA,94545
Victoria's Secret,Las Vegas,1113,01113 #1113,3667 Las Vegas Boulevard,CO,80021
Victoria's Secret,Port Richey,1114,01114 #1114,9409 Highway 19,UT,84041
Victoria's Secret,San Angelo,1116,01116 #1116,4001 Southwest Boulevard,IL,60914
Victoria's Secret,Salt Lake City,1117,01117 #1117,78 South Rio Grande,KS,67209
Victoria's Secret,Frisco,1119,01119 #1119,2601 Preston Road,OH,45805
Victoria's Secret,Forest Hills,1121,01121 #1121,71-26 & 71-36 Austin Street,VA,24073
Victoria's Secret,Mason City,1122,01122 #1122,100 S Federal Avenue,FL,34474
Victoria's Secret,Terre Haute,1123,01123 #1123,3401 US Highway 41 S,PA,15301
Victoria's Secret,Jacksonville,1124,01124 #1124,340 Jacksonville Mall,PA,17202
Victoria's Secret,Bradenton,1125,01125 #1125,303 And 301 Boulevard West,CA,93003
Victoria's Secret,Miami Beach,1126,01126 #1126,901 Lincoln Road,CO,81505
Victoria's Secret,San Bernardino,1127,01127 #1127,500 Inland Center Drive,MN,55434
Victoria's Secret,Coconut Grove,1128,01128 #1128,3015 Grand Avenue,TN,37664
Victoria's Secret,Bridgehampton,1129,01129 #1129,Montauk & Snake,AZ,85635
Victoria's Secret,Mandeville,1130,01130 #1130,3414 Highway 190,UT,84097
Victoria's Secret,Elizabeth,1131,01131 #1131,1000 Kaplowski Drive,KS,66502
Victoria's Secret,Brockton,1133,01133 #1133,200 Westgate Drive,MI,49015
Victoria's Secret,Lebanon,1142,01142 #1142,2231 Lebanon Valley Rte 422 W,NV,89109
Victoria's Secret,Frackville,1143,01143 #1143,830 Schuylkill Mall,FL,34668
Victoria's Secret,Stockton,1144,01144 #1144,4950 Pacific Avenue,TX,76904
Victoria's Secret,Cape Girardeau,1145,01145 #1145,134 West Park Mall,UT,84101
Victoria's Secret,Easton,1147,01147 #1147,123 Palmer Park Mall,TX,75034
Victoria's Secret,Redding,1148,01148 #1148,900 Dana Drive,NY,11375
Victoria's Secret,Ashland,1151,01151 #1151,500 Winchester Avenue,IA,50401
Victoria's Secret,Tulsa,1153,01153 #1153,4107 S Yale Avenue,IN,47802
Victoria's Secret,Edgewater,1154,01154 #1154,54 The Promenade,NC,28546
Victoria's Secret,Oceanside,1157,01157 #1157,3527 N Long Beach Road,FL,34205
Victoria's Secret,Brownsville,1158,01158 #1158,2370 North Expressway,FL,33139
Victoria's Secret,Midland,1161,01161 #1161,6800 Eastman Avenue,CA,92408
Victoria's Secret,Muskegon,1163,01163 #1163,5600 Harvey Street,NY,11932
Victoria's Secret,Oklahoma City,1164,01164 #1164,7000 Cross Roads Boulevard,LA,70471
Victoria's Secret,Jefferson City,1165,01165 #1165,3600 Country Club Drive,MA,2301
Victoria's Secret,Rock Hill,1166,01166 #1166,2301 N Davenue Lyle Boulevard,PA,17042
Victoria's Secret,Centerville,1167,01167 #1167,2922 Watson Boulevard,PA,17931
Victoria's Secret,Dallas,1169,01169 #1169,5331 E Mockingbird Lane,CA,95207
Victoria's Secret,Houston,1170,01170 #1170,5400 Fm 1960 West,MO,63703
Victoria's Secret,Burlington,1180,01180 #1180,201 Cascade Mall Drive,PA,18045
Victoria's Secret,Homestead,1183,01183 #1183,229 West Bridge Street,CA,96003
Victoria's Secret,Emeryville,1184,01184 #1184,5672 Bay Street,KY,41101
Victoria's Secret,Hollywood,1187,01187 #1187,6801 Hollywood Boulevard,OK,74135
Victoria's Secret,Flowood,1188,01188 #1188,140 Dogwood Place,NJ,7020
Victoria's Secret,Bowie,1189,01189 #1189,15501 Emerald Way,NY,11572
Victoria's Secret,Wichita Falls,1190,01190 #1190,3111 Midwestern Parkway,TX,78520
Victoria's Secret,Victorville,1191,01191 #1191,14400 Bear Valley Road,MI,48642
Victoria's Secret,Lithonia,1192,01192 #1192,8000 Mall Pkway,MI,49444
Victoria's Secret,Kansas City,1206,01206 #1206,455 Nichols Road,OK,73149
Victoria's Secret,Eden Prairie,1207,01207 #1207,125 Eden Prairie Center,MO,65109
Victoria's Secret,Antioch,1208,01208 #1208,2556 Somersville Road,SC,29730
Victoria's Secret,Minot,1209,01209 #1209,2400 10Th Street SW,GA,31028
Victoria's Secret,Bozeman,1210,01210 #1210,2825 W Main Street,TX,75206
Victoria's Secret,New York,1211,01211 #1211,901 Avenue Of The Americas,TX,77069
Victoria's Secret,Pittsburgh,1213,01213 #1213,3000 Robinson Centre Drive,WA,98233
Victoria's Secret,Glen Mills,1214,01214 #1214,933 Baltimore Pike,PA,15120
Victoria's Secret,Wellington,1218,01218 #1218,10300 W Forest Hills Boulevard,CA,94608
Victoria's Secret,Tampa,1219,01219 #1219,2223 N Westshore Boulevard,CA,90028
Victoria's Secret,Plano,1221,01221 #1221,6121 West Park Boulevard,MS,39208
Victoria's Secret,New York,1237,01237 #1237,2333 Broadway,MD,20716
Victoria's Secret,Kokomo,1241,01241 #1241,1114 17Th Street,TX,76308
Victoria's Secret,Salem,1242,01242 #1242,831 Lancaster Drive NE,CA,92392
Victoria's Secret,Westfield,1244,01244 #1244,233 E Broad Street,GA,30038
Victoria's Secret,Orlando,1245,01245 #1245,8001 S Orange Blossom Trail,MO,64112
Victoria's Secret,Fort Wayne,1249,01249 #1249,4210 W Jefferson Boulevard,MN,55344
Victoria's Secret,Huntersville,1252,01252 #1252,16805 Birkdale Commons Parkway,CA,94509
Victoria's Secret,Chandler,1253,01253 #1253,3111 W Chandler Boulevard,ND,58701
Victoria's Secret,New York,1255,01255 #1255,165 E 86th Street,MT,59718
Victoria's Secret,Elizabethtown,1256,01256 #1256,1704 N Dixie Highway,NY,10001
Victoria's Secret,Quincy,1257,01257 #1257,Broadway & 33Rd Street,PA,15205
Victoria's Secret,Prescott,1258,01258 #1258,3306 Gateway Boulevard,PA,19342
Victoria's Secret,Chicago,1260,01260 #1260,913-949 West North Avenue,FL,33414
Victoria's Secret,Scottsdale,1261,01261 #1261,15054 N. Scottsdale Road,FL,33607
Victoria's Secret,Clovis,1264,01264 #1264,1050 Shaw Avenue,TX,75093
Victoria's Secret,Doral Branch,1265,01265 #1265,1455 NW 107Th Avenue,NY,10024
Victoria's Secret,Durham,1266,01266 #1266,6910 Fayetteville Road,IN,46902
Victoria's Secret,Louisville,1268,01268 #1268,4230 Summit Plaza Drive,OR,97301
Victoria's Secret,Indianapolis,1270,01270 #1270,10202 E Washington Street,NJ,7090
Victoria's Secret,Huntsville,1272,01272 #1272,2801 Memorial Parkway,IN,46804
Victoria's Secret,Montgomery,1273,01273 #1273,6850 Eastchase Parkway,NC,28078
Victoria's Secret,Carlsbad,1274,01274 #1274,1923 Calle Barcelone,AZ,85226
Victoria's Secret,Santa Monica,1275,01275 #1275,1247 Third Street Promenade,NY,10028
Victoria's Secret,Los Angeles,1280,01280 #1280,1046 Westwood Boulevard,KY,42701
Victoria's Secret,Westlake,1282,01282 #1282,117 Main Street,IL,62301
Victoria's Secret,Destin,1283,01283 #1283,4130 Legendary Drive,AZ,86303
Victoria's Secret,Miami,1284,01284 #1284,11401 NW 12Th Street,IL,60622
Victoria's Secret,Clarksville,1285,01285 #1285,717 E Highway 131,AZ,85254
Victoria's Secret,Mt. Hope,1286,01286 #1286,2 Cross Roads Mall,CA,93612
Victoria's Secret,Des Peres,1287,01287 #1287,44 W County Road,NC,27713
Victoria's Secret,Geneva,1291,01291 #1291,318 Commons Drive,KY,40241
Victoria's Secret,Southbury,1294,01294 #1294,775 S Main Street,IN,46229
Victoria's Secret,Twin Falls,1298,01298 #1298,1485 Poleline Road E,AL,35801
Victoria's Secret,Coral Gables,1299,01299 #1299,360-38 Avenue San Lorenzo,AL,36117
Victoria's Secret,Columbus,1300,01300 #1300,3995 New Bond Street,CA,92009
Victoria's Secret,Orlando,1302,01302 #1302,4200 Conroy Road,CA,90401
Victoria's Secret,Raleigh,1303,01303 #1303,5959 Triangle Town Boulevard,CA,90024
Victoria's Secret,Rochester Hills,1304,01304 #1304,280 N Adams Road,OH,44145
Victoria's Secret,East Lansing,1305,01305 #1305,3029 Preyde Road,FL,32541
Victoria's Secret,Federal Way,1307,01307 #1307,1909 S Commons,FL,33172
Victoria's Secret,Lake Jackson,1309,01309 #1309,100 W Highway 332,IN,47129
Victoria's Secret,Norcross,1312,01312 #1312,5145 Peachtree Parkway,WV,25880
Victoria's Secret,Colorado Springs,1313,01313 #1313,1845 Briargate Parkway,MO,63131
Victoria's Secret,Lakewood,1314,01314 #1314,390 South Teller Street,IL,60134
Victoria's Secret,Richmond,1315,01315 #1315,11800 W Broad Street,CT,6488
Victoria's Secret,Maple Grove,1317,01317 #1317,12241 Elm Creek Boulevard,ID,83301
Victoria's Secret,San Antonio,1318,01318 #1318,2310 SW Military Drive,FL,33146
Victoria's Secret,Victoria,1319,01319 #1319,7800 N Navarro Street,OH,43219
Victoria's Secret,Myrtle Beach,1320,01320 #1320,918 Coastal Grand Circle,FL,32839
Victoria's Secret,Hingham,1322,01322 #1322,94 Derby Street,NC,27616
Victoria's Secret,Atlanta,1323,01323 #1323,230 18Th Street,MI,48309
Victoria's Secret,Richmond,1324,01324 #1324,9200 Stony Point Parkway,MI,48912
Victoria's Secret,Seattle,1325,01325 #1325,2676 NE University Village Street,WA,98003
Victoria's Secret,El Centro,1326,01326 #1326,3451 South Dogwood,TX,77566
Victoria's Secret,Rancho Cucamonga,1327,01327 #1327,12510 S Main St,GA,30092
Victoria's Secret,Spanish Fort,1328,01328 #1328,30500 Highway 181,CO,80920
Victoria's Secret,Kansas City,1329,01329 #1329,7301 NW 86Th Terrace,CO,80226
Victoria's Secret,Ithaca,1330,01330 #1330,40 Catherwood Road,VA,23223
Victoria's Secret,Tucson,1331,01331 #1331,2905 East Skyline Drive,MN,55369
Victoria's Secret,West Des Moines,1333,01333 #1333,101 74Th Street,TX,78224
Victoria's Secret,Charlotte,1334,01334 #1334,6801 Northlake Mall Drive,TX,77904
Victoria's Secret,Collierville,1336,01336 #1336,4600 S Houston Levee Road,SC,29577
Victoria's Secret,San Antonio,1337,01337 #1337,15900 La Cantra Parkway,MA,2043
Victoria's Secret,San Bruno,1338,01338 #1338,1140 El Camino Real,GA,30363
Victoria's Secret,Algonquin,1339,01339 #1339,1964 South Randall Rd.,VA,23235
Victoria's Secret,Simi Valley,1340,01340 #1340,1555 Simi Valley Town Center,WA,98105
Victoria's Secret,Carmel,1341,01341 #1341,14360 Clay Terrace Boulevard,CA,92243
Victoria's Secret,Jacksonville,1342,01342 #1342,4742 River City Drive,CA,91730
Victoria's Secret,Orange,1343,01343 #1343,20 City Boulevard West,AL,36527
Victoria's Secret,Loveland,1344,01344 #1344,5879 Sky Pond Drive,MO,64152
Victoria's Secret,Corona,1345,01345 #1345,2790 Cabot Drive,NY,14850
Victoria's Secret,Woodbury,1346,01346 #1346,9120 Hudson Road,AZ,85718
Victoria's Secret,Reno,1347,01347 #1347,13945 South Virginia Street,IA,50266
Victoria's Secret,Denver,1349,01349 #1349,8370 East 49Th Avenue,NC,28216
Victoria's Secret,New York,1350,01350 #1350,1328 Broadway,TN,38017
Victoria's Secret,Garland,1351,01351 #1351,340 Cedar Sage Drive,TX,78256
Victoria's Secret,Plainfield,1352,01352 #1352,351 Metropolis,CA,94066
Victoria's Secret,Atlantic City,1353,01353 #1353,1 Atlantic Ocean Avenue,IL,60102
Victoria's Secret,Aurora,1354,01354 #1354,6200 South Main Street,CA,93063
Victoria's Secret,Estero,1356,01356 #1356,23151 Fashion Drive,IN,46033
Victoria's Secret,Tarentum,1357,01357 #1357,176 Pittsburgh Mills Circle,FL,32246
Victoria's Secret,Jonesboro,1358,01358 #1358,3000 E Highland Drive,CA,92868
Victoria's Secret,Boston,1359,01359 #1359,82 Newbury Street,CO,80538
Victoria's Secret,Las Vegas,1360,01360 #1360,6543 Las Vegas Boulevard South,CA,92883
Victoria's Secret,Boulder,1361,01361 #1361,1850 Twenty Ninth Street,MN,55125
Victoria's Secret,Rogers,1362,01362 #1362,3951 Perry Road,NV,89511
Victoria's Secret,Norwood,1363,01363 #1363,2655 Edmondson Road,CO,80238
Victoria's Secret,Crestview Hills,1364,01364 #1364,2857 Town Center Boulevard,NY,10001
Victoria's Secret,Maumee,1365,01365 #1365,3100 Main Street,TX,75040
Victoria's Secret,Chula Vista,1366,01366 #1366,2015 Birch Road,IN,46168
Victoria's Secret,San Antonio,1367,01367 #1367,22714 YS Highway 281 N,NJ,8401
Victoria's Secret,Gilbert,1368,01368 #1368,2126 E Williamsfield Road,CO,80016
Victoria's Secret,Snellville,1370,01370 #1370,1350 Scenic Highway,FL,33928
Victoria's Secret,Beavercreek,1371,01371 #1371,4443 Glengarry Drive,PA,15084
Victoria's Secret,Knoxville,1372,01372 #1372,11281 Parkside Drive,AR,72401
Victoria's Secret,Bolingbrook,1373,01373 #1373,641 East Boughton Road,MA,2116
Victoria's Secret,Columbia,1374,01374 #1374,481 Town Center Place,NV,89119
Victoria's Secret,Bee Cave,1375,01375 #1375,12800 Highway 71,CO,80301
Victoria's Secret,Plattsburgh,1377,01377 #1377,60 Smithfield Boulevard,AR,72758
Victoria's Secret,Highland Village,1378,01378 #1378,4081 Waller Creek Road,OH,45209
Victoria's Secret,Green Oak Township,1380,01380 #1380,Green Oak Village Place,KY,41017
Victoria's Secret,Lakeland,1381,01381 #1381,1440 Town Center Drive,OH,43537
Victoria's Secret,Peoria,1382,01382 #1382,9828 West Northern Avenue,CA,91915
Victoria's Secret,Marietta,1383,01383 #1383,3625 Dallas Highway,TX,78259
Victoria's Secret,Hyattsville,1384,01384 #1384,3500 E West Highway,AZ,85296
Victoria's Secret,Huntsville,1385,01385 #1385,335 The Bridge Street,GA,30078
Victoria's Secret,Hanover,1387,01387 #1387,7000 Arundel Mills Circle,OH,45440
Victoria's Secret,Concord,1388,01388 #1388,8111 Concord Mills Boulevard,TN,37934
Victoria's Secret,Austin,1389,01389 #1389,11410 Century Oaks Terrace,IL,60440
Victoria's Secret,Grapevine,1390,01390 #1390,3000 Grapevine Mills Parkway,SC,29229
Victoria's Secret,Milpitas,1391,01391 #1391,447 Great Mall Drive,TX,78738
Victoria's Secret,Ontario,1392,01392 #1392,One Mills Circle,NY,12901
Victoria's Secret,Nashville,1393,01393 #1393,212 Opry Mills Drive,TX,75077
Victoria's Secret,Pembroke Pines,1394,01394 #1394,401 SW 145Th Terrace,MI,48116
Victoria's Secret,Brooklyn,1395,01395 #1395,139 Flatbush Avenue,FL,33803
Victoria's Secret,Cedar Hill,1397,01397 #1397,305 West Farm To Market 1382,GA,30064
Victoria's Secret,Sunrise,1399,01399 #1399,12801 West Sunrise Boulevard,MD,20782
Victoria's Secret,Novi,1402,01402 #1402,27500 Novi Road,AL,35806
Victoria's Secret,Moosic,1403,01403 #1403,1011-1151 Shoppes Boulevard,MD,21076
Victoria's Secret,Pearland,1404,01404 #1404,11200 Broadway,NC,28027
Victoria's Secret,Warrington,1405,01405 #1405,1585 Main Street,TX,78758
Victoria's Secret,Cumming,1406,01406 #1406,410 Peachtree Parkway,TX,76051
Victoria's Secret,Hendersonville,1407,01407 #1407,300 Indian Lakes Boulevard,CA,95035
Victoria's Secret,Wesley Chapel,1410,01410 #1410,28249 Paseo Drive,CA,91764
Victoria's Secret,Brentwood,1411,01411 #1411,2845 Sand Creek Road,TN,37214
Victoria's Secret,Chino Hills,1412,01412 #1412,13925 Center Drive,FL,33026
Victoria's Secret,Williamsburg,1413,01413 #1413,5124 Main Street,NY,11217
Victoria's Secret,Panama City Beach,1414,01414 #1414,15600 Starfish Street,TX,75104
Victoria's Secret,Lake Saint Louis,1415,01415 #1415,20 Meadows Circle Drive,FL,33323
Victoria's Secret,Clinton Township,1416,01416 #1416,17420 Hall Road,MI,48377
Victoria's Secret,Pueblo,1417,01417 #1417,3439 Dillon Drive,PA,18507
Victoria's Secret,Papillion,1418,01418 #1418,7640 Towne Center Parkway,TX,77584
Victoria's Secret,South Barrington,1419,01419 #1419,100 W Higgins Road,PA,18976
Victoria's Secret,Burlington,1420,01420 #1420,3166 Waltham Boulevard,GA,30041
Victoria's Secret,Macon,1421,01421 #1421,5080 Riverside Drive,TN,37075
Victoria's Secret,Winter Garden,1423,01423 #1423,3251 Daniels Rd 110,CA,91709
Victoria's Secret,Murfreesboro,1424,01424 #1424,2615 Medical Center Parkway,VA,23188
Victoria's Secret,Allen,1428,01428 #1428,895 Market Street,FL,32413
Victoria's Secret,Garden City,1430,01430 #1430,630 Old Country Road,MO,63367
Victoria's Secret,Burr Ridge,1431,01431 #1431,570 Village Center Drive,MI,48038
Victoria's Secret,Fond Du Lac,1432,01432 #1432,835 W Johnson Street,CO,81008
Victoria's Secret,Tempe,1433,01433 #1433,2000 East Rio Salado Parkway,NE,68046
Victoria's Secret,Westminster,1435,01435 #1435,14584 Orchard Parkway,IL,60010
Victoria's Secret,Wilmington,1436,01436 #1436,6808 Main Street,NC,27215
Victoria's Secret,Phoenix,1437,01437 #1437,2460 W Happy Valley Road,GA,31210
Victoria's Secret,Charlotte,1438,01438 #1438,9812 Rea Road,FL,34777
Victoria's Secret,Dedham,1440,01440 #1440,950 Providence Highway,TN,37129
Victoria's Secret,Minneapolis,1441,01441 #1441,3000 Hennepin Avenue South,TX,75013
Victoria's Secret,Myrtle Beach,1442,01442 #1442,3068 Howard Avenue,IL,60527
Victoria's Secret,Noblesville,1443,01443 #1443,13170 Harrell Parkway,WI,54935
Victoria's Secret,Hampton,1445,01445 #1445,2371 H-101 Building H,AZ,85281
Victoria's Secret,New York,1446,01446 #1446,722 Lexington Avenue,CO,80020
Victoria's Secret,Foxboro,1447,01447 #1447,One Patriot Place,NC,28405
Victoria's Secret,Seattle,1449,01449 #1449,633 Southcenter,AZ,85085
Victoria's Secret,Queensbury,1450,01450 #1450,578 Aviation Mall,NC,28277
Victoria's Secret,West Palm Beach,1452,01452 #1452,700 Rosemary Avenue,MA,2027
Victoria's Secret,Casa Grande,1453,01453 #1453,1075 N Promenade Parkway,MN,55408
Victoria's Secret,Miami Beach,1456,01456 #1456,745 Collins Avenue,SC,29577
Victoria's Secret,Auburn,1457,01457 #1457,1101 Supermall Way,IN,46060
Victoria's Secret,Roseville,1458,01458 #1458,32233 Gratiot Avenue,VA,23666
Victoria's Secret,Las Vegas,1459,01459 #1459,3327 Las Vegas Boulevard South,NY,10022
Victoria's Secret,Honolulu,1460,01460 #1460,1450 Ala Moana Boulevard,MA,2035
Victoria's Secret,Farmington,1465,01465 #1465,500 Westfarms Mall,WA,98188
Victoria's Secret,Mc Lean,1468,01468 #1468,1961 Chain Bridge Drive,NY,12804
Victoria's Secret,New Hyde Park,1471,01471 #1471,1450 Union Turnpike,FL,33401
Victoria's Secret,Tempe,1476,01476 #1476,5000 Arizona Mills Circle,AZ,85194
Victoria's Secret,Fresno,1478,01478 #1478,7807 N Via Del Rio,FL,33139
Victoria's Secret,Lakewood,1480,01480 #1480,14520 W Colfax Avenue,WA,98001
Victoria's Secret,Phoenix,1481,01481 #1481,7611 W Thomas Road,MI,48066
Victoria's Secret,Philadelphia,1482,01482 #1482,1455 Franklin Mills Circle,NV,89109
Victoria's Secret,Katy,1483,01483 #1483,5000 Katy Mills Circle,HI,96814
Victoria's Secret,Orland Park,1484,01484 #1484,728 Orland Square Dr,VA,22102
Victoria's Secret,Columbus,1489,01489 #1489,1500 Polaris Parkway,NY,11040
Victoria's Secret,Gurnee,1491,01491 #1491,6170 West Grand Avenue,CA,93720
Victoria's Secret,Orlando,1493,01493 #1493,4959 International Drive,CO,80401
Victoria's Secret,Overland Park,1494,01494 #1494,11133 W 95Th Street,AZ,85033
Victoria's Secret,San Francisco,1500,01500 #1500,335 Powell Street,TX,77494
Victoria's Secret,Riverhead,1501,01501 #1501,Tanger Drive,IL,60462
Victoria's Secret,Orlando,1504,01504 #1504,509 North Alfaya Trail,KS,66214
Victoria's Secret,Aventura,1505,01505 #1505,19575 Biscayne Boulevard,FL,32828
Victoria's Secret,Orlando,1507,01507 #1507,8001 S Orange Blossom Trail,FL,33180
Victoria's Secret,Stroudsburg,1508,01508 #1508,344 Stroud Mall Road,PA,18360
Victoria's Secret,Merritt Island,1511,01511 #1511,777 E Merritt Island CSWY E-7,FL,32952
Victoria's Secret,New York,1512,01512 #1512,565 Broadway,NY,10012
Victoria's Secret,Prince William,1513,01513 #1513,2700 Potomac Mills Circle,VA,22192
Victoria's Secret,Peabody,1514,01514 #1514,210 Andover Street,CA,94903
Victoria's Secret,San Rafael,1534,01534 #1534,5800 Northgate Drive,HI,96815
Victoria's Secret,Elmhurst,1536,01536 #1536,90-15 Queens Boulevard,PR,918
Victoria's Secret,Honolulu,1537,01537 #1537,2230 Kalakaua Avenue,IL,60611
Victoria's Secret,San Juan,1540,01540 #1540,525 Avenue F.D.Roosevelt,HI,96701
Victoria's Secret,Hialeah,1548,01548 #1548,1675 W 49th Street,NY,10710
Victoria's Secret,Columbus,1549,01549 #1549,1500 Polaris Parkway,NY,11234
Victoria's Secret,Chicago,1551,01551 #1551,835 N Michigan Avenue,PR,983
Victoria's Secret,Miami,1552,01552 #1552,11401 NW 12th Street,WI,53719
Victoria's Secret,Aiea,1553,01553 #1553,98-1005 Moanalua Road,CA,92691
Victoria's Secret,Yonkers,1554,01554 #1554,1 Ridge Hill Boulevard,PA,18052
Victoria's Secret,Brooklyn,1555,01555 #1555,5100 Kings Plaza,OH,43219
Victoria's Secret,Carolina,1556,01556 #1556,Avenida Jesus M. Fragoso,ND,58103
Victoria's Secret,Newport Beach,1557,01557 #1557,1103 Newport Center Drive,UT,84790
Victoria's Secret,Buford,1558,01558 #1558,3333 Buford Drive,IL,60173
Victoria's Secret,Tampa,1559,01559 #1559,2223 N West Shore Boulevard,CA,91355
Victoria's Secret,Frisco,1560,01560 #1560,2601 Preston Road,MO,64506
Victoria's Secret,Fairview Heights,1561,01561 #1561,134 St Clair Square,NY,11581
Victoria's Secret,Tacoma,1562,01562 #1562,4502 S Steele Street,CA,95123
Victoria's Secret,Cincinnati,1564,01564 #1564,7875 Montgomery Road,CO,80122
Victoria's Secret,Madison,1565,01565 #1565,47 West Towne Mall,CO,80021
Victoria's Secret,Santa Ana,1566,01566 #1566,2800 N Main Street,NJ,7470
Victoria's Secret,Sherman Oaks,1567,01567 #1567,14006 Riverside Drive,GA,30144
Victoria's Secret,Mission Viejo,1568,01568 #1568,555 The Shops at Mission Veijo,OK,73118
Victoria's Secret,Westminster,1569,01569 #1569,1015 Westminster Mall,PA,15237
Victoria's Secret,Coral Springs,1570,01570 #1570,9469 W Atlantic Boulevard,MA,2184
Victoria's Secret,The Woodlands,1571,01571 #1571,1201 Lake Woodlands Drive,FL,32246
Victoria's Secret,Whitehall,1576,01576 #1576,250 Lehigh Valley Mall,CA,94588
Victoria's Secret,Appleton,1577,01577 #1577,4301 West Wisconsin Avenue,SD,57106
Victoria's Secret,Toledo,1580,01580 #1580,5001 Monroe Street,IN,46142
Victoria's Secret,Orlando,1584,01584 #1584,4200 Conroy Road,NV,89502
Victoria's Secret,Staten Island,1586,01586 #1586,2655 Richmond Avenue,IL,61613
Victoria's Secret,Columbus,1587,01587 #1587,4070 The Strand East,WI,53129
Victoria's Secret,Hanover,1588,01588 #1588,7000 Arundel Mills Circle,MA,1906
Victoria's Secret,Fargo,1589,01589 #1589,3902 13th Avenue South,TX,75040
Victoria's Secret,Miami,1590,01590 #1590,20505 S Dixie Highway,CA,90230
Victoria's Secret,St. George,1593,01593 #1593,1770 East Red Cliffs Dr.,MO,64153
Victoria's Secret,Schaumburg,1594,01594 #1594,5 Woodfield Shopping Center,NJ,8096
Victoria's Secret,Valencia,1595,01595 #1595,24201 W Valencia Boulevard,MN,55425
Victoria's Secret,Jersey City,1596,01596 #1596,30 Mall West Drive,PR,961
Victoria's Secret,Saint Joseph,1597,01597 #1597,3702 Fredrick Avenue,NY,12203
Victoria's Secret,Canoga Park,1598,01598 #1598,6600 Topanga Canyon Boulevard,NY,13204
Victoria's Secret,Valley Stream,1599,01599 #1599,2034 Green Acres Mall,NY,14225
Victoria's Secret,Happy Valley,1600,01600 #1600,12000 SE 82nd Avenue,NY,10954
Victoria's Secret,San Jose,1601,01601 #1601,925 Blossom Hill Road,FL,33133
Victoria's Secret,Bakersfield,1602,01602 #1602,2701 Ming Avenue,FL,32809
Victoria's Secret,Baltimore,1603,01603 #1603,8200 Perry Hall Boulevard,FL,33172
Victoria's Secret,Centennial,1604,01604 #1604,6911 S University Boulevard,NY,11530
Victoria's Secret,Wauwatosa,1608,01608 #1608,2500 N Mayfair Road,CT,6032
Victoria's Secret,Livingston,1610,01610 #1610,112 Eisenhower Parkway,CA,94102
Victoria's Secret,Broomfield,1611,01611 #1611,1 W Flatiron Crossing,FL,32809
Victoria's Secret,Northridge,1612,01612 #1612,9301 Tampa Avenue,MA,1960
Victoria's Secret,Cerritos,1613,01613 #1613,343 Los Cerritos Center,NY,11373
Victoria's Secret,Champaign,1614,01614 #1614,2000 N Neil Street,FL,33012
Victoria's Secret,Wayne,1616,01616 #1616,1400 Willowbrook Mall,OH,43240
Victoria's Secret,Kennesaw,1622,01622 #1622,400 Barrett Parkway,FL,33172
Victoria's Secret,Oklahoma City,1623,01623 #1623,1901 Northwest Expressway,CA,92660
Victoria's Secret,Salem,1624,01624 #1624,99 Rockingham Park Boulevard,GA,30519
Victoria's Secret,Pittsburgh,1625,01625 #1625,1000 Ross Park Mall,FL,33607
Victoria's Secret,Braintree,1626,01626 #1626,250 Granite St.,TX,75034
Victoria's Secret,Jacksonville,1627,01627 #1627,4790 River City Drive,IL,62208
Victoria's Secret,Pleasanton,1628,01628 #1628,2325 Stoneridge Mall Drive,WA,98409
Victoria's Secret,Sioux Falls,1629,01629 #1629,630 W Empire Mall,OH,45236
Victoria's Secret,Greenwood,1630,01630 #1630,1251 US Highway 31 N,CA,92705
Victoria's Secret,Reno,1631,01631 #1631,5000 Meadowood Mall Circle,CA,91423
Victoria's Secret,Toms River,1632,01632 #1632,1201 Hooper Avenue,CA,92683
Victoria's Secret,Youngstown,1633,01633 #1633,7401 Market Street,FL,33071
Victoria's Secret,Peoria,1634,01634 #1634,2200 W War Memorial Drive,TX,77380
Victoria's Secret,Santa Rosa,1635,01635 #1635,235 Santa Rosa Plaza,WI,54913
Victoria's Secret,Greendale,1636,01636 #1636,5300 South 76 Street,OH,43623
Victoria's Secret,Fairlawn,1637,01637 #1637,3265 W Market Street,FL,32839
Victoria's Secret,Jensen Beach,1638,01638 #1638,3174 NW Federal Highway,NY,10314
Victoria's Secret,Saugus,1639,01639 #1639,1201 Broadway,MD,21076
Victoria's Secret,Estero,1640,01640 #1640,23131 Fashion Drive,NJ,7310
Victoria's Secret,Garland,1641,01641 #1641,235 Cedar Sage Drive,CA,91303
Victoria's Secret,Sacramento,1643,01643 #1643,1689 Arden Way,OR,97086
Victoria's Secret,Culver City,1644,01644 #1644,6000 Sepulveda Boulevard,CA,93304
Victoria's Secret,Modesto,1646,01646 #1646,3401 Dale Road,MD,21236
Victoria's Secret,Kansas City,1647,01647 #1647,7111 NW 86th Terrace,WI,53226
Victoria's Secret,Deptford,1648,01648 #1648,1750 Deptford Crt Road,NJ,7039
Victoria's Secret,Gurnee,1649,01649 #1649,61700 W Grand Avenue,CA,91324
Victoria's Secret,Bloomington,1650,01650 #1650,120 North Garden,CA,90703
Victoria's Secret,Taylor,1651,01651 #1651,23000 Eureka Road,IL,61821
Victoria's Secret,Bayamon,1653,01653 #1653,725 W Main Avenue,NH,3079
Victoria's Secret,National City,1654,01654 #1654,3030 Plaza Bonita,NJ,8753
Victoria's Secret,Albany,1655,01655 #1655,1 Crossgates Mall Road,OH,44512
Victoria's Secret,Syracuse,1656,01656 #1656,9090 Destiny USA Drive,CA,95401
Victoria's Secret,Buffalo,1657,01657 #1657,1 Walden Galleria,OH,44333
Victoria's Secret,Nanuet,1659,01659 #1659,75 W Route 59,FL,34957
Victoria's Secret,King of Prussia,1662,01662 #1662,160 N Gulph Road,FL,33928
Victoria's Secret,North Olmsted,1664,01664 #1664,4954 Great Northern,CA,95815
Victoria's Secret,Miami,1665,01665 #1665,1455 NW 107th Avenue,CA,95356
Victoria's Secret,Los Angeles,1672,01672 #1672,735 S. Figueroa Street,IL,60031
Victoria's Secret,San Antonio,1674,01674 #1674,7400 San Pedro,MI,48180
Victoria's Secret,Naples,1675,01675 #1675,1770 Tamiami Trail,CA,91950
Victoria's Secret,Gainesville,1676,01676 #1676,6419 Newberry,PA,19406
Victoria's Secret,Fairfield,1679,01679 #1679,1350 Travis Boulevard,FL,33172
Victoria's Secret,San Diego,1693,01693 #1693,7007 Friars Road,CA,94533
Victoria's Secret,Hialiah,1717,01717 #1717,1675 W. 49th Street,CA,92108
Victoria's Secret,San Marcos,2250,02250 #2250,3939 Interstate Highway- 35 S,FL,33012
