keywords,city,Aggdata Store Number,store_number,address,state,zip_code
Wawa,Folsom,1,1,1212 MacDade Blvd.,PA,19033
Wawa,Media,6,6,1260 North Providence Rd.,PA,19063
Wawa,Linwood,7,7,1439 Market St.,PA,19061
Wawa,Broomall,8,8,2050 Sproul Rd.,PA,19008
Wawa,Primos,9,9,502 Oak Ave.,PA,19018
Wawa,Upper Darby,11,11,460 South 69th St.,PA,19082
Wawa,Drexel Hill,12,12,525 Burmont Ave.,PA,19026
Wawa,Upper Darby,14,14,202 State Rd. & Park Ave.,PA,19082
Wawa,Collingdale,19,19,930 MacDade Blvd.,PA,19023
Wawa,Flourtown,21,21,1601 Bethlehem Pk.,PA,19031
Wawa,Prospect Park,23,23,934 Chester Pk.,PA,19076
Wawa,Newtown Square,24,24,10 North Newtown Street Rd.,PA,19073
Wawa,West Chester,25,25,2 East Rhoads Ave.,PA,19380
Wawa,Willow Grove,29,29,425 West Moreland Ave.,PA,19090
Wawa,Boothwyn,30,30,2300 Chichester Ave.,PA,19061
Wawa,West Chester,31,31,1009 West Chester Pk.,PA,19380
Wawa,Kennett Square,34,34,505 West Cypress St.,PA,19348
Wawa,Woodlyn,35,35,510 Fairview Rd.,PA,19094
Wawa,Trevose,38,38,676 Rosewood Ave.,PA,19053
Wawa,Trooper,39,39,2706 Ridge Pk.,PA,19403
Wawa,Bala Cynwyd,40,40,193 Belmont Ave.,PA,19004
Wawa,King Of Prussia,42,42,196 South Gulph Rd.,PA,19406
Wawa,Ambler,43,43,740 North Bethlehem Pk.,PA,19002
Wawa,Andalusia,45,45,1549 Bristol Pk.,PA,19020
Wawa,Havertown,54,54,33-35 Eagle Rd.,PA,19083
Wawa,Philadelphia,55,55,3604 Chestnut St.,PA,19104
Wawa,Doylestown,56,56,339 South Main St.,PA,18901
Wawa,Paoli,57,57,52 East Lancaster Ave.,PA,19301
Wawa,Yardley,59,59,44 South Main St.,PA,19067
Wawa,Levittown,60,60,6016 Emilie Rd.,PA,19057
Wawa,Richboro,61,61,750 2nd Street Pk.,PA,18954
Wawa,Ardmore,66,66,195 West Lancaster Ave.,PA,19003
Wawa,Conshohocken,67,67,1726 Butler Pk.,PA,19428
Wawa,Upper Darby,68,68,8512 Lansdowne Ave.,PA,19082
Wawa,Langhorne,70,70,1528 Trenton Rd.,PA,19047
Wawa,Audubon,72,72,2809 Egypt Rd.,PA,19407
Wawa,Lansdowne,73,73,67 Lansdowne Ave.,PA,19050
Wawa,Roslyn,74,74,2401 Susquehanna Rd. at Bradfield Rd.,PA,19001
Wawa,Cornwell Heights,77,77,3328 Bristol Rd. & Galloway Rd.,PA,19020
Wawa,Kulpsville,79,79,1401 Forty Foot Rd.,PA,19443
Wawa,West Chester,81,81,1195 Pottstown Pke,PA,19380
Wawa,Philadelphia,84,84,801 Cottman Ave.,PA,19111
Wawa,Exton,85,85,750 North Pottstown Pk.,PA,19341
Wawa,Philadelphia,86,86,1707 Arch St.,PA,19103
Wawa,Fountain Hill,87,87,1429 Broadway,PA,18015
Wawa,West Chester,88,88,1594 Paoli Pk.,PA,19380
Wawa,Easton,89,89,310 Larry Holmes Dr.,PA,18042
Wawa,North Wales,96,96,708 Walnut St.,PA,19454
Wawa,Lafayette Hills,97,97,406 Germantown Pk.,PA,19444
Wawa,Lower Macungie,98,98,3321 Willow Ln.,PA,18062
Wawa,Media,100,100,100 East Baltimore Pk.,PA,19063
Wawa,Easton,101,101,225 Cattell St.,PA,18042
Wawa,Philadelphia,103,103,912-16 Walnut St.,PA,19107
Wawa,Souderton,105,105,363 North Main St. & Summitt St.,PA,18964
Wawa,Philadelphia,106,106,10550 Knights Rd.,PA,19114
Wawa,Philadelphia,107,107,151-155 Byberry Rd.,PA,19116
Wawa,Philadelphia,108,108,9456 State Rd.,PA,19114
Wawa,Glenside,111,111,83 Limekiln Pk.,PA,19038
Wawa,East Stroudsburg,112,112,233 Prospect St.,PA,18301
Wawa,Philadelphia,115,115,6460 Bustleton Ave. at Hellerman St.,PA,19149
Wawa,Stroudsburg,116,116,1015 West Main St.,PA,18360
Wawa,Downingtown,118,118,1083 East Lancaster Ave.,PA,19335
Wawa,Philadelphia,119,119,3222-48 Richmond St. at Allegheny Ave.,PA,19134
Wawa,Allentown,120,120,2209 Lehigh St.,PA,18103
Wawa,Philadelphia,125,125,7236-40 Germantown Ave.,PA,19119
Wawa,Holland,128,128,236 Holland St.,PA,18966
Wawa,Gilbertsville,134,134,1906 Swamp Pk.,PA,19525
Wawa,Levittown,135,135,7737 New Falls Rd.,PA,19054
Wawa,Allentown,137,137,1501 West Gordon St.,PA,18102
Wawa,Royersford,141,141,1860 Ridge Pk.,PA,19468
Wawa,Morrisville,142,142,1244 Bristol Pk.,PA,19067
Wawa,Schwenksville,143,143,4121 Skippack Pk.,PA,19473
Wawa,Pottstown,146,146,260 West Schuylkill Rd.,PA,19465
Wawa,Reading,147,147,2709 North Merdian Blvd.,PA,19610
Wawa,Horsham,148,148,1139 Horsham Rd.,PA,19044
Wawa,Warminster,149,149,10 Davisville Rd.,PA,18974
Wawa,King Of Prussia,152,152,207 North Henderson Rd.,PA,19406
Wawa,Reading,153,153,1946 North 11th St.,PA,19604
Wawa,Springfield,154,154,195 Saxer Ave.,PA,19064
Wawa,Bala Cynwyd,155,155,Route 23 & Rock Hill Rd.,PA,19004
Wawa,Fort Washington,156,156,106 Bethlehem Pk. & Penn Ave.,PA,19034
Wawa,North Wales,157,157,593 Dekalb Pk.,PA,19454
Wawa,E. Petersburg,158,158,1990 Miller Rd.,PA,17520
Wawa,Blakeslee,159,159,Route 940 & Route 115 South,PA,18610
Wawa,Avondale,160,160,761 Gap Newport Pk.,PA,19311
Wawa,Philadelphia,161,161,2040 Hamilton St.,PA,19103
Wawa,Bensalem,165,165,4662 Bensalem Blvd. & Ford Ave.,PA,19020
Wawa,Reading,166,166,5060 Perkiomen Ave.,PA,19606
Wawa,Bryn Mawr,168,168,201 South Bryn Mawr Ave.,PA,19010
Wawa,Chadds Ford,170,170,721 Naamans Creek Rd.,PA,19317
Wawa,Philadelphia,171,171,1038 Arch St.,PA,19106
Wawa,Collegeville,173,173,310 Main St.,PA,19426
Wawa,Glenolden,174,174,3 N MacDade Blvd. & Ashland Ave.,PA,19036
Wawa,Morton,178,178,21 Kedron Ave.,PA,19070
Wawa,Philadelphia,179,179,3744 Spruce St.,PA,19104
Wawa,Philadelphia,181,181,8152 Castor Ave.,PA,19152
Wawa,Philadelphia,183,183,6935 Castor Ave.,PA,19149
Wawa,Levittown,184,184,5220 New Falls Rd.,PA,19056
Wawa,New Hope,185,185,341 West Bridge St.,PA,18938
Wawa,Phoenixville,187,187,501 Kimberton Rd.,PA,19460
Wawa,Philadelphia,188,188,8900 Krewstown Rd.,PA,19115
Wawa,Philadelphia,191,191,1602 South Delaware Ave.,PA,19148
Wawa,Philadelphia,193,193,6001 Harbison St.,PA,19135
Wawa,Bristol,196,196,200 Green Ln. & Farragut Ave.,PA,19007
Wawa,Brodheadsville,197,197,Routes 209 & 715,PA,18322
Wawa,Glen Mills,198,198,970 Baltimore Pk.,PA,19331
Wawa,Chalfont,200,200,545 West Butler Ave.,PA,18914
Wawa,Chester Springs,201,201,1800 Ticonderoga Blvd.,PA,19425
Wawa,West Chester,203,203,10 West Boot Rd.,PA,19380
Wawa,Hatboro,204,204,50 North York Rd.,PA,19040
Wawa,Malvern,205,205,5 Matthews Rd.,PA,19355
Wawa,Philadelphia,207,207,1300 East Erie Ave.,PA,19124
Wawa,Frazer,208,208,567 Lancaster Ave.,PA,19355
Wawa,Philadelphia,211,211,9201 Frankford Ave.,PA,19114
Wawa,Drexel Hill,212,212,3800 Garret Rd.,PA,19026
Wawa,Upper Darby,213,213,7720 West Chester Pk.,PA,19082
Wawa,Buckingham,215,215,Routes 413 & 263,PA,18928
Wawa,Bridgeport,216,216,112 West Fourth St.,PA,19405
Wawa,Philadelphia,218,218,6400 Torresdale Ave.,PA,19135
Wawa,Bristol,219,219,3260 New Rodgers Rd.,PA,19007
Wawa,Warrington,221,221,550 Easton Rd.,PA,18976
Wawa,North Wales,222,222,981 North Wales Rd.,PA,19454
Wawa,Woodlyn,223,223,1920 West MacDade Blvd.,PA,19094
Wawa,Downingtown,226,226,100 Wallace Ave.,PA,19335
Wawa,Perkasie,229,229,320 West Route 313,PA,18944
Wawa,Philadelphia,230,230,1701 Welsh Rd.,PA,19115
Wawa,Philadelphia,232,232,14101 Bustleton Pk.,PA,19116
Wawa,Philadelphia,234,234,8000 Roosevelt Blvd.,PA,19152
Wawa,Prospect Park,235,235,817 Lincoln Ave.,PA,19076
Wawa,Malvern,236,236,105 West King St.,PA,19355
Wawa,Malvern,238,238,10 Liberty Blvd.,PA,19355
Wawa,Holmes,239,239,2306 MacDade Blvd.,PA,19043
Wawa,Philadelphia,240,240,4506-10 Castor Ave.,PA,19124
Wawa,Harleysville,242,242,373 Main St.,PA,19438
Wawa,Downingtown,245,245,100 Boot Rd.,PA,19335
Wawa,Philadelphia,247,247,518-520 South 2nd St.,PA,19147
Wawa,Philadelphia,252,252,4371 Richmond St.,PA,19137
Wawa,Conshohocken,253,253,100 Crawford Ave.,PA,19428
Wawa,Essington,254,254,600 South Governor Printz Blvd.,PA,19029
Wawa,Norristown,255,255,1970 Valley Forge Rd.,PA,19403
Wawa,Jenkintown,256,256,732 Old York Rd.,PA,19046
Wawa,Wayne,257,257,215 W Lancaster Ave.,PA,19087
Wawa,Spring City,258,258,3380 Schuylkill Rd.,PA,19475
Wawa,Ephrata,260,260,602 South Reading Rd.,PA,17522
Wawa,Philadelphia,262,262,7715 Frankford Ave.,PA,19136
Wawa,Parkesburg,263,263,3711 West Lincoln Hwy.,PA,19365
Wawa,Havertown,265,265,1000 Darby Rd.,PA,19083
Wawa,Allentown,266,266,7572 Schantz Rd.,PA,18106
Wawa,Bensalem,267,267,1883 Street Rd.,PA,19020
Wawa,Bristol,268,268,5900 Bristol Pk.,PA,19007
Wawa,Glen Mills,269,269,36 Baltimore Pk.,PA,19342
Wawa,Kidder Township,270,270,Route 940 & PA Turnpike,PA,18661
Wawa,Horsham,271,271,535 Horsham Rd.,PA,19044
Wawa,Quakertown,272,272,1095 South West End Blvd.,PA,18951
Wawa,Lansdale,273,273,1601 Valley Forge Rd.,PA,19446
Wawa,Reading,274,274,3650 Pottsville Pk.,PA,19605
Wawa,Lancaster,275,275,2126-2132 Lincoln Hwy. East,PA,17602
Wawa,Philadephia,276,276,7913-29 Oxford Ave.,PA,19111
Wawa,Trevose,277,277,2250 Lincoln Hwy.,PA,19053
Wawa,West Chester,278,278,706 East Gay St.,PA,19380
Wawa,Zieglerville,281,281,3 Big Rd.,PA,19492
Wawa,Douglasville,282,282,10 Maplewood Dr.,PA,19518
Wawa,Royersford,284,284,934 Main St.,PA,19486
Wawa,Horsham,285,285,1510 Easton Rd.,PA,19044
Wawa,Sinking Spring,286,286,3337 Penn Ave.,PA,19608
Wawa,Allentown,287,287,4900 Hamilton Blvd.,PA,18106
Wawa,Pipersville,288,288,5854 Easton Rd.,PA,18947
Wawa,Nottingham,289,289,100 Ponds Edge Dr.,PA,19362
Wawa,Strafford,291,291,151 Sugartown Rd.,PA,19087
Wawa,East Norriton,292,292,701 West Germantown Pk.,PA,19403
Wawa,Clifton Heights,293,293,19 Bishop Ave.,PA,19018
Wawa,Narberth,294,294,949 Montgomery Ave.,PA,19072
Wawa,Pottstown,295,295,1417 South Hanover St.,PA,19465
Wawa,Bethlehem,297,297,3300 Schoenersville Rd.,PA,18017
Wawa,West Chester,298,298,1413 Wilmington Pk.,PA,19382
Wawa,Allentown,299,299,911-941 Union Blvd.,PA,18109
Wawa,Sea Isle City,300,300,3800 Landis Ave.,NJ,8243
Wawa,Pitman,301,301,3 South Woodbury Rd.,NJ,8071
Wawa,Rocky Hill,306,306,1273 Route 206,NJ,8553
Wawa,Jackson,309,309,9 Bennetts Mills Rd.,NJ,8527
Wawa,Bellmawr,317,317,1155 West Browning Rd.,NJ,8031
Wawa,Toms River,321,321,1680 Lakewood Rd.,NJ,8753
Wawa,Winslow,322,322,1 North White Horse Pk.,NJ,8095
Wawa,Cinnaminson,323,323,2112 Church Rd.,NJ,8077
Wawa,Browns Mills,329,329,558-562 Lakehurst Rd.,NJ,8015
Wawa,Somerdale,331,331,404 South Warwick Rd.,NJ,8083
Wawa,Egg Harbor Twp.,337,337,6814 Tilton Rd.,NJ,8232
Wawa,Stone Harbor,342,342,9404 3rd Ave.,NJ,8247
Wawa,Howell,343,343,301 Newton's Corner Rd.,NJ,7731
Wawa,Mount Laurel,344,344,3763 Church Rd.,NJ,8054
Wawa,Wrightstown,345,345,210 Georgetown/Wrightstown,NJ,8562
Wawa,Deptford,346,346,1536 Hurffville Rd.,NJ,8096
Wawa,Hainesport,347,347,1301 Route 38,NJ,8036
Wawa,Jackson,348,348,10 Manhattan Ave.,NJ,8527
Wawa,Hamilton,349,349,2004 Nottingham Way,NJ,8619
Wawa,Collingswood,352,352,668 Haddon Ave.,NJ,8108
Wawa,Medford,353,353,199 Medford Mt Holly Rd.,NJ,8055
Wawa,Magnolia,355,355,101 Warwick Rd.,NJ,8049
Wawa,Mount Laurel,358,358,200 Larchmont Blvd.,NJ,8054
Wawa,Sewell,360,360,701 Woodbury-Glassboro Rd.,NJ,8080
Wawa,Pine Hill,362,362,917 Erial Rd.,NJ,8021
Wawa,Monroe Twp.,365,365,337 Applegarth Rd.,NJ,8831
Wawa,Westampton,366,366,798 Woodlane Rd.,NJ,8060
Wawa,Marlton,369,369,270 East Green Tree Rd.,NJ,8053
Wawa,Tuckerton,371,371,1201 North Green St.,NJ,8087
Wawa,Westville,372,372,907 Broadway St.,NJ,8093
Wawa,Hamilton,373,373,3800 Quakerbridge Rd.,NJ,8619
Wawa,Cherry Hill,374,374,100 Springdale Rd.,NJ,8034
Wawa,Vincentown,376,376,2075 Route 206,NJ,8088
Wawa,Sicklerville,377,377,672 Berlin Cross Keys Rd.,NJ,8081
Wawa,Waretown,378,378,455 Route #9,NJ,8758
Wawa,Williamstown,379,379,882 Glassboro Rd.,NJ,8094
Wawa,Buena,380,380,731 Harding Hwy.,NJ,8310
Wawa,Burlington,382,382,1814 Salem Rd.,NJ,8016
Wawa,Hammonton,383,383,100 12th St.,NJ,8037
Wawa,Columbus,387,387,2835 Route 206,NJ,8022
Wawa,Vincetown,388,388,4 Route 72,NJ,8088
Wawa,West Berlin,391,391,400 Route 73 South,NJ,8009
Wawa,Chews Landing,392,392,2 Somerdale Rd.,NJ,8012
Wawa,Berlin,395,395,100 Berlin Cross Keys Rd.,NJ,8009
Wawa,Bellmawr,396,396,112 Edgewood Dr.,NJ,8031
Wawa,Mantua,398,398,400 Bridgeton Pk.,NJ,8051
Wawa,Brick Twp.,401,401,6 Lanes Mill Rd.,NJ,8723
Wawa,Manalapan,411,411,364 Route 9,NJ,7726
Wawa,Hamilton Square,412,412,2001 Route 33,NJ,8690
Wawa,Sicklerville,416,416,400 Sicklerville Rd.,NJ,8081
Wawa,Marlton,418,418,491 Route 73,NJ,8053
Wawa,Westampton,423,423,76 Springside Rd.,NJ,8060
Wawa,Woodbury,427,427,590 North Evegreen Ave.,NJ,8096
Wawa,Toms River,429,429,254 Route 37,NJ,8753
Wawa,Avalon,432,432,2701 Ocean Dr.,NJ,8202
Wawa,Somers Point,433,433,502 Shore Rd.,NJ,8244
Wawa,Ventnor,434,434,301 North Dorset Ave.,NJ,8406
Wawa,Glassboro,435,435,Route 610 & Route 553,NJ,8028
Wawa,Galloway,438,438,336 South Pitney Rd.,NJ,8205
Wawa,Hillsborough,439,439,381 Triangle Rd.,NJ,8844
Wawa,Barnegat,441,441,550 North Main St.,NJ,8005
Wawa,Cherry Hill,442,442,843 Cooper Landing Rd.,NJ,8002
Wawa,Franklinville,444,444,2515 Delsea Dr.,NJ,8322
Wawa,Elmer,446,446,765 Route 40,NJ,8318
Wawa,Cape May,452,452,1426-1428 Texas Ave.,NJ,8204
Wawa,Voorhees,455,455,2999 Evesham Rd.,NJ,8043
Wawa,Shamong,457,457,436 Oakshade Rd.,NJ,8088
Wawa,Woodstown,459,459,Route 45 & Bailey St.,NJ,8098
Wawa,Palmyra,460,460,600 Cinnaminson Ave.,NJ,8065
Wawa,Somers Point,461,461,102 New Rd.,NJ,8244
Wawa,Ocean View,465,465,2500 Sea Isle Blvd.,NJ,8230
Wawa,Collingswood,468,468,1 Haddon Ave.,NJ,8108
Wawa,Dennisville,470,470,121 Main St.,NJ,8214
Wawa,Glassboro,471,471,109 North Delsea Dr.,NJ,8028
Wawa,Egg Harbor City,473,473,907 White Horse Pk.,NJ,8215
Wawa,Dayton,476,476,350 Georges Rd.,NJ,8810
Wawa,Oaklyn,477,477,800 White Horse Pk.,NJ,8107
Wawa,Sewell,479,479,107 Egg Harbor Rd.,NJ,8080
Wawa,Thorofare,480,480,196 Crown Point Rd.,NJ,8086
Wawa,Smithville,482,482,8 South New York Rd.,NJ,8201
Wawa,Brigantine,485,485,813 West Brigantine Blvd.,NJ,8203
Wawa,Malaga,486,486,450 Delsea Dr.,NJ,8328
Wawa,Mays Landing,488,488,6298 Harding Hwy.,NJ,8330
Wawa,Cape May Court House,492,492,224 South Main St.,NJ,8210
Wawa,Gibbsboro,494,494,71-A Lakeview Dr.,NJ,8026
Wawa,Hammonton,495,495,214 North White Horse Pk.,NJ,8037
Wawa,Tuckerton,497,497,20 East Main St.,NJ,8087
Wawa,Sewell,499,499,388 Greentree Rd.,NJ,8080
Wawa,Crownsville,532,532,1029 Generals Hwy.,MD,21032
Wawa,Elkton,547,547,1741 Elkton Rd.,MD,21901
Wawa,Annapolis,549,549,628 Admiral Dr.,MD,21401
Wawa,Glen Burnie,551,551,7699 Quarterfield Rd.,MD,21061
Wawa,Bel Air,553,553,709 Bel Air Rd.,MD,21014
Wawa,Frederick,554,554,5833 Ballenger Creek Pk.,MD,21703
Wawa,Salisbury,555,555,668-682 South Salisbury Blvd.,MD,21801
Wawa,West Ocean City,556,556,12502 Ocean Gateway,MD,21842
Wawa,Fountain Green,557,557,15150 East Churchville Rd.,MD,21014
Wawa,Rosedale,558,558,8731 Pulaski Hwy.,MD,21237
Wawa,Street,559,559,3530 Conowingo Rd.,MD,21154
Wawa,Salisbury,561,561,2740 North Salisbury Blvd.,MD,21801
Wawa,Upper Marlboro,562,562,163 Southeast Crain Hwy.,MD,20772
Wawa,Cambridge,563,563,601 Sunburst Hwy.,MD,21613
Wawa,Waldorf,565,565,11505 Berry Rd.,MD,20603
Wawa,Ocean City,566,566,12001 Coastal Hwy. #A,MD,21842
Wawa,Aberdeen,567,567,231 North Philadelphia Blvd.,MD,21001
Wawa,White Plains,568,568,4210 Crain Hwy.,MD,20695
Wawa,Annapolis,569,569,321 Buschs Frontage Rd.,MD,21401
Wawa,Millersville,572,572,8300 Veterans Hwy.,MD,21108
Wawa,Dunkirk,573,573,10245 Kirksville Ln.,MD,20754
Wawa,Edgewater,577,577,3166 Soloman Island Rd.,MD,21037
Wawa,Baltimore,578,578,4017 North Point Blvd.,MD,21224
Wawa,Brandywine,580,580,16410 Mckendree Rd.,MD,20613
Wawa,Abingdon,581,581,3500 Woodsdale Rd.,MD,21009
Wawa,Bel Air,582,582,2300 East Churchville Rd.,MD,21015
Wawa,Mechanicsville,583,583,27605 Three Notch Rd.,MD,20659
Wawa,LaPlata,584,584,5955 Crain Hwy.,MD,20646
Wawa,Northeast,585,585,2031 Pulaski Hwy.,MD,21901
Wawa,Bel Air,586,586,601 Hoagie Dr.,MD,21014
Wawa,Lexington Park,587,587,22530 Three Notch Rd.,MD,20653
Wawa,Charlotte Hall,588,588,30320 Three Notch Rd.,MD,20622
Wawa,Easton,589,589,8118 Ocean Gateway,MD,21601
Wawa,Westminster,590,590,805 Leidy Rd.,MD,21157
Wawa,Prince Frederick,591,591,305 Market Square Dr.,MD,21901
Wawa,California,592,592,23141 Three Notch Rd,MD,20619
Wawa,Beltsville,593,593,Route 1 & Rhode Island Ave.,MD,20704
Wawa,Gambrills,595,595,701 Annapolis Rd.,MD,21054
Wawa,Capitol Heights,597,597,1401 Hampton Park Blvd.,MD,20743
Wawa,Windsor Mill,598,598,2845 North Rolling Rd.,MD,21244
Wawa,Joppa,599,599,1419 South Mountain Rd.,MD,21085
Wawa,Gainesville,651,651,14461 Lee Hwy.,VA,20155
Wawa,Hayes,652,652,5120 George Washington Mem Hwy.,VA,23072
Wawa,Fredericksburg,653,653,4625 Harrison Rd.,VA,22408
Wawa,Chesapeake,654,654,720 Woodlake Dr.,VA,23320
Wawa,Richmond,655,655,5231 Brook Rd.,VA,23227
Wawa,Newport News,656,656,14803 Warwick Blvd.,VA,23608
Wawa,Midlothian,657,657,12001 Southshore Point Dr.,VA,23112
Wawa,Fredericksburg,658,658,3402 Shannon Park Dr.,VA,22401
Wawa,Richmond,659,659,11021 Midlothian Tpk.,VA,23235
Wawa,Fredericksburg,660,660,1140 Carl D. Silver Pkwy.,VA,22401
Wawa,Woodbridge,661,661,13355 Minnieville Rd.,VA,22192
Wawa,Woodbridge,662,662,2051 Daniel Stewart Square,VA,22192
Wawa,Fredericksburg,663,663,10626-10630 Courthouse Rd.,VA,22407
Wawa,Fredericksburg,664,664,4527 Plank Rd.,VA,22407
Wawa,Stafford,665,665,72 Austin Park Dr.,VA,22554
Wawa,Fredericksburg,667,667,2390 Plank Rd.,VA,22401
Wawa,Fredericksburg,668,668,830 Warrenton Rd.,VA,22406
Wawa,King George,669,669,5362 James Madison Pkwy.,VA,22485
Wawa,Richmond,670,670,11021 Ironbridge Rd.,VA,23831
Wawa,Virginia Beach,671,671,Rosemont Rd. & Sentra Way,VA,23452
Wawa,Richmond,672,672,7500 Midlothian Tpk.,VA,23225
Wawa,Richmond,673,673,6001 Ironbridge Rd.,VA,23234
Wawa,Midlothian,674,674,3850 North Baily Bridge Rd.,VA,23112
Wawa,Virginia Beach,675,675,4800 Shore Dr.,VA,23455
Wawa,Rivers Bend,676,676,600 East Hundred Rd.,VA,23836
Wawa,Glen Allen,677,677,8800 Brook Rd.,VA,23060
Wawa,Virginia Beach,678,678,2501 Viriginia Beach Blvd.,VA,23452
Wawa,Virginia Beach,679,679,1579 Lynnhaven Pkwy.,VA,23453
Wawa,Woodbridge,680,680,15809 Jefferson Davis Hwy.,VA,22191
Wawa,Williamsburg,681,681,315 Richmond Rd.,VA,23185
Wawa,Richmond,682,682,8851 Staple Mills Rd.,VA,23228
Wawa,Petersburg,683,683,3199 South Crater Rd.,VA,23805
Wawa,Colonial Heights,684,684,15840 Jefferson Davis Hwy.,VA,23834
Wawa,Newport News,685,685,772 J. Clyde Morris Blvd.,VA,23601
Wawa,Yorktown,687,687,5824 George Washington,VA,23692
Wawa,Fredericksburg,688,688,275 Butler Rd.,VA,22405
Wawa,Stafford,689,689,15 Eustace Rd.,VA,22554
Wawa,Virginia Beach,690,690,4377 Holland Rd.,VA,23462
Wawa,Fredericksburg,691,691,199 Falcon Dr.,VA,22408
Wawa,Chester,692,692,11701 Jefferson Davis Hwy.,VA,23831
Wawa,Colonial Heights,693,693,604 Boulevard,VA,23834
Wawa,Virginia Beach,694,694,2954 Virginia Beach Blvd.,VA,23462
Wawa,Chesapeake,695,695,3408 Western Branch Blvd.,VA,23321
Wawa,Richmond,696,696,12564 Broad St.,VA,23233
Wawa,Stafford,697,697,105 Garrisonville Rd,VA,22554
Wawa,Hopewell,698,698,907 Colonial Corner Dr.,VA,23860
Wawa,Williamsburg,699,699,842 Merrimac Trail,VA,23185
Wawa,Ship Bottom,700,700,902 Central Ave.,NJ,8008
Wawa,Northfield,701,701,2403 New Rd.,NJ,8225
Wawa,Somers Point,702,702,600 New Rd.,NJ,8244
Wawa,Millville,710,710,13 West Main St.,NJ,8332
Wawa,Brigantine,713,713,3932 Brigantine Blvd.,NJ,8203
Wawa,Collings Lake,714,714,7 East Black Horse Pk.,NJ,8094
Wawa,Mount Laurel,718,718,720 South Church Rd.,NJ,8057
Wawa,Pennsville,719,719,99 North Broadway,NJ,8070
Wawa,Millville,720,720,1711 East Main St.,NJ,8332
Wawa,Williamstown,721,721,332 South Black Horse Pk.,NJ,8094
Wawa,Marlton,722,722,27 North Maple Ave.,NJ,8053
Wawa,Lindenwold,723,723,629 Chews Landing Rd.,NJ,8021
Wawa,Moorestown,725,725,236 West Main St.,NJ,8057
Wawa,Ocean City,728,728,1250 West Ave.,NJ,8226
Wawa,Wildwood,729,729,418 West Rio Grande Ave.,NJ,8260
Wawa,Audubon,730,730,320 South White Horse Pk.,NJ,8106
Wawa,Cherry Hill,732,732,1206 Route 70 East,NJ,8034
Wawa,Brick Twp.,733,733,383 Drum Point Rd.,NJ,8723
Wawa,Hightstown,735,735,104 Hickory Corner Rd.,NJ,8520
Wawa,Absecon,736,736,611 New Jersey Ave.,NJ,8201
Wawa,Princeton,739,739,140 University Place,NJ,8540
Wawa,Maple Shade,740,740,55 North Fork Landing Rd.,NJ,8052
Wawa,Lakewood,743,743,605 East County Line Rd.,NJ,8701
Wawa,Manahawkin,744,744,1400 Route 72,NJ,8050
Wawa,Browns Mills,745,745,7 Julistown Rd.,NJ,8015
Wawa,Jackson,746,746,1650 South New Prospect Rd,NJ,8527
Wawa,Medford,748,748,211 Tuckerton Rd.,NJ,8055
Wawa,Mays Landing,749,749,300 Route 50,NJ,8330
Wawa,Pennsville,750,750,2 Carroll Ave.,NJ,8070
Wawa,Ventnor,753,753,5212 Ventnor Ave.,NJ,8406
Wawa,Manalapan,754,754,345 Union Hill Rd.,NJ,7726
Wawa,Marmora,758,758,30 Shore Rd.,NJ,8223
Wawa,Dorchester,759,759,3904 Route 47,NJ,8316
Wawa,Toms River,763,763,1600 Route 37 East & River Dr.,NJ,8753
Wawa,Voorhees,767,767,1700 South Burnt Mill Rd.,NJ,8043
Wawa,Ocean City,771,771,110 34th St.,NJ,8226
Wawa,Vineland,773,773,1715 East Wheat Rd.,NJ,8360
Wawa,Williamstown,775,775,1413 South Black Horse Pk.,NJ,8094
Wawa,Cherry Hill,777,777,1030 West Marlton Pk.,NJ,8002
Wawa,Gloucester,778,778,1317 Market St.,NJ,8030
Wawa,Westville,779,779,1080 Delsea Dr.,NJ,8093
Wawa,Sewell,780,780,464 Hurffville - Crosskeys Rd,NJ,8080
Wawa,Sayreville,781,781,40 Washington Rd.,NJ,8872
Wawa,Marlboro,784,784,455 County Rd. 520 West,NJ,7746
Wawa,Red Bank,790,790,14 Bridge St.,NJ,7701
Wawa,Lanoka Harbor,794,794,701 North Main St.,NJ,8734
Wawa,New Egypt,798,798,1 Maple Ave.,NJ,8533
Wawa,Wilmington,801,801,705 Philadelphia Pk.,DE,19805
Wawa,Wilmington,809,809,2300 Carpenter Rd.,DE,19810
Wawa,Wilmington,810,810,915 New Rd.,DE,19805
Wawa,Brandywine,811,811,400 A Wilson Rd.,DE,19803
Wawa,Claymont,816,816,301 Ridge Rd.,DE,19703
Wawa,Newark,817,817,4601 Stanton/Ogletown Rd,DE,19713
Wawa,Newark,819,819,274 East Chestnut Hill Rd.,DE,19713
Wawa,Bear,823,823,1100 Pulaski Hwy.,DE,19701
Wawa,New Castle,825,825,531 East Basin Rd.,DE,19720
Wawa,Wilmington,826,826,3448 Naamans Rd.,DE,19803
Wawa,Middletown,828,828,2398 Dupont Pkwy.,DE,19709
Wawa,Newark,829,829,1 Salem Village Square,DE,19702
Wawa,Smyrna,830,830,5632 South Dupont Pkwy.,DE,19977
Wawa,Wilmington,831,831,4555 New Linden Hill Rd.,DE,19808
Wawa,Lewes,834,834,17663 Dartmouth Dr.,DE,19958
Wawa,Bethany Beach,836,836,774 Garfield Pkwy.,DE,19930
Wawa,Millsboro,837,837,102 East Dupont Hwy.,DE,19966
Wawa,Dover,838,838,290 South Dupont Hwy.,DE,19901
Wawa,New Castle,840,840,4000 North Dupont Hwy.,DE,19720
Wawa,New Castle,841,841,183 Airport Rd.,DE,19720
Wawa,Hockessin,842,842,605 Yorklyn Rd.,DE,19707
Wawa,Middletown,843,843,528 West Main St.,DE,19709
Wawa,Newark,844,844,1693 Pulaski Hwy.,DE,19702
Wawa,Dover,845,845,1525 East Lebanon Rd.,DE,19904
Wawa,Dover,848,848,2800 North Dupont Hwy.,DE,19901
Wawa,Rehoboth Beach,849,849,35436 Wolfe Neck Road,DE,19971
Wawa,Newark,850,850,2754 & 2748 Pulaski Hwy.,DE,19702
Wawa,Milford,851,851,902 North Dupont Blvd.,DE,19963
Wawa,New Castle,852,852,1515 North Dupont Hwy.,DE,19720
Wawa,Smyrna,853,853,500 Jimmy Dr.,DE,19977
Wawa,Claymont,854,854,2621 Philadelphia Pk.,DE,19703
Wawa,Dover,855,855,1450 Forest Ave.,DE,19904
Wawa,Delmar,856,856,38711 Sussex Hwy.,DE,19940
Wawa,New Castle,857,857,1400 Beaver Brook Plaza,DE,19720
Wawa,Wilmington,858,858,2030 Limestone Rd.,DE,19808
Wawa,Middletown,859,859,690 Middletown Odessa Rd.,DE,19709
Wawa,Newark,860,860,601 Ogletown Rd.,DE,19711
Wawa,Newark,861,861,1750 Capitol Trail,DE,19711
Wawa,Talleyville,862,862,4030 Concord Pike,DE,19803
Wawa,Cream Ridge,909,909,548 Monmouth Rd.,NJ,8514
Wawa,Freehold,910,910,909 Route 33,NJ,7728
Wawa,Hazlet,911,911,1181 Hwy. 36,NJ,7730
Wawa,North Brunswick,912,912,1910 Route 27,NJ,8290
Wawa,East Brunswick,914,914,426 Ryders Ln.,NJ,8816
Wawa,Medford,915,915,257 Route 70,NJ,8055
Wawa,Neshanic Station,916,916,800 Route 202,NJ,8853
Wawa,Manasquan,917,917,2432 Hwy. #35,NJ,8736
Wawa,Bordentown,919,919,1076 Route 206,NJ,8505
Wawa,Egg Harbor Twp.,920,920,2422-28 Tilton Rd.,NJ,8234
Wawa,Burlington,921,921,Route 130 & Cedar Ln.,NJ,8016
Wawa,Brick,923,923,595 Brick Blvd.,NJ,8723
Wawa,Vineland,924,924,2802 South Delsea Dr.,NJ,8360
Wawa,Mays Landing,925,925,5201 Harding Hwy.,NJ,8330
Wawa,Vineland,926,926,2615 East Chestnut Ave.,NJ,8360
Wawa,Toms River,927,927,94 Route 70,NJ,8755
Wawa,Farmingdale,929,929,1310 Hwy. 34,NJ,7727
Wawa,Bayville,931,931,220 Route 9,NJ,8721
Wawa,Runnemede,932,932,825 North Black Horse Pk.,NJ,8078
Wawa,Jackson,933,933,1120 East Veterans Hwy.,NJ,8527
Wawa,Matawan,934,934,177 Route 34,NJ,7747
Wawa,Manahawkin,935,935,470 N Main St.,NJ,8050
Wawa,Galloway,936,936,716 White Horse Pk.,NJ,8215
Wawa,Toms River,937,937,1725 Hooper Ave.,NJ,8753
Wawa,Howell,938,938,4690 US Hwy. 9,NJ,7731
Wawa,Toms River,939,939,1166 Fischer Blvd.,NJ,8753
Wawa,Old Bridge,940,940,1453 Route 18 South,NJ,8857
Wawa,Mays Landing,941,941,4262 Black Horse Pk.,NJ,8330
Wawa,Vineland,942,942,501 North Delsea Dr.,NJ,8360
Wawa,Burlington,943,943,2003 Mount Holly Rd.,NJ,8016
Wawa,Millville,944,944,624 West Main St.,NJ,8332
Wawa,Rio Grande,946,946,3601 Route 9 South,NJ,8242
Wawa,Cardiff,947,947,6678 Black Horse Pk.,NJ,8234
Wawa,Whiting,948,948,1180 Route 70,NJ,8759
Wawa,Normandy Beach,949,949,3505 Route 35 North,NJ,8735
Wawa,Margate,950,950,9300 Ventnor Ave.,NJ,8402
Wawa,Woodbury Heights,951,951,856 Mantua Pk,NJ,8097
Wawa,Pennsauken,952,952,1505 Route 73 & Remington Ave.,NJ,8110
Wawa,Toms River,953,953,2302 Route 37 East,NJ,8753
Wawa,Wildwood,954,954,3200 New Jersey Ave.,NJ,8260
Wawa,Howell,955,955,2485 Route 9 North,NJ,7731
Wawa,Berlin,956,956,409 North Route 73,NJ,8091
Wawa,Lumberton,957,957,1522 Route 38,NJ,8048
Wawa,Forked River,958,958,444 South Main,NJ,8731
Wawa,Edgewater Park,959,959,4167 S Route 130,NJ,8010
Wawa,Mount Laurel,960,960,1115 Route 73,NJ,8054
Wawa,Logan Township,961,961,1700 Center Square Rd.,NJ,8085
Wawa,Villas,963,963,1515 Bayshore Rd.,NJ,8251
Wawa,Millville,964,964,2105 North 2nd St.,NJ,8332
Wawa,Pennsauken,965,965,5221 Route 70,NJ,8109
Wawa,Bridgeton,966,966,1090 State Hwy. 77,NJ,8302
Wawa,Blackwood,967,967,1301 Little Gloucester Rd.,NJ,8012
Wawa,Galloway,968,968,719 5th Ave.,NJ,8205
Wawa,Egg Harbor Twp.,969,969,5100 English Creek Ave.,NJ,8234
Wawa,Pleasantville,970,970,513 West Delilah Rd.,NJ,8232
Wawa,Mount Ephraim,972,972,602 Black Horse Pk.,NJ,8059
Wawa,Lindenwold,973,973,421 South White Horse Pk.,NJ,8021
Wawa,Woolwich Twp.,974,974,123 Paulsboro Rd.,NJ,8085
Wawa,Turnersville,975,975,4231 Route 42,NJ,8012
Wawa,Keyport,976,976,204 Hwy. 35,NJ,7735
Wawa,Long Beach,977,977,13115 Long Beach Blvd.,NJ,8008
Wawa,Little Egg Harbor Twp.,978,978,195 Mathistown Rd.,NJ,8087
Wawa,New Egypt,979,979,633 Route 539,NJ,8533
Wawa,North Cape May,980,980,3719 Bayshore Rd.,NJ,8204
Wawa,Sicklerville,981,981,2700 Sicklerville Rd.,NJ,8081
Wawa,Pemberton,982,982,3 Arney's Mount Rd.,NJ,8068
Wawa,South River,983,983,656 Old Bridge Tpk.,NJ,8882
Wawa,Sicklerville,984,984,511 Cross Keys Rd.,NJ,8081
Wawa,Phillipsburg,985,985,411 Roseberry St.,NJ,8865
Wawa,Jamesburg,986,986,885 Cranbury South River Rd.,NJ,8831
Wawa,Forked River,988,988,800 Lacey Rd.,NJ,8731
Wawa,Old Bridge Twp,989,989,1886 Englishtown Rd.,NJ,8857
Wawa,Pennsauken,990,990,2290 Clement Ave.,NJ,8030
Wawa,Flemington,991,991,20 Hwy. 31,NJ,8822
Wawa,Manalapan,993,993,146 Woodward Ave.,NJ,7726
Wawa,Manahawkin,994,994,320 Route 72 East,NJ,8050
Wawa,Toms River,995,995,179 Route 37 East,NJ,8754
Wawa,Tinton Falls Boro,996,996,2000 Shafto Rd. & West Park Ave.,NJ,7712
Wawa,Brick Twp.,997,997,116 Brick & Beaverson Blvd.,NJ,8723
Wawa,Blenheim,998,998,800 North Black Horse Pk.,NJ,8012
Wawa,Vineland,999,999,61 South Main Rd.,NJ,8361
Wawa,Orlando,5100,5100,2500 Silver Star Rd.,FL,32804
Wawa,Orlando,5101,5101,5910 Central Florida Parkway,FL,32821
Wawa,Kissimmee,5102,5102,2184 E. Irlo Bronson Memorial Hwy.,FL,34744
Wawa,Orlando,5103,5103,4700 South Goldenrod Rd.,FL,32822
Wawa,Kissimmee,5104,5104,2449 N. Orange Blossom Trail,FL,34744
Wawa,Orlando,5105,5105,7030 South Orange Blossom Trail,FL,32809
Wawa,Tampa,5107,5107,11510 North 30th St.,FL,33612
Wawa,Port Richey,5108,5108,8519 US 19 North,FL,34668
Wawa,New Port Richey,5109,5109,8330 Ridge Rd.,FL,34668
Wawa,Pinellas Park,5110,5110,3101 Gandy Blvd.,FL,33782
Wawa,Orlando,5111,5111,2239 North Semoran Blvd.,FL,32807
Wawa,Apopka,5112,5112,1615 S. Orange Blossom Trail,FL,32870
Wawa,Orlando,5113,5113,8049 East Colonial Dr.,FL,32818
Wawa,Tampa,5114,5114,3942 N. US Highway 301,FL,33619
Wawa,New Port Richey,5115,5115,4026 US Highway 19,FL,34652
Wawa,Kissimmee,5116,5116,SR 535 and Poinciana Blvd.,FL,34744
Wawa,Lake Mary,5117,5117,3510 N U.S. Hwy 17-92,FL,32746
Wawa,Oviedo,5118,5118,3000 Alafaya Trail,FL,32765
Wawa,Tampa,5122,5122,N. Dale Mabry Hwy & W. Gray St,FL,33612
Wawa,St. Cloud,5123,5123,1125 E. Irlo Bronson Memorial Hwy.,FL,34769
Wawa,Kissimmee,5124,5124,5035 S. Orange Blossom Tr.,FL,34758
Wawa,Pinellas Park,5125,5125,6200 N. 34th St.,FL,33781
Wawa,Casselberry,5128,5128,23 Seminola Blvd.,FL,32707
Wawa,Seminole,5129,5129,9501 Bay Pines Blvd,FL,33708
Wawa,Orlando,5130,5130,3025 Curry Ford Rd,FL,32806
Wawa,Orlando,5131,5131,2225 South Goldenrod Rd.,FL,32822
Wawa,Orlando,5132,5132,13585 S. Orange Ave.,FL,32824
Wawa,Riverview,5133,5133,10115 Bloomingdale Ave,FL,33578
Wawa,Orlando,5134,5134,608 N. Goldenrod Rd,FL,32807
Wawa,Winter Park,5135,5135,901 N. Orlando Avenue,FL,32789
Wawa,Orlando,5136,5136,6500 South Semoran Blvd.,FL,32822
Wawa,Orlando,5138,5138,8574 S. Orange Blossom Trail,FL,32809
Wawa,Tampa,5139,5139,5702 W. Waters Ave.,FL,33634
Wawa,Apopka,5140,5140,449 West Main Street,FL,32712
Wawa,Largo,5141,5141,8910 Ulmerton Road,FL,33771
Wawa,Bethlehem,8001,8001,1584 8th Ave.,PA,18018
Wawa,Norristown,8003,8003,705 South Trooper Rd.,PA,19403
Wawa,Limerick,8005,8005,579 North Lewis Rd.,PA,19468
Wawa,Philadelphia,8006,8006,6800 Rising Sun Ave.,PA,19111
Wawa,Folcroft,8007,8007,1550 Chester Pk.,PA,19032
Wawa,Souderton,8008,8008,3520 Bethlehem Pk.,PA,18964
Wawa,Philadelphia,8009,8009,6506 Frankford Ave.,PA,19101
Wawa,Wyomissing,8010,8010,100 West Lancaster Pk.,PA,19610
Wawa,Thorndale,8011,8011,3025 Lincoln Hwy.,PA,19372
Wawa,Philadelphia,8013,8013,2535 Aramingo Ave.,PA,19135
Wawa,Whitehall,8014,8014,2985 Macarthur Rd.,PA,18052
Wawa,E. Marlborough Twsp.,8015,8015,901 East Baltimore Pk.,PA,19348
Wawa,Colmar,8018,8018,119 Bethlehem Pk.,PA,18915
Wawa,Collegeville,8019,8019,1860 South Collegeville Rd.,PA,19426
Wawa,Langhorne,8020,8020,132 Oxford Valley Rd.,PA,19047
Wawa,Quakertown,8021,8021,1960 John Fries Hwy.,PA,18951
Wawa,Phoenixville,8024,8024,120 Schuylkill Rd.,PA,19460
Wawa,Gap,8025,8025,787 Rt 41,PA,17527
Wawa,East Stroudsburg,8026,8026,5121 Milford Rd.,PA,18302
Wawa,Aston,8027,8027,5008 Pennell Rd.,PA,19014
Wawa,Philadelphia,8030,8030,2600 Grant Ave.,PA,19114
Wawa,Palmer,8032,8032,631 South 25th St.,PA,18045
Wawa,Lionville,8033,8033,120 Eagleview Rd.,PA,19341
Wawa,Center Square,8034,8034,1015 Dekalb Pk.,PA,19422
Wawa,Philadelphia,8035,8035,12301 Academy Rd,PA,19154
Wawa,Bethlehem,8036,8036,2525 Easton Ave.,PA,18017
Wawa,Bethlehem,8037,8037,741 East Broad St.,PA,18018
Wawa,Limerick,8038,8038,451 West Ridge Pk.,PA,19468
Wawa,Pottstown,8040,8040,1500 High St.,PA,19464
Wawa,Brookhaven,8042,8042,4703 Edgemont Ave.,PA,19015
Wawa,Quakertown,8044,8044,600 Northwest End Blvd.,PA,18951
Wawa,West Chester,8045,8045,1501 West Chester Pk.,PA,19380
Wawa,Easton,8046,8046,3820 Easton Nazareth Hwy.,PA,18045
Wawa,Philadelphia,8047,8047,10901 Bustleton Ave.,PA,19115
Wawa,Folsom,8048,8048,123 Morton Ave.,PA,19033
Wawa,Philadelphia,8049,8049,6701 Ridge Ave.,PA,19128
Wawa,Hatfield,8050,8050,200 Forty Foot Rd. & Welsh Rd.,PA,19446
Wawa,Hamburg,8051,8051,515 Lowland Ave.,PA,19526
Wawa,Philadelphia,8052,8052,7001 Roosevelt Blvd.,PA,19149
Wawa,Philadelphia,8053,8053,8220 West Bartram Ave.,PA,19153
Wawa,Philadelphia,8054,8054,9377 Krewstown Rd.,PA,19115
Wawa,Warminster,8055,8055,549 West Street Rd.,PA,18974
Wawa,Hatfield,8056,8056,2480 Bethlehem Pk.,PA,19440
Wawa,Huntingdon Valley,8057,8057,2500 Philmont Ave,PA,19006
Wawa,King of Prussia,8058,8058,145 W. DeKalb Pike,PA,19406
Wawa,Boothwyn,8059,8059,489 Conchester Highway,PA,19061
Wawa,Fort Washington,8060,8060,1145 Virginia Ave.,PA,19034
Wawa,Southampton,8300,8300,2356 Route 206,NJ,8016
Wawa,Parsippany,8302,8302,Edwards Rd. & New Rd.,NJ,7054
Wawa,Neptune,8303,8303,3520 Route 66,NJ,7753
Wawa,Delran Twp,8304,8304,5010 Route 130 North,NJ,8075
Wawa,Paulsboro,8305,8305,51 Berkley Rd.,NJ,8068
Wawa,Middletown Twp,8306,8306,Route 36 & Appleton Ave.,NJ,7748
Wawa,Toms River,8307,8307,1600 Route 37 West & Northampton Ave.,NJ,8753
Wawa,Mullica Hill,8308,8308,631 Mullica Hill Rd.,NJ,8062
Wawa,Barnegat,8309,8309,945 West Bay Ave.,NJ,8005
Wawa,Berlin,8310,8310,201 White Horse Pk.,NJ,8009
Wawa,Cherry Hill,8311,8311,1824 Marlton Pk. East,NJ,8003
Wawa,Pohatcong,8313,8313,1300 Route 22,NJ,8886
Wawa,Burlington City,8314,8314,350 East Route 130,NJ,8016
Wawa,Old Bridge,8315,8315,3600 US Highway 9,NJ,8857
Wawa,Maple Shade,8316,8316,Route 73 and Helene St.,NJ,8052
Wawa,Woodbridge Twp,8317,8317,Route 9 and King George's Post Rd.,NJ,8857
Wawa,Kearny,8318,8318,200 Harrison Ave.,NJ,7032
Wawa,Lakewood,8319,8319,135 Route 70,NJ,8701
Wawa,Elizabeth,8320,8320,595 Spring St.,NJ,7201
Wawa,North Wildwood,8322,8322,330 W. Spruce St,NJ,8260
Wawa,Avenel,8323,8323,930 US Highway 1 North,NJ,8857
Wawa,Somers Point,8324,8324,16 MacArthur Blvd,NJ,8244
Wawa,Cherry Hill,8325,8325,50 Haddonfield Road,NJ,8002
Wawa,Lodi,8326,8326,150 Essex St.,NJ,7644
Wawa,Glassboro,8327,8327,692 N. Delsea Dr.,NJ,8028
Wawa,Jackson,8328,8328,329 N. County Line Rd.,NJ,8527
Wawa,Fallston,8500,8500,204 Connolly Rd.,MD,21047
Wawa,Reisterstown,8501,8501,516 Main St.,MD,21136
Wawa,Baltimore,8502,8502,6541 Eastern Ave.,MD,21224
Wawa,Glen Burnie,8503,8503,7124 Ritchie Hwy.,MD,21061
Wawa,Richmond,8600,8600,7316 Forest Hill Ave.,VA,23225
Wawa,Ashland,8602,8602,US 301 & Atlee Rd.,VA,23005
Wawa,Henrico,8603,8603,8017 West Broad St.,VA,23294
Wawa,Norfolk,8604,8604,975 East Little Creek Rd.,VA,23518
Wawa,Sandston,8605,8605,500 South Airport Dr.,VA,23150
Wawa,Norfolk,8606,8606,8105 Hampton Blvd.,VA,23505
Wawa,Ashland,8607,8607,10373 Sliding Hill Rd.,VA,23005
Wawa,Virginia Beach,8608,8608,1700 Virginia Beach Blvd.,VA,23454
Wawa,Virginia Beach,8609,8609,5701 Northampton Blvd.,VA,23455
Wawa,Portsmouth,8612,8612,4005 Victory Blvd.,VA,23701
Wawa,Chesapeake,8613,8613,101 Hillcrest Pkwy.,VA,23328
Wawa,Richmond,8615,8615,11052 West Broad St.,VA,23225
Wawa,Fredericksburg,8617,8617,10060 Jefferson Davis Hwy.,VA,22407
Wawa,Virginia Beach,8618,8618,5048 Ferrell Pkwy.,VA,23464
Wawa,Warrenton,8622,8622,510 West Shirley Ave.,VA,20186
Wawa,Midlothian,8623,8623,150 Pike View Rd.,VA,23113
Wawa,Colonial Heights,8624,8624,1260 Temple Ave.,VA,23834
Wawa,Midlothian,8625,8625,10135 Hull Street Rd.,VA,23112
Wawa,Henrico,8626,8626,5301 South Laburnum Ave,VA,23231
Wawa,Fredericksburg,8627,8627,9 South Gateway Drive,VA,22406
Wawa,Norfolk,8628,8628,6301 North Military Hwy,VA,23518
