keywords,city,Aggdata Store Number,store_number,address,state,zip_code
Whataburger,Victoria,Whataburger #10,#10 10,509 E Rio Grande St,TX,77901
Whataburger,Buda,Whataburger #1000,#1000 1000,670 Old San Antonio Rd,TX,78610
Whataburger,Joaquin,Whataburger #1001,#1001 1001,12768 Hwy 84 East,TX,75954
Whataburger,Katy,Whataburger #1002,#1002 1002,25635 Katy Freeway,TX,77494
Whataburger,Richardson,Whataburger #1003,#1003 1003,505 S Plano,TX,75081
Whataburger,Shawnee,Whataburger #1004,#1004 1004,4836 N Kickapoo,OK,74804
Whataburger,Norman,Whataburger #1005,#1005 1005,2424 Main Street,OK,73069
Whataburger,Weatherford,Whataburger #1006,#1006 1006,110 East IH-20,TX,76087
Whataburger,Mt. Enterprise,Whataburger #1007,#1007 1007,104 S. Railroad Avenue,TX,75681
Whataburger,San Antonio,Whataburger #1008,#1008 1008,18303 W Interstate 10,TX,78257
Whataburger,Plano,Whataburger #1009,#1009 1009,3521 N. Central Expressway,TX,75023
Whataburger,Coppell,Whataburger #1010,#1010 1010,730 N. Denton Tap Road,TX,75019
Whataburger,College Station,Whataburger #1011,#1011 1011,4471 State Hwy 6 S.,TX,77845
Whataburger,Rowlett,Whataburger #1012,#1012 1012,8700 Lakeview Parkway,TX,75088
Whataburger,Dallas,Whataburger #1013,#1013 1013,6232 Retail Road,TX,75231
Whataburger,Phoenix,Whataburger #1015,#1015 1015,2910 W. Thunderbird,AZ,85053
Whataburger,Mansfield,Whataburger #1016,#1016 1016,3320 East Broad,TX,76063
Whataburger,New Braunfels,Whataburger #1017,#1017 1017,123 Creekside Way,TX,78130
Whataburger,McKinney,Whataburger #1018,#1018 1018,9053 W. University Drive,TX,75071
Whataburger,Houston,Whataburger #1019,#1019 1019,8134 West Sam Houston Pkwy S,TX,77072
Whataburger,Oklahoma City,Whataburger #102,#102 102,5832 NW 36th St,OK,73122
Whataburger,Frisco,Whataburger #1020,#1020 1020,11650 N Dallas Parkway,TX,75034
Whataburger,Lafayette,Whataburger #1021,#1021 1021,1845 W Pinhook Rd,LA,70508
Whataburger,Austin,Whataburger #1022,#1022 1022,8300 N FM 620,TX,78726
Whataburger,Pharr,Whataburger #1023,#1023 1023,1410 South Cage Blvd Pharr,TX,78577
Whataburger,Dallas,Whataburger #1024,#1024 1024,15255 Montfort Dr,TX,75248
Whataburger,San Antonio,Whataburger #1025,#1025 1025,412 E. Commerce,TX,78205
Whataburger,Universal City,Whataburger #1026,#1026 1026,1134 Pat Booker Rd,TX,78148
Whataburger,La Vernia,Whataburger #1028,#1028 1028,93 FM 1346,TX,78121
Whataburger,El Paso,Whataburger #103,#103 103,6925 Alameda Ave,TX,79915
Whataburger,Panama City Beach,Whataburger #1030,#1030 1030,11749 Panama City Beach Pkwy,FL,32413
Whataburger,Lubbock,Whataburger #1031,#1031 1031,2412 9th St,TX,79401
Whataburger,Durant,Whataburger #1032,#1032 1032,3505 W Main,OK,74701
Whataburger,San Antonio,Whataburger #1034,#1034 1034,17311 Bulverde Rd,TX,78247
Whataburger,Lytle,Whataburger #1035,#1035 1035,19561 S FM 2790 W Ste  2,TX,78052
Whataburger,Lindale,Whataburger #1036,#1036 1036,311 S. Main St.,TX,75771
Whataburger,Euless,Whataburger #1037,#1037 1037,2344 E. Rental Car Drive,TX,76039
Whataburger,Mobile,Whataburger #104,#104 104,2461 Government St,AL,36606
Whataburger,Montgomery,Whataburger #1040,#1040 1040,18950 Hwy 105 West,TX,77356
Whataburger,Midwest City,Whataburger #1041,#1041 1041,2914 S. Douglas Blvd.,OK,73130
Whataburger,Tulsa,Whataburger #1042,#1042 1042,4888 East 21st Street South,OK,74114
Whataburger,Mustang,Whataburger #1043,#1043 1043,212 N. Mustang Rd.,OK,73064
Whataburger,Copperas Cove,Whataburger #1044,#1044 1044,3006 E Hwy 190,TX,76522
Whataburger,Corsicana,Whataburger #1046,#1046 1046,2001 Interstate 45,TX,75109
Whataburger,Euless,Whataburger #1050,#1050 1050,2155 Airport Freeway,TX,76040
Whataburger,Del Rio,Whataburger #107,#107 107,2113 Avenue F,TX,78840
Whataburger,Fort Worth,Whataburger #110,#110 110,5200 Davis Blvd,TX,76180
Whataburger,Corpus Christi,Whataburger #111,#111 111,1521 Airline Rd,TX,78412
Whataburger,San Antonio,Whataburger #112,#112 112,7007 S Zarzamora St,TX,78224
Whataburger,Mansfield,Whataburger #113,#113 113,1221 Highway 157 N,TX,76063
Whataburger,Amarillo,Whataburger #114,#114 114,4111 W 45th Ave,TX,79109
Whataburger,Chickasaw,Whataburger #115,#115 115,100 N Craft Hwy,AL,36611
Whataburger,Dallas,Whataburger #116,#116 116,5525 S Buckner Blvd,TX,75228
Whataburger,Tyler,Whataburger #117,#117 117,137 W Southwest Loop 323,TX,75701
Whataburger,Fort Worth,Whataburger #119,#119 119,3313 S Cherry Ln,TX,76116
Whataburger,Corpus Christi,Whataburger #12,#12 12,2018 S. Staples Street,TX,78404
Whataburger,Houston,Whataburger #120,#120 120,4545 North Fwy,TX,77022
Whataburger,Corpus Christi,Whataburger #123,#123 123,1121 Waldron Rd,TX,78418
Whataburger,Oklahoma City,Whataburger #124,#124 124,1124 SW 59th St,OK,73109
Whataburger,Lubbock,Whataburger #125,#125 125,4802 50th St,TX,79414
Whataburger,Denton,Whataburger #127,#127 127,1701 Malone St,TX,76201
Whataburger,Duncanville,Whataburger #129,#129 129,311 W Camp Wisdom Rd,TX,75116
Whataburger,Houston,Whataburger #131,#131 131,12121 Katy Fwy,TX,77079
Whataburger,Austin,Whataburger #132,#132 132,9516 N Lamar Blvd,TX,78753
Whataburger,Houston,Whataburger #134,#134 134,444 W Little York Rd,TX,77076
Whataburger,El Paso,Whataburger #136,#136 136,5600 Montana Ave,TX,79925
Whataburger,Houston,Whataburger #137,#137 137,2429 Gessner Dr,TX,77080
Whataburger,Houston,Whataburger #138,#138 138,1040 Gessner Dr,TX,77055
Whataburger,Clute,Whataburger #139,#139 139,1405 Highway 332,TX,77531
Whataburger,Aransas Pass,Whataburger #14,#14 14,2737 West Wheeler Ave,TX,78336
Whataburger,Waco,Whataburger #140,#140 140,928 S 7th St,TX,76706
Whataburger,Houston,Whataburger #141,#141 141,8941 Long Point Rd,TX,77055
Whataburger,Houston,Whataburger #142,#142 142,1604 FM 1960 Rd W,TX,77090
Whataburger,Pasadena,Whataburger #143,#143 143,810 Southmore Ave,TX,77503
Whataburger,Pasadena,Whataburger #144,#144 144,4015 Red Bluff Rd,TX,77503
Whataburger,San Angelo,Whataburger #147,#147 147,3202 Sherwood Way,TX,76901
Whataburger,McAllen,Whataburger #148,#148 148,3520 N 10th St,TX,78501
Whataburger,San Antonio,Whataburger #149,#149 149,4646 W Commerce St,TX,78237
Whataburger,San Antonio,Whataburger #15,#15 15,5900 San Pedro Ave,TX,78212
Whataburger,Edmond,Whataburger #152,#152 152,421 S Broadway,OK,73034
Whataburger,Houston,Whataburger #154,#154 154,5050 Antoine Dr,TX,77092
Whataburger,San Antonio,Whataburger #160,#160 160,3500 S New Braunfels Ave,TX,78223
Whataburger,Corpus Christi,Whataburger #161,#161 161,510 Texan Trl,TX,78404
Whataburger,Austin,Whataburger #162,#162 162,3210 E Martin Luther King Jr,TX,78721
Whataburger,Tallahassee,Whataburger #164,#164 164,815 Lake Bradford Rd,FL,32304
Whataburger,Tallahassee,Whataburger #165,#165 165,2586 N Monroe St,FL,32303
Whataburger,Corpus Christi,Whataburger #166,#166 166,9402 Leopard St,TX,78410
Whataburger,Pensacola,Whataburger #168,#168 168,815 E Burgess Rd,FL,32504
Whataburger,Pensacola,Whataburger #169,#169 169,5070 N 9th Ave,FL,32504
Whataburger,Euless,Whataburger #172,#172 172,109 Airport Fwy,TX,76040
Whataburger,Victoria,Whataburger #175,#175 175,4302 N Navarro St,TX,77901
Whataburger,Dallas,Whataburger #176,#176 176,5500 Lemmon Ave,TX,75209
Whataburger,Midland,Whataburger #177,#177 177,800 Andrews Hwy,TX,79761
Whataburger,San Marcos,Whataburger #178,#178 178,1004 Highway 123,TX,78666
Whataburger,Fort Worth,Whataburger #179,#179 179,955 N Beach St,TX,76111
Whataburger,Denton,Whataburger #181,#181 181,712 Fort Worth Dr,TX,76201
Whataburger,Austin,Whataburger #182,#182 182,2305 Burleson Rd,TX,78741
Whataburger,El Paso,Whataburger #183,#183 183,1755 N Lee Trevino Dr,TX,79936
Whataburger,Dallas,Whataburger #184,#184 184,9394 Lyndon B Johnson Fwy,TX,75243
Whataburger,Pharr,Whataburger #190,#190 190,100 E US Expressway 83,TX,78577
Whataburger,Mission,Whataburger #191,#191 191,801 E Business Hwy 83 #191,TX,78572
Whataburger,San Benito,Whataburger #192,#192 192,1110 W US Highway 77,TX,78586
Whataburger,Cleburne,Whataburger #194,#194 194,1212 W Henderson St,TX,76031
Whataburger,Weatherford,Whataburger #195,#195 195,1212 S Main St,TX,76086
Whataburger,Houston,Whataburger #196,#196 196,1718 West Loop N,TX,77008
Whataburger,Garland,Whataburger #197,#197 197,5806 Broadway Blvd,TX,75043
Whataburger,El Paso,Whataburger #198,#198 198,650 Sunland Park Dr,TX,79912
Whataburger,Corpus Christi,Whataburger #2,#2 2,2424 Baldwin Blvd,TX,78405
Whataburger,San Antonio,Whataburger #200,#200 200,14543 Brook Hollow Blvd,TX,78232
Whataburger,Rockport,Whataburger #201,#201 201,1805 Highway 35 N,TX,78382
Whataburger,Tulsa,Whataburger #202,#202 202,2701 S Memorial Dr,OK,74129
Whataburger,Benbrook,Whataburger #203,#203 203,8506 Highway 377 S,TX,76126
Whataburger,Beaumont,Whataburger #204,#204 204,3575 College St,TX,77701
Whataburger,Ft. Worth,Whataburger #205,#205 205,125 Sycamore School Rd.,TX,76134
Whataburger,Kerrville,Whataburger #207,#207 207,338 Junction Hwy,TX,78029
Whataburger,Terrell,Whataburger #208,#208 208,1400 W Moore Ave #A,TX,75160
Whataburger,Richardson,Whataburger #209,#209 209,1910 N Coit Rd,TX,75080
Whataburger,Pensacola,Whataburger #21,#21 21,5480 Pensacola Blvd,FL,32505
Whataburger,Scottsdale,Whataburger #215,#215 215,2955 N Hayden Rd,AZ,85251
Whataburger,Phoenix,Whataburger #217,#217 217,450 W Indian School Rd,AZ,85013
Whataburger,Phoenix,Whataburger #218,#218 218,737 E McDowell Rd,AZ,85006
Whataburger,Tempe,Whataburger #221,#221 221,1346 S Rural Rd,AZ,85281
Whataburger,McAllen,Whataburger #23,#23 23,2225 W US Highway 83,TX,78501
Whataburger,Tucson,Whataburger #230,#230 230,6504 E 22nd St,AZ,85710
Whataburger,Tucson,Whataburger #232,#232 232,3925 S 6th Ave,AZ,85714
Whataburger,Casa Grande,Whataburger #236,#236 236,405 E Florence Blvd,AZ,85222
Whataburger,Odessa,Whataburger #24,#24 24,3716 Andrews Hwy,TX,79762
Whataburger,Albuquerque,Whataburger #245,#245 245,2808 Carlisle Blvd NE,NM,87110
Whataburger,Albuquerque,Whataburger #247,#247 247,200 Menaul Blvd NW,NM,87107
Whataburger,Pensacola,Whataburger #25,#25 25,1313 N New Warrington Rd,FL,32506
Whataburger,Weslaco,Whataburger #26,#26 26,1500 E US Highway 83,TX,78596
Whataburger,Houston,Whataburger #262,#262 262,6402 Telephone Rd,TX,77061
Whataburger,Houston,Whataburger #263,#263 263,2820 Chimney Rock Rd,TX,77056
Whataburger,Houston,Whataburger #264,#264 264,6914 Harrisburg Blvd,TX,77011
Whataburger,Houston,Whataburger #265,#265 265,6405 San Felipe St,TX,77057
Whataburger,Houston,Whataburger #266,#266 266,3639 Westheimer Rd,TX,77027
Whataburger,Houston,Whataburger #267,#267 267,4616 Old Spanish TRL,TX,77021
Whataburger,Houston,Whataburger #270,#270 270,6705 Fondren Rd,TX,77036
Whataburger,Houston,Whataburger #271,#271 271,3712 S Shepherd Dr,TX,77098
Whataburger,Houston,Whataburger #278,#278 278,11027 Fuqua St,TX,77089
Whataburger,Houston,Whataburger #279,#279 279,10843 FM 1960 Rd W,TX,77070
Whataburger,Brownsville,Whataburger #280,#280 280,2290 N Expressway,TX,78521
Whataburger,Robstown,Whataburger #282,#282 282,105 N US Highway 77,TX,78380
Whataburger,Brownsville,Whataburger #283,#283 283,2419 Boca Chica Blvd,TX,78521
Whataburger,San Antonio,Whataburger #285,#285 285,4502 Fredericksburg Rd,TX,78201
Whataburger,Corpus Christi,Whataburger #286,#286 286,2402 S Padre Island Dr,TX,78415
Whataburger,Corpus Christi,Whataburger #288,#288 288,5001 Saratoga Blvd,TX,78413
Whataburger,Mineral Wells,Whataburger #289,#289 289,2503 E Hubbard St,TX,76067
Whataburger,Houston,Whataburger #292,#292 292,1410 W Mount Houston Rd,TX,77038
Whataburger,Corsicana,Whataburger #293,#293 293,1709 W 7th Ave,TX,75110
Whataburger,Lubbock,Whataburger #294,#294 294,1702 19th St,TX,79401
Whataburger,Midland,Whataburger #295,#295 295,1905 N Big Spring St,TX,79705
Whataburger,Irving,Whataburger #296,#296 296,2931 N Belt Line Rd,TX,75062
Whataburger,Midland,Whataburger #297,#297 297,3206 N Midkiff Rd,TX,79705
Whataburger,San Antonio,Whataburger #298,#298 298,5203 Walzem Rd,TX,78218
Whataburger,Corpus Christi,Whataburger #299,#299 299,4444 E Causeway Blvd,TX,78402
Whataburger,Corpus Christi,Whataburger #3,#3 3,4510 Leopard St,TX,78408
Whataburger,Odessa,Whataburger #30,#30 30,1900 E 8th St,TX,79761
Whataburger,Sinton,Whataburger #300,#300 300,220 S San Patricio St,TX,78387
Whataburger,Odessa,Whataburger #302,#302 302,4960  E 42nd St,TX,79762
Whataburger,Tulsa,Whataburger #303,#303 303,5726 E 41st St,OK,74135
Whataburger,Tulsa,Whataburger #304,#304 304,1432 S Peoria Ave,OK,74120
Whataburger,Mesquite,Whataburger #305,#305 305,3204 N Town East Blvd,TX,75150
Whataburger,Beaumont,Whataburger #306,#306 306,4286 E Lucas Dr,TX,77708
Whataburger,Amarillo,Whataburger #307,#307 307,2424 S Georgia St,TX,79109
Whataburger,Big Spring,Whataburger #308,#308 308,1110 S Gregg St,TX,79720
Whataburger,Humble,Whataburger #309,#309 309,19440 Highway 59 N,TX,77338
Whataburger,Corpus Christi,Whataburger #31,#31 31,4140 S Staples St,TX,78411
Whataburger,Henderson,Whataburger #310,#310 310,630 US Highway 79 N,TX,75652
Whataburger,Port Aransas,Whataburger #311,#311 311,729 Highway 361,TX,78373
Whataburger,Corpus Christi,Whataburger #313,#313 313,121 N Shoreline Blvd,TX,78401
Whataburger,El Paso,Whataburger #314,#314 314,8101 Dyer St,TX,79904
Whataburger,San Antonio,Whataburger #315,#315 315,3202 Wurzbach Rd,TX,78238
Whataburger,San Antonio,Whataburger #316,#316 316,7016 Bandera Rd,TX,78238
Whataburger,Falfurrias,Whataburger #317,#317 317,101 Bypass 281,TX,78355
Whataburger,New Braunfels,Whataburger #318,#318 318,143 S Business Ih 35,TX,78130
Whataburger,Refugio,Whataburger #319,#319 319,605 N Alamo St,TX,78377
Whataburger,Tyler,Whataburger #32,#32 32,1739 S Beckham Ave,TX,75701
Whataburger,San Antonio,Whataburger #320,#320 320,8214 Marbach Rd,TX,78227
Whataburger,Austin,Whataburger #321,#321 321,801 E William Cannon Dr,TX,78745
Whataburger,Port Lavaca,Whataburger #323,#323 323,468 State Highway 35 S,TX,77979
Whataburger,Houston,Whataburger #324,#324 324,2627 FM 1960 Rd E,TX,77073
Whataburger,Pasadena,Whataburger #325,#325 325,4831 Fairmont Pwy,TX,77505
Whataburger,San Antonio,Whataburger #327,#327 327,11003 NW Military Hwy,TX,78231
Whataburger,Port Isabel,Whataburger #328,#328 328,1301 State Highway 100,TX,78578
Whataburger,San Antonio,Whataburger #329,#329 329,8756 Grissom Rd,TX,78251
Whataburger,El Paso,Whataburger #330,#330 330,2201 N Mesa St,TX,79902
Whataburger,Snyder,Whataburger #331,#331 331,4612 College Ave,TX,79549
Whataburger,Raymondville,Whataburger #333,#333 333,1007 E  Hidalgo Ave,TX,78580
Whataburger,Corpus Christi,Whataburger #334,#334 334,4101 US Highway 77,TX,78410
Whataburger,Laredo,Whataburger #335,#335 335,2701 E Saunders St,TX,78041
Whataburger,Corpus Christi,Whataburger #336,#336 336,6817 S Padre Island Dr,TX,78412
Whataburger,Hurst,Whataburger #337,#337 337,1120 W Pipeline Rd,TX,76053
Whataburger,Arlington,Whataburger #338,#338 338,2214 N Collins St,TX,76011
Whataburger,Grand Prairie,Whataburger #339,#339 339,1404 NW 19th St,TX,75050
Whataburger,Beeville,Whataburger #34,#34 34,1710 N Saint Marys St,TX,78102
Whataburger,Jacksonville,Whataburger #342,#342 342,627 S Jackson St,TX,75766
Whataburger,Greenville,Whataburger #343,#343 343,6400 Wesley St,TX,75401
Whataburger,Abilene,Whataburger #344,#344 344,4241 S 1st  St,TX,79605
Whataburger,Ft. Worth,Whataburger #345,#345 345,3501 Altamesa Blvd,TX,76133
Whataburger,Austin,Whataburger #346,#346 346,601 Barton Springs Rd,TX,78704
Whataburger,Austin,Whataburger #347,#347 347,2801 W Anderson Ln,TX,78757
Whataburger,Corpus Christi,Whataburger #349,#349 349,602 S Padre Island Dr,TX,78416
Whataburger,Pasadena,Whataburger #35,#35 35,2301 Spencer Hwy,TX,77504
Whataburger,Weslaco,Whataburger #350,#350 350,1100 N Texas Blvd,TX,78596
Whataburger,De Soto,Whataburger #351,#351 351,203 E Pleasant Run Rd,TX,75115
Whataburger,San Antonio,Whataburger #352,#352 352,5075 Rigsby Ave,TX,78222
Whataburger,Lake Worth,Whataburger #353,#353 353,6120 Lake Worth Blvd,TX,76135
Whataburger,Waco,Whataburger #357,#357 357,100 W Loop 340,TX,76712
Whataburger,Burleson,Whataburger #358,#358 358,547 SW Wilshire Blvd,TX,76028
Whataburger,Cuero,Whataburger #360,#360 360,905 N Esplanade St,TX,77954
Whataburger,Ennis,Whataburger #361,#361 361,105 N Interstate Highway 45,TX,75119
Whataburger,San Antonio,Whataburger #362,#362 362,13900 Oconnor Rd,TX,78233
Whataburger,San Antonio,Whataburger #363,#363 363,4635 Rittiman Rd,TX,78218
Whataburger,Houston,Whataburger #365,#365 365,7210 FM 1960 Rd W,TX,77069
Whataburger,El Paso,Whataburger #366,#366 366,2120 E Paisano Dr,TX,79905
Whataburger,San Antonio,Whataburger #367,#367 367,2727 West Ave,TX,78201
Whataburger,Fort Worth,Whataburger #368,#368 368,5501 Rufe Snow Dr,TX,76180
Whataburger,Beaumont,Whataburger #369,#369 369,140 Dowlen Rd,TX,77707
Whataburger,Amarillo,Whataburger #371,#371 371,3401 S Coulter St,TX,79109
Whataburger,El Paso,Whataburger #372,#372 372,131 N Americas Ave,TX,79907
Whataburger,El Campo,Whataburger #373,#373 373,909 N Mechanic St,TX,77437
Whataburger,El Paso,Whataburger #374,#374 374,8055 North Loop Dr,TX,79915
Whataburger,Webster,Whataburger #375,#375 375,100 E NASA Rd 1,TX,77598
Whataburger,Corpus Christi,Whataburger #376,#376 376,14301 S Padre Island Dr,TX,78418
Whataburger,Baytown,Whataburger #377,#377 377,1930 Garth Rd,TX,77520
Whataburger,Longview,Whataburger #38,#38 38,105 N Spur 63,TX,75601
Whataburger,San Antonio,Whataburger #381,#381 381,4720 Ih 35 S,TX,78211
Whataburger,San Antonio,Whataburger #382,#382 382,303 Roland Rd,TX,78210
Whataburger,Wichita Falls,Whataburger #384,#384 384,3404 Mcniel Ave,TX,76308
Whataburger,Sweetwater,Whataburger #385,#385 385,1009 E Broadway St,TX,79556
Whataburger,Irving,Whataburger #386,#386 386,2515 W. Airport Freeway,TX,75062
Whataburger,Fort Worth,Whataburger #387,#387 387,6469 Brentwood Stair Rd,TX,76112
Whataburger,McAllen,Whataburger #388,#388 388,1419 S 10th St,TX,78501
Whataburger,Houston,Whataburger #389,#389 389,12663 Veterans Memorial Dr,TX,77014
Whataburger,Mesquite,Whataburger #390,#390 390,2943 N Galloway Ave,TX,75150
Whataburger,Waxahachie,Whataburger #391,#391 391,604 N Highway 77,TX,75165
Whataburger,Katy,Whataburger #392,#392 392,514 S Mason Rd,TX,77450
Whataburger,Tulsa,Whataburger #395,#395 395,6004 S Sheridan Rd,OK,74145
Whataburger,Corpus Christi,Whataburger #396,#396 396,4545 Violet Rd,TX,78410
Whataburger,Arlington,Whataburger #397,#397 397,3360 S Watson Rd,TX,76014
Whataburger,Live Oak,Whataburger #398,#398 398,12806 N IH 35,TX,78233
Whataburger,San Antonio,Whataburger #399,#399 399,1118 Roosevelt Ave,TX,78210
Whataburger,Kingsville,Whataburger #4,#4 4,510 S 14th St,TX,78363
Whataburger,Texas City,Whataburger #40,#40 40,2411 Palmer Hwy,TX,77590
Whataburger,Garland,Whataburger #400,#400 400,1506 W Buckingham Rd,TX,75042
Whataburger,Mexia,Whataburger #401,#401 401,1012 E Milam St,TX,76667
Whataburger,Spring,Whataburger #404,#404 404,7430 Louetta Rd,TX,77379
Whataburger,Seguin,Whataburger #406,#406 406,318 N Highway 123 Byp,TX,78155
Whataburger,Alamo,Whataburger #407,#407 407,513 N Alamo Rd,TX,78516
Whataburger,Denison,Whataburger #408,#408 408,231 N Austin Ave,TX,75020
Whataburger,Uvalde,Whataburger #409,#409 409,2111 E Main St,TX,78802
Whataburger,Harlingen,Whataburger #41,#41 41,1522 E Harrison Ave,TX,78550
Whataburger,Mesquite,Whataburger #410,#410 410,1726 Military Pkwy.,TX,75149
Whataburger,El Paso,Whataburger #412,#412 412,5779 Fairbanks Dr,TX,79924
Whataburger,El Paso,Whataburger #413,#413 413,7400 Gateway Blvd E,TX,79915
Whataburger,Tucson,Whataburger #414,#414 414,5402 E. Speedway Blvd.,AZ,85712
Whataburger,Liberty,Whataburger #415,#415 415,1921 Highway 90,TX,77575
Whataburger,Livingston,Whataburger #416,#416 416,1504 W Church St,TX,77351
Whataburger,Cedar Park,Whataburger #417,#417 417,500 N Bell Blvd,TX,78613
Whataburger,Sealy,Whataburger #418,#418 418,2013 Highway 36 S,TX,77474
Whataburger,Angleton,Whataburger #419,#419 419,1120 N Velasco St,TX,77515
Whataburger,Pensacola,Whataburger #42,#42 42,417 E Gregory St,FL,32501
Whataburger,Mesa,Whataburger #421,#421 421,1947 W Broadway Rd,AZ,85202
Whataburger,Bay City,Whataburger #424,#424 424,2020 Avenue F,TX,77414
Whataburger,Graham,Whataburger #425,#425 425,1228 Hwy 16 S,TX,76450
Whataburger,Tulsa,Whataburger #426,#426 426,10675 E 31st St,OK,74146
Whataburger,Amarillo,Whataburger #427,#427 427,734 N Pierce St,TX,79107
Whataburger,Edna,Whataburger #428,#428 428,112 E Houston St,TX,77957
Whataburger,Nacogdoches,Whataburger #429,#429 429,2617 North St,TX,75961
Whataburger,Bryan,Whataburger #43,#43 43,902 S Texas Ave,TX,77803
Whataburger,Grand Prairie,Whataburger #430,#430 430,421 W Pioneer Pkwy,TX,75051
Whataburger,Houston,Whataburger #432,#432 432,3530 Hwy 6 South,TX,77082
Whataburger,Pearland,Whataburger #433,#433 433,2406 S Main St,TX,77581
Whataburger,Stafford,Whataburger #434,#434 434,13030 Murphy Rd,TX,77477
Whataburger,Wichita Falls,Whataburger #435,#435 435,1040 Central Fwy,TX,76306
Whataburger,El Paso,Whataburger #436,#436 436,5270 Doniphan Dr,TX,79932
Whataburger,Granbury,Whataburger #437,#437 437,907 E Highway 377,TX,76048
Whataburger,Spring,Whataburger #439,#439 439,316 Sawdust Rd,TX,77380
Whataburger,Lawton,Whataburger #440,#440 440,2201 NW Cache Rd,OK,73505
Whataburger,Huntsville,Whataburger #443,#443 443,140 Interstate 45 S,TX,77340
Whataburger,Taft,Whataburger #445,#445 445,321 US Highway 181,TX,78390
Whataburger,El Paso,Whataburger #446,#446 446,1230 Airway Blvd,TX,79925
Whataburger,El Paso,Whataburger #447,#447 447,3500 Dyer St,TX,79930
Whataburger,Arlington,Whataburger #448,#448 448,5869 S Cooper St,TX,76017
Whataburger,Alvin,Whataburger #450,#450 450,2305 Bypass 35,TX,77511
Whataburger,Phoenix,Whataburger #451,#451 451,2901 E Bell Rd,AZ,85032
Whataburger,Waco,Whataburger #454,#454 454,420 N Valley Mills Dr,TX,76710
Whataburger,Gonzales,Whataburger #455,#455 455,1709 N Staint Joseph St,TX,78629
Whataburger,Rio Grande City,Whataburger #456,#456 456,4143 W US HIGHWAY 83,TX,78582
Whataburger,Dickinson,Whataburger #458,#458 458,3300 Gulf Fwy,TX,77539
Whataburger,Houston,Whataburger #459,#459 459,8927 Clearwood Dr,TX,77075
Whataburger,Grapevine,Whataburger #460,#460 460,401 E Northwest Hwy,TX,76051
Whataburger,Las Cruces,Whataburger #465,#465 465,190 E University Ave,NM,88005
Whataburger,Wharton,Whataburger #467,#467 467,1120 Highway 59 Loop N,TX,77488
Whataburger,Laredo,Whataburger #47,#47 47,2118 Guadalupe St,TX,78041
Whataburger,Houston,Whataburger #472,#472 472,5436 Highway 6 N,TX,77084
Whataburger,Lawton,Whataburger #473,#473 473,6702 NW Cache Rd,OK,73505
Whataburger,Dallas,Whataburger #474,#474 474,8850 N Stemmons Frwy,TX,75247
Whataburger,Texarkana,Whataburger #475,#475 475,4110 N State Line Ave,AR,71854
Whataburger,Stephenville,Whataburger #476,#476 476,2830 W Washington St,TX,76401
Whataburger,S Padre Island,Whataburger #477,#477 477,3509 Padre Blvd.,TX,78597
Whataburger,Vidor,Whataburger #478,#478 478,540 N. Main St.,TX,77662
Whataburger,Marshall,Whataburger #48,#48 48,2010 Victory Dr,TX,75671
Whataburger,Plano,Whataburger #480,#480 480,2548 K Ave,TX,75074
Whataburger,Austin,Whataburger #481,#481 481,11135 N IH 35,TX,78753
Whataburger,Canton,Whataburger #483,#483 483,17290 Interstate 20,TX,75103
Whataburger,Cleveland,Whataburger #484,#484 484,808 Highway 59 S,TX,77327
Whataburger,Ingleside,Whataburger #485,#485 485,2474 State Hwy 361,TX,78362
Whataburger,Friendswood,Whataburger #486,#486 486,106 N Friendswood Dr,TX,77546
Whataburger,Seabrook,Whataburger #487,#487 487,1408 Bayport Blvd,TX,77586
Whataburger,Conroe,Whataburger #488,#488 488,802 N Loop 336 W,TX,77301
Whataburger,Shreveport,Whataburger #489,#489 489,4014 Jewella Ave,LA,71109
Whataburger,Galveston,Whataburger #490,#490 490,528 University Blvd,TX,77550
Whataburger,Burkburnett,Whataburger #491,#491 491,920 S Red River Expy,TX,76354
Whataburger,Fort Worth,Whataburger #492,#492 492,5455 Blue Mound Rd,TX,76106
Whataburger,Mary Ester,Whataburger #493,#493 493,399 Mary Esther Cut Off NW,FL,32548
Whataburger,Seagoville,Whataburger #495,#495 495,1005 N Highway 175,TX,75159
Whataburger,Rockwall,Whataburger #496,#496 496,1070 E Interstate 30,TX,75087
Whataburger,Shreveport,Whataburger #497,#497 497,2900 N Market St,LA,71107
Whataburger,Houston,Whataburger #498,#498 498,1700 N Wayside Dr,TX,77020
Whataburger,Alice,Whataburger #5,#5 5,1242 E Main St,TX,78332
Whataburger,Brownsville,Whataburger #500,#500 500,2021 International Blvd,TX,78521
Whataburger,Houston,Whataburger #501,#501 501,17234 Northwest Fwy,TX,77040
Whataburger,Houston,Whataburger #503,#503 503,9955 S Main St,TX,77025
Whataburger,Harlingen,Whataburger #504,#504 504,613 Ed Carey Dr,TX,78550
Whataburger,Pensacola,Whataburger #505,#505 505,214 E Nine Mile Rd,FL,32514
Whataburger,Shreveport,Whataburger #506,#506 506,2544 Bert Kouns Loop,LA,71118
Whataburger,Shreveport,Whataburger #507,#507 507,1650 Bert Kouns Loop,LA,71105
Whataburger,Fort Worth,Whataburger #508,#508 508,901 E Seminary Dr,TX,76115
Whataburger,Irving,Whataburger #509,#509 509,410 S Loop 12,TX,75060
Whataburger,Fort Worth,Whataburger #510,#510 510,109 NE 28th St,TX,76106
Whataburger,Fort Worth,Whataburger #511,#511 511,3701 West Fwy,TX,76107
Whataburger,Paris,Whataburger #512,#512 512,2470 N Main St,TX,75460
Whataburger,La Porte,Whataburger #513,#513 513,117 Highway 146 S,TX,77571
Whataburger,Baytown,Whataburger #514,#514 514,5151 Interstate 10 E,TX,77521
Whataburger,Bossier City,Whataburger #516,#516 516,112 Benton Rd,LA,71111
Whataburger,Houston,Whataburger #518,#518 518,7629 W Bellfort St,TX,77071
Whataburger,San Angelo,Whataburger #519,#519 519,1830 N Bryant Blvd,TX,76903
Whataburger,Wichita Falls,Whataburger #520,#520 520,2725 Southwest Pkwy,TX,76308
Whataburger,Texarkana,Whataburger #521,#521 521,2727 New Boston Rd,TX,75501
Whataburger,Carrollton,Whataburger #522,#522 522,2108 E Beltline Rd,TX,75006
Whataburger,Abilene,Whataburger #523,#523 523,893 US Highway 80 E,TX,79601
Whataburger,Abilene,Whataburger #524,#524 524,3141 S Danville Dr,TX,79605
Whataburger,Lubbock,Whataburger #525,#525 525,1717 50th St,TX,79412
Whataburger,Fort Worth,Whataburger #526,#526 526,3160 SE Loop 820,TX,76140
Whataburger,Mercedes,Whataburger #527,#527 527,4801 E. Expressway 83,TX,78570
Whataburger,Round Rock,Whataburger #528,#528 528,1501 S I H 35,TX,78664
Whataburger,Ft. Worth,Whataburger #530,#530 530,6225 Hulen Bend Blvd,TX,76132
Whataburger,Lake Jackson,Whataburger #532,#532 532,123 Highway 332 W,TX,77566
Whataburger,Houston,Whataburger #533,#533 533,3636 N Main St,TX,77009
Whataburger,Brownwood,Whataburger #534,#534 534,411 E Commerce St,TX,76801
Whataburger,Phoenix,Whataburger #535,#535 535,1840 S 19th Ave,AZ,85009
Whataburger,Avondale,Whataburger #537,#537 537,1450 N Dysart Rd,AZ,85323
Whataburger,Waco,Whataburger #538,#538 538,950 N Loop 340,TX,76705
Whataburger,Gainesville,Whataburger #540,#540 540,1116 E Highway 82,TX,76240
Whataburger,Lewisville,Whataburger #541,#541 541,101 W Southwest Pkwy,TX,75067
Whataburger,Houston,Whataburger #542,#542 542,9517 Bissonnet St,TX,77036
Whataburger,Dallas,Whataburger #543,#543 543,3222 W Camp Wisdom Rd,TX,75237
Whataburger,River Oaks,Whataburger #544,#544 544,5350 River Oaks Blvd,TX,76114
Whataburger,Arlington,Whataburger #545,#545 545,4408 Little Rd,TX,76016
Whataburger,Georgetown,Whataburger #546,#546 546,202 S IH-35,TX,78628
Whataburger,Decatur,Whataburger #548,#548 548,500 S Highway 287,TX,76234
Whataburger,Arlington,Whataburger #549,#549 549,211 S Watson Rd,TX,76010
Whataburger,Ft. Walton Beach,Whataburger #55,#55 55,23 Miracle Strip Pkwy SW,FL,32548
Whataburger,Houston,Whataburger #550,#550 550,7001 North Loop E,TX,77028
Whataburger,Channelview,Whataburger #551,#551 551,15811 East Fwy,TX,77530
Whataburger,Tucson,Whataburger #552,#552 552,1235 W St Marys Rd,AZ,85745
Whataburger,Ft. Worth,Whataburger #553,#553 553,2401 W Berry St,TX,76110
Whataburger,El Paso,Whataburger #554,#554 554,11075 Gateway Blvd W,TX,79935
Whataburger,Marshall,Whataburger #556,#556 556,2406 E End Blvd S,TX,75671
Whataburger,Sapulpa,Whataburger #557,#557 557,1704 S Main St,OK,74066
Whataburger,Dallas,Whataburger #559,#559 559,6061 Greenville Ave,TX,75206
Whataburger,Tomball,Whataburger #560,#560 560,28315 State Highway 249,TX,77375
Whataburger,Groves,Whataburger #562,#562 562,4800 Twin City Hwy,TX,77619
Whataburger,Arlington,Whataburger #563,#563 563,3519 S Cooper St,TX,76015
Whataburger,Hillsboro,Whataburger #564,#564 564,1402 Corsicana Hwy,TX,76645
Whataburger,El Paso,Whataburger #565,#565 565,1310 George Dieter Dr,TX,79936
Whataburger,Hidalgo,Whataburger #566,#566 566,824 S International Blvd,TX,78557
Whataburger,Cedar Hill,Whataburger #567,#567 567,211 E FM 1382,TX,75104
Whataburger,Belton,Whataburger #570,#570 570,307 N Interstate 35,TX,76513
Whataburger,Edinburg,Whataburger #571,#571 571,1812 W University Dr,TX,78539
Whataburger,Altus,Whataburger #572,#572 572,2728 North Main Street,OK,73521
Whataburger,Oklahoma City,Whataburger #573,#573 573,7820 N MacArthur Blvd,OK,73132
Whataburger,Tallahassee,Whataburger #574,#574 574,2511 Apalachee Pkwy,FL,32311
Whataburger,Lewisville,Whataburger #575,#575 575,171 N Stemmons Fwy,TX,75067
Whataburger,Austin,Whataburger #576,#576 576,6205 N Lamar Blvd,TX,78752
Whataburger,Stillwater,Whataburger #577,#577 577,1001 N Boomer Rd,OK,74074
Whataburger,Columbus,Whataburger #578,#578 578,2204 S Highway 71,TX,78934
Whataburger,Palestine,Whataburger #579,#579 579,1717 S Loop 256,TX,75801
Whataburger,Tyler,Whataburger #580,#580 580,1717 S Southeast Loop 323,TX,75701
Whataburger,Las Cruces,Whataburger #581,#581 581,2460 N Main St,NM,88000
Whataburger,Elsa,Whataburger #583,#583 583,623 E Edinburg Ave,TX,78543
Whataburger,McAllen,Whataburger #584,#584 584,4017 N 23rd St,TX,78504
Whataburger,Phoenix,Whataburger #585,#585 585,2040 N 75th Ave,AZ,85035
Whataburger,Broken Arrow,Whataburger #586,#586 586,2341 E Kenosha St,OK,74012
Whataburger,Chandler,Whataburger #587,#587 587,7375 W Chandler Blvd,AZ,85226
Whataburger,Bastrop,Whataburger #590,#590 590,401 State Highway 71 W,TX,78602
Whataburger,Houston,Whataburger #591,#591 591,181 N Sam Houston Pkwy E,TX,77060
Whataburger,League City,Whataburger #592,#592 592,2212 E Main St,TX,77573
Whataburger,Roma,Whataburger #593,#593 593,505 E Highway 83,TX,78584
Whataburger,La Feria,Whataburger #594,#594 594,90 W Expressway 83,TX,78559
Whataburger,Donna,Whataburger #595,#595 595,615 N Daniel Salinas Blvd,TX,78537
Whataburger,San Antonio,Whataburger #596,#596 596,6803 N Loop 1604 E,TX,78256
Whataburger,Houston,Whataburger #597,#597 597,10310 S Post Oak Rd,TX,77035
Whataburger,Tucson,Whataburger #598,#598 598,435 W Valencia Rd,AZ,85706
Whataburger,La Marque,Whataburger #599,#599 599,1004 FM 1764 Rd,TX,77568
Whataburger,Edinburg,Whataburger #60,#60 60,2107 S US Highway 281,TX,78539
Whataburger,Houston,Whataburger #601,#601 601,211 West Rd,TX,77038
Whataburger,Laredo,Whataburger #602,#602 602,10112 Mines Rd,TX,78041
Whataburger,Dallas,Whataburger #604,#604 604,3710 W Northwest Hwy,TX,75220
Whataburger,Houston,Whataburger #605,#605 605,13270 Northwest Fwy,TX,77040
Whataburger,Dallas,Whataburger #608,#608 608,18180 Dallas Pkwy,TX,75287
Whataburger,Fort Worth,Whataburger #609,#609 609,1425 Eastchase Pkwy,TX,76120
Whataburger,Glendale,Whataburger #610,#610 610,4280 W Bell Rd,AZ,85308
Whataburger,Athens,Whataburger #613,#613 613,1417 E Taylor St,TX,75751
Whataburger,Austin,Whataburger #614,#614 614,1908 W Ben White Blvd,TX,78704
Whataburger,Victoria,Whataburger #616,#616 616,8908 N Navarro St,TX,77904
Whataburger,Palmview,Whataburger #618,#618 618,2916 W Expressway 83,TX,78572
Whataburger,Brenham,Whataburger #628,#628 628,2801 Highway 36 S,TX,77833
Whataburger,Temple,Whataburger #629,#629 629,115 N General Bruce Dr,TX,76504
Whataburger,Goliad,Whataburger #630,#630 630,348 E Pearl St,TX,77963
Whataburger,El Paso,Whataburger #634,#634 634,12140 Montwood Dr,TX,79936
Whataburger,Lancaster,Whataburger #635,#635 635,120 N Interstate 35 E,TX,75146
Whataburger,Jasper,Whataburger #638,#638 638,1365 S Wheeler St,TX,75951
Whataburger,Lafayette,Whataburger #645,#645 645,3226 Ambassador Caffery Pkwy,LA,70506
Whataburger,Mt. Pleasant,Whataburger #646,#646 646,2321 S Jefferson Ave,TX,75455
Whataburger,Silsbee,Whataburger #648,#648 648,825 Highway 96 S,TX,77656
Whataburger,El Paso,Whataburger #65,#65 65,9500 Montana Ave,TX,79915
Whataburger,Kilgore,Whataburger #650,#650 650,108 N Henderson Blvd,TX,75662
Whataburger,Rosenberg,Whataburger #651,#651 651,3402 Highway 36 South,TX,77471
Whataburger,Gun Barrel City,Whataburger #652,#652 652,938 W Main St,TX,75147
Whataburger,El Paso,Whataburger #654,#654 654,870 N Resler Rd,TX,79912
Whataburger,El Paso,Whataburger #655,#655 655,4640 Woodrow Bean Dr,TX,79924
Whataburger,El Paso,Whataburger #656,#656 656,1198 N Yarbrough Dr,TX,79925
Whataburger,Dallas,Whataburger #657,#657 657,3105 Forest Ln,TX,75234
Whataburger,Corpus Christi,Whataburger #658,#658 658,6241 Saratoga Blvd,TX,78414
Whataburger,Humble,Whataburger #659,#659 659,7530 FM 1960 Rd E,TX,77346
Whataburger,San Antonio,Whataburger #660,#660 660,18417 US Highway 281 N,TX,78258
Whataburger,San Antonio,Whataburger #661,#661 661,8481 N US Highway 281,TX,78216
Whataburger,McKinney,Whataburger #664,#664 664,445 S Central Expy,TX,75069
Whataburger,Tyler,Whataburger #667,#667 667,345 S Southwest Loop 323,TX,75702
Whataburger,Ingram,Whataburger #668,#668 668,3215 Junction Hwy,TX,78025
Whataburger,Laredo,Whataburger #669,#669 669,7110 McPhearson Ave,TX,78041
Whataburger,Houston,Whataburger #670,#670 670,3797 Southwest Fwy,TX,77027
Whataburger,Laredo,Whataburger #69,#69 69,4902 San Bernardo Ave,TX,78048
Whataburger,Marble Falls,Whataburger #692,#692 692,1106 N US Highway 281,TX,78654
Whataburger,San Antonio,Whataburger #693,#693 693,6950 N Loop 1604 E,TX,78247
Whataburger,Houston,Whataburger #694,#694 694,6520 Southwest Fwy,TX,77074
Whataburger,McAllen,Whataburger #695,#695 695,7101 N 10th St,TX,78504
Whataburger,San Antonio,Whataburger #698,#698 698,9263 N Loop 1604 W,TX,78023
Whataburger,San Antonio,Whataburger #699,#699 699,6391 Babcock Rd,TX,78240
Whataburger,McAllen,Whataburger #7,#7 7,1412 E Jackson Ave,TX,78503
Whataburger,Longview,Whataburger #700,#700 700,3123 S Eastman Rd.,TX,75602
Whataburger,Laredo,Whataburger #702,#702 702,202 W Del Mar Blvd,TX,78045
Whataburger,San Angelo,Whataburger #703,#703 703,4646 Knickerbocker  Rd,TX,76904
Whataburger,Midland,Whataburger #704,#704 704,2517 E Interstate 20,TX,79701
Whataburger,San Marcos,Whataburger #705,#705 705,4040 S I H 35,TX,78666
Whataburger,Ft Worth,Whataburger #706,#706 706,5351 N Beach St,TX,76137
Whataburger,Dallas,Whataburger #707,#707 707,2741 N Stemmons Fwy,TX,75207
Whataburger,Dallas,Whataburger #708,#708 708,11880 N Central Expy,TX,75243
Whataburger,Austin,Whataburger #709,#709 709,13201 Ranch Road 620 N,TX,78717
Whataburger,Fort Worth,Whataburger #71,#71 71,4051 E Lancaster Ave,TX,76103
Whataburger,San Antonio,Whataburger #710,#710 710,7725 FM 78,TX,78244
Whataburger,San Antonio,Whataburger #711,#711 711,10011 San Pedro Ave,TX,78216
Whataburger,Houston,Whataburger #712,#712 712,8534 Highway 6 N,TX,77095
Whataburger,Albuquerque,Whataburger #714,#714 714,3531 NM 528 NW,NM,87114
Whataburger,Peoria,Whataburger #715,#715 715,8922 W Bell Rd,AZ,85382
Whataburger,Paris,Whataburger #716,#716 716,3325 Lamar Ave,TX,75460
Whataburger,San Antonio,Whataburger #717,#717 717,12808 W Ih 10,TX,78249
Whataburger,Mission,Whataburger #719,#719 719,2420 E Expressway 83,TX,78572
Whataburger,Tallahassee,Whataburger #72,#72 72,1101 Thomasville Rd.,FL,32303
Whataburger,Lubbock,Whataburger #720,#720 720,7201 Quaker Ave,TX,79424
Whataburger,Scottsdale,Whataburger #721,#721 721,9990 N 90th St,AZ,85258
Whataburger,Red Oak,Whataburger #722,#722 722,105 Harris Ave,TX,75154
Whataburger,Houston,Whataburger #723,#723 723,109 Airtex Dr,TX,77090
Whataburger,Waco,Whataburger #724,#724 724,1528 Hewitt Dr,TX,76712
Whataburger,Katy,Whataburger #725,#725 725,1225 N Fry Rd,TX,77449
Whataburger,Clyde,Whataburger #726,#726 726,1614 N Access Rd,TX,79510
Whataburger,Dallas,Whataburger #728,#728 728,2428 N Haskell Ave,TX,75204
Whataburger,Fort Worth,Whataburger #729,#729 729,6225 Precinct Line Rd,TX,76180
Whataburger,Tyler,Whataburger #730,#730 730,6849 S Broadway Ave,TX,75701
Whataburger,Roswell,Whataburger #731,#731 731,2110 N Main St,NM,88201
Whataburger,Houston,Whataburger #733,#733 733,6888 Gulf Fwy # 200,TX,77087
Whataburger,San Antonio,Whataburger #734,#734 734,3130 Broadway St,TX,78209
Whataburger,Corinth,Whataburger #735,#735 735,4250 FM 2181,TX,76210
Whataburger,Austin,Whataburger #736,#736 736,14310 N IH 35,TX,78728
Whataburger,Irving,Whataburger #738,#738 738,4920 W Airport Fwy,TX,75062
Whataburger,Brownsville,Whataburger #740,#740 740,6100 FM 802,TX,78521
Whataburger,Laredo,Whataburger #741,#741 741,4416 State Highway 359,TX,78043
Whataburger,Grand Prairie,Whataburger #742,#742 742,3845 S Carrier Pkwy,TX,75052
Whataburger,Plano,Whataburger #743,#743 743,6401 Coit Rd,TX,75024
Whataburger,Burnet,Whataburger #744,#744 744,402 E Polk St,TX,78611
Whataburger,Houston,Whataburger #745,#745 745,2720 S Sam Houston Pkwy,TX,77042
Whataburger,Timpson,Whataburger #746,#746 746,1216 N 1st St,TX,75975
Whataburger,La Grange,Whataburger #747,#747 747,1800 E State Highway 71,TX,78945
Whataburger,The Colony,Whataburger #748,#748 748,4687 State Highway 121,TX,75056
Whataburger,San Antonio,Whataburger #749,#749 749,18330 Blanco Rd,TX,78258
Whataburger,Spring,Whataburger #750,#750 750,20550 Interstate 45,TX,77373
Whataburger,Grapevine,Whataburger #751,#751 751,2000 State Highway 26,TX,76051
Whataburger,Azle,Whataburger #752,#752 752,440 NW Parkway St,TX,76020
Whataburger,Venus,Whataburger #753,#753 753,101 E Henderson St,TX,76084
Whataburger,Roanoke,Whataburger #754,#754 754,605 E Byron Nelson Blvd,TX,76262
Whataburger,San Antonio,Whataburger #755,#755 755,2557 NW Loop 410,TX,78230
Whataburger,Phoenix,Whataburger #756,#756 756,2460 W Bethany Home Road,AZ,85015
Whataburger,Watauga,Whataburger #757,#757 757,7826 Denton Hwy,TX,76148
Whataburger,Amarillo,Whataburger #758,#758 758,6120 Hollywood Rd,TX,79110
Whataburger,Ft. Worth,Whataburger #76,#76 76,2600 Hemphill St,TX,76110
Whataburger,Shreveport,Whataburger #760,#760 760,6707 Pines Rd,LA,71129
Whataburger,Phoenix,Whataburger #761,#761 761,4610 S 48th St,AZ,85040
Whataburger,Garland,Whataburger #762,#762 762,2545 Fire Wheel Parkway,TX,75040
Whataburger,Pace,Whataburger #763,#763 763,4983 Highway 90,FL,32571
Whataburger,Goodyear,Whataburger #764,#764 764,14251 W Indian School Rd,AZ,85338
Whataburger,Mesa,Whataburger #765,#765 765,2747 E Broadway,AZ,85204
Whataburger,Winnie,Whataburger #766,#766 766,14935 FM 1663 Rd,TX,77665
Whataburger,Lubbock,Whataburger #768,#768 768,8226 University Ave,TX,79423
Whataburger,Rusk,Whataburger #769,#769 769,1203 N Dickinson Dr,TX,75785
Whataburger,Willow Park,Whataburger #771,#771 771,4915 E Interstate 20,TX,76087
Whataburger,McAllen,Whataburger #772,#772 772,1000 E Nolana St,TX,78504
Whataburger,Sulphur Springs,Whataburger #773,#773 773,117 Shannon Road E,TX,75482
Whataburger,Tucson,Whataburger #774,#774 774,1430 W River Rd,AZ,85704
Whataburger,Midlothian,Whataburger #776,#776 776,1320 E Highway 287,TX,76065
Whataburger,Brownsville,Whataburger #777,#777 777,3580 W Alton Gloor Blvd,TX,78521
Whataburger,Friendswood,Whataburger #778,#778 778,18190 Gulf Fwy,TX,77546
Whataburger,Crestview,Whataburger #779,#779 779,3850 Ferdon Blvd.,FL,32536
Whataburger,College Station,Whataburger #78,#78 78,105 Dominik Dr,TX,77840
Whataburger,Albuquerque,Whataburger #780,#780 780,8100 Wyoming Blvd NE,NM,87113
Whataburger,Grand Prairie,Whataburger #781,#781 781,2710 N State Highway 360,TX,75050
Whataburger,San Antonio,Whataburger #782,#782 782,503 SW Military Dr,TX,78221
Whataburger,Glenn Heights,Whataburger #783,#783 783,1701 S Beckley Rd,TX,75154
Whataburger,San Antonio,Whataburger #784,#784 784,8426 Broadway St,TX,78209
Whataburger,Las Cruces,Whataburger #785,#785 785,375 S Telshor Blvd,NM,88011
Whataburger,Dallas,Whataburger #786,#786 786,2900 N Airfield Dr,TX,75261
Whataburger,Corpus Christi,Whataburger #787,#787 787,6425 Weber Rd,TX,78413
Whataburger,Victoria,Whataburger #788,#788 788,3603 Houston Hwy,TX,77901
Whataburger,Schulenberg,Whataburger #789,#789 789,40 N Kessler Ave,TX,78956
Whataburger,Oklahoma City,Whataburger #79,#79 79,5315 N May Ave,OK,73112
Whataburger,San Antonio,Whataburger #790,#790 790,5760 W Loop 1604 N,TX,78251
Whataburger,Lafayette,Whataburger #791,#791 791,1725 N University Ave,LA,70507
Whataburger,Mobile,Whataburger #792,#792 792,2496 Schilinger Rd S,AL,36695
Whataburger,Edinburg,Whataburger #793,#793 793,1717 E University Dr,TX,78539
Whataburger,San Antonio,Whataburger #794,#794 794,14646 Blanco Rd,TX,78216
Whataburger,Giddings,Whataburger #795,#795 795,2050 E Austin St,TX,78942
Whataburger,Lakeway,Whataburger #796,#796 796,2011 Ranch Road 620 S,TX,78734
Whataburger,Sugarland,Whataburger #797,#797 797,17480 W Grand Pkwy,TX,77479
Whataburger,Carrollton,Whataburger #798,#798 798,3424 E Hebron Pkwy,TX,75010
Whataburger,Dallas,Whataburger #799,#799 799,11740 Plano Rd,TX,75243
Whataburger,Mesquite,Whataburger #80,#80 80,128 E Kearney St,TX,75149
Whataburger,Kingsville,Whataburger #800,#800 800,2701 S US Hwy 77,TX,78363
Whataburger,Brownsville,Whataburger #801,#801 801,1400 Central Blvd,TX,78520
Whataburger,Richmond,Whataburger #802,#802 802,5400 FM 1640 Rd,TX,77469
Whataburger,Destin,Whataburger #804,#804 804,101 Harbor Blvd,FL,32541
Whataburger,Destin,Whataburger #805,#805 805,10725 Emerald Coast Parkway,FL,32550
Whataburger,Rowlett,Whataburger #806,#806 806,2500 Lakeview Pkwy,TX,75088
Whataburger,Mission,Whataburger #807,#807 807,201 E Griffin Pkwy,TX,78572
Whataburger,College Station,Whataburger #808,#808 808,1745 Rock Prairie Rd,TX,77845
Whataburger,Austin,Whataburger #809,#809 809,3400 Slaughter Ln W,TX,78748
Whataburger,Galveston,Whataburger #81,#81 81,6327 Stewart Road,TX,77551
Whataburger,Pearland,Whataburger #810,#810 810,3040 Silverlake Village Dr,TX,77584
Whataburger,Plano,Whataburger #812,#812 812,433 Coit Rd,TX,75075
Whataburger,Houston,Whataburger #813,#813 813,15329 Wallisville Rd,TX,77049
Whataburger,San Antonio,Whataburger #814,#814 814,1 Sbc Center Pkwy,TX,78219
Whataburger,Houston,Whataburger #815,#815 815,12424 Tomball Pkwy,TX,77086
Whataburger,Irving,Whataburger #816,#816 816,850 Market Pl,TX,75063
Whataburger,Baton Rouge,Whataburger #817,#817 817,6745 Siegen Ln,LA,70809
Whataburger,Lancaster,Whataburger #818,#818 818,3797 N Houston School Rd,TX,75146
Whataburger,Lufkin,Whataburger #82,#82 82,421 N Timberland Dr,TX,75901
Whataburger,Cleburne,Whataburger #820,#820 820,2215 N Main St #C,TX,76033
Whataburger,Oklahoma City,Whataburger #821,#821 821,1325 S Meridian Ave,OK,73108
Whataburger,Alvarado,Whataburger #822,#822 822,708 N Parkway Dr,TX,76009
Whataburger,The Woodlands,Whataburger #823,#823 823,3073 College Park Dr,TX,77384
Whataburger,Cypress,Whataburger #824,#824 824,26040 Northwest Fwy,TX,77429
Whataburger,Arlington,Whataburger #825,#825 825,4120 S Collins St,TX,76014
Whataburger,Dallas,Whataburger #827,#827 827,8501 S Lancaster Rd,TX,75241
Whataburger,Houston,Whataburger #828,#828 828,22603 Tomball Pkwy,TX,77375
Whataburger,Eagle Pass,Whataburger #829,#829 829,454 S Bibb Ave,TX,78852
Whataburger,Corpus Christi,Whataburger #83,#83 83,5114 Weber Rd,TX,78411
Whataburger,Orange,Whataburger #830,#830 830,7241 IH 10 E,TX,77630
Whataburger,Euless,Whataburger #831,#831 831,1201 W Glade Rd,TX,76039
Whataburger,Fort Worth,Whataburger #832,#832 832,3000 Western Center Blvd.,TX,76131
Whataburger,Houston,Whataburger #833,#833 833,12401 Westheimer Rd,TX,77077
Whataburger,San Antonio,Whataburger #834,#834 834,3239 SE Military Dr,TX,78223
Whataburger,Keller,Whataburger #835,#835 835,1520 Keller Pkwy,TX,76248
Whataburger,Jackson,Whataburger #836,#836 836,1320 N High St,MS,39202
Whataburger,Laredo,Whataburger #837,#837 837,809 Riverhill Dr,TX,78046
Whataburger,Friendswood,Whataburger #838,#838 838,214 E Parkwood Ave,TX,77546
Whataburger,San Antonio,Whataburger #839,#839 839,2203  E Evans Rd,TX,78258
Whataburger,Austin,Whataburger #84,#84 84,6106 Cameron Rd,TX,78723
Whataburger,Cedar Park,Whataburger #840,#840 840,2740 E Whitestone Blvd,TX,78613
Whataburger,Denton,Whataburger #841,#841 841,1708 S Loop 288,TX,76205
Whataburger,Albuquerque,Whataburger #842,#842 842,9500 Candelaria Rd NE,NM,87112
Whataburger,Dlberville,Whataburger #843,#843 843,3611 Sangani Blvd,MS,39540
Whataburger,Boerne,Whataburger #844,#844 844,621 Bandera Rd,TX,78006
Whataburger,Laredo,Whataburger #845,#845 845,9102 McPherson Ave,TX,78045
Whataburger,Dallas,Whataburger #846,#846 846,1560 N Cockrell Hill Rd,TX,75211
Whataburger,Lumberton,Whataburger #847,#847 847,401 N Main St,TX,77657
Whataburger,Gonzales,Whataburger #848,#848 848,840 N Airline Hwy,LA,70737
Whataburger,Gulfport,Whataburger #849,#849 849,11484 Highway 49,MS,39503
Whataburger,Harlingen,Whataburger #85,#85 85,1605 W Harrison Ave,TX,78550
Whataburger,Longview,Whataburger #850,#850 850,3308 N 4th St,TX,75605
Whataburger,Alice,Whataburger #851,#851 851,141 S US Highway 281 Byp,TX,78332
Whataburger,La Porte,Whataburger #852,#852 852,9029 Spencer Hwy,TX,77571
Whataburger,Jacksonville,Whataburger #853,#853 853,7165 Philips Hwy,FL,32256
Whataburger,Pensacola,Whataburger #854,#854 854,6129 Mobile Hwy,FL,32526
Whataburger,Dallas,Whataburger #855,#855 855,18253 Marsh Lane,TX,75287
Whataburger,Conroe,Whataburger #858,#858 858,2123 W Davis St,TX,77304
Whataburger,Tyler,Whataburger #86,#86 86,1919 W Gentry Parkway,TX,75702
Whataburger,Ocean Springs,Whataburger #861,#861 861,3815 Bienville Blvd,MS,39566
Whataburger,Thomasville,Whataburger #862,#862 862,13880 US Highway 19 S,GA,31792
Whataburger,Ridgeland,Whataburger #864,#864 864,800 E. County Line Rd,MS,39157
Whataburger,Neptune Beach,Whataburger #865,#865 865,1201 Penman,FL,32266
Whataburger,Duncanville,Whataburger #866,#866 866,501 E Highway 67,TX,75137
Whataburger,Orange Park,Whataburger #867,#867 867,1517 County Road 220,FL,32003
Whataburger,Laredo,Whataburger #868,#868 868,7010 Lancer Rd,TX,78041
Whataburger,Jacksonville,Whataburger #871,#871 871,3860 University Blvd W,FL,32217
Whataburger,Pleasanton,Whataburger #872,#872 872,2173 W Oaklawn Rd,TX,78064
Whataburger,Jacksonville,Whataburger #874,#874 874,8808 Beach Blvd,FL,32216
Whataburger,Carrollton,Whataburger #875,#875 875,1033 E Trinity Mills Rd,TX,75006
Whataburger,Longview,Whataburger #877,#877 877,2401 Gilmer Rd,TX,75604
Whataburger,Vicksburg,Whataburger #879,#879 879,3402 Halls Ferry Rd,MS,39180
Whataburger,Garland,Whataburger #88,#88 88,725 E Centerville Rd,TX,75041
Whataburger,Sachse,Whataburger #882,#882 882,5060 Highway 78,TX,75048
Whataburger,Fort Worth,Whataburger #883,#883 883,9501 White Settlement Rd,TX,76108
Whataburger,Austin,Whataburger #884,#884 884,9300 S IH 35,TX,78748
Whataburger,Tyler,Whataburger #887,#887 887,6288 US Highway 271,TX,75708
Whataburger,Gulf Breeze,Whataburger #888,#888 888,1100 Gulf Breeze Pkwy,FL,32561
Whataburger,Houston,Whataburger #89,#89 89,905 North Loop W,TX,77008
Whataburger,Hutchins,Whataburger #891,#891 891,215 N IH 45,TX,75141
Whataburger,Round Rock,Whataburger #892,#892 892,4640 E Palm Valley Blvd,TX,78664
Whataburger,Houston,Whataburger #893,#893 893,1000 Main St,TX,77002
Whataburger,Birmingham,Whataburger #894,#894 894,1860 Center Point Pkwy,AL,35215
Whataburger,Lockhart,Whataburger #895,#895 895,100 State Park Rd,TX,78644
Whataburger,Trussville,Whataburger #896,#896 896,5931 Trussville Crossing Pkwy,AL,35173
Whataburger,Seguin,Whataburger #897,#897 897,1520 N State Highway 46,TX,78155
Whataburger,Crosby,Whataburger #898,#898 898,14450 FM 2100 Rd,TX,77532
Whataburger,Weslaco,Whataburger #899,#899 899,304 N Westgate Dr,TX,78596
Whataburger,Corpus Christi,Whataburger #9,#9 9,3220 Gollihar Rd,TX,78411
Whataburger,Corpus Christi,Whataburger #900,#900 900,734 E Port Ave,TX,78401
Whataburger,Magnolia,Whataburger #901,#901 901,6203 FM 1488 Rd,TX,77354
Whataburger,Amarillo,Whataburger #902,#902 902,3620 E Interstate 40,TX,79103
Whataburger,Spring,Whataburger #903,#903 903,21310 Kuykendahl Rd,TX,77379
Whataburger,Kilgore,Whataburger #904,#904 904,6241 Old Highway 135 N,TX,75662
Whataburger,Cedar Park,Whataburger #906,#906 906,1520 Cypress Creek Dr.,TX,78613
Whataburger,Austin,Whataburger #907,#907 907,6301 W Parmer Ln,TX,78729
Whataburger,Yulee,Whataburger #909,#909 909,463773 SR 200,FL,32097
Whataburger,Portland,Whataburger #91,#91 91,1010 Wildcat Dr,TX,78374
Whataburger,Austin,Whataburger #910,#910 910,6611 S Mo Pac Expy,TX,78749
Whataburger,Houston,Whataburger #911,#911 911,4040 Little York Rd,TX,77093
Whataburger,Tallahassee,Whataburger #912,#912 912,1701 W Tennessee St,FL,32304
Whataburger,Defuniak Springs,Whataburger #913,#913 913,2434 US Hwy 331 South,FL,32434
Whataburger,Midlothian,Whataburger #914,#914 914,2440 Presidential Parkway,TX,76065
Whataburger,Lubbock,Whataburger #915,#915 915,5512 4th St,TX,79416
Whataburger,Lufkin,Whataburger #916,#916 916,102 S. John Redditt,TX,75904
Whataburger,Schertz,Whataburger #918,#918 918,5570 FM 3009,TX,78154
Whataburger,San Antonio,Whataburger #919,#919 919,4125 S Loop 1604 E,TX,78264
Whataburger,Fultondale,Whataburger #920,#920 920,1601 Main Street,AL,35068
Whataburger,Forney,Whataburger #922,#922 922,920 Hwy 80,TX,75126
Whataburger,Niceville,Whataburger #923,#923 923,4450 Hwy 20 East,FL,32578
Whataburger,San Antonio,Whataburger #924,#924 924,8319 State Highway 151,TX,78245
Whataburger,Palmhurst,Whataburger #925,#925 925,4321 N Conway Ave,TX,78573
Whataburger,Waxahachie,Whataburger #926,#926 926,114 Broadhead Rd.,TX,75165
Whataburger,Alabaster,Whataburger #927,#927 927,1101 1st Street South,AL,35007
Whataburger,Humble,Whataburger #929,#929 929,8430 FM 1960 Bypass West Road,TX,77338
Whataburger,Hondo,Whataburger #930,#930 930,"229 19th Street,",TX,78861
Whataburger,Pace,Whataburger #931,#931 931,5648 Woodbine Road,FL,32571
Whataburger,Milton,Whataburger #932,#932 932,5346 Stewart Street,FL,32570
Whataburger,League City,Whataburger #933,#933 933,2990 Gulf Fwy S,TX,77573
Whataburger,Crockett,Whataburger #934,#934 934,1281 E. Loop 304,TX,75835
Whataburger,Chelsea,Whataburger #936,#936 936,16064 Hwy 280,AL,35043
Whataburger,Carthage,Whataburger #937,#937 937,819 West Panola St.,TX,75633
Whataburger,Longview,Whataburger #939,#939 939,1479 E. Harrison Rd.,TX,75604
Whataburger,Lubbock,Whataburger #940,#940 940,6414 82nd St.,TX,79424
Whataburger,Pensacola,Whataburger #941,#941 941,1790 W. Fairfield Dr.,FL,32505
Whataburger,Humble,Whataburger #943,#943 943,4831 Wilson Rd.,TX,77396
Whataburger,Waxahachie,Whataburger #944,#944 944,2965 Hwy 77 N,TX,75165
Whataburger,DeSoto,Whataburger #945,#945 945,961 W Beltline Rd,TX,75115
Whataburger,San Antonio,Whataburger #946,#946 946,530 West 1604 North,TX,78251
Whataburger,Kyle,Whataburger #947,#947 947,5401 S. FM 1626 STE 500,TX,78640
Whataburger,Magnolia,Whataburger #948,#948 948,30330 FM 2978,TX,77354
Whataburger,San Antonio,Whataburger #949,#949 949,2927 SW Loop 410,TX,78211
Whataburger,Katy,Whataburger #950,#950 950,23540 Westheimer Parkway,TX,77494
Whataburger,Houston,Whataburger #951,#951 951,7418 S Sam Houston Pkwy W,TX,77085
Whataburger,Floresville,Whataburger #952,#952 952,911 10th Street,TX,78114
Whataburger,Garland,Whataburger #953,#953 953,4500 Bass Pro Drive,TX,75043
Whataburger,Century,Whataburger #954,#954 954,8340 N Century Blvd,FL,32535
Whataburger,Bryan,Whataburger #956,#956 956,3109 S. Texas Avenue,TX,77802
Whataburger,Temple,Whataburger #957,#957 957,1415 SW HK Dodgen,TX,76502
Whataburger,Harker Heights,Whataburger #958,#958 958,130 Central Texas Expressway,TX,76548
Whataburger,Pelham,Whataburger #959,#959 959,557 Cahaba Valley Rd,AL,35124
Whataburger,Ardmore,Whataburger #961,#961 961,921 Holiday Drive,OK,73401
Whataburger,Red Oak,Whataburger #962,#962 962,123 South State Hwy 342,TX,75154
Whataburger,McKinney,Whataburger #963,#963 963,8608 State Hwy. 121,TX,75070
Whataburger,Center,Whataburger #964,#964 964,811 Hurst St.,TX,75935
Whataburger,Navarre,Whataburger #965,#965 965,6920 Navarre Parkway,FL,32566
Whataburger,Corpus Christi,Whataburger #966,#966 966,7434 South Staples,TX,78413
Whataburger,Tyler,Whataburger #967,#967 967,16772 FM 2493,TX,75703
Whataburger,Clanton,Whataburger #968,#968 968,2280 7th St S,AL,35046
Whataburger,Sherman,Whataburger #969,#969 969,3609 N. US Highway 75,TX,75090
Whataburger,Mobile,Whataburger #971,#971 971,9968 Airport Blvd.,AL,36608
Whataburger,Tyler,Whataburger #972,#972 972,12405 US HWY 155,TX,75708
Whataburger,Orange Park,Whataburger #973,#973 973,289 Blanding Blvd,FL,32073
Whataburger,Richmond,Whataburger #974,#974 974,22710 Bellaire Blvd.,TX,77406
Whataburger,Murphy,Whataburger #975,#975 975,301 East FM 544,TX,75094
Whataburger,Frisco,Whataburger #977,#977 977,5266 Preston Road,TX,75034
Whataburger,Lufkin,Whataburger #979,#979 979,103 N. Brentwood Dr Suite 900,TX,75904
Whataburger,Tyler,Whataburger #980,#980 980,5003 Troup Highway,TX,75707
Whataburger,El Paso,Whataburger #981,#981 981,7057 Desert South Blvd,TX,79835
Whataburger,Pflugerville,Whataburger #982,#982 982,18609 Limestone Commercial Dr.,TX,78660
Whataburger,Westworth Village,Whataburger #983,#983 983,6520 Westworth Blvd.,TX,76114
Whataburger,Allen,Whataburger #984,#984 984,388 East Stacy Road,TX,75002
Whataburger,San Antonio,Whataburger #985,#985 985,4590 NW Loop 410,TX,78228
Whataburger,Houston,Whataburger #986,#986 986,9232 W. Sam Houston Parkway N,TX,77041
Whataburger,Katy,Whataburger #987,#987 987,6131 N Fry Road,TX,77449
Whataburger,Kingwood,Whataburger #988,#988 988,320 Northpark Dr.,TX,77339
Whataburger,Dallas,Whataburger #99,#99 99,11721 E Northwest Highway,TX,75218
Whataburger,Missouri City,Whataburger #990,#990 990,8820 Hwy 6,TX,77459
Whataburger,Austin,Whataburger #992,#992 992,2800 Guadalupe,TX,78705
Whataburger,Highland Village,Whataburger #993,#993 993,2710 FM 407,TX,75077
Whataburger,Georgetown,Whataburger #994,#994 994,3706 D. B. Wood Rd,TX,78628
Whataburger,New Braunfels,Whataburger #995,#995 995,1687 Hwy 46 W,TX,78132
Whataburger,Denton,Whataburger #996,#996 996,2420 W. University Dr.,TX,76201
Whataburger,Houston,Whataburger #997,#997 997,2265 W Holcombe Blvd,TX,77030
Whataburger,Tulsa Hills,Whataburger #998,#998 998,7760 S. Olympia Ave W,OK,74132
Whataburger,Dripping Springs,Whataburger #999,#999 999,"598 E US Hwy 290 W, Suite 500",TX,78620
Whataburger,Willis,Whataburger #1014,#1014 1014,12721 Interstate 45 North,TX,77318
Whataburger,Lynn Haven,Whataburger #1033,#1033 1033,2401 South Hwy 77,FL,32444
Whataburger,Corrigan,Whataburger #1038,#1038 1038,700 South Home St.,TX,75939
Whataburger,Dallas,Whataburger #1039 - Dallas Love Field Termina,#1039 1039,8808 Cedar Springs Rd,TX,75235
Whataburger,Sugarland,Whataburger #1047,#1047 1047,340 Highway 6,TX,77479
Whataburger,Ruston,Whataburger #1048,#1048 1048,801 North Service E,LA,71270
Whataburger,San Antonio,Whataburger #1052,#1052 1052,1243 Austin Highway,TX,78209
Whataburger,Cross Roads,Whataburger #1054,#1054 1054,11250 Hwy 380,TX,76227
Whataburger,San Antonio,Whataburger #1055,#1055 1055,516 W. Cypress,TX,78212
Whataburger,Bridge City,Whataburger #819,#819 819,1905 Texas Ave,TX,77611
Whataburger,Killeen,Whataburger #928,#928 928,2509 Trimmier Rd,TX,76542
Whataburger,Taylor,Whataburger #938,#938 938,3510 N. Main,TX,76574
Whataburger,Bixby,Whataburger #1027,#1027 1027,10121 S Memorial Dr,OK,74133
Whataburger,Spring,Whataburger #1045,#1045 1045,2115 FM 2920 Rd.,TX,77388
Whataburger,Houston,Whataburger #1049 -  Inter-Continental Airpor,#1049 1049,"3100 N Terminal Rd, #b-21",TX,77032
Whataburger,Balch Springs,Whataburger #1057,#1057 1057,12100 Lake June Rd,TX,75180
Whataburger,Houston,Whataburger #431,#431 431,13550 East Fwy,TX,77015
Whataburger,Orange,Whataburger #536,#536 536,2300 Macarthur Dr,TX,77630
Whataburger,Sugarland,Whataburger #569,#569 569,4530 Highway 6,TX,77478
Whataburger,La Joya,Whataburger #603,#603 603,450 Highway 83,TX,78560
Whataburger,Porter,Whataburger #607,#607 607,23607 Highway 59,TX,77365
Whataburger,Sugar Land,Whataburger #631,#631 631,10315 S Highway 6,TX,77498
Whataburger,Albuquerque,Whataburger #697,#697 697,4201 Osuna Rd NE,NM,87109
Whataburger,Strawn,Whataburger #727,#727 727,2503 N State Highway 16,TX,76475
Whataburger,Ft. Walton Beach,Whataburger #803,#803 803,190 Eglin Pkwy NE,FL,32505
Whataburger,Jacksonville,Whataburger #886,#886 886,7755 Normandy Blvd,FL,32221
Whataburger,Cantonment,Whataburger #890,#890 890,2300 S Highway 29,FL,32533
Whataburger,Moore,Whataburger #976,#976 976,2290 S. Service Road,OK,73160
Whataburger,White Oak,Whataburger #978,#978 978,103 E. HWY 80,TX,75693
Whataburger,Brewton,Whataburger #989,#989 989,2668 Douglas Ave,AL,36427
