keywords,city,Aggdata Store Number,store_number,address,state,zip_code,
Whole Foods,Omaha,1,1 #1,10020 Regency Circle,NE,68114,
Whole Foods,Overland Park,2,2 #2,6621 West 119th Street,KS,66209,
Whole Foods,Overland Park,3,3 #3,7401 West 91st St,KS,66212,
Whole Foods,Town and Country,82,82 #82,1160 Town and Country Crossing,MO,63017,
Whole Foods,Tulsa,84,84 #84,1401 E. 41st St.,OK,74105,
Whole Foods,Saint Louis,85,85 #85,1601 S. Brentwood Blvd,MO,63144,
Whole Foods,New Orleans,6456,6456 #6456,5600 Magazine Street,LA,70115,
Whole Foods,Austin,6457,6457 #6457,"Bldg B, Ste 800",TX,78749,
Whole Foods,Albuquerque,6459,6459 #6459,5815 Wyoming Blvd NE,NM,87109,
Whole Foods,Ann Arbor,6460,6460 #6460,3135 Washtenaw Ave,MI,48104,
Whole Foods,Sacramento,6461,6461 #6461,4315 Arden Way,CA,95864,
Whole Foods,Roswell,6462,6462 #6462,1180 Upper Hembree Rd,GA,30076,
Whole Foods,Arlington,6463,6463 #6463,2700 Wilson Blvd,VA,22201,
Whole Foods,Pasadena,6464,6464 #6464,465 South Arroyo Parkway,CA,91105,
Whole Foods,Asheville,6465,6465 #6465,70 Merrimon Ave,NC,28801,
Whole Foods,Andover,6467,6467 #6467,40 Railroad St.,MA,1810,
Whole Foods,Boca Raton,6468,6468 #6468,1400 Glades Rd,FL,33431,
Whole Foods,Atlanta,6469,6469 #6469,2111 Briarcliff Rd NE,GA,30329,
Whole Foods,Bedford,6470,6470 #6470,170 Great Rd,MA,1730,
Whole Foods,Bee Cave,6471,6471 #6471,12601 Hill Country Blvd,TX,78738,
Whole Foods,Houston,6472,6472 #6472,4004 Bellaire Blvd,TX,77025,
Whole Foods,Bethesda,6473,6473 #6473,5269 River Rd,MD,20816,
Whole Foods,Orlando,6474,6474 #6474,8003 Turkey Lake Road,FL,32819,
Whole Foods,Aventura,6475,6475 #6475,21105 Biscayne Blvd,FL,33180,
Whole Foods,Mill Valley,6476,6476 #6476,731 East Blithedale,CA,94941,
Whole Foods,Bellingham,6477,6477 #6477,255 Hartford Ave,MA,2019,
Whole Foods,San Jose,6478,6478 #6478,1146 Blossom Hill Road,CA,95118,
Whole Foods,Bellevue,6479,6479 #6479,888 116th Ave NE,WA,98004,
Whole Foods,Lakewood,6480,6480 #6480,444 S.Wadsworth Blvd,CO,80226,
Whole Foods,Bend,6481,6481 #6481,2610 Highway 20,OR,97701,
Whole Foods,Tigard,6482,6482 #6482,7380 SW Bridgeport Rd.,OR,97224,
Whole Foods,Brighton,6483,6483 #6483,15 Washington Street,MA,2135,
Whole Foods,Berkeley,6484,6484 #6484,3000 Telegraph Ave,CA,94705,
Whole Foods,Los Angeles,6485,6485 #6485,11737 San Vicente Blvd,CA,90049,
Whole Foods,West Hartford,6486,6486 #6486,340 N. Main St.,CT,6117,
Whole Foods,Boulder,6487,6487 #6487,2584 Baseline Rd.,CO,80305,
Whole Foods,Baton Rouge,6488,6488 #6488,7529 Corporate Blvd,LA,70809,
Whole Foods,Beverly Hills,6489,6489 #6489,239 North Crescent Dr,CA,90210,
Whole Foods,Cambridge,6490,6490 #6490,115 Prospect St,MA,2139,
Whole Foods,Capitola,6491,6491 #6491,1710 41st Avenue,CA,95010,
Whole Foods,Cary,6492,6492 #6492,102B New Waverly Place,NC,27518,
Whole Foods,Campbell,6493,6493 #6493,1690 South Bascom Ave,CA,95008,
Whole Foods,Chevy Chase,6494,6494 #6494,4420 Willard Ave.,MD,20815,
Whole Foods,Denver,6495,6495 #6495,2375 E. 1st Ave,CO,80206,
Whole Foods,Glen Mills,6496,6496 #6496,West Chester Pike,PA,19342,
Whole Foods,Santa Fe,6497,6497 #6497,753 Cerrillos Rd,NM,87505,
Whole Foods,Golden,6498,6498 #6498,14357 W. Colfax Ave.,CO,80401,
Whole Foods,Coral Gables,6499,6499 #6499,6701 Red Road,FL,33143,
Whole Foods,New York,6500,6500 #6500,250 7th Ave,NY,10001,
Whole Foods,Woodmere,6501,6501 #6501,27249 Chagrin Blvd,OH,44122,
Whole Foods,Mount Pleasant,6502,6502 #6502,923 Houston Northcutt Blvd,SC,29464,
Whole Foods,Minneapolis,6503,6503 #6503,3060 Excelsior Blvd,MN,55416,
Whole Foods,Chapel Hill,6504,6504 #6504,81 South Elliot Road,NC,27514,
Whole Foods,Chandler,6505,6505 #6505,2955 West Ray Road,AZ,85224,
Whole Foods,Chattanooga,6506,6506 #6506,301 Manufacturers Rd,TN,37405,
Whole Foods,Charlottesville,6507,6507 #6507,1797 Hydraulic Road,VA,22901,
Whole Foods,Chicago,6508,6508 #6508,6020 N Cicero Ave,IL,60646,
Whole Foods,Cincinnati,6509,6509 #6509,2693 Edmondson Rd.,OH,45209,
Whole Foods,New York,6510,6510 #6510,Lower Concourse Level of the Time Warner Center,NY,10019,
Whole Foods,Vancouver,6513,6513 #6513,510 West 8th Avenue,BC,V5Z 1C5,
Whole Foods,Marietta,6515,6515 #6515,70 Powers Ferry Rd SE,GA,30067,
Whole Foods,Santa Rosa,6516,6516 #6516,390 Coddingtown Mall,CA,95401,
Whole Foods,Glendale,6517,6517 #6517,870 S. Colorado Blvd.,CO,80246,
Whole Foods,Denver,6518,6518 #6518,900 E. 11th Ave.,CO,80218,
Whole Foods,Ann Arbor,6519,6519 #6519,990 W. Eisenhower Parkway,MI,48103,
Whole Foods,Carmel,6520,6520 #6520,14598 Clay Terrace Blvd.,IN,46032,
Whole Foods,Cranston,6521,6521 #6521,151 Sockanosset Cross Road,RI,2920,
Whole Foods,Boston,6522,6522 #6522,181 Cambridge St,MA,2114,
Whole Foods,Coral Springs,6523,6523 #6523,810 University Drive,FL,33071,
Whole Foods,University Heights,6525,6525 #6525,13998 Cedar Rd.,OH,44118,
Whole Foods,Darien,6526,6526 #6526,150 Ledge Road,CT,6820,
Whole Foods,Wayne,6527,6527 #6527,821 W. Lancaster Ave,PA,19087,
Whole Foods,Dedham,6528,6528 #6528,300 Legacy Place,MA,2026,
Whole Foods,Deerfield,6529,6529 #6529,760 Waukegan Rd,IL,60015,
Whole Foods,Durham,6530,6530 #6530,621 Broad Street,NC,27705,
Whole Foods,Columbus,6531,6531 #6531,3670 W. Dublin-Granville Rd,OH,43235,
Whole Foods,Johns Creek,6532,6532 #6532,5945 State Bridge Rd,GA,30097,
Whole Foods,Edgewater,6533,6533 #6533,905 River Road,NJ,7020,
Whole Foods,Encinitas,6534,6534 #6534,687 S. Coast Highway 101,CA,92024,
Whole Foods,Evanston,6535,6535 #6535,1640 Chicago Ave,IL,60201,
Whole Foods,Evanston,6536,6536 #6536,1111 Chicago Ave.,IL,60202,
Whole Foods,Fairfield,6537,6537 #6537,350 Grasmere Avenue,CT,6824,
Whole Foods,Los Angeles,6538,6538 #6538,6350 West 3rd Street,CA,90036,
Whole Foods,Portland,6539,6539 #6539,3535 NE 15th Ave.,OR,97212,
Whole Foods,Folsom,6540,6540 #6540,270 Palladio Parkway,CA,95630,
Whole Foods,Cambridge,6541,6541 #6541,200 Alewife Brook Pkwy,MA,2138,
Whole Foods,Framingham,6542,6542 #6542,575 Worcester Rd,MA,1701,
Whole Foods,San Francisco,6543,6543 #6543,1765 California St,CA,94109,
Whole Foods,Fairfax,6544,6544 #6544,4501 Market Commons Dr,VA,22033,
Whole Foods,Fresno,6545,6545 #6545,650 W. Shaw Ave.,CA,93704,
Whole Foods,Dallas,6546,6546 #6546,11700 Preston Rd,TX,75230,
Whole Foods,Las Vegas,6547,6547 #6547,8855 West Charleston Blvd.,NV,89117,
Whole Foods,Fort Collins,6548,6548 #6548,2201 S College Ave,CO,80525,
Whole Foods,Fort Lauderdale,6549,6549 #6549,2000 N Federal Hwy,FL,33305,
Whole Foods,Fairview,6550,6550 #6550,105 Stacy Rd.,TX,75069,
Whole Foods,Greensboro,6553,6553 #6553,3202 West Friendly Avenue,NC,27408,
Whole Foods,Nashville,6554,6554 #6554,4021 Hillsboro Pike,TN,37215,
Whole Foods,Glastonbury,6555,6555 #6555,55 Welles Street,CT,6033,
Whole Foods,Glendale,6556,6556 #6556,331 North Glendale Ave,CA,91206,
Whole Foods,Greenwich,6557,6557 #6557,90 E. Putnam Ave,CT,6830,
Whole Foods,Chicago,6558,6558 #6558,30 West Huron St,IL,60654,
Whole Foods,Washington,6559,6559 #6559,2323 Wisconsin Ave N.W.,DC,20007,
Whole Foods,Washington,6560,6560 #6560,2201 I Street NW,DC,20037,
Whole Foods,Austin,6561,6561 #6561,9607 Research Blvd.,TX,78759,
Whole Foods,Hadley,6562,6562 #6562,327 Russell St,MA,1035,
Whole Foods,Chicago,6563,6563 #6563,3640 N Halsted St,IL,60613,
Whole Foods,Oakland,6564,6564 #6564,230 Bay Place,CA,94612,
Whole Foods,Cottonwood Heights,6565,6565 #6565,6930 S. Highland Drive,UT,84121,
Whole Foods,Henderson,6566,6566 #6566,100 S. Green Valley Pkwy,NV,89012,
Whole Foods,Hingham,6567,6567 #6567,Derby Street Shoppes,MA,2043,
Whole Foods,San Diego,6568,6568 #6568,711 University Ave,CA,92103,
Whole Foods,Hinsdale,6569,6569 #6569,500 E. Ogden Ave.,IL,60521,
Whole Foods,Highlands Ranch,6570,6570 #6570,9366 S. Colorado Blvd.,CO,80126,
Whole Foods,West Hollywood,6571,6571 #6571,7871 Santa Monica Blvd,CA,90046,
Whole Foods,New York,6572,6572 #6572,95 East Houston St,NY,10002,
Whole Foods,Highland Park,6573,6573 #6573,4100 Lomo Alto Dr,TX,75219,
Whole Foods,Huntington Beach,6575,6575 #6575,7881 Edinger Ave Suite 150,CA,92647,
Whole Foods,Portland,6576,6576 #6576,4301 NE Sandy Blvd,OR,97213,
Whole Foods,Boulder,6577,6577 #6577,1275 Alpine Ave.,CO,80304,
Whole Foods,Indianapolis,6578,6578 #6578,1300 E. 86th St.,IN,46240,
Whole Foods,Baltimore,6579,6579 #6579,Suite A,MD,21202,
Whole Foods,Seattle,6580,6580 #6580,2001 15th Avenue W,WA,98119,
Whole Foods,Albuquerque,6581,6581 #6581,2103 Carlisle Boulevard NE,NM,87110,
Whole Foods,Tustin,6582,6582 #6582,2847 Park Avenue,CA,92782,
Whole Foods,Jacksonville,6583,6583 #6583,10601 San Jose Blvd,FL,32257,
Whole Foods,Jenkintown,6584,6584 #6584,1575 The Fairway,PA,19046,
Whole Foods,Jericho,6585,6585 #6585,429 North Broadway,NY,11753,
Whole Foods,Jamaica Plain,6586,6586 #6586,413 Centre Street,MA,2130,
Whole Foods,Kailua,6587,6587 #6587,"629 Kailua Road, Suite 100",HI,96734,
Whole Foods,Chicago,6588,6588 #6588,1550 N. Kingsbury Street,IL,60642,
Whole Foods,Houston,6589,6589 #6589,2955 Kirby Dr,TX,77098,
Whole Foods,Vancouver,6590,6590 #6590,2285 West 4th Avenue,BC,V6K 1N9,
Whole Foods,Honolulu,6591,6591 #6591,4211 Wai'alae Avenue,HI,96816,
Whole Foods,Gaithersburg,6592,6592 #6592,316 Kentlands Blvd,MD,20878,
Whole Foods,Lafayette,6593,6593 #6593,3502 Mt. Diablo Blvd.,CA,94549,
Whole Foods,Laguna Beach,6594,6594 #6594,283 Broadway St.,CA,92651,
Whole Foods,La Jolla,6595,6595 #6595,8825 Villa La Jolla Dr,CA,92037,
Whole Foods,Los Altos,6596,6596 #6596,4800 El Camino Real,CA,94022,
Whole Foods,Long Beach,6597,6597 #6597,6550 E. Pacific Coast Highway,CA,90803,
Whole Foods,Lexington,6599,6599 #6599,161 Lexington Green Circle,KY,40503,
Whole Foods,Laguna Niguel,6600,6600 #6600,23932 Aliso Creek Road,CA,92677,
Whole Foods,Los Gatos,6601,6601 #6601,15980 Los Gatos Blvd,CA,95032,
Whole Foods,Lake Grove,6602,6602 #6602,120 New Moriches Road,NY,11755,
Whole Foods,Chicago,6603,6603 #6603,3300 N. Ashland Ave,IL,60657,
Whole Foods,Dallas,6604,6604 #6604,2118 Abrams Road,TX,75214,
Whole Foods,Portland,6605,6605 #6605,2825 East Burnside St.,OR,97214,
Whole Foods,Austin,6606,6606 #6606,525 N Lamar Blvd.,TX,78703,
Whole Foods,Lynnwood,6607,6607 #6607,2800 SW 196th St. SW,WA,98036,
Whole Foods,Louisville,6608,6608 #6608,4944 Shelbyville Road,KY,40207,
Whole Foods,Little Rock,6609,6609 #6609,10700 N. Rodney Parham,AR,72212,
Whole Foods,Las Vegas,6610,6610 #6610,6689 Las Vegas Blvd.,NV,89119,
Whole Foods,Madison,6611,6611 #6611,3313 University Ave,WI,53705,
Whole Foods,Birmingham,6612,6612 #6612,3100 Cahaba Village Plaza,AL,35243,
Whole Foods,Vauxhall,6613,6613 #6613,2245 Springfield Ave.,NJ,7088,
Whole Foods,Franklin,6614,6614 #6614,1566 West McEwen Drive,TN,37067,
Whole Foods,Medford,6615,6615 #6615,2151 Mystic Valley Parkway,MA,2155,
Whole Foods,Marietta,6616,6616 #6616,1311 Johnson Ferry Road NE,GA,30068,
Whole Foods,New York,6617,6617 #6617,Between 2nd & 3rd Avenue,NY,10022,
Whole Foods,Manhasset,6619,6619 #6619,2101 Northern Blvd,NY,11030,
Whole Foods,Red Bank,6620,6620 #6620,471 State Route 35 North,NJ,7701,
Whole Foods,Milford,6621,6621 #6621,1686 Boston Post Road,CT,6460,
Whole Foods,Vancouver,6622,6622 #6622,815 Southeast 160th Avenue,WA,98683,
Whole Foods,Mill Valley,6623,6623 #6623,414 Miller Ave,CA,94941,
Whole Foods,Milwaukee,6624,6624 #6624,2305 N. Prospect Ave,WI,53211,
Whole Foods,Kahului,6625,6625 #6625,70 Kaahumanu Ave #B,HI,96732,
Whole Foods,Montclair,6626,6626 #6626,701 Bloomfield Ave,NJ,7042,
Whole Foods,Santa Monica,6627,6627 #6627,1425 Montana Ave.,CA,90403,
Whole Foods,Marlton,6628,6628 #6628,940 Route 73 North,NJ,8053,
Whole Foods,Monterey,6629,6629 #6629,800 Del Monte Center,CA,93940,
Whole Foods,Mason,6630,6630 #6630,5805 Deerfield Boulevard,OH,45040,
Whole Foods,Minnetonka,6631,6631 #6631,1001 Plymouth Road,MN,55305,
Whole Foods,Houston,6632,6632 #6632,701 Waugh Drive,TX,77019,
Whole Foods,Baltimore,6633,6633 #6633,1330 Smith Ave,MD,21209,
Whole Foods,Northbrook,6634,6634 #6634,840 Willow Road,IL,60062,
Whole Foods,Colorado Springs,6635,6635 #6635,3180 New Center Point,CO,80922,
Whole Foods,Newton,6636,6636 #6636,916 Walnut St,MA,2461,
Whole Foods,San Francisco,6637,6637 #6637,3950 24th Street,CA,94114,
Whole Foods,Novato,6638,6638 #6638,790 De Long Avenue,CA,94945,
Whole Foods,Napa,6639,6639 #6639,3682 Bel Aire Plaza,CA,94558,
Whole Foods,Naples,6640,6640 #6640,9101 Strada Place,FL,34108,
Whole Foods,Naperville,6641,6641 #6641,2607 W. 75th Street,IL,60540,
Whole Foods,Raleigh,6642,6642 #6642,8710 Six Forks Rd,NC,27615,
Whole Foods,Newtonville,6643,6643 #6643,647 Washington Street,MA,2458,
Whole Foods,North Wales,6644,6644 #6644,1210 Bethlehem Pike,PA,19454,
Whole Foods,Oakville,6645,6645 #6645,301 Cornwall Rd,ON,L6J 7Z5,
Whole Foods,Oklahoma City,6646,6646 #6646,6001 N. Western Ave.,OK,73118,
Whole Foods,"Thousand Oaks,",6647,6647 #6647,740 North Moorpark Rd,CA,91360,
Whole Foods,Tucson,6649,6649 #6649,7133 N Oracle Rd,AZ,85704,
Whole Foods,Upper Arlington,6650,6650 #6650,1555 W. Lane Ave,OH,43221,
Whole Foods,Alexandria,6651,6651 #6651,1700 Duke St,VA,22314,
Whole Foods,Palo Alto,6652,6652 #6652,774 Emerson Street,CA,94301,
Whole Foods,Paramus,6653,6653 #6653,300 Bergen Town Center,NJ,7652,
Whole Foods,Pasadena,6654,6654 #6654,at Rosemead Blvd.,CA,91107,
Whole Foods,El Segundo,6656,6656 #6656,760 South Sepulveda Blvd.,CA,90245,
Whole Foods,Pinecrest,6657,6657 #6657,11701 South Dixie Highway,FL,33156,
Whole Foods,Pembroke Pines,6658,6658 #6658,14956 Pines Blvd,FL,33027,
Whole Foods,Petaluma,6659,6659 #6659,621 E. Washington St,CA,94952,
Whole Foods,Palm Beach Gardens,6660,6660 #6660,11701 Lake Victoria Gardens Ave,FL,33446,
Whole Foods,Philadelphia,6661,6661 #6661,2001 Pennsylvania Avenue,PA,19130,
Whole Foods,Park City,6662,6662 #6662,1748 W Redstone Center Dr.,UT,84098,
Whole Foods,Dallas,6663,6663 #6663,"8190 Park Lane, Suite 351",TX,75231,
Whole Foods,Arlington,6664,6664 #6664,801 East Lamar Blvd.,TX,76011,
Whole Foods,Plantation,6665,6665 #6665,7720 Peters Rd,FL,33324,
Whole Foods,Plymouth Meeting,6666,6666 #6666,500 W. Germantown Pike,PA,19462,
Whole Foods,Plano,6667,6667 #6667,2201 Preston Rd,TX,75093,
Whole Foods,Atlanta,6668,6668 #6668,650 Ponce de Leon Ave NE,GA,30308,
Whole Foods,Colorado Springs,6670,6670 #6670,7635 North Academy Blvd,CO,80920,
Whole Foods,Boulder,6671,6671 #6671,2905 Pearl St,CO,80301,
Whole Foods,Princeton,6672,6672 #6672,3495 US Route 1 South,NJ,8540,
Whole Foods,Providence,6673,6673 #6673,261 Waterman St,RI,2906,
Whole Foods,Portland,6674,6674 #6674,1210 NW Couch St,OR,97209,
Whole Foods,West Vancouver,6675,6675 #6675,925 Main St,BC,V7T 2Z3,
Whole Foods,Washington,6676,6676 #6676,1440 P Street NW,DC,20005,
Whole Foods,Pittsburgh,6677,6677 #6677,5880 Centre Ave,PA,15206,
Whole Foods,San Francisco,6678,6678 #6678,450 Rhode Island St,CA,94107,
Whole Foods,Portland,6679,6679 #6679,2 Somerset St,ME,4101,
Whole Foods,Northridge,6681,6681 #6681,19340 Rinaldi Street,CA,91326,
Whole Foods,Phoenix,6682,6682 #6682,10810 N Tatum Blvd,AZ,85028,
Whole Foods,San Antonio,6683,6683 #6683,"255 E. Basse Rd, Ste. 130",TX,78209,
Whole Foods,Raleigh,6684,6684 #6684,3540 Wade Ave,NC,27607,
Whole Foods,San Ramon,6685,6685 #6685,100 Sunset Drive,CA,94583,
Whole Foods,Vancouver,6686,6686 #6686,1675 Robson Street,BC,V6G 1C8,
Whole Foods,Rochester Hills,6687,6687 #6687,2918 Walton Blvd,MI,48309,
Whole Foods,Madison,6688,6688 #6688,222 Main St,NJ,7940,
Whole Foods,Redondo Beach,6689,6689 #6689,405 North Pacific Coast Hwy,CA,90277,
Whole Foods,Ridgewood,6690,6690 #6690,44 Godwin Ave,NJ,7450,
Whole Foods,Redwood City,6691,6691 #6691,1250 Jefferson Ave,CA,94062,
Whole Foods,Reston,6692,6692 #6692,11660 Plaza America Dr,VA,20190,
Whole Foods,Redmond,6695,6695 #6695,17991 NE Redmond Way,WA,98052,
Whole Foods,Reno,6696,6696 #6696,6139 S. Virginia Street,NV,89502,
Whole Foods,Roseville,6698,6698 #6698,1001 Galleria Blvd.,CA,95678,
Whole Foods,Seattle,6699,6699 #6699,1026 NE 64th Street,WA,98115,
Whole Foods,River Forest,6700,6700 #6700,7245 Lake St,IL,60305,
Whole Foods,Cambridge,6701,6701 #6701,340 River St,MA,2139,
Whole Foods,Rockville,6702,6702 #6702,11355 Woodglen Drive,MD,20852,
Whole Foods,Sarasota,6703,6703 #6703,1451 1st Street,FL,34236,
Whole Foods,Miami Beach,6704,6704 #6704,1020 Alton Road,FL,33139,
Whole Foods,Santa Barbara,6705,6705 #6705,3761 State Street,CA,93105,
Whole Foods,Schaumburg,6706,6706 #6706,750 N. Martingale Rd.,IL,60173,
Whole Foods,Phoenix,6707,6707 #6707,7111 E. Mayo Blvd.,AZ,85054,
Whole Foods,Atlanta,6708,6708 #6708,5930 Roswell Rd,GA,30328,
Whole Foods,Sebastopol,6709,6709 #6709,6910 McKinley St,CA,95472,
Whole Foods,Sugar Land,6710,6710 #6710,15900 Southwest Freeway,TX,77479,
Whole Foods,Sherman Oaks,6712,6712 #6712,12905 Riverside Dr,CA,91423,
Whole Foods,Sherman Oaks,6713,6713 #6713,4520 N. Sepulveda Blvd,CA,91403,
Whole Foods,Chicago,6714,6714 #6714,1101 S. Canal St,IL,60607,
Whole Foods,Santa Monica,6715,6715 #6715,2201 Wilshire Blvd,CA,90403,
Whole Foods,San Mateo,6716,6716 #6716,1010 Park Place,CA,94403,
Whole Foods,Sonoma,6717,6717 #6717,201 W.Napa St,CA,95476,
Whole Foods,San Francisco,6719,6719 #6719,399 4th Street,CA,94107,
Whole Foods,Philadelphia,6720,6720 #6720,929 South St,PA,19147,
Whole Foods,Tucson,6721,6721 #6721,3360 E. Speedway Blvd.,AZ,85716,
Whole Foods,Glen Allen,6722,6722 #6722,11173 West Broad Street,VA,23060,
Whole Foods,Springfield,6723,6723 #6723,8402 Old Keene Mill Rd,VA,22152,
Whole Foods,Mississauga,6724,6724 #6724,155 Square One Drive,ON,L5B 0E2,
Whole Foods,San Rafael,6725,6725 #6725,340 Third St,CA,94901,
Whole Foods,Santa Rosa,6726,6726 #6726,1181 Yulupa Ave,CA,95405,
Whole Foods,Silver Spring,6727,6727 #6727,833 Wayne Ave,MD,20910,
Whole Foods,Troy,6728,6728 #6728,2880 West Maple Rd,MI,48084,
Whole Foods,Cupertino,6729,6729 #6729,20955 Stevens Creek Blvd,CA,95014,
Whole Foods,Santa Fe,6730,6730 #6730,1090 S. Saint Francis Drive,NM,87505,
Whole Foods,San Francisco,6732,6732 #6732,690 Stanyan Street,CA,94117,
Whole Foods,St Paul,6733,6733 #6733,30 South Fairview Ave,MN,55105,
Whole Foods,Santa Cruz,6734,6734 #6734,911 Soquel Ave,CA,95062,
Whole Foods,Salt Lake City,6735,6735 #6735,1131 E. Wilmington Ave.,UT,84106,
Whole Foods,Superior,6736,6736 #6736,303 Marshall Rd.,CO,80027,
Whole Foods,Swampscott,6737,6737 #6737,331 Paradise Rd,MA,1907,
Whole Foods,Boston,6738,6738 #6738,15 Westland Ave,MA,2115,
Whole Foods,Hillsboro,6740,6740 #6740,19440 NW Cornell Rd,OR,97124,
Whole Foods,Tempe,6741,6741 #6741,5120 S. Rural Rd,AZ,85282,
Whole Foods,Washington,6742,6742 #6742,4530 40th St NW Tenley Circle,DC,20016,
Whole Foods,Torrance,6745,6745 #6745,2655 Pacific Coast Hwy,CA,90505,
Whole Foods,Tampa,6746,6746 #6746,1548 North Dale Mabry Highway.,FL,33607,
Whole Foods,New York,6747,6747 #6747,270 Greenwich Street,NY,10007,
Whole Foods,Tarzana,6748,6748 #6748,18700 Ventura Blvd,CA,91356,
Whole Foods,Salt Lake City,6749,6749 #6749,544 South 700 East,UT,84102,
Whole Foods,Las Vegas,6750,6750 #6750,7250 W. Lake Mead Blvd.,NV,89128,
Whole Foods,Falls Church,6751,6751 #6751,7511 Leesburg Pike,VA,22043,
Whole Foods,Providence,6752,6752 #6752,601 N Main St,RI,2904,
Whole Foods,New York,6753,6753 #6753,4 Union Square South,NY,10003,
Whole Foods,New York,6754,6754 #6754,808 Columbus Avenue,NY,10025,
Whole Foods,Santa Clarita,6755,6755 #6755,24130 Valencia Blvd,CA,91355,
Whole Foods,Venice,6756,6756 #6756,225 Lincoln Blvd.,CA,90291,
Whole Foods,Metairie,6757,6757 #6757,3420 Veterans Memorial Blvd,LA,70002,
Whole Foods,Vienna,6758,6758 #6758,143 Maple Ave East,VA,22180,
Whole Foods,Walnut Creek,6759,6759 #6759,1333 Newell Ave,CA,94596,
Whole Foods,Wayland,6760,6760 #6760,317 Boston Post Rd,MA,1778,
Whole Foods,West Bloomfield,6761,6761 #6761,7350 Orchard Lake Road,MI,48322,
Whole Foods,Willowbrook,6762,6762 #6762,201 63rd St,IL,60527,
Whole Foods,Greenville,6763,6763 #6763,1140 Woodruff Road,SC,29607,
Whole Foods,Woodland Hills,6764,6764 #6764,21347 Ventura Blvd,CA,91364,
Whole Foods,West Des Moines,6765,6765 #6765,4100 University Ave,IA,50266,
Whole Foods,West Hartford,6766,6766 #6766,50 Raymond Rd,CT,6107,
Whole Foods,White Plains,6767,6767 #6767,110 Bloomingdale Road,NY,10605,
Whole Foods,Houston,6768,6768 #6768,11145 Westheimer Rd,TX,77042,
Whole Foods,Winston-Salem,6769,6769 #6769,41 Miller St,NC,27104,
Whole Foods,Los Angeles,6770,6770 #6770,11666 National Blvd,CA,90064,
Whole Foods,Santa Monica,6771,6771 #6771,500 Wilshire Blvd.,CA,90401,
Whole Foods,Wellington,6772,6772 #6772,2635 State Road 7,FL,33414,y
Whole Foods,Wellesley,6773,6773 #6773,442 Washington Street,MA,2482,
Whole Foods,Woburn,6774,6774 #6774,400 Cambridge Rd,MA,1801,
Whole Foods,West Orange,6775,6775 #6775,235 Prospect Ave,NJ,7052,
Whole Foods,Atlanta,6776,6776 #6776,77 West Paces Ferry Rd NW,GA,30305,
Whole Foods,Winter Park,6777,6777 #6777,1989 Aloma Ave,FL,32792,
Whole Foods,Westport,6778,6778 #6778,399 Post Road West,CT,6880,
Whole Foods,Seattle,6779,6779 #6779,2210 Westlake Ave,WA,98121,
Whole Foods,Westminster,6780,6780 #6780,9229 N. Sheridan Blvd.,CO,80031,
Whole Foods,Denver,6781,6781 #6781,1111 S. Washington St.,CO,80210,
Whole Foods,Wheaton,6782,6782 #6782,151 Rice Lake Square,IL,60189,
Whole Foods,Los Angeles,6783,6783 #6783,1050 S. Gayley Ave,CA,90024,
Whole Foods,Houston,6784,6784 #6784,Suite 149,TX,77057,
Whole Foods,Wynnewood,6785,6785 #6785,339 East Lancaster Ave,PA,19096,
Whole Foods,Toronto,6788,6788 #6788,87 Avenue Rd,ON,M5R 3R9,
Whole Foods,Wexford,7755,7755 #7755,10576 Perry Highway,PA,15090,
Whole Foods,Denver,7756,7756 #7756,7400 E. Hampden Ave,CO,80231,
Whole Foods,Edina,7757,7757 #7757,7401 France Ave S,MN,55435,
Whole Foods,Annapolis,7758,7758 #7758,Suite 100,MD,21401,
Whole Foods,Yonkers,10096,10096 #10096,1 Ridge Hill Blvd.,NY,10710,
Whole Foods,Wilmington,12584,12584 #12584,3804 Oleander Drive,NC,28403,
Whole Foods,San Antonio,20920,20920 #20920,18403 Blanco Road,TX,78258,
Whole Foods,San Francisco,24165,24165 #24165,1150 Ocean Ave,CA,94112,
Whole Foods,Davis,24166,24166 #24166,500 First Street,CA,95616,
Whole Foods,Charlotte,27443,27443 #27443,6610 Fairview Rd.,NC,28210,
Whole Foods,Basalt,43216,43216 #43216,340 Reed Street,CO,81621,
Whole Foods,Tampa,51956,51956 #51956,3802 Northdale Blvd.,FL,33624,
Whole Foods,Markham,55391,55391 #55391,3997 Highway 7,ON,L3R 5M6,
Whole Foods,Boise,58876,58876 #58876,401 S. Broadway Street,ID,83702,
Whole Foods,Detroit,58961,58961 #58961,115 Mack Ave.,MI,48201,
Whole Foods,Newport Beach,60241,60241 #60241,415 Newport Center Drive,CA,92660,
Whole Foods,Virginia Beach,70051,70051 #70051,1800 Laskin Road,VA,23454,
Whole Foods,Oxnard,77401,77401 #77401,650 Town Center Drive,CA,93036,
Whole Foods,Columbia,79066,79066 #79066,Suite 300,SC,29203,
Whole Foods,Orland Park,88736,88736 #88736,15260 S. LaGrange Road,IL,60462,
Whole Foods,Mishawaka,109676,109676 #109676,4230 Grape Road,IN,46545,
Whole Foods,Tucson,109711,109711 #109711,5555 E. River Road,AZ,85750,
Whole Foods,Del Mar,114206,114206 #114206,"2600 Via De La Valle, Suite 100",CA,92014,
Whole Foods,Katy,119641,119641 #119641,6601 S. Fry Road,TX,77494,
Whole Foods,Littleton,126856,126856 #126856,5155 S. Wadsworth Blvd.,CO,80123,
Whole Foods,Kildeer,126881,126881 #126881,20281 N Rand Road,IL,60074,
Whole Foods,Brookline,178661,178661 #178661,1028 Beacon Street,MA,2446,
Whole Foods,Maple Grove,178676,178676 #178676,12201 Elm Creek Blvd N,MN,55369,
Whole Foods,Minneapolis,178686,178686 #178686,222 Hennepin Avenue,MN,55401,
Whole Foods,North Miami,199321,199321 #199321,12150 Biscayne Blvd,FL,33181,
Whole Foods,Danbury,212556,212556 #212556,5C Sugar Hollow Road,CT,6810,
Whole Foods,Fremont,221996,221996 #221996,3111 Mowry Avenue,CA,94538,
Whole Foods,Addison,259016,259016 #259016,"5100 Belt Line Road, Suite 1012",TX,75254,
Whole Foods,Lincoln,264271,264271 #264271,6055 O Street,NE,68510,
Whole Foods,Phoenix,273901,273901 #273901,4701 N. 20th Street,AZ,85016,
Whole Foods,South Weymouth,273951,273951 #273951,35 Pleasant Street,MA,2190,
Whole Foods,Melrose,282591,282591 #282591,880 Main Street,MA,2176,
Whole Foods,Charlestown,288906,288906 #288906,51 Austin St.,MA,2129,
Whole Foods,Lynnfield,288941,288941 #288941,(at MarketStreet Lynnfield),MA,1940,
Whole Foods,Savannah,299911,299911 #299911,Suite 101,GA,31404,
Whole Foods,Port Chester,303291,303291 #303291,575 Boston Post Road,NY,10573,
Whole Foods,Somerville,306431,306431 #306431,45 Beacon Street,MA,2143,
Whole Foods,Tallahassee,309181,309181 #309181,1817 Thomasville Road,FL,32303,
Whole Foods,Arlington,321051,321051 #321051,808 Massachusetts Avenue,MA,2476,
Whole Foods,Park Ridge,321081,321081 #321081,225 W. Touhy Ave,IL,60068,
Whole Foods,San Francisco,322711,322711 #322711,2001 Market Street,CA,94114,
Whole Foods,Frisco,327486,327486 #327486,261 Lusher Court,CO,80443,
Whole Foods,Brooklyn,332786,332786 #332786,214 3rd Street,NY,11215,
Whole Foods,New Orleans,337306,337306 #337306,Suite 103,LA,70119,
Whole Foods,Tulsa,356446,356446 #356446,9136 South Yale Avenue,OK,74137,
Whole Foods,Jackson,362936,362936 #362936,Exit 100,MS,39211,
Whole Foods,Austin,386501,386501 #386501,11920 Domain Drive,TX,78758,
Whole Foods,Centennial,409556,409556 #409556,Suite 119,CO,80122,
Whole Foods,Memphis,418296,418296 #418296,5014 Poplar Avenue,TN,38117,
Whole Foods,Flagstaff,908646,908646 #908646,320 S. Cambridge Lane,AZ,86001,
Whole Foods,Prescott,908651,908651 #908651,1112 Iron Springs Rd.,AZ,86305,
Whole Foods,Sedona,908656,908656 #908656,1420 West Hwy. 89A,AZ,86336,
Whole Foods,San Luis Obispo,908661,908661 #908661,1531 Froom Ranch Way,CA,93405,
