keywords,city,Aggdata Store Number,store_number,address,state,zip_code
Winn-Dixie,JACKSONVILLE,2,#2,2220 COUNTY RD 210 W STE 200,FL,32259
Winn-Dixie,MONTICELLO,3,#3,1245 S. JEFFERSON ST.,FL,32344
Winn-Dixie,PONTE VEDRA BEACH,5,#5,290 SOLANA ROAD,FL,32082
Winn-Dixie,ORANGE PARK,8,#8,1339 BLANDING BLVD.,FL,32065
Winn-Dixie,JACKSONVILLE,12,#12,12333 SAGO AVE W.,FL,32218
Winn-Dixie,NEPTUNE BEACH,18,#18,1209 ATLANTIC BLVD.,FL,32266
Winn-Dixie,ST SIMONS ISLAND,19,#19,220 RETREAT VILLAGE,GA,31522
Winn-Dixie,JACKSONVILLE,21,#21,2220 County Rd 210 w Suite 301,FL,32259
Winn-Dixie,ALBANY,22,#22,2800 OLD DAWSON RD,GA,31707
Winn-Dixie,JACKSONVILLE,25,#25,8775 OLD KINGS ROAD SOUTH,FL,32217
Winn-Dixie,MADISON,28,#28,729 W. BASE STREET,FL,32340
Winn-Dixie,HIGH SPRINGS,30,#30,20303 N US HIGHWAY 441,FL,32643
Winn-Dixie,HIGH SPRINGS,31,#31,1070 NW SANTA FE BLVD,FL,32643
Winn-Dixie,LAKE PARK,32,#32,1060 LAKES BLVD.,GA,31636
Winn-Dixie,JACKSONVILLE,37,#37,777 MARKET STREET,FL,32202
Winn-Dixie,JACKSONVILLE,51,#51,6060-10 FT CAROLINE ROAD,FL,32277
Winn-Dixie,TALLAHASSEE,52,#52,3813-10 N. MONROE ST.,FL,32303
Winn-Dixie,JACKSONVILLE,54,#54,1531 MONUMENT ROAD,FL,32225
Winn-Dixie,BRUNSWICK,60,#60,1941 GLYNN AVE.,GA,31520
Winn-Dixie,JACKSONVILLE,72,#72,7534 BEACH BLVD,FL,32216
Winn-Dixie,ST AUGUSTINE,77,#77,1010 PONCE DE LEON BLVD S,FL,32084
Winn-Dixie,JACKSONVILLE,80,#80,9866 BAYMEADOWS ROAD,FL,32256
Winn-Dixie,LAKE CITY,81,#81,580 S. Marion Avenue,FL,32025
Winn-Dixie,LAKE CITY,82,#82,580 S MARION AVE,FL,32025
Winn-Dixie,FERNANDINA BEACH,84,#84,947 AMELIA PLAZA,FL,32034
Winn-Dixie,STARKE,85,#85,470 W. MADISON STREET,FL,32091
Winn-Dixie,TALLAHASSEE,86,#86,111-39 S. MAGNOLIA DRIVE,FL,32301
Winn-Dixie,JACKSONVILLE,89,#89,"2261 EDGEWOOD AVE., W.",FL,32209
Winn-Dixie,TALLAHASSEE,90,#90,111-39-1 S. MAGNOLIA,FL,32301
Winn-Dixie,MIDDLEBURG,93,#93,2720 BLANDING BLVD.,FL,32068
Winn-Dixie,BRUNSWICK,97,#97,4404 ALTAMA AVENUE,GA,31520
Winn-Dixie,MOULTRIE,101,#101,103 TALMADGE DRIVE,GA,31768
Winn-Dixie,ORANGE PARK,103,#103,1545 COUNTY ROAD 220,FL,32003
Winn-Dixie,PERRY,104,#104,2057 S BYRON BUTLER PKWY,FL,32348
Winn-Dixie,NEPTUNE BEACH,106,#106,1227 ATLANTIC BLVD,FL,32266
Winn-Dixie,JACKSONVILLE,107,#107,5909 UNIVERSITY BLVD. W.,FL,32216
Winn-Dixie,LEESBURG,110,#110,1553 US 19 SOUTH,GA,31763
Winn-Dixie,TALLAHASSEE,116,#116,110 PAUL RUSSELL ROAD,FL,32301
Winn-Dixie,TALLAHASSEE,125,#125,1525 WEST THARPE STREET,FL,32303
Winn-Dixie,ST AUGUSTINE,129,#129,3905 A1A SOUTH,FL,32080
Winn-Dixie,GREEN COVE SPRINGS,135,#135,2851 HENLEY ROAD STE. 200,FL,32043
Winn-Dixie,GREEN COVE SPRINGS,136,#136,"2851 HENLEY RD., STE. 108",FL,32043
Winn-Dixie,GREEN COVE SPRINGS,138,#138,3260 HIGHWAY 17,FL,32043
Winn-Dixie,VALDOSTA,140,#140,3200 NORTH ASHLEY ST.,GA,31602
Winn-Dixie,JACKSONVILLE,141,#141,11701-10 SAN JOSE BLVD,FL,32223
Winn-Dixie,HILLIARD,142,#142,550969 US HWY 1,FL,32046
Winn-Dixie,JACKSONVILLE,143,#143,11701-10A SAN JOSE BLVD,FL,32223
Winn-Dixie,MACCLENNY,144,#144,1436 S R 121st South,FL,32063
Winn-Dixie,ORANGE PARK,145,#145,248 BLANDING BLVD.,FL,32073
Winn-Dixie,GAINESVILLE,150,#150,300 SW 16th Ave - Suite A,FL,32601
Winn-Dixie,CALLAHAN,151,#151,450078 SR 200,FL,32011
Winn-Dixie,JACKSONVILLE,153,#153,7921 NORMANDY BLVD.,FL,32221
Winn-Dixie,PALATKA,156,#156,901 HWY 19 SOUTH,FL,32177
Winn-Dixie,BRUNSWICK,159,#159,5420 NEW JESUP HWY,GA,31525
Winn-Dixie,GAINESVILLE,160,#160,2500 N. MAIN STREET,FL,32609
Winn-Dixie,JACKSONVILLE,161,#161,49 ARLINGTON ROAD SOUTH,FL,32216
Winn-Dixie,KINGSLAND,166,#166,1390 E Boone Street,GA,31548
Winn-Dixie,JACKSONVILLE,167,#167,3000 DUNN AVENUE,FL,32218
Winn-Dixie,CHIEFLAND,168,#168,2202 No. Young Blvd,FL,32626
Winn-Dixie,BAINBRIDGE,169,#169,915 SHOTWELL STREET,GA,39819
Winn-Dixie,WILLISTON,171,#171,727 W.NOBLE AVENUE,FL,32696
Winn-Dixie,VALDOSTA,173,#173,1105 MADISON HIGHWAY,GA,31601
Winn-Dixie,JACKSONVILLE,174,#174,12777 ATLANTIC BLVD.,FL,32225
Winn-Dixie,JACKSONVILLE,176,#176,8560 ARGYLE FOREST BLVD,FL,32244
Winn-Dixie,JACKSONVILLE,177,#177,3538 BLANDING BLVD.,FL,32210
Winn-Dixie,JACKSONVILLE,179,#179,11101 OLD ST AUGUSTINE RD,FL,32257
Winn-Dixie,YULEE,180,#180,96076 LOFTON SQUARE ct,FL,32097
Winn-Dixie,ST AUGUSTINE,182,#182,3551 N. PONCE DE LEON BLVD,FL,32084
Winn-Dixie,JACKSONVILLE,183,#183,3538-A BLANDING BLVD.,FL,32210
Winn-Dixie,QUINCY,184,#184,1632 W JEFFERSON ST,FL,32351
Winn-Dixie,CRAWFORDVILLE,186,#186,2629 CRAWFORDVILLE HIGHWAY,FL,32327
Winn-Dixie,JACKSONVILLE,187,#187,8560 ARGYLE FOREST BLVD UNIT#1,FL,32244
Winn-Dixie,JACKSONVILLE,190,#190,1520 W UNIVERSITY BLVD,FL,32217
Winn-Dixie,JACKSONVILLE,191,#191,5207 NORMANDY BOULEVARD,FL,32205
Winn-Dixie,JACKSONVILLE,195,#195,"11380 Beach Blvd, Suite 6",FL,32246
Winn-Dixie,CRESCENT CITY,196,#196,1115 NORTH SUMMIT STREET,FL,32112
Winn-Dixie,GAINESVILLE,197,#197,300 S.W. 16TH AVENUE,FL,32601
Winn-Dixie,LIVE OAK,198,#198,911 PINEWOOD DRIVE SW,FL,32064
Winn-Dixie,JACKSONVILLE,199,#199,703 CHAFFEE RD.,FL,32221
Winn-Dixie,HALLANDALE,203,#203,1055 WEST HALLANDALE BEACH BLV,FL,33009
Winn-Dixie,FT LAUDERDALE,204,#204,1035 NW 9TH AVE,FL,33311
Winn-Dixie,POMPANO BEACH,207,#207,3435 N FEDERAL HWY,FL,33064
Winn-Dixie,PEMBROKE PINES,209,#209,701 NW 99TH AVE,FL,33024
Winn-Dixie,TAMARAC,210,#210,3116 W COMMERCIAL BLVD,FL,33309
Winn-Dixie,ROYAL PALM BEACH,212,#212,1135 ROYAL PALM BEACH BLVD,FL,33411
Winn-Dixie,MIAMI,214,#214,1150 NW 54TH STREET,FL,33127
Winn-Dixie,COOPER CITY,218,#218,2581 NORTH HIATUS ROAD,FL,33026
Winn-Dixie,WEST PALM BEACH,221,#221,2675 S. MILITARY TRAIL,FL,33415
Winn-Dixie,FT LAUDERDALE,226,#226,1625 CORDOVA ROAD,FL,33316
Winn-Dixie,POMPANO BEACH,228,#228,277 S POMPANO PARKWAY,FL,33069
Winn-Dixie,MIAMI,233,#233,11030 N.W. 7TH AVE.,FL,33168
Winn-Dixie,MIAMI,235,#235,3401 NW 18TH AVENUE,FL,33142
Winn-Dixie,FT LAUDERDALE,236,#236,941 SW 24TH STREET,FL,33315
Winn-Dixie,MIAMI,237,#237,12254 SW 8TH STREET,FL,33184
Winn-Dixie,JUPITER,238,#238,6707 WEST INDIANTOWN RD.,FL,33458
Winn-Dixie,MIAMI,239,#239,14555 SW 42ND STREET,FL,33175
Winn-Dixie,HIALEAH,242,#242,1201 E. 10TH AVENUE,FL,33010
Winn-Dixie,HIALEAH,243,#243,541 WEST 49TH STREET,FL,33012
Winn-Dixie,MIRAMAR,244,#244,6301 COUNTY LINE RD.,FL,33023
Winn-Dixie,MIAMI GARDENS,246,#246,17221 NW 27TH AVENUE,FL,33056
Winn-Dixie,MIAMI,247,#247,1155 NW 11TH ST,FL,33136
Winn-Dixie,MIAMI,249,#249,6770 BIRD ROAD,FL,33155
Winn-Dixie,MIRAMAR,250,#250,17101 MIRAMAR PKWY,FL,33027
Winn-Dixie,MIAMI,251,#251,3275 SW 22ND STREET,FL,33145
Winn-Dixie,MIAMI,252,#252,1525 CORAL WAY,FL,33145
Winn-Dixie,MIAMI,254,#254,11241 S.W. 40TH STREET,FL,33165
Winn-Dixie,DELRAY BEACH,255,#255,14595 SOUTH MILITARY TRAIL,FL,33484
Winn-Dixie,MIRAMAR,258,#258,17131 MIRAMAR PKWY,FL,33027
Winn-Dixie,BOYNTON BEACH,259,#259,1620 S FEDERAL HIGHWAY,FL,33435
Winn-Dixie,WEST PALM BEACH,261,#261,2675 S MILITARY TRAIL STE 100,FL,33415
Winn-Dixie,MIAMI LAKES,262,#262,15450 NW 77TH COURT,FL,33016
Winn-Dixie,DELRAY BEACH,266,#266,14595 S MILITARY TRAIL STE 100,FL,33484
Winn-Dixie,MARATHON,267,#267,5585 OVERSEAS HWY,FL,33050
Winn-Dixie,HIALEAH,270,#270,"2750 W. 68TH ST., STE. 201",FL,33016
Winn-Dixie,LANTANA,271,#271,1491 S. DIXIE HIGHWAY,FL,33462
Winn-Dixie,JUPITER,272,#272,3757 MILITARY TRAIL,FL,33458
Winn-Dixie,HOLLYWOOD,274,#274,6775 TAFT STREET,FL,33024
Winn-Dixie,FORT LAUDERDALE,279,#279,FEDERAL HWY,FL,33301
Winn-Dixie,DORAL,280,#280,10505 NW 41ST STREET,FL,33178
Winn-Dixie,MIAMI,283,#283,8855 CORAL WAY,FL,33165
Winn-Dixie,SOUTH MIAMI,285,#285,5850 SW 73RD STREET,FL,33143
Winn-Dixie,MIAMI,286,#286,948 SW 67TH AVENUE,FL,33144
Winn-Dixie,MIAMI,287,#287,14655 SW 104TH ST,FL,33186
Winn-Dixie,AVENTURA,289,#289,20355 BISCAYNE BOULEVARD,FL,33180
Winn-Dixie,FORT LAUDERDALE,290,#290,680 N Federal Hwy,FL,33304
Winn-Dixie,AVENTURA,291,#291,20417 BISCAYNE BOULEVARD,FL,33180
Winn-Dixie,HIALEAH,293,#293,WEST 49TH ST. & 16TH,FL,33012
Winn-Dixie,MANGONIA PARK,295,#295,1225 WEST 45TH STREET,FL,33407
Winn-Dixie,MIAMI,297,#297,7930 SW 104TH STREET,FL,33156
Winn-Dixie,WEST PALM BEACH,299,#299,4360 OKEECHOBEE BLVD.,FL,33409
Winn-Dixie,DAVIE,300,#300,11292 STATE ROAD 84,FL,33325
Winn-Dixie,HOMESTEAD,302,#302,240 NE 8TH STREET,FL,33030
Winn-Dixie,HIALEAH,303,#303,539 West 49th Street,FL,33012
Winn-Dixie,LAUDERHILL,304,#304,1531 NW 40TH AVENUE,FL,33313
Winn-Dixie,HOBE SOUND,305,#305,8867 SE BRIDGE RD,FL,33455
Winn-Dixie,HALLANDALE,306,#306,1515 EAST HALLANDALE BCH BLVD.,FL,33009
Winn-Dixie,STUART,307,#307,2160 S. FEDERAL HIGHWAY,FL,34994
Winn-Dixie,JENSEN BEACH,308,#308,1105 NE JENSEN BEACH BLVD.,FL,34957
Winn-Dixie,WEST PALM BEACH,309,#309,7915 S. DIXIE HIGHWAY,FL,33405
Winn-Dixie,DAVIE,311,#311,11290 STATE ROAD 84,FL,33325
Winn-Dixie,HALLANDALE,314,#314,1519 EAST HALLANDALE BCH BLVD,FL,33009
Winn-Dixie,KEY WEST,317,#317,2778 N. ROOSEVELT BLVD.,FL,33040
Winn-Dixie,KEY BISCAYNE,318,#318,604 CRANDON BLVD.,FL,33149
Winn-Dixie,HOMESTEAD,319,#319,30346 OLD DIXIE HIGHWAY,FL,33030
Winn-Dixie,WEST PALM BEACH,322,#322,7911 S DIXIE HIGHWAY,FL,33405
Winn-Dixie,KEY WEST,324,#324,2760 N. ROOSEVELT BLVD.,FL,33040
Winn-Dixie,TAMARAC,326,#326,7015 N. UNIVERSITY DRIVE,FL,33321
Winn-Dixie,STUART,327,#327,2150 S FEDERAL HIGHWAY,FL,34994
Winn-Dixie,TAVERNIER,328,#328,92100 OVERSEAS HIGHWAY,FL,33070
Winn-Dixie,FT LAUDERDALE,330,#330,3260 DAVIE BOULEVARD,FL,33312
Winn-Dixie,OKEECHOBEE,331,#331,3246 HIGHWAY 441 SOUTH,FL,34974
Winn-Dixie,PALM BEACH GARDENS,333,#333,8924 NORTH MILITARY TRAIL,FL,33410
Winn-Dixie,HOLLYWOOD,336,#336,3850 NORTH 46TH AVE,FL,33021
Winn-Dixie,MIAMI,343,#343,14900 NW 7TH AVE,FL,33168
Winn-Dixie,DEERFIELD BEACH,345,#345,1019 S FEDERAL HWY,FL,33441
Winn-Dixie,PLANTATION,348,#348,7139 W BROWARD BLVD,FL,33317
Winn-Dixie,MARGATE,349,#349,5600 West Sample Road,FL,33073
Winn-Dixie,KEY LARGO,352,#352,105300 OVERSEAS HWY,FL,33037
Winn-Dixie,MIAMI,353,#353,9565 W FLAGLER ST,FL,33174
Winn-Dixie,DANIA,354,#354,308 E DANIA BCH BLVD,FL,33004
Winn-Dixie,BOCA RATON,355,#355,7024 BERACASA WAY,FL,33433
Winn-Dixie,MIAMI,357,#357,980 IVES DAIRY RD,FL,33179
Winn-Dixie,BIG PINE KEY,358,#358,251 KEY DEER BLVD,FL,33043
Winn-Dixie,MIAMI,359,#359,7480 SW 117 AVE,FL,33183
Winn-Dixie,MIAMI,361,#361,15050 SW 72ND ST,FL,33193
Winn-Dixie,STUART,364,#364,3320 SE SALERNO RD,FL,34997
Winn-Dixie,STUART,365,#365,3310 SE SALERNO RD.,FL,34997
Winn-Dixie,MIAMI,366,#366,3701 NW 7TH ST,FL,33126
Winn-Dixie,MIAMI,370,#370,8710 SW 72ND STREET,FL,33173
Winn-Dixie,CUTLER BAY,371,#371,19167 S DIXIE HWY,FL,33157
Winn-Dixie,WEST PALM BEACH,375,#375,3131 FOREST HILL BLVD,FL,33406
Winn-Dixie,SUNRISE,377,#377,4201 NW 88TH AVE,FL,33351
Winn-Dixie,N MIAMI BEACH,378,#378,3805 NE 163RD ST,FL,33160
Winn-Dixie,BELLE GLADE,381,#381,900 SOUTH MAIN STREET,FL,33430
Winn-Dixie,HOMESTEAD,385,#385,27359 S. DIXIE HIGHWAY,FL,33032
Winn-Dixie,FT LAUDERDALE,386,#386,3800 N. OCEAN BOULEVARD,FL,33308
Winn-Dixie,MIAMI,387,#387,18801 SW 117TH AVE,FL,33177
Winn-Dixie,MIAMI,388,#388,18300 SW 137TH AVENUE,FL,33177
Winn-Dixie,MIAMI,389,#389,18302 SW 137TH AVENUE,FL,33177
Winn-Dixie,RIVIERA BEACH,390,#390,3700 BROADWAY,FL,33404
Winn-Dixie,RIVIERA BEACH,391,#391,3700A BROADWAY,FL,33404
Winn-Dixie,MIAMI,394,#394,3299 SW 22nd Street,FL,33145
Winn-Dixie,MARGATE,395,#395,5598 West Sample Road,FL,33073
Winn-Dixie,LAKE WORTH,396,#396,"6574 Hypoluxo Road, Bldg. C",FL,33467
Winn-Dixie,LAKE WORTH,397,#397,6600 HYPOLUXO ROAD,FL,33467
Winn-Dixie,MIAMI,399,#399,11245 SW 40th Street,FL,33165
Winn-Dixie,CHILDERSBURG,400,#400,33404 US HWY 280,AL,35044
Winn-Dixie,BIRMINGHAM,405,#405,2220 BESSEMER ROAD,AL,35208
Winn-Dixie,TUSCALOOSA,407,#407,4205 UNIVERSITY BLVD EAST,AL,35404
Winn-Dixie,PELL CITY,410,#410,1009 MARTIN STREET SOUTH,AL,35128
Winn-Dixie,CLANTON,411,#411,640 OLLIE AVENUE,AL,35045
Winn-Dixie,GULF BREEZE,412,#412,3319 GULF BREEZE PARKWAY,FL,32563
Winn-Dixie,DOTHAN,422,#422,3850 W. MAIN STREET,AL,36305
Winn-Dixie,DOTHAN,426,#426,1571 WESTGATE PKWY,AL,36303
Winn-Dixie,WETUMPKA,428,#428,5326 HWY 231 SOUTH,AL,36092
Winn-Dixie,ANNISTON,429,#429,800 NOBLE STREET,AL,36201
Winn-Dixie,PHENIX CITY,433,#433,3952 US HWY 80,AL,36870
Winn-Dixie,ANNISTON,434,#434,2495 HWY 431,AL,36206
Winn-Dixie,BIRMINGHAM,435,#435,4476 MONTEVALLO ROAD,AL,35213
Winn-Dixie,LYNN HAVEN,436,#436,1812 HWY 77 SOUTH SUITE 119,FL,32444
Winn-Dixie,OPELIKA,437,#437,1441 FOXRUN PARKWAY,AL,36801
Winn-Dixie,COLUMBUS,438,#438,1627 S LUMPKIN ROAD,GA,31903
Winn-Dixie,COLUMBUS,439,#439,6770 VETERANS PARKWAY,GA,31909
Winn-Dixie,RAINBOW CITY,442,#442,3331 RAINBOW DRIVE,AL,35906
Winn-Dixie,COLUMBUS,443,#443,4231 MACON ROAD,GA,31907
Winn-Dixie,HOOVER,445,#445,500 Inverness Corners,AL,35242
Winn-Dixie,MONTGOMERY,446,#446,4724 MOBILE HWY,AL,36108
Winn-Dixie,ANNISTON,447,#447,1408 GOLDEN SPRINGS ROAD,AL,36207
Winn-Dixie,MONTGOMERY,448,#448,7946 VAUGHN ROAD,AL,36116
Winn-Dixie,MILLBROOK,451,#451,3625 HIGHWAY 14,AL,36054
Winn-Dixie,DOTHAN,454,#454,2131 ROSS CLARK CIRCLE,AL,36301
Winn-Dixie,LYNN HAVEN,455,#455,1812 HWY 77 SOUTH SUITE 120,FL,32444
Winn-Dixie,ALEXANDER CITY,456,#456,"1061 U.S. HWY, 280 EAST",AL,35010
Winn-Dixie,FULTONDALE,458,#458,1721 HWY 31 N,AL,35068
Winn-Dixie,MONTGOMERY,460,#460,5841 ATLANTA HIGHWAY,AL,36117
Winn-Dixie,TRUSSVILLE,461,#461,465 MAIN STREET,AL,35173
Winn-Dixie,OXFORD,462,#462,4920 HWY 78 WEST,AL,36203
Winn-Dixie,MONTGOMERY,463,#463,2730 EASTERN BOULEVARD,AL,36117
Winn-Dixie,GULF BREEZE,466,#466,3327 GULF BREEZE PARKWAY,FL,32563
Winn-Dixie,ANDALUSIA,471,#471,1130 DR M L K EXPY,AL,36420
Winn-Dixie,MERIDIAN,472,#472,2014 HIGHWAY #45 NORTH,MS,39301
Winn-Dixie,SEMMES,473,#473,9082 MOFFETT ROAD,AL,36575
Winn-Dixie,ENTERPRISE,476,#476,705 BOLL WEEVIL CIR,AL,36330
Winn-Dixie,EUFAULA,478,#478,1055 S. EUFAULA AVE.,AL,36027
Winn-Dixie,TUSCALOOSA,479,#479,9750 HIGHWAY 69 SOUTH,AL,35405
Winn-Dixie,COLUMBUS,480,#480,5750 MILGEN ROAD,GA,31907
Winn-Dixie,PANAMA CITY,481,#481,3621 US 231 NORTH,FL,32404
Winn-Dixie,COLUMBUS,482,#482,1100 HUNT AVENUE,GA,31907
Winn-Dixie,PENSACOLA,483,#483,13019 SORRENTO ROAD SUITE 11,FL,32507
Winn-Dixie,PANAMA CITY,485,#485,3619 US 231 NORTH,FL,32404
Winn-Dixie,PANAMA CITY,487,#487,3157 WEST 23RD STREET,FL,32405
Winn-Dixie,PANAMA CITY,488,#488,23200 FRONT BEACH ROAD,FL,32413
Winn-Dixie,MILTON,489,#489,5428 DOGWOOD DRIVE,FL,32570
Winn-Dixie,ORANGE BEACH,490,#490,25405 PERDIDO BEACH BLVD,AL,36561
Winn-Dixie,PENSACOLA,493,#493,13019 SORRENTO RD,FL,32507
Winn-Dixie,PANAMA CITY BEACH,494,#494,17184 FRONT BEACH ROAD,FL,32413
Winn-Dixie,PENSACOLA,495,#495,5975 MOBILE HWY,FL,32526
Winn-Dixie,JASPER,496,#496,2405 US HWY 78 EAST,AL,35501
Winn-Dixie,CANTONMENT,498,#498,1550 S. HWY 29,FL,32533
Winn-Dixie,PINSON,500,#500,4701 CENTERPOINT RD,AL,35126
Winn-Dixie,NAVARRE,501,#501,8674 NAVARRE PARKWAY,FL,32566
Winn-Dixie,MONTGOMERY,503,#503,2055 COLISEUM BLVD,AL,36110
Winn-Dixie,PENSACOLA,504,#504,7135 NORTH NINTH AVENUE,FL,32504
Winn-Dixie,PANAMA CITY,505,#505,23202 FRONT BEACH RD.,FL,32413
Winn-Dixie,PENSACOLA,506,#506,312 EAST NINE MILE ROAD,FL,32514
Winn-Dixie,PACE,507,#507,4224 HIGHWAY 90,FL,32571
Winn-Dixie,CHELSEA,509,#509,150 CHELSEA CORNERS,AL,35043
Winn-Dixie,ATMORE,512,#512,600 E. CHURCH ST.,AL,36502
Winn-Dixie,PENSACOLA,515,#515,5977 MOBILE HWY,FL,32526
Winn-Dixie,VESTAVIA HILLS,517,#517,3925 CROSSHAVEN DRIVE,AL,35243
Winn-Dixie,SELMA,520,#520,1352 HIGHLAND AVENUE,AL,36701
Winn-Dixie,MONTGOMERY,521,#521,3881 ATLANTA HIGHWAY,AL,36109
Winn-Dixie,JACKSONVILLE,525,#525,815 PELHAM ROAD S.,AL,36265
Winn-Dixie,NORTHPORT,526,#526,13620 HWY 43 N.,AL,35475
Winn-Dixie,PRATTVILLE,527,#527,701 EAST MAIN STREET,AL,36067
Winn-Dixie,NORTHPORT,528,#528,10 MCFARLAND BLVD.,AL,35476
Winn-Dixie,MONTGOMERY,531,#531,4035 EASTERN BLVD,AL,36116
Winn-Dixie,MERIDIAN,533,#533,5100 HWY 39 NORTH,MS,39301
Winn-Dixie,PENSACOLA,535,#535,50 S. BLUE ANGEL PARKWAY,FL,32506
Winn-Dixie,PARKER,538,#538,132 SOUTH TYNDALL PARKWAY,FL,32404
Winn-Dixie,FT WALTON BEACH,541,#541,798 BEAL PARKWAY,FL,32547
Winn-Dixie,SELMA,543,#543,1952 WEST DALLAS AVE.,AL,36701
Winn-Dixie,AMERICUS,545,#545,1208 CRAWFORD ST.,GA,31709
Winn-Dixie,MOBILE,549,#549,740 N. SCHILLINGER RD,AL,36608
Winn-Dixie,HUEYTOWN,550,#550,104 RIVER SQUARE PLAZA,AL,35023
Winn-Dixie,PANAMA CITY,552,#552,2533 THOMAS DRIVE,FL,32408
Winn-Dixie,TALLASSEE,553,#553,1300 GILMER AVENUE,AL,36078
Winn-Dixie,MARIANNA,555,#555,4478 MARKET STREET,FL,32446
Winn-Dixie,PENSACOLA,556,#556,4751 BAYOU BLVD,FL,32503
Winn-Dixie,CRESTVIEW,558,#558,1326 FERDON BLVD,FL,32536
Winn-Dixie,DESTIN,560,#560,981 US HWY 98,FL,32541
Winn-Dixie,MIRAMAR BEACH,561,#561,130 Scenic Gulf Drive,FL,32550
Winn-Dixie,MOBILE,564,#564,2502 SCHILLINGER RD S,AL,36695
Winn-Dixie,FT WALTON BEACH,566,#566,99 EGLIN PARKWAY NW,FL,32548
Winn-Dixie,DESTIN,567,#567,981 US HWY 98 EAST SUITE A,FL,32541
Winn-Dixie,MONROEVILLE,569,#569,1834 SOUTH ALABAMA AVE.,AL,36460
Winn-Dixie,FOLEY,570,#570,1235 SOUTH MCKENZIE ST.,AL,36535
Winn-Dixie,BAY MINETTE,571,#571,710 MCMEANS AVE.,AL,36507
Winn-Dixie,MOBILE,572,#572,5440 HWY. 90 WEST,AL,36619
Winn-Dixie,CLAY,574,#574,2402 OLD SPRINGVILLE ROAD,AL,35215
Winn-Dixie,DEFUNIAK SPRINGS,577,#577,1030 US HIGHWAY 331 SOUTH SUIT,FL,32435
Winn-Dixie,MOBILE,578,#578,5651 C MOFFAT ROAD,AL,36618
Winn-Dixie,AUBURN,579,#579,1617 SOUTH COLLEGE STREET,AL,36832
Winn-Dixie,THEODORE,580,#580,5827D HWY 90 WEST,AL,36582
Winn-Dixie,GULF SHORES,586,#586,1720 Gulf Shores Parkway,AL,36542
Winn-Dixie,MARIANNA,589,#589,4478 SUITE B MARKET STREET,FL,32446
Winn-Dixie,MOBILE,590,#590,6300 GRELOT ROAD,AL,36609
Winn-Dixie,MOBILE,591,#591,9948 AIRPORT BLVD,AL,36608
Winn-Dixie,BESSEMER,595,#595,"2910 MORGAN RD, SUITE 128",AL,35022
Winn-Dixie,DAPHNE,596,#596,3075 US HWY 98,AL,36526
Winn-Dixie,FAIRHOPE,599,#599,187 BALDWIN SQUARE,AL,36532
Winn-Dixie,SEMINOLE,606,#606,8740 PARK BLVD,FL,33777
Winn-Dixie,SEMINOLE,607,#607,12975 PARK BLVD.,FL,33776
Winn-Dixie,DADE CITY,608,#608,12649 HWY. 301,FL,33525
Winn-Dixie,AVON PARK,609,#609,802 US HIGHWAY 27S,FL,33825
Winn-Dixie,LUTZ,611,#611,18407 US HWY 41,FL,33549
Winn-Dixie,AUBURNDALE,612,#612,445 HAVENDALE BLVD,FL,33823
Winn-Dixie,AVON PARK,616,#616,US HWY 27 SOUTH,FL,33825
Winn-Dixie,ARCADIA,618,#618,1330 E OAK STREET,FL,34266
Winn-Dixie,SUN CITY CENTER,619,#619,4445 SUN CITY CNTR BLVD,FL,33573
Winn-Dixie,LARGO,622,#622,11912 SEMINOLE BOULEVARD,FL,33778
Winn-Dixie,TARPON SPRINGS,624,#624,955 S PINELLAS AVENUE,FL,34689
Winn-Dixie,TAMPA,627,#627,2540 BEARSS AVENUE,FL,33613
Winn-Dixie,LAKELAND,629,#629,2630 US HWY 92,FL,33801
Winn-Dixie,BRADENTON,630,#630,1010 53RD AVENUE E,FL,34203
Winn-Dixie,LAKELAND,631,#631,2900 LAKELAND HIGHLANDS ROAD,FL,33803
Winn-Dixie,LAKELAND,632,#632,6902 SOUTH FLORIDA AVE,FL,33813
Winn-Dixie,TAMPA,637,#637,7851 PALM RIVER ROAD,FL,33619
Winn-Dixie,TAMPA,639,#639,8438 N ARMENIA AVE,FL,33604
Winn-Dixie,DUNEDIN,640,#640,1296 COUNTY ROAD NO 1,FL,34698
Winn-Dixie,HOLIDAY,644,#644,1640 U.S. HIGHWAY 19,FL,34691
Winn-Dixie,LAKELAND,645,#645,6902 SOUTH FLORIDA AVENUE,FL,33813
Winn-Dixie,ST PETERSBURG,649,#649,11100 4TH STREET NORTH,FL,33716
Winn-Dixie,LAND O' LAKES,651,#651,2126 COLLIER PARKWAY,FL,34639
Winn-Dixie,BROOKSVILLE,652,#652,31100 CORTEZ BLVD,FL,34602
Winn-Dixie,SARASOTA,654,#654,3301 17TH STREET,FL,34235
Winn-Dixie,NEW PORT RICHEY,655,#655,6033 STATE ROAD 54,FL,34653
Winn-Dixie,BRADENTON,656,#656,7400 44TH AVE W,FL,34210
Winn-Dixie,SARASOTA,657,#657,5400 FRUITVILLE RD,FL,34232
Winn-Dixie,MADEIRA BEACH,658,#658,15200 MUNICIPAL DRIVE,FL,33708
Winn-Dixie,BRADENTON,660,#660,3500 53RD AVE. WEST,FL,34210
Winn-Dixie,WINTER HAVEN,663,#663,2700 RECKER HIGHWAY,FL,33880
Winn-Dixie,LAKELAND,664,#664,6600 NORTH SOCRUM LOOP,FL,33809
Winn-Dixie,SARASOTA,665,#665,5402 FRUITVILLE ROAD,FL,34232
Winn-Dixie,WAUCHULA,667,#667,1510 U.S. HWY. 17 NORTH,FL,33873
Winn-Dixie,ST PETERSBURG,671,#671,1050 58 STREET NORTH,FL,33710
Winn-Dixie,NEW PORT RICHEY,672,#672,12120 MOON LAKE ROAD,FL,34654
Winn-Dixie,APOLLO BEACH,673,#673,6180 US HWY 41 N,FL,33572
Winn-Dixie,BRANDON,676,#676,179 BLOOMINGDALE AVE,FL,33511
Winn-Dixie,RIVERVIEW,678,#678,9822 SOUTH US 301,FL,33578
Winn-Dixie,PINELLAS PARK,681,#681,6501 102 AVE NORTH,FL,33782
Winn-Dixie,ZEPHYRHILLS,683,#683,36348 STATE ROAD 54,FL,33541
Winn-Dixie,KENNETH CITY,684,#684,5802 54TH AVENUE NORTH,FL,33709
Winn-Dixie,SEBRING,687,#687,600 SEBRING SQUARE,FL,33870
Winn-Dixie,TAMPA,697,#697,8424 SHELDON ROAD,FL,33615
Winn-Dixie,ST PETERSBURG,698,#698,1049 62 AVE NORTH,FL,33702
Winn-Dixie,LAKE WALES,701,#701,1860 STATE ROAD 60 EAST,FL,33853
Winn-Dixie,BROOKSVILLE,702,#702,1230 S BROAD STREET,FL,34601
Winn-Dixie,HAINES CITY,705,#705,36019 US HWY 27 N.,FL,33844
Winn-Dixie,LAKELAND,706,#706,1305 ARIANA STREET WEST,FL,33803
Winn-Dixie,SPRING HILL,708,#708,11092 SPRING HILL DRIVE,FL,34608
Winn-Dixie,HUDSON,710,#710,14134 US 19 NORTH,FL,34667
Winn-Dixie,SPRING HILL,711,#711,2240 COMMERCIAL WAY,FL,34606
Winn-Dixie,DUNDEE,713,#713,243 US HWY 27 SOUTH,FL,33838
Winn-Dixie,ENGLEWOOD,720,#720,4100 MCCALL ROAD,FL,34224
Winn-Dixie,LA BELLE,721,#721,906 S. MAIN STREET,FL,33935
Winn-Dixie,ENGLEWOOD,722,#722,4104 MCCALL ROAD,FL,34224
Winn-Dixie,N FT MYERS,723,#723,1850 N TAMIAMI TRAIL,FL,33903
Winn-Dixie,ST JAMES CITY,726,#726,9864 STRINGFELLOW ROAD,FL,33956
Winn-Dixie,FORT MYERS,728,#728,14600 PALM BEACH BLVD,FL,33905
Winn-Dixie,MARCO ISLAND,729,#729,625 NORTH COLLIER BLVD,FL,34145
Winn-Dixie,MARCO ISLAND,730,#730,621 N COLLIER BLVD,FL,34145
Winn-Dixie,PORT CHARLOTTE,736,#736,3280 TAMIAMI TRAIL,FL,33952
Winn-Dixie,PORT CHARLOTTE,737,#737,2000 KINGS HIGHWAY,FL,33980
Winn-Dixie,PUNTA GORDA,741,#741,27680 BERMONT ROAD,FL,33982
Winn-Dixie,NAPLES,743,#743,4849 GOLDEN GATE PARKWAY,FL,34116
Winn-Dixie,LEHIGH ACRES,745,#745,1145 HOMESTEAD ROAD NORTH,FL,33936
Winn-Dixie,LAKE PLACID,746,#746,70 PLAZA AVE,FL,33852
Winn-Dixie,BROOKSVILLE,750,#750,6270 COMMERCIAL WAY,FL,34613
Winn-Dixie,IMMOKALEE,751,#751,1602 LAKE TRAFFORD ROAD,FL,34142
Winn-Dixie,BROOKSVILLE,753,#753,31080 CORTEZ BLVD,FL,34602
Winn-Dixie,BRADENTON,755,#755,1006 53rd AVE E,FL,34203
Winn-Dixie,PLANTATION,757,#757,901 NORTH NOB HILL ROAD,FL,33324
Winn-Dixie,PORT CHARLOTTE,761,#761,"3280 TAMIAMI TRAIL, SUITE 38",FL,33952
Winn-Dixie,THONOTOSASSA,777,#777,9535 E FOWLER AVE,FL,33592
Winn-Dixie,METAIRIE,1329,#1329,211 VETERANS MEMORIAL BLVD.,LA,70005
Winn-Dixie,MOBILE,1333,#1333,1550 GOVERNMENT ST,AL,36604
Winn-Dixie,HATTIESBURG,1334,#1334,2800 LINCOLN RD.,MS,39402
Winn-Dixie,ROBERTSDALE,1345,#1345,21951-D Highway 59,AL,36567
Winn-Dixie,SLIDELL,1353,#1353,851 BROWNSWITCH ROAD,LA,70458
Winn-Dixie,BILOXI,1356,#1356,PASS ROAD,MS,39531
Winn-Dixie,BILOXI,1357,#1357,2384 PASS RD.,MS,39531
Winn-Dixie,RIVER RIDGE,1404,#1404,8601 JEFFERSON HIGHWAY,LA,70123
Winn-Dixie,GRETNA,1405,#1405,2112 BELLE CHASSE HWY.,LA,70056
Winn-Dixie,KENNER,1406,#1406,4041 WILLIAMS BLVD.,LA,70065
Winn-Dixie,NEW ORLEANS,1408,#1408,4600 CHEF MENTEUR HWY,LA,70126
Winn-Dixie,METAIRIE,1411,#1411,5901 AIRLINE HIGHWAY,LA,70003
Winn-Dixie,KENNER,1412,#1412,2104 WILLIAMS BLVD,LA,70062
Winn-Dixie,AVONDALE,1418,#1418,3001 HIGHWAY 90 W,LA,70094
Winn-Dixie,HARVEY,1425,#1425,3645 LAPALCO BLVD,LA,70058
Winn-Dixie,NEW ORLEANS,1426,#1426,3008 HOLIDAY DRIVE,LA,70131
Winn-Dixie,JEFFERSON,1428,#1428,3623 JEFFERSON HWY.,LA,70121
Winn-Dixie,NEW ORLEANS,1430,#1430,5400 TCHOUPITOULAS ST,LA,70115
Winn-Dixie,WESTWEGO,1431,#1431,1070 WESTBANK EXPRESSWAY,LA,70094
Winn-Dixie,CHALMETTE,1432,#1432,3300 PARIS ROAD,LA,70043
Winn-Dixie,NEW ORLEANS,1439,#1439,9701 CHEF MENTEUR HIGHWAY,LA,70127
Winn-Dixie,MARRERO,1440,#1440,4627 WESTBANK EXPRESSWAY,LA,70072
Winn-Dixie,COVINGTON,1443,#1443,70431 HWY 21,LA,70433
Winn-Dixie,LULING,1444,#1444,12125 HIGHWAY 90,LA,70070
Winn-Dixie,MANDEVILLE,1446,#1446,619 N. CAUSEWAY BLVD.,LA,70448
Winn-Dixie,COVINGTON,1448,#1448,2100 Collins Blvd. Suite 132,LA,70433
Winn-Dixie,AMITE,1449,#1449,804 W. OAK STREET,LA,70422
Winn-Dixie,BATON ROUGE,1453,#1453,6800 GREENWELL SPRINGS RD,LA,70805
Winn-Dixie,BATON ROUGE,1454,#1454,5555 BURBANK DRIVE,LA,70820
Winn-Dixie,NEW IBERIA,1456,#1456,1104 EAST MAIN STREET,LA,70560
Winn-Dixie,RAYNE,1459,#1459,1411 THE BOULEVARD,LA,70578
Winn-Dixie,BATON ROUGE,1461,#1461,8601 SIEGEN LANE,LA,70810
Winn-Dixie,GRAMERCY,1463,#1463,1803 LA HWY 3125,LA,70052
Winn-Dixie,BATON ROUGE,1467,#1467,13555 OLD HAMMOND HWY.,LA,70816
Winn-Dixie,NEW ORLEANS,1472,#1472,401 North Carrolton,LA,70119
Winn-Dixie,PICAYUNE,1477,#1477,1701 HWY 43 NORTH,MS,39466
Winn-Dixie,OCEAN SPRINGS,1478,#1478,1515 BIENVILLE BLVD,MS,39564
Winn-Dixie,LONG BEACH,1479,#1479,109 NORTH CLEVELAND AVE.,MS,39560
Winn-Dixie,PICAYUNE,1483,#1483,801 HWY. 11 SOUTH,MS,39466
Winn-Dixie,CROWLEY,1490,#1490,2004 NORTH PARKERSON AVE,LA,70526
Winn-Dixie,MANDEVILLE,1500,#1500,4100 HIGHWAY 59,LA,70471
Winn-Dixie,FRANKLINTON,1501,#1501,731 WASHINGTON STREET,LA,70438
Winn-Dixie,SLIDELL,1502,#1502,2985 GAUSE BLVD.,LA,70461
Winn-Dixie,SLIDELL,1504,#1504,3030 PONTCHARTRAIN DR,LA,70458
Winn-Dixie,GULFPORT,1511,#1511,11312 H HWY 49,MS,39503
Winn-Dixie,GULFPORT,1512,#1512,1444 EAST PASS ROAD,MS,39507
Winn-Dixie,DIBERVILLE,1513,#1513,10511 D'IBERVILLE BLVD.,MS,39540
Winn-Dixie,COLUMBIA,1534,#1534,771 US. HWY. 98,MS,39429
Winn-Dixie,HAMMOND,1537,#1537,2302 W. THOMAS STREET,LA,70401
Winn-Dixie,PONCHATOULA,1540,#1540,145 BERRYLAND SHOPPING CENTER,LA,70454
Winn-Dixie,BREAUX BRIDGE,1549,#1549,924 REES STREET,LA,70517
Winn-Dixie,LAFAYETTE,1555,#1555,3803-F MOSS STREET,LA,70507
Winn-Dixie,ABBEVILLE,1558,#1558,2210 VETERANS MEMORIAL DR,LA,70510
Winn-Dixie,FRANKLIN,1559,#1559,204 NORTHWEST BLVD.,LA,70538
Winn-Dixie,LAFAYETTE,1561,#1561,2240 AMBASSADOR CAFFERY PKWY,LA,70506
Winn-Dixie,EUNICE,1570,#1570,1800 W. LAUREL,LA,70535
Winn-Dixie,NEW ROADS,1572,#1572,420 HOSPITAL ROAD,LA,70760
Winn-Dixie,BATON ROUGE,1576,#1576,10974 JOOR RD,LA,70818
Winn-Dixie,BATON ROUGE,1577,#1577,13002 COURSEY BLVD,LA,70816
Winn-Dixie,ZACHARY,1581,#1581,5005 CHURCH STREET,LA,70791
Winn-Dixie,LA PLACE,1583,#1583,1830 WEST AIRLINE HWY,LA,70068
Winn-Dixie,DESTREHAN,1588,#1588,"12519 AIRLINE HWY, SUITE A",LA,70047
Winn-Dixie,PRAIRIEVILLE,1590,#1590,17682 AIRLINE HGWY,LA,70769
Winn-Dixie,WALKER,1591,#1591,28145 WALKER SOUTH ROAD,LA,70785
Winn-Dixie,EDGEWATER,2203,#2203,1838 S RIDGEWOOD AVE,FL,32141
Winn-Dixie,DUNNELLON,2204,#2204,10055 S. US HWY 41,FL,34432
Winn-Dixie,BELLEVIEW,2205,#2205,10393-97 S.E. HWY 441-27,FL,34420
Winn-Dixie,SILVER SPRINGS,2206,#2206,15912 E SR 40,FL,34488
Winn-Dixie,SAINT CLOUD,2207,#2207,3318 CANOE CREEK RD.,FL,34772
Winn-Dixie,INVERNESS,2210,#2210,333 HIGHLAND AVE SPACE 600,FL,34452
Winn-Dixie,OCALA,2211,#2211,2640 NE 14TH ST,FL,34470
Winn-Dixie,OCALA,2213,#2213,4417 NW BLITCHTON ROAD,FL,34482
Winn-Dixie,ORLANDO,2215,#2215,11957 SOUTH APOPKA VINELAND RD,FL,32836
Winn-Dixie,CRYSTAL RIVER,2217,#2217,6405 W GULF TO LAKE HWY,FL,34429
Winn-Dixie,DUNNELLON,2219,#2219,10051 S US HIGHWAY 41,FL,34432
Winn-Dixie,BEVERLY HILLS,2220,#2220,3565 N LECANTO HWY,FL,34465
Winn-Dixie,HOMOSASSA,2223,#2223,3792 S SUNCOAST BLVD,FL,34448
Winn-Dixie,CLERMONT,2225,#2225,684 EAST HWY 50,FL,34711
Winn-Dixie,SAINT CLOUD,2226,#2226,3320 CANOE CREEK RD.,FL,34772
Winn-Dixie,OCALA,2228,#2228,3435 N. PINE AVENUE,FL,34475
Winn-Dixie,OCALA,2229,#2229,184 MARION OAKS BLVD,FL,34473
Winn-Dixie,PALM BAY,2230,#2230,190 MALABAR RD SW,FL,32907
Winn-Dixie,LONGWOOD,2233,#2233,951 WEST STATE ROAD 434,FL,32750
Winn-Dixie,ORLANDO,2235,#2235,2415 E COLONIAL DR,FL,32803
Winn-Dixie,DEBARY,2237,#2237,2 NORTH US HWY 17-92,FL,32713
Winn-Dixie,SAINT CLOUD,2238,#2238,4855 IRLO BRONSON MEMORIAL HWY,FL,34771
Winn-Dixie,PALM COAST,2244,#2244,111 FLAGLER PLAZA DR,FL,32137
Winn-Dixie,CLERMONT,2245,#2245,682 EAST HWY 50,FL,34711
Winn-Dixie,APOPKA,2246,#2246,1565 US 441 N,FL,32712
Winn-Dixie,PALM COAST,2247,#2247,1260 W PALM COAST PARKWAY,FL,32137
Winn-Dixie,SILVER SPRINGS,2248,#2248,15916 EAST ST RD. 40,FL,34488
Winn-Dixie,DELTONA,2249,#2249,1229 A PROVIDENCE BLVD,FL,32725
Winn-Dixie,OCOEE,2250,#2250,1531 EAST SILVER STAR ROAD,FL,34761
Winn-Dixie,APOPKA,2251,#2251,1573 WEST HWY 441,FL,32712
Winn-Dixie,LONGWOOD,2253,#2253,973 WEST STATE RD 434,FL,32750
Winn-Dixie,HOLLY HILL,2258,#2258,1541 N. NOVA RD,FL,32117
Winn-Dixie,KISSIMMEE,2260,#2260,1347 E VINE ST,FL,34744
Winn-Dixie,TAVARES,2261,#2261,450 E BURLEIGH BLVD,FL,32778
Winn-Dixie,DAYTONA BEACH SHORES,2263,#2263,2200 S ATLANTIC AVE,FL,32118
Winn-Dixie,FERN PARK,2266,#2266,7800 S HWY 17-92 UNIT 160,FL,32730
Winn-Dixie,ORLANDO,2267,#2267,7382 E. CURRY FORD RD,FL,32822
Winn-Dixie,W MELBOURNE,2268,#2268,3170 W NEW HAVEN AVE,FL,32904
Winn-Dixie,ORLANDO,2269,#2269,13200 E COLONIAL DR STE 100,FL,32826
Winn-Dixie,ORLANDO,2270,#2270,12500 LAKE UNDERHILL RD.,FL,32828
Winn-Dixie,OVIEDO,2271,#2271,1021 LOCKWOOD BLVD,FL,32765
Winn-Dixie,ORLANDO,2276,#2276,4686 E MICHIGAN STREET,FL,32812
Winn-Dixie,ORLANDO,2278,#2278,1401 SOUTH HIAWASSEE RD.,FL,32835
Winn-Dixie,OCALA,2286,#2286,3535 SE MARICAMP RD STE 400,FL,34471
Winn-Dixie,OCALA,2287,#2287,6851 S.E. MARICAMP ROAD,FL,34472
Winn-Dixie,ORLANDO,2288,#2288,2960 CURRY FORD RD,FL,32806
Winn-Dixie,OCALA,2289,#2289,8445 SW HIGHWAY 200,FL,34481
Winn-Dixie,ORLANDO,2299,#2299,1403 SOUTH HIAWASSEE RD.,FL,32835
Winn-Dixie,ORLANDO,2301,#2301,2722 N. PINE HILLS RD,FL,32808
Winn-Dixie,NEW SMYRNA BEACH,2304,#2304,1835 STATE ROAD 44,FL,32168
Winn-Dixie,SANFORD,2306,#2306,1514 S FRENCH AVE,FL,32771
Winn-Dixie,ORMOND BEACH,2309,#2309,353 WEST GRANADA BLVD,FL,32174
Winn-Dixie,ORMOND BEACH,2310,#2310,365 W. GRANADA BLVD,FL,32174
Winn-Dixie,PORT ORANGE,2311,#2311,4025 S NOVA ROAD,FL,32127
Winn-Dixie,DELTONA,2313,#2313,2880 HOWLAND BOULEVARD,FL,32725
Winn-Dixie,COCOA,2314,#2314,1066 CLEAR LAKE ROAD,FL,32922
Winn-Dixie,PORT ST JOHN,2318,#2318,6231 US HWY 1,FL,32927
Winn-Dixie,BUSHNELL,2320,#2320,1122 N MAIN ST,FL,33513
Winn-Dixie,WILDWOOD,2321,#2321,440 W. Gulf Atlantic Hwy,FL,34785
Winn-Dixie,WILDWOOD,2322,#2322,438 WEST GULF TO ATLANTIC HWY,FL,34785
Winn-Dixie,COCOA BEACH,2325,#2325,100 CANAVERAL PLAZA BLVD,FL,32931
Winn-Dixie,TITUSVILLE,2326,#2326,1564 HARRISON ST,FL,32780
Winn-Dixie,TITUSVILLE,2327,#2327,1535 N SINGLETON AVE,FL,32796
Winn-Dixie,MELBOURNE,2328,#2328,961 E EAU GALLIE BLVD,FL,32937
Winn-Dixie,PORT ST JOHN,2329,#2329,6257 US HWY 1,FL,32927
Winn-Dixie,MELBOURNE,2331,#2331,961 EAST EAU GALLIE BLVD,FL,32937
Winn-Dixie,PALM BAY,2333,#2333,"5270 BABCOCK STREET, SUITE 120",FL,32905
Winn-Dixie,LEESBURG,2336,#2336,27405 US HWY 27 SUITE 119,FL,34748
Winn-Dixie,LADY LAKE,2337,#2337,944 BICHARA BLVD.,FL,32159
Winn-Dixie,TITUSVILLE,2338,#2338,1529 N SINGLETON AVE,FL,32796
Winn-Dixie,DELAND,2341,#2341,2701 S. WOODLAND BLVD.,FL,32720
Winn-Dixie,DELAND,2343,#2343,1050 W NEW YORK AVENUE,FL,32720
Winn-Dixie,PORT SAINT LUCIE,2348,#2348,281 SW PORT ST LUCIE BLVD,FL,34984
Winn-Dixie,FORT PIERCE,2349,#2349,4870 N KINGS HWY,FL,34951
Winn-Dixie,LADY LAKE,2350,#2350,944-A BICHARA BLVD,FL,32159
Winn-Dixie,PALM BAY,2351,#2351,5270 BABCOCK ST NE UNIT 30B,FL,32905
Winn-Dixie,SEBASTIAN,2354,#2354,995 Sebastian Blvd STE B,FL,32958
Winn-Dixie,FORT PIERCE,2355,#2355,4967 S US 1,FL,34982
Winn-Dixie,LAKE MARY,2356,#2356,120 INTERNATIONAL PKWY,FL,32746
Winn-Dixie,DELAND,2360,#2360,2701-A S WOODLAND BLVD,FL,32720
Winn-Dixie,FORT PIERCE,2362,#2362,4870 N KINGS HIGHWAY,FL,34951
Winn-Dixie,FERN PARK,2364,#2364,7800 S HWY 17-92 Suite 190,FL,32730
Winn-Dixie,VERO BEACH,2366,#2366,2950 9TH STREET SW Unit 100,FL,32968
Winn-Dixie,MICCO,2367,#2367,"7960 US HWY #1, UNIT 1",FL,32976
Winn-Dixie,MICCO,2368,#2368,"7960 HIGHWAY 1, SUITE #6",FL,32976
Winn-Dixie,KISSIMMEE,2379,#2379,7840 W IRLO BRONSON HWY,FL,34747
Winn-Dixie,LAKE MARY,2380,#2380,120 INTERNATIONAL PARKWAY,FL,32746
Winn-Dixie,WINTER PARK,2383,#2383,7580 UNIVERSITY BLVD,FL,32792
Winn-Dixie,ALTAMONTE SPRINGS,2388,#2388,340 SOUTH SR 434 SUITE 1034,FL,32714
Winn-Dixie,ALTAMONTE SPRINGS,2389,#2389,340 SOUTH SR 434 SUITE 1036,FL,32714
Winn-Dixie,ORLANDO,2390,#2390,5732 NORTH HIAWASSEE ROAD,FL,32810
Winn-Dixie,ORLANDO,2392,#2392,7053 SOUTH ORANGE BLOSSOM TRAI,FL,32809
Winn-Dixie,CASSELBERRY,2399,#2399,1750 SUNSHADOW DR. UNIT #96,FL,32707
Winn-Dixie,VENICE,2400,#2400,458 Venice By-Pass,FL,34285
Winn-Dixie,VENICE,2401,#2401,458 North Venice Bypass,FL,34285
Winn-Dixie,BONITA SPRINGS,2402,#2402,8951 Bonita Beach Rd SE Ste 59,FL,34135
Winn-Dixie,BONITA SPRINGS,2403,#2403,"8951 Bonita Beach Road SE, Sui",FL,34135
Winn-Dixie,BRADENTON,2404,#2404,5805 Manatee Ave.,FL,34209
Winn-Dixie,BRADENTON,2405,#2405,5809 Manatee Avenue West,FL,34209
Winn-Dixie,SARASOTA,2406,#2406,1325 S. Tamimi Trail,FL,34239
Winn-Dixie,TAMPA,2407,#2407,2525 N. Dale Mabry,FL,33607
Winn-Dixie,TAMPA,2408,#2408,2527 N. Dale Mabry Hwy,FL,33607
Winn-Dixie,SAINT PETERSBURG,2409,#2409,2139 34Th N.,FL,33713
Winn-Dixie,SAINT PETERSBURG,2410,#2410,3350 22nd Avenue N,FL,33713
Winn-Dixie,SOUTH PASADENA,2411,#2411,6851 Gulfport Blvd.,FL,33707
Winn-Dixie,TAMPA,2413,#2413,15692 N. Dale Mabry,FL,33618
Winn-Dixie,TAMPA,2414,#2414,15690 N. Dale Mabry,FL,33618
Winn-Dixie,TAMPA,2415,#2415,13508 Florida Ave.,FL,33612
Winn-Dixie,TAMPA,2417,#2417,4317 Gandy Blvd,FL,33611
Winn-Dixie,TAMPA,2418,#2418,4315 Gandy Boulevard,FL,33611
Winn-Dixie,CRYSTAL RIVER,2421,#2421,1651 S.E. Hwy 19,FL,34429
Winn-Dixie,CRYSTAL RIVER,2422,#2422,1631 S.E. Hwy 19,FL,34429
Winn-Dixie,TAMPA,2423,#2423,8775 Temple Terrace Hwy,FL,33637
Winn-Dixie,TAMPA,2424,#2424,8771 Temple Terrace Hwy.,FL,33637
Winn-Dixie,PALM HARBOR,2425,#2425,1360 Tampa St.,FL,34683
Winn-Dixie,PALM HARBOR,2426,#2426,1350 Tampa Road,FL,34683
Winn-Dixie,VENICE,2427,#2427,1254 Jacaranda,FL,34292
Winn-Dixie,VENICE,2428,#2428,1250 Jacaranda Blvd.,FL,34292
Winn-Dixie,TAMPA,2431,#2431,7095 West Waters Ave.,FL,33634
Winn-Dixie,TAMPA,2432,#2432,7099 W. Waters Avenue,FL,33634
Winn-Dixie,TAMPA,2433,#2433,2100 W. Swann Ave.,FL,33606
Winn-Dixie,TAMPA,2434,#2434,"2100 W. Swann Avenue, Suite B",FL,33606
Winn-Dixie,PLANT CITY,2435,#2435,205 W. Alexander St.,FL,33566
Winn-Dixie,PLANT CITY,2436,#2436,123 West Alexander St.,FL,33566
Winn-Dixie,OCALA,2437,#2437,7131 N. U.S. Hwy 441,FL,34475
Winn-Dixie,ENGLEWOOD,2439,#2439,1951 S. Mccall Rd,FL,34223
Winn-Dixie,ENGLEWOOD,2440,#2440,1951 S. McCall Road #300,FL,34223
Winn-Dixie,TEMPLE TERRACE,2441,#2441,8837 N. 56Th St.,FL,33617
Winn-Dixie,TEMPLE TERRACE,2442,#2442,8841 N. 56th Street,FL,33617
Winn-Dixie,SAINT PETERSBURG,2443,#2443,3327 9Th Street N.,FL,33704
Winn-Dixie,RUSKIN,2444,#2444,1023 N. Tamiami Trail,FL,33570
Winn-Dixie,INVERNESS,2445,#2445,1202 West Main St.,FL,34450
Winn-Dixie,SAINT PETERSBURG,2446,#2446,7491 4Th Street North,FL,33702
Winn-Dixie,SAINT PETERSBURG,2447,#2447,7489 4th St N.,FL,33702
Winn-Dixie,PALMETTO,2448,#2448,515 7Th St.,FL,34220
Winn-Dixie,PALMETTO,2449,#2449,519 7th Street,FL,34220
Winn-Dixie,TAMPA,2450,#2450,4056 Fiesta Plaza,FL,33607
Winn-Dixie,CLEARWATER,2452,#2452,2519 Mcmullen Booth Rd,FL,33761
Winn-Dixie,CLEARWATER,2453,#2453,2519 McMullen Booth Road Suite,FL,33761
Winn-Dixie,LARGO,2456,#2456,2460 E. Bay Blvd.,FL,33771
Winn-Dixie,GAINESVILLE,2457,#2457,2002 SW 34Th St,FL,32608
Winn-Dixie,GAINESVILLE,2458,#2458,2020 SW 34th St.,FL,32608
Winn-Dixie,NEW PORT RICHEY,2459,#2459,9101 Little Rd.,FL,34654
Winn-Dixie,NEW PORT RICHEY,2460,#2460,9111 Little Road,FL,34654
Winn-Dixie,TAMPA,2461,#2461,2770 Fowler Ave.,FL,33612
Winn-Dixie,TAMPA,2462,#2462,2712 Fowler Avenue,FL,33612
Winn-Dixie,WAUCHULA,2463,#2463,1133 Us Hwy 17 South,FL,33873
Winn-Dixie,SEBRING,2465,#2465,3250 Us 27 South,FL,33870
Winn-Dixie,SEBRING,2466,#2466,3246 US Highway 27 South,FL,33870
Winn-Dixie,DUNNELLON,2467,#2467,11352 N. Williams St.,FL,34432
Winn-Dixie,BELLEVIEW,2468,#2468,11310 Se Hwy 301,FL,34420
Winn-Dixie,BELLEVIEW,2469,#2469,11308 SE Hwy 301,FL,34420
Winn-Dixie,TAMPA,2472,#2472,805 E. Dr Martin Luther,FL,33603
Winn-Dixie,TAMPA,2473,#2473,"805 E Martin Luther King Blvd,",FL,33603
Winn-Dixie,LEHIGH ACRES,2474,#2474,61 Bell Blvd North,FL,33936
Winn-Dixie,HOLIDAY,2477,#2477,3406 Us Hwy 19 North,FL,34690
Winn-Dixie,HOLIDAY,2478,#2478,3408 US Highway 19,FL,34690
Winn-Dixie,SAINT PETERSBURG,2479,#2479,7625 Blind Pass Road,FL,33706
Winn-Dixie,SARASOTA,2482,#2482,2881 Clark Road,FL,34231
Winn-Dixie,SARASOTA,2483,#2483,2879 Clark Road,FL,34231
Winn-Dixie,SPRING HILL,2484,#2484,4221 Mariner Blvd,FL,34608
Winn-Dixie,SPRING HILL,2485,#2485,4213 Marnier Boulevard,FL,34608
Winn-Dixie,ZEPHYRHILLS,2487,#2487,38901 Highway 54 East,FL,33540
Winn-Dixie,ZEPHYRHILLS,2488,#2488,38935 County Road 54 East,FL,33540
Winn-Dixie,ARCADIA,2491,#2491,1737 East Oak Street,FL,34266
Winn-Dixie,FORT MYERS,2493,#2493,18731 Three Oaks Parkway,FL,33912
Winn-Dixie,FORT MYERS,2494,#2494,"18731 Three Oaks Parkway, Unit",FL,33912
Winn-Dixie,SEFFNER,2495,#2495,11230 M Luther King Blvd,FL,33584
Winn-Dixie,LITHIA,2499,#2499,16751 Fishhawk Blvd,FL,33547
Winn-Dixie,LITHIA,2500,#2500,16741 FishhawkBlvd.,FL,33547
Winn-Dixie,SARASOTA,2501,#2501,4230 Bee Ridge Road,FL,34233
Winn-Dixie,SARASOTA,2502,#2502,4240 Bee Ridge Road,FL,34233
Winn-Dixie,WESLEY CHAPEL,2503,#2503,27301 SR 54,FL,33543
Winn-Dixie,VALRICO,2505,#2505,2535 State Road 60 East,FL,33594
Winn-Dixie,VALRICO,2506,#2506,2545 State Road 60 East,FL,33594
Winn-Dixie,ODESSA,2507,#2507,17649 Gunn Hwy,FL,33556
Winn-Dixie,ODESSA,2508,#2508,17641 Gunn Highway,FL,33556
Winn-Dixie,RIVERVIEW,2509,#2509,10665 Big Bend Rd.,FL,33579
Winn-Dixie,SEMINOLE,2511,#2511,10202 Seminole Blvd.,FL,33772
Winn-Dixie,FORT MYERS,2513,#2513,8650 Gladiolus Drive,FL,33908
Winn-Dixie,FORT MYERS,2514,#2514,8652 Gladiolus Drive,FL,33908
Winn-Dixie,NAPLES,2515,#2515,7575 Vanderbilt Beach Road,FL,34119
Winn-Dixie,NAPLES,2516,#2516,"7550 Mission Hills Drive, Suit",FL,34119
Winn-Dixie,TAMPA,2517,#2517,13016 Race Track Rd.,FL,33626
Winn-Dixie,TAMPA,2518,#2518,13010 Race Track Road,FL,33626
Winn-Dixie,BRADENTON,2519,#2519,5802 14Th St. W,FL,34207
Winn-Dixie,BRADENTON,2520,#2520,5824 14th Street West,FL,34207
Winn-Dixie,THE VILLAGES,2523,#2523,820 Old Camp Rd.,FL,32162
Winn-Dixie,BONITA SPRINGS,2525,#2525,10026 Coconut Rd.,FL,34135
Winn-Dixie,APOLLO BEACH,2527,#2527,252 Harbor Village Lane,FL,33572
Winn-Dixie,APOLLO BEACH,2528,#2528,250 Harbor Village Lane,FL,33572
Winn-Dixie,TAMPA,2529,#2529,6425 County Line Rd.,FL,33647
Winn-Dixie,TAMPA,2530,#2530,6427 County Line Road,FL,33647
Winn-Dixie,TARPON SPRINGS,2531,#2531,1171 South Pinellas Ave.,FL,34689
Winn-Dixie,CAPE CORAL,2533,#2533,"1016 Cape Coral Pky, Ste 110",FL,33904
Winn-Dixie,CAPE CORAL,2534,#2534,"1016 Cape Coral Parkway, Ste.",FL,33904
Winn-Dixie,THE VILLAGES,2545,#2545,2548 Burnsed Boulevard,FL,34785
Winn-Dixie,JACKSONVILLE,2601,#2601,1012 EDGEWOOD AVE.,FL,32254
Winn-Dixie,JACKSONVILLE,2603,#2603,201 W. 48TH STREET,FL,32208
Winn-Dixie,HATTIESBURG,2626,#2626,4400 HARDY ST,MS,39402
Winn-Dixie,LAUREL,2628,#2628,170 BEACON STREET,MS,39440
Winn-Dixie,ORLANDO,2656,#2656,3201 W COLONIAL DR,FL,32808
Winn-Dixie,ORLANDO,2657,#2657,3201 W COLONIAL,FL,32804
Winn-Dixie,TAMPA,2659,#2659,2525 E. HILLSBOROUGH AVE.,FL,33610
Winn-Dixie,VALDOSTA,66,#66,1715 Norman Dr.,GA,31601
Winn-Dixie,BRUNSWICK,67,#67,341 Venture Dr.,GA,31525
Winn-Dixie,BRUNSWICK,69,#69,5711 Altama Ave.,GA,31525
Winn-Dixie,MIRAMAR BEACH,510,#510,65 Poinciana Blvd,FL,32550
Winn-Dixie,MIRAMAR BEACH,511,#511,69 Poinciana Blvd,FL,32550
Winn-Dixie,SEFFNER,2454,#2454,750 Martin Luther King W,FL,33584
Winn-Dixie,TARPON SPRINGS,2532,#2532,1167 South Pinellas Avenue,FL,34689
Winn-Dixie,LAKE PLACID,2549,#2549,1519 US Highway 27 South,FL,33852
