keywords,city,Aggdata Store Number,store_number,address,state,zip_code
Zaxby's,STATESBORO,102,102 #00102 #0102 #102 00102,502 FAIR ROAD,GA,30458
Zaxby's,VALDOSTA,103,103 #00103 #0103 #103 00103,1102 NORTH SAINT AUGUSTINE ROAD,GA,31601
Zaxby's,LAKE PARK,104,104 #00104 #0104 #104 00104,1220 LAKES BOULEVARD,GA,31636
Zaxby's,AUGUSTA,105,105 #00105 #0105 #105 00105,1702 WALTON WAY,GA,30904
Zaxby's,ATHENS,106,106 #00106 #0106 #106 00106,2100 BARNETT SHOALS RD,GA,30605
Zaxby's,VALDOSTA,107,107 #00107 #0107 #107 00107,3250 INNER PERIMETER,GA,31602
Zaxby's,CANTON,108,108 #00108 #0108 #108 00108,1385 RIVERSTONE PKWY,GA,30114
Zaxby's,GREENVILLE,109,109 #00109 #0109 #109 00109,1903 LAURENS ROAD,SC,29607
Zaxby's,MADISON,110,110 #00110 #0110 #110 00110,1930 EATONTON ROAD,GA,30650
Zaxby's,STOCKBRIDGE,111,111 #00111 #0111 #111 00111,29 HWY 138 WEST,GA,30281
Zaxby's,MAULDIN,113,113 #00113 #0113 #113 00113,403 WEST BUTLER RD.,SC,29662
Zaxby's,ATHENS,115,115 #00115 #0115 #115 00115,2255 BROAD STREET,GA,30606
Zaxby's,ATHENS,116,116 #00116 #0116 #116 00116,1800 EPPS BRIDGE PKWY,GA,30606
Zaxby's,ELLENWOOD,117,117 #00117 #0117 #117 00117,235 FAIRVIEW ROAD,GA,30294
Zaxby's,SENECA,118,118 #00118 #0118 #118 00118,1642 SANDIFER BLVD.,SC,29678
Zaxby's,MCDONOUGH,119,119 #00119 #0119 #119 00119,821 HWY 81 EAST,GA,30253
Zaxby's,THOMSON,120,120 #00120 #0120 #120 00120,1929 WASHINGTON RD.,GA,30824
Zaxby's,WOODSTOCK,121,121 #00121 #0121 #121 00121,3030 EAGLE DR.,GA,30189
Zaxby's,LOGANVILLE,122,122 #00122 #0122 #122 00122,4333 ATLANTA HWY,GA,30052
Zaxby's,SNELLVILLE,123,123 #00123 #0123 #123 00123,2735 WEST MAIN ST.,GA,30078
Zaxby's,CROSSVILLE,124,124 #00124 #0124 #124 00124,2540 NORTH MAIN ST,TN,38555
Zaxby's,STATESVILLE,126,126 #00126 #0126 #126 00126,169 TURNERSBURG HWY,NC,28625
Zaxby's,THOMASTON,127,127 #00127 #0127 #127 00127,809 N CHURCH ST,GA,30286
Zaxby's,JACKSBORO,129,129 #00129 #0129 #129 00129,125 MOUNT PERKINS LN.,TN,37757
Zaxby's,BAINBRIDGE,130,130 #00130 #0130 #130 00130,1404 TALLAHASSEE HWY.,GA,39819
Zaxby's,FITZGERALD,131,131 #00131 #0131 #131 00131,128 BENJAMIN HILL DR. W,GA,31750
Zaxby's,HARTWELL,132,132 #00132 #0132 #132 00132,1590 ANDERSON HWY,GA,30643
Zaxby's,LAGRANGE,133,133 #00133 #0133 #133 00133,1488 LAFAYETTE HWY,GA,30241
Zaxby's,POWELL,134,134 #00134 #0134 #134 00134,607 EAST EMORY RD.,TN,37849
Zaxby's,JESUP,135,135 #00135 #0135 #135 00135,1097 N. FIRST ST.,GA,31545
Zaxby's,DILLON,136,136 #00136 #0136 #136 00136,706 GEORGE T RADFORD BLVD,SC,29536
Zaxby's,DALLAS,137,137 #00137 #0137 #137 00137,105 THOMAS B. MURPHY DR.,GA,30132
Zaxby's,GREENVILLE,142,142 #00142 #0142 #142 00142,6169 WHITE HORSE ROAD,SC,29611
Zaxby's,GREENVILLE,143,143 #00143 #0143 #143 00143,824 S. CHURCH STREET,SC,29601
Zaxby's,NEWBERRY,145,145 #00145 #0145 #145 00145,2804 MAIN ST.,SC,29108
Zaxby's,LANCASTER,146,146 #00146 #0146 #146 00146,1210 LANCASTER BYPASS E,SC,29720
Zaxby's,BISHOPVILLE,147,147 #00147 #0147 #147 00147,1042 SUMTER HWY.,SC,29010
Zaxby's,SAVANNAH,148,148 #00148 #0148 #148 00148,8040 WHITE BLUFF RD.,GA,31406
Zaxby's,CEDARTOWN,149,149 #00149 #0149 #149 00149,1595 ROME HWY,GA,30125
Zaxby's,GREENVILLE,150,150 #00150 #0150 #150 00150,3830 E. NORTH STREET,SC,29615
Zaxby's,GAINESVILLE,151,151 #00151 #0151 #151 00151,3710 SW ARCHER ROAD,FL,32608
Zaxby's,STOCKBRIDGE,152,152 #00152 #0152 #152 00152,1480 HUDSON BRIDGE RD.,GA,30281
Zaxby's,SANDERSVILLE,153,153 #00153 #0153 #153 00153,600 SOUTH HARRIS STREET,GA,31082
Zaxby's,LAWRENCEVILLE,154,154 #00154 #0154 #154 00154,541 WEST PIKE STREET,GA,30045
Zaxby's,ATHENS,155,155 #00155 #0155 #155 00155,3704 ATLANTA HWY,GA,30606
Zaxby's,HAMPTON,156,156 #00156 #0156 #156 00156,11131 TARA BLVD.,GA,30228
Zaxby's,ATHENS,157,157 #00157 #0157 #157 00157,820 HULL RD,GA,30601
Zaxby's,LOCUST GROVE,158,158 #00158 #0158 #158 00158,701 MARKET PLACE BLVD,GA,30248
Zaxby's,MCDONOUGH,159,159 #00159 #0159 #159 00159,1094 HWY. 20/81 WEST,GA,30253
Zaxby's,EASLEY,160,160 #00160 #0160 #160 00160,6015 CALHOUN MEMORIAL HWY,SC,29641
Zaxby's,GREENWOOD,161,161 #00161 #0161 #161 00161,1635 BYPASS 72 NE,SC,29649
Zaxby's,GREENVILLE,162,162 #00162 #0162 #162 00162,1220 WOODRUFF RD.,SC,29607
Zaxby's,CLEMSON,163,163 #00163 #0163 #163 00163,1059 TIGER BLVD,SC,29631
Zaxby's,GREENVILLE,164,164 #00164 #0164 #164 00164,1511 POINSETT HWY.,SC,29609
Zaxby's,GREENVILLE,165,165 #00165 #0165 #165 00165,2707 WADE HAMPTON BLVD.,SC,29615
Zaxby's,AIKEN,166,166 #00166 #0166 #166 00166,1725 WHISKEY RD,SC,29803
Zaxby's,GREER,168,168 #00168 #0168 #168 00168,807 S. BATESVILLE RD.,SC,29650
Zaxby's,GAINESVILLE,169,169 #00169 #0169 #169 00169,2424 NW 43RD STREET,FL,32608
Zaxby's,WASHINGTON,171,171 #00171 #0171 #171 00171,1011 ROBERT TOOMBS AVE.,GA,30673
Zaxby's,KISSIMMEE,174,174 #00174 #0174 #174 00174,1885 N. JOHN YOUNG PARKWAY,FL,34741
Zaxby's,ASHBURN,176,176 #00176 #0176 #176 00176,812 EAST WASHINGTON AVE,GA,31714
Zaxby's,MANSFIELD,177,177 #00177 #0177 #177 00177,3181 MATLOCK ROAD,TX,76063
Zaxby's,WALTERBORO,178,178 #00178 #0178 #178 00178,2046 BELLS HWY,SC,29488
Zaxby's,THE COLONY,180,180 #00180 #0180 #180 00180,4842 MAIN STREET,TX,75056
Zaxby's,CONOVER,181,181 #00181 #0181 #181 00181,1233 HIGHWAY 16 NORTH,NC,28613
Zaxby's,GAINESVILLE,184,184 #00184 #0184 #184 00184,# 1 NORTHWEST 10TH AVENUE,FL,32601
Zaxby's,LEXINGTON,185,185 #00185 #0185 #185 00185,1425 COTTON GROVE RD.,NC,27292
Zaxby's,SUWANEE,186,186 #00186 #0186 #186 00186,7140 MCGINNIS FERRY RD.,GA,30024
Zaxby's,KELLER,188,188 #00188 #0188 #188 00188,701 KELLER PARKWAY,TX,76248
Zaxby's,SWAINSBORO,192,192 #00192 #0192 #192 00192,410 SOUTH MAIN STREET,GA,30401
Zaxby's,SNELLVILLE,193,193 #00193 #0193 #193 00193,3951 STONE MOUNTAIN HWY. SW,GA,30039
Zaxby's,TUSCALOOSA,195,195 #00195 #0195 #195 00195,4383 COURTNEY DRIVE,AL,35405
Zaxby's,NORTHPORT,196,196 #00196 #0196 #196 00196,21 MCFARLAND BOULEVARD,AL,35476
Zaxby's,NORTHPORT,197,197 #00197 #0197 #197 00197,5420 MCFARLAND BLVD,AL,35476
Zaxby's,ACWORTH,198,198 #00198 #0198 #198 00198,3511 BAKER RD,GA,30101
Zaxby's,SELMA,199,199 #00199 #0199 #199 00199,618 HIGHLAND AVENUE,AL,36701
Zaxby's,BOWLING GREEN,201,201 #00201 #0201 #201 00201,1651 CAMPBELL LANE,KY,42104
Zaxby's,BOWLING GREEN,203,203 #00203 #0203 #203 00203,100 CHERRY FARMS LANE,KY,42103
Zaxby's,GLASGOW,204,204 #00204 #0204 #204 00204,810 HAPPY VALLEY RD.,KY,42141
Zaxby's,ELIZABETHTOWN,205,205 #00205 #0205 #205 00205,3000 NORTH DIXIE AVENUE,KY,42701
Zaxby's,CLARKESVILLE,301,301 #00301 #0301 #301 00301,1660 HISTORIC HWY 441,GA,30523
Zaxby's,CLEVELAND,302,302 #00302 #0302 #302 00302,217 S. MAIN STREET,GA,30528
Zaxby's,COMMERCE,303,303 #00303 #0303 #303 00303,30828 US HWY 441,GA,30529
Zaxby's,GAINESVILLE,304,304 #00304 #0304 #304 00304,995 RIVERSIDE DR.,GA,30501
Zaxby's,CORNELIA,305,305 #00305 #0305 #305 00305,180 CANNON BRIDGE RD,GA,30531
Zaxby's,TOCCOA,306,306 #00306 #0306 #306 00306,"905 BIG A RD., SOUTH",GA,30577
Zaxby's,AUGUSTA,502,502 #00502 #0502 #502 00502,2629 PEACH ORCHARD RD,GA,30906
Zaxby's,MARTINEZ,503,503 #00503 #0503 #503 00503,510 FURYS FERRY RD,GA,30907
Zaxby's,AUGUSTA,504,504 #00504 #0504 #504 00504,4001 HARPER FRANKLIN AVE,GA,30909
Zaxby's,EVANS,505,505 #00505 #0505 #505 00505,3031 WILLIAM FEW PKWY,GA,30809
Zaxby's,BOWLING GREEN,601,601 #00601 #0601 #601 00601,1801 US HIGHWAY 31,KY,42101
Zaxby's,WARNER ROBINS,701,701 #00701 #0701 #701 00701,2931 WATSON BLVD.,GA,31093
Zaxby's,WATKINSVILLE,801,801 #00801 #0801 #801 00801,1013 PARK DRIVE,GA,30677
Zaxby's,MILLEDGEVILLE,901,901 #00901 #0901 #901 00901,1700 N. COLUMBIA STREET,GA,31061
Zaxby's,MACON,1201,1201 #001201 #01201 #1201 001201,3960 NORTHSIDE DR.,GA,31210
Zaxby's,SUMTER,1301,1301 #001301 #01301 #1301 001301,1128 BROAD STREET,SC,29150
Zaxby's,MYRTLE BEACH,1302,1302 #001302 #01302 #1302 001302,100 STRAND MARKET DR.,SC,29588
Zaxby's,SUMTER,1305,1305 #001305 #01305 #1305 001305,2030 MCCRAY'S MILL RD,SC,29154
Zaxby's,FLORENCE,1306,1306 #001306 #01306 #1306 001306,2100 FLORENCE HARLLEE BLVD,SC,29506
Zaxby's,MYRTLE BEACH,1307,1307 #001307 #01307 #1307 001307,3858 RENEE DR.,SC,29579
Zaxby's,COLUMBIA,1308,1308 #001308 #01308 #1308 001308,1041 SAMS CROSSING,SC,29229
Zaxby's,COLUMBIA,1309,1309 #001309 #01309 #1309 001309,2001 NORTH BELTLINE BOULEVARD,SC,29204
Zaxby's,ORANGEBURG,1310,1310 #001310 #01310 #1310 001310,2572 NORTH RD.,SC,29118
Zaxby's,ORANGEBURG,1311,1311 #001311 #01311 #1311 001311,3591 SAINT MATTHEWS ROAD,SC,29118
Zaxby's,EVANS,1701,1701 #001701 #01701 #1701 001701,612 RONALD REAGAN DRIVE,GA,30809
Zaxby's,MARTINEZ,1702,1702 #001702 #01702 #1702 001702,3969 COLUMBIA ROAD,GA,30907
Zaxby's,AUGUSTA,1703,1703 #001703 #01703 #1703 001703,2849 WASHINGTON ROAD,GA,30909
Zaxby's,WINDER,1801,1801 #001801 #01801 #1801 001801,28 E. MAY STREET,GA,30680
Zaxby's,FLORENCE,1901,1901 #001901 #01901 #1901 001901,2099 W. EVANS STREET,SC,29501
Zaxby's,GRAY,2201,2201 #002201 #02201 #2201 002201,198 W. CLINTON STREET,GA,31032
Zaxby's,ALBANY,2301,2301 #002301 #02301 #2301 002301,2801 POINTE NORTH BLVD,GA,31721
Zaxby's,ALBANY,2302,2302 #002302 #02302 #2302 002302,2806 HWY 19,GA,31701
Zaxby's,ALBANY,2303,2303 #002303 #02303 #2303 002303,405 NORTH SLAPPEY BOULEVARD,GA,31701
Zaxby's,MACON,2401,2401 #002401 #02401 #2401 002401,910 RIVERSIDE DR.,GA,31201
Zaxby's,CORDELE,2503,2503 #002503 #02503 #2503 002503,2002 CENTRAL AVE EXT,GA,31015
Zaxby's,BYRON,2504,2504 #002504 #02504 #2504 002504,400 HIGHWAY 49 NORTH,GA,31008
Zaxby's,ANDERSON,2601,2601 #002601 #02601 #2601 002601,3800 CLEMSON BLVD,SC,29621
Zaxby's,BRUNSWICK,2701,2701 #002701 #02701 #2701 002701,126 ALTAMA CONNECTOR,GA,31525
Zaxby's,KINGSLAND,2702,2702 #002702 #02702 #2702 002702,1377 EAST KING AVE.,GA,31548
Zaxby's,WARNER ROBINS,2802,2802 #002802 #02802 #2802 002802,861 WARREN DRIVE,GA,31088
Zaxby's,COLUMBIA,3002,3002 #003002 #03002 #3002 003002,101 CLEMSON RD,SC,29229
Zaxby's,DOUGLAS,3201,3201 #003201 #03201 #3201 003201,1004 PETERSON AVE S,GA,31533
Zaxby's,MADISON,3301,3301 #003301 #03301 #3301 003301,100 IVORY PLACE,AL,35758
Zaxby's,MONROE,3601,3601 #003601 #03601 #3601 003601,195 MARTIN LUTHER KING JR BLVD,GA,30655
Zaxby's,COVINGTON,3602,3602 #003602 #03602 #3602 003602,6243 TURNER LAKE RD NW,GA,30014
Zaxby's,CONYERS,3603,3603 #003603 #03603 #3603 003603,1871 HWY 138 SE,GA,30013
Zaxby's,COVINGTON,3604,3604 #003604 #03604 #3604 003604,9132 COVINGTON BYPASS,GA,30014
Zaxby's,MURFREESBORO,3701,3701 #003701 #03701 #3701 003701,905 OLD FORT PKWY.,TN,37129
Zaxby's,MURFREESBORO,3702,3702 #003702 #03702 #3702 003702,2890 S. RUTHERFORD BLVD.,TN,37130
Zaxby's,CUMMING,4001,4001 #004001 #04001 #4001 004001,6020 BETHELVIEW RD,GA,30040
Zaxby's,TIFTON,4101,4101 #004101 #04101 #4101 004101,198 VIRGINIA AVE. SOUTH,GA,31794
Zaxby's,CALHOUN,4201,4201 #004201 #04201 #4201 004201,530 HWY. 53 EAST,GA,30701
Zaxby's,DUBLIN,4301,4301 #004301 #04301 #4301 004301,2203 VETERANS BLVD.,GA,31021
Zaxby's,DUBLIN,4302,4302 #004302 #04302 #4302 004302,100 TRAVEL CENTER BLVD,GA,31021
Zaxby's,VIDALIA,4401,4401 #004401 #04401 #4401 004401,2705 E. 1ST STREET,GA,30474
Zaxby's,ROME,4801,4801 #004801 #04801 #4801 004801,2790 MARTHA BERRY HWY. NE,GA,30165
Zaxby's,ROME,4802,4802 #004802 #04802 #4802 004802,2415 SHORTER AVE.,GA,30165
Zaxby's,SAINT SIMONS ISLAND,4803,4803 #004803 #04803 #4803 004803,25 MARKET STREET,GA,31522
Zaxby's,ROME,4804,4804 #004804 #04804 #4804 004804,1808 TURNER MCCALL BOULEVARD,GA,30161
Zaxby's,BRUNSWICK,4805,4805 #004805 #04805 #4805 004805,230 FRONTAGE ROAD,GA,31521
Zaxby's,SPARTANBURG,5001,5001 #005001 #05001 #5001 005001,1910 BOILING SPRINGS RD.,SC,29316
Zaxby's,CONCORD,5101,5101 #005101 #05101 #5101 005101,7781 GATEWAY LN,NC,28027
Zaxby's,WAYCROSS,5302,5302 #005302 #05302 #5302 005302,2316 MEMORIAL DR.,GA,31501
Zaxby's,SAINT AUGUSTINE,5305,5305 #005305 #05305 #5305 005305,1107 NORTH PONCE DE LEON BLVD,FL,32084
Zaxby's,DACULA,5401,5401 #005401 #05401 #5401 005401,3460 BRASELTON HWY,GA,30019
Zaxby's,HIRAM,5501,5501 #005501 #05501 #5501 005501,4560 JIMMY LEE SMITH PKWY.,GA,30141
Zaxby's,IRMO,5601,5601 #005601 #05601 #5601 005601,1042 LAKE MURRAY BLVD.,SC,29063
Zaxby's,MOULTRIE,5701,5701 #005701 #05701 #5701 005701,507 EAST BYPASS SE,GA,31768
Zaxby's,ANDERSON,5801,5801 #005801 #05801 #5801 005801,652 HWY. 28 BYPASS,SC,29624
Zaxby's,COLUMBUS,6202,6202 #006202 #06202 #6202 006202,4424 BUENA VISTA RD,GA,31907
Zaxby's,LAGRANGE,6203,6203 #006203 #06203 #6203 006203,129 COMMERCE AVE.,GA,30241
Zaxby's,CARTERSVILLE,6301,6301 #006301 #06301 #6301 006301,310 MARKET PLACE BLVD,GA,30121
Zaxby's,ADAIRSVILLE,6302,6302 #006302 #06302 #6302 006302,7869 ADAIRSVILLE HWY,GA,30103
Zaxby's,CARTERSVILLE,6303,6303 #006303 #06303 #6303 006303,5 WALNUT GROVE ROAD,GA,30120
Zaxby's,GUNTERSVILLE,6601,6601 #006601 #06601 #6601 006601,11456 HWY 431 NORTH,AL,35976
Zaxby's,LUMBERTON,6801,6801 #006801 #06801 #6801 006801,5011 FAYETTEVILLE RD.,NC,28358
Zaxby's,JACKSONVILLE,6901,6901 #006901 #06901 #6901 006901,9575 REGENCY SQUARE BLVD.,FL,32225
Zaxby's,FORT OGLETHORPE,7001,7001 #007001 #07001 #7001 007001,2541 BATTLEFIELD PKWY.,GA,30742
Zaxby's,NEWNAN,7401,7401 #007401 #07401 #7401 007401,759 BULLSBORO DR.,GA,30263
Zaxby's,NEWNAN,7402,7402 #007402 #07402 #7402 007402,195 GLENDA TRACE,GA,30265
Zaxby's,LAWRENCEVILLE,7403,7403 #007403 #07403 #7403 007403,1914 DULUTH HWY 120,GA,30043
Zaxby's,LAKE CITY,7601,7601 #007601 #07601 #7601 007601,2640 US HWY. 90 WEST,FL,32055
Zaxby's,OCALA,8401,8401 #008401 #08401 #8401 008401,2900 SW 27TH AVE.,FL,34474
Zaxby's,OCALA,8402,8402 #008402 #08402 #8402 008402,2175 E SILVER SPRINGS BLVD,FL,34471
Zaxby's,OCALA,8403,8403 #008403 #08403 #8403 008403,13451 SW 17TH CT,FL,34473
Zaxby's,BUFORD,8501,8501 #008501 #08501 #8501 008501,4906 FRIENDSHIP RD,GA,30518
Zaxby's,MONTGOMERY,8901,8901 #008901 #08901 #8901 008901,2923 EASTERN BLVD.,AL,36116
Zaxby's,JASPER,9001,9001 #009001 #09001 #9001 009001,1204 US HWY. 78 EAST,AL,35504
Zaxby's,MACON,9101,9101 #009101 #09101 #9101 009101,4686 PRESIDENTIAL PKWY.,GA,31206
Zaxby's,MACON,9102,9102 #009102 #09102 #9102 009102,4622 HARTLEY BRIDGE ROAD,GA,31216
Zaxby's,HUNTSVILLE,9201,9201 #009201 #09201 #9201 009201,1025 N. MEMORIAL PKWY. NE,AL,35801
Zaxby's,DAHLONEGA,9301,9301 #009301 #09301 #9301 009301,58 PINE TREE WAY,GA,30533
Zaxby's,ROCK HILL,9601,9601 #009601 #09601 #9601 009601,2763 HOME DEPOT BLVD.,SC,29730
Zaxby's,LAKELAND,9701,9701 #009701 #09701 #9701 009701,4510 US HWY. 98 NORTH,FL,33809
Zaxby's,MULBERRY,9702,9702 #009702 #09702 #9702 009702,6747 N CHURCH AVENUE,FL,33860
Zaxby's,DOTHAN,10101,10101 #0010101 #010101 #10101 0010101,3850 W. MAIN STREET,AL,36305
Zaxby's,SUWANEE,10201,10201 #0010201 #010201 #10201 0010201,3545 LAWRENCEVILLE SUWANEE RD. NW,GA,30024
Zaxby's,ORANGE CITY,10301,10301 #0010301 #010301 #10301 0010301,949 SAXON BLVD.,FL,32763
Zaxby's,CULLMAN,10501,10501 #0010501 #010501 #10501 0010501,622 OLIVE STREET SW,AL,35055
Zaxby's,FLORENCE,10601,10601 #0010601 #010601 #10601 0010601,366 COX CREEK PKWY.,AL,35630
Zaxby's,LAWRENCEVILLE,10801,10801 #0010801 #010801 #10801 0010801,3390 SUGARLOAF PKWY.,GA,30043
Zaxby's,BRASELTON,10802,10802 #0010802 #010802 #10802 0010802,100 COMMONS DR.,GA,30517
Zaxby's,DACULA,10803,10803 #0010803 #010803 #10803 0010803,2620 WINDER HWY,GA,30019
Zaxby's,BETHLEHEM,10804,10804 #0010804 #010804 #10804 0010804,1945 PARKWAY POINTE DRIVE,GA,30620
Zaxby's,PENSACOLA,11001,11001 #0011001 #011001 #11001 0011001,2640 CREIGHTON RD.,FL,32504
Zaxby's,THOMASVILLE,11101,11101 #0011101 #011101 #11101 0011101,14036 US HWY 19 S.,GA,31757
Zaxby's,VALRICO,11201,11201 #0011201 #011201 #11201 0011201,2028 STATE ROUTE 60,FL,33594
Zaxby's,ORANGE PARK,11301,11301 #0011301 #011301 #11301 0011301,390 BLANDING BLVD.,FL,32073
Zaxby's,JACKSONVILLE,11302,11302 #0011302 #011302 #11302 0011302,9612 SAN JOSE BOULEVARD,FL,32257
Zaxby's,CARROLLTON,11601,11601 #0011601 #011601 #11601 0011601,1125 SOUTH PARK ST,GA,30117
Zaxby's,VILLA RICA,11602,11602 #0011602 #011602 #11602 0011602,200 COOLEY DRIVE,GA,30180
Zaxby's,BREMEN,11603,11603 #0011603 #011603 #11603 0011603,135 HWY 27 BYPASS,GA,30110
Zaxby's,CARROLLTON,11604,11604 #0011604 #011604 #11604 0011604,1195 BANKHEAD HWY,GA,30116
Zaxby's,MYRTLE BEACH,11801,11801 #0011801 #011801 #11801 0011801,3725 OLEANDER DRIVE,SC,29577
Zaxby's,HUNTSVILLE,11901,11901 #0011901 #011901 #11901 0011901,11608 S. MEMORIAL PKWY,AL,35803
Zaxby's,BEAUFORT,12101,12101 #0012101 #012101 #12101 0012101,210 ROBERT SMALLS PKWY,SC,29906
Zaxby's,GAINESVILLE,12201,12201 #0012201 #012201 #12201 0012201,1332 BROWNS BRIDGE RD.,GA,30501
Zaxby's,HARRISBURG,12301,12301 #0012301 #012301 #12301 0012301,6701 KEE LANE,NC,28075
Zaxby's,OXFORD,12801,12801 #0012801 #012801 #12801 0012801,2574 W. JACKSON AVE.,MS,38655
Zaxby's,HORN LAKE,12802,12802 #0012802 #012802 #12802 0012802,761 GOODMAN RD.,MS,38637
Zaxby's,OLIVE BRANCH,12804,12804 #0012804 #012804 #12804 0012804,7480 COMMERCE DR.,MS,38654
Zaxby's,BATESVILLE,12805,12805 #0012805 #012805 #12805 0012805,101 MEDICAL CENTER DRIVE,MS,38606
Zaxby's,HERNANDO,12806,12806 #0012806 #012806 #12806 0012806,2575 MCINGVALE ROAD,MS,38632
Zaxby's,SMYRNA,13101,13101 #0013101 #013101 #13101 0013101,5201 S. COBB DR. SE,GA,30080
Zaxby's,DECATUR,13301,13301 #0013301 #013301 #13301 0013301,2830 SPRING AVE,AL,35603
Zaxby's,BLAIRSVILLE,13501,13501 #0013501 #013501 #13501 0013501,195 HWY 515,GA,30512
Zaxby's,ELLIJAY,13502,13502 #0013502 #013502 #13502 0013502,143 HIGHLAND CROSSING,GA,30540
Zaxby's,BLUE RIDGE,13503,13503 #0013503 #013503 #13503 0013503,24 PROGRESS CIRCLE,GA,30513
Zaxby's,JASPER,13504,13504 #0013504 #013504 #13504 0013504,132 BILL WIGGINGTON PARKWAY,GA,30143
Zaxby's,KENNESAW,13701,13701 #0013701 #013701 #13701 0013701,3160 ACWORTH FOREST DR. NW,GA,30144
Zaxby's,KENNESAW,13702,13702 #0013702 #013702 #13702 0013702,780 TOWNPARK LN NW,GA,30144
Zaxby's,MOBILE,13801,13801 #0013801 #013801 #13801 0013801,950 SCHILLINGER RD.,AL,36695
Zaxby's,MOBILE,13802,13802 #0013802 #013802 #13802 0013802,4385 RANGE LINE RD.,AL,36619
Zaxby's,GALLATIN,13901,13901 #0013901 #013901 #13901 0013901,580 VILLAGE GREEN DRIVE,TN,37066
Zaxby's,TROY,14201,14201 #0014201 #014201 #14201 0014201,101 EMMA DR.,AL,36081
Zaxby's,GOOSE CREEK,14301,14301 #0014301 #014301 #14301 0014301,433 ST. JAMES AVE.,SC,29445
Zaxby's,POWDER SPRINGS,14401,14401 #0014401 #014401 #14401 0014401,4410 BROWNSVILLE RD.,GA,30127
Zaxby's,FAYETTEVILLE,14502,14502 #0014502 #014502 #14502 0014502,1325 HWY 85 NORTH,GA,30214
Zaxby's,FAYETTEVILLE,14503,14503 #0014503 #014503 #14503 0014503,130 HWY 92,GA,30214
Zaxby's,AUBURN,14701,14701 #0014701 #014701 #14701 0014701,1659 S. COLLEGE STREET,AL,36830
Zaxby's,LITHONIA,14801,14801 #0014801 #014801 #14801 0014801,8065 MALL PARKWAY,GA,30038
Zaxby's,CHAMBLEE,14802,14802 #0014802 #014802 #14802 0014802,4906 PEACHTREE BLVD,GA,30341
Zaxby's,ALCOA,15001,15001 #0015001 #015001 #15001 0015001,1099 HUNTERS CROSSING,TN,37701
Zaxby's,CHATTANOOGA,15101,15101 #0015101 #015101 #15101 0015101,7643 EAST BRAINERD RD,TN,37421
Zaxby's,GULF BREEZE,15201,15201 #0015201 #015201 #15201 0015201,1451 TIGER PARK LANE,FL,32563
Zaxby's,ALABASTER,15301,15301 #0015301 #015301 #15301 0015301,9134 HWY. 119,AL,35007
Zaxby's,BIRMINGHAM,15302,15302 #0015302 #015302 #15302 0015302,3270 MORROW RD,AL,35235
Zaxby's,LAKELAND,15401,15401 #0015401 #015401 #15401 0015401,9104 HWY 64,TN,38002
Zaxby's,COLLIERVILLE,15403,15403 #0015403 #015403 #15403 0015403,375 NEW BYHALIA RD.,TN,38017
Zaxby's,CORDOVA,15404,15404 #0015404 #015404 #15404 0015404,1420 N. GERMANTOWN PARKWAY,TN,38016
Zaxby's,JACKSONVILLE,15501,15501 #0015501 #015501 #15501 0015501,1372 AIRPORT RD.,FL,32218
Zaxby's,ORANGE PARK,15701,15701 #0015701 #015701 #15701 0015701,1525 COUNTY ROAD 220,FL,32003
Zaxby's,JACKSON,16101,16101 #0016101 #016101 #16101 0016101,6330 RIDGEWOOD COURT DR,MS,39211
Zaxby's,DAPHNE,16201,16201 #0016201 #016201 #16201 0016201,29053 HWY 98,AL,36526
Zaxby's,KENNESAW,16401,16401 #0016401 #016401 #16401 0016401,5230 STILESBORO RD. NW,GA,30152
Zaxby's,FORT PAYNE,16501,16501 #0016501 #016501 #16501 0016501,1050 GLENN BLVD. SW NO MAIL,AL,35967
Zaxby's,PRATTVILLE,16601,16601 #0016601 #016601 #16601 0016601,1750 E. MAIN ST.,AL,36066
Zaxby's,MILLBROOK,16602,16602 #0016602 #016602 #16602 0016602,55 KELLEY BLVD,AL,36054
Zaxby's,BUFORD,16901,16901 #0016901 #016901 #16901 0016901,4139 BUFORD DR.,GA,30518
Zaxby's,LILBURN,17201,17201 #0017201 #017201 #17201 0017201,743 PLEASANT HILL ROAD,GA,30047
Zaxby's,CUMMING,17401,17401 #0017401 #017401 #17401 0017401,2810 KEITH BRIDGE RD,GA,30041
Zaxby's,NORCROSS,17501,17501 #0017501 #017501 #17501 0017501,4850 PEACHTREE IND. BLVD.,GA,30071
Zaxby's,CANTON,17601,17601 #0017601 #017601 #17601 0017601,156 PROMINENCE POINT PKWY,GA,30114
Zaxby's,CANTON,17602,17602 #0017602 #017602 #17602 0017602,2880 E. CHEROKEE DR.,GA,30115
Zaxby's,CANTON,17603,17603 #0017603 #017603 #17603 0017603,2036 CUMMING HWY,GA,30114
Zaxby's,ROSWELL,17701,17701 #0017701 #017701 #17701 0017701,11235 WOODSTOCK ROAD,GA,30075
Zaxby's,DULUTH,17702,17702 #0017702 #017702 #17702 0017702,5970 STATE BRIDGE RD.,GA,30097
Zaxby's,ROSWELL,17703,17703 #0017703 #017703 #17703 0017703,3000 HOLCOMB WOODS PARKWAY,GA,30076
Zaxby's,WOODSTOCK,17704,17704 #0017704 #017704 #17704 0017704,107 CLAREMORE DRIVE,GA,30188
Zaxby's,ATLANTA,17705,17705 #0017705 #017705 #17705 0017705,"4388 ROSWELL ROAD, NE",GA,30342
Zaxby's,FLOWOOD,17801,17801 #0017801 #017801 #17801 0017801,115 PROMENADE BLVD.,MS,39232
Zaxby's,HATTIESBURG,18001,18001 #0018001 #018001 #18001 0018001,4520 HARDY ST.,MS,39402
Zaxby's,SNELLVILLE,18101,18101 #0018101 #018101 #18101 0018101,3230 CENTERVILLE HWY.,GA,30039
Zaxby's,LEBANON,18501,18501 #0018501 #018501 #18501 0018501,638 S. CUMBERLAND STREET,TN,37087
Zaxby's,TALLAHASSEE,18601,18601 #0018601 #018601 #18601 0018601,2889 APALACHEE PARKWAY,FL,32301
Zaxby's,OAKWOOD,18801,18801 #0018801 #018801 #18801 0018801,3724 MUNDY MILL RD.,GA,30566
Zaxby's,ATHENS,18901,18901 #0018901 #018901 #18901 0018901,1510 S. CONGRESS PKWY.,TN,37303
Zaxby's,HENDERSONVILLE,19101,19101 #0019101 #019101 #19101 0019101,67 HIGHLANDS SQUARE DR.,NC,28792
Zaxby's,KENNESAW,19201,19201 #0019201 #019201 #19201 0019201,1640 OLD HWY 41,GA,30152
Zaxby's,MARIETTA,19301,19301 #0019301 #019301 #19301 0019301,3030 JOHNSON FERRY RD.,GA,30062
Zaxby's,SCOTTSBORO,19501,19501 #0019501 #019501 #19501 0019501,24729 JOHN T. REED PKWY.,AL,35768
Zaxby's,GREENEVILLE,19601,19601 #0019601 #019601 #19601 0019601,3280 E. ANDREW JOHNSON BLVD.,TN,37745
Zaxby's,CLEMMONS,19901,19901 #0019901 #019901 #19901 0019901,1445 RIVER RIDGE DR.,NC,27012
Zaxby's,AUBURN,20001,20001 #0020001 #020001 #20001 0020001,2075 EAST UNIVERSITY DR,AL,36830
Zaxby's,MARIETTA,20101,20101 #0020101 #020101 #20101 0020101,2080 LOWER ROSWELL RD.,GA,30062
Zaxby's,GREENVILLE,20201,20201 #0020201 #020201 #20201 0020201,1098 ALLEN ROAD,NC,27834
Zaxby's,GREENVILLE,20202,20202 #0020202 #020202 #20202 0020202,2035 EAST FIRE TOWER RD.,NC,27858
Zaxby's,HENDERSONVILLE,20301,20301 #0020301 #020301 #20301 0020301,118 NORTH ANDERSON LANE,TN,37075
Zaxby's,ALPHARETTA,20401,20401 #0020401 #020401 #20401 0020401,2005 OLD MILTON PARKWAY,GA,30004
Zaxby's,COLUMBIA,20702,20702 #0020702 #020702 #20702 0020702,316 BUSH RIVER RD.,SC,29210
Zaxby's,SAVANNAH,20801,20801 #0020801 #020801 #20801 0020801,4260 OGEECHEE RD.,GA,31405
Zaxby's,SODDY DAISY,20901,20901 #0020901 #020901 #20901 0020901,9347 SPRINGFIELD RD.,TN,37379
Zaxby's,TALLAHASSEE,21001,21001 #0021001 #021001 #21001 0021001,3325 CAPITAL CIRCLE NE,FL,32308
Zaxby's,SUMMERVILLE,21101,21101 #0021101 #021101 #21101 0021101,320 AZALEA SQUARE BLVD.,SC,29483
Zaxby's,TAMPA,21401,21401 #0021401 #021401 #21401 0021401,3864 WEST WATERS AVENUE,FL,33614
Zaxby's,FAIRBURN,21501,21501 #0021501 #021501 #21501 0021501,7840 SENOIA RD.,GA,30213
Zaxby's,ANDERSON,22001,22001 #0022001 #022001 #22001 0022001,1660 E. GREENVILLE STREET,SC,29621
Zaxby's,ORLANDO,22201,22201 #0022201 #022201 #22201 0022201,4067 MILLENIA BLVD,FL,32839
Zaxby's,BESSEMER,22401,22401 #0022401 #022401 #22401 0022401,804 ACADEMY DR.,AL,35022
Zaxby's,BESSEMER,22402,22402 #0022402 #022402 #22402 0022402,4815 BELL HILL ROAD,AL,35022
Zaxby's,BIRMINGHAM,22403,22403 #0022403 #022403 #22403 0022403,5881 TRUSSVILLE CROSSINGS BLVD.,AL,35235
Zaxby's,BIRMINGHAM,22404,22404 #0022404 #022404 #22404 0022404,282 PALISADES BLVD,AL,35209
Zaxby's,BIRMINGHAM,22405,22405 #0022405 #022405 #22405 0022405,1548 MONTCLAIR ROAD,AL,35210
Zaxby's,HUEYTOWN,22406,22406 #0022406 #022406 #22406 0022406,2880 ALLISON BONNETT MEMORIAL DRIVE,AL,35023
Zaxby's,ALBEMARLE,22601,22601 #0022601 #022601 #22601 0022601,701 LEONARD AVE.,NC,28001
Zaxby's,SYLVA,22701,22701 #0022701 #022701 #22701 0022701,284 EAST MAIN STREET,NC,28779
Zaxby's,BREVARD,22702,22702 #0022702 #022702 #22702 0022702,205 ASHEVILLE HWY,NC,28712
Zaxby's,WAYNESVILLE,22703,22703 #0022703 #022703 #22703 0022703,424 RUSS AVE.,NC,28786
Zaxby's,MONTGOMERY,22901,22901 #0022901 #022901 #22901 0022901,6435 ATLANTA HWY,AL,36117
Zaxby's,TULLAHOMA,23001,23001 #0023001 #023001 #23001 0023001,1900 N. JACKSON STREET,TN,37388
Zaxby's,MURFREESBORO,23003,23003 #0023003 #023003 #23003 0023003,2678 SOUTH CHURCH STREET,TN,37127
Zaxby's,TALLAHASSEE,23201,23201 #0023201 #023201 #23201 0023201,2319 MONROE STREET,FL,32303
Zaxby's,TALLAHASSEE,23301,23301 #0023301 #023301 #23301 0023301,640 W TENNESSEE STREET,FL,32304
Zaxby's,DUNCAN,23401,23401 #0023401 #023401 #23401 0023401,1555 E. MAIN ST,SC,29334
Zaxby's,ROANOKE,23601,23601 #0023601 #023601 #23601 0023601,3206 ORDWAY DR NW,VA,24017
Zaxby's,SALEM,23602,23602 #0023602 #023602 #23602 0023602,903 W. MAIN ST,VA,24153
Zaxby's,JACKSONVILLE,23901,23901 #0023901 #023901 #23901 0023901,6351 ROOSEVELT BLVD.,FL,32244
Zaxby's,JACKSONVILLE,23902,23902 #0023902 #023902 #23902 0023902,13972 BEACH BLVD.,FL,32224
Zaxby's,CONYERS,24001,24001 #0024001 #024001 #24001 0024001,429 SIGMAN RD.,GA,30012
Zaxby's,MONTGOMERY,24101,24101 #0024101 #024101 #24101 0024101,3130 TAYLOR RD.,AL,36117
Zaxby's,MARIETTA,24401,24401 #0024401 #024401 #24401 0024401,2500 BARRETT CREEK BLVD. NW,GA,30066
Zaxby's,DALLAS,24402,24402 #0024402 #024402 #24402 0024402,202 HILLSIDE OVERLOOK,GA,30157
Zaxby's,CUMMING,24601,24601 #0024601 #024601 #24601 0024601,520 SAWNEE CORNERS BLVD.,GA,30040
Zaxby's,LITHIA SPRINGS,24701,24701 #0024701 #024701 #24701 0024701,650 MAXHAM RD.,GA,30122
Zaxby's,LITHIA SPRINGS,24702,24702 #0024702 #024702 #24702 0024702,2609 LEE ROAD,GA,30122
Zaxby's,PLANT CITY,24801,24801 #0024801 #024801 #24801 0024801,2901.5 JAMES REDMAN PARKWAY,FL,33564
Zaxby's,PORT WENTWORTH,24902,24902 #0024902 #024902 #24902 0024902,100 OLD RICHMOND ROAD,GA,31407
Zaxby's,LYNN HAVEN,25102,25102 #0025102 #025102 #25102 0025102,2300 SOUTH HWY 77,FL,32444
Zaxby's,PANAMA CITY BEACH,25103,25103 #0025103 #025103 #25103 0025103,9960 HUTCHISON BLVD,FL,32407
Zaxby's,FOLEY,25201,25201 #0025201 #025201 #25201 0025201,707 S. MCKENZIE STREET,AL,36535
Zaxby's,HUNTSVILLE,25301,25301 #0025301 #025301 #25301 0025301,2720 CARL T. JONES PKWY,AL,35802
Zaxby's,SAVANNAH,25401,25401 #0025401 #025401 #25401 0025401,5971 OGEECHEE RD.,GA,31419
Zaxby's,COOKEVILLE,25601,25601 #0025601 #025601 #25601 0025601,395 W. JACKSON STREET,TN,38501
Zaxby's,ASHEBORO,25801,25801 #0025801 #025801 #25801 0025801,1205 EAST DIXIE DR.,NC,27203
Zaxby's,MONCKS CORNER,25901,25901 #0025901 #025901 #25901 0025901,507 N. HWY. 52,SC,29461
Zaxby's,JONESBORO,26001,26001 #0026001 #026001 #26001 0026001,2625 STADIUM BLVD.,AR,72401
Zaxby's,MARION,26002,26002 #0026002 #026002 #26002 0026002,306 BANCARIO ROAD,AR,72364
Zaxby's,WILMINGTON,26101,26101 #0026101 #026101 #26101 0026101,6811 GORDON RD.,NC,28411
Zaxby's,JONESBORO,26201,26201 #0026201 #026201 #26201 0026201,7149 MOUNT ZION BLVD.,GA,30236
Zaxby's,MARIETTA,26401,26401 #0026401 #026401 #26401 0026401,730 JOHNSON FERRY RD.,GA,30068
Zaxby's,ATLANTA,26501,26501 #0026501 #026501 #26501 0026501,925 CAMP FULTON WAY,GA,30336
Zaxby's,LITHONIA,26601,26601 #0026601 #026601 #26601 0026601,451 S. DESHON RD.,GA,30058
Zaxby's,LITHONIA,26602,26602 #0026602 #026602 #26602 0026602,2316 PANOLA RD,GA,30058
Zaxby's,DECATUR,26603,26603 #0026603 #026603 #26603 0026603,4805 FLAT SHOALS PARKWAY,GA,30034
Zaxby's,DECATUR,26604,26604 #0026604 #026604 #26604 0026604,3490 MEMORIAL DRIVE,GA,30032
Zaxby's,DECATUR,26605,26605 #0026605 #026605 #26605 0026605,3809 NORTH DRUID HILLS RD,GA,30033
Zaxby's,STONE MOUNTAIN,26606,26606 #0026606 #026606 #26606 0026606,1152 SOUTH HAIRSTON ROAD,GA,30088
Zaxby's,LINCOLNTON,26701,26701 #0026701 #026701 #26701 0026701,922 E. MAIN STREET,NC,28092
Zaxby's,MACCLENNY,26801,26801 #0026801 #026801 #26801 0026801,1500 S. 6TH STREET,FL,32063
Zaxby's,MARIANNA,26901,26901 #0026901 #026901 #26901 0026901,4235 LAFAYETTE ST,FL,32446
Zaxby's,SYLACAUGA,27301,27301 #0027301 #027301 #27301 0027301,41350 US HIGHWAY 280,AL,35150
Zaxby's,VESTAVIA HILLS,27302,27302 #0027302 #027302 #27302 0027302,1304 MONTGOMERY HIGHWAY,AL,35216
Zaxby's,TALLAHASSEE,27501,27501 #0027501 #027501 #27501 0027501,180 CAPITAL CIRCLE SW,FL,32304
Zaxby's,ATHENS,27601,27601 #0027601 #027601 #27601 0027601,221 FRENCH FARMS BLVD,AL,35611
Zaxby's,HUNTSVILLE,27701,27701 #0027701 #027701 #27701 0027701,6125 UNIVERSITY DRIVE,AL,35806
Zaxby's,MAUMELLE,28001,28001 #0028001 #028001 #28001 0028001,104 CARNAHAN DRIVE,AR,72113
Zaxby's,SHERWOOD,28002,28002 #0028002 #028002 #28002 0028002,208 BROOKSWOOD ROAD,AR,72120
Zaxby's,JACKSONVILLE,28003,28003 #0028003 #028003 #28003 0028003,209 MARSHALL ROAD,AR,72076
Zaxby's,PHENIX CITY,28101,28101 #0028101 #028101 #28101 0028101,3722 SOUTH RAILROAD STREET,AL,36870
Zaxby's,ALEXANDER CITY,28102,28102 #0028102 #028102 #28102 0028102,4497 HWY 280,AL,35010
Zaxby's,COLUMBUS,28103,28103 #0028103 #028103 #28103 0028103,7626 SCHOMBURG ROAD,GA,31909
Zaxby's,COLUMBUS,28104,28104 #0028104 #028104 #28104 0028104,1915 AUBURN AVENUE,GA,31906
Zaxby's,COLUMBUS,28105,28105 #0028105 #028105 #28105 0028105,6190 BRADLEY PARK DR,GA,31904
Zaxby's,RALEIGH,28401,28401 #0028401 #028401 #28401 0028401,4150 FAYETTEVILLE RD.,NC,27603
Zaxby's,JACKSONVILLE,28501,28501 #0028501 #028501 #28501 0028501,7122 BONNEVAL RD.,FL,32256
Zaxby's,JACKSONVILLE,28503,28503 #0028503 #028503 #28503 0028503,12301 SAN JOSE BLVD.,FL,32223
Zaxby's,LAVONIA,28601,28601 #0028601 #028601 #28601 0028601,14265 JONES STREET,GA,30553
Zaxby's,OOLTEWAH,28701,28701 #0028701 #028701 #28701 0028701,8884 OLD LEE HWY,TN,37363
Zaxby's,ROCKY MOUNT,28801,28801 #0028801 #028801 #28801 0028801,1410 JEFFERYS RD.,NC,27804
Zaxby's,COLUMBIA,28901,28901 #0028901 #028901 #28901 0028901,222 S. JAMES CAMPBELL BLVD.,TN,38401
Zaxby's,ATLANTA,29001,29001 #0029001 #029001 #29001 0029001,2530 FLAT SHOALS ROAD,GA,30349
Zaxby's,OPELIKA,29101,29101 #0029101 #029101 #29101 0029101,2089 FREDERICK ROAD,AL,36801
Zaxby's,VALLEY,29102,29102 #0029102 #029102 #29102 0029102,507 FOB JAMES DRIVE,AL,36854
Zaxby's,ATLANTA,29201,29201 #0029201 #029201 #29201 0029201,3770 PRINCETON LAKES PKWY,GA,30331
Zaxby's,MABLETON,29401,29401 #0029401 #029401 #29401 0029401,5090 FLOYD ROAD SW,GA,30126
Zaxby's,BLYTHEVILLE,29501,29501 #0029501 #029501 #29501 0029501,3704 E. MAIN ST,AR,72315
Zaxby's,PARAGOULD,29601,29601 #0029601 #029601 #29601 0029601,2907 W KINGS HWY,AR,72450
Zaxby's,FERNANDINA BEACH,30201,30201 #0030201 #030201 #30201 0030201,1905 SOUTH 14TH STREET,FL,32034
Zaxby's,CHATSWORTH,30301,30301 #0030301 #030301 #30301 0030301,1015 N 3RD AVENUE,GA,30705
Zaxby's,FRANKLIN,30401,30401 #0030401 #030401 #30401 0030401,1551 NASHVILLE RD,KY,42134
Zaxby's,MURRAY,30402,30402 #0030402 #030402 #30402 0030402,1209 NORTH 12TH STREET,KY,42071
Zaxby's,MOBILE,30701,30701 #0030701 #030701 #30701 0030701,3444 SPRING HILL AVE,AL,36608
Zaxby's,CONCORD,30801,30801 #0030801 #030801 #30801 0030801,355 COPPERFIELD BLVD NE,NC,28025
Zaxby's,CLINTON,30901,30901 #0030901 #030901 #30901 0030901,99 HWY 80 EAST,MS,39056
Zaxby's,MACON,31201,31201 #0031201 #031201 #31201 0031201,6375 ZEBULON RD.,GA,31220
Zaxby's,LEXINGTON,31302,31302 #0031302 #031302 #31302 0031302,531 WEST NEW CIRCLE ROAD,KY,40511
Zaxby's,GEORGETOWN,31304,31304 #0031304 #031304 #31304 0031304,1133 LEXINGTON ROAD,KY,40324
Zaxby's,FAIRBURN,31501,31501 #0031501 #031501 #31501 0031501,5350 CAMPBELLTON FAIRBURN ROAD,GA,30213
Zaxby's,ALPHARETTA,31901,31901 #0031901 #031901 #31901 0031901,3355 NORTH POINT PARKWAY,GA,30005
Zaxby's,CONWAY,32001,32001 #0032001 #032001 #32001 0032001,3800 DAVE WARD DR.,AR,72034
Zaxby's,KNIGHTDALE,32201,32201 #0032201 #032201 #32201 0032201,6702 HWY. 64 E.,NC,27545
Zaxby's,SEARCY,32401,32401 #0032401 #032401 #32401 0032401,1303 E. BEEBE CAPPS EXPY,AR,72143
Zaxby's,MACON,32501,32501 #0032501 #032501 #32501 0032501,1680 BASS ROAD,GA,31210
Zaxby's,ASHEVILLE,32701,32701 #0032701 #032701 #32701 0032701,1333 TUNNEL RD,NC,28805
Zaxby's,CABOT,33001,33001 #0033001 #033001 #33001 0033001,2215 WEST MAIN ST.,AR,72023
Zaxby's,WARNER ROBINS,33101,33101 #0033101 #033101 #33101 0033101,505 BOOTH ROAD,GA,31088
Zaxby's,CAIRO,33401,33401 #0033401 #033401 #33401 0033401,721 US HIGHWAY 84 EAST,GA,39828
Zaxby's,JACKSONVILLE,33701,33701 #0033701 #033701 #33701 0033701,13973 VILLAGE LAKE CIRCLE,FL,32258
Zaxby's,JACKSONVILLE,33702,33702 #0033702 #033702 #33702 0033702,4875 GATE PARKWAY,FL,32246
Zaxby's,VAN BUREN,33801,33801 #0033801 #033801 #33801 0033801,2221 FAYETTEVILLE ROAD,AR,72956
Zaxby's,MILTON,33901,33901 #0033901 #033901 #33901 0033901,13788 HWY 9,GA,30004
Zaxby's,ANNISTON,34001,34001 #0034001 #034001 #34001 0034001,3234 MCCLELLAN BLVD.,AL,36201
Zaxby's,OXFORD,34101,34101 #0034101 #034101 #34101 0034101,91 COLONIAL DR.,AL,36203
Zaxby's,CHATTANOOGA,34201,34201 #0034201 #034201 #34201 0034201,7328 SHALLOWFORD ROAD,TN,37421
Zaxby's,MUSCLE SHOALS,34301,34301 #0034301 #034301 #34301 0034301,2017 EAST AVALON AVENUE,AL,35661
Zaxby's,BRYANT,34501,34501 #0034501 #034501 #34501 0034501,2207 NORTH REYNOLDS ROAD,AR,72022
Zaxby's,WINCHESTER,34601,34601 #0034601 #034601 #34601 0034601,2909 DECHERD BOULEVARD,TN,37398
Zaxby's,LEXINGTON,34701,34701 #0034701 #034701 #34701 0034701,1759 SOUTH LAKE DRIVE,SC,29073
Zaxby's,CLARKSVILLE,34801,34801 #0034801 #034801 #34801 0034801,1694 FORT CAMPBELL BOULEVARD,TN,37042
Zaxby's,RALEIGH,35001,35001 #0035001 #035001 #35001 0035001,2901 HILLSBOROUGH STREET,NC,27607
Zaxby's,RALEIGH,35101,35101 #0035101 #035101 #35101 0035101,8812 HARVEST OAKS DRIVE,NC,27615
Zaxby's,BARTOW,35301,35301 #0035301 #035301 #35301 0035301,590 NORTH BROADWAY AVENUE,FL,33830
Zaxby's,CHARLESTON,35402,35402 #0035402 #035402 #35402 0035402,3476 SHELBY RAY CT.,SC,29414
Zaxby's,LILLINGTON,35602,35602 #0035602 #035602 #35602 0035602,1665 NORTH MAIN STREET,NC,27546
Zaxby's,UNION CITY,35801,35801 #0035801 #035801 #35801 0035801,6801 SHANNON WAY,GA,30291
Zaxby's,COLUMBUS,35901,35901 #0035901 #035901 #35901 0035901,1729 HIGHWAY 45 NORTH,MS,39705
Zaxby's,SPRINGFIELD,36001,36001 #0036001 #036001 #36001 0036001,3509 TOM AUSTIN HIGHWAY,TN,37172
Zaxby's,GOLDSBORO,36101,36101 #0036101 #036101 #36101 0036101,104 NORTH BERKELEY BOULEVARD,NC,27534
Zaxby's,MONTGOMERY,36201,36201 #0036201 #036201 #36201 0036201,2675 ZELDA ROAD,AL,36106
Zaxby's,FORT WALTON BEACH,36301,36301 #0036301 #036301 #36301 0036301,106 EGLIN PARKWAY NE,FL,32548
Zaxby's,BOAZ,36401,36401 #0036401 #036401 #36401 0036401,2221 HIGHWAY 431,AL,35957
Zaxby's,DANVILLE,36501,36501 #0036501 #036501 #36501 0036501,304 SKYWATCH DRIVE,KY,40422
Zaxby's,CHATTANOOGA,36701,36701 #0036701 #036701 #36701 0036701,4815 HIGHWAY 58,TN,37416
Zaxby's,LEXINGTON,36801,36801 #0036801 #036801 #36801 0036801,390 WEST CHURCH STREET,TN,38351
Zaxby's,GADSDEN,36901,36901 #0036901 #036901 #36901 0036901,1510 RAINBOW DRIVE,AL,35901
Zaxby's,AMERICUS,37001,37001 #0037001 #037001 #37001 0037001,1204 CRAWFORD STREET,GA,31709
Zaxby's,EASTMAN,37101,37101 #0037101 #037101 #37101 0037101,6355 OAK STREET,GA,31023
Zaxby's,ROCK HILL,37301,37301 #0037301 #037301 #37301 0037301,2889 HECKLE BOULEVARD,SC,29732
Zaxby's,JEFFERSONVILLE,37501,37501 #0037501 #037501 #37501 0037501,2740 ALLISON LANE,IN,47130
Zaxby's,WARNER ROBINS,37601,37601 #0037601 #037601 #37601 0037601,401 N. DAVIS DR.,GA,31093
Zaxby's,PELHAM,37801,37801 #0037801 #037801 #37801 0037801,3437 PELHAM PARKWAY,AL,35124
Zaxby's,BIRMINGHAM,37802,37802 #0037802 #037802 #37802 0037802,110 DOUG BAKER BLVD,AL,35242
Zaxby's,BIRMINGHAM,37803,37803 #0037803 #037803 #37803 0037803,2735 JOHN HAWKINS PKWY,AL,35244
Zaxby's,BIRMINGHAM,37804,37804 #0037804 #037804 #37804 0037804,2636 VALLEYDALE ROAD,AL,35244
Zaxby's,BIRMINGHAM,37805,37805 #0037805 #037805 #37805 0037805,4629 HIGHWAY 280 SOUTH,AL,35242
Zaxby's,CALERA,37806,37806 #0037806 #037806 #37806 0037806,102 LIMESTONE PARKWAY,AL,35040
Zaxby's,HELENA,37807,37807 #0037807 #037807 #37807 0037807,30 COALMONT RD,AL,35080
Zaxby's,TIFTON,37901,37901 #0037901 #037901 #37901 0037901,2201 TIFT AVENUE NORTH,GA,31794
Zaxby's,ELBERTON,38001,38001 #0038001 #038001 #38001 0038001,614 ELBERT STREET,GA,30635
Zaxby's,LOUISVILLE,38101,38101 #0038101 #038101 #38101 0038101,807 BLANKENBAKER PARKWAY,KY,40243
Zaxby's,ORLANDO,38301,38301 #0038301 #038301 #38301 0038301,11554 UNIVERSITY BOULEVARD,FL,32817
Zaxby's,CLAYTON,38501,38501 #0038501 #038501 #38501 0038501,43 BO JAMES STREET,GA,30525
Zaxby's,ENTERPRISE,38601,38601 #0038601 #038601 #38601 0038601,623 BOLL WEEVIL CIRCLE,AL,36330
Zaxby's,RIVERDALE,38701,38701 #0038701 #038701 #38701 0038701,7541 HIGHWAY 85,GA,30296
Zaxby's,BENTONVILLE,38801,38801 #0038801 #038801 #38801 0038801,3510 SE J STREET,AR,72712
Zaxby's,SPRINGDALE,38802,38802 #0038802 #038802 #38802 0038802,400 S THOMPSON ST,AR,72764
Zaxby's,FAYETTEVILLE,38803,38803 #0038803 #038803 #38803 0038803,1670 MARTIN LUTHER KING JR BLVD,AR,72701
Zaxby's,SILOAM SPRINGS,38804,38804 #0038804 #038804 #38804 0038804,190 NORTH PROGRESS AVENUE,AR,72761
Zaxby's,FAYETTEVILLE,38805,38805 #0038805 #038805 #38805 0038805,3251 NORTH COLLEGE AVE,AR,72703
Zaxby's,PELL CITY,38901,38901 #0038901 #038901 #38901 0038901,280 VAUGHN LANE,AL,35125
Zaxby's,SAVANNAH,39301,39301 #0039301 #039301 #39301 0039301,1935 MONTGOMERY CROSS ROAD,GA,31406
Zaxby's,MARYVILLE,39401,39401 #0039401 #039401 #39401 0039401,2335 MARKETPLACE DRIVE,TN,37801
Zaxby's,LENOIR CITY,39402,39402 #0039402 #039402 #39402 0039402,855 HWY 321 NORTH,TN,37771
Zaxby's,DAPHNE,39601,39601 #0039601 #039601 #39601 0039601,29680 URGENT CARE DRIVE,AL,36526
Zaxby's,OCALA,39701,39701 #0039701 #039701 #39701 0039701,3351 WEST SILVER SPRINGS BOULEVARD,FL,34475
Zaxby's,CARY,39801,39801 #0039801 #039801 #39801 0039801,1021 NORTH HARRISON AVENUE,NC,27513
Zaxby's,DALTON,40001,40001 #0040001 #040001 #40001 0040001,872 COLLEGE DRIVE,GA,30720
Zaxby's,ASHEVILLE,40301,40301 #0040301 #040301 #40301 0040301,330 NEW LEICESTER HIGHWAY,NC,28806
Zaxby's,WEAVERVILLE,40302,40302 #0040302 #040302 #40302 0040302,60 WEAVER BLVD,NC,28787
Zaxby's,ASHEVILLE,40303,40303 #0040303 #040303 #40303 0040303,425 SMOKEY PARK HWY,NC,28806
Zaxby's,TALLAHASSEE,40401,40401 #0040401 #040401 #40401 0040401,2901 MAHAN DRIVE,FL,32308
Zaxby's,ANTIOCH,40501,40501 #0040501 #040501 #40501 0040501,915 BELL ROAD,TN,37013
Zaxby's,LIVE OAK,40601,40601 #0040601 #040601 #40601 0040601,6861 HIGHWAY 129,FL,32060
Zaxby's,RICHMOND HILL,40701,40701 #0040701 #040701 #40701 0040701,80 EXCHANGE STREET,GA,31324
Zaxby's,WINTER HAVEN,40801,40801 #0040801 #040801 #40801 0040801,797 3RD STREET SW,FL,33880
Zaxby's,TAMPA,40901,40901 #0040901 #040901 #40901 0040901,4201 WEST HILLSBOROUGH AVE,FL,33614
Zaxby's,PALATKA,41001,41001 #0041001 #041001 #41001 0041001,423 N STATE RD 19,FL,32177
Zaxby's,GREENSBORO,41301,41301 #0041301 #041301 #41301 0041301,1657 NEW GARDEN ROAD,NC,27410
Zaxby's,LAURENS,41401,41401 #0041401 #041401 #41401 0041401,400 EXCHANGE DRIVE,SC,29360
Zaxby's,FUQUAY VARINA,41601,41601 #0041601 #041601 #41601 0041601,1341 N. MAIN ST.,NC,27526
Zaxby's,CHATTANOOGA,41901,41901 #0041901 #041901 #41901 0041901,623 SIGNAL MOUNTAIN ROAD,TN,37405
Zaxby's,EUFAULA,42001,42001 #0042001 #042001 #42001 0042001,3188 SOUTH EUFAULA AVE,AL,36027
Zaxby's,JACKSONVILLE,42301,42301 #0042301 #042301 #42301 0042301,4210 UNIVERSITY BLVD,FL,32216
Zaxby's,LOUISVILLE,42401,42401 #0042401 #042401 #42401 0042401,5025 MUD LANE,KY,40229
Zaxby's,FRANKFORT,42501,42501 #0042501 #042501 #42501 0042501,1375 VERSAILLES ROAD,KY,40601
Zaxby's,WHITE HOUSE,42601,42601 #0042601 #042601 #42601 0042601,800 HIGHWAY 76,TN,37188
Zaxby's,WEST MONROE,42701,42701 #0042701 #042701 #42701 0042701,145 WALLACE DEAN RD,LA,71291
Zaxby's,WEST RUSTON,42702,42702 #0042702 #042702 #42702 0042702,1103 SOUTH SERVICE RD,LA,71270
Zaxby's,OAK RIDGE,42801,42801 #0042801 #042801 #42801 0042801,1007 OAK RIDGE TURNPIKE,TN,37830
Zaxby's,SUWANEE,43201,43201 #0043201 #043201 #43201 0043201,3125 MATHIS AIRPORT PARKWAY,GA,30024
Zaxby's,LOUISVILLE,43501,43501 #0043501 #043501 #43501 0043501,10715 DIXIE HWY,KY,40272
Zaxby's,GASTONIA,43701,43701 #0043701 #043701 #43701 0043701,3460 E. FRANKLIN BLVD.,NC,28056
Zaxby's,HAMPTON,43801,43801 #0043801 #043801 #43801 0043801,2201 TODDS LANE,VA,23666
Zaxby's,NEW ALBANY,44001,44001 #0044001 #044001 #44001 0044001,2870 TECHNOLOGY AVE,IN,47150
Zaxby's,NEW BERN,44101,44101 #0044101 #044101 #44101 0044101,2006 SOUTH GLENBURNIE RD,NC,28562
Zaxby's,SAVANNAH,44201,44201 #0044201 #044201 #44201 0044201,1917 EAST VICTORY DRIVE,GA,31404
Zaxby's,CLANTON,44401,44401 #0044401 #044401 #44401 0044401,1490 7TH ST. S.,AL,35045
Zaxby's,GARDENDALE,44501,44501 #0044501 #044501 #44501 0044501,885 ODUM RD.,AL,35071
Zaxby's,MADISON,44601,44601 #0044601 #044601 #44601 0044601,8586 US HWY 72 WEST,AL,35758
Zaxby's,PALM COAST,45001,45001 #0045001 #045001 #45001 0045001,180 CYPRESS EDGE DRIVE,FL,32164
Zaxby's,JACKSON,45201,45201 #0045201 #045201 #45201 0045201,1155 VANN DRIVE,TN,38305
Zaxby's,JACKSON,45202,45202 #0045202 #045202 #45202 0045202,222 OIL WELL ROAD,TN,38305
Zaxby's,ANDALUSIA,45301,45301 #0045301 #045301 #45301 0045301,1000 RIVER FALLS ST,AL,36420
Zaxby's,POOLER,45401,45401 #0045401 #045401 #45401 0045401,175 POOLER PKWY.,GA,31322
Zaxby's,SPRING,45901,45901 #0045901 #045901 #45901 0045901,8103 LOUETTA ROAD,TX,77379
Zaxby's,HOUSTON,45902,45902 #0045902 #045902 #45902 0045902,11550 FM 1960 WEST ROAD,TX,77065
Zaxby's,SPRING,45903,45903 #0045903 #045903 #45903 0045903,20818 INTERSTATE 45,TX,77373
Zaxby's,WAKE FOREST,46101,46101 #0046101 #046101 #46101 0046101,995 DURHAM ROAD,NC,27587
Zaxby's,TUCKER,46201,46201 #0046201 #046201 #46201 0046201,4409 HUGH HOWELL RD.,GA,30084
Zaxby's,DURHAM,46701,46701 #0046701 #046701 #46701 0046701,3820 NORTH ROXBORO STREET,NC,27704
Zaxby's,FULTONDALE,46801,46801 #0046801 #046801 #46801 0046801,1725 MORRIS AVE.,AL,35068
Zaxby's,ATLANTA,47101,47101 #0047101 #047101 #47101 0047101,425 PONCE DE LEON,GA,30308
Zaxby's,WETUMPKA,47201,47201 #0047201 #047201 #47201 0047201,4790 US HWY 231,AL,36123
Zaxby's,HICKORY,48201,48201 #0048201 #048201 #48201 0048201,1330 LENOIR RHYNE BLVD. SE,NC,28602
Zaxby's,JEFFERSON,80101,80101 #0080101 #080101 #80101 0080101,4853 US HWY. 129 NORTH,GA,30549
Zaxby's,DALTON,80102,80102 #0080102 #080102 #80102 0080102,2710 AIRPORT RD,GA,30720
Zaxby's,DAWSONVILLE,80103,80103 #0080103 #080103 #80103 0080103,244 S. 400 CENTER LANE,GA,30534
